 2015  418 1411 30.3 L   6.826 -73.133150.5  RSN 19 0.4 2.8LRSN                1
 GAP=119        1.02       2.8     3.8  5.4 -0.9713E+00  0.3475E+01 -0.5690E-03E
 Epicentro: LOS SANTOS - SANTANDER                                             3
 ACTION:UPD 15-06-03 16:55 OP:cam  STATUS:               ID:20150418141130 L   I
 OLDACT:DUP 15-04-18 22:18 OP:spq  STATUS:               ID:20150418140749d    3
 2015-04-18-1407-48M.COL___275                                                 6
 STAT SP IPHASW D HRMM SECON CODA AMPLIT PERI AZIMU VELO AIN AR TRES W  DIS CAZ7
 BAR2 EZ IP     C 1411 50.76                             170    0.1410 26.4 192 
 BAR2 EZ ES   1   1412  5.53                             170   -0.89 7 26.4 192 
 BAR2 EZ I        1412  6.63       135.9 0.34            167           26.4 192 
 BRR  HZ EP     D 1411 52.55                             153    0.5410 71.1 296 
 BRR  HN ES       1412  9.26                             153    0.3610 71.1 296 
 BRR  HZ I        1412 12.35       148.4 0.28            151           71.1 296 
 PAM  SZ EP       1411 53.40                             153    0.5110 74.2  40 
 PAM  SN ES       1412 10.54                             153    0.0610 74.2  40 
 PAM  SZ I        1412 12.62       189.5 0.48            156           74.2  40 
 RUS  HZ EP       1411 54.85                             144    0.0810  103 177 
 RUS  HE ES       1412 13.64                             144   -0.1810  103 177 
 RUS  HZ I        1412 14.72        36.0 0.34            144            103 177 
 PTB  HZ EP       1411 57.23                             133   -0.66 9  150 258 
 PTB  HN ES       1412 18.50                             133   -0.86 9  150 258 
 PTB  HZ I        1412 19.89        67.2 0.18            131            150 258 
 OCA  HZ EP       1411 58.70                             131   -0.08 9  158 353 
 OCA  HE ES       1412 20.79                             131   -0.17 9  158 353 
 OCA  HZ I        1412 25.46       160.4 0.32            132            158 353 
 SPBC HZ EP       1411 59.61                             130    0.10 9  166 219 
 SPBC HN ES       1412 22.80                             130    0.54 9  166 219 
 SPBC HZ I        1412 28.94        83.0 0.26            129            166 219 
 ZAR  HZ EP       1412  3.33                             123    0.20 9  204 291 
 ZAR  HE ES       1412 29.31                             123    0.61 9  204 291 
 ZAR  HZ I        1412 35.09       101.0 0.46            123            204 291 
 NOR  HZ EP       1412  6.67                             119    0.01 8  238 234 
 NOR  HE ES       1412 34.81                             119   -0.17 8  238 234 
 NOR  HZ I        1412 39.41        26.9 0.22            119            238 234 
 SML  HZ EP       1412  6.86                             119   -0.17 8  242 335 
 SML  HN ES   1   1412 35.34                             119   -0.30 6  242 335 
 ROSC BZ EP   4   1412 10.72                             117    1.64 0  256 211 
 ROSC BN ES   4   1412 41.63                             117    2.34 0  256 211 
 ROSC BZ I        1412 46.20        58.8 0.35            117            256 211 
 HEL  HZ EP   4   1412 13.03                             115    1.99 0  274 255 
 HEL  HE ES   4   1412 45.62                             115    2.84 0  274 255 
 HEL  HZ I        1412 49.04        36.1 0.38            115            274 255 
 GUY2CHZ EP   4   1412 15.96                             113    1.46 0  304 234 
 GUY2CHN ES   4   1412 50.78                             113    1.84 0  304 234 
 GUY2CHZ I        1412 59.31        20.1 0.62                           304 234 
 VIL  SN ES   1   1412 49.30                             113    0.65 5  306 192 
 VIL  SZ I        1412 53.14        30.7 0.64            113            306 192 
 PTGC HZ EP       1412 14.22                             112   -0.45 7  311 159 
 PTGC HE ES   4   1412 47.47                             112   -1.77 0  311 159 
 PTGC HZ I        1412 50.25        33.2 0.30            113            311 159 
 DBB  SZ ES   1   1412 55.63                             110    0.18 5  341 274 
 MON  HZ EP   4   1412 17.98                             109   -1.48 0  353 308 
 MON  HE ES   4   1412 56.46                             109   -1.31 0  353 308 
 MON  HZ I        1412 59.46        11.5 0.26            110            353 308 
 ORTC HZ EP   4   1412 26.24                             107    1.43 0  399 216 
 ORTC HE ES   4   1413  8.69                             107    1.41 0  399 216 
 ORTC HZ I        1413 13.35        19.8 0.44            107            399 216 
 SJC  HZ EP       1412 24.99                             106   -0.89 6  408 327 
 SJC  HE ES   4   1413  6.63                             106   -2.56 0  408 327 
 SJC  HZ I        1413 10.15        20.2 0.50            107            408 327 
 CRJC HZ EP   4   1412 31.12                             104   -1.51 0  465   3 
 CRJC HN ES   4   1413 17.75                             104   -3.46 0  465   3 
                                                                                
