 2014 1118 1754 13.9 L   6.794 -73.125148.9  RSN  6 0.3 1.6LRSN                1
 GAP=139        0.79       3.8     4.0  5.4 -0.3849E+01  0.2840E+01  0.2197E+01E
 Epicentro: LOS SANTOS - SANTANDER                                             3
 ACTION:UPD 14-12-19 15:44 OP:nd   STATUS:               ID:20141118175413 L   I
 OLDACT:ARG 14-11-18 23:39 OP:stll STATUS:               ID:20141118174745     3
 2014-11-18-1747-45M.COL___277                                                 6
 STAT SP IPHASW D HRMM SECON CODA AMPLIT PERI AZIMU VELO AIN AR TRES W  DIS CAZ7
 BAR2 SZ EP       1754 33.93                             171    0.0210 23.2 196 
 BAR2 SZ I        1754 34.26         8.8 0.36            171           23.2 196 
 BAR2 SZ ES       1754 49.64                             171    0.1210 23.2 196 
 BRR  HZ EP       1754 35.81                             152    0.2910 73.5 298 
 BRR  HN ES       1754 52.76                             152    0.3710 73.5 298 
 PAM  SZ EP       1754 36.42                             152    0.0210 76.5  38 
 PAM  SN ES       1754 53.69                             152   -0.2610 76.5  38 
 PAM  SZ I        1754 55.68        10.9 0.58            151           76.5  38 
 RUS  HZ EP       1754 38.09                             145    0.1810 99.8 177 
 RUS  HZ I        1754 38.87         2.8 0.10            145           99.8 177 
 RUS  HN ES       1754 56.29                             145   -0.3510 99.8 177 
 PTB  HZ EP       1754 40.88                             132   -0.44 9  150 259 
 PTB  HN ES       1755  2.20                             132   -0.50 9  150 259 
 PTB  HZ I        1755  4.56         3.5 0.42            132            150 259 
 SPBC HZ EP       1754 42.87                             130    0.13 9  164 220 
 SPBC HZ I        1754 43.40         5.7 0.22            130            164 220 
 SPBC HE ES       1755  5.62                             130    0.39 9  164 220 
                                                                                
