 2014  618 1359 23.4 L   6.789 -73.142152.9  RSN  7 0.5 1.9LRSN                1
 GAP=138        1.23       6.2     5.8  8.9  0.2864E+01  0.1924E+02  0.1261E+02E
 Epicentro: LOS SANTOS - SANTANDER                                             3
 ACTION:UPD 14-07-01 22:55 OP:nd   STATUS:               ID:20140618135923 L   I
 OLDACT:REG 14-06-18 21:39 OP:y    STATUS:               ID:20140618135817     3
 2014-06-18-1358-17M.COL___265                                                 6
 STAT SP IPHASW D HRMM SECON CODA AMPLIT PERI AZIMU VELO AIN AR TRES W  DIS CAZ7
 BAR2 SZ EP       1359 43.88                             171   -0.0110 22.2 192 
 BAR2 SZ ES       1359 59.34                             171   -0.5110 22.2 192 
 BAR2 SZ I        14 0  0.84         9.5 0.48            170           22.2 192 
 BRR  HZ EP       1359 46.04                             153    0.6410 72.2 299 
 BRR  HN ES       14 0  3.26                             153    0.7210 72.2 299 
 BRR  HZ I        14 0  4.27        46.8 0.96            151           72.2 299 
 PAM  SE ES       14 0  3.98                             152   -0.4110 78.0  39 
 PAM  SZ I        14 0  6.17        20.8 0.56            155           78.0  39 
 RUS  HZ EP       1359 48.32                             146    0.5310 99.3 176 
 RUS  HN ES       14 0  6.93                             146    0.1310 99.3 176 
 RUS  HZ I        14 0  8.20         5.0 0.50            147           99.3 176 
 PTB  HZ EP       1359 50.04                             133   -0.95 9  148 259 
 PTB  HN ES       14 0 12.35                             133   -0.15 9  148 259 
 PTB  HZ I        14 0 17.81         7.7 0.30            133            148 259 
 ZAR  HE ES       14 0 22.06                             124   -0.11 9  205 292 
 ZAR  HZ I        14 0 29.40         6.5 0.32            123            205 292 
 NOR  HZ EP       1359 59.39                             120   -0.14 8  234 235 
 NOR  HE ES       14 0 27.76                             120    0.06 8  234 235 
 NOR  HZ I        14 0 32.59         5.0 0.16            120            234 235 
                                                                                
