 2011 1218 1516 20.9 L   6.685 -73.063137.0  RSN  6 0.3 1.5LRSN                1
 GAP=152        0.71       4.4     6.9  6.4 -0.5517E+01 -0.6193E+00  0.4969E+01E
 Epicentro: ARATOCA - SANTANDER                                                3
 ACTION:UPD 12-07-13 16:17 OP:ep   STATUS:               ID:20111218151620 L   I
 2011-12-18-1510-00M.COL___187                                                 6
 STAT SP IPHASW D HRMM SECON CODA AMPLIT PERI AZIMU VELO AIN AR TRES W  DIS CAZ7
 BAR2 SZ EP       1516 39.45                             173    0.1010 16.7 232 
 BAR2 SZ ES   1   1516 54.14                             173    0.40 7 16.7 232 
 BAR2 SZ I        1516 58.37         7.0 0.34                          16.7 232 
 PAM  SZ EP       1516 42.40                             147   -0.1310 82.8  29 
 PAM  SN ES   1   1516 59.61                             147    0.20 7 82.8  29 
 BRR  HZ EP   1   1516 41.45                             146   -0.57 7 85.6 303 
 BRR  HZ I        1516 53.05         7.5 0.41                          85.6 303 
 BRR  HN ES   1   1516 58.48                             146   -0.01 7 85.6 303 
 RUS  HZ EP   1   1516 42.93                             146    0.07 7 87.6 181 
 RUS  HN ES   1   1516 59.45                             146   -0.54 7 87.6 181 
 CTAU SZ EP   1   1516 53.31                             122    0.65 6  197 214 
 CTAU SZ I        1517 25.85         3.7 0.47                           197 214 
 CHI  HZ EP   2   1516 57.09                             116    0.03 4  239 198 
                                                                                
