 2012 1118 1320 55.8 L   6.804 -73.164141.8  RSN  6 0.6 1.6LRSN                1
 GAP=134        1.69      12.7     9.0 11.8 -0.3521E+02 -0.5892E+00  0.5022E+02E
 Epicentro: LOS SANTOS - SANTANDER                                             3
 ACTION:UPD 12-12-05 15:34 OP:}ep  STATUS:               ID:20121118132055 L   I
 2012-11-18-1320-00M.COL___234                                                 6
 STAT SP IPHASW D HRMM SECON CODA AMPLIT PERI AZIMU VELO AIN AR TRES W  DIS CAZ7
 BAR2 SZ EP       1321 14.93                             170   -0.0610 23.5 185 
 BAR2 SZ ES       1321 30.02                             170    0.0910 23.5 185 
 BAR2 SZ I        1321 32.01         9.3 0.48                          23.5 185 
 GIR2 SZ EP       1321 14.99                             167   -0.0310 30.5 354 
 GIR2 SZ ES       1321 29.95                             167   -0.0310 30.5 354 
 BRR  HZ EP       1321 16.69                             152    0.2510 69.2 299 
 BRR  HN ES       1321 33.86                             152    1.3510 69.2 299 
 BRR  HN I        1321 34.47        15.2 0.24                          69.2 299 
 PAM  SZ EP       1321 17.81                             150    0.1210 78.4  41 
 PAM  SN ES       1321 33.81                             150   -0.9310 78.4  41 
 PAM  SN I        1321 36.57         3.9 0.54                          78.4  41 
 RUS  HZ EP       1321 19.70                             143    0.4510  101 175 
 PTB  HZ EP       1321 22.23                             131   -0.08 9  146 259 
 PTB  HN ES       1321 41.65                             131   -1.30 9  146 259 
 PTB  HN I        1321 47.88         3.5 0.50                           146 259 
                                                                                
