 2017  718 1417 42.4 L   6.670 -73.180136.4  RSN  6 0.5 1.6LRSN                1
 GAP=223        1.16       8.7     8.5  8.1  0.4852E+02 -0.1376E+02 -0.2344E+02E
 Epicentro: VILLANUEVA - SANTANDER                                             3
 ACTION:UPD 17-08-30 15:34 OP:rebc STATUS:               ID:20170718141742 L   I
 OLDACT:REG 17-07-18 20:29 OP:lv   STATUS:               ID:20170718140743     3
 2017-07-18-1408-00M.COL___383                                                 6
 STAT SP IPHASW D HRMM SECON CODA AMPLIT PERI AZIMU VELO AIN AR TRES W  DIS CAZ7
 BAR2 EZ EP       1418  0.08                             176   -0.5910 8.66 182 
 BAR2 EZ ES       1418 14.65                             176   -0.2810 8.66 182 
 BAR2 EZ I        1418 16.18        14.0 0.21             47           8.66 182 
 BRR  HZ EP       1418  3.63                             149    0.8110 76.1 309 
 BRR  HN ES       1418 18.92                             149    0.1510 76.1 309 
 RUS  HZ EP       1418  3.94                             146   -0.2810 86.7 173 
 RUS  HN ES       1418 21.70                             146    0.4410 86.7 173 
 RUS  HZ I        1418 23.28         5.0 0.20             47           86.7 173 
 PTB  HZ EP   9   1418  6.94                             131   -1.12 0  142 264 
 PTB  HN ES       1418 27.39                                    0.43 9  142 264 
 PTB  HZ I        1418 30.98         3.8 0.15             47            142 264 
 ZAR  HZ EP       1418 14.66                             120    0.17 8  206 296 
 ZAR  HN ES       1418 39.00                             120   -0.53 8  206 296 
 ZAR  HZ I        1418 45.06         5.2 0.26             47            206 296 
 NOR  HZ EP   9   1418 18.11                             118    1.74 0  223 237 
 NOR  HN ES       1418 44.20                                   -0.42 8  223 237 
 NOR  HZ I        1418 45.99         2.6 0.14             47            223 237 
 SJC  HZ EP   4   1418 34.81                             104   -4.04 0  419 328 
 SJC  HN ES   4   1419 15.29                             104   -7.60 0  419 328 
                                                                                
