 2011  618 1755 56.6 L   6.774 -73.107148.0  RSN  9 0.2 2.1LRSN                1
 GAP=160        0.55       2.4     4.4  4.2 -0.3728E+01  0.6647E+00  0.4010E+00E
 Epicentro: LOS SANTOS - SANTANDER                                             3
 ACTION:UP  11-07-14 19:06 OP:ep   STATUS:               ID:20110618175556 L   I
 2011-06-18-1752-56S.COL___140                                                 6
 STAT SP IPHASW D HRMM SECON CODA AMPLIT PERI AZIMU VELO SNR AR TRES W  DIS CAZ7
 BAR2 SZ EP       1756 16.46                             171     0.010   22 202 
 BAR2 SZ ES   1   1756 32.12                             171     0.1 7   22 202 
 BAR2 SZ I        1756 33.18        27.0 0.24                            22 202 
 BRR  HZ EP       1756 18.27                             151     0.010   76 299 
 BRR  HZ I        1756 18.54        75.5 0.17                            76 299 
 BRR  HN ES   1   1756 35.50                             151     0.3 7   76 299 
 RUS  HZ EP   1   1756 20.59                             145     0.2 7   98 178 
 RUS  HN ES   1   1756 38.76                             145    -0.1 7   98 178 
 RUS  HZ I        1756 40.22        13.5 0.26                            98 178 
 BRI  SZ EP   1   1756 20.90                             142     0.1 7  110  18 
 GRA  SZ EP       1756 22.17                             137     0.010  127  15 
 GRA  SZ ES   1   1756 41.87                             137    -0.3 7  127  15 
 GRA  SZ I        1756 42.84        11.5 0.35                           127  15 
 OCA  SZ EP   1   1756 25.05                             130    -0.4 7  164 352 
 OCA  SZ ES   1   1756 48.12                             130     0.2 7  164 352 
 OCA  SZ I        1756 53.35        15.7 0.32                           164 352 
 NOR  SZ EP   1   1756 32.86                             119     0.2 6  237 236 
 NOR  SN ES   1   1757  0.28                             119    -0.5 6  237 236 
 CHI  HZ EP   1   1756 34.19                             118    -0.1 6  247 196 
 PRA  HZ EP   1   1756 50.81                             107     0.6 4  392 210 
                                                                                
