 2013  318 1404 27.2 L   6.787 -73.144141.5  RSN  7 0.5 2.6LRSN                1
 GAP=137        1.31       5.6     6.0  8.9 -0.1315E+01  0.1275E+02  0.9968E-01E
 Epicentro: LOS SANTOS - SANTANDER                                             3
 ACTION:UPD 13-04-09 14:03 OP:ep   STATUS:               ID:20130318140427 L   I
 2013-03-18-1400-00M.COL___243                                                 6
 STAT SP IPHASW D HRMM SECON CODA AMPLIT PERI AZIMU VELO AIN AR TRES W  DIS CAZ7
 BAR2 SZ EP       14 4 45.97                             171   -0.2810 21.9 191 
 BAR2 SZ ES       14 5  0.65                             171   -0.4910 21.9 191 
 BRR  HZ IP     C 14 4 48.18                             151    0.2710 72.1 299 
 BRR  HN ES       14 5  5.06                             151    0.9810 72.1 299 
 BRR  HN I        14 5  5.23        63.6 0.24            147           72.1 299 
 PAM  SZ EP       14 4 49.10                             150    0.1110 78.4  39 
 PAM  SN ES       14 5  6.02                             150    0.0110 78.4  39 
 PAM  SN I        14 5  7.03        51.8 0.50            150           78.4  39 
 RUS  HZ EP       14 4 50.88                             143    0.4910 99.1 176 
 RUS  HN ES   1   14 5  8.72                             143    0.22 7 99.1 176 
 PTB  HZ EP       14 4 53.17                             131   -0.61 9  148 259 
 PTB  HN ES       14 5 13.80                             131   -0.74 9  148 259 
 PTB  HN I        14 5 16.39        39.5 0.22            129            148 259 
 OCA  HN ES       14 5 16.57                             128   -0.65 9  162 353 
 OCA  HN I        14 5 19.71       104.7 0.28            127            162 353 
 ZAR  HZ EP       14 4 59.68                             121    0.27 9  205 293 
 ZAR  HN ES   1   14 5 25.32                             121    0.75 6  205 293 
 ZAR  HN I        14 5 32.71        23.1 0.16            120            205 293 
                                                                                
