 2010  118 1409 53.8 L   6.590 -72.890 28.0  RSN  4 0.2 1.3LRSN                1
 GAP=227        0.44       2.6     6.4  6.1 -0.7423E+00 -0.3107E+02  0.5017E+01E
 Epicentro: MOLAGAVITA - SANTANDER                                             3
 ACTION:UP  10-08-24 09:44 OP:vdl  STATUS:               ID:20100118140953 L   I
 2010-01-18-1359-54S.COL___079                                                 6
 STAT SP IPHASW D HRMM SECON CODA AMPLIT PERI AZIMU VELO SNR AR TRES W  DIS CAZ7
 BAR2 SZ IP       1410  0.63                             125    -0.210   32 270 
 BAR2 SZ ES       1410  6.43                             125     0.110   32 270 
 GIR2 SZ EP   1   1410  4.94                             103     0.2 7   64 328 
 RUS  HZ EP   1   1410  7.38                              97    -0.1 7   80 195 
 RUS  HE ES   2   1410 18.43                              97     0.3 5   80 195 
 RUS  HZ I        1410 19.37         6.1 0.16                            80 195 
 CHI  HZ EP   2   1410 27.28                              61     0.3 4  236 203 
 CHI  HE ES   2   1410 52.86                              61    -0.1 4  236 203 
 CHI  HZ I        1410 57.58         2.9 0.39                           236 203 
                                                                                
