 2012 1118 1110 25.0 L   6.804 -73.139150.7  RSN 11 0.5 2.1LRSN 2.7WRSN        1
 SPEC AVERAGE  MO 13.1 ST  3.3 OM  2.0 f0 4.74 R0.3394 AL 2.29 WI 23.3 MW  2.7 3
 SPEC SD       MO  0.3 ST  3.3 OM  0.7 f0 1.45 R0.0964 AL      WI      MW  0.2 3
 GAP=137        1.35       4.0     5.4  7.1  0.5363E+00  0.1098E+02  0.1822E+01E
 Epicentro: LOS SANTOS - SANTANDER                                             3
 SPEC ZAR HH N MO 13.3 ST  8.5 OM  1.5 f0 6.90 R0.2130 AL 2.63 WI 25.9 MW  2.8 3
 SPEC ZAR HH N T111122 K 0.000 GD  254 VS 4.20 DE 3.00 Q0230.0 QA 0.60 VS 4.20 3
 SPEC PTB HH N MO 13.2 ST0.721 OM  1.5 f0 3.22 R0.4565 AL 1.16 WI 24.9 MW  2.7 3
 SPEC PTB HH N T111113 K 0.000 GD  211 VS 4.20 DE 3.00 Q0230.0 QA 0.60 VS 4.20 3
 SPEC RUS HH N MO 12.6 ST0.280 OM  1.0 f0 3.63 R0.4050 AL 1.94 WI 14.8 MW  2.4 3
 SPEC RUS HH N T1111 6 K 0.000 GD  181 VS 4.20 DE 3.00 Q0230.0 QA 0.60 VS 4.20 3
 SPEC BRR HH N MO 13.3 ST  3.8 OM  1.7 f0 5.19 R0.2832 AL 3.43 WI 27.4 MW  2.8 3
 SPEC BRR HH N T1111 3 K 0.000 GD  166 VS 4.20 DE 3.00 Q0230.0 QA 0.60 VS 4.20 3
 ACTION:UPD 12-12-05 15:34 OP:}ep  STATUS:               ID:20121118111025 L   I
 2012-11-18-1110-00M.COL___234                                                 6
 STAT SP IPHASW D HRMM SECON CODA AMPLIT PERI AZIMU VELO AIN AR TRES W  DIS CAZ7
 BAR2 SZ EP       1110 44.90                             171   -0.3610 23.9 192 
 BAR2 SZ ES       1111  1.22                             171    0.1810 23.9 192 
 BAR2 SZ I        1111  3.49        15.7 0.16                          23.9 192 
 GIR2 SZ EP       1110 45.54                             168    0.2610 30.9 349 
 GIR2 SZ ES       1111  1.22                             168    0.1510 30.9 349 
 BRR  HZ EP       1110 47.35                             153    0.6210 71.6 298 
 BRR  HN ES       1111  4.63                             153    0.9710 71.6 298 
 BRR  HN I        1111  7.18        28.0 0.20                          71.6 298 
 PAM  SZ EP       1110 48.20                             152    0.4810 76.5  39 
 PAM  SN ES       1111  5.39                             152   -0.0310 76.5  39 
 PAM  SN I        1111  6.57        16.6 0.22                          76.5  39 
 RUS  HZ EP       1110 49.41                             145    0.1110  101 176 
 RUS  HN ES       1111  7.41                             145   -0.8110  101 176 
 RUS  HN I        1111  9.39        11.5 0.36                           101 176 
 PTB  HZ EP       1110 51.88                             133   -0.60 9  149 259 
 PTB  HN ES       1111 13.37                             133   -0.51 9  149 259 
 PTB  HN I        1111 18.51        21.8 0.28                           149 259 
 OCA  HN ES       1111 15.40                             131   -0.64 9  160 353 
 OCA  HN I        1111 18.86        33.5 0.32                           160 353 
 ZAR  HZ EP       1110 58.07                             123    0.22 9  205 292 
 ZAR  HN ES       1111 23.36                             123   -0.09 9  205 292 
 ZAR  HN I        1111 29.59        15.5 0.56                           205 292 
 SML  HZ EP       1111  2.48                             118    0.56 8  244 335 
 SML  HN ES       1111 29.37                             118   -1.33 8  244 335 
 SML  HN I        1111 39.52        18.9 0.10                           244 335 
 CHI  HZ EP       1111  3.13                             118    0.05 8  249 195 
 CHI  HN ES       1111 32.66                             118   -0.09 8  249 195 
 CHI  HN I        1111 40.39         5.3 0.52                           249 195 
 HEL  HN ES       1111 37.85                             116    0.63 8  273 256 
 HEL  HN I        1111 43.88         3.4 0.44                           273 256 
                                                                                
