 2014 1018 1316 26.3 L   6.786 -73.157141.7  RSN  8 0.5 2.2LRSN                1
 GAP=136        1.34       4.6     5.9  8.6  0.3690E+01  0.1086E+02  0.5172E+01E
 Epicentro: LOS SANTOS - SANTANDER                                             3
 ACTION:UPD 14-11-29 23:50 OP:nd   STATUS:               ID:20141018131626 L   I
 OLDACT:UP  14-10-18 23:28 OP:cam  STATUS:               ID:20141018130820     3
 OLDACT:UP  14-10-18 23:28 OP:cam  STATUS:               ID:20141018130820     3
 OLDACT:REG 14-10-18 20:52 OP:cam\ STATUS:               ID:20141018130820     3
 2014-10-18-1308-20M.COL___279                                                 6
 STAT SP IPHASW D HRMM SECON CODA AMPLIT PERI AZIMU VELO AIN AR TRES W  DIS CAZ7
 BAR2 SZ EP       1316 45.37                             171   -0.0510 21.6 187 
 BAR2 SZ ES       1317  0.69                             171    0.3610 21.6 187 
 BAR2 SZ I        1317  3.15        37.8 0.28            170           21.6 187 
 BRR  HZ EP       1316 47.17                             152    0.1610 70.9 300 
 BRR  HN ES       1317  3.94                             152    0.7910 70.9 300 
 BRR  HN I        1317  4.70        66.8 0.32            154           70.9 300 
 PAM  SZ EP       1316 48.36                             150    0.1310 79.4  40 
 PAM  SN ES       1317  4.34                             150   -0.9810 79.4  40 
 PAM  SN I        1317  7.56        33.5 0.60            152           79.4  40 
 RUS  HZ EP       1316 49.62                             143    0.0610 99.1 175 
 RUS  HN ES       1317  7.73                             143    0.0410 99.1 175 
 RUS  HZ I        1317  9.45         7.7 0.30            145           99.1 175 
 PTB  HZ EP       1316 52.13                             131   -0.68 9  146 259 
 PTB  HN ES       1317 12.82                             131   -0.66 9  146 259 
 PTB  HZ I        1317 15.82         9.9 0.10            133            146 259 
 ZAR  HN ES       1317 23.06                             122   -0.44 9  203 293 
 SML  HN ES       1317 32.25                             117    0.96 8  245 336 
 CHI  HZ EP       1317  3.63                             116    0.04 8  247 195 
 CHI  HN ES       1317 33.22                             116    0.56 8  247 195 
 CHI  HN I        1317 35.47        20.6 0.44            118            247 195 
                                                                                
