 2014  418 1031 40.4 L   6.753 -73.143143.5  RSN  7 0.3 1.7LRSN                1
 GAP=104        0.78       3.3     2.9  5.8 -0.1820E+01  0.3972E+01 -0.1446E+00E
 Epicentro: LOS SANTOS - SANTANDER                                             3
 ACTION:UPD 14-05-13 23:09 OP:nd   STATUS:               ID:20140418103140 L   I
 OLDACT:REG 14-04-18 21:18 OP:stll STATUS:               ID:20140418102808     3
 2014-04-18-1028-08M.COL___236                                                 6
 STAT SP IPHASW D HRMM SECON CODA AMPLIT PERI AZIMU VELO AIN AR TRES W  DIS CAZ7
 PAM  SZ EP       1032  2.50                             149   -0.1110 81.2  37 
 PAM  SZ I        1032  2.83        14.0 0.26            151           81.2  37 
 PAM  SN ES       1032 19.99                             149    0.0610 81.2  37 
 RUS  HZ EP       1032  3.43                             145   -0.1310 95.4 176 
 RUS  HE ES       1032 21.95                             145    0.3310 95.4 176 
 RUS  HZ I        1032 23.74         5.6 0.40            146           95.4 176 
 PTB  HZ EP       1032  6.72                             132   -0.41 9  147 261 
 PTB  HN ES       1032 27.44                             132   -0.53 9  147 261 
 PTB  HZ I        1032 30.39         5.7 0.16            133            147 261 
 TAM  HZ EP       1032  7.65                             130   -0.10 9  154 103 
 SPBC HZ EP       1032  8.26                             129   -0.10 9  159 220 
 SPBC HN ES       1032 30.16                             129   -0.02 9  159 220 
 ZAR  HZ EP       1032 13.08                             121    0.15 8  206 293 
 ZAR  HN ES       1032 38.81                             121    0.50 8  206 293 
 GUY2CHZ EP       1032 24.34                             112    0.74 7  298 236 
 GUY2CHN ES       1032 57.29                             112   -0.00 7  298 236 
 GUY2CHZ I        1033  4.63         2.3 0.26                           298 236 
                                                                                
