 2017  518 1602 11.0 L   6.045 -73.723114.0  RSN 19 0.4 2.4LRSN                1
 GAP= 77        1.11       2.7     2.7  5.8 -0.5880E-01  0.7455E+00 -0.6401E-01E
 Epicentro: VELEZ - SANTANDER                                                  3
 ACTION:UPD 17-06-16 13:37 OP:jn   STATUS:               ID:20170518160211 L   I
 OLDACT:REG 17-05-19 00:05 OP:lv   STATUS:               ID:20170518155253     3
 2017-05-18-1558-00M.COL___356                                                 6
 STAT SP IPHASW D HRMM SECON CODA AMPLIT PERI AZIMU VELO AIN AR TRES W  DIS CAZ7
 SPBC HZ EP       16 2 27.85                             151   -0.2410 58.2 222 
 SPBC HN ES       16 2 41.98                             151    0.5410 58.2 222 
 PTB  HZ EP       16 2 29.99                             137   -0.8810 97.8 304 
 PTB  HN ES       16 2 45.58                             137   -0.8010 97.8 304 
 PTB  HZ I        16 2 48.22        38.3 0.06            140           97.8 304 
 BRR  HZ EP       16 2 32.79                             131    0.2110  117   1 
 BRR  HN ES       16 2 49.82                             131    0.3910  117   1 
 BRR  HZ I        16 2 52.32        37.0 0.07            135            117   1 
 NOR  HZ EP       16 2 34.38                             126   -0.22 9  138 247 
 NOR  HN ES       16 2 53.02                             126   -0.00 9  138 247 
 NOR  HZ I        16 2 54.83        83.1 0.24            128            138 247 
 ROSC BZ EP   9   16 2 36.75                             124    0.59 0  149 206 
 ROSC BN ES       16 2 57.33                                    0.93 9  149 206 
 ROSC BZ I        16 3  3.82        31.3 0.15            125            149 206 
 CHI  HZ EP       16 2 36.37                             122   -0.61 9  157 180 
 CHI  HN ES       16 2 56.78                             122   -0.49 9  157 180 
 CHI  HZ I        16 3  0.30        29.8 0.28            124            157 180 
 YPLC HZ IP     D 16 2 37.50                             121    0.07 9  165 116 
 YPLC HN ES       16 2 58.47                             121    0.40 9  165 116 
 YPLC HZ I        16 3  2.28        24.9 0.12            123            165 116 
 PAM  EZ EP       16 2 40.05                             118    0.24 9  182  38 
 PAM  EN ES       16 3  2.45                             118    0.14 9  182  38 
 PAM  EZ I        16 3  7.25        15.5 0.13            121            182  38 
 HEL  HZ EP       16 2 41.98                             115    0.34 9  201 275 
 HEL  HN ES       16 3  6.32                             115    0.76 9  201 275 
 HEL  HZ I        16 3 10.11        31.4 0.16            118            201 275 
 ZAR  HZ EP       16 2 40.96                             115   -0.53 9  203 322 
 ZAR  HN ES       16 3  5.51                             115    0.22 9  203 322 
 ZAR  HZ I        16 3  7.21        70.1 0.37            118            203 322 
 VIL  EZ EP   4   16 2 41.52                             114   -1.29 0  214 179 
 VIL  EN ES   4   16 3  4.18                             114   -3.47 0  214 179 
 VIL  EZ I        16 3 12.55        38.4 0.34            115            214 179 
 RECRCHE ES   4   16 3 10.14                             113    0.95 0  217 236 
 ELA  HZ EP       16 2 45.36                             112    0.51 8  227 235 
 ELA  HN ES   4   16 3 13.66                             112    2.38 0  227 235 
 ELA  HZ I        16 3 18.98        12.7 0.60            114            227 235 
 ANIL HZ EP       16 2 47.54                             109    0.02 8  253 227 
 ANIL HN ES   4   16 3 18.41                             109    2.38 0  253 227 
 ANIL HZ I        16 3 20.93        49.0 0.29            111            253 227 
 CBOC HZ EP       16 2 47.38                             109   -0.09 8  254 266 
 CBOC HE ES       16 3 15.91                             109   -0.03 8  254 266 
 CBOC HZ I        16 3 19.67        16.1 0.46            111            254 266 
 ORTC HZ EP       16 2 51.66                             106    0.15 7  290 216 
 ORTC HN ES   4   16 3 24.37                             106    1.25 0  290 216 
 ORTC HZ I        16 3 27.28        15.6 0.19            108            290 216 
 DBB  EZ EP       16 2 51.97                             106   -0.17 7  295 291 
 DBB  EN ES   1   16 3 24.81                             106    0.56 5  295 291 
 PAL  HZ EP       16 2 54.25                             105    0.35 7  310 246 
 PAL  HN ES   4   16 3 25.32                             105   -2.07 0  310 246 
 PAL  HZ I        16 3 30.70         9.3 0.12            107            310 246 
 YOT  HZ EP   4   16 3  0.04                             102   -0.94 0  369 232 
 APAC HN ES   1   16 3 41.50                             101    0.30 5  377 303 
 MACC HN ES   4   16 3 50.78                              99   -2.23 0  431 182 
 SJC  HZ EP   4   16 3  9.12                              98   -2.09 0  455 339 
 SJC  HN ES   4   16 3 52.42                              98   -5.78 0  455 339 
 SJC  HZ I        16 3 58.26         3.3 0.52            100            455 339 
                                                                                
