 2012  818 1958  7.0 L   6.724 -73.163150.1  RSN  6 0.3 1.7LRSN                1
 GAP=138        0.66       5.1     4.8  6.0  0.1086E+02 -0.2602E+01 -0.2250E+01E
 Epicentro: VILLANUEVA - SANTANDER                                             3
 ACTION:UPD 12-09-10 11:57 OP:ep   STATUS:               ID:20120818195807 L   I
 2012-08-18-1950-00M.COL___217                                                 6
 STAT SP IPHASW D HRMM SECON CODA AMPLIT PERI AZIMU VELO AIN AR TRES W  DIS CAZ7
 BAR2 SZ EP   1   1958 27.19                             174    0.13 7 14.8 189 
 BAR2 SZ ES   1   1958 42.46                             174   -0.21 7 14.8 189 
 BAR2 SZ I        1958 43.78        25.3 0.21                          14.8 189 
 BRR  HZ EP       1958 28.96                             152    0.1410 74.0 305 
 BRR  HN ES       1958 46.12                             152    0.3110 74.0 305 
 PAM  SZ EP   1   1958 29.60                             149   -0.59 7 85.1  37 
 PAM  SZ I        1958 30.16         6.4 0.16                          85.1  37 
 RUS  HZ EP       1958 30.97                             147    0.3110 92.4 175 
 RUS  HE ES   1   1958 48.94                             147   -0.14 7 92.4 175 
 RUS  HZ I        1958 50.98         4.1 0.22                          92.4 175 
 PTB  HZ EP   1   1958 33.98                             134   -0.10 7  145 262 
 PTB  HZ I        1958 51.16         6.5 0.70                           145 262 
 PTB  HN ES   1   1958 54.73                             134   -0.44 7  145 262 
 ZAR  HN ES   1   1959  5.52                             123   -0.08 6  206 294 
 ZAR  HZ I        1959 11.72         5.0 0.37                           206 294 
                                                                                
