 2017  618 1520  7.3 L   6.828 -73.163153.0  RSN  8 0.4 2.1LRSN                1
 GAP=214        0.82       3.7     4.2  6.3  0.6537E+01 -0.3466E+01  0.2451E+01E
 Epicentro: LOS SANTOS - SANTANDER                                             3
 ACTION:UPD 17-09-14 16:53 OP:jn   STATUS:               ID:20170618152007 L   I
 OLDACT:REG 17-06-18 20:47 OP:osc  STATUS:               ID:20170618151735     3
 2017-06-18-1518-00M.COL___340                                                 6
 STAT SP IPHASW D HRMM SECON CODA AMPLIT PERI AZIMU VELO AIN AR TRES W  DIS CAZ7
 BRR  HZ EP       1520 29.23                             155    0.1310 68.1 297 
 BRR  HN ES       1520 45.91                             155   -0.1710 68.1 297 
 BRR  HZ I        1520 49.48        21.5 0.30            152           68.1 297 
 PTB  HZ EP       1520 34.20                             134   -0.59 9  147 258 
 PTB  HN ES       1520 55.84                             134   -0.36 9  147 258 
 PTB  HZ I        1520 56.31         9.5 0.14            132            147 258 
 SPBC HZ EP       1520 36.66                             130    0.16 9  164 218 
 SPBC HE ES       1520 59.72                             130    0.46 9  164 218 
 SPBC HZ I        1521  2.68        40.3 0.18            129            164 218 
 YPLC HZ EP       1520 37.88                             128   -0.12 9  180 151 
 YPLC HN ES       1521  2.12                             128    0.20 9  180 151 
 YPLC HZ I        1521  2.89        16.9 0.26            129            180 151 
 ZAR  HZ EP   2   1520 40.99                             124    1.03 4  201 292 
 ZAR  HN ES       1521  5.88                             124    0.46 9  201 292 
 ZAR  HZ I        1521 10.36         7.9 0.35            124            201 292 
 NOR  HZ EP       1520 43.73                             120    0.22 8  235 234 
 NOR  HN ES       1521 11.84                             120    0.10 8  235 234 
 NOR  HZ I        1521 18.20         6.5 0.21            119            235 234 
 CHI  HZ EP       1520 45.82                             118    0.12 8  251 195 
 CHI  HN ES       1521 15.11                             118   -0.52 8  251 195 
 CHI  HZ I        1521 21.33         5.5 0.28            118            251 195 
 URE  HZ EP       1520 48.07                             115   -0.37 7  281 291 
 URE  HE ES   4   1521 19.20                             115   -1.31 0  281 291 
 URE  HZ I        1521 28.25         6.4 0.36            115            281 291 
                                                                                
