 2012  218 1121 30.9 L   6.332 -73.574115.7  RSN  7 0.4 1.4LRSN                1
 GAP= 89        0.81       3.6     3.6  8.0  0.8250E+00  0.1141E+02  0.4037E+01E
 ACTION:UP  12-03-07 16:31 OP:epov STATUS:               ID:20120218112130 L   I
 2012-02-18-1120-00M.COL___188                                                 6
 STAT SP IPHASW D HRMM SECON CODA AMPLIT PERI AZIMU VELO AIN AR TRES W  DIS CAZ7
 BAR2 SZ EP   1   1121 48.62                             154    0.54 7 52.0  56 
 BAR2 SZ ES   1   1122  1.86                             154    0.39 7 52.0  56 
 BAR2 SZ I        1122  3.48        21.8 0.40                          52.0  56 
 RUS  HZ EP       1121 49.52                             146   -0.2010 72.9 132 
 RUS  HN ES   1   1122  3.80                             146   -0.59 7 72.9 132 
 RUS  HZ I        1122  5.11         2.6 0.21                          72.9 132 
 PTB  HZ IP       1121 51.26                             136    0.0910  100 283 
 PTB  HN ES   1   1122  6.73                             136   -0.24 7  100 283 
 PTB  HZ I        1122  7.94         0.0 0.15                           100 283 
 PAM  SE ES   1   1122 15.85                             124   -0.09 7  147  41 
 NOR  SZ EP   1   1121 57.54                             121   -0.08 7  167 239 
 NOR  SE ES   1   1122 18.37                             121   -0.09 7  167 239 
 CHI  HZ EP   1   1122  0.78                             117    0.30 7  189 185 
 CHI  HE ES   1   1122 24.01                             117    0.47 7  189 185 
 CHI  HZ I        1122 27.38         2.0 0.47                           189 185 
 ZAR  HZ EP   1   1121 59.30                             117   -0.90 7  191 312 
 ZAR  HE ES   1   1122 23.58                             117    0.53 7  191 312 
 ZAR  HZ I        1122 27.43         3.8 0.27                           191 312 
                                                                                
