 2015 1018 1935  5.8 L   6.783 -73.100144.3  RSN  4 0.2 1.9LRSN                1
 GAP=143        0.54       2.9     4.3  4.4 -0.2929E+00 -0.1279E+01  0.4945E+00E
 Epicentro: LOS SANTOS - SANTANDER                                             3
 ACTION:UPD 15-12-22 20:41 OP:cam  STATUS:               ID:20151018193505 L   I
 OLDACT:DUP 15-10-19 00:23 OP:stll STATUS:               ID:20151018192750d    3
 2015-10-18-1927-49M.COL___331                                                 6
 STAT SP IPHASW D HRMM SECON CODA AMPLIT PERI AZIMU VELO AIN AR TRES W  DIS CAZ7
 BAR2 EZ EP       1935 24.97                             171   -0.2410 23.0 204 
 BAR2 EZ ES       1935 40.19                             171   -0.1910 23.0 204 
 BAR2 EZ I        1935 41.33        20.3 0.36            168           23.0 204 
 PAM  EZ EP       1935 28.00                             151    0.2710 75.8  36 
 PAM  EZ I        1935 28.34        37.4 0.20            154           75.8  36 
 PAM  EN ES       1935 44.80                             151   -0.0610 75.8  36 
 BRR  HZ EP       1935 26.90                             150   -0.1810 76.6 298 
 BRR  HN ES       1935 43.90                             150    0.2110 76.6 298 
 BRR  HZ I        1935 49.38        18.9 0.34            147           76.6 298 
 RUS  HZ EP       1935 29.25                             144    0.0310 98.4 179 
 RUS  HN ES       1935 47.68                             144    0.1710 98.4 179 
 RUS  HZ I        1935 49.24         4.2 0.22            146           98.4 179 
                                                                                
