 2014  218 1506 50.3 L   6.631 -74.259 63.8  RSN  6 0.4 1.4LRSN                1
 GAP=100        0.97       3.6     3.6  8.2  0.6068E+01 -0.1737E+02 -0.1123E+02E
 Epicentro: PUERTO PARRA - SANTANDER                                           3
 ACTION:UPD 14-03-10 08:11 OP:ep   STATUS:               ID:20140218150650 L   I
 OLDACT:DUP 14-02-18 17:19 OP:carl STATUS:               ID:20140218150002d    3
 2014-02-18-1500-00M.COL___212                                                 6
 STAT SP IPHASW D HRMM SECON CODA AMPLIT PERI AZIMU VELO AIN AR TRES W  DIS CAZ7
 PTB  HZ EP       15 6 59.64                             157   -0.2610 24.1 245 
 PTB  HN ES       15 7  7.46                             157    0.0610 24.1 245 
 PTB  HZ I        15 7  8.06        12.5 0.40            156           24.1 245 
 SPBC HE ES       15 7 21.41                             113   -0.2810  110 169 
 SPBC HZ I        15 7 22.51        11.5 0.12            112            110 169 
 ZAR  HZ EP       15 7  8.34                             111   -0.1510  116 325 
 ZAR  HN ES       15 7 23.09                             111    0.4110  116 325 
 ZAR  HZ I        15 7 26.55        11.2 0.10            110            116 325 
 BAR2 SZ EP       15 7  9.10                             111   -0.0410  119  92 
 BAR2 SZ ES       15 7 23.62                             111   -0.2210  119  92 
 BAR2 SZ I        15 7 24.76         6.3 0.26            110            119  92 
 RUS  HZ EP       15 7 13.38                             105   -0.13 9  154 122 
 RUS  HN ES       15 7 32.59                             105    0.98 9  154 122 
 RUS  HZ I        15 7 34.38         1.5 0.14            105            154 122 
 PAM  SN ES       15 7 38.88                             102   -0.34 9  189  65 
                                                                                
