 2013  218 1333 29.6 L   6.745 -73.170152.2  RSN  6 0.3 2.0LRSN                1
 GAP=136        0.71       3.8     4.4  5.5  0.3809E+01 -0.1372E+01 -0.9144E+01E
 Epicentro: VILLANUEVA - SANTANDER                                             3
 ACTION:UPD 13-03-12 09:34 OP:ep   STATUS:               ID:20130218133329 L   I
 2013-02-18-1330-00M.COL___240                                                 6
 STAT SP IPHASW D HRMM SECON CODA AMPLIT PERI AZIMU VELO AIN AR TRES W  DIS CAZ7
 BAR2 SZ EP       1333 49.59                             173   -0.3610 16.9 185 
 BAR2 SZ ES       1334  5.60                             173   -0.1810 16.9 185 
 BAR2 SZ I        1334  6.26        18.1 0.28            173           16.9 185 
 BRR  HZ IP     C 1333 51.96                             153    0.4210 72.1 304 
 BRR  HN ES       1334  8.58                             153   -0.0410 72.1 304 
 BRR  HN I        1334 12.55        22.9 0.16            149           72.1 304 
 PAM  SZ EP       1333 52.96                             150    0.0310 83.8  38 
 RUS  HZ EP   2   1333 54.25                             147    0.61 5 94.7 174 
 RUS  HN ES       1334 12.55                             147    0.2010 94.7 174 
 PTB  HZ EP       1333 56.71                             134   -0.11 9  144 261 
 PTB  HN ES       1334 17.97                             134   -0.05 9  144 261 
 PTB  HN I        1334 23.46         8.2 0.58            133            144 261 
 SML  HZ EP       1334  6.63                             118   -0.49 8  248 336 
 SML  HE ES       1334 36.73                             118    0.38 8  248 336 
 SML  HN I        1334 43.83        12.8 0.10            118            248 336 
                                                                                
