 2010  618 1843 12.7 L   6.806 -73.065144.2  RSN  4 0.1 1.8LRSN                1
 GAP=173        0.33       3.5     7.1  5.7  0.1040E+02 -0.2007E+02 -0.8634E+01E
 Epicentro: LOS SANTOS - SANTANDER                                             3
 ACTION:UP  10-08-24 10:11 OP:vdl  STATUS:               ID:20100618184312 L   I
 2010-06-18-1840-35S.COL___118                                                 6
 STAT SP IPHASW D HRMM SECON CODA AMPLIT PERI AZIMU VELO SNR AR TRES W  DIS CAZ7
 BAR2 SZ EP   1   1843 32.30                             169     0.1 7   27 209 
 BAR2 SZ ES   2   1843 47.29                             169    -0.2 5   27 209 
 BRR  HZ EP   1   1843 34.02                             150    -0.1 7   79 295 
 BRR  HE ES   2   1843 51.04                             150     0.2 5   79 295 
 BRR  HZ I        1843 51.77        21.4 0.22                            79 295 
 RUS  HZ EP   1   1843 36.34                             143     0.0 7  101 181 
 RUS  HN ES   2   1843 54.83                             143     0.1 5  101 181 
 RUS  HZ I        1843 55.96         5.8 0.21                           101 181 
 GUE  SZ EP   1   1843 37.14                             140     0.0 7  114   8 
                                                                                
