 2017  318 1204 37.6 L   6.765 -73.164142.4  RSN  5 0.4 1.5LRSN                1
 GAP=136        1.00       5.3     5.1  7.3 -0.2417E+01  0.4699E+01  0.1538E+01E
 Epicentro: LOS SANTOS - SANTANDER                                             3
 ACTION:UPD 17-05-25 18:42 OP:jn   STATUS:               ID:20170318120437 L   I
 OLDACT:REG 17-03-18 20:48 OP:dnl  STATUS:               ID:20170318115744     3
 2017-03-18-1158-00M.COL___379                                                 6
 STAT SP IPHASW D HRMM SECON CODA AMPLIT PERI AZIMU VELO AIN AR TRES W  DIS CAZ7
 BAR2 EZ EP       12 4 56.60                             172   -0.1210 19.2 186 
 BAR2 EZ ES       12 5 11.30                             172   -0.3510 19.2 186 
 BAR2 EZ I        12 5 12.67         9.6 0.14            173           19.2 186 
 BRR  HZ EP       12 4 58.57                             152    0.2110 71.4 302 
 BRR  HN ES       12 5 15.38                             152    0.7910 71.4 302 
 BRR  HZ I        12 5 19.62        10.4 0.46            151           71.4 302 
 PAM  EZ EP       12 4 59.61                             149   -0.0810 81.7  39 
 PAM  EN ES       12 5 16.64                             149   -0.3110 81.7  39 
 PAM  EZ I        12 5 18.18         3.4 0.68            152           81.7  39 
 RUS  HZ EP       12 5  0.95                             144    0.2310 96.9 175 
 RUS  HN ES       12 5 19.03                             144    0.2410 96.9 175 
 RUS  HZ I        12 5 20.10         3.9 0.36            147           96.9 175 
 PTB  HZ EP       12 5  3.96                             132   -0.05 9  145 260 
 PTB  HN ES       12 5 24.00                             132   -0.64 9  145 260 
 PTB  HZ I        12 5 27.87         2.8 0.18            133            145 260 
                                                                                
