 2015 1118 1809 20.0 L   6.806 -73.094148.9  RSN 16 0.3 2.8LRSN 3.2WRSN        1
 SPEC AVERAGE  MO 13.8 ST  1.1 OM  1.9 f0 2.71 R0.8999 AL 0.00 WI 30.0 MW  3.2 3
 SPEC SD       MO  0.1 ST  1.0 OM  0.3 f0 1.26 R0.5475 AL      WI      MW  0.1 3
 GAP=143        0.80       2.2     3.0  4.1 -0.1339E+01  0.5476E+01  0.1073E+00E
 Epicentro: LOS SANTOS - SANTANDER                                             3
 SPEC BAR2EH Z MO 13.8 ST0.866 OM  1.9 f0 2.83 R0.6799 AL-0.00 WI 30.0 MW  3.1 3
 SPEC BAR2EH Z T18 953 K 0.000 GD  151 VS 5.20 DE 3.50 Q0750.0 QA 1.50 VS 3.50 3
 SPEC PAM EH Z MO 13.8 ST0.199 OM  1.9 f0 1.68 R1.1452 AL-0.00 WI 30.0 MW  3.2 3
 SPEC PAM EH Z T18 958 K 0.000 GD  165 VS 5.20 DE 3.50 Q0750.0 QA 1.50 VS 3.50 3
 SPEC BRR HH Z MO 13.8 ST  1.9 OM  1.9 f0 3.58 R0.5374 AL-0.00 WI 30.0 MW  3.2 3
 SPEC BRR HH Z T18 957 K 0.000 GD  167 VS 5.20 DE 3.50 Q0750.0 QA 1.50 VS 3.50 3
 SPEC RUS HH Z MO 13.7 ST0.266 OM  1.7 f0 2.10 R0.9162 AL-0.00 WI 30.0 MW  3.1 3
 SPEC RUS HH Z T1810 1 K 0.000 GD  179 VS 5.20 DE 3.50 Q0750.0 QA 1.50 VS 3.50 3
 SPEC OCA HH Z MO 14.1 ST  1.8 OM  2.0 f0 2.94 R0.6544 AL-0.00 WI 30.0 MW  3.3 3
 SPEC OCA HH Z T1810 9 K 0.000 GD  218 VS 5.20 DE 3.50 Q0750.0 QA 1.50 VS 3.50 3
 SPEC SPBCHH Z MO 13.6 ST  3.5 OM  1.5 f0 5.37 R0.3583 AL-0.00 WI 30.0 MW  3.0 3
 SPEC SPBCHH Z T181010 K 0.000 GD  223 VS 5.20 DE 3.50 Q0750.0 QA 1.50 VS 3.50 3
 SPEC NOR HH Z MO 13.6 ST0.977 OM  1.4 f0 3.51 R0.5481 AL-0.00 WI 30.0 MW  3.0 3
 SPEC NOR HH Z T181022 K 0.000 GD  282 VS 5.20 DE 3.50 Q0750.0 QA 1.50 VS 3.50 3
 SPEC HEL HH Z MO 14.0 ST0.099 OM  1.8 f0 1.16 R1.6586 AL-0.00 WI 30.0 MW  3.3 3
 SPEC HEL HH Z T181031 K 0.000 GD  315 VS 5.20 DE 3.50 Q0750.0 QA 1.50 VS 3.50 3
 SPEC URE HH Z MO 13.7 ST  2.2 OM  1.5 f0 4.06 R0.4739 AL-0.00 WI 30.0 MW  3.1 3
 SPEC URE HH Z T181030 K 0.000 GD  325 VS 5.20 DE 3.50 Q0750.0 QA 1.50 VS 3.50 3
 SPECGUY2CHH Z MO 14.0 ST0.091 OM  1.8 f0 1.10 R1.7491 AL-0.00 WI 30.0 MW  3.3 3
 SPECGUY2CHH Z T181037 K 0.000 GD  340 VS 5.20 DE 3.50 Q0750.0 QA 1.50 Q1 0.00 3
 SPEC DBB SH Z MO 13.8 ST0.753 OM  1.5 f0 2.71 R0.7100 AL-0.00 WI 30.0 MW  3.1 3
 SPEC DBB SH Z T181044 K 0.000 GD  375 VS 5.20 DE 3.50 Q0750.0 QA 1.50 VS 3.50 3
 SPEC MON HH Z MO 13.9 ST0.179 OM  1.6 f0 1.54 R1.2494 AL-0.00 WI 30.0 MW  3.2 3
 SPEC MON HH Z T181044 K 0.000 GD  387 VS 5.20 DE 3.50 Q0750.0 QA 1.50 VS 3.50 3
 SPEC ORTCHH Z MO 14.0 ST0.074 OM  1.7 f0 1.03 R1.8680 AL-0.00 WI 30.0 MW  3.3 3
 SPEC ORTCHH Z T181055 K 0.000 GD  425 VS 5.20 DE 3.50 Q0750.0 QA 1.50 VS 3.50 3
 OLDACT:REG 15-11-18 21:14 OP:dnl  STATUS:               ID:20151118180750     3
 ACTION:UPD 15-12-28 16:11 OP:cam  STATUS:               ID:20151118180920 L   I
 OLDACT:UP  15-11-19 06:52 OP:CARA STATUS:               ID:20151118180920 L   3
 OLDACT:UP  15-11-19 02:29 OP:cara STATUS:               ID:20151118180750     3
 2015-11-18-1807-50M.COL___304                                                 6
 STAT SP IPHASW D HRMM SECON CODA AMPLIT PERI AZIMU VELO AIN AR TRES W  DIS CAZ7
 BAR2 EZ IP     C 18 9 40.07                             170    0.0410 25.6 202 
 BAR2 EZ ES       18 9 55.04                             170   -0.6310 25.6 202 
 BAR2 EZ I        18 9 57.70        97.3 0.34            168           25.6 202 
 PAM  EZ EP     C 18 9 42.68                             153    0.3810 73.3  36 
 PAM  EN ES       1810  0.01                             153    0.3110 73.3  36 
 PAM  EZ I        1810  2.29        81.7 0.56            157           73.3  36 
 BRR  HZ IP     C 18 9 41.88                             151    0.1410 76.0 296 
 BRR  HN ES       18 9 59.17                             151    0.4610 76.0 296 
 BRR  HZ I        1810  3.20       100.9 0.16            149           76.0 296 
 RUS  HZ EP       18 9 43.95                             144   -0.1210  101 179 
 RUS  HN ES       1810  2.64                             144   -0.2210  101 179 
 RUS  HZ I        1810  5.22        33.3 0.32            148            101 179 
 OCA  HZ EP       18 9 47.94                             130   -0.61 9  160 351 
 OCA  HE ES       1810 10.86                             130    0.04 9  160 351 
 OCA  HZ I        1810 14.52       209.7 0.18            132            160 351 
 SPBC HZ EP       18 9 49.12                             129    0.00 9  167 220 
 SPBC HE ES       1810 12.20                             129    0.36 9  167 220 
 SPBC HZ I        1810 18.57        66.1 0.22            131            167 220 
 ZAR  HZ EP       18 9 53.65                             122    0.50 8  209 291 
 ZAR  HN ES       1810 18.85                             122   -0.18 8  209 291 
 ZAR  HZ I        1810 23.74       148.9 0.48            123            209 291 
 NOR  HZ EP       18 9 56.12                             119   -0.32 8  240 235 
 NOR  HN ES       1810 24.42                             119   -0.45 8  240 235 
 NOR  HZ I        1810 29.66        43.8 0.22            120            240 235 
 SML  HZ EP   4   18 9 55.67                             118   -1.31 0  246 334 
 SML  HN ES       1810 25.49                             118   -0.35 8  246 334 
 SML  HZ I        1810 33.08        65.5 0.10            120            246 334 
 HEL  HZ EP       1810  1.54                             115    0.55 7  278 256 
 HEL  HN ES       1810 33.19                             115    0.22 7  278 256 
 HEL  HZ I        1810 40.09        33.7 0.28            116            278 256 
 URE  HZ EP   4   1810  4.44                             114    2.67 0  289 291 
 URE  HE ES   4   1810 31.81                             114   -2.56 0  289 291 
 URE  HZ I        1810 41.12        63.5 0.22            115            289 291 
 GUY2CHZ EP       1810  4.40                             112    0.09 7  306 235 
 GUY2CHN ES       1810 39.13                             112    0.25 7  306 235 
 GUY2CHZ I        1810 47.14        29.4 0.32                           306 235 
 CBOC HZ EP       1810  7.89                             110    0.21 7  339 252 
 CBOC HN ES       1810 44.62                             110   -0.26 7  339 252 
 CBOC HZ I        1810 50.52         8.5 0.48            112            339 252 
 DBB  SZ EP       1810  7.66                             110   -0.58 7  345 274 
 DBB  SZ ES       1810 45.84                             110   -0.03 7  345 274 
 MON  HZ EP       1810  9.27                             109   -0.31 6  358 308 
 MON  HN ES   4   1810 45.81                             109   -2.45 0  358 308 
 MON  HZ I        1810 50.23        12.8 0.60            111            358 308 
 ORTC HZ EP       1810 14.45                             107   -0.02 6  399 217 
 ORTC HN ES       1810 57.29                             107    0.32 6  399 217 
 ORTC HZ I        1811  1.15        16.2 0.54            109            399 217 
                                                                                
