 2010  218 1224 38.8 L   6.795 -72.948146.7  RSN  5 0.3 2.1LRSN                1
 GAP=317        0.51       8.6    10.0  6.6 -0.2624E+02  0.1917E+02  0.1421E+02E
 Epicentro: CEPITA - SANTANDER                                                 3
 ACTION:UP  10-08-24 09:49 OP:vdl  STATUS:               ID:20100218122438 L   I
 2010-02-18-1220-40S.COL___094                                                 6
 STAT SP IPHASW D HRMM SECON CODA AMPLIT PERI AZIMU VELO SNR AR TRES W  DIS CAZ7
 BAR2 SZ EP   1   1224 58.91                             166     0.110   34 229 
 BAR2 SZ ES   2   1225 14.10                             166    -0.3 6   34 229 
 RUS  BZ EP   1   1225  2.87                             144     0.210  101 189 
 RUS  BE ES   2   1225 21.47                             144     0.2 6  101 189 
 CHI  HZ EP       1225 16.75                             117    -0.410  255 200 
 RREF BZ EP   1   1225 27.11                             110     0.3 6  338 232 
 RREF BE ES   2   1226  4.12                             110    -0.2 4  338 232 
 RREF BZ I        1226 11.26         4.7 0.29                           338 232 
 PRA  HZ EP   1   1225 33.72                             106     0.1 5  403 212 
 PRA  HN ES   2   1226 16.69                             106     0.3 4  403 212 
 PRA  HZ I        1226 18.55         3.1 0.39                           403 212 
                                                                                
