 2013  218 1758 50.0 L   6.747 -73.159150.9  RSN  6 0.3 2.0LRSN                1
 GAP=137        0.68       4.5     3.7  5.4  0.5878E+01 -0.6035E+00 -0.5904E+01E
 Epicentro: LOS SANTOS - SANTANDER                                             3
 ACTION:UPD 13-03-12 09:34 OP:ep   STATUS:               ID:20130218175850 L   I
 2013-02-18-1756-50M.COL___204                                                 6
 STAT SP IPHASW D HRMM SECON CODA AMPLIT PERI AZIMU VELO AIN AR TRES W  DIS CAZ7
 BAR2 SZ EP       1759 10.09                             173   -0.0610 17.3 188 
 BAR2 SZ ES       1759 25.49                             173   -0.3810 17.3 188 
 BAR2 SZ I        1759 26.23        15.5 0.28            173           17.3 188 
 BRR  HZ IP     C 1759 11.92                             153    0.1110 72.9 303 
 BRR  HN ES       1759 29.17                             153    0.3510 72.9 303 
 BRR  HN I        1759 30.13        17.8 0.22            151           72.9 303 
 PAM  SZ IP     C 1759 12.95                             150   -0.1510 82.9  38 
 RUS  HZ EP   1   1759 14.29                             146    0.42 7 94.8 175 
 RUS  HN ES       1759 32.71                             146    0.2310 94.8 175 
 RUS  HN I        1759 33.16         8.1 0.32            148           94.8 175 
 PTB  HZ EP       1759 16.93                             134   -0.24 9  145 261 
 PTB  HN ES       1759 38.10                             134   -0.27 9  145 261 
 ZAR  HE ES       1759 48.69                             123    0.16 9  205 294 
 ZAR  HE I        1759 54.06        18.2 0.38            123            205 294 
                                                                                
