 2017  918 1047 34.3 L   6.849 -73.299121.1  RSN  7 0.3 1.6LRSN                1
 GAP=109        0.87       3.3     3.2  5.4  0.2808E+01  0.4734E+01  0.4405E+01E
 Epicentro: ZAPATOCA - SANTANDER                                               3
 ACTION:UPD 17-10-05 19:13 OP:rebc STATUS:               ID:20170918104734 L   I
 OLDACT:UP  17-09-18 21:20 OP:lv   STATUS:               ID:20170918103743d    3
 OLDACT:DUP 17-09-18 20:49 OP:lv   STATUS:               ID:20170918103743d    3
 2017-09-18-1038-00M.COL___435                                                 6
 STAT SP IPHASW D HRMM SECON CODA AMPLIT PERI AZIMU VELO AIN AR TRES W  DIS CAZ7
 BAR2 EZ EP       1047 51.06                             165   -0.1210 31.2 156 
 BAR2 EZ ES       1048  3.78                             165   -0.5810 31.2 156 
 BAR2 EZ I        1048  5.42        39.0 0.42            165           31.2 156 
 BRR  HZ EP       1047 51.49                             154   -0.3010 53.8 302 
 BRR  HE ES       1048  5.99                             154    0.5410 53.8 302 
 BRR  HZ I        1048  6.72         7.8 0.18            154           53.8 302 
 PAM  EZ EP       1047 54.38                             143   -0.1510 85.6  51 
 PAM  EN ES       1048 10.52                             143    0.2010 85.6  51 
 PAM  EZ I        1048 12.88        10.0 0.24            144           85.6  51 
 RUS  HZ EP       1047 56.15                             136   -0.2010  108 167 
 RUS  HN ES       1048 13.41                             136   -0.1610  108 167 
 RUS  HZ I        1048 14.72         3.9 0.18            136            108 167 
 ZAR  HZ EP       1048  3.12                             119   -0.21 9  186 293 
 ZAR  HN ES       1048 26.26                             119    0.27 9  186 293 
 ZAR  HZ I        1048 29.87         3.4 0.08            119            186 293 
 YPLC HZ EP       1048  3.98                             118    0.15 9  190 148 
 YPLC HE ES       1048 27.64                             118    0.77 9  190 148 
 YPLC HZ I        1048 30.19         7.4 0.42            119            190 148 
 NOR  HZ EP       1048  7.50                             114   -0.06 8  224 231 
 NOR  HN ES       1048 33.60                             114    0.08 8  224 231 
 NOR  HZ I        1048 38.01         2.9 0.22            114            224 231 
                                                                                
