 2014 1218 1352 29.1 L   6.787 -73.159143.9  RSN  4 0.2 1.1LRSN                1
 GAP=140        0.52       3.8     3.2  5.1 -0.3510E+01  0.2953E+01 -0.1414E+01E
 Epicentro: LOS SANTOS - SANTANDER                                             3
 ACTION:UPD 15-02-10 17:05 OP:nd   STATUS:               ID:20141218135229 L   I
 OLDACT:REG 14-12-18 20:22 OP:spq  STATUS:               ID:20141218134750     3
 2014-12-18-1347-50M.COL___292                                                 6
 STAT SP IPHASW D HRMM SECON CODA AMPLIT PERI AZIMU VELO AIN AR TRES W  DIS CAZ7
 BAR2 EZ EP       1352 48.63                             171    0.1310 21.7 187 
 BAR2 EZ ES   1   1353  3.82                             171    0.22 7 21.7 187 
 BAR2 EZ I        1353  9.77         3.0 0.20            172           21.7 187 
 PAM  SZ EP       1352 51.46                             150    0.2010 79.4  40 
 PAM  SN ES   1   1353  8.20                             150   -0.33 7 79.4  40 
 PAM  SZ I        1353 10.68         2.8 0.26            156           79.4  40 
 RUS  HZ EP       1352 52.64                             144    0.0410 99.3 175 
 RUS  HE ES   1   1353 10.69                             144   -0.22 7 99.3 175 
 RUS  HZ I        1353 12.34         1.1 0.26            150           99.3 175 
 PTB  HZ EP       1352 55.49                             132   -0.29 9  146 259 
 PTB  HN ES       1353 16.64                             132    0.07 9  146 259 
 PTB  HZ I        1353 21.60         2.9 0.17            136            146 259 
                                                                                
