 2011  818 1658  4.2 L   6.975 -73.087145.9  RSN  6 0.4 2.1LRSN                1
 GAP=133        0.70       3.7     6.9  5.7 -0.2340E+00  0.2466E+01 -0.2925E+01E
 Epicentro: PIEDECUESTA - SANTANDER                                            3
 ACTION:UPD 12-07-13 15:52 OP:ep   STATUS:               ID:20110818165804 L   I
 2011-08-18-1656-24S.COL___149                                                 6
 STAT SP IPHASW D HRMM SECON CODA AMPLIT PERI AZIMU VELO AIN AR TRES W  DIS CAZ7
 BAR2 SZ EP       1658 24.36                             163   -0.0510 43.6 194 
 BAR2 SZ ES   1   1658 39.68                             163   -0.51 7 43.6 194 
 BAR2 SZ I        1658 43.11        20.9 0.15                          43.6 194 
 PAM  SZ EP   1   1658 25.77                             157    0.35 7 58.8  47 
 PAM  SE ES   1   1658 42.26                             157    0.27 7 58.8  47 
 BRR  HZ EP       1658 25.17                             153   -0.1410 70.5 282 
 BRR  HE ES   1   1658 42.29                             153    0.49 7 70.5 282 
 BRR  HZ I        1658 43.14        67.1 0.11                          70.5 282 
 RUS  HZ EP   1   1658 29.62                             139    0.21 7  120 180 
 RUS  HN ES   1   1658 48.69                             139   -0.40 7  120 180 
 RUS  HZ I        1658 50.69         6.9 0.13                           120 180 
 CHI  HZ EP   1   1658 44.64                             115    0.51 6  269 195 
 CHI  HZ I        1659 20.33         4.8 0.14                           269 195 
 COD  HZ EP   1   1658 49.92                             110   -0.51 5  330 353 
 COD  HN ES   1   1659 26.21                             110   -0.29 5  330 353 
 COD  HZ I        1659 35.00        14.2 0.27                           330 353 
                                                                                
