 2014  718 1910 29.0 L   6.814 -73.189141.1  RSN  5 0.6 2.0LRSN                1
 GAP=131        1.55       8.1     7.8 11.6 -0.6404E+01  0.1330E+02  0.3883E+01E
 Epicentro: ZAPATOCA - SANTANDER                                               3
 ACTION:UPD 15-03-16 20:45 OP:nd   STATUS:               ID:20140718191029 L   I
 OLDACT:REG 14-07-18 22:06 OP:stll STATUS:               ID:20140718190816     3
 2014-07-18-1908-16M.COL___269                                                 6
 STAT SP IPHASW D HRMM SECON CODA AMPLIT PERI AZIMU VELO AIN AR TRES W  DIS CAZ7
 BAR2 SZ ES       1911  2.35                             170   -0.6710 24.5 178 
 BAR2 SZ I        1911  4.07        19.7 0.28            170           24.5 178 
 BRR  HZ EP       1910 49.89                             153    0.4810 66.3 299 
 BRR  HZ I        1910 50.20        25.2 0.30            154           66.3 299 
 BRR  HN ES       1911  6.31                             153    1.0110 66.3 299 
 PAM  SZ EP       1910 51.11                             149    0.2310 79.4  43 
 PAM  SZ I        1910 51.32        17.0 0.16            149           79.4  43 
 PAM  SN ES       1911  7.31                             149   -0.6110 79.4  43 
 RUS  HZ EP       1910 52.62                             142    0.1510  103 173 
 RUS  HN ES       1911 11.27                             142    0.5210  103 173 
 PTB  HZ EP       1910 54.55                             132   -0.68 9  143 258 
 PTB  HN ES       1911 15.09                             132   -0.57 9  143 258 
                                                                                
