 2010  318 1728 33.3 L   6.796 -73.068148.1  RSN 10 0.4 2.4LRSN                1
 GAP=191        0.67       3.6     6.4  5.1  0.4426E+01  0.8651E+01  0.4708E+01E
 Epicentro: LOS SANTOS - SANTANDER                                             3
 ACTION:UP  10-08-24 09:54 OP:vdl  STATUS:               ID:20100318172833 L   I
 2010-03-18-1725-24S.COL___098                                                 6
 STAT SP IPHASW D HRMM SECON CODA AMPLIT PERI AZIMU VELO SNR AR TRES W  DIS CAZ7
 BAR2 SZ IP       1728 53.30                             169     0.010   26 209 
 BAR2 SZ ES   1   1729  8.54                             169    -0.3 7   26 209 
 BRR  HZ IP       1728 55.31                             150     0.110   79 296 
 BRR  HE ES   1   1729 12.57                             150     0.3 7   79 296 
 BRR  HZ I        1729 16.39        41.3 0.21                            79 296 
 RUS  HZ IP       1728 57.24                             144     0.010  100 181 
 RUS  HN ES   1   1729 15.92                             144     0.0 7  100 181 
 RUS  HZ I        1729 18.70        27.7 0.37                           100 181 
 OCA  SZ EP   2   1729  1.98                             130     0.0 5  162 350 
 OCA  SZ ES   2   1729 23.91                             130    -0.4 5  162 350 
 OCA  SZ I        1729 27.79        70.8 0.30                           162 350 
 CHI  HZ IP       1729 11.41                             117     0.0 8  251 197 
 CHI  HZ I        1729 13.12         8.5 0.17                           251 197 
 CHI  HE ES   2   1729 40.85                             117    -0.2 4  251 197 
 ROSC BE ES   2   1729 42.90                             117     0.7 4  257 213 
 ROSC BZ I        1729 45.44        13.8 0.48                           257 213 
 HEL  HZ EP   2   1729 14.92                             114     0.4 4  280 256 
 HEL  HE ES   2   1729 46.13                             114    -0.6 4  280 256 
 HEL  HZ I        1729 52.20        13.6 0.47                           280 256 
 DBB  SZ EP   1   1729 21.09                             109    -0.8 5  348 274 
 TOL  SZ EP   1   1729 23.18                             109     0.8 5  349 226 
 PRA  HZ IP       1729 27.13                             107    -0.2 6  396 211 
 PRA  HE ES   2   1730  8.91                             107    -0.6 3  396 211 
 PRA  HZ I        1730 16.64         7.9 0.41                           396 211 
                                                                                
