 2017  218 1450 58.8 L   6.790 -73.123145.5  RSN  5 0.4 1.4LRSN                1
 GAP=140        0.93       4.8     4.3  8.2  0.1370E+01  0.6498E+01  0.4171E+01E
 Epicentro: LOS SANTOS - SANTANDER                                             3
 ACTION:UPD 17-05-24 15:37 OP:jn   STATUS:               ID:20170218145058 L   I
 OLDACT:UP  17-02-18 23:33 OP:dani STATUS:               ID:20170218144741     3
 OLDACT:REG 17-02-18 21:35 OP:dani STATUS:               ID:20170218144741     3
 2017-02-18-1448-00M.COL___355                                                 6
 STAT SP IPHASW D HRMM SECON CODA AMPLIT PERI AZIMU VELO AIN AR TRES W  DIS CAZ7
 BRR  HZ EP       1451 20.19                             152    0.0910 73.9 298 
 BRR  HE ES       1451 37.06                             152    0.3710 73.9 298 
 BRR  HZ I        1451 40.08        13.1 0.39            152           73.9 298 
 PAM  EZ EP       1451 21.13                             151    0.1610 76.6  38 
 PAM  EN ES       1451 37.94                             151   -0.3010 76.6  38 
 PAM  EZ I        1451 39.96         3.6 0.46            155           76.6  38 
 RUS  HZ EP       1451 23.01                             144    0.5410 99.4 177 
 RUS  HN ES       1451 40.59                             144   -0.3110 99.4 177 
 RUS  HZ I        1451 42.11         2.1 0.28            147           99.4 177 
 PTB  HZ EP       1451 25.31                             131   -0.67 9  150 259 
 PTB  HN ES       1451 47.33                             131    0.18 9  150 259 
 PTB  HZ I        1451 52.59         1.9 0.21            133            150 259 
 ZAR  HN ES       1451 56.87                             122   -0.18 8  207 292 
                                                                                
