 2010  318 1141 40.7 L   6.822 -73.054142.0  RSN  9 0.3 2.1LRSN                1
 GAP=132        0.59       2.9     5.3  4.7  0.3715E+00 -0.6177E+01 -0.1253E+01E
 Epicentro: LOS SANTOS - SANTANDER                                             3
 ACTION:UP  10-08-24 09:54 OP:vdl  STATUS:               ID:20100318114140 L   I
 2010-03-18-1137-08S.COL___098                                                 6
 STAT SP IPHASW D HRMM SECON CODA AMPLIT PERI AZIMU VELO SNR AR TRES W  DIS CAZ7
 BAR2 SZ EP       1142  0.13                             168     0.110   29 209 
 BAR2 SZ ES   1   1142 14.89                             168    -0.2 7   29 209 
 BRR  HZ IP       1142  1.96                             149     0.010   79 293 
 BRR  HE ES   1   1142 18.85                             149     0.4 7   79 293 
 BRR  HZ I        1142 19.90        35.4 0.13                            79 293 
 RUS  HZ IP       1142  4.32                             142     0.110  103 182 
 RUS  HE ES   1   1142 22.40                             142    -0.2 7  103 182 
 RUS  HZ I        1142 24.70        13.6 0.21                           103 182 
 OCA  SZ EP   1   1142  8.64                             129     0.0 7  159 349 
 OCA  SZ ES   2   1142 29.49                             129    -0.9 5  159 349 
 OCA  SZ I        1142 35.24        30.9 0.12                           159 349 
 CHI  HZ EP   1   1142 18.81                             116     0.1 6  254 197 
 CHI  HE ES   2   1142 48.52                             116     0.1 4  254 197 
 CHI  HZ I        1142 54.73         4.1 0.29                           254 197 
 HEL  HZ EP   2   1142 22.32                             113     0.4 4  283 256 
 HEL  HZ I        1142 58.47         6.5 0.48                           283 256 
 DBB  SZ EP   2   1142 28.54                             108    -0.6 3  349 274 
 SDV  BZ IP       1142 29.66                             108     0.1 6  351  49 
 SDV  BZ I        1142 30.73         9.2 0.11                           351  49 
 PRA  HZ EP   2   1142 34.85                             105    -0.1 3  399 211 
 PRA  HN ES   2   1143 16.56                             105    -0.7 3  399 211 
 PRA  HZ I        1143 21.81         3.6 0.29                           399 211 
                                                                                
