 2011 1018 1231 52.8 L   6.771 -73.146145.4  RSN  5 0.4 1.7LRSN                1
 GAP=138        0.89       6.1     6.6  9.1  0.9170E+01  0.8597E+01 -0.1881E+01E
 Epicentro: LOS SANTOS - SANTANDER                                             3
 ACTION:UPD 12-07-13 16:04 OP:ep   STATUS:               ID:20111018123152 L   I
 2011-10-18-1231-07S.COL___161                                                 6
 STAT SP IPHASW D HRMM SECON CODA AMPLIT PERI AZIMU VELO AIN AR TRES W  DIS CAZ7
 BAR2 SZ EP   1   1232 12.12                             172   -0.23 7 20.2 192 
 BAR2 SZ ES   1   1232 27.02                             172   -0.56 7 20.2 192 
 BAR2 SZ I        1232 29.03        13.4 0.22                          20.2 192 
 BRR  HZ EP       1232 14.29                             152    0.2710 72.8 301 
 BRR  HN ES   1   1232 31.37                             152    0.82 7 72.8 301 
 BRR  HZ I        1232 34.72        10.6 0.12                          72.8 301 
 PAM  SZ EP   1   1232 14.96                             150   -0.18 7 79.9  38 
 PAM  SN ES   1   1232 32.52                             150   -0.04 7 79.9  38 
 RUS  HZ EP   1   1232 16.55                             145    0.24 7 97.4 176 
 RUS  HN ES   1   1232 34.67                             145    0.04 7 97.4 176 
 RUS  HZ I        1232 36.07         6.1 0.32                          97.4 176 
 ZAR  HE ES   1   1232 49.95                             122   -0.80 6  205 293 
 ZAR  HZ I        1232 57.40         6.6 0.11                           205 293 
                                                                                
