 2013  518 1212 38.0 L   6.772 -73.158144.7  RSN  6 0.4 1.6LRSN                1
 GAP=182        0.89       6.3     6.0  8.9 -0.1940E+01  0.9141E+01  0.1365E+00E
 Epicentro: LOS SANTOS - SANTANDER                                             3
 ACTION:UPD 13-06-20 09:51 OP:ep   STATUS:               ID:20130518121238 L   I
 2013-05-18-1210-00M.COL___256                                                 6
 STAT SP IPHASW D HRMM SECON CODA AMPLIT PERI AZIMU VELO AIN AR TRES W  DIS CAZ7
 BAR2 SZ EP       1212 57.35                             172   -0.0710 20.1 188 
 BAR2 SZ ES   1   1213 11.85                             172   -0.73 7 20.1 188 
 BAR2 SZ I        1213 13.85        10.3 0.44            173           20.1 188 
 GIR2 SZ EP   1   1212 57.43                             166   -0.17 7 34.1 353 
 GIR2 SZ I        1213 14.90         8.7 0.64            152           34.1 353 
 BRR  HZ IP     C 1212 59.24                             152    0.2110 71.5 301 
 BRR  HN ES   1   1213 16.18                             152    0.73 7 71.5 301 
 BRR  HZ I        1213 23.51        13.9 0.38            145           71.5 301 
 RUS  HZ EP   1   1213  1.62                             144    0.21 7 97.6 175 
 RUS  HN ES   1   1213 20.03                             144    0.34 7 97.6 175 
 RUS  HZ I        1213 20.69         4.2 0.24            152           97.6 175 
 PTB  HZ EP   1   1213  4.08                             132   -0.60 7  146 260 
 PTB  HN ES   1   1213 25.06                             132   -0.45 7  146 260 
 PTB  HZ I        1213 29.04         5.3 0.18            132            146 260 
 NOR  HN ES       1213 41.15                             119    0.24 8  232 235 
                                                                                
