 2010 1018 2131 41.7 L   6.819 -73.035148.7  RSN  4 0.1 1.8LRSN                1
 GAP=250        0.35       3.4     7.1  3.5  0.1576E+02 -0.2048E+01  0.5150E+00E
 Epicentro: CEPITA - SANTANDER                                                 3
 ACTION:UP  11-02-18 11:10 OP:tino STATUS:               ID:20101018213141 L   I
 2010-10-18-2120-00M.COL___113                                                 6
 STAT SP IPHASW D HRMM SECON CODA AMPLIT PERI AZIMU VELO SNR AR TRES W  DIS CAZ7
 BAR2 SZ EP   1   2132  1.74                             168    -0.1 7   30 213 
 BAR2 SZ ES   1   2132 17.56                             168     0.0 7   30 213 
 BAR2 SZ I        2132 18.58        17.8 0.16                            30 213 
 BRR  HZ IP     C 2132  3.91                             150     0.110   81 293 
 BRR  HZ I        2132  4.14        23.8 0.12                            81 293 
 BRR  HN ES   1   2132 20.96                             150    -0.1 7   81 293 
 RUS  HZ EP   1   2132  6.03                             144     0.1 7  103 183 
 RUS  HE ES   1   2132 24.82                             144     0.0 7  103 183 
 RUS  HZ I        2132 25.92         8.8 0.31                           103 183 
 CHI  HZ EP   1   2132 20.01                             117    -0.2 6  254 198 
 CHI  HN ES   2   2132 50.28                             117     0.1 4  254 198 
 CHI  HZ I        2132 57.66         2.3 0.33                           254 198 
                                                                                
