 2017  418 2215 31.0 L   6.808 -73.208139.4  RSN  9 0.4 1.7LRSN                1
 GAP=129        1.03       4.0     4.0  5.9 -0.5573E-02  0.7095E+01  0.6231E+01E
 Epicentro: ZAPATOCA - SANTANDER                                               3
 ACTION:UPD 17-05-30 21:13 OP:jn   STATUS:               ID:20170418221531 L   I
 OLDACT:UP  17-04-19 05:05 OP:edw  STATUS:               ID:20170418220736     3
 OLDACT:REG 17-04-19 04:12 OP:cara STATUS:               ID:20170418220736     3
 2017-04-18-2208-00M.COL___371                                                 6
 STAT SP IPHASW D HRMM SECON CODA AMPLIT PERI AZIMU VELO AIN AR TRES W  DIS CAZ7
 BAR2 EZ EP       2215 49.95                             170    0.0810 24.0 173 
 BAR2 EZ ES       2216  3.94                             170   -0.6510 24.0 173 
 BAR2 EZ I        2216  6.44        23.2 0.18            168           24.0 173 
 BRR  HZ EP       2215 52.04                             154    0.9510 64.8 301 
 BRR  HN ES       2216  6.77                             154    0.0110 64.8 301 
 PAM  EZ EP       2215 52.50                             148   -0.2810 81.3  44 
 PAM  EN ES       2216 10.11                             148    0.3410 81.3  44 
 PAM  EZ I        2216 11.85         8.6 0.54            154           81.3  44 
 RUS  HZ EP       2215 53.94                             142   -0.3010  102 172 
 RUS  HN ES       2216 12.61                             142    0.2410  102 172 
 RUS  HZ I        2216 13.69         4.8 0.30            143            102 172 
 PTB  HZ EP       2215 56.76                             132   -0.08 9  141 258 
 PTB  HN ES       2216 17.21                             132    0.21 9  141 258 
 PTB  HZ I        2216 22.58         8.5 0.18            130            141 258 
 ZAR  HZ EP       2216  1.70                             122   -0.63 9  197 293 
 ZAR  HN ES       2216 26.42                             122   -0.35 9  197 293 
 ZAR  HZ I        2216 36.44         6.0 0.32            122            197 293 
 NOR  HZ EP       2216  6.38                             118    0.57 8  230 233 
 NOR  HN ES       2216 32.93                             118   -0.04 8  230 233 
 NOR  HZ I        2216 42.00         3.8 0.14            118            230 233 
 CHI  HZ EP       2216  7.86                             116   -0.39 8  248 194 
 CHI  HE ES   4   2216 32.65                             116   -4.66 0  248 194 
 CHI  HZ I        2216 43.02         2.9 0.48            117            248 194 
 CBOC HE ES   4   2216 43.10                             109   -9.65 0  327 252 
 PRA  HZ EP       2216 24.07                             105    0.08 6  389 209 
 PRA  HE ES    4  2217  5.52                             105    0.19 6  389 209 
 PRA  HZ I        2217 10.77         2.7 0.38            106            389 209 
                                                                                
