 2012 1118 2108 33.8 L   6.776 -73.172139.2  RSN  7 0.4 1.7LRSN                1
 GAP=134        0.85       5.6     5.3  8.0 -0.3451E+00  0.8805E+01  0.2994E+01E
 Epicentro: LOS SANTOS - SANTANDER                                             3
 ACTION:UPD 12-12-05 15:34 OP:}ep  STATUS:               ID:20121118210833 L   I
 2012-11-18-2100-00M.COL___234                                                 6
 STAT SP IPHASW D HRMM SECON CODA AMPLIT PERI AZIMU VELO AIN AR TRES W  DIS CAZ7
 BAR2 SZ ES   1   21 9  6.30                             171   -0.89 7 20.4 183 
 BAR2 SZ I        21 9  8.11        17.8 0.32                          20.4 183 
 GIR2 SZ ES   2   21 9  7.73                             166    0.23 5 33.5 356 
 BRR  HZ EP   1   21 8 54.20                             152    0.07 7 70.0 302 
 BRR  HN ES   1   21 9 10.78                             152    0.76 7 70.0 302 
 BRR  HZ I        21 9 15.70        10.6 0.36                          70.0 302 
 PAM  SZ EP   1   21 8 55.27                             148   -0.26 7 81.2  40 
 PAM  SN ES   1   21 9 12.52                             148    0.02 7 81.2  40 
 PAM  SZ I        21 9 14.42        14.4 0.66                          81.2  40 
 RUS  HZ EP   1   21 8 56.73                             143    0.03 7 98.2 174 
 RUS  HN ES   1   21 9 15.01                             143    0.42 7 98.2 174 
 RUS  HZ I        21 9 16.63         2.9 0.24                          98.2 174 
 PTB  HZ EP   1   21 9  0.02                             131    0.13 7  144 260 
 PTB  HN ES   1   21 9 20.15                             131   -0.12 7  144 260 
 PTB  HZ I        21 9 23.82         8.1 0.22                           144 260 
 ZAR  HN ES   2   21 9 29.66                             121   -0.79 4  202 293 
                                                                                
