 2016  118 2048 51.6 L   6.822 -73.179141.6  RSN 12 0.4 2.3LRSN                1
 GAP=131        0.99       2.8     4.5  5.8 -0.4639E+01  0.1187E+02 -0.3303E+01E
 Epicentro: ZAPATOCA - SANTANDER                                               3
 ACTION:UPD 16-03-09 23:26 OP:cam  STATUS:               ID:20160118204851 L   I
 OLDACT:UP  16-01-19 02:54 OP:drio STATUS:               ID:20160118204750     3
 OLDACT:UP  16-01-19 02:53 OP:drio STATUS:               ID:20160118204750     3
 OLDACT:REG 16-01-19 02:25 OP:drio STATUS:               ID:20160118204750     3
 2016-01-18-2047-50M.COL___328                                                 6
 STAT SP IPHASW D HRMM SECON CODA AMPLIT PERI AZIMU VELO AIN AR TRES W  DIS CAZ7
 BAR2 EZ EP       2049 11.02                             169    0.2410 25.4 181 
 BAR2 EZ ES       2049 25.61                             169   -0.1210 25.4 181 
 BAR2 EZ I        2049 26.90        52.7 0.20            170           25.4 181 
 PAM  EZ IP     C 2049 13.74                             150    0.3210 77.9  43 
 PAM  EE ES       2049 30.76                             150    0.3410 77.9  43 
 PAM  EZ I        2049 33.40        22.3 0.42            154           77.9  43 
 RUS  HZ EP       2049 15.03                             142   -0.1310  103 174 
 RUS  HE ES       2049 32.98                             142   -0.5410  103 174 
 RUS  HZ I        2049 34.19        19.9 0.26            146            103 174 
 PTB  HZ EP       2049 17.94                             132   -0.02 9  145 258 
 PTB  HN ES       2049 38.41                             132   -0.10 9  145 258 
 OCA  HZ EP       2049 19.70                             129    0.37 9  157 354 
 OCA  HN ES       2049 41.03                             129    0.08 9  157 354 
 OCA  HZ I        2049 44.62        72.9 0.50            131            157 354 
 SPBC HZ EP       2049 19.48                             128   -0.28 9  163 217 
 SPBC HN ES       2049 41.55                             128   -0.16 9  163 217 
 SPBC HZ I        2049 48.17        17.6 0.22            130            163 217 
 ZAR  HZ EP       2049 24.15                             122    0.81 9  200 292 
 ZAR  HN ES   4   2049 49.58                             122    1.49 0  200 292 
 ZAR  HZ I        2049 55.84        31.0 0.32            123            200 292 
 NOR  HZ EP       2049 27.58                             118    0.64 8  233 233 
 NOR  HE ES       2049 54.90                             118    0.41 8  233 233 
 NOR  HZ I        2049 57.58        10.3 0.50            119            233 233 
 SML  HZ EP       2049 27.10                             117   -0.50 8  240 336 
 SML  HN ES       2049 54.73                             117   -0.94 8  240 336 
 SML  HZ I        2049 59.31        23.6 0.10            118            240 336 
 GUY2CHZ EP   4   2049 36.74                             111    1.89 0  300 234 
 GUY2CHN ES       2050  8.75                             111    0.17 7  300 234 
 GUY2CHZ I        2050 16.38         6.5 0.28                           300 234 
 PRA  HZ EP       2049 44.45                             106   -0.58 6  392 209 
 PRA  HN ES       2050 26.58                             106   -0.12 6  392 209 
 PRA  HZ I        2050 32.90        11.3 0.34            108            392 209 
 SJC  HZ EP       2049 45.81                             105   -0.75 6  405 327 
 SJC  HE ES   4   2050 26.95                             105   -2.48 0  405 327 
 SJC  HZ I        2050 31.19         7.1 0.60            107            405 327 
                                                                                
