 2016  918 2040 24.2 L   6.750 -73.137140.5  RSN  8 0.3 1.8LRSN                1
 GAP=140        0.74       2.4     3.2  4.6  0.4694E+00  0.3604E+01  0.1550E+01E
 Epicentro: LOS SANTOS - SANTANDER                                             3
 ACTION:UPD 17-08-17 21:13 OP:lp   STATUS:               ID:20160918204024 L   I
 OLDACT:REG 16-09-19 03:09 OP:cara STATUS:               ID:20160918203739     3
 2016-09-18-2038-00M.COL___360                                                 6
 STAT SP IPHASW D HRMM SECON CODA AMPLIT PERI AZIMU VELO AIN AR TRES W  DIS CAZ7
 BAR2 EZ EP       2040 42.91                             172   -0.1510 18.1 196 
 BAR2 EZ ES       2040 57.57                             172   -0.2310 18.1 196 
 BAR2 EZ I        2040 58.92        23.4 0.26            169           18.1 196 
 BRR  HZ IP     C 2040 44.65                             150   -0.3010 74.8 302 
 BRR  HN ES       2041  1.54                             150    0.3710 74.8 302 
 BRR  HZ I        2041  5.68        12.2 0.34            149           74.8 302 
 PAM  EZ EP       2040 45.75                             149   -0.3010 81.2  37 
 PAM  EE ES       2041  3.09                             149   -0.0410 81.2  37 
 PAM  EZ I        2041  5.04         5.8 0.52            154           81.2  37 
 RUS  HZ EP       2040 46.91                             144   -0.0710 95.0 176 
 RUS  HE ES       2041  5.05                             144    0.2610 95.0 176 
 RUS  HZ I        2041  6.84         7.0 0.36            145           95.0 176 
 PTB  HZ EP       2040 51.09                             131    0.40 9  148 261 
 PTB  HE ES       2041 11.10                             131   -0.29 9  148 261 
 PTB  HZ I        2041 18.01         4.6 0.14            130            148 261 
 OCA  HZ EP   4   2041  5.47                             127   12.86 0  166 353 
 OCA  HN ES       2041 15.22                             127    0.42 9  166 353 
 OCA  HZ I        2041 17.02        13.3 0.22            130            166 353 
 ZAR  HZ EP       2040 56.88                             121    0.30 8  207 293 
 ZAR  HN ES       2041 21.45                             121   -0.42 8  207 293 
 ZAR  HZ I        2041 26.82         6.4 0.62            121            207 293 
 CHI  HZ EP       2041  0.92                             117   -0.09 8  243 196 
 CHI  HN ES       2041 29.99                             117    0.24 8  243 196 
 CHI  HZ I        2041 40.04         3.6 0.82            117            243 196 
                                                                                
