 2013  718 2038 57.1 L   6.788 -73.180139.4  RSN 11 0.5 2.1LRSN                1
 GAP=155        1.28       4.0     5.5  7.6 -0.2133E+01  0.6086E+01  0.6570E+00E
 Epicentro: LOS SANTOS - SANTANDER                                             3
 ACTION:UPD 13-08-12 10:38 OP:ep   STATUS:               ID:20130718203857 L   I
 OLDACT:REG 13-07-18 22:17 OP:stll STATUS:               ID:20130718203850     3
 2013-07-18-2038-50M.COL___226                                                 6
 STAT SP IPHASW D HRMM SECON CODA AMPLIT PERI AZIMU VELO AIN AR TRES W  DIS CAZ7
 BAR2 SZ EP       2039 15.94                             171    0.0210 21.6 181 
 BAR2 SZ ES       2039 30.30                             171   -0.3110 21.6 181 
 BAR2 SZ I        2039 31.79        15.5 0.32            171           21.6 181 
 GIR2 SZ EP       2039 15.96                             166   -0.0710 32.2 357 
 BRR  HZ EP       2039 17.69                             152    0.2910 68.6 301 
 BRR  HN ES       2039 34.10                             152    0.8610 68.6 301 
 BRR  HN I        2039 35.26        58.3 0.22            151           68.6 301 
 RUS  HZ EP       2039 20.07                             143   -0.0710 99.6 174 
 RUS  HN ES       2039 38.15                             143    0.0310 99.6 174 
 RUS  HN I        2039 40.13         9.4 0.18            145           99.6 174 
 GRA  SZ EP       2039 21.68                             135   -0.3010  128  19 
 PTB  HZ EP       2039 22.70                             131   -0.47 9  144 259 
 PTB  HN ES       2039 43.10                             131   -0.42 9  144 259 
 SPBC HZ EP       2039 24.95                             128    0.18 9  160 218 
 SPBC HN ES       2039 46.81                             128    0.44 9  160 218 
 OCA  HN ES       2039 46.24                             128   -0.53 9  161 355 
 ZAR  HZ EP       2039 30.33                             121    1.52 9  201 293 
 ZAR  HE ES       2039 52.91                             121   -0.65 9  201 293 
 ZAR  HE I        2040  0.68        30.8 0.26            122            201 293 
 NOR  HN ES       2039 58.90                             117   -0.39 8  231 234 
 PRA  HZ EP       2039 50.18                             106    0.15 6  389 209 
 PRA  HN ES       2040 30.76                             106   -0.57 6  389 209 
                                                                                
