 2011 1118 2148 11.1 L   6.352 -73.546110.5  RSN  8 0.2 2.0LRSN                1
 GAP= 78        0.51       2.1     2.6  4.6 -0.7634E+00  0.4888E+01 -0.1241E+01E
 Epicentro: CONTRATACION - SANTANDER                                           3
 ACTION:UPD 12-07-13 16:11 OP:ep   STATUS:               ID:20111118214811 L   I
 2011-11-18-2143-19S.COL___179                                                 6
 STAT SP IPHASW D HRMM SECON CODA AMPLIT PERI AZIMU VELO AIN AR TRES W  DIS CAZ7
 BAR2 SZ IP       2148 27.81                             155    0.3110 48.2  57 
 BAR2 SZ I        2148 28.10        55.9 0.17                          48.2  57 
 BAR2 SZ ES   1   2148 40.07                             155   -0.22 7 48.2  57 
 RUS  HZ EP   1   2148 29.27                             145   -0.07 7 72.2 135 
 RUS  HN ES   1   2148 43.47                             145   -0.09 7 72.2 135 
 RUS  HZ I        2148 45.51        13.3 0.20                          72.2 135 
 BRR  HZ EP       2148 29.54                             139   -0.1010 85.4 348 
 BRR  HE ES   1   2148 44.63                             139    0.53 7 85.4 348 
 PAM  SZ EP   1   2148 35.48                             124   -0.19 7  144  41 
 PAM  SE ES   1   2148 54.57                             124   -0.26 7  144  41 
 NOR  SZ EP   1   2148 38.01                             118    0.11 7  171 239 
 NOR  SE ES   1   2148 58.67                             118   -0.13 7  171 239 
 ZAR  HZ EP   1   2148 40.09                             115   -0.11 7  192 311 
 ZAR  HE ES   1   2149  2.54                             115   -0.35 7  192 311 
 ZAR  HZ I        2149  8.37        16.2 0.49                           192 311 
 CHI  HZ EP   2   2148 40.92                             115    0.26 4  192 186 
 CHI  HZ I        2148 42.20         5.4 0.18                           192 186 
 OCA  SZ EP   1   2148 42.70                             113    0.31 6  210   7 
 OCA  SZ ES   1   2149  6.72                             113   -0.08 6  210   7 
 OCA  SZ I        2149 14.10        11.3 0.27                           210   7 
                                                                                
