 2011  218 2032 27.1 L   6.792 -73.129134.9  RSN  8 0.4 2.3LRSN                1
 GAP=160        0.92       4.6     7.2  8.3 -0.1600E+02  0.2783E+02 -0.5185E+01E
 Epicentro: LOS SANTOS - SANTANDER                                             3
 ACTION:UP  11-03-28 15:09 OP:jfem STATUS:               ID:20110218203227 L   I
 2011-02-18-2030-56S.COL___137                                                 6
 STAT SP IPHASW D HRMM SECON CODA AMPLIT PERI AZIMU VELO SNR AR TRES W  DIS CAZ7
 BTL  SZ EP       2032 45.87                             171     0.510   21 313 
 BAR2 SZ EP   1   2032 45.48                             170     0.0 7   23 195 
 BAR2 SZ ES   1   2033  0.05                             170     0.3 7   23 195 
 BAR2 SZ I        2033  2.18        49.3 0.18                            23 195 
 RUS  HZ EP   1   2032 49.65                             142    -0.1 7  100 177 
 RUS  HN ES   1   2033  7.42                             142     0.0 7  100 177 
 RUS  HZ I        2033 10.12        26.2 0.22                           100 177 
 GRA  SZ EP       2032 51.42                             134     0.010  126  17 
 GRA  SZ ES   1   2033  9.79                             134    -0.6 7  126  17 
 GRA  SZ I        2033 13.65        23.5 0.49                           126  17 
 NOR  SZ EP       2033  2.07                             116    -0.3 8  236 235 
 NOR  SN ES   1   2033 29.57                             116    -0.3 6  236 235 
 CHI  HZ EP   1   2033  4.04                             115    -0.2 6  248 196 
 CHI  HE ES   1   2033 32.53                             115    -0.6 6  248 196 
 CHI  HZ I        2033 40.51        11.2 0.41                           248 196 
 HEL  HZ EP   1   2033  7.66                             112     0.7 6  274 256 
 HEL  HN ES   1   2033 37.76                             112    -0.3 6  274 256 
 HEL  HZ I        2033 44.74        16.6 0.41                           274 256 
 RREF HZ EP   1   2033 13.83                             109     0.9 5  323 230 
 RREF HZ I        2033 55.48        11.7 0.35                           323 230 
                                                                                
