 2013 1118 2022 25.2 L   6.726 -73.167140.1  RSN  5 0.5 2.0LRSN                1
 GAP=137        1.20       6.2     6.0  8.8 -0.3228E+01  0.6884E+01  0.1566E+01E
 Epicentro: VILLANUEVA - SANTANDER                                             3
 ACTION:UPD 14-01-09 16:29 OP:ep   STATUS:               ID:20131118202225 L   I
 OLDACT:REG 13-11-19 00:24 OP:stll STATUS:               ID:20131118201814     3
 2013-11-18-2018-14M.COL___225                                                 6
 STAT SP IPHASW D HRMM SECON CODA AMPLIT PERI AZIMU VELO AIN AR TRES W  DIS CAZ7
 BAR2 SZ EP       2022 44.44                             174    0.4710 14.9 187 
 BAR2 SZ ES       2022 57.97                             174   -0.6710 14.9 187 
 BAR2 SZ I        2023  0.37        20.9 0.28            162           14.9 187 
 BRR  HZ I        2022 45.94       118.4 1.02            155           73.5 305 
 BRR  HZ EP       2022 46.28                             151    0.4310 73.5 305 
 BRR  HN ES       2023  2.32                             151    0.3510 73.5 305 
 PAM  SZ EP       2022 47.45                             147    0.1610 85.2  37 
 PAM  SN ES       2023  4.28                             147   -0.2610 85.2  37 
 PAM  SZ I        2023  7.11         4.9 0.40            142           85.2  37 
 RUS  HZ EP       2022 47.21                             145   -0.5910 92.6 174 
 RUS  HN ES       2023  6.08                             145    0.6410 92.6 174 
 PTB  HZ EP       2022 50.87                             131   -0.47 9  144 262 
 PTB  HN ES       2023 11.63                             131   -0.13 9  144 262 
 PTB  HZ I        2023 15.63         6.7 0.54            128            144 262 
                                                                                
