 2010  718 2236 58.4 L   6.152 -73.628115.5  RSN  5 0.1 1.6LRSN                1
 GAP=156        0.36       2.8     2.8  4.4  0.6146E-02  0.6032E+01 -0.7097E+00E
 Epicentro: LA PAZ - SANTANDER                                                 3
 ACTION:UPD 10-12-01 15:18 OP:pat  STATUS:               ID:20100718223658 L   I
 2010-07-18-2234-21S.COL___120                                                 6
 STAT SP IPHASW D HRMM SECON CODA AMPLIT PERI AZIMU VELO AIN AR TRES W  DIS CAZ7
 RUS  HZ EP       2237 16.67                             148    -0.110   67 115 
 RUS  HZ I        2237 17.03         5.9 0.21                            67 115 
 RUS  HE ES   2   2237 31.07                             148     0.0 5   67 115 
 BAR2 SZ EP   1   2237 16.83                             147     0.3 7   69  45 
 BAR2 SZ ES   1   2237 30.66                             147     0.0 7   69  45 
 BRR  HZ EP       2237 19.08                             134     0.010  106 355 
 BRR  HZ I        2237 19.42        17.5 0.08                           106 355 
 BRR  HN ES   2   2237 35.13                             134    -0.1 5  106 355 
 GUE  SZ EP       2237 29.02                             115    -0.1 9  201  23 
 GUE  SZ I        2237 31.24         3.8 0.14                           201  23 
 HEL  HZ EP   1   2237 30.16                             114     0.0 6  210 271 
 HEL  HN ES   2   2237 55.10                             114     0.1 4  210 271 
 HEL  HZ I        2238  0.21         2.5 0.23                           210 271 
                                                                                
