 2017  618 2232 34.3 L   7.310 -73.199135.7  RSN  4 0.1 1.2LRSN                1
 GAP=307        0.45       4.3     4.2  4.6 -0.2816E+01 -0.3174E+01  0.1988E+01E
 Epicentro: RIONEGRO - SANTANDER                                               3
 ACTION:UPD 17-09-14 16:53 OP:jn   STATUS:               ID:20170618223234 L   I
 OLDACT:REG 17-06-19 06:13 OP:edw  STATUS:               ID:20170618222738     3
 2017-06-18-2228-00M.COL___338                                                 6
 STAT SP IPHASW D HRMM SECON CODA AMPLIT PERI AZIMU VELO AIN AR TRES W  DIS CAZ7
 BRR  HZ EP       2232 53.72                             155   -0.0810 60.9 248 
 BRR  HN ES       2233  9.07                             155    0.0710 60.9 248 
 PTB  HZ EP   9   2232 58.90                             127   -3.04 0  163 239 
 PTB  HE ES       2233 20.11                                   -0.34 9  163 239 
 PTB  HZ I        2233 21.76         1.0 0.50            120            163 239 
 ZAR  HN ES       2233 27.24                             123   -0.02 9  184 276 
 NOR  HZ EP   2   2233 13.27                             113    0.18 4  267 224 
 NOR  HN ES       2233 43.35                             113    0.02 8  267 224 
 NOR  HZ I        2233 52.86         1.7 0.12            108            267 224 
                                                                                
