 2010  318 2225 32.3 L   6.834 -72.944148.4  RSN  6 0.3 1.8LRSN                1
 GAP=259        0.75       4.6     7.2  7.0  0.7949E+01  0.4419E+01  0.7965E+01E
 Epicentro: CEPITA - SANTANDER                                                 3
 ACTION:UP  10-08-24 09:54 OP:vdl  STATUS:               ID:20100318222532 L   I
 2010-03-18-2223-23S.COL___098                                                 6
 STAT SP IPHASW D HRMM SECON CODA AMPLIT PERI AZIMU VELO SNR AR TRES W  DIS CAZ7
 BAR2 SZ EP       2225 52.72                             165     0.110   38 225 
 BAR2 SZ ES   2   2226  8.78                             165     0.3 5   38 225 
 BRR  HZ EP       2225 54.66                             147    -0.210   90 290 
 BRR  HZ I        2226  8.56        21.8 0.08                            90 290 
 BRR  HN ES       2226 12.49                             147     0.010   90 290 
 RUS  HZ EP   1   2225 57.23                             143     0.6 7  105 188 
 RUS  HN ES       2226 15.55                             143    -0.110  105 188 
 RUS  HZ I        2226 18.15         5.2 0.50                           105 188 
 CHI  HZ EP   1   2226 10.79                             117    -0.5 6  259 200 
 CHI  HZ I        2226 11.41         3.3 0.12                           259 200 
 CHI  HN ES   1   2226 41.17                             117    -0.5 6  259 200 
 RREF BN ES       2226 58.93                             110     0.3 7  341 231 
 RREF BZ I        2227  4.39         3.4 0.18                           341 231 
 TOL  SZ EP   2   2226 23.45                             109     0.6 3  362 227 
                                                                                
