 2012  818 2118 42.3 L   6.484 -73.606109.8  RSN  4 0.1 1.6LRSN                1
 GAP=135        0.42       3.1     2.5  4.7  0.2934E+01  0.3425E+01  0.2742E+01E
 Epicentro: SANTA HELENA DEL OPON - SANTANDER                                  3
 ACTION:UPD 12-09-10 11:57 OP:ep   STATUS:               ID:20120818211842 L   I
 2012-08-18-2110-00M.COL___218                                                 6
 STAT SP IPHASW D HRMM SECON CODA AMPLIT PERI AZIMU VELO AIN AR TRES W  DIS CAZ7
 BAR2 SZ EP       2118 58.73                             155    0.0710 48.4  76 
 BAR2 SZ I        2118 59.07        34.8 0.27                          48.4  76 
 BAR2 SZ ES   1   2119 11.41                             155    0.01 7 48.4  76 
 BRR  HZ EP       2118 59.39                             145   -0.2510 69.8 350 
 BRR  HZ I        2119  7.13        11.7 0.43                          69.8 350 
 BRR  HN ES   1   2119 13.31                             145    0.18 7 69.8 350 
 RUS  HZ EP   1   2119  1.85                             139    0.20 7 87.4 138 
 RUS  HE ES   1   2119 16.55                             139   -0.17 7 87.4 138 
 RUS  HZ I        2119 19.18         4.4 0.34                          87.4 138 
 PTB  HZ EP       2119  1.64                             136    0.0910 94.2 274 
 PTB  HN ES   1   2119 16.50                             136   -0.04 7 94.2 274 
 PTB  HZ I        2119 21.36         6.1 0.25                          94.2 274 
                                                                                
