 2013 1118 2057 18.7 L   6.744 -73.146134.9  RSN  5 0.6 1.7LRSN                1
 GAP=139        1.52       7.6     7.5 11.2 -0.5039E+01  0.1187E+02  0.3002E+01E
 Epicentro: JORDAN - SANTANDER                                                 3
 ACTION:UPD 14-01-09 16:29 OP:ep   STATUS:               ID:20131118205718 L   I
 OLDACT:REG 13-11-19 00:24 OP:stll STATUS:               ID:20131118204820     3
 2013-11-18-2048-20M.COL___228                                                 6
 STAT SP IPHASW D HRMM SECON CODA AMPLIT PERI AZIMU VELO AIN AR TRES W  DIS CAZ7
 BAR2 SZ EP       2057 37.93                             172    0.9910 17.2 194 
 BAR2 SZ ES       2057 51.40                             172    0.2610 17.2 194 
 BAR2 SZ I        2057 54.48        15.9 0.28            172           17.2 194 
 BRR  HZ EP       2057 38.81                             149   -0.1010 74.4 303 
 BRR  HE ES       2057 55.00                             149    0.3610 74.4 303 
 BRR  HZ I        2057 59.77        17.8 0.26            149           74.4 303 
 PAM  SZ EP       2057 39.47                             147   -0.6510 82.3  37 
 PAM  SZ I        2057 39.82         6.1 0.24            151           82.3  37 
 PAM  SN ES       2057 56.60                             147   -0.2010 82.3  37 
 RUS  HZ EP       2057 40.60                             143   -0.3610 94.4 176 
 RUS  HN ES       2057 58.15                             143   -0.1610 94.4 176 
 PTB  HZ EP       2057 45.57                             130    0.84 9  147 261 
 PTB  HN ES       2058  4.00                             130   -1.01 9  147 261 
 PTB  HZ I        2058  8.24         3.5 0.10            131            147 261 
                                                                                
