 2013  618 2131  1.6 L   6.799 -73.159142.0  RSN 14 0.5 3.0LRSN                1
 GAP=110        0.97       3.1     3.6  5.9  0.5677E+00  0.8358E+00  0.2404E+01E
 Epicentro: LOS SANTOS - SANTANDER                                             3
 ACTION:UPD 14-01-08 09:55 OP:ep   STATUS:               ID:20130618213101 L   I
 OLDACT:REG 13-06-19 01:39 OP:mh   STATUS:               ID:20130618213050     3
 2013-06-18-2130-50M.COL___226                                                 6
 STAT SP IPHASW D HRMM SECON CODA AMPLIT PERI AZIMU VELO AIN AR TRES W  DIS CAZ7
 BAR2 SZ EP       2131 20.83                             170    0.0510 23.0 187 
 BAR2 SZ ES   1   2131 35.12                             170   -0.62 7 23.0 187 
 GIR2 SZ EP       2131 20.97                             167    0.1310 31.2 353 
 GIR2 SZ I        2131 21.22       123.3 0.24            167           31.2 353 
 BRR  HZ IP     C 2131 22.76                             152    0.4710 70.0 299 
 BRR  HN ES       2131 39.42                             152    1.0110 70.0 299 
 BRR  HZ I        2131 40.59       105.4 0.20            151           70.0 299 
 RUS  HZ IP     C 2131 24.71                             143   -0.2910  101 175 
 RUS  HN ES   1   2131 43.02                             143   -0.21 7  101 175 
 RUS  HN I        2131 44.97       126.2 0.32            143            101 175 
 PTB  HZ EP       2131 27.50                             132   -0.65 9  146 259 
 PTB  HN ES   1   2131 48.17                             132   -0.67 7  146 259 
 PTB  HZ I        2131 50.80       108.3 0.14            130            146 259 
 TAM  HZ IP     C 2131 29.19                             130    0.07 9  156 105 
 TAM  HN ES   1   2131 50.63                             130    0.05 7  156 105 
 TAM  HN I        2131 51.31       114.7 0.30            131            156 105 
 OCA  HZ EP   1   2131 29.34                             129   -0.29 7  160 354 
 OCA  HE ES       2131 51.25                             129   -0.23 9  160 354 
 OCA  HN I        2131 54.16       431.1 0.22            129            160 354 
 YOP  SZ IPg      2131 31.48                             126    0.04 9  179 153 
 NOR  HZ IP     C 2131 37.35                             118    0.36 8  233 234 
 NOR  HN ES   1   2132  4.48                             118   -0.11 6  233 234 
 NOR  HN I        2132  7.50        97.6 0.20            118            233 234 
 SML  HZ EP   1   2131 37.36                             117   -0.62 6  243 336 
 SML  HN ES   1   2132  6.02                             117   -0.32 6  243 336 
 SML  HN I        2132  9.21       163.3 0.10            117            243 336 
 ROSC BZ EP   1   2131 40.48                             116    1.04 6  252 211 
 HEL  HZ EP   1   2131 41.39                             114   -0.09 6  271 256 
 HEL  HN ES   1   2132 12.34                             114   -0.24 6  271 256 
 HEL  HN I        2132 20.37        51.2 0.38            114            271 256 
 COD  HZ EP   4   2131 48.71                             108   -1.13 0  348 355 
 COD  HN ES   1   2132 27.65                             108    0.19 5  348 355 
 PRA  HZ EP   1   2131 54.70                             106   -0.21 4  391 209 
 PRA  HN ES   1   2132 36.94                             106    0.46 4  391 209 
 PRA  HN I        2132 43.30        22.0 0.34            106            391 209 
                                                                                
