 2011 1118 2153 25.0 L   6.749 -73.084138.1  RSN  4 0.2 1.6LRSN                1
 GAP=147        0.41       2.9     4.2  5.0 -0.4298E+00 -0.9156E+00  0.8895E-01E
 Epicentro: LOS SANTOS - SANTANDER                                             3
 ACTION:UPD 12-07-13 16:11 OP:ep   STATUS:               ID:20111118215325 L   I
 2011-11-18-2150-14S.COL___179                                                 6
 STAT SP IPHASW D HRMM SECON CODA AMPLIT PERI AZIMU VELO AIN AR TRES W  DIS CAZ7
 BAR2 SZ EP       2153 43.57                             171   -0.0410 20.5 212 
 BAR2 SZ ES   2   2153 58.61                             171    0.46 5 20.5 212 
 BAR2 SZ I        2154  1.85         8.0 0.51                          20.5 212 
 PAM  SZ EP   1   2153 46.43                             149    0.04 7 77.9  33 
 PAM  SN ES   1   2154  3.04                             149   -0.07 7 77.9  33 
 BRR  HZ EP   1   2153 45.78                             148   -0.04 7 79.9 300 
 BRR  HZ I        2153 48.44        32.1 0.29                          79.9 300 
 BRR  HE ES   1   2154  2.08                             148   -0.01 7 79.9 300 
 RUS  HZ EP   2   2153 47.90                             144    0.37 5 94.7 180 
 RUS  HE ES   1   2154  4.91                             144   -0.22 7 94.7 180 
 RUS  HZ I        2154  7.21         2.8 0.33                          94.7 180 
                                                                                
