 2012  118 2335 10.3 L   6.775 -73.145142.0  RSN 11 0.4 2.1LRSN                1
 GAP=138        0.94       3.9     4.6  6.6 -0.1550E+01  0.2705E+01  0.4555E+01E
 Epicentro: LOS SANTOS - SANTANDER                                             3
 ACTION:UP  12-02-03 08:18 OP:REBC STATUS:               ID:20120118233510 L   I
 2012-01-18-2330-00M.COL___187                                                 6
 STAT SP IPHASW D HRMM SECON CODA AMPLIT PERI AZIMU VELO SNR AR TRES W  DIS CAZ7
 BAR2 SZ EP       2335 29.44                             171     0.010   21 191 
 BAR2 SZ ES   1   2335 44.11                             171    -0.3 7   21 191 
 BAR2 SZ I        2335 45.65        57.5 0.28                            21 191 
 BRR  HZ EP   1   2335 31.30                             152     0.1 7   73 300 
 BRR  HE ES       2335 48.16                             152     0.810   73 300 
 BRR  HZ I        2335 49.35        32.7 0.10                            73 300 
 PAM  SZ EP       2335 32.44                             150     0.210   80  38 
 PAM  SE ES   2   2335 49.27                             150    -0.1 5   80  38 
 RUS  HZ EP       2335 33.40                             144    -0.110   98 176 
 RUS  HN ES   1   2335 51.50                             144    -0.1 7   98 176 
 RUS  HZ I        2335 52.80        14.7 0.19                            98 176 
 PTB  HZ EP   1   2335 36.32                             132    -0.6 7  147 260 
 PTB  HN ES   1   2335 56.92                             132    -0.8 7  147 260 
 OCA  SZ EP   1   2335 38.34                             129    -0.3 7  163 353 
 OCA  SZ ES   2   2336  0.67                             129     0.0 5  163 353 
 OCA  SZ I        2336  4.88        27.8 0.18                           163 353 
 ZAR  HZ EP   1   2335 41.99                             122    -0.7 6  205 293 
 ZAR  HN ES   1   2336  7.96                             122     0.1 6  205 293 
 NOR  SN ES   1   2336 12.97                             118    -0.3 6  233 235 
 CHI  HZ EP   1   2335 47.47                             117    -0.1 6  246 195 
 CHI  HN ES   2   2336 16.84                             117     0.3 4  246 195 
 CHI  HZ I        2336 23.49         5.8 0.41                           246 195 
 RREF HN ES   1   2336 32.62                             110     0.8 5  320 230 
 RREF HZ I        2336 37.77         4.7 0.29                           320 230 
 PRA  HZ EP   1   2336  3.99                             106     0.5 4  390 210 
 PRA  HN ES   1   2336 45.69                             106     0.8 4  390 210 
                                                                                
