 2016  518 2034 22.7 L   6.824 -73.137148.1  RSN 12 0.3 2.5LRSN                1
 GAP=136        0.72       2.0     2.6  3.8 -0.4643E+00  0.2988E+01  0.7186E+00E
 Epicentro: LOS SANTOS - SANTANDER                                             3
 ACTION:UPD 16-08-18 17:47 OP:cam  STATUS:               ID:20160518203422 L   I
 OLDACT:REG 16-05-19 04:46 OP:dani STATUS:               ID:20160518202743     3
 2016-05-18-2027-43M.COL___303                                                 6
 STAT SP IPHASW D HRMM SECON CODA AMPLIT PERI AZIMU VELO AIN AR TRES W  DIS CAZ7
 BAR2 EZ IP     D 2034 42.52                             170   -0.1010 26.1 191 
 BAR2 EZ ES       2034 57.91                             170   -0.2810 26.1 191 
 BAR2 EZ I        2034 58.46        54.4 0.28            168           26.1 191 
 BRR  HZ EP       2034 44.24                             153    0.2110 70.8 296 
 BRR  HE ES       2035  1.03                             153    0.3310 70.8 296 
 BRR  HZ I        2035  4.25        47.6 0.28            150           70.8 296 
 PAM  EZ EP       2034 45.26                             152    0.3010 74.8  40 
 PAM  EE ES       2035  2.35                             152   -0.0210 74.8  40 
 PAM  EZ I        2035  4.24       104.5 0.52            155           74.8  40 
 RUS  HZ EP     D 2034 46.62                             144   -0.2010  103 177 
 RUS  HE ES       2035  5.33                             144   -0.3310  103 177 
 RUS  HZ I        2035  7.07        30.2 0.28            145            103 177 
 PTB  HZ EP       2034 49.51                             132   -0.43 9  149 258 
 PTB  HE ES       2035 11.08                             132   -0.14 9  149 258 
 PTB  HZ I        2035 13.04        38.1 0.10            131            149 258 
 OCA  HZ IP       2034 50.46                             131   -0.45 9  158 353 
 OCA  HN ES       2035 13.21                             131    0.25 9  158 353 
 OCA  HZ I        2035 21.44        52.0 0.54            131            158 353 
 SPBC HZ EP       2034 51.60                             129    0.02 9  166 219 
 SPBC HN ES       2035 14.59                             129    0.45 9  166 219 
 SPBC HZ I        2035 20.91        35.0 0.24            129            166 219 
 ZAR  HZ EP       2034 55.35                             123    0.11 9  204 291 
 ZAR  HN ES       2035 20.88                             123    0.22 9  204 291 
 ZAR  HZ I        2035 26.43        38.5 0.40            123            204 291 
 NOR  HZ IP       2034 59.08                             119    0.32 8  237 234 
 NOR  HN ES       2035 26.96                             119    0.04 8  237 234 
 NOR  HZ I        2035 34.68        21.8 0.16            119            237 234 
 CHI  HZ EP       2035  0.86                             117    0.08 8  251 195 
 CHI  HN ES       2035 30.95                             117    0.43 8  251 195 
 CHI  HZ I        2035 35.62         9.5 0.32            118            251 195 
 URE  HN ES       2035 35.46                             114   -0.48 7  284 291 
 URE  HZ I        2035 39.94        19.0 0.14            114            284 291 
 CBOC HZ EP       2035 10.00                             110    0.14 7  335 252 
 CBOC HE ES       2035 46.16                             110   -0.52 7  335 252 
 CBOC HZ I        2035 58.53         5.8 0.44            111            335 252 
                                                                                
