 2015  118 2040 48.3 L   6.757 -73.199144.5  RSN  4 0.2 1.5LRSN                1
 GAP=195        0.46       2.2     6.9  3.8  0.1022E+02 -0.3175E+01 -0.1045E+01E
 Epicentro: VILLANUEVA - SANTANDER                                             3
 ACTION:UPD 15-03-02 15:40 OP:nd   STATUS:               ID:20150118204048 L   I
 OLDACT:REG 15-01-19 02:53 OP:fm   STATUS:               ID:20150118203750     3
 2015-01-18-2037-50M.COL___262                                                 6
 STAT SP IPHASW D HRMM SECON CODA AMPLIT PERI AZIMU VELO AIN AR TRES W  DIS CAZ7
 BRR  HZ EP       2041  9.28                             153    0.1610 68.7 304 
 BRR  HE ES       2041 25.55                             153    0.1510 68.7 304 
 BRR  HZ I        2041 28.23         4.6 0.38            143           68.7 304 
 RUS  HZ EP       2041 11.66                             145    0.0810 96.5 172 
 RUS  HE ES       2041 29.65                             145   -0.1410 96.5 172 
 RUS  HZ I        2041 31.42         4.0 0.22            140           96.5 172 
 CHI  HZ EP       2041 25.30                             117    0.08 8  243 194 
 CHI  HE ES       2041 53.89                             117   -0.17 8  243 194 
 CHI  HZ I        2042  2.75         1.5 0.30            114            243 194 
 SML  HZ EP       2041 25.08                             117    0.06 8  246 337 
 SML  HE ES       2041 53.33                             117   -0.36 8  246 337 
 SML  HZ I        2041 57.30         5.1 0.28            115            246 337 
                                                                                
