 2012  718 2205 47.4 L   6.781 -73.148141.8  RSN  6 0.3 1.7LRSN                1
 GAP=137        0.77       4.8     4.3  7.0  0.1267E+01  0.3153E+01  0.9958E+00E
 Epicentro: LOS SANTOS - SANTANDER                                             3
 ACTION:UPD 12-08-14 11:45 OP:ep   STATUS:               ID:20120718220547 L   I
 2012-07-18-2200-00M.COL___196                                                 6
 STAT SP IPHASW D HRMM SECON CODA AMPLIT PERI AZIMU VELO AIN AR TRES W  DIS CAZ7
 BAR2 SZ EP   1   22 6  6.42                             171     0.0 7   21 190 
 BAR2 SZ ES   1   22 6 21.45                             171     0.1 7   21 190 
 BAR2 SZ I        22 6 22.72        12.9 0.27            170             21 190 
 BRR  HZ EP   1   22 6  8.42                             151     0.3 7   72 300 
 BRR  HE ES   1   22 6 24.88                             151     0.6 7   72 300 
 BRR  HZ I        22 6 29.47        18.1 0.39            153             72 300 
 PAM  SZ EP       22 6  9.41                             149     0.210   79  39 
 PAM  SE ES   1   22 6 25.80                             149    -0.5 7   79  39 
 RUS  HZ EP       22 6 10.77                             143     0.210   99 176 
 RUS  HN ES   1   22 6 28.41                             143    -0.3 7   99 176 
 RUS  HZ I        22 6 31.90         4.0 0.45            146             99 176 
 PTB  HZ EP   1   22 6 13.56                             131    -0.4 7  147 260 
 PTB  HN ES   1   22 6 34.53                             131    -0.2 7  147 260 
 PTB  HZ I        22 6 36.79         4.6 0.13            134            147 260 
 ZAR  HN ES   1   22 6 44.39                             121    -0.4 6  205 293 
