 2010 1118 2104 25.9 L   6.815 -73.070140.0  RSN  5 0.2 1.6LRSN                1
 GAP=167        0.41       2.9     5.6  6.0  0.4994E+01 -0.6700E+01 -0.7269E+01E
 Epicentro: LOS SANTOS - SANTANDER                                             3
 ACTION:UP  10-12-17 16:53 OP:REBC STATUS:               ID:20101118210425 L   I
 2010-11-18-2059-58S.COL___129                                                 6
 STAT SP IPHASW D HRMM SECON CODA AMPLIT PERI AZIMU VELO SNR AR TRES W  DIS CAZ7
 BAR2 SZ EP   1   21 4 44.79                             168    -0.2 7   28 207 
 BAR2 SZ ES   2   21 4 59.49                             168    -0.3 5   28 207 
 BAR2 SZ I        21 5  1.23        10.0 0.21                            28 207 
 GIR2 SZ EP   2   21 4 44.95                             166     0.0 5   32 335 
 BRR  HZ EP       21 4 46.76                             149    -0.110   78 295 
 BRR  HZ I        21 4 47.11        19.0 0.07                            78 295 
 BRR  HN ES   1   21 5  3.35                             149     0.2 7   78 295 
 RUS  HE ES       21 5  7.49                             142     0.110  102 181 
 RUS  HZ I        21 5  8.09         4.0 0.36                           102 181 
 GRA  SZ EP   2   21 4 50.45                             137     0.1 5  122  14 
 GRA  SZ ES   2   21 5  9.50                             137     0.1 5  122  14 
 GRA  SZ I        21 5 11.49         5.3 0.45                           122  14 
                                                                                
