 2013 1018 2206 22.3 L   6.754 -73.142142.4  RSN  5 0.5 1.7LRSN                1
 GAP=139        1.21       6.3     6.2  8.8 -0.3557E+01  0.7029E+01  0.2047E+01E
 Epicentro: LOS SANTOS - SANTANDER                                             3
 ACTION:UPD 13-11-25 09:22 OP:ep   STATUS:               ID:20131018220622 L   I
 OLDACT:REG 13-10-19 01:04 OP:nd   STATUS:               ID:20131018215848     3
 2013-10-18-2158-48M.COL___220                                                 6
 STAT SP IPHASW D HRMM SECON CODA AMPLIT PERI AZIMU VELO AIN AR TRES W  DIS CAZ7
 BAR2 SZ EP       22 6 41.70                             172    0.2410 18.4 194 
 BAR2 SZ ES       22 6 56.18                             172   -0.2110 18.4 194 
 BAR2 SZ I        22 6 57.78        11.8 0.46            171           18.4 194 
 BRR  HZ EP       22 6 43.61                             151    0.3310 74.1 302 
 BRR  HN ES       22 7  0.48                             151    0.8510 74.1 302 
 BRR  HZ I        22 7 12.71        15.6 0.28            149           74.1 302 
 PAM  SZ EP       22 6 44.52                             149    0.1010 81.2  37 
 PAM  SN ES       22 7  1.00                             149   -0.6510 81.2  37 
 PAM  SZ I        22 7  2.11         7.7 0.36            153           81.2  37 
 RUS  HZ EP       22 6 45.67                             145    0.2910 95.4 176 
 RUS  HN ES       22 7  3.41                             145    0.0510 95.4 176 
 RUS  HZ I        22 7  5.35         4.1 0.28            151           95.4 176 
 PTB  HZ EP       22 6 48.38                             131   -0.59 9  147 261 
 PTB  HN ES       22 7  9.18                             131   -0.58 9  147 261 
 PTB  HZ I        22 7 11.77        10.3 0.16            133            147 261 
                                                                                
