 2017  518 2159 55.8 L   6.813 -73.167148.7  RSN  9 0.4 2.0LRSN                1
 GAP=109        0.90       3.4     3.3  6.4  0.4947E+00  0.1883E+01  0.7959E+01E
 Epicentro: LOS SANTOS - SANTANDER                                             3
 ACTION:UPD 17-06-16 13:37 OP:jn   STATUS:               ID:20170518215955 L   I
 OLDACT:DUP 17-05-19 05:02 OP:osc  STATUS:               ID:20170518215038d    3
 2017-05-18-2158-00M.COL___356                                                 6
 STAT SP IPHASW D HRMM SECON CODA AMPLIT PERI AZIMU VELO AIN AR TRES W  DIS CAZ7
 BRR  HZ EP       22 0 17.25                             154    0.1310 68.4 298 
 BRR  HN ES       22 0 34.30                             154    0.5610 68.4 298 
 BRR  HZ I        22 0 37.48        21.7 0.28            155           68.4 298 
 PAM  EZ EP       22 0 18.23                             151   -0.1310 77.8  42 
 PAM  EN ES       22 0 35.44                             151   -0.5010 77.8  42 
 PAM  EZ I        22 0 37.57        18.1 0.56            159           77.8  42 
 PTB  HZ EP       22 0 22.69                             133   -0.15 9  146 258 
 PTB  HN ES       22 0 43.40                             133   -0.52 9  146 258 
 PTB  HZ I        22 0 49.86        11.1 0.38            134            146 258 
 SPBC HZ EP       22 0 24.66                             130    0.16 9  163 218 
 SPBC HE ES       22 0 47.27                             130    0.39 9  163 218 
 SPBC HZ I        22 0 50.87        11.9 0.10            131            163 218 
 YPLC HZ EP     C 22 0 25.88                             127   -0.17 9  179 151 
 YPLC HN ES       22 0 50.07                             127    0.43 9  179 151 
 YPLC HZ I        22 0 52.58         5.3 0.34            130            179 151 
 ZAR  HZ EP       22 0 28.75                             123    0.58 9  201 292 
 ZAR  HE ES       22 0 53.49                             123    0.08 9  201 292 
 ZAR  HZ I        22 0 58.62        13.9 0.24            126            201 292 
 NOR  HZ EP       22 0 31.35                             119   -0.25 8  234 234 
 NOR  HN ES       22 0 58.89                             119   -0.62 8  234 234 
 NOR  HZ I        22 1  8.80         5.6 0.20            121            234 234 
 CHI  HZ EP       22 0 33.86                             118    0.10 8  249 195 
 CHI  HN ES       22 1  3.18                             118   -0.18 8  249 195 
 CHI  HZ I        22 1  6.47         8.3 0.60            120            249 195 
 ROSC BZ EP   4   22 0 35.83                             117    1.73 0  253 210 
 ROSC BE ES   4   22 1  6.29                             117    2.33 0  253 210 
 ROSC BZ I        22 1  9.89        19.4 0.45            119            253 210 
                                                                                
