 2012  318 2306 11.9 L   6.745 -73.136142.7  RSN  7 0.4 2.2LRSN                1
 GAP=140        1.00       5.1     4.6  7.1 -0.7630E+00  0.9700E+01  0.1966E+01E
 ACTION:UP  12-03-31 23:20 OP:EP   STATUS:               ID:20120318230611 L   I
 2012-03-18-2300-00M.COL___202                                                 6
 STAT SP IPHASW D HRMM SECON CODA AMPLIT PERI AZIMU VELO SNR AR TRES W  DIS CAZ7
 BAR2 SZ ES       23 6 45.93                             172    -0.110   18 197 
 BAR2 SZ I        23 6 47.08        47.6 0.21                            18 197 
 BRR  HZ EP       23 6 33.09                             151     0.110   75 302 
 BRR  HZ I        23 6 35.06        48.9 0.07                            75 302 
 BRR  HN ES       23 6 49.76                             151     0.410   75 302 
 PAM  SZ EP       23 6 34.07                             149     0.010   82  36 
 PAM  SN ES       23 6 51.00                             149    -0.310   82  36 
 RUS  HZ EP       23 6 35.06                             145     0.110   95 176 
 RUS  HE ES   1   23 6 53.30                             145     0.4 7   95 176 
 RUS  HZ I        23 6 55.31        10.9 0.46                            95 176 
 PTB  HZ EP       23 6 37.94                             131    -0.7 9  148 261 
 PTB  HN ES   1   23 6 59.08                             131    -0.4 7  148 261 
 PTB  HZ I        23 7  2.98        13.3 0.13                           148 261 
 ZAR  HZ EP   1   23 6 45.31                             121     0.8 6  207 294 
 ZAR  HE ES       23 7  9.94                             121     0.0 8  207 294 
 ZAR  HZ I        23 7 18.06        16.7 0.31                           207 294 
 NOR  SN ES   1   23 7 14.60                             118    -0.1 6  232 236 
                                                                                
