 2015  118 2125 43.8 L   6.808 -73.143143.4  RSN  6 0.3 1.6LRSN                1
 GAP=136        0.68       2.3     3.2  5.8  0.4697E+00  0.6643E+01 -0.3523E+00E
 Epicentro: LOS SANTOS - SANTANDER                                             3
 ACTION:UPD 15-03-02 15:40 OP:nd   STATUS:               ID:20150118212543 L   I
 OLDACT:REG 15-01-19 02:54 OP:fm   STATUS:               ID:20150118211750     3
 2015-01-18-2117-50M.COL___262                                                 6
 STAT SP IPHASW D HRMM SECON CODA AMPLIT PERI AZIMU VELO AIN AR TRES W  DIS CAZ7
 PAM  SZ EP       2126  6.13                             151    0.4210 76.5  40 
 PAM  SE ES       2126 22.72                             151   -0.0810 76.5  40 
 PAM  SZ I        2126 23.68        10.0 0.24            155           76.5  40 
 RUS  HZ EP       2126  7.37                             143   -0.0110  101 176 
 RUS  HN ES       2126 25.64                             143   -0.1410  101 176 
 RUS  HZ I        2126 27.78         1.9 0.44            143            101 176 
 PTB  HZ EP       2126 10.22                             131   -0.39 9  148 259 
 PTB  HE ES       2126 31.95                             131    0.43 9  148 259 
 PTB  HZ I        2126 34.05         7.1 0.12            131            148 259 
 ZAR  HZ EP       2126 16.25                             122    0.18 9  204 292 
 ZAR  HN ES       2126 41.22                             122   -0.03 9  204 292 
 ZAR  HZ I        2126 47.14         5.5 0.26            122            204 292 
 SML  HZ EP   1   2126 20.32                             117    0.11 6  243 335 
 SML  HN ES       2126 48.14                             117   -0.47 8  243 335 
 SML  HZ I        2126 51.08         5.6 0.28            118            243 335 
 CHI  HZ EP   1   2126 21.63                             116    0.17 6  250 195 
 CHI  HE ES       2126 50.62                             116   -0.23 8  250 195 
 CHI  HZ I        2127  0.30         1.4 0.24            117            250 195 
                                                                                
