 2013  818 2320 37.6 L   6.807 -73.138148.6  RSN 11 0.5 2.1LRSN                1
 GAP=137        1.07       3.6     5.0  6.9 -0.8019E+00  0.6868E+01  0.1238E+01E
 Epicentro: LOS SANTOS - SANTANDER                                             3
 ACTION:UPD 14-01-14 09:04 OP:ep   STATUS:               ID:20130818232037 L   I
 OLDACT:REG 13-08-19 04:14 OP:carl STATUS:               ID:20130818231959     3
 2013-08-18-2319-59M.COL___269                                                 6
 STAT SP IPHASW D HRMM SECON CODA AMPLIT PERI AZIMU VELO AIN AR TRES W  DIS CAZ7
 BAR2 SZ EP       2320 57.61                             170    0.0110 24.3 192 
 BAR2 SZ ES   1   2321 12.71                             170   -0.47 7 24.3 192 
 BAR2 SZ I        2321 14.22        21.0 0.18            169           24.3 192 
 BRR  HZ EP       2320 59.49                             153    0.4110 71.5 298 
 BRR  HE ES   1   2321 16.66                             153    0.83 7 71.5 298 
 BRR  HZ I        2321 20.46        19.3 0.14            152           71.5 298 
 PAM  SZ EP   1   2321  0.52                             152    0.46 7 76.3  39 
 PAM  SN ES   1   2321 17.61                             152    0.04 7 76.3  39 
 PAM  SZ I        2321 19.68        30.7 0.50            156           76.3  39 
 RUS  HZ EP       2321  1.54                             144   -0.1510  101 177 
 RUS  HN ES   1   2321 20.33                             144   -0.14 7  101 177 
 RUS  HZ I        2321 21.45        11.6 0.30            146            101 177 
 PTB  HZ EP       2321  4.36                             132   -0.53 9  149 259 
 PTB  HN ES   1   2321 25.35                             132   -0.82 7  149 259 
 PTB  HZ I        2321 27.77         5.8 0.36            133            149 259 
 SPBC HE ES       2321 28.95                             129    0.04 9  164 219 
 SPBC HE I        2321 35.29        27.0 0.28            130            164 219 
 ZAR  HZ EP       2321 11.22                             123    0.93 9  205 292 
 ZAR  HN ES       2321 35.29                             123   -0.48 9  205 292 
 ZAR  HZ I        2321 42.80        13.0 0.32            124            205 292 
 NOR  HE ES       2321 42.61                             119    0.90 8  236 234 
 SML  HZ EP       2321 13.80                             118   -0.55 8  243 335 
 SML  HN ES   1   2321 42.55                             118   -0.46 6  243 335 
 SML  HZ I        2321 44.69        16.1 0.10            120            243 335 
 CHI  HZ EP       2321 15.32                             118   -0.25 8  250 195 
 CHI  HN ES   1   2321 44.93                             118   -0.25 6  250 195 
 CHI  HZ I        2321 48.80         6.0 0.42            119            250 195 
 PRA  HZ EP       2321 31.43                             107    0.07 6  393 210 
 PRA  HN ES       2322 13.20                             107   -0.08 6  393 210 
 PRA  HZ I        2322 19.25         4.7 0.36            108            393 210 
                                                                                
