 2016  218 2010  6.0 L   6.831 -73.200145.9  RSN 18 0.4 2.5LRSN                1
 GAP=128        0.75       2.6     2.6  4.1 -0.2358E+00  0.3604E+01  0.1775E+01E
 Epicentro: ZAPATOCA - SANTANDER                                               3
 ACTION:UPD 16-03-04 21:27 OP:rebc STATUS:               ID:20160218201006 L   I
 OLDACT:REG 16-02-19 03:47 OP:dnl  STATUS:               ID:20160218200750     3
 2016-02-18-2007-50M.COL___316                                                 6
 STAT SP IPHASW D HRMM SECON CODA AMPLIT PERI AZIMU VELO AIN AR TRES W  DIS CAZ7
 BAR2 EZ EP     D 2010 25.82                             169    0.0610 26.5 176 
 BAR2 EZ ES       2010 40.66                             169   -0.4810 26.5 176 
 BAR2 EZ I        2010 43.62        62.2 0.28            167           26.5 176 
 BRR  HZ EP   2   2010 27.64                             155    0.80 5 64.3 298 
 BRR  HN ES       2010 43.53                             155    0.4710 64.3 298 
 BRR  HZ I        2010 47.85        65.2 0.26            150           64.3 298 
 PAM  EZ EP     C 2010 28.78                             150    0.4110 78.8  44 
 PAM  EN ES       2010 45.74                             150   -0.0310 78.8  44 
 PAM  EZ I        2010 48.02        46.2 0.50            156           78.8  44 
 RUS  HZ EP     D 2010 29.80                             143   -0.3010  105 173 
 RUS  HN ES       2010 48.82                             143   -0.0510  105 173 
 RUS  HZ I        2010 49.71        29.0 0.30            144            105 173 
 PTB  HZ EP       2010 32.32                             133   -0.25 9  143 257 
 PTB  HN ES       2010 53.67                             133    0.42 9  143 257 
 PTB  HZ I        2010 54.63        42.8 0.16            130            143 257 
 SPBC HZ EP       2010 34.79                             129    0.32 9  162 217 
 SPBC HN ES       2010 56.72                             129    0.09 9  162 217 
 SPBC HZ I        2011  3.01        65.7 0.26            128            162 217 
 ZAR  HZ EP   2   2010 38.05                             123    0.25 4  197 292 
 ZAR  HN ES       2011  2.01                             123   -0.56 9  197 292 
 ZAR  HZ I        2011 14.26        23.5 0.14            122            197 292 
 NOR  HZ EP       2010 41.29                             119   -0.20 8  232 233 
 NOR  HN ES       2011  9.20                             119    0.07 8  232 233 
 NOR  HZ I        2011 17.67        33.4 0.16            118            232 233 
 CHI  HZ EP       2010 43.91                             117   -0.04 8  250 194 
 CHI  HE ES   2   2011 13.37                             117   -0.15 4  250 194 
 CHI  HZ I        2011 16.49        11.6 0.28            118            250 194 
 ROSC BZ EP   4   2010 46.00                             117    1.83 0  253 209 
 ROSC BN ES   4   2011 16.73                             117    2.83 0  253 209 
 ROSC BZ I        2011 21.96        24.6 0.30            117            253 209 
 HEL  HZ EP   4   2010 47.20                             115    1.48 0  267 255 
 HEL  HE ES       2011 16.57                             115   -0.10 8  267 255 
 HEL  HZ I        2011 26.09        18.5 0.40            115            267 255 
 URE  HZ EP   3   2010 45.69                             114   -0.67 2  277 292 
 URE  HE ES       2011 17.13                             114   -0.68 7  277 292 
 URE  HZ I        2011 28.41        21.2 0.24            114            277 292 
 GUY2CHZ EP   4   2010 50.63                             113    1.29 0  298 234 
 GUY2CHN ES   2   2011 23.32                             113    0.21 4  298 234 
 GUY2CHZ I        2011 36.07        16.7 0.50                           298 234 
 PTGC HZ EP   4   2010 49.31                             111   -1.21 0  314 158 
 PTGC HN ES   4   2011 22.11                             111   -3.10 0  314 158 
 LL6C HZ EP   2   2010 50.65                             111   -0.69 3  321 359 
 LL6C HE ES   4   2011 24.24                             111   -2.43 0  321 359 
 CBOC HZ EP   2   2010 53.24                             110    0.80 3  329 251 
 CBOC HN ES   2   2011 29.63                             110    1.00 3  329 251 
 CBOC HZ I        2011 46.93         6.9 0.64            110            329 251 
 DBB  SZ EP       2010 53.20                             110    0.38 7  333 274 
 DBB  SZ ES   4   2011 28.66                             110   -0.64 0  333 274 
 DBB  SZ I        2011 32.04        31.4 0.42            110            333 274 
 ANIL HZ EP   3   2010 54.92                             109   -0.74 2  356 223 
 ANIL HN ES       2011 34.04                             109   -0.32 6  356 223 
 ORTC HZ EP   2   2011  0.09                             106    0.20 3  395 215 
 ORTC HN ES   4   2011 43.17                             106    1.28 0  395 215 
 ORTC HZ I        2011 46.47         7.7 0.22            107            395 215 
                                                                                
