 2015  918 2115  1.3 L   6.827 -73.176133.4  RSN 11 0.5 1.9LRSN                1
 GAP=131        1.17       3.3     4.5  8.4 -0.2070E+01  0.1435E+02 -0.2200E+00E
 Epicentro: ZAPATOCA - SANTANDER                                               3
 ACTION:UPD 15-10-28 16:27 OP:cam  STATUS:               ID:20150918211501 L   I
 OLDACT:REG 15-09-19 04:26 OP:stll STATUS:               ID:20150918210747     3
 2015-09-18-2107-47M.COL___355                                                 6
 STAT SP IPHASW D HRMM SECON CODA AMPLIT PERI AZIMU VELO AIN AR TRES W  DIS CAZ7
 BAR2 EZ EP     D 2115 19.67                             168    0.2010 26.0 181 
 BAR2 EZ I        2115 20.15        14.2 0.14            168           26.0 181 
 BRR  HZ EP     D 2115 21.40                             152    0.5710 66.8 298 
 PAM  EZ EP       2115 22.48                             148    0.3010 77.4  43 
 PAM  EN ES       2115 38.80                             148    0.3110 77.4  43 
 PAM  EZ I        2115 40.78        16.5 0.16            155           77.4  43 
 RUS  HZ EP       2115 23.78                             140   -0.2910  104 174 
 RUS  HZ I        2115 24.65         9.2 0.14            144            104 174 
 RUS  HE ES       2115 41.52                             140   -0.3510  104 174 
 PTB  HZ EP       2115 26.34                             130   -0.66 9  145 257 
 PTB  HN ES       2115 46.55                             130   -0.52 9  145 257 
 PTB  HZ I        2115 51.04         9.9 0.16            132            145 257 
 SPBC HZ EP       2115 28.75                             126   -0.12 9  163 217 
 SPBC HN ES       2115 50.16                             126   -0.24 9  163 217 
 SPBC HZ I        2115 56.95        16.6 0.20            129            163 217 
 ZAR  HZ EP       2115 32.96                             120    0.48 9  200 292 
 ZAR  HE ES       2115 57.54                             120    0.71 9  200 292 
 ZAR  HZ I        2116  3.17         8.7 0.34            123            200 292 
 NOR  HZ EP       2115 36.22                             116    0.02 8  234 233 
 NOR  HE ES       2116  3.68                             116    0.23 8  234 233 
 NOR  HZ I        2116  9.87         7.5 0.18            119            234 233 
 SML  HZ EP       2115 35.92                             115   -0.85 8  240 336 
 SML  HE ES       2116  3.69                             115   -0.78 8  240 336 
 CHI  HZ EP       2115 38.27                             114   -0.26 8  251 194 
 CHI  HE ES       2116  7.88                             114    0.28 8  251 194 
 CHI  HZ I        2116 10.71         3.3 0.44            118            251 194 
 GUY2CHZ EP       2115 45.40                             110    1.19 7  300 234 
 GUY2CHN ES       2116 17.67                             110   -0.04 7  300 234 
 GUY2CHZ I        2116 27.66         6.4 0.68                           300 234 
                                                                                
