 2010  618 2350  1.2 L   6.777 -73.064145.8  RSN 16 0.4 3.2LRSN                1
 GAP=132        0.91       3.3     5.0  5.3 -0.7503E+01 -0.1506E+01  0.1886E+01E
 Epicentro: LOS SANTOS - SANTANDER                                             3
 ACTION:UP  10-08-24 10:11 OP:vdl  STATUS:               ID:20100618235001 L   I
 2010-06-18-2346-59S.COL___118                                                 6
 STAT SP IPHASW D HRMM SECON CODA AMPLIT PERI AZIMU VELO SNR AR TRES W  DIS CAZ7
 BAR2 SZ IP       2350 20.89                             170     0.110   24 213 
 BAR2 SZ ES   1   2350 35.27                             170    -0.9 7   24 213 
 BRR  HZ IP     D 2350 22.78                             149    -0.110   80 297 
 BRR  HN ES       2350 40.21                             149     0.410   80 297 
 BRR  HZ I        2350 43.94       416.6 0.10                            80 297 
 RUS  HZ EP       2350 24.76                             145     0.010   98 181 
 RUS  HN ES   1   2350 42.95                             145    -0.1 7   98 181 
 RUS  HZ I        2350 45.22       192.6 0.42                            98 181 
 BRI  SZ IP       2350 25.55                             141     0.510  108  16 
 BRI  SZ ES   1   2350 43.82                             141     0.2 7  108  16 
 GUE  SZ EP       2350 25.88                             139    -0.110  117   8 
 GUE  SZ ES   2   2350 45.34                             139     0.0 5  117   8 
 GRA  SZ IP       2350 26.81                             137     0.410  126  13 
 GRA  SZ ES   1   2350 46.47                             137     0.4 7  126  13 
 OCA  SZ EP       2350 29.44                             129    -0.4 9  164 350 
 OCA  SZ ES   1   2350 51.63                             129    -0.6 7  164 350 
 OCA  SZ I        2350 54.75       242.7 0.32                           164 350 
 CHI  HZ EP   2   2350 39.17                             117     0.3 4  249 197 
 CHI  HE ES   2   2351  8.18                             117    -0.1 4  249 197 
 CHI  HZ I        2351 16.61        54.4 0.63                           249 197 
 ROSC BZ EP   2   2350 40.08                             116     0.5 4  255 213 
 ROSC BN ES   2   2351 10.05                             116     0.5 4  255 213 
 ROSC BZ I        2351 15.16        98.5 0.28                           255 213 
 CVER SZ EP   2   2350 42.23                             115     0.6 4  273 204 
 HEL  HZ EP   1   2350 42.08                             114    -0.2 6  280 257 
 HEL  HZ I        2351 18.83        88.8 0.30                           280 257 
 GUY  HZ EP   2   2350 45.62                             112     0.1 4  307 236 
 RREF HZ EP   2   2350 48.25                             110     0.3 3  327 231 
 RREF HN ES   1   2351 23.79                             110    -0.6 5  327 231 
 RREF HZ I        2351 33.65       114.2 0.32                           327 231 
 TOL  SZ EP   2   2350 51.16                             109     1.2 3  348 226 
 DBB  SZ IP       2350 49.07                             109    -0.6 6  349 275 
 SDV  BZ IP     C 2350 50.43                             108    -0.2 6  355  49 
 SDV  BN ES   1   2351 28.13                             108    -1.0 5  355  49 
 SDV  BZ I        2351 32.08        33.1 0.35                           355  49 
                                                                                
