 2010  518 2116 52.1 L   6.751 -73.010148.5  RSN 11 0.5 3.8LRSN                1
 GAP=151        0.95       5.3    10.1  8.7 -0.3282E+02 -0.1208E+02  0.1665E+02E
 Epicentro: CEPITA - SANTANDER                                                 3
 ACTION:UP  10-08-24 10:05 OP:vdl  STATUS:               ID:20100518211652 L   I
 2010-05-18-2115-12S.COL___108                                                 6
 STAT SP IPHASW D HRMM SECON CODA AMPLIT PERI AZIMU VELO SNR AR TRES W  DIS CAZ7
 BAR2 SZ IP     D 2117 12.08                             170     0.010   26 227 
 BAR2 SZ ES   2   2117 27.09                             170    -0.6 5   26 227 
 BRR  HZ IP     C 2117 14.74                             148     0.210   87 297 
 BRR  HZ I        2117 15.09      2074.1 0.23                            87 297 
 BRR  HE ES   2   2117 32.31                             148     0.3 5   87 297 
 BRI  SZ ES   2   2117 35.81                             142     0.6 5  109  12 
 GUE  SZ EP   1   2117 17.81                             139     0.5 7  120   4 
 GUE  SZ ES   2   2117 37.15                             139     0.2 5  120   4 
 GRA  SZ IP       2117 17.86                             137     0.110  127  10 
 GRA  SZ ES   2   2117 37.62                             137    -0.1 5  127  10 
 OCA  SZ IP       2117 20.46                             129    -0.9 9  168 348 
 OCA  SZ ES   2   2117 43.56                             129    -0.6 5  168 348 
 OCA  SZ I        2117 48.97       602.1 0.23                           168 348 
 CHI  HZ EP   1   2117 29.79                             118    -0.1 6  248 199 
 CHI  HZ I        2117 32.81       207.1 0.50                           248 199 
 CHI  HE ES   2   2117 59.28                             118    -0.1 4  248 199 
 ROSC BZ IP     D 2117 31.57                             117     0.8 8  256 215 
 ROSC BE ES   2   2118  0.46                             117    -0.5 4  256 215 
 ROSC BZ I        2118  9.83       362.7 0.43                           256 215 
 HEL  HZ EP   1   2117 34.02                             114     0.1 6  285 258 
 HEL  HZ I        2118 10.81       287.6 0.35                           285 258 
 SDV  BZ EP   1   2117 41.33                             109     0.0 5  353  48 
 PRA  HZ EP   1   2117 45.51                             107    -0.6 4  395 212 
 PRA  HN ES   2   2118 27.31                             107    -0.9 3  395 212 
 PRA  HZ I        2118 33.82       222.8 0.69                           395 212 
                                                                                
