 2014 1118 2328 15.5 L   7.219 -74.047 16.3  RSN  9 0.6 2.1LRSN                1
 GAP=106        1.59       4.4     3.9  5.5 -0.6913E+01  0.3811E+01 -0.7692E+01E
 Epicentro: PUERTO WILCHES - SANTANDER                                         3
 ACTION:UPD 14-12-19 15:44 OP:nd   STATUS:               ID:20141118232815 L   I
 OLDACT:UP  14-11-19 04:06 OP:cam  STATUS:               ID:20141118232547     3
 OLDACT:REG 14-11-19 04:02 OP:cam  STATUS:               ID:20141118232547     3
 2014-11-18-2325-47M.COL___283                                                 6
 STAT SP IPHASW D HRMM SECON CODA AMPLIT PERI AZIMU VELO AIN AR TRES W  DIS CAZ7
 BRR  HZ IP     D 2328 22.44                             109    0.1610 39.0 108 
 BRR  HN ES       2328 28.00                             109    0.4010 39.0 108 
 BRR  HZ I        2328 28.39       345.0 0.46            111           39.0 108 
 PTB  HZ IP     D 2328 29.40                              98   -0.1010 87.7 211 
 PTB  HN ES       2328 39.86                              98   -0.5810 87.7 211 
 PTB  HZ I        2328 40.90        62.2 0.16            100           87.7 211 
 BAR2 SZ EP       2328 33.58                              96   -0.7110  118 126 
 BAR2 SZ I        2328 50.57        27.3 0.64             97            118 126 
 OCA  HZ EP       2328 36.49                              56   -0.66 9  138  35 
 OCA  HN ES       2328 53.77                              56   -0.30 9  138  35 
 OCA  HZ I        2328 55.03        27.7 0.40             56            138  35 
 PAM  SZ EP       2328 39.43                              56    0.51 9  149  85 
 PAM  SN ES       2328 56.47                              56   -0.76 9  149  85 
 PAM  SZ I        2328 59.32        62.9 0.46             56            149  85 
 SPBC HN ES       2329  1.34                              56   -0.35 9  173 181 
 URE  HZ EP       2328 42.73                              56    1.27 9  174 290 
 RUS  HZ EP       2328 43.95                              56    1.03 9  181 144 
 RUS  HN ES       2329  5.05                              56    0.71 9  181 144 
 RUS  HZ I        2329  6.33        20.9 0.30             56            181 144 
 HEL  HZ EP   4   2328 46.37                              56    1.33 0  199 235 
 HEL  HN ES       2329  7.80                              56   -0.31 9  199 235 
 HEL  HZ I        2329 11.86         8.1 0.20             56            199 235 
 NOR  HZ EP   4   2328 49.06                              56    3.78 0  204 206 
 MON  HZ EP   4   2328 53.20                              56    2.53 0  248 314 
                                                                                
