 2010  718 2349 26.0 L   6.824 -73.047138.1  RSN 13 0.5 2.9LRSN                1
 GAP=169        1.17       4.4     8.1  8.3 -0.1565E+02  0.1276E+02  0.6809E+01E
 Epicentro: LOS SANTOS - SANTANDER                                             3
 ACTION:UPD 10-12-01 15:18 OP:pat  STATUS:               ID:20100718234926 L   I
 2010-07-18-2346-16S.COL___120                                                 6
 STAT SP IPHASW D HRMM SECON CODA AMPLIT PERI AZIMU VELO AIN AR TRES W  DIS CAZ7
 BAR2 SZ EP       2349 44.72                             167    -0.210   30 210 
 BAR2 SZ ES   2   2349 58.86                             167    -0.7 5   30 210 
 BAR2 SZ I        2350  2.47       108.2 0.34                            30 210 
 GIR2 SZ EP       2349 45.73                             166     0.910   33 330 
 BRR  HZ EP       2349 46.48                             148    -0.410   80 293 
 BRR  HZ I        2349 47.96       128.4 0.13                            80 293 
 BRR  HN ES   1   2350  3.39                             148     0.2 7   80 293 
 RUS  HZ EP       2349 48.78                             141    -0.410  103 182 
 RUS  HN ES   1   2350  7.23                             141    -0.1 7  103 182 
 RUS  HZ I        2350  9.40        72.1 0.29                           103 182 
 GUE  SZ EP       2349 49.59                             139    -0.110  112   7 
 GRA  SZ IP       2349 50.38                             137     0.310  120  13 
 GRA  SZ ES   1   2350  9.37                             137     0.4 7  120  13 
 GRA  SZ I        2350 11.09        59.4 0.26                           120  13 
 OCA  SZ EP       2349 53.02                             128    -0.6 9  159 349 
 OCA  SZ ES   1   2350 14.98                             128    -0.2 7  159 349 
 OCA  SZ I        2350 20.41        77.6 0.18                           159 349 
 ROSC BZ EP       2350  4.75                             114     0.1 8  261 213 
 ROSC BZ I        2350  6.64        36.6 0.15                           261 213 
 ROSC BE ES   2   2350 34.26                             114    -0.5 4  261 213 
 CVER SZ EP       2350  7.47                             113     0.7 7  279 204 
 CVER SZ I        2350  8.84        59.7 0.34                           279 204 
 HEL  HZ EP   1   2350  6.65                             112    -0.5 6  283 256 
 GUY  SZ EP       2350 10.37                             110    -0.1 7  312 236 
 GUY  SE ES   2   2350 44.51                             110    -0.7 3  312 236 
 GUY  SZ I        2350 53.77        97.8 0.48                           312 236 
 RREF HZ EP       2350 13.29                             109     0.3 7  332 230 
 RREF HE ES       2350 50.30                             109     0.7 7  332 230 
 RREF HZ I        2350 56.94        34.7 0.41                           332 230 
 PRA  HZ EP   1   2350 19.34                             105    -0.9 4  400 211 
 PRA  HN ES   2   2351  2.52                             105     0.1 3  400 211 
 PRA  HZ I        2351  7.84        33.7 0.29                           400 211 
                                                                                
