 2015  518 2303 24.4 L   6.720 -73.141143.9  RSN  7 0.4 1.9LRSN                1
 GAP=232        0.99       4.4     5.5  6.4  0.3676E+01  0.1383E+02  0.3572E+01E
 Epicentro: JORDAN - SANTANDER                                                 3
 ACTION:UPD 15-09-10 22:05 OP:cam  STATUS:               ID:20150518230324 L   I
 OLDACT:UP  15-05-19 06:04 OP:drio STATUS:               ID:20150518225750     3
 OLDACT:REG 15-05-19 04:36 OP:drio STATUS:               ID:20150518225750     3
 2015-05-18-2257-50M.COL___283                                                 6
 STAT SP IPHASW D HRMM SECON CODA AMPLIT PERI AZIMU VELO AIN AR TRES W  DIS CAZ7
 BAR2 EZ EP       23 3 43.62                             174   -0.0810 14.9 198 
 BAR2 EZ ES       23 3 58.21                             174   -0.5210 14.9 198 
 BAR2 EZ I        23 4  0.68        11.3 0.14            169           14.9 198 
 BRR  HZ EP       23 3 45.72                             150    0.0410 76.3 304 
 BRR  HE ES       23 4  3.13                             150    0.8810 76.3 304 
 BRR  HZ I        23 4  5.95        12.5 0.14            149           76.3 304 
 RUS  HZ EP       23 3 47.58                             146    0.2010 91.7 176 
 RUS  HN ES       23 4  5.25                             146   -0.0310 91.7 176 
 RUS  HZ I        23 4  7.61         4.9 0.48            147           91.7 176 
 SPBC HZ EP       23 3 52.58                             130    0.40 9  157 221 
 SPBC HN ES       23 4 13.54                             130   -0.29 9  157 221 
 SPBC HZ I        23 4 18.87        19.2 0.10            130            157 221 
 ZAR  HZ EP       23 3 56.58                             121   -0.59 8  208 294 
 ZAR  HN ES       23 4 22.25                             121   -0.46 8  208 294 
 ZAR  HZ I        23 4 27.18        10.3 0.42            123            208 294 
 NOR  HZ EP       23 3 59.35                             119   -0.21 8  230 236 
 NOR  HN ES       23 4 26.88                             119   -0.09 8  230 236 
 NOR  HZ I        23 4 33.96         6.5 0.22            120            230 236 
 GUY2CHZ EP       23 4  7.87                             112    0.43 7  297 236 
 GUY2CHN ES       23 4 41.27                             112    0.28 7  297 236 
 GUY2CHZ I        23 4 49.77         4.0 0.26                           297 236 
                                                                                
