 2016 1118 2314 50.0 L   6.754 -73.147140.3  RSN  7 0.4 1.6LRSN                1
 GAP=155        0.92       4.0     4.0  6.0 -0.2250E+01  0.5386E+01  0.7393E+01E
 Epicentro: LOS SANTOS - SANTANDER                                             3
 ACTION:UPD 17-10-26 21:09 OP:lp   STATUS:               ID:20161118231450 L   I
 OLDACT:REG 16-11-19 04:32 OP:lv   STATUS:               ID:20161118230744     3
 2016-11-18-2308-00M.COL___343                                                 6
 STAT SP IPHASW D HRMM SECON CODA AMPLIT PERI AZIMU VELO AIN AR TRES W  DIS CAZ7
 BAR2 EZ IP     D 2315  8.75                             172   -0.1210 18.3 192 
 BAR2 EZ ES       2315 23.54                             172   -0.0510 18.3 192 
 BAR2 EZ I        2315 25.53         6.2 0.19            169           18.3 192 
 BRR  HZ EP       2315 10.81                             151    0.1110 73.6 302 
 BRR  HN ES       2315 27.13                             151    0.2910 73.6 302 
 BRR  HZ I        2315 31.98         9.8 0.25            151           73.6 302 
 PAM  EZ EP       2315 11.68                             148   -0.2010 81.4  37 
 PAM  EN ES       2315 29.01                             148    0.0610 81.4  37 
 PAM  EZ I        2315 30.72         8.5 0.59            154           81.4  37 
 PTB  HZ EP       2315 15.70                             131   -0.73 9  147 261 
 PTB  HN ES       2315 36.55                             131   -0.49 9  147 261 
 PTB  HZ I        2315 40.41         3.8 0.19            132            147 261 
 ZAR  HZ EP       2315 23.10                             121    0.82 8  206 293 
 ZAR  HN ES       2315 47.59                             121    0.13 8  206 293 
 ZAR  HZ I        2315 51.82         4.0 0.10            123            206 293 
 NOR  HZ EP       2315 24.84                             118   -0.25 8  232 235 
 NOR  HN ES       2315 52.61                             118    0.15 8  232 235 
 NOR  HZ I        2316  0.26         3.9 0.14            119            232 235 
 CHI  HZ EP       2315 26.88                             116    0.02 8  244 195 
 CHI  HN ES       2315 56.18                             116    0.57 8  244 195 
 CHI  HZ I        2316  0.52         1.7 0.17            118            244 195 
                                                                                
