 2013  718 2328 44.3 L   6.720 -73.222152.3  RSN  4 0.3 1.4LRSN                1
 GAP=222        0.72       6.0     5.9  7.2  0.2364E+02 -0.3924E+00 -0.2425E+01E
 Epicentro: VILLANUEVA - SANTANDER                                             3
 ACTION:UPD 13-08-12 10:38 OP:ep   STATUS:               ID:20130718232844 L   I
 OLDACT:REG 13-07-18 22:22 OP:stll STATUS:               ID:20130718231848     3
 2013-07-18-2318-48M.COL___222                                                 6
 STAT SP IPHASW D HRMM SECON CODA AMPLIT PERI AZIMU VELO AIN AR TRES W  DIS CAZ7
 BRR  HZ EP       2329  5.90                             154   -0.1110 69.0 308 
 BRR  HN ES       2329 23.16                             154    0.1910 69.0 308 
 RUS  HZ EP       2329  8.51                             147    0.3810 92.7 170 
 RUS  HN ES       2329 26.40                             147   -0.3510 92.7 170 
 RUS  HN I        2329 28.62         2.9 0.42            143           92.7 170 
 PTB  HZ EP       2329 10.79                             136   -0.13 9  138 262 
 PTB  HN ES       2329 31.99                             136    0.29 9  138 262 
 PTB  HN I        2329 38.10         3.7 0.44            132            138 262 
 ZAR  HE ES       2329 41.70                             124   -0.34 9  200 295 
                                                                                
