 2012  518 2328 24.8 L   6.710 -73.200155.8  RSN  4 0.2 1.4LRSN                1
 GAP=224        0.49       5.5     5.4  6.5  0.1997E+02 -0.8514E+00 -0.2713E+01E
 Epicentro: VILLANUEVA - SANTANDER                                             3
 ACTION:UP  12-07-05 12:06 OP:pat  STATUS:               ID:20120518232824 L   I
 2012-05-18-2320-00M.COL___200                                                 6
 STAT SP IPHASW D HRMM SECON CODA AMPLIT PERI AZIMU VELO SNR AR TRES W  DIS CAZ7
 BRR  HZ EP   1   2328 46.94                             154    -0.1 7   72 308 
 BRR  HE ES   1   2329  4.29                             154    -0.1 7   72 308 
 BRR  HZ I        2329  8.51        12.0 0.40                            72 308 
 RUS  HZ EP   1   2328 48.84                             148    -0.1 7   91 172 
 RUS  HN ES   1   2329  7.92                             148     0.2 7   91 172 
 RUS  HZ I        2329  8.58         1.7 0.28                            91 172 
 PTB  HZ EP   1   2328 51.91                             136     0.0 7  140 262 
 PTB  HN ES   1   2329 12.86                             136    -0.2 7  140 262 
 PTB  HZ I        2329 17.25         2.3 0.27                           140 262 
 ZAR  HN ES   1   2329 23.84                             125     0.4 6  203 295 
                                                                                
