 2012  818 2027  0.9 L   6.742 -73.176147.5  RSN  6 0.3 1.7LRSN                1
 GAP=135        0.60       4.8     4.2  5.9  0.8636E+01 -0.1571E+01 -0.3648E+01E
 Epicentro: VILLANUEVA - SANTANDER                                             3
 ACTION:UPD 12-09-10 11:57 OP:ep   STATUS:               ID:20120818202700 L   I
 2012-08-18-2020-00M.COL___217                                                 6
 STAT SP IPHASW D HRMM SECON CODA AMPLIT PERI AZIMU VELO AIN AR TRES W  DIS CAZ7
 BAR2 SZ EP   1   2027 20.27                             173   -0.36 7 16.6 183 
 BAR2 SZ ES   1   2027 35.67                             173   -0.35 7 16.6 183 
 BAR2 SZ I        2027 36.67        17.2 0.33                          16.6 183 
 BRR  HZ EP   1   2027 22.31                             153    0.04 7 71.7 304 
 BRR  HN ES   1   2027 39.49                             153    0.55 7 71.7 304 
 BRR  HZ I        2027 47.13        15.9 0.53                          71.7 304 
 PAM  SZ EP   1   2027 23.59                             149   -0.15 7 84.4  39 
 PAM  SZ I        2027 41.85         4.9 0.30                          84.4  39 
 RUS  HZ EP       2027 24.66                             146    0.2510 94.5 174 
 RUS  HZ I        2027 25.87         5.4 0.11                          94.5 174 
 RUS  HN ES   1   2027 42.82                             146    0.09 7 94.5 174 
 PTB  HZ EP   1   2027 27.69                             133    0.06 7  143 261 
 PTB  HN ES   1   2027 48.20                             133   -0.27 7  143 261 
 ZAR  HE ES   1   2027 58.64                             123   -0.12 6  204 294 
                                                                                
