 2012  718 2322 26.2 L   6.456 -73.605108.0  RSN  4 0.2 1.3LRSN                1
 GAP=138        0.54       4.3     3.7  6.9  0.7157E+01  0.1124E+02  0.9541E+01E
 Epicentro: SANTA HELENA DEL OPON - SANTANDER                                  3
 ACTION:UPD 12-08-14 11:45 OP:ep   STATUS:               ID:20120718232226 L   I
 2012-07-18-2320-00M.COL___200                                                 6
 STAT SP IPHASW D HRMM SECON CODA AMPLIT PERI AZIMU VELO AIN AR TRES W  DIS CAZ7
 BAR2 SZ ES   1   2322 54.67                             154    -0.3 7   49  72 
 BRR  HZ EP   1   2322 43.51                             143    -0.1 7   73 351 
 BRR  HE ES   1   2322 57.41                             143     0.3 7   73 351 
 BRR  HZ I        2322 59.05         7.4 0.14            144             73 351 
 RUS  HZ EP   1   2322 45.09                             139    -0.1 7   85 137 
 RUS  HN ES   1   2323  0.25                             139     0.3 7   85 137 
 PTB  HZ EP       2322 45.38                             135     0.110   95 276 
 PTB  HN ES   1   2323  0.07                             135    -0.2 7   95 276 
 PTB  HZ I        2323  1.74         3.2 0.08            137             95 276 
