 2014 1218 2008 57.1 L   6.803 -73.172144.6  RSN  9 0.3 2.2LRSN                1
 GAP=133        0.70       3.1     3.1  4.5 -0.1142E+01  0.5586E+01 -0.2181E+00E
 Epicentro: LOS SANTOS - SANTANDER                                             3
 ACTION:UPD 15-02-10 17:05 OP:nd   STATUS:               ID:20141218200857 L   I
 OLDACT:REG 14-12-19 07:42 OP:cam\ STATUS:               ID:20141218200816     3
 2014-12-18-2008-16M.COL___296                                                 6
 STAT SP IPHASW D HRMM SECON CODA AMPLIT PERI AZIMU VELO AIN AR TRES W  DIS CAZ7
 BAR2 EZ EP       20 9 16.53                             170   -0.0210 23.4 183 
 BAR2 EZ ES       20 9 31.40                             170   -0.3610 23.4 183 
 BAR2 EZ I        20 9 34.41        22.0 0.34            162           23.4 183 
 PAM  SZ EP       20 9 19.32                             150    0.0710 79.0  41 
 PAM  SN ES       20 9 36.74                             150    0.1810 79.0  41 
 PAM  SZ I        20 9 38.48        18.1 0.56            144           79.0  41 
 RUS  HZ EP       20 9 20.39                             143   -0.3510  101 174 
 RUS  HN ES       20 9 39.51                             143    0.3010  101 174 
 RUS  HZ I        20 9 40.68        16.2 0.38            132            101 174 
 PTB  HZ EP       20 9 23.58                             132   -0.11 9  145 258 
 PTB  HN ES       20 9 44.08                             132   -0.37 9  145 258 
 PTB  HZ I        20 9 46.36        20.6 0.40            124            145 258 
 SPBC HZ EP       20 9 25.47                             129    0.14 9  162 218 
 SPBC HN ES       20 9 47.75                             129    0.37 9  162 218 
 SPBC HZ I        20 9 52.37        26.3 0.24            119            162 218 
 ZAR  HZ EP       20 9 29.04                             122   -0.10 9  201 292 
 ZAR  HN ES       20 9 54.58                             122    0.41 9  201 292 
 NOR  HZ EP       20 9 32.20                             118   -0.29 8  233 234 
 TOL  SZ EP       20 9 45.39                             109    0.32 7  342 224 
 TOL  SZ I        2010 28.89        13.5 0.66            102            342 224 
 TUM  HN E        2010 54.54                                            827 228 
                                                                                
