 2014 1218 2201 16.3 L   6.797 -73.178136.1  RSN  6 0.6 1.8LRSN                1
 GAP=133        1.45       5.5     6.4 13.3 -0.3288E+01  0.3868E+02 -0.5542E+01E
 Epicentro: LOS SANTOS - SANTANDER                                             3
 ACTION:UPD 15-02-10 17:05 OP:nd   STATUS:               ID:20141218220116 L   I
 OLDACT:REG 14-12-19 07:46 OP:cam\ STATUS:               ID:20141218215818     3
 2014-12-18-2158-18M.COL___296                                                 6
 STAT SP IPHASW D HRMM SECON CODA AMPLIT PERI AZIMU VELO AIN AR TRES W  DIS CAZ7
 PAM  SZ EP       22 1 37.68                             148    0.0510 80.0  41 
 PAM  SN ES       22 1 54.71                             148    0.4310 80.0  41 
 PAM  SZ I        22 1 56.64        13.4 0.52            153           80.0  41 
 RUS  HZ EP       22 1 38.27                             142   -0.8010  101 174 
 RUS  HN ES       22 1 57.06                             142    0.2010  101 174 
 RUS  HZ I        22 1 59.46         6.4 0.36            145            101 174 
 PTB  HZ EP       22 1 41.63                             130   -0.50 9  144 259 
 PTB  HN ES       22 2  1.41                             130   -0.89 9  144 259 
 PTB  HZ I        22 2  5.48        11.4 0.16            133            144 259 
 ZAR  HZ EP       22 1 48.60                             121    0.83 9  201 293 
 ZAR  HN ES       22 2 12.79                             121    0.45 9  201 293 
 ZAR  HZ I        22 2 15.01         6.9 0.10            124            201 293 
 NOR  HZ EP       22 1 51.55                             117    0.44 8  232 234 
 NOR  HN ES       22 2 19.10                             117    0.81 8  232 234 
 NOR  HZ I        22 2 21.16         3.5 0.18            120            232 234 
 SML  HN ES       22 2 19.66                             115   -0.65 8  243 336 
                                                                                
