 2013  118 2009  5.8 L   6.734 -73.153137.0  RSN  6 0.3 1.8LRSN                1
 GAP=139        0.76       3.1     3.3  6.3  0.8408E+00  0.3439E+01  0.6641E+01E
 Epicentro: JORDAN - SANTANDER                                                 3
 ACTION:UPD 13-02-15 09:15 OP:ep   STATUS:               ID:20130118200905 L   I
 2013-01-18-2006-50M.COL___199                                                 6
 STAT SP IPHASW D HRMM SECON CODA AMPLIT PERI AZIMU VELO AIN AR TRES W  DIS CAZ7
 BRR  HN ES       20 9 42.62                             150    0.4910 74.3 304 
 BRR  HN I        20 9 47.25        25.7 0.24            148           74.3 304 
 PAM  SZ EP       20 9 27.42                             147   -0.1010 83.6  37 
 PAM  SN ES       20 9 44.31                             147   -0.1310 83.6  37 
 PAM  SN I        20 9 45.40         7.7 0.44            152           83.6  37 
 RUS  HN EP       20 9 28.53                             144    0.3310 93.3 175 
 RUS  HZ ES       20 9 45.34                             144   -0.3010 93.3 175 
 RUS  HZ I        20 9 47.91         4.3 0.34            145           93.3 175 
 PTB  HZ EP       20 9 31.47                             130   -0.44 9  146 262 
 PTB  HN ES       20 9 52.13                             130   -0.12 9  146 262 
 PTB  HN I        20 9 56.00        12.2 0.12            130            146 262 
 ZAR  HN ES       2010  2.92                             120   -0.08 8  206 294 
 ZAR  HN I        2010 10.91         9.7 0.12            121            206 294 
 CHI  HZ EP       20 9 42.67                             116    0.41 8  241 195 
 CHI  HN ES       2010 10.65                             116   -0.02 8  241 195 
 CHI  HN I        2010 18.85         3.5 0.70            117            241 195 
                                                                                
