 2012  418 2055 23.9 L   6.783 -73.113145.7  RSN  6 0.4 1.8LRSN                1
 GAP=142        0.86       5.7     6.2  9.0  0.3810E+01  0.1067E+02  0.2745E+01E
 Epicentro: LOS SANTOS - SANTANDER                                             3
 ACTION:UPD 12-07-05 11:54 OP:tino STATUS:               ID:20120418205523 L   I
 2012-04-18-2050-00M.COL___187                                                 6
 STAT SP IPHASW D HRMM SECON CODA AMPLIT PERI AZIMU VELO AIN AR TRES W  DIS CAZ7
 BAR2 SZ EP   1   2055 43.45                             171    -0.1 7   22 200 
 BAR2 SZ ES   1   2055 58.57                             171    -0.3 7   22 200 
 BAR2 SZ I        2056  0.24        15.5 0.29                            22 200 
 BRR  HZ EP   1   2055 45.32                             151     0.0 7   75 298 
 BRR  HE ES   1   2056  2.78                             151     0.8 7   75 298 
 PAM  SZ EP   1   2055 46.33                             151     0.2 7   77  37 
 PAM  SN ES   1   2056  3.39                             151     0.0 7   77  37 
 RUS  HZ EP   1   2055 47.30                             145    -0.2 7   99 178 
 RUS  HN ES   1   2056  5.80                             145    -0.1 7   99 178 
 RUS  HZ I        2056  7.35         6.8 0.41                            99 178 
 ZAR  HN ES   1   2056 21.71                             122    -0.7 6  208 292 
 ZAR  HZ I        2056 28.46         5.4 0.12                           208 292 
 RREF HN ES   2   2056 47.31                             111     0.9 3  323 230 
                                                                                
