 2015  718 2307 10.1 L   6.826 -73.139137.2  RSN 11 0.5 2.3LRSN                1
 GAP=136        1.12       2.9     4.5  7.0 -0.6492E+00  0.1643E+02 -0.2898E+00E
 Epicentro: LOS SANTOS - SANTANDER                                             3
 ACTION:UPD 15-09-08 21:49 OP:cam  STATUS:               ID:20150718230710 L   I
 OLDACT:REG 15-07-19 03:05 OP:ar   STATUS:               ID:20150718225747     3
 2015-07-18-2257-47M.COL___343                                                 6
 STAT SP IPHASW D HRMM SECON CODA AMPLIT PERI AZIMU VELO AIN AR TRES W  DIS CAZ7
 BAR2 EZ EP       23 7 28.53                             169   -0.2010 26.3 191 
 BAR2 EZ ES       23 7 43.22                             169   -0.0710 26.3 191 
 BAR2 EZ I        23 7 44.61        63.9 0.20            170           26.3 191 
 PAM  EZ EP       23 7 31.48                             150    0.2810 74.7  40 
 PAM  EN ES       23 7 48.19                             150    0.5010 74.7  40 
 PAM  EZ I        23 7 50.76        65.2 0.56            151           74.7  40 
 RUS  HZ EP       23 7 32.98                             141   -0.2110  103 177 
 RUS  HN ES       23 7 50.94                             141   -0.2910  103 177 
 RUS  HZ I        23 7 51.76        15.1 0.22            143            103 177 
 OCA  HZ EP       23 7 36.92                             128   -0.54 9  158 353 
 OCA  HE ES       23 7 58.87                             128    0.05 9  158 353 
 OCA  HZ I        23 8  3.68        69.0 0.18            129            158 353 
 ZAR  HZ EP       23 7 42.62                             120    0.69 9  204 291 
 ZAR  HN ES       23 8  7.37                             120    0.59 9  204 291 
 ZAR  HZ I        23 8  9.42        20.4 0.20            122            204 291 
 NOR  HZ EP       23 7 46.10                             116    0.54 8  237 234 
 NOR  HE ES       23 8 12.89                             116   -0.36 8  237 234 
 NOR  HZ I        23 8 14.48        10.1 0.20            118            237 234 
 SML  HZ EP       23 7 45.03                             116   -0.94 8  241 335 
 SML  HN ES       23 8 13.89                             116   -0.09 8  241 335 
 SML  HZ I        23 8 16.80        32.5 0.10            117            241 335 
 CHI  HZ EP       23 7 47.97                             115    0.34 8  252 195 
 CHI  HN ES       23 8 16.45                             115   -0.48 8  252 195 
 CHI  HZ I        23 8 22.77         4.2 0.42            116            252 195 
 URE  HE ES       23 8 21.44                             112   -0.94 7  283 291 
 URE  HZ I        23 8 22.55        16.5 0.38            113            283 291 
 GUY2CHZ EP       23 7 54.42                             110    0.87 7  303 234 
 GUY2CHN ES       23 8 27.89                             110    0.42 7  303 234 
 GUY2CHZ I        23 8 33.97         5.9 0.22                           303 234 
 DBB  SZ ES       23 8 34.00                             108   -0.09 7  340 274 
                                                                                
