 2016 1118 2319  0.3 L   6.808 -73.167140.0  RSN  8 0.5 1.6LRSN                1
 GAP=143        1.23       5.4     5.6  7.8 -0.6677E+01  0.3405E+01  0.1898E+02E
 Epicentro: LOS SANTOS - SANTANDER                                             3
 ACTION:UPD 17-10-26 21:09 OP:lp   STATUS:               ID:20161118231900 L   I
 OLDACT:REG 16-11-19 04:33 OP:lv   STATUS:               ID:20161118231743     3
 2016-11-18-2318-00M.COL___343                                                 6
 STAT SP IPHASW D HRMM SECON CODA AMPLIT PERI AZIMU VELO AIN AR TRES W  DIS CAZ7
 BAR2 EZ EP       2319 20.21                             170    0.9910 23.9 184 
 BAR2 EZ ES       2319 33.41                             170   -0.5910 23.9 184 
 BAR2 EZ I        2319 35.03        11.4 0.15            168           23.9 184 
 BRR  HZ EP       2319 20.70                             152    0.0410 68.7 299 
 BRR  HN ES       2319 37.27                             152    0.7210 68.7 299 
 PAM  EZ EP       2319 21.73                             149   -0.2010 78.2  41 
 PAM  EN ES       2319 38.55                             149   -0.2710 78.2  41 
 PTB  HZ EP   9   2319 25.14                             131   -1.44 0  146 258 
 PTB  HE ES       2319 45.08                                   -0.58 9  146 258 
 PTB  HZ I        2319 49.45         5.5 0.15            129            146 258 
 ZAR  HE ES       2319 56.23                             121   -0.67 9  202 292 
 ZAR  HZ I        2320  1.94         3.4 0.16            120            202 292 
 NOR  HZ EP       2319 35.35                             117   -0.17 8  233 234 
 NOR  HN ES       2320  3.48                             117    0.47 8  233 234 
 NOR  HZ I        2320  7.35         2.9 0.30            116            233 234 
 CHI  HZ EP       2319 37.33                             116   -0.35 8  249 195 
 CHI  HN ES       2320  6.63                             116   -0.24 8  249 195 
 CHI  HZ I        2320 10.06         1.9 0.17            115            249 195 
 PRA  HZ EP       2319 53.29                             105   -0.26 6  392 209 
 PRA  HE ES       2320 35.30                             105    0.19 6  392 209 
 PRA  HZ I        2320 40.29         2.5 0.29            105            392 209 
                                                                                
