 2014  218 2108 37.9 L   6.802 -73.125157.5  RSN 13 0.4 2.4LRSN                1
 GAP=139        0.92       4.2     4.1  5.6 -0.1904E+01  0.3717E+01  0.4098E+01E
 Epicentro: LOS SANTOS - SANTANDER                                             3
 ACTION:UPD 14-03-10 08:11 OP:ep   STATUS:               ID:20140218210837 L   I
 OLDACT:UP  14-02-19 01:32 OP:mh   STATUS:               ID:20140218210751     3
 OLDACT:REG 14-02-19 00:06 OP:mh   STATUS:               ID:20140218210751     3
 2014-02-18-2107-51M.COL___227                                                 6
 STAT SP IPHASW D HRMM SECON CODA AMPLIT PERI AZIMU VELO AIN AR TRES W  DIS CAZ7
 BAR2 SZ EP       21 8 58.78                             171   -0.1410 24.1 195 
 BAR2 SZ ES   1   21 9 16.12                             171    0.78 7 24.1 195 
 BAR2 SZ I        21 9 16.61        56.5 0.12            157           24.1 195 
 BRR  HZ EP       21 9  0.17                             154   -0.2210 73.1 297 
 BRR  HN ES       21 9 18.11                             154    0.1510 73.1 297 
 BRR  HZ I        21 9 25.53        26.1 0.30            142           73.1 297 
 PAM  SZ EP       21 9  1.63                             153    0.3810 75.8  38 
 PAM  SN ES       21 9 18.77                             153   -0.7210 75.8  38 
 PAM  SZ I        21 9 21.43        20.9 0.42            130           75.8  38 
 RUS  HZ EP       21 9  2.65                             146   -0.1410  101 177 
 RUS  HZ I        21 9 24.53        14.4 0.22            122            101 177 
 PTB  HZ EP   1   21 9  5.41                             134   -0.60 7  150 259 
 PTB  HN ES   1   21 9 27.70                             134   -0.26 7  150 259 
 PTB  HZ I        21 9 33.98        50.1 0.51            115            150 259 
 OCA  HZ EP   1   21 9  7.55                             132    0.44 7  160 352 
 OCA  HZ I        21 9 33.79        31.6 0.19            112            160 352 
 SPBC HZ EP       21 9  7.51                             131    0.07 9  165 220 
 SPBC HN ES   1   21 9 30.81                             131    0.31 7  165 220 
 SPBC HZ I        21 9 35.43        33.2 0.22            111            165 220 
 ZAR  HZ EP       21 9 11.50                             124    0.20 8  206 292 
 ZAR  HN ES       21 9 37.67                             124    0.29 8  206 292 
 ZAR  HZ I        21 9 43.06        24.9 0.23            107            206 292 
 NOR  HZ EP   1   21 9 13.79                             121   -0.72 6  237 235 
 NOR  HZ I        21 9 46.61        25.6 0.22            104            237 235 
 SML  HZ EP       21 9 15.45                             120    0.20 8  244 335 
 SML  HZ I        21 9 47.41        27.4 0.25            104            244 335 
 CHI  HZ EP       21 9 16.83                             119    0.50 8  249 196 
 CHI  HZ I        21 9 55.91         6.6 0.37            103            249 196 
 HEL  HZ EP   4   21 9 20.10                             117    1.15 0  274 256 
 HEL  HE ES   1   21 9 50.17                             117   -0.82 6  274 256 
 GUY2CHZ EP   4   21 9 23.74                             114    1.48 0  303 235 
 GUY2CHN ES   4   21 9 59.94                             114    3.05 0  303 235 
 DBB  SZ EP   1   21 9 26.09                             111   -0.01 5  342 274 
 SJC  HZ EP   4   21 9 33.02                             107   -0.93 0  410 327 
 SJC  HN ES   4   2110 13.15                             107   -4.55 0  410 327 
                                                                                
