 2017  118 2227  6.6 L   6.755 -73.061146.9  RSN  5 0.3 1.6LRSN                1
 GAP=150        0.74       4.0     5.3  5.5 -0.9085E+00  0.4595E+01  0.9191E+00E
 Epicentro: LOS SANTOS - SANTANDER                                             3
 ACTION:UPD 17-05-22 16:01 OP:jn   STATUS:               ID:20170118222706 L   I
 OLDACT:REG 17-01-19 02:53 OP:and  STATUS:               ID:20170118221744     3
 2017-01-18-2218-00M.COL___334                                                 6
 STAT SP IPHASW D HRMM SECON CODA AMPLIT PERI AZIMU VELO AIN AR TRES W  DIS CAZ7
 BAR2 EZ EP       2227 26.01                             171   -0.3010 22.4 217 
 BAR2 EZ ES       2227 41.53                             171   -0.1910 22.4 217 
 BAR2 EZ I        2227 41.98        11.5 0.28            170           22.4 217 
 PAM  EZ EP       2227 29.13                             151    0.3110 76.0  32 
 PAM  EE ES       2227 46.02                             151   -0.1610 76.0  32 
 PAM  EZ I        2227 47.65         7.9 0.20            153           76.0  32 
 BRR  HZ EP       2227 28.20                             149   -0.2610 81.8 298 
 BRR  HN ES       2227 45.95                             149    0.4010 81.8 298 
 BRR  HZ I        2227 49.78         7.5 0.12            148           81.8 298 
 RUS  HZ EP       2227 30.43                             145    0.3710 95.4 181 
 RUS  HN ES       2227 48.40                             145    0.0110 95.4 181 
 RUS  HZ I        2227 49.56         3.4 0.26            148           95.4 181 
 PTB  HZ EP       2227 34.17                             131   -0.22 9  156 261 
 PTB  HN ES   4   2227 54.68                             131   -1.41 0  156 261 
 PTB  HZ I        2227 57.72         5.2 0.10            131            156 261 
                                                                                
