 2014 1118 2320 17.9 L   6.769 -73.199143.9  RSN  8 0.4 1.9LRSN                1
 GAP=229        1.13       6.2     6.5  7.0  0.6956E+01  0.9710E+01  0.1286E+02E
 Epicentro: ZAPATOCA - SANTANDER                                               3
 ACTION:UPD 14-12-19 15:44 OP:nd   STATUS:               ID:20141118232017 L   I
 OLDACT:UP  14-11-19 03:55 OP:cam  STATUS:               ID:20141118231813     3
 OLDACT:REG 14-11-19 02:20 OP:cam  STATUS:               ID:20141118231813     3
 2014-11-18-2318-13M.COL___283                                                 6
 STAT SP IPHASW D HRMM SECON CODA AMPLIT PERI AZIMU VELO AIN AR TRES W  DIS CAZ7
 BAR2 SZ ES       2320 51.77                             172   -0.5210 19.6 175 
 BAR2 SZ I        2320 53.50        23.6 0.30            168           19.6 175 
 BRR  HZ EP       2320 38.07                             153   -0.5710 67.9 303 
 BRR  HN ES       2320 55.69                             153    0.8610 67.9 303 
 BRR  HZ I        2321  0.71        15.5 0.50            151           67.9 303 
 RUS  HZ EP       2320 41.04                             144   -0.2010 97.8 172 
 RUS  HN ES       2320 59.83                             144    0.3710 97.8 172 
 RUS  HZ I        2321  1.14         8.5 0.22            145           97.8 172 
 PTB  HZ EP       2320 43.65                             133   -0.46 9  141 260 
 PTB  HN ES       2321  4.54                             133   -0.04 9  141 260 
 PTB  HZ I        2321  7.34         7.1 0.16            132            141 260 
 SPBC HZ EP       2320 46.12                             130    0.49 9  157 218 
 SPBC HN ES       2321  6.93                             130   -0.35 9  157 218 
 SPBC HZ I        2321 14.28        12.0 0.10            130            157 218 
 NOR  HZ EP       2320 53.14                             119    0.37 8  228 234 
 NOR  HN ES       2321 19.75                             119   -0.24 8  228 234 
 NOR  HZ I        2321 27.70         5.2 0.20            120            228 234 
 CHI  HZ EP       2320 55.42                             117    0.47 8  244 194 
 PRA  HZ EP       2321 10.70                             106    0.05 6  386 209 
                                                                                
