 2016  118 2039 27.0 L   6.826 -73.164139.4  RSN 13 0.4 2.4LRSN                1
 GAP=133        1.07       3.3     4.1  6.3 -0.4048E+01  0.9435E+01 -0.3288E+01E
 Epicentro: LOS SANTOS - SANTANDER                                             3
 ACTION:UPD 16-03-09 23:26 OP:cam  STATUS:               ID:20160118203927 L   I
 OLDACT:UP  16-02-23 20:53 OP:AR   STATUS:               ID:20160118203927 L   3
 OLDACT:UP  16-01-19 02:48 OP:drio STATUS:               ID:20160118203750     3
 OLDACT:UP  16-01-19 02:47 OP:drio STATUS:               ID:20160118203750     3
 OLDACT:UP  16-01-19 02:47 OP:drio STATUS:               ID:20160118203750     3
 OLDACT:REG 16-01-19 02:24 OP:drio STATUS:               ID:20160118203750     3
 2016-01-18-2037-50M.COL___328                                                 6
 STAT SP IPHASW D HRMM SECON CODA AMPLIT PERI AZIMU VELO AIN AR TRES W  DIS CAZ7
 BAR2 EZ EP       2039 46.10                             169    0.1710 25.9 185 
 BAR2 EZ ES       2040  0.01                             169   -0.6710 25.9 185 
 BAR2 EZ I        2040  6.87        26.6 0.28            169           25.9 185 
 PAM  EZ EP       2039 48.97                             150    0.4810 76.5  42 
 PAM  EE ES       2040  5.64                             150    0.3910 76.5  42 
 PAM  EZ I        2040  7.79        20.8 0.50            156           76.5  42 
 RUS  HZ EP       2039 50.27                             142   -0.1010  104 175 
 RUS  HN ES       2040  8.48                             142   -0.1010  104 175 
 PTB  HZ EP       2039 52.76                             131   -0.58 9  146 258 
 PTB  HN ES       2040 13.89                             131    0.02 9  146 258 
 PTB  HZ I        2040 19.50        26.0 0.26            132            146 258 
 OCA  HZ EP       2039 55.04                             129    0.50 9  157 354 
 OCA  HN ES       2040 15.61                             129   -0.39 9  157 354 
 OCA  HZ I        2040 20.26        59.2 0.20            132            157 354 
 SPBC HZ EP       2039 55.19                             127    0.07 9  164 218 
 SPBC HE ES       2040 17.51                             127    0.46 9  164 218 
 SPBC HZ I        2040 25.15        37.6 0.22            130            164 218 
 ZAR  HZ EP       2039 58.23                             121   -0.51 9  201 292 
 ZAR  HN ES       2040 24.41                             121    0.92 9  201 292 
 ZAR  HZ I        2040 31.61        20.6 0.12            123            201 292 
 NOR  HZ EP       2040  2.50                             117    0.12 8  235 234 
 NOR  HE ES       2040 29.85                             117   -0.12 8  235 234 
 NOR  HZ I        2040 36.55        15.3 0.24            120            235 234 
 SML  HZ EP       2040  2.06                             116   -0.85 8  240 335 
 SML  HN ES   4   2040 29.47                             116   -1.43 0  240 335 
 SML  HZ I        2040 36.41        24.9 0.10            120            240 335 
 HEL  HZ EP   4   2040  8.25                             114    1.48 0  271 255 
 HEL  HE ES       2040 37.66                             114   -0.12 8  271 255 
 HEL  HZ I        2040 45.62        13.6 0.28            116            271 255 
 GUY2CHZ EP   9   2040 11.62                             111    1.28 0  301 234 
 GUY2CHN ES       2040 45.71                             111    0.30 7  301 234 
 GUY2CHZ I        2040 54.55        11.8 0.34                           301 234 
 PRA  HZ EP       2040 20.81                             105    0.31 6  394 209 
 PRA  HN ES   4   2041  1.32                             105   -0.90 0  394 209 
 PRA  HZ I        2041  5.22         7.8 0.24            109            394 209 
 SJC  HZ EP   4   2040 19.80                             105   -2.16 0  406 327 
 SJC  HE ES   4   2041  0.67                             105   -4.14 0  406 327 
 SJC  HZ I        2041  5.36         4.8 0.56            108            406 327 
                                                                                
