 2015  518 2024 28.6 L   6.819 -73.110138.0  RSN  8 0.4 1.8LRSN                1
 GAP=140        1.09       3.5     5.2  6.9  0.4905E+00  0.1249E+02 -0.1128E+01E
 Epicentro: LOS SANTOS - SANTANDER                                             3
 ACTION:UPD 15-09-10 22:05 OP:cam  STATUS:               ID:20150518202428 L   I
 OLDACT:REG 15-05-19 04:27 OP:drio STATUS:               ID:20150518201747     3
 2015-05-18-2017-47M.COL___282                                                 6
 STAT SP IPHASW D HRMM SECON CODA AMPLIT PERI AZIMU VELO AIN AR TRES W  DIS CAZ7
 BAR2 EZ EP       2024 47.41                             169    0.0410 26.4 198 
 BAR2 EZ ES       2025  1.48                             169   -0.5310 26.4 198 
 BAR2 EZ I        2025  4.74        10.8 0.30            158           26.4 198 
 PAM  SZ I        2024 50.33        13.2 0.20            157           73.2  38 
 PAM  SZ EP       2024 50.37                             151    0.6210 73.2  38 
 PAM  SE ES       2025  6.71                             151    0.4710 73.2  38 
 BRR  HZ EP       2024 48.75                             150   -0.3310 73.8 296 
 BRR  HN ES       2025  5.57                             150    0.5310 73.8 296 
 RUS  HZ EP       2024 51.18                             142   -0.5710  103 178 
 RUS  HE ES       2025  9.74                             142   -0.0610  103 178 
 RUS  HZ I        2025 11.82         4.1 0.68            135            103 178 
 OCA  HN ES       2025 17.37                             128   -0.31 9  159 352 
 ZAR  HN ES       2025 26.15                             120    0.12 8  207 291 
 SML  HZ EP       2025  4.69                             116   -0.10 8  243 334 
 SML  HN ES       2025 32.34                             116   -0.66 8  243 334 
 SML  HZ I        2025 34.36        10.3 0.10            113            243 334 
 GUY2CHZ EP       2025 13.07                             110    0.69 7  306 235 
 GUY2CHN ES       2025 46.80                             110    0.28 7  306 235 
 GUY2CHZ I        2025 56.03         2.8 0.46                           306 235 
                                                                                
