 2012  318 2304 14.9 L   6.820 -73.162149.3  RSN  5 0.3 1.8LRSN                1
 GAP=133        0.84       5.7     5.2  8.1 -0.2225E+01 -0.1715E+01  0.1058E+02E
 ACTION:UP  12-03-31 23:20 OP:EP   STATUS:               ID:20120318230414 L   I
 2012-03-18-2300-00M.COL___202                                                 6
 STAT SP IPHASW D HRMM SECON CODA AMPLIT PERI AZIMU VELO SNR AR TRES W  DIS CAZ7
 BAR2 SZ EP   1   23 4 35.03                             170     0.1 7   25 185 
 BAR2 SZ I        23 4 35.32        16.5 0.30                            25 185 
 BRR  HZ EP       23 4 36.53                             154     0.310   69 298 
 BRR  HZ I        23 4 36.73        33.0 0.13                            69 298 
 BRR  HE ES       23 4 53.19                             154     0.310   69 298 
 PAM  SZ EP       23 4 37.65                             152     0.210   77  42 
 PAM  SN ES   1   23 4 54.39                             152    -0.6 7   77  42 
 RUS  HZ EP       23 4 39.13                             144     0.010  103 175 
 RUS  HE ES   1   23 4 58.13                             144     0.1 7  103 175 
 RUS  HZ I        23 4 59.67         5.7 0.29                           103 175 
 PTB  HZ EP       23 4 41.58                             133    -0.4 9  146 258 
 PTB  HE ES   1   23 5  2.97                             133    -0.2 7  146 258 
 PTB  HZ I        23 5  7.44         4.7 0.19                           146 258 
                                                                                
