 2011 1218 2315 52.9 L   6.759 -73.115148.5  RSN  8 0.3 2.2LRSN                1
 GAP=142        0.56       3.6     6.2  6.2 -0.6297E+01  0.2798E+01  0.1401E+01E
 Epicentro: LOS SANTOS - SANTANDER                                             3
 ACTION:UPD 12-07-13 16:17 OP:ep   STATUS:               ID:20111218231553dL   I
 2011-12-18-2310-00M.COL___188                                                 6
 STAT SP IPHASW D HRMM SECON CODA AMPLIT PERI AZIMU VELO AIN AR TRES W  DIS CAZ7
 BAR2 SZ EP   1   2316 12.67                             172   -0.12 7 19.9 202 
 BAR2 SZ ES   2   2316 27.66                             172   -0.65 5 19.9 202 
 BAR2 SZ I        2316 29.74        56.3 0.32                          19.9 202 
 GIR2 SZ EP   1   2316 13.11                             165    0.08 7 36.4 346 
 BRR  HZ EP   1   2316 14.73                             151    0.10 7 76.4 300 
 BRR  HN ES   2   2316 32.35                             151    0.76 5 76.4 300 
 BRR  HZ I        2316 35.41        51.9 0.14                          76.4 300 
 PAM  SZ EP   1   2316 15.60                             151    0.11 7 78.9  36 
 PAM  SN ES   2   2316 33.18                             151    0.07 5 78.9  36 
 PAM  SZ I        2316 35.71        13.6 0.54                          78.9  36 
 RUS  HZ EP   1   2316 16.50                             146   -0.09 7 95.9 178 
 RUS  HE ES   2   2316 35.17                             146    0.11 5 95.9 178 
 RUS  HZ I        2316 36.79        28.1 0.31                          95.9 178 
 OCA  SZ EP   1   2316 21.45                             129   -0.43 7  165 352 
 NOR  SN ES   2   2316 56.30                             119   -0.51 4  235 236 
 CHI  HZ EP   1   2316 30.87                             118    0.50 6  245 196 
 CHI  HN ES   2   2316 59.52                             118   -0.09 4  245 196 
 CHI  HZ I        2317  6.29        12.0 0.51                           245 196 
                                                                                
