 2014 1118 2355 42.0 L   6.833 -73.173142.2  RSN  6 0.3 1.6LRSN                1
 GAP=132        0.85       4.4     4.3  5.8 -0.2030E+01  0.4050E+01  0.3815E+01E
 Epicentro: ZAPATOCA - SANTANDER                                               3
 ACTION:UPD 14-12-19 15:44 OP:nd   STATUS:               ID:20141118235542 L   I
 OLDACT:UP  14-11-19 03:59 OP:cam  STATUS:               ID:20141118234814     3
 OLDACT:REG 14-11-19 02:21 OP:cam  STATUS:               ID:20141118234814     3
 2014-11-18-2348-14M.COL___283                                                 6
 STAT SP IPHASW D HRMM SECON CODA AMPLIT PERI AZIMU VELO AIN AR TRES W  DIS CAZ7
 BAR2 SZ ES       2356 16.32                             169    0.0610 26.7 182 
 BRR  HZ EP       2356  3.01                             153    0.5410 66.8 297 
 BRR  HN ES       2356 18.67                             153    0.2010 66.8 297 
 BRR  HN I        2356 20.07        19.3 0.28            154           66.8 297 
 PAM  SZ EP     D 2356  4.05                             150    0.3110 76.6  43 
 PAM  SN ES       2356 20.21                             150   -0.5210 76.6  43 
 PAM  SZ I        2356 22.61         4.2 0.18            152           76.6  43 
 RUS  HZ EP       2356  5.55                             142   -0.0910  104 175 
 RUS  HN ES       2356 24.24                             142    0.1210  104 175 
 RUS  HZ I        2356 25.85         4.2 0.32            143            104 175 
 PTB  HZ EP       2356  7.93                             132   -0.50 9  146 257 
 PTB  HN ES       2356 28.88                             132   -0.20 9  146 257 
 PTB  HZ I        2356 31.71         7.1 0.18            133            146 257 
 PRA  HZ EP       2356 35.52                             106   -0.03 6  394 209 
                                                                                
