 2012 1018 2338 38.6 L   6.799 -73.131141.6  RSN 17 0.4 3.2LRSN 3.6WRSN        1
 SPEC AVERAGE  MO 14.4 ST 32.3 OM  2.6 f0 3.52 R0.4664 AL 2.15 WI 28.1 MW  3.6 3
 SPEC SD       MO  0.2 ST 39.5 OM  0.6 f0 1.15 R0.1578 AL      WI      MW  0.2 3
 GAP= 55        0.83       2.5     2.7  4.3  0.1100E+00  0.1996E+01  0.2480E+01E
 Epicentro: LOS SANTOS - SANTANDER                                             3
 SPEC TAM HH N MO 14.2 ST  1.6 OM  2.5 f0 1.96 R0.7500 AL 1.81 WI 19.8 MW  3.4 3
 SPEC TAM HH N T233926 K 0.000 GD  209 VS 4.20 DE 3.00 Q0230.0 QA 0.60 VS 4.20 3
 SPEC RREFHH Z MO 14.4 ST 16.0 OM  1.7 f0 3.62 R0.4061 AL 1.88 WI 38.0 MW  3.5 3
 SPEC RREFHH Z T233924 K 0.000 GD  352 VP 7.60 DE 3.00 Q0230.0 QA 0.60 VS 4.20 3
 SPEC ROSCBH Z MO 14.5 ST  4.4 OM  1.9 f0 2.15 R0.6837 AL 2.07 WI 30.0 MW  3.6 3
 SPEC ROSCBH Z T233917 K 0.000 GD  289 VP 7.60 DE 3.00 Q0230.0 QA 0.60 VS 4.20 3
 SPEC NOR HH N MO 14.7 ST114.1 OM  2.9 f0 5.45 R0.2697 AL 3.24 WI 24.3 MW  3.7 3
 SPEC NOR HH N T233940 K 0.000 GD  275 VS 4.20 DE 3.00 Q0230.0 QA 0.60 VS 4.20 3
 SPEC OCA HH N MO 14.7 ST 48.7 OM  3.0 f0 4.13 R0.3559 AL 2.09 WI 40.6 MW  3.7 3
 SPEC OCA HH N T233927 K 0.000 GD  214 VS 4.20 DE 3.00 Q0230.0 QA 0.60 VS 4.20 3
 SPEC RUS HH Z MO 14.1 ST  7.9 OM  1.7 f0 3.62 R0.4061 AL 1.47 WI 16.9 MW  3.3 3
 SPEC RUS HH Z T2339 1 K 0.000 GD  173 VP 7.60 DE 3.00 Q0230.0 QA 0.60 VS 4.20 3
 SPEC HEL HH Z MO 14.2 ST  5.6 OM  1.6 f0 2.88 R0.5104 AL 1.55 WI 28.9 MW  3.4 3
 SPEC HEL HH Z T233918 K 0.000 GD  308 VP 7.60 DE 3.00 Q0230.0 QA 0.60 VS 4.20 3
 SPEC CHI HH N MO 14.2 ST  5.0 OM  2.4 f0 2.78 R0.5288 AL 2.00 WI 31.0 MW  3.4 3
 SPEC CHI HH N T233944 K 0.000 GD  286 VS 4.20 DE 3.00 Q0230.0 QA 0.60 VS 4.20 3
 SPEC BRR HH N MO 14.7 ST 87.2 OM  3.1 f0 5.13 R0.2865 AL 3.28 WI 23.7 MW  3.7 3
 SPEC BRR HH N T233916 K 0.000 GD  159 VS 4.20 DE 3.00 Q0230.0 QA 0.60 VS 4.20 3
 ACTION:UPD 12-11-22 17:04 OP:ep   STATUS:               ID:20121018233838 L   I
 2012-10-18-2337-18M.COL___201                                                 6
 STAT SP IPHASW D HRMM SECON CODA AMPLIT PERI AZIMU VELO AIN AR TRES W  DIS CAZ7
 BAR2 SZ IP       2338 57.80                             170    0.1010 23.5 194 
 BAR2 SZ ES   1   2339 12.43                             170   -0.19 7 23.5 194 
 BAR2 SZ I        2339 13.43       443.5 0.18                          23.5 194 
 GIR2 SZ IP       2338 57.93                             167    0.1710 31.7 347 
 GIR2 SZ ES   1   2339 12.30                             167   -0.42 7 31.7 347 
 BRR  HZ IP     C 2338 59.73                             151    0.3810 72.6 298 
 BRR  HZ I        2338 59.99       369.8 0.30                          72.6 298 
 BRR  HN ES   1   2339 16.34                             151    0.78 7 72.6 298 
 PAM  SZ IP     C 2339  0.75                             150    0.4610 76.5  39 
 PAM  SZ I        2339  0.95       159.2 0.18                          76.5  39 
 PAM  SN ES   1   2339 17.25                             150    0.03 7 76.5  39 
 RUS  HZ EP       2339  1.75                             143   -0.1510  100 177 
 RUS  HE ES   1   2339 19.99                             143   -0.10 7  100 177 
 TAM  HZ IP     D 2339  6.21                             130    0.44 9  154 105 
 TAM  HZ I        2339  6.22       179.2 0.20                           154 105 
 TAM  HN ES   1   2339 27.07                             130    0.08 7  154 105 
 OCA  HZ EP       2339  6.32                             129   -0.27 9  161 353 
 OCA  HN ES   1   2339 27.49                             129   -0.95 7  161 353 
 OCA  HN I        2339 34.58       397.4 0.18                           161 353 
 YOP  SZ EP       2339  8.40                             125    0.16 9  178 154 
 YOP  SN ES   1   2339 30.90                             125   -0.47 7  178 154 
 YOP  SN I        2339 33.89       197.3 0.28                           178 154 
 ZAR  HZ EP       2339 10.47                             121   -0.43 8  206 292 
 ZAR  HN ES   1   2339 36.56                             121    0.44 6  206 292 
 ZAR  HN I        2339 37.45       272.2 0.44                           206 292 
 AGZ  SZ EP       2339 12.19                             119   -0.12 8  219 160 
 NOR  HZ EP       2339 13.65                             117   -0.54 8  236 235 
 NOR  HN ES   1   2339 41.38                             117   -0.60 6  236 235 
 NOR  HN I        2339 44.24       215.4 0.16                           236 235 
 CHI  HZ EP       2339 16.04                             116   -0.04 8  249 196 
 CHI  HN ES   1   2339 44.76                             116   -0.57 6  249 196 
 CHI  HN I        2339 49.31        57.8 0.66                           249 196 
 ROSC BE ES   1   2339 46.56                             116    0.40 6  253 211 
 HEL  HZ EP       2339 18.86                             114    0.12 8  274 256 
 HEL  HN ES   2   2339 49.77                             114   -0.30 4  274 256 
 HEL  HN I        2339 57.26        68.1 0.34                           274 256 
 GUY  SZ EP       2339 22.81                             111    0.42 7  305 235 
 GUY  SN ES   2   2339 56.86                             111    0.29 4  305 235 
 RREF HZ EP       2339 25.00                             110    0.33 7  323 230 
 RREF HZ I        2340  6.78        34.6 0.24                           323 230 
 SDV  BZ EP       2339 27.75                             108   -0.57 6  359  50 
                                                                                
