 2016 1118 2036  6.8 L   6.765 -73.130144.0  RSN 14 0.5 2.5LRSN                1
 GAP=122        1.13       5.2     4.3  6.8 -0.4092E+01  0.4894E+01  0.1632E+02E
 Epicentro: LOS SANTOS - SANTANDER                                             3
 ACTION:UPD 17-10-26 21:09 OP:lp   STATUS:               ID:20161118203606 L   I
 OLDACT:UP  16-11-19 06:35 OP:lv   STATUS:               ID:20161118202745d    3
 OLDACT:DUP 16-11-19 06:26 OP:lv   STATUS:               ID:20161118202745d    3
 2016-11-18-2028-00M.COL___346                                                 6
 STAT SP IPHASW D HRMM SECON CODA AMPLIT PERI AZIMU VELO AIN AR TRES W  DIS CAZ7
 BAR2 EZ EP       2036 26.21                             171    0.1010 20.0 197 
 BAR2 EZ ES       2036 41.10                             171   -0.1110 20.0 197 
 BAR2 EZ I        2036 42.59       112.4 0.18            166           20.0 197 
 BRR  HZ EP       2036 28.05                             151    0.1410 74.6 300 
 BRR  HN ES       2036 45.24                             151    0.8210 74.6 300 
 BRR  HZ I        2036 48.71        31.1 0.11            151           74.6 300 
 PAM  EZ EP       2036 28.96                             150    0.0610 79.3  37 
 PAM  EN ES       2036 46.04                             150   -0.1410 79.3  37 
 PAM  EZ I        2036 48.51        35.4 0.57            157           79.3  37 
 PTB  HZ EP       2036 32.89                             131   -0.79 9  149 260 
 PTB  HN ES       2036 53.98                             131   -0.69 9  149 260 
 PTB  HZ I        2036 56.83        37.0 0.17            131            149 260 
 ZAR  HZ EP       2036 39.62                             122    0.21 8  207 293 
 ZAR  HN ES       2037  4.42                             122   -0.46 8  207 293 
 ZAR  HZ I        2037 10.89        27.6 0.31            123            207 293 
 NOR  HZ EP       2036 42.63                             118    0.33 8  234 235 
 NOR  HN ES       2037 10.19                             118    0.16 8  234 235 
 NOR  HZ I        2037 15.56        27.9 0.16            119            234 235 
 CHI  HZ EP       2036 44.25                             117    0.24 8  245 196 
 CHI  HN ES   4   2037 14.74                             117    1.68 0  245 196 
 CHI  HZ I        2037 20.82        15.3 0.46            118            245 196 
 PTGC HZ EP       2036 49.41                             111   -0.65 7  304 159 
 PTGC HN ES   4   2037 22.74                             111   -1.09 0  304 159 
 ELA  HZ EP   4   2036 56.41                             110    3.01 0  328 230 
 ELA  HN ES   4   2037 34.16                             110    4.37 0  328 230 
 ELA  HZ I        2037 37.81        13.0 0.30            111            328 230 
 LL6C HZ EP   9   2036 32.49                             110   -20.3 0  329 357 
 LL6C HN ES       2037  7.32                                   -1.11 7  329 357 
 CBOC HZ EP       2036 54.41                             110    0.75 7  334 253 
 CBOC HN ES       2037 30.07                             110   -0.17 7  334 253 
 CBOC HZ I        2037 39.67         5.3 0.38            110            334 253 
 ANIL HZ EP   4   2036 57.59                             108    1.27 0  356 225 
 ANIL HE ES       2037 35.64                             108    0.66 6  356 225 
 ANIL HZ I        2037 41.50        26.2 0.30            109            356 225 
 ORTC HZ EP   4   2037  1.37                             106    0.99 0  393 217 
 ORTC HE ES       2037 41.97                             106   -0.23 6  393 217 
 ORTC HZ I        2037 50.61        11.7 0.29            107            393 217 
 SJC  HZ EP   4   2037  0.70                             105   -2.05 0  413 327 
 SJC  HN ES   4   2037 41.81                             105   -4.62 0  413 327 
 SJC  HZ I        2037 45.36         4.4 0.36            107            413 327 
                                                                                
