 2015 1218 2344 21.9 L   6.799 -73.119147.8  RSN 17 0.5 2.4LRSN                1
 GAP=103        1.00       2.8     3.6  5.0 -0.1850E+01  0.2938E+01  0.2587E+01E
 Epicentro: LOS SANTOS - SANTANDER                                             3
 ACTION:UPD 16-02-04 15:05 OP:cam  STATUS:               ID:20151218234421 L   I
 OLDACT:UP  15-12-19 04:16 OP:mh   STATUS:               ID:20151218233750     3
 OLDACT:UP  15-12-19 04:16 OP:mh   STATUS:               ID:20151218233750     3
 OLDACT:UP  15-12-19 04:15 OP:mh   STATUS:               ID:20151218233750     3
 OLDACT:UP  15-12-19 04:15 OP:mh   STATUS:               ID:20151218233750     3
 OLDACT:UP  15-12-19 04:15 OP:mh   STATUS:               ID:20151218233750     3
 OLDACT:REG 15-12-19 02:57 OP:mh   STATUS:               ID:20151218233750     3
 2015-12-18-2337-50M.COL___331                                                 6
 STAT SP IPHASW D HRMM SECON CODA AMPLIT PERI AZIMU VELO AIN AR TRES W  DIS CAZ7
 BAR2 EZ EP       2344 41.91                             170    0.1110 23.9 197 
 BAR2 EZ ES       2344 56.61                             170   -0.7010 23.9 197 
 BAR2 EZ I        2344 58.21        68.6 0.32            169           23.9 197 
 BRR  HZ IP     C 2344 43.71                             152    0.2810 73.8 298 
 BRR  HN ES       2345  0.82                             152    0.6110 73.8 298 
 BRR  HZ I        2345  4.30        52.3 0.38            149           73.8 298 
 PAM  EZ EP       2344 44.75                             151    0.5010 75.7  38 
 PAM  EN ES       2345  2.04                             151    0.3810 75.7  38 
 PAM  EZ I        2345  4.01        39.1 0.60            155           75.7  38 
 RUS  HZ EP     D 2344 45.89                             144    0.0410  100 178 
 RUS  HN ES       2345  4.48                             144   -0.0310  100 178 
 RUS  HZ I        2345  5.37        17.4 0.50            146            100 178 
 PTB  HZ EP   1   2344 48.38                             132   -0.93 7  151 259 
 PTB  HE ES       2345 10.42                             132   -0.25 9  151 259 
 PTB  HZ I        2345 16.58        24.3 0.18            131            151 259 
 OCA  HZ EP   1   2344 50.04                             130   -0.39 7  161 352 
 OCA  HN ES       2345 12.31                             130   -0.36 9  161 352 
 OCA  HZ I        2345 20.11        55.7 0.20            131            161 352 
 SPBC HZ EP       2344 50.83                             129    0.09 9  165 220 
 SPBC HN ES       2345 13.33                             129    0.12 9  165 220 
 SPBC HZ I        2345 16.85        37.9 0.12            129            165 220 
 ZAR  HZ EP       2344 55.26                             122    0.48 8  207 292 
 ZAR  HN ES       2345 20.05                             122   -0.36 8  207 292 
 NOR  HZ EP   1   2344 57.94                             119   -0.07 6  237 235 
 NOR  HN ES       2345 25.20                             119   -0.96 8  237 235 
 NOR  HZ I        2345 34.20        12.9 0.16            119            237 235 
 CHI  HZ EP   1   2345  0.29                             117    0.49 6  249 196 
 CHI  HN ES       2345 29.59                             117    0.24 8  249 196 
 CHI  HZ I        2345 32.48        16.1 0.62            118            249 196 
 ROSC BZ EP   4   2345  1.89                             117    1.59 0  254 212 
 ROSC BN ES   4   2345 32.16                             117    1.92 0  254 212 
 ROSC BZ I        2345 36.44        35.9 0.40            117            254 212 
 HEL  HZ EP       2345  2.90                             115    0.36 8  275 256 
 HEL  HE ES   1   2345 34.19                             115   -0.04 6  275 256 
 HEL  HZ I        2345 40.54         8.7 0.58            115            275 256 
 SOCV BZ EP   1   2345  3.74                             113   -1.05 5  299  57 
 SOCV BN ES   4   2345 34.11                             113   -4.12 0  299  57 
 PTGC HZ EP   1   2345  5.06                             112   -0.67 5  308 159 
 PTGC HN ES   4   2345 37.85                             112   -2.06 0  308 159 
 PRA  HZ EP   1   2345 15.58                             107   -0.09 4  393 210 
 PRA  HN ES   1   2345 58.45                             107    0.86 4  393 210 
 PRA  HZ I        2346  3.02        17.4 0.32            107            393 210 
 ORTC HZ EP       2345 16.46                             106    0.36 6  397 217 
 ORTC HN ES       2345 58.55                             106    0.19 6  397 217 
 ORTC HZ I        2346  2.95         8.5 0.24            107            397 217 
 SJC  HZ EP   4   2345 15.39                             106   -2.36 0  411 327 
 SJC  HN ES   4   2345 56.86                             106   -4.43 0  411 327 
 SJC  HZ I        2346  4.80         5.7 0.28            106            411 327 
                                                                                
