 2017  118 2014 16.5 L   6.788 -73.135143.3  RSN 23 0.3 2.9LRSN                1
 GAP= 72        0.73       2.5     2.1  3.3  0.4873E-01  0.1972E+01  0.1877E+01E
 Epicentro: LOS SANTOS - SANTANDER                                             3
 ACTION:UPD 17-05-22 16:01 OP:jn   STATUS:               ID:20170118201416 L   I
 OLDACT:UP  17-01-19 03:57 OP:and  STATUS:               ID:20170118200746     3
 OLDACT:UP  17-01-19 03:56 OP:and  STATUS:               ID:20170118200746     3
 OLDACT:UP  17-01-19 03:55 OP:and  STATUS:               ID:20170118200746     3
 OLDACT:UP  17-01-19 03:53 OP:and  STATUS:               ID:20170118200746     3
 OLDACT:UP  17-01-19 03:23 OP:and  STATUS:               ID:20170118200746     3
 OLDACT:UP  17-01-19 03:22 OP:and  STATUS:               ID:20170118200746     3
 OLDACT:UP  17-01-19 03:19 OP:and  STATUS:               ID:20170118200746     3
 OLDACT:REG 17-01-19 02:43 OP:and  STATUS:               ID:20170118200746     3
 2017-01-18-2008-00M.COL___337                                                 6
 STAT SP IPHASW D HRMM SECON CODA AMPLIT PERI AZIMU VELO AIN AR TRES W  DIS CAZ7
 BAR2 EZ IP     C 2014 35.75                             171   -0.0810 22.3 194 
 BAR2 EZ ES       2014 50.52                             171   -0.3710 22.3 194 
 BAR2 EZ I        2014 51.98       309.9 0.24            166           22.3 194 
 BRR  HZ IP     C 2014 37.61                             151    0.1110 72.9 299 
 BRR  HN ES       2014 54.31                             151    0.4510 72.9 299 
 BRR  HZ I        2014 55.23       121.3 0.12            148           72.9 299 
 PAM  EZ IP     C 2014 38.54                             150    0.0510 77.7  38 
 PAM  EN ES       2014 55.47                             150   -0.1610 77.7  38 
 PAM  EZ I        2014 58.03       206.7 0.40            154           77.7  38 
 RUS  HZ IP     C 2014 39.62                             144   -0.3010 99.2 177 
 RUS  HN ES       2014 57.83                             144   -0.3510 99.2 177 
 RUS  HZ I        2014 59.16        82.4 0.20            141           99.2 177 
 PTB  HZ EP   9   2014 42.32                             131   -1.05 0  149 259 
 PTB  HN ES       2015  2.91                                   -0.35 9  149 259 
 PTB  HZ I        2015  8.87       137.1 0.14            128            149 259 
 TAM  HZ IP     C 2014 44.08                             130    0.22 9  154 105 
 TAM  HN ES       2015  5.47                             130    0.28 9  154 105 
 TAM  HZ I        2015  6.32        96.8 0.25            132            154 105 
 ZAR  HZ EP       2014 48.80                             121   -0.17 8  206 292 
 ZAR  HN ES       2015 14.69                             121    0.40 8  206 292 
 ZAR  HZ I        2015 19.66       203.9 0.24            119            206 292 
 NOR  HZ EP       2014 51.89                             118   -0.24 8  235 235 
 NOR  HN ES       2015 19.66                             118   -0.24 8  235 235 
 NOR  HZ I        2015 21.55        63.9 0.20            115            235 235 
 CHI  HZ IP     D 2014 54.45                             116    0.48 8  248 196 
 CHI  HN ES       2015 23.46                             116    0.27 8  248 196 
 CHI  HZ I        2015 31.14        39.1 0.40            115            248 196 
 ROSC BZ EP   4   2014 56.07                             116    1.62 0  252 211 
 ROSC BN ES   4   2015 26.37                             116    2.34 0  252 211 
 ROSC BZ I        2015 33.41        86.8 0.45            114            252 211 
 URE  HZ EP   9   2014 56.10                             113   -1.55 0  285 292 
 URE  HN ES       2015 28.12                             112   -0.06 7  285 292 
 URE  HZ I        2015 40.45        75.1 0.22            111            285 292 
 GUY2CHZ EP       2015  0.07                             112    0.03 7  301 235 
 GUY2CHN ES       2015 34.59                             112    0.61 7  301 235 
 GUY2CHZ  IAML    2015 42.43        43.0 0.28                           301 235 
 PTGC HZ EP   4   2014 59.02                             111   -1.05 0  307 159 
 PTGC HN ES   4   2015 32.13                             111   -1.91 0  307 159 
 PTGC HZ I        2015 41.42        32.3 0.28            110            307 159 
 LL6C HZ EP   9   2014 41.99                             110   -20.3 0  326 357 
 LL6C HE ES       2015 17.30                                   -0.38 7  326 357 
 LL6C HZ I        2015 36.14        11.4 0.45            109            326 357 
 ELA  HZ EP   4   2015  4.65                             110    1.38 0  329 230 
 ELA  HE ES   4   2015 43.64                             110    3.90 0  329 230 
 ELA  HZ I        2015 53.92        31.9 0.44            108            329 230 
 CBOC HZ EP       2015  3.72                             109    0.30 7  334 252 
 CBOC HN ES   4   2015 41.01                             109    1.01 0  334 252 
 CBOC HZ I        2015 52.71        20.5 0.26            108            334 252 
 DBB  EZ EP       2015  3.61                             109   -0.44 7  341 274 
 DBB  EN ES   4   2015 39.68                             109   -1.44 0  341 274 
 DBB  EZ I        2015 49.51        25.3 0.26            107            341 274 
 ORTC HZ EP       2015 10.13                             106   -0.18 6  395 216 
 ORTC HN ES   4   2015 53.69                             106    1.42 0  395 216 
 ORTC HZ I        2015 57.33        21.3 0.28            105            395 216 
 APAC HZ IP     D 2015 10.06                             106   -0.75 6  400 288 
 APAC HN ES   4   2015 54.65                             106    1.50 0  400 288 
 APAC HZ I        2016  1.05        20.5 0.28            105            400 288 
 PAL  HZ EP       2015 11.73                             105    0.09 6  406 239 
 PAL  HN ES   4   2015 57.09                             105    2.46 0  406 239 
 SJC  HZ EP   4   2015 10.13                             105   -2.08 0  411 327 
 SJC  HN ES   4   2015 51.93                             105   -3.72 0  411 327 
 SJC  HZ I        2015 55.47        20.4 0.45            104            411 327 
 CRJC HZ EP   4   2015 16.08                             103   -3.02 0  469   3 
 CRJC HN ES   4   2016  3.18                             103   -4.73 0  469   3 
 CRJC HZ I        2016 14.04        15.1 0.20            103            469   3 
 YOT  HZ EP       2015 19.10                             103   -0.40 5  472 229 
                                                                                
