 2011 1018 2136 34.4 L   6.763 -73.125152.0  RSN 19 0.4 3.7LRSN                1
 GAP=104        0.76       2.9     3.9  5.0 -0.1201E+01  0.5514E+01  0.3383E+01E
 Epicentro: LOS SANTOS - SANTANDER                                             3
 ACTION:UPD 12-07-13 16:04 OP:ep   STATUS:               ID:20111018213634 L   I
 2011-10-18-2134-22S.COL___152                                                 6
 STAT SP IPHASW D HRMM SECON CODA AMPLIT PERI AZIMU VELO AIN AR TRES W  DIS CAZ7
 BAR2 SZ IP       2136 54.65                             172   -0.1110 19.9 199 
 BAR2 SZ ES   2   2137  9.98                             172   -0.62 5 19.9 199 
 BAR2 SZ I        2137 11.52      1081.1 0.29                          19.9 199 
 BRR  HZ EP       2136 56.57                             152    0.0910 75.2 300 
 BRR  HE ES   1   2137 14.17                             152    0.49 7 75.2 300 
 BRR  HZ I        2137 16.40       963.8 0.16                          75.2 300 
 PAM  SZ EP       2136 57.47                             151    0.0510 79.2  36 
 PAM  SE ES   1   2137 14.70                             151   -0.65 7 79.2  36 
 RUS  HZ IP     D 2136 58.47                             146   -0.0510 96.4 177 
 RUS  HE ES   1   2137 17.49                             146    0.19 7 96.4 177 
 RUS  HZ I        2137 19.14       517.5 0.42                          96.4 177 
 OCA  SZ EP   1   2137  3.40                             130   -0.24 7  165 353 
 OCA  SZ ES   1   2137 27.17                             130    0.75 7  165 353 
 OCA  SZ I        2137 31.18       709.8 0.29                           165 353 
 YOP  SZ IP       2137  5.10                             128    0.61 9  174 153 
 YOP  SZ I        2137  5.94       249.9 0.63                           174 153 
 YOP  SE ES   2   2137 28.04                             128    0.11 4  174 153 
 ZAR  HZ EP   1   2137  7.11                             123   -0.56 6  208 293 
 ZAR  HZ I        2137 39.21      1068.8 0.38                           208 293 
 NOR  SZ EP   1   2137 10.53                             120    0.04 6  234 236 
 NOR  SN ES   1   2137 37.65                             120   -0.95 6  234 236 
 HEL  HZ EP   1   2137 15.33                             116    0.22 6  273 257 
 HEL  HZ I        2137 53.73       351.2 0.32                           273 257 
 VIL  SZ EP   1   2137 16.82                             113   -0.93 5  300 192 
 VIL  SN ES   2   2137 51.99                             113    0.45 4  300 192 
 VIL  SZ I        2137 59.05       159.0 0.56                           300 192 
 GUY  SZ EP   1   2137 18.90                             113    0.35 5  303 236 
 GUY  SZ I        2137 59.89       436.1 0.57                           303 236 
 RREF HZ EP   2   2137 20.87                             112    0.11 3  321 230 
 RREF HZ I        2138  6.32       425.4 0.35                           321 230 
 DBB  SZ EP   1   2137 22.62                             110    0.15 5  342 275 
 TOL  SZ EP   2   2137 23.40                             110    0.59 3  342 225 
 ANIL HZ EP   1   2137 24.58                             110    0.24 5  356 225 
 ANIL HN ES   1   2138  3.41                             110    0.14 5  356 225 
 SDV  BZ EP   1   2137 24.11                             109   -0.71 5  361  49 
 SDV  BZ I        2138  3.64       120.0 0.38                           361  49 
 PRA  HZ EP   1   2137 27.87                             108   -0.03 4  390 210 
 PAL  HZ EP   1   2137 29.95                             107    0.15 4  406 240 
 PAL  HZ I        2137 31.79       165.9 0.31                           406 240 
 HORQ SZ EP   1   2137 44.27                             102   -0.62 3  531 227 
                                                                                
