 2014  618 2244 46.8 L   6.813 -73.127146.4  RSN 23 0.5 2.7LRSN                1
 GAP= 72        1.09       2.5     2.9  5.0 -0.4015E+00  0.3914E+01  0.2520E+01E
 Epicentro: LOS SANTOS - SANTANDER                                             3
 ACTION:UPD 14-07-01 22:55 OP:nd   STATUS:               ID:20140618224446 L   I
 OLDACT:REG 14-06-19 03:33 OP:fm   STATUS:               ID:20140618223819     3
 2014-06-18-2238-19M.COL___262                                                 6
 STAT SP IPHASW D HRMM SECON CODA AMPLIT PERI AZIMU VELO AIN AR TRES W  DIS CAZ7
 BAR2 SZ IP     C 2245  6.44                             170   -0.1310 25.1 194 
 BAR2 SZ ES   1   2245 21.80                             170   -0.17 7 25.1 194 
 BAR2 SZ I        2245 24.11        83.3 0.26            168           25.1 194 
 BRR  HZ EP       2245  8.39                             152    0.2810 72.4 297 
 BRR  HN ES       2245 25.54                             152    0.8310 72.4 297 
 BRR  HZ I        2245 27.90        44.2 0.16            151           72.4 297 
 PAM  SZ IP     C 2245  9.20                             152    0.2310 75.0  39 
 PAM  SN ES       2245 26.36                             152    0.1210 75.0  39 
 PAM  SZ I        2245 28.59        68.3 0.20            156           75.0  39 
 RUS  HZ EP     D 2245 10.33                             144   -0.4010  102 177 
 RUS  HN ES       2245 28.97                             144   -0.4110  102 177 
 RUS  HZ I        2245 30.27        33.1 0.40            144            102 177 
 PTB  HZ EP       2245 13.18                             132   -0.88 9  150 258 
 PTB  HN ES       2245 34.63                             132   -0.67 9  150 258 
 PTB  HZ I        2245 40.31        69.5 0.20            132            150 258 
 TAM  HZ EP     D 2245 14.55                             131    0.15 9  153 106 
 TAM  HN ES       2245 35.86                             131   -0.05 9  153 106 
 TAM  HZ I        2245 37.62        27.3 0.50            134            153 106 
 OCA  HZ EP   1   2245 13.85                             130   -1.23 7  159 352 
 OCA  HN ES       2245 37.14                             130    0.02 9  159 352 
 OCA  HZ I        2245 44.91        47.1 0.24            132            159 352 
 SPBC HZ EP       2245 15.43                             129   -0.17 9  166 219 
 SPBC HN ES       2245 38.20                             129    0.16 9  166 219 
 SPBC HZ I        2245 43.27        88.9 0.16            129            166 219 
 ZAR  HZ EP       2245 19.07                             122   -0.39 8  205 292 
 ZAR  HN ES       2245 44.69                             122   -0.22 8  205 292 
 NOR  HZ EP     D 2245 22.67                             118   -0.19 8  237 234 
 NOR  HN ES       2245 50.75                             118   -0.22 8  237 234 
 NOR  HZ I        2245 54.25        42.2 0.22            119            237 234 
 SML  HZ EP       2245 23.34                             118   -0.11 8  243 335 
 SML  HN ES       2245 52.76                             118    0.75 8  243 335 
 SML  HZ I        2245 56.41        46.9 0.10            119            243 335 
 CHI  HZ EP       2245 24.42                             117   -0.35 8  251 196 
 CHI  HE ES       2245 54.01                             117   -0.35 8  251 196 
 CHI  HZ I        2246  2.75        17.7 0.36            118            251 196 
 ROSC BZ EP       2245 26.07                             117    0.84 8  255 211 
 ROSC BN ES       2245 55.86                             117    0.68 8  255 211 
 ROSC BZ I        2246  4.39        52.7 0.40            117            255 211 
 HEL  HZ EP       2245 27.80                             115    0.46 8  274 256 
 HEL  HN ES       2245 59.35                             115    0.42 8  274 256 
 HEL  HZ I        2246  5.11        20.6 0.36            115            274 256 
 URE  HZ EP   4   2245 26.30                             114   -1.79 0  285 291 
 URE  HE ES   4   2245 57.04                             114   -3.23 0  285 291 
 URE  HZ I        2246  4.77        22.3 0.36            114            285 291 
 GUY2CHZ EP       2245 31.44                             112    0.69 7  304 235 
 GUY2CHN ES   4   2246  8.16                             112    3.15 0  304 235 
 GUY2CHZ I        2246 13.28        46.6 0.78                           304 235 
 VIL  SZ EP       2245 30.78                             112    0.30 7  305 192 
 VIL  SE ES       2246  4.81                             112    0.29 7  305 192 
 VIL  SZ I        2246 14.79        24.0 0.66            113            305 192 
 PTGC HZ EP   4   2245 29.37                             112   -1.40 0  309 159 
 RREF HZ EP       2245 34.34                             111    1.06 7  324 229 
 RREF HN ES   4   2246 11.59                             111    2.08 0  324 229 
 RREF HZ I        2246 15.06        27.8 0.24            112            324 229 
 CBOC HZ EP   1   2245 34.21                             110    0.16 5  336 252 
 CBOC HN ES   1   2246 10.54                             110   -0.33 5  336 252 
 CBOC HZ I        2246 17.89        12.2 0.26            111            336 252 
 DBB  SZ EP       2245 34.04                             109   -0.52 7  341 274 
 DBB  SZ ES   1   2246 10.65                             109   -1.14 5  341 274 
 DBB  SZ I        2246 12.91        66.9 0.50            110            341 274 
 TOL  SZ EP       2245 35.80                             109    0.41 6  346 225 
 TOL  SN ES       2246 13.52                             109    0.25 6  346 225 
 TOL  SZ I        2246 23.44        54.2 0.72            110            346 225 
 ANIL HZ EP   4   2245 38.18                             108    1.24 0  360 225 
 ANIL HN ES   4   2246 17.56                             108    1.53 0  360 225 
 PRA  HZ EP       2245 39.96                             106   -0.67 6  394 210 
 PRA  HN ES       2246 22.86                             106    0.26 6  394 210 
 PRA  HZ I        2246 28.23        23.5 0.34            107            394 210 
 SJC  HZ EP   4   2245 40.58                             106   -1.83 0  409 327 
 SJC  HN ES   4   2246 21.49                             106   -4.27 0  409 327 
 SJC  HZ I        2246 34.31         6.4 0.34            107            409 327 
 SMAR HE ES   4   2246 40.07                             102   -3.86 0  496 346 
 MACC HZ EP   4   2245 52.18                             102   -3.58 0  522 189 
 MACC HN ES   4   2246 45.06                             102   -4.46 0  522 189 
                                                                                
