 2013  618 2210 29.6 L   6.817 -73.137138.0  RSN 14 0.5 3.0LRSN 3.2WRSN        1
 SPEC AVERAGE  MO 13.9 ST  5.8 OM  2.6 f0 3.45 R0.4915 AL 2.11 WI 20.6 MW  3.2 3
 SPEC SD       MO  0.2 ST  6.9 OM  0.5 f00.984 R0.1596 AL      WI      MW  0.2 3
 GAP=113        1.05       3.2     3.1  5.8  0.1232E+01  0.2515E+01  0.3871E+00E
 Epicentro: LOS SANTOS - SANTANDER                                             3
 SPEC ZAR HH N MO 14.1 ST 13.5 OM  2.3 f0 4.55 R0.3415 AL 1.50 WI 21.5 MW  3.3 3
 SPEC ZAR HH N T221122 K 0.000 GD  246 VS 4.20 DE 3.20 Q0300.0 QA 0.60 VS 4.20 3
 SPEC YOP SH N MO 14.3 ST  3.5 OM  2.5 f0 2.56 R0.6070 AL 3.09 WI 16.1 MW  3.4 3
 SPEC YOP SH N T221119 K 0.000 GD  226 VS 4.20 DE 3.20 Q0300.0 QA 0.60 VS 4.20 3
 SPEC TAM HH E MO 14.0 ST0.635 OM  2.3 f0 1.74 R0.8931 AL 1.62 WI 15.5 MW  3.3 3
 SPEC TAM HH E T221115 K 0.000 GD  207 VS 4.20 DE 3.20 Q0300.0 QA 0.60 VS 4.20 3
 SPEC RUS HH N MO 13.6 ST  2.1 OM  2.0 f0 3.49 R0.4453 AL 2.14 WI 21.8 MW  3.0 3
 SPEC RUS HH N T2211 8 K 0.000 GD  171 VS 4.20 DE 3.20 Q0300.0 QA 0.60 VS 4.20 3
 SPEC PRA HH N MO 13.6 ST  1.3 OM  1.6 f0 2.99 R0.5197 AL 1.61 WI 30.9 MW  3.0 3
 SPEC PRA HH N T2212 0 K 0.000 GD  417 VS 4.20 DE 3.20 Q0300.0 QA 0.60 VS 4.20 3
 SPEC HEL HH N MO 13.9 ST  2.5 OM  2.0 f0 3.02 R0.5146 AL 2.16 WI 25.1 MW  3.2 3
 SPEC HEL HH N T221138 K 0.000 GD  306 VS 4.20 DE 3.20 Q0300.0 QA 0.60 VS 4.20 3
 SPEC NOR HH Z MO 13.6 ST  2.9 OM  1.8 f0 3.84 R0.4047 AL 1.73 WI 22.8 MW  3.0 3
 SPEC NOR HH Z T221129 K 0.000 GD  274 VS 4.20 DE 3.20 Q0300.0 QA 0.60 VS 4.20 3
 SPEC PTB HH N MO 14.1 ST  5.9 OM  2.4 f0 3.41 R0.4557 AL 1.40 WI 23.0 MW  3.3 3
 SPEC PTB HH N T221114 K 0.000 GD  203 VS 4.20 DE 3.20 Q0300.0 QA 0.60 VS 4.20 3
 SPEC BRR HH N MO 14.1 ST 23.8 OM  2.5 f0 5.50 R0.2825 AL 3.43 WI 11.7 MW  3.3 3
 SPEC BRR HH N T2211 8 K 0.000 GD  155 VS 4.20 DE 3.20 Q0300.0 QA 0.60 VS 4.20 3
 SPEC BAR2SH Z MO 13.6 ST  2.1 OM  2.1 f0 3.45 R0.4504 AL 2.42 WI 17.7 MW  3.0 3
 SPEC BAR2SH Z T2211 1 K 0.000 GD  140 VS 4.20 DE 3.20 Q0300.0 QA 0.60 VS 4.20 3
 ACTION:UPD 14-01-08 09:55 OP:ep   STATUS:               ID:20130618221029 L   I
 OLDACT:UP  13-06-19 05:49 OP:mh   STATUS:               ID:20130618220941     3
 OLDACT:UP  13-06-19 05:47 OP:mh   STATUS:               ID:20130618220941     3
 OLDACT:UP  13-06-19 05:32 OP:mh   STATUS:               ID:20130618220941     3
 OLDACT:REG 13-06-19 01:59 OP:mh   STATUS:               ID:20130618220941     3
 2013-06-18-2209-41M.COL___226                                                 6
 STAT SP IPHASW D HRMM SECON CODA AMPLIT PERI AZIMU VELO AIN AR TRES W  DIS CAZ7
 BAR2 SZ EP       2210 48.56                             169    0.1710 25.4 191 
 BAR2 SZ ES       2211  2.82                             169   -0.1910 25.4 191 
 BAR2 SZ I        2211  4.35       194.8 0.30            169           25.4 191 
 GIR2 SZ EP       2210 48.69                             167    0.3410 29.6 348 
 GIR2 SZ I        2210 49.09       109.7 0.12            167           29.6 348 
 BRR  HZ EP       2210 50.49                             151    0.5310 71.2 297 
 BRR  HE ES       2211  6.23                             151    0.4310 71.2 297 
 RUS  HZ EP       2210 52.54                             142   -0.2410  102 177 
 RUS  HN ES       2211 10.14                             142   -0.6910  102 177 
 RUS  HN I        2211 11.57       141.2 0.22            141            102 177 
 PTB  HZ EP       2210 55.09                             130   -1.03 9  149 258 
 PTB  HN ES       2211 16.87                             130    0.10 9  149 258 
 PTB  HN I        2211 19.31       166.9 0.20            130            149 258 
 TAM  HZ EP     D 2210 56.91                             129    0.23 9  155 106 
 TAM  HN ES       2211 17.83                             129    0.07 9  155 106 
 TAM  HN I        2211 22.64       116.5 0.30            128            155 106 
 OCA  HZ EP       2210 56.93                             128   -0.26 9  158 353 
 OCA  HN ES       2211 18.53                             128   -0.15 9  158 353 
 OCA  HN I        2211 23.19       611.6 0.20            128            158 353 
 YOP  SN ES   1   2211 22.95                             124    0.57 7  180 154 
 YOP  SN I        2211 26.34       117.1 0.46            124            180 154 
 ZAR  HZ EP   1   2211  1.56                             121   -0.06 6  204 292 
 ZAR  HN ES       2211 26.66                             121    0.10 9  204 292 
 NOR  HZ EP   1   2211  4.54                             117   -0.61 6  237 234 
 NOR  HN ES       2211 33.40                             117    0.56 8  237 234 
 NOR  HN I        2211 34.95       145.4 0.16            116            237 234 
 SML  HZ EP   1   2211  5.08                             116   -0.62 6  242 335 
 SML  HN ES   4   2211 32.22                             116   -1.61 0  242 335 
 SML  HN I        2211 37.08       129.0 0.30            116            242 335 
 ROSC BZ EP   1   2211  8.64                             115    1.05 6  255 211 
 ROSC BN ES   4   2211 40.29                             115    3.10 0  255 211 
 HEL  HZ EP   1   2211 10.18                             113    0.54 6  274 255 
 HEL  HN ES   1   2211 40.24                             113   -0.59 6  274 255 
 HEL  HN I        2211 48.07        44.4 0.42            113            274 255 
 PRA  HZ EP   1   2211 23.61                             105    0.44 4  394 210 
 PRA  HN ES       2212  4.52                             105   -0.39 6  394 210 
 PRA  HN I        2212  9.90        13.2 0.28            105            394 210 
                                                                                
