 2017  918 2136 38.8 L   6.769 -73.114143.0  RSN  9 0.4 1.7LRSN                1
 GAP=142        0.66       2.9     3.5  4.4 -0.1802E+01  0.3705E+01  0.1903E+01E
 Epicentro: LOS SANTOS - SANTANDER                                             3
 ACTION:UPD 17-10-05 19:13 OP:rebc STATUS:               ID:20170918213638 L   I
 OLDACT:UP  17-09-19 05:45 OP:mg   STATUS:               ID:20170918212745     3
 OLDACT:UP  17-09-19 05:45 OP:mg   STATUS:               ID:20170918212745     3
 OLDACT:REG 17-09-19 03:26 OP:mg   STATUS:               ID:20170918212745     3
 2017-09-18-2128-00M.COL___457                                                 6
 STAT SP IPHASW D HRMM SECON CODA AMPLIT PERI AZIMU VELO AIN AR TRES W  DIS CAZ7
 BAR2 EZ EP       2136 57.90                             171   -0.1810 21.0 201 
 BAR2 EZ ES       2137 12.76                             171   -0.3410 21.0 201 
 BAR2 EZ I        2137 13.91        12.2 0.23            167           21.0 201 
 BRR  HZ EP       2136 59.99                             150    0.0310 75.9 300 
 BRR  HN ES       2137 16.86                             150    0.4210 75.9 300 
 BRR  HZ I        2137 21.63         8.5 0.15            146           75.9 300 
 PAM  EZ EP       2137  0.77                             150   -0.0110 77.9  36 
 PAM  EN ES       2137 18.04                             150    0.1310 77.9  36 
 PAM  EZ I        2137 18.51         3.3 0.23            154           77.9  36 
 RUS  HZ EP       2137  1.94                             144   -0.1110 97.0 178 
 RUS  HN ES       2137 20.25                             144    0.0910 97.0 178 
 RUS  HZ I        2137 21.65         8.8 0.38            145           97.0 178 
 SPBC HZ EP       2137  7.26                             128    0.18 9  163 221 
 SPBC HN ES       2137 29.06                             128   -0.06 9  163 221 
 SPBC HZ I        2137 31.24        10.6 0.12            127            163 221 
 ZAR  HN ES   1   2137 36.33                             121   -0.77 6  209 293 
 ZAR  HZ I        2137 42.51         6.6 0.31            120            209 293 
 NOR  HZ EP   1   2137 14.27                             118   -0.23 6  236 236 
 NOR  HN ES   2   2137 42.65                             118    0.33 4  236 236 
 NOR  HZ I        2137 47.25         3.8 0.09            117            236 236 
 GUY2CHZ EP   1   2137 23.08                             112    0.67 5  302 236 
 GUY2CHN ES   4   2137 59.65                             112    3.24 0  302 236 
 GUY2CHZ I        2138  4.61         2.7 0.49                           302 236 
 PRA  HZ EP   3   2137 30.76                             106   -1.35 1  391 210 
 PRA  HN ES   3   2138 15.28                             106    1.61 1  391 210 
 PRA  HZ I        2138 22.65         3.3 0.31            106            391 210 
                                                                                
