 2013  418 2220 52.0 L   7.200 -73.851 21.1  RSN  6 0.5 1.6LRSN                1
 GAP=157        1.25       5.2     3.3  4.1  0.1946E+01  0.3449E+01 -0.6235E+01E
 Epicentro: BARRANCABERMEJA - SANTANDER                                        3
 ACTION:UPD 13-05-22 14:39 OP:EP   STATUS:               ID:20130418222052 L   I
 2013-04-18-2220-00M.COL___250                                                 6
 STAT SP IPHASW D HRMM SECON CODA AMPLIT PERI AZIMU VELO AIN AR TRES W  DIS CAZ7
 BRR  HZ IP     C 2220 56.84                             137    0.3010 18.4 124 
 BRR  HE ES       2221  0.50                             137    0.4110 18.4 124 
 BRR  HZ I        2221  1.56        67.6 0.10            135           18.4 124 
 PTB  HZ EP       2221  7.54                             100   -0.2910 99.0 223 
 PTB  HN ES       2221 19.75                             100   -0.4410 99.0 223 
 PTB  HZ I        2221 21.09        23.8 0.14            100           99.0 223 
 BAR2 SZ EP   1   2221  7.52                             100   -0.67 7 99.9 132 
 ZAR  HZ EP       2221 10.52                              56    0.2610  116 286 
 ZAR  HN ES       2221 24.86                              56    0.3510  116 286 
 ZAR  HZ I        2221 26.26        14.5 0.28             56            116 286 
 PAM  SZ EP       2221 11.38                              56   -0.9910  128  83 
 PAM  SE ES   4   2221 25.15                              56   -3.13 0  128  83 
 PAM  SZ I        2221 28.13         5.4 0.16             56            128  83 
 RUS  HZ EP       2221 17.79                              56    0.47 9  168 150 
 RUS  HE ES       2221 37.49                              56    0.41 9  168 150 
 RUS  HZ I        2221 39.27         6.5 0.20             56            168 150 
                                                                                
