 2011 1118 2154 29.3 L   6.770 -73.149141.8  RSN  5 0.1 1.8LRSN                1
 GAP=138        0.30       2.0     2.5  3.3  0.8828E+00  0.6170E+00  0.8015E+00E
 Epicentro: LOS SANTOS - SANTANDER                                             3
 ACTION:UPD 12-07-13 16:11 OP:ep   STATUS:               ID:20111118215429 L   I
 2011-11-18-2150-14S.COL___179                                                 6
 STAT SP IPHASW D HRMM SECON CODA AMPLIT PERI AZIMU VELO AIN AR TRES W  DIS CAZ7
 BAR2 SZ EP       2154 48.39                             172   -0.0310 20.0 191 
 BAR2 SZ ES   2   2155  3.24                             172   -0.07 5 20.0 191 
 BAR2 SZ I        2155  5.80        15.5 0.24                          20.0 191 
 BRR  HZ EP       2154 50.16                             151    0.0310 72.6 301 
 BRR  HZ I        2154 50.41        30.5 0.10                          72.6 301 
 BRR  HE ES   1   2155  6.51                             151    0.16 7 72.6 301 
 PAM  SZ EP   1   2154 51.34                             149    0.04 7 80.2  38 
 PAM  SN ES   1   2155  8.36                             149   -0.07 7 80.2  38 
 RUS  HZ EP       2154 52.48                             144    0.0310 97.3 176 
 RUS  HE ES   1   2155 10.45                             144   -0.04 7 97.3 176 
 RUS  HZ I        2155 14.85         3.2 0.39                          97.3 176 
 ZAR  HE ES   2   2155 26.46                             121   -0.35 4  205 293 
 ZAR  HZ I        2155 32.85        10.2 0.57                           205 293 
                                                                                
