 2014  418 2343 17.8 L   6.782 -73.164145.6  RSN  6 0.4 1.1LRSN                1
 GAP=135        0.90       4.2     4.0  8.2 -0.2740E+00  0.4105E+01  0.2293E+01E
 Epicentro: LOS SANTOS - SANTANDER                                             3
 ACTION:UPD 14-05-13 23:09 OP:nd   STATUS:               ID:20140418234317 L   I
 OLDACT:UP  14-04-19 05:50 OP:cam  STATUS:               ID:20140418233815     3
 OLDACT:REG 14-04-19 04:25 OP:cam  STATUS:               ID:20140418233815     3
 2014-04-18-2338-15M.COL___239                                                 6
 STAT SP IPHASW D HRMM SECON CODA AMPLIT PERI AZIMU VELO AIN AR TRES W  DIS CAZ7
 BRR  HZ EP       2343 38.97                             153    0.0810 70.4 301 
 BRR  HE ES       2343 55.74                             153    0.4110 70.4 301 
 BRR  HZ I        2343 58.05         2.5 0.30            150           70.4 301 
 PAM  SZ EP       2343 40.15                             150   -0.0210 80.2  40 
 PAM  SN ES       2343 57.40                             150   -0.2210 80.2  40 
 PAM  SZ I        2344  0.14         2.4 0.36            151           80.2  40 
 RUS  HZ EP       2343 41.41                             144    0.0010 98.8 175 
 RUS  HN ES       2343 59.86                             144    0.0510 98.8 175 
 RUS  HZ I        2344  1.82         1.8 0.26            148           98.8 175 
 PTB  HZ EP   1   2343 44.61                             132    0.07 7  145 259 
 PTB  HN ES       2344  4.51                             132   -0.89 9  145 259 
 PTB  HZ I        2344  7.48         2.0 0.10            132            145 259 
 SPBC HN ES   1   2344  8.56                             129    0.53 7  160 219 
 ZAR  HN ES       2344 15.60                             122    0.27 9  203 293 
 ZAR  HZ I        2344 25.62         1.5 0.20            122            203 293 
                                                                                
