 2014  818 2210 15.5 L   6.801 -73.131144.9  RSN  8 0.3 1.4LRSN                1
 GAP=138        0.79       3.8     3.7  5.5  0.4035E+00  0.4172E+01 -0.2014E+01E
 Epicentro: LOS SANTOS - SANTANDER                                             3
 ACTION:UPD 14-09-15 21:51 OP:nd   STATUS:               ID:20140818221015 L   I
 OLDACT:REG 14-08-19 04:56 OP:spq  STATUS:               ID:20140818220817     3
 2014-08-18-2208-17M.COL___265                                                 6
 STAT SP IPHASW D HRMM SECON CODA AMPLIT PERI AZIMU VELO AIN AR TRES W  DIS CAZ7
 BAR2 SZ EP   1   2210 34.89                             170   -0.18 7 23.7 194 
 BAR2 SZ ES   1   2210 50.22                             170   -0.08 7 23.7 194 
 BAR2 SZ I        2210 52.78         7.7 0.52            171           23.7 194 
 BRR  HZ EP       2210 36.97                             152    0.3010 72.6 298 
 BRR  HE ES       2210 52.73                             152   -0.4210 72.6 298 
 BRR  HZ I        2210 54.45         5.3 0.60            150           72.6 298 
 PAM  SZ EP       2210 37.72                             151    0.1310 76.3  39 
 PAM  SN ES       2210 55.01                             151    0.2110 76.3  39 
 PAM  SZ I        2210 57.08         3.2 0.20            153           76.3  39 
 RUS  HZ EP       2210 39.00                             144   -0.2010  101 177 
 RUS  HE ES   1   2210 57.80                             144    0.15 7  101 177 
 RUS  HZ I        2210 59.73         1.6 0.24            147            101 177 
 PTB  HZ EP   1   2210 41.75                             131   -0.83 7  149 259 
 PTB  HE ES       2211  3.92                             131    0.26 9  149 259 
 PTB  HZ I        2211  6.02         3.6 0.09            131            149 259 
 ZAR  HZ EP       2210 48.68                             122    0.61 8  206 292 
 ZAR  HN ES   1   2211 13.48                             122    0.03 6  206 292 
 ZAR  HZ I        2211 23.85         1.7 0.15            122            206 292 
 SML  HZ EP   1   2210 51.71                             117   -0.47 6  244 335 
 SML  HN ES   1   2211 20.57                             117   -0.19 6  244 335 
 SML  HZ I        2211 24.64         3.7 0.10            118            244 335 
 GUY2CHN ES   4   2211 36.49                             112    3.13 0  303 235 
 GUY2CHZ I        2211 45.07         2.2 0.60                           303 235 
                                                                                
