 2014  118 2317 38.9 L   6.828 -73.169147.1  RSN  9 0.6 1.8LRSN                1
 GAP=132        1.34       4.8     6.6  9.0  0.4915E+01  0.4459E+01  0.2089E+01E
 Epicentro: LOS SANTOS - SANTANDER                                             3
 ACTION:UPD 14-03-13 09:56 OP:ep   STATUS:               ID:20140118231738 L   I
 OLDACT:REG 14-01-18 21:08 OP:jn   STATUS:               ID:20140118231000     3
 2014-01-18-2310-00M.COL___285                                                 6
 STAT SP IPHASW D HRMM SECON CODA AMPLIT PERI AZIMU VELO AIN AR TRES W  DIS CAZ7
 BAR2 SZ ES       2318 13.87                             170   -0.3810 26.1 183 
 BAR2 SZ I        2318 15.12        22.6 0.60            167           26.1 183 
 BRR  HZ EP       2318  0.48                             154    0.4710 67.5 297 
 BRR  HN ES       2318 17.27                             154    0.8210 67.5 297 
 BRR  HZ I        2318 17.91        14.8 0.10            155           67.5 297 
 PAM  SZ EP       2318  1.66                             151    0.4210 76.7  42 
 PAM  SZ I        2318 20.75        19.2 0.80            140           76.7  42 
 RUS  HZ EP       2318  3.21                             143    0.1710  104 175 
 RUS  HN ES       2318 21.46                             143   -0.3910  104 175 
 RUS  HZ I        2318 23.47         7.9 0.28            140            104 175 
 PTB  HZ EP       2318  4.94                             133   -0.89 9  146 257 
 PTB  HN ES       2318 26.40                             133   -0.41 9  146 257 
 PTB  HZ I        2318 29.03        10.8 0.44            133            146 257 
 ZAR  HN ES   1   2318 36.32                             123    0.14 6  201 292 
 NOR  HN ES       2318 43.34                             119    0.73 8  234 233 
 SML  HN ES       2318 42.63                             118   -0.87 8  240 336 
 CHI  HZ EP       2318 17.33                             117    0.38 8  251 194 
 CHI  HN ES       2318 46.28                             117   -0.32 8  251 194 
 CHI  HZ I        2318 52.88         1.7 0.38            114            251 194 
                                                                                
