 2012  318 2025 59.4 L   6.478 -73.766 84.0  RSN  5 0.4 1.3LRSN                1
 GAP=145        0.95       5.9     4.5 11.0  0.1265E+02  0.1678E+02  0.1174E+02E
 ACTION:UP  12-03-31 23:20 OP:EP   STATUS:               ID:20120318202559 L   I
 2012-03-18-2020-00M.COL___202                                                 6
 STAT SP IPHASW D HRMM SECON CODA AMPLIT PERI AZIMU VELO SNR AR TRES W  DIS CAZ7
 BAR2 SZ EP   1   2026 14.34                             139     0.1 7   66  79 
 BAR2 SZ ES   1   2026 26.46                             139     0.6 7   66  79 
 BAR2 SZ I        2026 27.90        10.5 0.38                            66  79 
 BRR  HZ EP   1   2026 13.76                             137    -0.5 7   70   5 
 BRR  HE ES   1   2026 25.49                             137    -0.4 7   70   5 
 BRR  HZ I        2026 35.77         7.2 0.29                            70   5 
 PTB  HZ EP       2026 14.59                             134    -0.310   77 275 
 PTB  HN ES   1   2026 27.23                             134     0.3 7   77 275 
 PTB  HZ I        2026 29.23         3.9 0.06                            77 275 
 RUS  HZ EP   1   2026 18.00                             127     0.3 7  100 131 
 RUS  HN ES   1   2026 31.50                             127    -0.4 7  100 131 
 RUS  HZ I        2026 34.61         3.8 0.16                           100 131 
 ZAR  HZ EP   1   2026 24.55                             112     0.4 7  165 313 
 ZAR  HN ES   1   2026 43.62                             112     0.2 7  165 313 
 ZAR  HZ I        2026 46.85         4.7 0.29                           165 313 
                                                                                
