 2010 1118 2342 33.0 L   6.817 -73.067140.5  RSN  5 0.2 1.8LRSN                1
 GAP=207        0.34       3.5     6.4  4.1  0.1219E+02 -0.4543E+01 -0.9718E+00E
 Epicentro: LOS SANTOS - SANTANDER                                             3
 ACTION:UP  10-12-17 16:53 OP:REBC STATUS:               ID:20101118234233 L   I
 2010-11-18-2341-02S.COL___126                                                 6
 STAT SP IPHASW D HRMM SECON CODA AMPLIT PERI AZIMU VELO SNR AR TRES W  DIS CAZ7
 BAR2 SZ EP       2342 52.13                             168     0.010   28 207 
 BAR2 SZ ES   1   2343  7.17                             168     0.1 7   28 207 
 BAR2 SZ I        2343  8.76        32.9 0.12                            28 207 
 GIR2 SZ EP   2   2342 52.20                             167     0.1 5   32 334 
 BRR  HZ EP       2342 53.96                             150    -0.110   78 294 
 BRR  HZ I        2342 54.23        15.5 0.21                            78 294 
 BRR  HN ES   1   2343 10.40                             150     0.0 7   78 294 
 RUS  HZ EP   2   2342 56.21                             142    -0.2 5  102 181 
 RUS  HE ES   2   2343 14.51                             142    -0.1 5  102 181 
 RUS  HZ I        2343 16.03         8.2 0.32                           102 181 
 CHI  HZ EP   3   2343 11.70                             116     0.8 2  253 197 
 CHI  HN ES   2   2343 40.36                             116    -0.1 4  253 197 
 CHI  HZ I        2343 49.25         2.7 0.18                           253 197 
                                                                                
