 2010  818 2127 31.8 L   6.759 -73.145147.5  RSN  8 0.4 2.0LRSN                1
 GAP=159        1.08       5.9    12.6 10.1 -0.1113E+02 -0.3604E+02 -0.3513E+01E
 Epicentro: LOS SANTOS - SANTANDER                                             3
 ACTION:UP  10-09-07 10:56 OP:vdl  STATUS:               ID:20100818212731 L   I
 2010-08-18-2125-23S.COL___116                                                 6
 STAT SP IPHASW D HRMM SECON CODA AMPLIT PERI AZIMU VELO SNR AR TRES W  DIS CAZ7
 BAR2 SZ IP       2127 51.48                             172    -0.110   19 193 
 BAR2 SZ ES   1   2128  6.61                             172    -0.4 7   19 193 
 BAR2 SZ I        2128  9.34        28.9 0.38                            19 193 
 GIR2 SZ EP   2   2127 52.09                             166     0.3 5   36 351 
 BRR  HZ IP     C 2127 53.43                             152     0.110   74 302 
 BRR  HN ES   1   2128 10.21                             152     0.2 7   74 302 
 BRR  HZ I        2128 10.73        31.1 0.22                            74 302 
 RUS  HZ EP       2127 55.37                             145    -0.110   96 176 
 RUS  HN ES   2   2128 14.20                             145     0.4 5   96 176 
 RUS  HZ I        2128 15.90         7.0 0.34                            96 176 
 GUE  SZ EP       2127 56.39                             139    -0.710  121  12 
 GRA  SZ IP       2127 58.29                             136     0.710  130  17 
 GRA  SZ ES   1   2128 17.85                             136     0.2 7  130  17 
 GRA  SZ I        2128 19.23        15.8 0.36                           130  17 
 OCA  SZ EP   2   2127 59.73                             129    -1.0 5  165 353 
 OCA  SZ I        2128 29.61        11.9 0.53                           165 353 
 CHI  HZ EP   2   2128  9.59                             118     0.4 4  244 195 
 CHI  HZ I        2128 43.33         8.2 0.35                           244 195 
                                                                                
