 2017  318 2228 20.0 L   6.810 -73.146149.6  RSN 14 0.5 2.4LRSN                1
 GAP=119        1.11       3.6     4.2  5.6 -0.6405E+00  0.3877E+01  0.4861E+01E
 Epicentro: LOS SANTOS - SANTANDER                                             3
 ACTION:UPD 17-05-25 18:42 OP:jn   STATUS:               ID:20170318222820 L   I
 OLDACT:UP  17-03-19 06:55 OP:ar   STATUS:               ID:20170318221745     3
 OLDACT:REG 17-03-19 06:23 OP:ar   STATUS:               ID:20170318221745     3
 2017-03-18-2218-00M.COL___397                                                 6
 STAT SP IPHASW D HRMM SECON CODA AMPLIT PERI AZIMU VELO AIN AR TRES W  DIS CAZ7
 BAR2 EZ EP       2228 39.91                             170   -0.1710 24.4 189 
 BAR2 EZ ES       2228 55.61                             170   -0.1510 24.4 189 
 BAR2 EZ I        2228 55.99        68.5 0.26            169           24.4 189 
 BRR  HZ EP       2228 41.73                             153    0.2310 70.6 298 
 BRR  HE ES       2228 59.02                             153    0.7310 70.6 298 
 BRR  HZ I        2229  0.16        31.8 0.26            152           70.6 298 
 PAM  EZ EP       2228 42.90                             152    0.3610 76.6  40 
 PAM  EN ES       2229  0.13                             152   -0.0210 76.6  40 
 PAM  EZ I        2229  1.94        78.1 0.52            154           76.6  40 
 RUS  HZ EP       2228 44.14                             144   -0.0310  102 176 
 RUS  HN ES       2229  2.92                             144   -0.1310  102 176 
 RUS  HZ I        2229  3.58        26.5 0.26            145            102 176 
 PTB  HZ EP       2228 46.61                             133   -0.65 9  148 258 
 PTB  HE ES       2229  8.75                             133    0.20 9  148 258 
 PTB  HZ I        2229  9.28        12.7 0.26            132            148 258 
 SPBC HZ EP       2228 49.08                             130    0.24 9  164 219 
 SPBC HE ES       2229 10.62                             130   -0.74 9  164 219 
 SPBC HZ I        2229 15.43        38.7 0.32            129            164 219 
 ZAR  HZ EP       2228 51.77                             123   -0.85 9  204 292 
 ZAR  HE ES       2229 17.56                             123   -0.52 9  204 292 
 ZAR  HZ I        2229 24.40        22.5 0.22            123            204 292 
 NOR  HZ EP       2228 56.18                             119    0.20 8  235 234 
 NOR  HN ES       2229 24.32                             119    0.24 8  235 234 
 NOR  HZ I        2229 26.42        13.8 0.18            119            235 234 
 CHI  HZ EP       2228 58.10                             118    0.11 8  250 195 
 CHI  HN ES       2229 27.68                             118    0.03 8  250 195 
 CHI  HZ I        2229 30.82        17.0 0.48            118            250 195 
 ROSC BZ EP   9   2229  0.53                             117    2.14 0  254 211 
 ROSC BN ES       2229 30.04                             116   -0.46 8  254 211 
 ROSC BZ I        2229 33.36        23.3 0.45            118            254 211 
 GUY2CHZ EP       2229  4.34                             113    0.52 7  302 235 
 GUY2CHE ES   4   2229 39.86                             113    1.84 0  302 235 
 GUY2CHZ  IAML    2229 46.07        11.0 0.34                           302 235 
 VIL  EZ EP   4   2229  6.01                             113    2.33 0  304 192 
 VIL  EN ES       2229 38.36                             113    0.59 7  304 192 
 VIL  EZ I        2229 40.40        24.2 0.36            113            304 192 
 PTGC HZ EP       2229  3.28                             112   -0.83 7  310 159 
 PTGC HN ES   4   2229 36.37                             112   -2.17 0  310 159 
 ANIL HZ EP       2229 11.16                             109    1.16 6  358 224 
 ANIL HE ES   4   2229 51.03                             109    2.00 0  358 224 
                                                                                
