 2011 1018 2348 50.3 L   6.343 -73.601106.9  RSN 11 0.3 2.4LRSN                1
 GAP= 71        0.63       2.8     3.2  5.5 -0.5687E+00  0.8087E+01  0.3774E+00E
 Epicentro: SANTA HELENA DEL OPON - SANTANDER                                  3
 ACTION:UPD 12-07-13 16:04 OP:ep   STATUS:               ID:20111018234850 L   I
 2011-10-18-2346-05S.COL___153                                                 6
 STAT SP IPHASW D HRMM SECON CODA AMPLIT PERI AZIMU VELO AIN AR TRES W  DIS CAZ7
 BAR2 SZ IP       2349  6.78                             151    0.1810 53.8  59 
 BAR2 SZ I        2349  7.13        70.6 0.33                          53.8  59 
 BAR2 SZ ES   1   2349 18.77                             151   -0.56 7 53.8  59 
 RUS  HZ EP   1   2349  8.11                             142   -0.33 7 75.9 131 
 RUS  HE ES   1   2349 22.96                             142    0.35 7 75.9 131 
 RUS  HZ I        2349 24.00        26.0 0.19                          75.9 131 
 BRR  HZ EP   1   2349  8.44                             138   -0.05 7 85.3 352 
 BRR  HE ES   2   2349 23.23                             138    0.54 5 85.3 352 
 PAM  SZ EP   1   2349 14.97                             122   -0.13 7  149  42 
 NOR  SZ EP   1   2349 16.03                             118   -0.24 7  165 239 
 NOR  SE ES   1   2349 36.52                             118   -0.01 7  165 239 
 YOP  SZ EP   1   2349 16.61                             117   -0.33 7  170 130 
 YOP  SE ES   2   2349 38.37                             117    0.63 4  170 130 
 YOP  SZ I        2349 39.42        47.6 0.19                           170 130 
 ZAR  HZ EP   1   2349 18.26                             114   -0.51 7  188 313 
 ZAR  HZ I        2349 45.92        53.1 0.27                           188 313 
 OCA  SZ EP   1   2349 21.92                             111    0.31 6  212   8 
 OCA  SZ ES   2   2349 46.51                             111    0.46 4  212   8 
 OCA  SZ I        2349 52.79        31.9 0.29                           212   8 
 HEL  HZ EP   1   2349 22.40                             111    0.27 6  214 266 
 HEL  HZ I        2349 51.94        23.3 0.42                           214 266 
 GUY  SZ EP   1   2349 24.92                             109    0.41 6  234 238 
 GUY  SZ I        2349 55.36        16.3 0.38                           234 238 
 VIL  SZ EP   1   2349 25.56                             108   -0.06 6  247 182 
 VIL  SZ I        2349 57.59        14.1 0.36                           247 182 
                                                                                
