 2014  618 2035  0.9 L   7.555 -73.221136.6  RSN  4 0.2 1.6LRSN                1
 GAP=245        0.48       6.6     4.1  4.8 -0.1590E+02  0.9019E+00  0.3860E+01E
 Epicentro: EL PLAYON - SANTANDER                                              3
 ACTION:UPD 14-07-01 22:55 OP:nd   STATUS:               ID:20140618203500 L   I
 OLDACT:REG 14-06-19 03:22 OP:fm   STATUS:               ID:20140618202815     3
 2014-06-18-2028-15M.COL___265                                                 6
 STAT SP IPHASW D HRMM SECON CODA AMPLIT PERI AZIMU VELO AIN AR TRES W  DIS CAZ7
 PAM  SZ EP       2035 21.54                             155    0.2210 62.3 112 
 PAM  SN ES       2035 37.19                             155   -0.0310 62.3 112 
 PAM  SZ I        2035 37.90         5.9 0.20             96           62.3 112 
 BRR  HZ EP       2035 21.30                             150    0.0510 73.4 228 
 BRR  HN ES       2035 37.04                             150   -0.0410 73.4 228 
 BRR  HZ I        2035 38.10        16.6 0.10             96           73.4 228 
 BAR2 SZ EP       2035 23.64                             140   -0.2810  107 178 
 BAR2 SZ I        2036  3.36         6.3 0.10             94            107 178 
 SPBC HN ES   1   2036  3.09                             117    0.18 6  231 204 
                                                                                
