 2017  218 2124 43.5 L   6.792 -73.161146.2  RSN  7 0.3 1.4LRSN                1
 GAP=135        0.83       4.4     4.2  6.2 -0.2740E+01  0.4372E+01  0.1270E+01E
 Epicentro: LOS SANTOS - SANTANDER                                             3
 ACTION:UPD 17-05-24 15:37 OP:jn   STATUS:               ID:20170218212443 L   I
 OLDACT:REG 17-02-19 02:26 OP:and  STATUS:               ID:20170218211742     3
 2017-02-18-2118-00M.COL___358                                                 6
 STAT SP IPHASW D HRMM SECON CODA AMPLIT PERI AZIMU VELO AIN AR TRES W  DIS CAZ7
 BAR2 EZ ES       2125 18.26                             171   -0.2010 22.3 186 
 BAR2 EZ I        2125 19.18        11.9 0.17            171           22.3 186 
 BRR  HZ EP       2125  4.78                             153    0.1810 70.2 300 
 BRR  HN ES       2125 21.64                             153    0.5610 70.2 300 
 PAM  EZ EP       2125  5.69                             150   -0.1410 79.1  40 
 PAM  EE ES       2125 23.17                             150   -0.1010 79.1  40 
 PAM  EZ I        2125 24.89         4.3 0.52            151           79.1  40 
 RUS  HZ EP       2125  7.60                             144    0.3910 99.9 175 
 RUS  HE ES       2125 25.63                             144   -0.0910 99.9 175 
 RUS  HZ I        2125 26.60         1.9 0.28            146           99.9 175 
 PTB  HZ EP       2125  9.99                             132   -0.31 9  146 259 
 PTB  HN ES       2125 30.74                             132   -0.50 9  146 259 
 PTB  HZ I        2125 32.71         2.4 0.14            130            146 259 
 ZAR  HN ES   4   2125 44.58                             123    3.54 0  203 293 
 ZAR  HZ I        2125 49.05         3.5 0.36            121            203 293 
 NOR  HN ES   2   2125 47.38                             119    0.62 4  233 234 
 NOR  HZ I        2125 50.84         1.7 0.20            118            233 234 
                                                                                
