 2015  418 2118 14.0 L   6.607 -73.118  3.5  RSN 14 0.5 2.1LRSN                1
 GAP=147        1.29       2.3     2.8  2.3 -0.1465E+01 -0.1201E+01 -0.4789E+00E
 Epicentro: CURITI - SANTANDER                                                 3
 ACTION:UPD 15-06-03 16:55 OP:cam  STATUS:               ID:20150418211814 L   I
 OLDACT:UP  15-04-19 05:49 OP:mh   STATUS:               ID:20150418210751d    3
 OLDACT:UP  15-04-19 05:49 OP:mh   STATUS:               ID:20150418210751d    3
 OLDACT:UP  15-04-19 05:48 OP:mh   STATUS:               ID:20150418210751d    3
 OLDACT:UP  15-04-19 05:48 OP:mh   STATUS:               ID:20150418210751d    3
 OLDACT:UP  15-04-19 05:47 OP:mh   STATUS:               ID:20150418210751d    3
 OLDACT:DUP 15-04-19 05:21 OP:mh   STATUS:               ID:20150418210751d    3
 2015-04-18-2107-50M.COL___278                                                 6
 STAT SP IPHASW D HRMM SECON CODA AMPLIT PERI AZIMU VELO AIN AR TRES W  DIS CAZ7
 BAR2 EZ IP     C 2118 15.91                             126    0.0610 7.25 257 
 BAR2 EZ ES       2118 17.04                             126   -0.2810 7.25 257 
 BAR2 EZ I        2118 17.97      1391.4 0.14            101           7.25 257 
 RUS  HZ EP     C 2118 27.27                              47    0.1410 79.1 177 
 RUS  HN ES       2118 36.82                              47   -0.5710 79.1 177 
 RUS  HZ I        2118 39.53        23.9 0.16             47           79.1 177 
 BRR  HZ EP       2118 27.80                              47    0.1710 85.8 310 
 BRR  HN ES       2118 37.87                              47   -0.4110 85.8 310 
 BRR  HZ I        2118 39.15        52.2 0.13             47           85.8 310 
 PAM  SZ EP       2118 29.26                              47   -0.0110 93.3  30 
 PAM  SN ES       2118 40.32                              47   -0.8810 93.3  30 
 PAM  SZ I        2118 41.69        69.2 0.11             47           93.3  30 
 PTB  HZ EP       2118 37.30                              47    0.21 9  148 267 
 PTB  HN ES       2118 54.24                              47   -0.89 9  148 267 
 PTB  HZ I        2119  1.12        12.8 0.12             47            148 267 
 SPBC HZ EP       2118 37.66                              47    0.31 9  149 225 
 SPBC HN ES       2118 55.44                              47   -0.15 9  149 225 
 SPBC HZ I        2119  2.11        41.9 0.06             47            149 225 
 OCA  HZ EP       2118 42.70                              37    0.48 9  182 353 
 OCA  HN ES   1   2119  5.11                              37    0.86 7  182 353 
 OCA  HZ I        2119  8.71        66.2 0.36             47            182 353 
 ZAR  HZ EP   1   2118 46.76                              37    0.49 6  216 297 
 ZAR  HN ES       2119 11.46                              37   -0.01 8  216 297 
 ZAR  HZ I        2119 12.90        13.4 0.32             37            216 297 
 NOR  HZ EP   1   2118 48.41                              37    0.85 6  226 239 
 NOR  HN ES       2119 14.68                              37    0.91 8  226 239 
 NOR  HZ I        2119 16.43        22.0 0.11             37            226 239 
 CHI  HZ EP   9   2118 51.76                              37    3.33 0  229 197 
 CHI  HN ES       2119 19.54                                    0.90 8  229 197 
 CHI  HZ I        2119 26.63         4.4 0.33             37            229 197 
 SML  HZ EP   4   2118 54.42                              37    2.07 0  264 337 
 SML  HN ES       2119 23.14                              37    0.85 8  264 337 
 SML  HZ I        2119 25.96        21.6 0.09             37            264 337 
 HEL  HZ EP       2118 54.03                              37    0.46 8  271 260 
 HEL  HN ES       2119 23.76                              37   -0.71 8  271 260 
 HEL  HZ I        2119 26.49         7.3 0.16             37            271 260 
 GUY2CHZ EP   9   2118 58.04                              37    1.66 0  292 239 
 GUY2CHN ES       2119 30.89                              37   -0.23 7  292 239 
 GUY2CHZ I        2119 36.10         5.9 0.40                           292 239 
 TOL  SZ EP   4   2119  3.58                              36    2.57 0  331 228 
 TOL  SN ES   4   2119 39.58                              36    1.87 0  331 228 
 TOL  SZ I        2119 46.44         5.0 0.46             36            331 228 
                                                                                
