 2012  518 2059 11.9 L   6.789 -73.125138.4  RSN 10 0.3 2.4LRSN                1
 GAP=140        0.67       3.1     3.4  4.9  0.2300E+00  0.5987E+01  0.4227E+01E
 Epicentro: LOS SANTOS - SANTANDER                                             3
 ACTION:UP  12-07-05 12:06 OP:pat  STATUS:               ID:20120518205911 L   I
 2012-05-18-2057-59S.COL___210                                                 6
 STAT SP IPHASW D HRMM SECON CODA AMPLIT PERI AZIMU VELO SNR AR TRES W  DIS CAZ7
 BAR2 SZ IP       2059 30.55                             170    -0.110   23 196 
 BAR2 SZ ES   1   2059 45.23                             170    -0.1 7   23 196 
 BAR2 SZ I        2059 46.25        67.6 0.27                            23 196 
 BRR  HZ IP     C 2059 32.36                             150    -0.110   74 299 
 BRR  HZ I        2059 32.85       117.9 0.12                            74 299 
 BRR  HN ES   1   2059 48.92                             150     0.5 7   74 299 
 PAM  SZ EP   1   2059 33.45                             150     0.1 7   77  38 
 PAM  SN ES   1   2059 50.19                             150     0.1 7   77  38 
 RUS  HZ EP   1   2059 34.61                             143    -0.3 7   99 177 
 RUS  HN ES   1   2059 52.71                             143    -0.1 7   99 177 
 RUS  HZ I        2059 54.64        28.9 0.32                            99 177 
 PTB  HZ EP   1   2059 37.66                             130    -0.8 7  150 259 
 PTB  HE ES   1   2059 58.93                             130    -0.3 7  150 259 
 PTB  HZ I        21 0  1.06        21.1 0.13                           150 259 
 ZAR  HZ EP   1   2059 44.31                             120     0.1 6  207 292 
 ZAR  HN ES   1   21 0  9.36                             120     0.0 6  207 292 
 ZAR  HZ I        21 0 14.34        43.6 0.25                           207 292 
 CHI  HZ EP   1   2059 49.66                             116     0.5 6  248 196 
 CHI  HE ES   1   21 0 18.62                             116     0.4 6  248 196 
 CHI  HZ I        21 0 21.63         7.0 0.32                           248 196 
 HEL  HZ EP   1   2059 52.37                             113     0.4 6  274 256 
 HEL  HN ES   1   21 0 23.43                             113     0.2 6  274 256 
 HEL  HZ I        21 0 28.96        13.6 0.33                           274 256 
 RREF HZ EP   1   2059 58.06                             109     0.2 5  323 230 
 RREF HN ES   1   21 0 33.86                             109     0.1 5  323 230 
 RREF HZ I        21 0 39.78        15.7 0.26                           323 230 
 PRA  HZ EP   1   21 0  5.34                             105     0.1 4  392 210 
 PRA  HN ES   1   21 0 46.62                             105    -0.2 4  392 210 
                                                                                
