 2014  818 2308 39.5 L   6.159 -73.670115.8  RSN 10 0.3 1.4LRSN                1
 GAP=104        0.87       2.9     2.8  6.3 -0.2212E+01  0.4371E+01 -0.1414E+01E
 Epicentro: LA PAZ - SANTANDER                                                 3
 ACTION:UPD 14-09-15 21:51 OP:nd   STATUS:               ID:20140818230839 L   I
 OLDACT:REG 14-08-19 05:14 OP:spq  STATUS:               ID:20140818230819     3
 2014-08-18-2308-19M.COL___268                                                 6
 STAT SP IPHASW D HRMM SECON CODA AMPLIT PERI AZIMU VELO AIN AR TRES W  DIS CAZ7
 RUS  HZ EP       23 8 58.05                             147   -0.1610 71.3 114 
 RUS  HE ES       23 9 12.53                             147   -0.2710 71.3 114 
 RUS  HZ I        23 9 13.26         2.1 0.32            148           71.3 114 
 SPBC HZ EP       23 8 57.60                             146   -0.0510 71.6 219 
 SPBC HE ES       23 9 12.45                             146    0.6410 71.6 219 
 SPBC HZ I        23 9 13.25        10.4 0.36            147           71.6 219 
 BAR2 SZ EP       23 8 58.01                             146    0.1110 72.1  48 
 BAR2 SZ ES   1   23 9 11.98                             146   -0.27 7 72.1  48 
 PTB  HZ EP       23 8 58.73                             137   -0.7210 96.6 296 
 PTB  HE ES       23 9 14.71                             137   -0.3010 96.6 296 
 PTB  HZ I        23 9 16.70         4.8 0.14            137           96.6 296 
 BRR  HZ EP       23 9  0.18                             135    0.0510  105 357 
 BRR  HN ES       23 9 16.15                             135   -0.0810  105 357 
 BRR  HZ I        23 9 18.27         5.8 0.14            135            105 357 
 NOR  HZ EP       23 9  4.46                             124    0.15 9  148 244 
 NOR  HE ES       23 9 23.71                             124    0.06 9  148 244 
 NOR  HZ I        23 9 25.67         4.2 0.18            125            148 244 
 PAM  SN ES       23 9 29.06                             121    0.59 9  169  39 
 PAM  SZ I        23 9 31.51         2.1 0.18            121            169  39 
 ZAR  HN ES       23 9 33.22                             116    0.39 9  197 318 
 ZAR  HZ I        23 9 34.71         3.9 0.08            116            197 318 
 GUY2CHZ EP   1   23 9 11.77                             114   -0.16 6  214 241 
 GUY2CHN ES   4   23 9 39.40                             114    2.18 0  214 241 
 GUY2CHZ I        23 9 43.21         2.0 0.28                           214 241 
 RREF HE ES   1   23 9 41.27                             112    0.13 6  232 233 
 RREF HZ I        23 9 43.84         2.3 0.22            113            232 233 
                                                                                
