 2016  518 2315  4.1 L   6.761 -73.398125.2  RSN  5 0.5 1.3LRSN                1
 GAP=170        1.17       7.8     7.2 10.1  0.3484E+02  0.4179E+01 -0.1153E+01E
 Epicentro: SAN VICENTE DE CHUCURI - SANTANDER                                 3
 ACTION:UPD 16-08-18 17:47 OP:cam  STATUS:               ID:20160518231504 L   I
 OLDACT:UP  16-05-24 15:33 OP:dnl  STATUS:               ID:20160518231504 L   3
 OLDACT:DUP 16-05-19 09:05 OP:dani STATUS:               ID:20160518230746d    3
 OLDACT:UP  16-05-19 08:56 OP:dani STATUS:               ID:20160518230745     3
 OLDACT:REG 16-05-19 08:46 OP:dani STATUS:               ID:20160518230745     3
 2016-05-18-2307-45M.COL___303                                                 6
 STAT SP IPHASW D HRMM SECON CODA AMPLIT PERI AZIMU VELO AIN AR TRES W  DIS CAZ7
 BAR2 EZ EP     D 2315 21.13                             166   -0.3210 30.3 128 
 BAR2 EZ I        2315 35.73        17.2 0.28            164           30.3 128 
 BRR  HZ EP       2315 21.51                             156   -0.4410 51.6 318 
 BRR  HN ES       2315 35.87                             156   -0.0110 51.6 318 
 BRR  HZ I        2315 45.35        12.1 0.30            154           51.6 318 
 RUS  HZ EP       2315 26.09                             139    0.0710  102 160 
 RUS  HE ES       2315 43.73                             139    0.6110  102 160 
 RUS  HZ I        2315 44.56         1.6 0.26            147            102 160 
 PTB  HZ EP       2315 26.31                             133   -0.5310  120 258 
 PTB  HN ES       2315 44.16                             133   -0.4210  120 258 
 PTB  HZ I        2315 48.44         1.9 0.28            143            120 258 
 ZAR  HZ EP       2315 33.32                             121    0.55 9  180 297 
 ZAR  HN ES       2315 55.87                             121    0.73 9  180 297 
 ZAR  HZ I        2316  1.17         1.8 0.18            125            180 297 
                                                                                
