 2017  118 2012  6.1 L   6.779 -73.133148.4  RSN  5 0.3 1.4LRSN                1
 GAP=139        0.55       3.1     3.5  5.3 -0.1879E+01  0.5638E+00  0.3819E+01E
 Epicentro: LOS SANTOS - SANTANDER                                             3
 ACTION:UPD 17-05-22 16:01 OP:jn   STATUS:               ID:20170118201206 L   I
 OLDACT:UP  17-01-19 04:03 OP:and  STATUS:               ID:20170118200747d    3
 OLDACT:UP  17-01-19 04:02 OP:and  STATUS:               ID:20170118200747d    3
 OLDACT:DUP 17-01-19 04:00 OP:and  STATUS:               ID:20170118200747d    3
 OLDACT:UP  17-01-19 03:57 OP:and  STATUS:               ID:20170118200746     3
 OLDACT:UP  17-01-19 03:56 OP:and  STATUS:               ID:20170118200746     3
 OLDACT:UP  17-01-19 03:55 OP:and  STATUS:               ID:20170118200746     3
 OLDACT:UP  17-01-19 03:53 OP:and  STATUS:               ID:20170118200746     3
 OLDACT:UP  17-01-19 03:23 OP:and  STATUS:               ID:20170118200746     3
 OLDACT:UP  17-01-19 03:22 OP:and  STATUS:               ID:20170118200746     3
 OLDACT:UP  17-01-19 03:19 OP:and  STATUS:               ID:20170118200746     3
 OLDACT:REG 17-01-19 02:43 OP:and  STATUS:               ID:20170118200746     3
 2017-01-18-2008-00M.COL___337                                                 6
 STAT SP IPHASW D HRMM SECON CODA AMPLIT PERI AZIMU VELO AIN AR TRES W  DIS CAZ7
 BRR  HZ EP   2   2012 27.71                             152    0.08 5 73.5 300 
 BRR  HN ES       2012 44.65                             152    0.2110 73.5 300 
 PAM  EZ IP     D 2012 28.70                             151    0.0910 78.3  38 
 PAM  EN ES       2012 45.92                             151   -0.2810 78.3  38 
 PAM  EZ I        2012 48.78         3.9 0.36            154           78.3  38 
 RUS  HZ EP       2012 29.90                             145   -0.0010 98.2 177 
 RUS  HN ES       2012 48.58                             145    0.0810 98.2 177 
 RUS  HZ I        2012 49.80         4.2 0.30            148           98.2 177 
 PTB  HZ EP   2   2012 33.95                             132    0.62 5  149 260 
 PTB  HN ES   2   2012 54.16                             132   -0.43 5  149 260 
 PTB  HZ I        2013  0.24         3.1 0.20            133            149 260 
 NOR  HZ EP   2   2012 41.73                             119   -0.19 4  234 235 
 NOR  HE ES   2   2013  9.15                             119   -0.74 4  234 235 
 NOR  HZ I        2013 10.92         1.7 0.16            120            234 235 
                                                                                
