 2013 1018 2012 56.6 L   6.777 -73.133148.0  RSN  8 0.4 1.9LRSN                1
 GAP=237        1.00       5.1     5.9  8.0  0.1006E+02  0.4713E+01  0.6325E+01E
 Epicentro: LOS SANTOS - SANTANDER                                             3
 ACTION:UPD 13-11-25 09:22 OP:ep   STATUS:               ID:20131018201256 L   I
 OLDACT:REG 13-10-19 00:49 OP:nd   STATUS:               ID:20131018200848     3
 2013-10-18-2008-48M.COL___217                                                 6
 STAT SP IPHASW D HRMM SECON CODA AMPLIT PERI AZIMU VELO AIN AR TRES W  DIS CAZ7
 BAR2 SZ EP       2013 15.97                             172   -0.5010 21.1 195 
 BAR2 SZ ES   2   2013 31.50                             172   -0.45 5 21.1 195 
 BAR2 SZ I        2013 34.54        21.0 0.32            169           21.1 195 
 BRR  HZ EP       2013 18.48                             152    0.3410 73.7 300 
 BRR  HN ES       2013 35.62                             152    0.6910 73.7 300 
 BRR  HZ I        2013 39.35        15.5 0.50            152           73.7 300 
 RUS  HZ EP       2013 20.53                             145    0.1410 97.9 177 
 RUS  HN ES       2013 38.69                             145   -0.2510 97.9 177 
 RUS  HZ I        2013 42.03         6.0 0.38            147           97.9 177 
 PTB  HZ EP       2013 23.40                             132   -0.44 9  149 260 
 PTB  HN ES       2013 44.48                             132   -0.60 9  149 260 
 PTB  HZ I        2013 47.31         6.6 0.38            133            149 260 
 SPBC HZ EP       2013 25.52                             130    0.35 9  162 220 
 SPBC HN ES       2013 47.80                             130    0.35 9  162 220 
 SPBC HZ I        2013 52.55        11.0 0.22            131            162 220 
 ZAR  HZ EP   4   2013 26.42                             123   -3.01 0  206 293 
 ZAR  HN ES       2013 54.82                             123   -0.21 8  206 293 
 ZAR  HZ I        2014  1.42         7.7 0.42            124            206 293 
 GUY2CHZ EP   4   2013 38.63                             113   -1.65 0  301 235 
 GUY2CHN ES   4   2014 18.39                             113    4.05 0  301 235 
 GUY2CHZ I        2014 22.41         3.3 0.52                           301 235 
 PRA  HZ EP   2   2013 49.89                             107   -0.13 3  390 210 
 PRA  HN ES       2014 32.19                             107    0.50 6  390 210 
 PRA  HZ I        2014 36.61         3.0 0.34            109            390 210 
                                                                                
