 2012  518 2223 40.5 L   6.791 -73.123152.7  RSN  6 0.3 1.6LRSN                1
 GAP=140        0.62       4.7     4.5  6.5  0.2971E+01  0.8356E+01  0.4704E+01E
 Epicentro: LOS SANTOS - SANTANDER                                             3
 ACTION:UP  12-07-05 12:06 OP:pat  STATUS:               ID:20120518222340 L   I
 2012-05-18-2220-00M.COL___200                                                 6
 STAT SP IPHASW D HRMM SECON CODA AMPLIT PERI AZIMU VELO SNR AR TRES W  DIS CAZ7
 BAR2 SZ EP   1   2224  1.08                             171     0.1 7   23 197 
 BAR2 SZ ES   1   2224 16.74                             171    -0.2 7   23 197 
 BAR2 SZ I        2224 17.67         9.2 0.35                            23 197 
 BRR  HZ EP   1   2224  2.51                             153     0.0 7   74 298 
 BRR  HZ I        2224  3.08        15.2 0.16                            74 298 
 BRR  HE ES   1   2224 20.11                             153     0.4 7   74 298 
 PAM  SE ES   1   2224 21.13                             152    -0.2 7   77  38 
 RUS  HZ EP   1   2224  5.31                             145     0.4 7   99 177 
 RUS  HE ES   1   2224 23.77                             145    -0.1 7   99 177 
 RUS  HZ I        2224 25.22         3.4 0.25                            99 177 
 PTB  HZ EP   1   2224  7.76                             133    -0.5 7  150 259 
 PTB  HE ES   1   2224 29.87                             133     0.0 7  150 259 
 PTB  HZ I        2224 30.46         3.9 0.17                           150 259 
 ZAR  HN ES   2   2224 39.64                             123     0.1 4  207 292 
                                                                                
