 2012  718 2240 22.6 L   6.780 -73.097139.5  RSN  5 0.3 1.7LRSN                1
 GAP=144        0.65       4.5     4.9  8.5  0.4531E+01  0.6305E+01  0.4113E+01E
 Epicentro: LOS SANTOS - SANTANDER                                             3
 ACTION:UPD 12-08-14 11:45 OP:ep   STATUS:               ID:20120718224022 L   I
 2012-07-18-2240-00M.COL___196                                                 6
 STAT SP IPHASW D HRMM SECON CODA AMPLIT PERI AZIMU VELO AIN AR TRES W  DIS CAZ7
 BAR2 SZ EP   1   2240 41.46                             170     0.0 7   23 204 
 PAM  SZ EP   1   2240 43.96                             150    -0.1 7   76  35 
 PAM  SN ES   1   2241  0.68                             150    -0.1 7   76  35 
 BRR  HZ EP   1   2240 43.89                             149     0.5 7   77 298 
 BRR  HZ I        2240 52.55        24.7 0.36            142             77 298 
 BRR  HN ES   1   2241  0.00                             149     0.3 7   77 298 
 RUS  HZ EP   1   2240 45.62                             143     0.0 7   98 179 
 RUS  HN ES   1   2241  3.32                             143    -0.2 7   98 179 
 RUS  HZ I        2241  5.68         3.8 0.47            138             98 179 
 ZAR  HN ES   1   2241 20.21                             120    -0.5 6  210 292 
 ZAR  HZ I        2241 25.39         3.3 0.24            114            210 292 
