 2010 1018 2005 48.6 L   6.840 -73.001148.9  RSN  4 0.2 1.5LRSN                1
 GAP=254        0.44       4.8     9.3  5.1  0.2854E+02 -0.9952E+01 -0.8020E+00E
 Epicentro: CEPITA - SANTANDER                                                 3
 ACTION:UP  11-02-18 11:10 OP:tino STATUS:               ID:20101018200548 L   I
 2010-10-18-2001-52S.COL___123                                                 6
 STAT SP IPHASW D HRMM SECON CODA AMPLIT PERI AZIMU VELO SNR AR TRES W  DIS CAZ7
 BAR2 SZ EP   1   20 6  9.00                             166     0.1 7   34 216 
 BAR2 SZ ES   1   20 6 24.54                             166    -0.2 7   34 216 
 BAR2 SZ I        20 6 25.75         9.8 0.23                            34 216 
 BRR  HZ EP   1   20 6 11.02                             149     0.2 7   84 291 
 BRR  HN ES   1   20 6 28.13                             149    -0.1 7   84 291 
 BRR  HZ I        20 6 28.68         7.2 0.39                            84 291 
 RUS  HZ EP   1   20 6 12.95                             143    -0.1 7  105 185 
 RUS  HN ES   1   20 6 32.12                             143     0.1 7  105 185 
 RUS  HZ I        20 6 32.91         2.2 0.22                           105 185 
 CHI  HZ EP   2   20 6 26.88                             117    -0.6 4  257 198 
 CHI  HE ES   2   20 6 58.02                             117     0.3 4  257 198 
 CHI  HZ I        20 7  5.96         1.6 0.37                           257 198 
                                                                                
