 2010  218 2029 13.5 L   6.780 -72.845148.5  RSN  5 0.6 1.7LRSN                1
 GAP=244        1.06      10.9    28.7 10.8 -0.1333E+03  0.9162E+01  0.2682E+02E
 Epicentro: SAN ANDRES - SANTANDER                                             3
 ACTION:UP  10-08-24 09:49 OP:vdl  STATUS:               ID:20100218202913 L   I
 2010-02-18-2024-39S.COL___094                                                 6
 STAT SP IPHASW D HRMM SECON CODA AMPLIT PERI AZIMU VELO SNR AR TRES W  DIS CAZ7
 BAR2 SZ ES   1   2029 49.29                             164    -0.710   43 241 
 GIR2 SZ EP   1   2029 34.87                             161     0.710   51 311 
 RUS  BZ EP   1   2029 37.68                             144     0.110  102 195 
 RUS  BN ES   1   2029 56.51                             144     0.210  102 195 
 RUS  BZ I        2029 57.31         8.2 0.26                           102 195 
 CHI  HZ EP       2029 51.75                             117    -0.510  257 202 
 CHI  HE ES   2   2030 23.42                             117     0.9 5  257 202 
 CHI  HZ I        2030 26.50         2.6 0.16                           257 202 
 PRA  HZ EP   2   2030  7.95                             106    -0.9 4  408 214 
 PRA  HZ I        2030  9.53         1.8 0.17                           408 214 
 PRA  HN ES   1   2030 52.27                             106     0.1 5  408 214 
                                                                                
