 2017  418 2137 32.6 L   6.759 -73.443123.0  RSN  4 0.2 1.1LRSN                1
 GAP=160        0.64       4.6     4.1  5.6  0.9549E+01  0.6973E+01  0.7367E+01E
 Epicentro: EL CARMEN - SANTANDER                                              3
 ACTION:UPD 17-05-30 21:13 OP:jn   STATUS:               ID:20170418213732 L   I
 OLDACT:REG 17-04-19 04:09 OP:cara STATUS:               ID:20170418212341     3
 2017-04-18-2128-00M.COL___371                                                 6
 STAT SP IPHASW D HRMM SECON CODA AMPLIT PERI AZIMU VELO AIN AR TRES W  DIS CAZ7
 BAR2 EZ ES       2138  3.01                             164   -0.2610 34.2 123 
 BRR  HZ EP       2137 49.77                             157   -0.3110 48.6 322 
 BRR  HN ES       2138  4.06                             157    0.3610 48.6 322 
 RUS  HZ EP       2137 54.58                             137    0.1210  104 157 
 RUS  HN ES       2138 11.62                             137    0.1210  104 157 
 RUS  HZ I        2138 13.86         2.5 0.30            137            104 157 
 PTB  HZ EP       2137 54.87                             134    0.1410  115 258 
 PTB  HN ES       2138 11.82                             134   -0.1710  115 258 
 PTB  HZ I        2138 17.55         2.3 0.42            131            115 258 
                                                                                
