 2014  218 2128  1.1 L   6.803 -73.166150.4  RSN  4 0.3 1.7LRSN                1
 GAP=134        0.56       3.7     3.5  6.5 -0.4058E+01  0.6804E+01 -0.6576E+00E
 Epicentro: LOS SANTOS - SANTANDER                                             3
 ACTION:UPD 14-03-10 08:11 OP:ep   STATUS:               ID:20140218212801 L   I
 OLDACT:DUP 14-02-19 01:39 OP:mh   STATUS:               ID:20140218212003d    3
 2014-02-18-2120-00M.COL___212                                                 6
 STAT SP IPHASW D HRMM SECON CODA AMPLIT PERI AZIMU VELO AIN AR TRES W  DIS CAZ7
 PAM  SZ EP       2128 24.12                             151    0.2310 78.5  41 
 PAM  SN ES       2128 41.65                             151   -0.0110 78.5  41 
 PAM  SZ I        2128 43.73         8.4 0.50            153           78.5  41 
 RUS  HZ EP   1   2128 25.09                             145   -0.27 7  101 175 
 RUS  HN ES   1   2128 44.11                             145   -0.16 7  101 175 
 RUS  HZ I        2128 45.90         4.5 0.25            148            101 175 
 PTB  HZ EP       2128 28.30                             133    0.02 9  146 259 
 PTB  HE ES       2128 49.63                             133    0.17 9  146 259 
 PTB  HZ I        2128 51.87         5.2 0.07            135            146 259 
 SML  HN ES   2   2129  5.66                             119   -0.88 4  242 336 
 SML  HZ I        2129  9.51         7.8 0.14            120            242 336 
                                                                                
