 2014  218 2125 44.0 L   6.811 -73.145151.2  RSN  5 0.5 1.6LRSN                1
 GAP=136        1.02       6.2     5.2 11.5 -0.1332E+00  0.4372E+01 -0.1047E+02E
 Epicentro: LOS SANTOS - SANTANDER                                             3
 ACTION:UPD 14-03-10 08:11 OP:ep   STATUS:               ID:20140218212544 L   I
 OLDACT:REG 14-02-18 21:45 OP:mh   STATUS:               ID:20140218212000     3
 2014-02-18-2120-00M.COL___212                                                 6
 STAT SP IPHASW D HRMM SECON CODA AMPLIT PERI AZIMU VELO AIN AR TRES W  DIS CAZ7
 PAM  SZ EP       2126  6.77                             152    0.0510 76.4  40 
 PAM  SN ES   1   2126 24.45                             152   -0.00 7 76.4  40 
 PAM  SZ I        2126 26.66         9.7 0.24            156           76.4  40 
 RUS  HZ EP       2126  8.78                             145    0.4310  102 176 
 RUS  HN ES   2   2126 27.00                             145   -0.37 5  102 176 
 RUS  HZ I        2126 28.10         5.7 0.30            148            102 176 
 PTB  HZ EP   1   2126 10.93                             133   -0.49 7  148 258 
 PTB  HN ES       2126 32.33                             133   -0.50 9  148 258 
 PTB  HZ I        2126 38.18         4.8 0.26            135            148 258 
 ZAR  HN ES       2126 43.19                             124    0.89 9  204 292 
 SML  HZ EP       2126 20.40                             119   -0.40 8  243 335 
 SML  HN ES   2   2126 48.81                             119   -0.70 4  243 335 
                                                                                
