 2016 1218 2105  0.0 L   6.797 -73.169149.5  RSN  4 0.4 1.4LRSN                1
 GAP=134        1.07       6.1     5.7  9.7 -0.4703E+01  0.2685E+01  0.1096E+02E
 Epicentro: LOS SANTOS - SANTANDER                                             3
 ACTION:UPD 17-01-11 20:16 OP:rebc STATUS:               ID:20161218210500 L   I
 OLDACT:REG 16-12-19 02:51 OP:dnl  STATUS:               ID:20161218205750     3
 2016-12-18-2058-00M.COL___333                                                 6
 STAT SP IPHASW D HRMM SECON CODA AMPLIT PERI AZIMU VELO AIN AR TRES W  DIS CAZ7
 BRR  HZ EP   2   21 5 21.75                             154    0.30 5 69.1 300 
 BRR  HN ES       21 5 38.78                             154    0.6210 69.1 300 
 BRR  HZ I        21 5 41.40         9.5 0.40            154           69.1 300 
 PAM  EZ EP       21 5 22.84                             151    0.1110 79.3  41 
 PAM  EN ES       21 5 40.00                             151   -0.4510 79.3  41 
 PAM  EZ I        21 5 42.01         4.1 0.48            153           79.3  41 
 RUS  HZ EP       21 5 23.93                             145   -0.1910  100 175 
 RUS  HN ES       21 5 43.16                             145    0.2410  100 175 
 RUS  HZ I        21 5 43.75         3.2 0.36            147            100 175 
 PTB  HZ EP       21 5 27.36                             133    0.31 9  145 259 
 PTB  HN ES       21 5 47.38                             133   -0.76 9  145 259 
 PTB  HZ I        21 5 49.97         1.8 0.60            135            145 259 
                                                                                
