 2014  418 2120  3.0 L   6.779 -73.149151.4  RSN  8 0.4 1.8LRSN                1
 GAP=137        0.89       3.2     4.0  6.2 -0.4446E+00  0.3855E+01 -0.2089E+01E
 Epicentro: LOS SANTOS - SANTANDER                                             3
 ACTION:UPD 14-05-13 23:09 OP:nd   STATUS:               ID:20140418212003 L   I
 OLDACT:DUP 14-04-19 07:00 OP:cam  STATUS:               ID:20140418211816d    3
 2014-04-18-2118-15M.COL___242                                                 6
 STAT SP IPHASW D HRMM SECON CODA AMPLIT PERI AZIMU VELO AIN AR TRES W  DIS CAZ7
 BRR  HZ IP     D 2120 24.96                             153    0.1610 72.0 300 
 BRR  HN ES       2120 42.52                             153    0.7110 72.0 300 
 BRR  HZ I        2120 51.82         5.9 0.12            144           72.0 300 
 PAM  SZ EP       2120 25.87                             151   -0.0610 79.4  39 
 PAM  SE ES       2120 43.77                             151   -0.0510 79.4  39 
 PAM  SZ I        2120 45.88         4.1 0.24            144           79.4  39 
 RUS  HZ EP   1   2120 27.12                             146   -0.03 7 98.3 176 
 RUS  HN ES       2120 45.73                             146   -0.2610 98.3 176 
 RUS  HZ I        2120 46.79         6.8 0.26            146           98.3 176 
 PTB  HZ EP   1   2120 29.91                             133   -0.45 7  147 260 
 PTB  HN ES       2120 51.26                             133   -0.44 9  147 260 
 PTB  HZ I        2120 56.66         9.8 0.40            127            147 260 
 SPBC HZ EP   1   2120 32.13                             131    0.38 7  161 219 
 SPBC HN ES       2120 54.03                             131   -0.14 9  161 219 
 SPBC HZ I        2120 57.90         9.4 0.22            127            161 219 
 ZAR  HZ EP   1   2120 36.80                             124    0.93 6  205 293 
 ZAR  HN ES       2121  1.47                             124   -0.04 9  205 293 
 ZAR  HZ I        2121  8.09         9.0 0.28            117            205 293 
 CHI  HZ EP   1   2120 41.12                             119    0.35 6  246 195 
 SML  HZ EP       2120 40.07                             118   -0.08 8  246 336 
 SML  HN ES       2121  8.54                             118   -0.59 8  246 336 
 SML  HZ I        2121 15.18        10.9 0.30            112            246 336 
                                                                                
