 2010  918 2119  6.9 L   6.268 -73.648106.0  RSN  4 0.3 1.3LRSN                1
 GAP=117        0.64       4.5     5.1 10.2  0.3130E+01  0.2686E+02  0.1984E+02E
 Epicentro: SANTA HELENA DEL OPON - SANTANDER                                  3
 ACTION:DUP 11-02-18 11:03 OP:tino STATUS:               ID:20100918211907dL   I
 2010-09-18-2116-24S.COL___121                                                 6
 STAT SP IPHASW D HRMM SECON CODA AMPLIT PERI AZIMU VELO SNR AR TRES W  DIS CAZ7
 BAR2 SZ EP   1   2119 23.74                             147     0.1 7   63  55 
 BAR2 SZ ES   1   2119 37.17                             147     0.5 7   63  55 
 BAR2 SZ I        2119 38.67        13.8 0.34                            63  55 
 RUS  HZ EP       2119 24.77                             142    -0.110   75 124 
 RUS  HZ I        2119 25.23         2.2 0.28                            75 124 
 RUS  HE ES   2   2119 38.39                             142    -0.5 5   75 124 
 BRR  HZ EP   1   2119 25.45                             135    -0.2 7   93 356 
 BRR  HZ I        2119 39.41         4.5 0.17                            93 356 
 BRR  HN ES   1   2119 40.05                             135    -0.2 7   93 356 
 NOR  HZ EP   1   2119 32.19                             119     0.3 7  156 240 
 NOR  HN ES   2   2119 51.28                             119    -0.1 5  156 240 
                                                                                
