 2017  918 2014  3.2 L   6.782 -73.122148.2  RSN 14 0.5 2.2LRSN                1
 GAP=115        0.66       2.8     3.2  4.0 -0.5012E+00  0.2813E+01  0.4033E+01E
 Epicentro: LOS SANTOS - SANTANDER                                             3
 ACTION:UPD 17-10-05 19:13 OP:rebc STATUS:               ID:20170918201403 L   I
 OLDACT:UP  17-09-19 04:31 OP:mg   STATUS:               ID:20170918200745d    3
 OLDACT:DUP 17-09-19 04:19 OP:mg   STATUS:               ID:20170918200745d    3
 2017-09-18-2008-00M.COL___457                                                 6
 STAT SP IPHASW D HRMM SECON CODA AMPLIT PERI AZIMU VELO AIN AR TRES W  DIS CAZ7
 BAR2 EZ EP       2014 23.06                             171   -0.0110 22.0 198 
 BAR2 EZ ES   1   2014 38.30                             171   -0.29 7 22.0 198 
 BAR2 EZ I        2014 40.60        32.3 0.26            165           22.0 198 
 BRR  HZ EP       2014 24.93                             152    0.1610 74.5 299 
 BRR  HN ES       2014 41.91                             152    0.3010 74.5 299 
 BRR  HZ I        2014 44.08        28.0 0.21            150           74.5 299 
 PAM  EZ EP     C 2014 25.70                             151    0.0510 77.4  37 
 PAM  EN ES       2014 43.03                             151   -0.1410 77.4  37 
 PAM  EZ I        2014 45.08        29.4 0.50            159           77.4  37 
 RUS  HZ EP       2014 26.85                             145   -0.1610 98.4 177 
 RUS  HN ES       2014 45.61                             145    0.0110 98.4 177 
 RUS  HZ I        2014 46.79        34.9 0.34            144           98.4 177 
 SPBC HZ EP       2014 31.88                             130    0.01 9  163 220 
 SPBC HN ES   3   2014 53.21                             130   -1.04 2  163 220 
 SPBC HZ I        2015  1.65        19.3 0.07            129            163 220 
 YPLC HZ EP   1   2014 33.34                             128    0.49 7  174 152 
 YPLC HN ES   3   2014 57.65                             128    1.65 2  174 152 
 YPLC HZ I        2014 58.26        25.4 0.26            130            174 152 
 ZAR  HZ EP   1   2014 36.05                             122   -0.06 6  207 292 
 ZAR  HN ES   2   2015  0.85                             122   -0.94 4  207 292 
 ZAR  HZ I        2015  6.58        12.5 0.27            123            207 292 
 NOR  HZ EP       2014 38.90                             119   -0.25 8  236 235 
 NOR  HN ES       2015  7.10                             119   -0.11 8  236 235 
 NOR  HZ I        2015 12.42         9.6 0.16            119            236 235 
 CHI  HZ EP       2014 41.15                             118    0.28 8  247 196 
 CHI  HN ES   2   2015 11.26                             118    0.99 4  247 196 
 CHI  HZ I        2015 16.13         5.6 0.42            118            247 196 
 ROSC BZ EP   4   2014 44.03                             117    2.64 0  252 212 
 ROSC BN ES   4   2015 14.41                             117    3.22 0  252 212 
 ROSC BZ I        2015 17.72        13.1 0.38            118            252 212 
 HEL  HZ EP   1   2014 44.04                             115    0.30 6  274 256 
 HEL  HN ES   3   2015 17.19                             115    1.82 2  274 256 
 HEL  HZ I        2015 21.66         6.5 0.41            116            274 256 
 GUY2CHZ EP   4   2014 48.93                             113    1.92 0  302 235 
 GUY2CHN ES   4   2015 24.82                             113    3.63 0  302 235 
 GUY2CHZ I        2015 29.04         6.7 0.36                           302 235 
 PTGC HZ EP   1   2014 46.08                             112   -0.74 5  306 159 
 PTGC HN ES   3   2015 19.47                             112   -1.39 2  306 159 
 PTGC HZ I        2015 22.13        13.0 0.42            114            306 159 
 PRA  HZ EP   1   2014 56.69                             107   -0.04 4  392 210 
 PRA  HN ES   1   2015 37.92                             107   -0.57 4  392 210 
 PRA  HZ I        2015 45.11         7.6 0.50            108            392 210 
                                                                                
