 2013  818 2145 40.6 L   6.769 -73.734 94.6  RSN  4 0.5 1.3LRSN                1
 GAP=140        1.05       7.1     6.0 12.5  0.2353E+02  0.9547E+01  0.3033E+02E
 Epicentro: EL CARMEN DE CHUCURI - SANTANDER                                   3
 ACTION:UPD 14-01-14 09:04 OP:ep   STATUS:               ID:20130818214540 L   I
 OLDACT:DUP 13-08-19 04:28 OP:carl STATUS:               ID:20130818213960d    3
 2013-08-18-2139-59M.COL___269                                                 6
 STAT SP IPHASW D HRMM SECON CODA AMPLIT PERI AZIMU VELO AIN AR TRES W  DIS CAZ7
 BRR  HZ EP       2145 53.76                             157   -0.6010 37.5   4 
 BRR  HN ES   1   2146  5.21                             157    0.14 7 37.5   4 
 PTB  HZ EP       2145 57.37                             135   -0.2510 83.8 252 
 PTB  HN ES   1   2146 10.50                             135   -0.38 7 83.8 252 
 PTB  HZ I        2146 12.76         8.5 0.18            135           83.8 252 
 RUS  HZ EP       2146  1.85                             125    0.0710  121 143 
 RUS  HN ES   1   2146 18.91                             125    0.64 7  121 143 
 RUS  HZ I        2146 20.40         1.3 0.44            126            121 143 
 ZAR  HN ES       2146 22.86                             118    0.66 9  148 303 
 ZAR  HN I        2146 25.58         7.1 0.38            119            148 303 
                                                                                
