 2015 1018 2359  8.4 L   6.783 -73.155154.5  RSN  7 0.2 1.6LRSN                1
 GAP=136        0.52       2.5     3.6  5.2  0.2101E+01 -0.2871E+01 -0.4174E+01E
 Epicentro: LOS SANTOS - SANTANDER                                             3
 ACTION:UPD 15-12-22 20:41 OP:cam  STATUS:               ID:20151018235908 L   I
 OLDACT:DUP 15-10-19 09:41 OP:spq  STATUS:               ID:20151018234750d    3
 2015-10-18-2347-48M.COL___331                                                 6
 STAT SP IPHASW D HRMM SECON CODA AMPLIT PERI AZIMU VELO AIN AR TRES W  DIS CAZ7
 BAR2 EZ EP   1   2359 28.85                             172   -0.20 7 21.3 188 
 BAR2 EZ ES   1   2359 44.99                             172   -0.16 7 21.3 188 
 BAR2 EZ I        2359 46.61         5.6 0.30            168           21.3 188 
 BRR  HZ EP       2359 30.71                             154    0.2010 71.3 300 
 BRR  HN ES       2359 48.03                             154    0.2810 71.3 300 
 BRR  HZ I        2359 50.95         7.3 0.38            149           71.3 300 
 PAM  EZ EP       2359 31.66                             152   -0.0210 79.5  39 
 RUS  HZ EP   1   2359 33.18                             146    0.28 7 98.7 175 
 RUS  HE ES       2359 51.85                             146   -0.1510 98.7 175 
 RUS  HZ I        2359 52.54         3.4 0.32            146           98.7 175 
 SPBC HN ES       2359 59.97                             131   -0.03 9  161 219 
 SPBC HZ I        24 0  5.90         6.9 0.28            129            161 219 
 ZAR  HE ES   1   24 0  6.84                             124   -0.32 6  204 293 
 ZAR  HZ I        24 0 12.44         4.3 0.40            122            204 293 
 SML  HE ES   1   24 0 14.39                             119   -0.36 6  245 336 
 SML  HZ I        24 0 17.30         4.1 0.10            119            245 336 
                                                                                
