 2012  919 0805 10.6 L   6.750 -73.154148.2  RSN 10 0.3 2.0LRSN                1
 GAP=138        0.68       3.3     3.3  5.2 -0.7322E+00  0.2709E+01  0.4148E+01E
 Epicentro: LOS SANTOS - SANTANDER                                             3
 ACTION:UPD 12-10-22 14:19 OP:ep   STATUS:               ID:20120919080510 L   I
 2012-09-19-0800-00M.COL___226                                                 6
 STAT SP IPHASW D HRMM SECON CODA AMPLIT PERI AZIMU VELO AIN AR TRES W  DIS CAZ7
 BAR2 SZ EP        8 5 30.40                             173    0.0010 17.8 190 
 BAR2 SZ ES   1    8 5 45.82                             173   -0.05 7 17.8 190 
 BAR2 SZ I         8 5 47.28        58.0 0.20                          17.8 190 
 GIR2 SZ EP        8 5 30.64                             165   -0.0510 36.6 353 
 GIR2 SZ ES   1    8 5 46.25                             165   -0.13 7 36.6 353 
 BRR  HZ EP        8 5 32.40                             152    0.3010 73.2 303 
 BRR  HN ES   1    8 5 49.64                             152    0.75 7 73.2 303 
 BRR  HZ I         8 5 50.83        25.5 0.14                          73.2 303 
 PAM  SZ EP        8 5 33.42                             150    0.0710 82.3  38 
 PAM  SN ES   1    8 5 50.67                             150   -0.43 7 82.3  38 
 PAM  SZ I         8 5 52.96        12.8 0.48                          82.3  38 
 RUS  HZ EP        8 5 34.22                             146    0.0310 95.2 175 
 RUS  HE ES   1    8 5 52.70                             146    0.09 7 95.2 175 
 RUS  HZ I         8 5 56.85         6.2 0.31                          95.2 175 
 PTB  HZ EP   1    8 5 37.07                             133   -0.51 7  146 261 
 PTB  HN ES   1    8 5 58.21                             133   -0.42 7  146 261 
 PTB  HZ I         8 5 58.72        11.5 0.38                           146 261 
 ZAR  HN ES   1    8 6  8.54                             123   -0.31 6  205 294 
 NOR  SN ES   2    8 6 14.35                             119    0.66 4  231 235 
 CHI  HZ EP   1    8 5 48.30                             118    0.48 6  243 195 
 CHI  HN ES   1    8 6 16.40                             118   -0.46 6  243 195 
 HEL  HN ES   1    8 6 21.93                             115   -0.02 6  270 257 
 HEL  HZ I         8 6 29.47         8.1 0.50                           270 257 
                                                                                
