 2012  719 0811 55.3 L   6.240 -73.557118.4  RSN  6 0.4 1.4LRSN                1
 GAP=117        0.91       6.3     5.9 11.8 -0.3260E+01  0.1353E+02 -0.6381E+01E
 Epicentro: LA PAZ - SANTANDER                                                 3
 ACTION:UPD 12-08-14 11:45 OP:ep   STATUS:               ID:20120719081155 L   I
 2012-07-19-0810-00M.COL___201                                                 6
 STAT SP IPHASW D HRMM SECON CODA AMPLIT PERI AZIMU VELO AIN AR TRES W  DIS CAZ7
 BAR2 SZ EP   1    812 13.51                             153     0.5 8   57  47 
 BAR2 SZ I         812 28.65         4.5 0.29            132             57  47 
 RUS  HN ES   2    812 28.34                             150     0.0 5   65 126 
 BRR  HZ EP   1    812 14.80                             138    -0.8 8   97 350 
 BRR  HE ES   1    812 31.56                             138     0.2 8   97 350 
 BRR  HZ I         812 33.21         4.3 0.18            127             97 350 
 PTB  HZ EP        812 16.12                             135    -0.110  105 288 
 PTB  HZ I         812 16.32         4.8 0.09            135            105 288 
 PTB  HE ES   1    812 32.06                             135    -0.4 7  105 288 
 NOR  SN ES   1    812 42.81                             122     0.3 7  163 243 
 ZAR  HZ EP   1    812 25.76                             116     0.1 6  200 314 
 ZAR  HN ES   1    812 49.82                             116     0.5 6  200 314 
 ZAR  HZ I         812 51.97         4.1 0.30            110            200 314 
