 2017  919 0951 36.7 L   6.775 -73.177134.0  RSN  9 0.7 1.7LRSN                1
 GAP=110        1.52       5.4     5.8  9.2  0.2142E-01  0.1712E+02  0.7233E+01E
 Epicentro: LOS SANTOS - SANTANDER                                             3
 ACTION:UPD 17-10-05 19:14 OP:rebc STATUS:               ID:20170919095136 L   I
 OLDACT:UP  17-09-19 17:26 OP:leo  STATUS:               ID:20170919094742     3
 OLDACT:UP  17-09-19 17:14 OP:leo  STATUS:               ID:20170919094742     3
 OLDACT:REG 17-09-19 13:21 OP:and  STATUS:               ID:20170919094742     3
 2017-09-19-0948-00M.COL___428                                                 6
 STAT SP IPHASW D HRMM SECON CODA AMPLIT PERI AZIMU VELO AIN AR TRES W  DIS CAZ7
 BAR2 EZ EP        951 53.90                             171   -0.9110 20.3 182 
 BAR2 EZ ES        952  9.17                             171    0.2010 20.3 182 
 BAR2 EZ I         952 10.17        12.1 0.18            171           20.3 182 
 BRR  HZ EP        951 56.55                             151    0.1110 69.6 302 
 BRR  HN ES   1    952 13.02                             151    1.14 7 69.6 302 
 BRR  HZ I         952 16.90        11.4 0.66            151           69.6 302 
 PAM  EZ EP        951 57.40                             147   -0.5110 81.7  40 
 PAM  EN ES        952 14.24                             147   -0.2510 81.7  40 
 PAM  EZ I         952 16.33        16.5 0.42            151           81.7  40 
 RUS  HZ EP        951 58.90                             142   -0.1810 98.2 174 
 RUS  HN ES        952 16.75                             142    0.1710 98.2 174 
 RUS  HZ I         952 17.86         5.9 0.40            144           98.2 174 
 SPBC HZ EP        952  3.34                             127   -0.52 9  159 219 
 SPBC HN ES        952 24.73                             127   -0.35 9  159 219 
 SPBC HZ I         952 28.55         6.7 0.22            129            159 219 
 YPLC HZ EP        952  6.27                             124    0.72 9  176 150 
 YPLC HE ES   1    952 29.18                             124    1.09 7  176 150 
 YPLC HZ I         952 31.26         7.3 0.24            127            176 150 
 ZAR  HZ EP        952  7.91                             120   -0.22 9  202 293 
 ZAR  HN ES        952 33.37                             120    0.68 9  202 293 
 ZAR  HZ I         952 36.63         5.5 0.26            122            202 293 
 NOR  HZ EP        952 11.92                             116    0.67 8  230 235 
 NOR  HN ES        952 36.87                             116   -1.36 8  230 235 
 NOR  HZ I         952 42.04         2.2 0.36            118            230 235 
 GUY2CHZ EP   1    952 20.40                             110    1.16 5  297 235 
 GUY2CHN ES   1    952 53.06                             110    0.60 5  297 235 
                                                                                
