 2015  819 0946 53.7 L   6.822 -73.041146.0  RSN  8 0.3 1.8LRSN                1
 GAP=194        0.71       2.8     4.7  5.1  0.2930E+01  0.3405E+01  0.2662E+00E
 Epicentro: LOS SANTOS - SANTANDER                                             3
 ACTION:UPD 15-09-15 23:03 OP:cam  STATUS:               ID:20150819094653 L   I
 OLDACT:DUP 15-08-19 16:37 OP:spq  STATUS:               ID:20150819093752d    3
 2015-08-19-0937-50M.COL___334                                                 6
 STAT SP IPHASW D HRMM SECON CODA AMPLIT PERI AZIMU VELO AIN AR TRES W  DIS CAZ7
 BAR2 EZ EP     C  947 13.69                             168    0.2010 29.8 212 
 BAR2 EZ ES   1    947 28.56                             168   -0.38 7 29.8 212 
 BAR2 EZ I         947 30.67        11.3 0.20            170           29.8 212 
 BRR  HZ EP        947 15.66                             150    0.2510 80.5 293 
 BRR  HN ES        947 32.71                             150    0.3510 80.5 293 
 BRR  HZ I         947 36.78        11.2 0.22            148           80.5 293 
 RUS  HZ EP        947 17.60                             143   -0.0210  103 183 
 RUS  HN ES   1    947 36.13                             143   -0.16 7  103 183 
 RUS  HZ I         947 36.88         5.7 0.24            149            103 183 
 OCA  HZ EP   1    947 22.47                             130    0.51 7  160 349 
 OCA  HN ES        947 43.97                             130   -0.04 9  160 349 
 OCA  HZ I         947 51.22        12.1 0.28            130            160 349 
 SPBC HZ EP        947 22.76                             128   -0.33 9  172 221 
 ZAR  HZ EP        947 26.63                             121   -0.54 8  214 290 
 ZAR  HE ES        947 53.27                             121   -0.02 8  214 290 
 ZAR  HZ I         947 59.07         4.9 0.32            122            214 290 
 SML  HZ EP   1    947 30.68                             117    0.04 6  247 333 
 SML  HE ES   1    947 58.77                             117   -0.69 6  247 333 
 SML  HZ I         948  3.86         8.0 0.10            118            247 333 
 GUY2CHZ EP   1    947 38.90                             112    0.37 5  312 236 
 GUY2CHE ES   1    948 13.90                             112    0.39 5  312 236 
 GUY2CHZ I         948 18.82         2.9 0.34                           312 236 
                                                                                
