 2016  219 0725 47.1 L   6.837 -73.201145.6  RSN  5 0.4 1.4LRSN                1
 GAP=148        0.88       4.3     4.9  7.6 -0.7695E+01  0.6704E+01  0.5293E+01E
 Epicentro: ZAPATOCA - SANTANDER                                               3
 ACTION:UPD 16-03-04 21:27 OP:rebc STATUS:               ID:20160219072547 L   I
 OLDACT:REG 16-02-19 12:29 OP:drio STATUS:               ID:20160219071745     3
 2016-02-19-0717-45M.COL___309                                                 6
 STAT SP IPHASW D HRMM SECON CODA AMPLIT PERI AZIMU VELO AIN AR TRES W  DIS CAZ7
 PAM  EZ EP        726  9.60                             150    0.2310 78.5  45 
 PAM  EE ES        726 26.94                             150    0.2010 78.5  45 
 PAM  EZ I         726 28.74         5.3 0.48            153           78.5  45 
 RUS  HZ EP        726 11.07                             142   -0.1210  105 173 
 RUS  HN ES        726 29.43                             142   -0.5410  105 173 
 RUS  HZ I         726 30.26         2.9 0.22            145            105 173 
 PTB  HZ EP        726 13.27                             133   -0.33 9  143 257 
 PTB  HN ES        726 34.35                             133    0.09 9  143 257 
 PTB  HZ I         726 37.88         2.4 0.16            134            143 257 
 SPBC HZ EP        726 15.48                             129   -0.07 9  163 216 
 SPBC HN ES        726 37.76                             129    0.03 9  163 216 
 SPBC HZ I         726 40.09         5.4 0.36            130            163 216 
 CHI  HZ EP        726 24.88                             117   -0.19 8  251 194 
 CHI  HN ES        726 55.60                             117    0.93 8  251 194 
 CHI  HZ I         726 57.30         1.3 0.46            119            251 194 
                                                                                
