 2017  919 0115 40.3 L   6.798 -73.138144.2  RSN 23 0.6 2.1LRSN                1
 GAP= 55        0.93       2.7     2.5  4.6 -0.8544E+00  0.1657E+01  0.3387E+01E
 Epicentro: LOS SANTOS - SANTANDER                                             3
 ACTION:UPD 17-10-05 19:14 OP:rebc STATUS:               ID:20170919011540 L   I
 OLDACT:UP  17-09-19 14:09 OP:and  STATUS:               ID:20170919010742     3
 OLDACT:UP  17-09-19 14:06 OP:and  STATUS:               ID:20170919010742     3
 OLDACT:UP  17-09-19 14:06 OP:and  STATUS:               ID:20170919010742     3
 OLDACT:UP  17-09-19 14:04 OP:and  STATUS:               ID:20170919010742     3
 OLDACT:UP  17-09-19 14:04 OP:and  STATUS:               ID:20170919010742     3
 OLDACT:UP  17-09-19 14:03 OP:and  STATUS:               ID:20170919010742     3
 OLDACT:UP  17-09-19 14:01 OP:and  STATUS:               ID:20170919010742     3
 OLDACT:UP  17-09-19 14:01 OP:and  STATUS:               ID:20170919010742     3
 OLDACT:UP  17-09-19 13:59 OP:and  STATUS:               ID:20170919010742     3
 OLDACT:REG 17-09-19 12:37 OP:and  STATUS:               ID:20170919010742     3
 2017-09-19-0108-00M.COL___447                                                 6
 STAT SP IPHASW D HRMM SECON CODA AMPLIT PERI AZIMU VELO AIN AR TRES W  DIS CAZ7
 BAR2 EZ IP     C  115 59.67                             171   -0.0710 23.3 192 
 BAR2 EZ ES        116 14.13                             171   -0.7810 23.3 192 
 BAR2 EZ I         116 15.78        52.0 0.34            168           23.3 192 
 BRR  HZ IP     C  116  1.49                             152    0.1610 72.0 298 
 BRR  HN ES        116 18.58                             152    0.8510 72.0 298 
 BRR  HZ I         116 19.90        17.0 0.11            149           72.0 298 
 PAM  EZ IP     C  116  2.51                             150    0.1810 77.0  39 
 PAM  EN ES        116 19.59                             150    0.0810 77.0  39 
 PAM  EZ I         116 21.90        18.9 0.54            153           77.0  39 
 RUS  HZ EP        116  3.63                             144   -0.2510  100 177 
 RUS  HN ES        116 22.37                             144    0.1010  100 177 
 RUS  HZ I         116 23.33        14.1 0.28            143            100 177 
 TAM  HZ IP     D  116  8.15                             130    0.37 9  154 105 
 TAM  HN ES        116 29.64                             130    0.44 9  154 105 
 SPBC HZ EP        116  8.79                             129    0.07 9  164 219 
 SPBC HE ES        116 30.69                             129   -0.19 9  164 219 
 SPBC HZ I         116 35.43        20.1 0.22            127            164 219 
 YPLC HZ IP     D  116 10.12                             126    0.19 9  176 152 
 YPLC HE ES        116 32.53                             126   -0.50 9  176 152 
 YPLC HZ I         116 36.87        12.2 0.26            127            176 152 
 ZAR  HZ EP   3    116 14.27                             122    1.53 2  205 292 
 ZAR  HN ES        116 37.78                             122   -0.25 9  205 292 
 ZAR  HZ I         116 44.38        18.1 0.26            120            205 292 
 TABC EZ EP   9    116 17.67                             119    1.68 0  230 211 
 TABC EZ ES        116 45.45                             119   -0.05 8  230 211 
 TABC EZ I         116 51.92        12.1 0.40            118            230 211 
 NOR  HZ EP        116 15.98                             118   -0.02 8  235 235 
 NOR  HE ES        116 43.57                             118   -0.28 8  235 235 
 NOR  HZ I         116 49.97         5.2 0.18            117            235 235 
 CHI  HZ EP        116 18.19                             117    0.27 8  249 195 
 CHI  HN ES        116 47.21                             117   -0.04 8  249 195 
 CHI  HZ I         116 49.52         6.2 0.52            116            249 195 
 ROSC BN ES        116 47.72                             116   -0.33 8  253 211 
 ROSC BZ I         116 54.34        16.2 0.40            115            253 211 
 HEL  HZ EP   3    116 21.84                             114    1.32 2  273 256 
 HEL  HN ES        116 50.87                             114   -1.02 8  273 256 
 HEL  HZ I         116 58.87         6.3 0.26            113            273 256 
 GUY2CHZ EP   3    116 25.21                             112    1.31 2  302 235 
 GUY2CHE ES        116 58.59                             112    0.68 7  302 235 
 GUY2CHZ I         117  5.95         4.4 0.34                           302 235 
 PTGC HZ EP   3    116 22.80                             111   -1.23 2  308 159 
 PTGC HN ES   4    116 55.92                             111   -2.22 0  308 159 
 LL6C HZ EP   9    116 24.21                             110   -1.76 0  325 357 
 LL6C HN ES        116 59.93                             110    0.10 7  325 357 
 LL6C HZ I         117  5.73         6.3 0.46            110            325 357 
 ELA  HN ES   3    117  4.92                             110    1.24 2  330 230 
 ELA  HZ I         117 12.41         4.5 0.48            109            330 230 
 CBOC HZ EP   9    116 28.08                             109    0.84 0  334 252 
 CBOC HN ES        117  4.45                             109   -0.24 7  334 252 
 SDV  BZ EP   3    116 28.35                             108   -1.88 2  360  50 
 SDV  B1 ES   4    117  6.59                             108   -2.57 0  360  50 
 PRA  HZ EP        116 33.54                             106   -0.26 6  392 210 
 PRA  HN ES        117 16.14                             106    0.62 6  392 210 
 PRA  HZ I         117 22.11         6.9 0.33            106            392 210 
 ORTC HZ EP        116 34.88                             106    0.67 6  396 216 
 ORTC HN ES        117 15.70                             106   -0.55 6  396 216 
 ORTC HZ I         117 21.06         3.3 0.20            105            396 216 
 SJC  HZ IP   3 C  116 33.90                             105   -1.99 1  410 327 
 SJC  HN ES   4    117 14.84                             105   -4.41 0  410 327 
 SJC  HZ I         117 23.54         2.6 0.30            105            410 327 
 URI  HZ EP        116 51.89                             100   -1.38 3  557  13 
 URI  HN ES   4    117 45.68                             100   -4.51 0  557  13 
                                                                                
