 2014 1019 0737 50.7 L   6.759 -73.157147.3  RSN  6 0.5 1.5LRSN                1
 GAP=137        1.06       5.8     5.5  8.8  0.7100E+01  0.8103E+01 -0.1749E+01E
 Epicentro: LOS SANTOS - SANTANDER                                             3
 ACTION:UPD 14-11-29 23:51 OP:nd   STATUS:               ID:20141019073750 L   I
 OLDACT:DUP 14-10-19 16:57 OP:mh   STATUS:               ID:20141019072741d    3
 2014-10-19-0727-40M.COL___265                                                 6
 STAT SP IPHASW D HRMM SECON CODA AMPLIT PERI AZIMU VELO AIN AR TRES W  DIS CAZ7
 BAR2 SZ I         738 26.35         9.4 0.18            171           18.7 189 
 BRR  HZ EP        738 12.43                             152    0.3710 72.4 302 
 BRR  HN ES        738 29.04                             152    0.3010 72.4 302 
 PAM  SZ EP        738 13.44                             150    0.1310 81.7  38 
 PAM  SN ES   1    738 30.15                             150   -0.82 7 81.7  38 
 PAM  SZ I         738 32.51         3.0 0.36            154           81.7  38 
 RUS  HZ EP        738 14.12                             145   -0.1510 96.2 175 
 RUS  HN ES        738 33.03                             145    0.3610 96.2 175 
 RUS  HZ I         738 34.73         3.8 0.30            147           96.2 175 
 PTB  HZ EP        738 16.93                             133   -0.66 9  146 260 
 PTB  HN ES   1    738 37.80                             133   -0.78 7  146 260 
 PTB  HZ I         738 45.02         3.3 0.40            133            146 260 
 ZAR  HZ EP        738 23.65                             123    0.37 9  205 293 
 ZAR  HN ES        738 48.90                             123    0.18 9  205 293 
 ZAR  HZ I         738 54.04         3.9 0.42            123            205 293 
                                                                                
