 2011  619 0907 26.9 L   5.794 -73.828103.5  RSN  4 0.4 1.3LRSN                1
 GAP=175        0.94      12.1     6.3 14.9 -0.5016E+02  0.4407E+02 -0.4265E+02E
 Epicentro: JESUS MARIA - SANTANDER                                            3
 ACTION:UP  11-07-14 19:06 OP:ep   STATUS:               ID:20110619090726 L   I
 2011-06-19-0900-00M.COL___126                                                 6
 STAT SP IPHASW D HRMM SECON CODA AMPLIT PERI AZIMU VELO SNR AR TRES W  DIS CAZ7
 RUS  HZ EP   1    9 7 45.20                             138    -0.1 7   83  82 
 RUS  HZ I         9 7 45.78         3.9 0.04                            83  82 
 RUS  HN ES   1    9 8  0.05                             138     0.4 7   83  82 
 BAR2 SZ EP   1    9 7 47.57                             128    -0.1 7  114  39 
 BAR2 SZ ES   1    9 8  3.65                             128    -0.2 7  114  39 
 BAR2 SZ I         9 8  6.69         8.8 0.13                           114  39 
 NOR  SZ EP   1    9 7 47.27                             127    -0.6 7  118 258 
 NOR  SE ES   1    9 8  4.18                             127     0.0 7  118 258 
 HEL  HZ EP   1    9 7 57.13                             113     0.9 7  193 283 
 HEL  HZ I         9 8 24.46         1.8 0.20                           193 283 
                                                                                
