 2013  819 0751 57.4 L   6.780 -73.163148.0  RSN  5 0.3 1.4LRSN                1
 GAP=234        0.84       5.0     5.4  6.2  0.5911E+01  0.3943E+01  0.2773E+01E
 Epicentro: LOS SANTOS - SANTANDER                                             3
 ACTION:UPD 14-01-14 09:04 OP:ep   STATUS:               ID:20130819075157 L   I
 OLDACT:UP  13-08-19 10:09 OP:cam  STATUS:               ID:20130819074959     3
 OLDACT:REG 13-08-19 07:58 OP:cam  STATUS:               ID:20130819074959     3
 2013-08-19-0749-59M.COL___269                                                 6
 STAT SP IPHASW D HRMM SECON CODA AMPLIT PERI AZIMU VELO AIN AR TRES W  DIS CAZ7
 BAR2 SZ EP        752 17.09                             172   -0.1910 20.9 186 
 BAR2 SZ ES        752 32.73                             172   -0.0310 20.9 186 
 BAR2 SZ I         752 33.24         7.8 0.13            166           20.9 186 
 BRR  HZ EP        752 18.83                             153    0.0510 70.6 301 
 BRR  HN ES        752 35.85                             153    0.4110 70.6 301 
 BRR  HZ I         752 39.86         5.0 0.28            151           70.6 301 
 RUS  HZ EP        752 21.07                             145   -0.1810 98.6 175 
 RUS  HZ I         752 21.97         3.0 0.48            144           98.6 175 
 RUS  HN ES        752 39.71                             145   -0.1310 98.6 175 
 PTB  HZ EP        752 24.25                             133   -0.11 9  145 260 
 PTB  HN ES        752 44.74                             133   -0.64 9  145 260 
 PTB  HZ I         752 47.98         3.2 0.26            131            145 260 
 SPBC HZ EP        752 26.31                             130    0.49 9  160 219 
 SPBC HN ES        752 48.36                             130    0.39 9  160 219 
 SPBC HZ I         752 56.74         3.6 0.26            129            160 219 
                                                                                
