 2013 1019 0313 42.0 L   6.769 -73.169146.0  RSN  5 0.4 1.7LRSN                1
 GAP=232        0.92       5.4     6.0  6.9  0.6494E+01  0.7289E+01  0.3090E+01E
 Epicentro: LOS SANTOS - SANTANDER                                             3
 ACTION:UPD 13-11-25 09:22 OP:ep   STATUS:               ID:20131019031342 L   I
 OLDACT:UP  13-10-19 09:08 OP:cam  STATUS:               ID:20131019030836     3
 OLDACT:REG 13-10-19 08:14 OP:cam  STATUS:               ID:20131019030836     3
 2013-10-19-0308-36M.COL___214                                                 6
 STAT SP IPHASW D HRMM SECON CODA AMPLIT PERI AZIMU VELO AIN AR TRES W  DIS CAZ7
 BAR2 SZ EP        314  1.45                             172   -0.1110 19.6 184 
 BAR2 SZ ES        314 16.26                             172   -0.5810 19.6 184 
 BAR2 SZ I         314 17.40        27.9 0.12            167           19.6 184 
 BRR  HZ EP        314  3.23                             153    0.1110 70.7 302 
 BRR  HN ES        314 20.21                             153    0.5910 70.7 302 
 BRR  HZ I         314 21.31        13.3 0.14            151           70.7 302 
 RUS  HZ EP   1    314  5.79                             145    0.27 7 97.4 174 
 RUS  HN ES        314 24.08                             145    0.1910 97.4 174 
 RUS  HZ I         314 25.06         3.9 0.28            144           97.4 174 
 PTB  HZ EP        314  8.16                             133   -0.52 9  145 260 
 PTB  HN ES        314 29.25                             133   -0.26 9  145 260 
 PTB  HZ I         314 33.28         5.8 0.32            131            145 260 
 SPBC HZ EP        314 10.32                             130    0.23 9  159 219 
 SPBC HN ES        314 32.18                             130    0.16 9  159 219 
 SPBC HZ I         314 37.35         6.6 0.16            128            159 219 
                                                                                
