 2011  819 0552 48.7 L   6.690 -73.109150.5  RSN  4 0.2 1.7LRSN                1
 GAP=186        0.54       6.7    13.6  7.0  0.6936E+02 -0.5091E+02 -0.2724E+02E
 Epicentro: JORDAN - SANTANDER                                                 3
 *MG:6.3 - NEAR THE EAST COAST OF HONSHU, JAPAN PROF:43.6 Km (NEIC)            3
 ACTION:UPD 12-07-13 15:52 OP:ep   STATUS:               ID:20110819055248 L   I
 2011-08-19-0551-02S.COL___150                                                 6
 STAT SP IPHASW D HRMM SECON CODA AMPLIT PERI AZIMU VELO AIN AR TRES W  DIS CAZ7
 BAR2 SZ EP   1    553  9.05                             175    0.27 7 13.5 217 
 BAR2 SZ ES   1    553 24.63                             175    0.21 7 13.5 217 
 BAR2 SZ I         553 25.92        11.7 0.19                          13.5 217 
 BRR  HZ EP   1    553 10.98                             150    0.02 7 81.1 305 
 BRR  HN ES   1    553 28.26                             150   -0.05 7 81.1 305 
 BRR  HZ I         553 30.92        12.6 0.16                          81.1 305 
 RUS  HZ EP   1    553 12.32                             148    0.21 7 88.2 178 
 RUS  HN ES   1    553 29.94                             148   -0.41 7 88.2 178 
 RUS  HZ I         553 33.30         6.1 0.37                          88.2 178 
 OCA  SZ EP   1    553 18.28                             128   -0.32 7  173 352 
                                                                                
