 2012  419 0124 48.0 L   6.784 -73.108145.6  RSN  5 0.3 1.5LRSN                1
 GAP=142        0.78       5.4     5.9  8.5  0.6212E+01  0.6782E+01 -0.1572E+01E
 Epicentro: LOS SANTOS - SANTANDER                                             3
 ACTION:UPD 12-07-05 11:54 OP:tino STATUS:               ID:20120419012448 L   I
 2012-04-19-0120-00M.COL___187                                                 6
 STAT SP IPHASW D HRMM SECON CODA AMPLIT PERI AZIMU VELO AIN AR TRES W  DIS CAZ7
 BAR2 SZ ES   1    125 22.47                             171    -0.4 7   23 201 
 BAR2 SZ I         125 23.62        12.5 0.28                            23 201 
 BRR  HZ EP   1    125  9.34                             151     0.0 7   76 298 
 BRR  HE ES   1    125 26.73                             151     0.7 7   76 298 
 PAM  SZ EP   1    125 10.40                             151     0.3 7   76  36 
 PAM  SN ES   1    125 27.15                             151    -0.2 7   76  36 
 RUS  HZ EP   1    125 11.53                             144    -0.1 7   99 178 
 RUS  HN ES   1    125 30.15                             144     0.2 7   99 178 
 RUS  HZ I         125 31.00         3.0 0.46                            99 178 
 ZAR  HN ES   1    125 46.09                             122    -0.5 6  209 292 
                                                                                
