 2010 1219 0444 35.5 L   6.791 -73.140145.3  RSN 12 0.4 2.4LRSN                1
 GAP=159        0.70       2.7     6.0  5.6 -0.6688E+01  0.1686E+02 -0.1009E+01E
 Epicentro: LOS SANTOS - SANTANDER                                             3
 ACTION:UP  11-01-14 15:25 OP:pat  STATUS:               ID:20101219044435 L   I
 2010-12-19-0441-48S.COL___133                                                 6
 STAT SP IPHASW D HRMM SECON CODA AMPLIT PERI AZIMU VELO SNR AR TRES W  DIS CAZ7
 BAR2 SZ IP        444 55.00                             171     0.010   23 192 
 BAR2 SZ ES   1    445 10.39                             171     0.1 7   23 192 
 BAR2 SZ I         445 11.27        40.0 0.47                            23 192 
 RUS  HZ IP     D  444 58.84                             144    -0.310  100 176 
 RUS  HN ES   1    445 17.37                             144    -0.2 7  100 176 
 RUS  HZ I         445 18.88        14.0 0.26                           100 176 
 GRA  SZ IP        445  0.80                             137     0.110  127  17 
 GRA  SZ ES   1    445 20.71                             137     0.3 7  127  17 
 GRA  SZ I         445 22.76        34.1 0.36                           127  17 
 OCA  SZ EP        445  3.54                             129    -0.3 9  161 353 
 OCA  SZ ES   1    445 26.10                             129     0.1 7  161 353 
 OCA  SZ I         445 30.37        40.9 0.40                           161 353 
 NOR  SZ EP        445 10.88                             118    -0.3 8  235 235 
 NOR  SN ES   2    445 38.46                             118    -0.6 4  235 235 
 CHI  HZ EP        445 12.96                             117    -0.1 8  248 195 
 CHI  HN ES   1    445 42.62                             117     0.2 6  248 195 
 CHI  HZ I         445 46.39         8.7 0.44                           248 195 
 HEL  HZ EP        445 16.31                             115     0.6 8  272 256 
 HEL  HN ES   3    445 47.33                             115     0.3 2  272 256 
 HEL  HZ I         445 53.59        15.3 0.32                           272 256 
 GUY  SN ES   3    445 53.50                             112     0.4 2  301 235 
 GUY  SZ I         446  4.88        26.5 0.45                           301 235 
 RREF HZ EP        445 22.14                             111     0.6 7  322 230 
 RREF HN ES   2    445 58.08                             111     0.5 3  322 230 
 RREF HZ I         446  3.42        16.2 0.32                           322 230 
 MON  HN ES   3    446  0.42                             108    -2.4 2  354 308 
 PRA  HZ EP        445 28.66                             107    -0.2 6  391 210 
 PRA  HN ES   2    446 11.01                             107     0.4 3  391 210 
 SJA  SZ EP   3    445 29.56                             106    -0.3 1  399 193 
                                                                                
