 2013 1219 0810 52.5 L   6.803 -73.152146.1  RSN 10 0.5 2.0LRSN                1
 GAP=136        1.20       3.4     5.0  7.8 -0.1872E+01  0.7087E+01 -0.2163E+01E
 Epicentro: LOS SANTOS - SANTANDER                                             3
 ACTION:UPD 14-01-13 10:19 OP:ep   STATUS:               ID:20131219081052 L   I
 OLDACT:REG 13-12-19 08:48 OP:jn   STATUS:               ID:20131219080737     3
 2013-12-19-0807-37M.COL___232                                                 6
 STAT SP IPHASW D HRMM SECON CODA AMPLIT PERI AZIMU VELO AIN AR TRES W  DIS CAZ7
 BRR  HZ EP        811 14.26                             153    0.6310 70.5 299 
 BRR  HN ES        811 30.55                             153    0.4310 70.5 299 
 BRR  HZ I         811 34.48        28.1 0.30            153           70.5 299 
 PAM  SZ EP        811 15.33                             151    0.5810 77.6  40 
 PAM  SN ES        811 32.16                             151    0.0510 77.6  40 
 PAM  SZ I         811 34.67        17.0 0.62            156           77.6  40 
 RUS  HZ EP        811 16.36                             144    0.0610  101 176 
 RUS  HN ES        811 34.27                             144   -0.6010  101 176 
 RUS  HZ I         811 36.29         9.6 0.28            145            101 176 
 PTB  HZ EP        811 19.27                             132   -0.16 9  147 259 
 PTB  HN ES        811 40.13                             132   -0.31 9  147 259 
 PTB  HZ I         811 42.52        14.6 0.14            133            147 259 
 OCA  HZ EP        811 20.64                             130   -0.15 9  160 353 
 OCA  HN ES        811 42.13                             130   -0.73 9  160 353 
 OCA  HZ I         811 47.61        10.4 0.18            133            160 353 
 SPBC HZ EP        811 21.43                             129    0.43 9  163 219 
 SPBC HN ES        811 43.70                             129    0.47 9  163 219 
 SPBC HZ I         811 50.61        10.5 0.20            130            163 219 
 ZAR  HZ EP        811 25.24                             122    0.36 9  203 292 
 ZAR  HN ES        811 50.54                             122    0.40 9  203 292 
 ZAR  HZ I         811 57.08        19.3 0.32            124            203 292 
 SML  HZ EP        811 28.47                             118   -0.61 8  243 335 
 SML  HN ES        811 57.11                             118   -0.50 8  243 335 
 CHI  HN ES   1    811 58.62                             117   -1.03 6  249 195 
 CHI  HZ I         812  9.62         2.9 0.50            119            249 195 
 HEL  HN ES   2    812  2.41                             115   -1.57 4  271 256 
 SJC  HZ EP   4    811 46.44                             106   -1.55 0  409 327 
 SJC  HN ES   4    812 27.68                             106   -3.60 0  409 327 
                                                                                
