 2010  619 0942 10.7 L   6.782 -73.102147.0  RSN  6 0.4 1.4LRSN                1
 GAP=164        0.88       5.5    10.5  9.1 -0.8872E+01 -0.2912E+02 -0.7522E+01E
 Epicentro: LOS SANTOS - SANTANDER                                             3
 ACTION:UP  10-08-24 10:11 OP:vdl  STATUS:               ID:20100619094210 L   I
 2010-06-19-0940-00S.COL___118                                                 6
 STAT SP IPHASW D HRMM SECON CODA AMPLIT PERI AZIMU VELO SNR AR TRES W  DIS CAZ7
 BAR2 SZ IP        942 30.37                             171    -0.110   23 203 
 BAR2 SZ ES   1    942 45.56                             171    -0.3 7   23 203 
 BRR  HZ IP     C  942 32.20                             151    -0.110   76 298 
 BRR  HE ES   1    942 49.39                             151     0.3 7   76 298 
 BRR  HZ I         942 50.98         8.8 0.19                            76 298 
 BTN  SZ EP   1    942 32.43                             149    -0.6 7   82   0 
 RUS  HZ EP   1    942 34.29                             145    -0.1 7   98 179 
 RUS  HZ I         942 35.05         2.2 0.22                            98 179 
 RUS  HN ES   2    942 53.73                             145     0.8 5   98 179 
 GUE  SZ EP   1    942 36.41                             139     0.8 7  118  10 
 GRA  SZ IP        942 36.18                             137     0.110  126  15 
 GRA  SZ ES   1    942 55.78                             137    -0.1 7  126  15 
                                                                                
