 2017  319 0321  5.5 L   6.791 -73.132143.1  RSN 10 0.4 2.0LRSN                1
 GAP=139        1.09       3.8     4.4  6.3 -0.9833E+00  0.7080E+01  0.4372E+01E
 Epicentro: LOS SANTOS - SANTANDER                                             3
 ACTION:UPD 17-05-25 18:42 OP:jn   STATUS:               ID:20170319032105 L   I
 OLDACT:DUP 17-03-19 14:16 OP:cara STATUS:               ID:20170319031746d    3
 2017-03-19-0318-00M.COL___397                                                 6
 STAT SP IPHASW D HRMM SECON CODA AMPLIT PERI AZIMU VELO AIN AR TRES W  DIS CAZ7
 BAR2 EZ EP        321 24.78                             171   -0.0510 22.7 194 
 BAR2 EZ ES        321 39.73                             171   -0.1610 22.7 194 
 BAR2 EZ I         321 41.20        40.5 0.18            168           22.7 194 
 BRR  HZ EP        321 26.59                             151    0.0910 73.0 299 
 BRR  HE ES        321 43.64                             151    0.7910 73.0 299 
 BRR  HZ I         321 46.04        21.0 0.16            153           73.0 299 
 PAM  EZ EP        321 27.70                             150    0.2410 77.2  38 
 PAM  EE ES        321 44.47                             150   -0.0910 77.2  38 
 PAM  EZ I         321 47.26        12.3 0.31            156           77.2  38 
 RUS  HZ EP        321 28.79                             144   -0.1610 99.5 177 
 RUS  HN ES        321 46.67                             144   -0.5410 99.5 177 
 RUS  HZ I         321 48.51        12.4 0.20            144           99.5 177 
 PTB  HZ EP        321 31.64                             131   -0.77 9  149 259 
 PTB  HN ES        321 52.69                             131   -0.67 9  149 259 
 PTB  HZ I         321 56.04        13.9 0.19            132            149 259 
 SPBC HZ EP        321 33.73                             128   -0.12 9  163 220 
 SPBC HE ES        321 56.78                             128    0.85 9  163 220 
 SPBC HZ I         322  3.98        21.9 0.18            129            163 220 
 ZAR  HZ EP        321 38.19                             121    0.20 8  206 292 
 ZAR  HN ES        322  3.13                             121   -0.17 8  206 292 
 NOR  HZ EP        321 41.43                             118    0.25 8  235 235 
 NOR  HE ES        322  8.78                             118   -0.20 8  235 235 
 NOR  HZ I         322 13.74         9.0 0.40            119            235 235 
 CHI  HZ EP        321 43.26                             117    0.23 8  248 196 
 CHI  HN ES        322 12.81                             117    0.54 8  248 196 
 CHI  HZ I         322 19.41         5.3 0.46            118            248 196 
 GUY2CHZ EP   4    321 50.32                             112    1.22 0  302 235 
 GUY2CHE ES   4    322 27.38                             112    4.31 0  302 235 
 GUY2CHZ  IAML     322 33.97         6.2 0.48                           302 235 
                                                                                
