 2011  219 0942 36.8 L   6.812 -73.180132.9  RSN  6 0.5 1.6LRSN                1
 GAP=155        1.17       4.3    11.3 10.6 -0.2508E+02  0.4504E+02 -0.5604E+01E
 Epicentro: LOS SANTOS - SANTANDER                                             3
 ACTION:UP  11-03-28 15:09 OP:jfem STATUS:               ID:20110219094236 L   I
 2011-02-19-0940-00M.COL___139                                                 6
 STAT SP IPHASW D HRMM SECON CODA AMPLIT PERI AZIMU VELO SNR AR TRES W  DIS CAZ7
 BAR2 SZ EP   1    942 55.84                             169     0.9 8   24 181 
 BAR2 SZ ES   1    943  8.24                             169    -0.8 8   24 181 
 BAR2 SZ I         943 11.23         8.9 0.14                            24 181 
 RUS  HZ EP        942 59.58                             140     0.110  102 174 
 RUS  HZ I         943  6.25         5.3 0.17                           102 174 
 RUS  HN ES   1    943 17.01                             140    -0.1 7  102 174 
 GRA  SZ IP        943  0.80                             134    -0.110  126  19 
 GRA  SZ I         943  2.12         7.8 0.34                           126  19 
 GRA  SZ ES        943 20.19                             134     0.510  126  19 
 OCA  SZ EP        943  3.24                             127    -0.7 9  159 354 
 OCA  SZ ES   1    943 25.32                             127     0.1 7  159 354 
 OCA  SZ I         943 29.95         9.3 0.24                           159 354 
 NOR  SZ EP   1    943 11.61                             116     0.0 6  232 234 
 NOR  SE ES   1    943 39.12                             116     0.4 6  232 234 
 CHI  HZ EP   1    943 13.72                             114    -0.1 6  249 194 
 CHI  HN ES        943 42.68                             114    -0.1 8  249 194 
 CHI  HZ I         943 49.59         2.3 0.40                           249 194 
                                                                                
