 2012 1119 0024 13.8 L   6.784 -73.164147.2  RSN  4 0.4 1.4LRSN                1
 GAP=135        0.65       5.1     5.5  8.0  0.1779E+01  0.3070E+00  0.1316E+01E
 Epicentro: LOS SANTOS - SANTANDER                                             3
 ACTION:UPD 12-12-05 15:34 OP:}ep  STATUS:               ID:20121119002413 L   I
 2012-11-19-0020-00M.COL___234                                                 6
 STAT SP IPHASW D HRMM SECON CODA AMPLIT PERI AZIMU VELO AIN AR TRES W  DIS CAZ7
 BRR  HZ EP   1    024 35.42                             153    0.37 7 70.3 301 
 BRR  HZ I         024 36.64         4.9 0.43                          70.3 301 
 BRR  HN ES   1    024 51.94                             153    0.32 7 70.3 301 
 PAM  SZ EP   1    024 36.37                             150    0.05 7 80.0  40 
 PAM  SZ I         024 36.77         5.3 0.20                          80.0  40 
 PAM  SN ES   2    024 53.22                             150   -0.67 5 80.0  40 
 RUS  HZ EP   1    024 37.68                             145    0.11 7 99.0 175 
 RUS  HN ES   1    024 56.17                             145    0.05 7 99.0 175 
 RUS  HN I         024 58.05         4.2 0.39                          99.0 175 
 PTB  HZ EP   1    024 40.27                             133   -0.40 7  145 259 
 PTB  HN ES   2    025  0.99                             133   -0.64 5  145 259 
 PTB  HZ I         025  4.36         1.7 0.23                           145 259 
                                                                                
