 2011 1219 0729 19.4 L   7.421 -73.155126.0  RSN  4 0.1 2.0LRSN                1
 GAP=220        0.37       3.6     2.8  3.5 -0.1921E+01 -0.9287E+00 -0.7892E+00E
 Epicentro: EL PLAYON - SANTANDER                                              3
 ACTION:UPD 12-07-13 16:17 OP:ep   STATUS:               ID:20111219072919 L   I
 2011-12-19-0725-00S.COL___179                                                 6
 STAT SP IPHASW D HRMM SECON CODA AMPLIT PERI AZIMU VELO AIN AR TRES W  DIS CAZ7
 PAM  SZ EP        729 38.12                             157    0.1410 51.1 100 
 PAM  SE ES   1    729 52.35                             157   -0.16 7 51.1 100 
 BRR  HZ EP        729 38.39                             149    0.0210 70.7 241 
 BRR  HN ES        729 53.15                             149   -0.0510 70.7 241 
 BRR  HZ I         729 54.66        30.5 0.04                          70.7 241 
 BAR2 SZ EP        729 40.15                             142   -0.0210 91.7 182 
 BAR2 SZ ES        729 56.51                             142    0.1010 91.7 182 
 BAR2 SZ I         729 57.89        13.5 0.07                          91.7 182 
 RUS  HZ EP   1    729 47.33                             123   -0.22 7  169 177 
                                                                                
