 2012  219 0841 53.3 L   6.805 -73.140145.7  RSN  8 0.3 1.3LRSN                1
 GAP=137        0.45       3.2     3.5  4.7  0.4952E+00  0.1091E+00  0.5476E+01E
 ACTION:UP  12-03-07 16:32 OP:epov STATUS:               ID:20120219084153 L   I
 2012-02-19-0840-00M.COL___188                                                 6
 STAT SP IPHASW D HRMM SECON CODA AMPLIT PERI AZIMU VELO AIN AR TRES W  DIS CAZ7
 BAR2 SZ EP   1    842 12.74                             170   -0.21 7 24.0 191 
 BAR2 SZ ES   2    842 27.75                             170   -0.52 5 24.0 191 
 BAR2 SZ I         842 29.14         6.8 0.39                          24.0 191 
 GIR2 SZ EP   2    842 12.69                             167   -0.27 5 30.8 349 
 GIR2 SZ ES   2    842 28.26                             167   -0.04 5 30.8 349 
 BRR  HZ EP   1    842 14.42                             152   -0.05 7 71.4 298 
 BRR  HZ I         842 14.71         6.5 0.22                          71.4 298 
 BRR  HE ES   1    842 31.42                             152    0.45 7 71.4 298 
 PAM  SZ EP   1    842 15.63                             151    0.16 7 76.6  39 
 PAM  SN ES   2    842 32.62                             151   -0.14 5 76.6  39 
 RUS  HZ EP   1    842 17.31                             144    0.22 7  101 176 
 RUS  HN ES   2    842 35.76                             144    0.11 5  101 176 
 RUS  HZ I         842 36.63         1.7 0.26                           101 176 
 PTB  HZ EP   2    842 19.90                             132   -0.44 5  148 259 
 PTB  HE ES   2    842 41.05                             132   -0.37 5  148 259 
 ZAR  HN ES   2    842 51.15                             122    0.03 4  204 292 
 CHI  HZ EP   1    842 31.16                             117    0.08 6  249 195 
 CHI  HN ES   2    843  0.77                             117    0.23 4  249 195 
 CHI  HZ I         843  7.21         1.2 0.53                           249 195 
                                                                                
