 2015  319 0834  5.1 L   6.814 -73.149147.6  RSN  6 0.5 1.2LRSN                1
 GAP=135        1.20       4.9     6.3  9.2 -0.3468E+01  0.7354E+01 -0.1472E+01E
 Epicentro: LOS SANTOS - SANTANDER                                             3
 ACTION:UPD 15-04-30 16:27 OP:nd   STATUS:               ID:20150319083405 L   I
 OLDACT:REG 15-03-19 13:00 OP:stll STATUS:               ID:20150319082748     3
 2015-03-19-0827-48M.COL___272                                                 6
 STAT SP IPHASW D HRMM SECON CODA AMPLIT PERI AZIMU VELO AIN AR TRES W  DIS CAZ7
 BRR  HZ EP        834 26.16                             153   -0.2710 70.2 298 
 BRR  HN ES        834 43.74                             153    0.7010 70.2 298 
 BRR  HZ I         834 47.85         3.3 0.48            132           70.2 298 
 PAM  SZ EP        834 27.96                             151    0.4610 76.4  40 
 PAM  SZ I         834 28.29         4.7 0.18            133           76.4  40 
 PAM  SN ES        834 44.93                             151   -0.0010 76.4  40 
 RUS  HZ EP        834 29.81                             144    0.6210  102 176 
 RUS  HN ES        834 47.24                             144   -0.7010  102 176 
 RUS  HZ I         834 48.57         1.2 0.50            130            102 176 
 PTB  HZ EP        834 32.03                             132   -0.22 9  148 258 
 PTB  HN ES        834 53.39                             132   -0.01 9  148 258 
 PTB  HZ I         834 55.66         1.3 0.42            114            148 258 
 OCA  HN ES        834 54.93                             130   -0.60 9  159 353 
 SML  HZ EP        834 41.54                             118   -0.16 8  242 335 
 SML  HZ I         835 24.23         2.3 0.10            103            242 335 
                                                                                
