 2014  719 0540 38.4 L   6.650 -73.207148.7  RSN  4 0.2 1.5LRSN                1
 GAP=205        0.47       5.4     3.4  4.7  0.6012E+01  0.2829E+01  0.4135E+01E
 Epicentro: BARICHARA - SANTANDER                                              3
 ACTION:UPD 15-03-16 20:45 OP:nd   STATUS:               ID:20140719054038 L   I
 OLDACT:UP  14-07-19 15:07 OP:fm   STATUS:               ID:20140719053815d    3
 OLDACT:DUP 14-07-19 15:02 OP:fm   STATUS:               ID:20140719053815d    3
 2014-07-19-0538-14M.COL___269                                                 6
 STAT SP IPHASW D HRMM SECON CODA AMPLIT PERI AZIMU VELO AIN AR TRES W  DIS CAZ7
 BAR2 SZ EP        540 58.22                             177    0.0610 6.96 157 
 BAR2 SZ ES   1    541 13.27                             177   -0.31 7 6.96 157 
 BAR2 SZ I         541 14.35         8.6 0.22            173           6.96 157 
 BRR  HZ EP        541  0.14                             152    0.0510 75.3 312 
 BRR  HN ES        541 17.20                             152    0.1910 75.3 312 
 PTB  HZ EP        541  4.76                             135   -0.04 9  139 265 
 PTB  HN ES        541 25.51                             135    0.11 9  139 265 
 PTB  HZ I         541 30.48         1.9 0.30            132            139 265 
 ZAR  HN ES        541 36.36                             123   -0.26 9  205 297 
 ZAR  HZ I         541 42.26         4.1 0.38            122            205 297 
                                                                                
