 2012  219 0547 29.8 L   6.777 -73.128144.0  RSN 11 0.4 1.7LRSN                1
 GAP=140        0.76       4.0     4.2  5.4 -0.2040E+01  0.8523E+01  0.5451E+01E
 ACTION:UP  12-03-07 16:31 OP:epov STATUS:               ID:20120219054729 L   I
 2012-02-19-0540-00M.COL___188                                                 6
 STAT SP IPHASW D HRMM SECON CODA AMPLIT PERI AZIMU VELO AIN AR TRES W  DIS CAZ7
 BAR2 SZ EP   1    547 49.01                             171   -0.21 7 21.3 197 
 BAR2 SZ ES   1    548  3.86                             171   -0.47 7 21.3 197 
 BAR2 SZ I         548  6.56        13.7 0.28                          21.3 197 
 GIR2 SZ EP   1    547 49.24                             166   -0.14 7 34.2 348 
 GIR2 SZ ES   1    548  4.86                             166    0.23 7 34.2 348 
 BRR  HZ EP   1    547 51.09                             151    0.12 7 74.2 300 
 BRR  HN ES   1    548  8.03                             151    0.58 7 74.2 300 
 BRR  HZ I         548  9.08        13.6 0.27                          74.2 300 
 PAM  SZ EP   1    547 51.97                             150    0.06 7 78.2  37 
 PAM  SN ES   1    548  8.92                             150   -0.21 7 78.2  37 
 RUS  HZ EP   1    547 53.26                             144    0.04 7 97.9 177 
 RUS  HN ES   1    548 12.08                             144    0.62 7 97.9 177 
 RUS  HZ I         548 13.32         5.2 0.43                          97.9 177 
 PTB  HZ EP   1    547 56.08                             131   -0.72 7  149 260 
 PTB  HN ES   2    548 16.94                             131   -0.89 5  149 260 
 ZAR  HZ EP   1    548  2.62                             122    0.16 6  207 293 
 ZAR  HN ES   2    548 27.72                             122   -0.19 4  207 293 
 ZAR  HZ I         548 33.93         6.0 0.32                           207 293 
 NOR  SZ EP   1    548  4.90                             118   -0.58 6  235 235 
 NOR  SN ES   1    548 32.80                             118   -0.48 6  235 235 
 CHI  HZ EP   1    548  7.55                             117    0.32 6  247 196 
 CHI  HN ES   2    548 36.12                             117   -0.27 4  247 196 
 CHI  HZ I         548 41.11         1.4 0.34                           247 196 
 HEL  HZ EP   1    548 10.79                             114    0.68 6  273 256 
 HEL  HN ES   1    548 42.28                             114    0.76 6  273 256 
 HEL  HZ I         548 48.45         2.7 0.54                           273 256 
 RREF HZ EP   1    548 15.97                             111    0.08 5  322 230 
 RREF HN ES   2    548 51.81                             111    0.01 3  322 230 
 RREF HZ I         548 59.15         1.9 0.33                           322 230 
                                                                                
