 2017  619 0826 57.5 L   6.830 -73.190150.6  RSN  5 0.4 1.4LRSN                1
 GAP=279        0.99       5.5     9.0  8.7 -0.4721E+01 -0.1776E+02  0.1026E+02E
 Epicentro: ZAPATOCA - SANTANDER                                               3
 ACTION:UPD 17-09-14 16:53 OP:jn   STATUS:               ID:20170619082657 L   I
 OLDACT:REG 17-06-19 13:19 OP:lv   STATUS:               ID:20170619081738     3
 2017-06-19-0818-00M.COL___337                                                 6
 STAT SP IPHASW D HRMM SECON CODA AMPLIT PERI AZIMU VELO AIN AR TRES W  DIS CAZ7
 BRR  HZ EP        827 18.98                             155    0.1110 65.3 298 
 BRR  HN ES        827 35.51                             155   -0.0210 65.3 298 
 BRR  HZ I         827 39.76         3.9 0.30            153           65.3 298 
 PTB  HZ EP        827 24.02                             134   -0.50 9  144 257 
 PTB  HN ES        827 44.99                             134   -0.59 9  144 257 
 PTB  HZ I         827 50.35         1.8 0.48            134            144 257 
 SPBC HZ EP        827 25.91                             130   -0.44 9  163 217 
 SPBC HE ES        827 49.54                             130    0.70 9  163 217 
 SPBC HZ I         827 52.20         4.8 0.12            132            163 217 
 ZAR  HZ EP        827 30.16                             124    0.47 9  198 292 
 ZAR  HN ES        827 55.08                             124    0.29 9  198 292 
 ZAR  HZ I         828  0.28         1.9 0.32            125            198 292 
 NOR  HZ EP        827 33.48                             120    0.16 8  233 233 
 NOR  HE ES        828  1.21                             120   -0.03 8  233 233 
 NOR  HZ I         828  3.73         1.7 0.38            122            233 233 
                                                                                
