 2012  519 0418 28.5 L   6.757 -73.174140.4  RSN  5 0.5 1.4LRSN                1
 GAP=180        0.96       7.1     8.1 11.2  0.1774E+02  0.7199E+01 -0.7258E+01E
 Epicentro: VILLANUEVA - SANTANDER                                             3
 ACTION:UP  12-07-05 12:06 OP:pat  STATUS:               ID:20120519041828 L   I
 2012-05-19-0410-00M.COL___200                                                 6
 STAT SP IPHASW D HRMM SECON CODA AMPLIT PERI AZIMU VELO SNR AR TRES W  DIS CAZ7
 BAR2 SZ EP        418 47.67                             173     0.310   18 183 
 BAR2 SZ ES   2    419  1.64                             173    -0.5 5   18 183 
 BAR2 SZ I         419  3.29         6.7 0.50                            18 183 
 BRR  HZ EP        418 49.36                             152     0.310   71 303 
 BRR  HN ES   2    419  5.98                             152     0.9 5   71 303 
 BRR  HZ I         419  7.18        11.7 0.18                            71 303 
 RUS  HZ EP        418 51.13                             144    -0.310   96 174 
 RUS  HN ES   1    419  9.33                             144     0.1 7   96 174 
 RUS  HZ I         419 10.76         2.2 0.28                            96 174 
 PTB  HZ EP        418 54.67                             132     0.0 9  144 260 
 PTB  HN ES   1    419 14.50                             132    -0.6 7  144 260 
 OCA  HN ES   2    419 17.95                             127    -1.0 5  165 354 
                                                                                
