 2016 1219 0902 41.1 L   6.757 -73.068157.7  RSN  6 0.6 1.4LRSN                1
 GAP=149        1.50       8.3     8.2 10.1 -0.3168E+01  0.1747E+02 -0.4297E+01E
 Epicentro: LOS SANTOS - SANTANDER                                             3
 ACTION:UPD 17-01-11 20:16 OP:rebc STATUS:               ID:20161219090241 L   I
 OLDACT:UP  16-12-19 16:29 OP:cog  STATUS:               ID:20161219085742     3
 OLDACT:REG 16-12-19 13:48 OP:cog  STATUS:               ID:20161219085742     3
 2016-12-19-0858-00M.COL___321                                                 6
 STAT SP IPHASW D HRMM SECON CODA AMPLIT PERI AZIMU VELO AIN AR TRES W  DIS CAZ7
 BAR2 EZ EP        9 3  2.18                             172    0.0710 22.2 215 
 BAR2 EZ ES        9 3 18.09                             172   -0.4310 22.2 215 
 BAR2 EZ I         9 3 25.29         3.4 0.44            171           22.2 215 
 PAM  EZ EP        9 3  4.44                             153   -0.0510 76.2  32 
 PAM  EE ES        9 3 22.04                             153   -0.7310 76.2  32 
 BRR  HZ EP        9 3  4.54                             151    0.4810 81.0 299 
 BRR  HZ ES        9 3 23.34                             151    1.3510 81.0 299 
 RUS  HZ EP        9 3  5.95                             147    0.2810 95.6 181 
 RUS  HN ES        9 3 24.98                             147    0.1110 95.6 181 
 PTB  HZ EP        9 3  8.98                             133   -0.72 9  155 261 
 PTB  HE ES        9 3 31.42                             133   -0.62 9  155 261 
 PTB  HZ I         9 3 33.43         3.6 0.12            136            155 261 
 ZAR  HZ EP        9 3 15.51                             124    0.21 8  214 292 
 ZAR  HE ES   3    9 3 40.25                             124   -1.75 2  214 292 
 ELA  HZ EP   4    9 4 37.47                             112   68.62 0  333 231 
 ELA  HE ES   4    9 4 54.48                             112   48.36 0  333 231 
                                                                                
