 2012 1219 0425  2.8 L   6.772 -73.148143.0  RSN 10 0.3 2.2LRSN                1
 GAP= 72        0.77       3.2     3.1  4.5  0.1043E+01  0.1823E+01  0.2356E+01E
 Epicentro: LOS SANTOS - SANTANDER                                             3
 ACTION:UPD 13-01-04 14:28 OP:ep   STATUS:               ID:20121219042502 L   I
 2012-12-19-0420-00M.COL___243                                                 6
 STAT SP IPHASW D HRMM SECON CODA AMPLIT PERI AZIMU VELO AIN AR TRES W  DIS CAZ7
 BAR2 SZ EP        425 22.06                             172   -0.0210 20.2 191 
 BAR2 SZ ES        425 37.01                             172   -0.0810 20.2 191 
 BAR2 SZ I         425 38.21        92.7 0.18                          20.2 191 
 GIR2 SZ EP        425 22.12                             166   -0.1510 34.3 352 
 BRR  HZ EP        425 23.92                             152    0.1510 72.5 301 
 BRR  HN ES        425 40.72                             152    0.6310 72.5 301 
 BRR  HZ I         425 45.38        32.8 0.16                          72.5 301 
 PAM  SZ EP        425 24.86                             150   -0.0610 80.0  38 
 PAM  SZ I         425 25.24        62.4 0.20                          80.0  38 
 PAM  SN ES        425 41.98                             150   -0.1710 80.0  38 
 RUS  HZ EP        425 26.09                             144   -0.0110 97.5 176 
 RUS  HE ES        425 44.25                             144    0.0110 97.5 176 
 RUS  HZ I         425 45.66        18.9 0.28                          97.5 176 
 RUS  HE I         425 46.58        37.0 0.25                          97.5 176 
 PTB  HZ EP        425 28.73                             132   -0.78 9  147 260 
 PTB  HE ES   1    425 49.99                             132   -0.32 7  147 260 
 PTB  HZ I         425 52.06        14.8 0.23                           147 260 
 TAM  HZ EP        425 30.39                             130    0.14 9  155 104 
 ZAR  HZ EP   1    425 35.33                             122    0.12 6  205 293 
 ZAR  HN ES        426  0.33                             122   -0.12 9  205 293 
 ZAR  HZ I         426  6.05        21.2 0.35                           205 293 
 CHI  HZ EP        425 40.32                             117    0.27 8  246 195 
 CHI  HN ES   1    426  9.24                             117    0.17 6  246 195 
 CHI  HZ I         426 17.19         5.2 0.37                           246 195 
 HEL  HZ EP   1    425 43.53                             114    0.73 6  271 256 
 HEL  HZ I         426 21.79         7.9 0.35                           271 256 
                                                                                
