 2016  319 0214 55.4 L   6.818 -73.238134.2  RSN  6 0.4 1.1LRSN                1
 GAP=149        0.68       4.2     4.0  8.8 -0.8895E+01  0.1394E+02 -0.5226E+01E
 Epicentro: ZAPATOCA - SANTANDER                                               3
 ACTION:UPD 16-05-13 21:25 OP:cam  STATUS:               ID:20160319021455 L   I
 OLDACT:DUP 16-03-19 13:49 OP:dnl  STATUS:               ID:20160319020743d    3
 OLDACT:REG 16-03-19 12:35 OP:dnl  STATUS:               ID:20160319020742     3
 2016-03-19-0207-42M.COL___326                                                 6
 STAT SP IPHASW D HRMM SECON CODA AMPLIT PERI AZIMU VELO AIN AR TRES W  DIS CAZ7
 BAR2 EZ EP   2    215 14.10                             168    0.42 5 25.7 166 
 BAR2 EZ ES   2    215 28.00                             168    0.04 5 25.7 166 
 BAR2 EZ I         215 31.63         2.3 0.10            170           25.7 166 
 PAM  EZ EP        215 16.90                             147    0.1610 82.8  46 
 PAM  EE ES        215 33.06                             147   -0.3410 82.8  46 
 PAM  EZ I         215 36.00         2.5 0.28            152           82.8  46 
 RUS  HZ EP   3    215 17.88                             140   -0.38 2  104 170 
 RUS  HE ES        215 36.31                             140    0.2010  104 170 
 RUS  HZ I         215 37.76         1.9 0.28            144            104 170 
 PTB  HZ EP   3    215 20.83                             131    0.29 2  138 257 
 PTB  HN ES        215 40.50                             131    0.33 9  138 257 
 PTB  HZ I         215 44.66         2.4 0.18            132            138 257 
 SPBC HN ES   3    215 43.81                             127    0.03 2  159 216 
 NOR  HZ EP   3    215 30.28                             117    0.58 2  228 233 
 NOR  HN ES        215 55.80                             117   -0.67 8  228 233 
 NOR  HZ I         216  5.16         1.6 0.22            118            228 233 
                                                                                
