 2011 1219 0204  7.6 L   6.843 -73.299118.5  RSN  7 0.2 2.1LRSN                1
 GAP=112        0.50       2.6     4.2  3.9  0.4146E+00  0.1527E+01 -0.5002E+00E
 Epicentro: ZAPATOCA - SANTANDER                                               3
 ACTION:UPD 12-07-13 16:17 OP:ep   STATUS:               ID:20111219020407 L   I
 2011-12-19-0200-00M.COL___187                                                 6
 STAT SP IPHASW D HRMM SECON CODA AMPLIT PERI AZIMU VELO AIN AR TRES W  DIS CAZ7
 GIR2 SZ EP        2 4 23.80                             166   -0.1210 28.5  24 
 BAR2 SZ EP        2 4 24.17                             165    0.0410 30.6 155 
 BAR2 SZ ES        2 4 37.07                             165    0.0210 30.6 155 
 BAR2 SZ I         2 4 38.72        41.4 0.28                          30.6 155 
 BRR  HZ IP     C  2 4 24.60                             154   -0.2010 54.2 303 
 BRR  HN ES   1    2 4 38.35                             154    0.10 7 54.2 303 
 BRR  HN I         2 4 39.60        46.9 0.17                          54.2 303 
 PAM  SZ EP   1    2 4 27.49                             142   -0.10 7 86.0  50 
 PAM  SN ES   1    2 4 43.05                             142   -0.15 7 86.0  50 
 RUS  HZ EP   1    2 4 29.67                             135    0.32 7  108 167 
 RUS  HE ES   1    2 4 46.47                             135    0.12 7  108 167 
 OCA  SZ EP   1    2 4 33.82                             124    0.51 7  154 359 
 OCA  SZ I         2 4 55.08        15.5 0.30                           154 359 
 CHI  HZ EP   1    2 4 43.62                             111   -0.38 6  249 191 
                                                                                
