 2013 1019 0851 39.5 L   6.707 -73.190152.0  RSN  6 0.3 1.6LRSN                1
 GAP=195        0.63       4.7     4.3  4.9  0.1172E+02  0.2005E+01 -0.1724E+01E
 Epicentro: VILLANUEVA - SANTANDER                                             3
 ACTION:UPD 13-11-25 09:22 OP:ep   STATUS:               ID:20131019085139 L   I
 OLDACT:UP  13-10-19 10:50 OP:cam  STATUS:               ID:20131019084845     3
 OLDACT:REG 13-10-19 08:28 OP:cam  STATUS:               ID:20131019084845     3
 2013-10-19-0848-45M.COL___211                                                 6
 STAT SP IPHASW D HRMM SECON CODA AMPLIT PERI AZIMU VELO AIN AR TRES W  DIS CAZ7
 BAR2 SZ EP        851 59.46                             175   -0.2110 12.7 176 
 BAR2 SZ ES        852 15.17                             175   -0.2710 12.7 176 
 BAR2 SZ I         852 15.53        11.0 0.26            177           12.7 176 
 BRR  HZ EP        852  1.63                             153    0.2710 72.7 308 
 BRR  HN ES        852 18.64                             153    0.2010 72.7 308 
 BRR  HZ I         852 23.42         6.1 0.14            153           72.7 308 
 RUS  HZ EP        852  3.24                             148    0.0810 90.8 172 
 RUS  HN ES        852 21.84                             148    0.1810 90.8 172 
 RUS  HZ I         852 23.17         4.0 0.34            151           90.8 172 
 PTB  HZ EP        852  6.39                             135    0.03 9  141 263 
 PTB  HN ES        852 26.98                             135   -0.37 9  141 263 
 PTB  HZ I         852 28.13         4.6 0.12            137            141 263 
 ZAR  HE ES        852 38.11                             124    0.24 9  204 295 
 SML  HZ EP   2    852 16.56                             118   -0.68 4  251 337 
                                                                                
