 2017  119 0228 43.1 L   6.774 -73.112141.1  RSN  8 0.2 1.6LRSN                1
 GAP=142        0.59       2.3     2.5  3.7 -0.3522E-01  0.2305E+01  0.2317E+01E
 Epicentro: LOS SANTOS - SANTANDER                                             3
 ACTION:UPD 17-05-22 16:01 OP:jn   STATUS:               ID:20170119022843 L   I
 OLDACT:UP  17-01-19 16:00 OP:dani STATUS:               ID:20170119022741     3
 OLDACT:REG 17-01-19 13:21 OP:dani STATUS:               ID:20170119022741     3
 2017-01-19-0228-00M.COL___334                                                 6
 STAT SP IPHASW D HRMM SECON CODA AMPLIT PERI AZIMU VELO AIN AR TRES W  DIS CAZ7
 BAR2 EZ EP        229  1.99                             171   -0.1010 21.5 201 
 BAR2 EZ ES        229 16.58                             171   -0.3610 21.5 201 
 BAR2 EZ I         229 18.18         9.8 0.26            170           21.5 201 
 BRR  HZ EP        229  4.11                             150    0.1310 75.8 299 
 BRR  HN ES        229 20.55                             150    0.2510 75.8 299 
 BRR  HZ I         229 24.95        13.0 0.15            150           75.8 299 
 PAM  EZ EP        229  4.86                             150    0.0810 77.4  36 
 PAM  EE ES        229 21.72                             150   -0.0110 77.4  36 
 PAM  EZ I         229 24.19         6.8 0.60            153           77.4  36 
 RUS  HZ EP        229  6.04                             144   -0.0910 97.5 178 
 RUS  HE ES        229 24.45                             144    0.3310 97.5 178 
 RUS  HZ I         229 25.34         3.9 0.54            145           97.5 178 
 PTB  HZ EP        229  9.63                             130   -0.31 9  151 260 
 PTB  HN ES        229 30.55                             130   -0.35 9  151 260 
 PTB  HZ I         229 32.77         5.9 0.22            131            151 260 
 ZAR  HE ES        229 41.37                             121    0.25 8  209 293 
 NOR  HZ EP        229 18.50                             117   -0.17 8  236 236 
 NOR  HN ES        229 46.72                             117    0.27 8  236 236 
 NOR  HZ I         229 51.97         3.6 0.22            119            236 236 
 CHI  HZ EP        229 20.46                             116    0.15 8  247 196 
 CHI  HN ES        229 49.36                             116    0.00 8  247 196 
 CHI  HZ I         229 52.79         1.3 0.31            118            247 196 
                                                                                
