 2015  319 0928 41.4 L   6.716 -73.264130.0  RSN  7 0.6 1.2LRSN                1
 GAP= 94        1.66       6.4     6.9 11.0 -0.1348E+01 -0.4599E+01  0.6731E+00E
 Epicentro: GALAN - SANTANDER                                                  3
 ACTION:UPD 15-04-30 16:27 OP:nd   STATUS:               ID:20150319092841 L   I
 OLDACT:DUP 15-03-19 18:51 OP:stll STATUS:               ID:20150319091749d    3
 OLDACT:DUP 15-03-19 18:43 OP:stll STATUS:               ID:20150319091748d    3
 2015-03-19-0917-47M.COL___272                                                 6
 STAT SP IPHASW D HRMM SECON CODA AMPLIT PERI AZIMU VELO AIN AR TRES W  DIS CAZ7
 BAR2 EZ EP        928 59.25                             172    0.2610 16.3 147 
 BAR2 EZ ES        929 13.07                             172    0.3610 16.3 147 
 BAR2 EZ I         929 13.97         5.7 0.58            173           16.3 147 
 BRR  HZ EP        929  0.95                             151    0.4210 65.8 311 
 BRR  HN ES        929 16.69                             151    1.2410 65.8 311 
 PAM  SZ EP        929  3.32                             143    0.2810 93.0  42 
 PAM  SN ES        929 18.80                             143   -1.1210 93.0  42 
 PAM  SZ I         929 22.92         1.5 0.42            144           93.0  42 
 RUS  HZ EP        929  3.19                             142    0.1310 93.2 168 
 RUS  HN ES        929 19.60                             142   -0.3610 93.2 168 
 RUS  HZ I         929 21.38         1.6 0.24            144           93.2 168 
 PTB  HZ EP        929  5.56                             131   -0.2010  133 262 
 PTB  HN ES        929 23.70                             131   -1.0710  133 262 
 PTB  HZ I         929 26.49         2.4 0.40            133            133 262 
 TAM  HZ EP        929  9.21                             125    0.29 9  166 101 
 TAM  HZ I         929  9.52         4.6 0.10            126            166 101 
 OCA  HN ES        929 30.80                             124   -0.36 9  169 358 
                                                                                
