 2014  619 0048  5.1 L   6.803 -73.124147.7  RSN  7 0.5 1.5LRSN                1
 GAP=139        1.20       5.7     5.7  8.1 -0.1064E+02  0.7891E+01  0.5801E+01E
 Epicentro: LOS SANTOS - SANTANDER                                             3
 ACTION:UPD 14-07-01 22:55 OP:nd   STATUS:               ID:20140619004805 L   I
 OLDACT:REG 14-06-19 12:39 OP:carl STATUS:               ID:20140619003812     3
 2014-06-19-0038-12M.COL___262                                                 6
 STAT SP IPHASW D HRMM SECON CODA AMPLIT PERI AZIMU VELO AIN AR TRES W  DIS CAZ7
 BAR2 SZ EP        048 24.91                             170   -0.0310 24.2 195 
 BAR2 SZ ES        048 40.05                             170   -0.3910 24.2 195 
 BAR2 SZ I         048 41.63        10.6 0.44            172           24.2 195 
 BRR  HZ EP        048 26.79                             152    0.2610 73.1 297 
 BRR  HN ES        048 44.21                             152    0.9410 73.1 297 
 BRR  HZ I         048 46.52         7.2 0.34            152           73.1 297 
 PAM  SZ EP        048 27.80                             152    0.4210 75.6  38 
 PAM  SN ES        048 44.24                             152   -0.5510 75.6  38 
 PAM  SZ I         048 46.60         3.7 0.20            153           75.6  38 
 RUS  HZ EP        048 28.98                             144   -0.0410  101 177 
 RUS  HN ES        048 47.94                             144    0.2410  101 177 
 RUS  HZ I         048 48.70         4.3 0.26            147            101 177 
 PTB  HZ EP        048 31.85                             132   -0.55 9  150 259 
 PTB  HN ES        048 52.91                             132   -0.82 9  150 259 
 PTB  HZ I         048 54.84         5.8 0.42            133            150 259 
 SPBC HZ EP        048 33.87                             129   -0.01 9  165 220 
 SPBC HE ES        048 56.57                             129    0.22 9  165 220 
 NOR  HN ES        049  9.50                             119    0.24 8  237 235 
                                                                                
