 2012 1119 0445  5.1 L   6.781 -73.152149.7  RSN  4 0.2 1.5LRSN                1
 GAP=137        0.53       4.0     4.3  6.3 -0.1415E+00 -0.1078E+01 -0.1386E+01E
 Epicentro: LOS SANTOS - SANTANDER                                             3
 ACTION:UPD 12-12-05 15:34 OP:}ep  STATUS:               ID:20121119044505 L   I
 2012-11-19-0440-00M.COL___234                                                 6
 STAT SP IPHASW D HRMM SECON CODA AMPLIT PERI AZIMU VELO AIN AR TRES W  DIS CAZ7
 BRR  HZ EP        445 27.01                             153    0.2910 71.6 300 
 BRR  HZ I         445 27.29         8.3 0.25                          71.6 300 
 BRR  HN ES   1    445 43.65                             153    0.08 7 71.6 300 
 PAM  SZ EP        445 27.74                             151   -0.1310 79.4  39 
 PAM  SE ES   2    445 45.45                             151   -0.17 5 79.4  39 
 RUS  HZ EP   1    445 29.39                             145    0.27 7 98.6 176 
 RUS  HE ES   1    445 47.72                             145   -0.11 7 98.6 176 
 RUS  HE I         445 48.78         3.5 0.24                          98.6 176 
 PTB  HZ EP   1    445 31.88                             133   -0.44 7  147 260 
 PTB  HE ES   2    445 53.36                             133   -0.17 5  147 260 
                                                                                
