 2013 1219 0609 26.6 L   6.801 -73.160146.1  RSN 10 0.4 1.8LRSN                1
 GAP=135        1.08       3.0     4.8  6.4 -0.9427E+00  0.5892E+01  0.3093E+00E
 Epicentro: LOS SANTOS - SANTANDER                                             3
 ACTION:UPD 14-01-13 10:19 OP:ep   STATUS:               ID:20131219060926 L   I
 OLDACT:REG 13-12-19 08:48 OP:jn   STATUS:               ID:20131219060738     3
 2013-12-19-0607-38M.COL___232                                                 6
 STAT SP IPHASW D HRMM SECON CODA AMPLIT PERI AZIMU VELO AIN AR TRES W  DIS CAZ7
 BAR2 SZ EP        6 9 46.25                             171   -0.0510 23.2 186 
 BAR2 SZ ES        610  1.02                             171   -0.6110 23.2 186 
 BAR2 SZ I         610  2.54        25.6 0.24            170           23.2 186 
 BRR  HZ EP        6 9 48.03                             153    0.3010 69.8 299 
 BRR  HN ES        610  4.93                             153    0.7410 69.8 299 
 BRR  HZ I         610  5.78        12.0 0.12            154           69.8 299 
 PAM  SZ EP        6 9 49.23                             151    0.2910 78.4  40 
 PAM  SN ES        610  6.09                             151   -0.2510 78.4  40 
 PAM  SZ I         610  8.54         8.4 0.50            153           78.4  40 
 RUS  HZ EP        6 9 50.27                             144   -0.1610  101 175 
 RUS  HN ES        610  8.97                             144   -0.0110  101 175 
 RUS  HZ I         610 11.06         5.8 0.26            144            101 175 
 PTB  HZ EP        6 9 53.53                             132    0.05 9  146 259 
 PTB  HN ES        610 13.88                             132   -0.54 9  146 259 
 PTB  HZ I         610 15.69        10.1 0.32            133            146 259 
 OCA  HN ES        610 17.77                             130    0.75 9  160 354 
 OCA  HZ I         610 20.91         6.9 0.50            131            160 354 
 SPBC HZ EP        6 9 55.10                             129    0.04 9  162 219 
 SPBC HN ES        610 17.62                             129    0.38 9  162 219 
 SPBC HZ I         610 24.31        10.8 0.20            130            162 219 
 ZAR  HN ES   1    610 24.15                             123    0.01 6  203 292 
 SML  HZ EP        610  2.67                             118   -0.53 8  243 336 
 SML  HN ES        610 30.80                             118   -0.92 8  243 336 
 CHI  HZ EP   1    610  4.80                             117    0.49 6  248 195 
 CHI  HN ES        610 33.61                             117   -0.08 8  248 195 
 CHI  HZ I         610 38.15         2.7 0.68            118            248 195 
                                                                                
