 2015  319 0616 40.0 L   5.916 -73.936 14.0  RSN 11 0.7 1.7LRSN                1
 GAP=112        1.82       5.0     3.8  7.9 -0.7680E-01  0.1198E+02  0.1436E+02E
 Epicentro: LA BELLEZA - SANTANDER                                             3
 ACTION:UPD 15-04-30 16:27 OP:nd   STATUS:               ID:20150319061640 L   I
 OLDACT:DUP 15-03-19 17:34 OP:stll STATUS:               ID:20150319060747d    3
 2015-03-19-0607-46M.COL___275                                                 6
 STAT SP IPHASW D HRMM SECON CODA AMPLIT PERI AZIMU VELO AIN AR TRES W  DIS CAZ7
 SPBC HZ EP   9    616 47.94                             113    2.07 0 32.8 207 
 SPBC HE ES        616 53.45                                    0.8910 32.8 207 
 SPBC HZ I         616 54.95       215.3 0.26             90           32.8 207 
 PTB  HZ EP        616 54.40                              98    0.1310 89.9 320 
 PTB  HN ES        617  5.78                              98    0.3410 89.9 320 
 PTB  HZ I         617  6.71        49.8 0.22             90           89.9 320 
 RUS  HZ EP        616 55.59                              98    0.1410 94.4  92 
 RUS  HN ES        617  6.44                              98   -1.1010 94.4  92 
 RUS  HZ I         617  8.51        13.5 0.24             90           94.4  92 
 BAR2 EZ EP        616 58.27                              97    0.4310  112  48 
 BAR2 EZ ES        617 11.62                              97   -0.1710  112  48 
 BAR2 EZ I         617 16.30        26.3 0.22             90            112  48 
 BRR  HZ EP     D  617  0.69                              95   -0.2310  134  11 
 BRR  HZ I         617  1.74        15.3 0.28             90            134  11 
 BRR  HN ES        617 17.48                              95    0.2110  134  11 
 GUY2CHZ EP   9    617  7.73                              56    0.83 0  176 244 
 GUY2CHN ES        617 27.68                                   -1.07 9  176 244 
 GUY2CHZ I         617 32.57         3.9 0.30                           176 244 
 HEL  HZ EP        617  7.11                              56   -0.06 9  179 280 
 HEL  HE ES        617 27.14                              56   -1.25 9  179 280 
 HEL  HZ I         617 27.95         5.2 0.30             56            179 280 
 ZAR  HZ EP        617  8.58                              56   -1.03 9  202 330 
 ZAR  HZ I         617 40.18         5.4 0.26             56            202 330 
 PAM  SZ EP        617 12.43                              56    1.42 8  209  41 
 PAM  SE ES        617 35.45                              56    0.22 8  209  41 
 TOL  SZ EP        617 12.66                              56    1.33 8  213 226 
 TOL  SN ES        617 35.70                              56   -0.10 8  213 226 
 PRA  HZ EP   9    617 23.72                              56    6.15 0  265 203 
 PRA  HN ES        617 53.17                                    0.11 8  265 203 
 PRA  HZ I         618  1.46         4.4 0.30             56            265 203 
                                                                                
