 2016 1019 0258 38.5 L   6.786 -73.153149.1  RSN  7 0.4 1.5LRSN                1
 GAP=136        0.93       4.5     4.6  6.5 -0.7899E+01  0.6758E+01  0.1520E+01E
 Epicentro: LOS SANTOS - SANTANDER                                             3
 ACTION:UPD 16-11-09 19:20 OP:rebc STATUS:               ID:20161019025838 L   I
 OLDACT:UP  16-10-19 15:44 OP:and  STATUS:               ID:20161019024734     3
 OLDACT:REG 16-10-19 12:32 OP:y    STATUS:               ID:20161019024734     3
 2016-10-19-0248-00M.COL___329                                                 6
 STAT SP IPHASW D HRMM SECON CODA AMPLIT PERI AZIMU VELO AIN AR TRES W  DIS CAZ7
 BAR2 EZ EP        258 58.37                             171   -0.0910 21.7 189 
 BAR2 EZ ES        259 14.25                             171    0.2010 21.7 189 
 BAR2 EZ I         259 14.41         4.9 0.19            171           21.7 189 
 BRR  HZ EP        259  0.32                             153    0.3510 71.3 300 
 BRR  HN ES        259 17.40                             153    0.6510 71.3 300 
 BRR  HZ I         259 20.45         5.4 0.17            151           71.3 300 
 PAM  EZ EP        259  1.20                             151    0.0710 79.1  39 
 PAM  EN ES        259 18.29                             151   -0.5210 79.1  39 
 PAM  EZ I         259 20.97         8.6 0.71            154           79.1  39 
 RUS  HZ EP   2    259  3.05                             145    0.62 5 99.1 176 
 RUS  HN ES        259 20.93                             145   -0.2010 99.1 176 
 RUS  HZ I         259 22.08         3.4 0.33            147           99.1 176 
 PTB  HZ EP        259  5.19                             133   -0.42 9  147 259 
 PTB  HN ES        259 26.20                             133   -0.58 9  147 259 
 PTB  HZ I         259 29.78         3.8 0.20            132            147 259 
 SPBC HZ EP        259  7.27                             130    0.21 9  162 219 
 SPBC HN ES        259 29.50                             130    0.14 9  162 219 
 SPBC HZ I         259 32.54         5.1 0.17            130            162 219 
 NOR  HE ES        259 42.04                             119   -0.07 8  233 235 
 NOR  HZ I         259 49.06         3.4 0.11            120            233 235 
                                                                                
