 2012  919 0357 21.5 L   6.782 -73.148142.2  RSN 14 0.5 2.9LRSN                1
 GAP= 66        0.98       4.3     3.7  6.5 -0.4463E+00  0.2753E+01  0.8433E+01E
 Epicentro: LOS SANTOS - SANTANDER                                             3
 ACTION:UPD 12-10-22 14:19 OP:ep   STATUS:               ID:20120919035721 L   I
 2012-09-19-0350-00M.COL___226                                                 6
 STAT SP IPHASW D HRMM SECON CODA AMPLIT PERI AZIMU VELO AIN AR TRES W  DIS CAZ7
 BAR2 SZ EP        357 40.59                             171   -0.0310 21.4 190 
 BAR2 SZ ES   1    357 55.72                             171    0.15 7 21.4 190 
 BAR2 SZ I         357 58.34       325.1 0.34                          21.4 190 
 GIR2 SZ EP        357 40.66                             166   -0.1010 33.2 351 
 BRR  HZ IP     C  357 42.45                             152    0.1810 72.0 300 
 BRR  HN ES   1    357 59.49                             152    0.99 7 72.0 300 
 BRR  HZ I         358  3.51       105.7 0.16                          72.0 300 
 PAM  SZ IP     D  357 43.30                             150   -0.1010 79.0  39 
 PAM  SZ I         357 43.70       236.9 0.24                          79.0  39 
 PAM  SN ES   1    358  0.31                             150   -0.20 7 79.0  39 
 RUS  HZ EP        357 44.48                             144   -0.2410 98.6 176 
 RUS  HN ES   1    358  3.06                             144    0.20 7 98.6 176 
 RUS  HZ I         358  6.16        52.1 0.30                          98.6 176 
 PTB  HZ EP   1    357 47.16                             131   -0.93 7  147 260 
 PTB  HN ES        358  8.29                             131   -0.56 9  147 260 
 PTB  HZ I         358 15.82        54.8 0.60                           147 260 
 TAM  HZ EP   1    357 48.78                             130   -0.05 7  155 104 
 TAM  HN ES   1    358 10.21                             130    0.03 7  155 104 
 YOP  SZ EP   1    357 50.51                             126   -0.58 7  177 153 
 YOP  SE ES   1    358 14.22                             126    0.03 7  177 153 
 YOP  SZ I         358 16.66        54.7 0.30                           177 153 
 NOR  SN ES   1    358 23.66                             118   -0.78 6  233 235 
 CHI  HZ EP   1    357 58.67                             117   -0.08 6  247 195 
 CHI  HN ES   1    358 28.14                             117    0.30 6  247 195 
 CHI  HN I         358 30.65        81.5 0.30                           247 195 
 CHI  HZ I         358 37.80        36.0 0.34                           247 195 
 ROSC BZ EP        358  0.25                             116    1.06 8  251 211 
 ROSC BZ I         358 38.37        72.8 0.40                           251 211 
 HEL  HZ EP   1    358  2.28                             114    0.86 6  271 256 
 HEL  HZ I         358 39.69        37.0 0.34                           271 256 
 RREF HZ EP   1    358  7.54                             110    0.25 5  320 230 
 RREF HZ I         358 53.41        35.3 0.40                           320 230 
 ANIL HZ EP   1    358 11.31                             108    0.36 5  356 225 
                                                                                
