 2011 1019 0505 44.3 L   6.811 -73.132151.6  RSN  5 0.3 1.5LRSN                1
 GAP=138        0.43       4.7     4.8  7.1  0.5647E+01  0.9172E+01  0.1520E+01E
 Epicentro: LOS SANTOS - SANTANDER                                             3
 ACTION:UPD 12-07-13 16:04 OP:ep   STATUS:               ID:20111019050544 L   I
 2011-10-19-0504-59S.COL___153                                                 6
 STAT SP IPHASW D HRMM SECON CODA AMPLIT PERI AZIMU VELO AIN AR TRES W  DIS CAZ7
 BAR2 SZ EP   3    5 6  4.47                             170   -0.21 2 24.8 193 
 BAR2 SZ I         5 6 23.18        10.9 0.89                          24.8 193 
 BRR  HZ EP   1    5 6  6.26                             153    0.11 7 71.9 297 
 BRR  HZ I         5 6  6.52         6.9 0.21                          71.9 297 
 BRR  HN ES   2    5 6 23.52                             153    0.35 5 71.9 297 
 PAM  SZ EP   2    5 6  7.48                             152    0.42 5 75.5  39 
 PAM  SE ES   2    5 6 24.36                             152   -0.43 5 75.5  39 
 RUS  HZ EP   2    5 6  8.68                             145   -0.05 5  102 177 
 RUS  HN ES   2    5 6 27.68                             145   -0.09 5  102 177 
 RUS  HZ I         5 6 29.99         1.9 0.44                           102 177 
 ZAR  HZ EP   2    5 6 16.92                             123   -0.33 4  205 292 
 ZAR  HN ES   2    5 6 42.68                             123   -0.25 4  205 292 
 ZAR  HZ I         5 6 49.79         2.4 0.27                           205 292 
                                                                                
