 2012 1119 0501 47.1 L   6.757 -73.145147.6  RSN  7 0.4 1.7LRSN                1
 GAP=139        0.88       5.4     5.6  7.7 -0.1114E+01 -0.8895E+00 -0.4710E+01E
 Epicentro: LOS SANTOS - SANTANDER                                             3
 ACTION:UPD 12-12-05 15:34 OP:}ep  STATUS:               ID:20121119050147 L   I
 2012-11-19-0500-00M.COL___234                                                 6
 STAT SP IPHASW D HRMM SECON CODA AMPLIT PERI AZIMU VELO AIN AR TRES W  DIS CAZ7
 BAR2 SZ EP        5 2  7.02                             172    0.1610 18.7 193 
 BAR2 SZ I         5 2 23.04        15.9 0.13                          18.7 193 
 GIR2 SZ EP   1    5 2  7.08                             166   -0.04 7 36.0 351 
 BRR  HZ EP        5 2  9.10                             152    0.5210 73.6 302 
 BRR  HE ES        5 2 25.69                             152    0.3510 73.6 302 
 BRR  HZ I         5 2 26.54         4.6 0.15                          73.6 302 
 PAM  SZ EP        5 2  9.89                             150    0.1610 81.1  37 
 PAM  SN ES   1    5 2 26.79                             150   -0.59 7 81.1  37 
 PAM  SZ I         5 2 29.20         7.3 0.52                          81.1  37 
 RUS  HZ EP   1    5 2 10.95                             146    0.26 7 95.8 176 
 RUS  HN ES   1    5 2 28.74                             146   -0.36 7 95.8 176 
 RUS  HN I         5 2 31.19        12.6 0.18                          95.8 176 
 PTB  HZ EP   1    5 2 13.75                             133   -0.39 7  147 261 
 PTB  HN ES   1    5 2 34.70                             133   -0.53 7  147 261 
 SML  HZ EP        5 2 23.75                             117   -0.54 8  248 336 
                                                                                
