 2012 1219 0811 52.1 L   6.780 -73.120145.3  RSN  8 0.4 1.5LRSN                1
 GAP=141        0.99       5.5     4.9  7.9  0.3500E+01  0.3288E+01 -0.2718E+01E
 Epicentro: LOS SANTOS - SANTANDER                                             3
 ACTION:UPD 13-01-04 14:29 OP:ep   STATUS:               ID:20121219081152 L   I
 2012-12-19-0810-00M.COL___243                                                 6
 STAT SP IPHASW D HRMM SECON CODA AMPLIT PERI AZIMU VELO AIN AR TRES W  DIS CAZ7
 BAR2 SZ EP   1    812 11.66                             171    0.04 7 21.9 198 
 BAR2 SZ I         812 27.92         6.9 0.22                          21.9 198 
 GIR2 SZ EP        812 11.45                             166   -0.3110 34.0 346 
 BRR  HZ EP        812 13.63                             151    0.2610 74.7 299 
 BRR  HE ES        812 30.46                             151    0.4710 74.7 299 
 BRR  HZ I         812 33.67         3.6 0.18                          74.7 299 
 PAM  SZ EP        812 14.48                             151    0.2510 77.3  37 
 PAM  SE ES   1    812 31.22                             151   -0.30 7 77.3  37 
 PAM  SZ I         812 33.57         9.6 0.46                          77.3  37 
 RUS  HZ EP        812 16.29                             144    0.6810 98.2 178 
 RUS  HN ES   1    812 33.15                             144   -0.81 7 98.2 178 
 RUS  HN I         812 37.77         4.2 0.76                          98.2 178 
 PTB  HZ EP        812 19.13                             131   -0.09 9  150 260 
 PTB  HE ES   1    812 40.02                             131   -0.37 7  150 260 
 PTB  HZ I         812 41.75         3.6 0.19                           150 260 
 ZAR  HZ EP   1    812 24.65                             122   -0.19 6  208 292 
 ZAR  HE ES        812 50.42                             122    0.02 8  208 292 
 ZAR  HZ I         812 55.94         3.0 0.19                           208 292 
 SML  HZ EP        812 28.34                             117   -0.68 8  247 335 
                                                                                
