 2012  319 0804 16.8 L   6.680 -73.634103.8  RSN  8 0.3 2.0LRSN                1
 GAP= 79        0.65       3.7     3.0  6.2  0.1912E+00  0.8510E+01  0.5369E+01E
 ACTION:UP  12-03-31 23:20 OP:EP   STATUS:               ID:20120319080416 L   I
 2012-03-19-0800-00M.COL___202                                                 6
 STAT SP IPHASW D HRMM SECON CODA AMPLIT PERI AZIMU VELO SNR AR TRES W  DIS CAZ7
 BRR  HZ EP        8 4 31.80                             153    -0.310   48 350 
 BRR  HZ I         8 4 32.15        61.5 0.07                            48 350 
 BRR  HN ES   1    8 4 43.92                             153    -0.1 7   48 350 
 BAR2 SZ EP        8 4 32.70                             152     0.110   51 101 
 BAR2 SZ ES   1    8 4 45.35                             152     0.4 7   51 101 
 BAR2 SZ I         8 4 46.26        68.7 0.21                            51 101 
 RUS  HZ EP   1    8 4 36.92                             131    -0.3 7  106 145 
 RUS  HN ES   2    8 4 52.96                             131    -0.2 5  106 145 
 RUS  HZ I         8 4 54.20        10.6 0.19                           106 145 
 PAM  SZ EP   1    8 4 39.31                             126     0.1 7  126  55 
 PAM  SN ES   2    8 4 56.88                             126     0.3 5  126  55 
 ZAR  HZ EP   1    8 4 42.45                             118     0.2 7  162 304 
 ZAR  HN ES   2    8 5  1.88                             118    -0.3 5  162 304 
 ZAR  HZ I         8 5  4.78        26.2 0.32                           162 304 
 NOR  SN ES   2    8 5  6.17                             114    -0.4 4  184 228 
 HEL  HZ EP   1    8 4 48.77                             110     0.0 6  216 256 
 HEL  HN ES   1    8 5 14.48                             110     0.7 6  216 256 
 HEL  HZ I         8 5 17.15         7.7 0.26                           216 256 
 RREF HZ EP   2    8 4 55.90                             105     0.1 4  273 224 
 RREF HN ES   2    8 5 26.07                             105    -0.1 4  273 224 
 RREF HZ I         8 5 31.42         4.1 0.57                           273 224 
                                                                                
