 2013  319 0227 56.6 L   6.801 -73.175138.0  RSN 10 0.4 2.5LRSN                1
 GAP=133        0.86       3.1     3.5  5.7 -0.9879E+00  0.7039E+01 -0.2696E-01E
 Epicentro: LOS SANTOS - SANTANDER                                             3
 ACTION:UPD 13-04-09 14:03 OP:ep   STATUS:               ID:20130319022756 L   I
 2013-03-19-0220-00M.COL___244                                                 6
 STAT SP IPHASW D HRMM SECON CODA AMPLIT PERI AZIMU VELO AIN AR TRES W  DIS CAZ7
 BAR2 SZ EP        228 15.37                             170    0.0710 23.1 182 
 BAR2 SZ ES   1    228 29.69                             170   -0.19 7 23.1 182 
 BAR2 SZ I         228 30.99        55.6 0.34            170           23.1 182 
 BRR  HZ IP     C  228 17.17                             152    0.4110 68.3 300 
 BRR  HN ES   1    228 32.85                             152    0.38 7 68.3 300 
 BRR  HN I         228 37.45        86.9 0.16            150           68.3 300 
 PAM  SZ EP        228 18.20                             149    0.0710 79.4  41 
 PAM  SN ES        228 35.08                             149    0.1610 79.4  41 
 PAM  SN I         228 35.94        78.4 0.46            153           79.4  41 
 RUS  HZ EP        228 19.44                             142   -0.2010  101 174 
 RUS  HN ES        228 37.62                             142    0.0210  101 174 
 RUS  HN I         228 39.43        13.8 0.34            145            101 174 
 PTB  HZ EP        228 21.94                             131   -0.72 9  145 259 
 PTB  HN ES        228 42.55                             131   -0.43 9  145 259 
 PTB  HN I         228 46.53        53.4 0.24            131            145 259 
 OCA  HN ES   1    228 45.03                             128   -0.83 7  160 354 
 OCA  HN I         228 48.26        69.8 0.20            130            160 354 
 ZAR  HZ EP        228 28.10                             121   -0.14 9  201 292 
 ZAR  HN ES        228 53.19                             121    0.28 9  201 292 
 ZAR  HN I         228 59.85        38.9 0.78            122            201 292 
 NOR  HZ EP        228 31.69                             117    0.07 8  232 234 
 NOR  HN ES        228 59.42                             117    0.49 8  232 234 
 SML  HZ EP   1    228 32.65                             116    0.00 6  242 336 
 SML  HN ES   2    229  1.82                             116    1.06 4  242 336 
 PRA  HZ EP   1    228 50.28                             105    0.58 4  391 209 
 PRA  HN ES   4    229 32.92                             105    1.81 0  391 209 
 PRA  HN I         229 36.07         4.3 0.54            107            391 209 
                                                                                
