 2013 1219 0906  1.9 L   6.792 -73.149149.7  RSN 10 0.4 1.8LRSN                1
 GAP=136        1.02       3.1     4.2  6.1 -0.1726E+01  0.7079E+01 -0.2069E+01E
 Epicentro: LOS SANTOS - SANTANDER                                             3
 ACTION:UPD 14-01-13 10:19 OP:ep   STATUS:               ID:20131219090601 L   I
 OLDACT:REG 13-12-19 08:22 OP:jn   STATUS:               ID:20131219090000     3
 2013-12-19-0900-00M.COL___285                                                 6
 STAT SP IPHASW D HRMM SECON CODA AMPLIT PERI AZIMU VELO AIN AR TRES W  DIS CAZ7
 BAR2 SZ EP        9 6 22.05                             171    0.0810 22.4 189 
 BAR2 SZ ES        9 6 37.60                             171   -0.0310 22.4 189 
 BAR2 SZ I         9 6 40.99        10.2 0.22            171           22.4 189 
 BRR  HZ EP        9 6 23.97                             153    0.5110 71.3 299 
 BRR  HN ES        9 6 41.25                             153    0.9610 71.3 299 
 BRR  HZ I         9 6 44.06         9.6 0.26            152           71.3 299 
 PAM  SZ EP        9 6 24.86                             151    0.2910 78.3  39 
 PAM  SN ES        9 6 42.13                             151   -0.1410 78.3  39 
 PAM  SZ I         9 6 44.55         8.4 0.66            155           78.3  39 
 RUS  HZ EP        9 6 25.83                             145   -0.1310 99.7 176 
 RUS  HN ES        9 6 44.21                             145   -0.5310 99.7 176 
 RUS  HZ I         9 6 45.31         3.7 0.30            148           99.7 176 
 PTB  HZ EP        9 6 28.69                             133   -0.43 9  147 259 
 PTB  HN ES        9 6 49.89                             133   -0.48 9  147 259 
 PTB  HZ I         9 6 53.26         7.2 0.14            134            147 259 
 OCA  HN ES        9 6 52.47                             130   -0.49 9  161 353 
 OCA  HZ I         9 6 56.96         7.0 0.54            133            161 353 
 SPBC HZ EP        9 6 30.99                             130    0.39 9  162 219 
 SPBC HN ES        9 6 53.25                             130    0.25 9  162 219 
 SPBC HZ I         9 7  0.02         9.2 0.38            132            162 219 
 ZAR  HZ EP        9 6 34.69                             123    0.11 9  204 292 
 ZAR  HN ES        9 6 59.95                             123   -0.14 9  204 292 
 ZAR  HZ I         9 7  3.11         6.0 0.10            125            204 292 
 NOR  HN ES        9 7  5.58                             119   -0.15 8  234 235 
 NOR  HZ I         9 7  9.61         6.3 0.20            121            234 235 
 SML  HZ EP        9 6 38.91                             118    0.11 8  244 335 
 SML  HN ES        9 7  7.12                             118   -0.47 8  244 335 
 SML  HZ I         9 7 11.96         9.4 0.38            120            244 335 
 SJC  HZ EP   4    9 6 55.79                             106   -1.84 0  410 327 
 SJC  HN ES   4    9 7 38.07                             106   -3.05 0  410 327 
                                                                                
