 2011  919 0016 26.7 L   6.801 -73.071149.7  RSN 20 0.5 3.3LRSN                1
 GAP=121        1.02       3.5     5.6  6.1 -0.2325E+01  0.1036E+02  0.7017E+01E
 Epicentro: LOS SANTOS - SANTANDER                                             3
 ACTION:UPD 12-07-13 15:58 OP:ep   STATUS:               ID:20110919001626 L   I
 2011-09-19-0014-39S.COL___171                                                 6
 STAT SP IPHASW D HRMM SECON CODA AMPLIT PERI AZIMU VELO AIN AR TRES W  DIS CAZ7
 SAN  SZ EP        016 47.14                             178    0.6710 3.97 184 
 BTL  SZ EP        016 46.80                             170    0.0110 25.3 301 
 BAR2 SZ IP        016 46.60                             170   -0.2110 26.1 208 
 BAR2 SZ ES   2    017  2.07                             170   -0.46 5 26.1 208 
 BAR2 SZ I         017  3.47       377.5 0.28                          26.1 208 
 GIR2 SZ IP        016 46.73                             167   -0.1210 33.6 336 
 GIR2 SZ ES   1    017  2.58                             167   -0.02 7 33.6 336 
 PAM  SZ IP        016 49.42                             153    0.4210 72.3  35 
 PAM  SN ES   1    017  6.83                             153    0.41 7 72.3  35 
 BRR  HZ IP     C  016 48.54                             151   -0.1010 78.5 296 
 BRR  HZ I         016 48.76       572.2 0.16                          78.5 296 
 BRR  HN ES   1    017  6.29                             151    0.49 7 78.5 296 
 RUS  HZ EP        016 50.55                             145   -0.2310  100 181 
 RUS  HN ES   1    017  8.88                             145   -0.71 7  100 181 
 RUS  HZ I         017 10.34       172.2 0.36                           100 181 
 OCA  SZ EP        016 54.96                             130   -0.41 9  161 350 
 OCA  SZ ES   1    017 17.19       246.2 0.30            130   -0.58 7  161 350 
 OCA  SZ I         017 22.89       246.2 0.30                           161 350 
 YOP  SZ EP        016 57.05                             128    0.41 9  175 156 
 ZAR  HZ EP        016 59.22                             122   -0.92 8  212 291 
 ZAR  HZ I         017 31.64       256.5 0.30                           212 291 
 CTAB SZ EP   1    017  3.89                             120    0.79 6  234 212 
 NOR  SZ EP   2    017  2.43                             118   -0.91 4  242 236 
 CHI  HZ EP        017  4.55                             118   -0.27 8  251 197 
 CHI  HN ES   1    017 34.62                             118    0.02 6  251 197 
 ROSC BZ EP   1    017  5.58                             117    0.11 6  257 213 
 ROSC BZ I         017 40.16       118.6 0.40                           257 213 
 HEL  HZ EP        017  8.65                             115    0.70 7  280 256 
 HEL  HZ I         017 45.03        72.5 0.36                           280 256 
 VIL  SZ EP        017  9.66                             113   -0.80 7  305 193 
 VIL  SN ES   2    017 44.46                             113   -0.16 4  305 193 
 GUY  SZ EP        017 12.43                             112    0.95 7  310 236 
 GUY  SN ES   1    017 45.92                             112   -0.52 5  310 236 
 GUY  SZ I         017 50.96        99.0 0.42                           310 236 
 RREF HZ EP        017 13.89                             111    0.20 7  328 230 
 RREF HN ES   1    017 51.37                             111    0.99 5  328 230 
 RREF HZ I         017 57.84        89.2 0.46                           328 230 
 COD  HZ EP   2    017 15.28                             109    0.00 3  349 353 
 COD  HZ I         018  1.33        65.5 0.62                           349 353 
 PRA  HZ EP   3    017 20.07                             107   -0.73 1  396 211 
 PRA  HN ES   1    018  2.38                             107   -0.65 4  396 211 
                                                                                
