 2010 1019 0904 39.0 L   6.788 -73.097147.1  RSN 10 0.2 2.1LRSN                1
 GAP=164        0.51       2.3     4.6  4.5 -0.2876E+01  0.7782E+01 -0.1497E+01E
 Epicentro: LOS SANTOS - SANTANDER                                             3
 ACTION:UP  11-02-18 11:10 OP:tino STATUS:               ID:20101019090439 L   I
 2010-10-19-0901-53S.COL___123                                                 6
 STAT SP IPHASW D HRMM SECON CODA AMPLIT PERI AZIMU VELO SNR AR TRES W  DIS CAZ7
 BAR2 SZ IP        9 4 58.70                             171    -0.110   24 204 
 BAR2 SZ ES   1    9 5 14.42                             171     0.1 7   24 204 
 BAR2 SZ I         9 5 15.65        33.3 0.32                            24 204 
 BRR  HZ IP     D  9 5  0.67                             151     0.010   77 298 
 BRR  HZ I         9 5 22.34        35.4 0.12                            77 298 
 RUS  HZ EP        9 5  2.63                             145    -0.210   99 179 
 RUS  HN ES   1    9 5 21.40                             145     0.1 7   99 179 
 RUS  HZ I         9 5 22.79        19.1 0.59                            99 179 
 GRA  SZ IP        9 5  4.60                             137     0.210  126  15 
 GRA  SZ I         9 5 30.10        10.1 0.49                           126  15 
 OCA  SZ EP   1    9 5  7.68                             129     0.0 7  162 351 
 OCA  SZ ES   1    9 5 29.88                             129    -0.1 7  162 351 
 OCA  SZ I         9 5 35.47        16.9 0.33                           162 351 
 NOR  SZ EP   1    9 5 14.89                             118    -0.4 6  238 236 
 NOR  SE ES   2    9 5 43.87                             118     0.4 4  238 236 
 CHI  HZ EP   2    9 5 17.00                             117     0.2 4  249 196 
 CHI  HE ES   2    9 5 46.10                             117    -0.2 4  249 196 
 CHI  HZ I         9 5 51.88        10.5 0.21                           249 196 
 HEL  HZ EP   1    9 5 20.07                             115     0.2 6  277 256 
 HEL  HN ES   2    9 5 51.30                             115    -0.4 4  277 256 
 HEL  HZ I         9 5 57.47         8.5 0.40                           277 256 
 TOL  SZ EP   1    9 5 28.35                             109     0.7 5  346 225 
 PRA  HZ EP   1    9 5 32.50                             107    -0.3 4  393 210 
                                                                                
