 2015 1019 0535 48.5 L   6.808 -73.068140.8  RSN  8 0.5 1.4LRSN                1
 GAP=146        1.08       4.1     5.2  8.0 -0.1938E+01  0.1302E+02 -0.1162E+01E
 Epicentro: LOS SANTOS - SANTANDER                                             3
 ACTION:UPD 15-12-22 20:41 OP:cam  STATUS:               ID:20151019053548 L   I
 OLDACT:UP  15-10-19 14:10 OP:mh   STATUS:               ID:20151019052748     3
 OLDACT:UP  15-10-19 14:07 OP:mh   STATUS:               ID:20151019052748     3
 OLDACT:REG 15-10-19 12:43 OP:mh   STATUS:               ID:20151019052748     3
 2015-10-19-0527-48M.COL___331                                                 6
 STAT SP IPHASW D HRMM SECON CODA AMPLIT PERI AZIMU VELO AIN AR TRES W  DIS CAZ7
 BAR2 EZ EP        536  7.30                             169   -0.2710 27.0 208 
 BAR2 EZ ES   1    536 22.50                             169    0.03 7 27.0 208 
 BAR2 EZ I         536 23.59         4.3 0.26            169           27.0 208 
 PAM  EZ EP        536 10.19                             152    0.4010 71.5  35 
 PAM  EN ES   1    536 27.01                             152    0.58 7 71.5  35 
 PAM  EZ I         536 29.05         8.1 0.54            154           71.5  35 
 BRR  HZ EP   1    536  9.28                             149   -0.22 7 78.4 295 
 BRR  HN ES        536 25.81                             149   -0.1110 78.4 295 
 BRR  HZ I         536 29.16         4.9 0.30            149           78.4 295 
 RUS  HZ EP        536 11.69                             142   -0.0810  101 181 
 RUS  HE ES        536 29.90                             142   -0.0510  101 181 
 RUS  HZ I         536 32.55         1.7 0.40            146            101 181 
 OCA  HZ EP   1    536 15.54                             128   -0.87 7  161 350 
 OCA  HN ES        536 37.86                             128   -0.36 9  161 350 
 OCA  HZ I         536 42.00         6.8 0.48            130            161 350 
 ZAR  HZ EP        536 22.11                             120    0.73 8  212 291 
 ZAR  HN ES   1    536 47.85                             120    0.79 6  212 291 
 ZAR  HZ I         536 51.50         2.4 0.12            121            212 291 
 HEL  HE ES        537  0.34                             113   -0.94 7  281 256 
 HEL  HZ I         537  5.43         1.7 0.48            115            281 256 
 GUY2CHN ES        537  7.77                             111    0.57 7  309 236 
 GUY2CHZ I         537 13.69         1.5 0.70                           309 236 
                                                                                
