 2013  719 0537 23.6 L   6.736 -73.139154.0  RSN  4 0.4 1.3LRSN                1
 GAP=233        0.80       9.2    10.1 10.5  0.3898E+02  0.3618E+02 -0.2606E+01E
 Epicentro: JORDAN - SANTANDER                                                 3
 ACTION:UPD 13-08-12 10:38 OP:ep   STATUS:               ID:20130719052960dL   I
 OLDACT:UP  13-07-19 11:18 OP:mh   STATUS:               ID:20130719052960dL   3
 OLDACT:UP  13-07-19 11:18 OP:mh   STATUS:               ID:20130719052960dL   3
 OLDACT:DUP 13-07-19 11:16 OP:mh   STATUS:               ID:20130719052960dL   3
 OLDACT:UPD 13-07-19 09:03 OP:stll STATUS:               ID:20130719052959 L   3
 2013-07-19-0529-59M.COL___266                                                 6
 STAT SP IPHASW D HRMM SECON CODA AMPLIT PERI AZIMU VELO AIN AR TRES W  DIS CAZ7
 BAR2 SZ ES   1    537 59.98                             174   -0.14 7 16.6 197 
 BAR2 SZ I         538  0.96         3.1 0.50            166           16.6 197 
 BRR  HZ EP   1    537 45.33                             153   -0.56 7 75.4 303 
 BRR  HN ES   1    538  3.70                             153    0.44 7 75.4 303 
 BRR  HN I         538  8.24         6.6 0.28            149           75.4 303 
 RUS  HN ES   1    538  6.59                             147    0.10 7 93.5 176 
 RUS  HN I         538  8.31         2.4 0.26            149           93.5 176 
 PTB  HZ EP   1    537 51.80                             134    0.58 7  147 262 
 PTB  HN ES   1    538 12.36                             134   -0.39 7  147 262 
 PTB  HN I         538 18.50         2.5 0.32            132            147 262 
                                                                                
