 2013  519 0040 33.1 L   6.409 -73.694 17.7  RSN  5 0.4 1.3LRSN                1
 GAP=133        0.77       3.0     2.8  6.6  0.3137E+01  0.9739E+01  0.7621E+01E
 Epicentro: SANTA HELENA DEL OPON - SANTANDER                                  3
 ACTION:UPD 13-06-20 09:51 OP:ep   STATUS:               ID:20130519004033 L   I
 2013-05-19-0040-00M.COL___256                                                 6
 STAT SP IPHASW D HRMM SECON CODA AMPLIT PERI AZIMU VELO AIN AR TRES W  DIS CAZ7
 BRR  HZ EP   1    040 45.45                             100   -0.11 9 77.3 359 
 BRR  HE ES   1    040 55.41                             100    0.11 9 77.3 359 
 BRR  HZ I         040 57.81         6.6 0.16             96           77.3 359 
 PTB  HZ EP   1    040 46.12                              99   -0.69 9 85.5 280 
 PTB  HE ES   1    040 57.85                              99    0.33 9 85.5 280 
 RUS  HZ EP   1    040 48.23                              99    0.48 9 88.5 130 
 RUS  HN ES   1    040 58.92                              99   -0.28 9 88.5 130 
 GIR2 SZ EP   1    040 47.85                              99   -0.13 9 92.5  37 
 HEL  HZ EP        041  3.58                              56    0.4310  204 263 
 HEL  HN ES   1    041 26.25                              56   -0.36 7  204 263 
 HEL  HZ I         041 27.98         3.8 0.36             56            204 263 
                                                                                
