 2015  519 0742 27.5 L   6.035 -73.715111.1  RSN  5 0.4 1.3LRSN                1
 GAP=179        0.82       3.9     5.6  9.6 -0.8666E+01  0.2487E+02 -0.2737E+01E
 Epicentro: VELEZ - SANTANDER                                                  3
 ACTION:UPD 15-09-10 22:05 OP:cam  STATUS:               ID:20150519074227 L   I
 OLDACT:REG 15-05-19 13:00 OP:spq  STATUS:               ID:20150519073747     3
 2015-05-19-0737-47M.COL___280                                                 6
 STAT SP IPHASW D HRMM SECON CODA AMPLIT PERI AZIMU VELO AIN AR TRES W  DIS CAZ7
 SPBC HZ EP   1    742 44.02                             150   -0.32 8 57.9 223 
 SPBC HE ES   1    742 57.04                             150   -0.39 8 57.9 223 
 SPBC HZ I         743  3.58         5.6 0.38            154           57.9 223 
 BAR2 EZ EP   1    742 46.14                             140   -0.32 8 85.3  44 
 BAR2 EZ ES   1    743  1.52                             140    0.30 8 85.3  44 
 BAR2 EZ I         743  2.74        10.6 0.32            150           85.3  44 
 BRR  HN ES        743  6.14                             129    0.3510  119   0 
 BRR  HZ I         743  9.03         2.0 0.26            138            119   0 
 GUY2CHZ EP        742 58.69                             114    0.16 9  204 244 
 GUY2CHN ES   1    743 23.41                             114    0.70 7  204 244 
 GUY2CHZ I         743 26.96         1.3 0.34                           204 244 
 ZAR  HE ES        743 21.45                             113   -0.44 9  205 322 
 ZAR  HZ I         743 22.99         2.8 0.28            121            205 322 
                                                                                
