 2014 1219 0121  5.3 L   6.785 -73.195143.2  RSN  6 0.4 1.5LRSN                1
 GAP=196        1.02       4.2     6.5  8.0  0.1244E+02  0.2519E+01 -0.7595E+01E
 Epicentro: ZAPATOCA - SANTANDER                                               3
 ACTION:UPD 15-02-10 17:05 OP:nd   STATUS:               ID:20141219012105 L   I
 OLDACT:REG 14-12-19 12:43 OP:y    STATUS:               ID:20141219011748     3
 2014-12-19-0117-48M.COL___296                                                 6
 STAT SP IPHASW D HRMM SECON CODA AMPLIT PERI AZIMU VELO AIN AR TRES W  DIS CAZ7
 BAR2 EZ ES   1    121 40.51                             171    0.84 7 21.4 176 
 BAR2 EZ I         121 41.45        11.8 0.16            168           21.4 176 
 RUS  HZ EP        121 28.95                             143    0.1910 99.5 173 
 RUS  HE ES        121 46.44                             143   -0.5910 99.5 173 
 RUS  HZ I         121 49.22         2.9 0.24            145           99.5 173 
 PTB  HZ EP        121 31.78                             133    0.20 9  142 259 
 PTB  HE ES        121 52.33                             133    0.28 9  142 259 
 PTB  HZ I         122  0.14         3.4 0.40            131            142 259 
 ZAR  HZ EP        121 37.50                             122    0.34 9  200 293 
 ZAR  HN ES        122  1.59                             122   -0.39 9  200 293 
 ZAR  HZ I         122  9.14         3.6 0.34            122            200 293 
 SML  HZ EP        121 41.77                             117    0.03 8  243 337 
 SML  HN ES        122  9.53                             117   -0.60 8  243 337 
 SML  HZ I         122 14.17         3.4 0.24            119            243 337 
 CHI  HZ EP        121 42.93                             117    0.36 8  246 194 
 CHI  HN ES        122 11.10                             117   -0.52 8  246 194 
 CHI  HZ I         122 16.38         2.1 0.84            118            246 194 
                                                                                
