 2011  819 0324 43.3 L   6.781 -73.152148.9  RSN  6 0.2 1.9LRSN                1
 GAP=183        0.40       3.8     8.1  5.9  0.1720E+02 -0.1787E+02 -0.4576E+01E
 Epicentro: LOS SANTOS - SANTANDER                                             3
 *GIR-BRR-RUS-CHI                                                              3
 ACTION:UPD 12-07-13 15:52 OP:ep   STATUS:               ID:20110819032443 L   I
 2011-08-19-0320-00M.COL___151                                                 6
 STAT SP IPHASW D HRMM SECON CODA AMPLIT PERI AZIMU VELO AIN AR TRES W  DIS CAZ7
 BAR2 SZ EP   1    325  3.12                             171   -0.12 7 21.1 189 
 GIR2 SZ EP   1    325  3.39                             167    0.01 7 33.2 352 
 BRR  HZ EP   1    325  4.99                             153    0.20 7 71.6 300 
 BRR  HN ES   1    325 21.56                             153   -0.01 7 71.6 300 
 BRR  HZ I         325 22.75        21.4 0.12                          71.6 300 
 RUS  HZ EP   1    325  7.39                             145    0.20 7 98.5 176 
 RUS  HZ I         325  8.49         8.9 0.14                          98.5 176 
 RUS  HE ES   2    325 25.51                             145   -0.34 5 98.5 176 
 CHI  HE ES   2    325 50.27                             118    0.01 4  246 195 
 SJC  HZ EP   1    325 38.67                             106   -0.43 4  411 327 
                                                                                
