 2013  719 0545 50.8 L   6.393 -73.688101.7  RSN  5 0.5 1.5LRSN                1
 GAP=139        1.02       5.7     5.9 11.1 -0.8450E+01  0.2130E+02  0.1314E+02E
 Epicentro: SANTA HELENA DEL OPON - SANTANDER                                  3
 ACTION:UPD 13-08-12 10:38 OP:ep   STATUS:               ID:20130719053959 L   I
 OLDACT:UP  13-07-19 11:22 OP:mh   STATUS:               ID:20130719053959 L   3
 OLDACT:UPD 13-07-19 09:03 OP:stll STATUS:               ID:20130719053959 L   3
 2013-07-19-0539-59M.COL___267                                                 6
 STAT SP IPHASW D HRMM SECON CODA AMPLIT PERI AZIMU VELO AIN AR TRES W  DIS CAZ7
 BAR2 SZ ES   1    546 19.55                             146    0.01 7 60.2  68 
 BRR  HZ EP   1    546  8.15                             138    0.16 7 79.1 358 
 BRR  HN ES        546 21.74                             138    0.3210 79.1 358 
 BRR  HN I         546 30.51         6.9 0.16            140           79.1 358 
 PTB  HZ EP   1    546  8.12                             136   -0.51 7 86.5 281 
 PTB  HN ES        546 21.99                             136   -0.5610 86.5 281 
 PTB  HN I         546 24.67         9.7 0.28            137           86.5 281 
 SPBC HZ EP   1    546  8.55                             134   -0.67 7 92.2 207 
 SPBC HN ES   1    546 24.19                             134    0.58 7 92.2 207 
 SPBC HN I         546 26.84        10.2 0.42            140           92.2 207 
 HEL  HZ EP   1    546 21.83                             110    0.48 6  205 264 
 HEL  HN ES   1    546 45.90                             110    0.71 6  205 264 
 HEL  HN I         546 51.53         1.9 0.68            114            205 264 
                                                                                
