 2017  319 0713  1.6 L   6.800 -73.201146.4  RSN  4 0.2 1.1LRSN                1
 GAP=186        0.52       4.1     6.5  4.9 -0.2057E+02  0.5951E+01 -0.2420E+01E
 Epicentro: ZAPATOCA - SANTANDER                                               3
 ACTION:UPD 17-05-25 18:42 OP:jn   STATUS:               ID:20170319071301 L   I
 OLDACT:DUP 17-03-19 16:58 OP:cog  STATUS:               ID:20170319070650d    3
 2017-03-19-0707-00M.COL___400                                                 6
 STAT SP IPHASW D HRMM SECON CODA AMPLIT PERI AZIMU VELO AIN AR TRES W  DIS CAZ7
 BAR2 EZ EP        713 20.85                             171   -0.4010 23.1 175 
 BAR2 EZ ES        713 36.59                             171   -0.0310 23.1 175 
 BAR2 EZ I         713 38.64         5.0 0.32            172           23.1 175 
 PAM  EZ EP        713 24.22                             150    0.1410 81.4  43 
 PAM  EE ES        713 41.72                             150    0.0810 81.4  43 
 PAM  EZ I         713 44.20         1.8 0.46            151           81.4  43 
 RUS  HZ IPg       713 25.52                             144    0.1110  101 173 
 RUS  HE ES        713 44.01                             144   -0.0110  101 173 
 RUS  HZ I         713 44.63         1.1 0.22            147            101 173 
 SPBC HN ES        713 51.87                             130    0.14 9  159 217 
                                                                                
