 2015  319 0735 16.9 L   6.806 -73.084136.1  RSN  5 0.2 1.2LRSN                1
 GAP=100        0.60       3.2     3.9  5.6 -0.2963E+00 -0.6361E+01  0.3689E+01E
 Epicentro: LOS SANTOS - SANTANDER                                             3
 ACTION:UPD 15-04-30 16:27 OP:nd   STATUS:               ID:20150319073516 L   I
 OLDACT:DUP 15-03-19 18:23 OP:stll STATUS:               ID:20150319072746d    3
 2015-03-19-0727-45M.COL___275                                                 6
 STAT SP IPHASW D HRMM SECON CODA AMPLIT PERI AZIMU VELO AIN AR TRES W  DIS CAZ7
 BAR2 EZ EP        735 35.17                             169   -0.2310 26.1 205 
 PAM  SZ IP     C  735 38.05                             151    0.2810 72.7  36 
 PAM  SZ I         735 38.21         6.2 0.16            152           72.7  36 
 PAM  SE ES        735 53.85                             151   -0.2310 72.7  36 
 BRR  HZ EP        735 37.10                             149   -0.2310 77.0 296 
 BRR  HE ES        735 53.56                             149    0.2710 77.0 296 
 RUS  HZ EP        735 39.61                             142   -0.1010  101 180 
 RUS  HE ES        735 57.60                             142    0.0710  101 180 
 RUS  HN ES        735 57.74                                            101 180 
 RUS  HZ I         735 59.62         1.2 0.24            141            101 180 
 TAM  HZ EP        735 43.39                             129    0.20 9  149 106 
                                                                                
