 2015  819 0213 54.2 L   6.791 -73.111141.6  RSN 11 0.4 1.7LRSN                1
 GAP= 73        0.85       2.6     3.4  5.4 -0.8471E+00  0.1185E+01 -0.4043E+00E
 Epicentro: LOS SANTOS - SANTANDER                                             3
 ACTION:UPD 15-09-15 23:03 OP:cam  STATUS:               ID:20150819021354 L   I
 OLDACT:REG 15-08-19 12:59 OP:spq  STATUS:               ID:20150819020736     3
 2015-08-19-0207-36M.COL___346                                                 6
 STAT SP IPHASW D HRMM SECON CODA AMPLIT PERI AZIMU VELO AIN AR TRES W  DIS CAZ7
 BAR2 EZ EP        214 13.26                             170   -0.0510 23.4 200 
 BAR2 EZ ES   1    214 27.84                             170   -0.39 7 23.4 200 
 BAR2 EZ I         214 28.93         9.0 0.38            170           23.4 200 
 BRR  HZ EP        214 15.29                             150    0.1810 75.0 298 
 BRR  HN ES        214 31.76                             150    0.3310 75.0 298 
 BRR  HZ I         214 36.10         8.0 0.14            149           75.0 298 
 PAM  EZ EP        214 16.10                             151    0.2410 75.8  37 
 PAM  EN ES        214 33.07                             151    0.3110 75.8  37 
 PAM  EZ I         214 35.37        10.3 0.34            153           75.8  37 
 RUS  HZ EP        214 17.23                             143   -0.2110 99.4 178 
 RUS  HE ES        214 35.46                             143   -0.1210 99.4 178 
 RUS  HZ I         214 36.52         3.8 0.36            147           99.4 178 
 TAM  HZ EP        214 21.61                             130    0.44 9  151 105 
 OCA  HZ EP        214 22.08                             128   -0.23 9  162 352 
 OCA  HE ES        214 43.65                             128   -0.60 9  162 352 
 OCA  HZ I         214 49.58        15.4 0.46            130            162 352 
 SPBC HZ EP        214 22.38                             128   -0.15 9  165 220 
 SPBC HE ES        214 44.17                             128   -0.47 9  165 220 
 SPBC HZ I         214 48.22         5.9 0.44            130            165 220 
 ZAR  HN ES        214 52.76                             121    0.58 8  208 292 
 ZAR  HZ I         214 57.91         5.6 0.24            122            208 292 
 NOR  HE ES        214 58.22                             117    0.37 8  237 235 
 NOR  HZ I         215  0.58         3.7 0.22            119            237 235 
 SML  HZ EP   1    214 30.63                             116   -0.22 6  246 335 
 SML  HE ES   1    214 58.83                             116   -0.62 6  246 335 
 SML  HZ I         215  1.36         7.0 0.26            118            246 335 
 SJC  HZ EP   4    214 48.27                             105   -1.68 0  412 327 
 SJC  HN ES   4    215 30.24                             105   -3.21 0  412 327 
 SJC  HZ I         215 33.88         1.8 0.44            106            412 327 
                                                                                
