 2012  119 0521  1.8 L   6.561 -73.246134.1  RSN  4 0.4 1.1LRSN                1
 GAP=207        0.93       9.2     9.5 12.6  0.5762E+02  0.1352E+02 -0.5067E+01E
 Epicentro: CABRERA - SANTANDER                                                3
 ACTION:UP  12-02-03 08:18 OP:REBC STATUS:               ID:20120119052101 L   I
 2012-01-19-0520-00M.COL___187                                                 6
 STAT SP IPHASW D HRMM SECON CODA AMPLIT PERI AZIMU VELO SNR AR TRES W  DIS CAZ7
 RUS  HZ EP   1    521 23.25                             149     0.5 7   76 166 
 RUS  HZ I         521 25.94         0.6 0.07                            76 166 
 RUS  HN ES   1    521 38.59                             149    -0.5 7   76 166 
 BRR  HZ EP   1    521 21.75                             147    -0.5 7   79 320 
 BRR  HN ES   1    521 38.65                             147     0.5 7   79 320 
 BRR  HN I         521 43.03         8.8 0.16                            79 320 
 PTB  HZ EP   1    521 26.84                             132     0.2 7  134 269 
 PTB  HN ES   1    521 46.05                             132     0.1 7  134 269 
 ZAR  HN ES   1    521 58.13                             119    -0.5 6  206 300 
                                                                                
