 2015  119 0402 55.0 L   6.806 -73.165147.7  RSN 10 0.4 1.7LRSN                1
 GAP=134        1.06       2.9     4.4  5.9 -0.1582E-01  0.5856E+01  0.4085E+00E
 Epicentro: LOS SANTOS - SANTANDER                                             3
 ACTION:UPD 15-03-02 15:40 OP:nd   STATUS:               ID:20150119040255 L   I
 OLDACT:REG 15-01-19 12:47 OP:carl STATUS:               ID:20150119035741     3
 2015-01-19-0357-41M.COL___259                                                 6
 STAT SP IPHASW D HRMM SECON CODA AMPLIT PERI AZIMU VELO AIN AR TRES W  DIS CAZ7
 BAR2 EZ EP        4 3 15.01                             170    0.1210 23.7 185 
 BAR2 EZ ES        4 3 29.85                             170   -0.5410 23.7 185 
 BAR2 EZ I         4 3 30.99        12.8 0.22            171           23.7 185 
 BRR  HZ IP     C  4 3 16.59                             154    0.3310 69.0 299 
 BRR  HN ES        4 3 33.60                             154    0.7710 69.0 299 
 BRR  HZ I         4 3 34.84         9.8 0.12            151           69.0 299 
 PAM  SZ EP        4 3 17.67                             151    0.1710 78.3  41 
 PAM  SN ES        4 3 34.74                             151   -0.2910 78.3  41 
 PAM  SZ I         4 3 37.51         8.3 0.38            152           78.3  41 
 RUS  HZ EP        4 3 19.01                             144   -0.0110  101 175 
 RUS  HN ES        4 3 37.72                             144   -0.0210  101 175 
 RUS  HZ I         4 3 38.57         7.1 0.24            146            101 175 
 PTB  HZ EP        4 3 21.34                             133   -0.63 9  146 258 
 PTB  HN ES        4 3 42.50                             133   -0.49 9  146 258 
 PTB  HZ I         4 3 44.71         8.0 0.30            132            146 258 
 OCA  HN ES        4 3 46.06                             130    0.52 9  159 354 
 OCA  HZ I         4 3 51.12         4.0 0.50            130            159 354 
 SPBC HZ EP        4 3 23.71                             130    0.12 9  162 218 
 SPBC HN ES        4 3 46.33                             130    0.46 9  162 218 
 SPBC HZ I         4 3 52.15         8.0 0.20            130            162 218 
 ZAR  HZ EP        4 3 27.41                             123    0.04 9  202 292 
 ZAR  HN ES        4 3 52.76                             123    0.16 9  202 292 
 ZAR  HZ I         4 3 58.10         6.5 0.44            123            202 292 
 SML  HZ EP        4 3 31.61                             118    0.01 8  242 336 
 SML  HN ES        4 3 59.14                             118   -0.99 8  242 336 
 SML  HZ I         4 4  6.82         5.2 0.10            118            242 336 
 CHI  HZ EP        4 3 33.13                             117    0.30 8  249 195 
 CHI  HN ES        4 4  2.04                             117   -0.28 8  249 195 
 CHI  HZ I         4 4  5.72         3.5 0.36            119            249 195 
                                                                                
