 2013  519 0145  4.0 L   6.800 -73.162148.0  RSN 12 0.5 2.1LRSN                1
 GAP=134        1.01       3.7     5.0  6.5  0.7067E-01  0.1197E+02  0.2420E+01E
 Epicentro: LOS SANTOS - SANTANDER                                             3
 ACTION:UPD 13-06-20 09:51 OP:ep   STATUS:               ID:20130519014504 L   I
 2013-05-19-0140-00M.COL___256                                                 6
 STAT SP IPHASW D HRMM SECON CODA AMPLIT PERI AZIMU VELO AIN AR TRES W  DIS CAZ7
 BAR2 SZ EP        145 23.96                             171    0.0210 23.1 186 
 BAR2 SZ ES        145 39.32                             171   -0.1410 23.1 186 
 BAR2 SZ I         145 40.72        21.7 0.18            170           23.1 186 
 BRR  HZ EP        145 25.90                             153    0.5510 69.6 299 
 BRR  HN ES        145 42.57                             153    0.6010 69.6 299 
 BRR  HZ I         145 46.53        19.2 0.40            150           69.6 299 
 PAM  SN ES   1    145 44.10                             151   -0.03 7 78.5  41 
 PAM  SZ I         145 46.27        20.3 0.58            154           78.5  41 
 RUS  HZ EP        145 27.81                             144   -0.2210  101 175 
 RUS  HN ES        145 46.83                             144    0.0910  101 175 
 RUS  HZ I         145 47.96        11.0 0.62            146            101 175 
 PTB  HZ EP        145 30.67                             133   -0.37 9  146 259 
 PTB  HN ES   1    145 51.51                             133   -0.59 7  146 259 
 PTB  HZ I         145 53.90        14.9 0.22            132            146 259 
 OCA  HN ES   1    145 53.68                             130   -1.03 7  160 354 
 OCA  HZ I         145 59.14        15.9 0.40            131            160 354 
 ZAR  HE ES   1    146  2.12                             123    0.36 6  202 292 
 ZAR  HZ I         146  7.60        11.4 0.14            123            202 292 
 NOR  HZ EP   1    145 39.90                             119    0.14 6  233 234 
 NOR  HN ES        146  7.37                             119   -0.24 8  233 234 
 NOR  HZ I         146 13.45         9.7 0.26            119            233 234 
 SML  HZ EP   1    145 40.06                             118   -0.66 6  243 336 
 SML  HE ES   1    146 10.02                             118    0.70 6  243 336 
 HEL  HN ES   1    146 14.65                             115   -0.84 6  270 256 
 HEL  HZ I         146 22.16         6.6 0.42            116            270 256 
 GUY2CHZ EP   1    145 48.68                             113    1.08 5  300 235 
 GUY2CHE ES   4    146 24.89                             113    3.32 0  300 235 
 PRA  HZ EP   1    145 57.55                             107    0.00 4  391 209 
 PRA  HN ES   1    146 39.92                             107    0.64 4  391 209 
 PRA  HZ I         146 45.62         8.2 0.28            108            391 209 
                                                                                
