 2011 1219 0336 27.4 L   6.747 -73.092142.3  RSN  6 0.2 1.9LRSN                1
 GAP=146        0.41       2.2     3.9  3.6 -0.1630E+01  0.1163E+00  0.1417E+01E
 Epicentro: LOS SANTOS - SANTANDER                                             3
 ACTION:UPD 12-07-13 16:17 OP:ep   STATUS:               ID:20111219033627 L   I
 2011-12-19-0330-00M.COL___188                                                 6
 STAT SP IPHASW D HRMM SECON CODA AMPLIT PERI AZIMU VELO AIN AR TRES W  DIS CAZ7
 BAR2 SZ EP        336 46.67                             172    0.1110 19.8 210 
 BAR2 SZ ES   1    337  1.67                             172    0.19 7 19.8 210 
 BAR2 SZ I         337  3.21        22.4 0.11                          19.8 210 
 GIR2 SZ EP   1    336 46.77                             164   -0.12 7 38.4 343 
 PAM  SZ EP        336 49.49                             150    0.1610 78.6  33 
 PAM  SN ES   1    337  6.13                             150   -0.30 7 78.6  33 
 BRR  HZ EP        336 48.51                             149   -0.1610 79.2 300 
 BRR  HE ES   1    337  5.32                             149    0.08 7 79.2 300 
 BRR  HZ I         337  9.82        13.4 0.12                          79.2 300 
 RUS  HZ EP   1    336 50.46                             145    0.08 7 94.4 179 
 RUS  HN ES   1    337  8.26                             145   -0.04 7 94.4 179 
 RUS  HZ I         337 11.34        14.2 0.54                          94.4 179 
 CHI  HZ EP   1    337  4.63                             117    0.15 6  245 197 
 CHI  HN ES   1    337 33.10                             117   -0.29 6  245 197 
 CHI  HZ I         337 44.02         4.5 0.14                           245 197 
                                                                                
