 2014 1119 0011 39.8 L   6.811 -73.189136.0  RSN 13 0.5 1.9LRSN                1
 GAP=131        1.11       3.7     4.4  6.0 -0.4937E+01  0.8028E+01  0.5311E+01E
 Epicentro: ZAPATOCA - SANTANDER                                               3
 ACTION:UPD 14-12-19 15:44 OP:nd   STATUS:               ID:20141119001139 L   I
 OLDACT:REG 14-11-19 13:19 OP:fm   STATUS:               ID:20141119000744     3
 2014-11-19-0007-44M.COL___286                                                 6
 STAT SP IPHASW D HRMM SECON CODA AMPLIT PERI AZIMU VELO AIN AR TRES W  DIS CAZ7
 BAR2 SZ EP        011 58.24                             169   -0.0210 24.2 178 
 BAR2 SZ ES        012 13.08                             169    0.4110 24.2 178 
 BAR2 SZ I         012 14.33        15.3 0.18            168           24.2 178 
 BRR  HZ EP        012  0.17                             153    0.5610 66.4 300 
 BRR  HN ES        012 15.82                             153    0.7510 66.4 300 
 BRR  HZ I         012 20.77        14.1 0.16            150           66.4 300 
 PAM  SZ EP        012  1.17                             149    0.0610 79.6  43 
 PAM  SN ES        012 17.61                             149   -0.1410 79.6  43 
 PAM  SZ I         012 19.94        17.6 0.48            154           79.6  43 
 RUS  HZ EP        012  1.94                             141   -0.7710  102 173 
 RUS  HN ES        012 20.65                             141    0.0510  102 173 
 RUS  HZ I         012 22.31         7.7 0.44            143            102 173 
 PTB  HZ EP        012  4.94                             131   -0.62 9  143 258 
 PTB  HN ES        012 25.38                             131   -0.28 9  143 258 
 PTB  HZ I         012 28.36         8.1 0.18            130            143 258 
 OCA  HN ES        012 27.95                             128   -0.62 9  159 355 
 OCA  HZ I         012 31.54         9.4 0.42            130            159 355 
 SPBC HZ EP        012  7.14                             127   -0.22 9  161 217 
 SPBC HE ES        012 28.90                             127    0.04 9  161 217 
 SPBC HZ I         012 33.03        14.0 0.48            128            161 217 
 NOR  HZ EP        012 14.87                             117    0.25 8  232 234 
 NOR  HN ES        012 41.48                             117   -0.31 8  232 234 
 NOR  HZ I         012 49.97         6.0 0.18            118            232 234 
 HEL  HZ EP        012 19.99                             113    0.96 8  268 255 
 HEL  HN ES        012 48.91                             113   -0.73 8  268 255 
 HEL  HZ I         012 55.94         4.4 0.32            114            268 255 
 TOL  SZ EP        012 27.88                             108    0.50 7  341 224 
 TOL  SN ES        013  4.63                             108    0.13 7  341 224 
 TOL  SZ I         013 12.78         5.9 0.36            109            341 224 
 MON  HZ EP   4    012 25.24                             107   -2.66 0  349 309 
 MON  HN ES   4    013  4.18                             107   -1.25 0  349 309 
 MON  HZ I         013  7.37         1.5 0.32            108            349 309 
 PRA  HZ EP        012 32.97                             105    0.14 6  391 209 
 PRA  HN ES        013 13.76                             105   -0.45 6  391 209 
 PRA  HZ I         013 22.06         2.9 0.22            106            391 209 
 ORTC HZ EP        012 33.86                             105    0.69 6  394 215 
 ORTC HN ES        013 15.05                             105    0.24 6  394 215 
 ORTC HZ I         013 23.02         2.0 0.56            106            394 215 
                                                                                
