 2015  819 0811 24.4 L   6.917 -73.073150.0  RSN  4 0.3 1.2LRSN                1
 GAP=226        0.67       7.5     7.3  7.9  0.3459E+02 -0.1864E+02 -0.3134E+02E
 Epicentro: PIEDECUESTA - SANTANDER                                            3
 ACTION:UPD 15-09-15 23:03 OP:cam  STATUS:               ID:20150819081124 L   I
 OLDACT:REG 15-08-19 13:19 OP:spq  STATUS:               ID:20150819080750     3
 2015-08-19-0807-50M.COL___334                                                 6
 STAT SP IPHASW D HRMM SECON CODA AMPLIT PERI AZIMU VELO AIN AR TRES W  DIS CAZ7
 BAR2 EZ EP        811 44.72                             165   -0.1510 37.9 199 
 BAR2 EZ ES   1    812  0.53                             165   -0.34 7 37.9 199 
 BAR2 EZ I         812  3.59         1.5 0.22            177           37.9 199 
 BRR  HZ EP        811 46.34                             153    0.2410 73.6 287 
 BRR  HE ES        812  3.43                             153    0.3710 73.6 287 
 BRR  HZ I         812  4.73         3.1 0.54            153           73.6 287 
 ZAR  HN ES        812 22.89                             123   -0.28 8  207 288 
 ZAR  HZ I         812 24.80         2.2 0.26            126            207 288 
 SML  HZ EP   1    812  0.57                             119    0.21 6  236 332 
 SML  HE ES   1    812 28.03                             119   -0.41 6  236 332 
 SML  HZ I         812 38.89         1.4 0.03            119            236 332 
                                                                                
