 2014  819 0008  2.4 L   6.827 -73.169143.6  RSN 14 0.5 2.0LRSN                1
 GAP=132        1.24       3.6     4.4  6.4 -0.7286E+00  0.9989E+01 -0.2546E+01E
 Epicentro: LOS SANTOS - SANTANDER                                             3
 ACTION:UPD 14-09-15 21:51 OP:nd   STATUS:               ID:20140819000802 L   I
 OLDACT:UP  14-08-19 13:31 OP:cam  STATUS:               ID:20140819000000     3
 OLDACT:UP  14-08-19 13:31 OP:cam  STATUS:               ID:20140819000000     3
 OLDACT:REG 14-08-19 12:25 OP:cam  STATUS:               ID:20140819000000     3
 2014-08-19-0000-00M.COL___285                                                 6
 STAT SP IPHASW D HRMM SECON CODA AMPLIT PERI AZIMU VELO AIN AR TRES W  DIS CAZ7
 BAR2 SZ EP     D  0 8 21.84                             169    0.0410 26.0 183 
 BAR2 SZ ES        0 8 36.41                             169   -0.5410 26.0 183 
 BAR2 SZ I         0 8 37.85        28.8 0.14            170           26.0 183 
 BRR  HZ EP     D  0 8 23.79                             153    0.7110 67.5 297 
 BRR  HN ES        0 8 40.09                             153    0.8610 67.5 297 
 BRR  HZ I         0 8 45.57        19.1 0.26            152           67.5 297 
 PAM  SZ IP     C  0 8 24.66                             150    0.3410 76.8  42 
 PAM  SN ES        0 8 41.57                             150    0.1310 76.8  42 
 PAM  SZ I         0 8 43.93        27.3 0.66            154           76.8  42 
 RUS  HZ EP        0 8 25.91                             142   -0.2410  104 175 
 RUS  HN ES        0 8 44.24                             142   -0.4510  104 175 
 RUS  HZ I         0 8 45.25        12.5 0.36            146            104 175 
 PTB  HZ EP        0 8 28.47                             132   -0.52 9  146 257 
 PTB  HN ES        0 8 48.97                             132   -0.78 9  146 257 
 PTB  HZ I         0 8 52.39        11.0 0.60            133            146 257 
 SPBC HZ EP        0 8 30.96                             128    0.18 9  164 218 
 SPBC HE ES        0 8 52.67                             128   -0.27 9  164 218 
 SPBC HZ I         0 8 56.61        11.0 0.12            131            164 218 
 ZAR  HZ EP        0 8 34.86                             122    0.54 9  201 292 
 ZAR  HN ES        0 8 59.88                             122    0.65 9  201 292 
 ZAR  HZ I         0 9  5.90         8.3 0.22            124            201 292 
 NOR  HE ES        0 9  5.80                             118    0.11 8  234 233 
 SML  HZ EP        0 8 37.54                             117   -0.93 8  240 336 
 SML  HN ES        0 9  6.55                             117   -0.07 8  240 336 
 SML  HZ I         0 9 10.03        14.2 0.10            119            240 336 
 HEL  HZ EP        0 8 42.51                             114    0.22 8  270 255 
 HEL  HE ES        0 9 13.34                             114   -0.08 8  270 255 
 HEL  HZ I         0 9 21.00         4.0 0.50            116            270 255 
 URE  HN ES        0 9 13.83                             113   -0.76 7  280 292 
 GUY2CHZ EP        0 8 46.78                             112    0.93 7  301 234 
 GUY2CHZ I         0 9 28.66         2.8 0.58                           301 234 
 PRA  HZ EP        0 8 56.61                             106    0.63 6  393 209 
 SJC  HZ EP        0 8 56.77                             105   -0.63 6  405 327 
 SJC  HN ES        0 9 40.09                             105   -0.24 6  405 327 
 SJC  HN I         0 9 40.89         1.7 0.12            107            405 327 
                                                                                
