 2013  719 0709 55.4 L   6.776 -73.161142.1  RSN  6 0.3 1.7LRSN                1
 GAP=181        0.71       5.0     5.4  6.7  0.3968E+01  0.1155E+01  0.2260E+01E
 Epicentro: LOS SANTOS - SANTANDER                                             3
 ACTION:UPD 13-08-12 10:38 OP:ep   STATUS:               ID:20130719070847 L   I
 OLDACT:UP  13-07-19 11:31 OP:mh   STATUS:               ID:20130719070847 L   3
 OLDACT:UPD 13-07-19 09:03 OP:stll STATUS:               ID:20130719070847 L   3
 2013-07-19-0708-47M.COL___228                                                 6
 STAT SP IPHASW D HRMM SECON CODA AMPLIT PERI AZIMU VELO AIN AR TRES W  DIS CAZ7
 BAR2 SZ EP   1    710 14.64                             171    0.05 7 20.5 187 
 BAR2 SZ ES   1    710 29.04                             171   -0.47 7 20.5 187 
 BAR2 SZ I         710 32.39         4.6 0.18            168           20.5 187 
 GIR2 SZ EP   1    710 14.49                             166   -0.27 7 33.6 354 
 BRR  HZ EP   1    710 16.51                             152    0.31 7 71.0 301 
 BRR  HN ES   1    710 32.97                             152    0.59 7 71.0 301 
 BRR  HN I         710 34.64        14.5 0.20            151           71.0 301 
 RUS  HZ EP        710 18.66                             144   -0.0010 98.1 175 
 RUS  HN ES   1    710 36.89                             144    0.12 7 98.1 175 
 RUS  HN I         710 38.87         6.9 0.44            145           98.1 175 
 PTB  HZ EP   1    710 21.51                             132   -0.41 7  146 260 
 PTB  HN ES   1    710 42.06                             132   -0.51 7  146 260 
 PTB  HN I         710 47.85         8.1 0.34            132            146 260 
 SPBC HZ EP   1    710 23.63                             129    0.26 7  160 219 
 SPBC HN ES   1    710 45.47                             129    0.32 7  160 219 
 SPBC HZ I         710 48.53         6.5 0.20            130            160 219 
                                                                                
