 2014  219 0224 27.1 L   6.777 -73.133147.6  RSN 11 0.4 2.1LRSN                1
 GAP=139        0.80       3.3     4.1  6.3 -0.1571E+01  0.4368E+01  0.1690E+01E
 Epicentro: LOS SANTOS - SANTANDER                                             3
 ACTION:UPD 14-03-10 08:11 OP:ep   STATUS:               ID:20140219022427 L   I
 OLDACT:REG 14-02-19 08:28 OP:fm   STATUS:               ID:20140219022000     3
 2014-02-19-0220-00M.COL___212                                                 6
 STAT SP IPHASW D HRMM SECON CODA AMPLIT PERI AZIMU VELO AIN AR TRES W  DIS CAZ7
 BAR2 SZ EP        224 46.73                             171   -0.1710 21.2 195 
 BAR2 SZ ES   2    225  2.67                             171    0.32 5 21.2 195 
 BAR2 SZ I         225  3.62        35.2 0.22            165           21.2 195 
 PAM  SZ EP   1    224 49.66                             151    0.09 7 78.5  38 
 PAM  SN ES   1    225  6.63                             151   -0.47 7 78.5  38 
 PAM  SZ I         225  8.70        15.0 0.47            142           78.5  38 
 RUS  HZ EP        224 50.67                             145   -0.1710 98.0 177 
 RUS  HN ES        225  9.52                             145    0.1610 98.0 177 
 RUS  HZ I         225 10.81         7.3 0.30            132           98.0 177 
 PTB  HZ EP        224 53.74                             132   -0.55 9  149 260 
 PTB  HN ES        225 15.11                             132   -0.39 9  149 260 
 PTB  HZ I         225 20.76        22.8 0.34            121            149 260 
 SPBC HZ EP        224 55.79                             130    0.15 9  162 220 
 SPBC HN ES        225 18.31                             130    0.42 9  162 220 
 SPBC HZ I         225 24.91        31.2 0.32            118            162 220 
 OCA  HZ EP   2    224 55.99                             130    0.19 5  163 353 
 OCA  HN ES   1    225 19.04                             130    0.86 7  163 353 
 OCA  HZ I         225 22.82        13.6 0.32            119            163 353 
 ZAR  HN ES   1    225 25.61                             122    0.14 6  206 293 
 NOR  HN ES   4    225 31.42                             119    0.60 0  234 235 
 SML  HZ EP   4    225  3.76                             118   -0.37 0  247 335 
 SML  HN ES   4    225 32.89                             118   -0.13 0  247 335 
 SML  HZ I         225 36.56        16.6 0.08            108            247 335 
 CHI  HZ EP        225  4.71                             118    0.04 8  247 196 
 CHI  HN ES   4    225 35.92                             118    1.94 0  247 196 
 CHI  HZ I         225 38.43         5.3 0.47            107            247 196 
 HEL  HZ EP   4    225  8.94                             115    1.46 0  273 256 
 HEL  HN ES   4    225 43.27                             115    4.29 0  273 256 
 HEL  HZ I         225 45.48         6.6 0.34            105            273 256 
 PRA  HZ EP   1    225 21.25                             107    0.74 4  391 210 
 PRA  HN ES   4 D  226  5.38                             107    3.22 0  391 210 
 PRA  HZ I         226  7.46         6.1 0.36             98            391 210 
 SJC  HZ EP   4    225 21.03                             106   -2.02 0  412 327 
 SJC  HN ES   4    226  5.13                             106   -1.57 0  412 327 
                                                                                
