 2012  419 0419 54.2 L   6.818 -73.125149.9  RSN  4 0.2 1.3LRSN                1
 GAP=241        0.50       8.3    10.9  7.1  0.7648E+02 -0.2285E+02 -0.1613E+02E
 Epicentro: LOS SANTOS - SANTANDER                                             3
 ACTION:UPD 12-07-05 11:54 OP:tino STATUS:               ID:20120419041954 L   I
 2012-04-19-0420-00M.COL___187                                                 6
 STAT SP IPHASW D HRMM SECON CODA AMPLIT PERI AZIMU VELO AIN AR TRES W  DIS CAZ7
 BAR2 SZ EP   1    420 14.26                             170    -0.1 7   26 194 
 BAR2 SZ ES   2    420 29.88                             170    -0.2 5   26 194 
 BAR2 SZ I         420 31.45         6.8 0.50                            26 194 
 BRR  HZ EP   1    420 16.14                             153     0.3 7   72 296 
 BRR  HE ES   1    420 32.65                             153    -0.1 7   72 296 
 BRR  HZ I         420 36.65         5.8 0.59                            72 296 
 RUS  HZ EP   1    420 18.21                             144    -0.2 7  102 177 
 RUS  HN ES   1    420 37.59                             144     0.2 7  102 177 
 RUS  HZ I         420 38.03         1.7 0.35                           102 177 
 ZAR  HE ES   2    420 52.47                             123    -0.2 4  205 291 
                                                                                
