 2017  519 0942 36.7 L   6.794 -73.123149.6  RSN 18 0.4 2.5LRSN                1
 GAP=114        0.91       3.6     3.1  5.7 -0.1570E+01  0.1419E+01  0.9100E+01E
 Epicentro: LOS SANTOS - SANTANDER                                             3
 ACTION:UPD 17-06-16 13:37 OP:jn   STATUS:               ID:20170519094236 L   I
 OLDACT:UP  17-05-19 16:10 OP:dnl  STATUS:               ID:20170519093736     3
 OLDACT:UP  17-05-19 16:09 OP:dnl  STATUS:               ID:20170519093736     3
 OLDACT:REG 17-05-19 14:02 OP:dnl  STATUS:               ID:20170519093736     3
 2017-05-19-0938-00M.COL___350                                                 6
 STAT SP IPHASW D HRMM SECON CODA AMPLIT PERI AZIMU VELO AIN AR TRES W  DIS CAZ7
 BRR  HZ IP     C  942 58.34                             152   -0.0910 73.7 298 
 BRR  HN ES        943 15.41                             152    0.0510 73.7 298 
 BRR  HZ I         943 16.48        43.8 0.14            151           73.7 298 
 PAM  EZ EP     D  942 59.54                             151    0.2610 76.3  38 
 PAM  EN ES        943 16.41                             151   -0.4710 76.3  38 
 PAM  EZ I         943 18.73        73.9 0.52            156           76.3  38 
 PTB  HZ EP   9    943  3.09                             132   -1.12 0  150 259 
 PTB  HN ES        943 24.00                             132   -0.53 9  150 259 
 PTB  HZ I         943 30.71        22.8 0.40            131            150 259 
 SPBC HZ EP        943  5.51                             129   -0.11 9  164 220 
 SPBC HN ES        943 28.17                             129    0.01 9  164 220 
 SPBC HZ I         943 32.15        50.6 0.34            129            164 220 
 YPLC HZ IP     D  943  6.97                             127    0.35 9  175 152 
 YPLC HZ ES        943 30.41                             127    0.46 9  175 152 
 YPLC HZ I         943 33.63        16.0 0.28            128            175 152 
 NOR  HZ EP     D  943 12.65                             119   -0.20 8  236 235 
 NOR  HN ES        943 41.16                             119    0.12 8  236 235 
 NOR  HZ I         943 46.42        19.5 0.24            118            236 235 
 CHI  HZ EP        943 14.81                             118    0.17 8  249 196 
 CHI  HN ES        943 43.98                             118   -0.23 8  249 196 
 CHI  HE ES        943 44.68                             118            249 196 
 CHI  HZ I         943 47.54        23.8 0.58            118            249 196 
 ROSC BZ EP   4    943 16.41                             117    1.28 0  254 212 
 ROSC BN ES   4    943 46.00                             117    0.91 0  254 212 
 ROSC BZ I         943 50.96        45.1 0.45            117            254 212 
 HEL  HZ EP   4    943 18.87                             115    1.49 0  274 256 
 HEL  HN ES        943 48.92                             115   -0.18 8  274 256 
 HEL  HZ I         943 55.40         8.1 0.60            115            274 256 
 VIL  EZ EP   2    943 20.36                             112    0.06 4  303 192 
 VIL  EN ES   4    943 52.42                             112   -1.87 0  303 192 
 VIL  EZ I         943 57.25        38.2 0.40            113            303 192 
 PTGC HZ EP     D  943 19.67                             112   -0.91 7  307 159 
 PTGC HN ES   4    943 53.51                             112   -1.28 0  307 159 
 PTGC HZ I         943 58.14        21.4 0.58            113            307 159 
 ELA  HZ EP   4    943 26.42                             111    2.52 0  331 230 
 ELA  HN ES   4    944  1.92                             111    1.21 0  331 230 
 ELA  HZ I         944  9.21        14.2 0.54            111            331 230 
 CBOC HZ EP        943 24.85                             110    0.80 7  336 252 
 CBOC HE ES        944  1.95                             110    0.99 7  336 252 
 CBOC HZ I         944  8.94         3.7 0.22            110            336 252 
 DBB  EZ EP   2    943 23.92                             110   -0.73 3  342 274 
 DBB  EN ES   4    944  0.30                             110   -1.73 0  342 274 
 DBB  EZ I         944  5.78         5.8 0.24            110            342 274 
 ANIL HZ EP   4    943 29.84                             109    3.02 0  359 225 
 ANIL HE ES   4    944  8.41                             109    2.51 0  359 225 
 ORTC HZ EP   2    943 30.91                             107    0.03 3  396 217 
 ORTC HN ES        944 12.96                             107   -0.17 6  396 217 
 ORTC HZ I         944 17.92        10.4 0.22            107            396 217 
 PAL  HZ EP        943 32.23                             106    0.01 6  408 239 
 PAL  HN ES        944 14.40                             106   -1.11 6  408 239 
 PAL  HZ I         944 20.03         3.2 0.18            106            408 239 
 SJC  HZ EP   4    943 29.64                             106   -2.99 0  411 327 
 SJC  HE ES   4    944 12.67                             106   -3.58 0  411 327 
 SJC  HZ I         944 24.02         7.3 0.34            107            411 327 
 MACC HZ EP   4    943 43.07                             102   -2.42 0  520 189 
 MACC HN ES   4    944 29.23                             102    -9.9 0  520 189 
 MACC HZ I         944 40.82         7.0 0.82            102            520 189 
                                                                                
