 2010  119 0841 15.9 L   6.805 -73.106138.0  RSN  5 0.4 1.6LRSN                1
 GAP=283        0.80       7.5     7.8  7.5  0.8686E+01  0.2526E+02  0.1131E+02E
 Epicentro: LOS SANTOS - SANTANDER                                             3
 ACTION:UP  10-08-24 09:44 OP:vdl  STATUS:               ID:20100119084115 L   I
 2010-01-19-0839-24S.COL___096                                                 6
 STAT SP IPHASW D HRMM SECON CODA AMPLIT PERI AZIMU VELO SNR AR TRES W  DIS CAZ7
 BAR2 SZ EP        841 34.58                             169    -0.110   25 200 
 BAR2 SZ ES   1    841 49.45                             169     0.2 7   25 200 
 RUS  BZ EP        841 38.90                             142    -0.110  101 179 
 RUS  BN ES   1    841 57.22                             142     0.3 7  101 179 
 RUS  BZ I         841 58.54         5.7 0.81                           101 179 
 CHI  HZ EP        841 52.79                             115    -0.6 8  250 196 
 CHI  HN ES   1    842 22.59                             115     0.0 6  250 196 
 HEL  HZ EP   1    841 56.77                             113     0.5 6  276 256 
 HEL  HN ES   1    842 27.38                             113    -0.3 6  276 256 
 HEL  HZ I         842 33.33         3.0 1.80                           276 256 
 PRA  HZ EP        842 10.28                             105     0.8 6  395 210 
                                                                                
