 2011  319 0833 49.7 L   6.778 -73.099144.1  RSN  8 0.3 1.8LRSN                1
 GAP=164        0.75       3.3     5.8  6.0 -0.4626E+01  0.1866E+01  0.4960E+00E
 Epicentro: LOS SANTOS - SANTANDER                                             3
 ACTION:UP  11-06-16 14:34 OP:jfem STATUS:               ID:20110319083349 L   I
 2011-03-19-0832-06S.COL___134                                                 6
 STAT SP IPHASW D HRMM SECON CODA AMPLIT PERI AZIMU VELO SNR AR TRES W  DIS CAZ7
 BAR2 SZ EP        834  9.18                             171     0.110   23 204 
 BAR2 SZ ES   1    834 24.18                             171    -0.1 7   23 204 
 BAR2 SZ I         834 25.46        10.5 0.18                            23 204 
 BRR  HZ EP        834 11.15                             150     0.110   77 298 
 BRR  HE ES   1    834 28.27                             150     0.6 7   77 298 
 BRR  HZ I         834 30.92        16.4 0.18                            77 298 
 RUS  HZ EP   1    834 13.02                             144    -0.1 7   98 179 
 RUS  HN ES   1    834 31.16                             144    -0.2 7   98 179 
 RUS  HZ I         834 33.16         6.3 0.32                            98 179 
 GRA  SZ EP        834 15.02                             136     0.110  127  15 
 GRA  SZ ES   1    834 34.02                             136    -0.5 7  127  15 
 GRA  SZ I         834 36.00        10.7 0.39                           127  15 
 OCA  SZ EP   1    834 18.04                             129    -0.1 7  163 351 
 OCA  SZ I         834 45.87        10.5 0.32                           163 351 
 CHI  HZ EP   1    834 27.37                             117     0.2 6  248 196 
 CHI  HE ES   1    834 56.59                             117     0.1 6  248 196 
 CHI  HZ I         835  0.43         3.0 0.18                           248 196 
 HEL  HN ES   1    835  1.21                             114    -0.8 6  276 257 
 PRA  HZ EP   1    834 43.29                             106     0.1 4  392 210 
                                                                                
