 2011  919 0440 41.8 L   6.216 -73.690109.3  RSN  5 0.1 1.0LRSN                1
 GAP=241        0.40       8.2    10.9 11.1  0.3958E+02  0.7110E+02 -0.1921E+02E
 Epicentro: LANDAZURI - SANTANDER                                              3
 ACTION:UPD 12-07-13 15:58 OP:ep   STATUS:               ID:20110919044041 L   I
 2011-09-19-0440-00M.COL___173                                                 6
 STAT SP IPHASW D HRMM SECON CODA AMPLIT PERI AZIMU VELO AIN AR TRES W  DIS CAZ7
 BAR2 SZ EP        440 59.55                             145    0.1210 69.9  53 
 BAR2 SZ ES   2    441 13.18                             145    0.03 5 69.9  53 
 BAR2 SZ I         441 14.40         5.4 0.52                          69.9  53 
 RUS  HN ES   2    441 14.42                             143   -0.16 5 76.1 118 
 RUS  HZ I         441 16.89         1.4 0.28                          76.1 118 
 BTL  SZ EP        441  1.15                             137    0.1410 90.6  31 
 BRR  HZ EP        441  1.31                             135   -0.0510 98.6 359 
 GIR2 SZ EP        441  2.39                             131   -0.1910  110  30 
                                                                                
