 2015  319 0740 56.1 L   6.795 -73.155141.3  RSN  6 0.5 1.5LRSN                1
 GAP=136        1.26       5.9     6.2 10.3 -0.9462E+01  0.4316E+01  0.1199E+02E
 Epicentro: LOS SANTOS - SANTANDER                                             3
 ACTION:UPD 15-04-30 16:27 OP:nd   STATUS:               ID:20150319074056 L   I
 OLDACT:DUP 15-03-19 18:27 OP:stll STATUS:               ID:20150319073751d    3
 OLDACT:REG 15-03-19 12:58 OP:stll STATUS:               ID:20150319073750     3
 2015-03-19-0737-50M.COL___275                                                 6
 STAT SP IPHASW D HRMM SECON CODA AMPLIT PERI AZIMU VELO AIN AR TRES W  DIS CAZ7
 BAR2 EZ EP        741 15.34                             171    0.1310 22.6 188 
 BAR2 EZ I         741 33.16         7.5 0.26            168           22.6 188 
 BRR  HZ IP     D  741 17.24                             152    0.4710 70.6 299 
 BRR  HZ I         741 17.46         4.0 0.24            153           70.6 299 
 BRR  HN ES        741 33.71                             152    0.8510 70.6 299 
 PAM  SZ EP     D  741 18.10                             150    0.1610 78.5  40 
 PAM  SZ I         741 18.33         9.3 0.22            151           78.5  40 
 PAM  SN ES        741 34.26                             150   -0.7010 78.5  40 
 RUS  HZ EP        741 19.35                             143   -0.0610  100 175 
 RUS  HN ES        741 37.62                             143    0.0510  100 175 
 RUS  HZ I         741 40.75         3.6 0.38            142            100 175 
 PTB  HZ EP        741 22.11                             131   -0.53 9  147 259 
 PTB  HN ES        741 42.44                             131   -0.87 9  147 259 
 PTB  HZ I         741 50.78         4.0 0.26            131            147 259 
 SPBC HZ EP        741 24.46                             128    0.27 9  162 219 
 SPBC HN ES        741 46.16                             128    0.09 9  162 219 
 SPBC HZ I         741 49.01         7.0 0.34            127            162 219 
                                                                                
