 2016 1119 0810 51.9 L   6.751 -73.109138.6  RSN  5 0.3 1.4LRSN                1
 GAP=170        0.76       7.1     3.8  5.4  0.1951E+00  0.2593E+01 -0.5780E+01E
 Epicentro: LOS SANTOS - SANTANDER                                             3
 ACTION:UPD 17-10-26 21:09 OP:lp   STATUS:               ID:20161119081051 L   I
 OLDACT:UP  16-11-19 17:14 OP:and  STATUS:               ID:20161119080744     3
 OLDACT:REG 16-11-19 13:12 OP:and  STATUS:               ID:20161119080744     3
 2016-11-19-0808-00M.COL___334                                                 6
 STAT SP IPHASW D HRMM SECON CODA AMPLIT PERI AZIMU VELO AIN AR TRES W  DIS CAZ7
 BAR2 EZ EP     C  811 10.62                             172    0.0310 19.3 205 
 BAR2 EZ ES        811 24.96                             172   -0.2010 19.3 205 
 BRR  HZ IP     C  811 12.48                             149   -0.1710 77.4 301 
 BRR  HN ES        811 29.41                             149    0.5810 77.4 301 
 BRR  HZ I         811 33.99         4.7 0.14            145           77.4 301 
 PAM  EZ EP        811 13.60                             149    0.1310 79.3  35 
 PAM  EN ES        811 30.13                             149   -0.1710 79.3  35 
 PAM  EZ I         811 31.07         3.8 0.32            148           79.3  35 
 PTB  HZ EP   9    811 17.36                             130   -1.21 0  151 261 
 PTB  HN ES        811 38.17                                    0.01 9  151 261 
 PTB  HZ I         811 40.40         2.9 0.15            129            151 261 
 ZAR  HZ EP        811 24.75                             120    0.25 8  210 293 
 ZAR  HN ES        811 49.38                             120   -0.54 8  210 293 
 ZAR  HZ I         811 55.00         2.8 0.05            119            210 293 
                                                                                
