 2017  619 0348 24.6 L   6.813 -73.161142.0  RSN  8 0.4 1.8LRSN                1
 GAP=257        0.99       4.5     6.6  8.6  0.4381E+01  0.1050E+01  0.1153E+02E
 Epicentro: LOS SANTOS - SANTANDER                                             3
 ACTION:UPD 17-09-14 16:53 OP:jn   STATUS:               ID:20170619034824 L   I
 OLDACT:REG 17-06-19 12:58 OP:lv   STATUS:               ID:20170619034736     3
 2017-06-19-0348-00M.COL___335                                                 6
 STAT SP IPHASW D HRMM SECON CODA AMPLIT PERI AZIMU VELO AIN AR TRES W  DIS CAZ7
 BRR  HZ EP        348 44.83                             153   -0.4410 69.1 298 
 BRR  HN ES        349  1.76                             153    0.4110 69.1 298 
 BRR  HZ I         349  5.05         9.6 0.12            149           69.1 298 
 PTB  HZ EP   4    348 49.96                             132   -1.23 0  146 258 
 PTB  HZ I         349 12.85         7.4 0.16            128            146 258 
 SPBC HZ EP        348 52.28                             128   -0.59 9  163 218 
 SPBC HN ES        349 14.83                             128   -0.05 9  163 218 
 SPBC HZ I         349 18.90        16.6 0.05            126            163 218 
 ZAR  HZ EP        348 56.62                             122   -0.02 9  202 292 
 ZAR  HN ES        349 21.62                             122    0.03 9  202 292 
 ZAR  HZ I         349 27.75         6.7 0.23            118            202 292 
 NOR  HN ES        349 26.94                             118   -0.82 8  234 234 
 NOR  HZ I         349 31.19         6.0 0.13            115            234 234 
 CHI  HZ EP        349  2.60                             116    0.36 8  250 195 
 CHI  HE ES        349 32.11                             116    0.55 8  250 195 
 CHI  HZ I         349 37.53         2.3 0.25            114            250 195 
 HEL  HE ES        349 35.76                             114    0.12 8  271 255 
 HEL  HZ I         349 42.35         3.5 0.43            111            271 255 
 CBOC HZ EP        349 11.94                             109    0.66 7  332 252 
 CBOC HE ES        349 48.00                             109    0.35 7  332 252 
 CBOC HZ I         349 50.16         1.5 0.23            107            332 252 
 SJC  HZ EP   4    349 15.52                             105   -4.32 0  407 327 
 SJC  HN ES   4    349 58.88                             105   -4.01 0  407 327 
                                                                                
