 2012  219 0705  0.2 L   6.819 -73.075149.4  RSN 18 0.4 2.4LRSN                1
 GAP=145        0.60       2.5     3.7  3.8 -0.2557E+01  0.3659E+01  0.1574E+01E
 ACTION:UP  12-03-07 16:32 OP:epov STATUS:               ID:20120219070500 L   I
 2012-02-19-0700-00M.COL___188                                                 6
 STAT SP IPHASW D HRMM SECON CODA AMPLIT PERI AZIMU VELO AIN AR TRES W  DIS CAZ7
 BAR2 SZ EP   1    7 5 20.45                             169    0.07 9 27.7 205 
 BAR2 SZ ES   1    7 5 35.93                             169   -0.18 9 27.7 205 
 BAR2 SZ I         7 5 38.30        54.1 0.30                          27.7 205 
 GIR2 SZ EP   1    7 5 20.48                             168    0.15 9 31.6 335 
 GIR2 SZ ES   1    7 5 35.66                             168   -0.37 9 31.6 335 
 PAM  SZ EP   1    7 5 23.15                             153    0.69 9 70.9  36 
 PAM  SN ES   2    7 5 40.04                             153    0.23 6 70.9  36 
 BRR  HZ EP   1    7 5 22.22                             151    0.11 9 77.3 294 
 BRR  HE ES   1    7 5 39.61                             151    0.42 9 77.3 294 
 BRR  HZ I         7 5 43.32        35.2 0.17                          77.3 294 
 RUS  HZ EP   1    7 5 24.40                             144   -0.06 9  102 181 
 RUS  HE ES   2    7 5 43.29                             144   -0.09 6  102 181 
 RUS  HZ I         7 5 44.39        34.4 0.24                           102 181 
 PTB  HZ EP   2    7 5 27.29                             131   -0.93 5  156 259 
 PTB  HE ES   2    7 5 49.72                             131   -0.34 5  156 259 
 OCA  SZ EP   2    7 5 28.73                             131    0.00 5  159 350 
 OCA  SZ ES   2    7 5 51.21                             131    0.25 5  159 350 
 ZAR  HZ EP        7 5 32.91                             122   -0.6610  211 291 
 ZAR  HZ IP        7 5 32.91                                            211 291 
 ZAR  HZ I         7 6  9.80        14.3 0.23                           211 291 
 NOR  SZ EP   2    7 5 36.97                             118   -0.01 5  242 235 
 NOR  SN ES   2    7 6  6.06                             118    0.41 5  242 235 
 CHI  HZ EP   1    7 5 38.70                             117    0.13 7  253 197 
 CHI  HN ES   1    7 6  7.97                             117   -0.52 7  253 197 
 CHI  HZ I         7 6 17.80        10.4 0.37                           253 197 
 ROSC BZ EP   2    7 5 39.25                             117    0.07 5  259 212 
 ROSC BE ES   2    7 6  9.19                             117   -0.38 5  259 212 
 ROSC BZ I         7 6 18.81        19.1 0.45                           259 212 
 HEL  HZ EP   1    7 5 41.25                             115   -0.26 7  280 256 
 HEL  HE ES   2    7 6 14.68                             115    0.95 4  280 256 
 HEL  HZ I         7 6 19.39        11.6 0.45                           280 256 
 VIL  SZ EP   2    7 5 44.16                             112   -0.06 4  307 193 
 VIL  SZ I         7 5 46.45         7.8 0.33                           307 193 
 VIL  SN ES   2    7 6 18.88                             112    0.33 4  307 193 
 GUY  SZ EP   1    7 5 45.59                             112    0.47 6  311 236 
 GUY  SN ES   2    7 6 20.50                             112    0.36 4  311 236 
 GUY  SZ I         7 6 26.75        24.9 0.50                           311 236 
 RREF HZ EP   2    7 5 48.07                             111    0.72 4  329 230 
 RREF HN ES        7 6 24.25                             111    0.13 8  329 230 
 RREF HZ I         7 6 32.81        12.0 0.58                           329 230 
 COD  HZ EP   1    7 5 48.17                             110   -0.43 6  347 353 
 COD  HN ES   2    7 6 26.48                             110    0.15 4  347 353 
 TOL  SZ EP   2    7 5 49.95                             109    0.52 4  351 225 
 PRA  HZ EP   1    7 5 54.35                             107   -0.19 5  398 210 
 PRA  HN ES   2    7 6 36.66                             107   -0.24 3  398 210 
                                                                                
