 2013  919 0406 16.4 L   6.789 -73.157146.4  RSN 13 0.5 2.0LRSN                1
 GAP=136        0.96       3.5     4.9  6.0 -0.1985E+01  0.6520E+01  0.5140E+01E
 Epicentro: LOS SANTOS - SANTANDER                                             3
 ACTION:UPD 13-10-22 09:23 OP:ep   STATUS:               ID:20130919040616 L   I
 OLDACT:REG 13-09-19 06:17 OP:jn   STATUS:               ID:20130919035959     3
 2013-09-19-0359-59M.COL___269                                                 6
 STAT SP IPHASW D HRMM SECON CODA AMPLIT PERI AZIMU VELO AIN AR TRES W  DIS CAZ7
 BAR2 SZ EP        4 6 36.20                             171    0.1610 22.0 187 
 BAR2 SZ ES        4 6 50.88                             171   -0.5110 22.0 187 
 BAR2 SZ I         4 6 52.83        19.5 0.36            173           22.0 187 
 BRR  HZ IP     C  4 6 37.88                             153    0.3310 70.7 300 
 BRR  HN ES        4 6 55.02                             153    0.9510 70.7 300 
 BRR  HZ I         4 6 59.25        16.2 0.14            139           70.7 300 
 PAM  SZ EP   1    4 6 38.98                             150    0.23 7 79.1  40 
 PAM  SN ES   1    4 6 56.19                             150   -0.02 7 79.1  40 
 PAM  SZ I         4 6 56.89        10.7 0.22            132           79.1  40 
 RUS  HZ EP   1    4 6 40.01                             144   -0.08 7 99.5 175 
 RUS  HN ES   1    4 6 58.38                             144   -0.23 7 99.5 175 
 RUS  HZ I         4 6 59.75         9.9 0.30            133           99.5 175 
 PTB  HZ EP        4 6 42.76                             132   -0.48 9  146 259 
 PTB  HN ES   1    4 7  3.47                             132   -0.74 7  146 259 
 PTB  HZ I         4 7  5.87        16.3 0.40            119            146 259 
 SPBC HZ EP        4 6 44.91                             129    0.17 9  161 219 
 SPBC HN ES        4 7  7.00                             129    0.12 9  161 219 
 SPBC HZ I         4 7 11.44        17.9 0.46            117            161 219 
 OCA  HN ES   1    4 7  6.43                             130   -0.58 7  161 354 
 OCA  HZ I         4 7 15.08        10.8 0.24            114            161 354 
 ZAR  HN ES   1    4 7 13.88                             123   -0.17 6  203 293 
 ZAR  HZ I         4 7 19.73        12.9 0.50            110            203 293 
 NOR  HZ EP   1    4 6 51.59                             119   -0.35 6  233 235 
 NOR  HE ES   1    4 7 19.63                             119   -0.06 6  233 235 
 NOR  HZ I         4 7 29.74         6.7 0.16            108            233 235 
 SML  HE ES   2    4 7 20.81                             117   -0.91 4  244 336 
 CHI  HZ EP   1    4 6 53.69                             117   -0.24 6  247 195 
 CHI  HN ES   1    4 7 23.64                             117    0.40 6  247 195 
 CHI  HZ I         4 7 29.01         7.1 0.32            107            247 195 
 GUY2CHZ EP   1    4 7  0.93                             113    1.13 5  299 235 
 GUY2CHZ I         4 7 42.41         6.8 0.30                           299 235 
 PRA  HZ EP   1    4 7  9.73                             107    0.03 4  390 209 
 PRA  HN ES   1    4 7 50.86                             107   -0.45 4  390 209 
 PRA  HZ I         4 7 58.65         6.3 0.28            100            390 209 
                                                                                
