 2014  819 0741 34.0 L   7.483 -73.330121.1  RSN  5 0.5 1.4LRSN                1
 GAP=200        1.19       4.5     8.9 10.7  0.7120E+01  0.4079E+01 -0.1174E+02E
 Epicentro: EL PLAYON - SANTANDER                                              3
 ACTION:UPD 14-09-15 21:51 OP:nd   STATUS:               ID:20140819074134 L   I
 OLDACT:UP  14-08-19 16:22 OP:cam  STATUS:               ID:20140819074000     3
 OLDACT:UP  14-08-19 16:22 OP:cam  STATUS:               ID:20140819074000     3
 OLDACT:REG 14-08-19 13:17 OP:cam  STATUS:               ID:20140819074000     3
 2014-08-19-0740-00M.COL___285                                                 6
 STAT SP IPHASW D HRMM SECON CODA AMPLIT PERI AZIMU VELO AIN AR TRES W  DIS CAZ7
 BRR  HZ EP     D  741 52.36                             152    0.5510 59.2 225 
 BRR  HN ES        742  6.30                             152    0.6110 59.2 225 
 BRR  HZ I         742  7.50         6.4 0.12            151           59.2 225 
 BAR2 SZ IP     C  741 55.25                             138    0.2410 99.9 171 
 BAR2 SZ ES        742 10.63                             138   -0.7610 99.9 171 
 BAR2 SZ I         742 12.33         4.8 0.16            140           99.9 171 
 PTB  HZ EP        742  0.64                             123    0.08 9  162 230 
 PTB  HE ES        742 20.62                             123   -0.65 9  162 230 
 PTB  HZ I         742 24.60         2.2 0.50            124            162 230 
 SML  HZ EP        742  0.77                             122   -0.24 9  167 331 
 SML  HN ES        742 21.86                             122   -0.21 9  167 331 
 SML  HZ I         742 23.75         5.3 0.10            123            167 331 
 SPBC HN ES        742 32.43                             115    0.29 8  218 202 
                                                                                
