 2017  919 0709 41.5 L   6.777 -73.114147.2  RSN  7 0.3 1.2LRSN                1
 GAP=123        0.67       3.4     4.4  4.8 -0.5629E+01 -0.3631E+01  0.4773E+01E
 Epicentro: LOS SANTOS - SANTANDER                                             3
 ACTION:UPD 17-10-05 19:14 OP:rebc STATUS:               ID:20170919070941 L   I
 OLDACT:UP  17-09-19 17:28 OP:and  STATUS:               ID:20170919070639d    3
 OLDACT:UP  17-09-19 17:27 OP:and  STATUS:               ID:20170919070639d    3
 OLDACT:UP  17-09-19 17:27 OP:and  STATUS:               ID:20170919070639d    3
 OLDACT:DUP 17-09-19 17:26 OP:and  STATUS:               ID:20170919070639d    3
 OLDACT:UP  17-09-19 17:25 OP:and  STATUS:               ID:20170919070638d    3
 OLDACT:DUP 17-09-19 17:24 OP:and  STATUS:               ID:20170919070638d    3
 OLDACT:UP  17-09-19 17:21 OP:and  STATUS:               ID:20170919070637     3
 OLDACT:REG 17-09-19 13:05 OP:and  STATUS:               ID:20170919070637     3
 2017-09-19-0707-00M.COL___432                                                 6
 STAT SP IPHASW D HRMM SECON CODA AMPLIT PERI AZIMU VELO AIN AR TRES W  DIS CAZ7
 BAR2 EZ EP   2    710  1.23                             171   -0.09 5 21.7 200 
 BAR2 EZ ES        710 16.58                             171   -0.1610 21.7 200 
 BAR2 EZ I         710 17.21         4.0 0.28            170           21.7 200 
 BRR  HZ EP   2    710  3.09                             151   -0.01 5 75.5 299 
 BRR  HN ES        710 19.94                             151    0.0410 75.5 299 
 BRR  HZ I         710 23.96         3.7 0.34            149           75.5 299 
 PAM  EZ IP     C  710  4.19                             151    0.2810 77.3  36 
 PAM  EN ES        710 21.05                             151   -0.3010 77.3  36 
 PAM  EZ I         710 24.23         2.0 0.32            153           77.3  36 
 RUS  HZ EP   2    710  5.38                             145    0.14 5 97.8 178 
 RUS  HN ES        710 24.16                             145    0.4410 97.8 178 
 RUS  HZ I         710 25.06         2.2 0.32            146           97.8 178 
 SPBC HZ EP        710 10.42                             129    0.25 9  163 221 
 SPBC HN ES        710 32.20                             129   -0.31 9  163 221 
 SPBC HZ I         710 38.06         3.0 0.14            129            163 221 
 GUY2CHZ EP   9    710 28.30                             112    2.93 0  303 236 
 GUY2CHN ES        711  2.17                             112   -0.32 7  303 236 
 GUY2CHZ I         711  6.42         0.9 0.54                           303 236 
 PTGC HZ EP        710 24.55                             112   -0.50 7  305 159 
                                                                                
