 2015  719 0022 15.6 L   6.813 -73.130143.4  RSN  5 0.3 1.4LRSN                1
 GAP=138        0.69       3.8     4.6  7.6  0.4441E+01  0.7966E+01 -0.3814E+01E
 Epicentro: LOS SANTOS - SANTANDER                                             3
 ACTION:UPD 15-09-08 21:49 OP:cam  STATUS:               ID:20150719002215 L   I
 OLDACT:REG 15-07-19 16:12 OP:spq  STATUS:               ID:20150719001748     3
 2015-07-19-0017-48M.COL___340                                                 6
 STAT SP IPHASW D HRMM SECON CODA AMPLIT PERI AZIMU VELO AIN AR TRES W  DIS CAZ7
 BAR2 EZ EP   1    022 35.04                             170    0.08 7 25.0 193 
 BAR2 EZ ES   1    022 50.48                             170    0.39 7 25.0 193 
 BAR2 EZ I         022 50.84         5.4 0.26            171           25.0 193 
 PAM  EZ EP        022 37.84                             151    0.4210 75.2  39 
 PAM  EN ES   1    022 53.97                             151   -0.48 7 75.2  39 
 PAM  EZ I         022 56.88         4.9 0.52            152           75.2  39 
 RUS  HZ EP        022 38.91                             143   -0.2810  102 177 
 RUS  HE ES   1    022 57.49                             143   -0.13 7  102 177 
 RUS  HZ I         022 58.55         1.9 0.36            146            102 177 
 ZAR  HN ES        023 13.25                             122   -0.01 9  205 292 
 ZAR  HZ I         023 18.73         2.3 0.27            122            205 292 
 SML  HN ES   1    023 20.28                             117   -0.16 6  243 335 
 SML  HZ I         023 23.88         3.8 0.10            117            243 335 
                                                                                
