 2015  119 0527 59.7 L   6.788 -73.145151.4  RSN 10 0.3 1.7LRSN                1
 GAP=137        0.86       2.7     3.7  5.1 -0.3346E+00  0.3916E+01  0.2118E+01E
 Epicentro: LOS SANTOS - SANTANDER                                             3
 ACTION:UPD 15-03-02 15:40 OP:nd   STATUS:               ID:20150119052759 L   I
 OLDACT:REG 15-01-19 12:50 OP:carl STATUS:               ID:20150119051738     3
 2015-01-19-0517-38M.COL___256                                                 6
 STAT SP IPHASW D HRMM SECON CODA AMPLIT PERI AZIMU VELO AIN AR TRES W  DIS CAZ7
 BAR2 EZ EP        528 19.92                             171   -0.0610 22.0 191 
 BAR2 EZ ES        528 35.66                             171   -0.1410 22.0 191 
 BAR2 EZ I         528 36.55        12.9 0.18            170           22.0 191 
 BRR  HZ EP        528 21.84                             153    0.3510 71.9 299 
 BRR  HN ES        528 39.25                             153    0.7510 71.9 299 
 BRR  HZ I         528 42.10         5.4 0.14            150           71.9 299 
 PAM  SZ EP        528 22.69                             151    0.1210 78.4  39 
 PAM  SN ES        528 39.93                             151   -0.4810 78.4  39 
 PAM  SZ I         528 42.03        13.1 0.52            154           78.4  39 
 RUS  HZ EP        528 24.13                             145    0.2210 99.3 176 
 RUS  HN ES        528 42.87                             145    0.0710 99.3 176 
 RUS  HZ I         528 43.52         6.0 0.28            147           99.3 176 
 PTB  HZ EP        528 26.52                             133   -0.59 9  148 259 
 PTB  HN ES        528 48.15                             133   -0.34 9  148 259 
 PTB  HZ I         528 49.71         7.2 0.44            132            148 259 
 OCA  HE ES        528 51.01                             131   -0.08 9  162 353 
 OCA  HZ I         528 54.87         6.4 0.32            131            162 353 
 SPBC HZ EP        528 28.95                             130    0.41 9  162 219 
 SPBC HN ES        528 51.06                             130    0.02 9  162 219 
 SPBC HZ I         528 53.77        11.6 0.32            130            162 219 
 ZAR  HZ EP        528 32.53                             123   -0.04 9  205 292 
 ZAR  HN ES        528 58.03                             123   -0.18 9  205 292 
 ZAR  HZ I         529  4.98         7.3 0.34            123            205 292 
 CHI  HZ EP        528 37.64                             118    0.07 8  247 195 
 CHI  HN ES        529  6.79                             118   -0.33 8  247 195 
 CHI  HZ I         529 11.33         1.3 0.40            119            247 195 
 HEL  HZ EP   4    528 42.12                             116    1.95 0  272 256 
 HEL  HN ES   4    529  8.39                             116   -3.35 0  272 256 
 HEL  HZ I         529 19.19         4.2 0.32            116            272 256 
                                                                                
