 2017  919 0921 11.2 L   6.813 -73.121146.6  RSN 15 0.8 2.2LRSN                1
 GAP=102        1.45       5.2     5.0  8.0  0.7537E+00  0.7393E+01  0.1547E+02E
 Epicentro: LOS SANTOS - SANTANDER                                             3
 ACTION:UPD 17-10-05 19:14 OP:rebc STATUS:               ID:20170919092111 L   I
 OLDACT:UP  17-09-19 17:03 OP:leo  STATUS:               ID:20170919091738     3
 OLDACT:UP  17-09-19 16:47 OP:leo  STATUS:               ID:20170919091738     3
 OLDACT:REG 17-09-19 13:19 OP:and  STATUS:               ID:20170919091738     3
 2017-09-19-0918-00M.COL___428                                                 6
 STAT SP IPHASW D HRMM SECON CODA AMPLIT PERI AZIMU VELO AIN AR TRES W  DIS CAZ7
 BAR2 EZ IP        921 30.59                             170   -0.3410 25.4 196 
 BAR2 EZ ES        921 45.83        43.7 0.52            170   -0.5210 25.4 196 
 BAR2 EZ I         921 47.25        43.7 0.52            165           25.4 196 
 BRR  HZ IP     C  921 32.48                             152   -0.0210 73.0 296 
 BRR  HZ EP        921 32.80                             152    0.3010 73.0 296 
 BRR  HN ES        921 49.62                             152    0.4810 73.0 296 
 BRR  HZ I         921 53.46        29.3 0.16            145           73.0 296 
 PAM  EZ IP        921 33.44                             152    0.1510 74.5  39 
 PAM  EN ES        921 50.55                             152   -0.0110 74.5  39 
 PAM  EZ I         921 51.25        19.2 0.16            150           74.5  39 
 RUS  HZ EP        921 34.63                             144   -0.4610  102 178 
 RUS  HN ES        921 53.23                             144   -0.5210  102 178 
 RUS  HZ I         921 54.30        20.1 0.30            138            102 178 
 TAM  HZ EP   1    921 39.08                             131    0.39 7  153 106 
 TAM  HN ES        922  0.80                             131    0.63 9  153 106 
 SPBC HZ EP   3    921 39.83                             129   -0.16 2  166 219 
 SPBC HN ES   3    922  1.17                             129   -1.32 2  166 219 
 SPBC HZ I         922  3.21        35.2 0.12            122            166 219 
 YPLC HZ EP   1    921 40.40                             127   -0.61 7  177 152 
 YPLC HE ES   1    922  5.26                             127    0.96 7  177 152 
 YPLC HZ I         922  7.37        11.0 0.32            122            177 152 
 ZAR  HZ EP   2    921 41.69                             122   -2.18 4  206 291 
 ZAR  HN ES   2    922  9.69                             122    0.31 4  206 291 
 ZAR  HZ I         922 14.53        31.2 0.28            116            206 291 
 NOR  HZ EP        921 47.15                             118   -0.12 8  238 235 
 NOR  HN ES        922 14.78                             118   -0.65 8  238 235 
 NOR  HZ I         922 16.37        12.6 0.28            112            238 235 
 CHI  HZ EP   1    921 49.37                             117    0.23 6  251 196 
 CHI  HN ES        922 19.95                             117    1.19 8  251 196 
 CHI  HZ I         922 25.83         4.8 0.36            112            251 196 
 ROSC BZ EP        921 51.09                             116    1.47 8  255 211 
 ROSC BZ I         922 28.31        13.5 0.35            111            255 211 
 HEL  HZ EP   4    921 52.58                             114    0.83 0  275 256 
 HEL  HN ES   4    922 25.41                             114    2.00 0  275 256 
 HEL  HZ I         922 29.81        12.7 0.28            109            275 256 
 GUY2CHZ EP   3    921 55.34                             112    0.18 2  304 235 
 GUY2CHE ES   3    922 28.93                             112   -0.54 2  304 235 
 GUY2CHZ I         922 37.98         6.1 0.66                           304 235 
 PTGC HZ EP        921 53.88                             112   -1.22 7  309 159 
 PTGC HN ES   1    922 27.41                             112   -1.96 5  309 159 
 PTGC HZ I         922 32.13         7.7 0.42            107            309 159 
 ORTC HZ EP        922  5.58                             106    0.14 6  398 216 
 ORTC HE ES        922 48.83                             106    1.06 6  398 216 
 ORTC HZ I         922 55.60         4.7 0.34            102            398 216 
                                                                                
