 2011  219 0059 53.9 L   6.767 -73.159143.5  RSN 11 0.3 2.5LRSN                1
 GAP=135        0.81       2.6     4.5  6.2 -0.9775E+00  0.1112E+02  0.5089E+00E
 Epicentro: LOS SANTOS - SANTANDER                                             3
 ACTION:UP  11-03-28 15:09 OP:jfem STATUS:               ID:20110219005953 L   I
 2011-02-19-0056-49S.COL___137                                                 6
 STAT SP IPHASW D HRMM SECON CODA AMPLIT PERI AZIMU VELO SNR AR TRES W  DIS CAZ7
 BAR2 SZ EP        1 0 13.03                             172    -0.110   20 188 
 BAR2 SZ ES   1    1 0 27.73                             172    -0.5 7   20 188 
 BAR2 SZ I         1 0 29.95        89.9 0.37                            20 188 
 BTL  SZ IP        1 0 13.17                             171     0.010   21 325 
 GIR2 SZ EP        1 0 13.13                             166    -0.310   35 354 
 RUS  HZ EP        1 0 16.94                             144    -0.210   97 175 
 RUS  HN ES   1    1 0 35.97                             144     0.7 7   97 175 
 RUS  HZ I         1 0 37.19        60.9 0.51                            97 175 
 GRA  SZ EP        1 0 19.79                             135     0.510  130  18 
 GRA  SZ ES   1    1 0 39.30                             135     0.2 7  130  18 
 GRA  SZ I         1 0 44.59        51.4 0.21                           130  18 
 OCA  SZ EP        1 0 22.42                             128     0.1 9  164 354 
 OCA  SZ ES   1    1 0 44.44                             128    -0.1 7  164 354 
 YOP  SZ EP        1 0 23.32                             126    -0.2 9  176 152 
 YOP  SN ES   1    1 0 46.55                             126    -0.1 7  176 152 
 YOP  SZ I         1 0 51.39        35.1 0.65                           176 152 
 NOR  SZ EP        1 0 28.88                             118    -0.3 8  231 235 
 NOR  SN ES   1    1 0 57.17                             118     0.5 6  231 235 
 CHI  HZ EP   1    1 0 31.08                             117     0.0 6  245 195 
 CHI  HE ES   1    1 1  0.18                             117     0.2 6  245 195 
 CHI  HZ I         1 1  8.77        26.0 0.46                           245 195 
 RREF HZ EP        1 0 40.06                             111     0.5 7  318 230 
 DBB  SZ IP        1 0 40.68                             109    -0.5 7  338 275 
 DBB  SZ ES   1    1 1 17.88                             109    -0.1 5  338 275 
 DBB  SZ I         1 1 19.61         5.9 0.32                           338 275 
                                                                                
