 2011 1219 0622 39.2 L   6.784 -73.083142.3  RSN  4 0.2 1.5LRSN                1
 GAP=146        0.42       2.9     4.2  4.3  0.2230E+00  0.2166E+00  0.9707E-01E
 Epicentro: LOS SANTOS - SANTANDER                                             3
 ACTION:UPD 12-07-13 16:17 OP:ep   STATUS:               ID:20111219062239 L   I
 2011-12-19-0620-00M.COL___188                                                 6
 STAT SP IPHASW D HRMM SECON CODA AMPLIT PERI AZIMU VELO AIN AR TRES W  DIS CAZ7
 BAR2 SZ EP        622 58.49                             170    0.0410 23.9 208 
 BAR2 SZ ES   1    623 13.32                             170   -0.12 7 23.9 208 
 BAR2 SZ I         623 14.38         6.8 0.58                          23.9 208 
 PAM  SZ EP   1    623  1.16                             151    0.25 7 74.6  35 
 PAM  SE ES   1    623 17.70                             151   -0.12 7 74.6  35 
 BRR  HZ EP        623  0.20                             150   -0.2210 78.2 297 
 BRR  HE ES   1    623 17.19                             150    0.24 7 78.2 297 
 BRR  HZ I         623 17.90         7.2 0.16                          78.2 297 
 RUS  HZ EP   1    623  2.54                             144    0.05 7 98.5 180 
 RUS  HE ES   1    623 20.68                             144    0.05 7 98.5 180 
                                                                                
