 2011 1119 0701 32.0 L   6.726 -73.150147.4  RSN  4 0.3 1.4LRSN                1
 GAP=231        0.65       9.4    11.0  7.4  0.8743E+02  0.3264E+01  0.1486E+01E
 Epicentro: JORDAN - SANTANDER                                                 3
 ACTION:UPD 12-07-13 16:11 OP:ep   STATUS:               ID:20111119070132 L   I
 2011-11-19-0700-26S.COL___179                                                 6
 STAT SP IPHASW D HRMM SECON CODA AMPLIT PERI AZIMU VELO AIN AR TRES W  DIS CAZ7
 BAR2 SZ EP   1    7 1 51.12                             174   -0.59 7 15.2 193 
 BAR2 SZ ES   1    7 2  6.93                             174   -0.13 7 15.2 193 
 BAR2 SZ I         7 2  8.64         6.3 0.21                          15.2 193 
 BRR  HZ EP   1    7 1 53.93                             152    0.37 7 75.0 304 
 BRR  HN ES        7 2 10.51                             152    0.1510 75.0 304 
 BRR  HZ I         7 2 14.12         4.4 0.31                          75.0 304 
 RUS  HZ EP   1    7 1 55.62                             146    0.25 7 92.5 175 
 RUS  HN ES   1    7 2 13.62                             146    0.04 7 92.5 175 
 RUS  HZ I         7 2 15.97         2.8 0.20                          92.5 175 
 ZAR  HN ES   1    7 2 30.15                             122   -0.31 6  207 294 
                                                                                
