 2015 1119 0750 48.0 L   6.803 -73.109150.6  RSN 15 0.5 2.0LRSN                1
 GAP=122        1.01       2.7     3.7  4.9 -0.1767E+01  0.6118E+01  0.6816E+00E
 Epicentro: LOS SANTOS - SANTANDER                                             3
 ACTION:UPD 15-12-28 16:12 OP:cam  STATUS:               ID:20151119075048 L   I
 OLDACT:DUP 15-11-19 19:00 OP:ak   STATUS:               ID:20151119074750d    3
 2015-11-19-0747-49M.COL___313                                                 6
 STAT SP IPHASW D HRMM SECON CODA AMPLIT PERI AZIMU VELO AIN AR TRES W  DIS CAZ7
 BAR2 EZ EP        751  8.21                             170   -0.0610 24.6 199 
 BAR2 EZ ES        751 23.60                             170   -0.4510 24.6 199 
 BAR2 EZ I         751 25.00                             170           24.6 199 
 BRR  HZ EP        751 10.23                             152    0.3310 74.6 297 
 BRR  HN ES        751 27.33                             152    0.3810 74.6 297 
 BRR  HZ I         751 28.56        11.1 0.21            151           74.6 297 
 PAM  EZ EP        751 11.06                             152    0.4510 74.7  37 
 PAM  EN ES        751 28.34                             152    0.1210 74.7  37 
 PAM  EZ I         751 30.50        18.3 0.58            154           74.7  37 
 RUS  HZ EP        751 12.09                             145   -0.1810  101 178 
 RUS  HN ES        751 31.45                             145    0.2810  101 178 
 RUS  HZ I         751 32.50        11.5 0.26            147            101 178 
 OCA  HZ EP        751 16.98                             131    0.23 9  161 352 
 OCA  HN ES        751 38.93                             131   -0.21 9  161 352 
 OCA  HZ I         751 43.16        28.4 0.42            132            161 352 
 SPBC HZ EP        751 17.14                             130   -0.03 9  166 220 
 SPBC HN ES        751 39.23                             130   -0.66 9  166 220 
 SPBC HZ I         751 44.27        25.8 0.30            131            166 220 
 ZAR  HZ EP        751 20.76                             123   -0.41 8  208 292 
 ZAR  HE ES        751 46.59                             123   -0.42 8  208 292 
 NOR  HZ EP        751 24.14                             119   -0.28 8  238 235 
 NOR  HE ES        751 52.66                             119   -0.13 8  238 235 
 NOR  HZ I         751 55.75         8.8 0.20            120            238 235 
 SML  HZ EP        751 24.71                             118   -0.38 8  245 334 
 SML  HE ES        751 54.28                             118    0.29 8  245 334 
 HEL  HZ EP   1    751 30.02                             115    1.08 6  276 256 
 HEL  HE ES        752  0.95                             115    0.12 7  276 256 
 URE  HZ EP        751 28.91                             114   -0.84 7  287 292 
 URE  HN ES   4    751 59.40                             114   -2.88 0  287 292 
 URE  HZ I         752 10.91         4.9 0.30            115            287 292 
 GUY2CHZ EP        751 32.66                             113    0.40 7  305 235 
 GUY2CHN ES        752  7.59                             113    0.84 7  305 235 
 GUY2CHZ I         752 13.01         5.3 0.28                           305 235 
 PTGC HZ EP        751 31.20                             112   -0.78 7  308 159 
 PTGC HN ES   4    752  3.98                             112   -2.27 0  308 159 
 CBOC HZ EP        751 36.11                             110    0.51 7  338 252 
 CBOC HN ES        752 12.18                             110   -0.52 7  338 252 
 CBOC HZ I         752 15.00         2.2 0.22            111            338 252 
 MON  HZ EP   4    751 35.60                             109   -1.97 0  357 308 
 MON  HN ES   4    752 14.39                             109   -1.82 0  357 308 
 ORTC HZ EP        751 42.59                             107    0.16 6  398 217 
 ORTC HN ES        752 25.92                             107    1.07 6  398 217 
 SJC  HZ EP   4    751 42.37                             106   -1.62 0  411 326 
 SJC  HE ES   4    752 24.32                             106   -3.31 0  411 326 
                                                                                
