 2014  419 0200 44.6 L   6.830 -73.152147.9  RSN 12 0.5 1.8LRSN                1
 GAP= 70        1.10       3.3     4.2  6.6 -0.3172E+01  0.3541E+01  0.6343E+01E
 Epicentro: LOS SANTOS - SANTANDER                                             3
 ACTION:UPD 14-05-13 23:09 OP:nd   STATUS:               ID:20140419020044 L   I
 OLDACT:REG 14-04-19 13:30 OP:stll STATUS:               ID:20140419015805     3
 2014-04-19-0158-05M.COL___236                                                 6
 STAT SP IPHASW D HRMM SECON CODA AMPLIT PERI AZIMU VELO AIN AR TRES W  DIS CAZ7
 BRR  HZ EP        2 1  6.35                             154    0.4610 69.1 296 
 BRR  HN ES        2 1 23.41                             154    0.9310 69.1 296 
 PAM  SZ EP        2 1  7.04                             152    0.0910 75.2  42 
 PAM  SN ES        2 1 24.61                             152    0.2510 75.2  42 
 PAM  SZ I         2 1 27.19         7.9 0.56            154           75.2  42 
 RUS  HZ EP   1    2 1  9.17                             143    0.34 7  104 176 
 RUS  HE ES        2 1 26.98                             143   -0.7410  104 176 
 PTB  HZ EP        2 1 11.56                             132   -0.21 9  148 258 
 PTB  HN ES        2 1 32.74                             132   -0.21 9  148 258 
 PTB  HZ I         2 1 34.92         7.4 0.14            133            148 258 
 OCA  HZ EP   1    2 1 13.09                             131    0.30 7  157 353 
 OCA  HN ES        2 1 33.81                             131   -0.94 9  157 353 
 OCA  HZ I         2 1 40.40         6.2 0.24            132            157 353 
 TAM  HZ EP        2 1 12.88                             131    0.27 9  157 106 
 TAM  HZ I         2 1 13.12        10.6 0.34            133            157 106 
 SPBC HZ EP        2 1 13.32                             129   -0.18 9  165 218 
 NOR  HZ EP        2 1 20.56                             119   -0.07 8  236 234 
 NOR  HN ES        2 1 48.87                             119    0.15 8  236 234 
 NOR  HZ I         2 1 52.89         5.4 0.20            120            236 234 
 SML  HN ES        2 1 48.93                             118   -0.47 8  240 335 
 CHI  HZ EP        2 1 22.74                             117   -0.04 8  252 195 
 CHI  HN ES        2 1 52.11                             117   -0.42 8  252 195 
 CHI  HZ I         2 1 57.61         2.4 0.32            118            252 195 
 GUY2CHZ EP        2 1 28.19                             113   -0.30 7  303 234 
 GUY2CHN ES        2 2  3.07                             113    0.36 7  303 234 
 RREF HZ EP        2 1 31.78                             111    0.73 7  323 229 
 RREF HN ES        2 2  7.07                             111   -0.20 7  323 229 
 RREF HZ I         2 2 15.57         3.8 0.22            112            323 229 
                                                                                
