 2011  919 0906 43.0 L   6.782 -73.125149.0  RSN  5 0.4 1.7LRSN                1
 GAP=140        0.67       5.5     6.0  7.2  0.4609E+01 -0.4549E+01  0.9933E+01E
 Epicentro: LOS SANTOS - SANTANDER                                             3
 ACTION:UPD 12-07-13 15:58 OP:ep   STATUS:               ID:20110919090643 L   I
 2011-09-19-0905-11S.COL___169                                                 6
 STAT SP IPHASW D HRMM SECON CODA AMPLIT PERI AZIMU VELO AIN AR TRES W  DIS CAZ7
 GIR2 SZ EP        9 7  3.01                             167   -0.1410 33.7 347 
 GIR2 SZ ES   1    9 7 18.57                             167   -0.28 7 33.7 347 
 BRR  HN EP        9 7  4.80                             152    0.1110 74.2 299 
 BRR  HE ES   1    9 7 22.17                             152    0.58 7 74.2 299 
 PAM  SZ EP        9 7  5.77                             151    0.1810 77.5  37 
 PAM  SE ES   2    9 7 22.84                             151   -0.36 5 77.5  37 
 RUS  HZ EP        9 7  6.94                             145   -0.0110 98.5 177 
 RUS  HN ES   2    9 7 25.47                             145   -0.14 5 98.5 177 
 RUS  HZ I         9 7 28.18         4.9 0.50                          98.5 177 
 ZAR  HN ES   2    9 7 40.67                             123   -1.01 4  207 292 
 ZAR  HZ I         9 7 48.49         7.0 0.24                           207 292 
                                                                                
