 2012  319 0051 12.0 L   6.753 -73.098150.0  RSN  5 0.3 1.3LRSN                1
 GAP=145        0.54       4.2     4.9  6.3  0.1728E+01 -0.2002E+01 -0.1140E+01E
 ACTION:UP  12-03-31 23:20 OP:EP   STATUS:               ID:20120319005112 L   I
 2012-03-19-0050-00M.COL___202                                                 6
 STAT SP IPHASW D HRMM SECON CODA AMPLIT PERI AZIMU VELO SNR AR TRES W  DIS CAZ7
 BAR2 SZ EP   2    051 32.14                             172     0.0 5   20 208 
 BAR2 SZ ES   2    051 47.36                             172    -0.4 5   20 208 
 PAM  SZ EP   1    051 34.84                             151     0.1 7   78  34 
 BRR  HZ EP   1    051 33.86                             151    -0.2 7   78 300 
 BRR  HE ES   1    051 51.67                             151     0.4 7   78 300 
 PAM  SN ES   2    051 52.21                             151    -0.3 5   78  34 
 RUS  HZ EP   1    051 35.81                             146     0.0 7   95 179 
 RUS  HN ES   1    051 54.56                             146     0.2 7   95 179 
 RUS  HZ I         051 55.17         2.9 0.37                            95 179 
 PTB  HZ EP   2    051 39.81                             132     0.1 5  152 261 
 PTB  HE ES   2    052  0.78                             132    -0.6 5  152 261 
 PTB  HZ I         052  5.69         2.5 0.32                           152 261 
                                                                                
