 2014  219 0208 30.7 L   6.815 -73.160145.8  RSN 21 0.4 2.7LRSN                1
 GAP=134        0.75       2.1     3.2  4.3 -0.1131E+01  0.4452E+01  0.4486E+00E
 Epicentro: LOS SANTOS - SANTANDER                                             3
 ACTION:UPD 14-03-10 08:11 OP:ep   STATUS:               ID:20140219020831 L   I
 OLDACT:UP  14-02-20 05:58 OP:Migu STATUS:               ID:20140219020831 L   3
 OLDACT:UP  14-02-19 11:38 OP:fm   STATUS:               ID:20140219020538     3
 OLDACT:REG 14-02-19 10:10 OP:fm   STATUS:               ID:20140219020538     3
 2014-02-19-0205-38M.COL___215                                                 6
 STAT SP IPHASW D HRMM SECON CODA AMPLIT PERI AZIMU VELO AIN AR TRES W  DIS CAZ7
 BAR2 SZ IP     C  2 8 50.40                             170    0.0310 24.7 186 
 BAR2 SZ ES   1    2 9  5.54                             170   -0.17 7 24.7 186 
 BAR2 SZ I         2 9  8.40       176.3 0.30            168           24.7 186 
 PAM  SZ EP     C  2 8 53.24                             151    0.3210 77.2  41 
 PAM  SN ES        2 9 10.49                             151    0.2610 77.2  41 
 PAM  SZ I         2 9 13.65        66.1 0.43            151           77.2  41 
 RUS  HZ IP     D  2 8 54.31                             143   -0.2810  102 175 
 RUS  HN ES        2 9 13.05                             143   -0.1710  102 175 
 RUS  HZ I         2 9 14.07        37.9 0.29            142            102 175 
 PTB  HZ EP   1    2 8 57.03                             132   -0.54 7  147 258 
 PTB  HN ES        2 9 18.39                             132   -0.12 9  147 258 
 PTB  HZ I         2 9 23.37        61.5 0.45            126            147 258 
 OCA  HZ EP   1    2 8 59.31                             130    0.46 7  158 354 
 OCA  HN ES        2 9 20.50                             130   -0.30 9  158 354 
 OCA  HZ I         2 9 28.86        68.8 0.26            126            158 354 
 SPBC HZ EP   1    2 8 59.42                             129    0.18 7  163 218 
 SPBC HN ES        2 9 21.73                             129    0.24 9  163 218 
 SPBC HZ I         2 9 26.93        79.6 0.20            125            163 218 
 ZAR  HZ EP   1    2 9  2.96                             123    0.02 6  202 292 
 ZAR  HN ES        2 9 27.74                             123   -0.34 9  202 292 
 ZAR  HZ I         2 9 34.24        55.9 0.23            118            202 292 
 NOR  HZ EP     D  2 9  6.59                             118    0.19 8  234 234 
 NOR  HZ I         2 9 39.98        41.6 0.17            115            234 234 
 SML  HZ EP   1    2 9  6.67                             118   -0.43 6  242 335 
 SML  HN ES   4    2 9 36.58                             118    1.09 0  242 335 
 CHI  HZ EP        2 9  8.62                             117    0.08 8  250 195 
 CHI  HN ES        2 9 37.91                             117   -0.13 8  250 195 
 CHI  HZ I         2 9 43.04        39.9 0.55            114            250 195 
 ROSC BZ EP   4    2 9 10.79                             116    1.89 0  253 211 
 ROSC BN ES   4    2 9 41.60                             116    2.92 0  253 211 
 HEL  HZ EP   1    2 9 12.06                             115    1.26 6  271 255 
 HEL  HN ES   4    2 9 42.79                             115    0.73 0  271 255 
 HEL  HZ I         2 9 49.05        33.3 0.19            111            271 255 
 URE  HZ EP   4    2 9 11.00                             114   -0.55 0  282 292 
 URE  HN ES   4    2 9 41.02                             114   -2.38 0  282 292 
 URE  HZ I         2 9 52.66        38.5 0.30            110            282 292 
 GUY2CHZ EP   1    2 9 14.69                             112    0.41 5  301 234 
 GUY2CHN ES   4    2 9 51.03                             112    2.77 0  301 234 
 GUY2CHZ I         2 9 56.85        40.9 0.70                           301 234 
 PTGC HZ EP   4    2 9 13.61                             111   -1.20 0  311 158 
 PTGC HN ES   4    2 9 47.34                             111   -1.87 0  311 158 
 PTGC HZ I         2 9 49.71        29.3 0.40            110            311 158 
 CBOC HZ EP   4    2 9 18.08                             110    0.57 0  333 252 
 CBOC HN ES   4    2 9 55.98                             110    1.97 0  333 252 
 CBOC HZ I         210  7.07         9.5 0.16            107            333 252 
 DBB  SZ EP   1    2 9 17.96                             109   -0.03 5  338 274 
 DBB  SZ ES   4    2 9 54.31                             109   -0.56 0  338 274 
 DBB  SZ I         2 9 56.32        32.0 0.32            106            338 274 
 COD  HZ EP   1    2 9 18.32                             109   -0.56 5  346 355 
 COD  HN ES   2    2 9 56.87                             109    0.42 3  346 355 
 COD  HZ I         210  6.91        10.2 0.61            106            346 355 
 SDV  BZ EP   4    2 9 20.01                             108   -0.77 0  361  51 
 SDV  BN ES   4    2 9 57.02                             108   -2.80 0  361  51 
 SDV  BZ I         210  0.68         6.8 0.53            107            361  51 
 PRA  HZ EP        2 9 24.33                             106    0.02 6  393 209 
 PRA  HN ES        210  6.36                             106    0.25 6  393 209 
 PRA  HZ I         210 13.04        61.0 0.05            104            393 209 
 ORTC HZ EP   1    2 9 24.87                             106    0.19 4  396 216 
 ORTC HN ES   4    210  7.50                             106    0.73 0  396 216 
 ORTC HZ I         210 12.00        20.8 0.21            104            396 216 
 MACC HZ EP   1    2 9 37.41                             101   -2.18 3  522 188 
 MACC HN ES   4    210 29.68                             101   -3.63 0  522 188 
                                                                                
