 2013  319 0331 17.1 L   6.779 -73.155140.4  RSN  7 0.5 1.9LRSN                1
 GAP=136        0.90       4.9     5.0  7.8 -0.1211E+01  0.7106E+01  0.1933E+01E
 Epicentro: LOS SANTOS - SANTANDER                                             3
 ACTION:UPD 13-04-09 14:03 OP:ep   STATUS:               ID:20130319033117 L   I
 2013-03-19-0330-00M.COL___244                                                 6
 STAT SP IPHASW D HRMM SECON CODA AMPLIT PERI AZIMU VELO AIN AR TRES W  DIS CAZ7
 BAR2 SZ EP        331 36.19                             171    0.1410 20.9 188 
 BAR2 SZ ES   1    331 50.62                             171   -0.20 7 20.9 188 
 BAR2 SZ I         331 51.95        12.3 0.28            170           20.9 188 
 BRR  HZ EP        331 37.95                             151    0.2510 71.4 301 
 BRR  HN ES   1    331 54.27                             151    0.52 7 71.4 301 
 BRR  HN I         331 55.50        40.2 0.18            146           71.4 301 
 PAM  SZ EP        331 39.15                             149    0.2310 79.8  39 
 PAM  SN ES        331 55.81                             149   -0.1110 79.8  39 
 PAM  SN I         331 57.23        13.2 0.30            151           79.8  39 
 RUS  HZ EP        331 40.25                             143    0.0710 98.4 175 
 RUS  HN ES   1    331 57.76                             143   -0.41 7 98.4 175 
 RUS  HN I         331 59.87         4.2 0.34            146           98.4 175 
 PTB  HZ EP   1    331 42.95                             131   -0.57 7  146 260 
 PTB  HN ES   1    332  3.97                             131   -0.14 7  146 260 
 PTB  HN I         332  8.75        14.3 0.48            129            146 260 
 ZAR  HN ES   2    332 14.97                             121    0.74 4  204 293 
 ZAR  HN I         332 22.72        11.1 0.30            119            204 293 
 SML  HN ES   2    332 20.09                             116   -2.01 4  245 336 
 SML  HN I         332 27.29        12.1 0.10            115            245 336 
                                                                                
