 2011 1019 0004 42.3 L   6.828 -73.297123.6  RSN  5 0.2 1.5LRSN                1
 GAP=126        0.32       3.3     3.4  4.9  0.4668E+01  0.6362E+01  0.2281E+01E
 Epicentro: ZAPATOCA - SANTANDER                                               3
 ACTION:UPD 12-07-13 16:04 OP:ep   STATUS:               ID:20111019000442 L   I
 2011-10-19-0002-28S.COL___153                                                 6
 STAT SP IPHASW D HRMM SECON CODA AMPLIT PERI AZIMU VELO AIN AR TRES W  DIS CAZ7
 BAR2 SZ EP   1    0 4 59.38                             166    0.00 7 29.0 154 
 BAR2 SZ ES   2    0 5 13.03                             166    0.30 5 29.0 154 
 BAR2 SZ I         0 5 13.74        19.7 0.34                          29.0 154 
 BRR  HZ EP   2    0 5  0.04                             154   -0.07 5 55.3 304 
 BRR  HE ES   2    0 5 13.85                             154   -0.20 5 55.3 304 
 BRR  HZ I         0 5 19.33        10.4 0.68                          55.3 304 
 PAM  SN ES   2    0 5 18.86                             143   -0.03 5 86.9  49 
 RUS  HZ EP   2    0 5  4.20                             137   -0.15 5  106 167 
 RUS  HN ES   2    0 5 21.52                             137   -0.07 5  106 167 
 RUS  HZ I         0 5 22.86         2.3 0.27                           106 167 
 ZAR  HZ EP   2    0 5 11.87                             119    0.30 4  187 293 
 ZAR  HN ES   2    0 5 34.40                             119   -0.04 4  187 293 
 ZAR  HZ I         0 5 37.83         3.4 0.26                           187 293 
                                                                                
