 2017  719 0759 12.8 L   6.879 -73.181140.9  RSN  4 0.2 1.3LRSN                1
 GAP=279        0.46       6.4     4.3  5.3  0.1373E+02  0.7034E+01 -0.4722E+01E
 Epicentro: BETULIA - SANTANDER                                                3
 ACTION:UPD 17-08-30 15:34 OP:rebc STATUS:               ID:20170719075912 L   I
 OLDACT:REG 17-07-19 13:58 OP:dnl  STATUS:               ID:20170719075746     3
 2017-07-19-0758-00M.COL___368                                                 6
 STAT SP IPHASW D HRMM SECON CODA AMPLIT PERI AZIMU VELO AIN AR TRES W  DIS CAZ7
 BAR2 EZ EP   2    759 32.52                             166    0.51 5 31.8 180 
 BAR2 EZ ES        759 46.92                             166   -0.1010 31.8 180 
 BAR2 EZ I         759 48.27         8.3 0.78            169           31.8 180 
 RUS  HZ EP   2    759 36.34                             140   -0.38 5  110 174 
 RUS  HN ES        759 55.50                             140    0.0910  110 174 
 RUS  HZ I         759 56.72         2.2 0.20            143            110 174 
 PTB  HZ EP        759 39.16                             131   -0.01 9  146 255 
 PTB  HN ES        759 59.76                             131   -0.01 9  146 255 
 PTB  HZ I         8 0  2.14         1.8 0.42            132            146 255 
 ZAR  HE ES   4    8 0 10.90                             122    2.20 0  197 290 
 ZAR  HZ I         8 0 12.22         2.5 0.60            122            197 290 
                                                                                
