 2012 1219 0643 41.4 L   6.754 -73.127140.7  RSN  8 0.4 1.6LRSN                1
 GAP= 74        0.91       4.7     4.1  5.9  0.3912E+01  0.2344E+01 -0.8454E+00E
 Epicentro: LOS SANTOS - SANTANDER                                             3
 ACTION:UPD 13-01-04 14:29 OP:ep   STATUS:               ID:20121219064341 L   I
 2012-12-19-0640-00M.COL___243                                                 6
 STAT SP IPHASW D HRMM SECON CODA AMPLIT PERI AZIMU VELO AIN AR TRES W  DIS CAZ7
 BAR2 SZ EP        644  0.32                             172   -0.0610 18.9 199 
 BAR2 SZ ES        644 14.88                             172   -0.2810 18.9 199 
 BAR2 SZ I         644 16.24        14.9 0.11                          18.9 199 
 GIR2 SZ EP   1    644  0.46                             165   -0.22 7 36.7 348 
 BRR  HZ EP        644  2.39                             150    0.0810 75.6 301 
 BRR  HE ES        644 19.11                             150    0.5210 75.6 301 
 BRR  HZ I         644 23.68         5.2 0.09                          75.6 301 
 PAM  SZ EP        644  3.27                             149   -0.0310 80.2  36 
 PAM  SN ES        644 20.19                             149   -0.1510 80.2  36 
 PAM  SZ I         644 22.50         8.8 0.44                          80.2  36 
 RUS  HZ EP   1    644  4.62                             144    0.30 7 95.3 177 
 RUS  HE ES        644 22.36                             144    0.1910 95.3 177 
 RUS  HE I         644 23.88        10.7 0.31                          95.3 177 
 PTB  HZ EP        644  7.24                             131   -0.87 9  149 261 
 PTB  HZ I         644 29.95         4.3 0.23                           149 261 
 TAM  HZ EP        644  8.63                             130    0.21 9  152 103 
 ZAR  HZ EP   1    644 14.76                             121    0.79 6  208 293 
 ZAR  HE ES        644 39.26                             121   -0.09 8  208 293 
 ZAR  HZ I         644 45.46         3.5 0.25                           208 293 
                                                                                
