 2016  519 0245 48.4 L   6.783 -73.104149.1  RSN  7 0.4 1.5LRSN                1
 GAP=241        1.06       5.5     5.9  6.8  0.9901E+01  0.9634E+01  0.2033E+01E
 Epicentro: LOS SANTOS - SANTANDER                                             3
 ACTION:UPD 16-08-18 17:47 OP:cam  STATUS:               ID:20160519024548 L   I
 OLDACT:UP  16-05-19 17:49 OP:mh   STATUS:               ID:20160519023742     3
 OLDACT:UP  16-05-19 17:49 OP:mh   STATUS:               ID:20160519023742     3
 OLDACT:REG 16-05-19 14:26 OP:mh   STATUS:               ID:20160519023742     3
 2016-05-19-0237-42M.COL___299                                                 6
 STAT SP IPHASW D HRMM SECON CODA AMPLIT PERI AZIMU VELO AIN AR TRES W  DIS CAZ7
 BAR2 EZ EP        246  8.71                             171    0.2410 22.9 202 
 BAR2 EZ ES        246 23.83                             171   -0.2610 22.9 202 
 BAR2 EZ I         246 25.54         5.8 0.19            167           22.9 202 
 BRR  HZ EP        246 10.63                             151    0.3910 76.2 298 
 BRR  HN ES        246 27.95                             151    0.7110 76.2 298 
 BRR  HZ I         246 32.52         7.6 0.27            150           76.2 298 
 RUS  HZ EP        246 12.50                             145    0.1110 98.5 179 
 RUS  HN ES        246 30.43                             145   -0.6310 98.5 179 
 RUS  HZ I         246 35.79         1.6 0.24            147           98.5 179 
 PTB  HZ EP        246 16.03                             132   -0.04 9  152 260 
 PTB  HN ES        246 37.21                             132   -0.41 9  152 260 
 PTB  HZ I         246 44.30         4.1 0.29            132            152 260 
 SPBC HZ EP        246 17.66                             129    0.30 9  165 221 
 SPBC HN ES   1    246 40.17                             129    0.27 7  165 221 
 SPBC HZ I         246 42.42         5.7 0.25            131            165 221 
 ZAR  HZ EP        246 20.98                             122   -0.65 8  209 292 
 ZAR  HN ES        246 46.96                             122   -0.55 8  209 292 
 ZAR  HZ I         246 54.17         3.2 0.28            124            209 292 
 NOR  HZ EP        246 24.62                             119   -0.05 8  237 235 
 NOR  HE ES        246 53.47                             119    0.55 8  237 235 
 NOR  HZ I         246 57.56         3.0 0.17            120            237 235 
                                                                                
