 2012  219 0858 50.6 L   6.834 -73.085149.3  RSN  5 0.4 1.0LRSN                1
 GAP=204        0.53       7.6     7.9  8.9  0.2166E+02  0.9074E+01  0.1794E+02E
 ACTION:UP  12-03-07 16:32 OP:epov STATUS:               ID:20120219085850 L   I
 2012-02-19-0850-00M.COL___188                                                 6
 STAT SP IPHASW D HRMM SECON CODA AMPLIT PERI AZIMU VELO AIN AR TRES W  DIS CAZ7
 BAR2 SZ EP   2    859 10.67                             168   -0.15 5 28.8 202 
 BAR2 SZ I         859 25.70         2.5 0.26                          28.8 202 
 GIR2 SZ ES   2    859 25.87                             168   -0.46 5 29.6 336 
 BRR  HZ EP   2    859 12.90                             152    0.48 5 75.5 294 
 BRR  HZ I         859 14.55         1.7 0.23                          75.5 294 
 BRR  HE ES   2    859 29.79                             152    0.39 5 75.5 294 
 RUS  HZ EP   2    859 15.24                             143    0.25 5  104 180 
 RUS  HN ES   2    859 34.04                             143    0.05 5  104 180 
 PTB  HZ EP   2    859 17.91                             131   -0.65 5  155 258 
 PTB  HE ES   2    859 40.33                             131   -0.01 5  155 258 
                                                                                
