 2012  519 0420  4.6 L   6.871 -73.266122.2  RSN  7 0.5 2.0LRSN                1
 GAP=166        0.88       4.3     7.4  7.5  0.3907E+01  0.1391E+02 -0.2933E+01E
 Epicentro: BETULIA - SANTANDER                                                3
 ACTION:UP  12-07-05 12:06 OP:pat  STATUS:               ID:20120519042004 L   I
 2012-05-19-0420-00M.COL___200                                                 6
 STAT SP IPHASW D HRMM SECON CODA AMPLIT PERI AZIMU VELO SNR AR TRES W  DIS CAZ7
 BAR2 SZ EP        420 22.02                             164     0.410   32 163 
 BAR2 SZ ES   1    420 34.59                             164    -0.4 7   32 163 
 BAR2 SZ I         420 36.20        67.0 0.26                            32 163 
 BRR  HZ EP        420 22.41                             153     0.110   56 298 
 BRR  HN ES   1    420 36.28                             153     0.1 7   56 298 
 BRR  HZ I         420 37.79        24.1 0.46                            56 298 
 RUS  HZ EP   2    420 27.25                             135     0.4 5  110 169 
 RUS  HE ES   2    420 44.07                             135    -0.2 5  110 169 
 OCA  HZ EP        420 30.08                             125    -0.2 9  151 358 
 OCA  HN ES   1    420 50.07                             125    -0.3 7  151 358 
 ZAR  HZ EP   2    420 33.56                             118    -0.4 4  189 291 
 ZAR  HN ES   2    420 56.37                             118    -0.5 4  189 291 
 ZAR  HZ I         421  1.25         9.9 0.46                           189 291 
 CHI  HE ES   2    421  9.12                             111    -1.4 4  253 192 
 HEL  HZ EP        420 43.11                             110     0.6 8  261 253 
 HEL  HZ I         420 44.27         2.4 0.74                           261 253 
                                                                                
