 2017  919 0512 42.7 L   6.780 -73.098153.6  RSN 11 0.3 1.5LRSN                1
 GAP=117        0.70       2.7     3.3  4.2  0.1301E+01 -0.1213E+01  0.8431E+00E
 Epicentro: LOS SANTOS - SANTANDER                                             3
 ACTION:UPD 17-10-05 19:14 OP:rebc STATUS:               ID:20170919051242 L   I
 OLDACT:UP  17-09-19 15:49 OP:and  STATUS:               ID:20170919050747d    3
 OLDACT:UP  17-09-19 15:48 OP:and  STATUS:               ID:20170919050747d    3
 OLDACT:UP  17-09-19 15:48 OP:and  STATUS:               ID:20170919050747d    3
 OLDACT:UP  17-09-19 15:46 OP:and  STATUS:               ID:20170919050747d    3
 OLDACT:DUP 17-09-19 15:42 OP:and  STATUS:               ID:20170919050747d    3
 OLDACT:UP  17-09-19 15:42 OP:and  STATUS:               ID:20170919050746     3
 OLDACT:UP  17-09-19 15:42 OP:and  STATUS:               ID:20170919050746     3
 OLDACT:UP  17-09-19 15:40 OP:and  STATUS:               ID:20170919050746     3
 OLDACT:REG 17-09-19 12:55 OP:and  STATUS:               ID:20170919050746     3
 2017-09-19-0508-00M.COL___444                                                 6
 STAT SP IPHASW D HRMM SECON CODA AMPLIT PERI AZIMU VELO AIN AR TRES W  DIS CAZ7
 BAR2 EZ IP     D  513  3.09                             171   -0.2110 22.8 204 
 BAR2 EZ ES        513 19.18                             171   -0.1510 22.8 204 
 BAR2 EZ I         513 20.55         8.5 0.26            170           22.8 204 
 PAM  EZ EP        513  6.06                             153    0.3510 75.9  35 
 PAM  EN ES   2    513 23.16                             153   -0.46 5 75.9  35 
 PAM  EZ I         513 25.32         9.0 0.56            155           75.9  35 
 BRR  HZ IP     C  513  4.94                             152   -0.1110 76.8 298 
 BRR  HN ES        513 22.65                             152    0.2010 76.8 298 
 BRR  HZ I         513 25.40         6.0 0.16            150           76.8 298 
 RUS  HZ EP        513  7.20                             146    0.1010 98.2 179 
 RUS  HN ES        513 25.98                             146   -0.1210 98.2 179 
 RUS  HZ I         513 27.30         2.2 0.18            147           98.2 179 
 SPBC HZ IP     C  513 12.07                             130    0.07 9  165 221 
 SPBC HN ES        513 34.65                             130   -0.18 9  165 221 
 SPBC HZ I         513 37.51         4.4 0.12            131            165 221 
 YPLC HZ EP        513 13.17                             129    0.48 9  172 153 
 ZAR  HZ EP        513 15.87                             123   -0.41 8  210 292 
 ZAR  HN ES        513 42.69                             123    0.25 8  210 292 
 ZAR  HZ I         513 46.88         5.0 0.26            123            210 292 
 NOR  HN ES   2    513 47.25                             120   -0.49 4  238 236 
 NOR  HZ I         513 51.90         2.0 0.22            120            238 236 
 CHI  HN ES        513 50.86                             119    0.35 8  248 196 
 GUY2CHZ EP   9    513 28.51                             113    1.45 0  304 236 
 GUY2CHN ES        514  3.56                             113    0.48 7  304 236 
 GUY2CHZ I         514 10.23         1.3 0.34                           304 236 
 PTGC HZ EP        513 26.00                             113   -0.52 7  305 159 
                                                                                
