 2014  819 0752 19.4 L   6.905 -73.135150.8  RSN  4 0.5 1.3LRSN                1
 GAP=243        1.08       7.0    12.7 10.5  0.1794E+02 -0.3556E+02 -0.7919E+00E
 Epicentro: PIEDECUESTA - SANTANDER                                            3
 ACTION:UPD 14-09-15 21:51 OP:nd   STATUS:               ID:20140819075219 L   I
 OLDACT:UP  14-08-19 16:28 OP:cam  STATUS:               ID:20140819075000     3
 OLDACT:REG 14-08-19 13:17 OP:cam  STATUS:               ID:20140819075000     3
 2014-08-19-0750-00M.COL___285                                                 6
 STAT SP IPHASW D HRMM SECON CODA AMPLIT PERI AZIMU VELO AIN AR TRES W  DIS CAZ7
 BRR  HZ EP        752 41.05                             155    0.1010 67.6 289 
 BRR  HE ES        752 57.91                             155    0.1910 67.6 289 
 BRR  HZ I         753  2.15         3.1 0.28            150           67.6 289 
 SPBC HZ EP        752 48.69                             128   -0.58 9  173 217 
 ZAR  HZ EP        752 52.86                             124    0.94 9  201 289 
 ZAR  HN ES        753 16.97                             124   -0.29 9  201 289 
 ZAR  HZ I         753 23.48         1.2 0.40            124            201 289 
 SML  HZ EP        752 55.35                             120    0.05 8  234 334 
 SML  HE ES        753 22.75                             120   -0.51 8  234 334 
 SML  HZ I         753 26.64         2.4 0.12            121            234 334 
                                                                                
