 2016  619 0743 52.8 L   6.776 -73.155145.1  RSN  5 0.3 1.3LRSN                1
 GAP=242        0.59       5.6     4.2  5.0  0.9601E+01  0.4716E+01 -0.1173E+01E
 Epicentro: LOS SANTOS - SANTANDER                                             3
 ACTION:UPD 16-07-21 22:20 OP:rebc STATUS:               ID:20160619074352 L   I
 OLDACT:DUP 16-06-19 15:01 OP:dnl  STATUS:               ID:20160619073745d    3
 2016-06-19-0737-44M.COL___340                                                 6
 STAT SP IPHASW D HRMM SECON CODA AMPLIT PERI AZIMU VELO AIN AR TRES W  DIS CAZ7
 BAR2 EZ EP        744 12.35                             172    0.0310 20.5 188 
 BAR2 EZ ES        744 27.67                             172    0.1410 20.5 188 
 BAR2 EZ I         744 28.80         7.7 0.20                          20.5 188 
 RUS  HZ EP        744 16.37                             144    0.0410 98.0 175 
 RUS  HE ES        744 34.51                             144   -0.1510 98.0 175 
 RUS  HZ I         744 35.69         1.4 0.34                          98.0 175 
 PTB  HZ EP        744 19.20                             132   -0.40 9  146 260 
 PTB  HN ES        744 40.30                             132   -0.18 9  146 260 
 PTB  HZ I         744 47.83         2.5 0.34                           146 260 
 SPBC HZ EP        744 21.38                             129    0.36 9  160 219 
 SPBC HN ES   2    744 43.28                             129    0.28 5  160 219 
 SPBC HZ I         744 46.91         3.1 0.52                           160 219 
 ZAR  HZ EP   4    744 27.18                             122    1.94 0  204 293 
 ZAR  HE ES   2    744 50.99                             122    0.48 4  204 293 
 ZAR  HZ I         744 55.95         2.2 0.58                           204 293 
                                                                                
