 2014  919 0646 35.2 L   6.775 -73.172143.5  RSN  7 0.3 1.3LRSN                1
 GAP=134        0.71       2.5     3.4  4.5 -0.2287E+01  0.2101E+01 -0.5114E+00E
 Epicentro: LOS SANTOS - SANTANDER                                             3
 ACTION:UPD 14-10-03 23:06 OP:nd   STATUS:               ID:20140919064635 L   I
 OLDACT:REG 14-09-19 14:14 OP:carl STATUS:               ID:20140919063819     3
 2014-09-19-0638-19M.COL___284                                                 6
 STAT SP IPHASW D HRMM SECON CODA AMPLIT PERI AZIMU VELO AIN AR TRES W  DIS CAZ7
 BAR2 SZ EP        646 54.43                             172   -0.0610 20.2 183 
 BAR2 SZ ES        647  9.54                             172   -0.0010 20.2 183 
 BAR2 SZ I         647 11.34         7.3 0.24            172           20.2 183 
 BRR  HZ EP        646 56.47                             152    0.4310 70.1 302 
 BRR  HE ES        647 12.50                             152    0.2110 70.1 302 
 BRR  HZ I         647 14.48         4.8 0.12            152           70.1 302 
 PAM  SZ EP        646 57.69                             149    0.2810 81.4  40 
 PAM  SN ES        647 14.42                             149   -0.3210 81.4  40 
 PAM  SZ I         647 16.62         6.2 0.46            152           81.4  40 
 RUS  HZ EP        646 58.28                             144   -0.2610 98.0 174 
 RUS  HN ES        647 16.97                             144    0.2210 98.0 174 
 RUS  HZ I         647 18.56         1.0 0.32            146           98.0 174 
 PTB  HZ EP        647  1.67                             132   -0.00 9  144 260 
 PTB  HN ES        647 22.07                             132   -0.26 9  144 260 
 PTB  HZ I         647 24.76         3.0 0.10            133            144 260 
 SPBC HZ EP        647  3.45                             129    0.31 9  159 219 
 SPBC HE ES        647 24.66                             129   -0.28 9  159 219 
 SPBC HZ I         647 30.99         2.0 0.20            131            159 219 
 OCA  HZ EP        647  3.12                             129   -0.44 9  163 354 
 OCA  HN ES        647 25.80                             129    0.11 9  163 354 
 OCA  HZ I         647 29.70         4.0 0.28            130            163 354 
                                                                                
