 2014  119 0243  7.5 L   6.754 -73.179157.3  RSN  4 0.4 1.4LRSN                1
 GAP=197        0.87       4.9     7.5  8.5  0.1523E+02 -0.8105E+01 -0.1432E+02E
 Epicentro: VILLANUEVA - SANTANDER                                             3
 ACTION:UPD 14-03-13 09:56 OP:ep   STATUS:               ID:20140119024307 L   I
 OLDACT:REG 14-01-19 07:41 OP:cam  STATUS:               ID:20140119024000     3
 2014-01-19-0240-00M.COL___285                                                 6
 STAT SP IPHASW D HRMM SECON CODA AMPLIT PERI AZIMU VELO AIN AR TRES W  DIS CAZ7
 BRR  HZ EP   1    243 30.11                             155    0.27 7 70.6 304 
 BRR  HN ES        243 47.78                             155    0.4910 70.6 304 
 RUS  HZ EP   1    243 32.43                             147    0.39 7 95.8 174 
 RUS  HN ES        243 50.78                             147   -0.4310 95.8 174 
 PTB  HZ EP        243 35.19                             135    0.20 9  143 261 
 PTB  HN ES        243 56.21                             135   -0.26 9  143 261 
 PTB  HZ I         244  3.37         2.2 0.52            131            143 261 
 SML  HZ EP   1    243 44.96                             119   -0.13 6  247 337 
 SML  HE ES        244 13.92                             119   -0.52 8  247 337 
 SML  HZ I         244 20.02         2.0 0.22            118            247 337 
                                                                                
