 2012  619 0337 41.1 L   6.799 -73.179141.7  RSN  8 0.5 2.0LRSN                1
 GAP=132        0.73       3.6     5.9  6.4 -0.5442E+01  0.1406E+02 -0.4988E+00E
 Epicentro: LOS SANTOS - SANTANDER                                             3
 ACTION:UPD 12-08-06 17:50 OP:ep   STATUS:               ID:20120619033741 L   I
 2012-06-19-0330-00M.COL___199                                                 6
 STAT SP IPHASW D HRMM SECON CODA AMPLIT PERI AZIMU VELO AIN AR TRES W  DIS CAZ7
 BAR2 SZ IP        338  0.35                             170    0.1510 22.9 181 
 BAR2 SZ ES   1    338 14.38                             170   -0.75 7 22.9 181 
 BAR2 SZ I         338 16.97        18.3 0.42                          22.9 181 
 PAM  SZ EP        338  3.27                             149    0.2610 79.8  42 
 PAM  SN ES   1    338 20.43                             149    0.32 7 79.8  42 
 PAM  SZ I         338 22.54        21.9 0.58                          79.8  42 
 RUS  HZ EP        338  4.19                             143   -0.2510  101 174 
 RUS  HE ES   1    338 23.06                             143    0.39 7  101 174 
 RUS  HZ I         338 25.54        10.4 0.38                           101 174 
 PTB  HZ EP        338  7.27                             132   -0.11 9  144 259 
 PTB  HN ES   2    338 28.17                             132    0.27 5  144 259 
 PTB  HZ I         338 31.93         9.2 0.14                           144 259 
 OCA  HZ EP   1    338  8.54                             129   -0.50 7  160 354 
 OCA  HN ES   2    338 30.86                             129    0.01 5  160 354 
 OCA  HZ I         338 34.96        40.1 0.20                           160 354 
 ZAR  HZ EP   3    338 15.07                             122    2.16 2  201 293 
 CHI  HZ EP        338 18.45                             116    0.01 8  248 194 
 CHI  HZ I         338 20.16         6.1 0.16                           248 194 
 CHI  HN ES   2    338 47.74                             116    0.16 4  248 194 
 HEL  HZ EP   3    338 20.85                             114    0.17 2  268 256 
 HEL  HZ I         338 58.26         4.9 0.36                           268 256 
                                                                                
