 2014  619 0142 36.2 L   6.823 -73.112149.0  RSN 16 0.5 2.4LRSN                1
 GAP=140        1.26       3.1     4.4  5.9 -0.3099E+01  0.8475E+01  0.1504E+01E
 Epicentro: LOS SANTOS - SANTANDER                                             3
 ACTION:UPD 14-07-01 22:55 OP:nd   STATUS:               ID:20140619014236 L   I
 OLDACT:DUP 14-06-19 13:28 OP:carl STATUS:               ID:20140619013818d    3
 2014-06-19-0138-17M.COL___262                                                 6
 STAT SP IPHASW D HRMM SECON CODA AMPLIT PERI AZIMU VELO AIN AR TRES W  DIS CAZ7
 BAR2 SZ IP     C  142 56.27                             169   -0.0210 26.7 197 
 BAR2 SZ ES        143 11.35                             169   -0.6110 26.7 197 
 BAR2 SZ I         143 15.40        41.9 0.22            167           26.7 197 
 PAM  SZ EP        142 59.04                             153    0.5310 73.0  39 
 PAM  SN ES        143 16.27                             153    0.3510 73.0  39 
 PAM  SZ I         143 18.39        55.0 0.54            158           73.0  39 
 BRR  HZ IP     C  142 58.20                             152    0.3810 73.4 295 
 BRR  HN ES        143 15.49                             152    0.8010 73.4 295 
 BRR  HZ I         143 16.64        26.0 0.28            151           73.4 295 
 RUS  HZ EP        143  0.14                             144   -0.3010  103 178 
 RUS  HN ES        143 18.97                             144   -0.3810  103 178 
 RUS  HZ I         143 20.57        12.2 0.42            145            103 178 
 PTB  HZ EP        143  2.90                             132   -0.91 9  152 258 
 PTB  HN ES        143 24.38                             132   -0.96 9  152 258 
 PTB  HZ I         143 31.48        38.8 0.40            132            152 258 
 OCA  HZ EP        143  4.24                             131   -0.33 9  158 352 
 OCA  HN ES        143 27.03                             131    0.32 9  158 352 
 OCA  HZ I         143 32.05        30.5 0.44            134            158 352 
 SPBC HZ EP        143  5.22                             129   -0.14 9  168 219 
 SPBC HT ES        143 28.77                             129    0.67 9  168 219 
 SPBC HZ I         143 34.50        36.3 0.16            130            168 219 
 ZAR  HZ EP        143  8.97                             123   -0.14 8  207 291 
 ZAR  HN ES        143 34.86                             123    0.07 8  207 291 
 ZAR  HZ I         143 40.46        18.8 0.20            124            207 291 
 NOR  HZ EP        143 12.45                             119   -0.15 8  239 234 
 NOR  HN ES        143 40.14                             119   -0.85 8  239 234 
 NOR  HZ I         143 45.54        22.9 0.32            120            239 234 
 SML  HZ EP        143 12.44                             118   -0.49 8  243 334 
 SML  HN ES        143 40.99                             118   -0.59 8  243 334 
 CHI  HZ EP        143 14.44                             117   -0.01 8  252 196 
 CHI  HE ES        143 44.47                             117    0.18 8  252 196 
 CHI  HZ I         143 52.71         5.7 0.30            119            252 196 
 HEL  HZ EP        143 17.68                             115    0.63 7  276 255 
 HEL  HE ES        143 49.86                             115    0.95 7  276 255 
 HEL  HZ I         143 55.47        17.4 0.42            116            276 255 
 GUY2CHZ EP        143 21.20                             113    0.73 7  306 235 
 GUY2CHE ES        143 54.62                             113   -0.38 7  306 235 
 GUY2CHZ I         144  3.43        14.2 0.30                           306 235 
 RREF HZ EP        143 22.94                             111   -0.05 7  326 229 
 RREF HN ES        143 59.71                             111    0.22 7  326 229 
 RREF HZ I         144  8.30        14.7 0.22            113            326 229 
 CBOC HZ EP        143 23.82                             110    0.08 7  338 252 
 CBOC HN ES        144  0.57                             110   -0.26 7  338 252 
 CBOC HZ I         144  8.43         4.4 0.34            112            338 252 
 TOL  SZ EP        143 25.23                             110    0.14 6  348 225 
 TOL  SE ES        144  4.58                             110    1.35 6  348 225 
 TOL  SZ I         144  8.43        22.9 0.68            111            348 225 
                                                                                
