 2011 1019 0740  6.1 L   6.785 -73.103150.6  RSN 12 0.2 2.4LRSN                1
 GAP=118        0.38       1.9     2.4  3.7 -0.9257E-01  0.2624E+01  0.1486E+01E
 Epicentro: LOS SANTOS - SANTANDER                                             3
 ACTION:UPD 12-07-13 16:04 OP:ep   STATUS:               ID:20111019074006 L   I
 2011-10-19-0738-34S.COL___153                                                 6
 STAT SP IPHASW D HRMM SECON CODA AMPLIT PERI AZIMU VELO AIN AR TRES W  DIS CAZ7
 BAR2 SZ IP        740 26.20                             171   -0.1510 23.0 202 
 BAR2 SZ ES   2    740 41.81                             171   -0.30 5 23.0 202 
 BAR2 SZ I         740 44.07        64.4 0.34                          23.0 202 
 PAM  SZ IP        740 28.99                             152    0.2110 75.8  36 
 PAM  SN ES   2    740 46.44                             152   -0.01 5 75.8  36 
 BRR  HZ IP     D  740 28.12                             152    0.0310 76.1 298 
 BRR  HE ES   2    740 45.62                             152    0.41 5 76.1 298 
 BRR  HZ I         740 50.14        51.6 0.12                          76.1 298 
 RUS  HZ EP   1    740 30.04                             145   -0.20 7 98.7 179 
 RUS  HN ES   2    740 49.05                             145    0.01 5 98.7 179 
 RUS  HZ I         740 50.25        23.2 0.26                          98.7 179 
 OCA  SZ EP   2    740 34.92                             130   -0.12 5  163 352 
 OCA  SZ ES   2    740 57.32                             130   -0.26 5  163 352 
 OCA  SZ I         741  2.83        28.8 0.35                           163 352 
 YOP  SZ EP   2    740 36.59                             128    0.40 4  175 154 
 YOP  SZ I         740 37.10        14.1 0.54                           175 154 
 YOP  SE ES   2    740 59.80                             128    0.16 4  175 154 
 ZAR  HZ EP   2    740 38.86                             123   -0.55 4  209 292 
 ZAR  HN ES   2    741  5.20                             123   -0.16 4  209 292 
 ZAR  HZ I         741 10.42        36.8 0.43                           209 292 
 NOR  SZ EP   2    740 42.08                             119   -0.38 4  238 235 
 NOR  SN ES   2    741 10.71                             119   -0.08 4  238 235 
 HEL  HZ EP   1    740 47.50                             115    0.44 6  276 256 
 HEL  HN ES   2    741 19.36                             115    0.38 4  276 256 
 VIL  SZ EP   2    740 49.60                             113   -0.11 4  303 193 
 VIL  SN ES   2    741 23.59                             113   -0.10 4  303 193 
 VIL  SZ I         741 30.92         9.9 0.57                           303 193 
 RREF HZ EP   2    740 52.88                             111    0.10 3  324 230 
 RREF HN ES   2    741 29.18                             111    0.02 3  324 230 
 RREF HZ I         741 34.77        17.9 0.26                           324 230 
 PRA  HZ EP   2    740 59.76                             107   -0.17 3  393 210 
 PRA  HN ES   2    741 41.90                             107    0.00 3  393 210 
                                                                                
