 2015  319 0939 41.2 L   6.718 -73.150135.8  RSN  5 0.9 1.1LRSN                1
 GAP=139        2.27      11.5    11.4 17.0 -0.1246E+02  0.3110E+02  0.2806E+01E
 Epicentro: VILLANUEVA - SANTANDER                                             3
 ACTION:UPD 15-04-30 16:27 OP:nd   STATUS:               ID:20150319093943 L   I
 OLDACT:UP  15-03-24 08:43 OP:CAM  STATUS:               ID:20150319093943 L   3
 OLDACT:REG 15-03-19 13:02 OP:stll STATUS:               ID:20150319093743     3
 2015-03-19-0937-43M.COL___269                                                 6
 STAT SP IPHASW D HRMM SECON CODA AMPLIT PERI AZIMU VELO AIN AR TRES W  DIS CAZ7
 BAR2 EZ EP   4    940  1.62                             174    2.09 0 14.4 194 
 BAR2 EZ ES        940 14.75                             174    0.9710 14.4 194 
 BAR2 EZ I         940 16.28         2.9 0.26            172           14.4 194 
 BRR  HZ EP        940  3.00                             149    1.4010 75.5 305 
 BRR  HN ES        940 18.01                             149    0.5410 75.5 305 
 PAM  SZ EP        940  2.29                             147   -0.6110 84.8  36 
 PAM  SN ES        940 18.81                             147   -0.9810 84.8  36 
 PAM  SZ I         940 20.85         4.9 0.52            150           84.8  36 
 RUS  HZ EP        940  3.85                             144    0.4810 91.6 175 
 RUS  HN ES        940 20.14                             144   -0.4910 91.6 175 
 RUS  HZ I         940 21.83         1.2 0.36            146           91.6 175 
 PTB  HZ EP        940  7.18                             130   -0.06 9  146 262 
 PTB  HN ES        940 26.07                             130   -1.44 9  146 262 
 PTB  HZ I         940 33.77         1.8 0.40            130            146 262 
                                                                                
