 2014 1119 0430  9.2 L   6.209 -74.214 73.9  RSN 24 0.5 2.4LRSN                1
 GAP= 53        1.10       2.0     1.9  5.2 -0.8917E+00 -0.2585E+00  0.9911E+00E
 Epicentro: CIMITARRA - SANTANDER                                              3
 ACTION:UPD 14-12-19 15:44 OP:nd   STATUS:               ID:20141119043009 L   I
 OLDACT:REG 14-11-19 13:55 OP:fm   STATUS:               ID:20141119042743     3
 2014-11-19-0427-43M.COL___286                                                 6
 STAT SP IPHASW D HRMM SECON CODA AMPLIT PERI AZIMU VELO AIN AR TRES W  DIS CAZ7
 PTB  HZ IP     C  430 20.86                             145   -0.3410 45.3 324 
 PTB  HN ES        430 30.37                             145   -0.1810 45.3 324 
 PTB  HZ I         430 30.90       160.2 0.34            143           45.3 324 
 SPBC HZ IP     D  430 22.85                             135    0.1110 63.5 166 
 SPBC HN ES        430 33.60                             135    0.3110 63.5 166 
 SPBC HZ I         430 34.15       207.7 0.20            130           63.5 166 
 NOR  HZ EP        430 26.08                             120   -0.3610  102 226 
 NOR  HN ES        430 39.35                             120   -0.5310  102 226 
 NOR  HZ I         430 40.22       105.6 0.12            116            102 226 
 BRR  HZ EP        430 27.67                             117    0.0010  114  29 
 BRR  HN ES        430 42.43                             117    0.3710  114  29 
 BRR  HZ I         430 44.50        77.6 0.12            114            114  29 
 BAR2 SZ EP        430 29.33                             115    0.4810  122  70 
 BAR2 SZ ES        430 44.88                             115    0.7110  122  70 
 BAR2 SZ I         430 46.67        41.4 0.14            112            122  70 
 RUS  HZ EP        430 30.05                             114   -0.0510  130 106 
 RUS  HN ES        430 46.40                             114    0.0210  130 106 
 RUS  HZ I         430 49.34        24.1 0.32            110            130 106 
 HEL  HZ EP        430 31.32                             111   -0.40 9  146 269 
 HEL  HE ES        430 48.98                             111   -0.30 9  146 269 
 HEL  HZ I         430 51.33        39.8 0.50            108            146 269 
 CHI  HZ EP        430 35.52                             106   -0.60 9  183 163 
 CHI  HN ES        430 56.81                             106   -0.29 9  183 163 
 CHI  HZ I         431  2.23        18.3 0.32            103            183 163 
 CBOC HZ EP        430 39.08                             104    0.87 9  203 259 
 CBOC HN ES        431  0.52                             104   -0.31 9  203 259 
 CBOC HZ I         431 10.00         9.9 0.48            102            203 259 
 PAM  SZ EP        430 39.64                             104    0.29 8  209  53 
 PAM  SN ES        431  2.31                             104   -0.54 8  209  53 
 PAM  SZ I         431  4.90        11.9 0.24            101            209  53 
 TOL  SZ EP        430 40.71                             103    0.53 8  217 214 
 TOL  SN ES        431  4.74                             103    0.41 8  217 214 
 TOL  SZ I         431  8.10        57.5 0.68            100            217 214 
 URE  HZ EP   4    430 39.41                             102   -1.21 0  224 320 
 URE  HN ES   4    431  3.31                             102   -1.81 0  224 320 
 URE  HZ I         431  5.32        79.3 0.24            100            224 320 
 ANIL HZ EP        430 42.27                             102    0.48 8  231 215 
 ANIL HN ES        431  7.79                             102    0.59 8  231 215 
 DBB  SZ EP        430 42.48                             102    0.11 8  238 292 
 DBB  SZ ES   1    431  8.26                             102    0.03 6  238 292 
 DBB  SZ I         431 12.21        62.0 0.30             99            238 292 
 OCA  HZ EP        430 43.13                             101   -0.19 8  245  24 
 OCA  HE ES        431  9.76                             101   -0.15 8  245  24 
 OCA  HZ I         431 15.76        29.7 0.20             99            245  24 
 TAM  HZ EP        430 46.41                             100    0.33 8  269  85 
 TAM  HN ES        431 14.51                             100   -0.33 8  269  85 
 TAM  HZ I         431 21.54        14.3 0.64             98            269  85 
 ORTC HZ EP        430 48.29                              99    1.03 7  279 204 
 ORTC HN ES   4    431 19.40                              99    2.47 0  279 204 
 ORTC HZ I         431 28.05        13.2 0.16             98            279 204 
 PRA  HZ EP        430 48.59                              99    0.49 7  286 195 
 PRA  HN ES   4    431 20.75                              99    2.31 0  286 195 
 PRA  HZ I         431 28.30        16.7 0.26             97            286 195 
 PTGC HZ EP        430 51.34                              98   -0.92 7  320 134 
 PTGC HN ES        431 24.46                              98   -1.37 7  320 134 
 PTGC HZ I         431 28.42        13.1 0.28             96            320 134 
 MON  HZ EP   4    430 51.42                              98   -1.56 0  326 331 
 MON  HN ES        431 26.70                              98   -0.41 7  326 331 
 SJC  HZ EP   4    431  3.03                              96   -1.71 0  422 345 
 SJC  HN ES   4    431 44.26                              96   -3.80 0  422 345 
 SJC  HZ I         431 47.53         7.2 0.46             95            422 345 
 GUA  SZ EP   4    431  5.65                              95   -1.52 0  442 156 
 GUA  SN ES   4    431 50.30                              95   -2.07 0  442 156 
 MACC HZ EP   4    431  7.08                              95   -1.26 0  451 175 
 MACC HN ES   4    431 50.95                              95   -3.50 0  451 175 
 MACC HZ I         431 53.85         4.3 0.16             94            451 175 
 GARC HZ EP        431 10.35                              95   -0.21 5  467 198 
 GARC HN ES        431 58.26                              95   -0.14 5  467 198 
 GARC HZ I         432  3.64         9.4 0.26             94            467 198 
 FLO2 HZ EP        431 18.06                              94   -0.71 4  536 197 
                                                                                
