 2017  519 0824 13.7 L   5.909 -73.650128.2  RSN  9 0.4 1.7LRSN                1
 GAP=115        0.94       3.1     3.1  7.6  0.3375E+01 -0.4509E+01 -0.4885E+01E
 Epicentro: BARBOSA - SANTANDER                                                3
 ACTION:UPD 17-06-16 13:37 OP:jn   STATUS:               ID:20170519082413 L   I
 OLDACT:UP  17-05-19 15:46 OP:dnl  STATUS:               ID:20170519081730d    3
 OLDACT:DUP 17-05-19 15:42 OP:dnl  STATUS:               ID:20170519081730d    3
 2017-05-19-0818-00M.COL___350                                                 6
 STAT SP IPHASW D HRMM SECON CODA AMPLIT PERI AZIMU VELO AIN AR TRES W  DIS CAZ7
 SPBC HZ EP        824 32.17                             155    0.0010 54.8 239 
 SPBC HE ES        824 46.41                             155   -0.1610 54.8 239 
 SPBC HZ I         824 47.77        24.6 0.16            155           54.8 239 
 PTB  HZ EP        824 35.46                             136   -0.6810  113 308 
 PTB  HN ES   4    824 52.16                             136   -1.48 0  113 308 
 PTB  HZ I         824 55.14         3.7 0.32            135            113 308 
 BRR  HZ EP        824 38.01                             131    0.1810  133 357 
 BRR  HN ES        824 56.75                             131    0.0910  133 357 
 BRR  HZ I         824 58.20         9.5 0.12            130            133 357 
 NOR  HZ EP        824 39.15                             129    0.52 9  140 254 
 NOR  HE ES        824 58.57                             129    0.49 9  140 254 
 NOR  HZ I         824 59.66         8.8 0.18            128            140 254 
 CHI  HZ EP   2    824 38.86                             129   -0.39 5  142 184 
 CHI  HN ES        824 59.36                             129    0.18 9  142 184 
 CHI  HZ I         825  0.95         2.8 0.34            128            142 184 
 YPLC HZ EP        824 40.14                             127    0.40 9  152 112 
 YPLC HZ ES        825  0.12                             127    0.06 9  152 112 
 YPLC HZ I         825  2.69        12.4 0.30            126            152 112 
 HEL  HZ EP   2    824 47.16                             118    0.96 4  210 279 
 HEL  HE ES        825 10.83                             118   -0.73 8  210 279 
 HEL  HZ I         825 16.09         3.8 0.42            117            210 279 
 ZAR  HZ EP   2    824 46.81                             116   -0.00 4  220 323 
 ZAR  HE ES        825 12.68                             116    0.04 8  220 323 
 ZAR  HZ I         825 18.11         4.8 0.32            115            220 323 
 PTGC HZ EP   2    824 50.22                             113   -0.23 4  253 138 
 PTGC HE ES        825 18.41                             113   -0.71 8  253 138 
 PTGC HZ I         825 26.75         5.5 0.44            112            253 138 
                                                                                
