 2012  919 0422 44.9 L   6.772 -73.140144.7  RSN  6 0.3 1.4LRSN                1
 GAP=139        0.69       4.7     4.2  7.3  0.1944E+01  0.3422E+01 -0.8974E+00E
 Epicentro: LOS SANTOS - SANTANDER                                             3
 ACTION:UPD 12-10-22 14:19 OP:ep   STATUS:               ID:20120919042244 L   I
 2012-09-19-0420-00M.COL___226                                                 6
 STAT SP IPHASW D HRMM SECON CODA AMPLIT PERI AZIMU VELO AIN AR TRES W  DIS CAZ7
 BAR2 SZ EP   1    423  4.36                             172    0.01 7 20.4 193 
 BAR2 SZ ES   1    423 19.64                             172    0.12 7 20.4 193 
 BAR2 SZ I         423 21.98         9.0 0.34                          20.4 193 
 BRR  HZ EP   1    423  6.10                             152    0.05 7 73.2 300 
 BRR  HZ I         423 21.02         4.4 0.36                          73.2 300 
 BRR  HN ES   1    423 23.08                             152    0.53 7 73.2 300 
 PAM  SZ EP   1    423  7.27                             150    0.14 7 79.4  38 
 PAM  SN ES   1    423 23.95                             150   -0.51 7 79.4  38 
 RUS  HZ EP   1    423  8.37                             144    0.04 7 97.5 176 
 RUS  HE ES   1    423 26.71                             144    0.11 7 97.5 176 
 RUS  HZ I         423 28.62         2.3 0.46                          97.5 176 
 PTB  HN ES   1    423 32.01                             132   -0.75 7  148 260 
 ZAR  HE ES   1    423 43.06                             122    0.21 6  206 293 
                                                                                
