 2015  319 0926 36.2 L   6.783 -73.166144.0  RSN 14 0.7 2.2LRSN                1
 GAP= 71        1.49       4.3     4.8  8.1 -0.4372E+01  0.7482E+01  0.1793E+01E
 Epicentro: LOS SANTOS - SANTANDER                                             3
 ACTION:UPD 15-04-30 16:27 OP:nd   STATUS:               ID:20150319092636 L   I
 OLDACT:DUP 15-03-19 18:43 OP:stll STATUS:               ID:20150319091748d    3
 2015-03-19-0917-47M.COL___272                                                 6
 STAT SP IPHASW D HRMM SECON CODA AMPLIT PERI AZIMU VELO AIN AR TRES W  DIS CAZ7
 BAR2 EZ EP        926 55.78                             171    0.2110 21.1 185 
 BAR2 EZ I         927 12.56        24.0 0.46            174           21.1 185 
 BRR  HZ EP        926 57.62                             153    0.5210 70.2 301 
 BRR  HZ I         926 57.87        21.5 0.14            151           70.2 301 
 BRR  HN ES        927 14.86                             153    1.4610 70.2 301 
 PAM  SZ EP        926 58.55                             150    0.1510 80.3  40 
 PAM  SZ I         926 58.72        19.0 0.20            147           80.3  40 
 PAM  SN ES        927 15.22                             150   -0.5010 80.3  40 
 RUS  HZ EP        926 59.69                             144    0.0410 98.8 175 
 RUS  HE ES        927 17.47                             144   -0.4710 98.8 175 
 RUS  HZ I         927 20.91        12.5 0.54            145           98.8 175 
 PTB  HZ EP        927  2.32                             132   -0.47 9  145 259 
 PTB  HN ES        927 23.52                             132   -0.01 9  145 259 
 PTB  HZ I         927 27.17        20.4 0.12            132            145 259 
 TAM  HZ EP        927  3.69                             130   -0.20 9  157 104 
 TAM  HZ I         927  4.11        29.4 0.32            129            157 104 
 SPBC HZ EP        927  4.61                             129    0.32 9  160 219 
 SPBC HN ES        927 25.90                             129   -0.29 9  160 219 
 SPBC HZ I         927 33.80        21.6 0.22            130            160 219 
 OCA  HZ EP        927  4.86                             129    0.33 9  162 354 
 OCA  HZ I         927 31.58        24.5 0.28            127            162 354 
 ZAR  HZ EP        927  8.68                             122    0.29 9  203 293 
 ZAR  HN ES        927 33.05                             122   -0.45 9  203 293 
 ZAR  HZ I         927 41.32        14.9 0.56            122            203 293 
 NOR  HZ EP        927 11.00                             118   -0.51 8  232 235 
 NOR  HN ES        927 37.58                             118   -1.47 8  232 235 
 SML  HZ EP        927 12.20                             117   -0.62 8  245 336 
 SML  HN ES        927 40.84                             117   -0.54 8  245 336 
 SML  HZ I         927 43.61        21.7 0.10            116            245 336 
 GUY2CHZ EP        927 19.89                             112    0.49 7  298 235 
 GUY2CHN ES        927 53.34                             112    0.25 7  298 235 
 CBOC HZ EP        927 23.09                             110    0.36 7  331 252 
 CBOC HN ES        927 58.24                             110   -0.78 7  331 252 
 ORTC HZ EP        927 30.48                             106    0.76 6  393 216 
 ORTC HN ES        928 13.27                             106    1.80 6  393 216 
 ORTC HZ I         928 19.27         3.0 0.52            106            393 216 
                                                                                
