 2010  719 0026 35.2 L   6.808 -73.085145.1  RSN  7 0.3 1.7LRSN                1
 GAP=165        0.63       3.2     7.1  7.1 -0.2304E+01 -0.1319E+02 -0.2279E+01E
 Epicentro: LOS SANTOS - SANTANDER                                             3
 ACTION:UPD 10-12-01 15:18 OP:pat  STATUS:               ID:20100719002635 L   I
 2010-07-19-0025-32S.COL___120                                                 6
 STAT SP IPHASW D HRMM SECON CODA AMPLIT PERI AZIMU VELO AIN AR TRES W  DIS CAZ7
 BAR2 SZ EP        026 54.76                             169    -0.110   26 205 
 BAR2 SZ I         027 12.44        10.3 0.35                            26 205 
 BRR  HZ IP     C  026 56.54                             151    -0.110   77 296 
 BRR  HZ I         026 56.89        14.1 0.13                            77 296 
 BRR  HE ES   1    027 13.57                             151     0.3 7   77 296 
 RUS  HZ EP   1    026 58.92                             144     0.0 7  101 180 
 RUS  HN ES   1    027 17.41                             144     0.0 7  101 180 
 RUS  HZ I         027 19.09         7.4 0.42                           101 180 
 GUE  SZ EP   1    026 59.33                             140    -0.4 7  114   9 
 GUE  SZ I         027 22.08         2.3 0.03                           114   9 
 GRA  SZ IP        027  0.50                             138     0.310  123  15 
 GRA  SZ ES   1    027 19.81                             138     0.2 7  123  15 
 OCA  SZ EP   1    027  3.26                             130    -0.2 7  160 351 
 OCA  SZ ES   2    027 24.91                             130    -0.6 5  160 351 
 OCA  SZ I         027 32.22         7.7 0.06                           160 351 
 PRA  HZ EP   2    027 29.61                             106     0.4 3  396 210 
 PRA  HZ I         028 17.36         1.9 0.22                           396 210 
                                                                                
