 2016  619 0254 15.9 L   6.807 -73.110146.0  RSN 15 0.5 2.2LRSN                1
 GAP= 73        1.19       3.7     3.6  6.2 -0.9589E+00  0.6365E+01  0.1699E+01E
 Epicentro: LOS SANTOS - SANTANDER                                             3
 ACTION:UPD 16-07-21 22:20 OP:rebc STATUS:               ID:20160619025415 L   I
 OLDACT:REG 16-06-19 12:19 OP:y    STATUS:               ID:20160619024744     3
 2016-06-19-0247-44M.COL___340                                                 6
 STAT SP IPHASW D HRMM SECON CODA AMPLIT PERI AZIMU VELO AIN AR TRES W  DIS CAZ7
 BAR2 EZ EP     C  254 35.45                             170   -0.1410 25.1 199 
 BAR2 EZ ES        254 50.48                             170   -0.4710 25.1 199 
 BAR2 EZ I         254 51.40        18.5 0.32                          25.1 199 
 PAM  EZ EP   2    254 38.51                             152    0.56 5 74.3  38 
 BRR  HZ I         254 57.67        23.3 0.14                          74.3 297 
 PAM  EN ES   2    254 55.25                             152    0.10 5 74.3  38 
 BRR  HZ EP     C  254 37.48                             151    0.2410 74.3 297 
 PAM  EZ I         254 57.98        12.9 0.18                          74.3  38 
 BRR  HE ES        254 54.64                             151    0.7410 74.3 297 
 RUS  HZ EP        254 39.27                             144   -0.4410  101 178 
 RUS  HE ES        254 57.94                             144   -0.3510  101 178 
 PTB  HZ EP        254 42.19                             131   -1.06 9  152 259 
 TAM  HZ EP        254 43.68                             131    0.42 9  152 106 
 TAM  HZ I         255  4.09        14.3 0.40                           152 106 
 TAM  HE ES        255  5.09                             131    0.49 9  152 106 
 PTB  HN ES   4    255  3.21                             131   -1.37 0  152 259 
 PTB  HZ I         255  8.48        17.5 0.10                           152 259 
 OCA  HZ EP        254 44.50                             130    0.31 9  160 352 
 OCA  HN ES        255  5.91                             130   -0.36 9  160 352 
 OCA  HZ I         255 11.10        42.7 0.46                           160 352 
 SPBC HZ EP        254 44.30                             128   -0.41 9  166 220 
 SPBC HN ES        255  7.19                             128    0.01 9  166 220 
 SPBC HZ I         255 12.05        29.5 0.38                           166 220 
 ZAR  HZ EP   2    254 48.94                             122    0.24 4  207 292 
 ZAR  HN ES        255 14.34                             122    0.05 8  207 292 
 ZAR  HZ I         255 20.37        21.9 0.70                           207 292 
 NOR  HZ EP        254 51.43                             118   -0.60 8  238 235 
 NOR  HE ES        255 20.02                             118   -0.20 8  238 235 
 NOR  HZ I         255 25.18        15.7 0.16                           238 235 
 HEL  HZ EP        254 57.26                             114    0.70 7  276 256 
 HEL  HN ES        255 28.62                             114    0.33 7  276 256 
 HEL  HZ I         255 34.12         8.6 0.34                           276 256 
 URE  HZ EP        254 56.48                             113   -0.87 7  287 291 
 URE  HN ES   4    255 28.14                             113   -1.54 0  287 291 
 URE  HZ I         255 36.63        10.5 0.20                           287 291 
 GUY2CHZ EP        255  0.44                             112    0.51 7  305 235 
 GUY2CHE ES        255 35.25                             112    0.97 7  305 235 
 GUY2CHZ I         255 42.76         9.9 0.28                           305 235 
 PTGC HZ EP   4    254 58.28                             112   -1.41 0  308 159 
 PTGC HE ES   4    255 29.51                             112   -4.34 0  308 159 
 PTGC HZ I         255 42.24        11.7 0.64                           308 159 
 ORTC HZ EP        255 10.11                             106   -0.06 6  398 217 
 ORTC HN ES        255 53.57                             106    1.06 6  398 217 
 ORTC HZ I         255 59.46         3.7 0.64                           398 217 
                                                                                
