 2017  419 0608 31.3 L   6.797 -73.142141.3  RSN 20 0.4 2.6LRSN                1
 GAP=112        1.06       3.5     3.5  5.0 -0.2086E+00  0.3671E+01  0.4479E+01E
 Epicentro: LOS SANTOS - SANTANDER                                             3
 ACTION:UPD 17-05-30 21:14 OP:jn   STATUS:               ID:20170419060637dL   I
 OLDACT:UP  17-04-21 15:24 OP:dnl  STATUS:               ID:20170419060637dL   3
 OLDACT:UP  17-04-21 15:23 OP:dnl  STATUS:               ID:20170419060637dL   3
 OLDACT:DUP 17-04-21 15:11 OP:dnl  STATUS:               ID:20170419060637dL   3
 OLDACT:UP  17-04-19 15:59 OP:dnl  STATUS:               ID:20170419055737     3
 OLDACT:UP  17-04-19 15:59 OP:dnl  STATUS:               ID:20170419055737     3
 OLDACT:UP  17-04-19 15:59 OP:dnl  STATUS:               ID:20170419055737     3
 OLDACT:UP  17-04-19 15:58 OP:dnl  STATUS:               ID:20170419055737     3
 OLDACT:REG 17-04-19 13:13 OP:dnl  STATUS:               ID:20170419055737     3
 2017-04-19-0558-00M.COL___368                                                 6
 STAT SP IPHASW D HRMM SECON CODA AMPLIT PERI AZIMU VELO AIN AR TRES W  DIS CAZ7
 BAR2 EZ IP     D  6 8 50.20                             170   -0.1810 23.1 191 
 BAR2 EZ ES        6 9  5.32                             170    0.0510 23.1 191 
 BAR2 EZ I         6 9  7.64       124.4 0.38            166           23.1 191 
 BRR  HZ IP     D  6 8 52.08                             152    0.0810 71.7 299 
 BRR  HE ES        6 9  9.02                             152    0.8810 71.7 299 
 BRR  HZ I         6 9 11.87        84.9 0.36            150           71.7 299 
 PAM  EZ IP     D  6 8 53.06                             150    0.0210 77.4  39 
 PAM  EE ES        6 9  9.81                             150   -0.1810 77.4  39 
 PAM  EZ I         6 9 12.45        43.9 0.40            156           77.4  39 
 RUS  HZ EP     D  6 8 54.25                             143   -0.3410  100 176 
 RUS  HE ES        6 9 13.00                             143    0.2510  100 176 
 RUS  HZ I         6 9 14.49        60.6 0.36            143            100 176 
 PTB  HZ EP        6 8 56.87                             131   -1.07 9  148 259 
 PTB  HN ES        6 9 17.67                             131   -1.04 9  148 259 
 PTB  HZ I         6 9 23.22        55.6 0.30            130            148 259 
 SPBC HZ EP        6 8 59.38                             128   -0.08 9  163 219 
 SPBC HE ES        6 9 21.26                             128   -0.16 9  163 219 
 SPBC HZ I         6 9 25.46        71.8 0.52            128            163 219 
 YPLC HZ IP     D  6 9  0.78                             126    0.06 9  176 151 
 YPLC HE ES   4    6 9 25.49                             126    1.82 0  176 151 
 YPLC HZ I         6 9 27.36        30.4 0.49            128            176 151 
 ZAR  HZ EP        6 9  3.72                             121    0.21 9  205 292 
 ZAR  HN ES        6 9 28.93                             121    0.30 9  205 292 
 ZAR  HZ I         6 9 36.18        47.6 0.32            122            205 292 
 NOR  HZ EP        6 9  6.77                             117   -0.02 8  235 235 
 NOR  HN ES        6 9 34.27                             117   -0.20 8  235 235 
 NOR  HZ I         6 9 38.25        42.7 0.50            118            235 235 
 CHI  HZ EP        6 9  8.74                             116    0.01 8  248 195 
 CHI  HN ES        6 9 38.34                             116    0.41 8  248 195 
 CHI  HZ I         6 9 41.34        15.4 0.24            117            248 195 
 ROSC BZ EP   4    6 9 10.67                             116    1.50 0  253 211 
 ROSC BE ES   4    6 9 41.69                             116    2.98 0  253 211 
 ROSC BZ I         6 9 46.77        32.2 0.49            116            253 211 
 HEL  HZ EP   9    6 9 12.46                             114    1.13 0  272 256 
 HEL  HE ES        6 9 44.05                             114    0.37 8  272 256 
 HEL  HZ I         6 9 49.13        19.5 0.36            114            272 256 
 URE  HZ EP   9    6 9 10.74                             113   -1.47 0  284 292 
 URE  HE ES        6 9 41.90                             113   -0.75 7  284 292 
 URE  HZ I         6 9 48.95        22.6 0.20            114            284 292 
 PTGC HZ EP   4    6 9 13.54                             111   -1.37 0  308 159 
 PTGC HN ES   4    6 9 47.10                             111   -1.82 0  308 159 
 PTGC HZ I         6 9 49.51        15.6 0.30            112            308 159 
 ELA  HZ EP   4    6 9 19.50                             109    1.52 0  329 230 
 ELA  HN ES   4    6 9 58.71                             109    4.32 0  329 230 
 ELA  HZ I         610  6.34        15.9 0.30            110            329 230 
 CBOC HZ EP        6 9 18.78                             109    0.71 7  334 252 
 CBOC HE ES        6 9 55.08                             109    0.53 7  334 252 
 CBOC HZ I         6 9 57.71         6.1 0.20            110            334 252 
 DBB  EZ EP        6 9 18.50                             109   -0.15 7  340 274 
 DBB  EN ES   4    6 9 54.30                             109   -1.28 0  340 274 
 DBB  EZ I         6 9 59.40        11.7 0.18            109            340 274 
 PRA  HZ EP        6 9 24.83                             106    0.17 6  392 210 
 PRA  HE ES        610  6.73                             106    0.45 6  392 210 
 PRA  HZ I         610 12.14        21.6 0.24            107            392 210 
 ORTC HZ EP        6 9 25.47                             106    0.40 6  395 216 
 ORTC HE ES   4    610  8.57                             106    1.56 0  395 216 
 ORTC HZ I         610 15.08        10.2 0.26            106            395 216 
 PAL  HZ EP        6 9 26.58                             105    0.24 6  406 239 
 PAL  HE ES   4    610  8.27                             105   -1.00 0  406 239 
 PAL  HZ I         610 11.07         6.1 0.24            106            406 239 
                                                                                
