 2011  219 0653 54.4 L   6.756 -73.057126.8  RSN  4 0.5 1.4LRSN                1
 GAP=169        1.29       8.9    38.1 15.8 -0.1927E+03 -0.1353E+03 -0.2169E+02E
 Epicentro: LOS SANTOS - SANTANDER                                             3
 ACTION:UP  11-03-28 15:09 OP:jfem STATUS:               ID:20110219065354 L   I
 2011-02-19-0651-09S.COL___137                                                 6
 STAT SP IPHASW D HRMM SECON CODA AMPLIT PERI AZIMU VELO SNR AR TRES W  DIS CAZ7
 BAR2 SZ EP   1    654 11.67                             169     0.0 7   23 218 
 BAR2 SZ ES   1    654 25.26                             169     0.0 7   23 218 
 BAR2 SZ I         654 27.95         5.8 0.22                            23 218 
 BTL  SZ EP        654 11.83                             166     0.010   29 308 
 RUS  HZ EP   1    654 15.02                             141    -0.9 7   96 182 
 RUS  HN ES   1    654 33.14                             141     0.4 7   96 182 
 RUS  HZ I         654 34.54         3.4 0.29                            96 182 
 GRA  SZ EP        654 18.85                             132     0.710  128  13 
 GRA  SZ ES   1    654 36.08                             132    -0.7 7  128  13 
 GRA  SZ I         654 37.27         5.6 0.34                           128  13 
                                                                                
