 2010 1119 0726 41.5 L   6.823 -72.899137.1  RSN  4 0.4 1.2LRSN                1
 GAP=262        0.86      15.3    21.8 12.5  0.2658E+03 -0.9181E+02 -0.4279E+02E
 Epicentro: SAN ANDRES - SANTANDER                                             3
 ACTION:UP  10-12-17 16:53 OP:REBC STATUS:               ID:20101119072641 L   I
 2010-11-19-0723-25S.COL___126                                                 6
 STAT SP IPHASW D HRMM SECON CODA AMPLIT PERI AZIMU VELO SNR AR TRES W  DIS CAZ7
 BAR2 SZ EP   1    727  1.10                             164     0.5 7   41 231 
 BAR2 SZ I         727  1.52         4.3 0.11                            41 231 
 BAR2 SZ ES   2    727 16.03                             164     0.6 5   41 231 
 BRR  HZ EP   1    727  2.99                             144    -0.3 7   95 289 
 BRR  HZ I         727  6.91         3.5 0.14                            95 289 
 BRR  HN ES   1    727 20.13                             144    -0.2 7   95 289 
 RUS  HZ EP   1    727  4.52                             141    -0.2 7  105 191 
 RUS  HZ I         727  5.81         1.4 0.26                           105 191 
 RUS  HE ES   2    727 22.45                             141    -0.4 5  105 191 
 HEL  HZ EP   2    727 25.15                             111     0.8 4  299 257 
 HEL  HZ I         728  4.60         1.2 0.34                           299 257 
                                                                                
