 2015  319 0447 29.3 L   6.807 -73.157146.5  RSN  9 0.5 1.6LRSN                1
 GAP= 70        1.17       3.7     4.0  7.1  0.5444E+00  0.6107E+00 -0.3362E+01E
 Epicentro: LOS SANTOS - SANTANDER                                             3
 ACTION:UPD 15-04-30 16:27 OP:nd   STATUS:               ID:20150319044729 L   I
 OLDACT:DUP 15-03-19 16:18 OP:stll STATUS:               ID:20150319043737d    3
 2015-03-19-0437-36M.COL___278                                                 6
 STAT SP IPHASW D HRMM SECON CODA AMPLIT PERI AZIMU VELO AIN AR TRES W  DIS CAZ7
 BAR2 EZ EP        447 49.25                             170    0.2010 23.9 187 
 BAR2 EZ ES        448  4.35                             170   -0.0910 23.9 187 
 BAR2 EZ I         448  5.19         5.2 0.28            172           23.9 187 
 BRR  HZ EP        447 51.09                             153    0.6210 69.7 298 
 BRR  HN ES        448  7.34                             153    0.3810 69.7 298 
 BRR  HZ I         448  8.79         9.1 0.14            152           69.7 298 
 PAM  SZ EP        447 52.15                             151    0.5210 77.6  41 
 PAM  SN ES        448  8.92                             151   -0.1110 77.6  41 
 PAM  SZ I         448 11.15         9.4 0.50            152           77.6  41 
 RUS  HZ EP        447 53.48                             144    0.2710  101 175 
 RUS  HN ES        448 12.15                             144    0.3110  101 175 
 RUS  HZ I         448 13.35         2.2 0.24            147            101 175 
 PTB  HZ EP        447 56.00                             132   -0.25 9  147 258 
 PTB  HN ES        448 16.79                             132   -0.46 9  147 258 
 PTB  HZ I         448 24.78         2.4 0.28            133            147 258 
 TAM  HZ EP        447 57.42                             130    0.23 9  157 105 
 TAM  HN ES        448 17.90                             130   -1.03 9  157 105 
 TAM  HZ I         448 18.88        15.0 0.10            134            157 105 
 OCA  HN ES        448 19.92                             130    0.25 9  159 354 
 OCA  HZ I         448 27.94         6.1 0.38            130            159 354 
 SPBC HN ES        448 19.72                             129   -0.39 9  163 218 
 SML  HZ EP        448  5.69                             118   -0.17 8  242 335 
 SML  HN ES        448 33.44                             118   -0.92 8  242 335 
 SML  HZ I         448 35.64         6.5 0.10            118            242 335 
                                                                                
