 2011  619 0601  6.0 L   6.768 -73.104143.0  RSN  7 0.2 1.6LRSN                1
 GAP=164        0.50       3.4     5.5  6.6 -0.7352E+00 -0.2705E+01  0.4711E+01E
 Epicentro: LOS SANTOS - SANTANDER                                             3
 ACTION:UP  11-07-14 19:06 OP:ep   STATUS:               ID:20110619060106 L   I
 2011-06-19-0600-00M.COL___126                                                 6
 STAT SP IPHASW D HRMM SECON CODA AMPLIT PERI AZIMU VELO SNR AR TRES W  DIS CAZ7
 BAR2 SZ EP   1    6 1 25.34                             171     0.1 7   21 204 
 BAR2 SZ ES   2    6 1 39.76                             171    -0.5 5   21 204 
 GIR2 SZ EP   1    6 1 25.45                             165     0.0 7   36 344 
 BRR  HZ IP     C  6 1 27.13                             150     0.010   77 299 
 BRR  HZ I         6 1 27.39        20.4 0.17                            77 299 
 BRR  HE ES   1    6 1 43.99                             150     0.3 7   77 299 
 RUS  HZ EP   1    6 1 29.31                             144     0.1 7   97 179 
 RUS  HE ES   2    6 1 47.41                             144     0.1 5   97 179 
 RUS  HZ I         6 1 51.43         3.5 0.46                            97 179 
 GRA  SZ ES   2    6 1 50.45                             136    -0.3 5  128  15 
 GRA  SZ I         6 1 51.70         7.6 0.25                           128  15 
 NOR  SN ES   2    6 2  9.12                             118    -0.5 4  236 236 
 CHI  HN ES   2    6 2 12.34                             117    -0.1 4  247 196 
 CHI  HZ I         6 2 19.70         2.3 0.47                           247 196 
                                                                                
