 2014 1219 0851 16.5 L   7.225 -73.050140.7  RSN  6 0.4 1.6LRSN                1
 GAP=110        1.01       4.3     6.2 10.5 -0.1921E+01  0.4114E+02 -0.7378E+01E
 Epicentro: TONA - SANTANDER                                                   3
 ACTION:UPD 15-02-10 17:05 OP:nd   STATUS:               ID:20141219085116 L   I
 OLDACT:REG 14-12-19 13:07 OP:y    STATUS:               ID:20141219084749     3
 2014-12-19-0847-49M.COL___293                                                 6
 STAT SP IPHASW D HRMM SECON CODA AMPLIT PERI AZIMU VELO AIN AR TRES W  DIS CAZ7
 PAM  SE ES        851 52.10                             163    0.2110 40.7  72 
 PAM  SZ I         851 56.13         3.0 0.20            169           40.7  72 
 RUS  HN ES        852  4.76                             131   -0.10 9  147 181 
 PTB  HZ EP        851 44.82                             126   -0.64 9  173 244 
 PTB  HN ES        852  7.90                             126   -0.16 9  173 244 
 PTB  HZ I         852 10.88         4.0 0.14            129            173 244 
 ZAR  HZ EP        851 49.32                             122    0.94 9  202 279 
 ZAR  HN ES        852 13.46                             122    0.21 9  202 279 
 ZAR  HZ I         852 20.06         3.6 0.34            124            202 279 
 SML  HZ EP        851 48.93                             121   -0.03 8  207 327 
 SML  HE ES        852 13.77                             121   -0.51 8  207 327 
 SML  HZ I         852 22.12         5.8 0.24            124            207 327 
 HEL  HE ES        852 32.73                             112    0.12 7  297 247 
 HEL  HZ I         852 40.83         2.9 0.52            115            297 247 
                                                                                
