 2014  519 0751 18.8 L   6.823 -73.161142.8  RSN 19 0.5 2.2LRSN                1
 GAP=125        1.03       2.3     3.4  5.3 -0.1536E+01  0.3728E+01  0.1104E+01E
 Epicentro: LOS SANTOS - SANTANDER                                             3
 OLDACT:REG 14-05-19 13:17 OP:spq  STATUS:               ID:20140519074811     3
 ACTION:UPD 15-03-16 16:59 OP:nd   STATUS:               ID:20140519075118 L   I
 OLDACT:UP  14-05-19 17:29 OP:fm   STATUS:               ID:20140519074811     3
 2014-05-19-0748-11M.COL___248                                                 6
 STAT SP IPHASW D HRMM SECON CODA AMPLIT PERI AZIMU VELO AIN AR TRES W  DIS CAZ7
 BRR  HZ EP     C  751 40.12                             153    0.6410 68.4 297 
 BRR  HE ES        751 56.32                             153    0.7110 68.4 297 
 BRR  HZ I         752  0.13        23.5 0.28            149           68.4 297 
 PAM  SZ EP        751 40.90                             150    0.2410 76.5  42 
 PAM  SN ES        751 57.87                             150    0.1710 76.5  42 
 PAM  HZ I         751 59.59        49.9 0.60            150           76.5  42 
 RUS  HZ EP        751 42.25                             142   -0.2210  103 175 
 RUS  HE ES        752  0.79                             142   -0.1410  103 175 
 RUS  HZ I         752  1.86        18.8 0.26            144            103 175 
 PTB  HZ EP        751 44.88                             132   -0.55 9  147 258 
 PTB  HN ES        752  5.80                             132   -0.39 9  147 258 
 PTB  HZ I         752 13.15        13.8 0.24            130            147 258 
 OCA  HZ EP        751 46.56                             129   -0.07 9  157 354 
 OCA  HN ES        752  7.83                             129   -0.50 9  157 354 
 OCA  HZ I         752 13.99        14.7 0.16            128            157 354 
 SPBC HZ EP   1    751 47.38                             128    0.20 7  164 218 
 SPBC HN ES        752  9.06                             128   -0.24 9  164 218 
 SPBC HZ I         752 12.40        25.0 0.22            128            164 218 
 ZAR  HZ EP        751 51.38                             122    0.58 9  201 292 
 ZAR  HE ES        752 16.03                             122    0.29 9  201 292 
 ZAR  HZ I         752 21.77        11.6 0.24            120            201 292 
 NOR  HZ EP        751 54.50                             118    0.12 8  235 234 
 NOR  HN ES        752 21.67                             118   -0.46 8  235 234 
 NOR  HZ I         752 29.50         9.9 0.16            117            235 234 
 SML  HZ EP        751 54.76                             117   -0.18 8  241 335 
 SML  HE ES        752 22.53                             117   -0.58 8  241 335 
 SML  HZ I         752 29.42        29.8 0.08            116            241 335 
 CHI  HZ EP        751 57.11                             116    0.54 8  251 195 
 CHI  HE ES        752 25.14                             116   -0.88 8  251 195 
 CHI  HZ I         752 31.78         6.6 0.78            117            251 195 
 ROSC BN ES   2    752 26.32                             116   -0.32 4  254 210 
 HEL  HZ EP   4    752  0.45                             114    1.69 0  271 255 
 HEL  HN ES        752 29.76                             114   -0.16 8  271 255 
 HEL  HZ I         752 36.84         5.7 0.22            113            271 255 
 URE  HZ EP        751 58.83                             113   -0.62 7  281 292 
 URE  HN ES        752 30.79                             113   -0.36 7  281 292 
 URE  HZ I         752 43.12        10.0 0.18            112            281 292 
 GUY2CHZ EP        752  2.75                             112    0.45 7  301 234 
 GUY2CHE ES        752 36.82                             112    0.61 7  301 234 
 GUY2CHZ I         752 44.66         6.0 0.84                           301 234 
 RREF HZ EP   1    752  5.25                             110    0.38 5  322 229 
 RREF HN ES   1    752 41.16                             110    0.36 5  322 229 
 RREF HZ I         752 49.79        11.0 0.22            110            322 229 
 CBOC HZ EP   4    752  7.44                             109    1.93 0  333 252 
 CBOC HN ES   4    752 40.93                             109   -1.00 0  333 252 
 ARGC HZ EP   1    752  9.04                             108    1.03 5  356 340 
 ARGC HN ES   4    752 47.87                             108    1.50 0  356 340 
 ARGC HZ I         753  2.70         9.7 3.68            107            356 340 
 SDV  BZ EP   1    752  7.87                             108   -0.84 5  360  51 
 SDV  BN ES   4    752 43.80                             108   -3.82 0  360  51 
 SDV  HZ I         752 59.13         4.2 3.15            108            360  51 
 PRA  HZ EP   1    752 12.97                             106    0.57 4  393 209 
 PRA  HE ES        752 54.96                             106    0.77 6  393 209 
 PRA  HZ I         753  1.24         5.0 0.54            106            393 209 
 ORTC HE ES        752 54.25                             106   -0.58 6  397 216 
 SJC  HN ES   4    752 53.68                             105   -3.21 0  406 327 
                                                                                
