 2013  419 0258  1.1 L   6.101 -73.942  5.7  RSN  5 0.4 1.4LRSN                1
 GAP=170        0.89       5.4     2.6  6.4  0.6184E+01  0.1316E+01 -0.3909E+01E
 Epicentro: EL PEON - SANTANDER                                                3
 ACTION:UPD 13-05-22 14:39 OP:EP   STATUS:               ID:20130419025801 L   I
 2013-04-19-0250-00M.COL___250                                                 6
 STAT SP IPHASW D HRMM SECON CODA AMPLIT PERI AZIMU VELO AIN AR TRES W  DIS CAZ7
 PTB  HZ IP     D  258 13.02                              91    0.0210 74.7 310 
 PTB  HN ES   1    258 21.96                              91   -0.35 7 74.7 310 
 PTB  HZ I         258 22.25        11.2 0.18             47           74.7 310 
 RUS  HZ EP        258 17.15                              91    0.1610 97.9 104 
 RUS  HN ES   1    258 28.82                              91   -0.60 7 97.9 104 
 RUS  HZ I         258 29.98         3.5 0.18             47           97.9 104 
 CHI  HZ EP   4    258 31.00                              90    4.01 0  164 172 
 CHI  HN ES   4    258 52.27                              90    5.05 0  164 172 
 CHI  HZ I         258 57.16         4.1 0.28             47            164 172 
 HEL  HZ EP     D  258 28.90                              56    0.30 9  176 273 
 HEL  HN ES   1    258 49.65                              56   -0.44 7  176 273 
 HEL  HZ I         258 51.14         8.1 0.20             47            176 273 
 PAM  SZ EP        258 31.68                              56    0.67 9  194  45 
 PAM  SN ES   1    258 53.92                              56   -0.45 6  194  45 
 PAM  SZ I         258 57.24         8.5 0.22             37            194  45 
                                                                                
