 2016 1019 0456 58.7 L   6.810 -73.174142.5  RSN 12 0.5 1.7LRSN                1
 GAP= 69        0.92       3.2     3.9  5.6 -0.5626E+01  0.1950E+01  0.1247E+01E
 Epicentro: LOS SANTOS - SANTANDER                                             3
 ACTION:UPD 16-11-09 19:20 OP:rebc STATUS:               ID:20161019045658 L   I
 OLDACT:UP  16-10-19 17:35 OP:and  STATUS:               ID:20161019044734     3
 OLDACT:UP  16-10-19 17:31 OP:and  STATUS:               ID:20161019044734     3
 OLDACT:UP  16-10-19 17:29 OP:and  STATUS:               ID:20161019044734     3
 OLDACT:REG 16-10-19 12:48 OP:y    STATUS:               ID:20161019044734     3
 2016-10-19-0448-00M.COL___329                                                 6
 STAT SP IPHASW D HRMM SECON CODA AMPLIT PERI AZIMU VELO AIN AR TRES W  DIS CAZ7
 BAR2 EZ IP     D  457 17.92                             170    0.0110 24.1 182 
 BAR2 EZ ES        457 32.82                             170   -0.1110 24.1 182 
 BAR2 EZ I         457 33.80        10.9 0.14            171           24.1 182 
 BRR  HZ EP        457 19.88                             153    0.6110 67.9 299 
 BRR  HN ES   2    457 36.80                             153    1.45 5 67.9 299 
 BRR  HZ I         457 40.05         5.0 0.20            151           67.9 299 
 PAM  EZ EP     D  457 20.72                             150    0.1210 78.6  42 
 PAM  EN ES        457 37.51                             150   -0.2110 78.6  42 
 PAM  EZ I         457 39.86        11.7 0.48            153           78.6  42 
 RUS  HN ES   2    457 40.49                             143   -0.05 5  102 174 
 RUS  HZ I         457 41.44         6.8 0.30            146            102 174 
 PTB  HZ EP        457 25.06                             132   -0.04 9  145 258 
 PTB  HN ES        457 45.46                             132   -0.26 9  145 258 
 PTB  HZ I         457 49.56         4.8 0.10            132            145 258 
 TAM  HZ IP     D  457 26.23                             129   -0.16 9  158 105 
 OCA  HZ EP        457 26.73                             129    0.15 9  159 354 
 OCA  HN ES        457 48.02                             129   -0.34 9  159 354 
 OCA  HZ I         457 54.48         9.2 0.21            130            159 354 
 SPBC HZ EP        457 27.06                             128    0.26 9  162 218 
 SPBC HE ES        457 48.90                             128    0.15 9  162 218 
 SPBC HZ I         457 51.54         7.9 0.15            130            162 218 
 NOR  HZ EP        457 34.09                             118    0.10 8  233 234 
 NOR  HN ES        458  0.64                             118   -0.91 8  233 234 
 NOR  HZ I         458  9.11         4.3 0.24            119            233 234 
 CHI  HZ EP   3    457 37.77                             116    1.57 2  249 194 
 CHI  HN ES        458  5.48                             116   -0.01 8  249 194 
 CHI  HZ I         458  8.56         2.0 0.34            118            249 194 
 GUY2CHZ EP   9    457 43.86                             112    1.96 0  299 234 
 GUY2CHN ES        458 18.33                                    0.74 7  299 234 
 GUY2CHZ I         458 22.93         2.7 0.26                           299 234 
 SJC  HZ EP   2    457 52.97                             105   -0.83 3  407 327 
 SJC  HN ES   4    458 33.66                             105   -3.16 0  407 327 
 SJC  HZ I         458 38.59         0.9 0.53            106            407 327 
                                                                                
