 2013  319 0005  7.1 L   6.820 -73.111151.9  RSN  5 0.4 2.0LRSN                1
 GAP=243        0.88       7.8     7.4 11.7  0.1339E+02 -0.9907E+01  0.1580E+02E
 Epicentro: LOS SANTOS - SANTANDER                                             3
 ACTION:UPD 13-04-09 14:03 OP:ep   STATUS:               ID:20130319000507 L   I
 2013-03-19-0000-00M.COL___244                                                 6
 STAT SP IPHASW D HRMM SECON CODA AMPLIT PERI AZIMU VELO AIN AR TRES W  DIS CAZ7
 BRR  HZ EP        0 5 29.50                             153    0.4610 73.6 296 
 BRR  HN ES   1    0 5 46.12                             153   -0.03 7 73.6 296 
 BRR  HN I         0 5 50.04        14.1 0.16            151           73.6 296 
 RUS  HZ EP        0 5 31.58                             145   -0.0110  103 178 
 RUS  HN ES   2    0 5 50.60                             145   -0.09 5  103 178 
 RUS  HN I         0 5 51.75         4.7 0.34            149            103 178 
 PTB  HZ EP        0 5 34.42                             133   -0.52 9  152 258 
 PTB  HN ES   1    0 5 56.05                             133   -0.61 7  152 258 
 PTB  HN I         0 6  1.00        14.9 0.46            134            152 258 
 ZAR  HE ES   2    0 6  6.32                             123    0.26 4  207 291 
 ZAR  HE I         0 6 12.06        18.8 0.26            125            207 291 
 NOR  HN ES   1    0 6 12.94                             119    0.78 6  239 235 
 NOR  HN I         0 6 13.37        10.2 0.14            122            239 235 
                                                                                
