 2014  519 0733 17.6 L   6.768 -73.122151.2  RSN  5 0.5 1.2LRSN                1
 GAP=141        1.08       5.9     8.4 11.1 -0.2110E+02 -0.3397E+01  0.2384E+02E
 Epicentro: LOS SANTOS - SANTANDER                                             3
 ACTION:UPD 15-03-16 16:59 OP:nd   STATUS:               ID:20140519073317 L   I
 OLDACT:DUP 14-05-19 17:31 OP:fm   STATUS:               ID:20140519072813d    3
 2014-05-19-0728-12M.COL___248                                                 6
 STAT SP IPHASW D HRMM SECON CODA AMPLIT PERI AZIMU VELO AIN AR TRES W  DIS CAZ7
 BRR  HZ EP        733 40.07                             152    0.5010 75.2 300 
 BRR  HE ES        733 57.17                             152    0.4710 75.2 300 
 BRR  HZ I         733 57.93         1.9 0.56            154           75.2 300 
 PAM  SZ EP   1    733 40.56                             151    0.08 7 78.6  36 
 PAM  SN ES        733 58.11                             151   -0.2010 78.6  36 
 PAM  SZ I         734  0.18         2.6 0.44            156           78.6  36 
 RUS  HZ EP   1    733 42.36                             146    0.72 7 96.9 177 
 RUS  HE ES   2    734  0.04                             146   -0.35 5 96.9 177 
 RUS  HZ I         734  2.05         1.4 0.40            146           96.9 177 
 SPBC HZ EP        733 45.85                             130   -0.58 9  162 220 
 SPBC HE ES        734  8.56                             130   -0.35 9  162 220 
 SPBC HZ I         734 14.85         4.2 0.14            132            162 220 
 OCA  HN ES   1    734  8.64                             130   -0.76 7  164 352 
 PTGC HN ES   4    734 44.49                             113    9.23 0  304 159 
 SJC  HZ EP   4    734  9.98                             106   -3.89 0  414 327 
                                                                                
