 2010 1219 0303 42.7 L   6.842 -73.245142.0  RSN  5 0.4 1.6LRSN                1
 GAP=169        0.98       6.0    15.3 10.3 -0.2074E+02  0.5970E+02 -0.1592E+02E
 Epicentro: ZAPATOCA - SANTANDER                                               3
 ACTION:UP  11-01-14 15:25 OP:pat  STATUS:               ID:20101219030342 L   I
 2010-12-19-0300-00M.COL___132                                                 6
 STAT SP IPHASW D HRMM SECON CODA AMPLIT PERI AZIMU VELO SNR AR TRES W  DIS CAZ7
 BAR2 SZ EP        3 4  2.44                             168     0.410   28 166 
 BAR2 SZ ES   1    3 4 17.40                             168     0.3 7   28 166 
 RUS  HZ EP        3 4  6.60                             141     0.110  107 170 
 RUS  HN ES   1    3 4 24.39                             141    -0.7 7  107 170 
 RUS  HZ I         3 4 26.37         6.5 0.33                           107 170 
 OCA  SZ EP        3 4  9.82                             130    -0.4 9  155 357 
 OCA  SZ I         3 4 35.77         4.7 0.32                           155 357 
 NOR  SN ES   2    3 4 44.67                             118    -0.1 4  229 232 
 CHI  HZ EP        3 4 20.71                             116     0.3 8  251 192 
 CHI  HN ES   2    3 4 49.28                             116    -0.5 4  251 192 
 CHI  HZ I         3 4 53.59         2.5 0.44                           251 192 
                                                                                
