 2014 1019 0810 55.8 L   6.829 -73.207141.4  RSN  5 0.5 1.0LRSN                1
 GAP=128        1.10       4.8     5.6 11.5 -0.1398E+00  0.2552E+02 -0.1518E+02E
 Epicentro: ZAPATOCA - SANTANDER                                               3
 ACTION:UPD 14-11-29 23:51 OP:nd   STATUS:               ID:20141019081055 L   I
 OLDACT:UP  14-10-19 17:18 OP:mh   STATUS:               ID:20141019080738     3
 OLDACT:REG 14-10-19 13:42 OP:mh   STATUS:               ID:20141019080738     3
 2014-10-19-0807-38M.COL___265                                                 6
 STAT SP IPHASW D HRMM SECON CODA AMPLIT PERI AZIMU VELO AIN AR TRES W  DIS CAZ7
 PAM  SZ EP        811 17.45                             149   -0.2610 79.6  45 
 PAM  SN ES        811 34.92                             149    0.1410 79.6  45 
 PAM  SZ I         811 37.30         1.6 0.58            153           79.6  45 
 RUS  HZ EP   1    811 19.00                             142   -0.43 7  104 172 
 RUS  HN ES        811 37.84                             142   -0.0110  104 172 
 RUS  HZ I         811 39.20         1.2 0.48            148            104 172 
 PTB  HZ EP        811 22.71                             132    0.81 9  142 257 
 PTB  HN ES   1    811 42.52                             132    0.28 7  142 257 
 PTB  HZ I         811 45.21         1.6 0.16            134            142 257 
 ZAR  HN ES        811 50.83                             122   -0.88 9  197 292 
 ZAR  HZ I         811 58.09                             124            197 292 
 SML  HZ EP        811 31.40                             117   -0.20 8  238 336 
 SML  HN ES        811 59.96                             117    0.46 8  238 336 
 SML  HZ I         812  6.60         1.4 0.26            119            238 336 
                                                                                
