 2010 1219 0625 54.2 L   6.812 -73.333135.6  RSN  5 0.2 1.4LRSN                1
 GAP=170        0.44       2.2    11.5  6.0 -0.6772E+01  0.3240E+02 -0.5116E+01E
 Epicentro: ZAPATOCA - SANTANDER                                               3
 ACTION:UP  11-01-14 15:25 OP:pat  STATUS:               ID:20101219062554 L   I
 2010-12-19-0624-03S.COL___132                                                 6
 STAT SP IPHASW D HRMM SECON CODA AMPLIT PERI AZIMU VELO SNR AR TRES W  DIS CAZ7
 BAR2 SZ EP        626 12.78                             167     0.110   29 146 
 BAR2 SZ ES   2    626 27.05                             167    -0.1 5   29 146 
 RUS  HZ EP        626 17.18                             140    -0.110  105 165 
 RUS  HN ES   1    626 35.34                             140     0.0 7  105 165 
 RUS  HZ I         626 36.58         2.6 0.31                           105 165 
 GRA  SZ EP        626 19.17                             133     0.110  132  26 
 GRA  SZ I         626 39.46         2.7 0.13                           132  26 
 OCA  SZ EP        626 21.48                             128     0.0 9  158   1 
 OCA  SZ ES   2    626 42.50                             128    -0.2 5  158   1 
 OCA  SZ I         626 51.28         4.2 0.24                           158   1 
 CHI  HZ EP   1    626 30.65                             115    -0.3 6  245 190 
 CHI  HN ES   2    627  0.20                             115     0.6 4  245 190 
 CHI  HZ I         627  4.61         2.5 0.72                           245 190 
                                                                                
