 2013 1019 0956 21.1 L   5.855 -73.979110.1  RSN  4 0.5 1.4LRSN                1
 GAP=158        1.20       7.3     6.4 10.6 -0.1890E+02  0.1480E+01 -0.1169E+02E
 Epicentro: LA BELLEZA - SANTANDER                                             3
 ACTION:UPD 13-11-25 09:22 OP:ep   STATUS:               ID:20131019095621 L   I
 OLDACT:UP  13-10-19 11:07 OP:cam  STATUS:               ID:20131019094848d    3
 OLDACT:DUP 13-10-19 10:59 OP:cam  STATUS:               ID:20131019094848d    3
 2013-10-19-0948-47M.COL___211                                                 6
 STAT SP IPHASW D HRMM SECON CODA AMPLIT PERI AZIMU VELO AIN AR TRES W  DIS CAZ7
 SPBC HZ EP        956 36.02                             166   -0.2810 24.7 205 
 SPBC HN ES        956 47.69                             166   -0.4410 24.7 205 
 SPBC HZ I         956 48.45        18.9 0.28            167           24.7 205 
 PTB  HZ EP        956 39.82                             137   -0.3910 92.3 325 
 PTB  HE ES        956 54.91                             137   -0.1810 92.3 325 
 PTB  HZ I         957  0.23         2.5 0.18            134           92.3 325 
 NOR  HZ EP        956 41.33                             133    0.0810  104 252 
 NOR  HN ES   1    956 58.17                             133    1.23 7  104 252 
 NOR  HZ I         956 59.41         7.4 0.44            133            104 252 
 BAR2 SZ EP   1    956 42.90                             129   -0.09 7  120  47 
 BAR2 SZ ES        957  0.66                             129    0.6110  120  47 
                                                                                
