 2012  319 0107 21.0 L   6.793 -73.148149.2  RSN  6 0.4 1.6LRSN                1
 GAP=137        0.97       6.7     6.4  9.1  0.5167E+01  0.1069E+02  0.7591E+01E
 ACTION:UP  12-03-31 23:20 OP:EP   STATUS:               ID:20120319010721 L   I
 2012-03-19-0100-00M.COL___202                                                 6
 STAT SP IPHASW D HRMM SECON CODA AMPLIT PERI AZIMU VELO SNR AR TRES W  DIS CAZ7
 BAR2 SZ EP   1    1 7 40.97                             171    -0.1 7   22 190 
 BAR2 SZ ES   1    1 7 56.68                             171     0.0 7   22 190 
 BAR2 SZ I         1 7 57.26        12.5 0.25                            22 190 
 BRR  HZ EP        1 7 42.93                             153     0.410   71 299 
 BRR  HE ES   1    1 7 59.86                             153     0.5 7   71 299 
 BRR  HZ I         1 8  1.32         8.0 0.27                            71 299 
 PAM  SZ EP   2    1 7 43.95                             151     0.3 5   78  39 
 PAM  SN ES   1    1 8  0.58                             151    -0.7 7   78  39 
 RUS  HZ EP        1 7 45.06                             145     0.010  100 176 
 RUS  HZ I         1 7 45.93         3.7 0.12                           100 176 
 RUS  HN ES   1    1 8  4.02                             145     0.2 7  100 176 
 PTB  HZ EP   1    1 7 47.71                             133    -0.5 7  147 259 
 PTB  HN ES   1    1 8  8.75                             133    -0.7 7  147 259 
 PTB  HZ I         1 8 17.08         3.5 0.18                           147 259 
 ZAR  HN ES   2    1 8 19.50                             123     0.3 4  204 292 
                                                                                
