 2015  719 0952  3.2 L   6.844 -73.228148.6  RSN  9 0.6 1.6LRSN                1
 GAP=123        1.36       3.9     6.0  9.2 -0.3672E+00  0.2852E+02  0.2353E+01E
 Epicentro: ZAPATOCA - SANTANDER                                               3
 ACTION:UPD 15-09-08 21:49 OP:cam  STATUS:               ID:20150719095203 L   I
 OLDACT:UP  15-07-19 19:55 OP:ak   STATUS:               ID:20150719094747d    3
 OLDACT:DUP 15-07-19 19:33 OP:ak   STATUS:               ID:20150719094747d    3
 OLDACT:UP  15-07-19 19:31 OP:ak   STATUS:               ID:20150719094746     3
 OLDACT:REG 15-07-19 16:37 OP:spq  STATUS:               ID:20150719094746     3
 2015-07-19-0947-46M.COL___340                                                 6
 STAT SP IPHASW D HRMM SECON CODA AMPLIT PERI AZIMU VELO AIN AR TRES W  DIS CAZ7
 BAR2 EZ EP        952 24.22                             169    0.9010 28.3 170 
 BAR2 EZ ES        952 38.56                             169   -0.4210 28.3 170 
 BAR2 EZ I         952 40.39         6.6 0.22            172           28.3 170 
 PAM  EZ EP        952 26.18                             150    0.2610 80.0  47 
 PAM  EN ES        952 44.04                             150    0.4410 80.0  47 
 PAM  EZ I         952 46.38         5.7 0.34            153           80.0  47 
 RUS  HZ EP        952 28.33                             143    0.6410  106 171 
 RUS  HE ES        952 46.04                             143   -0.7210  106 171 
 RUS  HZ I         952 48.96         3.0 0.13            148            106 171 
 OCA  HZ EP   4    952 23.09                             131   -8.16 0  155 356 
 OCA  HN ES        952 52.90                             131   -0.20 9  155 356 
 OCA  HZ I         952 57.96        11.5 0.26            133            155 356 
 ZAR  HZ EP   1    952 35.19                             124    0.35 6  194 292 
 ZAR  HN ES        952 59.98                             124    0.50 9  194 292 
 ZAR  HZ I         953  7.94         3.9 0.05            126            194 292 
 SML  HZ EP        952 38.40                             119   -0.76 8  236 337 
 SML  HN ES        953  6.56                             119   -0.61 8  236 337 
 SML  HZ I         953 12.88         5.0 0.13            120            236 337 
 CHI  HZ EP        952 41.02                             117   -0.35 8  251 193 
 CHI  HE ES        953 10.68                             117   -0.43 8  251 193 
 HEL  HZ EP        952 41.79                             116   -0.99 8  265 254 
 HEL  HN ES        953 13.50                             116   -0.11 8  265 254 
 GUY2CHZ EP        952 46.67                             113    0.19 7  297 233 
 GUY2CHN ES        953 21.10                             113    0.89 7  297 233 
 GUY2CHZ I         953 32.18         1.5 0.40                           297 233 
                                                                                
