 2014 1019 0900 31.0 L   6.821 -73.139152.5  RSN 11 0.3 1.8LRSN                1
 GAP=136        0.74       2.5     3.1  4.9 -0.6314E+00  0.1898E+01  0.1099E+01E
 Epicentro: LOS SANTOS - SANTANDER                                             3
 ACTION:UPD 14-11-29 23:51 OP:nd   STATUS:               ID:20141019090031 L   I
 OLDACT:UP  14-10-19 17:46 OP:mh   STATUS:               ID:20141019085742     3
 OLDACT:REG 14-10-19 13:43 OP:mh   STATUS:               ID:20141019085742     3
 2014-10-19-0857-42M.COL___261                                                 6
 STAT SP IPHASW D HRMM SECON CODA AMPLIT PERI AZIMU VELO AIN AR TRES W  DIS CAZ7
 BAR2 SZ EP        9 0 51.42                             170   -0.0210 25.8 191 
 BAR2 SZ I         9 1  9.25        12.4 0.01            169           25.8 191 
 BRR  HZ EP        9 0 53.32                             154    0.5110 70.7 297 
 BRR  HN ES        9 1 10.25                             154    0.3910 70.7 297 
 BRR  HZ I         9 1 10.51         4.5 0.08            153           70.7 297 
 PAM  SZ EP        9 0 54.12                             153    0.3610 75.1  40 
 PAM  SN ES        9 1 11.35                             153   -0.2010 75.1  40 
 PAM  SZ I         9 1 13.38        15.3 0.54            154           75.1  40 
 RUS  HZ EP        9 0 55.32                             145   -0.2110  103 177 
 RUS  HN ES   1    9 1 14.49                             145   -0.22 7  103 177 
 RUS  HZ I         9 1 16.41         3.1 0.32            144            103 177 
 PTB  HZ EP   4    9 0 58.10                             133   -0.48 0  149 258 
 PTB  HN ES        9 1 19.94                             133   -0.19 9  149 258 
 PTB  HZ I         9 1 26.30        12.1 0.40            133            149 258 
 OCA  HZ EP        9 0 59.20                             131   -0.39 9  158 353 
 OCA  HN ES   1    9 1 21.60                             131   -0.32 7  158 353 
 OCA  HZ I         9 1 26.16         8.9 0.46            132            158 353 
 SPBC HZ EP        9 1  0.14                             130   -0.05 9  165 219 
 SPBC HN ES   1    9 1 22.54                             130   -0.45 7  165 219 
 ZAR  HZ EP        9 1  4.02                             124    0.20 9  204 291 
 ZAR  HN ES        9 1 29.85                             124    0.39 9  204 291 
 ZAR  HZ I         9 1 35.63         8.3 0.61            124            204 291 
 SML  HZ EP   1    9 1  7.74                             119   -0.03 6  242 335 
 SML  HN ES   1    9 1 35.89                             119   -0.59 6  242 335 
 CHI  HZ EP   1    9 1  9.65                             118    0.35 6  251 195 
 CHI  HN ES   1    9 1 39.45                             118    0.24 6  251 195 
 HEL  HZ EP   1    9 1 11.57                             116   -0.09 6  273 255 
 HEL  HN ES   1    9 1 42.80                             116   -0.61 6  273 255 
 HEL  HZ I         9 1 49.97         4.8 0.34            116            273 255 
 SJC  HZ EP   4    9 1 25.07                             107   -1.49 0  408 327 
 SJC  HN ES   4    9 2  6.22                             107   -3.71 0  408 327 
                                                                                
