 2014 1219 0107 55.3 L   6.824 -73.172135.1  RSN  7 0.5 1.5LRSN                1
 GAP=132        1.16       3.7     5.2 10.4 -0.3028E+01  0.2120E+02 -0.9307E+01E
 Epicentro: ZAPATOCA - SANTANDER                                               3
 ACTION:UPD 15-02-10 17:05 OP:nd   STATUS:               ID:20141219010755 L   I
 OLDACT:DUP 14-12-19 14:20 OP:fm   STATUS:               ID:20141219005746d    3
 OLDACT:REG 14-12-19 12:42 OP:y    STATUS:               ID:20141219005745     3
 2014-12-19-0057-45M.COL___296                                                 6
 STAT SP IPHASW D HRMM SECON CODA AMPLIT PERI AZIMU VELO AIN AR TRES W  DIS CAZ7
 PAM  SZ EP        1 8 17.10                             149    0.7110 77.3  42 
 PAM  SN ES        1 8 32.86                             149    0.0310 77.3  42 
 PAM  SZ I         1 8 34.97         2.8 0.18            152           77.3  42 
 RUS  HZ EP        1 8 18.13                             141   -0.1210  103 175 
 RUS  HE ES        1 8 35.59                             141   -0.5510  103 175 
 RUS  HZ I         1 8 38.10         3.1 0.30            147            103 175 
 PTB  HZ EP        1 8 21.18                             130   -0.03 9  145 258 
 PTB  HE ES        1 8 42.12                             130    0.71 9  145 258 
 PTB  HZ I         1 8 44.06         2.9 0.42            132            145 258 
 OCA  HE ES        1 8 43.66                             128   -0.08 9  157 354 
 OCA  HZ I         1 8 50.24         4.8 0.26            130            157 354 
 SPBC HN ES        1 8 44.73                             126    0.07 9  163 218 
 SPBC HZ I         1 8 48.32         5.0 0.16            130            163 218 
 ZAR  HZ EP        1 8 27.18                             120    0.49 9  200 292 
 ZAR  HE ES        1 8 50.39                             120   -0.77 9  200 292 
 ZAR  HZ I         1 8 58.10         4.6 0.50            123            200 292 
 SML  HZ EP        1 8 30.21                             115   -0.75 8  240 336 
 SML  HN ES        1 8 58.78                             115    0.02 8  240 336 
 SML  HZ I         1 9  4.81         5.2 0.22            118            240 336 
                                                                                
