 2017  819 0332  2.4 L   6.811 -73.112145.7  RSN  4 0.3 1.0LRSN                1
 GAP=140        0.77       5.3     8.7  7.5  0.2046E+02 -0.2650E+02 -0.1203E+02E
 Epicentro: LOS SANTOS - SANTANDER                                             3
 ACTION:UPD 17-09-04 20:21 OP:rebc STATUS:               ID:20170819033202 L   I
 OLDACT:UP  17-08-19 14:12 OP:and  STATUS:               ID:20170819032742     3
 OLDACT:UP  17-08-19 14:12 OP:and  STATUS:               ID:20170819032742     3
 OLDACT:REG 17-08-19 12:28 OP:and  STATUS:               ID:20170819032742     3
 2017-08-19-0328-00M.COL___405                                                 6
 STAT SP IPHASW D HRMM SECON CODA AMPLIT PERI AZIMU VELO AIN AR TRES W  DIS CAZ7
 BAR2 EZ EP   2    332 21.62                             170   -0.46 5 25.4 198 
 BAR2 EZ ES        332 37.02                             170   -0.4010 25.4 198 
 BRR  HZ EP        332 23.47                             152   -0.2410 73.9 296 
 BRR  HE ES        332 40.57                             152    0.2510 73.9 296 
 PAM  EZ EP        332 24.81                             152    0.3810 74.1  38 
 PAM  EN ES   3    332 41.20                             152   -0.40 2 74.1  38 
 PAM  EZ I         332 42.38         1.9 0.18            151           74.1  38 
 RUS  HZ EP        332 26.06                             144   -0.1810  102 178 
 RUS  HN ES        332 45.16                             144    0.3410  102 178 
                                                                                
