 2011 1219 0704 33.6 L   6.771 -73.090142.0  RSN  5 0.2 1.8LRSN                1
 GAP=145        0.54       3.6     5.4  5.3  0.2778E+00  0.1012E+00 -0.8548E+00E
 Epicentro: LOS SANTOS - SANTANDER                                             3
 ACTION:UPD 12-07-13 16:17 OP:ep   STATUS:               ID:20111219070433 L   I
 2011-12-19-0700-00M.COL___188                                                 6
 STAT SP IPHASW D HRMM SECON CODA AMPLIT PERI AZIMU VELO AIN AR TRES W  DIS CAZ7
 BAR2 SZ EP        7 4 52.66                             171   -0.0710 22.3 207 
 BAR2 SZ ES   1    7 5  7.35                             171   -0.32 7 22.3 207 
 BAR2 SZ I         7 5  9.13         8.3 0.25                          22.3 207 
 GIR2 SZ EP        7 4 52.80                             165   -0.1410 35.9 341 
 PAM  SZ EP   1    7 4 55.48                             150    0.16 7 76.2  34 
 PAM  SN ES   1    7 5 12.37                             150    0.09 7 76.2  34 
 BRR  HZ EP        7 4 54.53                             150   -0.2010 78.1 298 
 BRR  HZ I         7 4 55.01        17.1 0.09                          78.1 298 
 BRR  HN ES   1    7 5 11.64                             150    0.41 7 78.1 298 
 RUS  HZ EP   1    7 4 57.06                             144    0.35 7 97.1 180 
 RUS  HE ES   1    7 5 14.80                             144    0.05 7 97.1 180 
                                                                                
