 2011 1219 0556 58.9 L   6.823 -73.124145.2  RSN  4 0.2 1.7LRSN                1
 GAP=242        0.40       7.1    13.3  6.5  0.8389E+02 -0.5419E+02 -0.2214E+02E
 Epicentro: LOS SANTOS - SANTANDER                                             3
 ACTION:UPD 12-07-13 16:17 OP:ep   STATUS:               ID:20111219055658 L   I
 2011-12-19-0550-00M.COL___188                                                 6
 STAT SP IPHASW D HRMM SECON CODA AMPLIT PERI AZIMU VELO AIN AR TRES W  DIS CAZ7
 BAR2 SZ EP   1    557 18.23                             168   -0.26 7 26.3 194 
 BAR2 SZ I         557 49.08         9.7 0.80                          26.3 194 
 BRR  HZ EP        557 20.04                             151    0.0310 72.2 296 
 BRR  HE ES        557 36.51                             151    0.0110 72.2 296 
 BRR  HE I         557 40.70        19.4 0.15                          72.2 296 
 RUS  HZ EP   1    557 22.97                             143    0.24 7  103 177 
 RUS  HN ES   1    557 41.34                             143   -0.01 7  103 177 
 CHI  HZ EP   2    557 36.70                             116   -0.16 4  252 196 
 CHI  HZ I         558 12.35         1.3 0.41                           252 196 
                                                                                
