 2010 1219 0732 55.9 L   6.788 -73.124139.3  RSN  4 0.1 1.3LRSN                1
 GAP=161        0.41       2.8    14.6  7.7  0.8461E+01 -0.2412E+02 -0.1337E+02E
 Epicentro: LOS SANTOS - SANTANDER                                             3
 ACTION:UP  11-01-14 15:25 OP:pat  STATUS:               ID:20101219073255 L   I
 2010-12-19-0731-05S.COL___132                                                 6
 STAT SP IPHASW D HRMM SECON CODA AMPLIT PERI AZIMU VELO SNR AR TRES W  DIS CAZ7
 BAR2 SZ EP        733 14.56                             170    -0.110   23 197 
 BAR2 SZ ES   3    733 29.72                             170     0.3 2   23 197 
 RUS  HZ EP        733 19.06                             142     0.210   99 177 
 RUS  HN ES   1    733 36.69                             142    -0.1 7   99 177 
 RUS  HZ I         733 37.98         2.5 0.26                            99 177 
 GRA  SZ EP        733 20.56                             135     0.010  126  16 
 GRA  SZ I         733 21.86         2.3 0.41                           126  16 
 OCA  SZ EP        733 23.81                             127     0.0 9  162 352 
 OCA  SZ ES   2    733 45.76                             127     0.1 5  162 352 
 OCA  SZ I         733 49.90         4.3 0.16                           162 352 
                                                                                
