 2017  219 0558 24.8 L   6.790 -73.156146.1  RSN 12 0.4 1.8LRSN                1
 GAP=119        0.93       3.3     3.7  5.0  0.1396E+01  0.5249E+01  0.2902E+01E
 Epicentro: LOS SANTOS - SANTANDER                                             3
 ACTION:UPD 17-05-24 15:37 OP:jn   STATUS:               ID:20170219055824 L   I
 OLDACT:UP  17-02-19 18:04 OP:edw  STATUS:               ID:20170219055741     3
 OLDACT:REG 17-02-19 12:39 OP:edw  STATUS:               ID:20170219055741     3
 2017-02-19-0558-00M.COL___352                                                 6
 STAT SP IPHASW D HRMM SECON CODA AMPLIT PERI AZIMU VELO AIN AR TRES W  DIS CAZ7
 BAR2 EZ EP        558 44.31                             171   -0.1010 22.1 187 
 BAR2 EZ ES        558 59.18                             171   -0.5610 22.1 187 
 BAR2 EZ I         559  1.00        13.0 0.16            169           22.1 187 
 BRR  HZ EP     C  558 46.23                             153    0.3010 70.7 300 
 BRR  HN ES        559  3.39                             153    0.9610 70.7 300 
 BRR  HZ I         559  4.40         8.8 0.38            151           70.7 300 
 PAM  EZ EP        558 47.21                             150    0.1010 79.0  40 
 PAM  EN ES        559  4.19                             150   -0.3610 79.0  40 
 PAM  EZ I         559  6.42        17.2 0.50            153           79.0  40 
 RUS  HZ EP        558 48.46                             144   -0.0210 99.6 175 
 RUS  HN ES        559  7.23                             144    0.2510 99.6 175 
 RUS  HZ I         559  8.03        15.7 0.22            144           99.6 175 
 PTB  HZ EP   9    558 51.03                             132   -0.61 0  146 259 
 PTB  HN ES        559 11.88                             132   -0.11 9  146 259 
 PTB  HZ I         559 14.94         6.2 0.16            131            146 259 
 ZAR  HZ EP        558 56.98                             122   -0.18 9  203 293 
 ZAR  HN ES        559 22.17                             122   -0.27 9  203 293 
 ZAR  HZ I         559 24.75         4.3 0.22            122            203 293 
 NOR  HZ EP        559  0.44                             119    0.10 8  233 235 
 NOR  HN ES        559 27.87                             119   -0.23 8  233 235 
 NOR  HZ I         559 30.77         4.6 0.18            118            233 235 
 CHI  HZ EP        559  2.49                             117    0.16 8  247 195 
 CHI  HN ES        559 31.66                             117    0.02 8  247 195 
 CHI  HZ I         559 35.51         3.9 0.58            117            247 195 
 URE  HZ EP   4    559  8.72                             114    2.94 0  283 292 
 URE  HN ES        559 37.21                             114   -0.55 7  283 292 
 URE  HZ I         559 45.31         3.3 0.18            113            283 292 
 PTGC HZ IP   9 C  559  7.47                             112   -1.10 0  308 158 
 PTGC HN ES        559 41.02                             112   -0.62 7  308 158 
 PTGC HZ I         559 45.68         6.2 0.30            112            308 158 
 CBOC HZ EP   4    559 12.64                             110    1.11 0  332 252 
 CBOC HN ES   4    559 46.82                             110   -1.18 0  332 252 
 CBOC HZ I         559 52.46         0.9 0.18            110            332 252 
 PRA  HZ EP        559 18.23                             107    0.11 6  390 209 
 PRA  HN ES   4    6 0  0.93                             107    1.20 0  390 209 
 PRA  HZ I         6 0  4.71         2.2 0.38            106            390 209 
 SJC  HZ EP   4    559 18.54                             106   -1.83 0  410 327 
 SJC  HN ES   4    559 58.86                             106   -4.88 0  410 327 
                                                                                
