 2010  319 0948 42.7 L   6.812 -73.011146.5  RSN  7 0.3 2.3LRSN                1
 GAP=197        0.60       4.3     8.7  6.0  0.8364E+01 -0.6184E+01  0.3760E+01E
 Epicentro: CEPITA - SANTANDER                                                 3
 ACTION:UP  10-08-24 09:54 OP:vdl  STATUS:               ID:20100319094842 L   I
 2010-03-19-0947-03S.COL___098                                                 6
 STAT SP IPHASW D HRMM SECON CODA AMPLIT PERI AZIMU VELO SNR AR TRES W  DIS CAZ7
 BAR2 SZ EP        949  2.69                             167     0.010   31 218 
 BAR2 SZ ES   2    949 17.61                             167    -0.6 5   31 218 
 BRR  HZ IP        949  4.64                             149    -0.110   84 293 
 BRR  HE ES   1    949 22.10                             149     0.2 7   84 293 
 BRR  HZ I         949 24.17        46.5 0.16                            84 293 
 RUS  HZ EP   1    949  6.89                             144     0.2 7  102 184 
 RUS  HE ES   2    949 25.66                             144     0.3 5  102 184 
 RUS  HZ I         949 28.10        13.8 0.38                           102 184 
 OCA  SZ EP   1    949 11.12                             130    -0.1 7  161 348 
 OCA  SZ I         949 37.62        36.7 0.14                           161 348 
 CHI  HZ EP   1    949 20.85                             117    -0.2 6  254 198 
 CHI  HZ I         949 55.89         8.7 0.41                           254 198 
 TOL  SZ EP   1    949 32.89                             109     0.5 5  355 226 
 PRA  HZ EP   2    949 36.67                             106    -0.6 3  401 211 
 PRA  HE ES   2    950 19.09                             106    -0.8 3  401 211 
 PRA  HZ I         950 22.80        12.3 0.69                           401 211 
                                                                                
