 2016 1219 0418 44.0 L   7.441 -73.199132.4  RSN  5 0.3 1.4LRSN                1
 GAP=190        0.73       6.0     3.3  6.3 -0.2243E+01  0.6765E+01 -0.5862E+01E
 Epicentro: EL PLAYON - SANTANDER                                              3
 ACTION:UPD 17-01-11 20:16 OP:rebc STATUS:               ID:20161219041844 L   I
 OLDACT:UP  16-12-19 15:01 OP:cog  STATUS:               ID:20161219041745     3
 OLDACT:REG 16-12-19 13:06 OP:cog  STATUS:               ID:20161219041745     3
 2016-12-19-0418-00M.COL___321                                                 6
 STAT SP IPHASW D HRMM SECON CODA AMPLIT PERI AZIMU VELO AIN AR TRES W  DIS CAZ7
 PAM  EZ EP        419  3.83                             156    0.2710 56.2 101 
 PAM  EE ES        419 18.87                             156    0.0210 56.2 101 
 PAM  EZ I         419 21.24         8.3 0.82            162           56.2 101 
 BRR  HZ EP        419  3.46                             151   -0.0010 67.6 237 
 BRR  HE ES        419 18.78                             151    0.1010 67.6 237 
 BAR2 EZ EP        419  5.36                             143   -0.2010 93.9 179 
 BAR2 EZ ES        419 21.94                             143   -0.4610 93.9 179 
 BAR2 EZ I         419 22.94         6.6 0.14            149           93.9 179 
 PTB  HZ EP        419 12.26                             124    0.11 9  171 234 
 PTB  HN ES        419 34.70                             124    0.56 9  171 234 
 PTB  HZ I         419 37.73         2.0 0.24            126            171 234 
 ZAR  HZ EP   3    419 12.58                             122   -0.81 2  183 272 
 ZAR  HE ES        419 36.04                             122   -0.30 9  183 272 
 ZAR  HZ I         419 43.94         2.8 0.12            123            183 272 
                                                                                
