 2015 1219 0447 35.7 L   5.924 -73.832114.5  RSN 28 0.6 2.6LRSN                1
 GAP= 43        1.23       2.2     2.5  5.1 -0.1272E+01  0.7807E+00  0.7582E+00E
 Epicentro: SUCRE - SANTANDER                                                  3
 ACTION:UPD 16-02-04 15:06 OP:cam  STATUS:               ID:20151219044735 L   I
 OLDACT:UP  15-12-19 19:48 OP:ar   STATUS:               ID:20151219043751d    3
 OLDACT:UP  15-12-19 19:46 OP:ar   STATUS:               ID:20151219043751d    3
 OLDACT:DUP 15-12-19 19:30 OP:ar   STATUS:               ID:20151219043751d    3
 OLDACT:REG 15-12-19 11:56 OP:mh   STATUS:               ID:20151219043750     3
 2015-12-19-0437-50M.COL___325                                                 6
 STAT SP IPHASW D HRMM SECON CODA AMPLIT PERI AZIMU VELO AIN AR TRES W  DIS CAZ7
 SPBC HZ EP        447 52.00                             159    0.0510 40.2 222 
 SPBC HN ES        448  4.48                             159   -0.1510 40.2 222 
 SPBC HZ I         448  6.86       204.6 0.34            159           40.2 222 
 RUS  HZ IP     D  447 55.18                             142    0.0610 83.0  92 
 RUS  HN ES        448  9.89                             142   -0.3710 83.0  92 
 RUS  HZ I         448 11.93        33.4 0.22            142           83.0  92 
 PTB  HZ EP        447 54.73                             137   -0.8410 97.0 315 
 PTB  HN ES        448 10.28                             137   -0.7910 97.0 315 
 PTB  HZ I         448 11.88        51.1 0.22            135           97.0 315 
 BAR2 EZ EP        447 56.95                             135    0.5610  103  44 
 BAR2 EZ ES        448 13.20                             135    0.6710  103  44 
 NOR  HZ EP        447 57.36                             130   -0.4610  122 251 
 NOR  HN ES        448 14.85                             130   -0.2210  122 251 
 NOR  HZ I         448 17.66       125.4 0.44            128            122 251 
 BRR  HZ EP        447 59.11                             127    0.4310  131   6 
 BRR  HN ES        448 17.35                             127    0.7410  131   6 
 BRR  HZ I         448 23.40        43.2 0.12            126            131   6 
 ROSC BZ EP   4    448  2.35                             128    3.14 0  132 204 
 ROSC BN ES   4    448 19.77                             128    2.22 0  132 204 
 ROSC BZ I         448 25.06        60.4 0.35            127            132 204 
 CHI  HZ EP        448  0.17                             125   -0.26 9  144 176 
 CHI  HE ES        448 19.27                             125   -0.44 9  144 176 
 CHI  HZ I         448 24.11        30.0 0.26            124            144 176 
 GUY2CHZ EP        448  5.07                             117    0.06 9  187 246 
 GUY2CHN ES        448 28.32                             117    0.44 9  187 246 
 GUY2CHZ I         448 33.56        31.4 0.30                           187 246 
 HEL  HZ EP        448  5.14                             117   -0.12 9  190 279 
 HEL  HE ES        448 28.11                             117   -0.20 9  190 279 
 HEL  HZ I         448 32.25        53.9 0.26            115            190 279 
 PAM  EZ EP   4    448  8.40                             115    1.87 0  200  39 
 PAM  EN ES        448 30.85                             115    0.26 9  200  39 
 PAM  EZ I         448 34.76        36.4 0.46            114            200  39 
 VIL  SZ EP     D  448  6.15                             115    0.01 9  201 176 
 VIL  SE ES        448 30.74                             115    0.86 9  201 176 
 ZAR  HZ EP        448  6.52                             114   -0.16 8  207 327 
 ZAR  HN ES        448 29.98                             114   -0.86 8  207 327 
 ZAR  HZ I         448 35.09        70.0 0.42            113            207 327 
 ELA  HZ EP        448  7.86                             114    0.22 8  210 236 
 ELA  HE ES   4    448 35.15                             114    2.60 0  210 236 
 ELA  HZ I         448 36.34        25.5 0.50            113            210 236 
 TAM  HZ EP        448  9.73                             111    0.13 8  233  76 
 TAM  HE ES        448 35.36                             111   -0.68 8  233  76 
 TAM  HZ I         448 38.34        18.8 0.44            110            233  76 
 ANIL HZ EP        448 10.73                             111    0.51 8  235 228 
 ANIL HE ES        448 37.83                             111    0.68 8  235 228 
 ANIL HZ I         448 41.09        62.7 0.38            110            235 228 
 CBOC HZ EP        448 10.92                             110    0.16 8  242 269 
 CBOC HN ES   2    448 37.98                             110   -0.13 4  242 269 
 CBOC HZ I         448 46.91        12.1 0.64            109            242 269 
 OCA  HZ EP        448 13.12                             108    0.01 8  262  12 
 OCA  HN ES        448 44.00                             108    1.72 8  262  12 
 OCA  HZ I         448 48.36        71.2 0.28            107            262  12 
 PTGC HZ IP     D  448 13.01                             108   -0.59 8  268 135 
 PTGC HN ES   2    448 42.38                             108   -0.78 4  268 135 
 PTGC HZ I         448 51.21        21.6 0.22            107            268 135 
 PRA  HZ EP        448 13.54                             108   -0.45 8  271 206 
 PRA  HN ES   2    448 43.95                             108    0.10 4  271 206 
 PRA  HZ I         448 48.93        30.7 0.34            107            271 206 
 ORTC HZ EP        448 14.06                             107   -0.10 8  272 215 
 ORTC HN ES        448 45.26                             107    1.09 8  272 215 
 ORTC HZ I         448 48.12        37.6 0.42            106            272 215 
 URE  HZ EP   4    448 12.92                             107   -1.62 0  276 317 
 URE  HE ES   4    448 41.19                             107   -3.65 0  276 317 
 URE  HZ I         448 44.87        23.6 0.14            106            276 317 
 PAL  HZ EP        448 16.82                             106    0.10 7  294 248 
 PAL  HZ I         448 30.35         6.7 0.40            105            294 248 
 PAL  HN ES   2    448 49.08                             106    0.36 4  294 248 
 SML  HZ EP        448 18.81                             104   -0.78 7  319 355 
 SML  HN ES        448 53.69                             104   -0.14 7  319 355 
 SML  HZ I         449  8.33        28.2 0.10            103            319 355 
 GUA  SZ EP        448 28.00                             100   -0.86 6  397 160 
 GUA  SN ES   4    449  7.43                             100   -2.90 0  397 160 
 GUA  SZ I         449 12.35        23.0 0.14             99            397 160 
 MACC HZ EP   4    448 29.57                              99   -1.83 0  418 180 
 MACC HN ES   4    449 11.71                              99   -3.13 0  418 180 
 MACC HZ I         449 12.67         8.7 0.28             98            418 180 
 LL6C HZ EP   2    448 32.63                              99    0.28 3  426   8 
 LL6C HE ES   2    449 16.78                              99    0.24 3  426   8 
 LL6C HZ I         449 33.95        11.4 0.56             98            426   8 
 ELOV BZ EP        448 39.75                              97   -0.99 4  496  76 
 ELOV BN ES   4    449 26.63                              97   -4.85 0  496  76 
                                                                                
