 2012 1119 0423  0.7 L   6.768 -73.150146.4  RSN  4 0.2 1.3LRSN                1
 GAP=137        0.53       3.2     3.8  5.5 -0.8772E+00  0.4701E+01 -0.1690E+01E
 Epicentro: LOS SANTOS - SANTANDER                                             3
 ACTION:UPD 12-12-05 15:34 OP:}ep  STATUS:               ID:20121119042300 L   I
 2012-11-19-0420-00M.COL___234                                                 6
 STAT SP IPHASW D HRMM SECON CODA AMPLIT PERI AZIMU VELO AIN AR TRES W  DIS CAZ7
 BRR  HZ EP        423 22.13                             152    0.1810 72.5 301 
 BRR  HN ES   1    423 38.78                             152    0.22 7 72.5 301 
 BRR  HZ I         423 43.12         3.3 0.13                          72.5 301 
 PAM  SZ EP        423 23.25                             150    0.1210 80.5  38 
 PAM  SZ I         423 23.57         5.4 0.20                          80.5  38 
 PAM  SE ES   1    423 40.31                             150   -0.35 7 80.5  38 
 RUS  HZ EP   1    423 24.40                             145    0.18 7 97.1 176 
 RUS  HN ES        423 42.59                             145   -0.0110 97.1 176 
 RUS  HN I         423 44.83         3.1 0.38                          97.1 176 
 PTB  HZ EP        423 27.23                             132   -0.34 9  147 260 
 PTB  HN ES   2    423 48.54                             132   -0.03 5  147 260 
                                                                                
