 2015  219 0838 42.0 L   6.982 -73.102156.0  RSN 12 0.4 1.8LRSN                1
 GAP=112        0.92       3.1     4.9  5.3 -0.8418E+00  0.2603E+01  0.2599E+01E
 Epicentro: PIEDECUESTA - SANTANDER                                            3
 ACTION:UPD 15-04-30 21:27 OP:nd   STATUS:               ID:20150219083842 L   I
 OLDACT:REG 15-02-19 12:37 OP:mh   STATUS:               ID:20150219083748     3
 2015-02-19-0837-48M.COL___293                                                 6
 STAT SP IPHASW D HRMM SECON CODA AMPLIT PERI AZIMU VELO AIN AR TRES W  DIS CAZ7
 BAR2 EZ EP        839  3.22                             164   -0.1510 44.0 192 
 BAR2 EZ ES   1    839 19.49                             164   -0.58 7 44.0 192 
 BAR2 EZ I         839 20.10        10.4 0.38            162           44.0 192 
 PAM  SZ EP        839  4.60                             158    0.2510 59.5  48 
 PAM  SN ES        839 21.68                             158   -0.1510 59.5  48 
 PAM  SZ I         839 22.69         7.9 0.32            162           59.5  48 
 BRR  HZ EP        839  4.33                             155    0.2410 68.8 282 
 BRR  HE ES        839 21.68                             155    0.3210 68.8 282 
 BRR  HZ I         839 23.49        17.0 0.16            151           68.8 282 
 RUS  HZ EP        839  8.34                             141    0.1610  121 179 
 RUS  HN ES        839 28.45                             141   -0.1910  121 179 
 RUS  HZ I         839 29.40         3.7 0.34            141            121 179 
 OCA  HE ES   1    839 31.58                             136    0.81 7  141 350 
 OCA  HZ I         839 34.56         6.6 0.22            136            141 350 
 PTB  HZ EP        839 10.19                             132   -0.45 9  158 252 
 PTB  HE ES   1    839 32.19                             132   -0.83 7  158 252 
 PTB  HZ I         839 37.43         6.0 0.10            130            158 252 
 SPBC HZ EP        839 12.83                             128   -0.20 9  182 216 
 SPBC HN ES        839 38.02                             128    0.74 9  182 216 
 SPBC HZ I         839 43.18         6.0 0.25            127            182 216 
 SML  HZ EP        839 17.31                             121   -0.18 8  228 332 
 SML  HN ES   1    839 44.66                             121   -0.56 6  228 332 
 SML  HZ I         839 48.61         9.4 0.10            121            228 332 
 CHI  HZ EP   1    839 22.63                             117    0.16 6  269 195 
 CHI  HN ES   1    839 54.46                             117    0.39 6  269 195 
 CHI  HZ I         839 59.25         1.6 0.39            117            269 195 
 GUY2CHZ EP   4    839 30.04                             113    2.21 0  317 232 
 GUY2CHE ES   4    840  6.07                             113    2.46 0  317 232 
 GUY2CHZ I         840 13.13         2.6 0.66                           317 232 
 PTGC HZ EP        839 27.86                             112   -0.36 7  326 161 
 PRA  HZ EP   1    839 38.74                             107    0.58 4  412 209 
 PRA  HN ES   4    840 23.37                             107    1.36 0  412 209 
 PRA  HZ I         840 29.37         2.9 0.38            107            412 209 
                                                                                
