 2015  319 0821 42.5 L   6.799 -73.191143.6  RSN  7 0.3 1.5LRSN                1
 GAP=102        0.83       3.9     3.6  5.3 -0.3363E+01 -0.8361E+00  0.3038E+01E
 Epicentro: ZAPATOCA - SANTANDER                                               3
 ACTION:UPD 15-04-30 16:27 OP:nd   STATUS:               ID:20150319082142 L   I
 OLDACT:DUP 15-03-19 18:33 OP:stll STATUS:               ID:20150319081745d    3
 2015-03-19-0817-43M.COL___272                                                 6
 STAT SP IPHASW D HRMM SECON CODA AMPLIT PERI AZIMU VELO AIN AR TRES W  DIS CAZ7
 BAR2 EZ EP        822  1.93                             171    0.1210 22.9 178 
 BAR2 EZ ES        822 16.96                             171    0.0410 22.9 178 
 BAR2 EZ I         822 18.54         8.5 0.42            170           22.9 178 
 BRR  HZ EP        822  3.51                             154    0.3810 66.9 301 
 BRR  HN ES        822 19.79                             154    0.5310 66.9 301 
 BRR  HZ I         822 24.25         6.4 0.20            154           66.9 301 
 PAM  SZ EP        822  4.74                             149    0.1010 80.7  42 
 PAM  SZ I         822  4.91        13.2 0.18            153           80.7  42 
 PAM  SN ES        822 21.40                             149   -0.5510 80.7  42 
 RUS  HZ EP        822  6.32                             143    0.3010  101 173 
 RUS  HN ES        822 24.43                             143    0.0310  101 173 
 RUS  HZ I         822 26.20         3.2 0.32            145            101 173 
 PTB  HZ EP        822  8.53                             132   -0.27 9  143 258 
 PTB  HN ES        822 28.81                             132   -0.54 9  143 258 
 PTB  HZ I         822 30.89         3.7 0.32            133            143 258 
 TAM  HZ EP        822 10.27                             129   -0.14 9  160 104 
 SPBC HZ EP        822 10.41                             129   -0.07 9  160 218 
 SPBC HN ES        822 32.29                             129   -0.06 9  160 218 
 SPBC HZ I         822 37.51         4.8 0.30            130            160 218 
                                                                                
