 2013 1019 0255  5.3 L   6.820 -73.151150.0  RSN 10 0.5 2.2LRSN                1
 GAP=135        1.18       3.8     5.1  8.0  0.2345E+00  0.6362E+01  0.2912E+01E
 Epicentro: LOS SANTOS - SANTANDER                                             3
 ACTION:UPD 13-11-25 09:22 OP:ep   STATUS:               ID:20131019025505 L   I
 OLDACT:REG 13-10-19 08:12 OP:cam  STATUS:               ID:20131019024844     3
 2013-10-19-0248-44M.COL___217                                                 6
 STAT SP IPHASW D HRMM SECON CODA AMPLIT PERI AZIMU VELO AIN AR TRES W  DIS CAZ7
 BAR2 SZ EP        255 25.36                             170   -0.1110 25.4 188 
 BAR2 SZ I         255 41.62        62.8 0.23            167           25.4 188 
 BRR  HZ IP        255 27.07                             154    0.2610 69.6 297 
 BRR  HE ES        255 44.43                             154    0.8310 69.6 297 
 BRR  HZ I         255 47.41        19.3 0.44            145           69.6 297 
 PAM  SZ EP        255 28.30                             152    0.4210 76.1  41 
 PAM  SN ES        255 45.41                             152   -0.0910 76.1  41 
 RUS  HZ EP        255 29.29                             144   -0.3310  103 176 
 RUS  HN ES        255 48.22                             144   -0.3710  103 176 
 RUS  HZ I         255 49.04        15.6 0.26            135            103 176 
 PTB  HZ EP        255 31.96                             133   -0.63 9  148 258 
 PTB  HN ES        255 53.24                             133   -0.64 9  148 258 
 PTB  HZ I         255 54.92        17.2 0.40            123            148 258 
 SPBC HZ EP        255 34.27                             130    0.03 9  165 218 
 SPBC HN ES        255 57.42                             130    0.60 9  165 218 
 SPBC HZ I         256  0.54        21.8 0.46            120            165 218 
 ZAR  HN ES        256  3.17                             124   -0.11 9  203 292 
 SML  HZ EP   1    255 41.77                             119   -0.14 6  241 335 
 SML  HN ES        256  9.86                             119   -0.62 8  241 335 
 SML  HZ I         256 15.50        14.1 0.10            110            241 335 
 CHI  HZ EP   1    255 43.66                             118    0.22 6  251 195 
 CHI  HN ES        256 13.10                             118   -0.09 8  251 195 
 CHI  HZ I         256 17.92         8.2 0.38            109            251 195 
 HEL  HZ EP   1    255 47.21                             116    1.50 6  272 255 
 HEL  HZ I         256 23.35         8.1 0.28            107            272 255 
                                                                                
