 2010 1019 0159  7.4 L   6.794 -73.083145.7  RSN  4 0.2 1.5LRSN                1
 GAP=166        0.48       4.6     8.5  7.3  0.2215E+02 -0.3424E+02 -0.1745E+02E
 Epicentro: LOS SANTOS - SANTANDER                                             3
 ACTION:UP  11-02-18 11:10 OP:tino STATUS:               ID:20101019015907 L   I
 2010-10-19-0156-31S.COL___123                                                 6
 STAT SP IPHASW D HRMM SECON CODA AMPLIT PERI AZIMU VELO SNR AR TRES W  DIS CAZ7
 BAR2 SZ EP   1    159 26.87                             170    -0.2 7   25 206 
 BAR2 SZ ES   2    159 42.07                             170    -0.3 5   25 206 
 BAR2 SZ I         159 43.43        11.0 0.22                            25 206 
 BRR  HZ EP        159 28.79                             151    -0.110   78 297 
 BRR  HZ I         159 29.01        14.7 0.11                            78 297 
 BRR  HN ES   1    159 45.89                             151     0.2 7   78 297 
 RUS  HZ EP   1    159 31.20                             144     0.1 7  100 180 
 RUS  HN ES   1    159 49.65                             144     0.1 7  100 180 
 RUS  HZ I         159 50.89         3.2 0.52                           100 180 
 GRA  SZ EP   1    159 32.69                             137     0.2 7  124  14 
 GRA  SZ I         159 58.29         2.2 0.63                           124  14 
                                                                                
