 2011  819 0401 30.3 L   6.792 -73.038144.1  RSN  4 0.3 2.0LRSN                1
 GAP=194        0.56       2.7     9.5  7.0  0.5543E+01 -0.2292E+02  0.1283E+00E
 Epicentro: CEPITA - SANTANDER                                                 3
 ACTION:UPD 12-07-13 15:52 OP:ep   STATUS:               ID:20110819040130 L   I
 2011-08-19-0400-38S.COL___149                                                 6
 STAT SP IPHASW D HRMM SECON CODA AMPLIT PERI AZIMU VELO AIN AR TRES W  DIS CAZ7
 BRR  HZ EP   1    4 1 51.79                             148   -0.10 7 82.2 295 
 BRR  HN ES   1    4 2  8.88                             148    0.12 7 82.2 295 
 BRR  HZ I         4 2 12.67        21.8 0.12                          82.2 295 
 RUS  HZ EP   1    4 1 54.30                             144    0.54 7 99.5 183 
 RUS  HN ES   1    4 2 11.81                             144   -0.29 7 99.5 183 
 RUS  HZ I         4 2 14.69        12.8 0.27                          99.5 183 
 OCA  SZ EP   1    4 1 58.67                             129   -0.03 7  163 349 
 OCA  SZ ES   1    4 2 20.80                             129   -0.08 7  163 349 
 OCA  SZ I         4 2 23.47        13.2 0.27                           163 349 
 CHI  HZ EP   1    4 2  7.71                             116   -0.42 6  251 198 
 CHI  HN ES   1    4 2 37.81                             116    0.14 6  251 198 
 CHI  HZ I         4 2 41.55         5.4 0.33                           251 198 
                                                                                
