 2017  119 0725 46.2 L   6.655 -73.772 95.4  RSN  4 0.2 0.7LRSN                1
 GAP=123        0.67       4.0     2.9  6.8  0.3805E+01  0.3416E+01  0.1168E+02E
 Epicentro: EL CARMEN - SANTANDER                                              3
 ACTION:UPD 17-05-22 16:01 OP:jn   STATUS:               ID:20170119072546 L   I
 OLDACT:UP  17-01-19 18:47 OP:dani STATUS:               ID:20170119071745d    3
 OLDACT:UP  17-01-19 18:47 OP:dani STATUS:               ID:20170119071745d    3
 OLDACT:DUP 17-01-19 18:45 OP:dani STATUS:               ID:20170119071745d    3
 OLDACT:REG 17-01-19 14:39 OP:dani STATUS:               ID:20170119071744     3
 2017-01-19-0718-00M.COL___327                                                 6
 STAT SP IPHASW D HRMM SECON CODA AMPLIT PERI AZIMU VELO AIN AR TRES W  DIS CAZ7
 BRR  HZ EP        726  0.31                             150   -0.3910 50.5   7 
 BRR  HN ES        726 12.36                             150    0.3210 50.5   7 
 BRR  HZ I         726 15.92         2.6 0.44            158           50.5   7 
 BAR2 EZ ES        726 14.31                             143   -0.1610 65.5  96 
 PTB  HZ EP        726  2.63                             138    0.0010 76.8 261 
 PTB  HN ES        726 15.44                             138   -0.0410 76.8 261 
 PTB  HZ I         726 21.81         1.1 0.16            141           76.8 261 
 RUS  HZ EP        726  7.00                             127    0.3610  114 138 
 RUS  HN ES        726 22.53                             127   -0.0910  114 138 
 RUS  HZ I         726 23.98         1.0 0.29            134            114 138 
                                                                                
