 2012 1019 0153 38.3 L   6.154 -73.471127.6  RSN  9 0.4 2.1LRSN                1
 GAP= 91        0.76       2.8     3.7  6.2 -0.1703E+01  0.1036E+02  0.1379E+01E
 Epicentro: AGUADA - SANTANDER                                                 3
 ACTION:UPD 12-11-22 17:04 OP:ep   STATUS:               ID:20121019015338 L   I
 2012-10-19-0150-00M.COL___231                                                 6
 STAT SP IPHASW D HRMM SECON CODA AMPLIT PERI AZIMU VELO AIN AR TRES W  DIS CAZ7
 RUS  HZ EP        153 56.93                             157   -0.2210 51.7 124 
 RUS  HN ES   1    154 11.73                             157   -0.11 7 51.7 124 
 RUS  HN I         154 13.16        17.9 0.20                          51.7 124 
 BAR2 SZ EP        153 56.78                             154   -0.3210 58.0  33 
 BAR2 SZ ES   1    154 11.78                             154    0.02 7 58.0  33 
 BAR2 SZ I         154 12.70        47.7 0.42                          58.0  33 
 GIR2 SZ EP        154  0.36                             137    0.0310  107  17 
 GIR2 SZ ES   1    154 17.52                             137    0.01 7  107  17 
 BRR  HZ EP        154  0.15                             137   -0.1410  109 346 
 BRR  HN ES   1    154 17.95                             137    0.50 7  109 346 
 BRR  HN I         154 20.59        31.8 0.14                           109 346 
 PAM  SZ EP        154  5.57                             126    0.24 9  156  33 
 PAM  SN ES   2    154 27.04                             126    0.63 5  156  33 
 CHI  HZ EP   1    154  6.67                             123   -0.02 7  171 190 
 CHI  HN ES   1    154 28.72                             123   -0.11 7  171 190 
 CHI  HN I         154 30.68        14.6 0.30                           171 190 
 ZAR  HZ EP   1    154  9.80                             117   -0.82 6  213 314 
 ZAR  HN ES   1    154 35.72                             117   -0.10 6  213 314 
 ZAR  HN I         154 41.17        20.7 0.26                           213 314 
 HEL  HZ EP   1    154 13.45                             115    0.76 6  228 271 
 HEL  HN ES   1    154 38.87                             115   -0.64 6  228 271 
 HEL  HN I         154 46.37         9.1 0.36                           228 271 
 RREF HZ EP        154 15.78                             113    0.31 8  250 236 
 RREF HE ES   1    154 45.20                             113    0.73 6  250 236 
 RREF HZ I         154 52.07         3.4 0.34                           250 236 
                                                                                
