 2014  319 0710 24.0 L   6.762 -73.174138.7  RSN  5 0.3 1.5LRSN                1
 GAP=240        0.66       4.6     5.4  7.1  0.8136E+01  0.1815E+02 -0.7665E+01E
 Epicentro: LOS SANTOS - SANTANDER                                             3
 ACTION:UPD 14-04-09 23:18 OP:nd   STATUS:               ID:20140319071024 L   I
 OLDACT:REG 14-03-19 11:32 OP:carl STATUS:               ID:20140319070806     3
 2014-03-19-0708-06M.COL___223                                                 6
 STAT SP IPHASW D HRMM SECON CODA AMPLIT PERI AZIMU VELO AIN AR TRES W  DIS CAZ7
 BAR2 SZ ES        710 57.15                             172   -0.1510 18.8 183 
 BAR2 SZ I         710 58.14        10.0 0.34            170           18.8 183 
 RUS  HN ES        711  4.79                             143    0.2210 96.7 174 
 PTB  HZ EP        710 49.57                             131   -0.50 9  144 260 
 PTB  HE ES        711 10.34                             131   -0.04 9  144 260 
 PTB  HZ I         711 15.96         2.8 0.24            131            144 260 
 SPBC HN ES        711 12.94                             128    0.03 9  158 219 
 ZAR  HZ EP        710 56.22                             121    0.34 9  203 294 
 ZAR  HN ES        711 20.90                             121    0.17 9  203 294 
 ZAR  HZ I         711 23.02         2.6 0.12            122            203 294 
                                                                                
