 2017  319 0708 28.9 L   6.766 -73.147138.0  RSN 15 0.6 2.2LRSN                1
 GAP=120        1.26       4.0     4.6  6.5 -0.5085E+00  0.1038E+02  0.4904E+01E
 Epicentro: LOS SANTOS - SANTANDER                                             3
 ACTION:UPD 17-05-25 18:42 OP:jn   STATUS:               ID:20170319070828 L   I
 OLDACT:UP  17-03-19 17:07 OP:cog  STATUS:               ID:20170319070649     3
 OLDACT:UP  17-03-19 17:06 OP:cog  STATUS:               ID:20170319070649     3
 OLDACT:REG 17-03-19 13:19 OP:cara STATUS:               ID:20170319070649     3
 2017-03-19-0707-00M.COL___400                                                 6
 STAT SP IPHASW D HRMM SECON CODA AMPLIT PERI AZIMU VELO AIN AR TRES W  DIS CAZ7
 BAR2 EZ EP        7 8 47.44                             171   -0.0910 19.6 191 
 BAR2 EZ ES        7 9  2.13                             171    0.0710 19.6 191 
 BAR2 EZ I         7 9  3.44        37.2 0.44            168           19.6 191 
 BRR  HZ IP     C  7 8 49.31                             151   -0.0110 72.9 301 
 BRR  HN ES        7 9  6.12                             151    0.8710 72.9 301 
 BRR  HZ I         7 9 10.59        43.8 0.12            150           72.9 301 
 PAM  EZ EP        7 8 50.29                             148   -0.2110 80.4  38 
 PAM  EE ES        7 9  7.06                             148   -0.2710 80.4  38 
 PAM  EZ I         7 9  9.57        59.2 0.58            154           80.4  38 
 RUS  HZ EP        7 8 51.86                             143    0.2310 96.9 176 
 RUS  HE ES        7 9  9.70                             143    0.3410 96.9 176 
 RUS  HZ I         7 9 10.69        13.0 0.48            143           96.9 176 
 PTB  HZ EP        7 8 54.43                             130   -0.74 9  147 260 
 PTB  HE ES        7 9 15.69                             130    0.03 9  147 260 
 PTB  HZ I         7 9 18.23        34.8 0.16            130            147 260 
 SPBC HZ EP        7 8 56.47                             128   -0.06 9  160 220 
 SPBC HN ES        7 9 16.63                             128   -1.45 9  160 220 
 ZAR  HZ EP        7 9  0.48                             120   -0.51 8  205 293 
 ZAR  HN ES        7 9 25.92                             120   -0.10 8  205 293 
 NOR  HZ EP        7 9  5.29                             117    1.34 8  232 235 
 NOR  HE ES        7 9 31.72                             117    0.44 8  232 235 
 NOR  HZ I         7 9 36.80        15.3 0.18            118            232 235 
 CHI  HZ EP        7 9  5.54                             116   -0.25 8  245 195 
 CHI  HN ES        7 9 34.40                             116   -0.16 8  245 195 
 CHI  HZ I         7 9 39.11         6.8 0.26            117            245 195 
 ROSC BZ EP   3    7 9  7.71                             115    1.45 2  249 211 
 ROSC BE ES        7 9 35.50                             115    0.12 8  249 211 
 ROSC BZ I         7 9 47.44         7.5 0.35            116            249 211 
 URE  HZ EP   4    7 9  7.79                             112   -1.96 0  285 293 
 URE  HN ES   4    7 9 38.40                             112   -3.21 0  285 293 
 GUY2CHZ EP        7 9 12.32                             111    0.41 7  299 235 
 GUY2CHN ES   4    7 9 47.08                             111    1.63 0  299 235 
 GUY2CHZ  IAML     7 9 52.80         9.8 0.28                           299 235 
 PTGC HZ EP   3    7 9 10.57                             110   -1.47 2  305 158 
 PTGC HE ES   4    7 9 43.75                             110   -1.94 0  305 158 
 PTGC HZ I         7 9 46.03         7.9 0.20            112            305 158 
 CBOC HZ EP   3    7 9 16.08                             109    0.72 2  332 253 
 CBOC HE ES   4    7 9 47.29                             109   -4.30 0  332 253 
 CBOC HZ I         710  3.60         4.3 0.50            110            332 253 
 DBB  EZ EP        7 9 16.44                             108    0.35 7  340 275 
 DBB  EN ES        7 9 52.37                             108   -0.53 7  340 275 
 ORTC HZ EP        7 9 22.94                             105    0.73 6  392 216 
 ORTC HN ES   4    710  6.12                             105    2.34 0  392 216 
                                                                                
