 2012  119 0323 12.4 L   6.704 -73.235138.5  RSN  6 0.5 1.2LRSN                1
 GAP=204        1.09      10.0    10.7 13.0  0.5675E+02  0.1562E+02  0.2081E+02E
 Epicentro: VILLANUEVA - SANTANDER                                             3
 ACTION:UP  12-02-03 08:18 OP:REBC STATUS:               ID:20120119032312 L   I
 2012-01-19-0320-00M.COL___187                                                 6
 STAT SP IPHASW D HRMM SECON CODA AMPLIT PERI AZIMU VELO SNR AR TRES W  DIS CAZ7
 BAR2 SZ EP   1    323 30.18                             174    -0.8 7   14 155 
 BRR  HZ EP   1    323 33.02                             152     0.3 7   69 310 
 BRR  HZ I         323 38.52         5.6 0.30                            69 310 
 BRR  HE ES   1    323 48.73                             152     0.3 7   69 310 
 RUS  HE ES   1    323 52.43                             145     0.2 7   91 169 
 RUS  HZ I         323 56.00         1.6 0.12                            91 169 
 PTB  HZ EP   1    323 38.61                             133     0.8 7  136 262 
 PTB  HN ES   1    323 57.15                             133    -0.4 7  136 262 
 ZAR  HN ES   2    324  7.72                             121    -0.8 4  199 296 
 CHI  HZ EP   1    323 48.18                             117    -0.2 6  236 194 
                                                                                
