 2010  919 0453  6.2 L   6.761 -73.100144.2  RSN 10 0.4 1.8LRSN                1
 GAP=164        0.89       4.3     8.2  6.4 -0.1142E+02 -0.7373E+00  0.1790E+01E
 Epicentro: LOS SANTOS - SANTANDER                                             3
 ACTION:UP  11-02-18 11:03 OP:tino STATUS:               ID:20100919045306 L   I
 2010-09-19-0450-05S.COL___121                                                 6
 STAT SP IPHASW D HRMM SECON CODA AMPLIT PERI AZIMU VELO SNR AR TRES W  DIS CAZ7
 BAR2 SZ EP        453 25.66                             171     0.110   21 206 
 BAR2 SZ ES   1    453 40.73                             171     0.0 7   21 206 
 BAR2 SZ I         453 41.63        14.5 0.05                            21 206 
 BTL  SZ EP        453 25.89                             170     0.210   25 313 
 BTL  SZ ES   1    453 40.78                             170    -0.1 7   25 313 
 GIR2 SZ EP        453 25.73                             165    -0.110   37 344 
 BRR  HZ EP        453 27.64                             150     0.110   78 300 
 BRR  HE ES   1    453 44.50                             150     0.3 7   78 300 
 RUS  HZ EP   1    453 29.90                             145     0.5 7   96 179 
 RUS  HZ I         453 49.18         4.5 0.14                            96 179 
 GRA  SZ EP        453 31.64                             136     0.110  129  15 
 OCA  SZ EP        453 34.28                             128    -0.6 9  165 352 
 OCA  SZ ES   1    453 56.84                             128    -0.3 7  165 352 
 OCA  SZ I         454  1.19        10.5 0.29                           165 352 
 NOR  HZ EP        453 42.05                             118     0.0 8  236 236 
 NOR  HN ES   2    454  9.04                             118    -0.9 4  236 236 
 CHI  HE ES   1    454 11.73                             117    -0.9 6  246 197 
 HEL  HZ EP   2    453 48.14                             114     1.4 4  276 257 
 HEL  HZ I         454 25.00         4.9 0.48                           276 257 
                                                                                
