 2015 1219 0948 54.0 L   6.713 -73.380125.4  RSN  5 0.4 1.6LRSN                1
 GAP=140        0.90       5.3     4.9  6.6  0.2454E+01  0.7725E+01 -0.1183E+02E
 Epicentro: GALAN - SANTANDER                                                  3
 ACTION:UPD 16-02-04 15:06 OP:cam  STATUS:               ID:20151219094854 L   I
 OLDACT:REG 15-12-19 12:03 OP:mh   STATUS:               ID:20151219094749     3
 2015-12-19-0947-49M.COL___315                                                 6
 STAT SP IPHASW D HRMM SECON CODA AMPLIT PERI AZIMU VELO AIN AR TRES W  DIS CAZ7
 BAR2 EZ EP        949 11.58                             168    0.3210 25.7 121 
 BAR2 EZ ES        949 24.57                             168   -0.1410 25.7 121 
 BAR2 EZ I         949 25.90         8.3 0.26            175           25.7 121 
 BRR  HZ EP        949 12.30                             154    0.1410 56.9 320 
 BRR  HN ES        949 26.52                             154    0.2010 56.9 320 
 BRR  HZ I         949 30.51         8.4 0.30            152           56.9 320 
 PTB  HZ EP        949 16.71                             133   -0.1510  121 261 
 PTB  HE ES        949 34.13                             133   -0.5410  121 261 
 PTB  HZ I         949 38.89         5.1 0.30            134            121 261 
 ZAR  HZ EP        949 23.63                             120    0.49 9  185 298 
 ZAR  HN ES        949 46.30                             120    0.44 9  185 298 
 ZAR  HZ I         949 50.37         5.0 0.40            122            185 298 
 SML  HZ EP        949 28.95                             113   -0.57 8  243 342 
 SML  HN ES        949 56.88                             113   -0.34 8  243 342 
 SML  HZ I         950  0.86         3.9 0.10            115            243 342 
                                                                                
