 2013  919 0950 10.8 L   6.771 -73.185150.7  RSN  5 0.4 1.3LRSN                1
 GAP=197        0.65       5.7     7.7  8.1  0.1561E+02  0.1696E+02 -0.5232E+01E
 Epicentro: LOS SANTOS - SANTANDER                                             3
 ACTION:UPD 13-10-22 09:23 OP:ep   STATUS:               ID:20130919095010 L   I
 OLDACT:REG 13-09-19 06:29 OP:jn   STATUS:               ID:20130919094959     3
 2013-09-19-0949-59M.COL___269                                                 6
 STAT SP IPHASW D HRMM SECON CODA AMPLIT PERI AZIMU VELO AIN AR TRES W  DIS CAZ7
 BAR2 SZ ES   2    950 45.73                             172   -0.90 5 19.7 179 
 BAR2 SZ I         950 48.14         4.3 0.28            171           19.7 179 
 BRR  HZ EP   1    950 32.55                             154    0.22 8 69.1 303 
 BRR  HN ES   1    950 49.57                             154    0.42 8 69.1 303 
 BRR  HZ I         950 55.12         6.3 0.40            151           69.1 303 
 RUS  HN ES   1    950 53.65                             146    0.10 8 97.8 173 
 PTB  HZ EP        950 37.64                             134   -0.0610  143 260 
 PTB  HN ES   1    950 58.55                             134   -0.16 7  143 260 
 PTB  HZ I         951  3.66         1.9 0.14            135            143 260 
 SML  HN ES   2    951 16.27                             118   -0.41 4  245 337 
                                                                                
