 2010 1119 0830 27.1 L   6.820 -73.025141.0  RSN  8 0.3 2.2LRSN                1
 GAP=195        0.61       2.7     6.0  4.9 -0.2052E+01  0.5256E+01  0.3011E+00E
 Epicentro: CEPITA - SANTANDER                                                 3
 ACTION:UP  10-12-17 16:53 OP:REBC STATUS:               ID:20101119083027 L   I
 2010-11-19-0826-23S.COL___126                                                 6
 STAT SP IPHASW D HRMM SECON CODA AMPLIT PERI AZIMU VELO SNR AR TRES W  DIS CAZ7
 BAR2 SZ IP        830 46.47                             167     0.110   31 215 
 BAR2 SZ ES   1    831  1.13                             167    -0.2 7   31 215 
 BAR2 SZ I         831  2.57        36.0 0.35                            31 215 
 BRR  HZ EP        830 48.38                             148     0.010   82 293 
 BRR  HE ES   1    831  5.14                             148     0.1 7   82 293 
 BRR  HZ I         831 10.80        23.3 0.09                            82 293 
 RUS  HZ EP   1    830 50.34                             142    -0.2 7  103 184 
 RUS  HN ES   1    831  8.88                             142     0.0 7  103 184 
 RUS  HZ I         831 10.75         8.0 0.40                           103 184 
 OCA  SZ EP        830 55.11                             128     0.1 9  160 348 
 OCA  SZ ES   1    831 16.68                             128    -0.1 7  160 348 
 OCA  SZ I         831 21.19        16.6 0.49                           160 348 
 ROSC BZ EP   2    831  6.87                             115     0.9 4  262 213 
 ROSC BE ES   2    831 36.94                             115     0.7 4  262 213 
 ROSC BZ I         831 41.35        11.6 0.38                           262 213 
 HEL  HZ EP   2    831  8.26                             113    -0.3 4  286 256 
 HEL  HZ I         831 45.56         5.6 0.42                           286 256 
 RREF HZ EP   1    831 14.66                             109     0.3 5  333 231 
 RREF HE ES   1    831 51.07                             109    -0.2 5  333 231 
 RREF HZ I         831 57.00         5.5 0.65                           333 231 
 PRA  HZ EP   1    831 20.80                             105    -0.7 4  401 211 
 PRA  HE ES   2    832  3.10                             105    -0.8 3  401 211 
 PRA  HZ I         832  9.60        12.6 0.32                           401 211 
                                                                                
