 2015  619 0453 59.8 L   6.735 -73.134139.7  RSN  5 0.4 1.5LRSN                1
 GAP=234        1.07       6.5     7.3  9.5  0.2142E+02  0.2101E+02  0.8084E+01E
 Epicentro: JORDAN - SANTANDER                                                 3
 ACTION:UPD 15-09-10 22:13 OP:cam  STATUS:               ID:20150619045359 L   I
 OLDACT:REG 15-06-19 12:32 OP:drio STATUS:               ID:20150619044750     3
 2015-06-19-0447-50M.COL___304                                                 6
 STAT SP IPHASW D HRMM SECON CODA AMPLIT PERI AZIMU VELO AIN AR TRES W  DIS CAZ7
 BAR2 EZ EP        454 18.47                             173   -0.1610 16.7 199 
 BAR2 EZ ES        454 32.91                             173   -0.3710 16.7 199 
 BAR2 EZ I         454 35.08         7.3 0.26            170           16.7 199 
 BRR  HZ EP        454 20.22                             150   -0.4110 76.0 303 
 BRR  HE ES        454 37.56                             150    0.7110 76.0 303 
 RUS  HZ EP        454 23.10                             145    0.6210 93.3 177 
 RUS  HE ES        454 39.99                             145   -0.1510 93.3 177 
 RUS  HZ I         454 42.66         4.0 0.26            146           93.3 177 
 ZAR  HN ES        454 57.36                             120   -0.30 8  208 294 
 ZAR  HZ I         455  5.36         4.4 0.26            120            208 294 
 NOR  HN ES        455  2.24                             117   -0.01 8  232 236 
                                                                                
