 2016  719 0030 22.9 L   6.784 -73.130146.0  RSN  4 0.2 1.1LRSN                1
 GAP=139        0.39       3.0     6.1  4.1  0.1859E+01 -0.2568E+01  0.4628E-01E
 Epicentro: LOS SANTOS - SANTANDER                                             3
 ACTION:UPD 17-03-29 16:52 OP:lp   STATUS:               ID:20160719003022 L   I
 OLDACT:UP  16-07-19 14:00 OP:ar   STATUS:               ID:20160719002759     3
 OLDACT:REG 16-07-19 12:19 OP:ar   STATUS:               ID:20160719002759     3
 2016-07-19-0027-59S.COL___334                                                 6
 STAT SP IPHASW D HRMM SECON CODA AMPLIT PERI AZIMU VELO AIN AR TRES W  DIS CAZ7
 BAR2 EZ EP   2    030 42.09                             171   -0.48 5 22.0 195 
 BAR2 EZ ES        030 57.80                             171   -0.0910 22.0 195 
 BRR  HZ EP   2    030 44.43                             152    0.18 5 73.6 299 
 BRR  HN ES   2    031  0.94                             152    0.07 5 73.6 299 
 BRR  HZ I         031  4.93         4.0 0.32            149           73.6 299 
 PAM  EZ EP   2    030 45.07                             151   -0.13 5 77.7  38 
 PAM  EN ES   2    031  2.75                             151    0.19 5 77.7  38 
 PAM  EZ I         031  5.04         1.8 0.24            151           77.7  38 
 RUS  HZ EP        030 46.71                             144    0.1310 98.7 177 
 RUS  HN ES        031  5.03                             144    0.0110 98.7 177 
 RUS  HZ I         031  5.87         1.9 0.28            149           98.7 177 
                                                                                
