 2014 1119 0901 37.0 L   6.751 -73.146148.0  RSN 10 0.4 1.7LRSN                1
 GAP=234        1.03       5.6     5.1  6.3  0.2252E+01  0.1212E+02  0.5893E+01E
 Epicentro: LOS SANTOS - SANTANDER                                             3
 ACTION:UPD 14-12-19 15:44 OP:nd   STATUS:               ID:20141119090137 L   I
 OLDACT:REG 14-11-19 14:15 OP:fm   STATUS:               ID:20141119085743     3
 2014-11-19-0857-43M.COL___286                                                 6
 STAT SP IPHASW D HRMM SECON CODA AMPLIT PERI AZIMU VELO AIN AR TRES W  DIS CAZ7
 BAR2 SZ EP        9 1 56.59                             173   -0.1910 18.0 193 
 BAR2 SZ ES        9 2 12.40                             173    0.1710 18.0 193 
 BAR2 SZ I         9 2 13.44        14.0 0.46            168           18.0 193 
 BRR  HZ EP        9 1 58.40                             152   -0.1210 73.9 302 
 BRR  HN ES        9 2 15.94                             152    0.6210 73.9 302 
 BRR  HZ I         9 2 21.38         6.7 0.24            149           73.9 302 
 RUS  HZ EP        9 2  0.70                             146    0.1310 95.1 176 
 RUS  HN ES        9 2 18.59                             146   -0.3810 95.1 176 
 RUS  HZ I         9 2 20.12         5.8 0.26            147           95.1 176 
 PTB  HZ EP        9 2  3.18                             133   -0.85 9  147 261 
 PTB  HN ES        9 2 24.38                             133   -0.76 9  147 261 
 PTB  HZ I         9 2 26.22         7.4 0.16            131            147 261 
 SPBC HZ EP        9 2  5.40                             130    0.15 9  159 220 
 SPBC HN ES        9 2 27.83                             130    0.53 9  159 220 
 SPBC HZ I         9 2 30.41        10.0 0.26            130            159 220 
 HEL  HZ EP        9 2 17.38                             115    0.23 8  271 257 
 HEL  HN ES        9 2 48.77                             115    0.28 8  271 257 
 HEL  HZ I         9 2 56.76         2.3 0.30            116            271 257 
 CBOC HZ EP        9 2 24.34                             110    0.55 7  332 253 
 CBOC HN ES        9 3  0.06                             110   -0.25 7  332 253 
 CBOC HZ I         9 3  9.96         1.3 0.74            111            332 253 
 TOL  SZ EP        9 2 25.22                             110    0.35 7  340 225 
 TOL  SN ES        9 3  2.28                             110    0.05 7  340 225 
 TOL  SZ I         9 3 10.03         5.2 0.38            111            340 225 
 MON  HZ EP   4    9 2 23.17                             109   -3.28 0  357 309 
 MON  HN ES   4    9 3  1.87                             109   -3.17 0  357 309 
 MON  HZ I         9 3  6.93         1.3 0.38            110            357 309 
 SJC  HZ EP   4    9 2 29.38                             106   -3.76 0  414 327 
 SJC  HN ES   4    9 3 11.19                             106   -5.77 0  414 327 
 SJC  HZ I         9 3 17.96         1.5 0.46            107            414 327 
                                                                                
