 2015  619 0213 52.9 L   6.123 -73.140183.7  RSN  7 0.4 1.7LRSN                1
 GAP=171        0.92       6.2     4.9  6.4 -0.8803E+01  0.1190E+02  0.5993E+01E
 Epicentro: ENCINO - SANTANDER                                                 3
 ACTION:UPD 15-09-10 22:13 OP:cam  STATUS:               ID:20150619021352 L   I
 OLDACT:REG 15-06-19 12:18 OP:drio STATUS:               ID:20150619020747     3
 2015-06-19-0207-47M.COL___307                                                 6
 STAT SP IPHASW D HRMM SECON CODA AMPLIT PERI AZIMU VELO AIN AR TRES W  DIS CAZ7
 RUS  HZ EP        214 17.43                             172   -0.1010 26.2 166 
 RUS  HN ES        214 37.07                             172    0.3310 26.2 166 
 RUS  HZ I         214 39.40         2.9 0.36            171           26.2 166 
 BAR2 EZ EP        214 17.66                             164   -0.1810 52.1 355 
 BAR2 EZ I         214 17.83         7.1 0.20            165           52.1 355 
 BAR2 EZ ES        214 36.78                             164   -0.5010 52.1 355 
 BRR  HZ EP        214 21.41                             144   -0.1010  126 330 
 BRR  HE ES        214 44.44                             144    0.6110  126 330 
 NOR  HZ EP        214 28.00                             130    0.12 9  201 252 
 NOR  HN ES        214 54.60                             130   -0.56 9  201 252 
 NOR  HZ I         215  0.39         8.2 0.20            130            201 252 
 HEL  HZ EP        214 34.92                             122    0.39 8  265 272 
 HEL  HN ES        215  6.61                             122   -0.38 8  265 272 
 HEL  HZ I         215 13.92         3.3 0.60            123            265 272 
 GUY2CHZ EP        214 35.05                             122    0.25 8  266 248 
 GUY2CHN ES        215  8.16                             122    0.69 8  266 248 
 GUY2CHZ I         215 14.51         2.5 0.44                           266 248 
 CBOC HZ EP        214 39.70                             117   -0.37 7  319 265 
 CBOC HE ES        215 16.70                             117   -0.16 7  319 265 
 CBOC HZ I         215 20.63         2.0 0.54            118            319 265 
                                                                                
