 2016  919 0528  5.2 L   6.786 -73.114150.0  RSN  9 0.4 1.6LRSN                1
 GAP=186        0.77       4.3     5.4  6.5  0.5965E+01 -0.1809E+01  0.6406E+01E
 Epicentro: LOS SANTOS - SANTANDER                                             3
 ACTION:UPD 17-08-17 21:14 OP:lp   STATUS:               ID:20160919052805 L   I
 OLDACT:UP  16-09-19 20:49 OP:and  STATUS:               ID:20160919051730     3
 OLDACT:REG 16-09-19 12:00 OP:ar   STATUS:               ID:20160919051730     3
 2016-09-19-0518-00M.COL___354                                                 6
 STAT SP IPHASW D HRMM SECON CODA AMPLIT PERI AZIMU VELO AIN AR TRES W  DIS CAZ7
 BAR2 EZ EP        528 25.17                             171   -0.1510 22.7 199 
 BAR2 EZ ES   2    528 40.39                             171   -0.63 5 22.7 199 
 BRR  HZ EP        528 26.95                             152   -0.0610 75.0 298 
 BRR  HE ES        528 44.56                             152    0.5310 75.0 298 
 BRR  HZ I         528 44.70         6.2 0.12            150           75.0 298 
 RUS  HZ EP        528 29.40                             145    0.1610 98.9 178 
 RUS  HN ES   2    528 47.92                             145   -0.08 5 98.9 178 
 RUS  HZ I         528 48.78         4.1 0.28            142           98.9 178 
 PTB  HZ EP        528 32.07                             133   -0.72 9  151 260 
 PTB  HN ES   4    528 53.02                             133   -1.29 0  151 260 
 PTB  HZ I         528 54.07         4.2 0.17            130            151 260 
 OCA  HZ EP   2    528 33.96                             131   -0.06 5  162 352 
 SPBC HZ EP        528 34.00                             130   -0.11 9  164 220 
 SPBC HE ES        528 56.66                             130   -0.01 9  164 220 
 SPBC HZ I         529  2.30         6.5 0.12            127            164 220 
 ZAR  HN ES        529  4.15                             123    0.02 8  208 292 
 ZAR  HZ I         529  7.11         4.9 0.10            122            208 292 
 NOR  HZ EP   2    528 41.69                             119    0.31 4  237 235 
 NOR  HE ES   2    529  9.73                             119    0.13 4  237 235 
 NOR  HZ I         529 12.96         3.6 0.12            118            237 235 
 CHI  HZ EP        528 43.63                             118    0.56 8  248 196 
 CHI  HN ES   4    529 14.61                             118    2.00 0  248 196 
 CHI  HZ I         529 18.06         1.3 0.19            117            248 196 
 GUY2CHZ EP   4    528 51.13                             113    1.91 0  303 235 
 GUY2CHE ES   4    529 27.80                             113    4.24 0  303 235 
                                                                                
