 2013  719 0451 16.6 L   6.368 -73.572109.3  RSN 10 0.4 1.9LRSN                1
 GAP= 81        0.92       3.0     3.6  7.4 -0.3198E+01  0.3729E+01 -0.5895E+01E
 Epicentro: SANTA HELENA DEL OPON - SANTANDER                                  3
 ACTION:UPD 13-08-12 10:38 OP:ep   STATUS:               ID:20130719044959 L   I
 OLDACT:UP  13-07-19 11:12 OP:mh   STATUS:               ID:20130719044959 L   3
 OLDACT:UPD 13-07-19 09:03 OP:stll STATUS:               ID:20130719044959 L   3
 2013-07-19-0449-59M.COL___267                                                 6
 STAT SP IPHASW D HRMM SECON CODA AMPLIT PERI AZIMU VELO AIN AR TRES W  DIS CAZ7
 BAR2 SZ IP     D  451 33.22                             154    0.2810 49.7  60 
 BAR2 SZ I         451 47.27         7.8 0.10            139           49.7  60 
 RUS  HZ EP        451 34.86                             143   -0.0810 75.4 134 
 RUS  HN ES        451 48.63                             143   -0.6310 75.4 134 
 RUS  HN I         451 50.04        11.9 0.20            129           75.4 134 
 BRR  HZ EP   1    451 34.90                             140    0.05 7 83.2 349 
 BRR  HN ES        451 49.27                             140    0.1910 83.2 349 
 BRR  HN I         451 57.14        31.0 0.16            121           83.2 349 
 GIR2 SZ EP        451 35.53                             138    0.0110 89.1  28 
 GIR2 SZ ES   1    451 50.65                             138    0.38 7 89.1  28 
 GIR2 SZ I         451 51.18        20.8 0.10            120           89.1  28 
 SPBC HZ EP   1    451 36.47                             135    0.40 7 96.6 215 
 SPBC HN ES        451 51.87                             135    0.6010 96.6 215 
 SPBC HN I         451 59.71        26.5 0.10            119           96.6 215 
 PTB  HZ EP   1    451 35.74                             134   -0.50 7 99.6 281 
 PTB  HN ES   1    451 51.10                             134   -0.46 7 99.6 281 
 PTB  HN I         451 54.65        13.3 0.38            116           99.6 281 
 NOR  HE ES        452  3.72                             118   -0.14 9  169 238 
 NOR  HE I         452  6.21        10.6 0.20            105            169 238 
 OCA  HZ EP   1    451 48.50                             112    0.82 6  209   8 
 OCA  HN ES        452 11.48                             112   -0.45 8  209   8 
 OCA  HN I         452 16.83        37.9 0.34            101            209   8 
 HEL  HE ES   2    452 13.66                             112   -0.48 4  217 265 
 HEL  HZ I         452 21.45         1.9 0.24            101            217 265 
 SML  HZ EP   1    451 54.73                             106   -0.34 6  275 348 
 SML  HN I         452 34.11        14.1 0.10             98            275 348 
                                                                                
