 2017  219 0515  5.6 L   6.759 -73.098143.4  RSN  9 0.2 1.7LRSN                1
 GAP=125        0.81       3.3     5.1  5.2 -0.2373E+01 -0.5056E+01  0.4456E+01E
 Epicentro: LOS SANTOS - SANTANDER                                             3
 ACTION:UPD 17-05-24 15:37 OP:jn   STATUS:               ID:20170219051505 L   I
 OLDACT:UP  17-02-19 17:40 OP:edw  STATUS:               ID:20170219050746     3
 OLDACT:REG 17-02-19 12:36 OP:edw  STATUS:               ID:20170219050746     3
 2017-02-19-0508-00M.COL___352                                                 6
 STAT SP IPHASW D HRMM SECON CODA AMPLIT PERI AZIMU VELO AIN AR TRES W  DIS CAZ7
 BAR2 EZ EP        515 24.71                             171   -0.1610 20.6 207 
 BAR2 EZ ES        515 39.55                             171   -0.3710 20.6 207 
 BAR2 EZ I         515 40.97        10.0 0.24            168           20.6 207 
 PAM  EZ EP        515 27.68                             150    0.1110 77.9  34 
 PAM  EN ES        515 44.62                             150   -0.1110 77.9  34 
 PAM  EZ I         515 46.92        13.7 0.50            152           77.9  34 
 BRR  HZ EP        515 26.62                             150   -0.2610 78.0 300 
 BRR  HE ES        515 43.88                             150    0.3910 78.0 300 
 BRR  HZ I         515 44.29         7.1 0.12            147           78.0 300 
 RUS  HZ EP        515 28.73                             144   -0.0210 95.8 179 
 RUS  HN ES        515 46.96                             144    0.1310 95.8 179 
 RUS  HZ I         515 48.61         5.5 0.32            143           95.8 179 
 PTB  HZ EP   9    515 31.86                             130   -0.90 0  152 261 
 PTB  HN ES        515 52.39                             131   -0.67 9  152 261 
 PTB  HZ I         515 57.27         3.2 0.24            128            152 261 
 ZAR  HZ EP   9    515 37.34                             121   -1.22 0  211 293 
 ZAR  HN ES        516  2.49                             122   -0.58 8  211 293 
 ZAR  HZ I         516  8.80         4.2 0.32            119            211 293 
 CHI  HZ EP        515 42.97                             116    0.15 8  246 197 
 CHI  HN ES        516 12.21                             116    0.33 8  246 197 
 CHI  HZ I         516 15.75         2.8 0.44            116            246 197 
 ROSC BZ EP   4    515 45.57                             116    2.12 0  252 213 
 ROSC BN ES   4    516 15.69                             116    2.70 0  252 213 
 ROSC BZ I         516 18.57         4.1 0.40            115            252 213 
 PTGC HZ EP   9    515 47.77                             111   -0.86 0  303 159 
 PTGC HN ES        516 21.34                             111   -0.01 7  303 159 
 PTGC HZ I         516 22.91         3.1 0.60            111            303 159 
                                                                                
