 2012  719 0320 26.5 L   5.844 -73.761108.0  RSN  5 0.3 1.6LRSN                1
 GAP=136        0.73       3.5     5.3 12.5  0.1303E+01 -0.2396E+01  0.1548E+01E
 Epicentro: JESUS MARIA - SANTANDER                                            3
 ACTION:UPD 12-08-14 11:45 OP:ep   STATUS:               ID:20120719032026 L   I
 2012-07-19-0320-00M.COL___201                                                 6
 STAT SP IPHASW D HRMM SECON CODA AMPLIT PERI AZIMU VELO AIN AR TRES W  DIS CAZ7
 RUS  HZ EP   1    320 44.46                             143    -0.3 7   75  86 
 RUS  HZ I         320 45.04         4.6 0.12            148             75  86 
 BAR2 SZ EP   1    320 46.70                             133    -0.1 7  105  38 
 BAR2 SZ ES   1    321  2.74                             133     0.1 7  105  38 
 BAR2 SZ I         321  4.19        35.9 0.42            138            105  38 
 PTB  HZ EP   1    320 46.52                             131    -0.3 7  109 315 
 PTB  HN ES   1    321  2.86                             131     0.1 7  109 315 
 PTB  HZ I         321  4.98         3.3 0.39            136            109 315 
 CHI  HE ES   1    321  8.17                             125     0.1 7  134 179 
 CHI  HZ I         321 11.85         4.4 0.15            128            134 179 
 BRR  HZ EP   1    320 50.45                             123     0.6 7  140   2 
 BRR  HZ I         320 50.99         9.9 0.11            129            140   2 
 BRR  HE ES   1    321  7.80                             123    -0.3 7  140   2 
