 2017  219 0136 58.3 L   6.777 -73.201145.5  RSN  4 0.3 1.4LRSN                1
 GAP=230        0.72       5.9     5.8  6.0  0.1837E+02  0.6538E+01  0.3518E+01E
 Epicentro: ZAPATOCA - SANTANDER                                               3
 ACTION:UPD 17-05-24 15:37 OP:jn   STATUS:               ID:20170219013658 L   I
 OLDACT:DUP 17-02-19 14:40 OP:edw  STATUS:               ID:20170219012744d    3
 OLDACT:UP  17-02-19 14:39 OP:edw  STATUS:               ID:20170219012743     3
 OLDACT:REG 17-02-19 12:20 OP:edw  STATUS:               ID:20170219012743     3
 2017-02-19-0128-00M.COL___358                                                 6
 STAT SP IPHASW D HRMM SECON CODA AMPLIT PERI AZIMU VELO AIN AR TRES W  DIS CAZ7
 BAR2 EZ ES        137 32.68                             172   -0.4010 20.6 174 
 BRR  HZ EP        137 18.97                             154   -0.2210 67.3 303 
 BRR  HN ES        137 35.92                             154    0.4310 67.3 303 
 BRR  HZ I         137 38.31        10.1 0.32            154           67.3 303 
 RUS  HZ EP        137 22.12                             144    0.2510 98.7 172 
 RUS  HN ES        137 40.39                             144    0.1210 98.7 172 
 RUS  HZ I         137 41.43         2.2 0.24            147           98.7 172 
 PTB  HZ EP        137 24.53                             133   -0.12 9  141 259 
 PTB  HN ES        137 45.13                             133   -0.09 9  141 259 
                                                                                
