 2010  919 0617 55.1 L   6.661 -72.982  2.8  RSN  4 0.4 0.9LRSN                1
 GAP=236        1.01       5.0    10.0 13.4  0.3303E+02  0.9954E+02  0.3538E+02E
 Epicentro: ARATOCA - SANTANDER                                                3
 ACTION:UP  11-02-18 11:03 OP:tino STATUS:               ID:20100919061755 L   I
 2010-09-19-0614-41S.COL___121                                                 6
 STAT SP IPHASW D HRMM SECON CODA AMPLIT PERI AZIMU VELO SNR AR TRES W  DIS CAZ7
 BAR2 SZ EP        617 59.50                              47    -0.210   24 251 
 BAR2 SZ ES   1    618  3.23                              47     0.0 7   24 251 
 BAR2 SZ I         618  4.18        19.0 0.20                            24 251 
 BTL  SZ EP        618  1.89                              47    -0.710   43 312 
 RUS  HZ EP        618  9.63                              47     0.310   86 188 
 RUS  HN ES   2    618 20.11                              47    -0.4 5   86 188 
 BRR  HZ EP        618 10.71                              47     0.510   95 301 
 BRR  HN ES   1    618 22.28                              47     0.3 7   95 301 
                                                                                
