 2013 1219 0541 34.6 L   6.794 -73.175146.5  RSN  5 0.2 1.2LRSN                1
 GAP=198        0.60       3.9     7.1  4.9  0.1862E+02 -0.7894E+01 -0.7619E+01E
 Epicentro: LOS SANTOS - SANTANDER                                             3
 ACTION:UPD 14-01-13 10:19 OP:ep   STATUS:               ID:20131219054134 L   I
 OLDACT:REG 13-12-19 08:15 OP:jn   STATUS:               ID:20131219054000     3
 2013-12-19-0540-00M.COL___285                                                 6
 STAT SP IPHASW D HRMM SECON CODA AMPLIT PERI AZIMU VELO AIN AR TRES W  DIS CAZ7
 BAR2 SZ EP        541 54.64                             171    0.3810 22.4 182 
 BAR2 SZ ES        542  9.43                             171   -0.2010 22.4 182 
 BAR2 SZ I         542 10.72         4.6 0.80            169           22.4 182 
 BRR  HN ES        542 12.09                             153   -0.0110 68.7 300 
 BRR  HZ I         542 13.59         4.4 0.34            153           68.7 300 
 RUS  HZ EP        541 58.41                             144    0.0510  100 174 
 RUS  HN ES        542 16.85                             144   -0.0710  100 174 
 RUS  HZ I         542 19.26         1.0 0.26            144            100 174 
 PTB  HZ EP   2    542  1.17                             133   -0.12 5  144 259 
 PTB  HE ES   2    542 22.25                             133    0.11 5  144 259 
 PTB  HZ I         542 23.79         2.4 0.22            132            144 259 
 SML  HZ EP        542 10.64                             118   -0.50 8  243 336 
 SML  HN ES        542 39.94                             118    0.26 8  243 336 
                                                                                
