 2017  319 0034 27.5 L   6.747 -73.157140.7  RSN  7 0.4 1.3LRSN                1
 GAP=137        0.91       4.2     4.0  5.9  0.1609E+01  0.6629E+01  0.1339E+01E
 Epicentro: LOS SANTOS - SANTANDER                                             3
 ACTION:UPD 17-05-25 18:42 OP:jn   STATUS:               ID:20170319003427 L   I
 OLDACT:DUP 17-03-19 15:17 OP:cara STATUS:               ID:20170319002747d    3
 2017-03-19-0028-00M.COL___397                                                 6
 STAT SP IPHASW D HRMM SECON CODA AMPLIT PERI AZIMU VELO AIN AR TRES W  DIS CAZ7
 BAR2 EZ EP        034 46.34                             173   -0.1210 17.4 189 
 BAR2 EZ ES        035  1.19                             173   -0.0210 17.4 189 
 BAR2 EZ I         035  2.71         6.5 0.36            174           17.4 189 
 BRR  HZ EP        034 48.22                             151   -0.0410 73.1 303 
 BRR  HN ES        035  4.99                             151    0.5710 73.1 303 
 PAM  EZ IP     C  034 49.10                             148   -0.4610 82.7  38 
 PAM  EN ES        035  6.64                             148   -0.0910 82.7  38 
 PAM  EZ I         035 10.21         2.7 0.30            150           82.7  38 
 RUS  HZ EP        034 50.64                             144    0.2510 94.9 175 
 RUS  HN ES        035  8.33                             144    0.1210 94.9 175 
 RUS  HZ I         035  9.93         1.8 0.18            148           94.9 175 
 PTB  HZ EP        034 53.79                             131   -0.11 9  146 261 
 PTB  HN ES        035 13.83                             131   -0.62 9  146 261 
 PTB  HZ I         035 17.17         2.3 0.10            132            146 261 
 SPBC HZ EP        034 55.20                             129    0.04 9  158 220 
 SPBC HN ES   4    035 17.66                             129    0.97 0  158 220 
 ZAR  HZ EP        035  0.55                             121    0.77 9  205 294 
 ZAR  HN ES        035 24.70                             121   -0.23 9  205 294 
 ZAR  HZ I         035 32.43         2.4 0.26            122            205 294 
                                                                                
