 2012  519 0110 28.3 L   6.826 -73.176133.3  RSN  6 0.4 2.0LRSN                1
 GAP=131        0.87       6.6     5.6 10.0  0.8916E+01  0.1855E+02  0.2478E+02E
 Epicentro: LOS SANTOS - SANTANDER                                             3
 ACTION:UP  12-07-05 12:06 OP:pat  STATUS:               ID:20120519011028 L   I
 2012-05-19-0110-00M.COL___200                                                 6
 STAT SP IPHASW D HRMM SECON CODA AMPLIT PERI AZIMU VELO SNR AR TRES W  DIS CAZ7
 BAR2 SZ ES   3    111  0.21                             169    -0.4 2   26 181 
 BRR  HZ EP        110 48.49                             152     0.710   67 298 
 BRR  HZ I         110 54.53        22.8 0.46                            67 298 
 BRR  HN ES   1    111  3.11                             152     0.0 7   67 298 
 PAM  SZ EP   2    110 48.92                             148    -0.2 5   77  43 
 PAM  SN ES   1    111  5.21                             148    -0.3 7   77  43 
 RUS  HZ EP        110 50.95                             140    -0.110  104 174 
 RUS  HN ES   2    111  9.12                             140     0.3 5  104 174 
 PTB  HN EP        110 53.45                             130    -0.5 9  145 257 
 PTB  HE ES   2    111 14.01                             130     0.0 5  145 257 
 ZAR  HZ EP   2    111  0.25                             120     0.8 4  200 292 
 ZAR  HN ES   1    111 23.50                             120    -0.3 6  200 292 
 ZAR  HZ I         111 29.39        10.5 0.54                           200 292 
                                                                                
