 2012 1219 0234 43.7 L   6.761 -73.161155.5  RSN  5 0.3 1.7LRSN                1
 GAP=136        0.66       5.3     6.4  8.0  0.7787E+01 -0.4066E+01 -0.5290E+01E
 Epicentro: LOS SANTOS - SANTANDER                                             3
 ACTION:UPD 13-01-04 14:28 OP:ep   STATUS:               ID:20121219023443 L   I
 2012-12-19-0230-00M.COL___243                                                 6
 STAT SP IPHASW D HRMM SECON CODA AMPLIT PERI AZIMU VELO AIN AR TRES W  DIS CAZ7
 BAR2 SZ EP        235  4.20                             173   -0.1810 18.8 187 
 BAR2 SZ I         235 20.90        10.1 0.45                          18.8 187 
 BRR  HZ EP        235  6.06                             154    0.1610 71.9 302 
 BRR  HZ I         235  6.39        14.7 0.15                          71.9 302 
 BRR  HE ES   1    235 23.43                             154    0.18 7 71.9 302 
 PAM  SZ EP        235  7.03                             151   -0.1410 81.8  39 
 RUS  HZ EP        235  8.53                             147    0.4410 96.4 175 
 RUS  HE ES   1    235 26.88                             147   -0.28 7 96.4 175 
 RUS  HE I         235 27.88         8.6 0.45                          96.4 175 
 PTB  HZ EP        235 10.96                             135   -0.26 9  145 260 
 PTB  HZ I         235 38.13         3.2 0.16                           145 260 
                                                                                
