 2015  419 0744 45.6 L   6.825 -73.133147.6  RSN 12 0.4 1.8LRSN                1
 GAP=137        0.91       3.5     4.3  6.7 -0.2760E+01  0.4197E+01 -0.1594E+01E
 Epicentro: LOS SANTOS - SANTANDER                                             3
 ACTION:UPD 15-06-03 16:56 OP:cam  STATUS:               ID:20150419074445 L   I
 OLDACT:REG 15-04-19 12:50 OP:spq  STATUS:               ID:20150419073750     3
 2015-04-19-0737-50M.COL___271                                                 6
 STAT SP IPHASW D HRMM SECON CODA AMPLIT PERI AZIMU VELO AIN AR TRES W  DIS CAZ7
 BRR  HZ EP        745  7.39                             153    0.4410 71.2 296 
 BRR  HN ES        745 24.16                             153    0.5610 71.2 296 
 BRR  HZ I         745 28.14         9.2 0.15            151           71.2 296 
 PAM  SZ EP   1    745  7.99                             152    0.15 7 74.3  40 
 PAM  SN ES   1    745 25.51                             152    0.33 7 74.3  40 
 PAM  SZ I         745 26.58         8.1 0.14            156           74.3  40 
 RUS  HZ EP   1    745  9.72                             143   -0.01 7  103 177 
 RUS  HN ES   1    745 28.34                             143   -0.21 7  103 177 
 RUS  HZ I         745 30.01         3.2 0.22            146            103 177 
 PTB  HZ EP        745 12.65                             132   -0.25 9  150 258 
 PTB  HN ES        745 33.41                             132   -0.78 9  150 258 
 PTB  HZ I         745 35.61         8.9 0.10            132            150 258 
 OCA  HZ EP   1    745 13.61                             131   -0.21 7  158 352 
 OCA  HN ES        745 35.27                             131   -0.56 9  158 352 
 OCA  HZ I         745 38.72        17.1 0.32            133            158 352 
 SPBC HE ES   1    745 36.66                             129   -0.44 7  166 219 
 SPBC HZ I         745 42.57        10.8 0.20            130            166 219 
 ZAR  HZ EP   1    745 18.29                             123    0.09 6  204 291 
 ZAR  HE ES        745 43.84                             123    0.21 9  204 291 
 ZAR  HZ I         745 48.92         6.5 0.42            124            204 291 
 SML  HZ EP        745 22.02                             118   -0.11 8  242 335 
 SML  HE ES   1    745 50.61                             118   -0.01 6  242 335 
 SML  HZ I         745 52.65        10.4 0.10            120            242 335 
 HEL  HZ EP   4    745 27.84                             115    1.70 0  274 255 
 HEL  HN ES   1    745 58.33                             115    0.57 6  274 255 
 HEL  HZ I         746  5.11         3.6 0.30            116            274 255 
 GUY2CHZ EP   1    745 30.40                             112    0.79 5  304 235 
 GUY2CHN ES   4    746  6.89                             112    2.95 0  304 235 
 GUY2CHZ I         746 10.15         2.5 0.40                           304 235 
 MON  HZ EP   4    745 32.98                             109   -1.63 0  353 308 
 MON  HN ES   4    746 11.69                             109   -1.15 0  353 308 
 MON  HZ I         746 15.39         1.2 0.40            110            353 308 
 SJC  HZ EP   4    745 39.63                             106   -1.42 0  408 327 
 SJC  HN ES   4    746 22.21                             106   -2.09 0  408 327 
 SJC  HZ I         746 24.43         1.2 0.44            108            408 327 
                                                                                
