 2012  519 0125 36.7 L   6.783 -73.168147.6  RSN  8 0.4 1.9LRSN                1
 GAP=135        0.82       4.7     5.2  7.0  0.2387E+00  0.3253E+01  0.9519E+01E
 Epicentro: LOS SANTOS - SANTANDER                                             3
 ACTION:UP  12-07-05 12:06 OP:pat  STATUS:               ID:20120519012536 L   I
 2012-05-19-0120-00M.COL___200                                                 6
 STAT SP IPHASW D HRMM SECON CODA AMPLIT PERI AZIMU VELO SNR AR TRES W  DIS CAZ7
 BAR2 SZ EP        125 56.46                             171     0.010   21 184 
 BAR2 SZ ES   1    126 11.68                             171    -0.2 7   21 184 
 BAR2 SZ I         126 13.05        16.0 0.26                            21 184 
 BRR  HZ EP        125 58.29                             153     0.310   70 301 
 BRR  HN ES   1    126 15.21                             153     0.7 7   70 301 
 BRR  HZ I         126 18.75        13.8 0.14                            70 301 
 PAM  SZ EP        125 59.27                             150     0.010   80  40 
 PAM  SN ES   2    126 16.09                             150    -0.8 5   80  40 
 RUS  HZ EP        126  0.29                             145    -0.210   99 175 
 RUS  HN ES   2    126 19.20                             145     0.1 5   99 175 
 PTB  HZ EP        126  3.28                             133    -0.3 9  145 259 
 PTB  HN ES   2    126 24.41                             133    -0.1 5  145 259 
 ZAR  HN ES   2    126 33.88                             123    -0.5 4  203 293 
 ZAR  HZ I         126 41.82         9.4 0.30                           203 293 
 CHI  HZ EP        126 14.59                             118     0.4 8  246 195 
 CHI  HN ES   1    126 43.61                             118     0.1 6  246 195 
 CHI  HZ I         126 49.59         4.4 0.58                           246 195 
 HEL  HN ES   2    126 46.76                             115    -1.1 4  269 256 
                                                                                
