 2011  619 0342 58.7 L   6.769 -73.090146.0  RSN 13 0.3 2.2LRSN                1
 GAP=145        0.55       2.6     3.8  4.1 -0.4765E+01  0.1695E+01  0.2470E+01E
 Epicentro: LOS SANTOS - SANTANDER                                             3
 ACTION:UP  11-07-14 19:06 OP:ep   STATUS:               ID:20110619034258 L   I
 2011-06-19-0342-30S.COL___140                                                 6
 STAT SP IPHASW D HRMM SECON CODA AMPLIT PERI AZIMU VELO SNR AR TRES W  DIS CAZ7
 BAR2 SZ IP        343 18.29                             171     0.010   22 207 
 BAR2 SZ ES   2    343 33.18                             171    -0.4 5   22 207 
 BAR2 SZ I         343 36.11        30.8 0.51                            22 207 
 BTL  SZ IP        343 18.43                             170     0.110   26 310 
 BTL  SZ ES   2    343 33.35                             170    -0.4 5   26 310 
 PAM  SZ EP   1    343 21.04                             151     0.2 7   76  34 
 PAM  SN ES   2    343 37.97                             151    -0.2 5   76  34 
 BRR  HZ IP     D  343 20.17                             150    -0.110   78 299 
 BRR  HZ I         343 20.61        55.5 0.12                            78 299 
 BRR  HN ES   1    343 37.63                             150     0.6 7   78 299 
 RUS  HZ EP   1    343 22.20                             145     0.0 7   97 180 
 RUS  HN ES   2    343 40.57                             145     0.1 5   97 180 
 RUS  HZ I         343 42.39        16.0 0.39                            97 180 
 BRI  SZ EP   1    343 22.83                             141     0.2 7  110  17 
 BRI  SZ ES   1    343 41.30                             141    -0.1 7  110  17 
 BRI  SZ I         343 47.21        23.1 0.85                           110  17 
 GRA  SZ IP        343 24.06                             137     0.010  127  14 
 GRA  SZ I         343 25.41        23.7 0.24                           127  14 
 GRA  SZ ES   1    343 43.86                             137     0.0 7  127  14 
 OCA  SZ EP   1    343 26.89                             129    -0.5 7  164 351 
 OCA  SZ ES   2    343 50.07                             129     0.3 5  164 351 
 OCA  SZ I         343 55.24        25.6 0.42                           164 351 
 NOR  SZ EP   1    343 34.19                             118    -0.5 6  238 236 
 NOR  SE ES   2    344  2.65                             118    -0.2 4  238 236 
 CHI  HZ EP   1    343 36.22                             117     0.0 6  247 197 
 CHI  HN ES   2    344  6.06                             117     0.6 4  247 197 
 CHI  HZ I         344 11.52         8.0 0.07                           247 197 
 HEL  HZ EP   1    343 39.81                             114     0.4 6  277 257 
 HEL  HE ES   2    344 10.63                             114    -0.6 4  277 257 
 HEL  HZ I         344 18.56         5.2 0.58                           277 257 
 RREF HZ EP   2    343 44.93                             111    -0.2 3  324 231 
 RREF HN ES   2    344 21.56                             111     0.2 3  324 231 
 RREF HZ I         344 26.92        10.8 0.25                           324 231 
 PRA  HZ EP   2    343 52.32                             107     0.1 3  392 211 
 PRA  HN ES   2    344 33.93                             107     0.0 3  392 211 
                                                                                
