 2013  219 0635 45.7 L   6.805 -73.171149.0  RSN  8 0.5 1.7LRSN                1
 GAP=133        0.91       3.8     7.5  7.7  0.5364E+01  0.1784E+01 -0.1337E+01E
 Epicentro: LOS SANTOS - SANTANDER                                             3
 ACTION:UPD 13-03-12 09:34 OP:ep   STATUS:               ID:20130219063545 L   I
 2013-02-19-0630-00M.COL___240                                                 6
 STAT SP IPHASW D HRMM SECON CODA AMPLIT PERI AZIMU VELO AIN AR TRES W  DIS CAZ7
 BAR2 SZ EP   1    636  5.78                             171    0.05 7 23.5 183 
 BAR2 SZ ES   1    636 20.74                             171   -0.61 7 23.5 183 
 BAR2 SZ I         636 21.83        28.8 0.48            170           23.5 183 
 BRR  HZ EP        636  7.66                             154    0.6010 68.5 299 
 BRR  HN ES   1    636 24.62                             154    0.90 7 68.5 299 
 BRR  HZ I         636 29.08         8.3 0.18            154           68.5 299 
 PAM  SZ EP   2    636  8.70                             151    0.35 5 78.8  41 
 RUS  HZ EP   1    636  9.66                             144   -0.17 7  101 175 
 RUS  HN ES   1    636 28.60                             144   -0.04 7  101 175 
 RUS  HZ I         636 29.35         6.2 0.30            146            101 175 
 PTB  HZ EP   1    636 12.41                             133   -0.30 7  145 258 
 PTB  HN ES   1    636 33.29                             133   -0.48 7  145 258 
 PTB  HZ I         636 33.99         5.5 0.28            134            145 258 
 OCA  HN ES   1    636 35.94                             130   -0.47 7  159 354 
 SML  HZ EP   1    636 21.77                             118   -0.57 6  242 336 
 SML  HN ES   1    636 50.73                             118   -0.19 6  242 336 
 CHI  HZ EP   1    636 24.07                             118    0.51 6  248 195 
 CHI  HN ES   1    636 52.91                             118   -0.18 6  248 195 
 CHI  HZ I         636 56.56         1.7 0.36            119            248 195 
                                                                                
