 2017  119 0800 19.9 L   6.791 -73.127147.6  RSN  4 0.3 1.0LRSN                1
 GAP=139        0.69       4.5     3.7  6.4 -0.3324E+01  0.5709E+00  0.8007E+01E
 Epicentro: LOS SANTOS - SANTANDER                                             3
 ACTION:UPD 17-05-22 16:01 OP:jn   STATUS:               ID:20170119080019 L   I
 OLDACT:UP  17-01-19 19:03 OP:dani STATUS:               ID:20170119075740     3
 OLDACT:REG 17-01-19 14:44 OP:dani STATUS:               ID:20170119075740     3
 2017-01-19-0758-00M.COL___315                                                 6
 STAT SP IPHASW D HRMM SECON CODA AMPLIT PERI AZIMU VELO AIN AR TRES W  DIS CAZ7
 BRR  HZ EP        8 0 41.50                             152    0.0910 73.6 298 
 BRR  HN ES        8 0 58.62                             152    0.4610 73.6 298 
 BRR  HZ I         8 1  0.00         1.8 0.15            153           73.6 298 
 PAM  EZ EP        8 0 42.35                             151    0.0410 76.9  38 
 PAM  EN ES        8 0 59.45                             151   -0.3210 76.9  38 
 PAM  EZ I         8 1  2.45         1.3 0.55            153           76.9  38 
 RUS  HZ EP        8 0 43.93                             144    0.1510 99.4 177 
 RUS  HN ES   1    8 1  2.39                             144    0.01 7 99.4 177 
 RUS  HE I         8 1  3.20         2.9 0.42            147           99.4 177 
 PTB  HZ EP        8 0 47.12                             132   -0.09 9  150 259 
 PTB  HN ES        8 1  8.09                             132   -0.41 9  150 259 
 PTB  HZ I         8 1 10.83         1.1 0.27            134            150 259 
                                                                                
