 2011  919 0302 40.1 L   6.818 -73.153137.3  RSN 15 0.4 2.3LRSN                1
 GAP=112        0.65       2.4     3.0  4.3  0.5174E+00  0.5190E+01  0.3377E+01E
 Epicentro: LOS SANTOS - SANTANDER                                             3
 ACTION:UPD 12-07-13 15:58 OP:ep   STATUS:               ID:20110919030240 L   I
 2011-09-19-0301-11S.COL___171                                                 6
 STAT SP IPHASW D HRMM SECON CODA AMPLIT PERI AZIMU VELO AIN AR TRES W  DIS CAZ7
 BTL  SZ EP        3 2 58.90                             173    0.2710 16.8 311 
 BTL  SZ ES   2    3 3 13.43                             173    0.37 5 16.8 311 
 BAR2 SZ EP        3 2 58.72                             169   -0.0710 25.2 187 
 BAR2 SZ ES   2    3 3 12.61                             169   -0.73 5 25.2 187 
 BAR2 SZ I         3 3 18.67        19.3 0.42                          25.2 187 
 GIR2 SZ EP        3 2 58.71                             167   -0.0310 29.2 351 
 GIR2 SZ ES   2    3 3 13.24                             167   -0.02 5 29.2 351 
 BRR  HZ EP        3 3  0.60                             152    0.3310 69.5 297 
 BRR  HN ES   2    3 3 16.29                             152    0.30 5 69.5 297 
 BRR  HZ I         3 3 21.61        63.7 0.12                          69.5 297 
 PAM  SZ EP        3 3  1.54                             150    0.1510 76.4  41 
 PAM  SN ES   1    3 3 18.13                             150    0.15 7 76.4  41 
 RUS  HZ EP   1    3 3  3.00                             141   -0.21 7  103 176 
 RUS  HN ES   2    3 3 20.86                             141   -0.36 5  103 176 
 OCA  SZ EP        3 3  7.37                             128   -0.23 9  158 353 
 OCA  SZ ES   1    3 3 28.22                             128   -0.80 7  158 353 
 OCA  SZ I         3 3 32.47        23.9 0.47                           158 353 
 YOP  SZ EP        3 3  9.54                             124   -0.25 9  181 153 
 YOP  SE ES   1    3 3 33.53                             124    0.60 7  181 153 
 ZAR  HZ EP        3 3 11.70                             121   -0.18 9  203 292 
 ZAR  HN ES   1    3 3 36.74                             121    0.09 6  203 292 
 ZAR  HZ I         3 3 43.05        25.1 0.30                           203 292 
 NOR  SZ EP        3 3 15.44                             117    0.00 8  235 234 
 NOR  SN ES   1    3 3 42.44                             117   -0.54 6  235 234 
 CHI  HZ EP   2    3 3 17.57                             115    0.01 4  250 195 
 CHI  HE ES   2    3 3 45.96                             115   -0.80 4  250 195 
 CHI  HZ I         3 3 54.05         6.8 0.22                           250 195 
 HEL  HZ EP        3 3 20.09                             113    0.20 8  272 255 
 HEL  HN ES   2    3 3 51.66                             113    0.75 4  272 255 
 HEL  HZ I         3 3 57.85         9.8 0.30                           272 255 
 GUY  SZ EP        3 3 24.19                             110    0.51 7  304 235 
 GUY  SE ES   3    3 3 58.17                             110    0.52 2  304 235 
 GUY  SZ I         3 4  5.62        14.4 0.36                           304 235 
 RREF HZ EP        3 3 26.11                             109    0.11 7  322 229 
 RREF HZ I         3 4  7.29         9.1 0.78                           322 229 
 PRA  HZ EP        3 3 33.28                             105   -0.25 6  393 209 
 PRA  HN ES   2    3 4 14.51                             105   -0.67 3  393 209 
                                                                                
