 2014  219 0421 36.9 L   6.814 -73.180147.2  RSN  8 0.3 1.6LRSN                1
 GAP=132        0.67       2.7     3.7  6.0  0.5887E+00  0.4022E+01 -0.2865E+01E
 Epicentro: LOS SANTOS - SANTANDER                                             3
 ACTION:UPD 14-03-10 08:11 OP:ep   STATUS:               ID:20140219042136 L   I
 OLDACT:REG 14-02-19 08:38 OP:fm   STATUS:               ID:20140219042000     3
 2014-02-19-0420-00M.COL___212                                                 6
 STAT SP IPHASW D HRMM SECON CODA AMPLIT PERI AZIMU VELO AIN AR TRES W  DIS CAZ7
 BAR2 SZ EP   1    421 56.80                             170    0.07 8 24.5 181 
 PAM  SZ EP   1    421 59.73                             150    0.38 8 78.7  42 
 PAM  SN ES   1    422 16.76                             150   -0.10 8 78.7  42 
 PAM  SZ I         422 19.17        12.5 0.57             47           78.7  42 
 RUS  HZ EP        422  0.65                             143   -0.2810  102 174 
 RUS  HN ES        422 19.80                             143    0.1310  102 174 
 RUS  HZ I         422 21.16         3.5 0.22             47            102 174 
 PTB  HZ EP        422  3.79                             133    0.11 9  144 258 
 PTB  HN ES        422 24.09                             133   -0.47 9  144 258 
 PTB  HZ I         422 25.97         4.0 0.17             47            144 258 
 SPBC HN ES   2    422 28.26                             129    0.63 5  162 218 
 ZAR  HN ES   2    422 34.99                             123    0.92 4  200 292 
 SML  HZ EP        422 13.04                             118   -0.25 8  241 336 
 SML  HN ES        422 41.72                             118    0.06 8  241 336 
 SML  HZ I         422 44.58         7.8 0.09             37            241 336 
 CHI  HZ EP        422 14.88                             117    0.14 8  249 194 
 CHI  HZ I         422 50.32         1.3 0.28             37            249 194 
                                                                                
