 2011  819 0803 59.7 L   6.102 -73.684118.9  RSN 11 0.4 2.4LRSN                1
 GAP=113        0.76       2.7     4.0  6.7 -0.4848E+01  0.1074E+02  0.9006E+00E
 Epicentro: CHIPATA - SANTANDER                                                3
 ACTION:UPD 12-07-13 15:52 OP:ep   STATUS:               ID:20110819080359 L   I
 2011-08-19-0802-07S.COL___148                                                 6
 STAT SP IPHASW D HRMM SECON CODA AMPLIT PERI AZIMU VELO AIN AR TRES W  DIS CAZ7
 RUS  HZ IP     D  8 4 18.66                             147   -0.0310 70.4 109 
 RUS  HZ I         8 4 19.16        35.4 0.21                          70.4 109 
 RUS  HN ES   1    8 4 33.07                             147   -0.42 7 70.4 109 
 BAR2 SZ EP        8 4 19.21                             145    0.3910 77.6  46 
 BAR2 SZ ES   1    8 4 33.61                             145   -0.10 7 77.6  46 
 BAR2 SZ I         8 4 35.38       133.1 0.37                          77.6  46 
 BRR  HE ES   1    8 4 38.13                             134    0.22 7  111 358 
 NOR  SZ EP   1    8 4 23.44                             126   -0.90 7  144 246 
 NOR  SN ES   1    8 4 43.14                             126   -0.40 7  144 246 
 ROSC BZ EP   1    8 4 26.40                             124    0.40 7  156 207 
 ROSC BN ES   1    8 4 46.78                             124    0.27 7  156 207 
 CHI  HZ EP   1    8 4 26.37                             122   -0.33 7  163 182 
 CHI  HN ES   1    8 4 48.04                             122    0.29 7  163 182 
 CHI  HZ I         8 4 50.09        13.3 0.22                           163 182 
 VIL  SN ES   2    8 4 57.62                             114   -0.44 4  220 180 
 RREF HZ EP   1    8 4 33.58                             113   -0.36 6  227 234 
 RREF HN ES   1    8 5  1.16                             113    0.53 6  227 234 
 RREF HZ I         8 5  5.14        12.4 0.25                           227 234 
 OCA  SZ EP   1    8 4 34.89                             112    0.15 6  240  10 
 OCA  SZ ES   1    8 5  2.12                             112    0.06 6  240  10 
 TOL  SZ EP   1    8 4 35.55                             111   -0.25 6  247 227 
 PRA  HZ EP        8 4 40.88                             107   -0.18 7  296 207 
 PRA  HN ES   1    8 5 14.20                             107    0.89 5  296 207 
 PRA  HZ I         8 5 18.29        32.4 0.22                           296 207 
                                                                                
