 2017  819 0058  9.8 L   6.774 -73.099145.9  RSN 11 0.6 1.7LRSN                1
 GAP=124        1.24       4.6     5.7  7.3 -0.5866E+00  0.6893E+01  0.1016E+02E
 Epicentro: LOS SANTOS - SANTANDER                                             3
 ACTION:UPD 17-09-04 20:21 OP:rebc STATUS:               ID:20170819005809 L   I
 OLDACT:UP  17-08-19 13:19 OP:and  STATUS:               ID:20170819004738d    3
 OLDACT:UP  17-08-19 12:59 OP:and  STATUS:               ID:20170819004738d    3
 OLDACT:DUP 17-08-19 12:57 OP:and  STATUS:               ID:20170819004738d    3
 2017-08-19-0048-00M.COL___414                                                 6
 STAT SP IPHASW D HRMM SECON CODA AMPLIT PERI AZIMU VELO AIN AR TRES W  DIS CAZ7
 BAR2 EZ ES        058 44.63                             171   -0.1010 22.1 205 
 BAR2 EZ I         058 45.99        31.4 0.24            170           22.1 205 
 PAM  EZ IP     C  058 32.18                             151    0.2010 76.6  35 
 PAM  EN ES        058 49.25                             151   -0.0310 76.6  35 
 PAM  EZ I         058 52.77         3.0 0.56            153           76.6  35 
 BRR  HZ EP        058 31.27                             151   -0.0310 77.1 299 
 BRR  HN ES        058 48.66                             151    0.5810 77.1 299 
 BRR  HZ I         058 49.20         8.6 0.44            150           77.1 299 
 RUS  HZ EP        058 33.26                             145   -0.0810 97.5 179 
 RUS  HN ES        058 51.71                             145    0.0010 97.5 179 
 RUS  HZ I         058 53.28         9.9 0.26            145           97.5 179 
 SPBC HZ EP        058 38.32                             129   -0.09 9  164 221 
 SPBC HN ES        059  0.29                             129   -0.44 9  164 221 
 SPBC HZ I         059  4.55         9.8 0.28            129            164 221 
 ZAR  HE ES        059  7.74                             122   -0.90 8  210 292 
 ZAR  HZ I         059 13.52         4.2 0.14            122            210 292 
 NOR  HN ES   2    059 13.44                             118   -0.46 4  237 236 
 NOR  HZ I         059 16.43         4.0 0.16            119            237 236 
 CHI  HZ EP        058 47.53                             117    0.17 8  247 196 
 CHI  HN ES        059 16.72                             117    0.07 8  247 196 
 CHI  HZ I         059 22.38         2.7 0.44            118            247 196 
 URE  HZ EP   2    058 50.46                             113   -1.07 4  290 292 
 PTGC HZ EP        058 52.27                             112   -0.88 7  304 159 
 GUY2CHZ EP        058 55.57                             112    1.87 7  304 236 
 GUY2CHN ES   2    059 28.69                             112    0.74 4  304 236 
 GUY2CHZ I         059 41.36         2.6 0.50                           304 236 
                                                                                
