 2016  419 0821 46.7 L   6.734 -73.581 97.9  RSN 10 0.4 1.6LRSN                1
 GAP= 69        1.04       3.3     3.7  7.6 -0.4482E+01  0.8771E+01 -0.6828E+01E
 Epicentro: EL CARMEN - SANTANDER                                              3
 ACTION:UPD 16-05-05 14:22 OP:rebc STATUS:               ID:20160419082146 L   I
 OLDACT:UP  16-04-20 01:45 OP:ar   STATUS:               ID:20160419081750     3
 OLDACT:UP  16-04-20 01:44 OP:ar   STATUS:               ID:20160419081750     3
 OLDACT:ARG 16-04-19 13:16 OP:cara STATUS:               ID:20160419081750     3
 2016-04-19-0817-50M.COL___306                                                 6
 STAT SP IPHASW D HRMM SECON CODA AMPLIT PERI AZIMU VELO AIN AR TRES W  DIS CAZ7
 BAR2 EZ IP     D  822  1.95                             153    0.2910 46.8 110 
 BAR2 EZ ES        822 13.84                             153    0.5310 46.8 110 
 BAR2 EZ I         822 15.69        16.4 0.38            156           46.8 110 
 PTB  HZ IP     C  822  4.94                             131   -0.4410 99.1 258 
 PTB  HN ES        822 19.55                             131   -0.3810 99.1 258 
 PTB  HZ I         822 20.63         9.0 0.42            131           99.1 258 
 RUS  HZ EP        822  6.55                             129   -0.3110  108 149 
 RUS  HN ES        822 22.26                             129   -0.3110  108 149 
 RUS  HZ I         822 23.54        12.8 0.20            131            108 149 
 PAM  EZ EP        822  7.34                             126   -0.5110  118  55 
 PAM  EN ES        822 24.36                             126    0.0410  118  55 
 PAM  EZ I         822 28.91         3.5 0.22            127            118  55 
 SPBC HZ EP        822  8.73                             123    0.0710  131 204 
 SPBC HN ES        822 25.91                             123    0.1410  131 204 
 SPBC HZ I         822 32.30        10.7 0.30            124            131 204 
 ZAR  HZ EP   2    822 12.41                             117    0.34 5  164 301 
 ZAR  HE ES   4    822 34.90                             117    3.06 0  164 301 
 ZAR  HZ I         822 37.29        10.2 0.30            116            164 301 
 OCA  HZ EP        822 13.66                             116    0.87 9  169  10 
 OCA  HN ES        822 32.86                             116   -0.26 9  169  10 
 OCA  HZ I         822 39.69        11.1 0.36            116            169  10 
 CHI  HZ EP   4    822 21.57                             109    1.09 0  233 184 
 CHI  HN ES   4    822 45.48                             109   -1.32 0  233 184 
 CHI  HZ I         822 51.31         2.0 0.34            108            233 184 
 GUY2CHZ EP        822 24.17                             107    0.64 8  259 230 
 GUY2CHE ES   4    822 55.64                             107    3.40 0  259 230 
 GUY2CHZ I         823  2.62         2.0 0.60                           259 230 
 SOCV BN ES   4    823  6.77                             102   -3.16 0  346  60 
 SDV  BZ EP   2    822 39.52                             100   -1.03 3  403  54 
 SDV  BN ES   4    823 19.81                             100   -2.73 0  403  54 
                                                                                
