 2012 1019 0913 22.5 L   6.823 -73.129143.7  RSN 10 0.4 2.3LRSN                1
 GAP=114        0.80       3.7     4.0  5.7  0.3286E+01  0.8296E+01  0.7530E+01E
 Epicentro: LOS SANTOS - SANTANDER                                             3
 ACTION:UPD 12-11-22 17:04 OP:ep   STATUS:               ID:20121019091322 L   I
 2012-10-19-0910-00M.COL___231                                                 6
 STAT SP IPHASW D HRMM SECON CODA AMPLIT PERI AZIMU VELO AIN AR TRES W  DIS CAZ7
 BAR2 SZ EP   1    913 41.67                             169   -0.25 7 26.2 193 
 BAR2 SZ I         913 41.95        29.2 0.19                          26.2 193 
 BAR2 SZ ES   1    913 57.35                             169    0.27 7 26.2 193 
 GIR2 SZ EP   1    913 41.65                             168   -0.19 7 29.1 346 
 GIR2 SZ ES   1    913 56.58                             168   -0.37 7 29.1 346 
 BRR  HZ EP   1    913 43.44                             152    0.02 7 71.6 296 
 BRR  HZ I         913 43.60        29.8 0.14                          71.6 296 
 BRR  HE ES   1    914  0.49                             152    0.73 7 71.6 296 
 PAM  SZ EP   1    913 44.53                             151    0.25 7 74.2  40 
 PAM  SZ I         913 44.77        30.7 0.22                          74.2  40 
 PAM  SN ES   1    914  1.50                             151    0.21 7 74.2  40 
 PAM  SN I         914  1.97        40.0 0.38                          74.2  40 
 RUS  HZ EP   1    913 45.79                             143   -0.41 7  103 177 
 RUS  HN ES   1    914  4.05                             143   -0.66 7  103 177 
 RUS  HN I         914  5.52        32.0 0.25                           103 177 
 YOP  SZ EP   1    913 52.55                             126    0.03 7  180 154 
 YOP  SN ES   1    914 16.54                             126    0.59 7  180 154 
 YOP  SN I         914 17.89        29.3 0.36                           180 154 
 ZAR  HZ EP   1    913 54.47                             122   -0.39 6  205 291 
 ZAR  HN ES   1    914 19.36                             122   -0.76 6  205 291 
 ZAR  HZ I         914 26.70        17.4 0.32                           205 291 
 CHI  HZ EP   1    914  0.47                             116    0.09 6  252 195 
 CHI  HN ES   1    914 29.56                             116   -0.39 6  252 195 
 CHI  HN I         914 32.22        15.5 0.42                           252 195 
 HEL  HZ EP   1    914  3.49                             114    0.64 6  274 255 
 HEL  HN ES   1    914 34.46                             114    0.12 6  274 255 
 HEL  HN I         914 40.70        11.2 0.28                           274 255 
 GUY  SZ EP   1    914  6.87                             111    0.28 5  306 235 
 GUY  SZ I         914 10.43         7.9 0.21                           306 235 
 GUY  SN ES   1    914 41.70                             111    0.71 5  306 235 
                                                                                
