 2016  119 0710 53.2 L   6.841 -73.152140.7  RSN 16 0.5 2.0LRSN                1
 GAP= 69        1.19       2.7     3.5  5.9 -0.1383E+01  0.6683E+01  0.1426E+01E
 Epicentro: LOS SANTOS - SANTANDER                                             3
 ACTION:UPD 16-03-09 23:26 OP:cam  STATUS:               ID:20160119070747 L   I
 OLDACT:UP  16-01-19 17:36 OP:ar   STATUS:               ID:20160119070747 L   3
 OLDACT:UP  16-01-19 17:29 OP:ar   STATUS:               ID:20160119070747 L   3
 OLDACT:UP  16-01-19 17:28 OP:ar   STATUS:               ID:20160119070747 L   3
 OLDACT:UPD 16-01-19 16:19 OP:drio STATUS:               ID:20160119070747 L   3
 2016-01-19-0707-47M.COL___325                                                 6
 STAT SP IPHASW D HRMM SECON CODA AMPLIT PERI AZIMU VELO AIN AR TRES W  DIS CAZ7
 BAR2 EZ EP     C  711 12.19                             168   -0.1310 27.7 187 
 BAR2 EZ ES        711 27.03                             168   -0.2010 27.7 187 
 BAR2 EZ I         711 28.51        14.1 0.16            168           27.7 187 
 PAM  EZ EP        711 15.10                             151    0.4110 74.4  42 
 PAM  EN ES        711 31.96                             151    0.5010 74.4  42 
 PAM  EZ I         711 32.66        14.1 0.18            155           74.4  42 
 RUS  HZ EP        711 16.58                             141   -0.2210  105 176 
 RUS  HN ES        711 35.69                             141    0.4810  105 176 
 RUS  HZ I         711 36.30         6.2 0.30            144            105 176 
 PTB  HZ EP        711 19.01                             131   -0.77 9  148 257 
 PTB  HN ES        711 39.97                             131   -0.54 9  148 257 
 PTB  HZ I         711 47.32        10.5 0.28            131            148 257 
 OCA  HZ EP        711 20.86                             129    0.18 9  156 353 
 OCA  HN ES        711 41.83                             129   -0.28 9  156 353 
 OCA  HZ I         711 46.54        18.8 0.40            131            156 353 
 TAM  HZ EP        711 20.70                             129    0.04 9  157 107 
 TAM  HE ES        711 41.88                             129   -0.20 9  157 107 
 TAM  HZ I         711 42.79        10.0 0.28            134            157 107 
 SPBC HZ EP        711 21.24                             127   -0.37 9  166 218 
 SPBC HN ES        711 43.34                             127   -0.44 9  166 218 
 SPBC HZ I         711 50.57        11.3 0.20            129            166 218 
 ZAR  HZ EP        711 25.93                             122    0.86 9  202 291 
 ZAR  HN ES        711 50.62                             122    0.69 9  202 291 
 ZAR  HZ I         711 55.89        15.6 0.56            122            202 291 
 NOR  HZ EP        711 28.55                             117   -0.31 8  237 233 
 NOR  HN ES        711 56.80                             117    0.12 8  237 233 
 NOR  HZ I         712  2.20         8.2 0.18            118            237 233 
 SML  HZ EP        711 28.75                             117   -0.31 8  239 335 
 SML  HN ES        711 56.52                             117   -0.51 8  239 335 
 SML  HZ I         712  4.39        13.6 0.22            118            239 335 
 CHI  HZ EP        711 30.60                             116   -0.48 8  253 195 
 CHI  HN ES        711 59.75                             116   -0.88 8  253 195 
 CHI  HZ I         712  3.62         3.0 0.44            118            253 195 
 ROSC BZ EP        711 32.14                             115    0.70 8  256 210 
 ROSC BN ES        712  2.25                             115    0.99 8  256 210 
 ROSC BZ I         712  6.16         7.1 0.40            117            256 210 
 HEL  HZ EP        711 32.41                             114   -0.80 8  273 255 
 HEL  HN ES   4    712  6.46                             114    2.05 0  273 255 
 HEL  HZ I         712 10.39         4.7 0.28            115            273 255 
 SOCV BZ EP   4    711 34.22                             111   -1.58 0  299  58 
 SOCV BN ES   4    712  6.15                             111   -2.89 0  299  58 
 GUY2CHZ EP        711 37.58                             111    0.77 7  303 234 
 GUY2CHN ES        712 11.46                             111    0.63 7  303 234 
 GUY2CHZ I         712 20.32         6.1 0.78                           303 234 
 PRA  HZ EP        711 46.83                             105   -0.14 6  396 209 
 PRA  HN ES        712 28.64                             105   -0.28 6  396 209 
 PRA  HZ I         712 33.33         3.6 0.42            107            396 209 
 ORTC HZ EP        711 48.19                             105    0.86 6  399 216 
 ORTC HN ES        712 29.93                             105    0.37 6  399 216 
 ORTC HZ I         712 34.68         2.5 0.18            107            399 216 
                                                                                
