 2017  319 0836 50.7 L   6.609 -72.944143.2  RSN  4 0.3 1.2LRSN                1
 GAP=247        0.54       5.7     5.0  5.9 -0.9062E+01 -0.7952E+01  0.4591E+01E
 Epicentro: ARATOCA - SANTANDER                                                3
 ACTION:UPD 17-05-25 18:42 OP:jn   STATUS:               ID:20170319083650 L   I
 OLDACT:UP  17-03-19 18:12 OP:cog  STATUS:               ID:20170319082745d    3
 OLDACT:UP  17-03-19 18:11 OP:cog  STATUS:               ID:20170319082745d    3
 OLDACT:UP  17-03-19 18:09 OP:cog  STATUS:               ID:20170319082745d    3
 OLDACT:DUP 17-03-19 18:03 OP:cog  STATUS:               ID:20170319082745d    3
 2017-03-19-0828-00M.COL___394                                                 6
 STAT SP IPHASW D HRMM SECON CODA AMPLIT PERI AZIMU VELO AIN AR TRES W  DIS CAZ7
 BAR2 EZ EP        837 10.23                             168    0.1610 26.4 266 
 BAR2 EZ ES        837 25.08                             168   -0.1210 26.4 266 
 BAR2 EZ I         837 26.55         4.5 0.30            170           26.4 266 
 PAM  EZ EP        837 13.18                             148    0.0710 85.2  18 
 PAM  EE ES        837 30.43                             148   -0.1810 85.2  18 
 PAM  EZ I         837 30.43         1.6 0.44            149           85.2  18 
 BRR  HZ EP   3    837 12.46                             142   -1.07 2  101 303 
 BRR  HN ES        837 31.55                             142    0.1910  101 303 
 BRR  HZ I         837 33.24         6.6 0.32            144            101 303 
 PTB  HZ EP   3    837 18.30                             127   -1.00 2  167 267 
 PTB  HN ES   4    837 38.37                             127   -3.24 0  167 267 
 PTB  HZ I         837 39.99         1.1 0.18            129            167 267 
 ZAR  HE ES   4    837 49.88                             118   -3.70 0  233 295 
                                                                                
