 2014  919 0658 58.0 L   6.800 -73.111151.9  RSN 12 0.5 1.8LRSN                1
 GAP=141        1.17       3.1     5.1  6.3 -0.1396E+01  0.1119E+02  0.3136E+01E
 Epicentro: LOS SANTOS - SANTANDER                                             3
 ACTION:UPD 14-10-03 23:06 OP:nd   STATUS:               ID:20140919065858 L   I
 OLDACT:REG 14-09-19 14:15 OP:carl STATUS:               ID:20140919065818     3
 2014-09-19-0658-18M.COL___284                                                 6
 STAT SP IPHASW D HRMM SECON CODA AMPLIT PERI AZIMU VELO AIN AR TRES W  DIS CAZ7
 BAR2 SZ IP     C  659 18.48                             170    0.0610 24.3 199 
 BAR2 SZ ES        659 34.35                             170    0.0310 24.3 199 
 BAR2 SZ I         659 36.22        16.2 0.26            168           24.3 199 
 BRR  HZ IP     D  659 20.38                             152    0.3510 74.5 297 
 BRR  HN ES        659 37.80                             152    0.6110 74.5 297 
 BRR  HZ I         659 40.20        11.1 0.18            149           74.5 297 
 PAM  SZ IP     D  659 21.27                             153    0.5010 75.0  37 
 PAM  SN ES        659 38.82                             153    0.3210 75.0  37 
 PAM  SZ I         659 40.71        10.0 0.60            156           75.0  37 
 RUS  HZ EP        659 22.32                             145   -0.0610  100 178 
 RUS  HN ES        659 41.00                             145   -0.3710  100 178 
 RUS  HZ I         659 41.86         6.3 0.38            145            100 178 
 OCA  HN ES        659 48.71                             131   -0.65 9  161 352 
 SPBC HZ EP        659 27.49                             130    0.25 9  166 220 
 SPBC HN ES        659 49.65                             130   -0.37 9  166 220 
 SPBC HZ I         659 52.37        16.8 0.22            129            166 220 
 ZAR  HN ES        659 57.51                             123    0.37 8  208 292 
 SML  HZ EP        659 34.97                             119   -0.21 8  245 334 
 SML  HN ES        7 0  2.74                             119   -1.41 8  245 334 
 SML  HZ I         7 0 10.89         8.3 0.30            119            245 334 
 CHI  HZ EP        659 35.74                             118   -0.46 8  250 196 
 CHI  HN ES        7 0  5.29                             118   -0.67 8  250 196 
 CHI  HZ I         7 0 15.47         1.9 0.56            118            250 196 
 GUY2CHZ EP        659 42.75                             113    0.46 7  304 235 
 GUY2CHN ES        7 0 17.04                             113    0.24 7  304 235 
 GUY2CHZ I         7 0 24.85         4.5 0.80                           304 235 
 CBOC HZ EP        659 46.22                             111    0.60 7  337 252 
 CBOC HN ES        7 0 22.69                             111   -0.05 7  337 252 
 CBOC HZ I         7 0 39.06         1.2 0.46            110            337 252 
 MON  HZ EP   4    659 45.39                             109   -2.23 0  357 308 
 MON  HN ES   4    7 0 24.93                             109   -1.37 0  357 308 
 PRA  HZ EP        659 52.88                             107    0.88 6  394 210 
 PRA  HN ES        7 0 33.41                             107   -0.68 6  394 210 
 PRA  HZ I         7 0 39.92         2.6 0.26            108            394 210 
                                                                                
