 2016 1119 0043 21.4 L   6.775 -73.110146.3  RSN 13 0.5 2.2LRSN                1
 GAP=123        1.03       3.9     4.0  6.0  0.9849E+00  0.3909E+01  0.1168E+02E
 Epicentro: LOS SANTOS - SANTANDER                                             3
 ACTION:UPD 17-10-26 21:09 OP:lp   STATUS:               ID:20161119004321 L   I
 OLDACT:UP  16-11-19 13:36 OP:and  STATUS:               ID:20161119003741     3
 OLDACT:UP  16-11-19 13:35 OP:and  STATUS:               ID:20161119003741     3
 OLDACT:UP  16-11-19 13:32 OP:and  STATUS:               ID:20161119003741     3
 OLDACT:REG 16-11-19 12:30 OP:y    STATUS:               ID:20161119003741     3
 2016-11-19-0038-00M.COL___343                                                 6
 STAT SP IPHASW D HRMM SECON CODA AMPLIT PERI AZIMU VELO AIN AR TRES W  DIS CAZ7
 BAR2 EZ EP        043 41.03                             171   -0.0210 21.7 202 
 BAR2 EZ ES        043 56.24                             171   -0.1410 21.7 202 
 BAR2 EZ I         043 57.56        65.9 0.18            168           21.7 202 
 BRR  HN EP        043 43.12                             151    0.2510 76.0 299 
 BRR  HE ES        044  0.21                             151    0.5910 76.0 299 
 BRR  HZ I         044  2.56        22.0 0.16            152           76.0 299 
 PAM  EZ IP     D  043 43.86                             151    0.2110 77.2  36 
 PAM  EN ES        044  0.98                             151   -0.0310 77.2  36 
 PAM  EZ I         044  3.48        16.9 0.54            155           77.2  36 
 PTB  HZ EP        043 48.06                             131   -0.64 9  151 260 
 PTB  HE ES        044  9.27                             131   -0.74 9  151 260 
 PTB  HZ I         044 10.67        16.1 0.18            132            151 260 
 ZAR  HZ EP        043 54.65                             122    0.30 8  209 292 
 ZAR  HE ES        044 19.53                             122   -0.53 8  209 292 
 ZAR  HZ I         044 25.36        10.7 0.20            123            209 292 
 NOR  HZ EP        043 57.30                             118   -0.02 8  236 236 
 NOR  HN ES        044 25.47                             118    0.12 8  236 236 
 NOR  HZ I         044 26.30        12.3 0.16            119            236 236 
 CHI  HZ EP        043 59.16                             117    0.22 8  247 196 
 CHI  HN ES        044 29.08                             117    0.85 8  247 196 
 CHI  HZ I         044 37.48         5.4 0.28            118            247 196 
 PTGC HZ EP        044  4.10                             112   -0.71 7  305 159 
 PTGC HN ES        044 37.86                             112   -0.82 7  305 159 
 LL6C HZ EP   9    043 47.28                             110   -20.2 0  328 357 
 PRA  HZ EP        044 14.77                             107   -0.10 6  392 210 
 PRA  HN ES        044 57.02                             107    0.43 6  392 210 
 PRA  HZ I         045  3.43        10.9 0.46            107            392 210 
 ORTC HZ EP        044 16.04                             106    0.70 6  396 217 
 ORTC HN ES   4    044 59.00                             106    1.59 0  396 217 
 ORTC HZ I         045  5.34         5.8 0.42            107            396 217 
 PAL  HZ EP        044 17.33                             106    0.53 6  408 240 
 SJC  HZ EP   4    044 15.43                             106   -2.07 0  414 327 
 SJC  HE ES   4    044 56.53                             106   -4.73 0  414 327 
 SJC  HZ I         045  2.24         2.6 0.36            107            414 327 
 CRJC HZ EP   9    044 21.53                             103   -2.68 0  470   3 
 CRJC HN ES        045 10.69                                    0.16 5  470   3 
                                                                                
