 2012  319 0119 58.3 L   6.777 -73.158149.0  RSN  4 0.3 1.3LRSN                1
 GAP=136        0.63       6.6     6.2  9.9 -0.9606E+00  0.8088E+01  0.1469E+02E
 ACTION:UP  12-03-31 23:20 OP:EP   STATUS:               ID:20120319011958 L   I
 2012-03-19-0120-00M.COL___202                                                 6
 STAT SP IPHASW D HRMM SECON CODA AMPLIT PERI AZIMU VELO SNR AR TRES W  DIS CAZ7
 BRR  HZ EP   2    120 20.05                             153     0.2 5   71 301 
 BRR  HE ES   2    120 37.03                             153     0.4 5   71 301 
 PAM  SZ EP   2    120 21.00                             150    -0.1 5   80  39 
 PAM  SN ES   2    120 38.42                             150    -0.4 5   80  39 
 RUS  HZ EP   1    120 22.69                             145     0.4 7   98 175 
 RUS  HN ES   2    120 40.51                             145    -0.4 5   98 175 
 RUS  HZ I         120 41.31         3.2 0.79                            98 175 
 PTB  HZ EP   1    120 25.01                             133    -0.4 7  146 260 
 PTB  HN ES   2    120 46.47                             133    -0.1 5  146 260 
 PTB  HZ I         120 52.15         2.2 0.39                           146 260 
                                                                                
