 2010  619 0913 29.0 L   6.776 -73.072147.0  RSN 10 0.4 2.2LRSN                1
 GAP=164        0.91       3.4     7.1  6.6 -0.1021E+02  0.3415E+01  0.1325E+01E
 Epicentro: LOS SANTOS - SANTANDER                                             3
 ACTION:UP  10-08-24 10:11 OP:vdl  STATUS:               ID:20100619091329 L   I
 2010-06-19-0911-43S.COL___118                                                 6
 STAT SP IPHASW D HRMM SECON CODA AMPLIT PERI AZIMU VELO SNR AR TRES W  DIS CAZ7
 BAR2 SZ IP        913 48.60                             170    -0.210   24 211 
 BAR2 SZ ES   1    914  4.30                             170     0.1 7   24 211 
 BRR  HZ IP     C  913 50.47                             150    -0.310   80 297 
 BRR  HE ES   1    914  7.76                             150     0.0 7   80 297 
 BRR  HZ I         914 10.14        53.0 0.14                            80 297 
 RUS  HZ EP        913 52.50                             145    -0.210   98 181 
 RUS  HE ES   1    914 11.17                             145     0.1 7   98 181 
 RUS  HZ I         914 12.51        12.4 0.36                            98 181 
 BRI  SZ IP        913 53.19                             142     0.210  108  16 
 BRI  SZ ES   1    914 11.24                             142    -0.5 7  108  16 
 GUE  SZ IP        913 54.64                             139     0.710  118   8 
 GUE  SZ ES   1    914 13.90                             139     0.6 7  118   8 
 GRA  SZ IP        913 54.41                             137     0.010  126  14 
 GRA  SZ ES   1    914 14.11                             137    -0.1 7  126  14 
 OCA  SZ EP   1    913 57.03                             129    -0.7 7  164 350 
 OCA  SZ ES   1    914 19.69                             129    -0.5 7  164 350 
 OCA  SZ I         914 24.79        18.7 0.15                           164 350 
 CHI  HZ EP   2    914  6.17                             117    -0.5 4  248 197 
 CHI  HE ES   1    914 36.13                             117     0.0 6  248 197 
 CHI  HZ I         914 45.74         6.1 0.21                           248 197 
 HEL  HZ EP   1    914 10.49                             114     0.4 6  279 257 
 HEL  HZ I         914 46.93         6.1 0.45                           279 257 
 RREF HN ES   1    914 52.53                             111     0.4 5  326 231 
 RREF HZ I         915  0.20        10.8 0.32                           326 231 
                                                                                
