 2016  519 0312 19.5 L   6.754 -73.152148.2  RSN  6 0.4 1.6LRSN                1
 GAP=233        0.98       5.3     5.8  6.7  0.1243E+02  0.6576E+01 -0.1192E+01E
 Epicentro: LOS SANTOS - SANTANDER                                             3
 ACTION:UPD 16-08-18 17:47 OP:cam  STATUS:               ID:20160519031219 L   I
 OLDACT:REG 16-05-19 15:07 OP:mh   STATUS:               ID:20160519030746     3
 2016-05-19-0307-46M.COL___296                                                 6
 STAT SP IPHASW D HRMM SECON CODA AMPLIT PERI AZIMU VELO AIN AR TRES W  DIS CAZ7
 BAR2 EZ EP        312 39.12                             173   -0.1810 18.2 191 
 BAR2 EZ ES        312 54.73                             173   -0.0410 18.2 191 
 BAR2 EZ I         312 56.25         6.3 0.19            172           18.2 191 
 BRR  HZ EP        312 41.13                             152    0.1410 73.1 302 
 BRR  HN ES        312 58.12                             152    0.3410 73.1 302 
 BRR  HZ I         313  7.06        12.6 0.30            151           73.1 302 
 RUS  HZ EP        312 43.48                             146    0.3710 95.6 175 
 RUS  HN ES        313  1.15                             146   -0.4010 95.6 175 
 RUS  HZ I         313  2.84         2.8 0.32            150           95.6 175 
 PTB  HZ EP        312 45.68                             133   -0.81 9  146 261 
 PTB  HN ES        313  7.13                             133   -0.44 9  146 261 
 PTB  HZ I         313  9.22         4.4 0.34            134            146 261 
 SPBC HZ EP        312 48.03                             130    0.28 9  159 220 
 SPBC HN ES        313 10.38                             130    0.57 9  159 220 
 SPBC HZ I         313 16.14         6.5 0.18            133            159 220 
 ZAR  HZ EP        312 52.32                             123    0.11 8  205 294 
 ZAR  HN ES        313 17.86                             123    0.12 8  205 294 
 ZAR  HZ I         313 22.33         5.2 0.38            125            205 294 
                                                                                
