 2010 1119 0942  7.6 L   6.796 -73.083142.9  RSN  8 0.4 1.8LRSN                1
 GAP=189        0.62       3.8     6.8  5.6  0.4246E+01  0.6051E+01  0.2354E+01E
 Epicentro: LOS SANTOS - SANTANDER                                             3
 ACTION:UP  10-12-17 16:53 OP:REBC STATUS:               ID:20101119094207 L   I
 2010-11-19-0938-12S.COL___125                                                 6
 STAT SP IPHASW D HRMM SECON CODA AMPLIT PERI AZIMU VELO SNR AR TRES W  DIS CAZ7
 BAR2 SZ IP        942 27.00                             170     0.110   25 206 
 BAR2 SZ ES   1    942 41.73                             170    -0.2 7   25 206 
 BAR2 SZ I         942 43.28        10.7 0.30                            25 206 
 BRR  HZ EP   1    942 28.96                             150     0.2 7   78 296 
 BRR  HN ES   1    942 45.62                             150     0.3 7   78 296 
 BRR  HZ I         942 49.91         9.0 0.16                            78 296 
 RUS  HZ EP   1    942 31.00                             143     0.0 7  100 180 
 RUS  HE ES   1    942 49.19                             143    -0.1 7  100 180 
 RUS  HZ I         942 51.01         4.0 0.38                           100 180 
 OCA  SZ EP   2    942 35.73                             129    -0.1 5  162 351 
 OCA  SZ ES   2    942 57.22                             129    -0.6 5  162 351 
 OCA  SZ I         943  0.43         7.4 0.14                           162 351 
 NOR  SZ EP   2    942 43.15                             117    -0.6 4  240 236 
 NOR  SN ES   2    943 11.08                             117    -0.9 4  240 236 
 CHI  HZ EP   2    942 45.27                             116     0.0 4  250 197 
 CHI  HZ I         943 21.83         3.0 0.41                           250 197 
 HEL  HZ EP   2    942 49.06                             113     0.7 4  279 256 
 HEL  HZ I         942 51.31         2.4 0.37                           279 256 
 PRA  HZ EP   2    943  1.15                             106    -0.2 3  395 210 
 PRA  HE ES   2    943 43.92                             106     0.6 3  395 210 
 PRA  HZ I         943 48.61         8.3 0.17                           395 210 
                                                                                
