 2016  319 0536 50.0 L   6.785 -73.155141.7  RSN  9 0.3 1.5LRSN                1
 GAP=136        0.63       2.7     2.8  4.5 -0.1069E+01  0.4388E+01 -0.1071E-01E
 Epicentro: LOS SANTOS - SANTANDER                                             3
 ACTION:UPD 16-05-13 21:25 OP:cam  STATUS:               ID:20160319053650 L   I
 OLDACT:DUP 16-03-19 15:41 OP:dnl  STATUS:               ID:20160319052749d    3
 2016-03-19-0527-48M.COL___315                                                 6
 STAT SP IPHASW D HRMM SECON CODA AMPLIT PERI AZIMU VELO AIN AR TRES W  DIS CAZ7
 BAR2 EZ EP        537  9.03                             171   -0.0410 21.5 188 
 BAR2 EZ ES        537 23.88                             171   -0.0910 21.5 188 
 BAR2 EZ I         537 25.74         5.4 0.13            172           21.5 188 
 PAM  EZ EP     D  537 11.89                             149    0.0210 79.3  39 
 PAM  EN ES        537 29.09                             149    0.1410 79.3  39 
 PAM  EZ I         537 31.28         7.1 0.24            137           79.3  39 
 RUS  HZ EP        537 13.29                             143    0.0910 99.0 175 
 RUS  HE ES        537 31.31                             143   -0.0210 99.0 175 
 RUS  HZ I         537 35.19         1.7 0.17            136           99.0 175 
 PTB  HZ EP        537 15.75                             131   -0.73 9  146 259 
 PTB  HE ES        537 37.10                             131   -0.06 9  146 259 
 PTB  HZ I         537 38.72         4.8 0.18            120            146 259 
 SPBC HZ EP        537 17.99                             129    0.03 9  161 219 
 SPBC HN ES        537 39.97                             129    0.16 9  161 219 
 SPBC HZ I         537 43.07         5.8 0.10            119            161 219 
 ZAR  HZ EP   2    537 21.75                             122   -0.36 4  204 293 
 ZAR  HE ES        537 47.46                             122    0.27 9  204 293 
 ZAR  HZ I         537 54.73         3.6 0.13            111            204 293 
 CHI  HZ EP   2    537 26.97                             117   -0.26 4  247 195 
 CHI  HN ES   2    537 56.47                             117    0.17 4  247 195 
 CHI  HZ I         538  4.47         1.8 0.34            109            247 195 
 URE  HZ EP   2    537 31.61                             113    0.81 4  283 292 
 URE  HZ I         538 12.51         4.0 0.18            105            283 292 
 GUY2CHZ EP   2    537 33.95                             112    0.77 4  299 235 
 GUY2CHN ES   2    538  7.64                             112    0.75 4  299 235 
 GUY2CHZ I         538 15.74         2.4 0.36                           299 235 
                                                                                
