 2017  219 0721 33.0 L   6.781 -73.136137.5  RSN  6 0.3 1.7LRSN                1
 GAP=139        0.82       3.9     3.6  5.6  0.1343E+01  0.5435E+01 -0.9623E+00E
 Epicentro: LOS SANTOS - SANTANDER                                             3
 ACTION:UPD 17-05-24 15:37 OP:jn   STATUS:               ID:20170219072133 L   I
 OLDACT:REG 17-02-19 12:45 OP:edw  STATUS:               ID:20170219071743     3
 2017-02-19-0718-00M.COL___352                                                 6
 STAT SP IPHASW D HRMM SECON CODA AMPLIT PERI AZIMU VELO AIN AR TRES W  DIS CAZ7
 BAR2 EZ IP     D  721 51.64                             171    0.0510 21.5 194 
 BAR2 EZ ES        722  5.75                             171   -0.3510 21.5 194 
 BAR2 EZ I         722  7.68        16.2 0.22            172           21.5 194 
 BRR  HZ EP        721 53.51                             150    0.1410 73.1 300 
 BRR  HN ES        722  9.64                             150    0.3810 73.1 300 
 BRR  HZ I         722 13.70        10.4 0.32            150           73.1 300 
 PAM  EZ EP        721 54.46                             149    0.0610 78.4  38 
 PAM  EN ES        722 10.85                             149   -0.2410 78.4  38 
 PAM  EZ I         722 13.66         8.4 0.50            151           78.4  38 
 RUS  HZ EP        721 55.76                             143   -0.0210 98.4 177 
 RUS  HN ES        722 13.99                             143    0.4410 98.4 177 
 RUS  HZ I         722 15.37         4.1 0.30            147           98.4 177 
 PTB  HZ EP        721 58.71                             130   -0.65 9  148 260 
 PTB  HN ES        722 19.62                             130   -0.30 9  148 260 
 PTB  HZ I         722 21.75         6.0 0.12            131            148 260 
 ZAR  HZ EP        722  5.41                             120    0.31 8  206 293 
 ZAR  HE ES        722 30.34                             120    0.20 8  206 293 
 ZAR  HZ I         722 36.30         7.4 0.32            122            206 293 
                                                                                
