 2011  419 0239 25.6 L   6.797 -73.140156.4  RSN  8 0.4 2.3LRSN                1
 GAP=153        0.96       7.2     8.6 10.5 -0.2958E+02 -0.1938E+02  0.2011E+02E
 Epicentro: LOS SANTOS - SANTANDER                                             3
 ACTION:UP  11-06-22 15:31 OP:REBC STATUS:               ID:20110419023925 L   I
 2011-04-19-0235-17S.COL___138                                                 6
 STAT SP IPHASW D HRMM SECON CODA AMPLIT PERI AZIMU VELO SNR AR TRES W  DIS CAZ7
 BAR2 SZ EP        239 46.19                             171    -0.310   23 192 
 BAR2 SZ I         240  2.43        38.5 0.42                            23 192 
 BRR  HZ EP        239 48.05                             153     0.110   72 299 
 BRR  HZ I         239 48.34        82.0 0.18                            72 299 
 BRR  HN ES   1    240  5.63                             153     0.3 7   72 299 
 PAM  SZ IP     C  239 49.09                             152     0.210   77  39 
 PAM  SZ I         239 49.22        13.5 0.18                            77  39 
 PAM  SN ES   2    240  6.50                             152    -0.6 5   77  39 
 BRI  SZ IP        239 50.79                             143     0.310  109  20 
 GRA  SZ IP        239 51.97                             139     0.210  126  17 
 GRA  SZ I         239 53.08        21.1 0.34                           126  17 
 GRA  SZ ES   1    240 11.70                             139    -0.5 7  126  17 
 OCA  SZ EP        239 54.28                             131    -0.5 9  161 353 
 OCA  SZ ES   1    240 17.90                             131     0.4 7  161 353 
 OCA  SZ I         240 22.85        19.6 0.24                           161 353 
 NOR  SZ EP   2    240  2.65                             120     0.7 4  235 235 
 NOR  SN ES   2    240 29.51                             120    -0.8 4  235 235 
 MON  HZ EP   4    240 13.34                             110    -1.7 0  354 308 
 MON  HN ES   3    240 52.23                             110    -1.5 2  354 308 
 MON  HZ I         241  8.65         6.6 0.55                           354 308 
                                                                                
