 2016  719 0735 21.2 L   6.777 -73.128150.4  RSN  5 0.3 1.2LRSN                1
 GAP=238        0.64       4.2     5.9  5.4  0.3364E+01  0.4830E+01  0.3138E+01E
 Epicentro: LOS SANTOS - SANTANDER                                             3
 ACTION:UPD 17-03-29 16:52 OP:lp   STATUS:               ID:20160719073521 L   I
 OLDACT:UP  16-07-19 17:10 OP:ar   STATUS:               ID:20160719072759     3
 OLDACT:REG 16-07-19 13:14 OP:ar   STATUS:               ID:20160719072759     3
 2016-07-19-0727-59S.COL___328                                                 6
 STAT SP IPHASW D HRMM SECON CODA AMPLIT PERI AZIMU VELO AIN AR TRES W  DIS CAZ7
 BAR2 EZ EP        735 41.41                             171    0.1110 21.3 196 
 BAR2 EZ ES        735 56.61                             171   -0.4110 21.3 196 
 BRR  HZ EP        735 43.10                             152    0.1310 74.1 300 
 BRR  HN ES        736  0.24                             152    0.2610 74.1 300 
 BRR  HZ I         736  2.70         2.6 0.32            150           74.1 300 
 RUS  HZ EP   2    735 45.65                             145    0.47 5 98.0 177 
 RUS  HN ES   2    736  3.98                             145    0.06 5 98.0 177 
 RUS  HZ I         736  4.84         2.5 0.34            145           98.0 177 
 SPBC HZ EP        735 49.83                             130   -0.12 9  162 220 
 SPBC HN ES        736 12.55                             130    0.15 9  162 220 
 SPBC HZ I         736 16.58         2.6 0.24            129            162 220 
 ZAR  HZ EP   2    735 53.38                             123   -0.81 4  207 293 
 ZAR  HN ES   2    736 19.38                             123   -0.57 4  207 293 
 ZAR  HZ I         736 21.17         1.2 0.17            123            207 293 
                                                                                
