 2014 1219 0253 43.5 L   6.827 -73.182143.1  RSN 10 0.4 1.5LRSN                1
 GAP=131        1.02       2.8     4.4  6.4 -0.3538E+00  0.1147E+02 -0.2774E+01E
 Epicentro: ZAPATOCA - SANTANDER                                               3
 ACTION:UPD 15-02-10 17:05 OP:nd   STATUS:               ID:20141219025343 L   I
 OLDACT:DUP 14-12-19 15:00 OP:fm   STATUS:               ID:20141219024750d    3
 2014-12-19-0247-49M.COL___299                                                 6
 STAT SP IPHASW D HRMM SECON CODA AMPLIT PERI AZIMU VELO AIN AR TRES W  DIS CAZ7
 BAR2 EZ ES        254 17.62                             169   -0.3010 26.0 180 
 BAR2 EZ I         254 19.56         4.6 0.20            168           26.0 180 
 PAM  SZ EP        254  5.99                             150    0.5810 77.8  43 
 PAM  SE ES        254 22.40                             150   -0.1310 77.8  43 
 PAM  SZ I         254 24.56         4.3 0.40            156           77.8  43 
 RUS  HZ EP   1    254  7.59                             142    0.40 7  104 174 
 RUS  HE ES        254 25.31                             142   -0.3910  104 174 
 RUS  HZ I         254 27.63         4.0 0.30            145            104 174 
 PTB  HZ EP        254  9.61                             132   -0.30 9  144 257 
 PTB  HN ES        254 30.35                             132   -0.19 9  144 257 
 PTB  HZ I         254 35.23         3.4 0.14            133            144 257 
 OCA  HN ES        254 33.19                             129    0.28 9  157 354 
 OCA  HZ I         254 36.90         5.5 0.20            133            157 354 
 SPBC HN ES        254 34.59                             128    0.79 9  163 217 
 SPBC HZ I         254 41.54         6.2 0.24            130            163 217 
 ZAR  HZ EP        254 16.02                             122    0.79 9  199 292 
 ZAR  HN ES        254 40.13                             122    0.11 9  199 292 
 ZAR  HZ I         254 48.36         3.0 0.26            124            199 292 
 SML  HZ EP        254 19.20                             117   -0.26 8  239 336 
 SML  HE ES        254 47.41                             117   -0.13 8  239 336 
 SML  HZ I         254 49.73         4.4 0.24            120            239 336 
 CHI  HZ EP        254 20.61                             116   -0.61 8  251 194 
 CHI  HN ES        254 50.66                             116   -0.00 8  251 194 
 CHI  HZ I         254 56.31         1.8 0.48            119            251 194 
 MON  HZ EP        254 31.20                             108   -0.58 6  349 308 
 MON  HE ES        255  8.94                             108   -0.53 6  349 308 
 MON  HZ I         255 10.65         0.7 0.34            110            349 308 
                                                                                
