 2017  419 0444 44.3 L   6.829 -73.132149.9  RSN 16 0.5 2.1LRSN                1
 GAP=112        1.02       3.1     3.2  5.0  0.5478E+00  0.4466E+01  0.2801E+01E
 Epicentro: LOS SANTOS - SANTANDER                                             3
 ACTION:UPD 17-05-30 21:14 OP:jn   STATUS:               ID:20170419044444 L   I
 OLDACT:UP  17-04-19 15:22 OP:dnl  STATUS:               ID:20170419043745d    3
 OLDACT:DUP 17-04-19 15:16 OP:dnl  STATUS:               ID:20170419043745d    3
 OLDACT:REG 17-04-19 13:07 OP:dnl  STATUS:               ID:20170419043744     3
 2017-04-19-0438-00M.COL___368                                                 6
 STAT SP IPHASW D HRMM SECON CODA AMPLIT PERI AZIMU VELO AIN AR TRES W  DIS CAZ7
 BAR2 EZ EP        445  4.31                             170   -0.1810 26.7 192 
 BAR2 EZ ES        445 20.02                             170   -0.2310 26.7 192 
 BAR2 EZ I         445 20.39        32.4 0.38            166           26.7 192 
 BRR  HZ IP     C  445  6.18                             153    0.3010 71.1 296 
 BRR  HE ES        445 23.34                             153    0.6110 71.1 296 
 BRR  HZ I         445 27.17        18.4 0.22            151           71.1 296 
 PAM  EZ EP        445  7.30                             152    0.5510 74.0  40 
 PAM  EN ES        445 24.51                             152    0.2410 74.0  40 
 PAM  EZ I         445 26.47        16.3 0.58            158           74.0  40 
 RUS  HZ EP        445  8.34                             144   -0.3310  104 177 
 RUS  HN ES        445 27.16                             144   -0.5210  104 177 
 RUS  HZ I         445 28.58        10.9 0.46            144            104 177 
 PTB  HZ EP        445 11.08                             132   -0.71 9  150 258 
 PTB  HE ES        445 32.85                             132   -0.39 9  150 258 
 PTB  HZ I         445 38.71        12.6 0.36            131            150 258 
 SPBC HZ EP        445 13.08                             129   -0.35 9  167 219 
 SPBC HN ES        445 36.14                             129   -0.02 9  167 219 
 SPBC HZ I         445 41.12        20.2 0.10            129            167 219 
 YPLC HZ IP     D  445 14.74                             127    0.16 9  179 152 
 YPLC HN ES        445 38.62                             127    0.40 9  179 152 
 YPLC HZ I         445 41.44         5.6 0.34            129            179 152 
 ZAR  HZ EP        445 17.03                             123   -0.00 9  204 291 
 ZAR  HE ES        445 42.16                             123   -0.42 9  204 291 
 ZAR  HZ I         445 47.68        14.2 0.42            123            204 291 
 NOR  HZ EP        445 20.45                             119   -0.14 8  238 234 
 NOR  HE ES        445 49.07                             119    0.16 8  238 234 
 NOR  HZ I         445 57.66         7.5 0.40            119            238 234 
 CHI  HZ EP        445 22.52                             118   -0.07 8  252 195 
 CHI  HN ES        445 51.91                             118   -0.56 8  252 195 
 CHI  HZ I         445 55.31         9.3 0.64            118            252 195 
 ROSC BZ EP   9    445 24.70                             117    1.69 0  256 211 
 ROSC BN ES        445 54.72                             117   -0.19 8  256 211 
 ROSC BZ I         445 58.98        23.6 0.45            118            256 211 
 HEL  HZ EP   2    445 25.46                             115    0.50 4  274 255 
 HEL  HE ES        445 57.06                             115    0.37 8  274 255 
 HEL  HZ I         446  2.38         7.1 0.30            115            274 255 
 URE  HZ EP        445 24.64                             114   -0.95 7  284 291 
 URE  HE ES   4    445 55.28                             114   -2.53 0  284 291 
 URE  HZ I         446  3.39         8.0 0.14            115            284 291 
 CBOC HZ EP        445 32.33                             110    0.67 7  336 252 
 CBOC HN ES        446  9.46                             110    0.86 7  336 252 
 CBOC HZ I         446 19.30         1.6 0.28            111            336 252 
 PRA  HZ EP   2    445 38.45                             107    0.09 3  396 210 
 PRA  HE ES        446 21.34                             107    0.80 6  396 210 
 PRA  HZ I         446 26.76         7.4 0.28            108            396 210 
 ORTC HZ EP   2    445 39.08                             107    0.33 3  399 216 
 ORTC HN ES        446 22.14                             107    0.90 6  399 216 
 ORTC HZ I         446 25.71         5.1 0.22            107            399 216 
                                                                                
