 2010 1119 0734 15.3 L   6.080 -73.728113.2  RSN  5 0.3 1.5LRSN                1
 GAP=128        0.54       4.2     4.2  8.9 -0.2255E+01  0.2411E+02  0.3154E+01E
 Epicentro: BOLIVAR - SANTANDER                                                3
 ACTION:UP  10-12-17 16:53 OP:REBC STATUS:               ID:20101119073415 L   I
 2010-11-19-0733-21S.COL___126                                                 6
 STAT SP IPHASW D HRMM SECON CODA AMPLIT PERI AZIMU VELO SNR AR TRES W  DIS CAZ7
 RUS  HZ EP   1    734 33.79                             144    -0.2 7   74 106 
 RUS  HZ I         734 34.31         4.7 0.07                            74 106 
 RUS  HE ES   1    734 48.38                             144    -0.1 7   74 106 
 BAR2 SZ IP        734 34.40                             141     0.210   83  47 
 BAR2 SZ ES   1    734 49.03                             141     0.1 7   83  47 
 BAR2 SZ I         734 50.39        14.1 0.32                            83  47 
 BRR  HZ EP   2    734 36.54                             131     0.0 5  114   1 
 BRR  HE ES   2    734 52.87                             131    -0.2 5  114   1 
 BRR  HZ I         734 56.42         3.6 0.11                           114   1 
 HEL  HZ EP   2    734 45.59                             115    -0.2 4  200 274 
 HEL  HE ES   2    735  9.28                             115    -0.4 4  200 274 
 HEL  HZ I         735 12.13         3.4 0.27                           200 274 
 RREF HZ EP   2    734 48.24                             112    -0.4 4  222 234 
 RREF HN ES   2    735 15.39                             112     0.7 4  222 234 
 RREF HZ I         735 18.55         2.7 0.22                           222 234 
                                                                                
