 2013  919 0538 58.6 L   6.811 -73.163145.5  RSN 13 0.5 2.4LRSN                1
 GAP=134        0.98       3.1     4.6  5.7 -0.2472E+01  0.7011E+01  0.2588E+01E
 Epicentro: LOS SANTOS - SANTANDER                                             3
 ACTION:UPD 13-10-22 09:23 OP:ep   STATUS:               ID:20130919053858 L   I
 OLDACT:REG 13-09-19 07:19 OP:jn   STATUS:               ID:20130919053640     3
 2013-09-19-0536-40M.COL___226                                                 6
 STAT SP IPHASW D HRMM SECON CODA AMPLIT PERI AZIMU VELO AIN AR TRES W  DIS CAZ7
 BAR2 SZ EP     C  539 18.40                             170    0.1410 24.3 185 
 BAR2 SZ ES        539 33.55                             170   -0.0110 24.3 185 
 BAR2 SZ I         539 35.00        78.6 0.28            167           24.3 185 
 BRR  HZ EP     C  539 20.23                             153    0.6010 69.0 298 
 BRR  HE ES   1    539 37.12                             153    1.11 7 69.0 298 
 BRR  HZ I         539 39.77        39.2 0.34            149           69.0 298 
 PAM  SZ EP     D  539 21.39                             151    0.5510 77.7  41 
 PAM  SN ES        539 37.57                             151   -0.5910 77.7  41 
 PAM  SZ I         539 40.58        30.7 0.52            156           77.7  41 
 RUS  HZ EP        539 22.40                             143   -0.0610  102 175 
 RUS  HN ES   1    539 40.62                             143   -0.42 7  102 175 
 RUS  HZ I         539 42.54        20.2 0.20            146            102 175 
 PTB  HZ EP   1    539 24.89                             132   -0.55 7  146 258 
 PTB  HN ES   1    539 46.03                             132   -0.31 7  146 258 
 PTB  HZ I         539 53.44        27.3 0.46            131            146 258 
 OCA  HZ EP   1    539 26.24                             130   -0.56 7  159 354 
 OCA  HE ES   1    539 48.32                             130   -0.44 7  159 354 
 OCA  HZ I         539 55.09        20.3 0.68            132            159 354 
 SPBC HZ EP        539 27.35                             129    0.25 9  163 218 
 SPBC HE ES   1    539 49.34                             129    0.05 7  163 218 
 SPBC HZ I         539 54.31        39.3 0.20            129            163 218 
 ZAR  HN ES   1    539 55.99                             122    0.03 6  202 292 
 ZAR  HZ I         540  1.63        27.4 0.26            122            202 292 
 NOR  HZ EP        539 34.52                             118    0.25 8  234 234 
 NOR  HN ES   1    540  1.11                             118   -0.94 6  234 234 
 NOR  HZ I         540 12.01        18.7 0.44            119            234 234 
 SML  HZ EP   1    539 34.63                             117   -0.42 6  242 336 
 SML  HE ES   1    540  3.13                             117   -0.31 6  242 336 
 CHI  HZ EP   1    539 36.69                             117    0.29 6  249 195 
 CHI  HN ES   1    540  5.37                             117   -0.48 6  249 195 
 CHI  HZ I         540  9.45        16.1 0.62            119            249 195 
 ROSC BZ EP   1    539 37.32                             116    0.57 6  253 211 
 PRA  HZ EP        539 51.94                             106   -0.23 6  392 209 
 PRA  HN ES   1    540 34.03                             106    0.11 4  392 209 
 PRA  HZ I         540 40.72        16.9 0.34            108            392 209 
                                                                                
