 2010  119 0401 58.1 L   6.792 -73.100144.9  RSN  9 0.5 2.3LRSN                1
 GAP=188        1.15       4.4     9.0  8.0 -0.7630E+01  0.3530E+02  0.2305E+01E
 Epicentro: LOS SANTOS - SANTANDER                                             3
 ACTION:UP  10-08-24 09:44 OP:vdl  STATUS:               ID:20100119040158 L   I
 2010-01-19-0400-08S.COL___096                                                 6
 STAT SP IPHASW D HRMM SECON CODA AMPLIT PERI AZIMU VELO SNR AR TRES W  DIS CAZ7
 BAR2 SZ EP        4 2 17.40                             170    -0.210   24 203 
 BAR2 SZ ES   1    4 2 32.11                             170    -0.8 7   24 203 
 GIR2 SZ EP        4 2 18.58                             166     0.910   33 342 
 GIR2 SZ ES   1    4 2 33.61                             166     0.6 7   33 342 
 RUS  BZ EP        4 2 21.43                             144    -0.210   99 179 
 RUS  BN ES        4 2 39.83                             144    -0.210   99 179 
 RUS  BZ I         4 2 40.95        19.6 0.16                            99 179 
 OCA  SZ EP        4 2 26.18                             129    -0.3 9  162 351 
 OCA  SZ ES   1    4 2 48.86                             129     0.2 7  162 351 
 CHI  HZ EP        4 2 35.68                             117    -0.1 8  249 196 
 CHI  HN ES   1    4 3  5.75                             117     0.5 6  249 196 
 HEL  HZ EP        4 2 37.96                             114    -0.8 7  277 256 
 HEL  HN ES   1    4 3  9.98                             114    -0.5 6  277 256 
 RREF BZ EP        4 2 44.41                             110    -0.2 7  325 230 
 RREF BN ES   1    4 3 21.50                             110     0.7 5  325 230 
 RREF BZ I         4 3 28.10         9.9 0.14                           325 230 
 TOL  SZ EP   1    4 2 47.39                             109     0.7 5  346 225 
 PRA  HZ EP        4 2 51.94                             106     0.2 6  394 210 
 PRA  HN ES        4 3 34.43                             106     0.8 6  394 210 
 PRA  HZ I         4 3 40.53         9.1 0.66                           394 210 
                                                                                
