 2014  419 0959 23.6 L   6.820 -73.191141.9  RSN  4 0.3 1.5LRSN                1
 GAP=130        0.81       3.5     4.5  8.0 -0.1931E+01  0.1302E+02 -0.7887E+01E
 Epicentro: ZAPATOCA - SANTANDER                                               3
 ACTION:UPD 14-05-13 23:09 OP:nd   STATUS:               ID:20140419095923 L   I
 OLDACT:DUP 14-04-19 18:45 OP:stll STATUS:               ID:20140419094809d    3
 2014-04-19-0948-08M.COL___224                                                 6
 STAT SP IPHASW D HRMM SECON CODA AMPLIT PERI AZIMU VELO AIN AR TRES W  DIS CAZ7
 PAM  SZ EP        959 45.89                             149    0.4010 79.0  43 
 PAM  SZ I         959 46.18         5.7 0.22            154           79.0  43 
 PAM  SN ES       10 0  2.65                             149    0.0710 79.0  43 
 RUS  HZ EP        959 47.38                             142    0.2310  103 173 
 RUS  HN ES       10 0  5.03                             142   -0.5110  103 173 
 PTB  HZ EP        959 49.84                             132    0.01 9  143 258 
 PTB  HN ES       10 0 10.59                             132    0.28 9  143 258 
 PTB  HZ I        10 0 16.66         5.2 0.46            132            143 258 
 SML  HZ EP        959 59.11                             117   -0.44 8  240 336 
 SML  HN ES       10 0 27.36                             117   -0.25 8  240 336 
                                                                                
