 2015  619 0602 59.9 L   7.010 -73.160149.9  RSN  6 0.4 1.7LRSN                1
 GAP=190        0.98       5.5     6.9  8.8  0.7195E+01  0.2127E+02 -0.1708E+02E
 Epicentro: GIRON - SANTANDER                                                  3
 ACTION:UPD 15-09-10 22:13 OP:cam  STATUS:               ID:20150619060259 L   I
 OLDACT:REG 15-06-19 12:35 OP:drio STATUS:               ID:20150619055747     3
 2015-06-19-0557-47M.COL___304                                                 6
 STAT SP IPHASW D HRMM SECON CODA AMPLIT PERI AZIMU VELO AIN AR TRES W  DIS CAZ7
 BAR2 EZ EP        6 3 20.70                             162   -0.0110 46.3 183 
 BAR2 EZ ES        6 3 36.37                             162   -0.5610 46.3 183 
 BAR2 EZ I         6 3 39.34         6.1 0.16            164           46.3 183 
 BRR  HZ EP        6 3 21.53                             156    0.4910 61.9 280 
 BRR  HE ES   4    6 3 38.91                             156    1.40 0 61.9 280 
 BRR  HZ I         6 3 40.89        10.8 0.14            154           61.9 280 
 OCA  HZ EP        6 3 26.96                             135    0.48 9  137 353 
 OCA  HE ES        6 3 47.10                             135   -0.10 9  137 353 
 OCA  HZ I         6 3 51.47        13.4 0.20            137            137 353 
 ZAR  HZ EP        6 3 31.92                             124    0.20 9  195 286 
 ZAR  HN ES        6 3 56.97                             124    0.45 9  195 286 
 ZAR  HZ I         6 4  3.39         7.2 0.14            126            195 286 
 MON  HZ EP        6 3 46.89                             110   -0.45 7  338 305 
 MON  HZ I         6 3 52.98         1.2 0.42            112            338 305 
 MON  HN ES     D  6 4 23.67                             110   -0.65 7  338 305 
 SJC  HZ EP        6 3 52.44                             107   -0.83 6  389 325 
 SJC  HN ES        6 4 34.90                             107    0.03 6  389 325 
                                                                                
