 2011  719 0048 19.7 L   6.773 -73.106137.8  RSN  7 0.4 1.8LRSN                1
 GAP=160        0.98       5.7    12.7 11.1  0.2327E+02 -0.6800E+02 -0.3065E+02E
 Epicentro: LOS SANTOS - SANTANDER                                             3
 ACTION:UPD 12-07-25 14:01 OP:epov STATUS:               ID:20110719004819 L   I
 2011-07-19-0045-15S.COL___143                                                 6
 STAT SP IPHASW D HRMM SECON CODA AMPLIT PERI AZIMU VELO AIN AR TRES W  DIS CAZ7
 BAR2 SZ EP        048 38.16                             171   -0.2210 21.7 203 
 BAR2 SZ ES   1    048 52.59                             171   -0.33 7 21.7 203 
 BAR2 SZ I         048 53.95        12.3 0.19                          21.7 203 
 GIR2 SZ EP        048 38.44                             165   -0.1510 35.1 344 
 BRR  HZ EP        048 40.17                             150   -0.1810 76.4 299 
 BRR  HE ES   1    048 57.09                             150    0.66 7 76.4 299 
 BRR  HZ I         049  1.90        23.3 0.12                          76.4 299 
 RUS  HZ EP   1    048 42.50                             143    0.02 7 97.4 178 
 RUS  HN ES   1    049  0.31                             143    0.09 7 97.4 178 
 BRI  SZ EP   1    048 43.02                             139    0.03 7  110  18 
 GRA  SZ EP        048 45.31                             135    0.8810  127  15 
 GRA  SZ I         049  6.67         6.1 0.17                           127  15 
 OCA  SZ EP   1    048 47.14                             127   -0.65 7  164 352 
 OCA  SZ ES   1    049  9.17                             127   -0.49 7  164 352 
 OCA  SZ I         049 13.66         9.2 0.21                           164 352 
                                                                                
