 2012  319 0919 52.9 L   6.775 -73.144146.8  RSN  6 0.3 1.5LRSN                1
 GAP=138        0.68       4.7     5.3  7.3  0.5639E+01  0.2956E+01 -0.4803E+01E
 ACTION:UP  12-03-31 23:21 OP:EP   STATUS:               ID:20120319091952 L   I
 2012-03-19-0920-00M.COL___202                                                 6
 STAT SP IPHASW D HRMM SECON CODA AMPLIT PERI AZIMU VELO SNR AR TRES W  DIS CAZ7
 BAR2 SZ EP   1    920 12.49                             172    -0.1 7   21 192 
 BAR2 SZ ES   2    920 27.74                             172    -0.2 5   21 192 
 BAR2 SZ I         920 28.75         8.0 0.30                            21 192 
 BRR  HZ EP   1    920 14.35                             152     0.1 7   73 300 
 BRR  HE ES   1    920 31.36                             152     0.5 7   73 300 
 PAM  SZ EP   1    920 15.58                             150     0.2 7   79  38 
 PAM  SN ES   2    920 32.17                             150    -0.7 5   79  38 
 RUS  HZ EP   1    920 16.56                             145     0.0 7   98 176 
 RUS  HZ I         920 17.65         3.1 0.17                            98 176 
 RUS  HE ES        920 35.07                             145     0.110   98 176 
 PTB  HZ EP   1    920 19.55                             133    -0.4 7  147 260 
 PTB  HN ES   2    920 40.29                             133    -0.7 5  147 260 
 PTB  HZ I         920 47.60         2.6 0.38                           147 260 
 ZAR  HN ES   2    920 51.20                             123     0.2 4  205 293 
 ZAR  HZ I         920 56.29         3.9 0.49                           205 293 
                                                                                
