 2016 1119 0711 32.6 L   6.810 -73.160147.2  RSN  4 0.2 1.0LRSN                1
 GAP=145        0.62       6.3     3.8  5.0 -0.1205E+02  0.1982E+01  0.2103E+01E
 Epicentro: LOS SANTOS - SANTANDER                                             3
 ACTION:UPD 17-10-26 21:09 OP:lp   STATUS:               ID:20161119071132 L   I
 OLDACT:REG 16-11-19 13:06 OP:and  STATUS:               ID:20161119070641     3
 2016-11-19-0707-00M.COL___328                                                 6
 STAT SP IPHASW D HRMM SECON CODA AMPLIT PERI AZIMU VELO AIN AR TRES W  DIS CAZ7
 BAR2 EZ EP        711 52.18                             170   -0.2210 24.2 186 
 BAR2 EZ ES        712  8.00                             170    0.1510 24.2 186 
 BRR  HZ EP        711 54.20                             153    0.4310 69.2 298 
 BRR  HN ES        712 10.13                             153   -0.1710 69.2 298 
 PAM  EZ IP     C  711 55.06                             151    0.1010 77.6  41 
 PAM  EN ES        712 12.30                             151   -0.1110 77.6  41 
 PAM  EZ I         712 29.56         2.2 0.22            145           77.6  41 
 PTB  HZ EP        711 59.25                             133   -0.29 9  146 258 
 PTB  HE ES        712 20.66                             133    0.09 9  146 258 
 PTB  HZ I         712 27.43         1.1 0.31            137            146 258 
                                                                                
