 2016 1019 0104  1.1 L   6.766 -73.129150.0  RSN 11 0.4 1.7LRSN                1
 GAP=140        0.94       4.0     4.6  5.8 -0.4918E+01  0.3333E+01  0.6332E+01E
 Epicentro: LOS SANTOS - SANTANDER                                             3
 ACTION:UPD 16-11-09 19:20 OP:rebc STATUS:               ID:20161019010401 L   I
 OLDACT:UP  16-10-19 14:42 OP:and  STATUS:               ID:20161019005741     3
 OLDACT:REG 16-10-19 12:14 OP:and  STATUS:               ID:20161019005741     3
 2016-10-19-0058-00M.COL___332                                                 6
 STAT SP IPHASW D HRMM SECON CODA AMPLIT PERI AZIMU VELO AIN AR TRES W  DIS CAZ7
 BAR2 EZ EP        1 4 20.99                             172   -0.1410 20.1 197 
 BAR2 EZ ES        1 4 37.01                             172    0.2210 20.1 197 
 BAR2 EZ I         1 4 37.85        10.6 0.25            169           20.1 197 
 BRR  HZ EP        1 4 22.85                             152   -0.0010 74.6 300 
 BRR  HE ES        1 4 40.79                             152    0.9310 74.6 300 
 PAM  EZ IP     C  1 4 23.68                             151   -0.1410 79.2  37 
 PAM  EN ES        1 4 41.25                             151   -0.3410 79.2  37 
 PAM  EZ I         1 4 43.75         8.5 0.62            156           79.2  37 
 RUS  HZ EP        1 4 24.99                             146    0.0410 96.7 177 
 RUS  HE ES        1 4 43.63                             146    0.0310 96.7 177 
 RUS  HZ I         1 4 44.73         3.3 0.24            146           96.7 177 
 PTB  HZ EP        1 4 27.98                             133   -0.49 9  149 260 
 PTB  HN ES        1 4 49.16                             133   -0.69 9  149 260 
 PTB  HZ I         1 4 56.17        12.8 0.35            133            149 260 
 SPBC HZ EP        1 4 29.86                             131    0.14 9  161 220 
 SPBC HN ES        1 4 51.99                             131   -0.09 9  161 220 
 SPBC HZ I         1 4 57.13         7.3 0.10            130            161 220 
 NOR  HE ES   2    1 5  5.53                             120    0.56 4  234 235 
 CHI  HZ EP   2    1 4 39.02                             119    0.37 4  246 196 
 CHI  HN ES   2    1 5  8.44                             119    0.46 4  246 196 
 CHI  HZ I         1 5 13.56         2.0 0.27            119            246 196 
 GUY2CHZ EP   2    1 4 45.64                             113    0.85 4  301 236 
 GUY2CHZ I         1 5 27.39         1.8 0.22                           301 236 
 PRA  HZ EP        1 4 55.20                             107    0.75 6  390 210 
 PRA  HE ES        1 5 35.50                             107   -0.60 6  390 210 
 PRA  HZ I         1 5 40.13         2.6 0.60            108            390 210 
 SJC  HZ EP   9    1 4 55.05                             106   -2.19 0  413 327 
 SJC  HE ES        1 5 38.88                                    0.00 6  413 327 
                                                                                
