 2014  319 0923 23.3 L   6.799 -73.171146.3  RSN  9 0.5 1.8LRSN                1
 GAP=133        1.13       3.5     5.0  7.3 -0.2661E+01  0.1391E+02 -0.3466E+01E
 Epicentro: LOS SANTOS - SANTANDER                                             3
 ACTION:UPD 14-04-09 23:18 OP:nd   STATUS:               ID:20140319092323 L   I
 OLDACT:REG 14-03-19 11:39 OP:carl STATUS:               ID:20140319091809     3
 2014-03-19-0918-09M.COL___223                                                 6
 STAT SP IPHASW D HRMM SECON CODA AMPLIT PERI AZIMU VELO AIN AR TRES W  DIS CAZ7
 BAR2 SZ ES        923 58.34                             171    0.0510 22.9 183 
 PAM  SZ EP        923 45.99                             150    0.3510 79.3  41 
 PAM  SN ES        924  2.90                             150   -0.2010 79.3  41 
 RUS  HN ES        924  6.01                             144    0.3710  101 174 
 PTB  HZ EP        923 49.58                             133   -0.44 9  145 259 
 PTB  HN ES        924 10.30                             133   -0.58 9  145 259 
 PTB  HZ I         924 16.03         8.0 0.38            131            145 259 
 SPBC HZ EP        923 52.12                             129    0.50 9  161 218 
 SPBC HN ES        924 13.08                             129   -0.66 9  161 218 
 SPBC HZ I         924 16.59         7.7 0.20            130            161 218 
 ZAR  HZ EP        923 55.19                             123   -0.28 9  201 292 
 ZAR  HN ES        924 21.78                             123    1.18 9  201 292 
 ZAR  HZ I         924 27.54         6.7 0.34            122            201 292 
 NOR  HN ES        924 26.79                             119    0.33 8  232 234 
 SML  HZ EP        923 59.66                             118   -0.14 8  243 336 
 SML  HN ES        924 27.91                             118   -0.39 8  243 336 
 SML  HZ I         924 34.34         6.2 0.24            118            243 336 
 CHI  HZ EP        924  0.73                             117   -0.17 8  248 195 
 CHI  HN ES        924 30.29                             117    0.04 8  248 195 
 CHI  HZ I         924 34.78         1.9 0.42            118            248 195 
                                                                                
