 2012 1019 0230 59.5 L   6.793 -73.106147.1  RSN  4 0.3 1.9LRSN                1
 GAP=241        0.66       9.3    11.0  7.3  0.8571E+02 -0.1009E+02 -0.1080E+02E
 Epicentro: LOS SANTOS - SANTANDER                                             3
 ACTION:UPD 12-11-22 17:04 OP:ep   STATUS:               ID:20121019023059 L   I
 2012-10-19-0230-00M.COL___231                                                 6
 STAT SP IPHASW D HRMM SECON CODA AMPLIT PERI AZIMU VELO AIN AR TRES W  DIS CAZ7
 BAR2 SZ EP   1    231 19.17                             170   -0.10 7 23.7 201 
 BAR2 SZ ES   1    231 34.19                             170   -0.52 7 23.7 201 
 BRR  HZ EP        231 21.03                             151    0.0210 75.4 297 
 BRR  HN ES   1    231 38.34                             151    0.54 7 75.4 297 
 BRR  HN I         231 39.10        28.9 0.26                          75.4 297 
 RUS  HZ EP        231 23.34                             144    0.0610 99.6 179 
 RUS  HN ES   1    231 42.04                             144    0.19 7 99.6 179 
 RUS  HN I         231 42.88         6.4 0.20                          99.6 179 
 ZAR  HN ES   1    231 57.83                             122   -0.34 6  208 292 
 ZAR  HN I         231 59.92         8.4 0.24                           208 292 
                                                                                
