 2011  619 0704 59.3 L   6.780 -73.079138.2  RSN  5 0.2 1.5LRSN                1
 GAP=166        0.48       2.9     7.6  5.3  0.1136E+02 -0.1757E+02 -0.6226E+01E
 Epicentro: LOS SANTOS - SANTANDER                                             3
 ACTION:UP  11-07-14 19:06 OP:ep   STATUS:               ID:20110619070459 L   I
 2011-06-19-0700-01S.COL___140                                                 6
 STAT SP IPHASW D HRMM SECON CODA AMPLIT PERI AZIMU VELO SNR AR TRES W  DIS CAZ7
 BAR2 SZ EP        7 5 18.18                             170     0.210   24 209 
 BAR2 SZ ES   1    7 5 32.75                             170     0.1 7   24 209 
 BAR2 SZ I         7 5 34.73         6.5 0.34                            24 209 
 BRR  HZ EP        7 5 19.95                             149    -0.110   79 297 
 BRR  HN ES   1    7 5 36.44                             149     0.1 7   79 297 
 BRR  HZ I         7 5 39.05         9.2 0.10                            79 297 
 RUS  HZ EP        7 5 22.21                             143     0.110   98 180 
 RUS  HZ I         7 5 23.35         4.4 0.12                            98 180 
 RUS  HN ES   1    7 5 39.61                             143    -0.3 7   98 180 
 GRA  SZ EP   2    7 5 23.93                             135     0.0 5  126  14 
 GRA  SZ I         7 5 49.51         3.3 0.41                           126  14 
 OCA  SZ EP   1    7 5 27.38                             127     0.0 7  164 351 
 OCA  SZ ES   1    7 5 49.03                             127    -0.2 7  164 351 
 OCA  SZ I         7 5 51.61         6.5 0.17                           164 351 
                                                                                
