 2014  419 0027 49.0 L   7.455 -73.217128.5  RSN  9 0.4 1.8LRSN                1
 GAP=110        1.06       3.0     5.0  7.0  0.9902E-01  0.1003E+02  0.4065E+01E
 Epicentro: EL PLAYON - SANTANDER                                              3
 ACTION:UPD 14-05-13 23:09 OP:nd   STATUS:               ID:20140419002749 L   I
 OLDACT:DUP 14-04-19 15:09 OP:stll STATUS:               ID:20140419001814d    3
 2014-04-19-0018-12M.COL___239                                                 6
 STAT SP IPHASW D HRMM SECON CODA AMPLIT PERI AZIMU VELO AIN AR TRES W  DIS CAZ7
 PAM  SZ EP        028  8.59                             154    0.2610 58.5 103 
 PAM  SN ES        028 23.52                             154    0.1510 58.5 103 
 PAM  SZ I         028 24.67        16.9 0.46            150           58.5 103 
 BRR  HZ IP     D  028  8.31                             151    0.2210 66.9 235 
 BRR  HN ES        028 23.12                             151    0.1810 66.9 235 
 BRR  HZ I         028 24.08        16.9 0.12            140           66.9 235 
 OCA  HZ EP        028  9.78                             144    0.1110 87.4 353 
 OCA  HZ I         028 10.40        10.4 0.20            135           87.4 353 
 OCA  HN ES        028 26.00                             144    0.2510 87.4 353 
 PTB  HZ EP        028 16.88                             124   -0.02 9  170 234 
 PTB  HN ES        028 38.58                             124   -0.05 9  170 234 
 PTB  HZ I         028 40.03         6.9 0.22            115            170 234 
 RUS  HZ EP        028 17.80                             123   -0.05 9  173 175 
 RUS  HN ES        028 39.07                             123   -1.24 9  173 175 
 SML  HZ EP        028 17.47                             122    0.00 9  176 328 
 SML  HN ES        028 38.80                             122   -0.83 9  176 328 
 SPBC HN ES        028 48.77                             116    0.46 8  221 205 
 HEL  HZ EP        028 30.93                             110    0.29 7  291 241 
 HEL  HZ I         029 12.99         2.5 0.48            104            291 241 
 CHI  HN ES        029  8.86                             108    0.26 7  318 190 
                                                                                
