 2011 1019 0157 23.7 L   6.785 -73.118139.8  RSN  5 0.3 1.6LRSN                1
 GAP=141        0.43       4.4     4.7  6.4  0.4291E+01  0.7781E+01 -0.1826E+01E
 Epicentro: LOS SANTOS - SANTANDER                                             3
 ACTION:UPD 12-07-13 16:04 OP:ep   STATUS:               ID:20111019015723 L   I
 2011-10-19-0155-22S.COL___152                                                 6
 STAT SP IPHASW D HRMM SECON CODA AMPLIT PERI AZIMU VELO AIN AR TRES W  DIS CAZ7
 BAR2 SZ ES   2    157 56.86                             170   -0.47 5 22.5 198 
 BAR2 SZ I         157 57.05        13.8 0.88                          22.5 198 
 BRR  HZ EP   2    157 44.40                             150    0.00 5 74.6 299 
 BRR  HN ES   2    158  0.76                             150    0.20 5 74.6 299 
 BRR  HZ I         158  6.21        23.0 0.48                          74.6 299 
 PAM  SZ EP   2    157 44.83                             150   -0.41 5 76.8  37 
 PAM  SN ES   2    158  2.38                             150    0.33 5 76.8  37 
 RUS  HZ EP   2    157 47.09                             143    0.37 5 98.8 178 
 RUS  HN ES   2    158  4.74                             143    0.05 5 98.8 178 
 RUS  HZ I         158 10.91         1.6 0.40                          98.8 178 
 ZAR  HZ EP   2    157 55.96                             121   -0.15 4  207 292 
 ZAR  HN ES   2    158 21.44                             121    0.04 4  207 292 
 ZAR  HZ I         158 26.37         3.2 0.39                           207 292 
                                                                                
