 2013 1219 0855 42.8 L   6.799 -73.151150.1  RSN 11 0.5 1.8LRSN                1
 GAP=136        1.11       3.8     5.2  6.4 -0.5575E+01  0.9170E+01 -0.1244E+01E
 Epicentro: LOS SANTOS - SANTANDER                                             3
 ACTION:UPD 14-01-13 10:19 OP:ep   STATUS:               ID:20131219085542 L   I
 OLDACT:REG 13-12-19 08:22 OP:jn   STATUS:               ID:20131219085000     3
 2013-12-19-0850-00M.COL___285                                                 6
 STAT SP IPHASW D HRMM SECON CODA AMPLIT PERI AZIMU VELO AIN AR TRES W  DIS CAZ7
 BAR2 SZ EP        856  2.49                             171   -0.4810 23.1 189 
 BAR2 SZ ES        856 18.43                             171   -0.2510 23.1 189 
 BAR2 SZ I         856 19.76        18.1 0.26            170           23.1 189 
 BRR  HZ EP        856  4.64                             153    0.2210 70.8 299 
 BRR  HN ES        856 22.22                             153    0.9610 70.8 299 
 PAM  SZ EP        856  5.69                             151    0.1710 77.8  40 
 PAM  SN ES        856 23.17                             151   -0.0610 77.8  40 
 PAM  SZ I         856 25.44         6.8 0.74            154           77.8  40 
 RUS  HZ EP        856  6.97                             145   -0.0310  101 176 
 RUS  HN ES        856 25.59                             145   -0.2610  101 176 
 RUS  HZ I         856 26.50         4.6 0.28            146            101 176 
 PTB  HZ EP        856  9.49                             133   -0.61 9  147 259 
 PTB  HN ES        856 30.81                             133   -0.56 9  147 259 
 PTB  HZ I         856 33.84        10.9 0.38            134            147 259 
 OCA  HN ES        856 34.26                             131    0.44 9  160 353 
 SPBC HZ EP        856 11.85                             130    0.23 9  163 219 
 SPBC HN ES        856 34.19                             130    0.11 9  163 219 
 SPBC HZ I         856 40.09        11.4 0.24            131            163 219 
 ZAR  HZ EP   1    856 15.14                             123   -0.36 6  204 292 
 NOR  HE ES        856 46.85                             120    0.07 8  234 234 
 SML  HZ EP        856 19.41                             118   -0.27 8  244 335 
 SML  HN ES   2    856 47.45                             118   -0.98 4  244 335 
 GUY2CHZ EP        856 27.61                             113    1.03 7  301 235 
 GUY2CHZ I         857  7.72         4.1 0.36                           301 235 
                                                                                
