 2016  319 0626 26.4 L   6.780 -73.124145.5  RSN  9 0.4 1.5LRSN                1
 GAP=140        0.66       3.2     4.2  7.5 -0.4712E+01  0.5586E+01  0.2979E+01E
 Epicentro: LOS SANTOS - SANTANDER                                             3
 ACTION:UPD 16-05-13 21:25 OP:cam  STATUS:               ID:20160319062626 L   I
 OLDACT:REG 16-03-19 12:55 OP:dnl  STATUS:               ID:20160319061744     3
 2016-03-19-0617-44M.COL___315                                                 6
 STAT SP IPHASW D HRMM SECON CODA AMPLIT PERI AZIMU VELO AIN AR TRES W  DIS CAZ7
 BAR2 EZ EP        626 46.15                             171    0.1710 21.8 197 
 BAR2 EZ ES   2    627  1.47                             171    0.23 5 21.8 197 
 BAR2 EZ I         627  2.80         4.4 0.20            172           21.8 197 
 PAM  EZ EP   2    626 48.32                             151   -0.29 5 77.6  37 
 PAM  EN ES   2    627  5.28                             151   -0.65 5 77.6  37 
 PAM  EZ I         627  8.42         2.4 0.23            153           77.6  37 
 RUS  HZ EP   2    626 50.01                             144    0.04 5 98.3 177 
 RUS  HE ES   2    627  8.20                             144   -0.15 5 98.3 177 
 RUS  HZ I         627 11.53         2.1 0.14            149           98.3 177 
 PTB  HZ EP        626 53.03                             132   -0.50 9  150 260 
 PTB  HE ES        627 14.39                             132   -0.29 9  150 260 
 PTB  HZ I         627 16.27         5.6 0.12            133            150 260 
 OCA  HZ EP   2    626 55.01                             129    0.08 5  163 352 
 OCA  HE ES        627 17.55                             129    0.37 9  163 352 
 OCA  HZ I         627 22.51         6.2 0.32            131            163 352 
 ZAR  HZ EP   4    627  1.84                             122    2.69 0  207 292 
 ZAR  HN ES   3    627 24.10                             122   -0.58 2  207 292 
 ZAR  HZ I         627 29.88         3.4 0.25            124            207 292 
 NOR  HZ EP   2    627  2.17                             118   -0.03 4  235 235 
 NOR  HN ES        627 30.70                             118    0.59 8  235 235 
 NOR  HZ I         627 33.81         2.6 0.18            121            235 235 
 CHI  HZ EP   2    627  4.04                             117    0.10 4  247 196 
 CHI  HN ES   2    627 33.36                             117    0.16 4  247 196 
 GUY2CHZ EP   4    627 11.80                             112    1.71 0  302 235 
 GUY2CHE ES   4    627 45.72                             112    1.57 0  302 235 
 GUY2CHZ I         627 52.69         1.9 0.28                           302 235 
                                                                                
