 2016  219 0426 36.7 L   6.773 -73.150150.1  RSN  8 0.3 1.7LRSN                1
 GAP=137        0.84       3.1     3.6  5.0  0.6828E-01  0.3824E+01  0.2367E+01E
 Epicentro: LOS SANTOS - SANTANDER                                             3
 ACTION:UPD 16-03-04 21:27 OP:rebc STATUS:               ID:20160219042636 L   I
 OLDACT:REG 16-02-19 12:24 OP:drio STATUS:               ID:20160219041739     3
 2016-02-19-0417-39M.COL___316                                                 6
 STAT SP IPHASW D HRMM SECON CODA AMPLIT PERI AZIMU VELO AIN AR TRES W  DIS CAZ7
 BAR2 EZ EP        426 56.67                             172   -0.1310 20.3 190 
 BAR2 EZ ES        427 12.28                             172   -0.2010 20.3 190 
 BAR2 EZ I         427 13.21        15.9 0.20            170           20.3 190 
 BRR  HZ EP        426 58.56                             153    0.1810 72.3 301 
 BRR  HN ES        427 15.93                             153    0.6410 72.3 301 
 BRR  HZ I         427 18.03         6.2 0.22            153           72.3 301 
 PAM  EZ EP        426 59.62                             151    0.0810 80.0  38 
 PAM  EE ES        427 17.08                             151   -0.2710 80.0  38 
 PAM  EZ I         427 19.15         6.7 0.58            154           80.0  38 
 RUS  HZ EP        427  0.60                             145   -0.0810 97.6 176 
 RUS  HE ES        427 19.54                             145    0.1610 97.6 176 
 RUS  HZ I         427 20.96         4.5 0.26            145           97.6 176 
 PTB  HZ EP        427  3.51                             133   -0.43 9  147 260 
 PTB  HN ES        427 24.46                             133   -0.72 9  147 260 
 PTB  HZ I         427 26.71         5.7 0.16            133            147 260 
 SPBC HZ EP        427  5.67                             130    0.38 9  161 220 
 SPBC HN ES        427 27.83                             130    0.23 9  161 220 
 SPBC HZ I         427 30.33        12.6 0.30            130            161 220 
 ZAR  HZ EP        427  9.35                             123   -0.16 9  205 293 
 ZAR  HN ES        427 35.34                             123    0.24 9  205 293 
 ZAR  HZ I         427 39.98         6.4 0.42            124            205 293 
 CHI  HZ EP        427 14.57                             118    0.25 8  246 195 
 CHI  HN ES        427 43.51                             118   -0.15 8  246 195 
 CHI  HZ I         427 52.64         2.0 0.40            119            246 195 
                                                                                
