 2013  319 0658 51.3 L   6.725 -73.206148.0  RSN  6 0.3 1.8LRSN                1
 GAP=194        0.60       4.4     5.6  8.4  0.1282E+02 -0.5735E+01 -0.1096E+02E
 Epicentro: VILLANUEVA - SANTANDER                                             3
 ACTION:UPD 13-04-09 14:03 OP:ep   STATUS:               ID:20130319065851 L   I
 2013-03-19-0657-50M.COL___214                                                 6
 STAT SP IPHASW D HRMM SECON CODA AMPLIT PERI AZIMU VELO AIN AR TRES W  DIS CAZ7
 BAR2 SZ I         659 28.68        18.9 0.38            170           14.9 170 
 BRR  HZ EP     C  659 12.70                             153    0.0410 70.0 307 
 BRR  HN ES   2    659 29.82                             153    0.52 5 70.0 307 
 BRR  HN I         659 30.43        13.3 0.52            148           70.0 307 
 RUS  HN EP        659 15.05                             146    0.2710 93.1 172 
 RUS  HZ ES   1    659 32.57                             146   -0.50 7 93.1 172 
 RUS  HE I         659 34.62         7.3 0.42            149           93.1 172 
 PTB  HZ EP        659 17.74                             134   -0.03 9  140 262 
 PTB  HN ES   1    659 38.50                             134    0.11 7  140 262 
 PTB  HN I         659 44.16         4.3 0.24            132            140 262 
 ZAR  HN ES   2    659 48.42                             123   -0.41 4  201 295 
 ZAR  HN I         659 58.12         4.6 0.30            122            201 295 
 SML  HN ES   1    659 57.40                             117   -0.29 6  249 337 
 SML  HN I         7 0  2.40         9.0 0.10            118            249 337 
                                                                                
