 2010  619 0746  1.9 L   7.366 -73.110 18.3  RSN  7 0.5 1.1LRSN                1
 GAP=137        1.08       3.2     4.2  9.0 -0.6771E+01 -0.4820E+01  0.1434E+02E
 Epicentro: MATANZA - SANTANDER                                                3
 ACTION:UP  10-08-24 10:11 OP:vdl  STATUS:               ID:20100619074601 L   I
 2010-06-19-0742-21S.COL___118                                                 6
 STAT SP IPHASW D HRMM SECON CODA AMPLIT PERI AZIMU VELO SNR AR TRES W  DIS CAZ7
 BRI  SZ IP        746 11.26                             107     0.310   52  42 
 BRI  SZ ES   1    746 17.58                             107    -0.3 7   52  42 
 GUE  SZ EP   1    746 12.25                             106     0.7 7   55  22 
 GUE  SZ ES   1    746 18.73                             106    -0.3 7   55  22 
 GRA  SZ EP   1    746 13.40                             103     0.4 7   67  31 
 GRA  SZ ES   1    746 21.25                             103    -0.4 7   67  31 
 BRR  HZ EP   1    746 14.22                             102     0.5 7   72 247 
 BRR  HE ES   1    746 22.73                             102    -0.2 7   72 247 
 BRR  HZ I         746 23.41         5.6 0.19                            72 247 
 BAR2 SZ ES   1    746 26.52                             100    -0.5 7   86 185 
 OCA  SZ EP        746 18.21                              99     0.310   99 347 
 OCA  SZ ES   1    746 29.48                              99    -0.9 7   99 347 
 OCA  SZ I         746 33.33         5.9 0.51                            99 347 
 RUS  HN ES   1    746 46.14                              56    -0.3 7  163 179 
 RUS  HZ I         746 52.94         2.0 0.18                           163 179 
                                                                                
