 2015  819 0942  0.1 L   6.820 -73.129147.1  RSN 22 0.4 2.5LRSN                1
 GAP=114        0.82       2.1     2.4  4.1  0.3902E-01  0.2712E+01  0.5993E+00E
 Epicentro: LOS SANTOS - SANTANDER                                             3
 ACTION:UPD 15-09-15 23:03 OP:cam  STATUS:               ID:20150819094200 L   I
 OLDACT:DUP 15-08-19 16:24 OP:spq  STATUS:               ID:20150819093751d    3
 2015-08-19-0937-50M.COL___334                                                 6
 STAT SP IPHASW D HRMM SECON CODA AMPLIT PERI AZIMU VELO AIN AR TRES W  DIS CAZ7
 BAR2 EZ IP     C  942 19.81                             170   -0.1610 25.9 193 
 BAR2 EZ ES   1    942 34.87                             170   -0.58 7 25.9 193 
 BAR2 EZ I         942 36.21        74.5 0.20            169           25.9 193 
 BRR  HZ EP     C  942 21.64                             152    0.1810 71.8 296 
 BRR  HN ES        942 38.73                             152    0.6410 71.8 296 
 BRR  HZ I         942 42.00        33.6 0.34            151           71.8 296 
 RUS  HZ EP        942 23.75                             143   -0.4110  103 177 
 RUS  HE ES        942 42.42                             143   -0.4910  103 177 
 RUS  HZ I         942 43.72        14.9 0.46            141            103 177 
 TAM  HZ EP     C  942 28.08                             131    0.28 9  154 106 
 TAM  HZ I         942 48.72        22.0 0.30            129            154 106 
 TAM  HN ES        942 49.81                             131    0.42 9  154 106 
 OCA  HZ EP        942 28.46                             130    0.10 9  158 352 
 OCA  HN ES        942 50.43                             130    0.05 9  158 352 
 OCA  HZ I         942 53.05        72.6 0.22            128            158 352 
 SPBC HZ EP        942 28.79                             129   -0.21 9  166 219 
 SPBC HN ES        942 51.11                             129   -0.41 9  166 219 
 SPBC HZ I         942 53.83        39.0 0.10            127            166 219 
 ZAR  HZ EP        942 32.52                             122   -0.23 9  205 291 
 ZAR  HN ES        942 57.95                             122   -0.25 9  205 291 
 ZAR  HZ I         943  4.11        31.2 0.34            120            205 291 
 NOR  HZ EP        942 36.09                             118   -0.14 8  237 234 
 NOR  HE ES        943  4.53                             118    0.14 8  237 234 
 NOR  HZ I         943  8.02        26.8 0.16            116            237 234 
 SML  HZ EP        942 36.68                             118   -0.02 8  242 335 
 SML  HE ES   1    943  5.31                             118    0.09 6  242 335 
 SML  HZ I         943 12.99        19.9 0.26            116            242 335 
 CHI  HZ EP        942 38.05                             117   -0.13 8  251 195 
 CHI  HN ES        943  8.06                             117    0.19 8  251 195 
 CHI  HZ I         943 14.33        12.8 0.50            115            251 195 
 ROSC BZ EP   4    942 39.92                             117    1.29 0  256 211 
 ROSC BN ES   4    943 10.94                             117    2.28 0  256 211 
 ROSC BZ I         943 13.88        29.8 0.45            115            256 211 
 HEL  HZ EP        942 41.29                             115    0.62 8  274 255 
 HEL  HN ES        943 12.64                             115    0.35 8  274 255 
 HEL  HZ I         943 18.43        15.6 0.32            113            274 255 
 URE  HZ EP        942 40.63                             114   -0.73 7  285 291 
 URE  HN ES   4    943 10.73                             114   -2.80 0  285 291 
 URE  HZ I         943 20.36        22.4 0.18            112            285 291 
 GUY2CHZ EP        942 44.14                             112    0.03 7  304 235 
 GUY2CHN ES        943 18.92                             112    0.50 7  304 235 
 GUY2CHZ I         943 26.23        26.0 0.34                           304 235 
 VIL  SZ EP   1    942 43.63                             112   -0.26 5  306 192 
 VIL  SN ES   1    943 18.36                             112    0.33 5  306 192 
 VIL  SZ I         943 25.05        14.6 0.46            110            306 192 
 PTGC HZ EP   4    942 42.94                             112   -1.26 0  310 159 
 PTGC HN ES   4    943 16.25                             112   -2.33 0  310 159 
 PTGC HZ I         943 20.77        13.8 0.58            110            310 159 
 CBOC HZ EP        942 47.61                             110    0.23 7  336 252 
 CBOC HE ES        943 24.52                             110    0.29 7  336 252 
 CBOC HZ I         943 40.87         4.9 0.56            108            336 252 
 DBB  SZ EP        942 47.54                             109   -0.31 7  341 274 
 DBB  SZ ES   1    943 24.08                             109   -1.00 5  341 274 
 DBB  SZ I         943 26.44        35.8 0.64            108            341 274 
 TOL  SZ EP        942 49.33                             109    0.56 6  346 225 
 TOL  SE ES   4    943 28.70                             109    2.00 0  346 225 
 TOL  SZ I         943 36.41        16.1 0.44            108            346 225 
 ORTC HZ EP        942 54.14                             106   -0.29 6  398 216 
 ORTC HN ES        943 37.39                             106    0.61 6  398 216 
 ORTC HZ I         943 44.08        14.0 0.42            105            398 216 
 SJC  HZ EP   4    942 54.25                             106   -1.39 0  408 327 
 SJC  HN ES   4    943 35.63                             106   -3.30 0  408 327 
 SJC  HZ I         943 39.29         4.0 0.58            104            408 327 
 MACC HZ EP   4    943  7.19                             102   -1.98 0  523 189 
 MACC HN ES   4    943 59.03                             102   -3.98 0  523 189 
 MACC HZ I         944  4.85         1.9 0.20            100            523 189 
                                                                                
