 2013 1219 0831  7.5 L   6.829 -73.303116.1  RSN  6 0.4 1.3LRSN                1
 GAP=154        1.05       4.8     9.5  7.9  0.2760E+02 -0.9251E+01 -0.1312E+02E
 Epicentro: ZAPATOCA - SANTANDER                                               3
 ACTION:UPD 14-01-13 10:19 OP:ep   STATUS:               ID:20131219083107 L   I
 OLDACT:REG 13-12-19 08:21 OP:jn   STATUS:               ID:20131219083000     3
 2013-12-19-0830-00M.COL___285                                                 6
 STAT SP IPHASW D HRMM SECON CODA AMPLIT PERI AZIMU VELO AIN AR TRES W  DIS CAZ7
 BAR2 SZ EP        831 24.35                             165    0.5610 29.4 153 
 BAR2 SZ ES        831 36.83                             165    0.3710 29.4 153 
 BAR2 SZ I         831 37.84        23.3 0.42            164           29.4 153 
 BRR  HZ EP        831 24.36                             153   -0.1910 54.6 304 
 BRR  HN ES        831 37.87                             153    0.0610 54.6 304 
 BRR  HZ I         831 38.57         4.9 0.18            155           54.6 304 
 RUS  HZ EP        831 29.37                             135    0.3610  106 167 
 RUS  HN ES        831 44.88                             135   -0.8710  106 167 
 RUS  HZ I         831 48.87         0.9 0.18            135            106 167 
 PTB  HE ES   2    831 48.58                             128   -0.12 5  131 256 
 PTB  HZ I         831 49.23         2.9 0.10            129            131 256 
 OCA  HN ES   1    831 52.77                             123   -0.58 7  156 359 
 SML  HZ EP        831 41.55                             111   -0.03 8  234 339 
 SML  HN ES        832  8.16                             111    0.03 8  234 339 
                                                                                
