 2017  819 0236 59.1 L   6.751 -73.108147.4  RSN  4 0.3 1.3LRSN                1
 GAP=144        0.70       4.8     5.7  5.9 -0.2602E+01 -0.3489E+01  0.5529E+01E
 Epicentro: LOS SANTOS - SANTANDER                                             3
 ACTION:UPD 17-09-04 20:21 OP:rebc STATUS:               ID:20170819023659 L   I
 OLDACT:UP  17-08-22 21:45 OP:nlst STATUS:               ID:20170819023659 L   3
 OLDACT:UP  17-08-19 13:58 OP:and  STATUS:               ID:20170819022742d    3
 OLDACT:UP  17-08-19 13:58 OP:and  STATUS:               ID:20170819022742d    3
 OLDACT:DUP 17-08-19 13:54 OP:and  STATUS:               ID:20170819022742d    3
 OLDACT:UP  17-08-19 13:52 OP:and  STATUS:               ID:20170819022740     3
 OLDACT:UP  17-08-19 13:52 OP:and  STATUS:               ID:20170819022740     3
 OLDACT:UP  17-08-19 13:50 OP:and  STATUS:               ID:20170819022740     3
 OLDACT:REG 17-08-19 12:24 OP:and  STATUS:               ID:20170819022740     3
 2017-08-19-0228-00M.COL___405                                                 6
 STAT SP IPHASW D HRMM SECON CODA AMPLIT PERI AZIMU VELO AIN AR TRES W  DIS CAZ7
 BAR2 EZ EP        237 19.06                             172    0.1910 19.4 205 
 BAR2 EZ ES        237 33.86                             172   -0.4210 19.4 205 
 BAR2 EZ I         237 35.24         8.1 0.20            173           19.4 205 
 BRR  HZ EP        237 20.42                             151   -0.3810 77.4 301 
 BRR  HN ES        237 38.03                             151    0.3110 77.4 301 
 PAM  EZ IP     D  237 21.59                             150   -0.0210 79.2  35 
 PAM  EN ES        237 39.24                             150    0.0910 79.2  35 
 PAM  EZ I         237 41.74         2.3 0.41            151           79.2  35 
 RUS  HZ EP        237 22.76                             146    0.1310 95.0 178 
 RUS  HN ES   2    237 41.35                             146    0.37 5 95.0 178 
 RUS  HZ I         237 42.56         3.8 0.24            147           95.0 178 
                                                                                
