 2013  219 0016 54.9 L   6.780 -73.167143.0  RSN  9 0.5 2.0LRSN                1
 GAP=135        0.93       4.0     4.9  6.9  0.1262E+01  0.1044E+02  0.4265E+00E
 Epicentro: LOS SANTOS - SANTANDER                                             3
 ACTION:UPD 13-03-12 09:34 OP:ep   STATUS:               ID:20130219001654 L   I
 2013-02-19-0010-00M.COL___241                                                 6
 STAT SP IPHASW D HRMM SECON CODA AMPLIT PERI AZIMU VELO AIN AR TRES W  DIS CAZ7
 BAR2 SZ EP   1    017 13.97                             171   -0.14 7 20.9 185 
 BAR2 SZ ES   1    017 29.24                             171    0.12 7 20.9 185 
 BAR2 SZ I         017 30.01        64.1 0.14            168           20.9 185 
 BRR  HZ EP     C  017 15.79                             152    0.1410 70.3 301 
 BRR  HN ES   1    017 32.76                             152    0.89 7 70.3 301 
 BRR  HZ I         017 33.59        22.4 0.30            150           70.3 301 
 PAM  SZ EP   1    017 16.72                             149   -0.25 7 80.5  40 
 PAM  SN ES   1    017 33.62                             149   -0.60 7 80.5  40 
 PAM  SZ I         017 36.31        15.7 0.41            154           80.5  40 
 RUS  HZ EP   1    017 17.91                             144   -0.28 7 98.6 175 
 RUS  HN ES   1    017 36.58                             144    0.19 7 98.6 175 
 RUS  HZ I         017 37.41        11.3 0.22            143           98.6 175 
 PTB  HZ EP   1    017 20.96                             132   -0.40 7  145 259 
 PTB  HN ES   1    017 41.12                             132   -0.90 7  145 259 
 PTB  HZ I         017 45.02        18.4 0.10            130            145 259 
 ZAR  HZ EP   1    017 27.72                             122    0.73 6  203 293 
 ZAR  HE ES   1    017 52.58                             122    0.53 6  203 293 
 ZAR  HZ I         017 58.37        13.8 0.20            122            203 293 
 SML  HZ EP   1    017 31.87                             117    0.43 6  245 336 
 SML  HN ES   1    017 59.59                             117   -0.38 6  245 336 
 CHI  HZ EP   1    017 32.53                             117    0.42 6  246 195 
 CHI  HE ES   1    018  1.58                             117    0.41 6  246 195 
 CHI  HZ I         018  9.24         3.5 0.32            117            246 195 
 HEL  HZ EP   1    017 34.60                             114   -0.02 6  269 256 
 HEL  HN ES   1    018  4.78                             114   -0.86 6  269 256 
 HEL  HZ I         018 13.73         6.7 0.46            114            269 256 
                                                                                
