 2015  219 0237 17.2 L   6.806 -73.128148.0  RSN 15 0.5 2.2LRSN                1
 GAP= 72        1.33       4.0     5.3  7.3 -0.6827E+01  0.6602E+00  0.6674E+01E
 Epicentro: LOS SANTOS - SANTANDER                                             3
 ACTION:UPD 15-04-30 21:27 OP:nd   STATUS:               ID:20150219023717 L   I
 OLDACT:UP  15-02-19 17:12 OP:mh   STATUS:               ID:20150219022748d    3
 OLDACT:DUP 15-02-19 17:12 OP:mh   STATUS:               ID:20150219022748d    3
 2015-02-19-0227-47M.COL___299                                                 6
 STAT SP IPHASW D HRMM SECON CODA AMPLIT PERI AZIMU VELO AIN AR TRES W  DIS CAZ7
 BAR2 EZ EP        237 37.20                             170    0.0510 24.3 194 
 BAR2 EZ I         237 53.89        26.8 0.06            171           24.3 194 
 BRR  HZ EP     C  237 39.02                             152    0.3210 72.7 297 
 BRR  HN ES        237 56.07                             152    0.6210 72.7 297 
 BRR  HZ I         238  0.18        18.3 0.20            153           72.7 297 
 PAM  SZ EP     C  237 40.32                             152    0.7410 75.7  39 
 PAM  SN ES        237 57.09                             152    0.0810 75.7  39 
 PAM  SZ I         237 59.42        24.5 0.46            154           75.7  39 
 RUS  HZ EP        237 40.89                             144   -0.3410  101 177 
 RUS  HN ES        237 59.24                             144   -0.7210  101 177 
 RUS  HZ I         238  0.95        18.9 0.36            146            101 177 
 PTB  HZ EP        237 44.03                             132   -0.53 9  150 259 
 PTB  HN ES        238  5.66                             132   -0.22 9  150 259 
 PTB  HZ I         238  6.58        14.6 0.14            134            150 259 
 TAM  HZ EP        237 45.67                             131    0.75 9  153 105 
 OCA  HZ EP        237 45.40                             130   -0.28 9  160 352 
 OCA  HN ES        238  7.24                             130   -0.63 9  160 352 
 OCA  HZ I         238 12.66        12.7 0.20            132            160 352 
 SPBC HZ EP        237 45.96                             129   -0.10 9  165 219 
 SPBC HN ES        238  8.05                             129   -0.50 9  165 219 
 SPBC HZ I         238 14.27        27.3 0.24            131            165 219 
 NOR  HZ EP        237 53.20                             119   -0.10 8  237 235 
 NOR  HN ES        238 22.13                             119    0.70 8  237 235 
 NOR  HZ I         238 25.73        14.9 0.28            120            237 235 
 SML  HZ EP   1    237 53.44                             118   -0.57 6  244 335 
 CHI  HZ EP        237 55.14                             117   -0.03 8  250 196 
 CHI  HN ES        238 24.99                             117    0.22 8  250 196 
 GUY2CHZ EP        238  2.13                             113    0.97 7  303 235 
 GUY2CHN ES   4    238 37.08                             113    1.65 0  303 235 
 GUY2CHZ I         238 47.34         6.9 0.44                           303 235 
 RREF HZ EP   9    238  5.31                             111    1.63 0  324 230 
 RREF HN ES        238 43.37                                    1.82 7  324 230 
 TOL  SZ EP        238  5.58                             110   -0.20 7  345 225 
 TOL  SN ES   4    238 45.96                             110    2.30 0  345 225 
 TOL  SZ I         238 50.78         6.3 0.74            111            345 225 
 PRA  HZ EP        238 10.39                             107   -0.61 6  394 210 
 PRA  HN ES   1    238 52.92                             107   -0.02 4  394 210 
                                                                                
