 2016 1119 0638 54.3 L   7.062 -73.468105.9  RSN  5 0.2 1.2LRSN                1
 GAP=143        0.65       5.1     3.0  4.9 -0.6967E+00  0.6754E+00 -0.8602E+01E
 Epicentro: SAN VICENTE DE CHUCURI - SANTANDER                                 3
 ACTION:UPD 17-10-26 21:09 OP:lp   STATUS:               ID:20161119063854 L   I
 OLDACT:REG 16-11-19 13:04 OP:and  STATUS:               ID:20161119063743     3
 2016-11-19-0638-00M.COL___337                                                 6
 STAT SP IPHASW D HRMM SECON CODA AMPLIT PERI AZIMU VELO AIN AR TRES W  DIS CAZ7
 BRR  HZ EP        639  8.65                             164   -0.2710 27.4 281 
 BRR  HN ES        639 20.53                             164    0.2010 27.4 281 
 BAR2 EZ IP     C  639 11.06                             148    0.1310 60.8 149 
 BAR2 EZ ES        639 23.90                             148   -0.0010 60.8 149 
 BAR2 EZ I         639 25.19        13.0 0.22            151           60.8 149 
 PAM  EZ EP        639 13.49                             136    0.0010 90.3  70 
 PAM  EN ES        639 28.30                             136   -0.1610 90.3  70 
 PAM  EZ I         639 31.61         1.6 0.24            138           90.3  70 
 PTB  HZ EP   9    639 14.32                             126   -1.57 0  124 242 
 PTB  HE ES        639 30.64                                   -0.5310  124 242 
 PTB  HZ I         639 35.12         1.8 0.10            127            124 242 
 ZAR  HZ EP        639 19.81                             118    0.10 9  161 287 
 ZAR  HN ES   4    639 41.11                             118    1.58 0  161 287 
 ZAR  HZ I         639 42.50         3.0 0.26            119            161 287 
                                                                                
