 2015  319 0136 54.2 L   6.973 -73.154137.5  RSN 11 0.5 2.0LRSN                1
 GAP= 65        1.26       3.5     3.7  6.7  0.5782E+00  0.5238E+01  0.9206E+00E
 Epicentro: GIRON - SANTANDER                                                  3
 ACTION:UPD 15-04-30 16:27 OP:nd   STATUS:               ID:20150319013654 L   I
 OLDACT:DUP 15-03-19 14:15 OP:stll STATUS:               ID:20150319012751d    3
 2015-03-19-0127-50M.COL___284                                                 6
 STAT SP IPHASW D HRMM SECON CODA AMPLIT PERI AZIMU VELO AIN AR TRES W  DIS CAZ7
 BAR2 EZ EP        137 13.52                             162    0.1310 42.3 184 
 BAR2 EZ ES        137 28.12                             162   -0.2510 42.3 184 
 BAR2 EZ I         137 29.56        25.9 0.28            163           42.3 184 
 BRR  HZ EP        137 14.17                             154    0.1610 63.4 284 
 BRR  HN ES        137 30.23                             154    0.7610 63.4 284 
 BRR  HZ I         137 34.24        13.8 0.14            153           63.4 284 
 PAM  SZ EP        137 14.99                             154    0.2110 64.5  51 
 PAM  SZ I         137 15.72        15.2 0.16            157           64.5  51 
 PAM  SN ES        137 31.44                             154    0.6010 64.5  51 
 RUS  HZ EP        137 18.49                             137   -0.1710  120 176 
 RUS  HN ES        137 36.91                             137   -0.8410  120 176 
 RUS  HZ I         137 39.08         5.7 0.40            139            120 176 
 OCA  HE ES        137 39.57                             132   -0.69 9  141 353 
 PTB  HZ EP        137 20.50                             129   -0.38 9  152 252 
 PTB  HN ES        137 40.80                             129   -0.89 9  152 252 
 PTB  HZ I         137 43.12        10.1 0.12            130            152 252 
 TAM  HZ EP        137 22.09                             127    0.20 9  162 111 
 TAM  HN ES        137 43.35                             127   -0.14 9  162 111 
 SPBC HZ EP        137 24.63                             124    1.10 9  178 215 
 SPBC HN ES        137 46.69                             124    0.27 9  178 215 
 SPBC HZ I         137 51.39        10.3 0.28            126            178 215 
 ZAR  HZ EP        137 25.01                             122   -0.34 9  197 287 
 ZAR  HE ES        137 49.88                             122    0.23 9  197 287 
 ZAR  HZ I         137 54.36        10.2 0.26            122            197 287 
 SML  HZ EP        137 28.03                             118   -0.41 8  226 333 
 SML  HN ES        137 55.24                             118    0.09 8  226 333 
 SML  HZ I         137 58.93        21.4 0.10            119            226 333 
 GUY2CHZ EP        137 38.59                             110   -0.07 7  312 232 
 GUY2CHE ES        138 13.89                             110    0.55 7  312 232 
 GUY2CHZ I         138 22.21         3.9 0.52                           312 232 
                                                                                
