 2010  819 0603 47.7 L   6.790 -73.082134.8  RSN 12 0.5 2.0LRSN                1
 GAP=166        1.30       4.8     8.3  8.5 -0.9162E+01  0.8620E-01  0.5591E+01E
 Epicentro: LOS SANTOS - SANTANDER                                             3
 ACTION:UP  10-09-07 10:56 OP:vdl  STATUS:               ID:20100819060347 L   I
 2010-08-19-0600-39S.COL___117                                                 6
 STAT SP IPHASW D HRMM SECON CODA AMPLIT PERI AZIMU VELO SNR AR TRES W  DIS CAZ7
 BAR2 SZ EP        6 4  6.04                             169     0.010   25 207 
 BAR2 SZ I         6 4  6.64        27.9 0.51                            25 207 
 BAR2 SZ ES   1    6 4 19.80                             169    -0.6 7   25 207 
 GIR2 SZ EP   1    6 4  6.10                             165    -0.1 7   34 339 
 BRR  HZ IP     C  6 4  7.85                             148    -0.310   78 297 
 BRR  HN ES        6 4 24.53                             148     0.510   78 297 
 BRR  HZ I         6 4 25.52        34.5 0.04                            78 297 
 RUS  HZ EP        6 4 10.12                             142    -0.210   99 180 
 RUS  HZ I         6 4 11.35        12.6 0.68                            99 180 
 RUS  HN ES   1    6 4 27.83                             142    -0.1 7   99 180 
 GUE  SZ EP        6 4 11.02                             137    -0.410  116   9 
 GUE  SZ I         6 4 32.31         5.4 0.18                           116   9 
 GRA  SZ EP        6 4 12.81                             135     0.910  125  14 
 GRA  SZ I         6 4 33.52         8.6 0.36                           125  14 
 OCA  SZ EP   1    6 4 14.49                             126    -0.9 7  162 351 
 OCA  SZ ES   2    6 4 37.05                             126     0.1 5  162 351 
 OCA  SZ I         6 4 40.88        19.1 0.43                           162 351 
 CHI  HZ EP   1    6 4 24.43                             115    -0.5 6  249 197 
 CHI  HN ES   1    6 4 54.42                             115     0.5 6  249 197 
 CHI  HZ I         6 4 56.09         3.6 0.32                           249 197 
 ROSC BZ EP        6 4 26.44                             114     0.9 8  255 213 
 ROSC BE ES   2    6 4 55.27                             114     0.2 4  255 213 
 HEL  HZ EP   1    6 4 27.93                             112    -0.2 6  279 256 
 HEL  HN ES   1    6 4 58.85                             112    -0.8 6  279 256 
 HEL  HZ I         6 5  6.16         7.1 0.32                           279 256 
 RREF HZ EP   1    6 4 34.83                             108     0.9 5  326 230 
 RREF HZ I         6 5 16.70         6.2 0.76                           326 230 
 PRA  HZ EP   1    6 4 40.39                             104    -0.8 4  395 211 
 PRA  HN ES   1    6 5 22.47                             104    -0.4 4  395 211 
 PRA  HZ I         6 5 26.88         5.0 0.14                           395 211 
                                                                                
