 2011  919 0350 45.3 L   6.840 -73.107149.9  RSN  7 0.2 1.4LRSN                1
 GAP=139        0.55       5.5     6.1  7.8  0.3558E+01  0.3894E+01  0.2654E+02E
 Epicentro: LOS SANTOS - SANTANDER                                             3
 ACTION:UPD 12-07-13 15:58 OP:ep   STATUS:               ID:20110919035045 L   I
 2011-09-19-0347-33S.COL___171                                                 6
 STAT SP IPHASW D HRMM SECON CODA AMPLIT PERI AZIMU VELO AIN AR TRES W  DIS CAZ7
 BTL  SZ EP        351  5.64                             172    0.2910 19.8 296 
 GIR2 SZ EP        351  5.43                             169    0.0610 28.1 340 
 GIR2 SZ ES   2    351 21.01                             169   -0.03 5 28.1 340 
 BAR2 SZ EP        351  5.23                             169   -0.3010 28.6 197 
 BAR2 SZ I         351 27.05         3.7 0.56                          28.6 197 
 PAM  SN ES   1    351 25.10                             153    0.10 7 71.2  39 
 BRR  HZ EP        351  7.19                             152    0.2010 73.1 294 
 BRR  HE ES   1    351 23.79                             152   -0.12 7 73.1 294 
 BRR  HZ I         351 28.51         6.1 0.16                          73.1 294 
 RUS  HZ EP        351  9.66                             143   -0.0910  105 179 
 OCA  SZ ES   2    351 35.01                             131   -0.62 5  156 351 
                                                                                
