 2013  519 0321 16.6 L   6.729 -73.162149.0  RSN  4 0.2 1.3LRSN                1
 GAP=180        0.57       6.0     9.1  6.6  0.2958E+02  0.7509E+01  0.1205E+01E
 Epicentro: VILLANUEVA - SANTANDER                                             3
 ACTION:UPD 13-06-20 09:51 OP:ep   STATUS:               ID:20130519032116 L   I
 2013-05-19-0320-00M.COL___256                                                 6
 STAT SP IPHASW D HRMM SECON CODA AMPLIT PERI AZIMU VELO AIN AR TRES W  DIS CAZ7
 GIR2 SZ EP   1    321 36.58                             165   -0.32 7 38.8 355 
 BRR  HZ EP        321 38.61                             152    0.3410 73.8 305 
 BRR  HN ES        321 55.09                             152   -0.0610 73.8 305 
 BRR  HZ I         321 59.54         5.0 0.10             37           73.8 305 
 RUS  HN ES   1    321 58.57                             147    0.04 7 92.9 175 
 RUS  HZ I         322  0.29         1.4 0.26             37           92.9 175 
 PTB  HZ EP        321 43.45                             133   -0.13 9  145 262 
 PTB  HZ I         322  6.79         3.3 0.34             37            145 262 
                                                                                
