 2014 1119 0209 43.2 L   5.876 -74.018 95.8  RSN  8 0.4 1.5LRSN                1
 GAP=105        0.97       3.0     2.6  5.8 -0.2225E+01  0.9772E+00  0.4174E+00E
 Epicentro: LA BELLEZA - SANTANDER                                             3
 ACTION:UPD 14-12-19 15:44 OP:nd   STATUS:               ID:20141119020943 L   I
 OLDACT:REG 14-11-19 13:42 OP:fm   STATUS:               ID:20141119020747     3
 2014-11-19-0207-47M.COL___286                                                 6
 STAT SP IPHASW D HRMM SECON CODA AMPLIT PERI AZIMU VELO AIN AR TRES W  DIS CAZ7
 SPBC HZ EP        2 9 56.96                             164    0.2710 25.5 194 
 SPBC HN ES        210  7.54                             164    0.3110 25.5 194 
 SPBC HZ I         210  8.36        39.8 0.10            163           25.5 194 
 PTB  HZ EP        210  0.10                             134   -0.5510 87.9 327 
 PTB  HN ES        210 13.60                             134   -0.6610 87.9 327 
 PTB  HZ I         210 13.91         7.2 0.26            134           87.9 327 
 NOR  HZ EP        210  1.35                             130   -0.4910  100 250 
 NOR  HN ES        210 16.53                             130    0.1410  100 250 
 NOR  HZ I         210 18.72        13.0 0.50            129            100 250 
 RUS  HZ EP        210  2.66                             130   -0.0710  104  89 
 RUS  HN ES        210 17.69                             130   -0.2810  104  89 
 RUS  HZ I         210 19.60         3.9 0.32            130            104  89 
 BAR2 SZ EP        210  4.34                             125    0.1610  122  49 
 BAR2 SZ ES        210 20.93                             125    0.3710  122  49 
 BAR2 SZ I         210 22.63        10.7 0.20            125            122  49 
 BRR  HZ EP        210  5.77                             120   -0.03 9  140  14 
 BRR  HN ES        210 23.58                             120    0.14 9  140  14 
 BRR  HZ I         210 27.09         5.3 0.50            120            140  14 
 HEL  HZ EP        210 10.23                             115    0.61 9  171 282 
 HEL  HE ES        210 30.69                             115    0.45 9  171 282 
 HEL  HZ I         210 34.41         3.6 0.46            115            171 282 
 PRA  HZ EP        210 19.47                             106    0.18 8  258 202 
 PRA  HE ES        210 47.05                             106   -0.40 8  258 202 
 PRA  HZ I         210 53.01         1.3 0.72            106            258 202 
                                                                                
