 2013  119 0453  0.5 L   6.794 -73.166138.2  RSN  4 0.2 1.1LRSN                1
 GAP=235        0.49       6.4     5.8  6.0  0.2450E+02  0.1192E+02  0.1281E+02E
 Epicentro: LOS SANTOS - SANTANDER                                             3
 ACTION:UPD 13-02-15 09:15 OP:ep   STATUS:               ID:20130119045300 L   I
 2013-01-19-0450-00M.COL___241                                                 6
 STAT SP IPHASW D HRMM SECON CODA AMPLIT PERI AZIMU VELO AIN AR TRES W  DIS CAZ7
 BAR2 SZ ES   1    453 33.56                             170   -0.21 7 22.4 185 
 BRR  HE ES   1    453 36.67                             152    0.16 7 69.6 300 
 RUS  HZ EP   1    453 23.74                             142    0.28 7  100 175 
 RUS  HE ES   1    453 41.36                             142   -0.03 7  100 175 
 RUS  HZ I         453 43.52         1.1 0.46            140            100 175 
 PTB  HZ EP   1    453 26.28                             131   -0.35 7  145 259 
 PTB  HE ES   1    453 47.14                             131    0.12 7  145 259 
 PTB  HZ I         453 47.96         3.3 0.58            130            145 259 
                                                                                
