 2014  519 0831 59.7 L   6.812 -73.137152.9  RSN 12 0.4 2.0LRSN                1
 GAP=220        0.85       2.9     6.4  6.2 -0.4978E+01 -0.1101E+02  0.4484E+01E
 Epicentro: LOS SANTOS - SANTANDER                                             3
 OLDACT:REG 14-05-19 13:24 OP:spq  STATUS:               ID:20140519082809     3
 ACTION:UPD 15-03-16 16:59 OP:nd   STATUS:               ID:20140519083159 L   I
 OLDACT:UP  14-05-19 17:06 OP:fm   STATUS:               ID:20140519082809     3
 2014-05-19-0828-09M.COL___248                                                 6
 STAT SP IPHASW D HRMM SECON CODA AMPLIT PERI AZIMU VELO AIN AR TRES W  DIS CAZ7
 BRR  HZ EP        832 21.90                             154    0.3010 71.4 297 
 BRR  HE ES        832 38.95                             154    0.2410 71.4 297 
 BRR  HZ I         832 45.09         7.0 1.00            139           71.4 297 
 PTB  HZ EP        832 26.65                             133   -0.68 9  149 258 
 PTB  HN ES        832 48.15                             133   -0.75 9  149 258 
 PTB  HZ I         832 49.05        10.1 0.20            122            149 258 
 SPBC HZ EP        832 28.89                             130    0.02 9  165 219 
 SPBC HE ES        832 51.64                             130   -0.01 9  165 219 
 SPBC HZ I         832 58.04         9.6 0.28            122            165 219 
 NOR  HE ES        833  4.45                             120    0.14 8  236 234 
 SML  HZ EP        832 36.29                             119   -0.32 8  243 335 
 SML  HN ES        833  5.81                             119    0.38 8  243 335 
 SML  HZ I         833  7.98        10.1 0.32            110            243 335 
 CHI  HZ EP        832 38.09                             118    0.16 8  250 195 
 CHI  HN ES        833  7.54                             118   -0.24 8  250 195 
 URE  HZ EP   1    832 40.56                             115   -0.57 6  284 292 
 URE  HZ I         833 23.90         5.0 0.30            107            284 292 
 GUY2CHZ EP        832 44.67                             113    0.89 7  303 235 
 GUY2CHE ES        833 18.59                             113    0.39 7  303 235 
 GUY2CHZ I         833 24.06         5.5 2.54                           303 235 
 RREF HZ EP   1    832 46.33                             112    0.03 5  323 229 
 RREF HN ES   1    833 22.94                             112    0.26 5  323 229 
 RREF HZ I         833 34.91         4.1 1.98            106            323 229 
 CBOC HZ EP   1    832 47.18                             111    0.15 5  335 252 
 CBOC HN ES   1    833 24.22                             111    0.24 5  335 252 
 CBOC HZ I         833 29.46         1.8 0.58            104            335 252 
 ARGC HE ES   4    833 27.05                             109   -1.30 0  358 340 
 PRA  HZ EP        832 53.42                             108   -0.21 6  394 210 
 PRA  HN ES        833 35.79                             108    0.07 6  394 210 
 PRA  HZ I         833 36.80         4.8 1.74            102            394 210 
 SJC  HZ EP   4    832 53.64                             107   -1.75 0  409 327 
 SJC  HE ES   4    833 34.51                             107   -4.36 0  409 327 
 SJC  HZ I         833 40.09         8.9 3.04            101            409 327 
                                                                                
