 2011  119 0710 55.9 L   6.816 -73.195138.3  RSN  5 0.6 1.2LRSN                1
 GAP=161        1.14       9.3    39.7 18.9 -0.2084E+03  0.3214E+03 -0.9213E+02E
 Epicentro: ZAPATOCA - SANTANDER                                               3
 ACTION:UP  11-02-08 08:41 OP:pat  STATUS:               ID:20110119071055 L   I
 2011-01-19-0707-58S.COL___137                                                 6
 STAT SP IPHASW D HRMM SECON CODA AMPLIT PERI AZIMU VELO SNR AR TRES W  DIS CAZ7
 BAR2 SZ EP   2    711 14.17                             168    -0.4 5   25 177 
 BAR2 SZ ES   2    711 29.20                             168    -0.1 5   25 177 
 BAR2 SZ I         711 30.79         5.6 0.31                            25 177 
 RUS  HZ EP   1    711 18.40                             141    -0.6 8  103 173 
 RUS  HZ I         711 19.24         1.5 0.30                           103 173 
 RUS  HN ES   2    711 37.19                             141     0.1 5  103 173 
 GRA  SZ IP        711 21.09                             134     0.610  126  20 
 GRA  SZ I         711 22.48         2.7 0.28                           126  20 
 OCA  SZ EP   1    711 22.82                             128    -0.6 7  158 355 
 OCA  SZ I         711 30.77         3.3 0.28                           158 355 
 CHI  HZ EP   2    711 32.98                             115    -0.2 4  249 194 
 CHI  HN ES   2    712  3.37                             115     1.1 4  249 194 
                                                                                
