 2011  619 0521  6.4 L   6.764 -73.142145.0  RSN 12 0.4 1.8LRSN                1
 GAP=156        0.79       3.8     6.0  6.2 -0.8389E+01  0.4579E+01  0.4213E+01E
 Epicentro: LOS SANTOS - SANTANDER                                             3
 ACTION:UP  11-07-14 19:06 OP:ep   STATUS:               ID:20110619052106 L   I
 2011-06-19-0520-00M.COL___126                                                 6
 STAT SP IPHASW D HRMM SECON CODA AMPLIT PERI AZIMU VELO SNR AR TRES W  DIS CAZ7
 BAR2 SZ EP   1    521 25.66                             172    -0.2 7   19 193 
 BAR2 SZ ES   1    521 40.67                             172    -0.4 7   19 193 
 BAR2 SZ I         521 43.31        25.9 0.27                            19 193 
 BTL  SZ EP   1    521 26.27                             171     0.3 7   22 321 
 GIR2 SZ EP   1    521 26.04                             166    -0.1 7   35 351 
 BRR  HZ IP     C  521 27.56                             152    -0.110   74 301 
 BRR  HE ES   1    521 44.69                             152     0.5 7   74 301 
 BRR  HZ I         521 47.32        15.2 0.33                            74 301 
 RUS  HZ EP   1    521 29.69                             145    -0.1 7   97 176 
 RUS  HN ES   2    521 48.43                             145     0.4 5   97 176 
 RUS  HZ I         521 50.12        14.0 0.42                            97 176 
 BRI  SZ EP   1    521 31.50                             140     1.0 7  112  20 
 BRI  SZ I         521 52.33         4.8 0.68                           112  20 
 GRA  SZ EP   1    521 31.56                             136    -0.4 7  129  17 
 GRA  SZ ES   1    521 51.52                             136    -0.3 7  129  17 
 GRA  SZ I         521 52.71         6.3 0.34                           129  17 
 OCA  SZ EP   2    521 35.11                             129     0.0 5  164 353 
 OCA  SZ ES   2    521 56.95                             129    -0.4 5  164 353 
 OCA  SZ I         522  3.01         8.4 0.42                           164 353 
 NOR  SZ EP   1    521 41.36                             118    -0.5 6  233 235 
 NOR  SE ES   2    522  9.54                             118     0.0 4  233 235 
 CHI  HZ EP   1    521 43.62                             117    -0.1 6  245 195 
 CHI  HE ES   2    522 13.06                             117     0.3 4  245 195 
 CHI  HZ I         522 15.64         5.5 0.31                           245 195 
 HEL  HZ EP   1    521 46.42                             115    -0.1 6  271 257 
 HEL  HE ES   2    522 17.69                             115    -0.1 4  271 257 
 HEL  HZ I         522 23.57         2.8 0.43                           271 257 
 PRA  HZ EP   1    522  0.04                             106     0.5 4  389 210 
 PRA  HE ES   2    522 41.04                             106     0.1 3  389 210 
                                                                                
