 2012  419 0833 29.6 L   6.764 -73.140144.0  RSN  6 0.3 1.3LRSN                1
 GAP=139        0.61       3.7     3.8  6.3 -0.1354E+01  0.3124E+01  0.9937E+00E
 Epicentro: LOS SANTOS - SANTANDER                                             3
 ACTION:UP  12-07-05 11:54 OP:tino STATUS:               ID:20120419083329 L   I
 2012-04-19-0830-00M.COL___187                                                 6
 STAT SP IPHASW D HRMM SECON CODA AMPLIT PERI AZIMU VELO AIN AR TRES W  DIS CAZ7
 BAR2 SZ EP   1    833 48.84                             172    -0.1 7   20 194 
 BAR2 SZ ES   1    834  3.84                             172    -0.2 7   20 194 
 BAR2 SZ I         834  4.86        10.4 0.30                            20 194 
 BRR  HE ES   1    834  7.61                             151     0.5 7   74 301 
 PAM  SZ EP        833 51.88                             150     0.110   80  37 
 PAM  SN ES   1    834  8.68                             150    -0.4 7   80  37 
 PAM  SZ I         834 10.52         1.8 0.47                            80  37 
 RUS  HZ EP   1    833 53.00                             145     0.2 7   97 176 
 RUS  HN ES   1    834 11.07                             145     0.1 7   97 176 
 RUS  HZ I         834 13.67         3.4 0.23                            97 176 
 ZAR  HN ES   1    834 27.25                             122    -0.2 6  206 293 
 NOR  SN ES   1    834 32.35                             118    -0.3 6  233 235 
                                                                                
