 2010 1219 0918 50.1 L   6.797 -73.102139.7  RSN  4 0.1 1.4LRSN                1
 GAP=174        0.29       3.5    14.2  4.0 -0.4193E+02  0.1119E+02 -0.1648E+01E
 Epicentro: LOS SANTOS - SANTANDER                                             3
 ACTION:UP  11-01-14 15:25 OP:pat  STATUS:               ID:20101219091850 L   I
 2010-12-19-0914-13S.COL___133                                                 6
 STAT SP IPHASW D HRMM SECON CODA AMPLIT PERI AZIMU VELO SNR AR TRES W  DIS CAZ7
 BAR2 SZ EP   1    919  9.03                             170     0.0 7   24 202 
 BAR2 SZ ES   2    919 23.77                             170    -0.1 5   24 202 
 BAR2 SZ I         919 26.96         6.6 0.53                            24 202 
 RUS  HZ EP   1    919 13.16                             143    -0.1 7  100 179 
 RUS  HN ES   2    919 31.41                             143     0.1 5  100 179 
 RUS  HZ I         919 33.42         1.8 0.46                           100 179 
 GRA  SZ EP   1    919 14.80                             136     0.0 7  125  15 
 GRA  SZ ES   2    919 34.05                             136     0.1 5  125  15 
 GRA  SZ I         919 38.69         4.2 0.59                           125  15 
 CHI  HZ EP   1    919 27.70                             116     0.1 6  250 196 
 CHI  HE ES   2    919 56.93                             116     0.1 4  250 196 
 CHI  HZ I         920  0.32         2.1 0.46                           250 196 
                                                                                
