 2016 1119 0803  0.6 L   6.826 -73.125140.6  RSN  9 0.4 1.7LRSN                1
 GAP=104        0.97       4.4     3.2  6.2  0.7787E-01  0.1088E+01  0.4990E+01E
 Epicentro: LOS SANTOS - SANTANDER                                             3
 ACTION:UPD 17-10-26 21:09 OP:lp   STATUS:               ID:20161119080300 L   I
 OLDACT:UP  16-11-19 16:56 OP:and  STATUS:               ID:20161119075740     3
 OLDACT:UP  16-11-19 16:54 OP:and  STATUS:               ID:20161119075740     3
 OLDACT:REG 16-11-19 13:12 OP:and  STATUS:               ID:20161119075740     3
 2016-11-19-0758-00M.COL___328                                                 6
 STAT SP IPHASW D HRMM SECON CODA AMPLIT PERI AZIMU VELO AIN AR TRES W  DIS CAZ7
 BAR2 EZ EP     C  8 3 19.25                             169   -0.4410 26.7 194 
 BAR2 EZ ES        8 3 34.01                             169   -0.5710 26.7 194 
 BAR2 EZ I         8 3 35.16        17.8 0.30            168           26.7 194 
 BRR  HZ EP     C  8 3 21.00                             151   -0.2410 71.9 296 
 BRR  HN ES        8 3 38.09                             151    0.7510 71.9 296 
 BRR  HZ I         8 3 43.72         8.9 0.16            150           71.9 296 
 PAM  EZ EP        8 3 21.97                             151   -0.0810 73.6  40 
 PAM  EN ES        8 3 38.56                             151   -0.2110 73.6  40 
 PAM  EZ I         8 3 41.76        11.3 0.51            154           73.6  40 
 PTB  HZ EP   9    8 3 26.09                             130   -1.33 0  151 258 
 PTB  HN ES        8 3 46.85                             132   -0.16 9  151 258 
 PTB  HZ I         8 3 49.86         8.1 0.10            130            151 258 
 TAM  HZ IP     D  8 3 27.70                             129   -0.04 9  154 106 
 TAM  HE ES        8 3 49.61                             129    0.70 9  154 106 
 ZAR  HZ EP        8 3 32.82                             121   -0.01 9  205 291 
 ZAR  HN ES        8 3 58.14                             121    0.17 9  205 291 
 ZAR  HZ I         8 4  3.07         6.3 0.09            122            205 291 
 NOR  HN ES        8 4  4.44                             117    0.07 8  238 234 
 NOR  HZ I         8 4  9.62         5.4 0.26            118            238 234 
 CHI  HN ES        8 4  7.99                             116    0.11 8  252 196 
 CHI  HZ I         8 4 12.65         1.6 0.16            117            252 196 
 PTGC HZ EP   4    8 3 42.71                             110   -1.74 0  311 159 
 PTGC HN ES   4    8 4 16.24                             110   -2.41 0  311 159 
 SJC  HZ EP   4    8 3 53.66                             105   -2.20 0  408 326 
 SJC  HN ES   4    8 4 35.26                             105   -3.71 0  408 326 
 SJC  HZ I         8 4 38.86         1.4 0.38            106            408 326 
                                                                                
