 2012  419 0128 24.0 L   6.746 -73.133142.1  RSN  7 0.3 2.0LRSN                1
 GAP=141        0.78       4.6     4.8  6.7  0.2330E+01  0.1104E+02  0.3222E+01E
 Epicentro: JORDAN - SANTANDER                                                 3
 ACTION:UPD 12-07-05 11:54 OP:tino STATUS:               ID:20120419012824 L   I
 2012-04-19-0120-00M.COL___187                                                 6
 STAT SP IPHASW D HRMM SECON CODA AMPLIT PERI AZIMU VELO AIN AR TRES W  DIS CAZ7
 BAR2 SZ IP        128 43.28                             172     0.110   18 198 
 BAR2 SZ I         128 43.58        25.5 0.09                            18 198 
 BAR2 SZ ES   1    128 57.67                             172    -0.4 7   18 198 
 BRR  HZ EP        128 45.19                             150     0.110   75 302 
 BRR  HZ I         128 45.55        30.3 0.10                            75 302 
 BRR  HE ES   1    129  1.85                             150     0.4 7   75 302 
 PAM  SZ EP   1    128 46.15                             149     0.0 7   81  36 
 PAM  SN ES   1    129  2.95                             149    -0.4 7   81  36 
 RUS  HZ EP        128 47.21                             145     0.210   95 177 
 RUS  HZ I         128 48.39         6.4 0.20                            95 177 
 RUS  HN ES   1    129  4.85                             145    -0.1 7   95 177 
 ZAR  HZ EP   1    128 55.78                             121    -0.9 6  208 294 
 ZAR  HN ES   1    129 22.38                             121     0.3 6  208 294 
 ZAR  HZ I         129 30.76        10.2 0.30                           208 294 
 NOR  SZ EP   1    128 59.56                             118     0.2 6  232 236 
 NOR  SE ES   2    129 26.55                             118    -0.3 4  232 236 
 HEL  HN ES   2    129 34.73                             114    -0.6 4  272 257 
 HEL  HZ I         129 42.33         7.3 0.50                           272 257 
                                                                                
