 2010  719 0211 48.9 L   6.819 -73.109150.3  RSN 15 0.5 4.1LRSN                1
 GAP=128        1.13       4.5     6.5  6.5 -0.1200E+02  0.5595E+01  0.2622E+01E
 Epicentro: LOS SANTOS - SANTANDER                                             3
 ACTION:UPD 10-12-01 15:18 OP:pat  STATUS:               ID:20100719021148 L   I
 2010-07-19-0210-36S.COL___120                                                 6
 STAT SP IPHASW D HRMM SECON CODA AMPLIT PERI AZIMU VELO AIN AR TRES W  DIS CAZ7
 BAR2 SZ IP        212  9.01                             170    -0.210   26 198 
 BAR2 SZ I         212  9.69      2118.2 0.37                            26 198 
 BAR2 SZ ES   1    212 24.66                             170    -0.3 7   26 198 
 GIR2 SZ IP        212  9.94                             168     0.810   30 342 
 GIR2 SZ ES   1    212 25.75                             168     0.9 7   30 342 
 BRR  HZ IP     C  212 10.74                             152     0.010   74 296 
 BRR  HN ES   1    212 27.26                             152    -0.4 7   74 296 
 BRR  HZ I         212 30.65      1286.4 0.41                            74 296 
 RUS  HZ IP     C  212 13.07                             144    -0.210  102 178 
 RUS  HE ES   1    212 31.68                             144    -0.6 7  102 178 
 RUS  HZ I         212 33.87       818.9 0.23                           102 178 
 GUE  SZ EP   1    212 13.57                             141    -0.3 7  114  10 
 GRA  SZ IP        212 14.64                             139     0.310  123  16 
 GRA  SZ ES   1    212 33.66                             139    -0.5 7  123  16 
 GRA  SZ I         212 36.88      1942.4 0.35                           123  16 
 OCA  SZ IP        212 17.12                             131    -0.3 9  159 352 
 OCA  SZ ES   1    212 39.70                             131     0.0 7  159 352 
 OCA  SZ I         212 43.17       972.1 0.09                           159 352 
 ROSC BZ EP   1    212 28.80                             117     1.1 6  257 212 
 ROSC BZ I         213  5.39       810.4 0.26                           257 212 
 HEL  HZ EP   1    212 29.21                             115    -0.7 6  277 256 
 HEL  HN ES   1    213  2.07                             115     0.3 6  277 256 
 HEL  HZ I         213  8.78       946.6 0.38                           277 256 
 GUY  SZ EP   1    212 33.35                             113     0.1 5  306 235 
 GUY  SN ES   1    213  7.39                             113    -0.5 5  306 235 
 GUY  SZ I         213 20.55      1676.2 0.49                           306 235 
 RREF HZ EP   1    212 35.61                             111    -0.2 5  326 230 
 RREF HZ I         213 17.75       745.4 0.47                           326 230 
 DBB  SZ EP   1    212 36.81                             110    -0.2 5  343 274 
 DBB  SZ I         213 15.61       127.7 0.57                           343 274 
 TOL  SZ EP   1    212 38.32                             110     0.5 5  348 225 
 SDV  BZ IP     D  212 38.40                             109    -0.2 6  356  50 
 SDV  BZ I         213 17.72       367.7 0.34                           356  50 
 PRA  HZ EP   1    212 42.57                             107    -0.5 4  396 210 
 PRA  HN ES   1    213 25.86                             107     0.6 4  396 210 
 PRA  HZ I         213 29.73       803.2 0.39                           396 210 
                                                                                
