 2012 1219 0532 46.9 L   7.087 -73.169140.6  RSN  4 0.2 1.5LRSN                1
 GAP=258        0.47       6.2     4.9  4.5  0.1075E+02  0.4082E+01 -0.4764E+01E
 Epicentro: GIRON - SANTANDER                                                  3
 ACTION:UPD 13-01-04 14:29 OP:ep   STATUS:               ID:20121219053246 L   I
 2012-12-19-0530-00M.COL___243                                                 6
 STAT SP IPHASW D HRMM SECON CODA AMPLIT PERI AZIMU VELO AIN AR TRES W  DIS CAZ7
 BAR2 SZ ES   1    533 22.75                             158    0.15 7 54.8 182 
 BRR  HZ EP     D  533  6.98                             156    0.1410 60.0 272 
 BRR  HE ES        533 22.23                             156   -0.2010 60.0 272 
 BRR  HZ I         533 33.80         6.6 0.62                          60.0 272 
 PTB  HZ EP        533 13.79                             129   -0.26 9  155 247 
 PTB  HZ I         533 14.74         4.7 0.13                           155 247 
 PTB  HN ES   1    533 35.40                             129    0.14 7  155 247 
 ZAR  HZ EP   1    533 17.82                             123    0.12 7  192 284 
 ZAR  HE ES   1    533 41.93                             123    0.17 7  192 284 
 ZAR  HZ I         533 48.61         2.8 0.35                           192 284 
                                                                                
