 2017  219 0102  3.6 L   6.754 -73.170144.4  RSN  5 0.4 1.3LRSN                1
 GAP=138        1.09       5.4     6.4  8.9 -0.1021E+02  0.1400E+02  0.2352E+01E
 Epicentro: LOS SANTOS - SANTANDER                                             3
 ACTION:UPD 17-05-24 15:37 OP:jn   STATUS:               ID:20170219010203 L   I
 OLDACT:UP  17-02-19 14:18 OP:edw  STATUS:               ID:20170219005747d    3
 OLDACT:DUP 17-02-19 13:38 OP:edw  STATUS:               ID:20170219005747d    3
 OLDACT:UP  17-02-19 13:18 OP:edw  STATUS:               ID:20170219005745     3
 OLDACT:UP  17-02-19 13:15 OP:edw  STATUS:               ID:20170219005745     3
 OLDACT:REG 17-02-19 12:17 OP:edw  STATUS:               ID:20170219005745     3
 2017-02-19-0058-00M.COL___358                                                 6
 STAT SP IPHASW D HRMM SECON CODA AMPLIT PERI AZIMU VELO AIN AR TRES W  DIS CAZ7
 BAR2 EZ EP        1 2 23.24                             173    0.3110 17.9 185 
 BAR2 EZ ES        1 2 38.13                             173    0.0910 17.9 185 
 BAR2 EZ I         1 2 39.62         4.3 0.14            170           17.9 185 
 PAM  EZ EP        1 2 25.89                             149   -0.0910 83.0  39 
 PAM  EN ES        1 2 42.97                             149   -0.4910 83.0  39 
 PAM  EZ I         1 2 44.88         9.3 0.52            151           83.0  39 
 RUS  HZ EP        1 2 27.32                             145    0.4910 95.7 174 
 RUS  HN ES        1 2 45.32                             145    0.3410 95.7 174 
 RUS  HZ I         1 2 46.97         1.9 0.42            144           95.7 174 
 PTB  HZ EP        1 2 30.23                             132    0.13 9  144 261 
 PTB  HN ES        1 2 50.73                             132   -0.07 9  144 261 
 PTB  HZ I         1 2 52.62         3.2 0.42            133            144 261 
 CHI  HE ES        1 3  8.33                             117   -1.11 8  243 195 
 CHI  HZ I         1 3 15.31         1.1 0.46            117            243 195 
                                                                                
