 2013 1219 0800 26.3 L   6.677 -73.268142.2  RSN  4 0.1 0.9LRSN                1
 GAP=181        0.46       3.5     3.5  3.9  0.6462E+01  0.3511E+01  0.2120E+01E
 Epicentro: GALAN - SANTANDER                                                  3
 ACTION:UPD 14-01-13 10:19 OP:ep   STATUS:               ID:20131219080026 L   I
 OLDACT:REG 13-12-19 08:18 OP:jn   STATUS:               ID:20131219080000     3
 2013-12-19-0800-00M.COL___285                                                 6
 STAT SP IPHASW D HRMM SECON CODA AMPLIT PERI AZIMU VELO AIN AR TRES W  DIS CAZ7
 BAR2 SZ ES        8 0 59.92                             174   -0.2310 13.3 135 
 BRR  HZ EP        8 0 46.80                             153   -0.0710 68.3 314 
 BRR  HN ES        8 1  3.16                             153    0.2210 68.3 314 
 RUS  HZ EP        8 0 48.85                             146   -0.0110 89.1 167 
 RUS  HN ES        8 1  6.64                             146    0.1610 89.1 167 
 RUS  HZ I         8 1  8.56         1.0 0.62            145           89.1 167 
 PTB  HZ EP        8 0 51.61                             134    0.0510  132 263 
 PTB  HN ES        8 1 11.18                             134   -0.1110  132 263 
 PTB  HZ I         8 1 13.37         1.4 0.12            134            132 263 
                                                                                
