 2013 1119 0405  7.2 L   6.787 -73.107150.6  RSN  6 0.4 1.5LRSN                1
 GAP=204        0.98       4.2     6.8  8.2  0.9689E+01 -0.6944E+01 -0.8809E+01E
 Epicentro: LOS SANTOS - SANTANDER                                             3
 ACTION:UPD 14-01-09 16:29 OP:ep   STATUS:               ID:20131119040507 L   I
 OLDACT:REG 13-11-19 07:17 OP:mh   STATUS:               ID:20131119040000     3
 2013-11-19-0400-00M.COL___279                                                 6
 STAT SP IPHASW D HRMM SECON CODA AMPLIT PERI AZIMU VELO AIN AR TRES W  DIS CAZ7
 BRR  HZ EP        4 5 29.59                             152    0.5010 75.6 298 
 BRR  HN ES        4 5 46.40                             152    0.2110 75.6 298 
 RUS  HZ EP        4 5 30.91                             145   -0.3810 99.0 178 
 RUS  HE ES        4 5 49.95                             145   -0.1510 99.0 178 
 RUS  HZ I         4 5 51.41         1.3 0.39            144           99.0 178 
 PTB  HZ EP        4 5 34.52                             132   -0.37 9  152 260 
 PTB  HN ES        4 5 55.87                             132   -0.63 9  152 260 
 PTB  HZ I         4 6  1.48         3.4 0.26            129            152 260 
 SPBC HZ EP        4 5 36.42                             130    0.22 9  165 220 
 SPBC HN ES        4 5 59.39                             130    0.55 9  165 220 
 SPBC HZ I         4 6  5.91         4.5 0.33            127            165 220 
 ZAR  HZ EP   1    4 5 41.21                             123    0.82 6  208 292 
 ZAR  HN ES   1    4 6  6.10                             123   -0.20 6  208 292 
 ZAR  HZ I         4 6 12.06         3.1 0.16            121            208 292 
 SML  HZ EP   1    4 5 44.00                             118   -0.41 6  247 335 
 SML  HE ES        4 6 13.36                             118   -0.08 8  247 335 
 SML  HZ I         4 6 16.28         3.5 0.09            118            247 335 
                                                                                
