 2015  819 0755 48.8 L   6.551 -73.444120.5  RSN 10 0.3 1.8LRSN                1
 GAP= 77        0.65       1.9     2.7  4.5 -0.1041E+01  0.4222E+01 -0.1714E+01E
 Epicentro: HATO - SANTANDER                                                   3
 ACTION:UPD 15-09-15 23:03 OP:cam  STATUS:               ID:20150819075548 L   I
 OLDACT:DUP 15-08-19 14:58 OP:spq  STATUS:               ID:20150819074750d    3
 2015-08-19-0747-49M.COL___334                                                 6
 STAT SP IPHASW D HRMM SECON CODA AMPLIT PERI AZIMU VELO AIN AR TRES W  DIS CAZ7
 BAR2 EZ EP        756  5.55                             166   -0.0310 29.3  81 
 BAR2 EZ ES   1    756 18.40                             166   -0.25 7 29.3  81 
 BAR2 EZ I         756 19.11        23.4 0.20            172           29.3  81 
 BRR  HZ EP        756  6.76                             148   -0.3410 68.2 334 
 BRR  HN ES        756 21.53                             148    0.1610 68.2 334 
 BRR  HZ I         756 30.32         6.6 0.12            148           68.2 334 
 RUS  HZ EP        756  8.71                             144   -0.1010 83.0 151 
 RUS  HE ES   1    756 24.66                             144    0.25 7 83.0 151 
 RUS  HZ I         756 25.49         8.0 0.28            153           83.0 151 
 SPBC HZ EP        756 11.22                             132   -0.2010  121 215 
 SPBC HE ES        756 29.27                             132    0.2110  121 215 
 SPBC HZ I         756 34.45        13.8 0.28            137            121 215 
 OCA  HZ EP   1    756 18.78                             119    0.67 7  187   4 
 OCA  HE ES        756 41.31                             119    0.36 9  187   4 
 OCA  HZ I         756 46.64        12.9 0.22            123            187   4 
 ZAR  HZ EP        756 17.91                             119   -0.07 9  188 304 
 ZAR  HE ES        756 40.62                             119   -0.11 9  188 304 
 ZAR  HZ I         756 46.22         5.5 0.20            122            188 304 
 NOR  HN ES        756 41.30                             118   -0.32 9  192 235 
 NOR  HZ I         756 45.78         6.1 0.20            122            192 235 
 HEL  HZ EP   1    756 24.01                             113    0.47 6  234 260 
 HEL  HN ES   1    756 50.62                             113   -0.01 6  234 260 
 HEL  HZ I         756 55.22         2.5 0.54            117            234 260 
 GUY2CHZ EP   4    756 28.02                             111    1.59 0  258 236 
 GUY2CHE ES   1    756 56.37                             111    0.59 6  258 236 
 GUY2CHZ I         757  5.72         3.2 0.46                           258 236 
 SML  HZ EP        756 25.45                             110   -0.36 8  258 344 
 SML  HE ES   1    756 54.58                             110   -0.10 6  258 344 
 SML  HZ I         756 59.29         8.1 0.10            114            258 344 
                                                                                
