 2010 1119 0248 59.5 L   6.895 -72.877137.6  RSN  4 0.3 1.4LRSN                1
 GAP=267        0.64       8.8    16.6 10.2  0.1113E+03 -0.1043E+03 -0.3791E+02E
 Epicentro: GUACA - SANTANDER                                                  3
 ACTION:UP  10-12-17 16:53 OP:REBC STATUS:               ID:20101119024859 L   I
 2010-11-19-0245-11S.COL___126                                                 6
 STAT SP IPHASW D HRMM SECON CODA AMPLIT PERI AZIMU VELO SNR AR TRES W  DIS CAZ7
 BTL  SZ EP   1    249 18.29                             162    -0.4 7   43 274 
 BTL  SZ ES   1    249 33.75                             162     0.0 7   43 274 
 BAR2 SZ EP   1    249 19.39                             160     0.5 7   48 225 
 BAR2 SZ I         249 35.27         5.5 0.27                            48 225 
 BRR  HZ EP   1    249 21.28                             143    -0.1 7   95 284 
 BRR  HE ES   1    249 38.44                             143     0.0 7   95 284 
 BRR  HZ I         249 39.77         6.6 0.21                            95 284 
 RUS  HZ EP   1    249 23.41                             139     0.0 7  113 192 
 RUS  HE ES   1    249 41.95                             139    -0.1 7  113 192 
 RUS  HZ I         249 42.80         2.3 0.28                           113 192 
                                                                                
