 2012  819 0812 24.2 L   6.783 -73.145145.8  RSN  6 0.2 1.7LRSN                1
 GAP=137        0.57       3.2     2.9  5.8 -0.1151E+00  0.3444E+01 -0.4054E+00E
 Epicentro: LOS SANTOS - SANTANDER                                             3
 ACTION:UPD 12-09-10 11:57 OP:ep   STATUS:               ID:20120819081224 L   I
 2012-08-19-0810-00M.COL___217                                                 6
 STAT SP IPHASW D HRMM SECON CODA AMPLIT PERI AZIMU VELO AIN AR TRES W  DIS CAZ7
 BAR2 SZ EP   1    812 43.62                             171   -0.14 7 21.5 191 
 BAR2 SZ ES   1    812 58.54                             171   -0.51 7 21.5 191 
 BAR2 SZ I         813  0.01        18.0 0.23                          21.5 191 
 BRR  HZ EP   1    812 45.39                             152    0.02 7 72.1 300 
 BRR  HN ES   1    813  2.31                             152    0.40 7 72.1 300 
 BRR  HZ I         813  4.75         8.5 0.15                          72.1 300 
 PAM  SZ EP   1    812 46.51                             150    0.04 7 78.8  39 
 PAM  SZ I         812 46.84        10.8 0.20                          78.8  39 
 PAM  SN ES        813  3.86                             150    0.0010 78.8  39 
 RUS  HZ EP   1    812 47.61                             144   -0.17 7 98.7 176 
 RUS  HN ES        813  6.52                             144    0.3210 98.7 176 
 RUS  HZ I         813  7.42         4.9 0.21                          98.7 176 
 PTB  HN ES        813 11.95                             132   -0.16 9  147 260 
 ZAR  HN ES   1    813 22.10                             122    0.05 6  205 293 
                                                                                
