 2014  119 0410 48.4 L   6.807 -73.170147.4  RSN  6 0.1 1.7LRSN                1
 GAP=180        0.41       1.5     2.6  3.9  0.5018E-01  0.9924E+00 -0.2129E+01E
 Epicentro: LOS SANTOS - SANTANDER                                             3
 ACTION:UPD 14-03-13 09:56 OP:ep   STATUS:               ID:20140119041048 L   I
 OLDACT:REG 14-01-19 07:50 OP:cam  STATUS:               ID:20140119041000     3
 2014-01-19-0410-00M.COL___285                                                 6
 STAT SP IPHASW D HRMM SECON CODA AMPLIT PERI AZIMU VELO AIN AR TRES W  DIS CAZ7
 BAR2 SZ EP        411  8.24                             170    0.0410 23.8 183 
 BAR2 SZ ES        411 23.43                             170   -0.2410 23.8 183 
 BAR2 SZ I         411 24.39        19.3 0.24            173           23.8 183 
 RUS  HZ EP        411 12.20                             144   -0.1410  102 175 
 RUS  HN ES        411 31.26                             144    0.2110  102 175 
 RUS  HZ I         411 32.67         4.0 0.40            147            102 175 
 PTB  HZ EP   4    411 16.44                             133    1.20 0  145 258 
 PTB  HN ES        411 36.16                             133   -0.04 9  145 258 
 OCA  HZ EP   2    411 16.64                             130   -0.06 5  159 354 
 OCA  HN ES        411 38.99                             130    0.18 9  159 354 
 OCA  HZ I         411 43.30         3.5 0.20            130            159 354 
 SPBC HN ES        411 39.20                             130    0.08 9  162 218 
 SML  HZ EP   1    411 24.81                             118   -0.07 6  242 336 
 SML  HE ES        411 53.33                             118   -0.04 8  242 336 
 SML  HZ I         411 57.35         5.1 0.22            118            242 336 
                                                                                
