 2015 1219 0925 30.8 L   6.818 -73.134146.6  RSN  7 0.4 1.9LRSN                1
 GAP=184        1.11       3.7     6.8  7.2  0.5013E+01  0.4453E+01 -0.6327E+01E
 Epicentro: LOS SANTOS - SANTANDER                                             3
 ACTION:UPD 16-02-04 15:06 OP:cam  STATUS:               ID:20151219092530 L   I
 OLDACT:REG 15-12-19 12:02 OP:mh   STATUS:               ID:20151219091748     3
 2015-12-19-0917-48M.COL___315                                                 6
 STAT SP IPHASW D HRMM SECON CODA AMPLIT PERI AZIMU VELO AIN AR TRES W  DIS CAZ7
 BAR2 EZ EP        925 50.71                             170    0.1210 25.5 192 
 BAR2 EZ ES        926  5.62                             170   -0.4010 25.5 192 
 BAR2 EZ I         926  7.37        14.7 0.14            170           25.5 192 
 BRR  HZ EP        925 52.55                             153    0.4910 71.4 297 
 BRR  HN ES        926  9.49                             153    0.8510 71.4 297 
 BRR  HZ I         926 13.06         8.4 0.30            150           71.4 297 
 RUS  HZ EP        925 54.70                             143   -0.0810  102 177 
 RUS  HE ES        926 13.34                             143   -0.1410  102 177 
 RUS  HZ I         926 14.58        10.0 0.32            147            102 177 
 OCA  HZ EP        925 59.65                             130    0.63 9  158 353 
 OCA  HN ES        926 20.55                             130   -0.47 9  158 353 
 OCA  HZ I         926 24.47         9.2 0.16            131            158 353 
 SPBC HZ EP        925 59.77                             129    0.17 9  166 219 
 SPBC HN ES        926 21.74                             129   -0.31 9  166 219 
 SPBC HZ I         926 24.38        16.6 0.22            130            166 219 
 ZAR  HZ EP        926  2.77                             122   -0.59 9  204 291 
 ZAR  HN ES        926 28.74                             122   -0.00 9  204 291 
 ZAR  HZ I         926 34.51         4.8 0.24            123            204 291 
 SML  HZ EP        926  7.40                             118    0.05 8  242 335 
 SML  HN ES        926 35.12                             118   -0.73 8  242 335 
 SML  HZ I         926 40.42        10.0 0.10            119            242 335 
                                                                                
