 2017  119 0032 48.4 L   6.738 -73.209154.5  RSN  4 0.2 1.5LRSN                1
 GAP=225        0.65       5.9     5.5  7.2  0.2270E+02 -0.5178E+01 -0.1009E+02E
 Epicentro: VILLANUEVA - SANTANDER                                             3
 ACTION:UPD 17-05-22 16:01 OP:jn   STATUS:               ID:20170119003248 L   I
 OLDACT:REG 17-01-19 13:12 OP:dani STATUS:               ID:20170119002742     3
 2017-01-19-0028-00M.COL___337                                                 6
 STAT SP IPHASW D HRMM SECON CODA AMPLIT PERI AZIMU VELO AIN AR TRES W  DIS CAZ7
 BRR  HZ EP        033 10.12                             155   -0.2910 69.0 306 
 BRR  HE ES   1    033 27.54                             155   -0.02 7 69.0 306 
 BRR  HZ I         033 27.86        12.2 0.34            153           69.0 306 
 RUS  HZ EP        033 12.96                             147    0.3210 94.5 172 
 RUS  HN ES        033 31.52                             147    0.0010 94.5 172 
 RUS  HZ I         033 32.85         3.1 0.40            145           94.5 172 
 PTB  HZ EP        033 15.23                             136   -0.19 9  140 261 
 PTB  HN ES        033 36.31                             136   -0.17 9  140 261 
 PTB  HZ I         033 40.96         2.4 0.16            133            140 261 
 ZAR  HE ES        033 46.98                             125    0.41 9  200 295 
                                                                                
