 2015  719 0949 26.0 L   6.781 -73.170134.0  RSN  6 0.3 1.4LRSN                1
 GAP=180        0.73       2.9     4.2  6.0  0.1290E+01  0.1509E+02 -0.4055E-03E
 Epicentro: LOS SANTOS - SANTANDER                                             3
 ACTION:UPD 15-09-08 21:49 OP:cam  STATUS:               ID:20150719094926 L   I
 OLDACT:DUP 15-07-19 19:59 OP:spq  STATUS:               ID:20150719093746d    3
 2015-07-19-0937-45M.COL___340                                                 6
 STAT SP IPHASW D HRMM SECON CODA AMPLIT PERI AZIMU VELO AIN AR TRES W  DIS CAZ7
 BAR2 EZ EP        949 43.89                             171   -0.2510 20.9 184 
 BAR2 EZ ES        949 58.48                             171    0.1710 20.9 184 
 BAR2 EZ I         949 59.92         4.7 0.29            171           20.9 184 
 RUS  HZ EP        949 48.13                             142   -0.3210 98.7 174 
 RUS  HE ES        950  6.19                             142    0.2110 98.7 174 
 RUS  HZ I         950  8.91         1.1 0.28            147           98.7 174 
 OCA  HZ EP   4    949 48.82                             126   -4.75 0  162 354 
 OCA  HN ES        950 15.00                             126   -0.09 9  162 354 
 OCA  HZ I         950 20.09         4.9 0.28            129            162 354 
 ZAR  HZ EP        949 58.00                             120    0.50 9  202 293 
 ZAR  HN ES        950 22.09                             120    0.01 9  202 293 
 ZAR  HZ I         950 28.76         5.2 0.44            121            202 293 
 HEL  HZ EP        950  4.92                             113   -0.34 8  269 256 
 HEL  HE ES        950 35.67                             113   -0.23 8  269 256 
 HEL  HZ I         950 42.51         2.1 0.42            115            269 256 
 GUY2CHZ EP        950  9.32                             110    0.65 7  298 235 
 GUY2CHN ES        950 41.75                             110   -0.23 7  298 235 
 GUY2CHZ I         950 50.66         1.1 0.55                           298 235 
                                                                                
