 2012 1019 0037 32.9 L   6.468 -73.504 14.8  RSN  6 0.2 1.6LRSN                1
 GAP=163        0.44       2.0     3.8  5.6  0.5680E+01  0.1558E+02  0.4929E+01E
 Epicentro: SIMACOTA - SANTANDER                                               3
 ACTION:UPD 12-11-22 17:04 OP:ep   STATUS:               ID:20121019003732 L   I
 2012-10-19-0030-00M.COL___230                                                 6
 STAT SP IPHASW D HRMM SECON CODA AMPLIT PERI AZIMU VELO AIN AR TRES W  DIS CAZ7
 BAR2 SZ EP   1    037 39.46                             109   -0.31 7 38.1  69 
 BAR2 SZ I         037 45.88        22.1 0.23                          38.1  69 
 BRR  HZ EP   1    037 44.83                              99   -0.04 7 74.3 342 
 BRR  HZ I         037 52.39        15.4 0.32                          74.3 342 
 BRR  HE ES   1    037 54.24                              99    0.02 7 74.3 342 
 GIR2 SZ EP   1    037 45.25                              99    0.02 7 75.7  27 
 RUS  HZ EP        037 46.26                              99    0.2010 78.8 144 
 RUS  HN ES   1    037 56.15                              99   -0.19 7 78.8 144 
 RUS  HN I         037 56.55        40.0 0.32                          78.8 144 
 PAM  SZ EP   1    037 54.18                              95    0.25 7  131  43 
 PAM  SZ I         038 10.94         6.7 0.18                           131  43 
 ZAR  HN ES   1    038 22.27                              56   -0.10 7  188 307 
 ZAR  HN I         038 23.96         9.0 0.32                           188 307 
                                                                                
