 2012  519 0722 20.8 L   6.816 -73.138147.5  RSN  9 0.5 2.5LRSN                1
 GAP=184        1.19       7.9    10.6  9.6  0.2863E+02  0.2119E+02 -0.8144E+01E
 Epicentro: LOS SANTOS - SANTANDER                                             3
 ACTION:UP  12-07-05 12:06 OP:pat  STATUS:               ID:20120519072220 L   I
 2012-05-19-0720-00M.COL___200                                                 6
 STAT SP IPHASW D HRMM SECON CODA AMPLIT PERI AZIMU VELO SNR AR TRES W  DIS CAZ7
 BAR2 SZ IP        722 40.81                             170     0.210   25 191 
 BAR2 SZ ES   1    722 55.73                             170    -0.4 7   25 191 
 BAR2 SZ I         722 57.08        58.6 0.18                            25 191 
 BRR  HZ EP        722 42.56                             153     0.510   71 297 
 BRR  HE ES   1    722 58.97                             153     0.2 7   71 297 
 BRR  HZ I         723  1.08        56.2 0.14                            71 297 
 RUS  HZ EP        722 44.79                             144     0.010  102 177 
 RUS  HE ES   1    723  3.70                             144     0.1 7  102 177 
 PTB  HZ EP        722 47.11                             132    -0.9 9  149 258 
 PTB  HZ I         723 14.59        29.3 0.30                           149 258 
 OCA  HZ EP        722 48.84                             130    -0.2 9  159 353 
 OCA  HZ I         723 15.98        48.6 0.16                           159 353 
 ZAR  HZ EP   2    722 53.28                             123    -0.1 4  204 292 
 ZAR  HN ES   2    723 18.34                             123    -0.4 4  204 292 
 ZAR  HZ I         723 27.22        23.4 0.32                           204 292 
 CHI  HZ EP   2    722 58.09                             117    -0.7 4  251 195 
 CHI  HZ I         723 31.35        22.2 0.38                           251 195 
 HEL  HZ EP        723  2.12                             115     0.9 8  273 255 
 HEL  HZ I         723 39.43        16.8 0.52                           273 255 
 DBB  SZ EP   3    723  7.95                             110    -0.4 2  340 274 
                                                                                
