 2016  119 0306  7.5 L   6.849 -73.150141.9  RSN 25 0.6 2.6LRSN                1
 GAP= 69        1.34       3.1     3.5  6.1 -0.1731E+01  0.7762E+01 -0.4944E+00E
 Epicentro: LOS SANTOS - SANTANDER                                             3
 ACTION:UPD 16-03-09 23:26 OP:cam  STATUS:               ID:20160119030607 L   I
 OLDACT:UP  16-01-19 15:28 OP:ar   STATUS:               ID:20160119025749     3
 OLDACT:UP  16-01-19 15:26 OP:ar   STATUS:               ID:20160119025749     3
 OLDACT:REG 16-01-19 12:47 OP:ar   STATUS:               ID:20160119025749     3
 2016-01-19-0257-49M.COL___325                                                 6
 STAT SP IPHASW D HRMM SECON CODA AMPLIT PERI AZIMU VELO AIN AR TRES W  DIS CAZ7
 BAR2 EZ EP        3 6 26.86                             168    0.0910 28.6 187 
 BAR2 EZ ES        3 6 41.27                             168   -0.5510 28.6 187 
 BAR2 EZ I         3 6 43.01        71.8 0.18            168           28.6 187 
 PAM  EZ IP     D  3 6 29.71                             151    0.6410 73.6  43 
 PAM  EN ES        3 6 46.80                             151    0.9010 73.6  43 
 PAM  EZ I         3 6 49.15        42.5 0.56            155           73.6  43 
 RUS  HZ EP        3 6 30.78                             141   -0.4910  106 176 
 RUS  HN ES        3 6 49.35                             141   -0.4710  106 176 
 RUS  HZ I         3 6 50.20        45.0 0.30            144            106 176 
 PTB  HZ EP        3 6 33.63                             131   -0.57 9  148 257 
 PTB  HN ES        3 6 54.38                             131   -0.66 9  148 257 
 PTB  HZ I         3 6 57.49        44.8 0.34            130            148 257 
 OCA  HZ EP        3 6 35.37                             130    0.39 9  155 353 
 OCA  HN ES        3 6 57.01                             130    0.58 9  155 353 
 OCA  HZ I         3 7  1.57       105.0 0.22            131            155 353 
 TAM  HZ IP     C  3 6 35.09                             129    0.05 9  157 107 
 TAM  HE ES        3 6 56.34                             129   -0.20 9  157 107 
 TAM  HZ I         3 6 57.32        29.1 0.54            135            157 107 
 SPBC HZ EP        3 6 35.81                             127   -0.26 9  167 218 
 SPBC HE ES        3 6 57.91                             127   -0.46 9  167 218 
 SPBC HZ I         3 7  4.54        62.9 0.10            128            167 218 
 ZAR  HZ EP        3 6 40.18                             122    0.75 9  202 291 
 ZAR  HN ES   4    3 7  6.28                             122    1.94 0  202 291 
 ZAR  HZ I         3 7 11.29        61.3 0.46            122            202 291 
 NOR  HZ EP        3 6 43.28                             117   -0.02 8  238 233 
 NOR  HN ES        3 7 11.62                             117    0.39 8  238 233 
 NOR  HZ I         3 7 17.17        33.5 0.22            118            238 233 
 SML  HZ EP        3 6 43.21                             117   -0.13 8  239 335 
 SML  HE ES        3 7 11.01                             117   -0.29 8  239 335 
 SML  HZ I         3 7 19.71        52.1 0.10            118            239 335 
 CHI  HZ EP        3 6 44.90                             116   -0.63 8  254 195 
 CHI  HN ES        3 7 15.82                             116    0.61 8  254 195 
 CHI  HZ I         3 7 20.23        13.6 0.26            118            254 195 
 ROSC BZ EP        3 6 46.96                             115    1.08 8  257 210 
 ROSC BN ES   4    3 7 17.98                             115    2.14 0  257 210 
 ROSC BZ I         3 7 22.76        28.6 0.50            117            257 210 
 HEL  HZ EP        3 6 48.72                             114    1.11 8  273 255 
 HEL  HN ES        3 7 19.28                             114    0.38 8  273 255 
 HEL  HZ I         3 7 25.63        25.5 0.38            115            273 255 
 URE  HZ EP        3 6 47.22                             113   -0.88 7  281 291 
 URE  HN ES        3 7 18.85                             113   -0.92 7  281 291 
 URE  HZ I         3 7 31.72        30.8 0.20            114            281 291 
 SOCV BZ EP        3 6 48.80                             111   -1.27 7  299  58 
 SOCV BN ES   4    3 7 20.76                             111   -2.53 0  299  58 
 GUY2CHZ EP        3 6 51.59                             111    0.36 7  304 234 
 GUY2CHN ES        3 7 25.97                             111    0.61 7  304 234 
 GUY2CHZ I         3 7 33.43        20.8 0.30                           304 234 
 PTGC HZ EP   4    3 6 49.87                             110   -1.90 0  314 159 
 PTGC HN ES   4    3 7 23.10                             110   -3.21 0  314 159 
 PTGC HZ I         3 7 24.91        17.7 0.34            113            314 159 
 ELA  HZ EP   4    3 6 56.48                             109    1.94 0  332 229 
 ELA  HN ES   4    3 7 34.91                             109    3.66 0  332 229 
 ELA  HZ I         3 7 40.28        15.5 0.74            110            332 229 
 CBOC HZ EP        3 6 55.03                             109    0.64 7  335 251 
 CBOC HE ES   4    3 7 29.43                             109   -1.54 0  335 251 
 CBOC HZ I         3 7 34.64         6.6 0.60            110            335 251 
 DBB  SZ EP        3 6 54.84                             109    0.13 7  339 273 
 DBB  SZ ES        3 7 30.91                             109   -0.63 7  339 273 
 MON  HZ EP   4    3 6 54.44                             108   -1.47 0  350 308 
 MON  HE ES   4    3 7 32.10                             108   -1.57 0  350 308 
 MON  HZ I         3 7 46.82         9.1 0.44            109            350 308 
 ANIL HZ EP        3 6 58.38                             107    0.82 6  361 224 
 ANIL HN ES        3 7 36.76                             107    0.15 6  361 224 
 ANIL HZ I         3 7 43.16        34.0 0.30            109            361 224 
 PRA  HZ EP        3 7  0.50                             105   -0.90 6  397 209 
 PRA  HN ES        3 7 43.78                             105    0.32 6  397 209 
 PRA  HZ I         3 7 50.45        13.3 0.20            107            397 209 
 SJC  HZ EP        3 7  1.50                             105   -0.85 6  404 327 
 SJC  HN ES   4    3 7 42.25                             105   -2.90 0  404 327 
 SJC  HZ I         3 7 46.94        13.0 0.48            106            404 327 
 PAL  HZ EP        3 7  2.82                             105    0.02 6  408 238 
 PAL  HN ES   4    3 7 44.33                             105   -1.62 0  408 238 
 PAL  HZ I         3 7 51.66         7.5 0.64            106            408 238 
                                                                                
