 2011  619 0541 12.3 L   6.779 -73.079133.9  RSN  6 0.2 1.4LRSN                1
 GAP=166        0.50       3.9     5.6  7.1  0.4685E+00 -0.4512E+01  0.5672E+01E
 Epicentro: LOS SANTOS - SANTANDER                                             3
 ACTION:UP  11-07-14 19:06 OP:ep   STATUS:               ID:20110619054112 L   I
 2011-06-19-0539-39S.COL___140                                                 6
 STAT SP IPHASW D HRMM SECON CODA AMPLIT PERI AZIMU VELO SNR AR TRES W  DIS CAZ7
 BAR2 SZ EP   1    541 30.32                             169    -0.1 7   24 209 
 BAR2 SZ ES   2    541 44.33                             169    -0.3 5   24 209 
 BAR2 SZ I         541 47.28         6.4 0.28                            24 209 
 BTL  SZ EP   1    541 30.38                             168    -0.1 7   26 306 
 BRR  HZ EP   1    541 32.87                             148     0.3 7   79 297 
 BRR  HE ES   1    541 48.62                             148     0.1 7   79 297 
 BRR  HZ I         541 51.13         6.4 0.14                            79 297 
 RUS  HZ EP   1    541 34.75                             142     0.1 7   98 180 
 RUS  HN ES   2    541 52.48                             142     0.3 5   98 180 
 RUS  HZ I         541 54.43         4.6 0.31                            98 180 
 GRA  SZ ES   2    541 55.23                             134    -0.1 5  126  14 
 GRA  SZ I         541 56.93         3.3 0.55                           126  14 
 NOR  SN ES   2    542 15.11                             115    -0.5 4  239 236 
                                                                                
