 2010  819 0524 22.2 L   6.785 -73.088140.0  RSN 15 0.5 2.4LRSN                1
 GAP=130        1.26       4.0     7.1  7.4 -0.8750E+01  0.6683E+01  0.2433E+01E
 Epicentro: LOS SANTOS - SANTANDER                                             3
 ACTION:UP  10-09-07 10:56 OP:vdl  STATUS:               ID:20100819052422 L   I
 2010-08-19-0523-45S.COL___117                                                 6
 STAT SP IPHASW D HRMM SECON CODA AMPLIT PERI AZIMU VELO SNR AR TRES W  DIS CAZ7
 BAR2 SZ EP        524 41.04                             170    -0.110   24 206 
 BAR2 SZ ES   1    524 55.10                             170    -0.8 7   24 206 
 BAR2 SZ I         524 57.54        67.2 0.35                            24 206 
 BTL  SZ EP        524 41.14                             169     0.010   25 307 
 GIR2 SZ EP        524 41.13                             165    -0.110   35 340 
 BRR  HZ EP        524 42.87                             149    -0.210   78 297 
 BRR  HZ I         524 43.09        53.1 0.19                            78 297 
 BRR  HN ES        524 59.65                             149     0.210   78 297 
 RUS  HZ EP        524 45.10                             143    -0.110   99 180 
 RUS  HN ES        525  3.18                             143     0.010   99 180 
 RUS  HZ I         525  5.96        36.0 0.20                            99 180 
 GUE  SZ EP        524 46.07                             138    -0.310  117   9 
 GRA  SZ EP        524 47.79                             135     0.910  126  14 
 GRA  SZ ES   1    525  6.81                             135     0.6 7  126  14 
 GRA  SZ I         525  8.24        20.2 0.37                           126  14 
 OCA  SZ EP        524 49.60                             127    -0.7 9  163 351 
 OCA  SZ ES   1    525 12.38                             127     0.2 7  163 351 
 OCA  SZ I         525 17.20        31.2 0.41                           163 351 
 CHI  HZ EP   1    524 59.38                             116    -0.2 6  249 197 
 CHI  HN ES   1    525 29.39                             116     0.6 6  249 197 
 CHI  HZ I         525 33.32        10.1 0.98                           249 197 
 ROSC BZ EP        525  0.94                             115     0.7 8  255 212 
 ROSC BZ I         525 36.07        13.6 0.19                           255 212 
 HEL  HZ EP   1    525  2.37                             113    -0.4 6  278 256 
 HEL  HN ES   1    525 34.48                             113     0.1 6  278 256 
 HEL  HZ I         525 39.66        13.7 0.34                           278 256 
 RREF HZ EP        525  9.61                             109     1.1 7  326 230 
 RREF HN ES   1    525 43.75                             109    -0.9 5  326 230 
 RREF HZ I         525 52.96        18.0 0.52                           326 230 
 DBB  SZ EP   2    525  9.57                             108    -0.6 3  346 274 
 SDV  BZ EP   2    525 10.48                             107    -1.1 3  357  49 
 SDV  BZ I         525 51.72         4.8 0.34                           357  49 
 PRA  HZ EP   1    525 15.34                             105    -0.4 4  394 211 
 PRA  HN ES   1    525 57.33                             105    -0.1 4  394 211 
 PRA  HZ I         526  1.85        14.4 0.58                           394 211 
                                                                                
