 2012 1219 0900  1.0 L   6.741 -73.157149.7  RSN  5 0.1 1.3LRSN                1
 GAP=232        0.40       3.7     3.4  4.1  0.4042E+01 -0.3734E+00 -0.1893E+01E
 Epicentro: JORDAN - SANTANDER                                                 3
 ACTION:UPD 13-01-04 14:29 OP:ep   STATUS:               ID:20121219090001 L   I
 2012-12-19-0900-00M.COL___243                                                 6
 STAT SP IPHASW D HRMM SECON CODA AMPLIT PERI AZIMU VELO AIN AR TRES W  DIS CAZ7
 BAR2 SZ EP        9 0 21.04                             173    0.0410 16.7 190 
 BAR2 SZ I         9 0 37.36         6.2 0.20                          16.7 190 
 BRR  HZ EP        9 0 22.75                             152    0.0410 73.5 303 
 BRR  HN ES        9 0 39.57                             152   -0.0710 73.5 303 
 BRR  HZ I         9 0 44.23         3.1 0.28                          73.5 303 
 RUS  HN ES   1    9 0 43.21                             146    0.03 7 94.2 175 
 RUS  HN I         9 0 44.61         3.3 0.25                          94.2 175 
 PTB  HZ EP        9 0 27.85                             133   -0.24 9  145 261 
 PTB  HE ES        9 0 49.31                             133    0.09 9  145 261 
 PTB  HZ I         9 0 51.58         1.8 0.12                           145 261 
 ZAR  HZ EP   1    9 0 34.12                             123    0.26 6  206 294 
 ZAR  HZ I         9 1  4.84         1.5 0.42                           206 294 
                                                                                
