 2015  719 0412 29.0 L   6.829 -73.145135.6  RSN  5 0.2 1.6LRSN                1
 GAP=183        0.53       2.8     4.5  5.5  0.6088E+01  0.5519E+01 -0.4078E+01E
 Epicentro: LOS SANTOS - SANTANDER                                             3
 ACTION:UPD 15-09-08 21:49 OP:cam  STATUS:               ID:20150719041229 L   I
 OLDACT:REG 15-07-19 16:22 OP:spq  STATUS:               ID:20150719040746     3
 2015-07-19-0407-46M.COL___340                                                 6
 STAT SP IPHASW D HRMM SECON CODA AMPLIT PERI AZIMU VELO AIN AR TRES W  DIS CAZ7
 BAR2 EZ EP        412 47.30                             168   -0.1910 26.6 189 
 BAR2 EZ ES   1    413  2.07                             168    0.16 7 26.6 189 
 BAR2 EZ I         413  5.10         5.9 0.28            171           26.6 189 
 RUS  HZ EP        412 51.83                             141   -0.1910  104 176 
 RUS  HN ES        413 10.08                             141    0.1110  104 176 
 RUS  HZ I         413 11.17         4.8 0.30            147            104 176 
 OCA  HE ES   1    413 17.61                             128    0.13 7  157 353 
 OCA  HZ I         413 21.55         8.6 0.38            131            157 353 
 ZAR  HZ EP        413  0.92                             120    0.22 9  203 291 
 ZAR  HN ES        413 25.34                             120   -0.07 9  203 291 
 ZAR  HZ I         413 31.11         3.0 0.39            123            203 291 
 SML  HZ EP   1    413  5.24                             115    0.47 6  241 335 
 SML  HE ES   1    413 32.23                             115   -0.43 6  241 335 
 SML  HZ I         413 35.66         7.2 0.10            119            241 335 
                                                                                
