 2010  719 0946 27.3 L   6.708 -73.158162.8  RSN  5 0.2 1.3LRSN                1
 GAP=158        0.49       6.5    12.1 12.4  0.3374E+02 -0.9110E+02 -0.4768E+02E
 Epicentro: VILLANUEVA - SANTANDER                                             3
 ACTION:UPD 10-12-01 15:18 OP:pat  STATUS:               ID:20100719094627 L   I
 2010-07-19-0944-49S.COL___120                                                 6
 STAT SP IPHASW D HRMM SECON CODA AMPLIT PERI AZIMU VELO AIN AR TRES W  DIS CAZ7
 BAR2 SZ EP   2    946 49.11                             175     0.3 5   13 192 
 BAR2 SZ I         947  5.02         7.6 0.51                            13 192 
 BRR  HZ EP   1    946 50.68                             154     0.2 7   76 306 
 BRR  HN ES   2    947  8.43                             154    -0.2 5   76 306 
 BRR  HZ I         947 11.61         3.5 0.16                            76 306 
 RUS  HZ EP   2    946 51.65                             150    -0.4 5   91 175 
 RUS  HE ES   2    947 11.59                             150     0.1 5   91 175 
 RUS  HZ I         947 13.08         2.2 0.38                            91 175 
 GUE  SZ EP   2    946 54.39                             140     0.0 5  127  12 
 GUE  SZ I         946 55.54         1.2 0.07                           127  12 
 GRA  SZ EP   1    946 54.80                             138    -0.1 7  136  17 
 GRA  SZ I         946 56.03         4.4 0.52                           136  17 
                                                                                
