 2013  719 0428 23.7 L   6.742 -73.094145.8  RSN  7 0.5 1.7LRSN                1
 GAP=196        0.99       4.7     7.6  9.5  0.6462E+01 -0.7498E+01 -0.1212E+02E
 Epicentro: JORDAN - SANTANDER                                                 3
 ACTION:UPD 13-08-12 10:38 OP:ep   STATUS:               ID:20130719042742 L   I
 OLDACT:UP  13-07-19 11:02 OP:mh   STATUS:               ID:20130719042742 L   3
 OLDACT:UPD 13-07-19 09:03 OP:stll STATUS:               ID:20130719042742 L   3
 2013-07-19-0427-42M.COL___225                                                 6
 STAT SP IPHASW D HRMM SECON CODA AMPLIT PERI AZIMU VELO AIN AR TRES W  DIS CAZ7
 BAR2 SZ EP   1    428 43.60                             172    0.37 7 19.2 211 
 BAR2 SZ I         429  1.21         6.8 0.34            171           19.2 211 
 GIR2 SZ EP   1    428 43.60                             164    0.02 7 38.8 344 
 GIR2 SZ I         429  0.43         5.6 0.10            159           38.8 344 
 BRR  HZ IP     C  428 45.50                             149    0.1910 79.3 301 
 BRR  HN ES        429  2.55                             149    0.3710 79.3 301 
 BRR  HN I         429  3.79         9.9 0.22            153           79.3 301 
 RUS  HZ EP   1    428 47.20                             145    0.24 7 93.9 179 
 RUS  HN ES        429  4.36                             145   -0.7610 93.9 179 
 RUS  HN I         429  7.81         4.0 0.18            144           93.9 179 
 PTB  HZ EP   1    428 50.69                             130   -0.37 7  152 262 
 PTB  HN ES   1    429 11.65                             130   -0.77 7  152 262 
 PTB  HN I         429 17.19        12.2 0.28            134            152 262 
 SPBC HZ EP   1    428 52.52                             129    0.46 7  162 222 
 SPBC HE ES        429 14.70                             129    0.49 9  162 222 
 SPBC HE I         429 18.45         7.3 0.38            130            162 222 
 SML  HZ EP   1    429  0.96                             116   -0.24 6  252 335 
 SML  HE ES   1    429 30.01                             116   -0.45 6  252 335 
 SML  HN I         429 36.13        12.3 0.10            114            252 335 
                                                                                
