 2014  319 0754 56.5 L   6.802 -73.117149.5  RSN  6 0.3 1.9LRSN                1
 GAP=186        0.81       3.0     5.5  8.2 -0.2632E+00  0.7215E+01 -0.8241E+01E
 Epicentro: LOS SANTOS - SANTANDER                                             3
 ACTION:UPD 14-04-09 23:18 OP:nd   STATUS:               ID:20140319075456 L   I
 OLDACT:REG 14-03-19 11:33 OP:carl STATUS:               ID:20140319074806     3
 2014-03-19-0748-06M.COL___223                                                 6
 STAT SP IPHASW D HRMM SECON CODA AMPLIT PERI AZIMU VELO AIN AR TRES W  DIS CAZ7
 RUS  HE ES        755 39.25                             144   -0.1810  101 178 
 PTB  HZ EP        755 24.05                             132    0.01 9  151 259 
 PTB  HN ES        755 45.21                             132   -0.33 9  151 259 
 PTB  HZ I         755 48.40         4.1 0.12            134            151 259 
 OCA  HN ES        755 47.90                             130    0.48 9  160 352 
 OCA  HN I         755 51.41        24.1 0.26            133            160 352 
 SPBC HZ EP        755 25.85                             129    0.37 9  165 220 
 SPBC HN ES        755 48.12                             129    0.03 9  165 220 
 SPBC HZ I         755 53.65         7.8 0.34            132            165 220 
 ZAR  HZ EP        755 29.48                             123    0.01 8  207 292 
 ZAR  HE ES        755 55.64                             123    0.44 8  207 292 
 ZAR  HZ I         756  1.34         5.4 0.28            125            207 292 
 SML  HZ EP        755 33.13                             118   -0.31 8  245 335 
 SML  HN ES        756  1.63                             118   -0.64 8  245 335 
 SML  HZ I         756  5.51         7.9 0.10            121            245 335 
                                                                                
