 2011  419 0313 58.1 L   6.785 -73.124140.0  RSN  8 0.3 1.8LRSN                1
 GAP=159        0.65       6.2     6.8  7.0 -0.2850E+02  0.6322E+01  0.5985E+01E
 Epicentro: LOS SANTOS - SANTANDER                                             3
 ACTION:UP  11-06-22 15:31 OP:REBC STATUS:               ID:20110419031358 L   I
 2011-04-19-0300-00M.COL___139                                                 6
 STAT SP IPHASW D HRMM SECON CODA AMPLIT PERI AZIMU VELO SNR AR TRES W  DIS CAZ7
 BAR2 SZ EP        314 17.07                             170     0.110   22 197 
 BAR2 SZ I         314 17.35        16.7 0.16                            22 197 
 BAR2 SZ ES   2    314 31.55                             170    -0.2 5   22 197 
 BRR  HZ EP        314 18.67                             151    -0.110   74 299 
 BRR  HN ES   2    314 35.66                             151     0.7 5   74 299 
 BRR  HZ I         314 36.48        26.4 0.07                            74 299 
 PAM  SZ EP        314 19.92                             150     0.210   77  37 
 PAM  SZ I         314 20.08         5.7 0.20                            77  37 
 PAM  SN ES   2    314 36.59                             150     0.1 5   77  37 
 BRI  SZ EP   3    314 21.35                             140    -0.1 2  109  19 
 GRA  SZ EP        314 22.82                             136    -0.110  127  16 
 GRA  SZ ES   1    314 41.80                             136    -0.4 7  127  16 
 GRA  SZ I         314 44.99         9.9 0.46                           127  16 
 NOR  SZ EP        314 33.55                             117     0.0 8  236 235 
 NOR  SN ES   2    315  0.66                             117    -0.6 4  236 235 
 HEL  HZ EP   2    314 38.75                             113     0.5 4  274 256 
 HEL  HN ES   3    315  9.56                             113     0.0 2  274 256 
 HEL  HZ I         315 16.14         5.2 0.45                           274 256 
 MON  HZ EP   4    314 44.08                             107    -3.1 0  357 308 
 MON  HN ES   4    315 21.62                             107    -3.9 0  357 308 
 MON  HZ I         315 29.16         1.7 0.40                           357 308 
                                                                                
