 2014  719 0931 31.6 L   6.722 -73.122142.4  RSN  4 0.5 1.4LRSN                1
 GAP=271        1.28       9.2     9.2 12.6  0.1510E+02  0.1477E+02 -0.2229E+02E
 Epicentro: JORDAN - SANTANDER                                                 3
 ACTION:UPD 15-03-16 20:45 OP:nd   STATUS:               ID:20140719093131 L   I
 OLDACT:REG 14-07-19 13:21 OP:fm   STATUS:               ID:20140719092819     3
 2014-07-19-0928-19M.COL___266                                                 6
 STAT SP IPHASW D HRMM SECON CODA AMPLIT PERI AZIMU VELO AIN AR TRES W  DIS CAZ7
 BAR2 SZ EP        931 50.07                             173   -0.6010 15.8 205 
 BAR2 SZ ES   1    932  6.15                             173    0.58 7 15.8 205 
 BAR2 SZ I         932  8.34         6.3 0.26            169           15.8 205 
 PTB  HZ EP        931 58.36                             131   -0.02 9  149 262 
 PTB  HN ES        932 18.48                             131   -0.80 9  149 262 
 PTB  HZ I         932 23.41         2.2 0.10            132            149 262 
 SPBC HZ EP        931 59.16                             129   -0.20 9  158 222 
 SPBC HN ES        932 21.59                             129    0.57 9  158 222 
 SPBC HZ I         932 27.25         2.8 0.12            130            158 222 
 ZAR  HZ EP        932  5.23                             121    0.82 8  210 294 
 ZAR  HN ES        932 30.15                             121    0.13 8  210 294 
 ZAR  HZ I         932 35.27         2.2 0.30            123            210 294 
                                                                                
