 2013  919 0300  1.7 L   6.818 -73.170146.0  RSN  9 0.5 1.8LRSN                1
 GAP=181        1.15       5.0     6.8  8.5  0.3566E+01  0.9584E+01  0.7121E+01E
 Epicentro: LOS SANTOS - SANTANDER                                             3
 ACTION:UPD 13-10-22 09:23 OP:ep   STATUS:               ID:20130919030001 L   I
 OLDACT:REG 13-09-19 06:15 OP:jn   STATUS:               ID:20130919025959     3
 2013-09-19-0259-59M.COL___269                                                 6
 STAT SP IPHASW D HRMM SECON CODA AMPLIT PERI AZIMU VELO AIN AR TRES W  DIS CAZ7
 BAR2 SZ EP   1    3 0 20.93                             170   -0.46 7 25.0 183 
 BAR2 SZ ES        3 0 36.72                             170   -0.0310 25.0 183 
 BAR2 SZ I         3 0 37.75        16.8 0.22            167           25.0 183 
 BRR  HZ EP        3 0 23.36                             154    0.6710 67.9 298 
 BRR  HN ES   1    3 0 39.84                             154    0.78 7 67.9 298 
 BRR  HZ I         3 0 40.78        11.5 0.13            150           67.9 298 
 RUS  HZ EP        3 0 25.68                             143    0.0610  103 175 
 RUS  HN ES   1    3 0 44.09                             143   -0.20 7  103 175 
 RUS  HZ I         3 0 45.98         6.0 0.32            144            103 175 
 PTB  HZ EP        3 0 28.03                             133   -0.45 9  146 258 
 PTB  HN ES        3 0 48.35                             133   -1.02 9  146 258 
 PTB  HZ I         3 0 52.07         7.2 0.12            130            146 258 
 OCA  HN ES   1    3 0 51.10                             130   -0.64 7  158 354 
 SPBC HZ EP        3 0 30.46                             129    0.26 9  163 218 
 SPBC HN ES        3 0 52.99                             129    0.56 9  163 218 
 SPBC HZ I         3 0 58.60         6.4 0.23            128            163 218 
 ZAR  HN ES   1    3 0 59.45                             123    0.57 6  201 292 
 ZAR  HZ I         3 1  7.26         7.7 0.26            122            201 292 
 CHI  HN ES   2    3 1  8.88                             117   -0.17 4  250 194 
 PRA  HZ EP   1    3 0 55.06                             107   -0.21 4  392 209 
 PRA  HN ES   1    3 1 36.92                             107   -0.14 4  392 209 
 PRA  HZ I         3 1 39.77         2.5 0.70            107            392 209 
                                                                                
