 2010  319 0214 42.0 L   6.835 -73.019141.7  RSN  8 0.2 2.3LRSN                1
 GAP=196        0.56       2.3     5.8  4.1  0.6953E+00  0.4643E+01  0.1306E+01E
 Epicentro: CEPITA - SANTANDER                                                 3
 ACTION:UP  10-08-24 09:54 OP:vdl  STATUS:               ID:20100319021442 L   I
 2010-03-19-0212-40S.COL___098                                                 6
 STAT SP IPHASW D HRMM SECON CODA AMPLIT PERI AZIMU VELO SNR AR TRES W  DIS CAZ7
 BAR2 SZ IP        215  1.60                             166     0.210   32 214 
 BAR2 SZ ES   1    215 16.03                             166    -0.4 7   32 214 
 BRR  HZ EP        215  3.42                             148     0.010   82 292 
 BRR  HE ES   1    215 20.10                             148     0.0 7   82 292 
 BRR  HZ I         215 21.33        74.9 0.16                            82 292 
 RUS  HZ IP        215  5.68                             142     0.110  104 184 
 RUS  HZ I         215  6.86        19.4 0.14                           104 184 
 RUS  HN ES   1    215 24.20                             142     0.1 7  104 184 
 OCA  SZ IP        215  9.67                             129    -0.2 9  159 348 
 OCA  SZ ES   1    215 31.71                             129     0.1 7  159 348 
 CHI  HZ EP   1    215 19.80                             115    -0.5 6  256 198 
 CHI  HN ES   1    215 50.36                             115     0.2 6  256 198 
 CHI  HZ I         215 52.92         6.8 0.42                           256 198 
 HEL  HZ EP        215 23.55                             113    -0.1 7  287 256 
 HEL  HZ I         215 59.94        11.4 0.26                           287 256 
 RREF BZ EP   1    215 29.91                             109     0.4 5  335 230 
 RREF BZ I         216 13.38         9.1 0.33                           335 230 
 PRA  HZ EP        215 36.35                             105    -0.2 6  402 211 
 PRA  HE ES   1    216 19.08                             105    -0.1 4  402 211 
 PRA  HZ I         216 22.69         6.9 0.28                           402 211 
                                                                                
