 2012  619 0415 59.6 L   6.810 -73.225133.2  RSN  4 0.1 1.1LRSN                1
 GAP=147        0.31       2.3     3.9  5.5 -0.3619E+01  0.1431E+02 -0.2851E+01E
 Epicentro: ZAPATOCA - SANTANDER                                               3
 ACTION:UPD 12-08-06 17:50 OP:ep   STATUS:               ID:20120619041559 L   I
 2012-06-19-0410-00M.COL___199                                                 6
 STAT SP IPHASW D HRMM SECON CODA AMPLIT PERI AZIMU VELO AIN AR TRES W  DIS CAZ7
 BAR2 SZ EP   2    416 17.96                             169    0.20 5 24.6 169 
 PAM  SZ EP        416 20.84                             147    0.0110 82.4  45 
 PAM  SN ES   1    416 37.35                             147   -0.03 7 82.4  45 
 PAM  SZ I         416 39.64         2.6 0.46                          82.4  45 
 RUS  HZ EP        416 22.28                             140   -0.0310  103 171 
 RUS  HZ I         416 23.09         1.5 0.24                           103 171 
 RUS  HE ES   1    416 40.01                             140    0.00 7  103 171 
 PTB  HZ EP        416 24.78                             131   -0.02 9  139 258 
 PTB  HZ I         416 48.58         2.8 0.20                           139 258 
                                                                                
