 2010  819 0103 55.7 L   6.828 -72.973145.0  RSN 12 0.5 2.2LRSN                1
 GAP=178        1.20       4.4     8.5  7.0 -0.1193E+02 -0.7931E+00  0.3151E+01E
 Epicentro: CEPITA - SANTANDER                                                 3
 ACTION:UP  10-09-07 10:56 OP:vdl  STATUS:               ID:20100819010355 L   I
 2010-08-19-0059-37S.COL___117                                                 6
 STAT SP IPHASW D HRMM SECON CODA AMPLIT PERI AZIMU VELO SNR AR TRES W  DIS CAZ7
 BAR2 SZ EP   1    1 4 15.78                             166     0.2 7   35 222 
 BAR2 SZ ES   1    1 4 30.65                             166    -0.4 7   35 222 
 BAR2 SZ I         1 4 32.41        52.4 0.59                            35 222 
 GIR2 SZ EP        1 4 15.60                             165     0.110   37 319 
 GIR2 SZ ES   1    1 4 30.96                             165     0.1 7   37 319 
 BRR  HZ EP        1 4 17.46                             147    -0.310   87 291 
 BRR  HN ES        1 4 34.69                             147    -0.310   87 291 
 BRR  HZ I         1 4 38.71        40.3 0.66                            87 291 
 RUS  HZ EP        1 4 19.55                             142    -0.110  104 187 
 RUS  HN ES        1 4 38.48                             142     0.110  104 187 
 RUS  HZ I         1 4 39.67        13.8 0.29                           104 187 
 GUE  SZ EP        1 4 19.33                             141    -0.610  111   3 
 GUE  SZ I         1 4 20.33         9.5 0.22                           111   3 
 GRA  SZ EP        1 4 21.11                             139     0.810  118   9 
 GRA  SZ ES   2    1 4 40.28                             139     0.8 5  118   9 
 GRA  SZ I         1 4 41.69        26.7 0.10                           118   9 
 OCA  SZ EP        1 4 24.15                             129     0.1 9  161 346 
 OCA  SZ I         1 4 49.17        15.2 0.48                           161 346 
 CHI  HZ EP        1 4 33.68                             116    -0.7 8  257 199 
 CHI  HZ I         1 4 35.49         6.5 0.34                           257 199 
 CHI  HN ES   1    1 5  5.18                             116     0.7 6  257 199 
 ROSC BZ EP   1    1 4 35.52                             115     0.3 6  266 214 
 ROSC BN ES   2    1 5  6.64                             115     0.6 4  266 214 
 ROSC BZ I         1 5 11.81        15.4 0.40                           266 214 
 HEL  HZ EP   1    1 4 38.23                             113     0.2 5  291 256 
 HEL  HZ I         1 5 14.82         8.8 0.08                           291 256 
 RREF HZ EP   1    1 4 43.86                             109     0.1 5  338 231 
 RREF HN ES        1 5 21.93                             109     0.7 7  338 231 
 RREF HZ I         1 5 27.35         7.8 0.69                           338 231 
 PRA  HZ EP   1    1 4 49.45                             106    -1.2 4  404 212 
                                                                                
