 2010  819 0832 20.2 L   7.240 -73.784 15.6  RSN  6 0.5 1.9LRSN                1
 GAP=232        1.40       4.0    12.8  6.6 -0.1785E+02  0.1704E+01 -0.4846E+01E
 Epicentro: PUERTO WILCHES - SANTANDER                                         3
 ACTION:UP  10-09-07 10:56 OP:vdl  STATUS:               ID:20100819083220 L   I
 2010-08-19-0830-19S.COL___117                                                 6
 STAT SP IPHASW D HRMM SECON CODA AMPLIT PERI AZIMU VELO SNR AR TRES W  DIS CAZ7
 BRR  HZ IP     C  832 23.64                             129    -0.310   17 152 
 BRR  HN ES        832 26.95                             129     0.010   17 152 
 BRR  HZ I         832 27.61       111.2 0.16                            17 152 
 GIR2 SZ EP   1    832 31.43                             100     0.1 7   68 105 
 GUE  SZ EP        832 38.64                              96     0.010  115  55 
 GUE  SZ ES   1    832 52.37                              96    -0.7 7  115  55 
 GUE  SZ I         832 55.73        21.0 0.08                           115  55 
 OCA  SZ EP        832 39.50                              96     0.010  122  25 
 OCA  SZ ES   1    832 54.13                              96    -0.4 7  122  25 
 OCA  SZ I         832 57.35        11.1 0.06                           122  25 
 GRA  SZ EP        832 41.86                              95     1.210  130  57 
 GRA  SZ I         833  0.92        69.2 0.12                           130  57 
 RUS  HZ EP   1    832 45.63                              56    -0.4 7  168 152 
 RUS  HN ES   1    833  6.26                              56     0.0 7  168 152 
 RUS  HZ I         833  7.70        14.4 0.79                           168 152 
                                                                                
