 2016  319 0229 54.0 L   6.784 -73.160143.0  RSN  8 0.3 1.5LRSN                1
 GAP=135        0.47       2.6     2.7  3.9 -0.3162E+01  0.4763E+01 -0.1181E+01E
 Epicentro: LOS SANTOS - SANTANDER                                             3
 ACTION:UPD 16-05-13 21:25 OP:cam  STATUS:               ID:20160319022954 L   I
 OLDACT:REG 16-03-19 14:08 OP:y    STATUS:               ID:20160319022741     3
 2016-03-19-0227-41M.COL___326                                                 6
 STAT SP IPHASW D HRMM SECON CODA AMPLIT PERI AZIMU VELO AIN AR TRES W  DIS CAZ7
 BAR2 EZ EP   3    230 12.43                             171   -0.85 2 21.4 187 
 BAR2 EZ ES        230 28.30                             171   -0.0010 21.4 187 
 BAR2 EZ I         230 29.58         7.1 0.20            171           21.4 187 
 PAM  EZ EP        230 16.49                             149    0.4010 79.7  40 
 PAM  EE ES        230 33.10                             149   -0.1910 79.7  40 
 PAM  EZ I         230 36.22         4.4 0.19            151           79.7  40 
 RUS  HZ EP   2    230 17.49                             143    0.10 5 99.0 175 
 RUS  HE ES        230 35.61                             143    0.0010 99.0 175 
 RUS  HZ I         230 36.90         1.8 0.11            146           99.0 175 
 PTB  HZ EP        230 20.34                             132   -0.26 9  146 259 
 PTB  HN ES        230 41.36                             132    0.03 9  146 259 
 PTB  HZ I         230 44.38         5.6 0.10            130            146 259 
 ZAR  HZ EP   2    230 26.11                             122   -0.10 4  203 293 
 ZAR  HE ES   4    230 52.58                             122    1.26 0  203 293 
 ZAR  HZ I         230 58.11         3.2 0.19            121            203 293 
 NOR  HZ EP   3    230 29.72                             118    0.37 2  232 235 
 NOR  HE ES        230 56.98                             118    0.07 8  232 235 
 NOR  HZ I         231  3.60         5.8 0.26            118            232 235 
 CHI  HZ EP   2    230 31.03                             117   -0.32 4  247 195 
 CHI  HN ES   2    231  0.46                             117    0.00 4  247 195 
 CHI  HZ I         231  3.59         1.5 0.19            118            247 195 
 GUY2CHZ EP   2    230 36.87                             112   -0.38 4  299 235 
 GUY2CHN ES   2    231 11.52                             112    0.55 4  299 235 
 GUY2CHZ I         231 19.73         3.0 0.30                           299 235 
                                                                                
