 2017  919 0329 50.7 L   6.779 -73.120140.1  RSN  8 0.5 1.3LRSN                1
 GAP=141        0.77       3.5     3.6  5.7 -0.2749E+01  0.4174E+01  0.4669E+01E
 Epicentro: LOS SANTOS - SANTANDER                                             3
 ACTION:UPD 17-10-05 19:14 OP:rebc STATUS:               ID:20170919032950 L   I
 OLDACT:UP  17-09-19 15:25 OP:and  STATUS:               ID:20170919032743     3
 OLDACT:UP  17-09-19 15:24 OP:and  STATUS:               ID:20170919032743     3
 OLDACT:UP  17-09-19 15:24 OP:and  STATUS:               ID:20170919032743     3
 OLDACT:UP  17-09-19 15:24 OP:and  STATUS:               ID:20170919032743     3
 OLDACT:REG 17-09-19 12:47 OP:and  STATUS:               ID:20170919032743     3
 2017-09-19-0328-00M.COL___444                                                 6
 STAT SP IPHASW D HRMM SECON CODA AMPLIT PERI AZIMU VELO AIN AR TRES W  DIS CAZ7
 BAR2 EZ IP     C  330  9.70                             171    0.1210 21.8 198 
 BAR2 EZ ES        330 24.15                             171   -0.1910 21.8 198 
 BAR2 EZ I         330 26.08         4.1 0.18            170           21.8 198 
 BRR  HZ EP        330 11.72                             150    0.3010 74.8 299 
 BRR  HN ES        330 27.44                             150   -0.1610 74.8 299 
 BRR  HZ I         330 30.17        11.0 0.30            149           74.8 299 
 PAM  EZ IP     D  330 12.74                             149    0.4610 77.4  37 
 PAM  EN ES        330 28.76                             149   -0.3810 77.4  37 
 PAM  EZ I         330 30.22         3.2 0.34            152           77.4  37 
 RUS  HZ EP        330 13.66                             143   -0.0310 98.1 178 
 RUS  HN ES   2    330 32.37                             143    0.73 5 98.1 178 
 RUS  HZ I         330 33.48         1.6 0.32            145           98.1 178 
 SPBC HZ EP        330 18.82                             127    0.08 9  163 220 
 SPBC HN ES        330 40.38                             127   -0.26 9  163 220 
 SPBC HZ I         330 42.25         3.3 0.12            128            163 220 
 ZAR  HZ EP   3    330 21.67                             120   -1.45 2  208 292 
 ZAR  HN ES        330 48.64                             120    0.21 8  208 292 
 ZAR  HZ I         330 54.09         3.0 0.42            121            208 292 
 NOR  HZ EP   2    330 25.50                             117   -0.68 4  236 235 
 NOR  HN ES        330 53.58                             117   -0.31 8  236 235 
 NOR  HZ I         330 56.50         1.3 0.20            118            236 235 
 GUY2CHZ EP   4    330 37.66                             111    3.52 0  302 235 
 GUY2CHN ES   3    331 10.50                             111    2.46 2  302 235 
 GUY2CHZ I         331 16.33         0.8 0.40                           302 235 
                                                                                
