 2013  319 0210 25.0 L   6.808 -73.140146.8  RSN 15 0.5 2.5LRSN                1
 GAP= 71        0.89       2.8     3.6  5.4  0.3627E-01  0.3536E+01  0.1631E+01E
 Epicentro: LOS SANTOS - SANTANDER                                             3
 ACTION:UPD 13-04-09 14:03 OP:ep   STATUS:               ID:20130319021025 L   I
 2013-03-19-0210-00M.COL___244                                                 6
 STAT SP IPHASW D HRMM SECON CODA AMPLIT PERI AZIMU VELO AIN AR TRES W  DIS CAZ7
 BAR2 SZ EP        210 44.65                             170   -0.1110 24.3 191 
 BAR2 SZ ES   1    210 59.92                             170   -0.27 7 24.3 191 
 BAR2 SZ I         211  1.32        40.7 0.48            168           24.3 191 
 BRR  HZ EP     C  210 46.58                             153    0.3210 71.4 298 
 BRR  HN ES   1    211  3.64                             153    0.79 7 71.4 298 
 BRR  HN I         211  7.13        74.2 0.18            149           71.4 298 
 PAM  SZ EP        210 47.56                             151    0.3110 76.3  40 
 PAM  SN ES   2    211  4.61                             151    0.00 5 76.3  40 
 PAM  SN I         211  5.54        32.3 0.22            156           76.3  40 
 RUS  HZ EP        210 48.54                             144   -0.3510  101 176 
 RUS  HN ES   1    211  7.44                             144   -0.11 7  101 176 
 RUS  HN I         211  9.05        19.7 0.20            146            101 176 
 PTB  HZ EP        210 51.28                             132   -0.83 9  149 259 
 PTB  HN ES   1    211 12.71                             132   -0.56 7  149 259 
 PTB  HN I         211 17.98        68.6 0.50            131            149 259 
 TAM  HZ EP        210 52.84                             131    0.14 9  155 105 
 TAM  HN ES   2    211 14.39                             131    0.06 5  155 105 
 OCA  HZ EP   1    210 53.40                             130    0.10 7  160 353 
 OCA  HN ES   1    211 15.69                             130    0.30 7  160 353 
 OCA  HN I         211 18.91        72.5 0.36            131            160 353 
 ZAR  HZ EP        210 57.29                             123   -0.24 9  204 292 
 ZAR  HN ES   2    211 23.48                             123    0.57 4  204 292 
 ZAR  HN I         211 28.45        33.3 0.42            122            204 292 
 NOR  HZ EP   1    211  0.85                             119   -0.03 6  236 234 
 NOR  HN ES   2    211 28.36                             119   -0.52 4  236 234 
 NOR  HN I         211 33.63        36.5 0.40            119            236 234 
 SML  HZ EP        211  1.41                             118   -0.20 8  243 335 
 SML  HN ES        211 29.50                             118   -0.69 8  243 335 
 SML  HN I         211 37.05        47.6 0.10            119            243 335 
 CHI  HZ EP   1    211  2.83                             117   -0.01 6  250 195 
 CHI  HN ES   2    211 31.60                             117   -0.78 4  250 195 
 CHI  HN I         211 36.24        18.2 0.34            119            250 195 
 ROSC BZ EP        211  4.22                             117    0.95 8  254 211 
 ROSC BN ES   1    211 33.60                             117    0.46 6  254 211 
 HEL  HZ EP   1    211  5.93                             115    0.59 6  273 256 
 HEL  HE ES   2    211 37.95                             115    1.13 4  273 256 
 HEL  HE I         211 45.16        10.8 0.30            115            273 256 
 RREF HZ EP        211 11.30                             111    0.01 7  323 229 
 PRA  HZ EP        211 18.66                             107    0.00 6  393 210 
 PRA  HN ES   2    212  0.91                             107    0.38 3  393 210 
 PRA  HN I         212  6.37         6.2 0.32            108            393 210 
                                                                                
