 2015  219 0213 41.5 L   6.807 -73.181140.4  RSN 10 0.3 1.7LRSN                1
 GAP=132        0.68       2.0     3.2  4.0 -0.8568E+00  0.2181E+01  0.1703E+01E
 Epicentro: ZAPATOCA - SANTANDER                                               3
 ACTION:UPD 15-04-30 21:27 OP:nd   STATUS:               ID:20150219021341 L   I
 OLDACT:UP  15-02-19 19:23 OP:mher STATUS:               ID:20150219020745     3
 OLDACT:UP  15-02-19 19:18 OP:mher STATUS:               ID:20150219020745     3
 OLDACT:UP  15-02-19 12:58 OP:mher STATUS:               ID:20150219020745     3
 OLDACT:UP  15-02-19 12:58 OP:mher STATUS:               ID:20150219020745     3
 OLDACT:REG 15-02-19 12:22 OP:mh   STATUS:               ID:20150219020745     3
 2015-02-19-0207-45M.COL___299                                                 6
 STAT SP IPHASW D HRMM SECON CODA AMPLIT PERI AZIMU VELO AIN AR TRES W  DIS CAZ7
 BAR2 EZ EP        214  0.09                             170   -0.3910 23.7 180 
 BAR2 EZ ES        214 15.41                             170    0.1110 23.7 180 
 BAR2 EZ I    1    214 17.25        10.0 0.21            170           23.7 180 
 BRR  HZ EP        214  2.40                             153    0.5510 67.4 300 
 BRR  HN ES        214 17.90                             153    0.1710 67.4 300 
 BRR  HZ I         214 23.18        12.7 0.32            150           67.4 300 
 PAM  SZ EP        214  3.59                             149    0.3310 79.3  42 
 PAM  SN ES        214 20.13                             149   -0.1110 79.3  42 
 PAM  SZ I         214 22.74         6.3 0.46            152           79.3  42 
 RUS  HZ EP        214  4.62                             142   -0.1810  102 174 
 RUS  HN ES        214 22.86                             142   -0.1210  102 174 
 RUS  HZ I         214 24.32         5.2 0.38            145            102 174 
 PTB  HZ EP   1    214  7.56                             131   -0.13 7  144 258 
 PTB  HN ES        214 27.74                             131   -0.39 9  144 258 
 PTB  HZ I         214 32.38         4.7 0.36            131            144 258 
 OCA  HN ES   1    214 30.89                             129   -0.06 7  159 354 
 OCA  HZ I         214 40.65         4.3 0.32            129            159 354 
 SPBC HZ EP        214  9.53                             128    0.12 9  161 218 
 SPBC HN ES        214 31.30                             128    0.12 9  161 218 
 SPBC HZ I         214 38.01         9.2 0.20            129            161 218 
 SML  HN ES        214 45.47                             116   -0.24 8  241 336 
 SML  HZ I         214 49.07         6.6 0.15            117            241 336 
 CHI  HZ EP        214 18.50                             116   -0.37 8  248 194 
 CHI  HN ES        214 48.08                             116    0.06 8  248 194 
 CHI  HZ I         214 54.43         2.1 0.32            117            248 194 
 ROSC BZ EP   4    214 21.07                             116    1.89 0  251 210 
 GUY2CHZ EP   4    214 25.98                             111    1.43 0  298 234 
 GUY2CHN ES   4    215  0.92                             111    2.79 0  298 234 
 PRA  HZ EP        214 34.78                             106    0.10 6  391 209 
 PRA  HN ES        215 16.72                             106    0.54 6  391 209 
 PRA  HZ I         215 22.76         2.3 0.42            107            391 209 
                                                                                
