 2016  819 0837 43.4 L   6.840 -73.116151.9  RSN 22 0.5 2.4LRSN                1
 GAP=120        1.10       2.8     3.6  4.8 -0.2195E+01  0.4715E+01 -0.3954E+00E
 Epicentro: LOS SANTOS - SANTANDER                                             3
 ACTION:UPD 16-10-29 15:37 OP:rebc STATUS:               ID:20160819083743 L   I
 OLDACT:DUP 16-08-19 17:38 OP:ak   STATUS:               ID:20160819082760d    3
 2016-08-19-0827-59S.COL___337                                                 6
 STAT SP IPHASW D HRMM SECON CODA AMPLIT PERI AZIMU VELO AIN AR TRES W  DIS CAZ7
 BAR2 EZ IP     C  838  4.20                             169    0.3610 28.3 195 
 BAR2 EZ ES        838 19.54                             169   -0.2710 28.3 195 
 BAR2 EZ I         838 21.95        48.9 0.26                          28.3 195 
 PAM  EZ EP        838  5.78                             154   -0.1510 71.9  40 
 PAM  EN ES        838 24.40                             154    0.8710 71.9  40 
 PAM  EZ I         838 26.37        26.7 0.50                          71.9  40 
 BRR  HZ IP     C  838  5.95                             153    0.7110 72.2 294 
 BRR  HN ES        838 22.48                             153    0.1810 72.2 294 
 BRR  HZ I         838 26.93        40.3 0.36                          72.2 294 
 RUS  HZ EP        838  7.76                             144   -0.2710  105 178 
 RUS  HN ES        838 26.62                             144   -0.6410  105 178 
 RUS  HZ I         838 27.91        21.7 0.24                           105 178 
 PTB  HZ EP        838 10.53                             133   -0.68 9  152 257 
 PTB  HN ES   4    838 31.63                             133   -1.30 0  152 257 
 SPBC HZ EP        838 12.87                             129    0.01 9  169 219 
 SPBC HN ES        838 35.81                             129   -0.05 9  169 219 
 SPBC HZ I         838 42.35        36.8 0.24                           169 219 
 ZAR  HZ EP        838 16.95                             124    0.58 8  206 291 
 ZAR  HN ES        838 41.84                             124   -0.27 8  206 291 
 ZAR  HZ I         838 52.46        18.9 0.33                           206 291 
 NOR  HZ EP        838 20.31                             119    0.29 8  240 234 
 NOR  HN ES        838 48.52                             119   -0.09 8  240 234 
 NOR  HZ I         838 55.09        17.4 0.21                           240 234 
 CHI  HZ EP        838 22.31                             118    0.35 8  254 196 
 CHI  HN ES        838 51.57                             118   -0.50 8  254 196 
 CHI  HZ I         838 54.99        13.9 0.32                           254 196 
 ROSC BZ EP   9    838 24.24                             117    1.82 0  258 211 
 ROSC BN ES        838 55.13                                    0.43 8  258 211 
 ROSC BZ I         839  0.47        20.1 0.40                           258 211 
 HEL  HZ EP        838 25.08                             116    0.71 7  276 255 
 HEL  HN ES        838 56.03                             116   -0.33 7  276 255 
 HEL  HZ I         839  3.78        12.1 0.41                           276 255 
 URE  HZ EP   2    838 24.39                             115   -0.52 4  285 291 
 URE  HN ES        838 56.25                             115   -1.06 7  285 291 
 URE  HZ I         839  8.69        15.9 0.20                           285 291 
 GUY2CHZ EP   4    838 29.30                             113    1.45 0  306 234 
 GUY2CHE ES        839  2.04                             113   -0.51 7  306 234 
 GUY2CHZ I         839 12.16        10.5 0.33                           306 234 
 PTGC HZ EP        838 27.45                             112   -0.38 7  312 160 
 PTGC HN ES   4    839  0.90                             112   -1.62 0  312 160 
 PTGC HZ I         839  2.22        12.0 0.30                           312 160 
 LL6C HZ EP        838 29.01                             112    0.15 7  321 357 
 LL6C HE ES        839  4.02                             112   -0.32 7  321 357 
 ELA  HZ EP   9    838 35.33                             111    4.23 0  335 229 
 ELA  HN ES        839 13.33                                    0.77 7  335 229 
 ELA  HZ I         839 23.43         8.3 0.40                           335 229 
 CBOC HZ EP        838 32.08                             111    1.02 7  338 252 
 CBOC HN ES        839  8.32                             111    0.06 7  338 252 
 CBOC HZ I         839 25.23         4.1 0.71                           338 252 
 ANIL HZ EP   2    838 33.90                             109   -0.14 3  363 224 
 ANIL HN ES        839 14.54                             109    0.97 6  363 224 
 ANIL HZ I         839 21.13        24.4 0.26                           363 224 
 PRA  HZ EP        838 37.60                             107   -0.14 6  397 210 
 PRA  HN ES        839 19.70                             107   -0.45 6  397 210 
 PRA  HZ I         839 27.91         8.3 0.52                           397 210 
 SJC  HZ EP        838 37.90                             107   -1.02 6  407 326 
 SJC  HN ES   4    839 19.23                             107   -3.02 0  407 326 
 SJC  HZ I         839 24.13         2.3 0.28                           407 326 
 PAL  HZ EP        838 39.80                             107    0.47 6  411 239 
 PAL  HN ES        839 23.52                             107    0.53 6  411 239 
 PAL  HZ I         839 28.02         3.8 0.38                           411 239 
 CRJC HZ EP   2    838 45.22                             104   -0.28 2  463   3 
 CRJC HN ES        839 33.49                             104   -0.48 5  463   3 
 CRJC HZ I         839 34.14         6.0 0.07                           463   3 
                                                                                
