 2014  819 0602 43.7 L   7.468 -73.116127.5  RSN  9 0.5 2.0LRSN                1
 GAP=214        1.07       4.0     6.2  7.6  0.1041E+02 -0.3834E+01 -0.5847E+01E
 Epicentro: EL PLAYON - SANTANDER                                              3
 ACTION:UPD 14-09-15 21:51 OP:nd   STATUS:               ID:20140819060243 L   I
 OLDACT:REG 14-08-19 13:07 OP:cam  STATUS:               ID:20140819060000     3
 2014-08-19-0600-00M.COL___285                                                 6
 STAT SP IPHASW D HRMM SECON CODA AMPLIT PERI AZIMU VELO AIN AR TRES W  DIS CAZ7
 BRR  HZ EP     D  6 3  3.65                             147    0.4110 77.0 239 
 BRR  HE ES        6 3 19.02                             147    0.5110 77.0 239 
 BRR  HZ I         6 3 19.41        26.5 0.12            132           77.0 239 
 BAR2 SZ EP     C  6 3  5.46                             141    0.4310 97.2 184 
 BAR2 SZ ES        6 3 21.78                             141    0.0710 97.2 184 
 BAR2 SZ I         6 3 23.04        44.8 0.12            128           97.2 184 
 RUS  HZ EP        6 3 12.73                             123    0.26 9  174 179 
 RUS  HE ES        6 3 33.99                             123   -0.96 9  174 179 
 RUS  HZ I         6 3 35.42         4.7 0.34            112            174 179 
 PTB  HZ EP     C  6 3 12.07                             122   -0.40 9  180 235 
 PTB  HN ES        6 3 34.48                             122   -0.46 9  180 235 
 PTB  HZ I         6 3 36.34        12.0 0.20            110            180 235 
 SML  HZ EP        6 3 12.09                             121   -0.45 9  181 325 
 SML  HN ES        6 3 34.75                             121   -0.31 9  181 325 
 SML  HZ I         6 3 40.79        14.8 0.10            111            181 325 
 ZAR  HZ EP        6 3 13.48                             120   -0.25 9  192 271 
 ZAR  HN ES        6 3 37.31                             120    0.13 9  192 271 
 ZAR  HZ I         6 3 39.23         6.8 0.40            109            192 271 
 SPBC HZ EP        6 3 17.77                             115    0.18 8  227 208 
 SPBC HN ES        6 3 43.82                             115   -0.23 8  227 208 
 SPBC HZ I         6 3 49.44         7.7 0.56            106            227 208 
 HEL  HZ EP   1    6 3 26.93                             109    0.51 5  302 242 
 HEL  HZ I         6 4  7.88         2.5 0.20            102            302 242 
 GUY2CHZ EP        6 3 33.28                             105    0.94 6  351 225 
 GUY2CHZ I         6 4 20.65         4.3 0.32                           351 225 
                                                                                
