 2017  319 0901 44.6 L   6.767 -73.173138.3  RSN  9 0.3 1.8LRSN                1
 GAP=135        0.77       3.3     3.2  4.6  0.8212E+00  0.3229E+01  0.1965E+01E
 Epicentro: LOS SANTOS - SANTANDER                                             3
 ACTION:UPD 17-05-25 18:42 OP:jn   STATUS:               ID:20170319090144 L   I
 OLDACT:UP  17-03-19 18:18 OP:cog  STATUS:               ID:20170319085710     3
 OLDACT:REG 17-03-19 13:28 OP:cara STATUS:               ID:20170319085710     3
 2017-03-19-0858-00M.COL___394                                                 6
 STAT SP IPHASW D HRMM SECON CODA AMPLIT PERI AZIMU VELO AIN AR TRES W  DIS CAZ7
 BAR2 EZ EP        9 2  3.23                             171    0.0010 19.4 183 
 BAR2 EZ ES        9 2 17.80                             171    0.0210 19.4 183 
 BAR2 EZ I         9 2 19.23        44.1 0.24            169           19.4 183 
 BRR  HZ EP        9 2  5.10                             151    0.2210 70.5 302 
 BRR  HN ES        9 2 20.97                             151    0.2610 70.5 302 
 BRR  HZ I         9 2 26.06        15.0 0.48            152           70.5 302 
 PAM  EZ EP        9 2  6.09                             148   -0.2110 82.1  40 
 PAM  EN ES        9 2 23.02                             148   -0.2210 82.1  40 
 PAM  EZ I         9 2 24.64         5.8 0.13            153           82.1  40 
 RUS  HZ EP        9 2  7.18                             143   -0.1710 97.2 174 
 RUS  HN ES        9 2 25.47                             143    0.3610 97.2 174 
 RUS  HZ I         9 2 26.43        12.5 0.24            144           97.2 174 
 PTB  HZ EP        9 2  9.95                             131   -0.66 9  144 260 
 PTB  HN ES        9 2 30.43                             131   -0.48 9  144 260 
 PTB  HZ I         9 2 36.32         9.0 0.46            132            144 260 
 SPBC HZ EP        9 2 12.34                             128    0.29 9  158 219 
 SPBC HN ES   3    9 2 32.54                             128   -0.95 2  158 219 
 ZAR  HZ EP        9 2 16.83                             121    0.43 9  203 293 
 ZAR  HE ES        9 2 41.40                             121    0.17 9  203 293 
 CHI  HZ EP        9 2 21.55                             116    0.15 8  244 195 
 CHI  HN ES   4    9 2 52.27                             116    2.15 0  244 195 
 CHI  HZ I         9 2 57.63         2.1 0.54            117            244 195 
 GUY2CHZ EP   9    9 2 29.54                             111    2.21 0  297 235 
 GUY2CHE ES        9 3  2.73                             110   -0.16 7  297 235 
 GUY2CHZ  IAML     9 3  9.86         2.6 0.28                           297 235 
                                                                                
