 2015  219 0903 15.8 L   6.799 -73.134141.9  RSN  9 0.4 1.7LRSN                1
 GAP=138        1.04       3.5     4.7  6.1 -0.4154E+01  0.8768E+01  0.4307E+00E
 Epicentro: LOS SANTOS - SANTANDER                                             3
 ACTION:UPD 15-04-30 21:27 OP:nd   STATUS:               ID:20150219090315 L   I
 OLDACT:REG 15-02-19 12:38 OP:mh   STATUS:               ID:20150219085738     3
 2015-02-19-0857-38M.COL___293                                                 6
 STAT SP IPHASW D HRMM SECON CODA AMPLIT PERI AZIMU VELO AIN AR TRES W  DIS CAZ7
 BAR2 EZ EP        9 3 35.11                             170    0.1210 23.5 193 
 BAR2 EZ ES   1    9 3 50.24                             170    0.30 7 23.5 193 
 BAR2 EZ I         9 3 51.37         6.4 0.22            170           23.5 193 
 BRR  HZ EP        9 3 37.11                             151    0.5010 72.3 298 
 BRR  HN ES        9 3 53.66                             151    0.8210 72.3 298 
 BRR  HZ I         9 3 57.97         7.3 0.38            150           72.3 298 
 PAM  SZ EP        9 3 37.93                             150    0.3510 76.6  39 
 PAM  SE ES        9 3 53.71                             150   -0.8410 76.6  39 
 PAM  SZ I         9 3 57.16         8.9 0.54            153           76.6  39 
 RUS  HZ EP        9 3 39.25                             143    0.0710  100 177 
 RUS  HE ES        9 3 57.44                             143    0.0410  100 177 
 RUS  HZ I         9 3 58.82         4.5 0.30            146            100 177 
 PTB  HZ EP        9 3 42.66                             131    0.08 9  149 259 
 PTB  HN ES        9 4  3.01                             131   -0.45 9  149 259 
 PTB  HZ I         9 4  7.42         4.9 0.10            132            149 259 
 SPBC HZ EP        9 3 44.15                             128    0.06 9  164 219 
 SPBC HN ES        9 4  5.48                             128   -0.67 9  164 219 
 SPBC HZ I         9 4  8.24         8.4 0.14            130            164 219 
 SML  HZ EP        9 3 52.20                             117   -0.09 8  244 335 
 SML  HE ES        9 4 20.27                             117   -0.47 8  244 335 
 SML  HZ I         9 4 24.52         5.5 0.10            118            244 335 
 GUY2CHZ EP        9 3 59.12                             111   -0.24 7  302 235 
 GUY2CHN ES        9 4 33.23                             111   -0.09 7  302 235 
 GUY2CHZ I         9 4 41.45         3.4 0.30                           302 235 
 TOL  SZ EP        9 4  4.10                             108    0.08 7  344 225 
 TOL  SN ES        9 4 41.83                             108    0.22 7  344 225 
 TOL  SZ I         9 4 47.63         1.9 0.26            110            344 225 
                                                                                
