 2010  819 0312 25.3 L   7.350 -73.157135.5  RSN  5 0.2 1.5LRSN                1
 GAP=149        0.53       7.0    11.9  9.9 -0.6511E+02  0.6280E+02 -0.2441E+02E
 Epicentro: RIONEGRO - SANTANDER                                               3
 ACTION:UP  10-09-07 10:56 OP:vdl  STATUS:               ID:20100819031225 L   I
 2010-08-19-0308-01S.COL___117                                                 6
 STAT SP IPHASW D HRMM SECON CODA AMPLIT PERI AZIMU VELO SNR AR TRES W  DIS CAZ7
 BTL  SZ EP        312 44.83                             159     0.310   49 194 
 GUE  SZ EP        312 45.00                             155    -0.110   59  26 
 GUE  SZ I         312 45.34         5.8 0.03                            59  26 
 BRR  HZ EP        312 45.04                             152    -0.110   67 246 
 BRR  HZ I         313  1.25         8.7 0.45                            67 246 
 GRA  SZ EP        312 45.56                             151     0.010   71  33 
 GRA  SZ I         312 46.56         5.7 0.22                            71  33 
 GRA  SZ ES   1    313  1.43                             151     0.1 7   71  33 
 BAR2 SZ ES   2    313  2.71                             146    -0.3 5   84 182 
                                                                                
