 2016  219 0634 52.7 L   6.791 -73.085148.6  RSN  5 0.4 1.0LRSN                1
 GAP=145        1.06       4.8     8.4  7.6 -0.7457E+01  0.1978E+00  0.1076E+02E
 Epicentro: LOS SANTOS - SANTANDER                                             3
 ACTION:UPD 16-03-04 21:27 OP:rebc STATUS:               ID:20160219063452 L   I
 OLDACT:DUP 16-02-19 18:16 OP:drio STATUS:               ID:20160219062745d    3
 2016-02-19-0627-44M.COL___312                                                 6
 STAT SP IPHASW D HRMM SECON CODA AMPLIT PERI AZIMU VELO AIN AR TRES W  DIS CAZ7
 BAR2 EZ EP        635 12.59                             170   -0.1010 24.5 206 
 BAR2 EZ ES        635 27.96                             170   -0.3210 24.5 206 
 BAR2 EZ I         635 28.87         2.8 0.24            171           24.5 206 
 PAM  EZ EP        635 14.46                             152   -0.5610 74.1  35 
 PAM  EE ES        635 32.52                             152    0.0910 74.1  35 
 PAM  EZ I         635 34.81         1.9 0.48            152           74.1  35 
 BRR  HZ EP        635 14.61                             151    0.0910 77.6 297 
 BRR  HN ES        635 31.66                             151    0.1210 77.6 297 
 RUS  HZ EP        635 17.31                             145    0.6710 99.4 180 
 RUS  HE ES        635 35.69                             145    0.3810 99.4 180 
 RUS  HZ I         635 36.40         1.1 0.28            145           99.4 180 
 CHI  HZ EP        635 30.90                             118    0.25 8  250 197 
 CHI  HE ES        635 59.38                             118   -0.87 8  250 197 
                                                                                
