 2012 1019 0351  4.1 L   6.781 -73.133150.3  RSN  5 0.3 1.8LRSN                1
 GAP=139        0.59       4.1     4.2  7.0  0.3002E+01  0.1879E+01  0.6640E+00E
 Epicentro: LOS SANTOS - SANTANDER                                             3
 ACTION:UPD 12-11-22 17:04 OP:ep   STATUS:               ID:20121019035104 L   I
 2012-10-19-0350-00M.COL___231                                                 6
 STAT SP IPHASW D HRMM SECON CODA AMPLIT PERI AZIMU VELO AIN AR TRES W  DIS CAZ7
 BAR2 SZ EP   1    351 24.06                             171   -0.18 7 21.6 195 
 BAR2 SZ I         351 24.25        11.3 0.20                          21.6 195 
 BRR  HZ EP        351 25.98                             153    0.1110 73.4 299 
 BRR  HN ES   1    351 43.32                             153    0.48 7 73.4 299 
 BRR  HN I         351 47.45        17.3 0.18                          73.4 299 
 PAM  SZ EP        351 26.92                             151    0.0710 78.2  38 
 PAM  SE ES   1    351 44.34                             151   -0.25 7 78.2  38 
 PAM  SN I         351 46.15         6.6 0.58                          78.2  38 
 RUS  HZ EP   1    351 28.31                             145    0.16 7 98.4 177 
 RUS  HN ES   1    351 46.74                             145   -0.17 7 98.4 177 
 RUS  HN I         351 48.39        11.2 0.42                          98.4 177 
 ZAR  HN ES   1    352  2.25                             123   -0.51 6  206 293 
 ZAR  HN I         352  8.84         5.1 0.20                           206 293 
                                                                                
