 2013  819 0446 41.6 L   6.822 -73.140150.3  RSN 24 0.5 3.0LRSN 3.4WRSN        1
 SPEC AVERAGE  MO 14.2 ST 68.3 OM  2.6 f0 6.02 R0.4379 AL 0.00 WI 29.4 MW  3.4 3
 SPEC SD       MO  0.2 ST 71.4 OM  0.3 f0 3.54 R0.3336 AL      WI      MW  0.1 3
 GAP= 66        1.07       2.4     2.9  4.5  0.3980E+00  0.3158E+01  0.8499E+00E
 Epicentro: LOS SANTOS - SANTANDER                                             3
 SPEC CHI HH N MO 14.2 ST  3.6 OM  2.3 f0 2.77 R0.5610 AL 0.00 WI 33.5 MW  3.4 3
 SPEC CHI HH N T 44747 K 0.000 GD  292 VS 4.20 DE 3.20 Q0300.0 QA 0.60 VS 4.20 3
 SPEC SML HH N MO 13.8 ST 82.9 OM  2.0 f0 10.0 R0.1554 AL 0.00 WI 40.5 MW  3.2 3
 SPEC SML HH N T 44740 K 0.000 GD  284 VS 4.20 DE 3.20 Q0300.0 QA 0.60 VS 4.20 3
 SPEC NOR HH E MO 14.1 ST110.7 OM  2.3 f0 8.79 R0.1768 AL 0.00 WI 31.7 MW  3.4 3
 SPEC NOR HH E T 44744 K 0.000 GD  280 VS 4.20 DE 3.20 Q0300.0 QA 0.60 VS 4.20 3
 SPEC ZAR HH E MO 14.3 ST233.2 OM  2.5 f0 10.0 R0.1554 AL 0.00 WI 34.1 MW  3.5 3
 SPEC ZAR HH E T 44738 K 0.000 GD  253 VS 4.20 DE 3.20 Q0300.0 QA 0.60 VS 4.20 3
 SPEC YOP SH N MO 14.6 ST  1.7 OM  2.8 f0 1.59 R0.9774 AL 0.00 WI 29.4 MW  3.7 3
 SPEC YOP SH N T 44735 K 0.000 GD  235 VS 4.20 DE 3.20 Q0300.0 QA 0.60 VS 4.20 3
 SPEC SPBCHH N MO 14.1 ST163.2 OM  2.4 f0 10.0 R0.1554 AL 0.00 WI 32.3 MW  3.4 3
 SPEC SPBCHH N T 44729 K 0.000 GD  223 VS 4.20 DE 3.20 Q0300.0 QA 0.60 VS 4.20 3
 SPEC OCA HH N MO 14.4 ST 70.5 OM  2.7 f0 6.05 R0.2569 AL 0.00 WI 32.9 MW  3.6 3
 SPEC OCA HH N T 44732 K 0.000 GD  218 VS 4.20 DE 3.20 Q0300.0 QA 0.60 VS 4.20 3
 SPEC TAM HH N MO 14.4 ST0.846 OM  2.7 f0 1.39 R1.1180 AL 0.00 WI 15.9 MW  3.6 3
 SPEC TAM HH N T 44729 K 0.000 GD  215 VS 4.20 DE 3.20 Q0300.0 QA 0.60 VS 4.20 3
 SPEC PTB HH N MO 14.1 ST 52.6 OM  2.4 f0 6.98 R0.2226 AL 0.00 WI 34.1 MW  3.4 3
 SPEC PTB HH N T 44729 K 0.000 GD  211 VS 4.20 DE 3.20 Q0300.0 QA 0.60 VS 4.20 3
 SPEC RUS HH E MO 14.1 ST  1.9 OM  2.4 f0 2.43 R0.6395 AL 0.00 WI 22.9 MW  3.3 3
 SPEC RUS HH E T 44722 K 0.000 GD  182 VS 4.20 DE 3.20 Q0300.0 QA 0.60 VS 4.20 3
 SPEC PAM SH N MO 14.1 ST  1.8 OM  2.5 f0 2.28 R0.6816 AL 0.00 WI 19.4 MW  3.4 3
 SPEC PAM SH N T 44721 K 0.000 GD  168 VS 4.20 DE 3.20 Q0300.0 QA 0.60 VS 4.20 3
 SPEC BRR HH N MO 13.9 ST 96.4 OM  2.3 f0 10.0 R0.1554 AL 0.00 WI 25.8 MW  3.2 3
 SPEC BRR HH N T 44720 K 0.000 GD  166 VS 4.20 DE 3.20 Q0300.0 QA 0.60 VS 4.20 3
 ACTION:UPD 14-01-14 09:04 OP:ep   STATUS:               ID:20130819044641 L   I
 OLDACT:UP  13-08-19 09:20 OP:cam  STATUS:               ID:20130819043959     3
 OLDACT:REG 13-08-19 07:50 OP:cam  STATUS:               ID:20130819043959     3
 2013-08-19-0439-59M.COL___269                                                 6
 STAT SP IPHASW D HRMM SECON CODA AMPLIT PERI AZIMU VELO AIN AR TRES W  DIS CAZ7
 BAR2 SZ IP     C  447  1.67                             170   -0.1410 25.9 190 
 BAR2 SZ ES        447 17.26                             170   -0.3310 25.9 190 
 BAR2 SZ I         447 19.77       158.4 0.37            171           25.9 190 
 BRR  HZ EP     C  447  3.52                             153    0.3310 70.6 297 
 BRR  HN ES        447 20.98                             153    0.9410 70.6 297 
 BRR  HZ I         447 26.56        94.6 0.22            149           70.6 297 
 PAM  SZ EP     C  447  4.43                             152    0.2810 75.1  40 
 PAM  SZ I         447  4.65       146.9 0.22            151           75.1  40 
 PAM  SN ES        447 21.77                             152    0.0110 75.1  40 
 RUS  HZ EP     D  447  5.49                             144   -0.4610  103 176 
 RUS  HE ES        447 24.43                             144   -0.5310  103 176 
 RUS  HZ I         447 27.11        95.0 0.34            146            103 176 
 PTB  HZ EP        447  8.25                             133   -0.77 9  149 258 
 PTB  HN ES        447 29.83                             133   -0.59 9  149 258 
 PTB  HZ I         447 31.62       141.7 0.34            130            149 258 
 TAM  HZ IP     C  447  9.80                             132    0.17 9  155 106 
 TAM  HZ I         447  9.89       138.4 0.34            133            155 106 
 TAM  HN ES        447 31.54                             132    0.03 9  155 106 
 OCA  HZ EP   1    447  9.39                             131   -0.63 7  158 353 
 OCA  HN ES        447 32.45                             131    0.24 9  158 353 
 OCA  HZ I         447 37.23       117.5 0.26            128            158 353 
 SPBC HZ EP        447 10.42                             130   -0.22 9  165 219 
 SPBC HN ES        447 33.02                             130   -0.30 9  165 219 
 SPBC HZ I         447 38.21       178.8 0.42            129            165 219 
 YOP  SZ EP        447 12.24                             127    0.10 9  181 154 
 YOP  SN ES        447 36.64                             127    0.66 9  181 154 
 YOP  SZ I         447 36.79       101.2 0.26            128            181 154 
 ZAR  HZ EP        447 13.92                             123   -0.36 9  204 291 
 ZAR  HE ES        447 40.23                             123    0.43 9  204 291 
 ZAR  HZ I         447 46.30       107.3 0.48            121            204 291 
 NOR  HZ EP        447 17.49                             119   -0.29 8  237 234 
 NOR  HE ES        447 45.92                             119   -0.10 8  237 234 
 NOR  HZ I         447 49.25       117.5 0.18            118            237 234 
 SML  HZ EP        447 18.06                             119   -0.19 8  242 335 
 SML  HN ES        447 46.91                             119    0.06 8  242 335 
 SML  HZ I         447 49.54       142.9 0.10            116            242 335 
 CHI  HZ EP        447 19.63                             118   -0.17 8  251 195 
 CHI  HZ I         447 21.66        38.9 0.16            117            251 195 
 CHI  HN ES   4    447 48.92                             118   -0.70 0  251 195 
 ROSC BZ EP        447 21.06                             117    0.85 8  255 211 
 HEL  HZ EP        447 22.99                             116    0.84 8  273 255 
 HEL  HE ES   4    447 52.92                             116   -0.89 0  273 255 
 HEL  HZ I         447 59.91        51.7 0.32            114            273 255 
 GUY2CHZ EP        447 26.45                             113    0.84 7  303 234 
 VIL  SZ EP   1    447 25.38                             113   -0.11 5  306 192 
 CBOC HZ EP        447 29.37                             111    0.54 7  335 252 
 DBB  SZ EP        447 29.16                             110   -0.13 7  340 274 
 COD  HZ EP        447 29.34                             110   -0.52 6  346 354 
 COD  HE ES        448  6.88                             110   -0.64 6  346 354 
 COD  HZ I         448 15.17        16.0 0.38            108            346 354 
 ARGC HZ EP   4    447 32.14                             109    0.98 0  357 340 
 ARGC HE ES   4    448 10.70                             109    0.86 0  357 340 
 ARGC HZ I         448 22.48        25.8 0.44            108            357 340 
 PRA  HZ EP        447 35.13                             107   -0.41 6  394 209 
 PRA  HN ES   1    448 18.47                             107    0.84 4  394 209 
 PRA  HZ I         448 22.87        35.9 0.22            107            394 209 
 PAL  HZ EP        447 37.45                             106    0.35 6  407 239 
 SJC  HN ES   4    448 17.19                             106   -3.19 0  407 327 
 SJC  HZ I         448 24.97        19.4 0.72            105            407 327 
                                                                                
