 2011  319 0515 50.2 L   6.741 -73.130148.9  RSN  5 0.2 1.7LRSN                1
 GAP=161        0.62       4.3     5.5  5.8 -0.2144E+01  0.3479E+01 -0.2453E+01E
 Epicentro: JORDAN - SANTANDER                                                 3
 ACTION:UP  11-06-16 14:34 OP:jfem STATUS:               ID:20110319051550 L   I
 2011-03-19-0500-00M.COL___135                                                 6
 STAT SP IPHASW D HRMM SECON CODA AMPLIT PERI AZIMU VELO SNR AR TRES W  DIS CAZ7
 BAR2 SZ EP        516  9.84                             173    -0.210   18 200 
 BAR2 SZ ES   1    516 25.81                             173     0.2 7   18 200 
 BAR2 SZ I         516 26.54        13.0 0.19                            18 200 
 BRR  HZ EP        516 11.71                             151    -0.210   76 302 
 BRR  HN ES   1    516 28.88                             151     0.0 7   76 302 
 BRR  HZ I         516 30.82        13.9 0.16                            76 302 
 RUS  HZ EP   1    516 13.77                             146     0.0 7   94 177 
 RUS  HN ES   1    516 32.16                             146     0.0 7   94 177 
 RUS  HZ I         516 33.71         6.3 0.42                            94 177 
 GRA  SZ EP   1    516 16.67                             136     0.5 7  132  16 
 GRA  SZ I         516 37.60         3.2 0.30                           132  16 
 NOR  SZ EP   1    516 25.87                             119     0.0 6  233 236 
 NOR  SN ES   1    516 54.01                             119     0.3 6  233 236 
                                                                                
