 2012 1019 0052 49.5 L   6.786 -73.108141.9  RSN  8 0.4 2.2LRSN                1
 GAP=142        0.71       3.7     4.2  6.0 -0.1274E+00  0.5311E+01  0.3361E+01E
 Epicentro: LOS SANTOS - SANTANDER                                             3
 ACTION:UPD 12-11-22 17:04 OP:ep   STATUS:               ID:20121019005249 L   I
 2012-10-19-0050-00M.COL___230                                                 6
 STAT SP IPHASW D HRMM SECON CODA AMPLIT PERI AZIMU VELO AIN AR TRES W  DIS CAZ7
 BAR2 SZ EP        053  8.52                             170   -0.1310 22.9 201 
 BAR2 SZ I         053  8.89        40.6 0.32                          22.9 201 
 BAR2 SZ ES   1    053 23.35                             170   -0.25 7 22.9 201 
 GIR2 SZ EP   1    053  8.50                             166   -0.28 7 33.8 344 
 GIR2 SZ ES   1    053 23.51                             166   -0.31 7 33.8 344 
 BRR  HZ EP        053 10.34                             150   -0.1510 75.7 298 
 BRR  HN ES   1    053 27.32                             150    0.45 7 75.7 298 
 BRR  HN I         053 27.76        81.6 0.18                          75.7 298 
 PAM  SZ EP        053 11.53                             150    0.3110 76.0  36 
 PAM  SN ES   1    053 28.48                             150    0.31 7 76.0  36 
 PAM  SN I         053 29.43        37.4 0.48                          76.0  36 
 RUS  HZ EP   1    053 12.56                             143   -0.18 7 98.8 178 
 RUS  HN ES   1    053 31.02                             143    0.15 7 98.8 178 
 RUS  HN I         053 32.00        11.7 0.24                          98.8 178 
 ZAR  HN ES   1    053 47.05                             121   -0.59 6  209 292 
 ZAR  HN I         053 51.58        15.4 0.18                           209 292 
 CHI  HN ES   1    053 56.12                             116   -0.02 6  248 196 
 CHI  HN I         053 58.86        10.4 0.42                           248 196 
 HEL  HN ES   1    054  2.34                             114    0.88 6  276 256 
 HEL  HN I         054  8.33         7.5 0.34                           276 256 
                                                                                
