 2015  819 0441 37.5 L   6.803 -73.139152.4  RSN 15 0.3 1.9LRSN                1
 GAP=112        0.76       2.3     2.3  4.9 -0.1297E+00  0.1884E+01  0.5334E+00E
 Epicentro: LOS SANTOS - SANTANDER                                             3
 ACTION:UPD 15-09-15 23:03 OP:cam  STATUS:               ID:20150819044137 L   I
 OLDACT:REG 15-08-19 13:08 OP:spq  STATUS:               ID:20150819043745     3
 2015-08-19-0437-45M.COL___340                                                 6
 STAT SP IPHASW D HRMM SECON CODA AMPLIT PERI AZIMU VELO AIN AR TRES W  DIS CAZ7
 BAR2 EZ EP        441 57.78                             171   -0.1610 23.8 192 
 BAR2 EZ ES   1    442 13.71                             171   -0.17 7 23.8 192 
 BAR2 EZ I         442 16.16        17.4 0.28            170           23.8 192 
 BRR  HZ EP        441 59.66                             154    0.2610 71.7 298 
 BRR  HN ES        442 17.04                             154    0.5710 71.7 298 
 BRR  HZ I         442 21.32         9.8 0.30            152           71.7 298 
 RUS  HZ EP        442  1.71                             145   -0.2210  101 176 
 RUS  HE ES   1    442 20.77                             145   -0.21 7  101 176 
 RUS  HZ I         442 23.19         9.8 0.40            148            101 176 
 TAM  HZ EP     C  442  5.92                             132    0.26 9  155 105 
 TAM  HE ES        442 27.94                             132    0.32 9  155 105 
 TAM  HZ I         442 28.37        10.8 0.52            137            155 105 
 OCA  HZ EP   1    442  5.89                             131   -0.43 7  160 353 
 OCA  HN ES        442 28.16                             131   -0.63 9  160 353 
 OCA  HZ I         442 33.43        14.7 0.26            133            160 353 
 SPBC HZ EP        442  6.64                             130    0.06 9  164 219 
 SPBC HN ES        442 29.08                             130   -0.18 9  164 219 
 SPBC HZ I         442 34.62        14.5 0.22            131            164 219 
 ZAR  HE ES        442 36.13                             124   -0.01 9  205 292 
 ZAR  HZ I         442 42.81         7.8 0.44            124            205 292 
 NOR  HE ES        442 41.48                             120   -0.46 8  235 234 
 NOR  HZ I         442 45.59         8.2 0.15            121            235 234 
 SML  HZ EP   1    442 14.73                             119    0.22 6  244 335 
 SML  HE ES   1    442 43.83                             119    0.45 6  244 335 
 SML  HZ I         442 49.96        10.1 0.26            120            244 335 
 CHI  HZ EP   1    442 16.13                             118    0.50 6  249 195 
 CHI  HN ES   1    442 45.04                             118   -0.33 6  249 195 
 CHI  HZ I         442 52.70         3.7 0.21            120            249 195 
 HEL  HZ EP   4    442 19.68                             116    1.53 0  273 256 
 HEL  HE ES        442 50.11                             116    0.26 8  273 256 
 HEL  HZ I         442 56.72         3.8 0.55            117            273 256 
 URE  HZ EP        442 18.50                             115   -0.47 7  284 292 
 URE  HN ES   4    442 49.05                             115   -2.25 0  284 292 
 URE  HZ I         443  1.70         3.7 0.16            116            284 292 
 GUY2CHZ EP   4    442 22.75                             114    1.24 0  302 235 
 GUY2CHE ES        442 56.06                             114    0.22 7  302 235 
 GUY2CHZ I         443  6.49         4.9 0.46                           302 235 
 CBOC HZ EP   4    442 26.22                             111    1.43 0  334 252 
 CBOC HN ES        443  1.92                             111    0.25 7  334 252 
 CBOC HZ I         443  6.90         1.7 0.52            112            334 252 
 SJC  HZ EP   4    442 31.99                             107   -1.32 0  409 327 
 SJC  HN ES   4    443 13.71                             107   -3.12 0  409 327 
 SJC  HZ I         443 16.36         1.7 0.64            108            409 327 
                                                                                
