 2010  319 0055  5.9 L   6.620 -73.385116.4  RSN  4 0.3 1.4LRSN                1
 GAP=132        0.72       8.0    13.1  8.8  0.8143E+02  0.4074E+02  0.2119E+02E
 Epicentro: GALAN - SANTANDER                                                  3
 ACTION:UP  10-08-24 09:54 OP:vdl  STATUS:               ID:20100319005505 L   I
 2010-03-19-0052-41S.COL___098                                                 6
 STAT SP IPHASW D HRMM SECON CODA AMPLIT PERI AZIMU VELO SNR AR TRES W  DIS CAZ7
 BAR2 SZ EP        055 22.43                             167     0.510   22  98 
 BAR2 SZ ES   1    055 34.24                             167    -0.3 7   22  98 
 BRR  HZ EP        055 23.31                             148    -0.210   65 326 
 BRR  HN ES   1    055 37.42                             148     0.1 7   65 326 
 BRR  HZ I         055 43.00        14.8 0.19                            65 326 
 RUS  HZ EP   1    055 25.58                             141    -0.2 7   87 157 
 RUS  HN ES   1    055 41.28                             141     0.0 7   87 157 
 RUS  HZ I         055 44.46         2.3 0.26                            87 157 
 RREF BN ES   3    056 19.32                             107     0.2 2  289 229 
 RREF BZ I         056 19.96         1.3 0.28                           289 229 
                                                                                
