 2016  419 0643 44.6 L   6.828 -73.162139.7  RSN  5 0.3 1.4LRSN                1
 GAP=191        0.59       2.8     4.6  5.4 -0.3983E+01  0.5729E+01  0.6986E+00E
 Epicentro: LOS SANTOS - SANTANDER                                             3
 ACTION:UPD 16-05-05 14:22 OP:rebc STATUS:               ID:20160419064344 L   I
 OLDACT:ARG 16-04-19 13:16 OP:cara STATUS:               ID:20160419063749     3
 2016-04-19-0637-49M.COL___305                                                 6
 STAT SP IPHASW D HRMM SECON CODA AMPLIT PERI AZIMU VELO AIN AR TRES W  DIS CAZ7
 BAR2 EZ EP        644  3.80                             169    0.2710 26.2 185 
 BAR2 EZ ES        644 18.07                             169   -0.2510 26.2 185 
 BAR2 EZ I         644 20.75         4.8 0.26            168           26.2 185 
 PTB  HZ EP        644 10.64                             131   -0.31 9  147 257 
 PTB  HN ES        644 31.53                             131    0.01 9  147 257 
 PTB  HZ I         644 38.30         2.9 0.56            130            147 257 
 OCA  HN ES        644 33.64                             129    0.07 9  157 354 
 OCA  HZ I         644 39.02         4.4 0.40            130            157 354 
 SPBC HZ EP        644 12.98                             127    0.24 9  165 218 
 SPBC HN ES        644 34.79                             127    0.08 9  165 218 
 SPBC HZ I         644 40.57         3.9 0.17            128            165 218 
 CHI  HZ EP   2    644 21.40                             115   -0.82 4  251 195 
 CHI  HN ES   2    644 51.81                             115    0.22 4  251 195 
 CHI  HZ I         644 54.03         1.2 0.10            118            251 195 
                                                                                
