 2011  619 0710 37.7 L   6.656 -73.300154.0  RSN  4 0.4 1.3LRSN                1
 GAP=153        0.96       6.6    13.6 12.9  0.1263E+02 -0.1463E+02  0.1622E+01E
 Epicentro: GALAN - SANTANDER                                                  3
 ACTION:UP  11-07-14 19:06 OP:ep   STATUS:               ID:20110619071037 L   I
 2011-06-19-0710-14S.COL___140                                                 6
 STAT SP IPHASW D HRMM SECON CODA AMPLIT PERI AZIMU VELO SNR AR TRES W  DIS CAZ7
 BAR2 SZ EP   1    710 57.72                             174    -0.5 7   15 119 
 BAR2 SZ ES   2    711 13.23                             174    -0.9 5   15 119 
 BAR2 SZ I         711 15.57         4.5 0.26                            15 119 
 BRR  HZ EP   1    710 59.59                             155     0.0 7   68 318 
 BRR  HE ES   1    711 16.81                             155     0.2 7   68 318 
 BRR  HZ I         711 18.93         3.3 0.13                            68 318 
 RUS  HZ EP   1    711  1.31                             149    -0.1 7   88 164 
 RUS  HN ES   1    711 20.49                             149     0.6 7   88 164 
 RUS  HZ I         711 21.60         1.9 0.17                            88 164 
 GRA  SZ ES   1    711 27.30                             135     0.2 7  146  22 
 GRA  SZ I         711 30.95         4.1 0.28                           146  22 
                                                                                
