 2016  719 0336  4.8 L   6.761 -73.120136.4  RSN  6 0.3 1.4LRSN                1
 GAP=142        0.83       3.3     4.0  5.6 -0.1284E+00  0.6465E+01  0.3106E+00E
 Epicentro: LOS SANTOS - SANTANDER                                             3
 ACTION:UPD 17-03-29 16:52 OP:lp   STATUS:               ID:20160719033604 L   I
 OLDACT:UP  16-07-19 16:12 OP:ar   STATUS:               ID:20160719032759     3
 OLDACT:UP  16-07-19 16:11 OP:ar   STATUS:               ID:20160719032759     3
 OLDACT:REG 16-07-19 12:50 OP:ar   STATUS:               ID:20160719032759     3
 2016-07-19-0327-59S.COL___334                                                 6
 STAT SP IPHASW D HRMM SECON CODA AMPLIT PERI AZIMU VELO AIN AR TRES W  DIS CAZ7
 BAR2 EZ EP        336 22.98                             171   -0.2510 19.9 200 
 BAR2 EZ ES        336 37.48                             171   -0.1310 19.9 200 
 BRR  HZ EP        336 24.80                             149   -0.4210 75.7 300 
 BRR  HN ES        336 41.53                             149    0.3810 75.7 300 
 BRR  HZ I         336 43.28         6.2 0.14            151           75.7 300 
 PAM  EZ EP        336 25.97                             148   -0.1610 79.1  36 
 PAM  EN ES        336 42.80                             148    0.0310 79.1  36 
 PAM  EZ I         336 45.03         6.6 0.60            151           79.1  36 
 RUS  HZ EP        336 27.84                             143    0.5310 96.1 178 
 RUS  HE ES        336 44.98                             143    0.1110 96.1 178 
 RUS  HZ I         336 46.85         3.3 0.35            145           96.1 178 
 SPBC HZ EP        336 32.18                             127   -0.27 9  162 221 
 SPBC HN ES        336 53.83                             127   -0.18 9  162 221 
 SPBC HZ I         336 56.13         3.7 0.10            129            162 221 
 ZAR  HZ EP        336 37.69                             120    0.59 8  208 293 
 ZAR  HN ES        337  2.11                             120   -0.18 8  208 293 
                                                                                
