 2012  319 0506 23.8 L   6.753 -73.200153.7  RSN  4 0.3 1.2LRSN                1
 GAP=228        0.62       9.8     8.7  8.7  0.4553E+02  0.1359E+02  0.2460E+02E
 ACTION:UP  12-03-31 23:20 OP:EP   STATUS:               ID:20120319050623 L   I
 2012-03-19-0500-00M.COL___202                                                 6
 STAT SP IPHASW D HRMM SECON CODA AMPLIT PERI AZIMU VELO SNR AR TRES W  DIS CAZ7
 BAR2 SZ EP   1    5 6 43.97                             173    -0.3 7   18 174 
 BAR2 SZ ES   2    5 6 59.93                             173    -0.3 5   18 174 
 BAR2 SZ I         5 7  0.11         3.3 0.18                            18 174 
 BRR  HE ES   1    5 7  2.94                             155     0.2 7   69 305 
 RUS  HZ EP   2    5 6 48.00                             147     0.0 5   96 172 
 RUS  HZ I         5 7  7.27         3.5 0.64                            96 172 
 RUS  HE ES   2    5 7  7.36                             147     0.5 5   96 172 
 PTB  HZ EP   1    5 6 51.04                             135     0.2 7  141 260 
 PTB  HZ I         5 6 53.12         1.1 0.17                           141 260 
 PTB  HN ES   2    5 7 11.38                             135    -0.5 5  141 260 
                                                                                
