 2011  919 0139 57.9 L   6.783 -73.043148.9  RSN 12 0.4 2.2LRSN                1
 GAP=151        0.63       3.5     4.3  5.1 -0.4853E+01  0.2526E+01  0.7074E+01E
 Epicentro: LOS SANTOS - SANTANDER                                             3
 ACTION:UPD 12-07-13 15:58 OP:ep   STATUS:               ID:20110919013958 L   I
 2011-09-19-0138-41S.COL___170                                                 6
 STAT SP IPHASW D HRMM SECON CODA AMPLIT PERI AZIMU VELO AIN AR TRES W  DIS CAZ7
 BTL  SZ EP        140 18.09                             168    0.0110 29.0 301 
 BTL  SZ ES   2    140 33.72                             168   -0.06 5 29.0 301 
 GIR2 SZ EP        140 17.87                             165   -0.2710 36.7 333 
 GIR2 SZ ES   2    140 34.06                             165    0.16 5 36.7 333 
 PAM  SZ EP        140 20.64                             153    0.4410 72.3  32 
 PAM  SE ES   1    140 37.92                             153    0.36 7 72.3  32 
 BRR  HN IP        140 19.69                             149   -0.3810 82.2 296 
 BRR  HE ES   1    140 37.15                             149   -0.19 7 82.2 296 
 RUS  HZ EP        140 21.57                             145   -0.2910 98.6 183 
 RUS  HE ES   1    140 40.40                             145   -0.12 7 98.6 183 
 ZAR  HZ EP   3    140 31.08                             121   -0.67 2  215 291 
 NOR  SE ES   1    141  4.25                             118    0.81 6  243 236 
 CHI  HZ EP        140 35.95                             117   -0.02 8  250 198 
 CHI  HN ES   2    141  5.21                             117   -0.42 4  250 198 
 CHI  HZ I         141 12.81         6.1 0.32                           250 198 
 HEL  HZ EP   3    140 39.17                             114   -0.31 2  283 257 
 HEL  HE ES   3    141 10.94                             114   -0.95 2  283 257 
 HEL  HZ I         141 16.48        10.1 0.34                           283 257 
 GUY  SZ EP   3    140 42.79                             112   -0.11 2  312 237 
 GUY  SN ES   2    141 18.16                             112    0.20 3  312 237 
 GUY  SZ I         141 25.67         9.4 0.28                           312 237 
 RREF HZ EP        140 45.69                             111    0.62 7  329 231 
 RREF HN ES   2    141 21.59                             111   -0.25 3  329 231 
 RREF HZ I         141 29.97         7.3 0.40                           329 231 
 PRA  HZ EP   2    140 51.96                             107   -0.09 3  396 211 
 PRA  HN ES   2    141 34.56                             107    0.31 3  396 211 
                                                                                
