 2012 1219 0236 18.9 L   6.774 -73.165145.0  RSN  7 0.4 1.9LRSN                1
 GAP=135        0.90       4.6     4.6  6.6 -0.1889E+01  0.2207E+01  0.9176E+01E
 Epicentro: LOS SANTOS - SANTANDER                                             3
 ACTION:UPD 13-01-04 14:28 OP:ep   STATUS:               ID:20121219023618 L   I
 2012-12-19-0230-00M.COL___243                                                 6
 STAT SP IPHASW D HRMM SECON CODA AMPLIT PERI AZIMU VELO AIN AR TRES W  DIS CAZ7
 BAR2 SZ EP        236 38.07                             172   -0.2710 20.2 186 
 BAR2 SZ ES   2    236 53.13                             172   -0.40 5 20.2 186 
 BAR2 SZ I         236 55.05        27.9 0.26                          20.2 186 
 BRR  HZ EP        236 40.25                             153    0.3510 70.8 301 
 BRR  HN ES        236 56.95                             153    0.6310 70.8 301 
 BRR  HZ I         237  0.54        12.3 0.33                          70.8 301 
 PAM  SZ EP        236 41.33                             150    0.1210 80.9  39 
 PAM  SE ES        236 58.26                             150   -0.3810 80.9  39 
 PAM  SZ I         237  1.24         6.1 0.45                          80.9  39 
 RUS  HZ EP        236 42.23                             144   -0.1110 97.9 175 
 RUS  HN ES        237  0.90                             144    0.2410 97.9 175 
 RUS  HN I         237  2.99        14.8 0.37                          97.9 175 
 PTB  HZ EP        236 45.18                             132   -0.35 9  145 260 
 PTB  HN ES        237  5.83                             132   -0.50 9  145 260 
 PTB  HZ I         237 11.37        11.0 0.10                           145 260 
 CHI  HZ EP        236 56.57                             117    0.41 8  245 195 
 PRA  HZ EP   1    237 11.98                             107    0.04 4  389 210 
 PRA  HZ I         238  0.77         3.1 0.43                           389 210 
                                                                                
