 2015  319 0550 38.4 L   6.798 -73.149152.1  RSN  8 0.4 1.3LRSN                1
 GAP=136        1.01       3.4     5.0  7.8 -0.2433E+01  0.4683E+01  0.1826E+01E
 Epicentro: LOS SANTOS - SANTANDER                                             3
 ACTION:UPD 15-04-30 16:27 OP:nd   STATUS:               ID:20150319055038 L   I
 OLDACT:REG 15-03-19 12:54 OP:stll STATUS:               ID:20150319054743     3
 2015-03-19-0547-43M.COL___275                                                 6
 STAT SP IPHASW D HRMM SECON CODA AMPLIT PERI AZIMU VELO AIN AR TRES W  DIS CAZ7
 BAR2 EZ EP        550 58.71                             171   -0.1310 23.1 189 
 BAR2 EZ I         550 59.71         3.7 0.50            170           23.1 189 
 BRR  HZ EP        551  0.73                             154    0.4610 71.0 299 
 BRR  HZ I         551  2.03         3.9 0.12            153           71.0 299 
 BRR  HN ES        551 17.71                             154    0.4110 71.0 299 
 PAM  SZ EP        551  1.54                             152    0.1710 77.8  40 
 PAM  SN ES        551 18.75                             152   -0.4910 77.8  40 
 PAM  SZ I         551 20.87         4.1 0.54            155           77.8  40 
 RUS  HZ EP        551  2.65                             145   -0.1710  100 176 
 RUS  HZ I         551  4.94         1.1 0.36            146            100 176 
 RUS  HN ES        551 21.77                             145   -0.0510  100 176 
 PTB  HZ EP        551  5.58                             133   -0.32 9  147 259 
 PTB  HN ES        551 26.62                             133   -0.70 9  147 259 
 PTB  HZ I         551 33.83         3.2 0.32            133            147 259 
 OCA  HN ES        551 30.28                             131    0.52 9  160 353 
 SPBC HZ EP        551  7.54                             130    0.14 9  163 219 
 SPBC HN ES        551 30.50                             130    0.51 9  163 219 
 SPBC HZ I         551 33.04         3.8 0.10            131            163 219 
 SML  HN ES        551 43.85                             119   -0.44 8  244 335 
                                                                                
