 2014  619 0735 13.3 L   5.812 -73.902106.4  RSN 11 0.4 1.8LRSN                1
 GAP=122        0.92       3.1     3.3  5.2 -0.8305E+00  0.2142E+01  0.1838E+01E
 Epicentro: ALBANIA - SANTANDER                                                3
 ACTION:UPD 14-07-01 22:55 OP:nd   STATUS:               ID:20140619073513 L   I
 OLDACT:REG 14-06-19 12:48 OP:carl STATUS:               ID:20140619072809     3
 2014-06-19-0728-09M.COL___250                                                 6
 STAT SP IPHASW D HRMM SECON CODA AMPLIT PERI AZIMU VELO AIN AR TRES W  DIS CAZ7
 SPBC HZ EP        735 28.11                             165    0.0210 25.8 227 
 SPBC HN ES        735 39.76                             165    0.1510 25.8 227 
 RUS  HZ EP        735 32.92                             137    0.2910 91.1  84 
 PTB  HZ EP        735 32.59                             133   -0.2610  101 323 
 PTB  HN ES        735 47.76                             133   -0.3310  101 323 
 PTB  HZ I         735 52.75        10.1 0.26            135            101 323 
 NOR  HZ EP        735 33.54                             130   -0.2210  111 256 
 NOR  HE ES        735 49.40                             130   -0.3110  111 256 
 NOR  HZ I         735 51.30        24.1 0.18            131            111 256 
 ROSC BZ EP        735 34.18                             129   -0.6410  117 203 
 ROSC BN ES        735 52.20                             129    0.6010  117 203 
 ROSC BZ I         735 55.77         9.7 0.40            130            117 203 
 GUY2CHZ EP        735 40.46                             117   -0.42 9  175 248 
 GUY2CHE ES        736  2.39                             117    0.02 9  175 248 
 GUY2CHZ I         736  6.54         6.6 0.30                           175 248 
 HEL  HZ EP        735 42.59                             115    0.72 9  185 283 
 HEL  HN ES        736  4.37                             115    0.23 9  185 283 
 HEL  HZ I         736  5.92         5.9 0.48            117            185 283 
 RREF HZ EP        735 42.73                             114    0.05 9  189 238 
 RREF HN ES        736  5.67                             114    0.08 9  189 238 
 RREF HZ I         736 10.03         7.5 0.64            116            189 238 
 TOL  SZ EP        735 44.19                             112   -0.18 8  208 229 
 TOL  SN ES        736  8.23                             112   -0.36 8  208 229 
 TOL  SZ I         736 10.73        20.9 0.34            114            208 229 
 CBOC HZ EP        735 47.92                             109    0.77 8  234 272 
 CBOC HN ES        736 13.77                             109    0.23 8  234 272 
 CBOC HZ I         736 16.15         2.9 0.30            111            234 272 
 ORTC HZ EP        735 49.53                             107   -0.26 8  258 215 
 ORTC HN ES        736 18.30                             107    0.07 8  258 215 
 ORTC HZ I         736 23.71         3.8 0.32            109            258 215 
                                                                                
