 2013  719 0356 40.2 L   7.427 -73.192125.7  RSN  5 0.3 1.4LRSN                1
 GAP=301        0.74       6.3     6.9  6.9 -0.2266E+01  0.1734E+02 -0.1920E+01E
 Epicentro: EL PLAYON - SANTANDER                                              3
 ACTION:UPD 13-08-12 10:38 OP:ep   STATUS:               ID:20130719034959 L   I
 OLDACT:UP  13-07-19 10:56 OP:mh   STATUS:               ID:20130719034959 L   3
 OLDACT:UPD 13-07-19 09:03 OP:stll STATUS:               ID:20130719034959 L   3
 2013-07-19-0349-59M.COL___267                                                 6
 STAT SP IPHASW D HRMM SECON CODA AMPLIT PERI AZIMU VELO AIN AR TRES W  DIS CAZ7
 GIR2 SZ EP   1    356 57.81                             162    0.08 7 38.5 180 
 GIR2 SZ ES   1    357 11.68         5.4 0.62            162    0.26 7 38.5 180 
 BRR  HZ EP        356 59.03                             150    0.0610 67.4 238 
 BRR  HN ES        357 13.80                             150    0.1810 67.4 238 
 BRR  HN I         357 14.82         7.0 0.16            139           67.4 238 
 BAR2 SZ ES        357 16.84                             142   -0.4410 92.3 179 
 PTB  HZ EP        357  7.76                             123   -0.14 9  171 235 
 PTB  HN ES   1    357 29.01                             123   -0.51 7  171 235 
 PTB  HN I         357 33.78         2.6 0.48            117            171 235 
 SPBC HN ES        357 39.38                             116    0.51 8  219 206 
 SPBC HN I         357 46.72         1.7 0.24            111            219 206 
                                                                                
