 2014  519 0718 44.9 L   6.770 -73.069149.0  RSN  7 0.5 1.4LRSN                1
 GAP=191        1.11       6.2     8.4 13.1  0.1616E+02  0.2417E+02 -0.4381E+01E
 Epicentro: LOS SANTOS - SANTANDER                                             3
 ACTION:UPD 15-03-16 16:59 OP:nd   STATUS:               ID:20140519071844 L   I
 OLDACT:REG 14-05-19 13:11 OP:spq  STATUS:               ID:20140519071812     3
 2014-05-19-0718-12M.COL___254                                                 6
 STAT SP IPHASW D HRMM SECON CODA AMPLIT PERI AZIMU VELO AIN AR TRES W  DIS CAZ7
 BRR  HZ EP        719  7.36                             150    0.3910 80.3 298 
 BRR  HE ES        719 24.72                             150    0.5710 80.3 298 
 BRR  HZ I         719 27.11         3.1 0.22            151           80.3 298 
 RUS  HE ES        719 27.02                             146   -0.3210 97.0 181 
 PTB  HN ES        719 34.84                             131    0.17 9  156 261 
 OCA  HN ES   2    719 35.72                             129   -0.82 5  165 350 
 SPBC HZ EP   1    719 14.42                             129    0.45 7  166 222 
 SPBC HN ES   1    719 36.04                             129   -0.57 7  166 222 
 SPBC HZ I         719 38.58         3.4 0.68            131            166 222 
 ZAR  HE ES        719 43.86                             122   -0.89 8  213 292 
 HEL  HE ES   2    719 58.76                             115    0.47 4  280 257 
                                                                                
