 2016  319 0728 55.7 L   6.808 -73.210137.7  RSN  5 0.2 1.2LRSN                1
 GAP=146        0.42       3.1     2.8  4.3 -0.5397E+01  0.2722E+01  0.5049E+00E
 Epicentro: ZAPATOCA - SANTANDER                                               3
 ACTION:UPD 16-05-13 21:25 OP:cam  STATUS:               ID:20160319072855 L   I
 OLDACT:REG 16-03-19 12:57 OP:dnl  STATUS:               ID:20160319072746     3
 2016-03-19-0727-46M.COL___312                                                 6
 STAT SP IPHASW D HRMM SECON CODA AMPLIT PERI AZIMU VELO AIN AR TRES W  DIS CAZ7
 BAR2 EZ EP        729 14.34                             169   -0.0110 24.0 173 
 BAR2 EZ ES   2    729 29.39                             169    0.48 5 24.0 173 
 BAR2 EZ I         729 30.13         3.6 0.12            169           24.0 173 
 PAM  EZ EP        729 17.25                             148   -0.0410 81.4  44 
 PAM  EN ES        729 34.11                             148   -0.0510 81.4  44 
 PAM  EZ I         729 34.74         2.3 0.17            152           81.4  44 
 RUS  HZ EP   3    729 18.30                             141   -0.46 2  102 172 
 RUS  HE ES   2    729 36.49                             141   -0.27 5  102 172 
 RUS  HZ I         729 37.86         2.2 0.26            143            102 172 
 PTB  HZ EP        729 21.45                             131    0.08 9  141 258 
 PTB  HN ES        729 41.29                             131   -0.12 9  141 258 
 PTB  HZ I         729 44.30         2.5 0.14            132            141 258 
 SPBC HZ EP        729 23.47                             128    0.26 9  160 217 
 SPBC HN ES        729 44.56                             128   -0.13 9  160 217 
 SPBC HZ I         729 47.75         3.1 0.28            129            160 217 
                                                                                
