 2012 1019 0353 53.0 L   6.809 -73.144147.3  RSN  5 0.3 2.0LRSN                1
 GAP=187        0.66       6.5     7.7  6.1  0.3317E+02  0.1152E+02  0.3921E+01E
 Epicentro: LOS SANTOS - SANTANDER                                             3
 ACTION:UPD 12-11-22 17:04 OP:ep   STATUS:               ID:20121019035353 L   I
 2012-10-19-0350-00M.COL___231                                                 6
 STAT SP IPHASW D HRMM SECON CODA AMPLIT PERI AZIMU VELO AIN AR TRES W  DIS CAZ7
 BAR2 SZ EP   1    354 12.67                             170   -0.18 7 24.4 190 
 BAR2 SZ ES   1    354 28.02                             170   -0.30 7 24.4 190 
 BAR2 SZ I         354 31.48        10.4 0.52                          24.4 190 
 GIR2 SZ EP   1    354 12.69                             168   -0.15 7 30.3 350 
 GIR2 SZ ES   1    354 28.29                             168   -0.01 7 30.3 350 
 BRR  HZ EP   1    354 14.27                             153   -0.04 7 70.9 298 
 BRR  HN ES   1    354 31.50                             153    0.58 7 70.9 298 
 BRR  HN I         354 34.21        18.0 0.14                          70.9 298 
 RUS  HZ EP   1    354 17.05                             144    0.07 7  102 176 
 RUS  HE ES   1    354 35.80                             144    0.11 7  102 176 
 ZAR  HZ EP   1    354 26.05                             123    0.52 6  204 292 
 ZAR  HE ES   1    354 50.25                             123   -0.65 6  204 292 
 ZAR  HE I         354 53.52        14.3 0.16                           204 292 
                                                                                
