 2012  119 0909 10.5 L   6.729 -73.142139.2  RSN  4 0.4 1.2LRSN                1
 GAP=232        0.97       9.4     9.6 10.1  0.4336E+02  0.8292E+01 -0.4742E+01E
 Epicentro: JORDAN - SANTANDER                                                 3
 ACTION:UP  12-02-03 08:18 OP:REBC STATUS:               ID:20120119090910 L   I
 2012-01-19-0904-50S.COL___150                                                 6
 STAT SP IPHASW D HRMM SECON CODA AMPLIT PERI AZIMU VELO SNR AR TRES W  DIS CAZ7
 BAR2 SZ EP   1    9 9 29.00                             173    -0.2 7   16 196 
 BAR2 SZ ES   1    9 9 43.06                             173    -0.7 7   16 196 
 BAR2 SZ I         9 9 46.08         3.9 0.13                            16 196 
 BRR  HZ EP        9 9 31.16                             150     0.010   76 304 
 BRR  HN ES   1    9 9 47.93                             150     0.6 7   76 304 
 BRR  HZ I         9 9 50.17         5.1 0.23                            76 304 
 RUS  HZ EP   1    9 9 33.43                             145     0.4 7   93 176 
 RUS  HN ES   1    9 9 50.84                             145     0.3 7   93 176 
 RUS  HZ I         9 9 52.78         2.2 0.35                            93 176 
 PTB  HZ EP   1    9 9 36.30                             131    -0.5 7  147 262 
 PTB  HN ES   1    9 9 57.31                             131     0.0 7  147 262 
                                                                                
