 2013 1219 0351 11.9 L   6.764 -73.199145.0  RSN  4 0.3 1.0LRSN                1
 GAP=196        0.48       3.5     6.5  6.8  0.1183E+02  0.1705E+00 -0.1369E+02E
 Epicentro: VILLANUEVA - SANTANDER                                             3
 ACTION:UPD 14-01-13 10:19 OP:ep   STATUS:               ID:20131219035111 L   I
 OLDACT:REG 13-12-19 06:21 OP:jn   STATUS:               ID:20131219035000     3
 2013-12-19-0350-00M.COL___285                                                 6
 STAT SP IPHASW D HRMM SECON CODA AMPLIT PERI AZIMU VELO AIN AR TRES W  DIS CAZ7
 BAR2 SZ ES   2    351 46.95                             172    0.40 5 19.0 175 
 RUS  HZ EP   1    351 35.45                             145    0.11 7 97.2 172 
 RUS  HN ES        351 53.46                             145   -0.1610 97.2 172 
 RUS  HZ I         351 55.44         1.0 0.24            144           97.2 172 
 PTB  HZ EP   2    351 38.82                             133    0.58 5  141 260 
 PTB  HN ES   2    351 58.51                             133   -0.26 5  141 260 
 PTB  HZ I         352  1.69         2.1 0.16            131            141 260 
 SML  HZ EP        351 48.52                             117   -0.12 8  245 337 
 SML  HN ES        352 17.29                             117    0.00 8  245 337 
                                                                                
