 2015 1119 0517 15.5 L   6.819 -73.094145.1  RSN  6 0.3 1.6LRSN                1
 GAP=244        0.77       4.1     4.8  5.6  0.6308E+01  0.8584E+01  0.4821E+01E
 Epicentro: LOS SANTOS - SANTANDER                                             3
 ACTION:UPD 15-12-28 16:11 OP:cam  STATUS:               ID:20151119051715 L   I
 OLDACT:REG 15-11-19 13:08 OP:ak   STATUS:               ID:20151119050748     3
 2015-11-19-0507-48M.COL___313                                                 6
 STAT SP IPHASW D HRMM SECON CODA AMPLIT PERI AZIMU VELO AIN AR TRES W  DIS CAZ7
 BAR2 EZ EP        517 35.10                             169    0.0210 26.9 201 
 BAR2 EZ ES        517 50.54                             169    0.1510 26.9 201 
 BAR2 EZ I         517 51.61        13.3 0.14            168           26.9 201 
 BRR  HZ EP        517 36.94                             151    0.1710 75.4 295 
 BRR  HE ES        517 53.63                             151    0.2310 75.4 295 
 RUS  HZ EP        517 39.15                             143   -0.1210  102 179 
 RUS  HN ES        517 57.79                             143   -0.0610  102 179 
 RUS  HZ I         517 59.44         2.7 0.26            143            102 179 
 SPBC HZ EP        517 44.09                             128   -0.31 9  168 220 
 SPBC HN ES        518  6.59                             128   -0.39 9  168 220 
 SPBC HZ I         518  8.83         7.2 0.18            128            168 220 
 ZAR  HE ES        518 13.42                             122   -0.55 8  209 291 
 GUY2CHZ EP        518  0.27                             112    0.58 7  307 235 
 GUY2CHE ES        518 34.76                             112    0.56 7  307 235 
 GUY2CHZ I         518 46.97         1.3 0.68                           307 235 
                                                                                
