 2010  519 0633 19.5 L   7.003 -73.332157.2  RSN  4 0.4 1.7LRSN                1
 GAP=223        0.74      13.4    17.6 13.1 -0.1887E+03 -0.5664E+02  0.8725E+02E
 Epicentro: BETULIA - SANTANDER                                                3
 ACTION:UP  10-08-24 10:05 OP:vdl  STATUS:               ID:20100519063319 L   I
 2010-05-19-0620-00S.COL___104                                                 6
 STAT SP IPHASW D HRMM SECON CODA AMPLIT PERI AZIMU VELO SNR AR TRES W  DIS CAZ7
 BRR  HZ EP        633 40.35                             164    -0.310   44 285 
 BRR  HE ES   2    633 57.33                             164     0.1 5   44 285 
 BRR  HZ I         634  0.14         9.7 0.14                            44 285 
 OCA  SZ EP   2    633 46.60                             137    -0.1 5  137   1 
 OCA  SZ ES   2    634  8.52                             137     0.7 5  137   1 
 OCA  SZ I         634 12.93         7.0 0.22                           137   1 
 HEL  HZ EP   2    633 58.64                             118    -0.3 4  259 250 
 HEL  HE ES   2    634 29.39                             118    -0.2 4  259 250 
 HEL  HZ I         634 36.45         2.0 0.75                           259 250 
 RREF BZ EP   1    634  6.91                             113     0.7 5  322 224 
 RREF BE ES   2    634 43.03                             113     0.4 3  322 224 
 RREF BZ I         634 49.30         4.2 0.50                           322 224 
                                                                                
