 2016 1219 0929 53.2 L   6.840 -73.343117.8  RSN  7 0.4 1.1LRSN                1
 GAP=106        0.75       3.6     3.3  6.4  0.2422E+01  0.4703E+01  0.8610E+01E
 Epicentro: ZAPATOCA - SANTANDER                                               3
 ACTION:UPD 17-01-11 20:16 OP:rebc STATUS:               ID:20161219092953 L   I
 OLDACT:REG 16-12-19 13:52 OP:cog  STATUS:               ID:20161219092745     3
 2016-12-19-0928-00M.COL___321                                                 6
 STAT SP IPHASW D HRMM SECON CODA AMPLIT PERI AZIMU VELO AIN AR TRES W  DIS CAZ7
 BAR2 EZ EP        930  9.87                             164    0.1310 32.6 147 
 BAR2 EZ I         930 24.15                             161           32.6 147 
 BRR  HE ES        930 23.56                             155    0.1710 50.4 306 
 PAM  EZ EP        930 13.55                             140    0.1010 90.1  52 
 PAM  EN ES        930 28.96                             140   -0.3010 90.1  52 
 RUS  HZ EP        930 14.92                             135   -0.0710  109 165 
 RUS  HN ES        930 32.13                             135    0.1410  109 165 
 PTB  HZ EP        930 15.49                             129   -0.5710  127 255 
 PTB  HN ES   3    930 32.36                             129   -1.53 2  127 255 
 PTB  HZ I         930 36.85         2.1 0.14            130            127 255 
 ZAR  HE ES        930 44.03                             119    0.25 9  182 293 
 CHI  HZ EP        930 29.84                             111    0.40 8  248 190 
                                                                                
