 2010  819 0833 33.5 L   6.778 -73.096145.1  RSN  4 0.3 1.7LRSN                1
 GAP=197        0.71      13.1    21.7  9.2  0.2562E+03 -0.1026E+03 -0.5589E+02E
 Epicentro: LOS SANTOS - SANTANDER                                             3
 ACTION:UP  10-09-07 10:56 OP:vdl  STATUS:               ID:20100819083332 L   I
 2010-08-19-0830-19S.COL___117                                                 6
 STAT SP IPHASW D HRMM SECON CODA AMPLIT PERI AZIMU VELO SNR AR TRES W  DIS CAZ7
 BAR2 SZ EP   1    833 52.96                             171    -0.1 7   23 205 
 BAR2 SZ ES   1    834  8.35                             171     0.1 7   23 205 
 BAR2 SZ I         834  9.34        13.1 0.18                            23 205 
 GIR2 SZ EP   3    833 52.96                             166    -0.2 2   35 342 
 BRR  HZ EP        833 54.67                             150    -0.310   77 298 
 BRR  HZ I         833 54.90        12.8 0.07                            77 298 
 BRR  HN ES        834 11.78                             150     0.110   77 298 
 RUS  HZ EP   1    833 57.54                             144     0.6 7   98 179 
 RUS  HN ES   1    834 14.97                             144    -0.3 7   98 179 
 RUS  HZ I         834 16.55         4.3 0.24                            98 179 
                                                                                
