 2013  219 0933 58.0 L   6.738 -73.214155.4  RSN  7 0.4 1.6LRSN                1
 GAP=172        0.88       4.9     6.8  9.3  0.1036E+02  0.7155E+01 -0.6538E+01E
 Epicentro: VILLANUEVA - SANTANDER                                             3
 ACTION:UPD 13-03-12 09:34 OP:ep   STATUS:               ID:20130219093358 L   I
 2013-02-19-0930-00M.COL___241                                                 6
 STAT SP IPHASW D HRMM SECON CODA AMPLIT PERI AZIMU VELO AIN AR TRES W  DIS CAZ7
 BAR2 SZ EP   1    934 18.73                             174    0.05 7 16.5 168 
 BAR2 SZ ES   1    934 34.02                             174   -0.78 7 16.5 168 
 BAR2 SZ I         934 34.99        18.6 0.26            172           16.5 168 
 BRR  HZ EP   1    934 20.64                             155    0.58 7 68.6 307 
 BRR  HN ES   1    934 37.92                             155    0.66 7 68.6 307 
 BRR  HZ I         934 40.91         6.4 0.30            151           68.6 307 
 RUS  HZ EP   1    934 22.58                             147    0.28 7 94.6 171 
 RUS  HN ES   1    934 41.33                             147    0.07 7 94.6 171 
 RUS  HZ I         934 42.24         3.6 0.28            149           94.6 171 
 PTB  HZ EP   1    934 24.30                             136   -0.73 7  139 261 
 PTB  HN ES   1    934 46.30                             136    0.19 7  139 261 
 PTB  HZ I         934 48.48         3.6 0.28            134            139 261 
 OCA  HN ES   1    934 50.70                             131   -0.05 7  166 356 
 ZAR  HN ES   1    934 55.91                             125   -0.25 6  200 295 
 ZAR  HZ I         935  3.74         5.6 0.40            124            200 295 
 SML  HN ES   1    935  4.57                             119   -0.24 6  247 338 
                                                                                
