 2012 1119 0821 51.5 L   6.791 -73.153146.5  RSN 14 0.3 2.2LRSN                1
 GAP= 71        0.60       2.3     2.5  4.2  0.6392E-01  0.1492E+01  0.1571E+00E
 Epicentro: LOS SANTOS - SANTANDER                                             3
 ACTION:UPD 12-12-05 15:34 OP:}ep  STATUS:               ID:20121119082151 L   I
 2012-11-19-0820-00M.COL___234                                                 6
 STAT SP IPHASW D HRMM SECON CODA AMPLIT PERI AZIMU VELO AIN AR TRES W  DIS CAZ7
 BAR2 SZ EP        822 11.25                             171    0.0510 22.2 189 
 BAR2 SZ I         822 28.01        33.2 0.25                          22.2 189 
 GIR2 SZ EP   1    822 11.39                             167    0.10 7 32.2 352 
 BRR  HZ EP        822 13.21                             153    0.4910 71.0 300 
 BRR  HE ES   1    822 29.65                             153    0.38 7 71.0 300 
 BRR  HZ I         822 35.50        22.6 0.21                          71.0 300 
 PAM  SZ EP        822 13.55                             151   -0.3210 78.7  39 
 PAM  SE ES   1    822 31.26                             151   -0.06 7 78.7  39 
 RUS  HZ EP        822 15.12                             144   -0.1410 99.6 176 
 RUS  HE ES        822 33.79                             144    0.0010 99.6 176 
 RUS  HE I         822 35.95        21.9 0.47                          99.6 176 
 PTB  HZ EP        822 18.01                             132   -0.44 9  147 259 
 PTB  HE ES   1    822 39.24                             132   -0.22 7  147 259 
 PTB  HZ I         822 45.13        17.1 0.18                           147 259 
 TAM  HZ EP        822 19.36                             131    0.08 9  156 105 
 OCA  HZ EP   1    822 20.22                             130    0.26 7  161 353 
 ZAR  HZ EP   1    822 23.77                             123   -0.19 6  204 292 
 ZAR  HE ES   1    822 49.08                             123   -0.20 6  204 292 
 ZAR  HZ I         822 55.71        17.0 0.31                           204 292 
 NOR  HZ EP        822 27.34                             119    0.19 8  233 235 
 NOR  HN ES   1    822 54.89                             119   -0.06 6  233 235 
 NOR  HZ I         823  2.61        17.0 0.15                           233 235 
 SML  HZ EP   1    822 28.14                             118   -0.10 6  244 336 
 SML  HE ES   1    822 56.55                             118   -0.34 6  244 336 
 CHI  HZ EP   1    822 29.06                             117   -0.05 6  247 195 
 CHI  HN ES   2    822 58.29                             117   -0.16 4  247 195 
 CHI  HZ I         823  4.52         7.1 0.32                           247 195 
 HEL  HZ EP   1    822 32.48                             115    0.84 6  271 256 
 HEL  HZ I         823 10.20         8.5 0.48                           271 256 
 PRA  HZ EP   1    822 44.77                             107   -0.13 4  391 210 
 PRA  HZ I         823 33.03         8.6 0.29                           391 210 
                                                                                
