 2015  719 0656 40.4 L   6.817 -73.162145.8  RSN  9 0.3 1.7LRSN                1
 GAP=134        0.69       2.6     4.0  6.7  0.3301E+00  0.1407E+02 -0.3694E+00E
 Epicentro: LOS SANTOS - SANTANDER                                             3
 ACTION:UPD 15-09-08 21:49 OP:cam  STATUS:               ID:20150719065640 L   I
 OLDACT:DUP 15-07-19 18:26 OP:spq  STATUS:               ID:20150719064748d    3
 2015-07-19-0647-47M.COL___340                                                 6
 STAT SP IPHASW D HRMM SECON CODA AMPLIT PERI AZIMU VELO AIN AR TRES W  DIS CAZ7
 BAR2 EZ EP        657  0.32                             170    0.2110 25.0 185 
 BAR2 EZ ES   1    657 14.97                             170   -0.48 7 25.0 185 
 BAR2 EZ I         657 16.17         6.9 0.20            169           25.0 185 
 PAM  EZ EP   1    657  3.07                             151    0.42 7 77.1  41 
 PAM  EN ES        657 20.17                             151    0.2110 77.1  41 
 PAM  EZ I         657 22.14        10.4 0.46            154           77.1  41 
 RUS  HZ EP   1    657  4.08                             143   -0.27 7  103 175 
 RUS  HE ES   1    657 23.16                             143    0.17 7  103 175 
 RUS  HZ I         657 23.85         5.1 0.32            145            103 175 
 OCA  HE ES        657 30.17                             130   -0.32 9  158 354 
 OCA  HZ I         657 34.56        10.3 0.40            130            158 354 
 ZAR  HZ EP   1    657 12.70                             123    0.05 6  202 292 
 ZAR  HE ES        657 37.67                             123   -0.10 9  202 292 
 ZAR  HZ I         657 43.28         4.6 0.42            122            202 292 
 SML  HZ EP   1    657 16.26                             118   -0.55 6  241 335 
 SML  HE ES   1    657 45.38                             118    0.21 6  241 335 
 SML  HZ I         657 48.35         9.4 0.24            118            241 335 
 CHI  HN ES   1    657 47.46                             117   -0.35 6  250 195 
 CHI  HZ I         657 51.22         4.0 0.64            118            250 195 
 HEL  HE ES   1    657 52.51                             115    0.73 6  271 255 
 HEL  HZ I         657 58.03         3.0 0.28            115            271 255 
 GUY2CHZ EP   4    657 25.84                             112    1.82 0  301 234 
 GUY2CHE ES   4    657 59.68                             112    1.68 0  301 234 
 GUY2CHZ I         658  4.16         2.4 0.38                           301 234 
                                                                                
