 2015  319 0723 19.4 L   6.821 -73.365122.6  RSN  5 0.7 1.2LRSN                1
 GAP=102        1.74       8.4     7.5 12.9 -0.5016E+01  0.8892E+01  0.8493E+01E
 Epicentro: SAN VICENTE DE CHUCURI - SANTANDER                                 3
 ACTION:UPD 15-04-30 16:27 OP:nd   STATUS:               ID:20150319072319 L   I
 OLDACT:REG 15-03-19 12:57 OP:stll STATUS:               ID:20150319071742     3
 2015-03-19-0717-42M.COL___275                                                 6
 STAT SP IPHASW D HRMM SECON CODA AMPLIT PERI AZIMU VELO AIN AR TRES W  DIS CAZ7
 BAR2 EZ EP     C  723 37.14                             164    0.6210 32.3 141 
 BAR2 EZ I         723 37.25        11.2 0.12            167           32.3 141 
 BAR2 EZ ES        723 50.21                             164    0.3410 32.3 141 
 BRR  HZ EP        723 37.60                             156    0.7110 49.7 310 
 BRR  HN ES        723 51.29                             156    0.7810 49.7 310 
 BRR  HZ I         723 53.60         2.9 0.32            155           49.7 310 
 PAM  SZ EP        723 40.27                             141   -0.1110 93.2  52 
 PAM  SN ES        723 55.62                             141   -1.1110 93.2  52 
 PAM  SZ I         723 58.83         2.6 0.32            140           93.2  52 
 RUS  HZ EP        723 41.59                             136    0.0710  107 163 
 RUS  HZ I         723 42.57         1.3 0.10            138            107 163 
 RUS  HN ES        723 58.60                             136   -0.1610  107 163 
 PTB  HZ EP        723 42.41                             131    0.0110  125 256 
 PTB  HZ I         723 44.97         2.5 0.16            131            125 256 
 PTB  HN ES        723 59.08                             131   -1.2410  125 256 
                                                                                
