 2012  219 0135 57.0 L   7.407 -73.159135.8  RSN  7 0.3 1.7LRSN                1
 GAP=185        0.42       4.3     3.3  4.5  0.1463E+01  0.6662E+01  0.8571E+00E
 ACTION:UP  12-03-07 16:31 OP:epov STATUS:               ID:20120219013557 L   I
 2012-02-19-0130-00M.COL___188                                                 6
 STAT SP IPHASW D HRMM SECON CODA AMPLIT PERI AZIMU VELO AIN AR TRES W  DIS CAZ7
 GIR2 SZ EP   2    136 15.37                             164   -0.26 5 36.5 186 
 GIR2 SZ ES   2    136 30.31                             164    0.13 5 36.5 186 
 PAM  SZ EP   2    136 17.17                             158    0.45 5 51.3  98 
 PAM  SN ES   1    136 32.11                             158   -0.01 7 51.3  98 
 BRR  HZ EP   2    136 16.80                             151   -0.16 5 69.5 242 
 BRR  HE ES   2    136 32.36                             151   -0.18 5 69.5 242 
 BRR  HZ I         136 33.42        10.5 0.13                          69.5 242 
 BAR2 SZ ES   2    136 35.61                             144    0.07 5 90.2 182 
 RUS  HZ EP   1    136 25.87                             126    0.16 7  168 177 
 RUS  HN ES   2    136 47.64                             126   -0.48 5  168 177 
 PTB  HZ EP   1    136 25.76                             125    0.20 7  173 236 
 PTB  HE ES   2    136 48.18                             125    0.33 4  173 236 
 ZAR  HZ EP   1    136 26.74                             122   -0.36 7  188 273 
 ZAR  HE ES   2    136 50.69                             122    0.10 4  188 273 
 ZAR  HZ I         136 53.43         5.9 0.33                           188 273 
                                                                                
