 2017  919 0555 31.1 L   6.716 -73.111143.4  RSN 11 0.3 1.4LRSN                1
 GAP= 90        0.61       2.7     2.5  3.7 -0.1754E+01 -0.5928E+00  0.2973E+01E
 Epicentro: JORDAN - SANTANDER                                                 3
 ACTION:UPD 17-10-05 19:14 OP:rebc STATUS:               ID:20170919055531 L   I
 OLDACT:UP  17-09-19 16:28 OP:and  STATUS:               ID:20170919054738     3
 OLDACT:UP  17-09-19 16:28 OP:and  STATUS:               ID:20170919054738     3
 OLDACT:UP  17-09-19 16:28 OP:and  STATUS:               ID:20170919054738     3
 OLDACT:UP  17-09-19 16:27 OP:and  STATUS:               ID:20170919054738     3
 OLDACT:UP  17-09-19 16:26 OP:and  STATUS:               ID:20170919054738     3
 OLDACT:UP  17-09-19 16:26 OP:and  STATUS:               ID:20170919054738     3
 OLDACT:UP  17-09-19 16:25 OP:and  STATUS:               ID:20170919054738     3
 OLDACT:REG 17-09-19 12:58 OP:and  STATUS:               ID:20170919054738     3
 2017-09-19-0548-00M.COL___444                                                 6
 STAT SP IPHASW D HRMM SECON CODA AMPLIT PERI AZIMU VELO AIN AR TRES W  DIS CAZ7
 BAR2 EZ EP        555 50.13                             173   -0.1710 15.8 210 
 BAR2 EZ ES        556  5.20                             173   -0.0910 15.8 210 
 BAR2 EZ I         556  6.34         5.8 0.20            168           15.8 210 
 BRR  HZ EP        555 52.35                             149   -0.1110 79.3 303 
 BRR  HN ES        556  9.52                             149    0.3810 79.3 303 
 BRR  HZ I         556 10.21         5.1 0.20            151           79.3 303 
 PAM  EZ IP     C  555 53.42                             149    0.0510 82.6  33 
 PAM  EN ES        556 10.48                             149   -0.2710 82.6  33 
 PAM  EZ I         556 12.78         4.0 0.42            146           82.6  33 
 RUS  HZ EP        555 53.91                             146   -0.0210 91.1 178 
 RUS  HN ES   2    556 12.36                             146    0.61 5 91.1 178 
 RUS  HZ I         556 13.92         3.9 0.40            138           91.1 178 
 TAM  HZ EP        555 58.29                             131    0.27 9  149 102 
 SPBC HZ EP        555 59.01                             129    0.05 9  159 222 
 SPBC HN ES        556 20.37                             129   -0.35 9  159 222 
 SPBC HZ I         556 23.27         3.7 0.22            125            159 222 
 YPLC HZ EP        555 59.86                             128    0.14 9  167 151 
 YPLC HZ I         556 26.46         3.1 0.34            121            167 151 
 ZAR  HZ EP        556  4.34                             121    0.22 8  211 294 
 ZAR  HE ES   2    556 29.33                             121   -0.57 4  211 294 
 ZAR  HZ I         556 33.46         3.6 0.44            119            211 294 
 NOR  HZ EP        556  6.59                             118    0.14 8  233 237 
 NOR  HN ES        556 33.92                             118   -0.12 8  233 237 
 NOR  HZ I         556 39.32         1.8 0.24            114            233 237 
 GUY2CHZ EP   9    556 17.42                             112    3.07 0  299 237 
 GUY2CHN ES        556 51.63                             111    0.46 7  299 237 
 GUY2CHZ I         556 56.60         1.6 0.58                           299 237 
 PTGC HZ EP   2    556 12.87                             112   -0.81 4  299 159 
                                                                                
