 2015  619 0742  5.7 L   6.796 -73.117144.1  RSN  8 0.4 1.7LRSN                1
 GAP=206        1.01       4.1     5.9  6.4 -0.6128E+01  0.1020E+02  0.1230E+01E
 Epicentro: LOS SANTOS - SANTANDER                                             3
 ACTION:UPD 15-09-10 22:13 OP:cam  STATUS:               ID:20150619074205 L   I
 OLDACT:REG 15-06-19 12:45 OP:drio STATUS:               ID:20150619073747     3
 2015-06-19-0737-47M.COL___304                                                 6
 STAT SP IPHASW D HRMM SECON CODA AMPLIT PERI AZIMU VELO AIN AR TRES W  DIS CAZ7
 BAR2 EZ EP        742 25.18                             170    0.0810 23.6 198 
 BAR2 EZ ES        742 39.88                             170   -0.3810 23.6 198 
 BAR2 EZ I         742 40.87        10.9 0.22            167           23.6 198 
 BRR  HZ EP        742 27.10                             151    0.2910 74.2 298 
 BRR  HN ES        742 43.99                             151    0.6910 74.2 298 
 BRR  HZ I         742 45.53         9.5 0.14            146           74.2 298 
 OCA  HZ EP        742 33.97                             129    0.04 9  161 352 
 OCA  HN ES        742 55.35                             129   -0.62 9  161 352 
 OCA  HZ I         742 58.49        14.2 0.28            129            161 352 
 ZAR  HZ EP        742 38.38                             122    0.05 8  207 292 
 ZAR  HN ES        743  4.34                             122    0.54 8  207 292 
 ZAR  HZ I         743  9.89         4.9 0.24            120            207 292 
 NOR  HN ES        743  9.09                             118   -0.45 8  237 235 
 HEL  HZ EP        742 46.01                             114   -0.12 8  275 256 
 HEL  HN ES        743 16.96                             114   -0.72 8  275 256 
 HEL  HZ I         743 26.59         1.7 0.20            113            275 256 
 MON  HZ EP        742 54.49                             108   -0.44 6  356 308 
 MON  HE ES   4    743 32.33                             108   -1.02 0  356 308 
 PRA  HZ EP        742 59.83                             106    0.56 6  393 210 
 PRA  HN ES        743 41.47                             106    0.39 6  393 210 
 PRA  HZ I         743 47.25         1.3 0.64            106            393 210 
                                                                                
