 2016  619 0321 20.0 L   6.873 -73.320121.3  RSN 17 0.5 2.3LRSN                1
 GAP=106        1.14       3.1     3.0  5.5 -0.2527E+00  0.3952E+01  0.1555E+01E
 Epicentro: BETULIA - SANTANDER                                                3
 ACTION:UPD 16-07-21 22:20 OP:rebc STATUS:               ID:20160619032120 L   I
 OLDACT:REG 16-06-19 12:19 OP:y    STATUS:               ID:20160619031743     3
 2016-06-19-0317-43M.COL___340                                                 6
 STAT SP IPHASW D HRMM SECON CODA AMPLIT PERI AZIMU VELO AIN AR TRES W  DIS CAZ7
 BAR2 EZ IP     D  321 37.10                             163    0.1010 34.5 154 
 BAR2 EZ ES        321 50.12                             163   -0.1610 34.5 154 
 BRR  HZ IP     C  321 37.48                             156    0.1510 50.5 301 
 BRR  HN ES        321 51.54                             156    0.6710 50.5 301 
 BRR  HZ I         321 52.50       116.9 0.10                          50.5 301 
 RUS  HZ EP        321 42.12                             135   -0.2010  112 166 
 RUS  HN ES        321 59.70                             135   -0.0510  112 166 
 RUS  HZ I         322  2.83        11.1 0.20                           112 166 
 PTB  HZ IP     C  321 42.36                             129   -1.0810  131 254 
 PTB  HN ES        322  2.15                             129    0.4110  131 254 
 PTB  HZ I         322  4.42        43.8 0.26                           131 254 
 OCA  HZ EP        321 45.35                             125   -0.23 9  151   0 
 OCA  HN ES        322  5.21                             125   -0.34 9  151   0 
 OCA  HZ I         322 11.24        75.3 0.26                           151   0 
 SPBC HZ EP        321 46.27                             124    0.02 9  159 212 
 SPBC HN ES        322  6.11                             124   -0.63 9  159 212 
 SPBC HZ I         322 10.24        34.7 0.26                           159 212 
 TAM  HZ IP     D  321 48.02                             121    0.05 9  176 106 
 TAM  HZ I         322  9.20        16.0 0.44                           176 106 
 TAM  HN ES        322  9.95                             121    0.15 9  176 106 
 ZAR  HZ EP        321 48.56                             119   -0.14 9  183 292 
 ZAR  HN ES        322 11.58                             119    0.47 9  183 292 
 ZAR  HZ I         322 14.74        36.1 0.30                           183 292 
 NOR  HZ EP        321 53.07                             114   -0.19 8  224 230 
 NOR  HN ES        322 19.13                             114   -0.08 8  224 230 
 NOR  HZ I         322 26.72        14.1 0.14                           224 230 
 ROSC BZ EP   2    321 56.72                             111    0.09 4  251 206 
 ROSC BN ES   4    322 28.33                             111    3.10 0  251 206 
 ROSC BZ I         322 31.26         8.1 0.35                           251 206 
 HEL  HZ EP        321 58.19                             111    1.01 8  256 253 
 HEL  HN ES        322 26.07                             111   -0.14 8  256 253 
 HEL  HZ I         322 32.22        13.8 0.26                           256 253 
 URE  HZ EP        321 56.64                             110   -0.93 8  263 292 
 URE  HN ES   4    322 25.43                             110   -1.46 0  263 292 
 URE  HZ I         322 27.14        23.1 0.18                           263 292 
 GUY2CHZ EP        322  2.01                             108    0.67 7  291 231 
 GUY2CHN ES        322 33.21                             108   -0.40 7  291 231 
 GUY2CHZ I         322 40.74        11.8 0.50                           291 231 
 CBOC HZ EP        322  4.95                             106    0.79 7  318 250 
 CBOC HN ES        322 38.01                             106   -0.62 7  318 250 
 CBOC HZ I         322 41.77         6.6 0.22                           318 250 
 PRA  HZ EP        322 13.38                             102    0.86 6  390 207 
 PRA  HN ES        322 54.31                             102    0.80 6  390 207 
 PRA  HZ I         322 58.85         5.6 0.40                           390 207 
 ORTC HZ EP   2    322 13.41                             102    0.76 3  391 213 
 ORTC HN ES   4    322 56.05                             102    2.32 0  391 213 
 ORTC HZ I         323  0.09         3.9 0.52                           391 213 
 SJC  HZ EP   4    322 11.25                             102   -1.55 0  392 329 
 SJC  HE ES   4    322 51.12                             102   -2.88 0  392 329 
 SJC  HZ I         322 56.72         4.3 0.26                           392 329 
                                                                                
