 2016 1019 0425  3.3 L   6.795 -73.112143.2  RSN 13 0.4 1.8LRSN                1
 GAP= 73        0.87       2.9     3.9  4.6 -0.2885E+01  0.5643E+00  0.3068E+01E
 Epicentro: LOS SANTOS - SANTANDER                                             3
 ACTION:UPD 16-11-09 19:20 OP:rebc STATUS:               ID:20161019042503 L   I
 OLDACT:UP  16-10-19 17:05 OP:and  STATUS:               ID:20161019041736     3
 OLDACT:UP  16-10-19 17:03 OP:and  STATUS:               ID:20161019041736     3
 OLDACT:UP  16-10-19 16:50 OP:and  STATUS:               ID:20161019041736     3
 OLDACT:UP  16-10-19 16:50 OP:and  STATUS:               ID:20161019041736     3
 OLDACT:UP  16-10-19 16:47 OP:and  STATUS:               ID:20161019041736     3
 OLDACT:REG 16-10-19 12:44 OP:y    STATUS:               ID:20161019041736     3
 2016-10-19-0418-00M.COL___329                                                 6
 STAT SP IPHASW D HRMM SECON CODA AMPLIT PERI AZIMU VELO AIN AR TRES W  DIS CAZ7
 BAR2 EZ EP        425 22.33                             170   -0.3410 23.7 199 
 BAR2 EZ ES        425 37.62                             170   -0.1310 23.7 199 
 BAR2 EZ I         425 38.57        21.4 0.24            169           23.7 199 
 BRR  HZ IP     C  425 24.11                             151   -0.3110 74.8 298 
 BRR  HN ES        425 41.25                             151    0.3910 74.8 298 
 BRR  HZ I         425 43.75        11.1 0.28            148           74.8 298 
 PAM  EZ IP     C  425 25.32                             151    0.1510 75.5  37 
 PAM  EN ES        425 42.19                             151   -0.0110 75.5  37 
 PAM  EZ I         425 45.16         7.9 0.44            153           75.5  37 
 RUS  HZ EP        425 26.67                             144   -0.1110 99.8 178 
 RUS  HN ES        425 45.41                             144    0.3410 99.8 178 
 RUS  HZ I         425 46.09         8.2 0.30            146           99.8 178 
 TAM  HZ EP     D  425 30.77                             131    0.30 9  151 105 
 PTB  HZ EP   9    425 29.04                             131   -1.39 0  151 259 
 PTB  HN ES        425 50.31                             132    0.14 9  151 259 
 PTB  HZ I         425 57.26         6.3 0.23            130            151 259 
 OCA  HZ EP   3    425 32.77                             129    1.22 2  161 352 
 OCA  HN ES        425 53.17                             129   -0.39 9  161 352 
 OCA  HZ I         425 59.38         8.6 0.26            129            161 352 
 SPBC HZ EP        425 31.31                             128   -0.52 9  165 220 
 SPBC HN ES        425 54.67                             128    0.62 9  165 220 
 SPBC HZ I         425 59.10        10.2 0.18            128            165 220 
 NOR  HZ EP   2    425 39.09                             118   -0.12 4  237 235 
 NOR  HN ES   2    426  6.05                             118   -1.15 4  237 235 
 NOR  HZ I         426 11.08         4.7 0.20            118            237 235 
 CHI  HZ EP        425 40.62                             117   -0.32 8  249 196 
 CHI  HN ES        426  9.88                             117   -0.40 8  249 196 
 CHI  HZ I         426 13.14         3.5 0.38            118            249 196 
 HEL  HZ EP   2    425 44.69                             114    0.88 4  276 256 
 HEL  HN ES   2    426 14.95                             114   -0.43 4  276 256 
 GUY2CHZ EP        425 47.79                             112    0.65 7  304 235 
 GUY2CHN ES   4    426 24.50                             112    3.20 0  304 235 
 PTGC HZ EP   4    425 45.48                             111   -1.39 0  307 159 
 CBOC HZ EP        425 51.03                             109    0.49 7  337 252 
                                                                                
