 2012  919 0402 38.6 L   6.830 -73.127145.0  RSN  7 0.3 1.4LRSN                1
 GAP=137        0.60       3.4     3.6  7.3  0.7437E+00  0.2775E+01  0.5392E+01E
 Epicentro: LOS SANTOS - SANTANDER                                             3
 ACTION:UPD 12-10-22 14:19 OP:ep   STATUS:               ID:20120919040238 L   I
 2012-09-19-0400-00M.COL___226                                                 6
 STAT SP IPHASW D HRMM SECON CODA AMPLIT PERI AZIMU VELO AIN AR TRES W  DIS CAZ7
 BAR2 SZ EP   1    4 2 57.97                             169   -0.21 7 27.0 193 
 BAR2 SZ I         4 3 13.98         5.8 0.18                          27.0 193 
 BRR  HZ EP        4 2 59.61                             152   -0.0410 71.5 295 
 BRR  HN ES   1    4 3 16.46                             152    0.37 7 71.5 295 
 BRR  HZ I         4 3 20.74         5.8 0.20                          71.5 295 
 PAM  SZ EP   1    4 3  0.64                             152    0.17 7 73.5  40 
 PAM  SN ES   1    4 3 17.42                             152   -0.13 7 73.5  40 
 PAM  SZ I         4 3 17.94         5.2 0.38                          73.5  40 
 RUS  HZ EP   1    4 3  2.34                             143   -0.14 7  104 177 
 RUS  HE ES   1    4 3 21.14                             143    0.02 7  104 177 
 RUS  HZ I         4 3 22.49         1.9 0.34                           104 177 
 PTB  HN ES   1    4 3 26.28                             131   -0.62 7  150 258 
 ZAR  HN ES   1    4 3 36.66                             122    0.30 6  205 291 
 CHI  HN ES   1    4 3 46.82                             117    0.49 6  252 195 
 CHI  HN I         4 3 54.59         2.3 0.42                           252 195 
                                                                                
