 2016  719 0539 32.7 L   6.799 -73.170148.5  RSN  6 0.4 1.5LRSN                1
 GAP=134        1.10       4.8     5.5  8.0 -0.7187E+00  0.7795E+01  0.3850E+01E
 Epicentro: LOS SANTOS - SANTANDER                                             3
 ACTION:UPD 17-03-29 16:52 OP:lp   STATUS:               ID:20160719053932 L   I
 OLDACT:REG 16-07-19 12:58 OP:ar   STATUS:               ID:20160719053759     3
 2016-07-19-0537-59S.COL___328                                                 6
 STAT SP IPHASW D HRMM SECON CODA AMPLIT PERI AZIMU VELO AIN AR TRES W  DIS CAZ7
 BAR2 EZ EP        539 52.55                             171   -0.0710 22.9 183 
 BAR2 EZ ES        540  7.49                             171   -0.6910 22.9 183 
 BRR  HZ EP        539 54.18                             154    0.1910 68.9 300 
 BRR  HN ES        540 11.51                             154    0.8910 68.9 300 
 BRR  HZ I         540 14.32         4.6 0.28            151           68.9 300 
 PAM  EZ EP        539 55.37                             151    0.0810 79.3  41 
 PAM  EN ES        540 12.81                             151   -0.1210 79.3  41 
 PAM  EZ I         540 14.51         4.0 0.50            154           79.3  41 
 RUS  HZ EP        539 56.60                             144   -0.0910  101 174 
 RUS  HN ES        540 15.61                             144    0.1810  101 174 
 RUS  HZ I         540 15.96         4.0 0.26            147            101 174 
 SPBC HZ EP        540  1.38                             130    0.17 9  161 218 
 SPBC HN ES        540 23.51                             130    0.04 9  161 218 
 SPBC HZ I         540 27.62         6.3 0.20            131            161 218 
 ZAR  HE ES        540 29.53                             123   -0.76 9  202 292 
 ZAR  HZ I         540 35.20         5.3 0.30            123            202 292 
                                                                                
