 2014  319 0126 51.1 L   6.561 -73.591108.0  RSN  8 0.4 1.8LRSN                1
 GAP= 98        0.99       4.5     3.8  7.2 -0.2443E+01  0.1109E+02 -0.8582E+01E
 Epicentro: EL CARMEN DE CHUCURI - SANTANDER                                   3
 ACTION:UPD 14-04-09 23:18 OP:nd   STATUS:               ID:20140319012651 L   I
 OLDACT:UP  14-03-19 14:44 OP:cam  STATUS:               ID:20140319011813d    3
 OLDACT:DUP 14-03-19 14:40 OP:cam  STATUS:               ID:20140319011813d    3
 OLDACT:UP  14-03-19 14:39 OP:cam  STATUS:               ID:20140319011812     3
 OLDACT:REG 14-03-19 08:40 OP:cam  STATUS:               ID:20140319011812     3
 2014-03-19-0118-12M.COL___232                                                 6
 STAT SP IPHASW D HRMM SECON CODA AMPLIT PERI AZIMU VELO AIN AR TRES W  DIS CAZ7
 BAR2 SZ EP     C  127  6.97                             156   -0.1210 45.3  86 
 BAR2 SZ ES        127 19.61                             156    0.0610 45.3  86 
 BAR2 SZ I         127 20.78        83.7 0.36            166           45.3  86 
 RUS  HZ EP        127 10.41                             137   -0.3110 92.9 143 
 RUS  HN ES        127 26.02                             137    0.0110 92.9 143 
 RUS  HZ I         127 27.19         5.5 0.36            147           92.9 143 
 PTB  HZ EP        127  9.89                             135   -0.4210 95.7 269 
 PTB  HN ES        127 25.40                             135    0.1310 95.7 269 
 PTB  HZ I         127 29.96         8.5 0.14            135           95.7 269 
 SPBC HZ EP        127 12.26                             130    0.2310  114 208 
 SPBC HE ES        127 29.00                             130    0.6510  114 208 
 SPBC HZ I         127 34.39        14.1 0.20            134            114 208 
 ZAR  HZ EP   1    127 18.39                             117    0.32 7  174 306 
 ZAR  HN ES   4    127 42.15                             117    3.06 0  174 306 
 ZAR  HZ I         127 45.75         7.7 0.10            119            174 306 
 NOR  HZ EP        127 18.76                             116    0.02 9  179 232 
 NOR  HN ES        127 39.38                             116   -0.90 9  179 232 
 NOR  HZ I         127 43.55         6.5 0.18            120            179 232 
 HEL  HZ EP   1    127 24.33                             111    0.85 6  218 259 
 HEL  HN ES   4    127 50.14                             111    1.41 0  218 259 
 HEL  HZ I         127 55.74         3.7 0.22            114            218 259 
 SML  HZ EP        127 27.11                             108    0.05 8  253 348 
 SML  HN ES   4    127 57.49                             108    2.40 0  253 348 
 SML  HZ I         127 59.65        11.3 0.26            111            253 348 
                                                                                
