 2016  719 0336 46.6 L   6.813 -73.132142.6  RSN 19 0.5 2.2LRSN                1
 GAP=102        1.05       3.4     3.0  5.1 -0.1105E+01  0.4820E+01  0.3919E+01E
 Epicentro: LOS SANTOS - SANTANDER                                             3
 ACTION:UPD 17-03-29 16:52 OP:lp   STATUS:               ID:20160719033646 L   I
 OLDACT:UP  16-07-19 16:11 OP:ar   STATUS:               ID:20160719032759     3
 OLDACT:REG 16-07-19 12:50 OP:ar   STATUS:               ID:20160719032759     3
 2016-07-19-0327-59S.COL___334                                                 6
 STAT SP IPHASW D HRMM SECON CODA AMPLIT PERI AZIMU VELO AIN AR TRES W  DIS CAZ7
 BAR2 EZ EP        337  5.67                             170   -0.1710 25.1 193 
 BAR2 EZ ES        337 20.46                             170   -0.4310 25.1 193 
 BRR  HZ EP        337  7.33                             152   -0.0710 71.8 297 
 BRR  HN ES        337 24.21                             152    0.5510 71.8 297 
 BRR  HZ I         337 24.96        32.7 0.12            155           71.8 297 
 PAM  EZ EP        337  8.20                             151   -0.1110 75.3  39 
 PAM  EN ES        337 25.29                             151    0.0110 75.3  39 
 PAM  EZ I         337 27.22        45.8 0.54            152           75.3  39 
 RUS  HZ EP        337 10.10                             143    0.0010  102 177 
 RUS  HN ES        337 29.17                             143    0.7110  102 177 
 RUS  HZ I         337 30.33        14.3 0.32            140            102 177 
 TAM  HZ EP        337 14.07                             130    0.19 9  154 106 
 TAM  HN ES        337 34.84                             130   -0.36 9  154 106 
 TAM  HZ I         338  0.69        10.2 0.46            128            154 106 
 SPBC HZ EP        337 14.80                             128   -0.21 9  165 219 
 SPBC HE ES        337 37.00                             128   -0.21 9  165 219 
 SPBC HZ I         337 44.93        28.2 0.28            127            165 219 
 ZAR  HZ EP        337 19.92                             122    1.04 9  205 292 
 ZAR  HN ES        337 43.28                             122   -0.82 9  205 292 
 ZAR  HZ I         337 48.60        34.6 0.32            123            205 292 
 NOR  HZ EP        337 22.00                             118   -0.33 8  237 234 
 NOR  HN ES        337 49.78                             118   -0.45 8  237 234 
 NOR  HZ I         337 56.62        19.8 0.16            118            237 234 
 CHI  HZ EP        337 24.60                             116    0.32 8  250 195 
 CHI  HE ES        337 53.86                             116    0.16 8  250 195 
 CHI  HZ I         338  1.55         8.8 0.32            115            250 195 
 HEL  HZ EP        337 27.35                             114    0.54 8  274 256 
 HEL  HN ES        337 58.52                             114    0.31 8  274 256 
 HEL  HZ I         338  4.24        10.4 0.62            114            274 256 
 URE  HZ EP   4    337 30.37                             113    2.81 0  285 292 
 URE  HN ES   4    337 56.27                             113   -3.28 0  285 292 
 URE  HZ I         338  5.48        23.6 0.32            114            285 292 
 GUY2CHZ EP   4    337 32.25                             112    2.00 0  303 235 
 GUY2CHN ES        338  4.89                             112    0.55 7  303 235 
 GUY2CHZ I         338 13.46        14.1 0.34                           303 235 
 PTGC HZ EP   9    337 28.63                             111   -1.73 0  310 159 
 PTGC HN ES        338  2.96                             111    0.16 7  310 159 
 PTGC HZ I         338  9.72         4.3 0.24            110            310 159 
 ELA  HZ EP        337 32.82                             110   -0.69 7  331 229 
 ELA  HE ES        338  9.38                             110   -0.76 7  331 229 
 ELA  HZ I         338 20.39         7.9 0.72            109            331 229 
 CBOC HZ EP        337 33.19                             109   -0.36 7  335 252 
 CBOC HN ES   4    338 11.36                             109    1.14 0  335 252 
 CBOC HZ I         338 14.26         3.6 0.38            109            335 252 
 DBB  EZ EP   9    337 29.71                             109   -4.35 0  341 274 
 DBB  HN ES        338  7.36                             110    0.59 7  341 274 
 DBB  EZ I         338 13.35         5.5 0.48            109            341 274 
 PRA  HZ EP        337 40.90                             106    0.70 6  394 210 
 PRA  HN ES        338 21.54                             106   -0.51 6  394 210 
 PRA  HZ I         338 31.39         6.9 0.30            106            394 210 
 PAL  HZ EP        337 41.25                             105   -0.60 6  408 239 
 PAL  HN ES        338 25.68                             105    0.70 6  408 239 
 PAL  HZ I         338 30.10         2.7 0.18            105            408 239 
 SJC  HZ EP   4    337 39.64                             105   -2.32 0  409 327 
 SJC  HN ES   4    338 20.71                             105   -4.47 0  409 327 
 SJC  HZ I         338 24.26         3.4 0.58            106            409 327 
                                                                                
