 2013  519 0038 17.8 L   6.403 -73.711 14.5  RSN 10 0.4 2.1LRSN                1
 GAP=105        1.04       2.4     2.2  4.6  0.3409E+00  0.4885E+01  0.2251E+01E
 Epicentro: SANTA HELENA DEL OPON - SANTANDER                                  3
 ACTION:UPD 13-06-20 09:51 OP:ep   STATUS:               ID:20130519003817 L   I
 2013-05-19-0036-49M.COL___227                                                 6
 STAT SP IPHASW D HRMM SECON CODA AMPLIT PERI AZIMU VELO AIN AR TRES W  DIS CAZ7
 BAR2 SZ EP        038 28.23                             100    0.0010 62.1  70 
 BAR2 SZ ES        038 35.55                             100   -0.7910 62.1  70 
 BAR2 SZ I         038 35.93        65.4 0.14             47           62.1  70 
 BRR  HZ EP        038 30.58                              98    0.2510 77.8 360 
 BRR  HN ES        038 40.42                              98    0.3410 77.8 360 
 BRR  HZ I         038 46.20        42.0 0.16             47           77.8 360 
 PTB  HZ EP        038 31.13                              97   -0.1110 83.8 280 
 PTB  HN ES   1    038 40.86                              97   -0.84 7 83.8 280 
 PTB  HZ I         038 43.87        44.9 0.14             47           83.8 280 
 RUS  HZ EP        038 33.13                              97    0.5310 89.5 129 
 RUS  HN ES        038 43.85                              97   -0.2710 89.5 129 
 RUS  HZ I         038 45.20        35.5 0.18             47           89.5 129 
 GIR2 SZ EP        038 33.17                              97    0.2510 94.1  37 
 GIR2 SZ I         038 45.15        32.1 0.22             47           94.1  37 
 PAM  SZ EP   1    038 42.42                              56    0.60 7  152  47 
 PAM  SE ES   1    039  0.07                              56   -0.47 7  152  47 
 PAM  SZ I         039  5.79        50.5 0.16             47            152  47 
 NOR  HZ EP        038 42.34                              56    0.30 9  158 234 
 NOR  HE ES        039  0.92                              56   -0.00 9  158 234 
 NOR  HZ I         039  2.32        35.8 0.18             47            158 234 
 ZAR  HZ EP   1    038 43.71                              56   -0.34 7  175 314 
 ZAR  HE ES   1    039  4.09                              56   -0.41 7  175 314 
 ZAR  HZ I         039  5.91        36.0 0.28             47            175 314 
 HEL  HZ EP     D  038 48.55                              56    0.61 9  202 263 
 HEL  HN ES   1    039 11.03                              56   -0.40 6  202 263 
 HEL  HZ I         039 12.86        21.3 0.20             37            202 263 
 TAM  HN ES   4    039 17.91                              56    4.97 0  212  89 
 TAM  HZ I         039 23.95        18.1 0.30             37            212  89 
                                                                                
