 2012  519 0912  9.3 L   6.787 -73.130149.5  RSN  5 0.4 1.6LRSN                1
 GAP=184        0.59       5.6     8.3  8.4  0.9638E+01  0.2301E+02  0.3745E+01E
 Epicentro: LOS SANTOS - SANTANDER                                             3
 ACTION:UP  12-07-05 12:06 OP:pat  STATUS:               ID:20120519091209 L   I
 2012-05-19-0910-00M.COL___200                                                 6
 STAT SP IPHASW D HRMM SECON CODA AMPLIT PERI AZIMU VELO SNR AR TRES W  DIS CAZ7
 BAR2 SZ ES   2    912 44.79                             171    -0.3 5   22 195 
 BAR2 SZ I         912 46.18        10.5 0.46                            22 195 
 BRR  HN ES   2    912 48.61                             152     0.7 5   73 299 
 RUS  HZ EP   2    912 33.79                             145     0.4 5   99 177 
 RUS  HN ES   2    912 51.88                             145    -0.2 5   99 177 
 PTB  HZ EP        912 36.69                             133     0.010  149 259 
 PTB  HN ES   2    912 57.82                             133    -0.3 5  149 259 
 PTB  HZ I         913  0.62         3.5 0.40                           149 259 
 OCA  HN ES   2    913  0.19                             130    -0.3 5  162 353 
                                                                                
