 2012  719 0744 37.1 L   6.766 -73.185141.2  RSN  6 0.5 1.6LRSN                1
 GAP=179        1.11       7.0     8.0 11.2  0.1418E+02  0.1313E+02  0.2806E+01E
 Epicentro: VILLANUEVA - SANTANDER                                             3
 ACTION:UPD 12-08-14 11:45 OP:ep   STATUS:               ID:20120719074437 L   I
 2012-07-19-0740-00M.COL___201                                                 6
 STAT SP IPHASW D HRMM SECON CODA AMPLIT PERI AZIMU VELO AIN AR TRES W  DIS CAZ7
 BAR2 SZ EP        744 56.21                             172     0.110   19 179 
 BAR2 SZ I         744 56.57        10.1 0.10            170             19 179 
 BAR2 SZ ES   1    745 10.03                             172    -0.9 7   19 179 
 BRR  HZ EP        744 58.01                             152     0.310   69 303 
 BRR  HZ I         744 58.19        13.7 0.19            153             69 303 
 BRR  HN ES   1    745 14.38                             152     0.7 7   69 303 
 RUS  HZ EP   1    745  0.18                             144     0.0 7   97 173 
 RUS  HN ES   2    745 18.68                             144     0.5 5   97 173 
 RUS  HZ I         745 19.81         4.8 0.24            143             97 173 
 PTB  HZ EP        745  2.92                             132    -0.3 9  143 260 
 PTB  HN ES   1    745 23.96                             132     0.3 7  143 260 
 PTB  HZ I         745 25.69         3.6 0.30            132            143 260 
 OCA  HN ES   1    745 27.32                             128    -0.1 7  164 355 
 ZAR  HN ES   1    745 33.25                             122    -0.6 6  202 294 
