 2011  919 0406 57.3 L   6.816 -73.162139.8  RSN  9 0.4 2.1LRSN                1
 GAP=134        0.79       4.0     5.8  6.3  0.1334E+01  0.1243E+02 -0.1221E+01E
 Epicentro: LOS SANTOS - SANTANDER                                             3
 ACTION:UPD 12-07-13 15:58 OP:ep   STATUS:               ID:20110919040657 L   I
 2011-09-19-0401-31S.COL___171                                                 6
 STAT SP IPHASW D HRMM SECON CODA AMPLIT PERI AZIMU VELO AIN AR TRES W  DIS CAZ7
 BTL  SZ EP        4 7 16.30                             173    0.2610 16.3 314 
 BAR2 SZ EP        4 7 16.16                             169   -0.0410 24.8 185 
 BAR2 SZ ES   2    4 7 30.59                             169   -0.38 5 24.8 185 
 BAR2 SZ I         4 7 32.42        33.4 0.22                          24.8 185 
 GIR2 SZ EP        4 7 16.14                             167   -0.0210 29.3 353 
 GIR2 SZ ES   1    4 7 30.25                             167   -0.66 7 29.3 353 
 BRR  HZ EP        4 7 17.90                             152    0.2810 68.8 298 
 BRR  HZ I         4 7 18.12        26.0 0.30                          68.8 298 
 BRR  HN ES   2    4 7 34.44                             152    0.94 5 68.8 298 
 PAM  SZ EP        4 7 19.01                             150    0.1910 77.2  41 
 PAM  SN ES   1    4 7 35.89                             150    0.24 7 77.2  41 
 RUS  HZ EP        4 7 20.15                             142   -0.4110  102 175 
 RUS  HN ES   1    4 7 38.96                             142    0.22 7  102 175 
 RUS  HZ I         4 7 40.50        15.7 0.24                           102 175 
 OCA  SZ EP        4 7 24.58                             128   -0.34 9  158 354 
 OCA  SZ ES   2    4 7 45.93                             128   -0.57 5  158 354 
 OCA  SZ I         4 7 51.20        11.7 0.43                           158 354 
 ZAR  HZ EP        4 7 29.49                             121    0.42 9  202 292 
 ZAR  HE ES   2    4 7 53.15                             121   -0.74 4  202 292 
 ZAR  HZ I         4 8  1.96        16.4 0.52                           202 292 
 NOR  SZ EP   2    4 7 32.22                             117   -0.38 4  234 234 
                                                                                
