 2012  619 0240 54.5 L   6.769 -73.142130.0  RSN  4 0.1 1.1LRSN                1
 GAP=138        0.31       3.7     3.6  6.1 -0.6971E+01 -0.2600E+01  0.1209E+02E
 Epicentro: LOS SANTOS - SANTANDER                                             3
 ACTION:UPD 12-08-06 17:50 OP:ep   STATUS:               ID:20120619024000 L   I
 2012-06-19-0240-00M.COL___199                                                 6
 STAT SP IPHASW D HRMM SECON CODA AMPLIT PERI AZIMU VELO AIN AR TRES W  DIS CAZ7
 BAR2 SZ ES   3    241 25.67                             171   -0.32 2 20.0 193 
 BAR2 SZ I         241 28.03         4.7 0.18                          20.0 193 
 PAM  SZ EP        241 15.24                             147   -0.0310 79.8  38 
 PAM  SZ I         241 15.34         3.1 0.26                          79.8  38 
 PAM  SN ES   1    241 31.48                             147    0.05 7 79.8  38 
 RUS  HZ EP        241 16.53                             141    0.0210 97.1 176 
 RUS  HZ I         241 17.11         1.9 0.48                          97.1 176 
 PTB  HZ EP   3    241 20.00                             128   -0.25 2  148 260 
 PTB  HE ES   2    241 40.37                             128    0.07 5  148 260 
 PTB  HZ I         241 42.45         2.0 0.50                           148 260 
                                                                                
