 2017  119 0340  7.5 L   6.764 -73.187147.2  RSN  5 0.5 1.2LRSN                1
 GAP=133        1.23       8.7     7.4  9.7  0.9940E+01 -0.6707E+01 -0.6238E+01E
 Epicentro: LOS SANTOS - SANTANDER                                             3
 ACTION:UPD 17-05-22 16:01 OP:jn   STATUS:               ID:20170119034007 L   I
 OLDACT:UP  17-01-19 17:01 OP:dani STATUS:               ID:20170119032527     3
 OLDACT:UP  17-01-19 17:00 OP:dani STATUS:               ID:20170119032527     3
 OLDACT:REG 17-01-19 13:26 OP:dani STATUS:               ID:20170119032527     3
 2017-01-19-0338-00M.COL___328                                                 6
 STAT SP IPHASW D HRMM SECON CODA AMPLIT PERI AZIMU VELO AIN AR TRES W  DIS CAZ7
 BAR2 EZ EP        340 27.11                             172   -0.1210 19.0 178 
 BAR2 EZ ES        340 41.81                             172   -0.8010 19.0 178 
 BAR2 EZ I         340 44.85         3.7 0.38            174           19.0 178 
 BRR  HZ EP        340 29.05                             153    0.3510 69.3 303 
 BRR  HN ES        340 45.90                             153    0.6610 69.3 303 
 BRR  HZ I         340 48.78         5.6 0.40            155           69.3 303 
 PAM  EZ EP        340 30.01                             149   -0.2210 83.4  40 
 RUS  HZ EP        340 31.22                             145    0.0810 97.0 173 
 RUS  HN ES   1    340 50.50                             145    0.91 7 97.0 173 
 RUS  HZ I         340 51.14         1.9 0.36            148           97.0 173 
 PTB  HZ EP        340 34.09                             133   -0.03 9  143 260 
 PTB  HN ES        340 54.39                             133   -0.49 9  143 260 
 PTB  HZ I         340 55.96         1.3 0.19            136            143 260 
                                                                                
