 2011  619 0437 45.7 L   6.765 -73.121150.8  RSN 12 0.3 1.9LRSN                1
 GAP=159        0.54       2.9     4.9  5.0 -0.6644E+01  0.9987E+00  0.2534E+01E
 Epicentro: LOS SANTOS - SANTANDER                                             3
 ACTION:UP  11-07-14 19:06 OP:ep   STATUS:               ID:20110619043745 L   I
 2011-06-19-0435-54S.COL___140                                                 6
 STAT SP IPHASW D HRMM SECON CODA AMPLIT PERI AZIMU VELO SNR AR TRES W  DIS CAZ7
 BAR2 SZ EP   1    438  5.69                             172    -0.2 7   20 200 
 BTL  SZ EP   1    438  5.91                             171     0.0 7   23 316 
 BTL  SZ ES   2    438 21.63                             171    -0.1 5   23 316 
 GIR2 SZ EP   1    438  5.91                             166    -0.2 7   36 347 
 GIR2 SZ ES   2    438 22.40                             166     0.4 5   36 347 
 BRR  HZ IP     C  438  7.64                             152     0.010   75 300 
 BRR  HZ I         438  7.92        30.3 0.20                            75 300 
 BRR  HE ES   2    438 25.08                             152     0.4 5   75 300 
 RUS  HZ EP   1    438  9.76                             146     0.1 7   97 178 
 RUS  HN ES   2    438 28.03                             146    -0.3 5   97 178 
 RUS  HZ I         438 29.61         7.3 0.41                            97 178 
 BRI  SZ EP   1    438 10.30                             142     0.0 7  111  19 
 GRA  SZ EP   1    438 11.48                             137    -0.1 7  129  16 
 OCA  SZ EP   1    438 14.47                             130    -0.3 7  164 352 
 OCA  SZ ES   2    438 37.76                             130     0.3 5  164 352 
 OCA  SZ I         438 43.51        12.5 0.41                           164 352 
 NOR  SZ EP   1    438 22.32                             119     0.6 6  235 236 
 NOR  SN ES   1    438 49.13                             119    -0.7 6  235 236 
 CHI  HZ EP   1    438 23.64                             118     0.3 6  246 196 
 CHI  HN ES   2    438 53.12                             118     0.4 4  246 196 
 CHI  HZ I         439  2.66         4.2 0.60                           246 196 
 RREF HZ EP   1    438 32.00                             112     0.0 5  321 230 
 RREF HN ES   2    439  8.31                             112     0.2 3  321 230 
 RREF HZ I         439 14.19         4.1 0.14                           321 230 
 PRA  HN ES   2    439 20.96                             107     0.1 3  390 210 
                                                                                
