 2012  419 0107 11.8 L   6.767 -73.134145.2  RSN  5 0.3 1.6LRSN                1
 GAP=140        0.66       4.6     5.0  7.0  0.4847E+01  0.4067E+01 -0.5208E+00E
 Epicentro: LOS SANTOS - SANTANDER                                             3
 ACTION:UPD 12-07-05 11:54 OP:tino STATUS:               ID:20120419010711 L   I
 2012-04-19-0100-00M.COL___187                                                 6
 STAT SP IPHASW D HRMM SECON CODA AMPLIT PERI AZIMU VELO AIN AR TRES W  DIS CAZ7
 BAR2 SZ EP   1    1 7 31.39                             172     0.1 7   20 195 
 BAR2 SZ ES   1    1 7 45.98                             172    -0.6 7   20 195 
 BAR2 SZ I         1 7 49.51         8.7 0.48                            20 195 
 BRR  HZ EP   1    1 7 33.11                             151     0.0 7   74 301 
 BRR  HZ I         1 7 33.36        16.8 0.31                            74 301 
 BRR  HE ES   1    1 7 50.10                             151     0.4 7   74 301 
 PAM  SZ EP   1    1 7 34.13                             150     0.0 7   79  37 
 PAM  SN ES   1    1 7 51.48                             150     0.0 7   79  37 
 RUS  HZ EP   1    1 7 35.12                             145    -0.1 7   97 177 
 RUS  HE ES   1    1 7 53.82                             145     0.3 7   97 177 
 RUS  HZ I         1 7 54.77         2.4 0.62                            97 177 
 ZAR  HE ES   1    1 8  9.70                             122    -0.3 6  207 293 
                                                                                
