 2013 1219 0353 46.7 L   6.697 -73.273154.0  RSN  5 0.4 1.1LRSN                1
 GAP=160        0.74       7.3    11.7  9.9  0.6223E+02 -0.3710E+02 -0.2515E+02E
 Epicentro: GALAN - SANTANDER                                                  3
 ACTION:UPD 14-01-13 10:19 OP:ep   STATUS:               ID:20131219035346 L   I
 OLDACT:DUP 13-12-19 07:56 OP:jn   STATUS:               ID:20131219035002d    3
 OLDACT:REG 13-12-19 06:21 OP:jn   STATUS:               ID:20131219035000     3
 2013-12-19-0350-00M.COL___285                                                 6
 STAT SP IPHASW D HRMM SECON CODA AMPLIT PERI AZIMU VELO AIN AR TRES W  DIS CAZ7
 BAR2 SZ ES   3    354 23.08                             174   -0.12 2 15.3 139 
 BRR  HN ES   1    354 25.85                             155    0.34 7 66.4 313 
 RUS  HZ EP        354 11.10                             148    0.4310 91.4 167 
 RUS  HN ES        354 28.98                             148   -0.3810 91.4 167 
 RUS  HZ I         354 31.16         3.8 0.92            145           91.4 167 
 PTB  HN ES   2    354 33.35                             137   -0.18 5  132 262 
 PTB  HZ I         354 37.18         1.1 0.11            132            132 262 
 SML  HZ EP   2    354 23.86                             118   -0.50 4  249 339 
 SML  HN ES   2    354 53.00                             118   -0.72 4  249 339 
                                                                                
