 2010  919 0120 32.9 L   6.787 -73.100150.8  RSN 22 0.5 4.0LRSN                1
 GAP=124        0.94       3.6     5.2  5.1 -0.7854E+01  0.5860E+01  0.2000E+01E
 Epicentro: LOS SANTOS - SANTANDER                                             3
 ACTION:UP  11-02-18 11:03 OP:tino STATUS:               ID:20100919012032 L   I
 2010-09-19-0117-33S.COL___121                                                 6
 STAT SP IPHASW D HRMM SECON CODA AMPLIT PERI AZIMU VELO SNR AR TRES W  DIS CAZ7
 BAR2 SZ IP     C  120 53.21                             171     0.110   24 203 
 BAR2 SZ ES   1    121  8.44                             171    -0.5 7   24 203 
 BAR2 SZ I         121  9.93      3101.7 0.17                            24 203 
 BTL  SZ IP        120 53.95                             171     0.810   24 308 
 GIR2 SZ EP   1    120 53.23                             167     0.0 7   34 342 
 GIR2 SZ ES   1    121  9.07                             167     0.0 7   34 342 
 BRR  HZ IP     C  120 55.02                             152     0.110   76 298 
 BRR  HZ I         120 55.31      3021.5 0.13                            76 298 
 BRR  HE ES   2    121 12.13                             152     0.1 5   76 298 
 RUS  HZ IP     D  120 56.92                             145    -0.110   99 179 
 RUS  HN ES   1    121 15.42                             145    -0.4 7   99 179 
 RUS  HZ I         121 17.10      1228.1 0.44                            99 179 
 GRA  SZ IP     C  120 58.95                             138     0.410  126  15 
 GRA  SZ I         121 27.39       564.7 0.44                           126  15 
 OCA  SZ EP        121  1.53                             130    -0.3 9  162 351 
 OCA  SZ ES   1    121 24.21                             130    -0.1 7  162 351 
 OCA  SZ I         121 27.86      1012.8 0.20                           162 351 
 NOR  HZ EP        121  8.82                             119    -0.5 8  238 236 
 NOR  HE ES   1    121 37.31                             119    -0.4 6  238 236 
 CHI  HZ IP     D  121 10.79                             118    -0.1 8  249 196 
 CHI  HN ES   2    121 40.60                             118     0.1 4  249 196 
 CHI  HZ I         121 48.78       386.0 0.30                           249 196 
 ROSC BN ES   2    121 41.95                             118     0.4 4  254 212 
 ROSC BZ I         121 48.02       625.5 0.40                           254 212 
 CVER SZ EP        121 14.28                             116     0.7 8  273 203 
 CVER SZ I         121 16.20       780.7 0.42                           273 203 
 HEL  HZ EP   1    121 12.84                             115    -1.0 6  277 256 
 HEL  HN ES   2    121 45.65                             115    -0.2 4  277 256 
 HEL  HZ I         121 52.69       406.5 0.29                           277 256 
 GUY  SZ EP        121 16.77                             113    -0.4 7  305 236 
 GUY  SN ES   1    121 52.34                             113     0.7 5  305 236 
 RREF HZ EP   1    121 19.95                             111     0.4 5  325 230 
 RREF HN ES   1    121 56.34                             111     0.3 5  325 230 
 RREF HZ I         122  1.52       413.3 0.35                           325 230 
 DBB  SZ IP        121 20.78                             110    -0.4 7  345 274 
 TOL  SZ EP        121 21.74                             110     0.1 6  346 225 
 SDV  BZ EP        121 22.35                             109    -0.4 6  357  49 
 ANIL HZ EP        121 23.78                             109     0.6 6  360 225 
 ANIL HN ES   2    122  1.76                             109    -0.7 3  360 225 
 GUA  SZ EP   2    121 35.50                             104    -0.4 2  472 174 
 HORQ SZ EP        121 42.94                             102    -0.8 4  535 227 
 MARA HZ EP        121 43.30                             102    -0.9 4  539 216 
 MAL  SZ EP   1    121 47.70                             101     1.2 3  561 237 
                                                                                
