 2017  119 0645 43.3 L   6.781 -73.176144.1  RSN  4 0.3 0.9LRSN                1
 GAP=233        0.75       6.0     6.1  7.6  0.1905E+02 -0.5033E+01 -0.1366E+01E
 Epicentro: LOS SANTOS - SANTANDER                                             3
 ACTION:UPD 17-05-22 16:01 OP:jn   STATUS:               ID:20170119064543 L   I
 OLDACT:UP  17-01-19 18:27 OP:dani STATUS:               ID:20170119063745     3
 OLDACT:REG 17-01-19 14:34 OP:dani STATUS:               ID:20170119063745     3
 2017-01-19-0638-00M.COL___328                                                 6
 STAT SP IPHASW D HRMM SECON CODA AMPLIT PERI AZIMU VELO AIN AR TRES W  DIS CAZ7
 BAR2 EZ EP   1    646  2.23                             171   -0.47 7 20.9 182 
 BAR2 EZ ES   1    646 17.60                             171   -0.22 7 20.9 182 
 BRR  HZ EP        646  4.63                             153    0.4410 69.3 301 
 BRR  HN ES        646 20.44                             153   -0.0210 69.3 301 
 BRR  HZ I         646 23.76         2.2 0.51            154           69.3 301 
 RUS  HZ EP        646  6.55                             144   -0.2310 98.8 174 
 RUS  HN ES        646 25.39                             144    0.3210 98.8 174 
 RUS  HZ I         646 26.28         0.8 0.30            148           98.8 174 
 PTB  HN ES        646 30.34                             132   -0.15 9  144 259 
                                                                                
