 2010  219 0439  7.3 L   6.300 -73.579108.4  RSN  5 0.2 1.4LRSN                1
 GAP=101        0.52       3.0     6.0  8.4 -0.2850E+01  0.3808E+02 -0.3551E+01E
 Epicentro: SANTA HELENA DEL OPON - SANTANDER                                  3
 ACTION:UP  10-08-24 09:49 OP:vdl  STATUS:               ID:20100219043906 L   I
 2010-02-19-0420-00S.COL___094                                                 6
 STAT SP IPHASW D HRMM SECON CODA AMPLIT PERI AZIMU VELO SNR AR TRES W  DIS CAZ7
 BAR2 SZ IP        439 23.86                             152     0.110   54  54 
 BAR2 SZ ES   2    439 36.29                             152    -0.3 5   54  54 
 RUS  BZ EP        439 25.26                             145     0.110   71 129 
 RUS  BN ES   2    439 39.41                             145     0.2 5   71 129 
 RUS  BZ I         439 42.01         9.4 0.34                            71 129 
 CHI  HZ EP        439 35.77                             116    -0.3 9  185 185 
 HEL  HZ EP        439 39.56                             112     0.1 8  216 267 
 HEL  HZ I         439 40.51         2.0 0.25                           216 267 
 OCA  SZ EP        439 39.28                             111     0.1 8  216   8 
 OCA  SZ ES   2    440  3.44                             111    -0.6 4  216   8 
                                                                                
