 2012  519 0011 34.0 L   6.762 -73.145152.5  RSN  8 0.4 1.7LRSN                1
 GAP=235        0.75       4.8     7.1  7.7  0.1025E+02  0.1547E+02  0.1191E+02E
 Epicentro: LOS SANTOS - SANTANDER                                             3
 ACTION:UP  12-07-05 12:06 OP:pat  STATUS:               ID:20120519001134 L   I
 2012-05-19-0010-00M.COL___200                                                 6
 STAT SP IPHASW D HRMM SECON CODA AMPLIT PERI AZIMU VELO SNR AR TRES W  DIS CAZ7
 BAR2 SZ EP        011 54.44                             173     0.010   19 192 
 BAR2 SZ I         011 54.56        12.5 0.40                            19 192 
 BRR  HZ EP        011 56.42                             153     0.410   73 301 
 BRR  HN ES   1    012 13.13                             153    -0.1 7   73 301 
 BRR  HZ I         012 18.96        10.4 0.34                            73 301 
 RUS  HZ EP        011 58.25                             146     0.110   96 176 
 RUS  HN ES   1    012 16.89                             146    -0.1 7   96 176 
 RUS  HZ I         012 18.40         5.3 0.48                            96 176 
 PTB  HZ EP        012  1.17                             134    -0.3 9  147 260 
 PTB  HZ I         012 28.28         6.7 0.42                           147 260 
 ZAR  HN ES   3    012 31.91                             124    -1.0 2  206 293 
 ZAR  HZ I         012 39.75         5.4 0.30                           206 293 
 NOR  SZ EP        012  9.98                             120     0.1 8  232 235 
 NOR  SN ES   2    012 37.74                             120    -0.1 4  232 235 
 CHI  HZ EP        012 11.36                             119    -0.3 8  245 195 
 CHI  HN ES   1    012 40.78                             119    -0.3 6  245 195 
 CHI  HZ I         012 45.37         3.0 0.58                           245 195 
 PRA  HN ES   2    013 10.44                             108     1.5 3  388 210 
                                                                                
