 2013  719 0345 52.7 L   6.799 -73.174147.3  RSN 11 0.4 2.2LRSN                1
 GAP=178        0.94       3.6     5.0  7.1  0.2160E+01  0.5005E+01 -0.2155E+01E
 Epicentro: LOS SANTOS - SANTANDER                                             3
 ACTION:UPD 13-08-12 10:38 OP:ep   STATUS:               ID:20130719033959 L   I
 OLDACT:UP  13-07-19 10:49 OP:mh   STATUS:               ID:20130719033959 L   3
 OLDACT:UP  13-07-19 10:32 OP:mh   STATUS:               ID:20130719033959 L   3
 OLDACT:UP  13-07-19 10:30 OP:mh   STATUS:               ID:20130719033959 L   3
 OLDACT:UPD 13-07-19 09:03 OP:stll STATUS:               ID:20130719033959 L   3
 2013-07-19-0339-59M.COL___267                                                 6
 STAT SP IPHASW D HRMM SECON CODA AMPLIT PERI AZIMU VELO AIN AR TRES W  DIS CAZ7
 BAR2 SZ EP   1    346 12.52                             171    0.01 7 22.8 182 
 BAR2 SZ ES   1    346 27.53                             171   -0.42 7 22.8 182 
 BAR2 SZ I         346 28.61        21.7 0.72            170           22.8 182 
 GIR2 SZ EP   1    346 12.61                             167    0.06 7 31.1 356 
 GIR2 SZ I         346 29.38        11.1 0.44            165           31.1 356 
 BRR  HZ EP   1    346 14.25                             154    0.38 7 68.5 300 
 BRR  HN ES        346 31.06                             154    0.6810 68.5 300 
 BRR  HN I         346 31.64        39.2 0.30            149           68.5 300 
 RUS  HZ EP   1    346 16.50                             144   -0.11 7  101 174 
 RUS  HN ES        346 35.22                             144   -0.0410  101 174 
 RUS  HN I         346 36.67        13.4 0.40            140            101 174 
 PTB  HZ EP   1    346 19.33                             133   -0.19 7  145 259 
 PTB  HN ES        346 39.44                             133   -0.99 9  145 259 
 PTB  HN I         346 45.21        12.7 0.50            128            145 259 
 OCA  HN ES   1    346 42.95                             130   -0.32 7  160 354 
 SPBC HZ EP   1    346 21.71                             130    0.59 7  161 218 
 SPBC HN ES   1    346 43.74                             130    0.45 7  161 218 
 SPBC HN I         346 50.80        23.7 0.24            125            161 218 
 ZAR  HE ES        346 50.23                             123    0.12 9  201 293 
 ZAR  HE I         346 55.67        28.2 0.32            118            201 293 
 NOR  HZ EP   1    346 28.31                             119    0.07 6  232 234 
 NOR  HN ES   1    346 56.11                             119    0.15 6  232 234 
 NOR  HN I         347  2.70        13.1 0.18            115            232 234 
 SML  HZ EP   1    346 28.69                             118   -0.60 6  243 336 
 SML  HN ES   1    346 58.07                             118    0.24 6  243 336 
 SML  HN I         347  4.80        24.8 0.10            113            243 336 
 HEL  HZ EP   4    346 33.95                             115    1.30 0  269 256 
 HEL  HE ES   4    347  1.66                             115   -2.16 0  269 256 
 HEL  HE I         347 10.46         5.4 0.28            111            269 256 
                                                                                
