 2017  319 1931 34.0 L   6.796 -73.138144.8  RSN 14 0.3 2.7LRSN                1
 GAP=138        0.93       3.2     3.6  5.1 -0.1901E+01  0.4124E+01  0.3905E+01E
 Epicentro: LOS SANTOS - SANTANDER                                             3
 ACTION:UPD 17-05-25 18:42 OP:jn   STATUS:               ID:20170319193134 L   I
 OLDACT:UP  17-03-20 01:31 OP:dnl  STATUS:               ID:20170319192744     3
 OLDACT:UP  17-03-20 01:30 OP:dnl  STATUS:               ID:20170319192744     3
 OLDACT:REG 17-03-19 23:04 OP:dnl  STATUS:               ID:20170319192744     3
 2017-03-19-1928-00M.COL___400                                                 6
 STAT SP IPHASW D HRMM SECON CODA AMPLIT PERI AZIMU VELO AIN AR TRES W  DIS CAZ7
 BAR2 EZ IP     C 1931 53.36                             170   -0.1110 23.0 192 
 BAR2 EZ ES       1932  8.60                             170   -0.0910 23.0 192 
 BAR2 EZ I        1932  9.67       143.5 0.22            168           23.0 192 
 BRR  HZ IP     D 1931 55.17                             152    0.1010 72.2 299 
 BRR  HN ES       1932 12.22                             152    0.7010 72.2 299 
 BRR  HZ I        1932 16.58        72.6 0.18            150           72.2 299 
 PAM  EZ EP       1931 56.16                             151    0.0910 77.2  39 
 PAM  EN ES       1932 13.11                             151   -0.2010 77.2  39 
 PAM  EZ I        1932 15.25       147.0 0.52            155           77.2  39 
 RUS  HZ EP     C 1931 57.33                             144   -0.2510  100 177 
 RUS  HE ES       1932 16.04                             144    0.0410  100 177 
 RUS  HZ I        1932 16.87        54.7 0.24            144            100 177 
 PTB  HZ EP       1932  0.24                             132   -0.68 9  148 259 
 PTB  HN ES       1932 21.25                             132   -0.69 9  148 259 
 PTB  HZ I        1932 26.05        35.5 0.10            131            148 259 
 SPBC HZ EP   2   1932  2.84                             129    0.43 5  163 219 
 SPBC HE ES       1932 24.75                             129    0.16 9  163 219 
 SPBC HZ I        1932 27.03       109.1 0.10            128            163 219 
 ZAR  HZ EP   2   1932  6.36                             122   -0.09 4  205 292 
 ZAR  HN ES       1932 32.00                             122    0.22 9  205 292 
 ZAR  HZ I        1932 37.01        50.7 0.44            122            205 292 
 NOR  HZ EP       1932  9.92                             118    0.24 8  235 235 
 NOR  HN ES       1932 37.43                             118   -0.11 8  235 235 
 NOR  HZ I        1932 42.74        35.3 0.28            118            235 235 
 CHI  HZ EP       1932 12.04                             117    0.45 8  248 195 
 CHI  HN ES       1932 40.74                             117   -0.19 8  248 195 
 CHI  HZ I        1932 47.65        14.6 0.34            118            248 195 
 ROSC BZ EP   9   1932 13.49                             117    1.45 0  253 211 
 ROSC BN ES       1932 44.31                             116    1.13 8  253 211 
 ROSC BZ I        1932 48.29        30.6 0.45            117            253 211 
 GUY2CHZ EP   4   1932 18.90                             112    1.32 0  302 235 
 GUY2CHE ES       1932 51.68                             112    0.09 7  302 235 
 GUY2CHZ  IAML    1932 58.09        19.4 0.26                           302 235 
 ANIL HZ EP       1932 24.12                             108    0.36 6  358 225 
 ANIL HE ES   4   1933  5.00                             108    2.40 0  358 225 
 ANIL HZ I        1933  7.64        38.7 0.32            109            358 225 
 PRA  HZ EP   2   1932 27.55                             106    0.10 3  392 210 
 PRA  HN ES       1933  9.48                             106    0.31 6  392 210 
 PRA  HZ I        1933 15.38        20.1 0.34            107            392 210 
 SJC  HZ EP   4   1932 27.61                             106   -1.99 0  410 327 
 SJC  HN ES   4   1933  8.13                             106   -4.86 0  410 327 
 SJC  HZ I        1933 13.41        14.3 0.48            107            410 327 
                                                                                
