 2014  219 1707 15.4 L   6.770 -73.155148.7  RSN 10 0.5 1.7LRSN                1
 GAP=137        1.21       3.7     4.9  7.0 -0.5890E+00  0.8138E+01  0.2978E+01E
 Epicentro: LOS SANTOS - SANTANDER                                             3
 ACTION:UPD 14-03-10 08:11 OP:ep   STATUS:               ID:20140219170715 L   I
 OLDACT:REG 14-02-19 15:55 OP:carl STATUS:               ID:20140219170000     3
 2014-02-19-1700-00M.COL___212                                                 6
 STAT SP IPHASW D HRMM SECON CODA AMPLIT PERI AZIMU VELO AIN AR TRES W  DIS CAZ7
 BAR2 SZ EP     C 17 7 35.37                             172    0.1010 19.9 189 
 BAR2 SZ ES       17 7 50.81                             172    0.0010 19.9 189 
 BAR2 SZ I        17 7 52.04        18.6 0.18            169           19.9 189 
 BRR  HZ EP     D 17 7 37.32                             153    0.4610 72.0 301 
 BRR  HN ES       17 7 54.55                             153    0.9110 72.0 301 
 BRR  HZ I        17 7 55.30        13.9 0.38            151           72.0 301 
 PAM  SZ EP       17 7 37.63                             150   -0.4410 80.6  39 
 PAM  SN ES       17 7 55.59                             150   -0.2110 80.6  39 
 PAM  SZ I        17 7 57.65        11.6 0.56            155           80.6  39 
 RUS  HZ EP       17 7 39.30                             145    0.1410 97.3 175 
 RUS  HN ES       17 7 57.36                             145   -0.3810 97.3 175 
 RUS  HZ I        17 8  0.53         2.4 0.56            146           97.3 175 
 PTB  HN ES       17 8  3.25                             133   -0.27 9  146 260 
 PTB  HZ I        17 8  8.99         5.2 0.32            132            146 260 
 SPBC HZ EP       17 7 44.41                             130    0.64 9  160 219 
 SPBC HN ES       17 8  6.43                             130    0.49 9  160 219 
 SPBC HZ I        17 8  9.08         8.5 0.24            130            160 219 
 ZAR  HZ EP       17 7 48.01                             123   -0.01 9  204 293 
 ZAR  HN ES       17 8 12.93                             123   -0.58 9  204 293 
 ZAR  HZ I        17 8 22.04         5.6 0.26            123            204 293 
 NOR  HZ EP       17 7 51.01                             119    0.05 8  232 235 
 NOR  HN ES       17 8 18.15                             119   -0.58 8  232 235 
 NOR  HZ I        17 8 26.88         3.8 0.20            120            232 235 
 CHI  HZ EP       17 7 53.49                             118    0.65 8  245 195 
 CHI  HE ES       17 8 21.09                             118   -0.98 8  245 195 
 CHI  HZ I        17 8 26.07         2.4 0.56            119            245 195 
 SML  HN ES       17 8 20.86                             118   -0.48 8  246 336 
                                                                                
