 2013  219 1955 47.4 L   6.815 -73.132144.3  RSN 15 0.5 2.9LRSN 3.2WRSN        1
 SPEC AVERAGE  MO 13.9 ST 17.3 OM  2.5 f0 4.78 R0.3395 AL 2.99 WI 47.8 MW  3.2 3
 SPEC SD       MO  0.2 ST 17.7 OM  0.5 f0 1.26 R0.1275 AL      WI      MW  0.2 3
 GAP= 71        1.13       2.8     3.4  6.2 -0.1884E+00  0.6233E+01 -0.2131E+01E
 Epicentro: LOS SANTOS - SANTANDER                                             3
 SPEC RREFHH Z MO 13.7 ST  6.4 OM  1.8 f0 4.37 R0.3364 AL 3.10 WI 45.1 MW  3.1 3
 SPEC RREFHH Z T1957 9 K 0.000 GD  354 VS 4.20 DE 3.20 Q0300.0 QA 0.60 VS 4.20 3
 SPEC PTB HH N MO 13.8 ST 13.4 OM  2.1 f0 5.30 R0.2774 AL 2.54 WI 50.5 MW  3.2 3
 SPEC PTB HH N T195632 K 0.000 GD  208 VS 4.20 DE 3.20 Q0300.0 QA 0.60 VS 4.20 3
 SPEC RUS HH N MO 13.7 ST  3.4 OM  2.1 f0 3.54 R0.4153 AL 2.37 WI 33.8 MW  3.1 3
 SPEC RUS HH N T195626 K 0.000 GD  176 VS 4.20 DE 3.20 Q0300.0 QA 0.60 VS 4.20 3
 SPEC HEL HH E MO 13.8 ST 10.6 OM  1.9 f0 5.01 R0.2934 AL 2.57 WI 40.0 MW  3.1 3
 SPEC HEL HH E T195657 K 0.000 GD  309 VS 4.20 DE 3.20 Q0300.0 QA 0.60 VS 4.20 3
 SPEC OCA HH N MO 14.4 ST 57.0 OM  2.7 f0 5.36 R0.2743 AL 3.43 WI 81.0 MW  3.6 3
 SPEC OCA HH N T195632 K 0.000 GD  214 VS 4.20 DE 3.20 Q0300.0 QA 0.60 VS 4.20 3
 SPEC COD HH N MO 13.6 ST 11.8 OM  1.6 f0 6.12 R0.2402 AL 3.52 WI 20.4 MW  3.0 3
 SPEC COD HH N T195712 K 0.000 GD  375 VS 4.20 DE 3.20 Q0300.0 QA 0.60 VS 4.20 3
 SPEC CHI HH N MO 14.0 ST  1.5 OM  2.1 f0 2.28 R0.6447 AL 2.07 WI 43.7 MW  3.2 3
 SPEC CHI HH N T195653 K 0.000 GD  289 VS 4.20 DE 3.20 Q0300.0 QA 0.60 VS 4.20 3
 SPEC BRR HH N MO 14.0 ST 34.3 OM  2.4 f0 6.27 R0.2344 AL 4.28 WI 67.8 MW  3.3 3
 SPEC BRR HH N T195624 K 0.000 GD  161 VS 4.20 DE 3.20 Q0300.0 QA 0.60 VS 4.20 3
 ACTION:UPD 13-03-12 09:34 OP:ep   STATUS:               ID:20130219195547 L   I
 2013-02-19-1950-00M.COL___241                                                 6
 STAT SP IPHASW D HRMM SECON CODA AMPLIT PERI AZIMU VELO AIN AR TRES W  DIS CAZ7
 BAR2 SZ IP     D 1956  6.85                             170   -0.0910 25.3 193 
 BAR2 SZ ES       1956 22.18                             170    0.0410 25.3 193 
 BAR2 SZ I        1956 23.61       225.2 0.20            169           25.3 193 
 BRR  HZ IP     C 1956  8.74                             152    0.2710 71.8 297 
 BRR  HN ES   4   1956 26.18                             152    1.32 0 71.8 297 
 BRR  HN I        1956 29.61       242.5 0.16            151           71.8 297 
 PAM  SZ IP     D 1956  9.57                             151    0.2110 75.1  39 
 PAM  SN ES       1956 26.91                             151    0.4510 75.1  39 
 PAM  SN I        1956 27.90       249.3 0.24            154           75.1  39 
 RUS  HZ EP       1956 10.65                             143   -0.5110  102 177 
 RUS  HN ES       1956 29.47                             143   -0.2010  102 177 
 RUS  HN I        1956 30.08       162.9 0.36            144            102 177 
 PTB  HZ EP   4   1956 13.44                             131   -1.02 0  150 258 
 PTB  HN ES       1956 34.84                             131   -0.69 9  150 258 
 PTB  HN I        1956 36.11       109.2 0.24            131            150 258 
 TAM  HZ IP     D 1956 14.89                             130   -0.01 9  154 106 
 TAM  HN ES       1956 36.66                             130    0.33 9  154 106 
 TAM  HN I        1956 37.25        72.8 0.58            133            154 106 
 OCA  HZ EP       1956 15.00                             130   -0.50 9  159 353 
 OCA  HN ES       1956 36.84                             130   -0.54 9  159 353 
 ZAR  HZ EP       1956 19.80                             122   -0.08 9  205 292 
 ZAR  HN ES       1956 45.53                             122    0.36 9  205 292 
 ZAR  HN I        1956 50.70       113.0 0.26            122            205 292 
 SML  HZ EP       1956 24.15                             117    0.26 8  243 335 
 SML  HE ES       1956 52.50                             117    0.18 8  243 335 
 SML  HE I        1956 54.26       159.3 0.10            118            243 335 
 CHI  HZ EP       1956 25.10                             117   -0.18 8  251 195 
 CHI  HN ES       1956 54.23                             117   -0.56 8  251 195 
 CHI  HN I        1956 58.50        27.2 0.34            118            251 195 
 ROSC BN ES       1956 56.37                             116    0.78 8  255 211 
 HEL  HZ EP     D 1956 29.19                             114    1.40 8  274 256 
 HEL  HN ES       1956 59.73                             114    0.46 8  274 256 
 HEL  HN I        1957  5.50        22.8 0.40            115            274 256 
 URE  HZ EP       1956 27.58                             113   -0.95 7  285 291 
 URE  HN ES   4   1956 57.77                             113   -2.81 0  285 291 
 URE  HN I        1957  1.25        83.2 0.17            114            285 291 
 RREF HZ EP   4   1956 35.46                             110    1.68 0  324 229 
 RREF HN ES   4   1957 12.27                             110    2.35 0  324 229 
 RREF HZ I        1957 16.83        29.0 0.30            111            324 229 
 COD  HZ EP   1   1956 35.51                             109   -0.07 5  347 354 
 COD  HN ES       1957 13.17                             109    0.04 6  347 354 
 COD  HN I        1957 18.90        15.7 0.42            110            347 354 
                                                                                
