 2017  119 1741 38.9 L   6.630 -73.197149.1  RSN  5 0.3 1.2LRSN                1
 GAP=206        0.67       6.4     4.9  7.1  0.1384E+02  0.6997E+01 -0.1606E+02E
 Epicentro: BARICHARA - SANTANDER                                              3
 ACTION:UPD 17-05-22 16:01 OP:jn   STATUS:               ID:20170119174138 L   I
 OLDACT:UP  17-01-19 23:43 OP:edw  STATUS:               ID:20170119173745     3
 OLDACT:UP  17-01-19 23:43 OP:edw  STATUS:               ID:20170119173745     3
 OLDACT:REG 17-01-19 22:25 OP:cog  STATUS:               ID:20170119173745     3
 2017-01-19-1738-00M.COL___331                                                 6
 STAT SP IPHASW D HRMM SECON CODA AMPLIT PERI AZIMU VELO AIN AR TRES W  DIS CAZ7
 BAR2 EZ EP       1741 58.92                             178    0.2310 4.45 159 
 BAR2 EZ ES       1742 13.88                             178   -0.2610 4.45 159 
 BAR2 EZ I        1742 15.39         5.0 0.36            176           4.45 159 
 BRR  HZ EP       1742  0.94                             151    0.1810 77.6 313 
 RUS  HZ EP   3   1742  2.24                             150    0.48 2 82.5 171 
 RUS  HN ES       1742 19.67                             150    0.0610 82.5 171 
 PTB  HZ EP       1742  4.88                             134   -0.52 9  140 266 
 PTB  HN ES       1742 26.33                             134    0.24 9  140 266 
 PTB  HZ I        1742 29.34         1.4 0.18            134            140 266 
 ZAR  HN ES       1742 37.56                             123    0.03 8  207 298 
                                                                                
