 2011  619 1013 35.8 L   6.720 -72.964132.5  RSN  5 0.4 1.4LRSN                1
 GAP=165        0.89       6.1    20.1 10.4 -0.7257E+01 -0.3297E+02 -0.1234E+02E
 Epicentro: CEPITA - SANTANDER                                                 3
 ACTION:UP  11-07-14 19:06 OP:ep   STATUS:               ID:20110619101335 L   I
 2011-06-19-1000-00M.COL___126                                                 6
 STAT SP IPHASW D HRMM SECON CODA AMPLIT PERI AZIMU VELO SNR AR TRES W  DIS CAZ7
 BAR2 SZ EP   1   1013 54.25                             168     0.3 7   28 240 
 BAR2 SZ ES   1   1014  7.88                             168    -0.2 7   28 240 
 BAR2 SZ I        1014  9.93         9.0 0.16                            28 240 
 PAM  SN ES   2   1014 12.30                             149    -0.2 5   75  23 
 RUS  HZ EP   1   1013 57.68                             143     0.0 7   92 188 
 RUS  HZ I        1014 18.17         2.6 0.35                            92 188 
 BRI  SZ EP   1   1013 59.00                             137     0.3 7  112   9 
 BRI  SZ I        1014 19.35         3.9 0.22                           112   9 
 OCA  SZ EP   1   1014  3.52                             124    -0.8 7  173 347 
 OCA  SZ ES   1   1014 26.96                             124     0.4 7  173 347 
 OCA  SZ I        1014 30.06         5.1 0.23                           173 347 
                                                                                
