 2010  119 1050 51.3 L   6.792 -73.109148.0  RSN  8 0.3 2.0LRSN                1
 GAP=187        0.53       2.2     6.2  4.0 -0.1556E+01  0.1058E+02  0.6410E+00E
 Epicentro: LOS SANTOS - SANTANDER                                             3
 ACTION:UP  10-08-24 09:44 OP:vdl  STATUS:               ID:20100119105051 L   I
 2010-01-19-1046-23S.COL___096                                                 6
 STAT SP IPHASW D HRMM SECON CODA AMPLIT PERI AZIMU VELO SNR AR TRES W  DIS CAZ7
 BAR2 SZ IP       1051 11.12                             170    -0.110   24 200 
 BAR2 SZ ES   1   1051 27.06                             170     0.3 7   24 200 
 GIR2 SZ ES   1   1051 26.60                             167    -0.3 7   33 344 
 RUS  BZ IP       1051 15.02                             145    -0.210  100 178 
 RUS  BN ES       1051 33.98                             145     0.110  100 178 
 RUS  BZ I        1051 35.29        12.0 0.38                           100 178 
 OCA  SZ IP       1051 20.07                             130     0.1 9  162 352 
 OCA  SZ ES   1   1051 42.42                             130     0.2 7  162 352 
 OCA  SZ I        1051 47.43        35.7 0.27                           162 352 
 CHI  HZ IP       1051 29.14                             118     0.0 8  249 196 
 CHI  HE ES   1   1051 58.69                             118     0.0 6  249 196 
 CHI  HZ I        1052  6.96         4.6 0.60                           249 196 
 HEL  HZ EP   2   1051 32.65                             115     0.6 4  276 256 
 HEL  HN ES   2   1052  3.31                             115    -0.5 4  276 256 
 HEL  HZ I        1052 10.50         4.5 0.46                           276 256 
 TOL  SZ EP   1   1051 39.77                             110    -0.2 5  346 225 
 PRA  HZ IP       1051 45.12                             107     0.0 6  393 210 
 PRA  HZ I        1051 46.80         3.3 0.20                           393 210 
 PRA  HE ES   1   1052 27.57                             107     0.6 4  393 210 
                                                                                
