 2016  919 1035 26.2 L   7.008 -73.139158.5  RSN  4 0.3 1.4LRSN                1
 GAP=194        0.88       5.1     7.2  7.5 -0.1066E+02  0.8259E-01 -0.5202E+01E
 Epicentro: GIRON - SANTANDER                                                  3
 ACTION:UPD 17-08-17 21:14 OP:lp   STATUS:               ID:20160919103526 L   I
 OLDACT:UP  16-09-19 22:06 OP:edw  STATUS:               ID:20160919102740     3
 OLDACT:UP  16-09-19 22:05 OP:edw  STATUS:               ID:20160919102740     3
 OLDACT:UP  16-09-19 21:56 OP:edw  STATUS:               ID:20160919102740     3
 OLDACT:REG 16-09-19 19:47 OP:edw  STATUS:               ID:20160919102740     3
 2016-09-19-1028-00M.COL___348                                                 6
 STAT SP IPHASW D HRMM SECON CODA AMPLIT PERI AZIMU VELO AIN AR TRES W  DIS CAZ7
 BAR2 EZ EP       1035 48.61                             163    0.6310 46.3 186 
 BAR2 EZ ES       1036  4.56                             163   -0.4210 46.3 186 
 BAR2 EZ I        1036  5.50         2.6 0.16            171           46.3 186 
 BRR  HZ EP   2   1035 48.63                             157    0.24 5 64.3 280 
 BRR  HN ES       1036  5.88                             157    0.1910 64.3 280 
 OCA  HZ EP       1035 53.12                             137   -0.43 9  138 352 
 OCA  HN ES       1036 15.03                             137    0.14 9  138 352 
 OCA  HZ I        1036 24.66         5.7 0.24            135            138 352 
 PTB  HZ EP       1035 54.59                             133   -0.24 9  155 250 
 PTB  HN ES       1036 17.17                             133    0.01 9  155 250 
 PTB  HZ I        1036 18.56         2.4 0.16            136            155 250 
                                                                                
