 2016 1219 1203  9.1 L   6.809 -73.191144.9  RSN  6 0.4 1.3LRSN                1
 GAP=131        0.94       4.7     4.1  6.9  0.1844E+01  0.5275E+01  0.7543E+00E
 Epicentro: ZAPATOCA - SANTANDER                                               3
 ACTION:UPD 17-01-11 20:16 OP:rebc STATUS:               ID:20161219120309 L   I
 OLDACT:REG 16-12-19 18:11 OP:edw  STATUS:               ID:20161219115746     3
 2016-12-19-1158-00M.COL___322                                                 6
 STAT SP IPHASW D HRMM SECON CODA AMPLIT PERI AZIMU VELO AIN AR TRES W  DIS CAZ7
 BAR2 EZ EP       12 3 28.48                             170   -0.1210 24.0 178 
 BAR2 EZ ES       12 3 43.46                             170   -0.3810 24.0 178 
 BAR2 EZ I        12 3 45.41         3.1 0.38            170           24.0 178 
 BRR  HZ EP       12 3 30.35                             154    0.5010 66.3 300 
 BRR  HE ES       12 3 46.77                             154    0.7110 66.3 300 
 PAM  EZ EP       12 3 31.27                             150   -0.0710 79.9  43 
 PAM  EN ES       12 3 48.47                             150   -0.2410 79.9  43 
 PAM  EZ I        12 3 50.33         3.7 0.56            150           79.9  43 
 RUS  HZ EP       12 3 32.99                             143    0.1510  102 173 
 RUS  HE ES       12 3 51.40                             143    0.0210  102 173 
 RUS  HZ I        12 3 52.54         4.3 0.22            144            102 173 
 PTB  HZ EP       12 3 35.49                             133   -0.04 9  143 258 
 PTB  HN ES       12 3 56.09                             133   -0.09 9  143 258 
 ZAR  HN ES       12 4  5.14                             123   -0.65 9  199 292 
                                                                                
