 2012  619 1131 55.5 L   5.953 -73.576125.7  RSN  7 0.5 1.5LRSN                1
 GAP= 90        0.93       4.5     5.1 10.0  0.2873E+01  0.2086E+02  0.1186E+02E
 Epicentro: BARBOSA - SANTANDER                                                3
 ACTION:UPD 12-08-06 17:50 OP:ep   STATUS:               ID:20120619113155 L   I
 2012-06-19-1130-00M.COL___199                                                 6
 STAT SP IPHASW D HRMM SECON CODA AMPLIT PERI AZIMU VELO AIN AR TRES W  DIS CAZ7
 RUS  HZ EP   1   1132 14.40                             155    0.11 7 55.0  97 
 RUS  HE ES   1   1132 28.90                             155   -0.05 7 55.0  97 
 RUS  HZ I        1132 30.39         7.5 0.19                          55.0  97 
 BAR2 SZ EP   1   1132 15.69                             144    0.04 7 83.0  32 
 BAR2 SZ ES   1   1132 31.86                             144    0.50 7 83.0  32 
 BAR2 SZ I        1132 33.93        17.1 0.31                          83.0  32 
 PTB  HZ EP   1   1132 17.35                             134   -0.70 7  117 304 
 PTB  HE ES   1   1132 34.92                             134   -0.73 7  117 304 
 PTB  HZ I        1132 41.40         3.1 0.16                           117 304 
 CHI  HZ EP   1   1132 20.87                             127   -0.53 7  147 187 
 CHI  HZ I        1132 22.11         4.7 0.46                           147 187 
 CHI  HN ES   1   1132 41.28                             127   -0.33 7  147 187 
 NOR  SZ EP   1   1132 21.81                             127    0.67 7  150 253 
 NOR  SN ES   1   1132 41.84                             127    0.71 7  150 253 
 ZAR  HN ES   1   1132 54.59                             115    0.13 6  221 320 
 PRA  HZ EP   1   1132 36.51                             109    0.42 5  287 210 
                                                                                
