 2017  419 1554 29.0 L   6.733 -73.115144.4  RSN  5 0.2 1.5LRSN                1
 GAP=143        0.58       3.0     3.2  4.2  0.2114E+01  0.3145E+01 -0.7179E+00E
 Epicentro: JORDAN - SANTANDER                                                 3
 ACTION:UPD 17-05-30 21:14 OP:jn   STATUS:               ID:20170419155429 L   I
 OLDACT:REG 17-04-19 20:58 OP:lv   STATUS:               ID:20170419154739     3
 2017-04-19-1548-00M.COL___370                                                 6
 STAT SP IPHASW D HRMM SECON CODA AMPLIT PERI AZIMU VELO AIN AR TRES W  DIS CAZ7
 BAR2 EZ EP       1554 48.33                             173    0.0110 17.2 205 
 BAR2 EZ ES       1555  3.48                             173    0.0710 17.2 205 
 BAR2 EZ I        1555  4.45        10.0 0.21            170           17.2 205 
 BRR  HZ EP       1554 50.16                             150   -0.1910 77.8 302 
 BRR  HN ES       1555  7.01                             150   -0.0210 77.8 302 
 PAM  EZ EP       1554 51.32                             149    0.0510 81.3  34 
 PAM  EN ES       1555  8.65                             149   -0.0210 81.3  34 
 PAM  EZ I        1555  9.24         4.9 0.13            152           81.3  34 
 RUS  HZ EP       1554 52.43                             146    0.3910 93.0 178 
 RUS  HN ES       1555  9.80                             146   -0.2410 93.0 178 
 RUS  HZ I        1555 12.00         3.9 0.11            146           93.0 178 
 ZAR  HZ EP       1555  1.57                             121   -0.37 8  210 294 
 ZAR  HE ES       1555 27.94                             121    0.29 8  210 294 
 ZAR  HZ I        1555 35.40         4.4 0.17            121            210 294 
                                                                                
