 2014 1119 1703 25.0 L   6.780 -73.179141.1  RSN  5 0.3 1.5LRSN                1
 GAP=133        0.87       4.5     4.3  6.3 -0.1761E+01  0.3444E+01  0.1277E+01E
 Epicentro: LOS SANTOS - SANTANDER                                             3
 ACTION:UPD 14-12-19 15:44 OP:nd   STATUS:               ID:20141119170325 L   I
 OLDACT:ARG 14-11-19 20:27 OP:stll STATUS:               ID:20141119165747     3
 2014-11-19-1657-47M.COL___304                                                 6
 STAT SP IPHASW D HRMM SECON CODA AMPLIT PERI AZIMU VELO AIN AR TRES W  DIS CAZ7
 BAR2 SZ EP       17 3 44.07                             171    0.0210 20.8 181 
 BAR2 SZ ES       17 3 59.28                             171    0.3910 20.8 181 
 BAR2 SZ I        17 4  0.21         7.9 0.28            170           20.8 181 
 BRR  HZ EP       17 3 46.03                             152    0.4710 69.1 302 
 BRR  HN ES       17 4  1.84                             152    0.2710 69.1 302 
 PAM  SZ EP       17 3 46.99                             149   -0.0110 81.4  41 
 PAM  SZ I        17 3 47.14         8.4 0.24            152           81.4  41 
 PAM  SN ES       17 4  3.64                             149   -0.5110 81.4  41 
 RUS  HZ EP       17 3 48.24                             143    0.0510 98.7 174 
 RUS  HZ I        17 3 48.90         3.0 0.42            144           98.7 174 
 RUS  HN ES       17 4  6.12                             143   -0.1310 98.7 174 
 PTB  HZ EP       17 3 51.17                             132   -0.08 9  144 259 
 PTB  HN ES       17 4 11.14                             132   -0.56 9  144 259 
 PTB  HZ I        17 4 17.95         5.4 0.20            130            144 259 
                                                                                
