 2010  719 1308  8.4 L   6.824 -73.086149.9  RSN  4 0.2 1.7LRSN                1
 GAP=171        0.49       6.6    11.8  8.4  0.5197E+02 -0.6042E+02 -0.2250E+02E
 Epicentro: LOS SANTOS - SANTANDER                                             3
 ACTION:UPD 10-12-01 15:18 OP:pat  STATUS:               ID:20100719130808 L   I
 2010-07-19-1304-09S.COL___123                                                 6
 STAT SP IPHASW D HRMM SECON CODA AMPLIT PERI AZIMU VELO AIN AR TRES W  DIS CAZ7
 BAR2 SZ IP       13 8 28.79                             169     0.210   28 203 
 BAR2 SZ I        13 8 29.34        10.5 0.40                            28 203 
 BAR2 SZ ES   2   13 8 44.15                             169    -0.2 5   28 203 
 BRR  HZ EP   1   13 8 30.32                             152     0.1 7   76 294 
 BRR  HE ES   1   13 8 47.25                             152    -0.1 7   76 294 
 BRR  HZ I        13 8 59.79        16.3 0.39                            76 294 
 RUS  HZ EP   1   13 8 32.41                             144    -0.3 7  103 180 
 RUS  HZ I        13 8 34.05         3.9 0.10                           103 180 
 RUS  HE ES   2   13 8 52.00                             144     0.3 5  103 180 
 GUE  SZ EP   2   13 8 33.17                             141     0.0 5  113   9 
                                                                                
