 2017  219 1000 54.9 L   6.755 -73.145151.8  RSN  5 0.5 1.0LRSN                1
 GAP=139        1.22       6.7     6.5  8.9 -0.4131E+01  0.6510E+01  0.2058E+01E
 Epicentro: LOS SANTOS - SANTANDER                                             3
 ACTION:UPD 17-05-24 15:37 OP:jn   STATUS:               ID:20170219100054 L   I
 OLDACT:REG 17-02-19 20:40 OP:cog  STATUS:               ID:20170219095740     3
 2017-02-19-0958-00M.COL___343                                                 6
 STAT SP IPHASW D HRMM SECON CODA AMPLIT PERI AZIMU VELO AIN AR TRES W  DIS CAZ7
 BAR2 EZ EP       10 1 15.32                             173    0.1510 18.5 193 
 BAR2 EZ ES       10 1 31.72                             173    0.7410 18.5 193 
 BAR2 EZ I        10 1 43.13         2.1 0.54            176           18.5 193 
 BRR  HZ EP       10 1 17.28                             153    0.4410 73.7 302 
 BRR  HN ES       10 1 34.06                             153    0.1110 73.7 302 
 BRR  HZ I        10 1 41.86        10.9 0.40            156           73.7 302 
 PAM  EZ EP       10 1 18.14                             151    0.1610 81.2  37 
 PAM  EN ES       10 1 35.31                             151   -0.6810 81.2  37 
 PAM  EZ I        10 1 40.11         1.2 0.58            155           81.2  37 
 RUS  HZ EP       10 1 18.40                             146   -0.5110 95.7 176 
 RUS  HN ES       10 1 37.58                             146   -0.0510 95.7 176 
 RUS  HZ I        10 1 38.29         0.7 0.32            155           95.7 176 
 PTB  HZ EP       10 1 22.62                             133    0.33 9  147 261 
 PTB  HN ES       10 1 42.91                             133   -0.74 9  147 261 
 PTB  HZ I        10 1 44.92         0.8 0.34            140            147 261 
                                                                                
