 2016  519 1545 40.9 L   6.788 -73.174141.2  RSN  8 0.4 2.1LRSN                1
 GAP=134        1.14       3.9     4.7  7.3 -0.1310E+01  0.9013E+01  0.1744E+00E
 Epicentro: LOS SANTOS - SANTANDER                                             3
 ACTION:UPD 16-08-18 17:47 OP:cam  STATUS:               ID:20160519154540 L   I
 OLDACT:UP  16-05-19 23:10 OP:ar   STATUS:               ID:20160519153743     3
 OLDACT:UP  16-05-19 23:10 OP:ar   STATUS:               ID:20160519153743     3
 OLDACT:REG 16-05-19 20:28 OP:drio STATUS:               ID:20160519153743     3
 2016-05-19-1537-43M.COL___309                                                 6
 STAT SP IPHASW D HRMM SECON CODA AMPLIT PERI AZIMU VELO AIN AR TRES W  DIS CAZ7
 BAR2 EZ EP       1545 59.63                             171   -0.2810 21.7 182 
 BAR2 EZ ES       1546 14.42                             171   -0.3510 21.7 182 
 BAR2 EZ I        1546 15.57        36.4 0.34            171           21.7 182 
 BRR  HZ EP       1546  1.38                             152   -0.0210 69.1 301 
 BRR  HN ES       1546 18.17                             152    0.7510 69.1 301 
 BRR  HZ I        1546 22.82        22.7 0.28            150           69.1 301 
 PAM  EZ EP       1546  2.57                             149   -0.2210 80.4  41 
 PAM  EN ES       1546 19.93                             149    0.0510 80.4  41 
 PAM  EZ I        1546 22.30        21.4 0.74            153           80.4  41 
 RUS  HZ EP       1546  4.41                             143    0.3210 99.5 174 
 RUS  HN ES       1546 22.56                             143    0.3510 99.5 174 
 RUS  HZ I        1546 23.03         9.6 0.22            147           99.5 174 
 PTB  HZ EP       1546  6.35                             132   -0.81 9  144 259 
 PTB  HN ES       1546 27.31                             132   -0.36 9  144 259 
 PTB  HZ I        1546 32.89        13.8 0.14            132            144 259 
 SPBC HZ EP       1546  8.93                             129    0.20 9  160 218 
 SPBC HN ES       1546 30.29                             129   -0.18 9  160 218 
 SPBC HZ I        1546 36.31        12.9 0.26            130            160 218 
 OCA  HN ES       1546 30.49                             128   -0.31 9  161 354 
 OCA  HZ I        1546 33.32        27.5 0.18            131            161 354 
 ZAR  HZ EP       1546 13.79                             122    1.02 9  202 293 
 ZAR  HN ES       1546 37.55                             122   -0.10 9  202 293 
 ZAR  HZ I        1546 44.01        12.5 0.42            123            202 293 
                                                                                
