 2015  919 1631  8.5 L   6.783 -73.139143.2  RSN 10 0.4 1.8LRSN                1
 GAP=138        1.00       3.0     4.1  5.4 -0.1033E+01  0.5768E+01  0.5783E+00E
 Epicentro: LOS SANTOS - SANTANDER                                             3
 ACTION:UPD 15-10-28 16:27 OP:cam  STATUS:               ID:20150919163108 L   I
 OLDACT:UP  15-09-19 23:48 OP:drio STATUS:               ID:20150919162750     3
 OLDACT:REG 15-09-19 20:28 OP:dri  STATUS:               ID:20150919162750     3
 2015-09-19-1627-50M.COL___358                                                 6
 STAT SP IPHASW D HRMM SECON CODA AMPLIT PERI AZIMU VELO AIN AR TRES W  DIS CAZ7
 BAR2 EZ EP       1631 27.80                             171   -0.0010 21.7 193 
 BAR2 EZ ES       1631 42.09                             171   -0.7510 21.7 193 
 BAR2 EZ I        1631 45.34        11.5 0.38            170           21.7 193 
 BRR  HZ EP       1631 29.93                             152    0.4610 72.7 300 
 BRR  HE ES       1631 46.27                             152    0.4510 72.7 300 
 PAM  EZ EP       1631 30.74                             150    0.2210 78.4  38 
 PAM  EN ES       1631 48.07                             150    0.4010 78.4  38 
 PAM  EZ I        1631 50.13        11.4 0.58            154           78.4  38 
 RUS  HZ EP       1631 31.86                             144   -0.0210 98.7 176 
 RUS  HE ES       1631 49.75                             144   -0.3510 98.7 176 
 RUS  HZ I        1631 51.88         4.6 0.22            146           98.7 176 
 PTB  HZ EP       1631 34.73                             131   -0.58 9  148 260 
 PTB  HE ES       1631 56.23                             131    0.03 9  148 260 
 PTB  HZ I        1632  3.33        11.9 0.40            132            148 260 
 OCA  HZ EP       1631 37.06                             129    0.25 9  162 353 
 OCA  HE ES       1631 58.88                             129    0.01 9  162 353 
 OCA  HZ I        1632  2.80        18.8 0.34            131            162 353 
 ZAR  HZ EP       1631 40.47                             122   -0.46 8  205 293 
 ZAR  HE ES       1632  6.01                             122   -0.21 8  205 293 
 ZAR  HZ I        1632 12.45         8.3 0.44            123            205 293 
 SML  HZ EP       1631 44.59                             117   -0.62 8  246 335 
 SML  HN ES   4   1632 12.36                             117   -1.47 0  246 335 
 CHI  HZ EP       1631 45.93                             117    0.03 8  247 195 
 CHI  HN ES       1632 15.61                             117    0.55 8  247 195 
 CHI  HZ I        1632 22.98         2.6 0.72            118            247 195 
 URE  HZ EP   4   1631 48.07                             113   -1.54 0  285 292 
 URE  HN ES   4   1632 17.82                             113   -3.85 0  285 292 
 GUY2CHZ EP       1631 51.92                             112   -0.03 7  301 235 
 GUY2CHN ES       1632 26.56                             112    0.73 7  301 235 
 GUY2CHZ I        1632 35.03         4.2 0.56                           301 235 
                                                                                
