 2012 1019 1727 42.3 L   6.490 -73.511  5.6  RSN  5 0.4 1.4LRSN                1
 GAP=198        0.81       3.4     4.5  7.4  0.6890E+01 -0.3311E+01 -0.6296E+01E
 Epicentro: SIMACOTA - SANTANDER                                               3
 ACTION:UPD 12-11-22 17:04 OP:ep   STATUS:               ID:20121019172742 L   I
 2012-10-19-1720-00M.COL___234                                                 6
 STAT SP IPHASW D HRMM SECON CODA AMPLIT PERI AZIMU VELO AIN AR TRES W  DIS CAZ7
 BAR2 SZ EP       1727 48.84                              47   -0.0510 38.0  73 
 BAR2 SZ I        1727 58.23        27.1 0.38                          38.0  73 
 BRR  HZ EP       1727 53.46                              47   -0.3010 71.8 342 
 BRR  HZ I        1728  1.59        12.7 0.32                          71.8 342 
 BRR  HE ES   1   1728  2.54                              47   -0.17 7 71.8 342 
 GIR2 SZ EP       1727 54.52                              47    0.2910 74.0  28 
 RUS  HZ EP   1   1727 55.93                              47    0.24 7 81.2 144 
 RUS  HN ES   2   1728  5.55                              47   -0.60 5 81.2 144 
 RUS  HZ I        1728  8.10         9.3 0.21                          81.2 144 
 PAM  SZ EP       1728  3.56                              47    0.5010  130  44 
 PAM  SN ES   1   1728 18.69                              47   -0.57 7  130  44 
 PAM  SZ I        1728 27.76        10.9 0.17                           130  44 
                                                                                
