 2010  419 1019 53.2 L   6.768 -73.042143.7  RSN  6 0.4 2.0LRSN                1
 GAP=222        0.74       4.5     8.8  6.7 -0.1332E+02  0.1066E+02  0.4667E+01E
 Epicentro: LOS SANTOS - SANTANDER                                             3
 ACTION:UPD 10-08-24 09:59 OP:vdl  STATUS:               ID:20100419102003 L   I
 2010-04-19-1015-59S.COL___100                                                 6
 STAT SP IPHASW D HRMM SECON CODA AMPLIT PERI AZIMU VELO AIN AR TRES W  DIS CAZ7
 BAR2 SZ IP       1020 12.70                             170     0.110   25 219 
 BAR2 SZ ES   1   1020 27.36                             170    -0.4 7   25 219 
 BRR  HZ EP   1   1020 15.16                             149     0.3 7   83 297 
 BRR  HZ I        1020 15.62        17.0 0.12                            83 297 
 BRR  HE ES   1   1020 32.14                             149     0.4 7   83 297 
 OCA  SZ EP   1   1020 21.71                             128    -0.1 7  165 349 
 OCA  SZ I        1020 26.12        18.5 0.40                           165 349 
 OCA  SZ ES   1   1020 43.95                             128    -0.2 7  165 349 
 RREF BZ EP   2   1020 40.22                             110     0.2 3  328 231 
 RREF BE ES   1   1021 15.67                             110    -0.8 5  328 231 
 RREF BZ I        1021 22.17         4.2 0.54                           328 231 
 DBB  SZ EP   1   1020 41.65                             108    -0.3 5  351 275 
 PRA  HZ EP   1   1020 46.98                             106     0.0 4  395 211 
 PRA  HN ES   1   1021 29.60                             106     0.7 4  395 211 
 PRA  HZ I        1021 32.85         2.6 0.23                           395 211 
                                                                                
