 2013  619 1111 56.7 L   6.758 -73.178157.1  RSN  4 0.1 1.3LRSN                1
 GAP=240        0.30       3.5     2.4  3.2  0.5271E+01  0.7674E+00 -0.1786E+01E
 Epicentro: VILLANUEVA - SANTANDER                                             3
 ACTION:UPD 14-01-08 09:55 OP:ep   STATUS:               ID:20130619111156 L   I
 OLDACT:UP  13-06-19 16:54 OP:cam  STATUS:               ID:20130619110959     3
 OLDACT:REG 13-06-19 15:37 OP:cam  STATUS:               ID:20130619110959     3
 2013-06-19-1109-59M.COL___261                                                 6
 STAT SP IPHASW D HRMM SECON CODA AMPLIT PERI AZIMU VELO AIN AR TRES W  DIS CAZ7
 BAR2 SZ EP       1112 17.53                             173   -0.0510 18.3 182 
 BAR2 SZ ES       1112 33.94                             173    0.0510 18.3 182 
 RUS  HZ EP   1   1112 21.35                             147    0.09 7 96.3 174 
 RUS  HN ES   1   1112 40.35                             147   -0.10 7 96.3 174 
 RUS  HZ I        1112 41.86         1.9 0.70            143           96.3 174 
 PTB  HZ EP   1   1112 24.24                             135    0.03 7  143 260 
 PTB  HN ES       1112 45.71                             135    0.02 9  143 260 
 PTB  HZ I        1112 51.43         4.3 0.38            131            143 260 
 ZAR  HN ES       1112 55.48                             125   -0.04 9  203 294 
                                                                                
