 2014 1019 1041  4.3 L   6.792 -73.084156.7  RSN  4 0.1 1.4LRSN                1
 GAP=206        0.39       2.0     4.5  4.2  0.4086E+01 -0.6315E+01 -0.3970E+01E
 Epicentro: LOS SANTOS - SANTANDER                                             3
 ACTION:UPD 14-11-29 23:51 OP:nd   STATUS:               ID:20141019104104 L   I
 OLDACT:DUP 14-10-19 21:38 OP:cam  STATUS:               ID:20141019103813d    3
 OLDACT:UP  14-10-19 21:38 OP:cam  STATUS:               ID:20141019103812     3
 OLDACT:REG 14-10-19 20:24 OP:cam  STATUS:               ID:20141019103812     3
 2014-10-19-1038-12M.COL___268                                                 6
 STAT SP IPHASW D HRMM SECON CODA AMPLIT PERI AZIMU VELO AIN AR TRES W  DIS CAZ7
 BRR  HZ EP       1041 26.83                             152   -0.1410 77.7 297 
 BRR  HN ES       1041 44.79                             152    0.1210 77.7 297 
 BRR  HN I        1041 48.94         6.3 0.20            154           77.7 297 
 RUS  HZ EP       1041 29.23                             146    0.1910 99.5 180 
 RUS  HN ES       1041 48.23                             146   -0.1210 99.5 180 
 RUS  HZ I        1041 50.62         1.4 0.48            153           99.5 180 
 SPBC HN ES       1041 57.13                             131   -0.01 9  167 221 
 SML  HZ EP       1041 41.93                             119   -0.01 8  247 334 
 SML  HN ES       1042 11.27                             119   -0.04 8  247 334 
 SML  HN I        1042 18.41         3.5 0.10            122            247 334 
                                                                                
