 2016 1219 1317 55.0 L   6.840 -73.195142.0  RSN  4 0.4 0.9LRSN                1
 GAP=236        0.70       7.2     5.3  6.4  0.1747E+02  0.3915E+01 -0.4433E+01E
 Epicentro: ZAPATOCA - SANTANDER                                               3
 ACTION:UPD 17-01-11 20:16 OP:rebc STATUS:               ID:20161219131755 L   I
 OLDACT:UP  16-12-20 00:16 OP:edw  STATUS:               ID:20161219130751d    3
 OLDACT:DUP 16-12-20 00:12 OP:edw  STATUS:               ID:20161219130751d    3
 2016-12-19-1308-00M.COL___327                                                 6
 STAT SP IPHASW D HRMM SECON CODA AMPLIT PERI AZIMU VELO AIN AR TRES W  DIS CAZ7
 BAR2 EZ EP       1318 14.46                             169    0.1510 27.5 177 
 BAR2 EZ ES       1318 29.56                             169    0.2210 27.5 177 
 BAR2 EZ I        1318 30.15         1.7 0.16            166           27.5 177 
 BRR  HZ EP   2   1318 16.00                             154    0.60 5 64.3 297 
 BRR  HN ES   2   1318 30.32                             154   -0.96 5 64.3 297 
 RUS  HZ EP       1318 18.60                             142   -0.1910  106 173 
 RUS  HE ES       1318 37.26                             142   -0.0610  106 173 
 PTB  HZ EP       1318 21.07                             132   -0.23 9  143 257 
 PTB  HN ES       1318 42.00                             132    0.21 9  143 257 
 PTB  HZ I        1318 45.89         1.2 0.10            131            143 257 
                                                                                
