 2013  719 1400 32.3 L   6.808 -73.144144.4  RSN 12 0.4 2.1LRSN                1
 GAP=186        1.03       3.6     5.0  5.5  0.2449E+01  0.8413E+01  0.1248E+01E
 Epicentro: LOS SANTOS - SANTANDER                                             3
 ACTION:UPD 13-08-12 10:38 OP:ep   STATUS:               ID:20130719140032 L   I
 OLDACT:REG 13-07-19 15:31 OP:nd   STATUS:               ID:20130719140000     3
 2013-07-19-1400-00M.COL___265                                                 6
 STAT SP IPHASW D HRMM SECON CODA AMPLIT PERI AZIMU VELO AIN AR TRES W  DIS CAZ7
 BAR2 SZ EP       14 0 51.90                             170    0.0910 24.3 190 
 BAR2 SZ ES       14 1  7.17                             170    0.1610 24.3 190 
 BAR2 SZ I        14 1  8.58        24.4 0.20            172           24.3 190 
 GIR2 SZ EP       14 0 52.11                             167    0.3010 30.4 350 
 GIR2 SZ ES       14 1  6.58                             167   -0.4310 30.4 350 
 GIR2 SZ I        14 1  9.06        16.0 0.14            162           30.4 350 
 BRR  HZ EP       14 0 53.49                             152    0.1810 70.9 298 
 BRR  HN ES       14 1 10.54                             152    0.8710 70.9 298 
 BRR  HZ I        14 1 13.49        16.8 0.32            147           70.9 298 
 RUS  HZ EP       14 0 56.00                             143   -0.0110  101 176 
 RUS  HN ES       14 1 14.15                             143   -0.3310  101 176 
 RUS  HZ I        14 1 16.06         8.9 0.28            145            101 176 
 PTB  HZ EP       14 0 58.80                             132   -0.41 9  148 258 
 PTB  HN ES       14 1 19.68                             132   -0.50 9  148 258 
 PTB  HZ I        14 1 22.47        12.4 0.10            129            148 258 
 ZAR  HZ EP       14 1  5.43                             122    0.77 9  204 292 
 ZAR  HE ES       14 1 29.99                             122    0.11 9  204 292 
 ZAR  HZ I        14 1 35.23        14.7 0.28            119            204 292 
 NOR  HZ EP       14 1  8.14                             118    0.09 8  235 234 
 NOR  HN ES       14 1 35.74                             118   -0.17 8  235 234 
 NOR  HZ I        14 1 45.37         7.9 0.44            117            235 234 
 SML  HZ EP       14 1  8.58                             117   -0.21 8  243 335 
 SML  HN ES       14 1 36.36                             117   -0.87 8  243 335 
 SML  HZ I        14 1 47.47        15.5 0.10            114            243 335 
 GUY2CHZ EP   4   14 1 17.21                             112    1.26 0  302 235 
 GUY2CHN ES   4   14 1 53.03                             112    3.06 0  302 235 
 GUY2CHZ I        14 1 58.46         6.8 0.58                           302 235 
 COD  HZ EP   4   14 1 20.05                             109   -0.50 0  347 355 
 COD  HN ES   4   14 1 57.91                             109   -0.24 0  347 355 
 COD  HZ I        14 2 13.74         4.2 0.70            107            347 355 
 PRA  HZ EP       14 1 25.94                             106    0.04 6  393 210 
 PRA  HN ES       14 2  7.82                             106    0.13 6  393 210 
 PRA  HZ I        14 2 14.14         8.4 0.76            105            393 210 
 SJC  HZ EP   4   14 1 21.81                             105   -5.95 0  409 327 
 SJC  HN ES   4   14 2  6.50                             105   -4.50 0  409 327 
 SJC  HZ I        14 2 21.14         1.9 0.16            104            409 327 
                                                                                
