 2010  719 1428 23.1 L   6.771 -73.097146.0  RSN  7 0.3 1.9LRSN                1
 GAP=164        0.59       4.1     8.1  7.1  0.2584E+01 -0.1236E+02 -0.1267E+01E
 Epicentro: LOS SANTOS - SANTANDER                                             3
 ACTION:UPD 10-12-01 15:18 OP:pat  STATUS:               ID:20100719142823 L   I
 2010-07-19-1426-42S.COL___123                                                 6
 STAT SP IPHASW D HRMM SECON CODA AMPLIT PERI AZIMU VELO AIN AR TRES W  DIS CAZ7
 BAR2 SZ IP       1428 42.60                             171    -0.210   22 206 
 BAR2 SZ ES   2   1428 58.04                             171     0.0 5   22 206 
 BAR2 SZ I        1428 59.31        12.1 0.44                            22 206 
 GIR2 SZ EP   2   1428 43.03                             166     0.1 5   36 343 
 BRR  HZ IP     C 1428 44.46                             151    -0.210   78 299 
 BRR  HZ I        1428 44.75        28.0 0.12                            78 299 
 BRR  HN ES   1   1429  1.78                             151     0.3 7   78 299 
 RUS  HZ EP   2   1428 46.62                             145     0.0 5   97 179 
 RUS  HN ES   2   1429  5.29                             145     0.3 5   97 179 
 RUS  HZ I        1429  8.66         5.6 0.38                            97 179 
 GRA  SZ EP   2   1428 49.36                             137     0.8 5  127  15 
 GRA  SZ ES   2   1429  8.22                             137    -0.1 5  127  15 
 GRA  SZ I        1429 10.94         8.0 0.34                           127  15 
 OCA  SZ EP   2   1428 52.01                             129     0.2 5  164 351 
 OCA  SZ ES   2   1429 13.93                             129    -0.3 5  164 351 
 OCA  SZ I        1429 18.84        12.0 0.26                           164 351 
 PRA  HZ EP   2   1429 16.98                             107     0.3 3  392 210 
 PRA  HZ I        1430  2.17         2.7 0.30                           392 210 
                                                                                
