 2010  319 1209  6.1 L   6.863 -72.971142.0  RSN  4 0.1 1.8LRSN                1
 GAP=201        0.33       5.7    10.4  8.0  0.4739E+02 -0.6495E+02 -0.3089E+02E
 Epicentro: CEPITA - SANTANDER                                                 3
 ACTION:UP  10-08-24 09:54 OP:vdl  STATUS:               ID:20100319120906 L   I
 2010-03-19-1205-38S.COL___098                                                 6
 STAT SP IPHASW D HRMM SECON CODA AMPLIT PERI AZIMU VELO SNR AR TRES W  DIS CAZ7
 BAR2 SZ IP       12 9 25.72                             164     0.010   38 218 
 BAR2 SZ ES   2   12 9 40.82                             164    -0.2 5   38 218 
 BRR  HZ EP   2   12 9 27.74                             147    -0.1 5   86 288 
 BRR  HN ES   1   12 9 44.74                             147     0.0 7   86 288 
 BRR  HZ I        12 9 45.94        17.2 0.52                            86 288 
 RUS  HZ EP   2   12 9 29.91                             141    -0.2 5  108 187 
 RUS  HE ES   2   12 9 48.96                             141     0.2 5  108 187 
 RUS  HZ I        12 9 49.26         3.5 0.10                           108 187 
 OCA  SZ EP   2   12 9 33.95                             129     0.1 5  157 346 
 OCA  SZ I        12 9 51.92        17.0 0.56                           157 346 
                                                                                
