 2015 1119 1100 50.9 L   6.788 -73.339114.5  RSN  5 0.5 1.2LRSN                1
 GAP=147        1.13       6.5     8.5 10.5  0.1643E+02  0.1627E+01 -0.2546E+02E
 Epicentro: ZAPATOCA - SANTANDER                                               3
 ACTION:UPD 15-12-28 16:12 OP:cam  STATUS:               ID:20151119110051dL   I
 OLDACT:REG 15-11-19 20:16 OP:dnl  STATUS:               ID:20151119105750     3
 2015-11-19-1057-50M.COL___304                                                 6
 STAT SP IPHASW D HRMM SECON CODA AMPLIT PERI AZIMU VELO AIN AR TRES W  DIS CAZ7
 BAR2 EZ EP       11 1  7.48                             165    0.6310 27.7 141 
 BAR2 EZ ES       11 1 19.05                             165   -0.2910 27.7 141 
 BAR2 EZ I        11 1 23.96         2.8 0.23            167           27.7 141 
 BRR  HZ EP       11 1  7.82                             152    0.1610 54.3 311 
 BRR  HE ES   1   11 1 20.35                             152   -0.42 7 54.3 311 
 PAM  EZ EP       11 1 10.36                             138   -0.7110 93.3  49 
 PAM  EE ES   1   11 1 27.23                             138    0.39 7 93.3  49 
 PAM  EZ I        11 1 29.49         3.9 0.56            141           93.3  49 
 RUS  HZ EP   2   11 1 11.06                             135   -0.82 5  103 164 
 RUS  HE ES   2   11 1 29.19                             135    0.92 5  103 164 
 RUS  HZ I        11 1 31.41         2.7 0.27            139            103 164 
 SML  HE ES       11 1 52.22                             110    0.32 8  237 340 
 SML  HZ I        11 1 55.75         3.6 0.07            114            237 340 
                                                                                
