 2010 1219 1030 40.5 L   6.779 -73.057148.3  RSN  6 0.5 1.6LRSN                1
 GAP=192        0.84       5.2     9.7  9.0 -0.5981E+01  0.2875E+02 -0.7807E+00E
 Epicentro: LOS SANTOS - SANTANDER                                             3
 ACTION:UP  11-01-14 15:25 OP:pat  STATUS:               ID:20101219103040 L   I
 2010-12-19-1028-00S.COL___129                                                 6
 STAT SP IPHASW D HRMM SECON CODA AMPLIT PERI AZIMU VELO SNR AR TRES W  DIS CAZ7
 BAR2 SZ IP       1031  0.47                             170     0.010   25 214 
 BAR2 SZ ES   1   1031 15.53                             170    -0.6 7   25 214 
 BAR2 SZ I        1031 17.22         9.5 0.19                            25 214 
 RUS  HZ EP   1   1031  4.35                             145     0.0 7   98 182 
 RUS  HN ES   1   1031 23.31                             145     0.4 7   98 182 
 RUS  HZ I        1031 24.26         4.0 0.26                            98 182 
 OCA  SZ EP   2   1031  9.24                             129    -0.2 5  164 350 
 OCA  SZ ES   2   1031 32.80                             129     0.9 5  164 350 
 OCA  SZ I        1031 36.31         5.7 0.55                           164 350 
 NOR  SE ES   2   1031 45.26                             118    -0.4 4  242 236 
 CHI  HZ EP   1   1031 18.49                             117     0.1 6  249 197 
 CHI  HZ I        1031 19.39         2.7 0.16                           249 197 
 CHI  HE ES   1   1031 48.25                             117     0.3 6  249 197 
 HEL  HZ EP   2   1031 20.78                             114    -1.1 4  281 257 
 HEL  HN ES   2   1031 54.89                             114     0.8 4  281 257 
 HEL  HZ I        1031 59.54         2.9 0.32                           281 257 
                                                                                
