 2012  719 1158  8.1 L   6.771 -73.180147.5  RSN  6 0.4 1.8LRSN                1
 GAP=134        1.07       7.8     6.5  9.9 -0.6987E+01  0.1403E+02 -0.1184E+02E
 Epicentro: LOS SANTOS - SANTANDER                                             3
 ACTION:UPD 12-08-14 11:45 OP:ep   STATUS:               ID:20120719115808 L   I
 2012-07-19-1150-00M.COL___201                                                 6
 STAT SP IPHASW D HRMM SECON CODA AMPLIT PERI AZIMU VELO AIN AR TRES W  DIS CAZ7
 BAR2 SZ EP       1158 27.95                             172     0.110   20 181 
 BAR2 SZ ES   1   1158 43.15                             172    -0.1 7   20 181 
 BAR2 SZ I        1158 45.24        18.6 0.22            172             20 181 
 BRR  HZ IP     C 1158 29.71                             153     0.410   70 302 
 BRR  HZ I        1158 29.89        41.4 0.14            151             70 302 
 BRR  HN ES   1   1158 46.72                             153     0.8 7   70 302 
 PAM  SZ EP       1158 30.93                             150     0.110   82  40 
 PAM  SZ I        1158 31.13         7.9 0.18            153             82  40 
 PAM  SN ES   1   1158 47.79                             150    -0.7 7   82  40 
 RUS  HN ES   1   1158 50.37                             145     0.1 7   98 174 
 RUS  HZ I        1158 52.08         5.9 0.50            147             98 174 
 PTB  HZ EP       1158 34.46                             133    -0.4 9  143 260 
 PTB  HN ES   1   1158 55.30                             133    -0.4 7  143 260 
 PTB  HZ I        1158 58.23         5.6 0.30            133            143 260 
 ZAR  HZ EP   3   1158 41.12                             123     0.7 2  202 293 
 ZAR  HN ES   2   1159  4.87                             123    -0.8 4  202 293 
 ZAR  HZ I        1159 12.04         6.7 0.22            123            202 293 
