 2016  819 1249 40.6 L   6.757 -73.121143.0  RSN  7 0.4 2.0LRSN                1
 GAP=142        0.94       4.1     4.2  6.5 -0.1866E+01  0.7474E+01 -0.7942E-01E
 Epicentro: LOS SANTOS - SANTANDER                                             3
 ACTION:UPD 16-10-29 15:37 OP:rebc STATUS:               ID:20160819124940 L   I
 OLDACT:REG 16-08-19 20:30 OP:dnl  STATUS:               ID:20160819124732     3
 2016-08-19-1248-00M.COL___368                                                 6
 STAT SP IPHASW D HRMM SECON CODA AMPLIT PERI AZIMU VELO AIN AR TRES W  DIS CAZ7
 BAR2 EZ EP       1249 59.77                             172   -0.0610 19.4 200 
 BAR2 EZ ES       1250 14.39                             172   -0.4310 19.4 200 
 BAR2 EZ I        1250 15.56        27.6 0.24                          19.4 200 
 BRR  HZ EP       1250  1.82                             150    0.0910 75.9 301 
 BRR  HE ES       1250 18.76                             150    0.5510 75.9 301 
 BRR  HZ I        1250 22.95        20.3 0.12                          75.9 301 
 PAM  EZ EP       1250  2.89                             150    0.2310 79.5  36 
 PAM  EN ES       1250 19.70                             150   -0.1510 79.5  36 
 PAM  EZ I        1250 22.10        21.9 0.54                          79.5  36 
 RUS  HZ EP   2   1250  4.46                             145    0.73 5 95.7 177 
 RUS  HE ES       1250 21.81                             145    0.0410 95.7 177 
 RUS  HZ I        1250 23.08         8.3 0.22                          95.7 177 
 PTB  HZ EP       1250  6.71                             131   -0.81 9  150 261 
 PTB  HE ES       1250 28.13                             131   -0.38 9  150 261 
 PTB  HZ I        1250 30.36        11.7 0.14                           150 261 
 SPBC HZ EP       1250  8.66                             129   -0.05 9  161 221 
 SPBC HE ES       1250 31.14                             129    0.51 9  161 221 
 SPBC HZ I        1250 33.34         8.0 0.14                           161 221 
 ZAR  HZ EP   2   1250 13.56                             121    0.23 4  208 293 
 ZAR  HE ES       1250 39.05                             121    0.21 8  208 293 
 ZAR  HZ I        1250 41.20         8.6 0.13                           208 293 
                                                                                
