 2013  719 1441 39.2 L   6.301 -73.655108.0  RSN 12 0.5 2.1LRSN                1
 GAP= 80        1.15       3.0     3.4  6.7 -0.1360E+01  0.9479E+01  0.1405E+01E
 Epicentro: SANTA HELENA DEL OPON - SANTANDER                                  3
 ACTION:UPD 13-08-12 10:38 OP:ep   STATUS:               ID:20130719144139 L   I
 OLDACT:REG 13-07-19 15:36 OP:nd   STATUS:               ID:20130719143959     3
 2013-07-19-1439-59M.COL___266                                                 6
 STAT SP IPHASW D HRMM SECON CODA AMPLIT PERI AZIMU VELO AIN AR TRES W  DIS CAZ7
 BAR2 SZ IP     C 1441 56.44                             148    0.3810 61.4  58 
 BAR2 SZ ES       1442  9.58                             148    0.3510 61.4  58 
 BAR2 SZ I        1442 10.85       149.2 0.14            154           61.4  58 
 RUS  HZ EP       1441 57.46                             142   -0.1010 77.8 125 
 RUS  HN ES       1442 11.50                             142   -0.4110 77.8 125 
 RUS  HZ I        1442 13.65        19.3 0.32            148           77.8 125 
 SPBC HZ EP       1441 57.41                             139   -0.1810 85.3 213 
 SPBC HN ES   2   1442 12.71                             139    0.75 5 85.3 213 
 SPBC HZ I        1442 21.67        21.6 0.18            142           85.3 213 
 BRR  HZ EP       1441 57.97                             137    0.1810 89.3 356 
 BRR  HN ES       1442 13.14                             137    0.8210 89.3 356 
 BRR  HZ I        1442 20.00        19.8 0.54            141           89.3 356 
 PTB  HZ EP       1441 57.35                             136   -0.7310 92.5 287 
 PTB  HN ES       1442 12.40                             136   -0.4310 92.5 287 
 PTB  HZ I        1442 12.44        21.1 0.40            139           92.5 287 
 GIR2 SZ EP       1441 59.35                             134    0.4510  100  31 
 GIR2 SZ ES       1442 13.66                             134   -0.6310  100  31 
 GIR2 SZ I        1442 15.90        16.9 0.12            139            100  31 
 NOR  HZ EP       1442  3.74                             120   -0.66 9  157 239 
 NOR  HN ES       1442 24.30                             120    0.22 9  157 239 
 NOR  HZ I        1442 25.64        20.8 0.38            123            157 239 
 ZAR  HZ EP       1442  7.61                             115    0.03 9  187 315 
 ZAR  HE ES       1442 29.49                             115   -0.25 9  187 315 
 ZAR  HZ I        1442 34.97        14.0 0.40            119            187 315 
 HEL  HZ EP       1442 11.13                             112    0.79 8  208 267 
 HEL  HN ES       1442 34.89                             112    0.24 8  208 267 
 HEL  HZ I        1442 39.78         9.1 0.26            116            208 267 
 GUY2CHZ EP   4 D 1442 13.51                             111    1.22 0  224 238 
 GUY2CHN ES   4   1442 39.77                             111    1.64 0  224 238 
 GUY2CHZ I        1442 44.26         6.9 0.18                           224 238 
 RREF HZ EP   4   1442 15.80                             109    1.08 0  243 231 
 RREF HN ES   4   1442 44.04                             109    1.58 0  243 231 
 SML  HZ EP       1442 18.44                             105    0.19 7  280 351 
 SML  HN ES       1442 48.22                             105   -0.52 7  280 351 
 SML  HZ I        1442 54.94         8.1 0.10            109            280 351 
 PRA  HZ EP       1442 22.38                             103   -0.28 7  317 206 
 PRA  HN ES       1442 57.06                             103    0.47 7  317 206 
 PRA  HZ I        1443  1.29         6.6 0.26            106            317 206 
                                                                                
