 2012 1219 1446 33.6 L   6.848 -73.299128.5  RSN  6 0.5 1.8LRSN                1
 GAP=177        0.96       5.9     6.9  9.1  0.1879E+02  0.1104E+01 -0.1513E+02E
 Epicentro: ZAPATOCA - SANTANDER                                               3
 ACTION:UPD 13-01-04 14:29 OP:ep   STATUS:               ID:20121219144633 L   I
 2012-12-19-1440-00M.COL___242                                                 6
 STAT SP IPHASW D HRMM SECON CODA AMPLIT PERI AZIMU VELO AIN AR TRES W  DIS CAZ7
 BAR2 SZ EP   1   1446 51.80                             166    0.43 7 31.1 155 
 BAR2 SZ ES   1   1447  5.07                             166   -0.15 7 31.1 155 
 BRR  HZ EP   1   1446 52.24                             156    0.31 7 53.8 302 
 BRR  HN ES   1   1447  6.30                             156    0.07 7 53.8 302 
 BRR  HZ I        1447  6.97        27.1 0.12                          53.8 302 
 RUS  HZ EP   1   1446 56.80                             138    0.48 7  108 167 
 RUS  HN ES   1   1447 13.79                             138   -0.25 7  108 167 
 RUS  HZ I        1447 15.32         6.1 0.22                           108 167 
 PTB  HZ EP   1   1446 57.04                             131   -0.73 7  132 255 
 PTB  HN ES   1   1447 16.13                             131   -0.49 7  132 255 
 PTB  HZ I        1447 19.33        11.1 0.10                           132 255 
 ZAR  HE ES   1   1447 27.17                             121    1.06 7  186 293 
 ZAR  HZ I        1447 31.11         7.1 0.12                           186 293 
 SML  HZ EP   1   1447  7.67                             115   -0.36 6  232 339 
 SML  HN ES   1   1447 34.36                             115   -0.53 6  232 339 
                                                                                
