 2013  619 1711 55.7 L   6.734 -73.179144.0  RSN  4 0.2 1.7LRSN                1
 GAP=228        0.49       4.8     4.1  6.2  0.6584E+01  0.6887E+01 -0.6066E+01E
 Epicentro: VILLANUEVA - SANTANDER                                             3
 ACTION:UPD 14-01-08 09:55 OP:ep   STATUS:               ID:20130619171155 L   I
 OLDACT:UP  13-06-19 17:57 OP:cam  STATUS:               ID:20130619170959     3
 OLDACT:REG 13-06-19 16:06 OP:cam  STATUS:               ID:20130619170959     3
 2013-06-19-1709-59M.COL___261                                                 6
 STAT SP IPHASW D HRMM SECON CODA AMPLIT PERI AZIMU VELO AIN AR TRES W  DIS CAZ7
 BAR2 SZ EP   1   1712 14.90                             173   -0.12 7 15.7 181 
 BAR2 SZ ES       1712 29.85                             173   -0.2110 15.7 181 
 BAR2 SZ I        1712 30.97        11.0 0.19            141           15.7 181 
 BRR  HZ I        1712 16.73        15.9 0.22            146           71.9 305 
 BRR  HZ EP   1   1712 16.83                             152    0.10 7 71.9 305 
 BRR  HN ES   2   1712 33.64                             152    0.54 5 71.9 305 
 RUS  HN ES       1712 37.01                             145    0.1910 93.6 173 
 RUS  HN I        1712 38.44         4.5 0.18            118           93.6 173 
 PTB  HZ EP   2   1712 22.08                             132   -0.03 5  143 261 
 PTB  HN ES       1712 42.57                             132   -0.12 9  143 261 
 PTB  HZ I        1712 45.17         7.1 0.46            116            143 261 
                                                                                
