 2012  619 1837  7.7 L   6.773 -73.190147.2  RSN  5 0.1 1.5LRSN                1
 GAP=132        0.35       2.9     2.5  4.4 -0.1965E+01  0.4330E+01 -0.3612E+01E
 Epicentro: VILLANUEVA - SANTANDER                                             3
 ACTION:UPD 12-08-06 17:50 OP:ep   STATUS:               ID:20120619183707 L   I
 2012-06-19-1830-00M.COL___199                                                 6
 STAT SP IPHASW D HRMM SECON CODA AMPLIT PERI AZIMU VELO AIN AR TRES W  DIS CAZ7
 BAR2 SZ EP   1   1837 27.32                             172   -0.09 7 20.0 178 
 BAR2 SZ ES   1   1837 42.78                             172   -0.03 7 20.0 178 
 BAR2 SZ I        1837 43.46         9.5 0.23                          20.0 178 
 PAM  SZ EP   1   1837 30.55                             149    0.19 7 82.8  41 
 PAM  SN ES   1   1837 47.94                             149   -0.13 7 82.8  41 
 RUS  HE ES   1   1837 49.99                             145    0.11 7 98.1 173 
 RUS  HZ I        1837 51.17         7.0 0.51                          98.1 173 
 PTB  HZ EP   1   1837 34.13                             133   -0.14 7  142 260 
 PTB  HN ES   1   1837 54.99                             133   -0.04 7  142 260 
 PTB  HZ I        1837 55.66         3.0 0.07                           142 260 
 ZAR  HN ES   2   1838  5.26                             123    0.29 4  201 293 
                                                                                
