 2012  219 1811 50.2 L   6.782 -73.136149.7  RSN 14 0.4 2.5LRSN                1
 GAP=127        0.73       3.2     3.7  4.8 -0.2081E+01  0.3134E+01  0.1813E+01E
 ACTION:UP  12-03-07 16:32 OP:epov STATUS:               ID:20120219181150 L   I
 2012-02-19-1810-00M.COL___191                                                 6
 STAT SP IPHASW D HRMM SECON CODA AMPLIT PERI AZIMU VELO AIN AR TRES W  DIS CAZ7
 BAR2 SZ EP   1   1812 10.32                             171    0.06 7 21.6 194 
 BAR2 SZ ES   1   1812 25.76                             171   -0.16 7 21.6 194 
 BAR2 SZ I        1812 26.96        52.7 0.21                          21.6 194 
 GIR2 SZ EP   1   1812 10.47                             167    0.08 7 33.4 349 
 BRR  HZ EP   1   1812 12.28                             153    0.41 7 73.1 299 
 BRR  HN ES   1   1812 29.57                             153    0.78 7 73.1 299 
 BRR  HZ I        1812 34.98        58.9 0.07                          73.1 299 
 PAM  SZ EP   1   1812 13.11                             151    0.23 7 78.2  38 
 PAM  SE ES   1   1812 30.22                             151   -0.35 7 78.2  38 
 RUS  HZ EP   1   1812 14.23                             145    0.04 7 98.5 177 
 RUS  HN ES   1   1812 32.68                             145   -0.22 7 98.5 177 
 RUS  HZ I        1812 33.99        35.7 0.39                          98.5 177 
 PTB  HZ EP   1   1812 17.23                             133   -0.32 7  148 260 
 PTB  HN ES   1   1812 38.55                             133   -0.33 7  148 260 
 OCA  SZ EP   1   1812 19.24                             130    0.24 7  162 353 
 ZAR  HZ EP   1   1812 23.03                             123   -0.05 6  206 293 
 ZAR  HN ES   1   1812 48.21                             123   -0.52 6  206 293 
 ZAR  HZ I        1812 54.41        38.9 0.24                           206 293 
 NOR  SZ EP   1   1812 26.31                             119    0.19 6  234 235 
 NOR  SN ES   1   1812 53.57                             119   -0.58 6  234 235 
 CHI  HZ EP   1   1812 28.37                             118    0.44 6  247 196 
 CHI  HN ES   1   1812 57.52                             118    0.15 6  247 196 
 CHI  HZ I        1813  3.47        18.9 0.53                           247 196 
 HEL  HZ EP   1   1812 31.19                             115    0.52 6  273 256 
 HEL  HZ I        1813  9.10        19.6 0.50                           273 256 
 TOL  SZ EP   1   1812 37.54                             110   -0.99 5  343 225 
 SDV  BZ EP   1   1812 39.55                             109   -0.88 5  361  50 
 SDV  BZ I        1812 40.65         6.8 0.42                           361  50 
 PRA  HZ EP   1   1812 44.00                             107    0.29 4  391 210 
 PRA  HN ES   1   1813 25.97                             107    0.51 4  391 210 
                                                                                
