 2012 1019 1025 14.8 L   6.783 -73.080147.8  RSN  4 0.2 1.8LRSN                1
 GAP=146        0.41       2.8     4.2  4.5  0.5322E+00  0.1016E+00  0.1628E+01E
 Epicentro: LOS SANTOS - SANTANDER                                             3
 ACTION:UPD 12-11-22 17:04 OP:ep   STATUS:               ID:20121019102514 L   I
 2012-10-19-1020-00M.COL___234                                                 6
 STAT SP IPHASW D HRMM SECON CODA AMPLIT PERI AZIMU VELO AIN AR TRES W  DIS CAZ7
 BAR2 SZ EP   2   1025 34.56                             170   -0.15 5 24.0 208 
 BAR2 SZ ES   2   1025 50.31                             170    0.09 5 24.0 208 
 BAR2 SZ I        1025 50.90        13.9 0.24                          24.0 208 
 PAM  SZ EP   1   1025 37.35                             152    0.26 7 74.5  34 
 PAM  SE ES   1   1025 54.31                             152   -0.14 7 74.5  34 
 PAM  SZ I        1025 56.77         6.9 0.62                          74.5  34 
 BRR  HZ EP       1025 36.42                             150   -0.1910 78.5 297 
 BRR  HE ES   1   1025 53.79                             150    0.18 7 78.5 297 
 BRR  HZ I        1025 56.88         8.3 0.11                          78.5 297 
 RUS  HZ EP       1025 38.71                             145    0.0910 98.5 180 
 RUS  HN ES   1   1025 57.11                             145   -0.08 7 98.5 180 
 RUS  HN I        1025 59.05        16.1 0.41                          98.5 180 
                                                                                
