 2012  219 1658 58.6 L   6.736 -73.158145.0  RSN  7 0.4 2.0LRSN                1
 GAP=138        0.74       4.5     4.0  7.7 -0.1274E+01  0.6762E+01  0.6178E+01E
 ACTION:UP  12-03-07 16:32 OP:epov STATUS:               ID:20120219165858 L   I
 2012-02-19-1656-00S.MAN___184                                                 6
 STAT SP IPHASW D HRMM SECON CODA AMPLIT PERI AZIMU VELO AIN AR TRES W  DIS CAZ7
 BAR2 SZ EP       1659 18.00                             173    0.0410 16.1 190 
 BAR2 SZ I        1659 34.01        17.9 0.21                          16.1 190 
 BRR  HZ EP       1659 20.01                             151    0.2510 73.7 304 
 BRR  HN ES   1   1659 36.98                             151    0.68 7 73.7 304 
 BRR  HZ I        1659 38.24        15.6 0.21                          73.7 304 
 PAM  SZ EP   1   1659 21.30                             149    0.22 7 83.8  37 
 PAM  SN ES   1   1659 38.16                             149   -0.49 7 83.8  37 
 RUS  HZ EP   1   1659 21.72                             146   -0.01 7 93.6 175 
 RUS  HN ES   1   1659 39.70                             146   -0.11 7 93.6 175 
 RUS  HZ I        1659 41.82        12.5 0.60                          93.6 175 
 PTB  HZ EP   1   1659 24.71                             132   -0.51 7  145 261 
 PTB  HN ES   1   1659 45.50                             132   -0.52 7  145 261 
 ZAR  HE ES   1   1659 56.19                             122   -0.30 6  206 294 
 ZAR  HZ I        17 0  3.26        13.3 0.47                           206 294 
 NOR  SZ EP   1   1659 33.75                             119    0.07 6  229 236 
 NOR  SN ES   1   17 0  1.48                             119    0.41 6  229 236 
                                                                                
