 2017  819 1928 30.3 L   6.744 -73.097141.0  RSN  8 0.4 1.5LRSN                1
 GAP=145        0.77       3.0     4.0  6.9  0.3179E+00  0.5654E+01  0.4126E+01E
 Epicentro: JORDAN - SANTANDER                                                 3
 ACTION:UPD 17-09-04 20:22 OP:rebc STATUS:               ID:20170819192830 L   I
 OLDACT:UP  17-08-19 21:49 OP:and  STATUS:               ID:20170819192746     3
 OLDACT:UP  17-08-19 21:48 OP:and  STATUS:               ID:20170819192746     3
 OLDACT:UP  17-08-19 21:48 OP:and  STATUS:               ID:20170819192746     3
 OLDACT:UP  17-08-19 21:48 OP:and  STATUS:               ID:20170819192746     3
 OLDACT:UP  17-08-19 21:47 OP:and  STATUS:               ID:20170819192746     3
 OLDACT:REG 17-08-19 21:00 OP:and  STATUS:               ID:20170819192746     3
 2017-08-19-1928-00M.COL___411                                                 6
 STAT SP IPHASW D HRMM SECON CODA AMPLIT PERI AZIMU VELO AIN AR TRES W  DIS CAZ7
 BAR2 EZ EP   2   1928 49.15                             172   -0.15 5 19.3 209 
 BAR2 EZ ES   2   1929  4.41                             172    0.31 5 19.3 209 
 BAR2 EZ I        1929  5.37         9.3 0.12            171           19.3 209 
 BRR  HZ EP       1928 51.69                             149    0.2710 78.9 301 
 BRR  HN ES       1929  8.10                             149    0.2210 78.9 301 
 BRR  HZ I        1929 15.25         9.1 0.20            150           78.9 301 
 PAM  EZ IP     C 1928 52.50                             149    0.3610 79.1  34 
 PAM  EN ES       1929  8.77                             149   -0.3810 79.1  34 
 PAM  EZ I        1929 13.36         3.8 0.50            153           79.1  34 
 RUS  HZ EP       1928 53.17                             145    0.0210 94.2 179 
 RUS  HN ES       1929 10.98                             145    0.0310 94.2 179 
 RUS  HZ I        1929 12.69         4.9 0.32            149           94.2 179 
 SPBC HZ ES   2   1929 20.61                             128    0.41 5  162 222 
 ZAR  HE ES       1929 28.31                             120   -0.58 8  211 293 
 ZAR  HZ I        1929 30.13         3.9 0.16            123            211 293 
 NOR  HN ES   2   1929 34.16                             117    0.55 4  236 236 
 NOR  HZ I        1929 38.38         2.7 0.34            121            236 236 
 CHI  HN ES       1929 35.57                             117   -0.52 8  244 197 
 GUY2CHN ES   4   1929 46.23                             111   -1.52 0  302 236 
                                                                                
