 2012  619 0959 46.8 L   6.793 -73.192138.9  RSN  5 0.3 1.5LRSN                1
 GAP=131        0.52       2.8     3.2  7.8 -0.4379E+00  0.8490E+01 -0.4494E-01E
 Epicentro: ZAPATOCA - SANTANDER                                               3
 ACTION:UPD 12-08-06 17:50 OP:ep   STATUS:               ID:20120619100000 L   I
 2012-06-19-1000-00M.COL___199                                                 6
 STAT SP IPHASW D HRMM SECON CODA AMPLIT PERI AZIMU VELO AIN AR TRES W  DIS CAZ7
 PAM  SZ EP   1   10 0  8.77                             148    0.23 7 81.3  42 
 PAM  SN ES   1   10 0 25.71                             148    0.21 7 81.3  42 
 RUS  HZ EP   1   10 0  9.85                             142   -0.01 7  100 173 
 RUS  HN ES   1   10 0 27.74                             142   -0.11 7  100 173 
 RUS  HZ I        10 0 29.28         3.8 0.35                           100 173 
 PTB  HZ EP   1   10 0 12.62                             131   -0.13 7  143 259 
 PTB  HN ES   1   10 0 32.88                             131   -0.10 7  143 259 
 PTB  HZ I        10 0 37.24         2.9 0.12                           143 259 
 OCA  HE ES   1   10 0 35.82                             128   -0.49 7  161 355 
 OCA  HZ I        10 0 39.37         8.3 0.31                           161 355 
 ZAR  HN ES   1   10 0 43.36                             121    0.40 6  200 293 
                                                                                
