 2014  519 1101 53.8 L   5.977 -74.062 94.7  RSN 16 0.5 2.6LRSN                1
 GAP= 88        1.14       2.9     3.1  8.4 -0.3493E+01 -0.7612E+01  0.9257E+01E
 Epicentro: LA BELLEZA - SANTANDER                                             3
 ACTION:UPD 15-03-16 16:59 OP:nd   STATUS:               ID:20140519110153 L   I
 OLDACT:UP  14-05-19 23:32 OP:cam  STATUS:               ID:20140519110000     3
 OLDACT:REG 14-05-19 23:24 OP:cam  STATUS:               ID:20140519110000     3
 2014-05-19-1100-00M.COL___252                                                 6
 STAT SP IPHASW D HRMM SECON CODA AMPLIT PERI AZIMU VELO AIN AR TRES W  DIS CAZ7
 PTB  HZ IP     D 11 2  9.52                             138   -0.5910 76.0 325 
 PTB  HE ES       11 2 22.26                             138   -0.6010 76.0 325 
 PTB  HZ I        11 2 22.71       105.1 0.26            138           76.0 325 
 NOR  HZ EP       11 2 11.67                             129   -0.6610  100 243 
 NOR  HE ES       11 2 26.64                             129   -0.1810  100 243 
 NOR  HZ I        11 2 28.23       188.9 0.18            129            100 243 
 ROSC BE ES   2   11 2 33.83                             122    1.16 5  129 193 
 ROSC BZ I        11 2 34.91        99.1 0.40            122            129 193 
 BRR  HZ IP     C 11 2 15.53                             121    0.2210  131  17 
 BRR  HN ES       11 2 32.99                             121    0.8710  131  17 
 BRR  HZ I        11 2 35.60        71.2 0.12            122            131  17 
 CHI  HZ EP       11 2 17.84                             117   -0.43 9  153 166 
 CHI  HN ES       11 2 37.60                             117    0.22 9  153 166 
 CHI  HZ I        11 2 42.03        39.3 0.34            118            153 166 
 CVER SZ EP   1   11 2 18.43                             116   -0.75 7  161 180 
 HEL  HZ EP       11 2 19.26                             115   -0.13 9  164 278 
 HEL  HN ES       11 2 39.80                             115    0.41 9  164 278 
 HEL  HZ I        11 2 44.19        79.2 0.66            116            164 278 
 GUY2CHZ EP     D 11 2 19.60                             115   -0.21 9  167 240 
 GUY2CHE ES       11 2 40.13                             115    0.00 9  167 240 
 GUY2CHZ I        11 2 46.94        46.3 0.58                           167 240 
 TOL  SZ EP       11 2 24.33                             110    0.02 8  208 222 
 TOL  SZ ES   4   11 2 47.08                             110   -1.05 0  208 222 
 TOL  SZ I        11 2 50.20        15.6 0.20            110            208 222 
 PAM  SE ES   1   11 2 50.38                             109    0.80 6  213  45 
 CBOC HZ EP       11 2 25.73                             109    0.62 8  216 267 
 CBOC HE ES   4   11 2 51.38                             109    1.82 0  216 267 
 CBOC HZ I        11 3  0.85        28.9 0.78            109            216 267 
 ANIL HZ EP     D 11 2 26.19                             108    0.32 8  222 222 
 ANIL HN ES       11 2 51.26                             108    0.34 8  222 222 
 TAM  HZ EP     D 11 2 29.71                             106    0.05 8  256  78 
 TAM  HN ES       11 2 57.21                             106   -0.44 8  256  78 
 TAM  HZ I        11 3  1.83        24.1 0.26            106            256  78 
 ORTC HZ EP   4   11 2 29.55                             105   -0.98 0  264 210 
 ORTC HN ES       11 3  0.12                             105    0.92 8  264 210 
 ORTC HZ I        11 3  3.26        25.2 0.18            105            264 210 
 DBB  SZ EP   4   11 2 31.83                             105    1.21 0  264 296 
 DBB  SZ ES   4   11 3  1.67                             105    2.30 0  264 296 
 PRA  HZ EP   1   11 2 30.33                             105   -0.52 6  266 200 
 PRA  HE ES   1   11 2 59.82                             105    0.04 6  266 200 
 PRA  HZ I        11 3  1.82        29.8 0.22            105            266 200 
 YOT  HZ EP       11 2 38.99                             102   -0.28 7  336 229 
                                                                                
