 2010  419 1601 56.1 L   6.788 -72.943137.6  RSN  5 0.5 2.3LRSN                1
 GAP=227        0.93       7.2    16.0 12.0 -0.1707E+02 -0.3604E+02  0.1616E+02E
 Epicentro: CEPITA - SANTANDER                                                 3
 ACTION:UPD 10-08-24 10:00 OP:vdl  STATUS:               ID:20100419160156 L   I
 2010-04-19-1600-24S.COL___100                                                 6
 STAT SP IPHASW D HRMM SECON CODA AMPLIT PERI AZIMU VELO AIN AR TRES W  DIS CAZ7
 BAR2 SZ EP   1   16 2 15.56                             166     0.5 7   34 231 
 BAR2 SZ ES   2   16 2 28.75                             166    -1.0 5   34 231 
 BRR  HZ IP     C 16 2 18.00                             145     0.310   92 293 
 BRR  HE ES   1   16 2 34.76                             145     0.2 7   92 293 
 BRR  HZ I        16 2 38.98        24.1 0.15                            92 293 
 OCA  SZ EP   2   16 2 23.57                             127    -0.7 5  166 346 
 OCA  SZ ES   1   16 2 46.13                             127    -0.2 7  166 346 
 OCA  SZ I        16 2 51.76        48.2 0.34                           166 346 
 HEL  HZ EP   2   16 2 37.60                             111    -0.7 4  294 257 
 HEL  HZ I        16 3 15.21         7.5 0.28                           294 257 
 PRA  HZ EP   2   16 2 50.30                             105    -0.3 3  402 212 
 PRA  HN ES   2   16 3 32.54                             105    -0.5 3  402 212 
 PRA  HZ I        16 3 34.06         4.5 0.28                           402 212 
                                                                                
