 2011  619 1516 51.2 L   6.304 -73.588106.0  RSN 11 0.5 2.2LRSN                1
 GAP= 84        1.03       4.0     4.9  8.9 -0.2642E+01  0.2273E+02  0.5827E+01E
 Epicentro: SANTA HELENA DEL OPON - SANTANDER                                  3
 ACTION:UP  11-07-14 19:06 OP:ep   STATUS:               ID:20110619151651 L   I
 2011-06-19-1514-03S.COL___140                                                 6
 STAT SP IPHASW D HRMM SECON CODA AMPLIT PERI AZIMU VELO SNR AR TRES W  DIS CAZ7
 BAR2 SZ EP   1   1517  7.17                             151    -0.3 7   55  55 
 BAR2 SZ ES   1   1517 20.50                             151     0.4 7   55  55 
 BAR2 SZ I        1517 21.82       140.0 0.43                            55  55 
 RUS  HZ EP       1517  8.88                             144    -0.110   72 129 
 RUS  HN ES   1   1517 23.10                             144     0.3 7   72 129 
 RUS  HZ I        1517 24.69        23.1 0.18                            72 129 
 BRR  HZ EP       1517  9.18                             136    -0.510   90 351 
 BRR  HE ES   1   1517 24.11                             136     0.0 7   90 351 
 BRR  HZ I        1517 27.05        35.8 0.14                            90 351 
 NOR  SZ EP   1   1517 16.14                             118    -0.8 7  164 240 
 NOR  SE ES   1   1517 37.61                             118     0.5 7  164 240 
 BRI  SZ EP   2   1517 19.81                             116     1.0 4  179  29 
 BRI  SZ I        1517 44.75         9.9 0.46                           179  29 
 CHI  HZ EP   1   1517 19.41                             115    -0.4 7  186 185 
 CHI  HN ES   1   1517 41.74                             115    -0.5 7  186 185 
 CHI  HZ I        1517 46.74        11.9 0.53                           186 185 
 HEL  HZ EP       1517 23.51                             111     0.4 8  215 267 
 HEL  HN ES   1   1517 47.72                             111    -0.3 6  215 267 
 HEL  HZ I        1517 54.16         9.9 0.23                           215 267 
 OCA  SZ EP   1   1517 22.91                             111     0.0 6  216   8 
 OCA  SZ I        1517 52.36        21.2 0.27                           216   8 
 RREF HZ EP   1   1517 27.52                             108     0.2 6  249 232 
 RREF HN ES   1   1517 55.43                             108    -0.1 6  249 232 
 RREF HZ I        1518  1.87        15.7 0.41                           249 232 
 TOL  SZ EP   1   1517 30.35                             106     0.9 6  270 225 
 PRA  HZ EP   1   1517 35.65                             102     0.6 5  321 207 
                                                                                
