 2016  919 1735  9.0 L   6.840 -73.137142.2  RSN 23 0.6 2.6LRSN                1
 GAP= 70        1.34       3.2     3.7  5.8 -0.1605E+01  0.2976E+01  0.3068E+00E
 Epicentro: LOS SANTOS - SANTANDER                                             3
 ACTION:UPD 17-08-17 21:14 OP:lp   STATUS:               ID:20160919173509 L   I
 OLDACT:UP  16-09-20 00:49 OP:edw  STATUS:               ID:20160919172734     3
 OLDACT:UP  16-09-20 00:48 OP:edw  STATUS:               ID:20160919172734     3
 OLDACT:UP  16-09-20 00:44 OP:edw  STATUS:               ID:20160919172734     3
 OLDACT:UP  16-09-20 00:42 OP:edw  STATUS:               ID:20160919172734     3
 OLDACT:REG 16-09-19 21:27 OP:edw  STATUS:               ID:20160919172734     3
 2016-09-19-1728-00M.COL___357                                                 6
 STAT SP IPHASW D HRMM SECON CODA AMPLIT PERI AZIMU VELO AIN AR TRES W  DIS CAZ7
 BAR2 EZ IP     C 1735 28.31                             168   -0.0110 27.9 190 
 BAR2 EZ ES       1735 43.43                             168    0.0510 27.9 190 
 BAR2 EZ I        1735 44.49       108.2 0.24            167           27.9 190 
 BRR  HZ EP     C 1735 30.23                             152    0.5110 70.1 295 
 BRR  HE ES       1735 46.22                             152    0.3610 70.1 295 
 BRR  HZ I        1735 51.12       109.3 0.12            149           70.1 295 
 PAM  HZ EP       1735 31.29                             151    0.6810 73.3  41 
 PAM  EN ES       1735 47.35                             151   -0.1110 73.3  41 
 PAM  HZ I        1735 50.44        35.7 0.68            155           73.3  41 
 RUS  HZ EP       1735 32.64                             142   -0.1010  105 177 
 RUS  HE ES       1735 50.84                             142   -0.4110  105 177 
 RUS  HZ I        1735 51.59        69.1 0.22            143            105 177 
 PTB  HZ EP       1735 35.06                             131   -0.81 9  150 257 
 PTB  HN ES       1735 55.16                             131   -1.66 9  150 257 
 PTB  HZ I        1736  1.45        46.3 0.24            130            150 257 
 TAM  HZ EP       1735 36.66                             130    0.22 9  155 107 
 TAM  HN ES       1735 57.93                             130    0.11 9  155 107 
 OCA  HZ EP       1735 36.49                             130   -0.16 9  156 353 
 OCA  HN ES       1735 58.13                             130   -0.07 9  156 353 
 OCA  HZ I        1736  2.21        82.5 0.20            130            156 353 
 SPBC HZ EP       1735 37.27                             127   -0.37 9  167 218 
 SPBC HN ES       1736  0.37                             127    0.41 9  167 218 
 SPBC HZ I        1736  1.37        96.6 0.10            128            167 218 
 ZAR  HZ EP       1735 41.40                             122    0.24 9  203 291 
 ZAR  HN ES       1736  7.22                             122    0.99 9  203 291 
 ZAR  HZ I        1736 12.56        54.5 0.12            121            203 291 
 NOR  HZ EP       1735 44.94                             117    0.03 8  238 234 
 NOR  HE ES       1736 13.19                             117    0.28 8  238 234 
 NOR  HZ I        1736 18.13        39.6 0.16            118            238 234 
 CHI  HZ EP       1735 46.74                             116   -0.28 8  253 195 
 CHI  HE ES       1736 17.12                             116    0.46 8  253 195 
 CHI  HZ I        1736 19.02        14.9 0.28            117            253 195 
 ROSC BZ EP   4   1735 49.43                             115    2.01 0  257 211 
 ROSC BN ES   4   1736 20.53                             115    3.16 0  257 211 
 ROSC BZ I        1736 22.10        25.0 0.25            116            257 211 
 HEL  HZ EP   4   1735 50.65                             114    1.37 0  274 255 
 HEL  HN ES   4   1736 22.27                             114    1.58 0  274 255 
 HEL  HZ I        1736 27.77        25.7 0.30            114            274 255 
 URE  HZ EP       1735 49.03                             113   -0.81 7  283 291 
 URE  HN ES   4   1736 20.77                             113   -0.91 0  283 291 
 URE  HZ I        1736 21.89        42.2 0.14            113            283 291 
 SOCV BZ EP       1735 51.25                             112   -0.28 7  298  57 
 SOCV BN ES   4   1736 22.40                             112   -2.30 0  298  57 
 GUY2CHZ EP   2   1735 53.09                             111    0.24 4  305 234 
 GUY2CHN ES   2   1736 27.49                             111    0.46 4  305 234 
 GUY2CHZ I        1736 35.78        16.7 0.48                           305 234 
 VIL  EZ EP       1735 52.50                             111   -0.29 7  308 192 
 VIL  HN ES   4   1736 28.39                             111    1.46 0  308 192 
 LL6C HZ EP       1735 53.20                             110   -0.86 7  321 357 
 LL6C HN ES       1736 29.74                             110    0.54 7  321 357 
 ELA  HZ EP   4   1735 57.70                             109    1.56 0  333 229 
 ELA  HN ES   4   1736 36.38                             109    3.49 0  333 229 
 ELA  HZ I        1736 42.02        16.8 0.56            110            333 229 
 CBOC HZ EP       1735 56.90                             109    0.84 7  336 251 
 CBOC HN ES   4   1736 32.12                             109   -0.62 0  336 251 
 CBOC HZ I        1736 39.25         5.5 0.40            109            336 251 
 ANIL HZ EP       1735 59.76                             108    0.62 6  361 224 
 ANIL HN ES   4   1736 39.85                             108    1.62 0  361 224 
 ANIL HZ I        1736 43.02        38.8 0.36            108            361 224 
 SJC  HZ EP   4   1736  2.69                             105   -1.40 0  406 326 
 SJC  HN ES   4   1736 44.52                             105   -2.53 0  406 326 
 SJC  HZ I        1736 52.37         8.7 0.32            106            406 326 
 CRJC HZ EP   9   1736  9.08                             103   -1.80 0  463   3 
 CRJC HN ES       1736 55.44                                   -1.90 5  463   3 
                                                                                
