 2014  819 1712 26.5 L   6.765 -73.193135.4  RSN  7 0.3 1.9LRSN                1
 GAP=132        0.75       3.3     3.4  4.8 -0.3362E+01  0.3889E+01  0.2410E+01E
 Epicentro: LOS SANTOS - SANTANDER                                             3
 ACTION:UPD 14-09-15 21:51 OP:nd   STATUS:               ID:20140819171226 L   I
 OLDACT:REG 14-08-19 20:56 OP:stll STATUS:               ID:20140819170816     3
 2014-08-19-1708-16M.COL___266                                                 6
 STAT SP IPHASW D HRMM SECON CODA AMPLIT PERI AZIMU VELO AIN AR TRES W  DIS CAZ7
 BAR2 SZ EP       1712 44.96                             172    0.1710 19.1 176 
 BAR2 SZ ES       1712 59.48                             172    0.4110 19.1 176 
 BAR2 SZ I        1713  2.70        33.0 0.32            171           19.1 176 
 BRR  HZ EP       1712 46.83                             151    0.4510 68.7 303 
 BRR  HE ES       1713  2.01                             151    0.1210 68.7 303 
 BRR  HZ I        1713  7.92        14.9 0.28            151           68.7 303 
 PAM  SZ EP       1712 47.85                             147   -0.1710 83.7  41 
 PAM  SZ I        1712 48.20        30.9 0.18            152           83.7  41 
 PAM  SN ES       1713  4.29                             147   -0.5310 83.7  41 
 RUS  HZ EP       1712 48.97                             143   -0.0110 97.2 173 
 RUS  HZ I        1712 50.10         5.7 0.62            146           97.2 173 
 RUS  HN ES       1713  6.51                             143   -0.0210 97.2 173 
 PTB  HZ EP       1712 51.89                             131   -0.19 9  142 260 
 PTB  HN ES       1713 11.96                             131   -0.09 9  142 260 
 PTB  HZ I        1713 17.89         7.2 0.40            132            142 260 
 SPBC HZ EP       1712 53.92                             128    0.32 9  157 218 
 SPBC HE ES       1713 14.38                             128   -0.37 9  157 218 
 SPBC HZ I        1713 20.23        10.1 0.42            130            157 218 
 GUY2CHZ EP       1713  8.99                             111    0.10 7  295 235 
 GUY2CHN ES       1713 41.63                             111   -0.34 7  295 235 
 GUY2CHZ I        1713 51.28         4.8 0.62                           295 235 
                                                                                
