 2012  819 1953 39.2 L   6.772 -73.137142.0  RSN 12 0.4 2.7LRSN                1
 GAP= 66        0.71       3.0     3.0  4.2  0.3821E-02  0.9848E+00  0.1889E+01E
 Epicentro: LOS SANTOS - SANTANDER                                             3
 ACTION:UPD 12-09-10 11:57 OP:ep   STATUS:               ID:20120819195339 L   I
 2012-08-19-1950-00M.COL___217                                                 6
 STAT SP IPHASW D HRMM SECON CODA AMPLIT PERI AZIMU VELO AIN AR TRES W  DIS CAZ7
 BAR2 SZ EP       1953 58.30                             171   -0.0510 20.5 194 
 BAR2 SZ ES       1954 13.11                             171   -0.1610 20.5 194 
 BAR2 SZ I        1954 14.34       175.4 0.24                          20.5 194 
 BRR  HZ IP     C 1954  0.30                             151    0.1910 73.6 300 
 BRR  HE ES       1954 16.80                             151    0.4010 73.6 300 
 BRR  HZ I        1954 18.71       149.5 0.21                          73.6 300 
 PAM  SZ EP       1954  1.24                             149    0.0810 79.3  38 
 PAM  SZ I        1954  1.57        74.2 0.24                          79.3  38 
 PAM  SE ES   1   1954 18.08                             149   -0.19 7 79.3  38 
 RUS  HZ EP   1   1954  2.28                             144   -0.10 7 97.4 176 
 RUS  HN ES   1   1954 20.47                             144    0.03 7 97.4 176 
 RUS  HZ I        1954 22.49        39.9 0.47                          97.4 176 
 PTB  HZ EP   1   1954  5.11                             131   -0.81 7  148 260 
 PTB  HE ES   1   1954 26.38                             131   -0.37 7  148 260 
 PTB  HZ I        1954 28.17        38.7 0.18                           148 260 
 TAM  HZ EP   1   1954  6.58                             130    0.13 7  153 104 
 TAM  HZ I        1954  6.79        84.9 0.20                           153 104 
 OCA  HZ EP   1   1954  7.01                             128   -0.55 7  163 353 
 OCA  HZ I        1954 32.06       124.5 0.31                           163 353 
 YOP  SZ EP   1   1954  8.99                             126    0.31 7  176 153 
 YOP  SZ I        1954 36.02        33.2 0.23                           176 153 
 ZAR  HZ EP   1   1954 12.15                             121    0.50 6  206 293 
 ZAR  HE ES   1   1954 36.83                             121   -0.10 6  206 293 
 ZAR  HZ I        1954 39.52        42.1 0.16                           206 293 
 NOR  SZ EP   1   1954 14.11                             118   -0.52 6  234 235 
 NOR  SN ES   1   1954 42.26                             118    0.02 6  234 235 
 NOR  SZ I        1954 45.50        33.8 0.18                           234 235 
 CHI  HZ EP   1   1954 16.36                             117   -0.06 6  246 196 
 CHI  HN ES   1   1954 45.63                             117    0.21 6  246 196 
 HEL  HZ EP   1   1954 20.14                             114    0.87 6  272 256 
 HEL  HZ I        1954 58.18        19.1 0.18                           272 256 
                                                                                
