 2017  519 1728 57.8 L   6.816 -73.124152.2  RSN  5 0.3 1.9LRSN                1
 GAP=195        0.99       9.4     5.5  9.5 -0.2610E+02 -0.6112E+01  0.3135E+02E
 Epicentro: LOS SANTOS - SANTANDER                                             3
 ACTION:UPD 17-06-16 13:37 OP:jn   STATUS:               ID:20170519172857 L   I
 OLDACT:REG 17-05-20 00:08 OP:lv   STATUS:               ID:20170519171743d    3
 2017-05-19-1718-00M.COL___359                                                 6
 STAT SP IPHASW D HRMM SECON CODA AMPLIT PERI AZIMU VELO AIN AR TRES W  DIS CAZ7
 BRR  HZ EP       1729 19.23                             152   -0.4410 72.5 296 
 BRR  HN ES       1729 37.12                             152    0.3510 72.5 296 
 PAM  EZ EP       1729 20.61                             152    0.1210 74.4  39 
 PAM  EN ES       1729 38.01                             152   -0.2110 74.4  39 
 PAM  EZ I        1729 39.99         7.1 0.15            156           74.4  39 
 PTB  HZ EP   9   1729 24.74                             132   -0.75 0  150 258 
 PTB  HN ES       1729 45.49                                   -0.89 9  150 258 
 PTB  HZ I        1729 53.02        13.5 0.37            131            150 258 
 ZAR  HZ EP   3   1729 31.60                             123    0.82 2  206 291 
 ZAR  HE ES       1729 56.70                             123    0.15 8  206 291 
 ZAR  HZ I        1730  2.35         7.0 0.15            122            206 291 
 NOR  HN ES       1730  2.64                             119    0.04 8  238 234 
 NOR  HZ I        1730  7.12         6.7 0.10            119            238 234 
                                                                                
