 2016  319 1314 45.3 L   6.801 -73.151142.1  RSN  9 0.2 2.5LRSN                1
 GAP=136        0.65       2.5     2.6  4.1 -0.5602E+00  0.3635E+01  0.1738E+01E
 Epicentro: LOS SANTOS - SANTANDER                                             3
 ACTION:UPD 16-05-13 21:25 OP:cam  STATUS:               ID:20160319131445 L   I
 OLDACT:UP  16-03-28 15:35 OP:Mher STATUS:               ID:20160319131445 L   3
 OLDACT:REG 16-03-19 21:43 OP:cara STATUS:               ID:20160319130747     3
 2016-03-19-1307-47M.COL___325                                                 6
 STAT SP IPHASW D HRMM SECON CODA AMPLIT PERI AZIMU VELO AIN AR TRES W  DIS CAZ7
 BAR2 EZ IP     C 1315  4.34                             170   -0.2010 23.3 188 
 BAR2 EZ I        1315  4.48        83.4 0.34            168           23.3 188 
 BAR2 EZ ES       1315 19.64                             170    0.1410 23.3 188 
 PAM  EZ IP       1315  7.29                             150    0.0910 77.7  40 
 PAM  EN ES       1315 24.21                             150   -0.0310 77.7  40 
 PAM  EZ I        1315 26.12        97.8 0.48            154           77.7  40 
 RUS  HZ EP       1315  8.44                             143   -0.3110  101 176 
 RUS  HZ I        1315  8.85        35.7 0.34            145            101 176 
 RUS  HE ES       1315 27.16                             143    0.1610  101 176 
 PTB  HZ EP   4   1315 10.93                             131   -1.03 0  147 259 
 PTB  HN ES       1315 32.29                             131   -0.43 9  147 259 
 PTB  HZ I        1315 39.29        48.1 0.44            129            147 259 
 ZAR  HZ EP       1315 17.80                             122    0.31 9  203 292 
 ZAR  HE ES       1315 42.82                             122    0.25 9  203 292 
 ZAR  HZ I        1315 48.63        35.5 0.28            121            203 292 
 NOR  HZ EP       1315 20.81                             118   -0.01 8  234 234 
 NOR  HN ES       1315 48.76                             118    0.28 8  234 234 
 NOR  HZ I        1315 55.15        21.8 0.16            118            234 234 
 CHI  HZ EP       1315 23.05                             116    0.22 8  249 195 
 CHI  HN ES       1315 52.19                             116    0.12 8  249 195 
 CHI  HZ I        1316  1.04        13.0 0.34            117            249 195 
 URE  HZ EP   9   1315 25.06                             113   -1.11 0  283 292 
 URE  HE ES       1315 56.29                             113   -0.61 7  283 292 
 URE  HZ I        1316  8.33        27.1 0.18            113            283 292 
 GUY2CHZ EP       1315 28.32                             112   -0.41 7  301 235 
 GUY2CHE ES       1316  2.44                             112   -0.13 7  301 235 
 GUY2CHZ I        1316 12.11        16.6 0.72                           301 235 
                                                                                
