 2017  219 1046  8.4 L   7.440 -73.201130.7  RSN  5 0.4 1.2LRSN                1
 GAP=224        0.76       6.6     5.2  5.9 -0.1189E+02 -0.3283E+01 -0.3352E+00E
 Epicentro: EL PLAYON - SANTANDER                                              3
 ACTION:UPD 17-05-24 15:38 OP:jn   STATUS:               ID:20170219104608 L   I
 OLDACT:DUP 17-02-19 21:50 OP:cog  STATUS:               ID:20170219103743d    3
 2017-02-19-1038-00M.COL___343                                                 6
 STAT SP IPHASW D HRMM SECON CODA AMPLIT PERI AZIMU VELO AIN AR TRES W  DIS CAZ7
 PAM  EZ EP       1046 28.07                             155    0.2710 56.5 101 
 PAM  EE ES       1046 42.98                             155    0.0410 56.5 101 
 PAM  EZ I        1046 48.05         3.0 0.26            149           56.5 101 
 BRR  HZ EP       1046 27.68                             151   -0.0110 67.4 237 
 BRR  HE ES       1046 42.78                             151    0.0310 67.4 237 
 BRR  HZ I        1046 44.26         6.0 0.46            152           67.4 237 
 BAR2 EZ EP       1046 29.64                             143   -0.1710 93.8 179 
 BAR2 EZ ES       1046 46.20                             143   -0.3210 93.8 179 
 BAR2 EZ I        1046 49.51         5.2 0.48            138           93.8 179 
 PTB  HZ EP   9   1046 35.90                             124   -0.53 0  171 234 
 PTB  HN ES       1046 57.22                                   -0.56 9  171 234 
 RUS  HZ EP       1046 37.22                             124    0.07 9  172 176 
 RUS  HN ES   3   1047  1.73                             124    2.15 2  172 176 
 RUS  HZ I        1047  6.69         0.6 0.20            123            172 176 
                                                                                
