 2016  819 1015 39.3 L   6.787 -73.161145.4  RSN 14 0.4 2.3LRSN                1
 GAP=135        0.94       3.3     3.5  5.2 -0.1595E+01  0.6357E+01  0.4147E+01E
 Epicentro: LOS SANTOS - SANTANDER                                             3
 ACTION:UPD 16-10-29 15:37 OP:rebc STATUS:               ID:20160819101539 L   I
 OLDACT:REG 16-08-19 20:27 OP:dnl  STATUS:               ID:20160819100743     3
 2016-08-19-1008-00M.COL___365                                                 6
 STAT SP IPHASW D HRMM SECON CODA AMPLIT PERI AZIMU VELO AIN AR TRES W  DIS CAZ7
 BAR2 EZ EP       1015 58.75                             171   -0.0610 21.7 186 
 BAR2 EZ ES       1016 13.82                             171   -0.2410 21.7 186 
 BAR2 EZ I        1016 16.69        62.4 0.36                          21.7 186 
 BRR  HZ EP       1016  0.66                             153    0.3410 70.4 300 
 BRR  HE ES       1016 17.41                             153    0.6610 70.4 300 
 BRR  HZ I        1016 22.54        25.8 0.28                          70.4 300 
 PAM  EZ EP     C 1016  1.58                             150    0.0110 79.6  40 
 PAM  EN ES       1016 18.76                             150   -0.2110 79.6  40 
 PAM  EZ I        1016 19.94        19.7 0.50                          79.6  40 
 RUS  HZ EP   2   1016  2.72                             144   -0.16 5 99.3 175 
 RUS  HN ES       1016 21.27                             144   -0.0310 99.3 175 
 RUS  HZ I        1016 24.28        24.0 0.40                          99.3 175 
 PTB  HZ EP       1016  5.42                             132   -0.60 9  146 259 
 PTB  HN ES       1016 26.34                             132   -0.55 9  146 259 
 PTB  HZ I        1016 34.17        37.5 0.52                           146 259 
 SPBC HZ EP       1016  7.67                             129    0.15 9  161 219 
 SPBC HN ES       1016 29.77                             129    0.21 9  161 219 
 SPBC HZ I        1016 33.86        35.1 0.28                           161 219 
 ZAR  HZ EP   2   1016 11.34                             122   -0.23 4  203 293 
 ZAR  HN ES       1016 36.94                             122    0.17 9  203 293 
 ZAR  HZ I        1016 44.09        20.8 0.52                           203 293 
 NOR  HZ EP       1016 14.79                             119    0.07 8  232 234 
 NOR  HN ES       1016 43.14                             119    0.75 8  232 234 
 NOR  HZ I        1016 48.25        20.8 0.52                           232 234 
 CHI  HZ EP   2   1016 16.63                             117   -0.11 4  247 195 
 CHI  HE ES       1016 45.65                             117   -0.32 8  247 195 
 CHI  HZ I        1016 55.93         8.7 0.32                           247 195 
 HEL  HZ EP   4   1016 20.65                             115    1.42 0  270 256 
 HEL  HN ES       1016 49.86                             115   -0.54 8  270 256 
 HEL  HZ I        1016 57.83        11.2 0.36                           270 256 
 GUY2CHZ EP   4   1016 23.63                             112    1.03 0  299 235 
 GUY2CHN ES       1016 56.80                             112    0.40 7  299 235 
 GUY2CHZ I        1017  5.72         9.2 0.28                           299 235 
 CBOC HZ EP       1016 26.58                             110    0.66 7  332 252 
 CBOC HE ES       1017  1.17                             110   -1.14 7  332 252 
 CBOC HZ I        1017  7.05         4.0 0.22                           332 252 
 ANIL HZ EP       1016 28.72                             108   -0.07 6  355 224 
 ANIL HE ES   4   1017 10.05                             108    2.63 0  355 224 
 ANIL HZ I        1017 14.93        23.7 0.34                           355 224 
 PRA  HZ EP       1016 32.49                             107   -0.03 6  390 209 
 PRA  HN ES       1017 14.68                             107    0.62 6  390 209 
 PRA  HZ I        1017 21.12         7.5 0.24                           390 209 
                                                                                
