 2017  519 1105 44.5 L   6.802 -73.150147.2  RSN 33 0.6 3.1LRSN 3.7WRSN        1
 SPEC AVERAGE  MO 14.6 ST 63.7 OM  2.6 f0 1.94 R1.7998 AL 0.00 WI 30.0 MW  3.7 3
 SPEC SD       MO  0.3 ST209.9 OM  0.3 f0 2.98 R0.6464 AL      WI      MW  0.2 3
 GAP=111        1.03       2.6     3.5  5.2 -0.5729E+00  0.2640E+01  0.2690E+01E
 Epicentro: LOS SANTOS - SANTANDER                                             3
 SPEC PTB HH Z MO 14.4 ST0.383 OM  2.4 f0 1.32 R1.4576 AL-0.00 WI 30.0 MW  3.6 3
 SPEC PTB HH Z T11 630 K 0.000 GD  208 VS 5.20 DE 3.50 Q0750.0 QA 1.50 VS 5.20 3
 SPEC YPLCHN Z MO 14.9 ST759.8 OM  2.8 f0 11.8 R0.1631 AL-0.00 WI 30.0 MW  3.9 3
 SPEC YPLCHN Z T11 635 K 0.000 GD  230 VS 5.20 DE 3.50 Q0750.0 QA 1.50 VS 5.20 3
 SPEC TABCEH Z MO 14.7 ST0.213 OM  2.6 f00.851 R2.2609 AL-0.00 WI 30.0 MW  3.8 3
 SPEC TABCEH Z T11 647 K 0.000 GD  273 VS 5.20 DE 3.50 Q0750.0 QA 1.50 VS 5.20 3
 SPEC CHI HH Z MO 14.5 ST0.138 OM  2.3 f00.908 R2.1189 AL-0.00 WI 30.0 MW  3.6 3
 SPEC CHI HH Z T11 650 K 0.000 GD  289 VS 5.20 DE 3.50 Q0750.0 QA 1.50 VS 5.20 3
 SPEC ROSCBH Z MO 14.9 ST0.207 OM  2.7 f00.763 R2.5216 AL-0.00 WI 30.0 MW  3.9 3
 SPEC ROSCBH Z T11 652 K 0.000 GD  292 VS 5.20 DE 3.50 Q0750.0 QA 1.50 VS 5.20 3
 SPEC VIL EH Z MO 14.4 ST0.215 OM  2.2 f0 1.08 R1.7815 AL-0.00 WI 30.0 MW  3.6 3
 SPEC VIL EH Z T11 7 0 K 0.000 GD  337 VS 5.20 DE 3.50 Q0750.0 QA 1.50 VS 5.20 3
 SPEC LL1CHH Z MO 15.2 ST  1.9 OM  3.0 f0 1.21 R1.5901 AL-0.00 WI 30.0 MW  4.1 3
 SPEC LL1CHH Z T11 7 3 K 0.000 GD  339 VS 5.20 DE 3.50 Q0750.0 QA 1.50 VS 5.20 3
 SPEC ELA HH Z MO 14.6 ST0.112 OM  2.3 f00.787 R2.4447 AL-0.00 WI 30.0 MW  3.7 3
 SPEC ELA HH Z T11 7 2 K 0.000 GD  360 VS 5.20 DE 3.50 Q0750.0 QA 1.50 VS 5.20 3
 SPEC ANILHH Z MO 14.4 ST0.801 OM  2.1 f0 1.73 R1.1121 AL-0.00 WI 30.0 MW  3.5 3
 SPEC ANILHH Z T11 714 K 0.000 GD  386 VS 5.20 DE 3.50 Q0750.0 QA 1.50 VS 5.20 3
 SPEC ORTCHH Z MO 14.6 ST0.170 OM  2.3 f00.859 R2.2398 AL-0.00 WI 30.0 MW  3.7 3
 SPEC ORTCHH Z T11 719 K 0.000 GD  421 VS 5.20 DE 3.50 Q0750.0 QA 1.50 VS 5.20 3
 SPEC SJC HH Z MO 14.4 ST0.227 OM  2.0 f0 1.18 R1.6305 AL-0.00 WI 30.0 MW  3.5 3
 SPEC SJC HH Z T11 717 K 0.000 GD  434 VS 5.20 DE 3.50 Q0750.0 QA 1.50 VS 5.20 3
 SPEC MACCHH Z MO 14.5 ST0.131 OM  2.1 f00.845 R2.2769 AL-0.00 WI 30.0 MW  3.6 3
 SPEC MACCHH Z T11 741 K 0.000 GD  541 VS 5.20 DE 3.50 Q0750.0 QA 1.50 VS 5.20 3
 OLDACT:REG 17-05-19 20:42 OP:lv   STATUS:               ID:20170519105739     3
 ACTION:UPD 17-06-16 13:37 OP:jn   STATUS:               ID:20170519110544 L   I
 OLDACT:UP  17-06-01 22:07 OP:jn   STATUS:               ID:20170519110544 L   3
 OLDACT:UP  17-06-01 22:02 OP:nlst STATUS:               ID:20170519110544 L   3
 OLDACT:UP  17-05-19 22:24 OP:lv   STATUS:               ID:20170519105739     3
 2017-05-19-1058-00M.COL___356                                                 6
 STAT SP IPHASW D HRMM SECON CODA AMPLIT PERI AZIMU VELO AIN AR TRES W  DIS CAZ7
 BRR  HZ IP     C 11 6  5.99                             153    0.2110 70.7 299 
 BRR  HN ES       11 6 23.17                             153    0.8010 70.7 299 
 BRR  HZ I        11 6 26.56       227.9 0.29            148           70.7 299 
 PAM  EZ IP     C 11 6  7.04                             151    0.1610 77.5  40 
 PAM  EN ES       11 6 24.34                             151    0.0110 77.5  40 
 PAM  EZ I        11 6 26.40       245.4 0.52            151           77.5  40 
 PTB  HZ EP       11 6 10.78                             132   -0.78 9  147 259 
 PTB  HN ES       11 6 31.94                             132   -0.71 9  147 259 
 PTB  HZ I        11 6 37.59       168.3 0.29            129            147 259 
 SPBC HZ EP       11 6 13.15                             129    0.04 9  163 219 
 SPBC HN ES       11 6 35.01                             129   -0.41 9  163 219 
 SPBC HZ I        11 6 37.85       339.9 0.17            126            163 219 
 YPLC HZ IP     D 11 6 14.64                             127    0.19 9  177 151 
 YPLC HN ES   1   11 6 37.06                             127   -0.75 7  177 151 
 YPLC HZ I        11 6 39.75       241.7 0.38            126            177 151 
 ZAR  HZ EP       11 6 16.83                             123   -0.17 9  204 292 
 ZAR  HN ES       11 6 41.82                             123   -0.51 9  204 292 
 ZAR  HZ I        11 6 48.07       188.7 0.54            120            204 292 
 TABC EZ EP   4   11 6 21.72                             119    1.37 0  230 211 
 TABC EZ ES       11 6 48.64                             119    0.35 8  230 211 
 TABC EZ I        11 6 55.90       190.3 0.24            117            230 211 
 NOR  HZ EP       11 6 20.26                             119   -0.04 8  234 234 
 NOR  HN ES   4   11 6 46.78                             119   -1.44 0  234 234 
 NOR  HZ I        11 6 55.01        93.3 0.14            116            234 234 
 CHI  HZ EP     C 11 6 22.47                             117    0.17 8  249 195 
 CHI  HN ES       11 6 51.79                             117    0.01 8  249 195 
 CHI  HZ I        11 6 55.63        87.2 0.26            115            249 195 
 ROSC BZ EP   9   11 6 24.39                             117    1.68 0  253 211 
 ROSC BN ES       11 6 53.91                                   -0.27 8  253 211 
 ROSC BZ I        11 6 58.88       281.9 0.49            115            253 211 
 HEL  HZ EP       11 6 25.65                             115    0.89 8  272 256 
 HEL  HN ES       11 6 56.34                             115    0.20 8  272 256 
 HEL  HZ I        11 7  4.58        66.9 0.28            113            272 256 
 VIL  EZ EP       11 6 27.54                             112   -0.47 7  304 191 
 VIL  EN ES       11 7  2.03                             112    0.09 7  304 191 
 VIL  EZ I        11 7  7.51       124.8 0.44            111            304 191 
 LL1C HZ EP   1   11 6 28.77                             112    0.64 5  306 352 
 LL1C HN ES   4   11 7  4.63                             112    2.47 0  306 352 
 PTGC HZ IP   4 D 11 6 27.32                             112   -1.16 0  309 159 
 PTGC HN ES   4   11 7  0.67                             112   -2.10 0  309 159 
 PTGC HZ I        11 7  5.77       119.1 0.23            111            309 159 
 RECRCHZ EP   4   11 6 32.32                             111    2.16 0  318 230 
 RECRCHN ES   4   11 7  9.22                             111    3.46 0  318 230 
 NIZA HZ EP   4   11 6 35.44                             111    5.21 0  321 233 
 NIZA HN ES   4   11 7  8.39                             111    2.50 0  321 233 
 ELA  HZ EP   4   11 6 32.97                             110    1.57 0  329 229 
 ELA  HN ES   4   11 7  4.46                             110   -3.52 0  329 229 
 ELA  HZ I        11 7 20.94        41.7 0.16            109            329 229 
 CBOC HZ EP       11 6 31.92                             110    0.47 7  333 252 
 CBOC HN ES   4   11 7  9.21                             110    1.16 0  333 252 
 CBOC HZ I        11 7 19.44        17.9 0.39            108            333 252 
 DBB  EZ EP       11 6 32.45                             110    0.46 7  339 274 
 DBB  EN ES   4   11 7  6.27                             110   -2.75 0  339 274 
 DBB  EZ I        11 7 10.89        32.3 0.39            108            339 274 
 ANIL HZ EP   4   11 6 35.89                             109    1.53 0  357 224 
 ANIL HN ES   4   11 7 16.04                             109    2.81 0  357 224 
 ARGC HZ EP   4   11 6 35.70                             108    1.52 0  359 340 
 ARGC HN ES       11 7 13.66                             108    0.75 6  359 340 
 ARGC HZ I        11 7 20.25        27.6 0.33            107            359 340 
 ORTC HZ EP       11 6 38.53                             106    0.05 6  395 216 
 ORTC HN ES       11 7 21.28                             106    0.72 6  395 216 
 ORTC HZ I        11 7 28.17        77.8 0.06            105            395 216 
 APAC HZ EP       11 6 38.09                             106   -0.60 6  398 288 
 APAC HN ES   4   11 7 18.29                             106   -2.66 0  398 288 
 APAC HZ I        11 7 25.33        24.8 0.28            105            398 288 
 PAL  HZ EP       11 6 39.74                             106    0.05 6  405 239 
 PAL  HN ES       11 7 22.16                             106   -0.57 6  405 239 
 PAL  HZ I        11 7 25.74        24.2 0.34            104            405 239 
 SJC  HZ EP   4   11 6 37.90                             106   -2.17 0  409 327 
 SJC  HN ES   4   11 7 19.45                             106   -3.95 0  409 327 
 SJC  HZ I        11 7 34.39        25.5 0.35            104            409 327 
 VALLCHZ EP   4   11 6 38.31                             106   -1.86 0  410 358 
 VALLCHN ES   1   11 7 21.37                             106   -2.21 4  410 358 
 LCBC HZ EP   4   11 6 25.17                             105   -16.3 0  421 303 
 LCBC HN ES   4   11 7 23.62                             105   -2.26 0  421 303 
 LCBC HZ I        11 7 30.32        27.6 0.19            104            421 303 
 YOT  HZ EP       11 6 47.19                             103   -0.39 5  472 229 
 YOT  HN ES   4   11 7 31.87                             103   -4.89 0  472 229 
 GUA  EZ EP   4   11 6 46.58                             103   -1.16 0  474 173 
 GUA  EN ES   4   11 7 36.05                             103   -1.01 0  474 173 
 GUA  EZ I        11 7 41.93        36.5 0.30            102            474 173 
 SMAR HZ EP   4   11 6 49.45                             102   -0.93 0  497 346 
 SMAR HZ I        11 7 40.18        23.2 0.51            101            497 346 
 CAP2 HZ EP   4   11 6 46.72                             102   -4.93 0  507 294 
 CAP2 HN ES   4   11 7 39.44                             102   -4.58 0  507 294 
 CAP2 HZ I        11 7 44.04        11.2 0.37            101            507 294 
 MACC HZ EP   4   11 6 51.23                             102   -2.05 0  521 189 
 MACC HN ES   4   11 7 42.53                             102   -4.39 0  521 189 
 MACC HZ I        11 7 48.80        16.1 0.61            101            521 189 
 MAL  EZ EP       11 6 58.80                             101    1.22 3  557 237 
 MAL  HN ES   4   11 7 44.40                             101   -10.2 0  557 237 
 JAMC HZ EP       11 6 57.75                             101   -0.09 3  557 225 
 CONO HZ EP   1   11 7  5.24                              99    0.33 2  612 216 
 CONO HN ES       11 8  6.86                              99   -0.75 3  612 216 
 CONO HZ I        11 8 25.07         5.6 0.50             98            612 216 
 FLO2 HZ EP       11 7  7.21                              99   -0.46 2  641 206 
 FLO2 HN ES   4   11 8 10.98                              99   -1.55 0  641 206 
 FLO2 HZ I        11 8 29.87         3.7 0.60             98            641 206 
                                                                                
