 2016 1219 1530 41.5 L   6.799 -73.159146.8  RSN  6 0.4 1.5LRSN                1
 GAP=135        1.05       5.4     4.7  7.6  0.2408E+01  0.7206E+01  0.1199E+01E
 Epicentro: LOS SANTOS - SANTANDER                                             3
 ACTION:UPD 17-01-11 20:16 OP:rebc STATUS:               ID:20161219153041 L   I
 OLDACT:REG 16-12-19 18:43 OP:edw  STATUS:               ID:20161219152747     3
 2016-12-19-1528-00M.COL___323                                                 6
 STAT SP IPHASW D HRMM SECON CODA AMPLIT PERI AZIMU VELO AIN AR TRES W  DIS CAZ7
 BAR2 EZ EP       1531  1.18                             171   -0.0810 23.0 186 
 BAR2 EZ ES       1531 15.99                             171   -0.6810 23.0 186 
 BAR2 EZ I        1531 17.79        14.5 0.34            170           23.0 186 
 BRR  HZ EP   2   1531  3.03                             153    0.32 5 70.0 299 
 BRR  HE ES       1531 19.95                             153    0.7110 70.0 299 
 PAM  EZ EP       1531  4.06                             151    0.1510 78.4  40 
 PAM  EN ES       1531 21.11                             151   -0.2610 78.4  40 
 PAM  EZ I        1531 23.37         8.2 0.52            154           78.4  40 
 RUS  HZ EP       1531  5.37                             144    0.0010  101 175 
 RUS  HN ES       1531 24.61                             144    0.6410  101 175 
 RUS  HZ I        1531 25.50         2.4 0.28            146            101 175 
 PTB  HZ EP       1531  8.07                             133   -0.36 9  146 259 
 PTB  HN ES       1531 28.98                             133   -0.45 9  146 259 
 PTB  HZ I        1531 35.49         3.1 0.44            133            146 259 
 ZAR  HZ EP   2   1531 14.03                             123    0.14 4  203 292 
 ZAR  HN ES       1531 39.30                             123    0.15 9  203 292 
 ZAR  HZ I        1531 42.43         3.0 0.26            123            203 292 
                                                                                
