 2017  319 1027 30.1 L   6.752 -73.045141.0  RSN  4 0.2 1.0LRSN                1
 GAP=152        0.38       2.3     4.3  4.1 -0.2485E+01  0.5783E+01 -0.1712E+01E
 Epicentro: JORDAN - SANTANDER                                                 3
 ACTION:UPD 17-05-25 18:42 OP:jn   STATUS:               ID:20170319102730 L   I
 OLDACT:DUP 17-03-19 23:15 OP:dnl  STATUS:               ID:20170319101744d    3
 OLDACT:DUP 17-03-19 23:08 OP:dnl  STATUS:               ID:20170319101742d    3
 2017-03-19-1018-00M.COL___388                                                 6
 STAT SP IPHASW D HRMM SECON CODA AMPLIT PERI AZIMU VELO AIN AR TRES W  DIS CAZ7
 BAR2 EZ EP   2   1027 49.48                             170    0.30 5 23.3 221 
 BAR2 EZ ES       1028  4.13                             170    0.0810 23.3 221 
 BAR2 EZ I        1028  6.20         4.9 0.40            169           23.3 221 
 PAM  EZ EP   2   1027 52.10                             151    0.39 5 75.3  30 
 PAM  EN ES       1028  8.46                             151   -0.0910 75.3  30 
 PAM  EZ I        1028 11.76         1.5 0.66            153           75.3  30 
 BRR  HZ EP       1027 51.45                             148   -0.0710 83.5 298 
 BRR  HN ES   2   1028  8.19                             148   -0.02 5 83.5 298 
 BRR  HZ I        1028 12.34         3.8 0.62            147           83.5 298 
 RUS  HZ EP   2   1027 52.82                             144   -0.20 5 95.2 183 
 RUS  HE ES       1028 10.83                             144   -0.0410 95.2 183 
 RUS  HZ I        1028 12.61         0.8 0.26            149           95.2 183 
                                                                                
