 2015  719 1242  8.0 L   6.823 -73.181140.8  RSN 20 0.4 2.6LRSN                1
 GAP=131        0.79       1.8     2.7  4.2 -0.3043E+00  0.5922E+01  0.9519E+00E
 Epicentro: ZAPATOCA - SANTANDER                                               3
 ACTION:UPD 15-09-08 21:49 OP:cam  STATUS:               ID:20150719124208 L   I
 OLDACT:UP  15-07-19 23:43 OP:ak   STATUS:               ID:20150719123750     3
 OLDACT:REG 15-07-19 21:13 OP:ak   STATUS:               ID:20150719123750     3
 2015-07-19-1237-50M.COL___343                                                 6
 STAT SP IPHASW D HRMM SECON CODA AMPLIT PERI AZIMU VELO AIN AR TRES W  DIS CAZ7
 BAR2 EZ IP     D 1242 27.12                             169   -0.0010 25.6 180 
 BAR2 EZ ES       1242 41.67                             169   -0.3410 25.6 180 
 BAR2 EZ I        1242 43.78        90.2 0.17            168           25.6 180 
 PAM  EZ IP     C 1242 30.17                             150    0.4010 78.0  43 
 PAM  EN ES       1242 47.21                             150    0.4910 78.0  43 
 PAM  EZ I        1242 49.76        48.0 0.30            157           78.0  43 
 RUS  HZ EP       1242 31.12                             142   -0.4010  104 174 
 RUS  HN ES       1242 49.90                             142    0.0610  104 174 
 RUS  HZ I        1242 50.75        27.6 0.28            145            104 174 
 OCA  HZ EP       1242 35.29                             129   -0.39 9  157 354 
 OCA  HN ES       1242 57.36                             129    0.11 9  157 354 
 OCA  HZ I        1243  2.47        83.2 0.35            132            157 354 
 ZAR  HZ EP       1242 39.33                             122   -0.36 9  199 292 
 ZAR  HN ES       1243  4.75                             122    0.37 9  199 292 
 ZAR  HZ I        1243 12.94        49.1 0.17            123            199 292 
 NOR  HZ EP       1242 43.29                             118   -0.02 8  233 233 
 NOR  HE ES       1243 10.35                             118   -0.47 8  233 233 
 NOR  HZ I        1243 18.00        37.1 0.20            119            233 233 
 SML  HZ EP       1242 43.84                             117   -0.12 8  240 336 
 SML  HN ES       1243 11.52                             117   -0.46 8  240 336 
 SML  HZ I        1243 16.14        54.3 0.07            119            240 336 
 CHI  HZ EP       1242 45.61                             116   -0.02 8  250 194 
 CHI  HN ES       1243 14.77                             116   -0.19 8  250 194 
 CHI  HZ I        1243 21.03        20.0 0.30            119            250 194 
 HEL  HZ EP       1242 48.16                             114    0.51 8  269 255 
 HEL  HN ES       1243 19.26                             114    0.70 8  269 255 
 HEL  HZ I        1243 27.42        29.0 0.32            116            269 255 
 URE  HZ EP   1   1242 49.20                             113    0.84 6  279 292 
 URE  HN ES       1243 19.21                             113   -0.60 7  279 292 
 URE  HZ I        1243 27.99        30.3 0.14            115            279 292 
 GUY2CHZ EP       1242 51.56                             111    0.33 7  300 234 
 GUY2CHE ES       1243 24.89                             111   -0.03 7  300 234 
 GUY2CHZ I        1243 35.47        27.1 0.56                           300 234 
 VIL  SZ EP       1242 51.11                             111   -0.33 7  305 191 
 VIL  SN ES       1243 25.36                             111    0.07 7  305 191 
 VIL  SZ I        1243 34.70        31.0 0.42            114            305 191 
 PTGC HZ EP   4   1242 50.37                             110   -1.74 0  313 158 
 PTGC HN ES   4   1243 23.81                             110   -2.69 0  313 158 
 CBOC HZ EP       1242 55.04                             109    0.62 7  331 251 
 CBOC HN ES   4   1243 25.58                             109   -5.01 0  331 251 
 CBOC HZ I        1243 44.84         7.7 0.21            111            331 251 
 DBB  SZ EP       1242 54.73                             109   -0.12 7  335 274 
 DBB  SZ ES       1243 30.89                             109   -0.47 7  335 274 
 DBB  SZ I        1243 35.10        56.1 0.61            111            335 274 
 TOL  SZ EP       1242 55.50                             108   -0.50 7  343 224 
 TOL  SN ES       1243 33.47                             108    0.06 7  343 224 
 TOL  SZ I        1243 41.54        22.0 0.37            111            343 224 
 MON  HZ EP   4   1242 54.44                             108   -1.87 0  349 308 
 MON  HN ES   4   1243 30.13                             108   -3.83 0  349 308 
 MON  HZ I        1243 35.32        15.7 0.28            110            349 308 
 ANIL HZ EP   1   1242 57.60                             108    0.04 5  356 224 
 ANIL HN ES       1243 36.25                             108    0.07 6  356 224 
 ORTC HZ EP       1243  2.04                             105    0.27 6  395 215 
 ORTC HN ES       1243 43.77                             105    0.09 6  395 215 
 ORTC HZ I        1243 48.15         9.5 0.46            108            395 215 
 PAL  HZ EP       1243  2.88                             105    0.08 6  404 238 
 PAL  HE ES       1243 46.06                             105    0.54 6  404 238 
 PAL  HZ I        1243 50.32         5.8 0.22            107            404 238 
 SJC  HZ EP   4   1243  0.79                             105   -2.15 0  405 327 
 SJC  HN ES   4   1243 39.77                             105   -5.99 0  405 327 
 SJC  HZ I        1243 48.33         8.1 0.39            107            405 327 
                                                                                
