 2013 1119 1718 20.7 L   6.876 -73.456 98.9  RSN  5 0.5 2.1LRSN                1
 GAP=167        1.29       6.7     5.5 13.5 -0.1133E+02  0.1883E+02 -0.9700E+01E
 Epicentro: SAN VICENTE DE CHUCURI - SANTANDER                                 3
 ACTION:UPD 14-01-09 16:29 OP:ep   STATUS:               ID:20131119171820 L   I
 OLDACT:DUP 13-11-19 17:19 OP:carl STATUS:               ID:20131119171549d    3
 2013-11-19-1715-48M.COL___238                                                 6
 STAT SP IPHASW D HRMM SECON CODA AMPLIT PERI AZIMU VELO AIN AR TRES W  DIS CAZ7
 BRR  HZ EP   4   1718 36.46                             157    1.51 0 38.1 312 
 BRR  HZ I        1718 50.38        43.0 0.10            145           38.1 312 
 BAR2 SZ IP     D 1718 36.28                             155    0.7110 43.6 136 
 BAR2 SZ ES   1   1718 47.85                             155    0.68 7 43.6 136 
 BAR2 SZ I        1718 49.73        75.2 0.24            172           43.6 136 
 PAM  SZ EP       1718 40.47                             132    0.5010 98.0  58 
 PAM  SN ES       1718 54.27                             132   -0.7310 98.0  58 
 RUS  HZ EP       1718 41.73                             127    0.0310  116 159 
 RUS  HN ES       1718 57.55                             127   -0.5410  116 159 
 PTB  HZ EP       1718 40.79                             126   -0.3210  117 251 
 PTB  HE ES       1718 56.97                             126   -0.0710  117 251 
 PTB  HZ I        1719  4.33        22.7 0.28            125            117 251 
                                                                                
