 2012 1219 1811 53.6 L   6.723 -73.191146.8  RSN  6 0.4 1.4LRSN                1
 GAP=173        0.72       7.1     6.4  8.4  0.2651E+02 -0.1215E+00 -0.7123E+01E
 Epicentro: VILLANUEVA - SANTANDER                                             3
 ACTION:UPD 13-01-04 14:29 OP:ep   STATUS:               ID:20121219181153 L   I
 2012-12-19-1810-00M.COL___242                                                 6
 STAT SP IPHASW D HRMM SECON CODA AMPLIT PERI AZIMU VELO AIN AR TRES W  DIS CAZ7
 BAR2 SZ EP   1   1812 13.31                             174    0.11 7 14.5 176 
 BAR2 SZ ES   1   1812 28.37                             174   -0.12 7 14.5 176 
 BAR2 SZ I        1812 29.17        11.2 0.30                          14.5 176 
 GIR2 SZ EP   2   1812 12.75                             164   -0.87 5 39.3 360 
 BRR  HZ EP   1   1812 15.09                             153    0.22 7 71.6 306 
 BRR  HN ES   1   1812 31.95                             153    0.48 7 71.6 306 
 RUS  HZ EP   1   1812 17.23                             146    0.35 7 92.6 173 
 RUS  HE ES   1   1812 34.76                             146   -0.30 7 92.6 173 
 RUS  HZ I        1812 37.19         1.7 0.38                          92.6 173 
 PTB  HN ES   1   1812 40.79                             134    0.06 7  141 262 
 ZAR  HE ES   1   1812 50.68                             123   -0.56 6  203 295 
 ZAR  HZ I        1812 57.77         2.9 0.10                           203 295 
                                                                                
