 2010  819 1609 57.8 L   6.807 -73.068134.0  RSN  9 0.5 2.2LRSN                1
 GAP=167        1.12       4.5     8.8  8.7 -0.9313E+01  0.2399E+02 -0.4372E+01E
 Epicentro: LOS SANTOS - SANTANDER                                             3
 ACTION:UP  10-09-07 10:56 OP:vdl  STATUS:               ID:20100819160957 L   I
 2010-08-19-1607-20S.COL___114                                                 6
 STAT SP IPHASW D HRMM SECON CODA AMPLIT PERI AZIMU VELO SNR AR TRES W  DIS CAZ7
 BAR2 SZ EP       1610 16.08                             168    -0.110   27 208 
 BAR2 SZ ES   1   1610 29.67                             168    -0.8 7   27 208 
 BAR2 SZ I        1610 32.45        23.9 0.15                            27 208 
 GIR2 SZ EP       1610 16.24                             165     0.110   33 335 
 BRR  HZ IP     C 1610 17.97                             148    -0.210   79 295 
 BRR  HE ES   1   1610 34.90                             148     0.8 7   79 295 
 BRR  HZ I        1610 36.25        56.3 0.12                            79 295 
 RUS  HZ EP   1   1610 20.35                             141    -0.2 7  101 181 
 RUS  HN ES       1610 38.38                             141     0.210  101 181 
 RUS  HZ I        1610 40.71         9.7 0.35                           101 181 
 GRA  SZ EP   1   1610 22.04                             135     0.2 7  123  14 
 GRA  SZ ES   1   1610 41.16                             135     0.7 7  123  14 
 GRA  SZ I        1610 42.57        28.8 0.42                           123  14 
 OCA  SZ EP   1   1610 24.81                             127    -0.5 7  161 350 
 OCA  SZ ES   1   1610 46.07                             127    -0.7 7  161 350 
 OCA  SZ I        1610 49.67        24.3 0.40                           161 350 
 HEL  HZ EP   1   1610 38.38                             112    -0.1 6  281 256 
 HEL  HZ I        1611 14.80        11.6 0.47                           281 256 
 GUY  SZ EP   1   1610 41.90                             109     0.1 5  309 236 
 GUY  SE ES   1   1611 15.75                             109    -0.4 5  309 236 
 GUY  SZ I        1611 23.36        30.4 0.62                           309 236 
 RREF HZ EP   1   1610 45.16                             108     0.8 5  329 230 
 RREF HZ I        1611 28.12         5.5 0.33                           329 230 
                                                                                
