 2011  519 1955 21.4 L   6.772 -73.083144.0  RSN  6 0.3 2.4LRSN                1
 GAP=175        0.79       6.9     7.9  6.3 -0.2782E+02 -0.8199E+01  0.1984E+00E
 Epicentro: LOS SANTOS - SANTANDER                                             3
 ACTION:UP  11-06-29 08:54 OP:tino STATUS:               ID:20110519195521 L   I
 2011-05-19-1954-11S.COL___140                                                 6
 STAT SP IPHASW D HRMM SECON CODA AMPLIT PERI AZIMU VELO SNR AR TRES W  DIS CAZ7
 BAR2 SZ EP       1955 40.67                             171    -0.110   23 209 
 BAR2 SZ ES   1   1955 55.59                             171    -0.3 7   23 209 
 BAR2 SZ I        1955 57.45        69.5 0.28                            23 209 
 BTL  SZ EP       1955 40.94                             169     0.110   26 309 
 BTL  SZ ES   1   1955 56.13                             169     0.1 7   26 309 
 PAM  SZ EP       1955 43.59                             151     0.310   76  34 
 PAM  SN ES   1   1956  0.87                             151     0.5 7   76  34 
 BRR  HZ EP       1955 42.49                             150    -0.310   79 298 
 BRR  HZ I        1955 42.82        70.2 0.12                            79 298 
 BRR  HN ES   1   1955 59.99                             150     0.5 7   79 298 
 BRI  SZ EP       1955 45.24                             141     0.110  109  17 
 BRI  SZ ES   1   1956  3.40                             141    -0.3 7  109  17 
 GRA  SZ EP       1955 46.52                             136     0.010  127  14 
 GRA  SZ ES   2   1956  5.21                             136    -1.0 5  127  14 
 GRA  SZ I        1956  7.70        18.5 0.25                           127  14 
                                                                                
