 2012 1219 1331 55.6 L   6.784 -73.188148.5  RSN  4 0.2 1.5LRSN                1
 GAP=174        0.45       4.9     4.8  6.1  0.4339E+01  0.1437E+02  0.4440E+01E
 Epicentro: LOS SANTOS - SANTANDER                                             3
 ACTION:UPD 13-01-04 14:29 OP:ep   STATUS:               ID:20121219133155 L   I
 2012-12-19-1330-00M.COL___242                                                 6
 STAT SP IPHASW D HRMM SECON CODA AMPLIT PERI AZIMU VELO AIN AR TRES W  DIS CAZ7
 BAR2 SZ EP   1   1332 15.67                             171    0.11 7 21.2 178 
 BAR2 SZ ES   1   1332 31.42                             171    0.33 7 21.2 178 
 BAR2 SZ I        1332 37.37         8.5 0.38                          21.2 178 
 GIR2 SZ ES   1   1332 31.07                             167   -0.23 7 32.6 359 
 RUS  HN ES   1   1332 38.04                             145   -0.19 7 99.2 173 
 PTB  HZ EP   1   1332 22.38                             134   -0.02 7  143 259 
 PTB  HE ES   1   1332 43.26                             134   -0.01 7  143 259 
 PTB  HZ I        1332 45.78         3.7 0.14                           143 259 
                                                                                
