 2011 1019 1439 22.2 L   6.745 -73.089136.0  RSN  4 0.3 1.4LRSN                1
 GAP=146        0.54       3.9     5.5  7.6 -0.6782E+00 -0.1449E+01  0.1320E+01E
 Epicentro: JORDAN - SANTANDER                                                 3
 ACTION:UPD 12-07-13 16:04 OP:ep   STATUS:               ID:20111019143922 L   I
 2011-10-19-1435-37S.COL___165                                                 6
 STAT SP IPHASW D HRMM SECON CODA AMPLIT PERI AZIMU VELO AIN AR TRES W  DIS CAZ7
 BAR2 SZ EP   1   1439 40.60                             171    0.04 7 19.7 211 
 BAR2 SZ I        1440  1.41         8.3 0.73                          19.7 211 
 PAM  SZ EP   1   1439 43.29                             149   -0.15 7 78.6  33 
 PAM  SN ES   1   1440  0.11                             149    0.09 7 78.6  33 
 PAM  SZ I        1440  2.74         5.2 0.36                          78.6  33 
 BRR  HZ EP   1   1439 42.50                             148   -0.30 7 79.6 300 
 BRR  HN ES   1   1439 59.06                             148    0.17 7 79.6 300 
 RUS  HZ EP   2   1439 45.24                             144    0.74 5 94.2 180 
 RUS  HN ES   1   1440  1.74                             144   -0.18 7 94.2 180 
 RUS  HZ I        1440  3.91         2.6 0.29                          94.2 180 
                                                                                
