 2017  419 1759 41.1 L   6.788 -73.163136.9  RSN  5 0.4 1.0LRSN                1
 GAP=135        1.10       5.4     4.8  9.8  0.1764E+01  0.8986E+01  0.5922E+01E
 Epicentro: LOS SANTOS - SANTANDER                                             3
 ACTION:UPD 17-05-30 21:14 OP:jn   STATUS:               ID:20170419175941 L   I
 OLDACT:DUP 17-04-20 00:30 OP:lv   STATUS:               ID:20170419174739d    3
 2017-04-19-1748-00M.COL___371                                                 6
 STAT SP IPHASW D HRMM SECON CODA AMPLIT PERI AZIMU VELO AIN AR TRES W  DIS CAZ7
 BRR  HZ EP       18 0  2.12                             151    0.9110 70.2 300 
 BRR  HE ES       18 0 16.87                             151   -0.0510 70.2 300 
 PAM  EZ EP       18 0  2.37                             148   -0.1210 79.6  40 
 PAM  EN ES       18 0 18.95                             148   -0.2510 79.6  40 
 PAM  EZ I        18 0 20.31         2.7 0.17            150           79.6  40 
 RUS  HZ EP       18 0  3.96                             142    0.0910 99.4 175 
 RUS  HN ES       18 0 21.79                             142    0.1310 99.4 175 
 RUS  HZ I        18 0 23.25         1.3 0.26            143           99.4 175 
 PTB  HZ EP       18 0  6.35                             130   -0.78 9  146 259 
 PTB  HN ES       18 0 27.27                             130   -0.19 9  146 259 
 PTB  HZ I        18 0 27.86         1.3 0.17            132            146 259 
 ZAR  HN ES       18 0 37.79                             120    0.20 9  203 293 
                                                                                
