 2012 1019 1928 53.2 L   6.491 -73.518 13.0  RSN  7 0.3 2.1LRSN                1
 GAP=118        0.73       2.5     3.2  6.6  0.2493E+01  0.1595E+02  0.6674E+01E
 Epicentro: SIMACOTA - SANTANDER                                               3
 ACTION:UPD 12-11-22 17:04 OP:ep   STATUS:               ID:20121019192853 L   I
 2012-10-19-1920-00M.COL___233                                                 6
 STAT SP IPHASW D HRMM SECON CODA AMPLIT PERI AZIMU VELO AIN AR TRES W  DIS CAZ7
 BAR2 SZ EP       1928 59.90                             104   -0.2010 38.7  73 
 BAR2 SZ I        1929  8.10       111.6 0.36                          38.7  73 
 BRR  HZ EP       1929  4.51                              97   -0.2110 71.4 343 
 BRR  HZ I        1929  5.51        49.0 0.10                          71.4 343 
 BRR  HN ES       1929 13.69                              97    0.0010 71.4 343 
 GIR2 SZ EP       1929  5.42                              97    0.1410 74.2  29 
 RUS  HZ EP       1929  6.63                              97   -0.1610 81.8 144 
 RUS  HZ I        1929 19.90        41.0 0.28                          81.8 144 
 PAM  SZ EP       1929 14.72                              94    0.6210  130  44 
 PAM  SE ES       1929 30.20                              94   -0.2010  130  44 
 PAM  SZ I        1929 37.86        43.3 0.20                           130  44 
 ZAR  HZ EP   1   1929 20.39                              56   -0.43 7  185 307 
 ZAR  HN ES   1   1929 42.19                              56   -0.17 7  185 307 
 ZAR  HZ I        1929 45.60        47.4 0.23                           185 307 
 HEL  HZ EP       1929 26.74                              56    0.47 8  225 262 
 HEL  HN ES   1   1929 52.03                              56   -0.02 6  225 262 
                                                                                
