 2016  119 1815 25.5 L   6.804 -73.155145.0  RSN 18 0.4 2.3LRSN                1
 GAP=135        0.91       2.5     3.4  4.9 -0.1919E+01  0.6476E+01  0.9546E+00E
 Epicentro: LOS SANTOS - SANTANDER                                             3
 ACTION:UPD 16-03-09 23:26 OP:cam  STATUS:               ID:20160119181525 L   I
 OLDACT:UP  16-02-23 20:53 OP:AR   STATUS:               ID:20160119181525 L   3
 OLDACT:UP  16-01-20 00:21 OP:mh   STATUS:               ID:20160119180750d    3
 OLDACT:DUP 16-01-20 00:09 OP:mh   STATUS:               ID:20160119180750d    3
 OLDACT:UP  16-01-20 00:03 OP:mh   STATUS:               ID:20160119180749     3
 OLDACT:REG 16-01-19 21:25 OP:mh   STATUS:               ID:20160119180749     3
 2016-01-19-1807-49M.COL___328                                                 6
 STAT SP IPHASW D HRMM SECON CODA AMPLIT PERI AZIMU VELO AIN AR TRES W  DIS CAZ7
 BAR2 EZ EP       1815 45.12                             170    0.0510 23.6 187 
 BAR2 EZ ES       1816  0.19                             170   -0.1310 23.6 187 
 BAR2 EZ I        1816  2.09        32.1 0.12            169           23.6 187 
 PAM  EZ EP       1815 48.12                             150    0.4410 77.7  40 
 PAM  EN ES       1816  5.45                             150    0.4910 77.7  40 
 PAM  EZ I        1816  9.27        17.5 0.54            151           77.7  40 
 RUS  HZ EP     C 1815 48.93                             143   -0.3110  101 175 
 RUS  HN ES       1816  7.66                             143   -0.0810  101 175 
 RUS  HZ I        1816  8.45        11.3 0.22            143            101 175 
 PTB  HZ EP       1815 51.85                             132   -0.50 9  147 259 
 PTB  HN ES       1816 13.16                             132   -0.11 9  147 259 
 PTB  HZ I        1816 18.46        32.1 0.14            128            147 259 
 OCA  HZ EP       1815 53.89                             129    0.16 9  160 353 
 OCA  HN ES       1816 15.15                             129   -0.58 9  160 353 
 OCA  HZ I        1816 19.60        34.4 0.36            127            160 353 
 SPBC HZ EP       1815 54.03                             129    0.09 9  163 219 
 SPBC HN ES       1816 15.89                             129   -0.21 9  163 219 
 SPBC HZ I        1816 20.60        51.8 0.14            126            163 219 
 ZAR  HZ EP       1815 57.78                             122   -0.03 9  203 292 
 ZAR  HN ES       1816 23.32                             122    0.33 9  203 292 
 ZAR  HZ I        1816 28.99        34.9 0.34            119            203 292 
 NOR  HZ EP       1816  1.19                             118    0.04 8  234 234 
 NOR  HN ES       1816 28.56                             118   -0.38 8  234 234 
 NOR  HZ I        1816 35.28        24.0 0.20            116            234 234 
 SML  HZ EP   4   1816  1.17                             117   -0.86 0  243 335 
 SML  HN ES   4   1816 29.79                             117   -0.70 0  243 335 
 SML  HZ I        1816 34.24        27.6 0.10            115            243 335 
 CHI  HZ EP       1816  2.99                             117   -0.21 8  249 195 
 CHI  HN ES       1816 32.45                             117   -0.13 8  249 195 
 CHI  HZ I        1816 38.65         7.7 0.28            116            249 195 
 HEL  HZ EP   1   1816  6.22                             115    0.61 6  271 256 
 HEL  HN ES       1816 36.87                             115    0.00 8  271 256 
 HEL  HZ I        1816 43.83        11.1 0.34            112            271 256 
 URE  HZ EP   4   1816  5.03                             113   -1.41 0  283 292 
 URE  HN ES   4   1816 34.99                             113   -3.36 0  283 292 
 URE  HZ I        1816 43.18        12.8 0.30            111            283 292 
 GUY2CHZ EP   1   1816  8.23                             112   -0.81 5  301 235 
 GUY2CHN ES   4   1816 46.01                             112    3.04 0  301 235 
 GUY2CHZ I        1816 51.04        15.8 0.26                           301 235 
 CRECREN ES   4   1816 44.67                             111   -1.87 0  317 230 
 ELA  HZ EP   4   1816 13.30                             110    1.01 0  329 229 
 ELA  HN ES   4   1816 49.90                             110    1.14 0  329 229 
 CBOC HZ EP   1   1816 12.77                             110    0.45 5  333 252 
 CBOC HZ I        1816 51.12         3.5 0.42            108            333 252 
 CBOC HN ES   4   1816 51.20                             110    2.39 0  333 252 
 DBB  SZ EP       1816 12.71                             109   -0.15 7  338 274 
 ANIL HZ EP   4   1816 10.12                             108   -5.14 0  357 224 
 ANIL HN ES       1816 55.30                             108    1.26 6  357 224 
 PRA  HZ EP   1   1816 17.99                             106   -1.02 4  392 209 
 PRA  HN ES       1817  0.87                             106    0.15 6  392 209 
 PRA  HZ I        1817  5.37         8.8 0.32            105            392 209 
 ORTC HZ EP       1816 19.33                             106   -0.06 6  395 216 
 ORTC HN ES       1817  2.58                             106    1.17 6  395 216 
 ORTC HZ I        1817  7.80         5.2 0.20            105            395 216 
 SJC  HZ EP   4   1816 18.51                             106   -2.45 0  408 327 
 SJC  HN ES   4   1816 59.54                             106   -4.66 0  408 327 
                                                                                
