 2011  719 1840 18.3 L   6.842 -73.032134.3  RSN  4 0.2 1.3LRSN                1
 GAP=171        0.42       3.7     7.4  6.6  0.1328E+02 -0.3009E+02 -0.1159E+02E
 Epicentro: CEPITA - SANTANDER                                                 3
 ACTION:UPD 12-07-25 14:02 OP:epov STATUS:               ID:20110719184018 L   I
 2011-07-19-1838-32S.COL___143                                                 6
 STAT SP IPHASW D HRMM SECON CODA AMPLIT PERI AZIMU VELO AIN AR TRES W  DIS CAZ7
 BAR2 SZ ES   1   1840 50.99                             166   -0.23 7 32.2 211 
 BAR2 SZ I        1840 52.40         7.0 0.27                          32.2 211 
 BRR  HZ EP   2   1840 38.51                             147   -0.33 5 80.7 291 
 BRR  HZ I        1840 52.36         8.2 0.41                          80.7 291 
 BRR  HE ES   1   1840 55.01                             147    0.16 7 80.7 291 
 RUS  HZ EP   1   1840 41.28                             140   -0.03 7  105 183 
 RUS  HZ I        1840 41.38         1.4 0.21                           105 183 
 RUS  HN ES   1   1840 59.40                             140    0.16 7  105 183 
 GRA  SZ EP   1   1840 41.99                             136    0.09 7  118  12 
 GRA  SZ I        1840 43.23         2.9 0.29                           118  12 
                                                                                
