 2014  819 1719 41.0 L   6.827 -73.157141.1  RSN  6 0.4 1.6LRSN                1
 GAP=200        0.97       4.3     6.2  8.3  0.7066E+01  0.7470E+00 -0.5839E+01E
 Epicentro: LOS SANTOS - SANTANDER                                             3
 ACTION:UPD 14-09-15 21:51 OP:nd   STATUS:               ID:20140819171941 L   I
 OLDACT:REG 14-08-19 21:00 OP:stll STATUS:               ID:20140819171821     3
 2014-08-19-1718-21M.COL___266                                                 6
 STAT SP IPHASW D HRMM SECON CODA AMPLIT PERI AZIMU VELO AIN AR TRES W  DIS CAZ7
 BAR2 SZ EP       1720  0.40                             169    0.2210 26.1 186 
 BAR2 SZ ES       1720 14.59                             169   -0.5210 26.1 186 
 BAR2 SZ I        1720 16.13        24.3 0.32            168           26.1 186 
 BRR  HZ EP       1720  2.08                             152    0.5310 68.7 297 
 BRR  HZ I        1720  2.89         7.5 0.30            153           68.7 297 
 BRR  HN ES       1720 18.14                             152    0.5910 68.7 297 
 RUS  HZ EP       1720  4.54                             142   -0.0310  104 175 
 RUS  HN ES       1720 22.90                             142   -0.0310  104 175 
 RUS  HZ I        1720 24.81         4.4 0.20            142            104 175 
 PTB  HZ EP   2   1720  7.10                             131   -0.49 5  147 258 
 PTB  HN ES       1720 28.06                             131   -0.23 9  147 258 
 PTB  HZ I        1720 30.20         4.6 0.24            131            147 258 
 SPBC HN ES       1720 31.37                             128   -0.05 9  165 218 
 SML  HN ES       1720 44.51                             117   -0.65 8  240 335 
                                                                                
