 2014  819 1906 57.9 L   6.809 -73.216141.6  RSN  5 0.6 1.4LRSN                1
 GAP=194        1.39       8.2    10.6 11.3  0.2380E+02  0.8486E+01 -0.4867E+01E
 Epicentro: ZAPATOCA - SANTANDER                                               3
 ACTION:UPD 14-09-15 21:51 OP:nd   STATUS:               ID:20140819190657 L   I
 OLDACT:REG 14-08-19 21:03 OP:stll STATUS:               ID:20140819185818     3
 2014-08-19-1858-18M.COL___266                                                 6
 STAT SP IPHASW D HRMM SECON CODA AMPLIT PERI AZIMU VELO AIN AR TRES W  DIS CAZ7
 BAR2 SZ ES       19 7 31.18                             170   -0.7710 24.2 171 
 BAR2 SZ I        19 7 32.68         7.1 0.40            169           24.2 171 
 BRR  HZ EP       19 7 18.51                             154    0.3510 63.9 301 
 BRR  HN ES       19 7 34.86                             154    0.8710 63.9 301 
 RUS  HZ EP       19 7 21.77                             142    0.4410  102 172 
 PTB  HZ EP       19 7 23.36                             133   -0.45 9  140 258 
 PTB  HN ES       19 7 43.87                             133   -0.19 9  140 258 
 PTB  HZ I        19 7 46.85         3.2 0.44            132            140 258 
 SML  HN ES       19 8  1.35                             117   -0.51 8  240 337 
                                                                                
