 2011 1219 1510 30.1 L   6.776 -73.080146.8  RSN  8 0.3 1.8LRSN                1
 GAP=146        0.52       3.0     5.3  4.4 -0.2684E+01  0.6132E+00  0.4228E+01E
 Epicentro: LOS SANTOS - SANTANDER                                             3
 ACTION:UPD 12-07-13 16:17 OP:ep   STATUS:               ID:20111219151030 L   I
 2011-12-19-1510-00M.COL___186                                                 6
 STAT SP IPHASW D HRMM SECON CODA AMPLIT PERI AZIMU VELO AIN AR TRES W  DIS CAZ7
 BAR2 SZ EP       1510 49.68                             171   -0.1410 23.3 209 
 BAR2 SZ ES   1   1511  4.89                             171   -0.33 7 23.3 209 
 BAR2 SZ I        1511  6.43        13.7 0.37                          23.3 209 
 GIR2 SZ EP   1   1510 49.83                             166   -0.16 7 35.7 339 
 GIR2 SZ ES   2   1511  5.95                             166    0.43 5 35.7 339 
 PAM  SZ EP   1   1510 52.49                             152    0.23 7 75.1  34 
 PAM  SN ES   1   1511  9.71                             152    0.14 7 75.1  34 
 BRR  HZ EP   1   1510 51.37                             150   -0.40 7 78.8 298 
 BRR  HN ES   1   1511  8.83                             150    0.13 7 78.8 298 
 BRR  HZ I        1511 10.80        13.3 0.19                          78.8 298 
 RUS  HZ EP   1   1510 53.54                             145   -0.18 7 97.7 180 
 RUS  HN ES   2   1511 12.17                             145    0.01 5 97.7 180 
 RUS  HZ I        1511 13.60         5.3 0.33                          97.7 180 
 OCA  SZ EP   2   1510 58.57                             129   -0.23 5  164 351 
 OCA  SZ ES   2   1511 21.66                             129    0.46 5  164 351 
 OCA  SZ I        1511 28.34        11.2 0.49                           164 351 
 CTAU SZ EP   1   1511  3.60                             123    0.35 6  204 212 
 CHI  HZ EP   1   1511  7.93                             117    0.16 6  248 197 
 CHI  HN ES   2   1511 37.86                             117    0.69 4  248 197 
 CHI  HZ I        1511 46.91         3.8 0.38                           248 197 
                                                                                
