 2017  419 1622 20.7 L   6.766 -73.177140.7  RSN  5 0.1 1.7LRSN                1
 GAP=134        0.33       1.7     1.8  2.6  0.6718E+00  0.5709E+00 -0.6641E-01E
 Epicentro: LOS SANTOS - SANTANDER                                             3
 ACTION:UPD 17-05-30 21:14 OP:jn   STATUS:               ID:20170419162220 L   I
 OLDACT:REG 17-04-19 21:01 OP:lv   STATUS:               ID:20170419161739     3
 2017-04-19-1618-00M.COL___371                                                 6
 STAT SP IPHASW D HRMM SECON CODA AMPLIT PERI AZIMU VELO AIN AR TRES W  DIS CAZ7
 BAR2 EZ EP       1622 39.62                             172   -0.0010 19.2 182 
 BAR2 EZ ES       1622 54.29                             172   -0.1110 19.2 182 
 BAR2 EZ I        1622 57.23        14.3 0.18            172           19.2 182 
 BRR  HZ EP       1622 41.27                             152    0.0510 70.1 303 
 BRR  HN ES       1622 57.40                             152    0.1510 70.1 303 
 PAM  EZ EP       1622 42.74                             148    0.0610 82.5  40 
 PAM  EE ES       1622 59.78                             148   -0.0610 82.5  40 
 PAM  EZ I        1623  2.13         7.2 0.38            150           82.5  40 
 RUS  HZ EP       1622 43.64                             144   -0.0510 97.2 174 
 RUS  HN ES       1623  1.69                             144    0.0610 97.2 174 
 RUS  HZ I        1623  4.13         7.3 0.28            145           97.2 174 
 ZAR  HN ES       1623 17.40                             121   -0.13 9  202 293 
                                                                                
