 2013  719 1249 54.5 L   6.806 -73.134142.0  RSN  9 0.5 2.1LRSN                1
 GAP=202        1.31       4.7     6.6  7.9  0.5208E+01  0.9249E+01 -0.5641E+01E
 Epicentro: LOS SANTOS - SANTANDER                                             3
 ACTION:UPD 13-08-12 10:38 OP:ep   STATUS:               ID:20130719124954 L   I
 OLDACT:REG 13-07-19 17:18 OP:nd   STATUS:               ID:20130719124748     3
 2013-07-19-1247-48M.COL___216                                                 6
 STAT SP IPHASW D HRMM SECON CODA AMPLIT PERI AZIMU VELO AIN AR TRES W  DIS CAZ7
 BAR2 SZ EP       1250 13.66                             170    0.0110 24.2 193 
 BAR2 SZ ES       1250 28.73                             170    0.1110 24.2 193 
 BAR2 SZ I        1250 29.91        18.2 0.18            168           24.2 193 
 BRR  HZ EP       1250 15.70                             152    0.4610 72.0 298 
 BRR  HN ES       1250 31.84                             152    0.3810 72.0 298 
 BRR  HZ I        1250 35.10        14.7 0.14            149           72.0 298 
 RUS  HZ EP       1250 17.48                             143   -0.4010  101 177 
 RUS  HN ES       1250 35.77                             143   -0.3810  101 177 
 RUS  HZ I        1250 36.93         9.5 0.26            145            101 177 
 PTB  HZ EP       1250 20.50                             131   -0.74 9  149 259 
 PTB  HN ES       1250 41.51                             131   -0.63 9  149 259 
 PTB  HZ I        1250 45.38        17.2 0.42            130            149 259 
 SPBC HZ EP       1250 22.55                             128   -0.24 9  164 219 
 SPBC HN ES       1250 45.85                             128    0.96 9  164 219 
 SPBC HZ I        1250 50.90        21.2 0.26            128            164 219 
 ZAR  HZ EP       1250 26.59                             121   -0.16 9  205 292 
 ZAR  HE ES       1250 52.02                             121    0.08 9  205 292 
 ZAR  HZ I        1250 58.81        13.0 0.40            122            205 292 
 NOR  HZ EP       1250 31.37                             117    1.25 8  236 235 
 NOR  HN ES       1250 57.46                             117   -0.48 8  236 235 
 NOR  HZ I        1251  0.30        11.0 0.14            118            236 235 
 SML  HZ EP       1250 31.30                             117    0.44 8  244 335 
 SML  HN ES       1250 58.77                             117   -0.49 8  244 335 
 SML  HZ I        1251  0.75        22.6 0.10            118            244 335 
 GUY2CHZ EP   4   1250 38.65                             111    0.60 0  303 235 
 GUY2CHN ES   4   1251 13.55                             111    1.49 0  303 235 
 GUY2CHZ I        1251 20.17         7.0 0.42                           303 235 
                                                                                
