 2014  619 1926 11.6 L   6.792 -73.117145.5  RSN 19 0.5 2.7LRSN                1
 GAP=141        1.12       3.3     4.1  5.8 -0.1670E+01  0.7054E+01  0.1708E+01E
 Epicentro: LOS SANTOS - SANTANDER                                             3
 ACTION:UPD 14-07-01 22:55 OP:nd   STATUS:               ID:20140619192612dL   I
 OLDACT:DUP 14-06-20 03:35 OP:fm   STATUS:               ID:20140619192549d    3
 2014-06-19-1925-48M.COL___262                                                 6
 STAT SP IPHASW D HRMM SECON CODA AMPLIT PERI AZIMU VELO AIN AR TRES W  DIS CAZ7
 BAR2 SZ IP     C 1926 31.32                             171    0.1510 23.3 198 
 BAR2 SZ ES   1   1926 46.19                             171   -0.26 7 23.3 198 
 BAR2 SZ I        1926 47.62        70.8 0.30            165           23.3 198 
 BRR  HZ EP     C 1926 33.05                             151    0.1710 74.5 298 
 BRR  HE ES       1926 49.86                             151    0.3710 74.5 298 
 BRR  HZ I        1926 53.11        47.3 0.12            144           74.5 298 
 PAM  SZ EP     C 1926 34.06                             151    0.3810 76.1  37 
 PAM  SN ES       1926 51.07                             151    0.1510 76.1  37 
 PAM  SZ I        1926 53.45        67.9 0.54            148           76.1  37 
 RUS  HZ EP       1926 35.28                             144    0.0610 99.5 178 
 RUS  HN ES       1926 53.75                             144    0.0910 99.5 178 
 RUS  HZ I        1926 57.00        25.8 0.26            136           99.5 178 
 PTB  HZ EP       1926 37.97                             131   -0.82 9  151 259 
 PTB  HN ES       1926 59.46                             131   -0.56 9  151 259 
 PTB  HZ I        1927  6.52        76.6 0.38            123            151 259 
 SPBC HZ EP       1926 40.25                             129    0.07 9  165 220 
 SPBC HN ES       1927  1.35                             129   -1.14 9  165 220 
 SPBC HZ I        1927  9.79        52.9 0.20            120            165 220 
 ZAR  HZ EP       1926 43.94                             122   -0.40 8  207 292 
 ZAR  HN ES       1927  9.92                             122    0.02 8  207 292 
 ZAR  HZ I        1927 15.53        43.2 0.26            114            207 292 
 NOR  HZ EP       1926 47.30                             118   -0.21 8  237 235 
 NOR  HN ES       1927 16.28                             118    0.73 8  237 235 
 NOR  HZ I        1927 21.35        41.9 0.16            111            237 235 
 SML  HZ EP       1926 47.64                             117   -0.78 8  246 335 
 SML  HN ES       1927 17.20                             117    0.05 8  246 335 
 SML  HZ I        1927 19.47        63.1 0.26            111            246 335 
 CHI  HZ EP       1926 49.22                             117   -0.04 8  249 196 
 CHI  HN ES   4   1927 19.79                             117    1.14 0  249 196 
 CHI  HZ I        1927 28.37        26.9 0.34            110            249 196 
 ROSC BZ EP   4   1926 45.52                             116   -4.26 0  254 212 
 ROSC BE ES       1927 19.75                             116    0.17 8  254 212 
 ROSC BZ I        1927 29.01        34.6 0.40            110            254 212 
 HEL  HZ EP   4   1926 53.74                             114    1.65 0  275 256 
 HEL  HN ES       1927 24.16                             114    0.46 8  275 256 
 HEL  HZ I        1927 30.49        27.3 0.40            108            275 256 
 URE  HZ EP   4   1926 51.59                             113   -1.41 0  287 292 
 URE  HZ I        1927 37.28        23.8 0.16            107            287 292 
 GUY2CHZ EP       1926 56.24                             112    0.83 7  303 235 
 GUY2CHN ES   4   1927 31.15                             112    1.55 0  303 235 
 GUY2CHZ I        1927 36.53        19.8 0.44                           303 235 
 VIL  SZ EP   4   1926 48.78                             112   -6.18 0  303 192 
 VIL  SE ES   4   1927 19.25                             112   -9.54 0  303 192 
 VIL  SZ I        1927 20.18        51.4 0.30            106            303 192 
 RREF HZ EP       1926 58.58                             111    0.66 7  324 230 
 RREF HN ES   4   1927 36.13                             111    2.06 0  324 230 
 RREF HZ I        1927 43.23        20.5 0.24            104            324 230 
 CBOC HZ EP       1926 59.00                             110    0.20 7  336 252 
 CBOC HN ES       1927 36.28                             110    0.65 7  336 252 
 CBOC HZ I        1927 49.22         8.2 0.44            104            336 252 
 TOL  SZ EP   4   1927  1.06                             109    1.05 0  345 225 
 TOL  SN ES   4   1927 39.71                             109    1.92 0  345 225 
 TOL  SZ I        1927 43.42        37.4 0.34            103            345 225 
 PRA  HZ EP   1   1927  4.19                             106   -0.99 4  393 210 
 PRA  HN ES   4   1927 45.95                             106   -1.05 0  393 210 
 PRA  HZ I        1927 50.58        12.8 0.62            101            393 210 
                                                                                
