 2013  519 1218  7.6 L   6.833 -73.167142.7  RSN  7 0.4 1.4LRSN                1
 GAP=132        0.99       4.2     5.1  8.3 -0.4600E+01  0.1691E+02 -0.7176E+01E
 Epicentro: LOS SANTOS - SANTANDER                                             3
 ACTION:UPD 13-06-20 09:51 OP:ep   STATUS:               ID:20130519121807 L   I
 2013-05-19-1210-00M.COL___256                                                 6
 STAT SP IPHASW D HRMM SECON CODA AMPLIT PERI AZIMU VELO AIN AR TRES W  DIS CAZ7
 BAR2 SZ EP   1   1218 27.00                             169    0.09 7 26.7 184 
 BAR2 SZ ES       1218 41.59                             169   -0.4010 26.7 184 
 BAR2 SZ I        1218 42.89         4.1 0.34            169           26.7 184 
 BRR  HZ EP   1   1218 28.53                             153    0.35 7 67.4 297 
 BRR  HN ES       1218 44.61                             153    0.3610 67.4 297 
 PAM  SZ EP   1   1218 29.86                             151    0.47 7 76.1  43 
 PAM  SN ES       1218 46.79                             151    0.3910 76.1  43 
 PAM  SZ I        1218 48.30         2.6 0.32            153           76.1  43 
 RUS  HE ES       1218 49.41                             142   -0.4110  104 175 
 PTB  HZ EP   1   1218 33.55                             132   -0.61 7  146 257 
 PTB  HN ES       1218 54.67                             132   -0.22 9  146 257 
 PTB  HZ I        1219  0.74         3.5 0.16            130            146 257 
 NOR  HN ES       1219 11.63                             118    0.71 8  235 233 
 NOR  HZ I        1219 15.82         2.5 0.36            117            235 233 
 SML  HZ EP   2   1218 42.79                             117   -0.77 4  239 335 
 SML  HN ES       1219 11.17                             117   -0.46 8  239 335 
 SML  HZ I        1219 15.31         4.0 0.26            117            239 335 
                                                                                
