 2010  219 1053 41.0 L   6.830 -73.025143.2  RSN  6 0.3 1.9LRSN                1
 GAP=195        0.52       3.1    14.6  5.7 -0.1041E+02  0.2044E+02  0.2183E+01E
 Epicentro: CEPITA - SANTANDER                                                 3
 ACTION:UP  10-08-24 09:49 OP:vdl  STATUS:               ID:20100219105341 L   I
 2010-02-19-1040-00S.COL___094                                                 6
 STAT SP IPHASW D HRMM SECON CODA AMPLIT PERI AZIMU VELO SNR AR TRES W  DIS CAZ7
 BAR2 SZ IP       1054  0.61                             167     0.110   32 214 
 BAR2 SZ ES   2   1054 15.46                             167    -0.3 5   32 214 
 GIR2 SZ EP   1   1054  0.67                             166     0.2 7   33 326 
 GIR2 SZ ES   2   1054 15.71                             166     0.1 5   33 326 
 RUS  BZ EP   1   1054  4.83                             142     0.1 7  104 184 
 RUS  BN ES   2   1054 23.06                             142    -0.2 5  104 184 
 RUS  BZ I        1054 23.95         6.7 0.33                           104 184 
 OCA  SZ EP   1   1054  8.43                             129    -0.6 7  159 348 
 OCA  SZ ES   2   1054 31.22                             129     0.4 5  159 348 
 CHI  HZ EP   1   1054 19.50                             116     0.2 6  256 198 
 CHI  HE ES   2   1054 48.80                             116    -0.4 4  256 198 
 CHI  HZ I        1054 54.91         4.0 0.53                           256 198 
 PRA  HZ EP   1   1054 35.66                             106     0.1 4  402 211 
 PRA  HN ES   2   1055 18.05                             106    -0.1 3  402 211 
 PRA  HZ I        1055 23.93         4.0 0.81                           402 211 
                                                                                
