 2017  219 1352 18.4 L   6.791 -73.162149.6  RSN  6 0.3 1.6LRSN                1
 GAP=135        0.92       4.7     4.1  6.2  0.2123E+01  0.6160E+01 -0.1234E+01E
 Epicentro: LOS SANTOS - SANTANDER                                             3
 ACTION:UPD 17-05-24 15:38 OP:jn   STATUS:               ID:20170219135218 L   I
 OLDACT:REG 17-02-19 21:02 OP:cog  STATUS:               ID:20170219134741     3
 2017-02-19-1348-00M.COL___352                                                 6
 STAT SP IPHASW D HRMM SECON CODA AMPLIT PERI AZIMU VELO AIN AR TRES W  DIS CAZ7
 BAR2 EZ EP       1352 38.48                             171    0.0110 22.1 186 
 BAR2 EZ ES       1352 53.84                             171   -0.2810 22.1 186 
 BAR2 EZ I        1352 56.29        15.6 0.32            173           22.1 186 
 BRR  HZ EP       1352 40.52                             153    0.6210 70.1 300 
 BRR  HE ES       1352 57.27                             153    0.6010 70.1 300 
 BRR  HZ I        1353  0.36        12.2 0.36            154           70.1 300 
 PAM  EZ EP       1352 41.36                             151    0.2310 79.3  40 
 PAM  EE ES       1352 58.37                             151   -0.5010 79.3  40 
 PAM  EZ I        1353  1.70         5.0 0.46            153           79.3  40 
 RUS  HZ EP       1352 42.44                             145   -0.0310 99.8 175 
 RUS  HN ES       1353  1.39                             145    0.1510 99.8 175 
 RUS  HZ I        1353  2.37         4.6 0.40            148           99.8 175 
 PTB  HZ EP       1352 45.30                             133   -0.20 9  146 259 
 PTB  HN ES       1353  6.35                             133   -0.29 9  146 259 
 PTB  HZ I        1353  8.87         5.0 0.08            136            146 259 
 ZAR  HZ EP       1352 50.60                             123   -0.36 9  203 293 
 ZAR  HN ES       1353 16.21                             123   -0.15 9  203 293 
                                                                                
