 2014  619 1608 37.2 L   6.811 -73.147141.9  RSN 12 0.4 2.3LRSN                1
 GAP=136        0.92       4.7     4.2  7.2 -0.4294E+01  0.6865E+01  0.1478E+02E
 Epicentro: LOS SANTOS - SANTANDER                                             3
 ACTION:UPD 14-07-01 22:55 OP:nd   STATUS:               ID:20140619160837 L   I
 OLDACT:REG 14-06-20 02:49 OP:mh   STATUS:               ID:20140619160750     3
 2014-06-19-1607-50M.COL___265                                                 6
 STAT SP IPHASW D HRMM SECON CODA AMPLIT PERI AZIMU VELO AIN AR TRES W  DIS CAZ7
 BAR2 SZ IP     C 16 8 56.46                             170    0.1110 24.5 189 
 BAR2 SZ I        16 9 13.46        26.1 0.18            169           24.5 189 
 BRR  HZ EP       16 8 57.84                             152   -0.0110 70.5 298 
 BRR  HN ES   1   16 9 14.44                             152    0.45 7 70.5 298 
 PAM  SZ EP       16 8 58.99                             150    0.0710 76.6  40 
 PAM  SN ES       16 9 16.01                             150    0.1210 76.6  40 
 RUS  HZ EP       16 9  0.31                             143   -0.3110  102 176 
 RUS  HN ES   1   16 9 18.70                             143   -0.22 7  102 176 
 RUS  HZ I        16 9 20.89        20.2 0.23            143            102 176 
 PTB  HZ EP       16 9  3.10                             131   -0.72 9  148 258 
 PTB  HN ES       16 9 24.31                             131   -0.30 9  148 258 
 PTB  HZ I        16 9 26.84        22.7 0.07            130            148 258 
 ZAR  HN ES   1   16 9 34.42                             121    0.07 6  203 292 
 ZAR  HZ I        16 9 43.27        17.8 0.40            121            203 292 
 NOR  HZ EP       16 9 12.63                             118   -0.10 8  235 234 
 NOR  HN ES   1   16 9 40.76                             118    0.29 6  235 234 
 NOR  HZ I        16 9 47.35        12.9 0.41            117            235 234 
 GUY2CHZ EP       16 9 21.88                             111    1.23 7  302 235 
 GUY2CHN ES   4   16 9 57.28                             111    2.70 0  302 235 
 GUY2CHZ I        1610  1.90        10.4 0.28                           302 235 
 RREF HZ EP       16 9 22.72                             110   -0.49 7  322 229 
 RREF HN ES   4   1610  0.51                             110    1.38 0  322 229 
 RREF HZ I        1610  7.51        13.2 0.07            110            322 229 
 TOL  SZ EP   4   16 9 26.56                             108    1.21 0  344 224 
 TOL  SN ES       1610  3.09                             108    0.16 7  344 224 
 TOL  SZ I        1610  8.75        18.3 0.38            109            344 224 
 PRA  HZ EP   1   16 9 31.06                             106    0.40 4  393 209 
 PRA  HN ES   1   1610 13.25                             106    0.86 4  393 209 
 SJC  HZ EP   4   16 9 29.61                             105   -2.86 0  408 327 
 SJC  HN ES   4   1610  7.33                             105   -8.27 0  408 327 
 SJC  HZ I        1610 17.88         3.8 0.38            105            408 327 
                                                                                
