 2012  319 1820  4.6 L   7.411 -73.199132.3  RSN  4 0.2 1.6LRSN                1
 GAP=219        0.54       7.3     4.3  6.1 -0.1681E+02  0.8188E+01 -0.1128E+02E
 ACTION:UP  12-03-31 23:21 OP:EP   STATUS:               ID:20120319182004 L   I
 2012-03-19-1820-00M.COL___202                                                 6
 STAT SP IPHASW D HRMM SECON CODA AMPLIT PERI AZIMU VELO SNR AR TRES W  DIS CAZ7
 PAM  SZ EP       1820 24.33                             156     0.210   56  98 
 PAM  SN ES   1   1820 39.31                             156    -0.1 7   56  98 
 BRR  HZ EP   1   1820 24.03                             152     0.0 7   66 239 
 BRR  HN ES   1   1820 39.09                             152     0.0 7   66 239 
 BRR  HZ I        1820 40.41        10.7 0.05                            66 239 
 BAR2 SZ EP   1   1820 25.51                             144    -0.5 7   91 179 
 BAR2 SZ ES   1   1820 42.84                             144     0.2 7   91 179 
 BAR2 SZ I        1820 43.56        12.1 0.10                            91 179 
 PTB  HZ EP   1   1820 32.80                             125     0.2 7  169 235 
 PTB  HN ES   1   1820 54.37                             125    -0.1 7  169 235 
 PTB  HZ I        1820 58.23         2.9 0.18                           169 235 
                                                                                
