 2013  819 1427 48.3 L   6.778 -73.168143.3  RSN  8 0.3 2.0LRSN                1
 GAP= 99        0.84       3.5     3.1  5.3 -0.5489E+00  0.5193E+00  0.1826E+01E
 Epicentro: LOS SANTOS - SANTANDER                                             3
 ACTION:UPD 14-01-14 09:04 OP:ep   STATUS:               ID:20130819142748 L   I
 OLDACT:DUP 13-08-19 18:56 OP:stll STATUS:               ID:20130819141852d    3
 2013-08-19-1418-51M.COL___201                                                 6
 STAT SP IPHASW D HRMM SECON CODA AMPLIT PERI AZIMU VELO AIN AR TRES W  DIS CAZ7
 BAR2 SZ EP       1428  7.56                             171    0.0010 20.6 184 
 BAR2 SZ ES       1428 22.49                             171   -0.1010 20.6 184 
 BAR2 SZ I        1428 23.85        18.7 0.12            169           20.6 184 
 BRR  HZ EP       1428  9.51                             152    0.4110 70.2 301 
 BRR  HN ES       1428 26.00                             152    0.6510 70.2 301 
 BRR  HZ I        1428 27.55        17.8 0.18            153           70.2 301 
 PAM  SZ EP       1428 10.45                             149    0.0010 80.9  40 
 PAM  SZ I        1428 10.70        26.8 0.24            153           80.9  40 
 PAM  SN ES       1428 27.51                             149   -0.2210 80.9  40 
 RUS  HZ EP       1428 11.42                             144   -0.2010 98.3 174 
 RUS  HN ES       1428 29.74                             144   -0.0910 98.3 174 
 RUS  HZ I        1428 31.61         6.5 0.40            144           98.3 174 
 PTB  HZ EP       1428 14.90                             132    0.12 9  145 260 
 PTB  HN ES       1428 34.97                             132   -0.47 9  145 260 
 PTB  HZ I        1428 38.55        11.2 0.16            132            145 260 
 TAM  HZ IP     C 1428 15.81                             130   -0.12 9  157 104 
 TAM  HZ I        1428 15.95        18.1 0.36            132            157 104 
 SPBC HZ EP       1428 16.60                             129    0.35 9  160 219 
 SPBC HN ES       1428 38.21                             129    0.14 9  160 219 
 SPBC HZ I        1428 43.45        12.4 0.14            129            160 219 
 ZAR  HN ES       1428 44.89                             122   -0.60 9  203 293 
                                                                                
