 2016 1219 1546 53.5 L   6.793 -73.157147.6  RSN  5 0.4 1.6LRSN                1
 GAP=135        1.07       5.8     5.5  7.8 -0.3027E+01  0.5112E+01  0.2005E+01E
 Epicentro: LOS SANTOS - SANTANDER                                             3
 ACTION:UPD 17-01-11 20:16 OP:rebc STATUS:               ID:20161219154653 L   I
 OLDACT:DUP 16-12-20 01:56 OP:ar   STATUS:               ID:20161219153749d    3
 2016-12-19-1538-00M.COL___368                                                 6
 STAT SP IPHASW D HRMM SECON CODA AMPLIT PERI AZIMU VELO AIN AR TRES W  DIS CAZ7
 BAR2 EZ EP       1547 13.26                             171   -0.0410 22.4 187 
 BAR2 EZ ES       1547 28.57                             171   -0.2010 22.4 187 
 BAR2 EZ I        1547 31.43         9.0 0.72            173           22.4 187 
 BRR  HZ EP       1547 14.96                             153    0.1810 70.5 300 
 BRR  HN ES       1547 32.23                             153    0.8310 70.5 300 
 BRR  HZ I        1547 39.35        14.0 0.38            153           70.5 300 
 PAM  EZ EP       1547 16.07                             151    0.1010 78.8  40 
 PAM  EE ES       1547 32.99                             151   -0.5210 78.8  40 
 PAM  EZ I        1547 35.04         7.7 0.56            154           78.8  40 
 RUS  HZ EP       1547 17.74                             144    0.3910 99.9 175 
 RUS  HN ES       1547 36.04                             144    0.0610 99.9 175 
 RUS  HZ I        1547 37.83         3.4 0.32            149           99.9 175 
 PTB  HZ EP       1547 20.10                             133   -0.37 9  146 259 
 PTB  HE ES       1547 40.97                             133   -0.55 9  146 259 
 PTB  HZ I        1547 43.31         4.9 0.18            135            146 259 
                                                                                
