 2014 1219 1836 14.9 L   6.801 -73.159146.9  RSN 14 0.4 2.2LRSN                1
 GAP= 70        0.86       2.4     2.7  4.6 -0.4813E+00  0.2214E+01  0.3533E+00E
 Epicentro: LOS SANTOS - SANTANDER                                             3
 ACTION:UPD 15-02-10 17:05 OP:nd   STATUS:               ID:20141219183614 L   I
 OLDACT:REG 14-12-19 21:16 OP:spq  STATUS:               ID:20141219182748     3
 2014-12-19-1827-48M.COL___293                                                 6
 STAT SP IPHASW D HRMM SECON CODA AMPLIT PERI AZIMU VELO AIN AR TRES W  DIS CAZ7
 BAR2 EZ EP       1836 34.57                             171   -0.0910 23.2 186 
 BAR2 EZ ES   1   1836 49.28                             171   -0.79 7 23.2 186 
 BAR2 EZ I        1836 50.79        48.6 0.34            170           23.2 186 
 BRR  HZ EP     D 1836 36.39                             153    0.3010 69.8 299 
 BRR  HE ES       1836 53.37                             153    0.7510 69.8 299 
 BRR  HZ I        1836 57.85        30.0 0.30            151           69.8 299 
 PAM  SZ EP       1836 37.58                             151    0.3010 78.3  40 
 PAM  SN ES       1836 54.53                             151   -0.2110 78.3  40 
 PAM  SZ I        1836 57.03        34.6 0.64            154           78.3  40 
 RUS  HZ EP       1836 38.82                             144    0.0510  101 175 
 RUS  HN ES       1836 57.48                             144    0.0910  101 175 
 RUS  HZ I        1837  1.41        10.2 0.32            147            101 175 
 PTB  HZ EP       1836 41.42                             133   -0.40 9  146 259 
 PTB  HE ES   1   1837  2.81                             133   -0.01 7  146 259 
 PTB  HZ I        1837  8.03        19.7 0.38            133            146 259 
 TAM  HZ EP       1836 43.09                             131    0.29 9  157 105 
 TAM  HN ES   1   1837  4.22                             131   -0.34 7  157 105 
 TAM  HZ I        1837  5.54        11.4 0.46            135            157 105 
 OCA  HZ EP       1836 42.63                             130   -0.64 9  160 354 
 OCA  HE ES       1837  5.77                             130    0.37 9  160 354 
 OCA  HZ I        1837 11.15        18.0 0.38            132            160 354 
 SPBC HZ EP       1836 43.67                             129    0.27 9  162 219 
 SPBC HE ES       1837  5.44                             129   -0.19 9  162 219 
 SPBC HZ I        1837  9.08        20.0 0.32            131            162 219 
 ZAR  HZ EP       1836 47.04                             123   -0.23 9  203 292 
 ZAR  HE ES       1837 12.36                             123   -0.16 9  203 292 
 ZAR  HZ I        1837 18.83        27.8 0.74            123            203 292 
 NOR  HZ EP   1   1836 50.92                             119    0.35 6  234 234 
 NOR  HN ES       1837 18.12                             119   -0.27 8  234 234 
 NOR  HZ I        1837 26.47        10.9 0.18            120            234 234 
 SML  HZ EP       1836 51.00                             118   -0.51 8  243 336 
 SML  HN ES   1   1837 20.17                             118    0.11 6  243 336 
 SML  HZ I        1837 28.22        30.6 0.24            119            243 336 
 CHI  HZ EP       1836 52.98                             117    0.35 8  248 195 
 CHI  HN ES   1   1837 22.36                             117    0.31 6  248 195 
 CHI  HZ I        1837 27.99         5.4 0.24            119            248 195 
 HEL  HZ EP   1   1836 55.40                             115    0.39 6  271 256 
 HEL  HN ES   1   1837 25.79                             115   -0.50 6  271 256 
 HEL  HZ I        1837 33.38        10.1 0.44            116            271 256 
 SJC  HZ EP   4   1837  8.80                             106   -1.59 0  408 327 
 SJC  HN ES   4   1837 50.21                             106   -3.46 0  408 327 
 SJC  HZ I        1837 57.70         4.3 0.32            107            408 327 
                                                                                
