 2015  519 1017 24.2 L   6.757 -73.128141.1  RSN  7 0.2 1.8LRSN                1
 GAP=141        0.62       2.2     3.0  4.0  0.2526E+00  0.3507E+01 -0.1025E+01E
 Epicentro: LOS SANTOS - SANTANDER                                             3
 ACTION:UPD 15-09-10 22:05 OP:cam  STATUS:               ID:20150519101724 L   I
 OLDACT:DUP 15-05-19 22:36 OP:ar   STATUS:               ID:20150519100749d    3
 OLDACT:REG 15-05-19 20:13 OP:ar   STATUS:               ID:20150519100748     3
 2015-05-19-1007-48M.COL___276                                                 6
 STAT SP IPHASW D HRMM SECON CODA AMPLIT PERI AZIMU VELO AIN AR TRES W  DIS CAZ7
 BAR2 EZ EP       1017 43.14                             172   -0.0410 19.2 198 
 BAR2 EZ ES       1017 58.38                             172    0.3910 19.2 198 
 BAR2 EZ I        1017 59.41        16.9 0.16            167           19.2 198 
 BRR  HZ EP       1017 45.15                             150    0.0810 75.2 301 
 BRR  HN ES       1018  1.14                             150   -0.2210 75.2 301 
 BRR  HZ I        1018  3.07        10.1 0.81            143           75.2 301 
 PAM  SZ EP     C 1017 46.17                             149    0.1010 79.9  36 
 PAM  SN ES       1018  3.09                             149   -0.0410 79.9  36 
 PAM  SZ I        1018  3.80         4.7 0.20            148           79.9  36 
 RUS  HZ EP       1017 46.94                             144   -0.1910 95.7 177 
 RUS  HE ES       1018  4.74                             144   -0.2910 95.7 177 
 SPBC HZ EP     D 1017 52.28                             128    0.17 9  161 221 
 SPBC HN ES       1018 13.98                             128    0.10 9  161 221 
 SPBC HZ I        1018 20.87         8.4 0.28            122            161 221 
 ZAR  HZ EP       1017 57.09                             121    0.38 8  208 293 
 ZAR  HZ I        1018 18.74        12.1 0.10            115            208 293 
 ZAR  HN ES       1018 21.84                             121   -0.24 8  208 293 
 SML  HZ EP   1   1018  0.49                             116   -0.63 6  249 335 
 SML  HE ES       1018 30.09                             116    0.17 8  249 335 
 SML  HZ I        1018 30.26         5.9 0.24            112            249 335 
                                                                                
