 2011  619 1830 56.3 L   6.895 -73.067136.2  RSN  4 0.2 1.4LRSN                1
 GAP=163        0.55       3.1     6.6  8.0 -0.4082E+01 -0.2315E+02 -0.1105E+00E
 Epicentro: PIEDECUESTA - SANTANDER                                            3
 ACTION:UP  11-07-14 19:06 OP:ep   STATUS:               ID:20110619183056 L   I
 2011-06-19-1828-02S.COL___146                                                 6
 STAT SP IPHASW D HRMM SECON CODA AMPLIT PERI AZIMU VELO SNR AR TRES W  DIS CAZ7
 BRR  HZ EP   1   1831 16.28                             149    -0.4 8   75 288 
 BRR  HN ES   1   1831 32.72                             149     0.2 8   75 288 
 BRR  HZ I        1831 36.20        12.3 0.17                            75 288 
 BRI  SZ EP   1   1831 18.44                             143     0.1 8   96  18 
 BRI  SZ I        1831 38.28         4.9 0.33                            96  18 
 RUS  HZ EP   1   1831 20.17                             139     0.3 8  111 181 
 RUS  HN ES   1   1831 38.18                             139    -0.2 8  111 181 
 RUS  HZ I        1831 41.24         1.5 0.23                           111 181 
 GRA  SZ EP       1831 19.63                             138     0.010  113  15 
 GRA  SZ ES   1   1831 37.79                             138    -0.1 7  113  15 
 GRA  SZ I        1831 39.96         5.0 0.28                           113  15 
                                                                                
