 2011 1119 1913 20.2 L   6.763 -73.123138.2  RSN  4 0.4 1.2LRSN                1
 GAP=141        0.84       6.4    12.3 10.2 -0.2571E+02 -0.2099E+02  0.7060E+01E
 Epicentro: LOS SANTOS - SANTANDER                                             3
 ACTION:UPD 12-07-13 16:11 OP:ep   STATUS:               ID:20111119191320 L   I
 2011-11-19-1911-17S.COL___178                                                 6
 STAT SP IPHASW D HRMM SECON CODA AMPLIT PERI AZIMU VELO AIN AR TRES W  DIS CAZ7
 BAR2 SZ EP   1   1913 38.08                             171   -0.77 7 20.0 199 
 BAR2 SZ ES   1   1913 53.17                             171   -0.23 7 20.0 199 
 BAR2 SZ I        1913 55.60         5.6 0.33                          20.0 199 
 BRR  HN ES   2   1913 57.20                             150    0.36 5 75.4 300 
 PAM  SZ EP   1   1913 41.60                             149   -0.12 7 79.1  36 
 PAM  SN ES   1   1913 58.77                             149    0.26 7 79.1  36 
 PAM  SZ I        1914  0.64         2.3 0.50                          79.1  36 
 RUS  HZ EP   1   1913 43.54                             143    0.64 7 96.4 177 
 RUS  HN ES   1   1914  0.67                             143    0.06 7 96.4 177 
 RUS  HZ I        1914  2.71         2.7 0.23                          96.4 177 
                                                                                
