 2016  819 1821 15.9 L   6.812 -73.162144.0  RSN 14 0.5 2.7LRSN                1
 GAP=134        1.20       3.3     4.7  6.4 -0.2471E+01  0.7201E+01  0.2758E+01E
 Epicentro: LOS SANTOS - SANTANDER                                             3
 ACTION:UPD 16-10-29 15:37 OP:rebc STATUS:               ID:20160819182115 L   I
 OLDACT:REG 16-08-19 20:40 OP:dnl  STATUS:               ID:20160819181738     3
 2016-08-19-1818-00M.COL___368                                                 6
 STAT SP IPHASW D HRMM SECON CODA AMPLIT PERI AZIMU VELO AIN AR TRES W  DIS CAZ7
 BAR2 EZ EP     C 1821 35.27                             170   -0.1010 24.4 185 
 BAR2 EZ ES       1821 50.44                             170   -0.0910 24.4 185 
 BAR2 EZ I        1821 51.26       172.2 0.30                          24.4 185 
 BRR  HZ IP     C 1821 37.04                             153    0.2710 69.0 298 
 BRR  HN ES       1821 54.12                             153    1.1010 69.0 298 
 BRR  HZ I        1821 57.08        70.0 0.32                          69.0 298 
 PAM  EZ EP       1821 38.08                             151    0.1110 77.6  41 
 PAM  EN ES       1821 55.18                             151    0.0210 77.6  41 
 PAM  EZ I        1821 57.88        54.2 0.64                          77.6  41 
 RUS  HZ EP       1821 39.39                             143   -0.2210  102 175 
 RUS  HN ES       1821 58.03                             143   -0.0510  102 175 
 RUS  HZ I        1821 59.84        43.0 0.20                           102 175 
 PTB  HZ EP       1821 41.84                             132   -0.78 9  146 258 
 PTB  HN ES       1822  2.48                             132   -0.95 9  146 258 
 PTB  HZ I        1822  6.14        49.6 0.38                           146 258 
 OCA  HZ EP       1821 43.41                             130   -0.55 9  159 354 
 OCA  HE ES       1822  5.29                             130   -0.54 9  159 354 
 OCA  HZ I        1822  9.93       150.9 0.16                           159 354 
 SPBC HZ EP       1821 44.57                             129    0.29 9  163 218 
 SPBC HN ES       1822  6.24                             129   -0.16 9  163 218 
 SPBC HZ I        1822  8.85        58.9 0.12                           163 218 
 ZAR  HZ EP       1821 48.99                             122    0.95 9  202 292 
 ZAR  HE ES       1822 13.29                             122    0.20 9  202 292 
 ZAR  HZ I        1822 18.61        58.5 0.36                           202 292 
 NOR  HZ EP       1821 51.66                             118    0.18 8  234 234 
 NOR  HN ES       1822 19.05                             118   -0.16 8  234 234 
 NOR  HZ I        1822 24.40        27.5 0.20                           234 234 
 CHI  HZ EP       1821 53.70                             117    0.09 8  249 195 
 CHI  HE ES       1822 23.71                             117    0.70 8  249 195 
 CHI  HZ I        1822 27.49        20.4 0.32                           249 195 
 URE  HZ EP   2   1821 56.75                             113    0.07 4  282 292 
 URE  HN ES   4   1822 25.72                             113   -2.74 0  282 292 
 URE  HZ I        1822 36.41        37.5 0.30                           282 292 
 GUY2CHZ EP   2   1822  0.45                             112    1.07 4  300 234 
 GUY2CHN ES   4   1822 35.14                             112    1.88 0  300 234 
 GUY2CHZ I        1822 41.97        17.8 0.34                           300 234 
 ANIL HE ES   4   1822 46.31                             108    1.92 0  357 224 
 ANIL HZ I        1822 47.85        37.2 0.32                           357 224 
 PRA  HZ EP   2   1822  9.39                             106   -0.03 3  392 209 
 PRA  HN ES       1822 50.50                             106   -0.64 6  392 209 
 PRA  HZ I        1822 55.85        20.6 0.48                           392 209 
                                                                                
