 2014  619 1926 11.5 L   6.830 -73.146145.8  RSN 16 0.5 2.7LRSN                1
 GAP=135        1.17       3.6     4.7  5.8 -0.2784E+01  0.8992E+01  0.1536E+01E
 Epicentro: LOS SANTOS - SANTANDER                                             3
 ACTION:UPD 14-07-01 22:55 OP:nd   STATUS:               ID:20140619192611 L   I
 OLDACT:REG 14-06-19 22:16 OP:spq  STATUS:               ID:20140619191818     3
 2014-06-19-1918-18M.COL___262                                                 6
 STAT SP IPHASW D HRMM SECON CODA AMPLIT PERI AZIMU VELO AIN AR TRES W  DIS CAZ7
 BAR2 SZ IP     C 1926 31.34                             169    0.1110 26.6 189 
 BAR2 SZ ES       1926 46.16                             169   -0.4510 26.6 189 
 BRR  HZ EP     C 1926 33.09                             153    0.4910 69.7 296 
 BRR  HN ES       1926 49.55                             153    0.5210 69.7 296 
 BRR  HZ I        1926 53.12        46.6 0.26            150           69.7 296 
 PAM  SZ EP       1926 34.03                             151    0.4310 74.9  41 
 PAM  SN ES       1926 51.19                             151    0.3710 74.9  41 
 PAM  SZ I        1926 53.32        67.9 0.54            159           74.9  41 
 RUS  HZ EP     C 1926 35.36                             143   -0.1610  104 176 
 RUS  HN ES       1926 54.13                             143   -0.1110  104 176 
 RUS  HZ I        1926 56.98        25.8 0.26            147            104 176 
 PTB  HZ EP       1926 37.89                             132   -0.67 9  148 258 
 PTB  HN ES       1926 59.20                             132   -0.44 9  148 258 
 PTB  HZ I        1927  6.29        76.6 0.38            132            148 258 
 SPBC HZ EP       1926 40.22                             129   -0.05 9  166 218 
 SPBC HN ES       1927  2.03                             129   -0.67 9  166 218 
 SPBC HZ I        1927  8.50        51.4 0.07            130            166 218 
 ZAR  HZ EP       1926 43.83                             123   -0.02 9  203 291 
 ZAR  HE ES   4   1927  7.44                             123   -1.62 0  203 291 
 ZAR  HZ I        1927 15.57        44.0 0.21            124            203 291 
 NOR  HZ EP       1926 47.30                             118   -0.17 8  237 234 
 NOR  HN ES   1   1927 15.26                             118   -0.24 6  237 234 
 NOR  HZ I        1927 21.19        41.9 0.16            120            237 234 
 SML  HZ EP       1926 47.59                             118   -0.24 8  241 335 
 SML  HN ES       1927 15.45                             118   -0.70 8  241 335 
 SML  HZ I        1927 19.64        61.5 0.17            121            241 335 
 CHI  HZ EP       1926 49.20                             117   -0.37 8  252 195 
 CHI  HN ES   1   1927 19.95                             117    0.70 6  252 195 
 CHI  HZ I        1927 28.90        23.1 0.34            120            252 195 
 HEL  HZ EP   1   1926 51.51                             115   -0.32 6  273 255 
 HEL  HN ES       1927 24.01                             115    0.74 8  273 255 
 HEL  HZ I        1927 30.24        27.3 0.40            117            273 255 
 URE  HZ EP   4   1926 51.02                             114   -1.44 0  283 291 
 URE  HN ES   4   1927 23.58                             114   -0.81 0  283 291 
 GUY2CHZ EP       1926 55.92                             112    0.57 7  303 234 
 GUY2CHN ES   4   1927 31.68                             112    2.14 0  303 234 
 GUY2CHZ I        1927 36.47        19.8 0.44                           303 234 
 TOL  SZ EP       1927  1.13                             109    1.08 6  346 224 
 TOL  SN ES       1927 38.98                             109    1.07 6  346 224 
 TOL  SZ I        1927 43.55        36.9 0.17            112            346 224 
 PRA  HZ EP       1927  4.29                             106   -1.09 6  395 209 
 PRA  HN ES   4   1927 46.00                             106   -1.39 0  395 209 
 PRA  HZ I        1927 51.32        13.5 0.46            109            395 209 
 SJC  HZ EP   4   1927  5.03                             106   -1.73 0  406 327 
 SJC  HN ES   4   1927 46.05                             106   -3.80 0  406 327 
 SJC  HZ I        1927 51.36        11.4 0.62            108            406 327 
 GUA  SN ES   4   1927  2.50                             103   -62.1 0  477 173 
 MACC HZ EP   4   1926 59.09                             101   -21.5 0  524 189 
 MACC HN ES   4   1927 36.93                             101   -37.6 0  524 189 
 MACC HZ I        1927 42.67        18.3 0.10            104            524 189 
                                                                                
