 2012  919 1801 13.9 L   7.215 -73.042151.1  RSN  5 0.3 1.8LRSN                1
 GAP=151        0.56       7.0     5.1  7.5  0.2452E+01  0.6055E+01  0.1246E+02E
 Epicentro: TONA - SANTANDER                                                   3
 ACTION:UPD 12-10-22 14:19 OP:ep   STATUS:               ID:20120919180113 L   I
 2012-09-19-1800-00M.COL___226                                                 6
 STAT SP IPHASW D HRMM SECON CODA AMPLIT PERI AZIMU VELO AIN AR TRES W  DIS CAZ7
 GIR2 SZ EP       18 1 34.12                             171    0.1310 22.4 228 
 PAM  SZ EP   2   18 1 34.26                             164   -0.71 5 40.3  70 
 PAM  SN ES   1   18 1 51.48                             164    0.05 7 40.3  70 
 PAM  SZ I        18 1 53.48         7.9 0.27                          40.3  70 
 BRR  HZ EP   1   18 1 35.84                             152    0.02 7 74.9 261 
 BRR  HN ES   1   18 1 53.04                             152    0.11 7 74.9 261 
 BRR  HZ I        18 2 10.87        17.3 0.58                          74.9 261 
 RUS  HZ EP   2   18 1 42.36                             134    0.55 5  146 182 
 RUS  HN ES   2   18 2  3.10                             134   -0.49 5  146 182 
 ZAR  HN ES   2   18 2 11.66                             124   -0.38 4  203 279 
 ZAR  HZ I        18 2 17.89         4.2 0.15                           203 279 
                                                                                
