 2013  619 1103 31.7 L   6.764 -73.165147.9  RSN  4 0.4 1.4LRSN                1
 GAP=241        0.79       9.4     6.4  9.9  0.3862E+02  0.3140E-01 -0.2396E+02E
 Epicentro: LOS SANTOS - SANTANDER                                             3
 ACTION:UPD 14-01-08 09:55 OP:ep   STATUS:               ID:20130619110331 L   I
 OLDACT:REG 13-06-19 15:37 OP:cam  STATUS:               ID:20130619105959     3
 2013-06-19-1059-59M.COL___261                                                 6
 STAT SP IPHASW D HRMM SECON CODA AMPLIT PERI AZIMU VELO AIN AR TRES W  DIS CAZ7
 BAR2 SZ EP       11 3 51.28                             172   -0.2610 19.1 186 
 BAR2 SZ ES   1   11 4  6.84                             172   -0.15 7 19.1 186 
 BAR2 SZ I        11 4  9.15         6.5 0.37            167           19.1 186 
 RUS  HZ EP   1   11 3 55.56                             145    0.13 7 96.8 175 
 RUS  HN ES   1   11 4 14.47                             145    0.56 7 96.8 175 
 RUS  HZ I        11 4 15.76         2.7 0.34            145           96.8 175 
 PTB  HZ EP   1   11 3 58.46                             133   -0.16 7  145 260 
 PTB  HN ES       11 4 19.22                             133   -0.38 9  145 260 
 PTB  HZ I        11 4 24.84         4.0 0.30            133            145 260 
 ZAR  HN ES       11 4 30.17                             123    0.52 9  204 293 
                                                                                
