 2014  819 1550 27.5 L   6.284 -73.543107.9  RSN 14 0.5 2.3LRSN                1
 GAP= 81        1.21       2.8     3.8  6.6 -0.1048E+01  0.1117E+02  0.2182E+01E
 Epicentro: EL GUACAMAYO - SANTANDER                                           3
 ACTION:UPD 14-09-15 21:51 OP:nd   STATUS:               ID:20140819155027 L   I
 OLDACT:REG 14-08-19 20:54 OP:stll STATUS:               ID:20140819154818     3
 2014-08-19-1548-18M.COL___251                                                 6
 STAT SP IPHASW D HRMM SECON CODA AMPLIT PERI AZIMU VELO AIN AR TRES W  DIS CAZ7
 BAR2 SZ IP     D 1550 44.08                             152    0.2210 52.5  49 
 BAR2 SZ ES       1550 56.75                             152    0.1410 52.5  49 
 BAR2 SZ I        1550 59.08       179.6 0.32            152           52.5  49 
 RUS  HZ IP     D 1550 45.11                             146   -0.0110 66.8 130 
 RUS  HE ES       1550 58.36                             146   -0.4910 66.8 130 
 RUS  HZ I        1551  0.89        24.4 0.16            144           66.8 130 
 SPBC HZ EP       1550 46.56                             137    0.1510 91.1 220 
 SPBC HE ES       1551  1.64                             137    0.4910 91.1 220 
 SPBC HZ I        1551  8.08        38.6 0.52            132           91.1 220 
 BRR  HZ IP     C 1550 46.27                             136   -0.1610 92.9 348 
 BRR  HZ I        1550 46.54        30.5 0.14            133           92.9 348 
 BRR  HN ES       1551  2.39                             136    1.2010 92.9 348 
 PTB  HZ IP     C 1550 46.76                             132   -0.7410  105 286 
 PTB  HN ES       1551  2.48                             132   -0.6210  105 286 
 PTB  HZ I        1551  3.46        42.4 0.26            128            105 286 
 NOR  HZ EP       1550 53.39                             118   -0.39 9  167 242 
 NOR  HN ES       1551 13.99                             118   -0.29 9  167 242 
 NOR  HZ I        1551 18.94        33.3 0.16            115            167 242 
 CHI  HN ES       1551 17.93                             116   -0.48 9  184 187 
 CHI  HZ I        1551 27.03         9.1 0.26            113            184 187 
 ZAR  HZ EP       1550 57.71                             113    0.64 9  197 313 
 ZAR  HN ES       1551 19.81                             113   -0.31 9  197 313 
 ZAR  HZ I        1551 27.58        31.3 0.28            112            197 313 
 OCA  HE ES       1551 23.76                             111   -0.75 8  218   7 
 HEL  HZ EP       1551  0.51                             111    0.44 8  220 267 
 HEL  HN ES       1551 25.15                             111   -0.32 8  220 267 
 HEL  HZ I        1551 30.00        12.5 0.22            109            220 267 
 GUY2CHZ EP       1551  2.26                             109    0.53 8  233 240 
 GUY2CHN ES       1551 28.85                             109    0.43 8  233 240 
 GUY2CHZ I        1551 37.34        16.1 0.50                           233 240 
 DBB  SZ EP       1551  9.37                             103   -0.36 7  306 286 
 DBB  SZ I        1551 46.27        24.2 0.34            103            306 286 
 PRA  HZ EP       1551 11.70                             102    0.24 7  321 208 
 PRA  HN ES       1551 45.66                             102   -0.08 7  321 208 
 PRA  HZ I        1551 53.61        12.3 0.34            103            321 208 
 ORTC HZ EP       1551 12.27                             102    0.50 7  323 216 
 ORTC HN ES       1551 46.64                             102    0.35 7  323 216 
 ORTC HZ I        1551 52.58        12.9 0.48            102            323 216 
                                                                                
