 2017  819 1247 40.3 L   6.793 -73.134142.8  RSN 19 0.7 2.2LRSN                1
 GAP= 66        1.13       3.6     3.3  5.7 -0.1693E+01  0.3325E+01  0.6473E+01E
 Epicentro: LOS SANTOS - SANTANDER                                             3
 ACTION:UPD 17-09-04 20:22 OP:rebc STATUS:               ID:20170819124740 L   I
 OLDACT:UP  17-08-19 16:19 OP:and  STATUS:               ID:20170819123743d    3
 OLDACT:UP  17-08-19 16:18 OP:and  STATUS:               ID:20170819123743d    3
 OLDACT:UP  17-08-19 16:17 OP:and  STATUS:               ID:20170819123743d    3
 OLDACT:UP  17-08-19 16:17 OP:and  STATUS:               ID:20170819123743d    3
 OLDACT:UP  17-08-19 16:15 OP:and  STATUS:               ID:20170819123743d    3
 OLDACT:UP  17-08-19 16:15 OP:and  STATUS:               ID:20170819123743d    3
 OLDACT:UP  17-08-19 16:14 OP:and  STATUS:               ID:20170819123743d    3
 OLDACT:REG 17-08-19 16:12 OP:and  STATUS:               ID:20170819123743d    3
 2017-08-19-1238-00M.COL___408                                                 6
 STAT SP IPHASW D HRMM SECON CODA AMPLIT PERI AZIMU VELO AIN AR TRES W  DIS CAZ7
 BAR2 EZ EP       1247 59.27                             170   -0.3110 22.9 194 
 BAR2 EZ ES       1248 14.96                             170    0.3510 22.9 194 
 BAR2 EZ I        1248 15.34        35.4 0.38            167           22.9 194 
 BRR  HZ EP       1248  0.99                             152   -0.2410 72.7 299 
 BRR  HN ES       1248 18.14                             152    0.5910 72.7 299 
 BRR  HZ I        1248 22.23        21.9 0.28            150           72.7 299 
 PAM  EZ EP     C 1248  2.04                             151   -0.1610 77.2  38 
 PAM  EN ES       1248 19.07                             151   -0.2010 77.2  38 
 PAM  EZ I        1248 21.47        31.0 0.50            156           77.2  38 
 RUS  HZ EP       1248  3.20                             144   -0.5110 99.7 177 
 RUS  HN ES       1248 22.16                             144    0.1910 99.7 177 
 RUS  HZ I        1248 23.53        13.5 0.42            144           99.7 177 
 TAM  HZ IP     D 1248  7.66                             130    0.04 9  154 105 
 TAM  HN ES       1248 29.51                             130    0.59 9  154 105 
 SPBC HZ EP   3   1248  6.34                             129   -2.27 2  163 220 
 SPBC HN ES       1248 30.38                             129   -0.30 9  163 220 
 SPBC HZ I        1248 33.51        26.6 0.10            128            163 220 
 YPLC HZ IP     D 1248  9.65                             126   -0.12 9  176 152 
 YPLC HN ES   2   1248 32.52                             126   -0.22 4  176 152 
 YPLC HZ I        1248 34.74        10.9 0.24            128            176 152 
 ZAR  HZ EP   2   1248 13.93                             122    1.21 4  206 292 
 ZAR  HN ES       1248 37.38                             122   -0.62 8  206 292 
 ZAR  HZ I        1248 42.42        15.7 0.40            122            206 292 
 TABC EZ EP   3   1248 17.27                             119    1.38 2  230 211 
 TABC EZ ES       1248 42.93                             119   -0.71 8  230 211 
 TABC EZ I        1248 51.41        14.9 0.50            119            230 211 
 NOR  HZ IP     D 1248 15.34                             118   -0.60 8  235 235 
 NOR  HN ES       1248 43.67                             118   -0.06 8  235 235 
 NOR  HZ I        1248 52.57         8.1 0.38            118            235 235 
 CHI  HZ EP       1248 17.50                             117   -0.31 8  248 196 
 CHI  HN ES       1248 46.40                             117   -0.65 8  248 196 
 CHI  HZ I        1248 50.23        11.1 0.66            118            248 196 
 ROSC BZ EP       1248 19.80                             116    1.53 8  253 211 
 ROSC BN ES       1248 48.77                             116    0.89 8  253 211 
 ROSC BZ I        1248 53.69        19.5 0.50            117            253 211 
 HEL  HZ EP   2   1248 21.34                             114    0.85 4  273 256 
 HEL  HE ES   1   1248 51.85                             114    0.01 6  273 256 
 HEL  HZ I        1248 57.32         8.5 0.28            115            273 256 
 GUY2CHZ EP       1248 24.11                             112    0.26 7  302 235 
 GUY2CHN ES   3   1248 59.57                             112    1.75 2  302 235 
 GUY2CHZ I        1249  5.50         8.0 0.38                           302 235 
 PTGC HZ EP   3   1248 22.35                             111   -1.55 2  308 159 
 LL6C HZ EP   3   1248 24.50                             110   -1.48 2  326 357 
 LL6C HN ES   4   1248 59.54                             110   -2.06 0  326 357 
 ELA  HZ EP   3   1248 29.11                             110    2.01 2  330 230 
 ELA  HE ES   1   1249  4.07                             110    0.48 5  330 230 
 ELA  HZ I        1249 11.55         8.9 0.80            111            330 230 
 PRA  HZ EP       1248 33.72                             106   -0.01 6  392 210 
 ORTC HZ EP       1248 33.62                             106   -0.53 6  396 216 
 ORTC HN ES       1249 16.80                             106    0.66 6  396 216 
 ORTC HZ I        1249 20.62         6.0 0.24            107            396 216 
                                                                                
