 2011 1019 1523 35.6 L   6.551 -73.708 93.9  RSN  7 0.2 1.4LRSN                1
 GAP= 93        0.41       2.3     2.0  9.3 -0.8012E+00  0.7756E+01 -0.9533E+01E
 Epicentro: SANTA HELENA DEL OPON - SANTANDER                                  3
 ACTION:UPD 12-07-13 16:04 OP:ep   STATUS:               ID:20111019152335 L   I
 2011-10-19-1520-00M.COL___171                                                 6
 STAT SP IPHASW D HRMM SECON CODA AMPLIT PERI AZIMU VELO AIN AR TRES W  DIS CAZ7
 BAR2 SZ EP   1   1523 51.22                             146    0.38 7 58.3  85 
 BAR2 SZ I        1524  5.18        13.3 0.18                          58.3  85 
 BRR  HZ EP   1   1523 50.80                             144    0.07 7 61.5 360 
 GIR2 SZ EP   2   1523 52.70                             136    0.19 5 81.5  44 
 RUS  HZ EP   2   1523 54.85                             130    0.15 5  100 136 
 RUS  HN ES   1   1524  9.46                             130   -0.13 7  100 136 
 RUS  HZ I        1524 11.55         3.9 0.16                           100 136 
 PAM  SZ EP   1   1523 58.60                             120   -0.27 7  142  52 
 PAM  SN ES   1   1524 16.87                             120   -0.15 7  142  52 
 ZAR  HZ EP   1   1524  0.81                             115    0.06 7  164 309 
 ZAR  HN ES   1   1524 20.31                             115   -0.06 7  164 309 
 ZAR  HZ I        1524 25.01         4.6 0.21                           164 309 
 NOR  SN ES   1   1524 21.23                             115   -0.11 7  169 230 
                                                                                
