 2013  219 1735  7.5 L   6.797 -73.142145.7  RSN  8 0.4 2.6LRSN                1
 GAP= 71        1.00       4.5     4.8  6.8  0.4158E+01  0.8826E+01 -0.6034E+01E
 Epicentro: LOS SANTOS - SANTANDER                                             3
 ACTION:UPD 13-03-12 09:34 OP:ep   STATUS:               ID:20130219173507 L   I
 2013-02-19-1730-00M.COL___241                                                 6
 STAT SP IPHASW D HRMM SECON CODA AMPLIT PERI AZIMU VELO AIN AR TRES W  DIS CAZ7
 BAR2 SZ IP     C 1735 27.13                             171    0.0110 23.1 191 
 BAR2 SZ ES       1735 42.12                             171   -0.3110 23.1 191 
 BAR2 SZ I        1735 43.04        77.3 0.42            168           23.1 191 
 BRR  HZ IP     C 1735 29.02                             152    0.3410 71.7 299 
 BRR  HN I        1735 46.36       127.3 0.18            146           71.7 299 
 PAM  SZ IP     D 1735 30.10                             151    0.3910 77.3  39 
 PAM  SN ES       1735 46.97                             151   -0.0610 77.3  39 
 PAM  SN I        1735 48.21        68.5 0.66            152           77.3  39 
 RUS  HZ EP       1735 31.12                             144   -0.1110  100 176 
 RUS  HN ES       1735 49.71                             144   -0.0210  100 176 
 RUS  HN I        1735 51.24        31.5 0.24            145            100 176 
 PTB  HZ EP       1735 33.85                             132   -0.65 9  148 259 
 TAM  HZ IP     D 1735 35.44                             130    0.31 9  155 105 
 ZAR  HZ EP       1735 39.83                             122   -0.17 9  205 292 
 ZAR  HN ES       1736  6.24                             122    0.89 9  205 292 
 ZAR  HN I        1736 14.65        41.8 0.10            119            205 292 
 SML  HZ EP       1735 43.96                             117   -0.22 8  244 335 
 SML  HN ES   1   1736 11.86                             117   -0.92 6  244 335 
 SML  HN I        1736 16.84        50.7 0.10            116            244 335 
                                                                                
