 2010  319 1437 19.9 L   6.795 -73.062149.0  RSN  6 0.3 2.3LRSN                1
 GAP=191        0.69       3.2     9.2  5.7  0.3328E+01  0.1385E+01  0.3102E+01E
 Epicentro: LOS SANTOS - SANTANDER                                             3
 ACTION:UP  10-08-24 09:54 OP:vdl  STATUS:               ID:20100319143719 L   I
 2010-03-19-1432-43S.COL___098                                                 6
 STAT SP IPHASW D HRMM SECON CODA AMPLIT PERI AZIMU VELO SNR AR TRES W  DIS CAZ7
 BAR2 SZ IP       1437 40.06                             169     0.110   26 211 
 BAR2 SZ ES   1   1437 55.09                             169    -0.5 7   26 211 
 BRR  HZ IP       1437 41.95                             150     0.110   80 296 
 BRR  HN ES   1   1437 59.34                             150     0.3 7   80 296 
 BRR  HZ I        1438  1.28        35.4 0.17                            80 296 
 RUS  HZ EP   1   1437 43.91                             144     0.0 7  100 181 
 RUS  HN ES   1   1438  2.75                             144     0.1 7  100 181 
 RUS  HZ I        1438  3.97        22.7 0.36                           100 181 
 OCA  SZ EP   1   1437 48.85                             130     0.2 7  162 350 
 OCA  SZ ES   1   1438 10.53                             130    -0.5 7  162 350 
 OCA  SZ I        1438 13.55        37.2 0.40                           162 350 
 CHI  HZ IP       1437 58.13                             117     0.2 8  251 197 
 CHI  HZ I        1438  0.74         9.1 0.38                           251 197 
 CHI  HE ES   2   1438 27.72                             117     0.0 4  251 197 
 PRA  HZ EP   1   1438 13.33                             107    -0.6 4  396 211 
 PRA  HE ES   1   1438 55.71                             107    -0.5 4  396 211 
 PRA  HZ I        1439  1.22        10.6 0.30                           396 211 
                                                                                
