 2017  319 1652 48.1 L   6.775 -73.174147.5  RSN  4 0.3 1.3LRSN                1
 GAP=140        0.64       4.2     4.1  6.3 -0.6523E+01  0.5595E+01 -0.5564E+01E
 Epicentro: LOS SANTOS - SANTANDER                                             3
 ACTION:UPD 17-05-25 18:42 OP:jn   STATUS:               ID:20170319165248 L   I
 OLDACT:DUP 17-03-20 00:35 OP:dnl  STATUS:               ID:20170319164742d    3
 2017-03-19-1648-00M.COL___397                                                 6
 STAT SP IPHASW D HRMM SECON CODA AMPLIT PERI AZIMU VELO AIN AR TRES W  DIS CAZ7
 BAR2 EZ EP       1653  7.91                             172    0.0310 20.2 183 
 BAR2 EZ ES       1653 23.75                             172    0.4510 20.2 183 
 BAR2 EZ I        1653 24.15         6.2 0.32            171           20.2 183 
 PAM  EZ IP     C 1653 10.83                             150    0.0910 81.5  40 
 PAM  EN ES       1653 28.16                             150   -0.2510 81.5  40 
 PAM  EZ I        1653 30.36         3.3 0.66            152           81.5  40 
 RUS  HZ EP   2   1653 11.94                             145    0.10 5 98.1 174 
 RUS  HN ES       1653 30.10                             145   -0.2610 98.1 174 
 RUS  HZ I        1653 30.98         1.7 0.24            148           98.1 174 
 PTB  HZ EP   2   1653 15.28                             133    0.39 5  144 260 
 PTB  HN ES       1653 35.58                             133   -0.20 9  144 260 
 PTB  HZ I        1653 42.89         2.9 0.28            131            144 260 
                                                                                
