 2013 1119 1239 57.1 L   6.565 -73.562104.0  RSN  9 0.5 1.9LRSN                1
 GAP= 63        1.38       3.8     4.0  8.6 -0.7277E+00  0.7343E+01  0.3838E+01E
 Epicentro: EL CARMEN DE CHUCURI - SANTANDER                                   3
 ACTION:UPD 14-01-09 16:29 OP:ep   STATUS:               ID:20131119123957 L   I
 OLDACT:REG 13-11-19 16:27 OP:carl STATUS:               ID:20131119123847     3
 2013-11-19-1238-47M.COL___228                                                 6
 STAT SP IPHASW D HRMM SECON CODA AMPLIT PERI AZIMU VELO AIN AR TRES W  DIS CAZ7
 BAR2 SZ IP     C 1240 12.63                             156    0.1310 42.1  86 
 BAR2 SZ ES       1240 24.95                             156    0.4610 42.1  86 
 BAR2 SZ I        1240 26.28       111.4 0.40            160           42.1  86 
 BRR  HZ IP     D 1240 13.46                             147    0.1310 62.2 345 
 BRR  HE ES       1240 26.51                             147    0.5510 62.2 345 
 BRR  HZ I        1240 28.23        18.2 0.20            150           62.2 345 
 RUS  HZ EP       1240 15.82                             136   -0.4410 91.3 145 
 RUS  HN ES       1240 30.94                             136   -0.2310 91.3 145 
 RUS  HZ I        1240 32.47         8.1 0.42            137           91.3 145 
 PTB  HZ EP       1240 15.49                             133   -0.7810 98.9 268 
 PTB  HN ES       1240 30.37                             133   -0.8310 98.9 268 
 PTB  HZ I        1240 32.29        24.5 0.14            133           98.9 268 
 SPBC HN ES       1240 34.16                             128    0.0110  116 209 
 SPBC HN I        1240 40.52        47.5 0.30            128            116 209 
 PAM  SZ EP       1240 19.28                             125   -0.4010  128  48 
 PAM  SN ES       1240 36.88                             125   -0.3810  128  48 
 PAM  SZ I        1240 38.13         7.0 0.44            129            128  48 
 ZAR  HZ EP       1240 25.04                             115    0.91 9  176 306 
 ZAR  HN ES       1240 45.55                             115    0.37 9  176 306 
 ZAR  HZ I        1240 49.06        23.3 0.46            117            176 306 
 NOR  HN ES       1240 46.38                             114   -0.11 9  182 233 
 NOR  HZ I        1240 50.70         9.5 0.22            116            182 233 
 CHI  HZ EP       1240 28.96                             110   -0.05 8  215 185 
 CHI  HN ES       1240 55.05                             110    1.19 8  215 185 
 CHI  HZ I        1240 58.99         2.2 0.30            112            215 185 
                                                                                
