 2012  119 1757 43.7 L   6.370 -73.643106.4  RSN  9 0.4 1.9LRSN                1
 GAP= 70        0.97       4.1     5.2 10.1  0.7813E+01  0.3243E+02  0.1987E+02E
 Epicentro: SANTA HELENA DEL OPON - SANTANDER                                  3
 ACTION:UP  12-02-03 08:18 OP:REBC STATUS:               ID:20120119175743 L   I
 2012-01-19-1750-00M.COL___188                                                 6
 STAT SP IPHASW D HRMM SECON CODA AMPLIT PERI AZIMU VELO SNR AR TRES W  DIS CAZ7
 BAR2 SZ EP   1   1758  0.36                             150     0.2 7   57  64 
 BAR2 SZ ES   1   1758 13.14                             150     0.2 7   57  64 
 BAR2 SZ I        1758 15.27        41.0 0.35                            57  64 
 RUS  HZ EP   1   1758  2.40                             140     0.2 7   81 130 
 RUS  HN ES   1   1758 16.17                             140    -0.5 7   81 130 
 RUS  HZ I        1758 19.91        13.6 0.42                            81 130 
 BRR  HZ EP   1   1758  1.51                             139    -0.1 7   82 355 
 BRR  HN ES   1   1758 16.11                             139     0.6 7   82 355 
 PTB  HZ EP       1758  1.49                             136    -0.910   92 282 
 PTB  HN ES   2   1758 16.50                             136    -0.5 5   92 282 
 NOR  SZ EP   1   1758  9.43                             118     0.0 7  162 237 
 NOR  SN ES   2   1758 29.92                             118     0.5 5  162 237 
 ZAR  HZ EP   1   1758 11.44                             115    -0.1 7  183 313 
 ZAR  HN ES   1   1758 33.43                             115     0.2 7  183 313 
 ZAR  HZ I        1758 38.86        14.4 0.26                           183 313 
 CHI  HZ EP   1   1758 12.98                             114    -0.2 7  193 183 
 CHI  HN ES   1   1758 36.58                             114     0.4 7  193 183 
 CHI  HZ I        1758 40.39         5.3 0.52                           193 183 
 HEL  HZ EP   1   1758 15.78                             112     0.8 6  210 265 
 HEL  HE ES   2   1758 39.70                             112     0.3 4  210 265 
 HEL  HZ I        1758 42.84         7.6 0.24                           210 265 
 PRA  HZ EP   1   1758 28.07                             102     0.0 5  324 205 
 PRA  HE ES   1   1759  2.81                             102     0.2 5  324 205 
                                                                                
