 2012 1119 1915 19.4 L   6.808 -73.200141.4  RSN  7 0.1 1.6LRSN                1
 GAP=129        0.33       1.8     2.2  3.2 -0.1338E+00  0.1778E+01 -0.1477E+01E
 Epicentro: ZAPATOCA - SANTANDER                                               3
 ACTION:UPD 12-12-05 15:34 OP:}ep  STATUS:               ID:20121119191519 L   I
 2012-11-19-1910-00M.COL___233                                                 6
 STAT SP IPHASW D HRMM SECON CODA AMPLIT PERI AZIMU VELO AIN AR TRES W  DIS CAZ7
 BAR2 SZ EP   1   1915 38.54                             170   -0.03 7 24.0 175 
 BAR2 SZ ES   1   1915 53.33                             170   -0.15 7 24.0 175 
 BAR2 SZ I        1915 54.83        11.9 0.26                          24.0 175 
 BRR  HE ES   2   1915 55.71                             154    0.02 5 65.5 300 
 PAM  SZ EP   1   1915 41.45                             149    0.05 7 80.7  43 
 PAM  SN ES   1   1915 58.46                             149   -0.07 7 80.7  43 
 PAM  SZ I        1916  0.68         5.2 0.64                          80.7  43 
 RUS  HZ EP   1   1915 42.92                             142    0.04 7  102 173 
 RUS  HN ES   1   1916  1.37                             142    0.21 7  102 173 
 RUS  HZ I        1916  3.13         4.4 0.42                           102 173 
 PTB  HZ EP   1   1915 45.31                             132   -0.23 7  142 258 
 PTB  HN ES   1   1916  5.94                             132    0.04 7  142 258 
 PTB  HZ I        1916  8.85         6.0 0.24                           142 258 
 ZAR  HE ES   4   1916 17.50                             122    1.89 0  198 293 
 ZAR  HZ I        1916 22.66         3.2 0.10                           198 293 
 SML  HZ EP   1   1915 55.41                             117   -0.06 6  240 336 
 SML  HN ES   1   1916 23.82                             117    0.25 6  240 336 
                                                                                
