 2011  919 1829 46.0 L   6.773 -73.121139.2  RSN  9 0.3 2.1LRSN                1
 GAP=141        0.62       3.4     3.8  4.9  0.8086E+00  0.1869E+01 -0.2068E+01E
 Epicentro: LOS SANTOS - SANTANDER                                             3
 ACTION:UPD 12-07-13 15:58 OP:ep   STATUS:               ID:20110919182946 L   I
 2011-09-19-1829-47S.COL___171                                                 6
 STAT SP IPHASW D HRMM SECON CODA AMPLIT PERI AZIMU VELO AIN AR TRES W  DIS CAZ7
 BAR2 SZ EP       1830  4.98                             171    0.1610 21.1 199 
 BAR2 SZ ES   1   1830 19.76                             171    0.29 7 21.1 199 
 BAR2 SZ I        1830 21.22        15.4 0.18                          21.1 199 
 BTL  SZ EP   1   1830  4.37                             170   -0.48 7 22.8 315 
 GIR2 SZ EP   2   1830  5.02                             165    0.01 5 34.7 347 
 BRR  HZ EP       1830  6.80                             150    0.1110 75.0 300 
 BRR  HE ES       1830 22.96                             150    0.1510 75.0 300 
 BRR  HZ I        1830 28.26        32.4 0.11                          75.0 300 
 PAM  SZ EP   1   1830  7.94                             149    0.36 7 78.0  37 
 PAM  SE ES   1   1830 23.84                             149   -0.55 7 78.0  37 
 RUS  HZ EP   1   1830  9.26                             143    0.36 7 97.5 178 
 RUS  HN ES   1   1830 26.48                             143   -0.27 7 97.5 178 
 RUS  HZ I        1830 28.13        12.0 0.26                          97.5 178 
 OCA  SZ EP       1830 14.15                             127    0.00 9  164 352 
 OCA  SZ I        1830 40.92        14.1 0.43                           164 352 
 ZAR  HZ EP   2   1830 18.03                             120   -0.40 4  208 293 
 ZAR  HN ES   1   1830 43.68                             120   -0.03 6  208 293 
 ZAR  HZ I        1830 48.92        18.3 0.43                           208 293 
 NOR  SZ EP   2   1830 21.11                             117   -0.33 4  235 235 
 NOR  SN ES   2   1830 48.34                             117   -0.72 4  235 235 
                                                                                
