 2016 1219 1035 20.2 L   6.794 -73.148153.4  RSN  8 0.4 1.4LRSN                1
 GAP=137        0.88       3.6     4.4  5.3  0.2226E+01  0.3057E+01 -0.8279E+00E
 Epicentro: LOS SANTOS - SANTANDER                                             3
 ACTION:UPD 17-01-11 20:16 OP:rebc STATUS:               ID:20161219103520 L   I
 OLDACT:UP  16-12-19 22:54 OP:edw  STATUS:               ID:20161219102743d    3
 OLDACT:DUP 16-12-19 22:49 OP:edw  STATUS:               ID:20161219102743d    3
 2016-12-19-1028-00M.COL___321                                                 6
 STAT SP IPHASW D HRMM SECON CODA AMPLIT PERI AZIMU VELO AIN AR TRES W  DIS CAZ7
 BAR2 EZ IP     D 1035 40.79                             171    0.0710 22.6 190 
 BAR2 EZ ES       1035 56.43                             171   -0.3010 22.6 190 
 BAR2 EZ I        1035 57.31         3.2 0.14            169           22.6 190 
 BRR  HZ EP       1035 42.76                             154    0.5910 71.3 299 
 BRR  HE ES       1035 59.34                             154    0.0310 71.3 299 
 PAM  EZ EP       1035 43.70                             152    0.4510 78.1  39 
 PAM  EN ES       1036  0.78                             152   -0.4710 78.1  39 
 PAM  EZ I        1036  2.91         4.1 0.19            156           78.1  39 
 RUS  HZ EP       1035 44.70                             145    0.0610 99.9 176 
 RUS  HN ES       1036  3.96                             145    0.2410 99.9 176 
 RUS  HZ I        1036  6.50         2.5 0.20            146           99.9 176 
 PTB  HZ EP   9   1035 47.54                             134   -0.21 0  147 259 
 PTB  HN ES       1036  8.92                             133   -0.12 9  147 259 
 PTB  HZ I        1036 16.01         5.0 0.38            132            147 259 
 ZAR  HZ EP       1035 52.97                             124   -0.17 9  204 292 
 ZAR  HN ES       1036 18.89                             124    0.04 9  204 292 
 ZAR  HZ I        1036 25.04         2.9 0.13            123            204 292 
 CHI  HN ES       1036 27.47                             119   -0.45 8  248 195 
 SJC  HZ EP       1036 15.12                             107   -0.93 6  410 327 
 SJC  HN ES   4   1036 56.34                             107   -3.30 0  410 327 
                                                                                
