 2017  219 1856 16.0 L   6.797 -73.125144.7  RSN  6 0.4 1.7LRSN                1
 GAP=139        0.98       4.3     5.4  7.2  0.2094E+01  0.6925E+01  0.9428E+01E
 Epicentro: LOS SANTOS - SANTANDER                                             3
 ACTION:UPD 17-05-24 15:38 OP:jn   STATUS:               ID:20170219185616 L   I
 OLDACT:REG 17-02-19 21:33 OP:cog  STATUS:               ID:20170219184747     3
 2017-02-19-1848-00M.COL___352                                                 6
 STAT SP IPHASW D HRMM SECON CODA AMPLIT PERI AZIMU VELO AIN AR TRES W  DIS CAZ7
 BAR2 EZ EP       1856 35.31                             170   -0.2310 23.5 196 
 BAR2 EZ ES       1856 50.20                             170   -0.5510 23.5 196 
 BAR2 EZ I        1856 52.32         8.7 0.24            170           23.5 196 
 BRR  HZ EP       1856 37.13                             152   -0.0610 73.3 298 
 BRR  HN ES       1856 54.30                             152    0.6110 73.3 298 
 BRR  HZ I        1856 57.43        10.9 0.23            153           73.3 298 
 PAM  EZ EP       1856 38.23                             151    0.1710 76.2  38 
 PAM  EN ES       1856 55.47                             151    0.2210 76.2  38 
 PAM  EZ I        1856 57.41        15.3 0.48            154           76.2  38 
 RUS  HZ EP   1   1856 39.43                             144   -0.22 7  100 177 
 RUS  HN ES   1   1856 57.81                             144   -0.26 7  100 177 
 RUS  HZ I        1856 59.12         6.7 0.27            145            100 177 
 ZAR  HN ES       1857 13.65                             122   -0.41 8  206 292 
 CHI  HZ EP       1856 53.52                             117   -0.18 8  249 196 
 CHI  HN ES       1857 23.91                             117    0.82 8  249 196 
 CHI  HZ I        1857 26.46         2.4 0.43            118            249 196 
                                                                                
