 2014  519 1954 52.3 L   6.803 -73.150147.6  RSN  8 0.4 2.3LRSN                1
 GAP=155        1.00       5.7     4.6  8.5 -0.8544E+01  0.4707E+01  0.2177E+02E
 Epicentro: LOS SANTOS - SANTANDER                                             3
 ACTION:UPD 15-03-16 16:59 OP:nd   STATUS:               ID:20140519195452 L   I
 OLDACT:REG 14-05-19 23:27 OP:cam  STATUS:               ID:20140519195000     3
 2014-05-19-1950-00M.COL___252                                                 6
 STAT SP IPHASW D HRMM SECON CODA AMPLIT PERI AZIMU VELO AIN AR TRES W  DIS CAZ7
 BRR  HZ EP     C 1955 13.83                             153    0.1710 70.6 298 
 BRR  HN ES       1955 30.94                             153    0.6610 70.6 298 
 BRR  HZ I        1955 31.86        29.4 0.30            159           70.6 298 
 PAM  SZ EP     C 1955 14.78                             151    0.0310 77.4  40 
 PAM  SN ES       1955 31.94                             151   -0.2910 77.4  40 
 PAM  SZ I        1955 33.88        27.0 0.54            158           77.4  40 
 PAM  SZ E      C 1955 37.60                                           77.4  40 
 PTB  HZ EP       1955 18.72                             132   -0.71 9  147 259 
 PTB  HN ES       1955 39.93                             132   -0.62 9  147 259 
 PTB  HZ I        1955 42.04        44.8 0.12            135            147 259 
 NOR  HZ EP       1955 28.59                             119    0.42 8  235 234 
 NOR  HN ES       1955 55.73                             119   -0.37 8  235 234 
 NOR  HZ I        1956  1.12        14.6 0.24            120            235 234 
 CHI  HZ EP   1   1955 30.48                             117    0.31 6  249 195 
 CHI  HN ES       1955 59.88                             117    0.21 8  249 195 
 CHI  HZ I        1956 12.16         5.1 0.58            118            249 195 
 HEL  HZ EP   4   1955 34.78                             115    2.17 0  272 256 
 HEL  HN ES       1956  4.54                             115    0.52 8  272 256 
 HEL  HZ I        1956  9.91        12.8 0.30            118            272 256 
 GUY2CHZ EP   4   1955 38.29                             113    2.27 0  301 235 
 GUY2CHE ES   4   1956 11.13                             113    1.04 0  301 235 
 GUY2CHZ I        1956 20.24        10.1 0.60                           301 235 
 RREF HZ EP   4   1955 40.95                             111    2.39 0  322 229 
 DBB  SZ EP   1   1955 40.01                             110    0.17 5  339 274 
 DBB  SZ ES       1956 16.87                             110   -0.02 7  339 274 
 PRA  HZ EP   4   1955 46.34                             107    0.40 0  392 209 
                                                                                
