 2010  719 1203 24.9 L   6.777 -73.026133.9  RSN  8 0.4 1.7LRSN                1
 GAP=172        0.71       4.0     8.2  6.6 -0.2213E+01 -0.1308E+02 -0.9979E+00E
 Epicentro: CEPITA - SANTANDER                                                 3
 ACTION:UPD 10-12-01 15:18 OP:pat  STATUS:               ID:20100719120324 L   I
 2010-07-19-1159-15S.COL___122                                                 6
 STAT SP IPHASW D HRMM SECON CODA AMPLIT PERI AZIMU VELO AIN AR TRES W  DIS CAZ7
 BAR2 SZ IP       12 3 43.19                             168     0.010   27 220 
 BAR2 SZ ES   1   12 3 57.77                             168     0.3 7   27 220 
 BAR2 SZ I        12 4  0.46        13.9 0.42                            27 220 
 GIR2 SZ EP   2   12 3 43.38                             163     0.0 5   38 331 
 BRR  HZ EP   1   12 3 45.24                             146    -0.3 7   84 296 
 BRR  HN ES   1   12 4  1.88                             146     0.1 7   84 296 
 BRR  HZ I        12 4  6.44        14.8 0.09                            84 296 
 RUS  HZ EP   1   12 3 47.19                             142    -0.1 7   98 184 
 RUS  HZ I        12 3 48.08         3.0 0.10                            98 184 
 RUS  HN ES   2   12 4  4.15                             142    -0.6 5   98 184 
 GRA  SZ IP       12 3 49.21                             135     0.210  125  11 
 GRA  SZ I        12 3 50.44         6.9 0.23                           125  11 
 OCA  SZ EP   2   12 3 52.14                             126    -0.6 5  165 349 
 OCA  SZ ES   2   12 4 14.05                             126    -0.4 5  165 349 
 OCA  SZ I        12 4 16.83         6.7 0.42                           165 349 
 RREF HZ EP   2   12 4 11.91                             108     0.4 3  330 231 
 RREF HZ I        12 4 53.10         2.6 0.60                           330 231 
 PRA  HZ EP   1   12 4 19.21                             104     0.7 4  397 211 
 PRA  HN ES   2   12 4 59.61                             104    -0.8 3  397 211 
 PRA  HZ I        12 5  7.60         2.3 0.49                           397 211 
                                                                                
