 2012  119 1150  8.3 L   6.770 -73.107145.6  RSN  6 0.2 1.4LRSN                1
 GAP=143        0.39       2.8     3.0  4.0 -0.4250E+00  0.3048E+01 -0.1997E+00E
 Epicentro: LOS SANTOS - SANTANDER                                             3
 ACTION:UP  12-02-03 08:18 OP:REBC STATUS:               ID:20120119115008 L   I
 2012-01-19-1150-00M.COL___186                                                 6
 STAT SP IPHASW D HRMM SECON CODA AMPLIT PERI AZIMU VELO SNR AR TRES W  DIS CAZ7
 BAR2 SZ EP   1   1150 27.73                             171    -0.2 7   21 203 
 BAR2 SZ ES   1   1150 43.43                             171     0.2 7   21 203 
 BAR2 SZ I        1150 43.89         5.0 0.23                            21 203 
 PAM  SZ EP   1   1150 30.73                             151     0.2 7   77  35 
 PAM  SN ES   1   1150 47.66                             151    -0.2 7   77  35 
 BRR  HZ EP   2   1150 30.04                             151     0.2 5   77 299 
 BRR  HN ES   2   1150 46.53                             151     0.0 5   77 299 
 RUS  HZ EP   1   1150 31.85                             145     0.0 7   97 178 
 RUS  HN ES   1   1150 50.03                             145    -0.1 7   97 178 
 RUS  HZ I        1150 51.27         3.2 0.40                            97 178 
 PTB  HZ EP   1   1150 35.61                             131     0.0 7  151 260 
 PTB  HN ES   2   1150 56.88                             131     0.0 5  151 260 
 ZAR  HN ES   2   1151  6.92                             122    -0.1 4  209 293 
 ZAR  HZ I        1151 12.03         4.1 0.18                           209 293 
                                                                                
