 2011  519 1757 35.9 L   6.786 -73.098151.2  RSN  5 0.1 1.7LRSN                1
 GAP=143        0.36       6.9     5.2  7.9 -0.1076E+02 -0.1519E+02 -0.1361E+02E
 Epicentro: LOS SANTOS - SANTANDER                                             3
 ACTION:UP  11-06-29 08:54 OP:tino STATUS:               ID:20110519175735 L   I
 2011-05-19-1753-33S.COL___138                                                 6
 STAT SP IPHASW D HRMM SECON CODA AMPLIT PERI AZIMU VELO SNR AR TRES W  DIS CAZ7
 PAM  SZ EP       1757 58.75                             152     0.110   75  36 
 PAM  SN ES   3   1758 15.98                             152    -0.3 2   75  36 
 BRR  HZ EP       1757 57.86                             152    -0.110   77 298 
 BRR  HZ I        1757 58.10        14.1 0.23                            77 298 
 BRR  HN ES   2   1758 15.21                             152     0.1 5   77 298 
 RUS  HN ES   3   1758 18.87                             145    -0.1 2   99 179 
 BRI  SZ EP       1758  0.36                             143     0.010  108  18 
 GRA  SZ EP       1758  1.58                             138    -0.110  126  15 
 GRA  SZ I        1758  2.87         4.3 0.32                           126  15 
                                                                                
