 2016  519 1027 15.5 L   6.800 -73.141145.2  RSN  9 0.4 1.8LRSN                1
 GAP=238        0.86       4.1     4.5  5.8  0.3220E+01  0.7621E+01 -0.5799E+00E
 Epicentro: LOS SANTOS - SANTANDER                                             3
 ACTION:UPD 16-08-18 17:47 OP:cam  STATUS:               ID:20160519102715 L   I
 OLDACT:UP  16-05-19 21:04 OP:drio STATUS:               ID:20160519101745     3
 OLDACT:REG 16-05-19 20:18 OP:drio STATUS:               ID:20160519101745     3
 2016-05-19-1017-45M.COL___294                                                 6
 STAT SP IPHASW D HRMM SECON CODA AMPLIT PERI AZIMU VELO AIN AR TRES W  DIS CAZ7
 BAR2 EZ EP       1027 34.97                             171   -0.0710 23.4 191 
 BAR2 EZ ES       1027 50.61                             171    0.3110 23.4 191 
 BAR2 EZ I        1027 51.37         7.0 0.22            178           23.4 191 
 BRR  HZ EP       1027 36.94                             152    0.3510 71.7 298 
 BRR  HE ES   4   1027 54.50                             152    1.44 0 71.7 298 
 BRR  HZ I        1027 54.71         9.2 0.34            143           71.7 298 
 RUS  HZ EP       1027 39.35                             144    0.1910  101 176 
 RUS  HN ES       1027 57.39                             144   -0.2510  101 176 
 RUS  HZ I        1028  0.18         4.6 0.60            145            101 176 
 PTB  HZ EP       1027 41.79                             132   -0.65 9  148 259 
 PTB  HN ES       1028  3.07                             132   -0.40 9  148 259 
 PTB  HZ I        1028  9.01         8.3 0.54            127            148 259 
 SPBC HZ EP       1027 43.94                             129   -0.01 9  163 219 
 SPBC HN ES       1028  5.82                             129   -0.35 9  163 219 
 SPBC HZ I        1028  9.41         9.5 0.12            127            163 219 
 ZAR  HZ EP       1027 47.63                             122   -0.30 9  205 292 
 ZAR  HN ES       1028 13.79                             122    0.54 9  205 292 
 ZAR  HZ I        1028 19.54         9.6 0.56            115            205 292 
 NOR  HZ EP       1027 51.17                             118   -0.04 8  235 235 
 NOR  HN ES       1028 19.37                             118    0.29 8  235 235 
 NOR  HZ I        1028 23.93         5.3 0.16            114            235 235 
 PRA  HZ EP       1028  9.26                             106    0.26 6  392 210 
 PRA  HE ES       1028 51.45                             106    0.71 6  392 210 
 PRA  HZ I        1028 54.17         1.7 0.26            102            392 210 
 SJC  HZ EP   4   1028  9.21                             106   -1.84 0  410 327 
 SJC  HZ I        1028 51.73         2.1 0.50            100            410 327 
 SJC  HN ES   4   1028 52.04                             106   -2.36 0  410 327 
                                                                                
