 2017  119 1449 21.9 L   6.777 -73.154151.0  RSN  5 0.4 1.4LRSN                1
 GAP=137        0.82       5.5     6.9  6.3  0.1165E+02 -0.2006E+01 -0.4857E+01E
 Epicentro: LOS SANTOS - SANTANDER                                             3
 ACTION:UPD 17-05-22 16:01 OP:jn   STATUS:               ID:20170119144921 L   I
 OLDACT:UP  17-01-20 00:57 OP:cog  STATUS:               ID:20170119144157     3
 OLDACT:REG 17-01-19 21:57 OP:cog  STATUS:               ID:20170119144157     3
 2017-01-19-1448-00M.COL___330                                                 6
 STAT SP IPHASW D HRMM SECON CODA AMPLIT PERI AZIMU VELO AIN AR TRES W  DIS CAZ7
 BAR2 EZ EP       1449 41.96                             172   -0.1810 20.7 189 
 BAR2 EZ ES       1449 57.63                             172   -0.2810 20.7 189 
 BAR2 EZ I        1449 59.75         6.5 0.26            171           20.7 189 
 BRR  HZ EP       1449 44.28                             153    0.6110 71.7 301 
 BRR  HN ES       1450  0.78                             153    0.1510 71.7 301 
 PAM  EZ EP       1449 44.79                             151   -0.0610 79.9  39 
 PAM  EN ES   3   1450  1.74                             151   -0.99 2 79.9  39 
 PAM  EZ I        1450  3.69         7.6 0.52            153           79.9  39 
 RUS  HZ EP       1449 46.04                             146    0.0210 98.1 175 
 RUS  HN ES       1450  5.09                             146    0.2710 98.1 175 
 RUS  HZ I        1450  6.55         2.7 0.16            146           98.1 175 
 PTB  HZ EP       1449 48.74                             133   -0.47 9  146 260 
 PTB  HN ES   3   1450  9.39                             133   -1.09 2  146 260 
 PTB  HZ I        1450 11.67         2.9 0.11            135            146 260 
                                                                                
