 2016  919 1414 17.7 L   6.281 -73.581117.7  RSN  4 0.2 1.3LRSN                1
 GAP=234        0.60       7.5     3.2  5.8  0.4766E+01  0.5801E+01 -0.4552E+01E
 Epicentro: SANTA HELENA DEL OPON - SANTANDER                                  3
 ACTION:UPD 17-08-17 21:14 OP:lp   STATUS:               ID:20160919141417 L   I
 OLDACT:UP  16-09-20 00:05 OP:edw  STATUS:               ID:20160919140743     3
 OLDACT:REG 16-09-19 20:55 OP:edw  STATUS:               ID:20160919140743     3
 2016-09-19-1408-00M.COL___360                                                 6
 STAT SP IPHASW D HRMM SECON CODA AMPLIT PERI AZIMU VELO AIN AR TRES W  DIS CAZ7
 BAR2 EZ IP     C 1414 35.53                             153    0.2210 56.0  52 
 BAR2 EZ ES       1414 49.08                             153    0.0410 56.0  52 
 BAR2 EZ I        1414 49.72         7.3 0.10            158           56.0  52 
 BRR  HZ EP       1414 37.04                             139   -0.4310 92.5 351 
 PTB  HZ EP       1414 38.28                             136    0.0910  101 286 
 PTB  HZ I        1414 50.01         3.0 0.15            130            101 286 
 PTB  HN ES       1414 54.05                             136   -0.1210  101 286 
 ZAR  HZ EP       1414 47.48                             117    0.03 9  195 314 
 ZAR  HN ES       1415 10.90                             117    0.24 9  195 314 
 ZAR  HZ I        1415 13.10         2.5 0.18            115            195 314 
                                                                                
