 2014 1019 1901 55.3 L   6.732 -73.200148.4  RSN  4 0.3 1.6LRSN                1
 GAP=226        0.86       7.0     7.1  8.3  0.2642E+02  0.3419E+01  0.3350E+01E
 Epicentro: VILLANUEVA - SANTANDER                                             3
 ACTION:UPD 14-11-29 23:51 OP:nd   STATUS:               ID:20141019190155 L   I
 OLDACT:REG 14-10-19 21:29 OP:cam  STATUS:               ID:20141019185816     3
 2014-10-19-1858-16M.COL___267                                                 6
 STAT SP IPHASW D HRMM SECON CODA AMPLIT PERI AZIMU VELO AIN AR TRES W  DIS CAZ7
 BAR2 SZ ES       19 2 30.07                             174   -0.5110 15.6 173 
 BAR2 SZ I        19 2 31.24         7.9 0.28            173           15.6 173 
 BRR  HZ EP       19 2 16.57                             153   -0.1110 70.1 306 
 BRR  HN ES       19 2 33.81                             153    0.4610 70.1 306 
 BRR  HN I        19 2 34.26        20.1 0.48            155           70.1 306 
 RUS  HZ EP       19 2 18.85                             146    0.0110 93.8 172 
 RUS  HN ES       19 2 37.52                             146    0.3210 93.8 172 
 RUS  HZ I        19 2 38.80         3.1 0.22            147           93.8 172 
 PTB  HN ES       19 2 42.35                             134   -0.20 9  141 261 
                                                                                
