 2013  219 1547 21.2 L   6.821 -73.174143.3  RSN 15 0.5 2.9LRSN                1
 GAP= 69        1.07       3.0     3.3  5.7  0.2281E+00  0.5815E+01 -0.3129E+00E
 Epicentro: LOS SANTOS - SANTANDER                                             3
 ACTION:UPD 13-03-12 09:34 OP:ep   STATUS:               ID:20130219154721 L   I
 2013-02-19-1540-00M.COL___241                                                 6
 STAT SP IPHASW D HRMM SECON CODA AMPLIT PERI AZIMU VELO AIN AR TRES W  DIS CAZ7
 BAR2 SZ EP       1547 40.64                             169    0.0210 25.3 182 
 BAR2 SZ ES       1547 55.42                             169   -0.3110 25.3 182 
 BAR2 SZ I        1547 57.18       169.2 0.18            168           25.3 182 
 BRR  HZ IP     C 1547 42.41                             153    0.5010 67.3 298 
 BRR  HN I        1548  0.29       208.6 0.26            148           67.3 298 
 PAM  SZ EP       1547 43.53                             150    0.3210 77.7  42 
 PAM  SN ES       1548  0.68                             150    0.3310 77.7  42 
 PAM  SN I        1548  2.66        95.9 0.54            150           77.7  42 
 RUS  HZ EP       1547 44.51                             143   -0.4310  103 174 
 RUS  HE ES   1   1548  3.32                             143   -0.11 7  103 174 
 RUS  HN I        1548  4.04        59.9 0.24            141            103 174 
 PTB  HZ EP       1547 47.37                             132   -0.41 9  145 258 
 PTB  HN ES       1548  8.57                             132            145 258 
 PTB  HN IS       1548  8.57                             132    0.10 9  145 258 
 PTB  HN I        1548 13.43       102.2 0.28            127            145 258 
 OCA  HZ EP   1   1547 49.50                             130    0.39 7  158 354 
 OCA  HN ES   1   1548  9.72                             130   -1.13 7  158 354 
 OCA  HN I        1548 19.30       162.3 0.36            126            158 354 
 TAM  HZ EP       1547 49.02                             129   -0.05 9  159 106 
 TAM  HN ES       1548 10.80                             129    0.03 9  159 106 
 TAM  HN I        1548 11.49        84.9 0.38            129            159 106 
 ZAR  HZ EP       1547 53.18                             122    0.04 9  200 292 
 ZAR  HN ES       1548 18.47                             122    0.45 9  200 292 
 ZAR  HN I        1548 26.39        66.9 0.14            118            200 292 
 SML  HZ EP       1547 57.44                             117    0.08 8  240 336 
 SML  HE ES   1   1548 26.19                             117    0.66 6  240 336 
 SML  HE I        1548 30.15       104.1 0.10            114            240 336 
 CHI  HZ EP       1547 58.68                             116   -0.29 8  250 194 
 CHI  HN ES       1548 28.13                             116   -0.26 8  250 194 
 CHI  HN I        1548 30.67        64.1 0.46            114            250 194 
 ROSC BZ EP       1548  0.57                             116    1.29 8  253 210 
 ROSC BZ I        1548 35.12        61.7 0.35            113            253 210 
 HEL  HZ EP       1548  0.81                             114   -0.25 8  270 255 
 HEL  HE ES   1   1548 31.74                             114   -0.38 6  270 255 
 HEL  HE I        1548 38.67        21.2 0.22            111            270 255 
 URE  HZ EP       1548  0.85                             113   -0.92 7  280 292 
 RREF HZ EP       1548  7.78                             110    0.59 7  321 229 
 COD  HZ EP       1548  8.60                             109   -0.62 6  346 355 
 COD  HN ES   1   1548 46.32                             109   -0.32 5  346 355 
 COD  HN I        1548 53.22        13.9 0.58            106            346 355 
                                                                                
