 2014  719 1133 47.3 L   6.823 -73.143140.7  RSN 11 0.4 2.2LRSN                1
 GAP=133        0.92       2.9     3.9  5.5 -0.1407E+01  0.4567E+00 -0.6170E+00E
 Epicentro: LOS SANTOS - SANTANDER                                             3
 ACTION:UPD 15-03-16 20:45 OP:nd   STATUS:               ID:20140719113347 L   I
 OLDACT:REG 14-07-19 21:02 OP:stll STATUS:               ID:20140719112813     3
 2014-07-19-1128-13M.COL___269                                                 6
 STAT SP IPHASW D HRMM SECON CODA AMPLIT PERI AZIMU VELO AIN AR TRES W  DIS CAZ7
 BAR2 SZ IP     C 1134  6.84                             169    0.5110 25.8 190 
 BAR2 SZ ES       1134 21.29                             169    0.0810 25.8 190 
 BAR2 SZ I        1134 22.93        30.5 0.28            167           25.8 190 
 PTB  HZ EP       1134 13.41                             131   -0.48 9  149 258 
 PTB  HN ES       1134 34.53                             131   -0.14 9  149 258 
 PTB  HZ I        1134 42.36        14.4 0.34            130            149 258 
 SPBC HZ EP       1134 15.74                             128    0.16 9  165 219 
 SPBC HN ES       1134 37.75                             128    0.08 9  165 219 
 SPBC HZ I        1134 42.81        20.8 0.40            128            165 219 
 ZAR  HZ EP       1134 19.55                             121    0.24 9  203 291 
 ZAR  HE ES       1134 44.52                             121    0.20 9  203 291 
 ZAR  HZ I        1134 51.14        15.4 0.30            122            203 291 
 NOR  HZ EP       1134 22.87                             117   -0.02 8  236 234 
 NOR  HN ES       1134 50.42                             117   -0.25 8  236 234 
 NOR  HZ I        1134 54.65         8.3 0.24            118            236 234 
 SML  HZ EP       1134 23.11                             117   -0.26 8  242 335 
 SML  HN ES       1134 51.68                             117    0.14 8  242 335 
 SML  HZ I        1134 55.22        18.9 0.24            118            242 335 
 CHI  HZ EP       1134 24.68                             116   -0.27 8  251 195 
 CHI  HN ES       1134 53.61                             116   -0.75 8  251 195 
 CHI  HZ I        1135  0.18         4.9 0.58            117            251 195 
 HEL  HZ EP       1134 27.54                             114    0.22 8  273 255 
 HEL  HN ES       1134 57.68                             114   -0.89 8  273 255 
 HEL  HZ I        1135  5.51         6.1 0.36            114            273 255 
 SOCV BZ EP       1134 29.45                             111   -0.44 7  300  57 
 GUY2CHZ EP       1134 31.32                             111    0.49 7  303 234 
 GUY2CHN ES       1135  5.12                             111    0.30 7  303 234 
 GUY2CHZ I        1135 13.69        10.4 0.76                           303 234 
 PRA  HZ EP       1134 41.27                             106    0.39 6  394 209 
 PRA  HN ES       1135 23.91                             106    1.20 6  394 209 
 PRA  HZ I        1135 28.60         6.0 0.34            107            394 209 
                                                                                
