 2012  919 1054 45.5 L   6.763 -73.126147.9  RSN 11 0.3 2.3LRSN                1
 GAP= 73        0.60       2.8     2.6  3.9 -0.1374E+00  0.1251E+01  0.1826E+01E
 Epicentro: LOS SANTOS - SANTANDER                                             3
 ACTION:UPD 12-10-22 14:19 OP:ep   STATUS:               ID:20120919105445 L   I
 2012-09-19-1050-00M.COL___226                                                 6
 STAT SP IPHASW D HRMM SECON CODA AMPLIT PERI AZIMU VELO AIN AR TRES W  DIS CAZ7
 BAR2 SZ EP       1055  5.30                             172   -0.0310 19.9 198 
 BAR2 SZ ES       1055 20.53                             172   -0.2610 19.9 198 
 BAR2 SZ I        1055 22.95        59.3 0.10                          19.9 198 
 GIR2 SZ EP   1   1055  5.44                             166   -0.12 7 35.7 348 
 BRR  HZ EP       1055  7.28                             152    0.1710 75.1 300 
 BRR  HZ I        1055  8.86        41.1 0.14                          75.1 300 
 BRR  HN ES       1055 24.42                             152    0.4610 75.1 300 
 PAM  SZ EP       1055  8.09                             151    0.0310 79.3  36 
 PAM  SN ES   1   1055 25.38                             151   -0.27 7 79.3  36 
 PAM  SZ I        1055 27.64        31.4 0.21                          79.3  36 
 RUS  HZ EP       1055  9.22                             145    0.0510 96.3 177 
 RUS  HN ES   1   1055 27.73                             145    0.10 7 96.3 177 
 RUS  HZ I        1055 29.15        17.3 0.50                          96.3 177 
 PTB  HZ EP   1   1055 12.18                             132   -0.59 7  149 261 
 PTB  HE ES   2   1055 33.54                             132   -0.50 5  149 261 
 TAM  HZ EP   1   1055 13.45                             132    0.39 7  152 104 
 ZAR  HZ EP   1   1055 18.07                             122   -0.39 6  208 293 
 ZAR  HE ES   1   1055 43.95                             122   -0.21 6  208 293 
 ZAR  HZ I        1055 49.75        26.4 0.28                           208 293 
 NOR  SN ES   1   1055 49.47                             119    0.25 6  234 236 
 CHI  HZ EP   1   1055 23.13                             118    0.18 6  245 196 
 CHI  HE ES   1   1055 51.88                             118   -0.29 6  245 196 
 CHI  HZ I        1055 58.67         9.9 0.52                           245 196 
 HEL  HZ EP   2   1055 25.99                             115    0.04 4  273 257 
 HEL  HN ES   1   1055 57.87                             115    0.37 6  273 257 
 HEL  HZ I        1056  4.28        10.8 0.40                           273 257 
                                                                                
