 2014 1219 1728  2.3 L   6.789 -73.122146.3  RSN 15 0.4 2.0LRSN                1
 GAP=140        1.00       2.9     4.0  5.5 -0.1945E+01  0.4649E+01  0.7278E+00E
 Epicentro: LOS SANTOS - SANTANDER                                             3
 ACTION:UPD 15-02-10 17:05 OP:nd   STATUS:               ID:20141219172802 L   I
 OLDACT:UP  14-12-20 00:37 OP:spq  STATUS:               ID:20141219171748     3
 OLDACT:REG 14-12-19 21:09 OP:spq  STATUS:               ID:20141219171748     3
 2014-12-19-1717-48M.COL___299                                                 6
 STAT SP IPHASW D HRMM SECON CODA AMPLIT PERI AZIMU VELO AIN AR TRES W  DIS CAZ7
 BAR2 EZ EP     C 1728 21.93                             171   -0.0410 22.7 197 
 BAR2 EZ ES   1   1728 36.84                             171   -0.48 7 22.7 197 
 BAR2 EZ I        1728 38.25        24.1 0.44            168           22.7 197 
 BRR  HZ EP       1728 23.84                             152    0.1810 74.0 298 
 BRR  HN ES       1728 41.05                             152    0.7310 74.0 298 
 BRR  HZ I        1728 43.57        15.5 0.28            150           74.0 298 
 PAM  SZ EP       1728 24.88                             151    0.3610 76.7  37 
 PAM  SE ES       1728 41.89                             151    0.0310 76.7  37 
 PAM  SZ I        1728 44.06        11.5 0.46            156           76.7  37 
 RUS  HZ EP       1728 25.68                             144   -0.3110 99.2 177 
 RUS  HN ES       1728 44.76                             144    0.2810 99.2 177 
 RUS  HZ I        1728 46.51         6.1 0.26            145           99.2 177 
 PTB  HZ EP       1728 28.60                             132   -0.91 9  150 259 
 PTB  HE ES       1728 49.94                             132   -0.80 9  150 259 
 PTB  HZ I        1728 55.65        17.8 0.26            131            150 259 
 OCA  HZ EP       1728 31.43                             130    0.65 9  162 352 
 OCA  HN ES   1   1728 52.68                             130   -0.33 7  162 352 
 OCA  HZ I        1728 55.40         8.6 0.40            132            162 352 
 SPBC HZ EP       1728 30.82                             129   -0.07 9  164 220 
 SPBC HN ES       1728 53.21                             129    0.01 9  164 220 
 SPBC HZ I        1728 57.36        22.2 0.26            129            164 220 
 ZAR  HN ES       1729  0.74                             122    0.12 8  207 292 
 ZAR  HZ I        1729  5.94        11.3 0.32            123            207 292 
 NOR  HZ EP       1728 38.14                             119   -0.06 8  236 235 
 NOR  HN ES       1729  6.60                             119    0.39 8  236 235 
 NOR  HZ I        1729 12.21        10.6 0.34            119            236 235 
 SML  HZ EP   1   1728 38.63                             117   -0.55 6  246 335 
 SML  HN ES   1   1729  7.59                             117   -0.37 6  246 335 
 SML  HZ I        1729  9.23         9.3 0.10            119            246 335 
 CHI  HZ EP       1728 39.89                             117   -0.07 8  248 196 
 CHI  HN ES   1   1729  9.20                             117   -0.15 6  248 196 
 CHI  HZ I        1729 14.99         4.2 0.42            119            248 196 
 HEL  HZ EP   1   1728 43.56                             115    0.79 6  274 256 
 HEL  HN ES   4   1729 15.47                             115    1.12 0  274 256 
 HEL  HZ I        1729 20.52         7.5 0.38            115            274 256 
 TOL  SZ EP   4   1728 51.73                             109    1.06 0  344 225 
 TOL  SN ES   1   1729 28.68                             109    0.27 5  344 225 
 TOL  SZ I        1729 33.80        12.3 0.46            110            344 225 
 MON  HZ EP   1   1728 51.59                             109   -0.04 5  356 308 
 MON  HN ES   4   1729 25.94                             109   -4.18 0  356 308 
 MON  HZ I        1729 30.44         1.7 0.32            110            356 308 
 SJC  HZ EP   4   1728 56.37                             106   -1.78 0  412 327 
 SJC  HE ES   4   1729 38.09                             106   -3.63 0  412 327 
 SJC  HZ I        1729 43.57         1.5 0.62            107            412 327 
                                                                                
