 2014  819 1204 44.9 L   6.782 -73.182142.7  RSN  6 0.5 1.5LRSN                1
 GAP=197        1.39       6.8     9.7 11.2  0.1742E+02  0.1912E+02 -0.2543E+02E
 Epicentro: LOS SANTOS - SANTANDER                                             3
 ACTION:UPD 14-09-15 21:51 OP:nd   STATUS:               ID:20140819120444 L   I
 OLDACT:DUP 14-08-20 00:34 OP:stll STATUS:               ID:20140819115821d    3
 2014-08-19-1158-19M.COL___254                                                 6
 STAT SP IPHASW D HRMM SECON CODA AMPLIT PERI AZIMU VELO AIN AR TRES W  DIS CAZ7
 BAR2 SZ EP       12 5  4.26                             171    0.1510 21.0 180 
 BAR2 SZ ES       12 5 19.56                             171    0.4610 21.0 180 
 BAR2 SZ I        12 5 21.41         6.6 0.18            172           21.0 180 
 BRR  HZ EP       12 5  6.31                             153    0.7410 68.7 302 
 RUS  HZ EP       12 5  8.70                             144    0.4710 99.0 174 
 RUS  HE ES       12 5 25.30                             144   -1.1310 99.0 174 
 RUS  HZ I        12 5 27.91         3.7 0.24            148           99.0 174 
 PTB  HZ EP       12 5 10.90                             132   -0.33 9  143 259 
 PTB  HN ES       12 5 31.78                             132    0.02 9  143 259 
 PTB  HZ I        12 5 36.87         4.9 0.30            133            143 259 
 SPBC HZ EP       12 5 13.04                             129    0.26 9  159 218 
 SML  HZ EP       12 5 20.86                             117   -0.51 8  244 336 
 SML  HN ES       12 5 49.33                             117   -0.48 8  244 336 
 SML  HZ I        12 5 54.01         4.0 0.10            119            244 336 
                                                                                
