 2014  919 1318 54.3 L   6.560 -73.451176.6  RSN  4 0.3 1.6LRSN                1
 GAP=118        0.69       7.0     6.0  7.4  0.1443E+02 -0.3344E+01  0.7357E+01E
 Epicentro: HATO - SANTANDER                                                   3
 ACTION:UPD 14-10-03 23:06 OP:nd   STATUS:               ID:20140919131854 L   I
 OLDACT:REG 14-09-19 16:59 OP:spq  STATUS:               ID:20140919131818     3
 2014-09-19-1318-18M.COL___281                                                 6
 STAT SP IPHASW D HRMM SECON CODA AMPLIT PERI AZIMU VELO AIN AR TRES W  DIS CAZ7
 BAR2 SZ EP   1   1319 17.90                             170    0.08 7 29.9  83 
 BRR  HZ EP   1   1319 19.29                             158    0.58 7 67.0 335 
 BRR  HN ES       1319 37.47                             158   -0.2410 67.0 335 
 BRR  HZ I        1319 41.34        11.1 0.44            157           67.0 335 
 RUS  HZ EP   1   1319 20.23                             154   -0.06 7 84.3 151 
 RUS  HE ES   1   1319 40.57                             154    0.05 7 84.3 151 
 RUS  HZ I        1319 41.62         4.4 0.26            155           84.3 151 
 PTB  HZ EP       1319 20.88                             146   -0.3710  111 269 
 PTB  HN ES       1319 42.47                             146    0.2410  111 269 
 PTB  HZ I        1319 53.72         4.4 0.21            141            111 269 
                                                                                
