 2017  219 1714 45.1 L   6.717 -73.144130.6  RSN  5 0.4 1.5LRSN                1
 GAP=140        0.89       5.6     5.4  9.6 -0.1163E+02  0.1807E+02 -0.2099E+02E
 Epicentro: JORDAN - SANTANDER                                                 3
 ACTION:UPD 17-05-24 15:38 OP:jn   STATUS:               ID:20170219171445 L   I
 OLDACT:UP  17-02-20 00:21 OP:cog  STATUS:               ID:20170219170745     3
 OLDACT:REG 17-02-19 21:26 OP:cog  STATUS:               ID:20170219170745     3
 2017-02-19-1708-00M.COL___352                                                 6
 STAT SP IPHASW D HRMM SECON CODA AMPLIT PERI AZIMU VELO AIN AR TRES W  DIS CAZ7
 BAR2 EZ ES       1715 15.91         6.5 0.18            173   -0.5910 14.4 197 
 BAR2 EZ I        1715 19.29         6.5 0.18            174           14.4 197 
 BRR  HZ EP       1715  4.80                             148   -0.1410 76.1 305 
 BRR  HN ES   3   1715 21.65                             148    1.24 2 76.1 305 
 BRR  HZ I        1715 25.43        10.9 0.32            147           76.1 305 
 PAM  EZ EP       1715  5.93                             145   -0.2710 84.6  35 
 PAM  EE ES       1715 23.11                             145    0.4410 84.6  35 
 PAM  EZ I        1715 24.89         6.3 0.44            148           84.6  35 
 RUS  HZ EP   3   1715  7.53                             143    0.84 2 91.4 176 
 RUS  HN ES       1715 23.81                             143    0.2710 91.4 176 
 PTB  HN ES       1715 30.92                             128    0.18 9  146 262 
                                                                                
