 2012  319 1037  1.3 L   6.758 -73.133148.7  RSN  8 0.4 1.9LRSN                1
 GAP=140        0.94       5.1     4.8  7.5 -0.6850E+00  0.1305E+02  0.6718E+01E
 ACTION:UP  12-03-31 23:21 OP:EP   STATUS:               ID:20120319103701 L   I
 2012-03-19-1030-00M.COL___202                                                 6
 STAT SP IPHASW D HRMM SECON CODA AMPLIT PERI AZIMU VELO SNR AR TRES W  DIS CAZ7
 BAR2 SZ EP   1   1037 21.22                             172     0.0 7   19 197 
 BAR2 SZ ES   1   1037 36.34                             172    -0.4 7   19 197 
 BAR2 SZ I        1037 38.87        13.4 0.32                            19 197 
 BRR  HZ EP   1   1037 23.15                             152     0.2 7   75 301 
 BRR  HN ES   1   1037 40.70                             152     0.9 7   75 301 
 BRR  HZ I        1037 44.04        17.2 0.11                            75 301 
 PAM  SZ EP   1   1037 23.77                             150    -0.2 7   80  37 
 PAM  SN ES       1037 41.67                             150     0.010   80  37 
 RUS  HZ EP   1   1037 25.07                             146     0.1 7   96 177 
 RUS  HN ES   1   1037 43.53                             146     0.0 7   96 177 
 RUS  HZ I        1037 45.38         7.2 0.15                            96 177 
 PTB  HZ EP   1   1037 28.07                             132    -0.5 7  148 261 
 PTB  HN ES   1   1037 48.94                             132    -0.9 7  148 261 
 PTB  HZ I        1037 56.55        13.3 0.36                           148 261 
 ZAR  HZ EP   1   1037 33.79                             123    -0.5 6  207 293 
 ZAR  HN ES       1038  0.04                             123     0.1 8  207 293 
 ZAR  HZ I        1038  5.77        11.0 0.20                           207 293 
 NOR  SZ EP   1   1037 37.66                             119     0.6 6  233 236 
 NOR  SN ES   1   1038  5.26                             119     0.3 6  233 236 
 PRA  HZ EP   1   1037 54.89                             107     0.4 4  389 210 
                                                                                
