 2011  719 1951 14.3 L   6.767 -73.059138.0  RSN  5 0.3 1.7LRSN                1
 GAP=166        0.57       4.0     7.6  6.4  0.4103E+01 -0.1682E+02 -0.6814E+01E
 Epicentro: LOS SANTOS - SANTANDER                                             3
 ACTION:UPD 12-07-25 14:02 OP:epov STATUS:               ID:20110719195114 L   I
 2011-07-19-1948-04S.COL___143                                                 6
 STAT SP IPHASW D HRMM SECON CODA AMPLIT PERI AZIMU VELO AIN AR TRES W  DIS CAZ7
 BAR2 SZ EP   1   1951 32.79                             170   -0.19 7 23.6 215 
 BAR2 SZ ES   1   1951 47.57                             170    0.01 7 23.6 215 
 BAR2 SZ I        1951 48.67        14.4 0.16                          23.6 215 
 BRR  HZ EP   1   1951 34.66                             148   -0.57 7 81.4 298 
 BRR  HE ES   1   1951 51.75                             148    0.19 7 81.4 298 
 BRR  HZ I        1951 56.45        15.2 0.14                          81.4 298 
 RUS  HZ EP   1   1951 37.06                             143    0.07 7 96.7 182 
 RUS  HE ES   2   1951 55.02                             143    0.33 5 96.7 182 
 RUS  HZ I        1951 56.14         4.3 0.35                          96.7 182 
 BRI  SZ EP   1   1951 37.53                             139    0.05 7  109  15 
 BRI  SZ ES   2   1951 55.24                             139   -0.33 5  109  15 
 BRI  SZ I        1952  1.31         7.8 0.33                           109  15 
 OCA  SZ EP   1   1951 42.97                             127    0.48 7  165 350 
 OCA  SZ ES   3   1952  5.06                             127    0.57 2  165 350 
                                                                                
