 2012  919 1818 37.1 L   6.721 -73.143136.2  RSN  6 0.3 1.8LRSN                1
 GAP=140        0.61       4.1     4.3  6.5 -0.3827E+01  0.8027E+00 -0.3819E+01E
 Epicentro: JORDAN - SANTANDER                                                 3
 ACTION:UPD 12-10-22 14:19 OP:ep   STATUS:               ID:20120919181837 L   I
 2012-09-19-1810-00M.COL___226                                                 6
 STAT SP IPHASW D HRMM SECON CODA AMPLIT PERI AZIMU VELO AIN AR TRES W  DIS CAZ7
 BAR2 SZ EP   1   1818 55.55                             173    0.13 7 14.9 197 
 BAR2 SZ ES   1   1819  9.99                             173    0.28 7 14.9 197 
 BAR2 SZ I        1819 11.67        12.8 0.16                          14.9 197 
 GIR2 SZ EP   1   1818 55.76                             163   -0.15 7 40.0 352 
 BRR  HZ EP   1   1818 57.59                             149    0.08 7 76.0 304 
 BRR  HZ I        1819  0.88        10.4 0.07                          76.0 304 
 BRR  HN ES   2   1819 13.94                             149    0.51 5 76.0 304 
 PAM  SZ EP       1818 58.63                             147   -0.1110 84.1  36 
 PAM  SZ I        1818 59.00        16.4 0.25                          84.1  36 
 PAM  SN ES   1   1819 15.42                             147   -0.19 7 84.1  36 
 RUS  HZ EP   1   1818 59.78                             144    0.51 7 91.8 176 
 RUS  HE ES   1   1819 16.18                             144   -0.39 7 91.8 176 
 PTB  HN ES   1   1819 23.18                             130   -0.36 7  147 262 
                                                                                
