 2010 1019 1059 27.3 L   7.345 -73.210135.2  RSN  5 0.3 1.9LRSN                1
 GAP=146        0.68       5.4    10.3 10.0 -0.2189E+02 -0.2066E+02  0.7974E+01E
 Epicentro: RIONEGRO - SANTANDER                                               3
 ACTION:UP  11-02-18 11:10 OP:tino STATUS:               ID:20101019105927 L   I
 2010-10-19-1054-46S.COL___123                                                 6
 STAT SP IPHASW D HRMM SECON CODA AMPLIT PERI AZIMU VELO SNR AR TRES W  DIS CAZ7
 BRR  HZ EP   1   1059 46.77                             154     0.0 7   61 245 
 BRR  HZ I        1059 47.28        33.0 0.15                            61 245 
 BRR  HE ES   2   11 0  1.98                             154     0.0 5   61 245 
 GUE  SZ EP   1   1059 46.80                             154    -0.5 7   62  30 
 GRA  SZ EP   1   1059 48.35                             149     0.6 7   75  37 
 GRA  SZ ES   2   11 0  3.53                             149    -0.2 5   75  37 
 GRA  SZ I        11 0  5.87        29.9 0.34                            75  37 
 BAR2 SZ EP   1   1059 48.64                             147     0.2 7   83 178 
 BAR2 SZ ES   2   11 0  5.06                             147     0.1 5   83 178 
 BAR2 SZ I        11 0  6.26        20.4 0.28                            83 178 
 RUS  HZ EP   1   1059 55.15                             127    -0.2 7  161 175 
 RUS  HZ I        1059 56.38         2.8 0.22                           161 175 
 RUS  HN ES   2   11 0 17.17                             127    -0.1 5  161 175 
                                                                                
