 2012  819 1635 26.7 L   6.768 -73.106145.2  RSN  6 0.2 1.9LRSN                1
 GAP=143        0.56       2.5     4.7  4.8 -0.8087E+00 -0.2159E+01  0.2640E+01E
 Epicentro: LOS SANTOS - SANTANDER                                             3
 ACTION:UPD 12-09-10 11:57 OP:ep   STATUS:               ID:20120819163526 L   I
 2012-08-19-1630-00M.COL___217                                                 6
 STAT SP IPHASW D HRMM SECON CODA AMPLIT PERI AZIMU VELO AIN AR TRES W  DIS CAZ7
 BAR2 SZ EP       1635 46.12                             171   -0.1110 21.2 203 
 BAR2 SZ ES   1   1636  0.91                             171   -0.55 7 21.2 203 
 BAR2 SZ I        1636  2.82        44.5 0.11                          21.2 203 
 BRR  HZ EP       1635 48.07                             150   -0.0510 76.7 299 
 BRR  HZ I        1635 48.28        10.1 0.16                          76.7 299 
 BRR  HN ES       1636  5.11                             150    0.2810 76.7 299 
 PAM  SZ EP       1635 49.09                             151    0.2210 77.5  35 
 PAM  SZ I        1635 49.41        15.8 0.20                          77.5  35 
 PAM  SE ES   1   1636  6.30                             151    0.14 7 77.5  35 
 RUS  HZ EP   1   1635 50.14                             145    0.00 7 96.9 179 
 RUS  HE ES   1   1636  8.58                             145    0.16 7 96.9 179 
 RUS  HZ I        1636 10.27         9.3 0.29                          96.9 179 
 OCA  HN ES   1   1636 17.34                             129   -0.37 7  164 352 
 OCA  HZ I        1636 21.25        12.8 0.31                           164 352 
 CHI  HZ EP   1   1636  4.01                             117   -0.13 6  246 196 
 CHI  HZ I        1636  5.20         3.2 0.09                           246 196 
 CHI  HN ES   1   1636 33.43                             117    0.09 6  246 196 
                                                                                
