 2013  619 1740  8.4 L   6.774 -73.162153.5  RSN  8 0.4 1.9LRSN                1
 GAP=181        0.85       4.1     5.3  7.0  0.3973E+01 -0.6147E+00 -0.2290E+01E
 Epicentro: LOS SANTOS - SANTANDER                                             3
 ACTION:UPD 14-01-08 09:55 OP:ep   STATUS:               ID:20130619174008 L   I
 OLDACT:REG 13-06-19 16:08 OP:cam  STATUS:               ID:20130619173959     3
 2013-06-19-1739-59M.COL___261                                                 6
 STAT SP IPHASW D HRMM SECON CODA AMPLIT PERI AZIMU VELO AIN AR TRES W  DIS CAZ7
 BAR2 SZ EP       1740 28.93                             172   -0.0310 20.2 186 
 BAR2 SZ ES   2   1740 44.37                             172   -0.58 5 20.2 186 
 GIR2 SZ EP       1740 28.94                             167   -0.1810 33.9 354 
 BRR  HZ EP   1   1740 30.83                             154    0.39 7 71.1 301 
 BRR  HN ES       1740 48.23                             154    0.6410 71.1 301 
 RUS  HZ EP       1740 33.02                             146    0.2410 97.8 175 
 RUS  HE ES       1740 51.70                             146   -0.0610 97.8 175 
 RUS  HZ I        1740 53.16         7.7 0.30            149           97.8 175 
 PTB  HZ EP       1740 35.38                             135   -0.48 9  145 260 
 PTB  HN ES       1740 56.71                             135   -0.53 9  145 260 
 PTB  HZ I        1741  0.19        12.2 0.18            136            145 260 
 OCA  HZ EP   2   1740 37.90                             131    0.28 5  163 354 
 OCA  HN ES   2   1740 59.99                             131   -0.39 5  163 354 
 OCA  HZ I        1741  4.73         9.5 0.24            132            163 354 
 NOR  HZ EP   1   1740 44.91                             121    0.60 6  232 235 
 NOR  HN ES   2   1741 12.56                             121    0.28 4  232 235 
 SML  HN ES   1   1741 14.62                             119   -0.18 6  246 336 
                                                                                
