 2015  319 1138  0.3 L   7.462 -73.195132.9  RSN  5 0.4 1.8LRSN                1
 GAP=137        0.97       5.0     4.5  8.1 -0.2400E+01  0.1360E+02 -0.1084E+02E
 Epicentro: EL PLAYON - SANTANDER                                              3
 ACTION:UPD 15-04-30 16:27 OP:nd   STATUS:               ID:20150319113800 L   I
 OLDACT:REG 15-03-19 20:28 OP:cam  STATUS:               ID:20150319112748     3
 2015-03-19-1127-48M.COL___283                                                 6
 STAT SP IPHASW D HRMM SECON CODA AMPLIT PERI AZIMU VELO AIN AR TRES W  DIS CAZ7
 PAM  SZ EP     D 1138 20.26                             156    0.2810 56.3 104 
 PAM  SN ES       1138 35.26                             156   -0.0510 56.3 104 
 PAM  SZ I        1138 36.40         9.0 0.14            158           56.3 104 
 BRR  HZ EP     C 1138 19.95                             151   -0.0310 69.3 236 
 BRR  HN ES       1138 35.42                             151    0.1210 69.3 236 
 BRR  HZ I        1138 35.82        14.9 0.10            151           69.3 236 
 PTB  HZ EP       1138 28.39                             124   -0.33 9  173 234 
 PTB  HN ES       1138 50.33                             124   -0.54 9  173 234 
 PTB  HZ I        1138 53.85         3.6 0.14            125            173 234 
 SML  HZ EP       1138 29.37                             123    0.26 9  177 327 
 SML  HN ES       1138 50.94                             123   -0.62 9  177 327 
 SML  HZ I        1138 53.86        13.1 0.10            124            177 327 
 ZAR  HZ EP       1138 29.84                             122    0.02 9  184 271 
 ZAR  HN ES       1138 53.65                             122    0.82 9  184 271 
 ZAR  HZ I        1138 54.64         7.9 0.22            123            184 271 
                                                                                
