 2017  819 1301 53.5 L   6.213 -74.141  4.0  RSN  7 0.5 1.5LRSN                1
 GAP=116        1.17       3.0     3.6  6.3 -0.6454E+01 -0.1289E+01 -0.5327E+00E
 Epicentro: CIMITARRA - SANTANDER                                              3
 ACTION:UPD 17-09-04 20:22 OP:rebc STATUS:               ID:20170819130153 L   I
 OLDACT:UP  17-08-19 16:25 OP:and  STATUS:               ID:20170819125739     3
 OLDACT:UP  17-08-19 16:24 OP:and  STATUS:               ID:20170819125739     3
 OLDACT:REG 17-08-19 15:15 OP:and  STATUS:               ID:20170819125739     3
 2017-08-19-1258-00M.COL___408                                                 6
 STAT SP IPHASW D HRMM SECON CODA AMPLIT PERI AZIMU VELO AIN AR TRES W  DIS CAZ7
 SPBC HZ EP       13 2  4.07                              47    0.4210 62.4 173 
 SPBC HN ES       13 2 11.97                              47    0.4110 62.4 173 
 SPBC HZ I        13 2 13.00        25.6 0.18             47           62.4 173 
 NOR  HZ EP       13 2 10.55                              47    0.0510  108 228 
 NOR  HN ES       13 2 23.11                              47   -0.6610  108 228 
 NOR  HZ I        13 2 24.62         4.9 0.32             47            108 228 
 BRR  HZ EP       13 2 10.86                              47    0.1510  110  26 
 BRR  HN ES       13 2 24.36                              47    0.2210  110  26 
 BRR  HZ I        13 2 25.71        13.3 0.12             47            110  26 
 BAR2 EZ EP       13 2 11.87                              47    0.2510  114  68 
 BAR2 EZ ES       13 2 24.72                              47   -1.0410  114  68 
 BAR2 EZ I        13 2 28.45         7.7 0.46             47            114  68 
 RUS  HZ IP     D 13 2 12.89                              47   -0.2510  122 107 
 RUS  HN ES   3   13 2 26.92                              47   -1.54 2  122 107 
 RUS  HZ I        13 2 29.13         6.9 0.18             47            122 107 
 HEL  HN ES   3   13 2 35.29                              47   -1.37 2  154 269 
 HEL  HZ I        13 2 35.83         9.7 0.26             47            154 269 
 PAM  EZ EP       13 2 25.07                              37    0.44 9  202  52 
 PAM  EN ES       13 2 49.24                              37    0.33 9  202  52 
 PAM  EZ I        13 2 50.21         4.6 0.20             37            202  52 
                                                                                
