 2015  119 1430 45.3 L   6.676 -73.249145.5  RSN  6 0.4 1.5LRSN                1
 GAP=102        0.93       5.3     4.8  7.6 -0.5637E+01 -0.1910E+01  0.7879E+01E
 Epicentro: BARICHARA - SANTANDER                                              3
 ACTION:UPD 15-03-02 15:40 OP:nd   STATUS:               ID:20150119143045 L   I
 OLDACT:REG 15-01-19 20:16 OP:spq  STATUS:               ID:20150119142749     3
 2015-01-19-1427-49M.COL___244                                                 6
 STAT SP IPHASW D HRMM SECON CODA AMPLIT PERI AZIMU VELO AIN AR TRES W  DIS CAZ7
 BAR2 EZ EP       1431  4.54                             175   -0.1310 11.8 141 
 BAR2 EZ ES   1   1431 19.61                             175   -0.20 7 11.8 141 
 BAR2 EZ I        1431 20.16         8.2 0.16            176           11.8 141 
 BRR  HN ES       1431 23.33                             153    0.6210 69.9 313 
 BRR  HZ I        1431 25.43         8.4 0.34            154           69.9 313 
 RUS  HZ EP       1431  8.48                             147    0.3410 88.5 168 
 RUS  HE ES   1   1431 25.51                             147   -0.48 7 88.5 168 
 RUS  HZ I        1431 27.48         5.2 0.22            149           88.5 168 
 PAM  SZ EP       1431  8.73                             145    0.1410 95.3  40 
 PAM  SE ES   1   1431 26.44                             145   -0.35 7 95.3  40 
 PAM  SZ I        1431 29.86         2.9 0.36            146           95.3  40 
 PTB  HZ EP       1431 10.62                             135   -0.3810  134 264 
 PTB  HN ES       1431 30.59                             135   -0.5010  134 264 
 PTB  HZ I        1431 32.20         5.1 0.36            137            134 264 
 SPBC HZ EP   1   1431 12.32                             132    0.25 7  145 219 
 SPBC HE ES   1   1431 33.54                             132    0.55 7  145 219 
 SPBC HZ I        1431 34.77         5.2 0.10            135            145 219 
                                                                                
