 2017  819 1521 15.2 L   6.773 -73.102139.7  RSN  6 0.2 1.6LRSN                1
 GAP=143        0.52       2.6     3.1  4.0  0.9143E+00  0.1569E+01  0.3186E+00E
 Epicentro: LOS SANTOS - SANTANDER                                             3
 ACTION:UPD 17-09-04 20:22 OP:rebc STATUS:               ID:20170819152115 L   I
 OLDACT:UP  17-08-19 18:58 OP:and  STATUS:               ID:20170819151741d    3
 OLDACT:UP  17-08-19 18:57 OP:and  STATUS:               ID:20170819151741d    3
 OLDACT:DUP 17-08-19 18:55 OP:and  STATUS:               ID:20170819151741d    3
 OLDACT:UP  17-08-19 18:50 OP:and  STATUS:               ID:20170819151740     3
 OLDACT:UP  17-08-19 18:49 OP:and  STATUS:               ID:20170819151740     3
 OLDACT:UP  17-08-19 18:48 OP:and  STATUS:               ID:20170819151740     3
 OLDACT:REG 17-08-19 17:03 OP:and  STATUS:               ID:20170819151740     3
 2017-08-19-1518-00M.COL___408                                                 6
 STAT SP IPHASW D HRMM SECON CODA AMPLIT PERI AZIMU VELO AIN AR TRES W  DIS CAZ7
 BAR2 EZ IP     C 1521 33.87                             171   -0.2110 21.9 204 
 BAR2 EZ ES       1521 48.71                             171   -0.0910 21.9 204 
 BAR2 EZ I        1521 49.54        10.4 0.30            169           21.9 204 
 PAM  EZ IP     C 1521 36.76                             150    0.0210 76.8  35 
 PAM  EN ES       1521 53.58                             150    0.0410 76.8  35 
 PAM  EZ I        1521 56.06         2.3 0.31            152           76.8  35 
 BRR  HZ EP       1521 35.75                             150   -0.2910 76.9 299 
 BRR  HN ES       1521 52.61                             150    0.3110 76.9 299 
 BRR  HZ I        1521 57.12        13.5 0.12            146           76.9 299 
 RUS  HZ EP       1521 38.30                             144    0.1710 97.4 179 
 RUS  HN ES       1521 56.06                             144    0.0510 97.4 179 
 RUS  HZ I        1521 57.25         7.0 0.21            146           97.4 179 
 ZAR  HZ EP   3   1521 48.79                             120    0.94 2  210 292 
 ZAR  HN ES   1   1522 13.07                             120   -0.25 6  210 292 
 ZAR  HZ I        1522 19.85         6.0 0.10            120            210 292 
 NOR  HZ EP   2   1521 51.16                             117    0.32 4  237 236 
 NOR  HN ES   4   1522 15.56                             117   -3.07 0  237 236 
 NOR  HZ I        1522 21.28         1.6 0.22            117            237 236 
                                                                                
