 2015  219 1338 17.9 L   6.787 -73.177132.3  RSN  7 0.4 1.7LRSN                1
 GAP=142        0.95       5.3     5.4  8.4 -0.1702E+02  0.2323E+02 -0.7999E+01E
 Epicentro: LOS SANTOS - SANTANDER                                             3
 ACTION:UPD 15-04-30 21:27 OP:nd   STATUS:               ID:20150219133817 L   I
 OLDACT:REG 15-02-19 21:05 OP:fm   STATUS:               ID:20150219132749     3
 2015-02-19-1327-49M.COL___296                                                 6
 STAT SP IPHASW D HRMM SECON CODA AMPLIT PERI AZIMU VELO AIN AR TRES W  DIS CAZ7
 BAR2 EZ EP     D 1338 36.06                             170    0.2110 21.5 182 
 BAR2 EZ ES   1   1338 50.84                             170    0.97 7 21.5 182 
 BAR2 EZ I        1338 52.34         7.2 0.38            169           21.5 182 
 PAM  SZ EP       1338 38.72                             147   -0.1810 80.7  41 
 PAM  SN ES       1338 55.14                             147   -0.1510 80.7  41 
 PAM  SZ I        1338 58.24         4.6 0.58            153           80.7  41 
 RUS  HN ES       1338 57.11                             141   -0.5710 99.4 174 
 PTB  HZ EP       1338 43.59                             129    0.15 9  144 259 
 PTB  HN ES       1339  2.97                             129   -0.40 9  144 259 
 PTB  HZ I        1339 11.55         8.4 0.40            130            144 259 
 SPBC HZ EP   1   1338 45.13                             126    0.07 7  160 218 
 SPBC HN ES       1339  6.62                             126    0.37 9  160 218 
 SPBC HZ I        1339 12.87         9.9 0.18            130            160 218 
 NOR  HE ES       1339 19.42                             116   -0.02 8  231 234 
 NOR  HZ I        1339 26.29         4.9 0.16            119            231 234 
 GUY2CHZ EP   1   1339  1.25                             110    0.77 5  298 235 
 GUY2CHE ES       1339 33.37                             110   -0.34 7  298 235 
 GUY2CHZ I        1339 42.92         4.2 0.52                           298 235 
                                                                                
