 2016  519 1740 23.1 L   6.787 -73.168146.8  RSN 11 0.3 2.2LRSN                1
 GAP= 70        0.89       2.5     2.6  4.7 -0.5400E+00  0.1728E+01  0.1277E+01E
 Epicentro: LOS SANTOS - SANTANDER                                             3
 ACTION:UPD 16-08-18 17:47 OP:cam  STATUS:               ID:20160519174023 L   I
 OLDACT:REG 16-05-19 20:35 OP:drio STATUS:               ID:20160519173746     3
 2016-05-19-1737-46M.COL___300                                                 6
 STAT SP IPHASW D HRMM SECON CODA AMPLIT PERI AZIMU VELO AIN AR TRES W  DIS CAZ7
 BAR2 EZ EP       1740 42.66                             171   -0.1810 21.6 184 
 BAR2 EZ ES       1740 57.66                             171   -0.5610 21.6 184 
 BAR2 EZ I        1740 58.67        41.0 0.24            172           21.6 184 
 BRR  HZ EP       1740 44.36                             153    0.0610 69.8 301 
 BRR  HN ES       1741  1.50                             153    0.6810 69.8 301 
 BRR  HZ I        1741  4.02        21.8 0.24            142           69.8 301 
 PAM  EZ EP       1740 45.70                             150    0.1010 80.0  40 
 PAM  EN ES       1741  3.00                             150   -0.1410 80.0  40 
 PAM  EZ I        1741  4.45        14.7 0.48            141           80.0  40 
 RUS  HZ EP       1740 46.79                             144   -0.0910 99.4 175 
 RUS  HN ES       1741  5.93                             144    0.5110 99.4 175 
 RUS  HZ I        1741  6.24        16.7 0.28            139           99.4 175 
 PTB  HZ EP       1740 49.30                             133   -0.63 9  145 259 
 PTB  HN ES       1741 10.47                             133   -0.37 9  145 259 
 PTB  HZ I        1741 17.25        18.4 0.22            123            145 259 
 TAM  HZ EP       1740 51.05                             130   -0.01 9  157 104 
 TAM  HE ES       1741 12.98                             130    0.12 9  157 104 
 SPBC HZ EP       1740 51.63                             130    0.18 9  161 219 
 SPBC HN ES       1741 13.64                             130    0.10 9  161 219 
 SPBC HZ I        1741 15.37        22.1 0.28            121            161 219 
 OCA  HZ EP       1740 51.49                             130   -0.13 9  161 354 
 OCA  HN ES       1741 13.74                             130   -0.10 9  161 354 
 OCA  HZ I        1741 21.87        32.5 0.20            119            161 354 
 ZAR  HZ EP       1740 56.31                             123    0.85 9  202 293 
 ZAR  HN ES       1741 20.46                             123   -0.22 9  202 293 
 ZAR  HZ I        1741 27.60        11.3 0.18            113            202 293 
 NOR  HZ EP       1740 58.63                             119    0.02 8  232 234 
 NOR  HN ES       1741 26.47                             119    0.18 8  232 234 
 NOR  HZ I        1741 31.94        10.2 0.22            111            232 234 
 CHI  HZ EP       1741  0.45                             118   -0.20 8  247 195 
 CHI  HN ES       1741 29.76                             118   -0.17 8  247 195 
 CHI  HZ I        1741 35.18        13.1 0.30            110            247 195 
                                                                                
