 2016  119 1220  8.2 L   6.742 -73.155146.3  RSN  4 0.5 1.4LRSN                1
 GAP=138        1.28       7.9     7.6 10.7 -0.1844E+02  0.2129E+02 -0.8551E+01E
 Epicentro: LOS SANTOS - SANTANDER                                             3
 ACTION:UPD 16-03-09 23:26 OP:cam  STATUS:               ID:20160119122008 L   I
 OLDACT:REG 16-01-19 21:17 OP:mh   STATUS:               ID:20160119121747     3
 2016-01-19-1217-47M.COL___326                                                 6
 STAT SP IPHASW D HRMM SECON CODA AMPLIT PERI AZIMU VELO AIN AR TRES W  DIS CAZ7
 BAR2 EZ EP       1220 28.31                             173    0.5010 16.8 190 
 BAR2 EZ ES       1220 43.83                             173    0.7510 16.8 190 
 BAR2 EZ I        1220 46.27         7.9 0.29            173           16.8 190 
 PAM  EZ EP       1220 31.26                             149    0.4210 83.0  37 
 PAM  EN ES       1220 47.76                             149   -0.7210 83.0  37 
 PAM  EZ I        1220 51.81         4.0 0.41            153           83.0  37 
 RUS  HZ EP       1220 31.12                             146   -0.4710 94.3 175 
 RUS  HN ES       1220 49.55                             146   -0.2510 94.3 175 
 RUS  HZ I        1220 51.93         2.4 0.30            151           94.3 175 
 PTB  HZ EP       1220 35.15                             133    0.10 9  146 261 
 PTB  HN ES       1220 55.61                             133   -0.36 9  146 261 
 PTB  HZ I        1221  2.51         3.4 0.40            134            146 261 
                                                                                
