 2012  219 1407 38.7 L   6.759 -73.109143.9  RSN  4 0.1 1.5LRSN                1
 GAP=143        0.37       3.6     5.9  4.8  0.1081E+02 -0.1327E+02 -0.6383E+01E
 ACTION:UP  12-03-07 16:32 OP:epov STATUS:               ID:20120219140738 L   I
 2012-02-19-1400-00S.MAN___184                                                 6
 STAT SP IPHASW D HRMM SECON CODA AMPLIT PERI AZIMU VELO AIN AR TRES W  DIS CAZ7
 BAR2 SZ EP   1   14 7 57.90                             172   -0.10 7 20.2 204 
 BAR2 SZ ES   1   14 8 12.89                             172   -0.20 7 20.2 204 
 BAR2 SZ I        14 8 14.10        10.2 0.25                          20.2 204 
 BRR  HZ EP   1   14 7 59.90                             150   -0.04 7 76.9 300 
 BRR  HN ES   1   14 8 16.64                             150    0.11 7 76.9 300 
 BRR  HZ I        14 8 19.71        13.3 0.44                          76.9 300 
 PAM  SZ EP   1   14 8  0.86                             150    0.12 7 78.5  35 
 RUS  HZ EP   1   14 8  1.80                             145   -0.09 7 95.9 178 
 RUS  HE ES   1   14 8 20.20                             145    0.19 7 95.9 178 
 RUS  HZ I        14 8 21.68         1.4 0.52                          95.9 178 
                                                                                
