 2011  619 1153 17.7 L   6.755 -73.079140.4  RSN  5 0.1 1.4LRSN                1
 GAP=147        0.31       2.4     4.4  4.1  0.4410E+01 -0.9591E+01 -0.5138E+01E
 Epicentro: LOS SANTOS - SANTANDER                                             3
 ACTION:UP  11-07-14 19:06 OP:ep   STATUS:               ID:20110619115317 L   I
 2011-06-19-1150-06S.COL___140                                                 6
 STAT SP IPHASW D HRMM SECON CODA AMPLIT PERI AZIMU VELO SNR AR TRES W  DIS CAZ7
 BAR2 SZ EP   1   1153 36.62                             171     0.0 7   21 212 
 BAR2 SZ ES   1   1153 51.40                             171     0.0 7   21 212 
 BAR2 SZ I        1153 53.07         7.0 0.36                            21 212 
 PAM  SZ EP   1   1153 39.41                             150     0.1 7   77  33 
 BRR  HZ EP   1   1153 38.70                             149    -0.1 7   80 299 
 BRR  HZ I        1153 39.17        11.2 0.11                            80 299 
 BRR  HE ES   1   1153 55.37                             149     0.1 7   80 299 
 RUS  HZ EP   1   1153 40.69                             144     0.1 7   95 180 
 RUS  HN ES       1153 58.35                             144     0.010   95 180 
 RUS  HZ I        1154  0.34         1.7 0.34                            95 180 
 BRI  SZ EP   1   1153 41.23                             140     0.0 7  111  16 
                                                                                
