 2013  119 1101 47.9 L   6.804 -73.144142.8  RSN  7 0.5 1.5LRSN                1
 GAP=137        1.11       5.6     6.0  8.7  0.1845E+01  0.1189E+02  0.5770E+01E
 Epicentro: LOS SANTOS - SANTANDER                                             3
 ACTION:UPD 13-02-15 09:15 OP:ep   STATUS:               ID:20130119110147 L   I
 2013-01-19-1100-00M.COL___241                                                 6
 STAT SP IPHASW D HRMM SECON CODA AMPLIT PERI AZIMU VELO AIN AR TRES W  DIS CAZ7
 BAR2 SZ EP       11 2  6.95                             170   -0.2310 23.8 190 
 BAR2 SZ ES   1   11 2 22.40                             170    0.18 7 23.8 190 
 BAR2 SZ I        11 2 23.82         9.3 0.48            169           23.8 190 
 BRR  HZ EP       11 2  8.81                             152    0.0810 71.2 298 
 BRR  HN ES   1   11 2 25.85                             152    0.88 7 71.2 298 
 BRR  HZ I        11 2 27.81         8.8 0.36            150           71.2 298 
 PAM  SZ EP       11 2 10.09                             150    0.3110 76.9  40 
 PAM  SN ES   1   11 2 25.80                             150   -1.03 7 76.9  40 
 PAM  SZ I        11 2 29.00         5.2 0.40            154           76.9  40 
 RUS  HZ EP   1   11 2 11.83                             143    0.44 7  101 176 
 RUS  HE ES   1   11 2 30.11                             143    0.40 7  101 176 
 RUS  HZ I        11 2 31.71         3.0 0.30            145            101 176 
 PTB  HZ EP       11 2 14.01                             131   -0.65 9  148 259 
 PTB  HN ES   1   11 2 34.92                             131   -0.60 7  148 259 
 PTB  HZ I        11 2 37.98         4.5 0.10            131            148 259 
 ZAR  HZ EP   1   11 2 20.71                             122    0.55 6  204 292 
 ZAR  HN ES   1   11 2 45.42                             122    0.10 6  204 292 
 ZAR  HZ I        11 2 53.47         4.0 0.42            122            204 292 
 CHI  HZ EP   1   11 2 26.02                             116    0.53 6  249 195 
 CHI  HN ES   1   11 2 54.13                             116   -0.67 6  249 195 
 CHI  HZ I        11 2 59.01         1.0 0.24            118            249 195 
                                                                                
