 2015 1019 1830 54.8 L   6.747 -73.121140.1  RSN  7 0.2 1.6LRSN                1
 GAP=142        0.62       2.9     3.3  3.9 -0.4083E+01  0.3734E+01  0.1583E+01E
 Epicentro: LOS SANTOS - SANTANDER                                             3
 ACTION:UPD 15-12-22 20:41 OP:cam  STATUS:               ID:20151019183054 L   I
 OLDACT:REG 15-10-19 21:27 OP:drio STATUS:               ID:20151019182750     3
 2015-10-19-1827-50M.COL___331                                                 6
 STAT SP IPHASW D HRMM SECON CODA AMPLIT PERI AZIMU VELO AIN AR TRES W  DIS CAZ7
 BAR2 EZ EP       1831 13.39                             172   -0.2710 18.4 202 
 BAR2 EZ ES       1831 28.40                             172    0.0310 18.4 202 
 BAR2 EZ I        1831 31.60         8.5 0.26            170           18.4 202 
 BRR  HZ EP       1831 15.97                             150    0.3110 76.5 301 
 BRR  HE ES       1831 31.72                             150   -0.2110 76.5 301 
 PAM  EZ EP       1831 16.42                             149   -0.1810 80.4  35 
 PAM  EE ES       1831 33.82                             149    0.2110 80.4  35 
 PAM  EZ I        1831 35.85         5.9 0.56            153           80.4  35 
 RUS  HZ EP       1831 17.61                             144    0.0510 94.6 177 
 RUS  HE ES       1831 35.31                             144   -0.0110 94.6 177 
 RUS  HZ I        1831 39.16         4.9 0.44            145           94.6 177 
 SPBC HZ EP       1831 22.62                             128    0.01 9  160 221 
 SPBC HN ES       1831 44.32                             128    0.02 9  160 221 
 SPBC HZ I        1831 47.34         8.1 0.26            130            160 221 
 NOR  HZ EP       1831 29.56                             117   -0.53 8  234 236 
 NOR  HE ES       1831 57.87                             117    0.26 8  234 236 
 NOR  HZ I        1832  3.18         4.2 0.48            119            234 236 
 GUY2CHZ EP       1831 38.55                             111    0.52 7  300 236 
 GUY2CHN ES       1832 11.60                             111   -0.15 7  300 236 
 GUY2CHZ I        1832 22.17         2.1 0.64                           300 236 
                                                                                
