 2017  819 1850 56.0 L   6.731 -73.117144.0  RSN  5 0.3 1.3LRSN                1
 GAP=143        0.48       4.3     4.4  6.9 -0.5496E+01  0.4527E+01  0.1127E+02E
 Epicentro: JORDAN - SANTANDER                                                 3
 ACTION:UPD 17-09-04 20:22 OP:rebc STATUS:               ID:20170819185056 L   I
 OLDACT:UP  17-08-19 20:49 OP:and  STATUS:               ID:20170819184738     3
 OLDACT:UP  17-08-19 20:49 OP:and  STATUS:               ID:20170819184738     3
 OLDACT:UP  17-08-19 20:49 OP:and  STATUS:               ID:20170819184738     3
 OLDACT:UP  17-08-19 20:48 OP:and  STATUS:               ID:20170819184738     3
 OLDACT:UP  17-08-19 20:48 OP:and  STATUS:               ID:20170819184738     3
 OLDACT:REG 17-08-19 19:35 OP:and  STATUS:               ID:20170819184738     3
 2017-08-19-1848-00M.COL___407                                                 6
 STAT SP IPHASW D HRMM SECON CODA AMPLIT PERI AZIMU VELO AIN AR TRES W  DIS CAZ7
 BAR2 EZ EP       1851 15.15                             173   -0.1810 16.9 205 
 BAR2 EZ ES   3   1851 29.60                             173   -0.78 2 16.9 205 
 BAR2 EZ I        1851 31.20         5.9 0.17            172           16.9 205 
 BRR  HZ EP       1851 17.48                             150    0.1110 77.8 302 
 BRR  HN ES   2   1851 34.25                             150    0.23 5 77.8 302 
 PAM  EZ EP       1851 18.41                             149    0.1010 81.6  34 
 PAM  EN ES   2   1851 35.27                             149   -0.42 5 81.6  34 
 PAM  EZ I        1851 37.76         2.0 0.42            152           81.6  34 
 RUS  HZ EP       1851 19.12                             146    0.0810 92.7 178 
 RUS  HN ES   3   1851 38.10                             146    1.10 2 92.7 178 
 RUS  HZ I        1851 39.13         2.5 0.22            147           92.7 178 
 NOR  HZ EP       1851 31.43                             118   -0.03 8  233 236 
 NOR  HN ES   2   1851 58.74                             118   -0.37 4  233 236 
 NOR  HZ I        1852  1.35         1.9 0.26            120            233 236 
                                                                                
