 2017  219 1302 39.3 L   6.767 -73.141149.3  RSN  6 0.4 1.4LRSN                1
 GAP=139        1.00       5.1     4.7  7.4  0.6584E+00  0.9206E+01  0.3795E+01E
 Epicentro: LOS SANTOS - SANTANDER                                             3
 ACTION:UPD 17-05-24 15:38 OP:jn   STATUS:               ID:20170219130239 L   I
 OLDACT:REG 17-02-19 20:58 OP:cog  STATUS:               ID:20170219125744     3
 2017-02-19-1258-00M.COL___345                                                 6
 STAT SP IPHASW D HRMM SECON CODA AMPLIT PERI AZIMU VELO AIN AR TRES W  DIS CAZ7
 BAR2 EZ EP       13 2 59.39                             172    0.1310 19.9 193 
 BAR2 EZ ES       13 3 14.82                             172   -0.0310 19.9 193 
 BAR2 EZ I        13 3 19.81         5.5 0.22            172           19.9 193 
 PAM  EZ EP       13 3  2.30                             151    0.2910 79.9  38 
 PAM  EN ES       13 3 19.36                             151   -0.3810 79.9  38 
 PAM  EZ I        13 3 21.16         6.3 0.54            154           79.9  38 
 RUS  HZ EP       13 3  3.32                             145    0.2110 96.9 176 
 RUS  HN ES       13 3 21.99                             145    0.2810 96.9 176 
 RUS  HZ I        13 3 23.04         2.5 0.26            148           96.9 176 
 PTB  HZ EP       13 3  5.73                             133   -0.78 9  148 260 
 PTB  HN ES       13 3 27.43                             133   -0.33 9  148 260 
 PTB  HZ I        13 3 30.53         3.6 0.16            135            148 260 
 ZAR  HN ES       13 3 38.49                             123    0.72 8  206 293 
 CHI  HZ EP       13 3 16.74                             118   -0.06 8  245 196 
 CHI  HN ES   4   13 3 48.23                             118    2.15 0  245 196 
                                                                                
