 2012 1119 1837  0.4 L   6.824 -73.191141.2  RSN  5 0.2 1.4LRSN                1
 GAP=130        0.43       3.4     3.3  4.8 -0.3585E+01  0.4496E+01 -0.2188E+01E
 Epicentro: ZAPATOCA - SANTANDER                                               3
 ACTION:UPD 12-12-05 15:34 OP:}ep  STATUS:               ID:20121119183700 L   I
 2012-11-19-1830-00M.COL___234                                                 6
 STAT SP IPHASW D HRMM SECON CODA AMPLIT PERI AZIMU VELO AIN AR TRES W  DIS CAZ7
 BAR2 SZ EP   1   1837 19.49                             169   -0.09 7 25.6 178 
 BAR2 SZ ES   1   1837 34.35                             169   -0.15 7 25.6 178 
 BAR2 SZ I        1837 37.40         7.9 0.25                          25.6 178 
 GIR2 SZ EP   1   1837 19.56                             168    0.07 7 28.2 360 
 PAM  SZ EP   1   1837 22.41                             149    0.15 7 78.8  44 
 PAM  SE ES   1   1837 39.26                             149   -0.02 7 78.8  44 
 RUS  HZ EP   1   1837 24.14                             142    0.16 7  104 173 
 RUS  HN ES   1   1837 42.34                             142    0.01 7  104 173 
 RUS  HZ I        1837 43.38         2.9 0.24                           104 173 
 PTB  HZ EP   1   1837 26.23                             132   -0.41 7  143 257 
 PTB  HN ES   1   1837 47.34                             132    0.27 7  143 257 
 PTB  HZ I        1837 53.26         4.3 0.36                           143 257 
                                                                                
