 2011  619 1229 28.9 L   6.789 -73.133141.3  RSN 10 0.2 1.8LRSN                1
 GAP=139        0.58       2.5     4.2  4.3 -0.4383E+01  0.2806E+01  0.7094E+00E
 Epicentro: LOS SANTOS - SANTANDER                                             3
 ACTION:UP  11-07-14 19:06 OP:ep   STATUS:               ID:20110619122928 L   I
 2011-06-19-1224-44S.COL___140                                                 6
 STAT SP IPHASW D HRMM SECON CODA AMPLIT PERI AZIMU VELO SNR AR TRES W  DIS CAZ7
 BAR2 SZ EP       1229 47.97                             171    -0.110   22 194 
 BAR2 SZ ES   1   1230  2.40                             171    -0.5 7   22 194 
 BAR2 SZ I        1230  4.49        16.0 0.17                            22 194 
 BRR  HZ EP       1229 49.74                             151     0.010   73 299 
 BRR  HN ES   1   1230  6.24                             151     0.3 7   73 299 
 BRR  HZ I        1230  7.42        25.1 0.19                            73 299 
 PAM  SZ EP   1   1229 50.89                             150     0.2 7   77  38 
 PAM  SE ES   1   1230  7.68                             150     0.0 7   77  38 
 RUS  HZ EP       1229 52.00                             143    -0.210   99 177 
 RUS  HZ I        1229 53.32         5.5 0.18                            99 177 
 RUS  HN ES   1   1230 10.76                             143     0.5 7   99 177 
 BRI  SZ EP   1   1229 52.55                             140     0.1 7  109  20 
 BRI  SZ I        1230 12.65         7.8 0.37                           109  20 
 GRA  SZ EP   1   1229 53.81                             136     0.0 7  127  17 
 GRA  SZ ES   1   1230 13.24                             136    -0.1 7  127  17 
 GRA  SZ I        1230 14.46         7.8 0.31                           127  17 
 OCA  SZ EP   1   1229 56.96                             128    -0.1 7  162 353 
 OCA  SZ I        1230 23.22        10.1 0.30                           162 353 
 NOR  SZ EP   1   1230  4.07                             117    -0.4 6  235 235 
 NOR  SN ES   1   1230 32.18                             117     0.0 6  235 235 
 CHI  HZ EP   2   1230  6.38                             116     0.1 4  248 196 
 CHI  HE ES   1   1230 35.39                             116    -0.1 6  248 196 
 CHI  HZ I        1230 39.59         4.1 0.40                           248 196 
 PRA  HZ EP   1   1230 22.79                             106     0.5 4  392 210 
                                                                                
