 2013 1119 1159 25.0 L   6.780 -73.144149.1  RSN  9 0.4 1.9LRSN                1
 GAP=138        1.10       3.5     4.7  6.4  0.8367E+00  0.6938E+01  0.1945E+01E
 Epicentro: LOS SANTOS - SANTANDER                                             3
 ACTION:UPD 14-01-09 16:29 OP:ep   STATUS:               ID:20131119115925 L   I
 OLDACT:REG 13-11-19 16:26 OP:carl STATUS:               ID:20131119115848     3
 2013-11-19-1158-48M.COL___228                                                 6
 STAT SP IPHASW D HRMM SECON CODA AMPLIT PERI AZIMU VELO AIN AR TRES W  DIS CAZ7
 BAR2 SZ EP       1159 44.95                             172   -0.0310 21.2 191 
 BAR2 SZ ES       12 0  0.15                             172   -0.4310 21.2 191 
 BAR2 SZ I        12 0  1.49        23.2 0.18            170           21.2 191 
 BRR  HZ EP       1159 47.01                             153    0.4410 72.4 300 
 BRR  HN ES       12 0  4.20                             153    0.8010 72.4 300 
 BRR  HZ I        12 0  8.13        14.0 0.22            152           72.4 300 
 PAM  SZ EP       1159 47.87                             151    0.2110 79.0  38 
 PAM  SN ES       12 0  5.12                             151   -0.2110 79.0  38 
 PAM  SZ I        12 0  7.09        18.6 0.54            155           79.0  38 
 RUS  HZ EP       1159 48.80                             145   -0.1210 98.4 176 
 RUS  HN ES       12 0  7.84                             145    0.2610 98.4 176 
 RUS  HZ I        12 0 10.41         7.2 0.42            147           98.4 176 
 PTB  HZ EP       1159 51.76                             133   -0.45 9  147 260 
 PTB  HN ES       12 0 13.20                             133   -0.24 9  147 260 
 PTB  HZ I        12 0 17.15         8.6 0.18            133            147 260 
 SPBC HZ EP       1159 53.64                             130    0.04 9  162 220 
 SPBC HN ES       12 0 16.02                             130    0.11 9  162 220 
 SPBC HZ I        12 0 17.82        15.3 0.14            131            162 220 
 ZAR  HZ EP       1159 58.36                             123    0.61 9  205 293 
 ZAR  HE ES       12 0 23.19                             123   -0.12 9  205 293 
 ZAR  HZ I        12 0 29.45         8.9 0.30            124            205 293 
 SML  HE ES       12 0 29.96                             118   -0.95 8  246 335 
 CHI  HZ EP       12 0  3.07                             118    0.42 8  247 195 
 CHI  HN ES       12 0 31.27                             118   -0.76 8  247 195 
 CHI  HZ I        12 0 35.94         3.3 0.64            120            247 195 
                                                                                
