 2013  419 1450 28.4 L   6.775 -73.151142.8  RSN 12 0.4 2.7LRSN                1
 GAP= 72        1.09       3.8     4.1  5.5 -0.5853E+01  0.8195E-01  0.4874E+01E
 Epicentro: LOS SANTOS - SANTANDER                                             3
 ACTION:UPD 13-05-22 14:39 OP:EP   STATUS:               ID:20130419145028 L   I
 2013-04-19-1448-50M.COL___218                                                 6
 STAT SP IPHASW D HRMM SECON CODA AMPLIT PERI AZIMU VELO AIN AR TRES W  DIS CAZ7
 BAR2 SZ IP     C 1450 47.64                             171    0.0410 20.5 190 
 BAR2 SZ ES       1451  2.24                             171   -0.3510 20.5 190 
 BAR2 SZ I        1451  3.54        56.9 0.16            165           20.5 190 
 GIR2 SZ EP       1450 47.84                             166    0.0610 33.9 352 
 GIR2 SZ ES       1451  3.22                             166    0.3210 33.9 352 
 BRR  HZ IP     D 1450 49.63                             152    0.3710 72.1 301 
 BRR  HN ES       1451  6.64                             152    1.0910 72.1 301 
 BRR  HN I        1451 10.93       117.6 0.16            150           72.1 301 
 PAM  SZ IP     D 1450 50.59                             149    0.1510 79.9  39 
 PAM  SZ I        1450 50.94        65.0 0.26            149           79.9  39 
 PAM  SN ES       1451  7.46                             149   -0.1810 79.9  39 
 RUS  HZ EP       1450 51.50                             144   -0.1510 97.9 176 
 RUS  HN ES       1451  9.66                             144   -0.1310 97.9 176 
 RUS  HN I        1451 11.56        96.6 0.32            137           97.9 176 
 PTB  HZ EP       1450 54.58                             132   -0.43 9  147 260 
 PTB  HN ES       1451 15.24                             132   -0.54 9  147 260 
 PTB  HN I        1451 18.07        78.3 0.18            127            147 260 
 CAPV BZ EP       1450 55.80                             131    0.03 9  152  37 
 CAPV BZ ES       1451 17.12                             131   -0.01 9  152  37 
 TAM  HZ IP     D 1450 55.90                             130    0.08 9  155 104 
 OCA  HN ES       1451 17.90                             128   -0.92 9  163 353 
 OCA  HN I        1451 21.54       138.7 0.34            127            163 353 
 NOR  HZ EP       1451  4.10                             118    0.38 8  233 235 
 NOR  HN ES       1451 30.86                             118   -0.43 8  233 235 
 NOR  HN I        1451 33.64        83.1 0.16            114            233 235 
 CHI  HZ EP       1451  5.66                             117    0.04 8  246 195 
 CHI  HN I        1451 41.20        20.3 0.38            112            246 195 
 GUY  HZ EP       1451 12.51                             112    0.62 7  302 235 
                                                                                
