 2010  219 1757  3.8 L   6.813 -73.114147.7  RSN  5 0.3 1.8LRSN                1
 GAP=195        0.51       5.3    15.6  6.5 -0.3115E+02  0.2950E+02  0.9907E+01E
 Epicentro: LOS SANTOS - SANTANDER                                             3
 ACTION:UP  10-08-24 09:49 OP:vdl  STATUS:               ID:20100219175703 L   I
 2010-02-19-1740-00S.COL___093                                                 6
 STAT SP IPHASW D HRMM SECON CODA AMPLIT PERI AZIMU VELO SNR AR TRES W  DIS CAZ7
 BAR2 SZ EP   1   1757 23.61                             170    -0.1 7   26 197 
 BAR2 SZ ES   2   1757 38.93                             170    -0.3 5   26 197 
 GIR2 SZ EP   1   1757 23.86                             167     0.2 7   31 343 
 GIR2 SZ ES   2   1757 39.24                             167     0.1 5   31 343 
 RUS  BZ EP   1   1757 27.69                             144    -0.1 7  102 178 
 RUS  BN ES   2   1757 46.55                             144     0.0 5  102 178 
 RUS  BZ I        1757 47.84         5.8 0.20                           102 178 
 CHI  HZ EP   1   1757 41.60                             117    -0.2 6  251 196 
 CHI  HE ES   2   1758 12.44                             117     0.9 4  251 196 
 CHI  HZ I        1758 19.18         3.4 0.68                           251 196 
 PRA  HZ EP   1   1757 57.88                             107     0.2 4  395 210 
 PRA  HZ I        1757 59.70         3.1 0.59                           395 210 
 PRA  HN ES   2   1758 39.22                             107    -0.5 3  395 210 
                                                                                
