 2012  519 1031  0.8 L   6.711 -73.248145.5  RSN  5 0.3 1.3LRSN                1
 GAP=201        0.86       8.6     7.7  9.2  0.4045E+02  0.1313E+02  0.3904E+01E
 Epicentro: BARICHARA - SANTANDER                                              3
 ACTION:UP  12-07-05 12:06 OP:pat  STATUS:               ID:20120519103100 L   I
 2012-05-19-1030-00M.COL___200                                                 6
 STAT SP IPHASW D HRMM SECON CODA AMPLIT PERI AZIMU VELO SNR AR TRES W  DIS CAZ7
 BAR2 SZ EP   1   1031 19.96                             174    -0.3 7   15 151 
 BAR2 SZ I        1031 20.75         8.1 0.45                            15 151 
 BAR2 SZ ES   1   1031 34.89                             174    -0.6 7   15 151 
 BRR  HZ EP   1   1031 21.79                             154     0.1 7   67 311 
 BRR  HZ I        1031 22.29         7.4 0.10                            67 311 
 BRR  HN ES   1   1031 38.57                             154     0.5 7   67 311 
 RUS  HZ EP   1   1031 24.32                             146     0.3 7   92 169 
 RUS  HN ES   1   1031 42.34                             146     0.3 7   92 169 
 RUS  HZ I        1031 43.43         1.4 0.22                            92 169 
 PTB  HZ EP   1   1031 26.36                             135    -0.3 7  135 262 
 PTB  HN ES   1   1031 46.59                             135    -0.2 7  135 262 
 PTB  HZ I        1031 50.07         1.3 0.18                           135 262 
 ZAR  HN ES   1   1031 57.46                             123     0.1 6  198 296 
 ZAR  HZ I        1032  4.74         3.0 0.24                           198 296 
                                                                                
