 2013 1019 1550 33.4 L   6.824 -73.166130.7  RSN  4 0.3 1.4LRSN                1
 GAP=199        0.64       3.7     4.4  8.2  0.1481E+01  0.5993E+01 -0.1367E+02E
 Epicentro: LOS SANTOS - SANTANDER                                             3
 ACTION:UPD 13-11-25 09:22 OP:ep   STATUS:               ID:20131019155033 L   I
 OLDACT:REG 13-10-19 15:53 OP:mh   STATUS:               ID:20131019154849     3
 2013-10-19-1548-49M.COL___211                                                 6
 STAT SP IPHASW D HRMM SECON CODA AMPLIT PERI AZIMU VELO AIN AR TRES W  DIS CAZ7
 RUS  HZ EP   1   1550 55.98                             139    0.07 7  103 175 
 RUS  HN ES       1551 13.48                             139    0.0110  103 175 
 RUS  HZ I        1551 15.31         3.3 0.44            144            103 175 
 PTB  HZ EP       1550 58.66                             129   -0.36 9  146 258 
 PTB  HN ES       1551 19.00                             129   -0.01 9  146 258 
 PTB  HZ I        1551 24.10         3.8 0.28            131            146 258 
 ZAR  HZ EP   4   1551  6.57                             119    1.99 0  201 292 
 ZAR  HE ES   4   1551 31.21                             119    2.31 0  201 292 
 NOR  HZ EP       1551  8.77                             115    0.51 8  234 234 
 NOR  HE ES       1551 35.38                             115   -0.08 8  234 234 
 NOR  HZ I        1551 38.35         3.2 0.18            118            234 234 
 SML  HZ EP   1   1551  8.40                             114   -0.45 6  240 336 
 SML  HN ES   1   1551 36.93                             114    0.42 6  240 336 
                                                                                
