 2010 1019 1151 49.9 L   6.305 -73.672 98.2  RSN 10 0.5 2.3LRSN                1
 GAP= 96        1.14       3.7     5.5 11.1 -0.3387E+01  0.2412E+02 -0.2440E-01E
 Epicentro: SANTA HELENA DEL OPON - SANTANDER                                  3
 ACTION:UP  11-02-18 11:10 OP:tino STATUS:               ID:20101019115149 L   I
 2010-10-19-1148-47S.COL___123                                                 6
 STAT SP IPHASW D HRMM SECON CODA AMPLIT PERI AZIMU VELO SNR AR TRES W  DIS CAZ7
 RUS  HZ IP     C 1152  7.34                             139    -0.210   80 125 
 RUS  HN ES   1   1152 21.77                             139     0.5 7   80 125 
 RUS  HZ I        1152 22.96        17.4 0.15                            80 125 
 BRR  HZ IP     D 1152  7.30                             135    -0.310   89 357 
 BRR  HZ I        1152  7.57        65.2 0.12                            89 357 
 BRR  HN ES   1   1152 21.56                             135     0.1 7   89 357 
 CHI  HZ EP       1152 18.41                             114     0.3 9  185 182 
 CHI  HE ES   1   1152 39.24                             114    -0.9 7  185 182 
 CHI  HZ I        1152 44.37         9.3 0.49                           185 182 
 GUE  SZ EP       1152 17.57                             114    -0.7 9  188  26 
 GRA  SZ EP   1   1152 20.20                             112     0.8 6  199  29 
 GRA  SZ ES   1   1152 42.44                             112     0.0 6  199  29 
 GRA  SZ I        1152 45.95        16.3 0.32                           199  29 
 HEL  HZ IP       1152 20.74                             111     0.3 8  206 267 
 HEL  HN ES   1   1152 43.84                             111    -0.4 6  206 267 
 HEL  HZ I        1152 47.47        40.5 0.19                           206 267 
 OCA  SZ EP   1   1152 21.90                             110     0.4 6  217  10 
 OCA  SZ I        1152 52.06        17.0 0.39                           217  10 
 TOL  SZ EP   2   1152 26.64                             106    -0.5 4  264 224 
 DBB  SZ EP   1   1152 30.60                             105     0.5 5  291 286 
 PRA  HZ EP   1   1152 32.65                             103    -0.4 5  317 205 
 PRA  HE ES   1   1153  7.66                             103     0.9 5  317 205 
 PRA  HZ I        1153 15.65        28.4 0.22                           317 205 
                                                                                
