 2013  219 1111 49.7 L   7.348 -73.639102.8  RSN  6 0.4 1.7LRSN                1
 GAP=165        0.77       5.5     5.2  8.2  0.1142E+02  0.1504E+02 -0.4407E+00E
 Epicentro: SABANA DE TORRES - SANTANDER                                       3
 ACTION:UPD 13-03-12 09:34 OP:ep   STATUS:               ID:20130219111149 L   I
 2013-02-19-1110-00M.COL___241                                                 6
 STAT SP IPHASW D HRMM SECON CODA AMPLIT PERI AZIMU VELO AIN AR TRES W  DIS CAZ7
 BRR  HZ EP   1   1112  4.21                             164    0.27 7 27.8 197 
 BRR  HN ES       1112 14.95                             164   -0.1310 27.8 197 
 BRR  HN I        1112 15.29        30.8 0.21            157           27.8 197 
 BAR2 SZ ES   1   1112 24.12                             133    0.24 7 97.6 149 
 PTB  HZ EP       1112 11.29                             125   -0.1010  127 225 
 PTB  HN ES   1   1112 27.67                             125   -0.67 7  127 225 
 PTB  HN I        1112 31.76         5.0 0.32            121            127 225 
 ZAR  HN ES       1112 30.28                             122    0.44 9  135 277 
 ZAR  HN I        1112 40.72         7.2 0.36            118            135 277 
 SML  HN ES   2   1112 35.34                             116   -0.56 5  168 344 
 TOL  SZ E      C 1119  9.83                                            358 211 
                                                                                
