 2016  119 1524 34.7 L   6.630 -73.707 95.9  RSN  6 0.5 1.6LRSN                1
 GAP=123        1.17       5.6     3.5 10.3  0.3837E+01  0.3425E+01 -0.1656E+02E
 Epicentro: EL CARMEN - SANTANDER                                              3
 ACTION:UPD 16-03-09 23:26 OP:cam  STATUS:               ID:20160119152434 L   I
 OLDACT:UP  16-01-19 23:10 OP:mh   STATUS:               ID:20160119151746     3
 OLDACT:REG 16-01-19 21:21 OP:mh   STATUS:               ID:20160119151746     3
 2016-01-19-1517-46M.COL___328                                                 6
 STAT SP IPHASW D HRMM SECON CODA AMPLIT PERI AZIMU VELO AIN AR TRES W  DIS CAZ7
 BAR2 EZ EP       1524 50.39                             147    0.2210 58.2  94 
 BAR2 EZ ES       1525  2.48                             147    0.2810 58.2  94 
 BAR2 EZ I        1525  3.50        18.1 0.10            148           58.2  94 
 PTB  HZ EP       1524 51.38                             136   -0.4410 83.5 263 
 PTB  HN ES       1525  4.52                             136   -0.6210 83.5 263 
 PTB  HZ I        1525  5.65         6.2 0.24            137           83.5 263 
 RUS  HZ EP       1524 54.65                             129    0.0510  107 140 
 RUS  HN ES       1525 10.44                             129    0.3410  107 140 
 RUS  HZ I        1525 13.70         4.5 0.40            130            107 140 
 PAM  EZ EP       1524 56.86                             121   -0.70 9  136  55 
 PAM  EE ES       1525 15.12                             121   -0.24 9  136  55 
 PAM  EZ I        1525 15.67        11.0 0.20            123            136  55 
 ZAR  HZ EP       1525  0.01                             117    0.62 9  159 307 
 ZAR  HN ES       1525 19.23                             117    0.60 9  159 307 
 ZAR  HZ I        1525 21.63         9.5 0.34            118            159 307 
 GUY2CHZ EP   4   1525 11.49                             108    2.15 0  241 230 
 GUY2CHN ES   4   1525 39.84                             108    3.50 0  241 230 
 GUY2CHZ I        1525 46.39         2.8 0.42                           241 230 
                                                                                
