 2014 1219 1905 37.2 L   6.801 -73.147144.3  RSN 17 0.5 2.5LRSN                1
 GAP= 71        1.05       2.9     2.9  5.5 -0.4200E+00  0.5213E+01 -0.6809E-01E
 Epicentro: LOS SANTOS - SANTANDER                                             3
 ACTION:UPD 15-02-10 17:05 OP:nd   STATUS:               ID:20141219190537 L   I
 OLDACT:REG 14-12-19 21:30 OP:spq  STATUS:               ID:20141219185748     3
 2014-12-19-1857-48M.COL___293                                                 6
 STAT SP IPHASW D HRMM SECON CODA AMPLIT PERI AZIMU VELO AIN AR TRES W  DIS CAZ7
 BAR2 EZ EP     C 19 5 56.67                             170   -0.0210 23.4 190 
 BAR2 EZ ES   1   19 6 12.17                             170    0.30 7 23.4 190 
 BAR2 EZ I        19 6 13.35        58.4 0.18            170           23.4 190 
 BRR  HZ EP     C 19 5 58.57                             152    0.3610 71.0 298 
 BRR  HN ES       19 6 15.38                             152    0.8110 71.0 298 
 BRR  HZ I        19 6 18.55        62.5 0.32            149           71.0 298 
 PAM  SZ EP     C 19 5 59.56                             151    0.2610 77.4  40 
 PAM  SN ES       19 6 16.41                             151   -0.0910 77.4  40 
 PAM  SZ I        19 6 17.58        21.7 0.30            153           77.4  40 
 RUS  HZ EP       19 6  0.69                             143   -0.1610  101 176 
 RUS  HN ES       19 6 18.98                             143   -0.3010  101 176 
 RUS  HZ I        19 6 20.80        28.7 0.46            145            101 176 
 PTB  HZ EP       19 6  3.72                             132   -0.35 9  148 259 
 PTB  HN ES   1   19 6 24.14                             132   -0.86 7  148 259 
 PTB  HZ I        19 6 26.60        44.5 0.30            130            148 259 
 TAM  HZ EP       19 6  5.09                             130    0.27 9  155 105 
 TAM  HN ES       19 6 26.40                             130    0.07 9  155 105 
 TAM  HZ I        19 6 27.11        34.8 0.24            134            155 105 
 OCA  HZ EP       19 6  5.00                             129   -0.42 9  160 353 
 OCA  HE ES       19 6 26.85                             129   -0.55 9  160 353 
 OCA  HZ I        19 6 30.03        36.9 0.28            129            160 353 
 SPBC HZ EP       19 6  5.73                             129    0.11 9  163 219 
 SPBC HN ES       19 6 27.28                             129   -0.48 9  163 219 
 SPBC HZ I        19 6 30.07        32.2 0.32            129            163 219 
 ZAR  HZ EP       19 6  9.75                             122    0.19 9  204 292 
 ZAR  HN ES       19 6 35.67                             122    0.89 9  204 292 
 ZAR  HZ I        19 6 43.68        35.8 0.26            121            204 292 
 NOR  HZ EP       19 6 13.27                             118    0.40 8  235 234 
 NOR  HN ES       19 6 39.99                             118   -0.68 8  235 234 
 NOR  HZ I        19 6 46.53        23.4 0.20            118            235 234 
 SML  HZ EP   1   19 6 13.08                             117   -0.68 6  243 335 
 SML  HE ES   1   19 6 41.71                             117   -0.53 6  243 335 
 SML  HZ I        19 6 46.69        31.7 0.24            117            243 335 
 HEL  HZ EP   1   19 6 17.62                             114    0.26 6  272 256 
 HEL  HE ES   1   19 6 48.63                             114   -0.02 6  272 256 
 HEL  HZ I        19 6 56.21        19.8 0.30            114            272 256 
 CBOC HZ EP       19 6 24.93                             110    0.85 7  333 252 
 CBOC HE ES   1   19 7  0.96                             110    0.35 5  333 252 
 CBOC HZ I        19 7  3.41         5.4 0.20            110            333 252 
 DBB  SZ EP       19 6 24.95                             109    0.32 7  339 274 
 DBB  SZ ES   1   19 7  2.13                             109    0.53 5  339 274 
 DBB  SZ I        19 7 10.58        28.3 0.32            109            339 274 
 TOL  SZ EP   4   19 6 26.67                             109    1.24 0  343 225 
 TOL  SN ES   1   19 7  2.80                             109   -0.22 5  343 225 
 TOL  SZ I        19 7 11.69        21.5 0.30            109            343 225 
 MON  HZ EP   4   19 6 24.59                             108   -1.56 0  353 308 
 MON  HN ES       19 7  3.32                             108   -0.99 6  353 308 
 MON  HZ I        19 7 20.04         7.1 0.70            108            353 308 
 SJC  HZ EP   4   19 6 29.83                             105   -2.89 0  409 327 
 SJC  HN ES   4   19 7 12.48                             105   -3.52 0  409 327 
 SJC  HZ I        19 7 16.78         7.9 0.32            106            409 327 
                                                                                
