 2017  419 1823 26.5 L   6.722 -73.114145.1  RSN  8 0.3 1.7LRSN                1
 GAP=117        0.88       3.9     4.3  5.5 -0.4576E+01  0.2777E+01  0.4020E+01E
 Epicentro: JORDAN - SANTANDER                                                 3
 ACTION:UPD 17-05-30 21:14 OP:jn   STATUS:               ID:20170419182326 L   I
 OLDACT:UP  17-04-20 00:59 OP:lv   STATUS:               ID:20170419181736     3
 OLDACT:UP  17-04-20 00:59 OP:lv   STATUS:               ID:20170419181736     3
 OLDACT:REG 17-04-19 21:11 OP:lv   STATUS:               ID:20170419181736     3
 2017-04-19-1818-00M.COL___371                                                 6
 STAT SP IPHASW D HRMM SECON CODA AMPLIT PERI AZIMU VELO AIN AR TRES W  DIS CAZ7
 BAR2 EZ EP       1823 45.92                             173   -0.0510 16.2 208 
 BAR2 EZ ES       1824  0.72                             173   -0.4010 16.2 208 
 BAR2 EZ I        1824  2.93        10.3 0.23            166           16.2 208 
 BRR  HZ EP       1823 48.15                             150    0.1010 78.6 303 
 BRR  HN ES       1824  5.41                             150    0.5810 78.6 303 
 BRR  HZ I        1824  7.07         7.0 0.10            153           78.6 303 
 PAM  EZ EP       1823 49.17                             149    0.1910 82.2  34 
 PAM  EN ES       1824  6.20                             149   -0.2910 82.2  34 
 PAM  EZ I        1824  8.60         4.2 0.09            142           82.2  34 
 RUS  HZ EP       1823 49.71                             146    0.1010 91.8 178 
 RUS  HN ES       1824  7.91                             146    0.3110 91.8 178 
 PTB  HZ EP       1823 52.98                             131   -0.66 9  150 262 
 PTB  HN ES   4   1824 13.14                             131   -1.63 0  150 262 
 PTB  HZ I        1824 14.35         5.1 0.15            129            150 262 
 SPBC HN ES       1824 16.05                             130   -0.40 9  159 222 
 YPLC HZ EP       1823 55.58                             128    0.19 9  168 151 
 YPLC HZ I        1824 22.29         9.6 0.09            119            168 151 
 YPLC HN ES   4   1824 22.48                             128    4.59 0  168 151 
 NOR  HZ EP       1824  2.00                             119   -0.01 8  233 237 
 NOR  HN ES       1824 30.02                             119    0.33 8  233 237 
 NOR  HZ I        1824 34.90         4.5 0.20            114            233 237 
                                                                                
