 2012  919 1137 47.7 L   6.768 -73.173150.0  RSN  5 0.1 1.7LRSN                1
 GAP=232        0.32       4.2     3.3  4.0  0.6248E+01  0.2525E+01 -0.1365E+01E
 Epicentro: LOS SANTOS - SANTANDER                                             3
 ACTION:UPD 12-10-22 14:19 OP:ep   STATUS:               ID:20120919113747 L   I
 2012-09-19-1130-00M.COL___226                                                 6
 STAT SP IPHASW D HRMM SECON CODA AMPLIT PERI AZIMU VELO AIN AR TRES W  DIS CAZ7
 BAR2 SZ EP   2   1138  7.71                             172   -0.03 5 19.5 183 
 BAR2 SZ ES   1   1138 23.33                             172   -0.06 7 19.5 183 
 BAR2 SZ I        1138 24.88         6.3 0.22                          19.5 183 
 BRR  HZ EP   1   1138  9.31                             153    0.08 7 70.3 302 
 BRR  HZ I        1138 10.44        16.5 0.42                          70.3 302 
 BRR  HE ES   2   1138 26.09                             153    0.04 5 70.3 302 
 RUS  HZ EP   2   1138 11.86                             146    0.25 5 97.3 174 
 RUS  HN ES   2   1138 30.24                             146   -0.05 5 97.3 174 
 PTB  HZ EP   1   1138 14.43                             134   -0.23 7  144 260 
 PTB  HN ES   1   1138 35.83                             134    0.12 7  144 260 
 ZAR  HN ES   2   1138 45.63                             123   -0.02 4  203 293 
 ZAR  HZ I        1138 51.18         3.2 0.15                           203 293 
                                                                                
