 2010  819 1148 45.0 L   6.553 -73.521109.5  RSN 19 0.5 3.2LRSN                1
 GAP= 63        1.01       3.1     4.7  5.8 -0.5915E+01  0.1107E+02  0.2630E+01E
 Epicentro: EL CARMEN DE CHUCURI - SANTANDER                                   3
 ACTION:UP  10-09-07 10:56 OP:vdl  STATUS:               ID:20100819114845 L   I
 2010-08-19-1147-24S.COL___117                                                 6
 STAT SP IPHASW D HRMM SECON CODA AMPLIT PERI AZIMU VELO SNR AR TRES W  DIS CAZ7
 BAR2 SZ IP       1149  0.90                             160     0.110   38  83 
 BAR2 SZ ES   1   1149 13.10                             160     0.0 7   38  83 
 BRR  HZ EP       1149  1.66                             147    -0.310   65 341 
 BRR  HN ES   1   1149 15.20                             147     0.1 7   65 341 
 BRR  HZ I        1149 21.48       534.9 0.11                            65 341 
 GIR2 SZ IP       1149  2.35                             146     0.010   69  32 
 GIR2 SZ ES   1   1149 16.00                             146     0.1 7   69  32 
 URB  SZ IP       1149  3.54                             142     0.510   78  15 
 URB  SZ ES   1   1149 16.67                             142    -0.4 7   78  15 
 RUS  HZ IP     C 1149  3.94                             139    -0.410   88 146 
 RUS  HE ES   1   1149 19.36                             139     0.0 7   88 146 
 RUS  HZ I        1149 21.16       255.0 0.37                            88 146 
 BTN  SZ IP       1149  7.08                             130     0.410  117  23 
 BTN  SZ ES       1149 23.74                             130     0.210  117  23 
 BRI  SZ EP   1   1149  8.93                             121    -1.0 7  152  32 
 BRI  SZ ES   1   1149 29.08                             121    -0.2 7  152  32 
 GRA  SZ EP       1149 12.14                             119     0.6 9  167  28 
 GRA  SZ I        1149 37.22       188.9 0.23                           167  28 
 OCA  SZ EP       1149 13.34                             115    -0.4 9  188   7 
 OCA  SZ ES   2   1149 36.71                             115     0.5 4  188   7 
 OCA  SZ I        1149 43.98       291.5 0.56                           188   7 
 CHI  HZ EP   1   1149 16.91                             112    -0.1 6  214 186 
 CHI  HN ES   2   1149 42.35                             112     0.4 4  214 186 
 CHI  HZ I        1149 47.22        55.6 0.37                           214 186 
 HEL  HZ EP       1149 18.25                             111     0.0 8  226 260 
 HEL  HE ES   2   1149 43.32                             111    -0.9 4  226 260 
 HEL  HZ I        1149 48.17       190.0 0.22                           226 260 
 CVER SZ EP   1   1149 20.20                             110     1.0 6  233 195 
 CVER SZ I        1149 55.96       123.5 0.53                           233 195 
 GUY  SZ EP   1   1149 21.99                             108     0.6 6  252 234 
 GUY  SE ES   2   1149 50.16                             108     0.4 4  252 234 
 GUY  SZ I        1149 56.69       372.0 0.41                           252 234 
 RREF HZ EP       1149 24.36                             106     0.3 8  273 228 
 RREF HN ES   2   1149 53.93                             106    -0.6 4  273 228 
 RREF HZ I        1150  3.99        91.1 0.52                           273 228 
 TOL  SZ EP   1   1149 26.77                             105     0.4 5  295 223 
 DBB  SZ EP   1   1149 26.77                             104     0.0 5  302 280 
 DBB  SZ I        1150  4.38        33.0 0.45                           302 280 
 ANIL HZ EP   1   1149 27.83                             104    -0.1 5  309 223 
 ANIL HE ES   1   1150  0.60                             104    -0.8 5  309 223 
 ANIL HZ I        1150  8.16       180.0 0.37                           309 223 
 PRA  HZ EP       1149 31.79                             101    -0.5 6  348 206 
 PRA  HN ES   2   1150  9.83                             101     0.6 3  348 206 
 PRA  HZ I        1150 16.20        76.2 0.63                           348 206 
 SDV  BZ EP       1149 38.96                              98    -0.9 6  410  51 
 SDV  BZ I        1150 23.75        75.7 0.45                           410  51 
                                                                                
