 2012 1019 1331  6.3 L   7.423 -73.188123.3  RSN  6 0.3 1.8LRSN                1
 GAP=187        0.62       6.5     3.1  5.8  0.4724E+01  0.6293E+01  0.4998E+01E
 Epicentro: EL PLAYON - SANTANDER                                              3
 ACTION:UPD 12-11-22 17:04 OP:ep   STATUS:               ID:20121019133106 L   I
 2012-10-19-1330-00M.COL___234                                                 6
 STAT SP IPHASW D HRMM SECON CODA AMPLIT PERI AZIMU VELO AIN AR TRES W  DIS CAZ7
 GIR2 SZ EP       1331 23.34                             162   -0.1810 38.1 181 
 PAM  SZ EP       1331 24.78                             155    0.0010 54.8 100 
 PAM  SE ES       1331 39.39                             155    0.1710 54.8 100 
 PAM  SZ I        1331 40.82        14.6 0.14                          54.8 100 
 BRR  HZ EP       1331 24.48                             149   -0.3210 67.6 239 
 BRR  HZ I        1331 25.04        15.2 0.16                          67.6 239 
 BRR  HN ES   1   1331 39.25                             149   -0.01 7 67.6 239 
 BAR2 SZ ES   2   1331 42.57                             141   -0.32 5 91.9 180 
 RUS  HZ EP       1331 34.69                             123    0.36 9  170 176 
 ZAR  HZ EP   1   1331 34.92                             120   -0.33 7  184 272 
 ZAR  HE ES       1331 58.21                             120    0.35 9  184 272 
 ZAR  HZ I        1332  1.32         6.2 0.37                           184 272 
                                                                                
