 2017  219 1046  8.7 L   7.402 -73.205129.3  RSN  4 0.4 1.1LRSN                1
 GAP=217        0.55       4.9     4.0  4.6 -0.4824E+01 -0.1017E+00  0.2204E+01E
 Epicentro: EL PLAYON - SANTANDER                                              3
 ACTION:UPD 17-05-24 15:38 OP:jn   STATUS:               ID:20170219104609dL   I
 OLDACT:DUP 17-02-19 22:08 OP:cog  STATUS:               ID:20170219103746d    3
 2017-02-19-1038-00M.COL___343                                                 6
 STAT SP IPHASW D HRMM SECON CODA AMPLIT PERI AZIMU VELO AIN AR TRES W  DIS CAZ7
 PAM  EZ EP       1046 28.06                             155    0.0610 56.2  97 
 PAM  EN ES       1046 43.06                             155    0.0510 56.2  97 
 PAM  EZ I        1046 45.85         2.1 0.20            150           56.2  97 
 BRR  HZ EP       1046 27.67                             152   -0.0810 64.8 240 
 BRR  HE ES       1046 42.70                             152    0.1310 64.8 240 
 BRR  HZ I        1046 44.09         5.0 0.17            149           64.8 240 
 BAR2 EZ EP       1046 29.68                             143   -0.0410 89.6 178 
 BAR2 EZ ES       1046 45.81                             143   -0.2810 89.6 178 
 BAR2 EZ I        1046 49.51         5.2 0.48            137           89.6 178 
 RUS  HZ EP       1046 37.07                             125    0.08 9  167 175 
 RUS  HN ES   3   1047  0.90                             125    1.87 2  167 175 
 RUS  HZ I        1047  6.69         0.6 0.20            122            167 175 
                                                                                
