 2012  619 1113  0.7 L   6.832 -73.153152.8  RSN  4 0.2 1.3LRSN                1
 GAP=278        0.39       6.0     4.5  5.6  0.1459E+01  0.3495E+01 -0.1125E+01E
 Epicentro: LOS SANTOS - SANTANDER                                             3
 ACTION:UPD 12-08-06 17:50 OP:ep   STATUS:               ID:20120619111300 L   I
 2012-06-19-1110-00M.COL___199                                                 6
 STAT SP IPHASW D HRMM SECON CODA AMPLIT PERI AZIMU VELO AIN AR TRES W  DIS CAZ7
 BAR2 SZ EP   1   1113 21.13                             170   -0.08 7 26.7 187 
 BAR2 SZ I        1113 21.32         5.6 0.21                          26.7 187 
 BAR2 SZ ES   1   1113 37.41                             170    0.17 7 26.7 187 
 RUS  HZ EP   1   1113 25.47                             144    0.10 7  104 176 
 RUS  HE ES   1   1113 44.48                             144   -0.16 7  104 176 
 RUS  HZ I        1113 46.17         1.8 0.20                           104 176 
 PTB  HN ES   2   1113 49.45                             134   -0.25 5  148 257 
 PTB  HZ I        1113 54.37         3.9 0.21                           148 257 
 NOR  SE ES   2   1114  5.54                             120    0.25 4  236 234 
                                                                                
