 2012 1119 1841 44.5 L   6.807 -73.133148.9  RSN 13 0.5 2.4LRSN                1
 GAP=138        0.93       3.3     4.8  6.2 -0.3297E+00  0.8971E+01  0.3576E+01E
 Epicentro: LOS SANTOS - SANTANDER                                             3
 ACTION:UPD 12-12-05 15:34 OP:}ep  STATUS:               ID:20121119184144 L   I
 2012-11-19-1840-00M.COL___233                                                 6
 STAT SP IPHASW D HRMM SECON CODA AMPLIT PERI AZIMU VELO AIN AR TRES W  DIS CAZ7
 BAR2 SZ EP   1   1842  4.49                             170   -0.01 7 24.3 193 
 BAR2 SZ ES   1   1842 19.61                             170   -0.52 7 24.3 193 
 BAR2 SZ I        1842 22.28        89.3 0.44                          24.3 193 
 BRR  HZ EP   1   1842  6.37                             153    0.36 7 72.1 298 
 BRR  HN ES   1   1842 23.80                             153    0.99 7 72.1 298 
 BRR  HZ I        1842 24.33        27.0 0.14                          72.1 298 
 PAM  SZ EP       1842  7.28                             152    0.3410 76.0  39 
 PAM  SN ES   1   1842 24.65                             152    0.18 7 76.0  39 
 PAM  SZ I        1842 26.83        21.8 0.54                          76.0  39 
 RUS  HZ EP       1842  8.33                             144   -0.2510  101 177 
 RUS  HE ES   1   1842 27.13                             144   -0.26 7  101 177 
 RUS  HZ I        1842 29.74        22.3 0.48                           101 177 
 PTB  HZ EP   1   1842 10.96                             132   -0.87 7  149 259 
 PTB  HN ES   1   1842 32.38                             132   -0.79 7  149 259 
 PTB  HZ I        1842 35.89        35.5 0.12                           149 259 
 OCA  HN ES   1   1842 35.29                             130    0.08 7  160 353 
 ZAR  HZ EP   1   1842 17.38                             123    0.15 6  205 292 
 ZAR  HN ES   1   1842 42.61                             123   -0.17 6  205 292 
 ZAR  HZ I        1842 49.94        26.0 0.42                           205 292 
 SML  HZ EP   1   1842 20.53                             118   -0.74 6  244 335 
 SML  HE ES   1   1842 49.47                             118   -0.50 6  244 335 
 SML  HZ I        1842 51.94        32.9 0.10                           244 335 
 CHI  HZ EP   1   1842 22.60                             118    0.14 6  250 195 
 CHI  HN ES   1   1842 52.09                             118    0.00 6  250 195 
 CHI  HZ I        1842 59.63        11.1 0.58                           250 195 
 HEL  HZ EP   1   1842 25.48                             115    0.47 6  274 256 
 HEL  HZ I        1843  2.65        11.8 0.24                           274 256 
 GUY  SZ EP   1   1842 29.58                             113    0.92 5  305 235 
 GUY  SE ES   1   1843  4.00                             113    0.87 5  305 235 
 GUY  SZ I        1843 15.07        23.0 0.32                           305 235 
 RREF HZ EP   1   1842 30.91                             111   -0.02 5  323 229 
 RREF HN ES   4   1843  9.13                             111    1.97 0  323 229 
 RREF HZ I        1843 15.50        13.0 0.28                           323 229 
 MON  HZ EP   4   1842 32.05                             109   -1.62 0  354 308 
 MON  HN ES   4   1843 10.54                             109   -1.50 0  354 308 
 PRA  HZ EP   1   1842 37.85                             107   -0.41 4  393 210 
 PRA  HN ES   1   1843 20.75                             107    0.54 4  393 210 
 PRA  HZ I        1843 24.73         8.4 0.24                           393 210 
                                                                                
