 2012  319 1354 24.6 L   6.750 -73.197153.1  RSN  4 0.1 1.2LRSN                1
 GAP=228        0.34       3.9     4.0  4.6  0.8504E+01 -0.1482E+01 -0.8624E+00E
 ACTION:UP  12-03-31 23:21 OP:EP   STATUS:               ID:20120319135424 L   I
 2012-03-19-1350-00M.COL___202                                                 6
 STAT SP IPHASW D HRMM SECON CODA AMPLIT PERI AZIMU VELO SNR AR TRES W  DIS CAZ7
 BAR2 SZ EP   3   1354 44.71                             173    -0.3 2   18 175 
 BAR2 SZ I        1355  0.98         4.8 0.54                            18 175 
 BRR  HZ EP   1   1354 46.39                             154     0.0 7   69 305 
 BRR  HZ I        1354 46.71         3.9 0.10                            69 305 
 BRR  HE ES   1   1355  3.48                             154     0.0 7   69 305 
 RUS  HZ EP   1   1354 48.87                             147     0.2 7   96 172 
 RUS  HN ES   1   1355  7.45                             147    -0.1 7   96 172 
 RUS  HZ I        1355  8.75         2.2 0.56                            96 172 
 PTB  HZ EP   1   1354 51.46                             135    -0.1 7  141 261 
 PTB  HN ES   1   1355 12.65                             135     0.0 7  141 261 
 PTB  HZ I        1355 14.47         0.9 0.28                           141 261 
                                                                                
