 2010  419 1519  5.5 L   6.807 -72.962146.0  RSN  5 0.4 2.3LRSN                1
 GAP=226        0.86       6.0    14.3  8.5 -0.1599E+02 -0.1061E+02  0.4141E+01E
 Epicentro: CEPITA - SANTANDER                                                 3
 ACTION:UPD 10-08-24 09:59 OP:vdl  STATUS:               ID:20100419151917 L   I
 2010-04-19-1515-23S.COL___100                                                 6
 STAT SP IPHASW D HRMM SECON CODA AMPLIT PERI AZIMU VELO AIN AR TRES W  DIS CAZ7
 BAR2 SZ EP   1   1519 25.56                             167     0.2 7   34 226 
 BAR2 SZ ES   1   1519 40.61                             167    -0.3 7   34 226 
 BRR  HZ IP     C 1519 28.05                             147     0.310   89 292 
 BRR  HN ES   1   1519 45.33                             147     0.2 7   89 292 
 BRR  HZ I        1519 47.70        30.4 0.12                            89 292 
 OCA  SZ EP   1   1519 34.55                             129     0.5 7  163 346 
 OCA  SZ ES   1   1519 55.59                             129    -0.8 7  163 346 
 OCA  SZ I        1520  1.93        25.7 0.30                           163 346 
 RREF BZ EP   1   1519 52.99                             110    -0.5 5  338 232 
 PRA  HZ EP   2   1519 59.67                             106    -0.6 3  403 212 
 PRA  HN ES   2   1520 42.67                             106    -0.4 3  403 212 
 PRA  HZ I        1520 44.94         5.8 0.33                           403 212 
                                                                                
