 2014  719 1306 59.9 L   6.782 -73.079154.7  RSN  5 0.6 1.7LRSN                1
 GAP=146        1.41      14.6    11.1 11.4  0.9414E+02 -0.1176E+02 -0.2233E+02E
 Epicentro: LOS SANTOS - SANTANDER                                             3
 ACTION:UPD 15-03-16 20:45 OP:nd   STATUS:               ID:20140719130659 L   I
 OLDACT:DUP 14-07-19 23:46 OP:stll STATUS:               ID:20140719125820d    3
 2014-07-19-1258-19M.COL___272                                                 6
 STAT SP IPHASW D HRMM SECON CODA AMPLIT PERI AZIMU VELO AIN AR TRES W  DIS CAZ7
 BAR2 SZ EP       13 7 20.18                             171   -0.4110 23.9 209 
 BAR2 SZ ES       13 7 36.26                             171   -0.4910 23.9 209 
 BAR2 SZ I        13 7 38.51         9.4 0.38            156           23.9 209 
 PAM  SZ EP       13 7 22.59                             153   -0.3010 74.6  34 
 PAM  SZ I        13 7 43.57        20.1 0.28            130           74.6  34 
 BRR  HZ EP       13 7 23.01                             152    0.6010 78.6 297 
 BRR  HN ES       13 7 40.83                             152    0.8410 78.6 297 
 RUS  HZ EP       13 7 24.68                             146    0.3210 98.3 180 
 RUS  HZ I        13 7 42.63         6.1 0.18            133           98.3 180 
 ZAR  HZ EP       13 7 33.82                             123    0.14 8  212 292 
 ZAR  HZ I        13 7 34.08         3.0 0.36            119            212 292 
 ZAR  HE ES       13 7 59.10                             123   -0.95 8  212 292 
                                                                                
