 2012  419 1203  2.0 L   6.730 -73.107135.8  RSN  8 0.3 2.1LRSN                1
 GAP=145        0.78       3.9     4.2  5.6 -0.2395E+01  0.6232E+01 -0.1706E+01E
 Epicentro: JORDAN - SANTANDER                                                 3
 ACTION:UPD 12-07-05 11:54 OP:tino STATUS:               ID:20120419120302 L   I
 2012-04-19-1200-00M.COL___186                                                 6
 STAT SP IPHASW D HRMM SECON CODA AMPLIT PERI AZIMU VELO AIN AR TRES W  DIS CAZ7
 BAR2 SZ EP       12 3 20.29                             172     0.010   17 209 
 BAR2 SZ ES   1   12 3 34.51                             172    -0.1 7   17 209 
 BAR2 SZ I        12 3 37.41        29.0 0.26                            17 209 
 BRR  HZ EP       12 3 22.33                             148    -0.210   79 302 
 BRR  HZ I        12 3 24.17        37.1 0.13                            79 302 
 BRR  HN ES       12 3 39.02                             148     0.410   79 302 
 PAM  SZ EP       12 3 23.43                             148     0.010   81  34 
 PAM  SN ES       12 3 39.94                             148    -0.110   81  34 
 RUS  HZ EP   1   12 3 24.38                             144     0.2 7   93 178 
 RUS  HN ES   1   12 3 41.30                             144    -0.2 7   93 178 
 RUS  HZ I        12 3 44.07         7.9 0.21                            93 178 
 OCA  SZ EP       12 3 30.56                             126     0.2 9  168 352 
 ZAR  HZ EP   1   12 3 33.85                             119    -0.7 6  211 294 
 ZAR  HN ES   1   12 3 59.44                             119    -0.5 6  211 294 
 ZAR  HZ I        12 4  4.54        17.0 0.10                           211 294 
 NOR  SN ES   1   12 4  4.55                             116     0.1 6  234 237 
 HEL  HZ EP   1   12 3 42.55                             112     0.6 6  275 258 
 HEL  HZ I        12 4 19.46         7.3 0.47                           275 258 
                                                                                
