 2014 1019 1259 37.3 L   6.806 -73.158143.9  RSN  9 0.4 1.9LRSN                1
 GAP=135        1.08       3.6     4.5  6.1  0.5431E+00  0.6127E+01 -0.1063E+01E
 Epicentro: LOS SANTOS - SANTANDER                                             3
 ACTION:UPD 14-11-29 23:51 OP:nd   STATUS:               ID:20141019125937 L   I
 OLDACT:UP  14-10-19 22:47 OP:cam  STATUS:               ID:20141019125815     3
 OLDACT:REG 14-10-19 20:39 OP:cam  STATUS:               ID:20141019125815     3
 2014-10-19-1258-15M.COL___265                                                 6
 STAT SP IPHASW D HRMM SECON CODA AMPLIT PERI AZIMU VELO AIN AR TRES W  DIS CAZ7
 BAR2 SZ EP     C 1259 56.67                             170   -0.0110 23.8 186 
 BAR2 SZ ES       13 0 11.06                             170   -0.7610 23.8 186 
 BAR2 SZ I        13 0 14.40        28.3 0.92            171           23.8 186 
 BRR  HZ EP       1259 58.63                             153    0.5010 69.7 299 
 BRR  HN ES       13 0 14.65                             153    0.2510 69.7 299 
 BRR  HZ I        13 0 20.90        10.1 0.48            150           69.7 299 
 PAM  SZ EP     D 1259 59.65                             150    0.3410 77.8  41 
 PAM  SE ES       13 0 16.79                             150    0.2910 77.8  41 
 PAM  SZ I        13 0 18.60         9.8 0.20            154           77.8  41 
 RUS  HZ EP       13 0  0.66                             143   -0.2310  101 175 
 RUS  HN ES       13 0 19.53                             143    0.2210  101 175 
 RUS  HZ I        13 0 20.01         4.3 0.50            148            101 175 
 PTB  HZ EP       13 0  3.30                             132   -0.67 9  147 258 
 PTB  HN ES       13 0 24.52                             132   -0.28 9  147 258 
 PTB  HZ I        13 0 31.68        10.8 0.34            132            147 258 
 SPBC HZ EP       13 0  5.64                             129    0.05 9  163 218 
 SPBC HN ES       13 0 27.73                             129    0.05 9  163 218 
 SPBC HZ I        13 0 30.69        13.9 0.82            131            163 218 
 ZAR  HZ EP       13 0  9.72                             122    0.29 9  203 292 
 ZAR  HN ES       13 0 35.22                             122    0.70 9  203 292 
 ZAR  HZ I        13 0 40.73        11.9 0.36            123            203 292 
 SML  HZ EP       13 0 12.95                             117   -0.71 8  243 336 
 SML  HN ES       13 0 41.49                             117   -0.56 8  243 336 
 SML  HZ I        13 0 49.18         6.7 0.22            119            243 336 
 CHI  HZ EP       13 0 15.22                             117    0.33 8  249 195 
                                                                                
