 2013 1119 1142 43.7 L   6.792 -73.160145.5  RSN  6 0.5 1.9LRSN                1
 GAP=135        1.31       5.6     6.6  9.4  0.1197E+01  0.1035E+02 -0.4939E+01E
 Epicentro: LOS SANTOS - SANTANDER                                             3
 ACTION:UPD 14-01-09 16:29 OP:ep   STATUS:               ID:20131119114243 L   I
 OLDACT:REG 13-11-19 16:26 OP:carl STATUS:               ID:20131119113845     3
 2013-11-19-1138-45M.COL___228                                                 6
 STAT SP IPHASW D HRMM SECON CODA AMPLIT PERI AZIMU VELO AIN AR TRES W  DIS CAZ7
 BAR2 SZ EP       1143  3.38                             171    0.0910 22.2 186 
 BAR2 SZ ES       1143 17.59                             171   -0.9710 22.2 186 
 BAR2 SZ I        1143 19.84        30.1 0.40            174           22.2 186 
 BRR  HZ EP       1143  5.30                             153    0.5110 70.2 300 
 BRR  HN ES       1143 22.13                             153    0.9210 70.2 300 
 BRR  HZ I        1143 23.03        15.8 0.48            151           70.2 300 
 PAM  SZ EP       1143  6.23                             150    0.2210 79.1  40 
 PAM  SN ES       1143 23.39                             150   -0.0110 79.1  40 
 PAM  SZ I        1143 25.65        10.8 0.56            150           79.1  40 
 RUS  HZ EP       1143  7.36                             144   -0.0310 99.8 175 
 RUS  HN ES       1143 26.07                             144    0.2310 99.8 175 
 RUS  HZ I        1143 26.75         6.2 0.22            147           99.8 175 
 PTB  HZ EP       1143 10.12                             132   -0.39 9  146 259 
 PTB  HN ES       1143 31.21                             132   -0.19 9  146 259 
 PTB  HZ I        1143 33.79         7.4 0.46            133            146 259 
 SML  HN ES       1143 48.19                             117   -0.73 8  244 336 
 SML  HN I        1143 55.80        13.8 0.10            117            244 336 
                                                                                
