 2012  119 1859 40.5 L   6.812 -73.118148.2  RSN  7 0.3 1.9LRSN                1
 GAP=139        0.54       3.4     3.7  5.7 -0.3942E+00  0.4112E+01  0.6285E+01E
 Epicentro: LOS SANTOS - SANTANDER                                             3
 ACTION:UP  12-02-03 08:18 OP:REBC STATUS:               ID:20120119185940 L   I
 2012-01-19-1857-59S.COL___187                                                 6
 STAT SP IPHASW D HRMM SECON CODA AMPLIT PERI AZIMU VELO SNR AR TRES W  DIS CAZ7
 BRR  HZ EP   1   19 0  2.06                             152     0.1 7   73 297 
 BRR  HN ES   1   19 0 19.15                             152     0.4 7   73 297 
 BRR  HZ I        19 0 22.87        19.7 0.14                            73 297 
 PAM  SZ EP   1   19 0  2.96                             152     0.2 7   74  38 
 PAM  SN ES   1   19 0 20.04                             152    -0.1 7   74  38 
 RUS  HZ EP   1   19 0  4.37                             144    -0.2 7  102 178 
 RUS  HN ES   1   19 0 23.11                             144    -0.2 7  102 178 
 RUS  HZ I        19 0 24.74        10.5 0.31                           102 178 
 PTB  HZ EP   1   19 0  7.53                             132    -0.4 7  151 259 
 PTB  HE ES   2   19 0 29.35                             132     0.0 5  151 259 
 ZAR  HE ES   2   19 0 38.38                             122    -0.6 4  206 291 
 ZAR  HZ I        19 0 44.36         9.3 0.43                           206 291 
 NOR  SZ EP   2   19 0 17.06                             119     0.4 4  238 235 
 NOR  SN ES   2   19 0 45.15                             119     0.2 4  238 235 
 CHI  HZ EP   1   19 0 18.89                             117     0.4 6  251 196 
 CHI  HN ES   2   19 0 48.11                             117    -0.1 4  251 196 
 CHI  HZ I        19 0 54.20         4.0 0.21                           251 196 
                                                                                
