 2016  319 1842 57.9 L   6.781 -73.193142.7  RSN  7 0.3 2.0LRSN                1
 GAP=142        0.70       3.8     3.7  5.3 -0.7025E+01  0.6871E+01 -0.1105E+01E
 Epicentro: ZAPATOCA - SANTANDER                                               3
 ACTION:UPD 16-05-13 21:25 OP:cam  STATUS:               ID:20160319184257 L   I
 OLDACT:DUP 16-03-20 00:44 OP:cara STATUS:               ID:20160319183745d    3
 OLDACT:REG 16-03-19 22:13 OP:cara STATUS:               ID:20160319183744     3
 2016-03-19-1837-44M.COL___298                                                 6
 STAT SP IPHASW D HRMM SECON CODA AMPLIT PERI AZIMU VELO AIN AR TRES W  DIS CAZ7
 BAR2 EZ EP       1843 16.96                             171   -0.1610 20.9 177 
 BAR2 EZ I        1843 17.16        20.2 0.40            172           20.9 177 
 BAR2 EZ ES       1843 32.12                             171    0.0110 20.9 177 
 PAM  EZ IP       1843 20.34                             149    0.2410 82.4  41 
 PAM  EZ I        1843 20.48        22.9 0.28            151           82.4  41 
 PAM  EN ES       1843 37.61                             149    0.1910 82.4  41 
 RUS  HZ EP       1843 20.97                             144   -0.2710 99.0 173 
 RUS  HN ES       1843 39.35                             144   -0.1010 99.0 173 
 RUS  HZ I        1843 40.35        10.2 0.34            148           99.0 173 
 PTB  HZ EP       1843 23.74                             132   -0.38 9  142 259 
 PTB  HN ES       1843 44.31                             132   -0.26 9  142 259 
 PTB  HZ I        1843 49.91         9.9 0.34            131            142 259 
 SPBC HZ EP       1843 25.90                             129    0.20 9  158 218 
 SPBC HN ES       1843 47.55                             129    0.16 9  158 218 
 SPBC HZ I        1843 50.21        12.8 0.22            131            158 218 
 ZAR  HN ES   4   1843 56.97                             122    2.41 0  200 293 
 ZAR  HZ I        1844  1.17        13.8 0.26            122            200 293 
 GUY2CHE ES       1844 14.87                             112    0.70 7  296 235 
 GUY2CHZ I        1844 23.50         5.1 0.54                           296 235 
                                                                                
