 2017  819 1727 32.7 L   6.802 -73.139142.0  RSN 18 0.6 2.0LRSN                1
 GAP=101        0.89       3.3     3.2  4.8 -0.1923E+01  0.8093E+00  0.4594E+01E
 Epicentro: LOS SANTOS - SANTANDER                                             3
 ACTION:UPD 17-09-04 20:22 OP:rebc STATUS:               ID:20170819172732 L   I
 OLDACT:UP  17-08-19 19:58 OP:and  STATUS:               ID:20170819171738     3
 OLDACT:UP  17-08-19 19:56 OP:and  STATUS:               ID:20170819171738     3
 OLDACT:UP  17-08-19 19:56 OP:and  STATUS:               ID:20170819171738     3
 OLDACT:UP  17-08-19 19:53 OP:and  STATUS:               ID:20170819171738     3
 OLDACT:UP  17-08-19 19:53 OP:and  STATUS:               ID:20170819171738     3
 OLDACT:UP  17-08-19 19:52 OP:and  STATUS:               ID:20170819171738     3
 OLDACT:UP  17-08-19 19:52 OP:and  STATUS:               ID:20170819171738     3
 OLDACT:REG 17-08-19 19:26 OP:and  STATUS:               ID:20170819171738     3
 2017-08-19-1718-00M.COL___410                                                 6
 STAT SP IPHASW D HRMM SECON CODA AMPLIT PERI AZIMU VELO AIN AR TRES W  DIS CAZ7
 BAR2 EZ IP     C 1727 51.62                             170   -0.2710 23.7 192 
 BAR2 EZ ES       1728  7.00                             170    0.1510 23.7 192 
 BAR2 EZ I        1728  7.55        26.4 0.26            166           23.7 192 
 BRR  HZ IP     D 1727 53.41                             152   -0.0610 71.7 298 
 BRR  HN ES       1728 10.45                             152    0.7710 71.7 298 
 BRR  HZ I        1728 12.00        18.4 0.26            149           71.7 298 
 PAM  EZ IP     D 1727 54.45                             151   -0.0310 76.7  39 
 PAM  EN ES       1728 11.37                             151   -0.0910 76.7  39 
 PAM  EZ I        1728 13.41        20.2 0.52            155           76.7  39 
 RUS  HZ EP       1727 55.74                             143   -0.3610  101 176 
 RUS  HN ES       1728 14.13                             143   -0.2210  101 176 
 RUS  HZ I        1728 16.23        13.5 0.26            142            101 176 
 TAM  HZ IP     C 1728  0.01                             130   -0.01 9  154 105 
 SPBC HZ EP       1728  1.06                             128    0.09 9  164 219 
 SPBC HN ES       1728 22.70                             128   -0.33 9  164 219 
 YPLC HZ IP     C 1728  2.19                             126   -0.02 9  177 152 
 YPLC HN ES   2   1728 26.38                             126    1.15 4  177 152 
 YPLC HZ I        1728 28.84         7.3 0.32            126            177 152 
 ZAR  HZ EP   2   1728  5.92                             122    0.96 4  205 292 
 ZAR  HN ES   1   1728 29.71                             122   -0.42 6  205 292 
 ZAR  HZ I        1728 35.08        12.0 0.38            121            205 292 
 TABC EZ EP   1   1728  8.71                             119    0.42 6  230 211 
 TABC EZ ES   2   1728 37.64                             119    1.59 4  230 211 
 TABC EZ I        1728 41.72        10.2 0.36            117            230 211 
 NOR  HZ EP       1728  8.05                             118   -0.24 8  235 235 
 NOR  HN ES       1728 35.51                             118   -0.54 8  235 235 
 NOR  HZ I        1728 41.67         6.2 0.16            116            235 235 
 CHI  HZ EP   1   1728 10.21                             116   -0.03 6  249 195 
 CHI  HN ES   1   1728 39.77                             116    0.25 6  249 195 
 CHI  HZ I        1728 44.66         3.9 0.24            116            249 195 
 ROSC BZ EP   4   1728  7.67                             116   -3.01 0  253 211 
 ROSC BN ES   3   1728 42.13                             116    1.83 2  253 211 
 ROSC BZ I        1728 46.67         8.8 0.45            115            253 211 
 HEL  HZ EP   3   1728 14.38                             114    1.57 2  273 256 
 HEL  HN ES   1   1728 43.30                             114   -0.79 6  273 256 
 HEL  HZ I        1728 50.28         4.4 0.24            113            273 256 
 URE  HN ES   4   1728 42.63                             113   -2.97 0  284 292 
 URE  HZ I        1728 51.75         7.5 0.36            112            284 292 
 GUY2CHZ EP   9   1728 17.40                             112    1.18 0  302 235 
 GUY2CHN ES       1728 51.78                             112    0.44 7  302 235 
 GUY2CHZ I        1728 59.78         4.0 0.68                           302 235 
 PTGC HZ EP   3   1728 14.98                             111   -1.41 2  309 159 
 PRA  HZ EP   1   1728 26.10                             106   -0.06 4  393 210 
 PRA  HN ES   1   1729  8.76                             106    0.90 4  393 210 
 PRA  HZ I        1729 13.01         3.7 0.50            106            393 210 
 ORTC HZ EP   1   1728 27.20                             106    0.63 4  396 216 
 ORTC HN ES   4   1729 10.87                             106    2.29 0  396 216 
 ORTC HZ I        1729 16.11         2.2 0.28            105            396 216 
                                                                                
