 2011 1019 1132 51.0 L   6.741 -73.095146.0  RSN  4 0.4 1.3LRSN                1
 GAP=146        0.86       9.5    16.5 17.6  0.7508E+02 -0.2074E+03 -0.3442E+02E
 Epicentro: JORDAN - SANTANDER                                                 3
 ACTION:UPD 12-07-13 16:04 OP:ep   STATUS:               ID:20111019113251 L   I
 2011-10-19-1129-26S.COL___168                                                 6
 STAT SP IPHASW D HRMM SECON CODA AMPLIT PERI AZIMU VELO AIN AR TRES W  DIS CAZ7
 BAR2 SZ EP   1   1133 10.47                             173   -0.15 7 19.1 210 
 BAR2 SZ I        1133 28.76        10.0 0.46                          19.1 210 
 BRR  HE ES       1133 29.82                             151    0.2410 79.3 301 
 PAM  SZ EP   1   1133 13.48                             150    0.08 7 79.3  33 
 BRR  HZ EP   1   1133 12.00                             151   -0.69 7 79.3 301 
 RUS  HZ EP   1   1133 14.94                             146    0.60 7 93.8 179 
 RUS  HE ES   2   1133 31.92                             146   -0.60 5 93.8 179 
 RUS  HZ I        1133 34.65         1.7 0.27                          93.8 179 
                                                                                
