 2016  619 1049 10.9 L   6.834 -73.104148.7  RSN  6 0.5 1.3LRSN                1
 GAP=244        1.05       6.9     6.9  9.2  0.1177E+02  0.1154E+02 -0.5955E+00E
 Epicentro: LOS SANTOS - SANTANDER                                             3
 ACTION:UPD 16-07-21 22:20 OP:rebc STATUS:               ID:20160619104910 L   I
 OLDACT:UP  16-06-19 22:51 OP:dani STATUS:               ID:20160619104745     3
 OLDACT:REG 16-06-19 19:04 OP:dani STATUS:               ID:20160619104745     3
 2016-06-19-1047-45M.COL___340                                                 6
 STAT SP IPHASW D HRMM SECON CODA AMPLIT PERI AZIMU VELO AIN AR TRES W  DIS CAZ7
 BAR2 EZ EP       1049 31.02                             169    0.0710 28.1 198 
 BAR2 EZ ES       1049 46.20                             169   -0.4210 28.1 198 
 BAR2 EZ I        1049 47.62         6.1 0.36                          28.1 198 
 BRR  HZ EP       1049 32.72                             152    0.2510 73.6 294 
 BRR  HN ES       1049 49.91                             152    0.5910 73.6 294 
 BRR  HZ I        1049 50.53         2.8 0.15                          73.6 294 
 RUS  HZ EP   2   1049 34.49                             143   -0.67 5  104 179 
 RUS  HE ES   2   1049 53.75                             143   -0.36 5  104 179 
 PTB  HZ EP       1049 38.53                             132   -0.01 9  153 258 
 PTB  HE ES       1049 59.48                             132   -0.66 9  153 258 
 PTB  HZ I        1050  4.91         1.3 0.28                           153 258 
 SPBC HN ES       1050  3.65                             129    0.68 9  169 219 
 ZAR  HZ EP   4   1049 45.49                             123    1.69 0  207 291 
 ZAR  HE ES       1050  9.19                             123   -0.30 8  207 291 
 ZAR  HZ I        1050 14.10         2.1 0.38                           207 291 
                                                                                
