 2013 1219 1336  7.9 L   6.725 -73.174144.7  RSN  6 0.4 1.7LRSN                1
 GAP=228        1.03       4.9     6.2  7.4  0.8627E+01  0.1602E+02  0.2956E+01E
 Epicentro: VILLANUEVA - SANTANDER                                             3
 ACTION:UPD 14-01-13 10:19 OP:ep   STATUS:               ID:20131219133607 L   I
 OLDACT:REG 13-12-19 14:32 OP:nd   STATUS:               ID:20131219133000     3
 2013-12-19-1330-00M.COL___285                                                 6
 STAT SP IPHASW D HRMM SECON CODA AMPLIT PERI AZIMU VELO AIN AR TRES W  DIS CAZ7
 BAR2 SZ EP       1336 27.16                             174   -0.0910 14.7 183 
 BAR2 SZ ES       1336 41.48                             174   -0.8710 14.7 183 
 BAR2 SZ I        1336 43.44        15.7 0.24            170           14.7 183 
 BRR  HZ EP       1336 29.30                             152    0.2710 72.9 305 
 BRR  HN ES       1336 46.06                             152    0.5610 72.9 305 
 BRR  HZ I        1337  7.23        16.6 0.32            148           72.9 305 
 RUS  HZ EP       1336 31.10                             146    0.1210 92.6 174 
 RUS  HN ES       1336 49.29                             146    0.3110 92.6 174 
 RUS  HZ I        1336 51.19         5.7 0.26            158           92.6 174 
 SPBC HZ EP       1336 35.63                             130    0.11 9  155 220 
 SPBC HN ES       1336 57.33                             130    0.26 9  155 220 
 SPBC HZ I        1337  1.88         5.8 0.12            137            155 220 
 ZAR  HZ EP       1336 39.90                             122   -0.41 9  204 295 
 ZAR  HN ES       1337  5.54                             122   -0.05 9  204 295 
 ZAR  HZ I        1337 14.63         2.9 0.14            125            204 295 
 GUY2CHZ EP   4   1336 52.66                             113    2.03 0  294 236 
 GUY2CHN ES       1337 23.44                             113   -0.52 7  294 236 
 GUY2CHZ I        1337 33.46         1.5 0.52                           294 236 
                                                                                
