 2010  519 1620  7.1 L   7.292 -73.359109.1  RSN  5 0.1 1.9LRSN                1
 GAP=123        0.39       2.4     4.5  5.6 -0.2889E+01 -0.2852E+01 -0.1873E+01E
 Epicentro: SABANA DE TORRES - SANTANDER                                       3
 ACTION:UP  10-08-24 10:05 OP:vdl  STATUS:               ID:20100519162007 L   I
 2010-05-19-1617-06S.COL___108                                                 6
 STAT SP IPHASW D HRMM SECON CODA AMPLIT PERI AZIMU VELO SNR AR TRES W  DIS CAZ7
 BRR  HZ EP       1620 22.92                             156     0.210   44 242 
 BRR  HZ I        1620 23.37        11.9 0.23                            44 242 
 BRR  HE ES   2   1620 34.87                             156    -0.1 5   44 242 
 GUE  SZ EP       1620 25.15                             143    -0.110   76  39 
 BAR2 SZ EP       1620 25.38                             141     0.010   80 166 
 BAR2 SZ ES   2   1620 39.45                             141    -0.2 5   80 166 
 GRA  SZ ES   2   1620 41.14                             138     0.3 5   90  43 
 OCA  SZ EP       1620 27.31                             133     0.010  105   2 
 OCA  SZ ES   2   1620 42.94                             133    -0.2 5  105   2 
 OCA  SZ I        1620 45.42        39.5 0.35                           105   2 
                                                                                
