 2012  819 1214  4.2 L   6.805 -73.151147.5  RSN  5 0.3 1.7LRSN                1
 GAP=136        0.70       5.1     4.8  7.9 -0.2047E+01  0.2904E+01  0.5105E+01E
 Epicentro: LOS SANTOS - SANTANDER                                             3
 ACTION:UPD 12-09-10 11:57 OP:ep   STATUS:               ID:20120819121404 L   I
 2012-08-19-1210-00M.COL___217                                                 6
 STAT SP IPHASW D HRMM SECON CODA AMPLIT PERI AZIMU VELO AIN AR TRES W  DIS CAZ7
 BAR2 SZ EP       1214 23.88                             170   -0.1910 23.7 188 
 BAR2 SZ I        1214 41.30        11.2 0.18                          23.7 188 
 BRR  HZ EP       1214 25.72                             153    0.2110 70.4 298 
 BRR  HZ I        1214 26.25         9.2 0.12                          70.4 298 
 BRR  HE ES   1   1214 42.66                             153    0.54 7 70.4 298 
 PAM  SZ EP   1   1214 26.86                             151    0.24 7 77.4  40 
 PAM  SN ES   1   1214 43.61                             151   -0.48 7 77.4  40 
 RUS  HZ EP   1   1214 28.38                             144    0.20 7  101 176 
 RUS  HN ES   1   1214 46.98                             144    0.11 7  101 176 
 PTB  HZ EP   1   1214 30.98                             132   -0.30 7  147 259 
 PTB  HZ I        1214 51.11         5.7 0.79                           147 259 
 PTB  HE ES   1   1214 51.95                             132   -0.44 7  147 259 
                                                                                
