 2011 1119 1953 17.9 L   6.785 -73.102144.1  RSN  5 0.1 1.8LRSN                1
 GAP=143        0.34       2.3     2.8  3.6 -0.1699E+01  0.9955E+00  0.9900E+00E
 Epicentro: LOS SANTOS - SANTANDER                                             3
 ACTION:UPD 12-07-13 16:11 OP:ep   STATUS:               ID:20111119195317 L   I
 2011-11-19-1949-44S.COL___178                                                 6
 STAT SP IPHASW D HRMM SECON CODA AMPLIT PERI AZIMU VELO AIN AR TRES W  DIS CAZ7
 BAR2 SZ IP       1953 37.20                             170   -0.0910 23.1 203 
 BAR2 SZ I        1953 37.65        13.9 0.15                          23.1 203 
 BAR2 SZ ES   1   1953 52.48                             170    0.04 7 23.1 203 
 PAM  SZ EP   1   1953 40.01                             151    0.21 7 75.7  36 
 PAM  SN ES   1   1953 56.96                             151    0.04 7 75.7  36 
 PAM  SZ I        1953 58.89         8.1 0.45                          75.7  36 
 BRR  HZ EP   1   1953 38.91                             151   -0.22 7 76.3 298 
 BRR  HN ES   1   1953 55.72                             151    0.00 7 76.3 298 
 BRR  HZ I        1953 55.93        25.2 0.33                          76.3 298 
 RUS  HZ EP   1   1953 41.31                             144   -0.01 7 98.7 179 
 RUS  HZ I        1953 42.50         8.4 0.13                          98.7 179 
 RUS  HN ES   1   1953 59.58                             144   -0.03 7 98.7 179 
 NOR  SE ES   1   1954 22.08                             118    0.21 6  238 235 
                                                                                
