 2014  119 1322  4.3 L   6.820 -73.115140.7  RSN 13 0.5 2.4LRSN                1
 GAP=186        1.15       3.0     4.8  6.0 -0.6090E+00  0.5772E+01 -0.1829E+00E
 Epicentro: LOS SANTOS - SANTANDER                                             3
 ACTION:UPD 14-03-13 09:56 OP:ep   STATUS:               ID:20140119132204 L   I
 OLDACT:REG 14-01-19 15:44 OP:carl STATUS:               ID:20140119132000     3
 2014-01-19-1320-00M.COL___285                                                 6
 STAT SP IPHASW D HRMM SECON CODA AMPLIT PERI AZIMU VELO AIN AR TRES W  DIS CAZ7
 BAR2 SZ IP     C 1322 23.75                             169    0.3210 26.3 197 
 BAR2 SZ ES       1322 37.73                             169   -0.5810 26.3 197 
 BAR2 SZ I        1322 39.91       113.1 0.18            168           26.3 197 
 BRR  HZ IP     C 1322 25.57                             151    0.5110 73.2 296 
 BRR  HN ES       1322 42.28                             151    1.0610 73.2 296 
 BRR  HZ I        1322 45.54        35.8 0.20            150           73.2 296 
 RUS  HZ EP       1322 27.82                             142    0.0710  103 178 
 RUS  HN ES       1322 46.17                             142    0.1710  103 178 
 RUS  HZ I        1322 47.86        27.8 0.28            144            103 178 
 PTB  HZ EP       1322 30.90                             130   -0.35 9  152 258 
 PTB  HE ES       1322 51.65                             130   -0.59 9  152 258 
 PTB  HZ I        1322 54.50        26.4 0.14            130            152 258 
 OCA  HZ EP       1322 31.87                             129   -0.23 9  159 352 
 OCA  HN ES       1322 53.47                             129   -0.27 9  159 352 
 SPBC HZ EP       1322 32.91                             127    0.08 9  167 219 
 SPBC HN ES       1322 55.17                             127    0.12 9  167 219 
 SPBC HZ I        1323  0.67        27.4 0.26            128            167 219 
 ZAR  HZ EP       1322 37.02                             121    0.31 8  206 291 
 ZAR  HN ES       1323  2.04                             121    0.09 8  206 291 
 ZAR  HZ I        1323  4.54        27.4 0.34            122            206 291 
 NOR  HZ EP       1322 40.69                             117    0.47 8  239 235 
 NOR  HN ES       1323  7.85                             117   -0.36 8  239 235 
 NOR  HZ I        1323  9.71        11.8 0.40            118            239 235 
 SML  HZ EP       1322 39.90                             116   -0.73 8  243 334 
 SML  HN ES       1323  8.40                             116   -0.53 8  243 334 
 SML  HZ I        1323 14.56        26.0 0.28            118            243 334 
 CHI  HZ EP       1322 42.05                             116   -0.05 8  252 196 
 CHI  HN ES       1323 10.84                             116   -0.71 8  252 196 
 CHI  HZ I        1323 15.77         8.0 0.46            117            252 196 
 HEL  HZ EP       1322 45.72                             113    0.99 7  276 256 
 HEL  HN ES       1323 16.20                             113   -0.04 7  276 256 
 HEL  HZ I        1323 24.48         8.7 0.32            114            276 256 
 URE  HZ EP   4   1322 47.44                             112    2.00 0  286 291 
 URE  HN ES   4   1323 15.81                             112   -1.68 0  286 291 
 URE  HZ I        1323 17.33        24.9 0.12            113            286 291 
 GUY2CHZ EP       1322 48.49                             111    0.31 7  305 235 
 GUY2CHN ES       1323 21.88                             111   -0.50 7  305 235 
 GUY2CHZ I        1323 33.41         7.2 0.52                           305 235 
                                                                                
