 2012  919 1856 20.7 L   6.789 -73.091137.5  RSN  4 0.2 1.6LRSN                1
 GAP=144        0.38       3.0     4.4  5.0 -0.3637E+00 -0.1489E+01  0.6831E+00E
 Epicentro: LOS SANTOS - SANTANDER                                             3
 ACTION:UPD 12-10-22 14:19 OP:ep   STATUS:               ID:20120919185620 L   I
 2012-09-19-1850-00M.COL___226                                                 6
 STAT SP IPHASW D HRMM SECON CODA AMPLIT PERI AZIMU VELO AIN AR TRES W  DIS CAZ7
 BAR2 SZ EP   1   1856 39.31                             170   -0.03 7 24.0 205 
 BAR2 SZ ES   2   1856 53.65                             170   -0.23 5 24.0 205 
 BAR2 SZ I        1856 55.69        10.3 0.28                          24.0 205 
 PAM  SZ EP       1856 41.99                             150    0.1310 74.6  35 
 PAM  SE ES   2   1856 58.22                             150   -0.15 5 74.6  35 
 PAM  SZ I        1857  1.33         9.5 0.55                          74.6  35 
 BRR  HZ EP       1856 41.26                             149   -0.0510 77.1 297 
 BRR  HZ I        1856 53.68        12.7 0.56                          77.1 297 
 BRR  HE ES   2   1856 57.52                             149    0.13 5 77.1 297 
 RUS  HZ EP       1856 43.42                             142   -0.1110 99.2 180 
 RUS  HZ I        1856 44.65         2.7 0.18                          99.2 180 
 RUS  HN ES   2   1857  1.76                             142    0.42 5 99.2 180 
                                                                                
