 2013  819 1721 52.2 L   6.777 -73.092147.7  RSN  6 0.3 1.6LRSN                1
 GAP=145        0.83       4.4     5.7  5.7 -0.1968E+01  0.9171E+01  0.2870E+01E
 Epicentro: LOS SANTOS - SANTANDER                                             3
 ACTION:UPD 14-01-14 09:04 OP:ep   STATUS:               ID:20130819172152 L   I
 OLDACT:REG 13-08-19 15:47 OP:stll STATUS:               ID:20130819171850     3
 2013-08-19-1718-50M.COL___204                                                 6
 STAT SP IPHASW D HRMM SECON CODA AMPLIT PERI AZIMU VELO AIN AR TRES W  DIS CAZ7
 BAR2 SZ EP       1722 12.11                             171    0.0510 22.8 206 
 BAR2 SZ I        1722 12.40         7.9 0.40            163           22.8 206 
 BAR2 SZ ES       1722 27.81                             171    0.2710 22.8 206 
 PAM  SZ EP       1722 14.57                             152    0.0310 75.8  35 
 PAM  SE ES       1722 31.92                             152   -0.0310 75.8  35 
 PAM  SZ I        1722 34.19         8.4 0.52            150           75.8  35 
 BRR  HZ EP       1722 13.94                             151   -0.0010 77.7 298 
 BRR  HN ES       1722 30.93                             151    0.0410 77.7 298 
 BRR  HZ I        1722 34.14         9.9 0.38            139           77.7 298 
 RUS  HZ EP       1722 16.01                             145    0.0610 97.8 179 
 RUS  HN ES       1722 34.21                             145   -0.2610 97.8 179 
 RUS  HZ I        1722 35.63         3.1 0.32            141           97.8 179 
 PTB  HZ EP       1722 19.14                             131   -0.69 9  153 260 
 PTB  HZ I        1722 42.08         7.2 0.14            122            153 260 
 GUY2CHZ EP       1722 37.17                             112    0.87 7  305 236 
                                                                                
