 2014  519 1132  4.6 L   6.796 -73.166151.7  RSN  9 0.5 2.1LRSN                1
 GAP=154        1.02       6.9     6.6 10.4 -0.2375E+02 -0.1964E+02  0.4362E+02E
 Epicentro: LOS SANTOS - SANTANDER                                             3
 ACTION:UPD 15-03-16 16:59 OP:nd   STATUS:               ID:20140519113204 L   I
 OLDACT:REG 14-05-19 23:24 OP:cam  STATUS:               ID:20140519113000     3
 2014-05-19-1130-00M.COL___252                                                 6
 STAT SP IPHASW D HRMM SECON CODA AMPLIT PERI AZIMU VELO AIN AR TRES W  DIS CAZ7
 BRR  HZ EP       1132 26.60                             154    0.3110 69.5 300 
 BRR  HN ES       1132 43.94                             154    0.7210 69.5 300 
 BRR  HZ I        1132 46.02        11.2 0.36            156           69.5 300 
 PAM  SZ EP       1132 27.49                             151   -0.0510 79.1  41 
 PAM  SN ES   1   1132 44.83                             151   -0.62 7 79.1  41 
 PAM  SZ I        1132 46.72        24.8 0.52            159           79.1  41 
 PTB  HZ EP   1   1132 31.30                             134   -0.55 7  146 259 
 PTB  HN ES       1132 52.47                             134   -0.65 9  146 259 
 PTB  HZ I        1132 58.41        16.6 0.20            134            146 259 
 NOR  HZ EP     D 1132 40.84                             120    0.38 8  233 234 
 NOR  HN ES       1133  8.23                             120   -0.20 8  233 234 
 NOR  HZ I        1133 12.29         9.1 0.24            121            233 234 
 CHI  HZ EP   1   1132 42.16                             118   -0.36 6  248 195 
 CHI  HN ES       1133 12.33                             118    0.22 8  248 195 
 CHI  HZ I        1133 15.93         3.6 0.24            119            248 195 
 GUY2CHZ EP   4   1132 50.39                             114    2.14 0  299 235 
 GUY2CHE ES   4   1133 25.66                             114    3.35 0  299 235 
 GUY2CHZ I        1133 31.22         8.2 0.34                           299 235 
 RREF HZ EP   4   1132 52.48                             112    1.70 0  320 229 
 RREF HN ES   4   1133 29.05                             112    2.25 0  320 229 
 RREF HZ I        1133 36.26         7.0 0.54            113            320 229 
 PRA  HZ EP   4   1132 57.35                             108   -0.80 0  391 209 
 PRA  HE ES   4   1133 38.53                             108   -1.40 0  391 209 
 PRA  HZ I        1133 46.39         6.0 0.36            109            391 209 
 ORTC HZ EP   1   1132 59.01                             107    0.48 4  394 216 
 ORTC HN ES   4   1133 42.38                             107    1.78 0  394 216 
 ORTC HZ I        1133 49.28         4.2 0.22            109            394 216 
                                                                                
