 2017  419 1826 17.1 L   6.771 -73.158144.5  RSN  7 0.3 1.5LRSN                1
 GAP=136        0.78       3.6     3.6  6.4 -0.2158E+01  0.7241E+01 -0.3730E+01E
 Epicentro: LOS SANTOS - SANTANDER                                             3
 ACTION:UPD 17-05-30 21:14 OP:jn   STATUS:               ID:20170419182617 L   I
 OLDACT:DUP 17-04-20 00:53 OP:lv   STATUS:               ID:20170419181738d    3
 2017-04-19-1818-00M.COL___371                                                 6
 STAT SP IPHASW D HRMM SECON CODA AMPLIT PERI AZIMU VELO AIN AR TRES W  DIS CAZ7
 BAR2 EZ EP       1826 36.55                             172    0.0310 19.9 188 
 BAR2 EZ ES       1826 51.52                             172   -0.1410 19.9 188 
 BAR2 EZ I        1826 52.65        10.7 0.34            173           19.9 188 
 BRR  HZ EP       1826 38.35                             152    0.2110 71.6 301 
 BRR  HN ES   4   1826 56.36                             152    1.81 0 71.6 301 
 PAM  EZ EP       1826 39.37                             149   -0.0210 80.8  39 
 PAM  EN ES       1826 57.01                             149    0.2410 80.8  39 
 PAM  EZ I        1826 59.03         4.0 0.21            152           80.8  39 
 RUS  HZ EP       1826 40.54                             144    0.0410 97.4 175 
 RUS  HN ES       1826 58.39                             144   -0.3710 97.4 175 
 RUS  HZ I        1827  0.44         2.7 0.25            148           97.4 175 
 PTB  HZ EP       1826 43.32                             132   -0.47 9  146 260 
 PTB  HN ES       1827  4.44                             132   -0.17 9  146 260 
 PTB  HZ I        1827  7.09         2.6 0.16            133            146 260 
 SPBC HN ES       1827  7.79                             129    0.70 9  160 219 
 SPBC HZ I        1827  9.13         7.1 0.11            131            160 219 
 ZAR  HN ES       1827 14.68                             122   -0.03 9  204 293 
 ZAR  HZ I        1827 20.22         2.7 0.09            123            204 293 
                                                                                
