 2010  819 1632  1.2 L   6.783 -73.063139.3  RSN 15 0.4 2.9LRSN                1
 GAP=132        1.04       3.6     5.7  5.2 -0.8636E+01  0.1651E+01  0.3040E+01E
 Epicentro: LOS SANTOS - SANTANDER                                             3
 ACTION:UP  10-09-07 10:56 OP:vdl  STATUS:               ID:20100819163201 L   I
 2010-08-19-1629-48S.COL___115                                                 6
 STAT SP IPHASW D HRMM SECON CODA AMPLIT PERI AZIMU VELO SNR AR TRES W  DIS CAZ7
 BAR2 SZ IP       1632 20.16                             169     0.010   25 212 
 BAR2 SZ ES       1632 34.74                             169    -0.110   25 212 
 BAR2 SZ I        1632 35.82       275.4 0.25                            25 212 
 GIR2 SZ IP       1632 20.27                             165     0.010   36 336 
 GIR2 SZ ES   1   1632 35.22                             165     0.1 7   36 336 
 BRR  HZ IP     C 1632 22.07                             148    -0.210   80 297 
 BRR  HZ I        1632 22.44       410.0 0.09                            80 297 
 BRR  HN ES       1632 38.87                             148     0.310   80 297 
 RUS  HZ IP     C 1632 24.16                             143     0.010   98 181 
 RUS  HN ES   1   1632 41.73                             143    -0.4 7   98 181 
 RUS  HZ I        1632 44.80        63.7 0.35                            98 181 
 BRI  SZ EP       1632 25.03                             140     0.610  107  16 
 GRA  SZ EP       1632 26.20                             136     0.410  125  13 
 GRA  SZ ES       1632 45.26                             136     0.210  125  13 
 GRA  SZ I        1632 47.83       190.6 0.45                           125  13 
 OCA  SZ EP   1   1632 28.78                             127    -0.6 7  163 350 
 OCA  SZ ES   1   1632 50.02                             127    -1.3 7  163 350 
 OCA  SZ I        1632 54.50       140.4 0.38                           163 350 
 CHI  HZ EP   1   1632 38.91                             116     0.3 6  249 197 
 CHI  HE ES   1   1633  7.20                             116    -0.6 6  249 197 
 CHI  HZ I        1633 13.64        16.7 0.29                           249 197 
 HEL  HZ EP       1632 42.04                             113     0.0 7  280 257 
 HEL  HZ I        1633 19.17        44.5 0.35                           280 257 
 GUY  SZ EP   1   1632 45.49                             110     0.2 5  308 236 
 GUY  SN ES   1   1633 19.53                             110    -0.1 5  308 236 
 GUY  SZ I        1633 25.11       104.3 0.40                           308 236 
 RREF HZ EP   1   1632 48.19                             109     0.4 5  328 231 
 RREF HE ES   1   1633 24.61                             109     0.6 5  328 231 
 RREF HZ I        1633 29.43        30.7 0.26                           328 231 
 DBB  SZ EP   1   1632 48.96                             108    -0.6 5  349 274 
 DBB  SZ I        1633 29.27        16.0 0.27                           349 274 
 SDV  BZ EP       1632 49.89                             107    -0.5 6  355  49 
 SDV  BZ I        1632 50.84        20.1 0.14                           355  49 
 ANIL HZ EP       1632 51.88                             107     0.5 6  362 226 
 ANIL HZ I        1633 35.81        51.5 0.58                           362 226 
 PRA  HZ EP       1632 54.56                             105    -0.3 6  395 211 
 PRA  HZ I        1633 40.89        20.8 0.32                           395 211 
                                                                                
