 2010  219 1025 17.0 L   6.812 -73.005145.1  RSN  5 0.4 1.9LRSN                1
 GAP=197        0.68       4.3    19.8  8.9 -0.2236E+02  0.6944E+02 -0.1058E+01E
 Epicentro: CEPITA - SANTANDER                                                 3
 ACTION:UP  10-08-24 09:49 OP:vdl  STATUS:               ID:20100219102517 L   I
 2010-02-19-1020-00S.COL___092                                                 6
 STAT SP IPHASW D HRMM SECON CODA AMPLIT PERI AZIMU VELO SNR AR TRES W  DIS CAZ7
 BAR2 SZ IP       1025 36.91                             168     0.210   31 219 
 BAR2 SZ ES   2   1025 51.47                             168    -0.7 5   31 219 
 RUS  BZ EP   1   1025 40.82                             143     0.0 7  102 185 
 RUS  BZ I        1025 41.64         8.0 0.29                           102 185 
 RUS  BE ES   2   1025 59.64                             143     0.3 5  102 185 
 OCA  SZ EP   1   1025 45.49                             129     0.1 7  162 348 
 OCA  SZ ES   2   1026  7.35                             129    -0.2 5  162 348 
 CHI  HZ EP   1   1025 55.31                             116     0.0 6  254 198 
 CHI  HE ES   2   1026 25.07                             116    -0.1 4  254 198 
 CHI  HZ I        1026 32.42         3.5 0.54                           254 198 
 PRA  HZ EP   1   1026 10.45                             106    -1.1 4  401 211 
 PRA  HE ES   2   1026 54.92                             106     0.8 3  401 211 
 PRA  HZ I        1026 57.63         4.9 0.40                           401 211 
                                                                                
