 2013  519 1721 18.2 L   6.763 -73.147146.6  RSN  7 0.3 1.7LRSN                1
 GAP=138        0.62       3.9     3.8  4.9 -0.3903E+01  0.3910E+01  0.3271E+01E
 Epicentro: LOS SANTOS - SANTANDER                                             3
 ACTION:UPD 13-06-20 09:51 OP:ep   STATUS:               ID:20130519172118 L   I
 2013-05-19-1720-00M.COL___256                                                 6
 STAT SP IPHASW D HRMM SECON CODA AMPLIT PERI AZIMU VELO AIN AR TRES W  DIS CAZ7
 BAR2 SZ EP       1721 37.82                             172   -0.0210 19.3 192 
 BAR2 SZ ES   1   1721 53.37                             172    0.20 7 19.3 192 
 BAR2 SZ I        1721 54.29         9.3 0.20            170           19.3 192 
 GIR2 SZ EP   1   1721 37.94                             166   -0.12 7 35.3 352 
 GIR2 SZ ES   1   1721 54.05                             166    0.48 7 35.3 352 
 GIR2 SZ I        1721 54.32         9.2 0.32            166           35.3 352 
 BRR  HZ EP       1721 39.61                             152    0.0810 73.1 301 
 BRR  HE ES   1   1721 56.26                             152    0.08 7 73.1 301 
 BRR  HE I        1721 57.55        33.4 0.20            151           73.1 301 
 PAM  SZ EP   1   1721 40.88                             150    0.20 7 80.6  38 
 PAM  SN ES   1   1721 57.79                             150   -0.43 7 80.6  38 
 PAM  SZ I        1721 59.13         5.8 0.20            154           80.6  38 
 RUS  HZ EP   1   1721 41.72                             145   -0.01 7 96.6 176 
 RUS  HN ES   1   1721 59.86                             145   -0.23 7 96.6 176 
 RUS  HZ I        1722  1.41         2.8 0.32            146           96.6 176 
 PTB  HZ EP   1   1721 44.77                             132   -0.37 7  147 260 
 PTB  HN ES   1   1722  5.60                             132   -0.57 7  147 260 
 PTB  HZ I        1722 10.49         6.5 0.22            132            147 260 
 NOR  HZ EP   1   1721 54.11                             119    0.41 6  232 235 
 NOR  HE ES   1   1722 21.78                             119    0.38 6  232 235 
 NOR  HZ I        1722 24.07         4.0 0.16            120            232 235 
                                                                                
