 2012  419 1444 24.4 L   6.787 -73.109143.6  RSN  5 0.1 1.6LRSN                1
 GAP=142        0.39       2.5     3.2  4.1  0.3112E+01  0.3009E+01  0.1328E+01E
 Epicentro: LOS SANTOS - SANTANDER                                             3
 ACTION:UP  12-07-05 11:54 OP:tino STATUS:               ID:20120419144424 L   I
 2012-04-19-1440-00M.COL___186                                                 6
 STAT SP IPHASW D HRMM SECON CODA AMPLIT PERI AZIMU VELO AIN AR TRES W  DIS CAZ7
 BAR2 SZ EP       1444 43.78                             170     0.010   23 201 
 BAR2 SZ ES   1   1444 58.81                             170     0.0 7   23 201 
 BAR2 SZ I        1444 59.87        13.1 0.30                            23 201 
 BRR  HZ EP   1   1444 45.68                             151     0.1 7   75 298 
 BRR  HZ I        1444 49.67         7.0 0.18                            75 298 
 BRR  HE ES   1   1445  2.27                             151     0.2 7   75 298 
 PAM  SE ES   1   1445  3.28                             151    -0.1 7   76  37 
 RUS  HZ EP       1444 47.82                             144     0.010   99 178 
 RUS  HN ES       1445  6.05                             144     0.010   99 178 
 RUS  HZ I        1445  7.55         4.8 0.30                            99 178 
 ZAR  HN ES   1   1445 22.42                             121    -0.3 6  208 292 
 ZAR  HZ I        1445 25.40         4.1 0.08                           208 292 
                                                                                
