 2013 1219 1452 37.8 L   6.251 -73.767108.9  RSN  5 0.4 1.4LRSN                1
 GAP=127        1.03       4.6     4.4  9.0 -0.1992E+01 -0.3434E+01  0.1295E+02E
 Epicentro: LANDAZURI - SANTANDER                                              3
 ACTION:UPD 14-01-13 10:19 OP:ep   STATUS:               ID:20131219145237 L   I
 OLDACT:REG 13-12-19 14:38 OP:nd   STATUS:               ID:20131219145000     3
 2013-12-19-1450-00M.COL___285                                                 6
 STAT SP IPHASW D HRMM SECON CODA AMPLIT PERI AZIMU VELO AIN AR TRES W  DIS CAZ7
 SPBC HZ EP   2   1452 55.04                             143   -0.42 5 74.3 207 
 SPBC HN ES       1453  9.85                             143    0.6110 74.3 207 
 SPBC HZ I        1453 12.58        10.5 0.26            146           74.3 207 
 BAR2 SZ EP       1452 56.51                             143    0.8010 74.9  60 
 BAR2 SZ ES       1453  9.66                             143   -0.0210 74.9  60 
 BAR2 SZ I        1453 11.79        35.9 0.58            150           74.9  60 
 PTB  HZ EP   2   1452 55.80                             140   -0.19 5 82.6 293 
 PTB  HN ES       1453  9.78                             140   -0.4010 82.6 293 
 PTB  HZ I        1453 15.73         3.7 0.16            149           82.6 293 
 RUS  HZ EP       1452 56.65                             139   -0.2310 85.5 118 
 RUS  HN ES       1453 11.32                             139   -0.4310 85.5 118 
 RUS  HZ I        1453 21.93         1.2 0.50            144           85.5 118 
 CHI  HZ EP       1453  5.80                             116   -0.13 9  179 179 
 CHI  HN ES       1453 27.77                             116   -0.09 9  179 179 
 CHI  HZ I        1453 35.02         1.8 0.32            122            179 179 
                                                                                
