 2012  519 1944 30.1 L   6.772 -73.156145.4  RSN 10 0.4 2.1LRSN                1
 GAP=136        0.93       5.7     4.9  7.2  0.2050E+01  0.1095E+02  0.1211E+02E
 Epicentro: LOS SANTOS - SANTANDER                                             3
 ACTION:DUP 12-07-05 12:06 OP:pat  STATUS:               ID:20120519194431dL   I
 2012-05-19-1940-00M.COL___200                                                 6
 STAT SP IPHASW D HRMM SECON CODA AMPLIT PERI AZIMU VELO SNR AR TRES W  DIS CAZ7
 BAR2 SZ EP   1   1944 49.67                             172     0.0 7   20 188 
 BAR2 SZ ES   1   1945  5.30                             172     0.4 7   20 188 
 BAR2 SZ I        1945  7.28        35.2 0.33                            20 188 
 BRR  HZ EP   1   1944 51.55                             152     0.3 7   72 301 
 BRR  HN ES   1   1945  8.32                             152     0.6 7   72 301 
 BRR  HZ I        1945 10.89        26.3 0.13                            72 301 
 PAM  SZ EP   1   1944 52.40                             150    -0.1 7   81  39 
 PAM  SN ES   1   1945  9.45                             150    -0.5 7   81  39 
 RUS  HZ EP   1   1944 53.76                             145     0.1 7   98 175 
 RUS  HN ES   1   1945 11.96                             145     0.0 7   98 175 
 RUS  HZ I        1945 13.90        15.5 0.45                            98 175 
 PTB  HZ EP   1   1944 56.57                             132    -0.3 7  146 260 
 PTB  HN ES   1   1945 16.86                             132    -0.9 7  146 260 
 PTB  HZ I        1945 19.32        11.5 0.22                           146 260 
 ZAR  HE ES   1   1945 27.85                             122     0.0 6  204 293 
 CHI  HZ EP   1   1945  7.02                             117    -0.4 6  245 195 
 HEL  HZ EP   1   1945 10.95                             115     0.8 6  270 256 
 HEL  HN ES   1   1945 41.48                             115     0.2 6  270 256 
 HEL  HZ I        1945 50.21         8.0 0.28                           270 256 
 RREF HZ EP   1   1945 15.72                             111    -0.2 5  319 230 
 RREF HZ I        1945 59.36         7.9 0.31                           319 230 
 PRA  HZ EP   1   1945 23.81                             107     0.5 4  389 210 
                                                                                
