 2010  819 1138 59.8 L   7.400 -73.489114.5  RSN  6 0.5 1.8LRSN                1
 GAP=101        1.39       6.8    11.1 13.5 -0.1767E+02  0.2781E+02 -0.1908E+02E
 Epicentro: SABANA DE TORRES - SANTANDER                                       3
 ACTION:UP  10-09-07 10:56 OP:vdl  STATUS:               ID:20100819113859 L   I
 2010-08-19-1135-40S.COL___117                                                 6
 STAT SP IPHASW D HRMM SECON CODA AMPLIT PERI AZIMU VELO SNR AR TRES W  DIS CAZ7
 BRR  HZ EP       1139 16.28                             159     0.310   41 217 
 BRR  HE ES   1   1139 29.14                             159     0.6 7   41 217 
 BRR  HZ I        1139 30.34        23.8 0.15                            41 217 
 BTL  SZ EP       1139 16.92                             151    -0.310   59 155 
 GRA  SZ EP       1139 20.23                             139     0.710   93  55 
 GRA  SZ ES   1   1139 35.17                             139     0.3 7   93  55 
 GRA  SZ I        1139 36.86        24.0 0.29                            93  55 
 OCA  SZ EP       1139 19.34                             138    -0.310   95  11 
 OCA  SZ ES   1   1139 34.41                             138    -0.8 7   95  11 
 OCA  SZ I        1139 36.32        11.9 0.21                            95  11 
 BAR2 SZ EP   1   1139 19.86                             138     0.0 7   96 159 
 BAR2 SZ ES   1   1139 34.65                             138    -0.8 7   96 159 
 BAR2 SZ I        1139 36.22        22.9 0.25                            96 159 
 MON  HZ EP   1   1139 39.30                             107    -0.2 6  283 303 
 MON  HZ I        1140 12.35         1.7 0.55                           283 303 
                                                                                
