 2010 1119 1138 41.1 L   6.833 -73.040155.9  RSN 15 0.3 3.3LRSN                1
 GAP=215        0.64       3.2     4.6  4.4 -0.3871E+00  0.7685E+01  0.3683E+01E
 Epicentro: CEPITA - SANTANDER                                                 3
 ACTION:UP  10-12-17 16:53 OP:REBC STATUS:               ID:20101119113840 L   I
 2010-11-19-1134-08S.COL___128                                                 6
 STAT SP IPHASW D HRMM SECON CODA AMPLIT PERI AZIMU VELO SNR AR TRES W  DIS CAZ7
 BAR2 SZ IP       1139  2.19                             168     0.110   31 211 
 BAR2 SZ ES   1   1139 18.38                             168    -0.1 7   31 211 
 BAR2 SZ I        1139 20.08       242.7 0.27                            31 211 
 GIR2 SZ EP       1139  2.27                             168     0.310   32 328 
 BRR  HZ IP     C 1139  4.08                             151     0.210   80 292 
 BRR  HN ES   1   1139 21.70                             151     0.1 7   80 292 
 BRR  HZ I        1139 23.75       261.9 0.32                            80 292 
 RUS  HZ IP     C 1139  6.04                             145    -0.110  104 183 
 RUS  HN ES   1   1139 25.16                             145    -0.5 7  104 183 
 NOR  SZ EP       1139 18.22                             119    -0.5 8  246 235 
 NOR  SE ES   3   1139 46.84                             119    -1.2 2  246 235 
 CHI  HZ EP   1   1139 20.11                             118     0.0 6  255 197 
 CHI  HN ES   1   1139 50.95                             118     0.4 6  255 197 
 ROSC BN ES   2   1139 52.23                             118     0.5 4  262 213 
 ROSC BZ I        1139 56.84        79.2 0.06                           262 213 
 HEL  HZ EP   1   1139 23.04                             116    -0.2 6  284 256 
 HEL  HN ES   2   1139 55.69                             116    -0.3 4  284 256 
 HEL  HZ I        1140  0.53        52.4 0.42                           284 256 
 VIL  SZ EP   1   1139 25.90                             114     0.4 5  307 192 
 VIL  SN ES   2   1139 59.98                             114    -0.1 4  307 192 
 GUY  SZ EP   1   1139 26.66                             113     0.1 5  313 236 
 GUY  SN ES   1   1140  2.38                             113     0.4 5  313 236 
 GUY  SZ I        1140  9.72       108.4 0.12                           313 236 
 RREF HZ EP       1139 29.10                             112     0.1 7  333 230 
 RREF HE ES   2   1140  6.96                             112     0.6 3  333 230 
 RREF HZ I        1140 11.01        69.1 0.40                           333 230 
 DBB  SZ EP       1139 29.94                             110    -0.4 6  351 274 
 TOL  SZ EP       1139 30.65                             110    -0.4 6  354 226 
 ANIL HZ EP   1   1139 33.33                             109     0.8 5  368 225 
 ANIL HN ES   2   1140 12.79                             109     0.1 3  368 225 
 ANIL HZ I        1140 16.40       160.5 0.84                           368 225 
 PRA  HZ EP       1139 35.68                             108    -0.4 6  401 211 
 PRA  HN ES       1140 18.68                             108    -0.2 6  401 211 
 PRA  HZ I        1140 23.07       164.9 0.07                           401 211 
                                                                                
