 2012  419 1434 16.5 L   6.790 -73.170144.5  RSN 14 0.3 3.1LRSN                1
 GAP=134        0.75       2.7     3.5  4.6 -0.1315E+01  0.5409E+01  0.2528E+01E
 Epicentro: LOS SANTOS - SANTANDER                                             3
 ACTION:UPD 12-07-05 11:54 OP:tino STATUS:               ID:20120419143416 L   I
 2012-04-19-1430-00M.COL___186                                                 6
 STAT SP IPHASW D HRMM SECON CODA AMPLIT PERI AZIMU VELO AIN AR TRES W  DIS CAZ7
 BAR2 SZ IP     C 1434 35.91                             171     0.010   22 184 
 BAR2 SZ ES   1   1434 51.28                             171     0.2 7   22 184 
 BAR2 SZ I        1434 53.52       477.7 0.40                            22 184 
 BRR  HZ IP     D 1434 37.76                             153     0.410   69 300 
 BRR  HN ES   1   1434 54.36                             153     0.7 7   69 300 
 BRR  HZ I        1434 57.36       318.6 0.19                            69 300 
 PAM  SZ IP       1434 38.65                             150    -0.110   80  40 
 PAM  SN ES   1   1434 55.74                             150    -0.3 7   80  40 
 RUS  HZ EP       1434 39.84                             144    -0.210  100 174 
 RUS  HN ES   1   1434 58.18                             144    -0.2 7  100 174 
 RUS  HZ I        1434 59.91       179.7 0.36                           100 174 
 OCA  SZ EP       1434 44.81                             129     0.0 9  161 354 
 ZAR  HZ EP   1   1434 48.12                             122    -0.5 6  202 293 
 ZAR  HN ES   1   1435 12.95                             122    -0.8 6  202 293 
 ZAR  HZ I        1435 20.52       161.3 0.36                           202 293 
 NOR  SZ EP       1434 52.01                             118     0.2 8  232 234 
 NOR  SN ES       1435 19.12                             118    -0.3 8  232 234 
 CHI  HZ EP       1434 53.89                             117     0.0 8  247 195 
 CHI  HN ES   1   1435 23.33                             117     0.2 6  247 195 
 CHI  HZ I        1435 30.52        84.4 0.43                           247 195 
 HEL  HZ EP   1   1434 56.53                             115     0.2 6  269 256 
 HEL  HN ES   1   1435 26.95                             115    -0.4 6  269 256 
 HEL  HZ I        1435 34.17        50.3 0.36                           269 256 
 VIL  SZ EP   1   1434 59.35                             112    -0.3 5  302 191 
 VIL  SN ES   1   1435 33.31                             112     0.0 5  302 191 
 VIL  SZ I        1435 39.13        41.5 0.38                           302 191 
 RREF HZ EP       1435  2.48                             111     0.2 7  319 229 
 RREF HN ES   1   1435 38.20                             111     0.2 5  319 229 
 RREF HZ I        1435 47.87        82.1 0.36                           319 229 
 DBB  SZ EP       1435  3.79                             109     0.2 7  337 274 
 TOL  SZ EP       1435  5.11                             109     0.7 7  341 224 
 PRA  HZ EP       1435  9.36                             106    -0.3 6  390 209 
 PRA  HE ES   1   1435 51.20                             106     0.0 4  390 209 
                                                                                
