 2017  419 1601 17.3 L   6.949 -73.044152.4  RSN  5 0.3 1.2LRSN                1
 GAP=255        0.77       6.6     6.0  6.4  0.2535E+02 -0.1380E+01 -0.5850E+01E
 Epicentro: PIEDECUESTA - SANTANDER                                            3
 ACTION:UPD 17-05-30 21:14 OP:jn   STATUS:               ID:20170419160117 L   I
 OLDACT:REG 17-04-19 20:59 OP:lv   STATUS:               ID:20170419155656     3
 2017-04-19-1558-00M.COL___371                                                 6
 STAT SP IPHASW D HRMM SECON CODA AMPLIT PERI AZIMU VELO AIN AR TRES W  DIS CAZ7
 BAR2 EZ EP       16 1 38.14                             164   -0.1210 42.4 201 
 BAR2 EZ ES       16 1 54.05                             164   -0.5410 42.4 201 
 BRR  HZ EP       16 1 39.46                             152    0.0110 75.9 283 
 BRR  HE ES       16 1 57.17                             152    0.4610 75.9 283 
 RUS  HZ EP       16 1 43.20                             141    0.2710  117 182 
 RUS  HE ES       16 2  3.16                             141    0.2510  117 182 
 RUS  HZ I        16 2  5.33         2.1 0.39            139            117 182 
 PTB  HZ EP       16 1 45.90                             131   -0.28 9  163 254 
 PTB  HN ES       16 2  8.61                             131   -0.08 9  163 254 
 ZAR  HN ES       16 2 16.76                             123   -0.02 8  209 287 
                                                                                
