 2013  619 1841 21.8 L   6.735 -73.196146.0  RSN  4 0.3 1.8LRSN                1
 GAP=226        0.66       6.3     7.4  6.1  0.2452E+02  0.1217E+02 -0.2141E+01E
 Epicentro: VILLANUEVA - SANTANDER                                             3
 ACTION:UPD 14-01-08 09:55 OP:ep   STATUS:               ID:20130619184121 L   I
 OLDACT:UP  13-06-19 19:10 OP:cam  STATUS:               ID:20130619183959     3
 OLDACT:REG 13-06-19 16:23 OP:cam  STATUS:               ID:20130619183959     3
 2013-06-19-1839-59M.COL___261                                                 6
 STAT SP IPHASW D HRMM SECON CODA AMPLIT PERI AZIMU VELO AIN AR TRES W  DIS CAZ7
 BAR2 SZ EP       1841 41.18                             173   -0.1310 15.9 174 
 BAR2 SZ I        1841 41.53        15.2 0.08            170           15.9 174 
 BAR2 SZ ES       1841 56.17                             173   -0.3810 15.9 174 
 BRR  HZ EP       1841 43.17                             153    0.2610 70.3 306 
 BRR  HZ I        1841 43.37        16.8 0.24            152           70.3 306 
 BRR  HN ES   2   1842  0.05                             153    0.67 5 70.3 306 
 RUS  HZ EP       1841 45.20                             146    0.1110 94.0 172 
 RUS  HE ES       1842  3.49                             146    0.2110 94.0 172 
 RUS  HZ I        1842  4.82         4.8 0.34            144           94.0 172 
 PTB  HZ EP       1841 47.92                             133   -0.24 9  141 261 
 PTB  HN ES   2   1842  8.65                             133   -0.09 5  141 261 
 PTB  HZ I        1842 11.16         8.8 0.12            132            141 261 
                                                                                
