 2017  819 1845 17.7 L   7.160 -73.310119.5  RSN  4 0.4 1.1LRSN                1
 GAP=171        0.65       5.0     4.3  5.5 -0.4461E+01 -0.2549E+01  0.3942E+01E
 Epicentro: LEBRIJA - SANTANDER                                                3
 ACTION:UPD 17-09-04 20:22 OP:rebc STATUS:               ID:20170819184517 L   I
 OLDACT:DUP 17-08-19 20:43 OP:and  STATUS:               ID:20170819183742d    3
 OLDACT:UP  17-08-19 20:42 OP:and  STATUS:               ID:20170819183741     3
 OLDACT:UP  17-08-19 20:41 OP:and  STATUS:               ID:20170819183741     3
 OLDACT:UP  17-08-19 20:41 OP:and  STATUS:               ID:20170819183741     3
 OLDACT:REG 17-08-19 19:35 OP:and  STATUS:               ID:20170819183741     3
 2017-08-19-1838-00M.COL___407                                                 6
 STAT SP IPHASW D HRMM SECON CODA AMPLIT PERI AZIMU VELO AIN AR TRES W  DIS CAZ7
 BRR  HZ EP       1845 34.35                             159   -0.2310 44.8 263 
 BRR  HN ES       1845 47.68                             159   -0.0610 44.8 263 
 BAR2 EZ EP   2   1845 35.67                             149   -0.30 5 64.3 167 
 BAR2 EZ ES       1845 50.47                             149    0.2410 64.3 167 
 BAR2 EZ I        1845 51.57         7.8 0.09            150           64.3 167 
 PAM  EZ EP       1845 36.75                             148    0.0410 70.3  74 
 PAM  EN ES       1845 51.54                             148    0.0010 70.3  74 
 PAM  EZ I        1845 54.37         1.5 0.50            147           70.3  74 
 RUS  HZ EP       1845 42.97                             127    0.22 9  142 170 
 RUS  HN ES   3   1846  0.20                             127   -2.10 2  142 170 
                                                                                
