 2013 1019 1719 53.4 L   6.793 -73.150149.3  RSN 10 0.4 2.2LRSN                1
 GAP=136        0.94       3.5     4.5  5.8 -0.2510E+01  0.5485E+01  0.3376E+01E
 Epicentro: LOS SANTOS - SANTANDER                                             3
 ACTION:UPD 13-11-25 09:22 OP:ep   STATUS:               ID:20131019171953 L   I
 OLDACT:UP  13-10-19 20:12 OP:mh   STATUS:               ID:20131019171849     3
 OLDACT:UP  13-10-19 20:12 OP:mh   STATUS:               ID:20131019171849     3
 OLDACT:REG 13-10-19 15:57 OP:mh   STATUS:               ID:20131019171849     3
 2013-10-19-1718-49M.COL___211                                                 6
 STAT SP IPHASW D HRMM SECON CODA AMPLIT PERI AZIMU VELO AIN AR TRES W  DIS CAZ7
 BAR2 SZ EP   1   1720 13.53                             171    0.05 7 22.5 189 
 BAR2 SZ ES   1   1720 28.66                             171   -0.45 7 22.5 189 
 BAR2 SZ I        1720 30.33        46.9 0.33            170           22.5 189 
 BRR  HZ EP   1   1720 15.51                             153    0.54 7 71.2 299 
 BRR  HN ES       1720 32.70                             153    0.9410 71.2 299 
 PAM  SZ EP       1720 16.31                             151    0.2210 78.3  39 
 PAM  SN ES       1720 33.56                             151   -0.1910 78.3  39 
 PAM  SZ I        1720 35.82        23.5 0.18            153           78.3  39 
 RUS  HZ EP   1   1720 17.51                             145    0.02 7 99.8 176 
 RUS  HN ES   1   1720 35.71                             145   -0.54 7 99.8 176 
 RUS  HZ I        1720 37.45        11.0 0.40            145           99.8 176 
 PTB  HZ EP       1720 20.64                             133   -0.01 9  147 259 
 PTB  HN ES       1720 41.25                             133   -0.61 9  147 259 
 PTB  HZ I        1720 47.55        11.8 0.13            132            147 259 
 ZAR  HZ EP   1   1720 26.17                             123    0.06 6  204 292 
 ZAR  HN ES   2   1720 51.68                             123    0.10 4  204 292 
 NOR  HZ EP   1   1720 29.57                             119    0.28 6  234 235 
 NOR  HN ES   1   1720 56.97                             119   -0.28 6  234 235 
 SML  HZ EP       1720 29.55                             118   -0.78 8  244 335 
 SML  HN ES   2   1720 58.61                             118   -0.48 4  244 335 
 SML  HZ I        1721  5.07        26.2 0.12            118            244 335 
 CHI  HZ EP   1   1720 31.74                             118    0.49 6  248 195 
 CHI  HN ES       1721  0.98                             118    0.25 8  248 195 
 CHI  HZ I        1721  6.97         5.4 0.33            118            248 195 
 PRA  HZ EP       1720 47.13                             107    0.15 6  391 210 
 PRA  HN ES   1   1721 28.44                             107   -0.30 4  391 210 
 PRA  HZ I        1721 34.88         7.7 0.64            107            391 210 
 SJC  HZ EP   4   1720 47.74                             106   -1.43 0  410 327 
 SJC  HN ES   4   1721 27.76                             106   -4.88 0  410 327 
                                                                                
