 2010  819 1843 15.9 L   6.787 -73.060140.0  RSN  7 0.4 2.6LRSN                1
 GAP=245        0.84       5.0     7.3  6.2  0.1249E+02  0.1394E+02  0.1062E+02E
 Epicentro: LOS SANTOS - SANTANDER                                             3
 ACTION:UP  10-09-07 10:56 OP:vdl  STATUS:               ID:20100819184315 L   I
 2010-08-19-1840-00S.COL___108                                                 6
 STAT SP IPHASW D HRMM SECON CODA AMPLIT PERI AZIMU VELO SNR AR TRES W  DIS CAZ7
 BAR2 SZ EP       1843 34.91                             169     0.010   26 212 
 BAR2 SZ ES   1   1843 49.50                             169    -0.2 7   26 212 
 BRR  HZ IP     C 1843 36.87                             148    -0.110   80 296 
 BRR  HZ I        1843 37.35       104.5 0.07                            80 296 
 BRR  HE ES       1843 53.43                             148     0.010   80 296 
 RUS  HZ IP     C 1843 38.91                             143    -0.110   99 181 
 RUS  HE ES       1843 57.41                             143     0.410   99 181 
 RUS  HZ I        1843 59.57        53.5 0.38                            99 181 
 CHI  HZ EP       1843 53.22                             116    -0.2 8  250 197 
 CHI  HE ES   1   1844 21.98                             116    -0.7 6  250 197 
 CHI  HZ I        1844 31.86        14.3 0.37                           250 197 
 HEL  HZ EP   1   1843 57.04                             113     0.2 6  281 257 
 HEL  HZ I        1844 34.02        20.5 0.38                           281 257 
 GUY  SZ EP   1   1844  0.88                             111     0.8 5  308 236 
 GUY  SN ES   2   1844 33.71                             111    -0.8 4  308 236 
 GUY  SZ I        1844 39.86        44.2 0.41                           308 236 
 RREF HZ EP   1   1844  2.36                             109    -0.2 5  328 231 
 RREF HE ES   1   1844 39.53                             109     0.6 5  328 231 
 RREF HZ I        1844 44.13        13.3 0.28                           328 231 
                                                                                
