 2012 1219 1818 44.5 L   7.320 -73.242129.0  RSN  5 0.2 1.6LRSN                1
 GAP=253        0.43       5.5     3.3  4.6  0.5548E+01  0.3239E+01 -0.3466E+01E
 Epicentro: RIONEGRO - SANTANDER                                               3
 ACTION:UPD 13-01-04 14:29 OP:ep   STATUS:               ID:20121219181844 L   I
 2012-12-19-1817-37M.COL___225                                                 6
 STAT SP IPHASW D HRMM SECON CODA AMPLIT PERI AZIMU VELO AIN AR TRES W  DIS CAZ7
 GIR2 SZ EP   1   1819  2.05                             167    0.02 7 27.2 169 
 GIR2 SZ ES   1   1819 15.41                             167   -0.32 7 27.2 169 
 GIR2 SZ I        1819 16.57        10.4 0.42                          27.2 169 
 BRR  HZ EP   1   1819  2.99                             155   -0.02 7 57.0 246 
 BRR  HN ES   1   1819 17.61                             155    0.14 7 57.0 246 
 BRR  HZ I        1819 18.56        14.0 0.23                          57.0 246 
 BAR2 SZ EP   1   1819  4.99                             146    0.20 7 80.7 175 
 BAR2 SZ ES   1   1819 20.81                             146    0.17 7 80.7 175 
 BAR2 SZ I        1819 21.93        11.4 0.10                          80.7 175 
 PTB  HZ EP   1   1819 10.99                             125   -0.28 7  160 237 
 PTB  HN ES   1   1819 32.05                             125   -0.13 7  160 237 
 PTB  HZ I        1819 33.96         3.8 0.24                           160 237 
 ZAR  HN ES   1   1819 35.93                             122    0.17 7  179 276 
 ZAR  HZ I        1819 39.71         4.7 0.26                           179 276 
                                                                                
