 2016  719 1211 52.7 L   6.760 -73.123146.0  RSN 14 0.4 2.2LRSN                1
 GAP=141        0.88       3.3     3.5  4.9 -0.2900E+00  0.6453E+01  0.2512E+01E
 Epicentro: LOS SANTOS - SANTANDER                                             3
 ACTION:UPD 17-03-29 16:52 OP:lp   STATUS:               ID:20160719121152 L   I
 OLDACT:REG 16-07-19 20:03 OP:lv   STATUS:               ID:20160719120759     3
 2016-07-19-1207-59S.COL___331                                                 6
 STAT SP IPHASW D HRMM SECON CODA AMPLIT PERI AZIMU VELO AIN AR TRES W  DIS CAZ7
 BAR2 EZ IP     C 1212 12.24                             172   -0.0910 19.7 200 
 BAR2 EZ ES       1212 27.48                             172   -0.1310 19.7 200 
 BRR  HZ EP       1212 14.18                             151    0.0110 75.6 301 
 BRR  HN ES       1212 31.54                             151    0.6610 75.6 301 
 BRR  HZ I        1212 32.15        29.8 0.18            149           75.6 301 
 PAM  EZ EP       1212 15.20                             150    0.1110 79.3  36 
 PAM  EE ES       1212 32.37                             150   -0.1610 79.3  36 
 PAM  EZ I        1212 35.19        15.4 0.53            156           79.3  36 
 RUS  HZ EP       1212 16.13                             145   -0.0610 96.0 177 
 RUS  HN ES       1212 34.55                             145    0.0710 96.0 177 
 RUS  HZ I        1212 36.28        11.4 0.28            145           96.0 177 
 SPBC HZ EP       1212 21.21                             129    0.12 9  161 221 
 SPBC HN ES       1212 43.16                             129   -0.04 9  161 221 
 SPBC HZ I        1212 49.05        25.4 0.14            128            161 221 
 ZAR  HZ EP       1212 24.70                             122   -0.92 8  208 293 
 ZAR  HN ES       1212 51.06                             122   -0.20 8  208 293 
 ZAR  HZ I        1212 57.20        28.2 0.24            122            208 293 
 NOR  HZ EP       1212 28.76                             119    0.33 8  234 236 
 NOR  HN ES       1212 55.48                             119   -0.80 8  234 236 
 NOR  HZ I        1213  1.30        15.1 0.17            118            234 236 
 CHI  HZ EP       1212 30.36                             118    0.30 8  245 196 
 CHI  HN ES   2   1212 59.09                             118   -0.09 4  245 196 
 HEL  HZ EP   4   1212 34.42                             115    1.30 0  273 257 
 HEL  HN ES       1213  4.73                             115    0.11 8  273 257 
 HEL  HZ I        1213 10.91         9.2 0.27            115            273 257 
 GUY2CHZ EP   4   1212 37.44                             112    1.13 0  301 236 
 GUY2CHE ES   4   1213 13.55                             112    3.26 0  301 236 
 GUY2CHZ I        1213 18.66         7.8 0.35                           301 236 
 ELA  HE ES   4   1213 18.56                             110    2.59 0  328 230 
 ELA  HZ I        1213 26.01         6.1 0.37            111            328 230 
 DBB  EZ EP       1212 40.34                             109   -0.22 7  342 275 
 DBB  EZ ES       1213 18.60                             109    0.75 7  342 275 
 DBB  EZ I        1213 25.27         3.7 0.38            110            342 275 
 PRA  HZ EP       1212 46.46                             107    0.49 6  389 210 
 PRA  HN ES   4   1213 29.14                             107    1.65 0  389 210 
 PRA  HZ I        1213 35.53         4.8 0.32            107            389 210 
 SJC  HZ EP   4   1212 47.09                             106   -1.81 0  414 327 
 SJC  HE ES   4   1213 29.37                             106   -3.34 0  414 327 
 SJC  HZ I        1213 32.55         2.2 0.25            106            414 327 
                                                                                
