 2013  519 1958 10.2 L   6.831 -73.152146.5  RSN 13 0.5 2.2LRSN                1
 GAP=134        1.03       3.2     4.2  6.2 -0.4067E+01  0.7864E+01 -0.2708E+01E
 Epicentro: LOS SANTOS - SANTANDER                                             3
 ACTION:UPD 13-06-20 09:51 OP:ep   STATUS:               ID:20130519195810 L   I
 2013-05-19-1950-00M.COL___256                                                 6
 STAT SP IPHASW D HRMM SECON CODA AMPLIT PERI AZIMU VELO AIN AR TRES W  DIS CAZ7
 BAR2 SZ IP     D 1958 29.89                             169   -0.1010 26.6 187 
 BAR2 SZ ES   1   1958 44.65                             169   -0.78 7 26.6 187 
 BAR2 SZ I        1958 47.76        28.6 0.50            171           26.6 187 
 GIR2 SZ EP   1   1958 29.98                             169    0.11 7 27.8 351 
 GIR2 SZ ES   1   1958 45.26                             169    0.04 7 27.8 351 
 GIR2 SZ I        1958 47.00        26.6 0.24            166           27.8 351 
 BRR  HZ IP     C 1958 31.71                             153    0.4010 69.0 296 
 BRR  HN ES   1   1958 49.16                             153    1.39 7 69.0 296 
 BRR  HZ I        1958 51.43        20.6 0.26            151           69.0 296 
 PAM  SZ EP       1958 32.64                             152    0.2710 75.3  42 
 PAM  SN ES   1   1958 50.00                             152    0.34 7 75.3  42 
 PAM  SZ I        1958 50.95        19.2 0.16            154           75.3  42 
 RUS  HZ EP       1958 33.80                             143   -0.4810  104 176 
 RUS  HN ES   1   1958 52.84                             143   -0.21 7  104 176 
 RUS  HZ I        1958 56.00         9.9 0.26            147            104 176 
 PTB  HZ EP   1   1958 36.50                             132   -0.73 7  148 257 
 PTB  HN ES       1958 58.23                             132   -0.08 9  148 257 
 PTB  HZ I        1959  0.54        20.3 0.16            132            148 257 
 OCA  HZ EP       1958 38.36                             130    0.11 9  157 353 
 OCA  HN ES       1958 59.68                             130   -0.44 9  157 353 
 OCA  HZ I        1959  6.77        17.8 0.20            131            157 353 
 ZAR  HZ EP       1958 42.55                             123    0.05 9  202 291 
 ZAR  HN ES   1   1959  6.59                             123   -1.10 6  202 291 
 ZAR  HZ I        1959 14.39        24.5 0.38            123            202 291 
 NOR  HN ES       1959 14.52                             118    0.37 8  236 234 
 NOR  HZ I        1959 19.47        16.0 0.26            120            236 234 
 SML  HZ EP   1   1958 46.41                             118   -0.09 6  240 335 
 SML  HN ES       1959 14.64                             118   -0.18 8  240 335 
 SML  HZ I        1959 18.02        20.1 0.10            119            240 335 
 HEL  HZ EP   1   1958 51.31                             115    0.84 6  272 255 
 HEL  HN ES       1959 21.51                             115   -0.37 8  272 255 
 HEL  HZ I        1959 28.51        10.1 0.26            116            272 255 
 GUY2CHZ EP   1   1958 54.49                             112    0.49 5  303 234 
 GUY2CHN ES       1959 28.53                             112    0.36 7  303 234 
 GUY2CHZ I        1959 36.55        10.4 0.60                           303 234 
 COD  HZ EP   2   1958 57.91                             109   -0.30 3  345 355 
 COD  HN ES       1959 35.81                             109    0.16 7  345 355 
 COD  HZ I        1959 43.72         2.8 0.66            111            345 355 
                                                                                
