 2010  819 1800 25.8 L   6.786 -73.064140.5  RSN 11 0.3 2.7LRSN                1
 GAP=168        0.81       3.0     5.3  4.6 -0.2948E+01  0.2464E+01 -0.2774E-01E
 Epicentro: LOS SANTOS - SANTANDER                                             3
 ACTION:UP  10-09-07 10:56 OP:vdl  STATUS:               ID:20100819180025 L   I
 2010-08-19-1757-57S.COL___115                                                 6
 STAT SP IPHASW D HRMM SECON CODA AMPLIT PERI AZIMU VELO SNR AR TRES W  DIS CAZ7
 BAR2 SZ IP       18 0 45.02                             169     0.210   25 212 
 BAR2 SZ ES       18 0 59.56                             169    -0.110   25 212 
 BAR2 SZ I        18 1  0.71       238.6 0.21                            25 212 
 GIR2 SZ EP       18 0 45.10                             165     0.210   35 336 
 GIR2 SZ ES   2   18 0 59.79                             165    -0.1 5   35 336 
 BRR  HZ IP     C 18 0 46.92                             149     0.010   80 296 
 BRR  HZ I        18 0 47.30       212.9 0.10                            80 296 
 BRR  HE ES       18 1  3.58                             149     0.210   80 296 
 RUS  HZ EP       18 0 48.98                             143     0.110   99 181 
 RUS  HN ES   1   18 1  6.51                             143    -0.4 7   99 181 
 RUS  HZ I        18 1  8.38        63.6 0.19                            99 181 
 GUE  SZ EP       18 0 50.06                             138     0.110  117   8 
 GRA  SZ IP       18 0 50.96                             136     0.510  125  13 
 GRA  SZ I        18 0 52.40       122.8 0.25                           125  13 
 GRA  SZ ES   2   18 1  9.06                             136    -0.7 5  125  13 
 OCA  SZ IP       18 0 53.58                             128    -0.4 9  163 350 
 OCA  SZ ES   1   18 1 15.55                             128    -0.4 7  163 350 
 OCA  SZ I        18 1 20.91       104.0 0.40                           163 350 
 CHI  HZ EP   1   18 1  3.35                             116     0.0 6  250 197 
 CHI  HN ES   2   18 1 32.42                             116    -0.2 4  250 197 
 CHI  HZ I        18 1 36.05        20.0 0.76                           250 197 
 HEL  HZ EP       18 1  7.16                             113     0.5 7  280 257 
 HEL  HN ES   2   18 1 38.76                             113     0.2 4  280 257 
 HEL  HZ I        18 1 42.05        17.9 0.21                           280 257 
 DBB  SZ EP       18 1 13.39                             108    -0.7 6  349 274 
 DBB  SZ I        18 1 55.49         8.1 0.32                           349 274 
 PRA  HZ EP   1   18 1 18.80                             105    -0.7 4  395 211 
 PRA  HN ES   1   18 2  1.33                             105    -0.1 4  395 211 
 PRA  HZ I        18 2  5.80        19.2 0.37                           395 211 
                                                                                
