 2015  319 1009 43.3 L   6.802 -73.177140.0  RSN  4 0.5 1.2LRSN                1
 GAP=133        1.02       4.6     6.5 12.4  0.5882E+01  0.3983E+02 -0.5083E+01E
 Epicentro: LOS SANTOS - SANTANDER                                             3
 ACTION:UPD 15-04-30 16:27 OP:nd   STATUS:               ID:20150319100943 L   I
 OLDACT:REG 15-03-19 20:25 OP:cam  STATUS:               ID:20150319100748     3
 2015-03-19-1007-48M.COL___281                                                 6
 STAT SP IPHASW D HRMM SECON CODA AMPLIT PERI AZIMU VELO AIN AR TRES W  DIS CAZ7
 PAM  SZ EP     D 1010  5.25                             149    0.2210 79.4  42 
 PAM  SN ES       1010 22.19                             149    0.2110 79.4  42 
 PAM  SN I        1010 23.03         6.1 0.48            156           79.4  42 
 RUS  HZ EP       1010  6.14                             143   -0.3910  101 174 
 RUS  HN ES       1010 24.58                             143   -0.0710  101 174 
 RUS  HZ I        1010 26.67         1.1 0.32            146            101 174 
 ZAR  HZ EP   1   1010 15.98                             122    0.95 6  201 292 
 ZAR  HN ES       1010 39.96                             122    0.19 9  201 292 
 ZAR  HZ I        1010 47.06         2.1 0.34            123            201 292 
 SML  HN ES       1010 46.80                             117   -0.80 8  242 336 
                                                                                
