 2013  819 1622 43.9 L   6.775 -73.113144.8  RSN  4 0.1 1.2LRSN                1
 GAP=142        0.41       3.0     5.8  4.8  0.7810E+01 -0.1691E+02 -0.4660E+01E
 Epicentro: LOS SANTOS - SANTANDER                                             3
 ACTION:UPD 14-01-14 09:04 OP:ep   STATUS:               ID:20130819162243 L   I
 OLDACT:REG 13-08-19 15:45 OP:stll STATUS:               ID:20130819161847     3
 2013-08-19-1618-47M.COL___204                                                 6
 STAT SP IPHASW D HRMM SECON CODA AMPLIT PERI AZIMU VELO AIN AR TRES W  DIS CAZ7
 BAR2 SZ EP       1623  3.50                             171    0.1510 21.6 201 
 BAR2 SZ ES       1623 18.42                             171   -0.1210 21.6 201 
 BAR2 SZ I        1623 20.89         4.7 0.28            172           21.6 201 
 BRR  HN ES       1623 21.80                             151    0.0110 75.7 299 
 PAM  SZ EP       1623  5.99                             151    0.0110 77.3  36 
 RUS  HZ EP       1623  7.13                             144   -0.1810 97.6 178 
 RUS  HN ES       1623 25.71                             144    0.1210 97.6 178 
 RUS  HZ I        1623 27.13         2.1 0.30            146           97.6 178 
                                                                                
