 2015  119 1255 10.1 L   6.746 -73.164152.6  RSN  9 0.4 1.8LRSN                1
 GAP=137        0.91       3.5     4.8  6.4 -0.2069E+01 -0.3099E+01  0.6907E+00E
 Epicentro: LOS SANTOS - SANTANDER                                             3
 ACTION:UPD 15-03-02 15:40 OP:nd   STATUS:               ID:20150119125510 L   I
 OLDACT:DUP 15-01-19 22:41 OP:spq  STATUS:               ID:20150119124746d    3
 2015-01-19-1247-45M.COL___262                                                 6
 STAT SP IPHASW D HRMM SECON CODA AMPLIT PERI AZIMU VELO AIN AR TRES W  DIS CAZ7
 BAR2 EZ EP   1   1255 30.28                             173   -0.16 7 17.1 187 
 BAR2 EZ ES   1   1255 45.95                             173   -0.36 7 17.1 187 
 BAR2 EZ I        1255 46.69        11.3 0.52            174           17.1 187 
 BRR  HZ EP       1255 32.31                             153    0.2510 72.6 303 
 BRR  HZ I        1255 49.81        11.1 0.38            147           72.6 303 
 BRR  HE ES       1255 49.83                             153    0.6410 72.6 303 
 PAM  SZ EP       1255 33.46                             150    0.0710 83.3  38 
 RUS  HZ EP       1255 34.26                             147    0.1410 94.8 175 
 RUS  HE ES   1   1255 52.49                             147   -0.37 7 94.8 175 
 RUS  HZ I        1255 53.64         7.1 0.30            145           94.8 175 
 PTB  HZ EP       1255 36.87                             134   -0.49 9  145 261 
 PTB  HN ES       1255 58.09                             134   -0.53 9  145 261 
 PTB  HZ I        1255 59.31         7.0 0.14            129            145 261 
 SPBC HZ EP   1   1255 39.05                             132    0.47 7  157 220 
 SPBC HN ES       1256  0.85                             132    0.05 9  157 220 
 SPBC HZ I        1256  5.08        12.3 0.24            128            157 220 
 NOR  HN ES       1256 13.78                             121    0.33 8  230 235 
 NOR  HZ I        1256 19.65         4.1 0.16            117            230 235 
 CHI  HZ EP       1255 48.00                             119    0.50 8  242 195 
 CHI  HN ES   1   1256 16.11                             119   -0.57 6  242 195 
 CHI  HZ I        1256 22.65         1.9 0.34            116            242 195 
 SML  HZ EP   1   1255 46.88                             118   -0.73 6  248 336 
 SML  HE ES   1   1256 16.71                             118   -0.16 6  248 336 
 SML  HZ I        1256 24.48         9.3 0.24            114            248 336 
                                                                                
