 2015  719 1930 29.2 L   6.742 -73.146137.8  RSN  8 0.3 1.7LRSN                1
 GAP=139        0.78       3.0     3.4  5.3 -0.1373E+01  0.9454E+01  0.1412E+01E
 Epicentro: LOS SANTOS - SANTANDER                                             3
 ACTION:UPD 15-09-08 21:49 OP:cam  STATUS:               ID:20150719193029 L   I
 OLDACT:UP  15-07-20 00:22 OP:ak   STATUS:               ID:20150719192741     3
 OLDACT:REG 15-07-19 21:41 OP:ak   STATUS:               ID:20150719192741     3
 2015-07-19-1927-41M.COL___343                                                 6
 STAT SP IPHASW D HRMM SECON CODA AMPLIT PERI AZIMU VELO AIN AR TRES W  DIS CAZ7
 BAR2 EZ EP       1930 47.87                             173    0.1710 17.1 194 
 BAR2 EZ ES       1931  2.54                             173    0.3710 17.1 194 
 BAR2 EZ I        1931  7.88         7.4 0.13            168           17.1 194 
 PAM  EZ EP       1930 50.71                             148   -0.1310 82.4  37 
 PAM  EE ES       1931  7.58                             148   -0.1710 82.4  37 
 PAM  EZ I        1931  9.18        11.1 0.20            157           82.4  37 
 RUS  HZ EP       1930 52.12                             144    0.4710 94.2 176 
 RUS  HN ES       1931  8.69                             144   -0.5210 94.2 176 
 RUS  HZ I        1931 13.07         3.1 0.18            147           94.2 176 
 ZAR  HZ EP       1931  1.33                             120   -0.02 8  207 294 
 ZAR  HE ES       1931 26.41                             120   -0.05 8  207 294 
 ZAR  HZ I        1931 32.41         8.9 0.44            123            207 294 
 NOR  HZ EP       1931  4.18                             117    0.15 8  231 236 
 NOR  HE ES       1931 31.72                             117    0.48 8  231 236 
 NOR  HZ I        1931 38.95         6.0 0.07            120            231 236 
 CHI  HZ EP       1931  5.66                             116   -0.08 8  242 196 
 CHI  HN ES       1931 33.92                             116   -0.36 8  242 196 
 CHI  HZ I        1931 42.01         3.1 0.34            120            242 196 
 HEL  HZ EP   1   1931  8.57                             113   -0.23 6  271 257 
 HEL  HE ES       1931 39.06                             113   -0.67 8  271 257 
 HEL  HZ I        1931 48.89         2.9 0.34            116            271 257 
 GUY2CHZ EP       1931 12.04                             111    0.05 7  298 236 
 GUY2CHE ES       1931 45.70                             111    0.30 7  298 236 
 GUY2CHZ I        1931 56.52         5.0 0.56                           298 236 
                                                                                
