 2017  519 1650 49.1 L   6.232 -73.178176.0  RSN 12 0.5 2.6LRSN                1
 GAP=113        1.24       3.9     4.0  7.6  0.3335E+00  0.5696E+01  0.2521E+01E
 Epicentro: CHARALA - SANTANDER                                                3
 ACTION:UPD 17-06-16 13:37 OP:jn   STATUS:               ID:20170519165049 L   I
 OLDACT:UP  17-05-19 23:16 OP:lv   STATUS:               ID:20170519164735     3
 OLDACT:REG 17-05-19 21:09 OP:lv   STATUS:               ID:20170519164735     3
 2017-05-19-1648-00M.COL___359                                                 6
 STAT SP IPHASW D HRMM SECON CODA AMPLIT PERI AZIMU VELO AIN AR TRES W  DIS CAZ7
 BRR  HZ EP       1651 16.36                             146    0.2910  113 329 
 BRR  HN ES       1651 38.39                             146    1.2910  113 329 
 BRR  HZ I        1651 44.28        27.2 0.36            148            113 329 
 SPBC HZ EP       1651 16.64                             145    0.1210  118 237 
 SPBC HN ES       1651 38.15                             145    0.2510  118 237 
 SPBC HZ I        1651 41.44        81.8 0.18            147            118 237 
 YPLC HZ IP     D 1651 16.76                             143   -0.4510  128 136 
 YPLC HN ES       1651 39.78                             143    0.6510  128 136 
 YPLC HZ I        1651 42.68        48.2 0.31            146            128 136 
 PAM  EZ EP       1651 17.94                             142   -0.2710  133  23 
 PAM  EN ES       1651 40.02                             142   -0.9010  133  23 
 PAM  EZ I        1651 42.51        74.9 0.37            144            133  23 
 PTB  HZ EP       1651 17.86                             139   -0.6410  145 284 
 PTB  HN ES       1651 41.35                             139   -0.0810  145 284 
 PTB  HZ I        1651 42.80        68.6 0.23            141            145 284 
 CHI  HZ EP       1651 22.53                             131   -0.16 9  188 199 
 CHI  HN ES       1651 48.72                             131   -0.16 9  188 199 
 CHI  HZ I        1651 50.58        27.2 0.57            134            188 199 
 NOR  HZ EP   2   1651 24.26                             129    0.77 4  201 249 
 NOR  HN ES       1651 49.73                             129   -0.58 9  201 249 
 ZAR  HZ EP       1651 26.12                             125   -0.33 8  232 307 
 ZAR  HN ES       1651 55.29                             125   -0.28 8  232 307 
 ZAR  HZ I        1652  1.81        47.9 0.21            127            232 307 
 HEL  HZ EP       1651 30.32                             122    0.53 8  260 269 
 HEL  HN ES       1652  1.06                             122   -0.46 8  260 269 
 HEL  HZ I        1652  5.65        20.6 0.21            124            260 269 
 CBOC HZ EP       1651 36.21                             116    0.68 7  316 263 
 CBOC HN ES       1652 11.57                             116   -0.18 7  316 263 
 CBOC HZ I        1652 13.70        13.3 0.21            119            316 263 
 ORTC HZ EP       1651 39.05                             114    0.60 7  344 222 
 ORTC HN ES       1652 16.36                             114   -0.57 7  344 222 
 ORTC HZ I        1652 21.16         7.6 0.33            117            344 222 
 DBB  EZ EP       1651 39.17                             114    0.45 7  346 285 
 DBB  EN ES       1652 17.62                             114    0.19 7  346 285 
 DBB  EZ I        1652 19.17        25.6 0.27            116            346 285 
                                                                                
