 2010  719 1645 54.0 L   6.785 -73.063140.9  RSN  4 0.3 1.6LRSN                1
 GAP=168        0.67       6.1    11.5  9.1  0.3746E+02 -0.5841E+02 -0.2729E+02E
 Epicentro: LOS SANTOS - SANTANDER                                             3
 ACTION:UPD 10-12-01 15:18 OP:pat  STATUS:               ID:20100719164554 L   I
 2010-07-19-1641-53S.COL___123                                                 6
 STAT SP IPHASW D HRMM SECON CODA AMPLIT PERI AZIMU VELO AIN AR TRES W  DIS CAZ7
 BAR2 SZ IP       1646 13.04                             169    -0.110   25 212 
 BAR2 SZ ES   1   1646 27.59                             169    -0.4 7   25 212 
 BAR2 SZ I        1646 30.30        11.6 0.22                            25 212 
 BRR  HZ EP   1   1646 14.95                             149    -0.2 7   80 296 
 BRR  HN ES   1   1646 31.95                             149     0.3 7   80 296 
 RUS  HZ EP   1   1646 17.01                             143    -0.1 7   99 181 
 RUS  HE ES   1   1646 35.58                             143     0.4 7   99 181 
 RUS  HZ I        1646 36.59         3.2 0.39                            99 181 
 GRA  SZ EP   1   1646 18.99                             136     0.2 7  125  13 
 GRA  SZ I        1646 39.38         7.2 0.49                           125  13 
                                                                                
