 2011  619 1130 24.2 L   6.764 -73.130140.8  RSN  7 0.4 1.8LRSN                1
 GAP=140        0.91       4.8     6.8  8.2 -0.1377E+02  0.4655E+01 -0.2327E+00E
 Epicentro: LOS SANTOS - SANTANDER                                             3
 ACTION:UP  11-07-14 19:06 OP:ep   STATUS:               ID:20110619113024 L   I
 2011-06-19-1130-02S.COL___140                                                 6
 STAT SP IPHASW D HRMM SECON CODA AMPLIT PERI AZIMU VELO SNR AR TRES W  DIS CAZ7
 BAR2 SZ EP       1130 43.31                             172     0.110   20 197 
 BAR2 SZ ES   1   1130 57.77                             172    -0.2 7   20 197 
 BAR2 SZ I        1130 58.92        12.0 0.29                            20 197 
 BRR  HZ EP       1130 45.23                             150     0.210   75 301 
 BRR  HE ES   1   1131  1.95                             150     0.7 7   75 301 
 BRR  HZ I        1131  6.24        15.3 0.16                            75 301 
 PAM  SZ EP       1130 46.34                             149     0.310   79  37 
 PAM  SE ES   1   1131  2.97                             149    -0.1 7   79  37 
 RUS  HZ EP   1   1130 47.34                             144     0.1 7   96 177 
 RUS  HN ES   1   1131  5.14                             144     0.0 7   96 177 
 RUS  HZ I        1131  6.76         8.7 0.41                            96 177 
 BRI  SZ ES   2   1131  5.90                             139    -0.5 5  112  19 
 GRA  SZ EP   1   1130 49.22                             135    -0.1 7  129  16 
 GRA  SZ ES   1   1131  8.26                             135    -0.6 7  129  16 
 GRA  SZ I        1131 10.37         9.2 0.53                           129  16 
 NOR  SN ES   1   1131 26.23                             117    -0.9 6  234 236 
                                                                                
