 2017  719 1747 11.1 L   7.080 -73.359114.6  RSN  6 0.3 1.1LRSN                1
 GAP=143        0.80       4.9     5.1  5.7  0.1175E+02  0.1610E+01 -0.3018E+01E
 Epicentro: LEBRIJA - SANTANDER                                                3
 ACTION:UPD 17-08-30 15:34 OP:rebc STATUS:               ID:20170719174711 L   I
 OLDACT:REG 17-07-19 21:45 OP:lv   STATUS:               ID:20170719173745     3
 2017-07-19-1738-00M.COL___395                                                 6
 STAT SP IPHASW D HRMM SECON CODA AMPLIT PERI AZIMU VELO AIN AR TRES W  DIS CAZ7
 BRR  HZ IP     C 1747 27.14                             160   -0.0810 39.1 274 
 BRR  HE ES       1747 39.85                             160    0.0910 39.1 274 
 BAR2 EZ EP       1747 28.57                             151    0.0810 57.4 160 
 BAR2 EZ ES       1747 41.75                             151   -0.2710 57.4 160 
 BAR2 EZ I        1747 43.63         5.7 0.10            113           57.4 160 
 PAM  EZ EP       1747 30.17                             143   -0.0510 78.3  68 
 RUS  HZ EP       1747 35.24                             127    0.1210  135 167 
 RUS  HN ES       1747 54.17                             127    0.3610  135 167 
 RUS  HZ I        1747 55.50         0.9 0.15             98            135 167 
 PTB  HZ EP       1747 33.85                             126   -0.67 9  135 244 
 PTB  HN ES   4   1747 51.10                             126   -1.65 0  135 244 
 PTB  HZ I        1747 54.91         1.6 0.13             97            135 244 
 ZAR  HZ EP       1747 38.71                             119    0.46 9  172 285 
 ZAR  HN ES   3   1748  0.29                             119    0.90 2  172 285 
 ZAR  HZ I        1748  3.19         2.2 0.06             96            172 285 
                                                                                
