 2010 1119 1749  2.6 L   6.027 -73.667116.0  RSN  5 0.6 2.1LRSN                1
 GAP=108        1.27       6.2     7.5 14.9 -0.1035E+02  0.4840E+02  0.8792E+01E
 Epicentro: VELEZ - SANTANDER                                                  3
 ACTION:UP  10-12-17 16:53 OP:REBC STATUS:               ID:20101119174902 L   I
 2010-11-19-1747-07S.COL___131                                                 6
 STAT SP IPHASW D HRMM SECON CODA AMPLIT PERI AZIMU VELO SNR AR TRES W  DIS CAZ7
 RUS  HZ EP       1749 21.16                             148     0.110   66 103 
 RUS  HZ I        1749 21.70        12.7 0.09                            66 103 
 RUS  HN ES   1   1749 35.44                             148     0.1 7   66 103 
 BAR2 SZ EP       1749 22.34                             142     0.610   82  41 
 BAR2 SZ ES   1   1749 36.61                             142    -0.1 7   82  41 
 BAR2 SZ I        1749 38.00       132.3 0.45                            82  41 
 BRR  HZ EP       1749 24.34                             130    -0.210  120 358 
 BRR  HZ I        1749 24.71        25.3 0.08                           120 358 
 BRR  HN ES   1   1749 40.96                             130    -0.8 7  120 358 
 NOR  SZ EP       1749 26.78                             125    -0.1 9  143 249 
 NOR  SN ES   1   1749 46.55                             125     0.7 7  143 249 
 CHI  HZ EP   1   1749 28.63                             123     0.1 7  155 183 
 CHI  HN ES   2   1749 47.07                             123    -1.7 5  155 183 
 CHI  HZ I        1749 51.50         7.9 0.00                           155 183 
                                                                                
