 2012  319 1530 32.3 L   6.819 -73.158145.5  RSN  9 0.4 2.5LRSN                1
 GAP=134        0.85       3.9     4.4  6.3 -0.2510E+01  0.6978E+01  0.4260E+00E
 ACTION:UP  12-03-31 23:21 OP:EP   STATUS:               ID:20120319153032 L   I
 2012-03-19-1530-00M.COL___201                                                 6
 STAT SP IPHASW D HRMM SECON CODA AMPLIT PERI AZIMU VELO SNR AR TRES W  DIS CAZ7
 BAR2 SZ EP       1530 52.16                             170     0.210   25 186 
 BAR2 SZ ES   1   1531  7.33                             170     0.1 7   25 186 
 BAR2 SZ I        1531  9.14        30.6 0.15                            25 186 
 BRR  HZ IP     C 1530 53.76                             153     0.510   69 298 
 BRR  HN ES   1   1531  9.96                             153     0.3 7   69 298 
 BRR  HZ I        1531 14.24        73.7 0.08                            69 298 
 PAM  SZ EP       1530 54.60                             151     0.210   77  41 
 PAM  SN ES   1   1531 11.13                             151    -0.6 7   77  41 
 RUS  HZ EP   1   1530 56.34                             143     0.2 7  103 175 
 RUS  HN ES   1   1531 14.62                             143    -0.2 7  103 175 
 RUS  HZ I        1531 16.47        22.2 0.28                           103 175 
 PTB  HZ EP       1530 58.70                             132    -0.4 9  147 258 
 PTB  HN ES   1   1531 20.26                             132     0.2 7  147 258 
 PTB  HZ I        1531 23.25        41.6 0.17                           147 258 
 OCA  SZ EP   1   1531  0.32                             130     0.0 7  158 354 
 OCA  SZ ES   1   1531 21.64                             130    -0.6 7  158 354 
 ZAR  HZ EP   1   1531  4.53                             123     0.0 6  202 292 
 ZAR  HN ES   1   1531 29.93                             123     0.3 6  202 292 
 ZAR  HZ I        1531 35.70        72.0 0.28                           202 292 
 NOR  SZ EP   1   1531  7.80                             118    -0.2 6  235 234 
 NOR  SN ES   1   1531 35.06                             118    -0.8 6  235 234 
 PRA  HZ EP   1   1531 26.06                             106     0.1 4  393 209 
                                                                                
