 2017  119 1214 40.4 L   6.783 -73.169146.3  RSN  6 0.4 1.2LRSN                1
 GAP=134        1.16       5.9     5.2  8.5  0.2752E+01  0.8233E+01  0.7767E+00E
 Epicentro: LOS SANTOS - SANTANDER                                             3
 ACTION:UPD 17-05-22 16:01 OP:jn   STATUS:               ID:20170119121440 L   I
 OLDACT:DUP 17-01-19 23:45 OP:cog  STATUS:               ID:20170119120743d    3
 2017-01-19-1208-00M.COL___336                                                 6
 STAT SP IPHASW D HRMM SECON CODA AMPLIT PERI AZIMU VELO AIN AR TRES W  DIS CAZ7
 BAR2 EZ EP       1215  0.11                             171    0.0210 21.2 184 
 BAR2 EZ ES       1215 14.96                             171   -0.4610 21.2 184 
 BAR2 EZ I        1215 16.41         5.6 0.42            170           21.2 184 
 BRR  HZ EP       1215  2.18                             153    0.6110 69.9 301 
 BRR  HN ES       1215 18.84                             153    0.7910 69.9 301 
 PAM  EZ EP       1215  3.15                             150    0.2510 80.5  40 
 PAM  EN ES       1215 19.89                             150   -0.5210 80.5  40 
 PAM  EZ I        1215 20.52         2.9 0.34            152           80.5  40 
 RUS  HZ EP       1215  4.21                             144    0.0810 98.9 174 
 RUS  HN ES       1215 22.73                             144    0.1310 98.9 174 
 RUS  HZ I        1215 23.36         1.5 0.24            145           98.9 174 
 PTB  HZ EP       1215  6.62                             133   -0.57 9  145 259 
 PTB  HN ES       1215 28.06                             133    0.00 9  145 259 
 PTB  HZ I        1215 31.52         3.1 0.28            133            145 259 
 ZAR  HE ES       1215 37.40                             123   -0.55 9  202 293 
                                                                                
