 2015  119 1633 22.3 L   6.786 -73.126149.2  RSN  7 0.4 1.8LRSN                1
 GAP=140        0.94       5.2     5.0  7.3 -0.9911E+01  0.1454E+01  0.7187E+01E
 Epicentro: LOS SANTOS - SANTANDER                                             3
 ACTION:UPD 15-03-02 15:40 OP:nd   STATUS:               ID:20150119163322 L   I
 OLDACT:REG 15-01-19 20:26 OP:spq  STATUS:               ID:20150119162747     3
 2015-01-19-1627-47M.COL___256                                                 6
 STAT SP IPHASW D HRMM SECON CODA AMPLIT PERI AZIMU VELO AIN AR TRES W  DIS CAZ7
 BAR2 EZ EP       1633 42.21                             171   -0.1510 22.3 196 
 BAR2 EZ ES   1   1633 58.30                             171    0.32 7 22.3 196 
 BAR2 EZ I        1633 59.88        16.6 0.24            170           22.3 196 
 BRR  HZ EP   1   1633 44.25                             152    0.24 7 73.9 299 
 BRR  HN ES       1634  1.31                             152    0.4010 73.9 299 
 BRR  HZ I        1634  3.82         8.2 0.11            153           73.9 299 
 PAM  SZ EP       1633 45.13                             151    0.2210 77.3  38 
 PAM  SN ES   1   1634  2.26                             151   -0.26 7 77.3  38 
 PAM  SZ I        1634  4.36         8.0 0.48            154           77.3  38 
 RUS  HZ EP   1   1633 46.22                             145   -0.09 7 98.9 177 
 RUS  HE ES   1   1634  4.63                             145   -0.37 7 98.9 177 
 RUS  HZ I        1634  6.07         7.5 0.28            146           98.9 177 
 PTB  HZ EP       1633 49.50                             132   -0.25 9  150 260 
 PTB  HN ES       1634 10.22                             132   -0.91 9  150 260 
 PTB  HZ I        1634 11.87         5.8 0.26            133            150 260 
 SPBC HZ EP       1633 51.20                             130    0.09 9  163 220 
 SPBC HE ES       1634 13.68                             130    0.12 9  163 220 
 SPBC HZ I        1634 16.06        10.0 0.23            131            163 220 
 NOR  HN ES       1634 27.16                             119    0.70 8  236 235 
 NOR  HZ I        1634 31.94         4.6 0.43            120            236 235 
                                                                                
