 2013  119 1212 10.7 L   7.111 -73.053154.0  RSN  6 0.3 1.5LRSN                1
 GAP=135        0.59       4.6     3.8  5.8  0.3753E+00  0.7217E+01 -0.3916E+01E
 Epicentro: FLORIDABLANCA - SANTANDER                                          3
 ACTION:UPD 13-02-15 09:15 OP:ep   STATUS:               ID:20130119121210 L   I
 2013-01-19-1210-00M.COL___241                                                 6
 STAT SP IPHASW D HRMM SECON CODA AMPLIT PERI AZIMU VELO AIN AR TRES W  DIS CAZ7
 PAM  SZ EP   1   1212 32.16                             163   -0.19 7 46.5  57 
 PAM  SN ES   1   1212 49.00                             163   -0.23 7 46.5  57 
 PAM  SZ I        1212 50.30         4.4 0.24            165           46.5  57 
 BAR2 SZ EP   1   1212 32.83                             158    0.33 7 59.1 194 
 BAR2 SZ ES   1   1212 49.82                             158    0.32 7 59.1 194 
 BAR2 SZ I        1212 50.79        12.3 0.30            158           59.1 194 
 BRR  HZ EP   1   1212 32.94                             153    0.10 7 72.8 270 
 BRR  HE ES   1   1212 50.44                             153    0.34 7 72.8 270 
 RUS  HN ES   1   1212 58.76                             137   -0.35 7  135 181 
 RUS  HZ I        1213  1.48         2.1 0.54            138            135 181 
 PTB  HZ EP   1   1212 40.00                             130   -0.15 7  168 248 
 PTB  HN ES   1   1213  2.96                             130   -0.16 7  168 248 
 PTB  HZ I        1213  4.22         3.9 0.18            130            168 248 
 ZAR  HZ EP   1   1212 44.03                             124    0.36 6  204 282 
 ZAR  HN ES   1   1213  8.91                             124   -0.47 6  204 282 
 ZAR  HZ I        1213 14.92         3.0 0.24            125            204 282 
                                                                                
