 2010  419 1559 51.1 L   6.812 -72.945148.0  RSN  5 0.4 2.4LRSN                1
 GAP=227        0.85       6.0    15.7  8.5 -0.2152E+02 -0.2128E+02  0.5103E+01E
 Epicentro: CEPITA - SANTANDER                                                 3
 ACTION:UPD 10-08-24 10:00 OP:vdl  STATUS:               ID:20100419160002 L   I
 2010-04-19-1556-48S.COL___100                                                 6
 STAT SP IPHASW D HRMM SECON CODA AMPLIT PERI AZIMU VELO AIN AR TRES W  DIS CAZ7
 BAR2 SZ EP   2   16 0 11.77                             166     0.4 5   36 227 
 BAR2 SZ ES   1   16 0 26.83                             166    -0.3 7   36 227 
 BRR  HZ IP     C 16 0 14.31                             146     0.610   91 291 
 BRR  HZ I        16 0 14.66        46.8 0.11                            91 291 
 BRR  HN ES   1   16 0 31.11                             146    -0.3 7   91 291 
 OCA  SZ EP   1   16 0 19.45                             129    -0.5 7  163 345 
 OCA  SZ ES   1   16 0 42.18                             129    -0.1 7  163 345 
 OCA  SZ I        16 0 47.01        40.3 0.23                           163 345 
 RREF BZ EP   2   16 0 39.55                             110     0.1 3  340 232 
 RREF BZ I        16 1 22.98         5.6 0.45                           340 232 
 PRA  HZ EP   1   16 0 46.02                             106    -0.2 4  404 212 
 PRA  HE ES   2   16 1 28.39                             106    -0.8 3  404 212 
 PRA  HZ I        16 1 35.55         5.7 0.26                           404 212 
                                                                                
