 2013  219 1635 14.3 L   6.820 -73.160150.0  RSN  5 0.5 1.9LRSN                1
 GAP=238        0.97       7.0     9.7 10.6  0.2758E+02 -0.1285E+02  0.2893E+02E
 Epicentro: LOS SANTOS - SANTANDER                                             3
 ACTION:UPD 13-03-12 09:34 OP:ep   STATUS:               ID:20130219163514 L   I
 2013-02-19-1630-00M.COL___240                                                 6
 STAT SP IPHASW D HRMM SECON CODA AMPLIT PERI AZIMU VELO AIN AR TRES W  DIS CAZ7
 BRR  HZ EP   1   1635 36.10                             155    0.29 7 68.8 298 
 BRR  HN ES       1635 52.98                             155    0.4210 68.8 298 
 BRR  HN I        1635 56.74        19.0 0.17            155           68.8 298 
 RUS  HZ EP       1635 38.21                             144   -0.4510  103 175 
 RUS  HN ES   2   1635 57.43                             144   -0.21 5  103 175 
 PTB  HZ EP       1635 41.11                             134   -0.44 9  147 258 
 PTB  HN ES   1   1636  2.08                             134   -0.70 7  147 258 
 PTB  HN I        1636  7.06        10.6 0.28            134            147 258 
 ZAR  HN ES   2   1636 12.75                             124    0.58 4  202 292 
 CHI  HZ EP       1635 52.74                             118    0.29 8  250 195 
 CHI  HN ES       1636 22.78                             118    0.60 8  250 195 
 CHI  HN I        1636 27.90         4.0 0.42            120            250 195 
                                                                                
