 2014  219 1751 21.1 L   6.738 -73.165144.8  RSN  9 0.3 1.9LRSN                1
 GAP=137        0.89       3.0     3.6  5.4 -0.1050E+01  0.6030E+01 -0.3013E+00E
 Epicentro: VILLANUEVA - SANTANDER                                             3
 ACTION:UPD 14-03-10 08:11 OP:ep   STATUS:               ID:20140219175121 L   I
 OLDACT:DUP 14-02-19 18:12 OP:carl STATUS:               ID:20140219175001d    3
 2014-02-19-1750-00M.COL___212                                                 6
 STAT SP IPHASW D HRMM SECON CODA AMPLIT PERI AZIMU VELO AIN AR TRES W  DIS CAZ7
 BAR2 SZ EP       1751 40.42                             173   -0.0710 16.2 187 
 BAR2 SZ ES       1751 55.12                             173   -0.5010 16.2 187 
 BAR2 SZ I        1751 56.53        31.2 0.28            171           16.2 187 
 BRR  HZ EP       1751 42.58                             152    0.3310 72.9 304 
 BRR  HN ES       1751 59.16                             152    0.4210 72.9 304 
 BRR  HZ I        1752  0.43        16.4 0.16            150           72.9 304 
 PAM  SZ EP       1751 43.60                             148   -0.0310 84.1  38 
 PAM  SN ES       1752  1.07                             148   -0.1310 84.1  38 
 PAM  SZ I        1752  2.68        11.6 0.72            153           84.1  38 
 RUS  HZ EP     D 1751 44.19                             146   -0.1010 93.9 174 
 RUS  HN ES       1752  2.82                             146    0.4510 93.9 174 
 RUS  HZ I        1752  4.16         7.5 0.38            147           93.9 174 
 PTB  HZ EP       1751 47.01                             132   -0.68 9  144 261 
 PTB  HE ES       1752  7.91                             132   -0.52 9  144 261 
 PTB  HZ I        1752 14.18         9.3 0.20            132            144 261 
 SPBC HZ EP       1751 48.86                             130   -0.04 9  156 220 
 SPBC HN ES       1752 10.83                             130    0.25 9  156 220 
 SPBC HZ I        1752 13.49        10.1 0.20            131            156 220 
 ZAR  HZ EP       1751 53.37                             122   -0.19 9  205 294 
 ZAR  HE ES       1752 18.79                             122   -0.09 9  205 294 
 ZAR  HZ I        1752 23.87         9.6 0.24            123            205 294 
 NOR  HZ EP       1751 56.38                             119    0.22 8  229 236 
 NOR  HE ES       1752 23.83                             119    0.32 8  229 236 
 NOR  HZ I        1752 29.44         7.0 0.32            120            229 236 
 SML  HE ES       1752 27.80                             117    0.56 8  249 336 
                                                                                
