 2012  219 1913 31.6 L   6.752 -73.131140.9  RSN  7 0.4 1.5LRSN                1
 GAP=141        0.83       5.4     5.2  7.9 -0.7240E+01  0.7406E+01  0.2061E+01E
 ACTION:UP  12-03-07 16:32 OP:epov STATUS:               ID:20120219191331 L   I
 2012-02-19-1910-00M.COL___191                                                 6
 STAT SP IPHASW D HRMM SECON CODA AMPLIT PERI AZIMU VELO AIN AR TRES W  DIS CAZ7
 BAR2 SZ EP   1   1913 50.41                             172   -0.17 7 18.6 198 
 BAR2 SZ ES   1   1914  5.42                             172    0.06 7 18.6 198 
 BAR2 SZ I        1914  7.61         7.2 0.11                          18.6 198 
 GIR2 SZ EP   1   1913 50.90                             165    0.02 7 36.7 349 
 BRR  HZ EP   1   1913 52.70                             150    0.21 7 75.2 301 
 BRR  HZ I        1913 59.48        17.8 0.31                          75.2 301 
 BRR  HE ES   1   1914  9.40                             150    0.64 7 75.2 301 
 PAM  SZ EP   1   1913 53.64                             149    0.12 7 80.5  36 
 PAM  SE ES   1   1914 10.35                             149   -0.24 7 80.5  36 
 RUS  HZ EP   1   1913 54.61                             144    0.10 7 95.2 177 
 RUS  HN ES   1   1914 12.28                             144   -0.08 7 95.2 177 
 RUS  HZ I        1914 14.45         2.4 0.38                          95.2 177 
 PTB  HZ EP   1   1913 57.93                             131   -0.33 7  148 261 
 PTB  HE ES   1   1914 18.02                             131   -1.02 7  148 261 
 NOR  SN ES   1   1914 35.16                             118    0.76 6  233 236 
                                                                                
