 2017  419 1210 49.9 L   6.774 -73.150145.7  RSN 11 0.4 2.1LRSN                1
 GAP=112        1.07       3.7     3.6  6.1  0.2520E+01  0.5667E+01  0.5834E+01E
 Epicentro: LOS SANTOS - SANTANDER                                             3
 ACTION:UPD 17-05-30 21:14 OP:jn   STATUS:               ID:20170419121049 L   I
 OLDACT:REG 17-04-19 20:45 OP:lv   STATUS:               ID:20170419120745     3
 2017-04-19-1208-00M.COL___361                                                 6
 STAT SP IPHASW D HRMM SECON CODA AMPLIT PERI AZIMU VELO AIN AR TRES W  DIS CAZ7
 BAR2 EZ IP     D 1211  9.45                             172   -0.0310 20.4 190 
 BAR2 EZ ES       1211 24.44                             172   -0.3010 20.4 190 
 BAR2 EZ I        1211 25.54        55.4 0.18            170           20.4 190 
 BRR  HZ IP     C 1211 11.32                             152    0.2010 72.2 301 
 BRR  HN ES       1211 28.37                             152    0.7210 72.2 301 
 BRR  HZ I        1211 29.50        28.9 0.18            151           72.2 301 
 PAM  EZ EP       1211 12.45                             150    0.1710 79.9  38 
 PAM  EN ES       1211 29.51                             150   -0.2010 79.9  38 
 PAM  EZ I        1211 31.65        34.3 0.46            153           79.9  38 
 RUS  HZ EP       1211 13.43                             145   -0.0310 97.8 176 
 RUS  HN ES       1211 31.96                             145    0.1410 97.8 176 
 RUS  HZ I        1211 33.00        12.6 0.15            144           97.8 176 
 PTB  HZ EP       1211 16.06                             132   -0.73 9  147 260 
 PTB  HN ES       1211 36.96                             132   -0.79 9  147 260 
 PTB  HZ I        1211 39.32        17.5 0.12            131            147 260 
 YPLC HZ EP       1211 19.83                             127    0.35 9  175 151 
 YPLC HN ES       1211 42.18                             127   -0.36 9  175 151 
 YPLC HZ I        1211 46.46         5.1 0.24            127            175 151 
 ZAR  HZ EP       1211 22.63                             122    0.20 9  205 293 
 ZAR  HN ES       1211 47.98                             122    0.19 9  205 293 
 ZAR  HZ I        1211 54.28        17.8 0.16            122            205 293 
 NOR  HZ EP       1211 24.83                             119   -0.60 8  233 235 
 NOR  HN ES       1211 52.95                             119   -0.17 8  233 235 
 NOR  HZ I        1211 55.19        19.2 0.05            118            233 235 
 CHI  HZ EP       1211 27.39                             117    0.09 8  246 195 
 CHI  HN ES       1211 57.36                             117    0.90 8  246 195 
 CHI  HZ I        1212  3.99         2.9 0.13            117            246 195 
 HEL  HZ EP   4   1211 31.63                             115    1.63 0  271 256 
 HEL  HE ES       1212  1.77                             115    0.50 8  271 256 
 HEL  HZ I        1212  8.53         4.3 0.20            115            271 256 
 URE  HZ EP   4   1211 34.09                             113    3.03 0  285 292 
 URE  HN ES   4   1212  2.48                             113   -0.67 0  285 292 
 URE  HZ I        1212  4.92        12.6 0.12            114            285 292 
 PTGC HZ EP   4   1211 32.62                             112   -0.87 0  306 158 
 PTGC HN ES   4   1212  5.10                             112   -2.37 0  306 158 
                                                                                
