 2017  319 1021 11.6 L   6.760 -73.157138.0  RSN  6 0.4 1.5LRSN                1
 GAP=137        0.71       3.7     3.2  5.7  0.2973E+00  0.4127E+01 -0.3275E+01E
 Epicentro: LOS SANTOS - SANTANDER                                             3
 ACTION:UPD 17-05-25 18:42 OP:jn   STATUS:               ID:20170319102111 L   I
 OLDACT:DUP 17-03-19 23:08 OP:dnl  STATUS:               ID:20170319101742d    3
 2017-03-19-1018-00M.COL___388                                                 6
 STAT SP IPHASW D HRMM SECON CODA AMPLIT PERI AZIMU VELO AIN AR TRES W  DIS CAZ7
 BAR2 EZ EP       1021 30.21                             172   -0.0210 18.8 189 
 BAR2 EZ ES       1021 45.05                             172    0.3110 18.8 189 
 BAR2 EZ I        1021 53.06         4.9 0.54            173           18.8 189 
 BRR  HZ IP       1021 32.12                             151    0.1210 72.4 302 
 BRR  HN ES       1021 47.81                             151   -0.0910 72.4 302 
 BRR  HZ I        1021 49.89         6.8 0.46            151           72.4 302 
 PAM  EZ EP       1021 33.28                             148    0.0010 81.5  38 
 PAM  EN ES       1021 50.11                             148   -0.0610 81.5  38 
 PAM  EZ I        1021 52.71         7.5 0.40            152           81.5  38 
 RUS  HZ EP   2   1021 34.64                             143    0.34 5 96.3 175 
 RUS  HE ES       1021 51.67                             143   -0.3210 96.3 175 
 PTB  HZ EP   2   1021 36.88                             131   -0.90 5  146 260 
 PTB  HN ES       1021 58.50                             131    0.32 9  146 260 
 PTB  HZ I        1022  0.64         4.1 0.10            134            146 260 
 ZAR  HZ EP   2   1021 44.57                             121    0.94 4  205 293 
 ZAR  HN ES       1022  8.20                             121   -0.40 9  205 293 
 ZAR  HZ I        1022 16.98         3.9 0.48            124            205 293 
                                                                                
