 2013 1019 1951 17.9 L   6.789 -73.154146.0  RSN 11 0.4 2.2LRSN                1
 GAP=136        0.81       2.9     4.0  5.2 -0.1256E+01  0.4380E+01  0.2555E+00E
 Epicentro: LOS SANTOS - SANTANDER                                             3
 ACTION:UPD 13-11-25 09:22 OP:ep   STATUS:               ID:20131019195117 L   I
 OLDACT:UP  13-10-19 20:03 OP:mh   STATUS:               ID:20131019194849     3
 OLDACT:REG 13-10-19 16:40 OP:mh   STATUS:               ID:20131019194849     3
 2013-10-19-1948-49M.COL___214                                                 6
 STAT SP IPHASW D HRMM SECON CODA AMPLIT PERI AZIMU VELO AIN AR TRES W  DIS CAZ7
 BAR2 SZ EP       1951 37.60                             171    0.0910 22.0 188 
 BAR2 SZ ES       1951 52.57                             171   -0.2610 22.0 188 
 BAR2 SZ I        1951 54.12        60.7 0.46            171           22.0 188 
 BRR  HZ EP       1951 39.55                             153    0.5010 71.0 300 
 BRR  HN ES   1   1951 56.07                             153    0.52 7 71.0 300 
 BRR  HZ I        1951 57.57        24.2 0.28            152           71.0 300 
 PAM  SZ EP   1   1951 39.83                             150   -0.38 7 78.9  39 
 PAM  SN ES   1   1951 57.65                             150    0.02 7 78.9  39 
 PAM  SZ I        1952  2.38        10.0 0.60            152           78.9  39 
 RUS  HZ EP       1951 41.62                             144    0.0510 99.5 176 
 RUS  HN ES   1   1951 59.83                             144   -0.23 7 99.5 176 
 RUS  HZ I        1952  1.39        18.1 0.25            145           99.5 176 
 PTB  HZ EP   1   1951 44.25                             132   -0.52 7  147 259 
 PTB  HN ES       1952  5.16                             132   -0.58 9  147 259 
 PTB  HZ I        1952  7.02        23.4 0.12            133            147 259 
 SPBC HZ EP   1   1951 46.52                             129    0.26 7  162 219 
 SPBC HN ES       1952  8.67                             129    0.28 9  162 219 
 SPBC HZ I        1952 13.77        26.1 0.19            130            162 219 
 ZAR  HZ EP   1   1951 51.08                             122    0.77 6  204 293 
 ZAR  HN ES   2   1952 15.85                             122    0.25 4  204 293 
 NOR  HZ EP   1   1951 53.46                             119   -0.01 6  233 235 
 NOR  HN ES   1   1952 20.97                             119   -0.27 6  233 235 
 NOR  HZ I        1952 25.94        14.7 0.16            119            233 235 
 SML  HZ EP   1   1951 53.66                             117   -0.94 6  244 336 
 SML  HN ES   1   1952 23.30                             117    0.06 6  244 336 
 SML  HZ I        1952 29.61        31.4 0.09            118            244 336 
 CHI  HZ EP   1   1951 55.58                             117    0.14 6  247 195 
 CHI  HN ES       1952 24.85                             117    0.11 8  247 195 
 CHI  HZ I        1952 30.72         7.4 0.26            118            247 195 
 GUY2CHZ EP   4   1952  2.91                             112    1.57 0  300 235 
 GUY2CHN ES   4   1952 39.43                             112    4.19 0  300 235 
 GUY2CHZ I        1952 43.38         8.0 0.50                           300 235 
                                                                                
