 2012  419 1129 23.3 L   6.764 -73.153139.2  RSN 12 0.4 2.1LRSN                1
 GAP=137        0.86       3.7     3.8  5.7 -0.2842E+01  0.7191E+01  0.4246E+01E
 Epicentro: LOS SANTOS - SANTANDER                                             3
 ACTION:UPD 12-07-05 11:54 OP:tino STATUS:               ID:20120419112923 L   I
 2012-04-19-1124-49M.COL___175                                                 6
 STAT SP IPHASW D HRMM SECON CODA AMPLIT PERI AZIMU VELO AIN AR TRES W  DIS CAZ7
 BAR2 SZ EP       1129 42.17                             172     0.110   19 190 
 BAR2 SZ ES   1   1129 56.34                             172    -0.4 7   19 190 
 BAR2 SZ I        1129 58.81        32.5 0.20                            19 190 
 BRR  HZ EP       1129 43.96                             151     0.110   72 302 
 BRR  HE ES   1   1130  0.73                             151     0.9 7   72 302 
 BRR  HZ I        1130  5.67        24.7 0.10                            72 302 
 PAM  SZ EP       1129 45.09                             148     0.010   81  38 
 PAM  SE ES       1130  1.78                             148    -0.210   81  38 
 RUS  HZ EP       1129 46.15                             143     0.010   97 175 
 RUS  HE ES   1   1130  4.01                             143     0.1 7   97 175 
 RUS  HZ I        1130  6.12        11.3 0.46                            97 175 
 PTB  HZ EP       1129 48.97                             131    -0.6 9  146 260 
 PTB  HN ES   1   1130  9.81                             131    -0.3 7  146 260 
 OCA  SZ EP   1   1129 51.92                             127     0.4 7  164 354 
 ZAR  HZ EP   1   1129 55.27                             121    -0.1 6  205 293 
 ZAR  HN ES   1   1130 20.02                             121    -0.4 6  205 293 
 ZAR  HZ I        1130 25.41        16.5 0.24                           205 293 
 NOR  SZ EP   1   1129 57.96                             117    -0.4 6  232 235 
 NOR  SN ES   1   1130 26.30                             117     0.6 6  232 235 
 CHI  HZ EP   1   1130  0.42                             116     0.2 6  245 195 
 CHI  HZ I        1130 33.44         8.1 0.47                           245 195 
 HEL  HZ EP   1   1130  3.10                             114     0.1 6  270 257 
 HEL  HE ES   1   1130 34.18                             114     0.2 6  270 257 
 HEL  HZ I        1130 40.73         7.2 0.23                           270 257 
 RREF HZ EP   1   1130  9.55                             110     0.7 5  319 230 
 RREF HN ES   1   1130 43.87                             110    -0.4 5  319 230 
 RREF HZ I        1130 53.92         8.4 0.44                           319 230 
 PRA  HZ EP   1   1130 16.14                             106     0.0 4  388 210 
 PRA  HN ES   1   1130 57.40                             106     0.0 4  388 210 
                                                                                
