 2013  619 1223  6.3 L   6.696 -73.510110.0  RSN  5 0.4 1.5LRSN                1
 GAP=134        0.99       6.5     5.3  7.8  0.1390E+02  0.1433E+02  0.7495E+01E
 Epicentro: EL CARMEN DE CHUCURI - SANTANDER                                   3
 ACTION:UPD 14-01-08 09:55 OP:ep   STATUS:               ID:20130619122306 L   I
 OLDACT:UP  13-06-19 17:13 OP:cam  STATUS:               ID:20130619121959     3
 OLDACT:REG 13-06-19 15:44 OP:cam  STATUS:               ID:20130619121959     3
 2013-06-19-1219-59M.COL___261                                                 6
 STAT SP IPHASW D HRMM SECON CODA AMPLIT PERI AZIMU VELO AIN AR TRES W  DIS CAZ7
 BAR2 SZ EP       1223 21.71                             160   -0.4210 38.0 108 
 BAR2 SZ ES       1223 34.68                             160    0.1810 38.0 108 
 BAR2 SZ I        1223 36.06        13.3 0.37             47           38.0 108 
 BRR  HZ EP       1223 21.86                             153   -0.5410 50.6 334 
 BRR  HN ES       1223 35.21                             153    0.2310 50.6 334 
 RUS  HZ EP   1   1223 27.24                             135    0.53 7  101 152 
 RUS  HN ES   1   1223 42.78                             135    0.12 7  101 152 
 RUS  HZ I        1223 47.97         3.1 0.40             47            101 152 
 PTB  HZ EP       1223 26.22                             133   -0.3310  106 261 
 PTB  HN ES       1223 42.32                             133   -0.0510  106 261 
 PTB  HZ I        1223 47.19         5.5 0.10             47            106 261 
 ZAR  HZ EP       1223 33.96                             118    0.70 9  173 301 
 ZAR  HZ I        1223 56.67         6.4 0.40             47            173 301 
                                                                                
