 2016  719 1429 31.6 L   6.795 -73.168142.0  RSN  5 0.4 1.8LRSN                1
 GAP=134        0.94       4.4     5.3  8.8 -0.4286E+01  0.1338E+02 -0.3795E+01E
 Epicentro: LOS SANTOS - SANTANDER                                             3
 ACTION:UPD 17-03-29 16:53 OP:lp   STATUS:               ID:20160719142931 L   I
 OLDACT:REG 16-07-19 20:12 OP:lv   STATUS:               ID:20160719142759     3
 2016-07-19-1427-59S.COL___340                                                 6
 STAT SP IPHASW D HRMM SECON CODA AMPLIT PERI AZIMU VELO AIN AR TRES W  DIS CAZ7
 BAR2 EZ EP       1429 50.47                             171   -0.2410 22.5 184 
 BAR2 EZ ES       1430  5.31                             171   -0.3510 22.5 184 
 PAM  EZ EP       1429 53.42                             149   -0.0710 79.3  41 
 PAM  EE ES       1430 10.63                             149    0.0310 79.3  41 
 PAM  EZ I        1430 12.54         7.7 0.37            150           79.3  41 
 RUS  HZ EP       1429 54.94                             143    0.0310  100 175 
 RUS  HN ES       1430 13.83                             143    0.7010  100 175 
 SPBC HN ES       1430 20.95                             128   -0.49 9  161 218 
 ZAR  HN ES       1430 28.90                             122    0.41 9  202 293 
 ZAR  HE I        1430 34.07         9.7 0.20            121            202 293 
                                                                                
