 2016  319 1705 16.7 L   6.811 -73.153135.2  RSN 13 0.3 2.8LRSN                1
 GAP= 70        0.73       2.0     2.0  4.0 -0.6721E+00  0.2623E+01  0.4193E+00E
 Epicentro: LOS SANTOS - SANTANDER                                             3
 ACTION:UPD 16-05-13 21:25 OP:cam  STATUS:               ID:20160319170516 L   I
 OLDACT:UP  16-03-28 15:35 OP:Mher STATUS:               ID:20160319170516 L   3
 OLDACT:REG 16-03-19 22:03 OP:cara STATUS:               ID:20160319165745     3
 2016-03-19-1657-45M.COL___298                                                 6
 STAT SP IPHASW D HRMM SECON CODA AMPLIT PERI AZIMU VELO AIN AR TRES W  DIS CAZ7
 BAR2 EZ IP     D 17 5 35.18                             169    0.0610 24.4 188 
 BAR2 EZ ES       17 5 49.30                             169   -0.1610 24.4 188 
 BAR2 EZ I        17 5 50.81       161.4 0.14            169           24.4 188 
 PAM  EZ EP     D 17 5 38.00                             149    0.1910 76.9  41 
 PAM  EN ES       17 5 54.68                             149    0.4310 76.9  41 
 RUS  HZ EP       17 5 39.56                             141    0.0010  102 176 
 RUS  HE ES       17 5 57.30                             141   -0.0610  102 176 
 RUS  HZ I        17 5 59.29       109.6 0.40            143            102 176 
 PTB  HZ EP       17 5 42.31                             130   -0.50 9  147 258 
 PTB  HN ES       17 6  2.95                             130   -0.21 9  147 258 
 PTB  HZ I        17 6  8.10        98.4 0.30            130            147 258 
 TAM  HZ IP     D 17 5 43.64                             128   -0.06 9  156 105 
 TAM  HN ES       17 6  5.02                             128    0.29 9  156 105 
 OCA  HZ EP       17 5 43.80                             127   -0.32 9  159 353 
 OCA  HN ES       17 6  4.95                             127   -0.53 9  159 353 
 OCA  HZ I        17 6  7.19        92.6 0.18            129            159 353 
 SPBC HZ EP       17 5 44.19                             126   -0.30 9  164 219 
 SPBC HE ES       17 6  6.20                             126    0.06 9  164 219 
 SPBC HZ I        17 6  8.39       121.1 0.20            127            164 219 
 ZAR  HZ EP       17 5 48.57                             120    0.18 9  203 292 
 ZAR  HN ES       17 6 13.41                             120    0.33 9  203 292 
 ZAR  HZ I        17 6 18.39        47.6 0.26            121            203 292 
 NOR  HZ EP       17 5 51.79                             116   -0.09 8  235 234 
 NOR  HN ES       17 6 19.23                             116   -0.07 8  235 234 
 NOR  HZ I        17 6 21.98        45.2 0.36            117            235 234 
 CHI  HZ EP       17 5 53.71                             115   -0.27 8  250 195 
 CHI  HN ES       17 6 22.74                             115   -0.29 8  250 195 
 CHI  HZ I        17 6 26.16        21.2 0.24            116            250 195 
 HEL  HZ EP       17 5 56.94                             113    0.56 8  272 256 
 HEL  HE ES       17 6 27.71                             113    0.40 8  272 256 
 HEL  HZ I        17 6 32.83        25.5 0.22            114            272 256 
 URE  HZ EP   4   17 5 59.16                             111    1.98 0  283 292 
 URE  HN ES   4   17 6 27.52                             111   -1.21 0  283 292 
 URE  HZ I        17 6 30.46        36.5 0.16            113            283 292 
 GUY2CHZ EP       17 6  0.41                             110    0.52 7  301 234 
 GUY2CHN ES       17 6 33.82                             110    0.28 7  301 234 
 GUY2CHZ I        17 6 42.38        24.7 0.56                           301 234 
                                                                                
