 2016  419 1138 23.0 L   6.790 -73.047149.7  RSN 15 0.5 2.2LRSN                1
 GAP=127        1.13       3.2     3.8  5.6 -0.6022E+01  0.3241E+01 -0.5750E+00E
 Epicentro: LOS SANTOS - SANTANDER                                             3
 ACTION:UPD 16-05-05 14:22 OP:rebc STATUS:               ID:20160419113823 L   I
 OLDACT:ARG 16-04-19 21:08 OP:ar   STATUS:               ID:20160419113750     3
 2016-04-19-1137-50M.COL___306                                                 6
 STAT SP IPHASW D HRMM SECON CODA AMPLIT PERI AZIMU VELO AIN AR TRES W  DIS CAZ7
 BAR2 EZ IP     D 1138 43.27                             170    0.0710 26.5 214 
 BAR2 EZ ES       1138 58.29                             170   -0.6410 26.5 214 
 BAR2 EZ I        1139  0.91        40.8 0.42            169           26.5 214 
 PAM  EZ EP       1138 45.99                             153    0.6310 71.9  32 
 PAM  EN ES       1139  3.27                             153    0.5110 71.9  32 
 PAM  EZ I        1139  5.37        19.6 0.44            155           71.9  32 
 RUS  HZ EP       1138 47.07                             145   -0.0210 99.4 182 
 RUS  HN ES       1139  5.90                             145    0.0510 99.4 182 
 RUS  HZ I        1139  8.71        16.3 0.42            147           99.4 182 
 PTB  HZ EP   4   1138 49.87                             131   -1.41 0  158 260 
 PTB  HN ES   4   1139 10.96                             131   -2.35 0  158 260 
 PTB  HZ I        1139 18.64        34.7 0.48            131            158 260 
 OCA  HZ EP       1138 52.25                             130    0.35 9  163 349 
 OCA  HN ES       1139 14.36                             130   -0.06 9  163 349 
 OCA  HZ I        1139 20.17        34.4 0.32            131            163 349 
 SPBC HZ EP       1138 52.13                             129   -0.30 9  169 222 
 SPBC HN ES       1139 14.87                             129   -0.48 9  169 222 
 SPBC HZ I        1139 16.91        21.1 0.11            130            169 222 
 ZAR  HZ EP       1138 57.09                             122    0.27 8  215 291 
 ZAR  HN ES       1139 23.45                             122    0.28 8  215 291 
 ZAR  HZ I        1139 27.83        14.7 0.51            123            215 291 
 NOR  HZ EP       1138 58.97                             118   -0.92 8  243 236 
 NOR  HN ES       1139 27.75                             118   -0.88 8  243 236 
 NOR  HZ I        1139 32.80        14.8 0.32            119            243 236 
 CHI  HZ EP       1139  1.20                             118    0.02 8  251 198 
 CHI  HN ES       1139 31.80                             118    0.88 8  251 198 
 CHI  HZ I        1139 40.53         7.8 0.70            119            251 198 
 ROSC BN ES       1139 32.83                             117    0.61 8  258 213 
 HEL  HZ EP       1139  3.76                             115   -0.83 7  282 257 
 HEL  HN ES       1139 37.06                             115    0.06 7  282 257 
 HEL  HZ I        1139 41.92        10.0 0.34            116            282 257 
 SOCV BZ EP       1139  5.85                             113    0.53 7  293  56 
 SOCV BN ES   1   1139 37.56                             113   -0.74 5  293  56 
 URE  HN ES   4   1139 35.61                             113   -2.96 0  294 291 
 GUY2CHZ EP       1139  8.27                             112    0.50 7  310 236 
 GUY2CHN ES       1139 42.90                             112    0.24 7  310 236 
 GUY2CHZ I        1139 50.11        11.0 0.72                           310 236 
 SDV  BZ EP       1139 11.69                             109   -0.66 6  353  49 
 SDV  BN ES       1139 50.44                             109   -0.38 6  353  49 
 SDV  BZ I        1139 53.96         2.4 0.60            111            353  49 
 ORTC HZ EP       1139 17.30                             107   -0.45 6  401 218 
 ORTC HN ES       1140  1.00                             107    0.57 6  401 218 
 ORTC HZ I        1140  7.08         6.6 0.52            108            401 218 
                                                                                
