 2011  319 1524 13.2 L   6.798 -73.130146.3  RSN 12 0.3 2.7LRSN                1
 GAP=137        0.47       1.9     3.2  4.0 -0.8929E+00  0.5442E+01  0.9422E+00E
 Epicentro: LOS SANTOS - SANTANDER                                             3
 ACTION:UP  11-06-16 14:34 OP:jfem STATUS:               ID:20110319152413 L   I
 2011-03-19-1522-39S.COL___135                                                 6
 STAT SP IPHASW D HRMM SECON CODA AMPLIT PERI AZIMU VELO SNR AR TRES W  DIS CAZ7
 BTL  SZ EP   1   1524 33.17                             172     0.3 7   20 311 
 BTL  SZ ES   2   1524 48.46                             172     0.3 5   20 311 
 BAR2 SZ EP   1   1524 32.98                             170     0.0 7   24 195 
 BAR2 SZ ES   2   1524 48.02                             170    -0.3 5   24 195 
 BAR2 SZ I        1524 49.60        79.9 0.33                            24 195 
 RUS  HZ EP   1   1524 36.80                             144    -0.2 7  100 177 
 RUS  HN ES   1   1524 55.57                             144     0.0 7  100 177 
 RUS  HZ I        1524 57.11        65.4 0.27                           100 177 
 GRA  SZ EP   1   1524 38.83                             137     0.3 7  125  17 
 GRA  SZ ES   1   1524 58.12                             137    -0.1 7  125  17 
 GRA  SZ I        1525  1.50       103.2 0.34                           125  17 
 OCA  SZ EP   1   1524 41.14                             130    -0.5 7  161 353 
 OCA  SZ ES   2   1525  4.09                             130     0.3 5  161 353 
 YOP  SZ EP   1   1524 43.36                             127     0.1 7  178 154 
 YOP  SE ES   2   1525  6.49                             127    -0.2 4  178 154 
 YOP  SZ I        1525 10.15        31.3 0.24                           178 154 
 NOR  SZ EP   1   1524 49.00                             118    -0.2 6  236 235 
 NOR  SN ES   2   1525 17.73                             118     0.5 4  236 235 
 CHI  HZ EP   1   1524 51.00                             117     0.0 6  249 196 
 CHI  HE ES   2   1525 20.06                             117    -0.4 4  249 196 
 CHI  HZ I        1525 24.16        33.9 0.34                           249 196 
 RREF HZ EP   1   1524 59.87                             111     0.3 5  323 230 
 RREF HZ I        1525 42.40        49.5 0.28                           323 230 
 DBB  SZ EP   1   1525  0.83                             109    -0.1 5  341 274 
 DBB  SZ ES   1   1525 37.79                             109    -0.4 5  341 274 
 DBB  SZ I        1525 39.94         9.5 0.37                           341 274 
 TOL  SZ EP   1   1525  1.78                             109     0.1 5  345 225 
 TOL  SZ ES   2   1525 39.52                             109     0.1 3  345 225 
 PRA  HZ EP   1   1525  7.00                             107     0.1 4  393 210 
 PRA  HE ES   1   1525 48.79                             107     0.1 4  393 210 
                                                                                
