 2014  819 1247 17.6 L   6.759 -73.118140.9  RSN  4 0.2 1.3LRSN                1
 GAP=142        0.53       2.8     4.1  4.3 -0.1709E+00 -0.1221E+01  0.3518E+00E
 Epicentro: LOS SANTOS - SANTANDER                                             3
 ACTION:UPD 14-09-15 21:51 OP:nd   STATUS:               ID:20140819124717 L   I
 OLDACT:DUP 14-08-20 00:58 OP:stll STATUS:               ID:20140819123819d    3
 2014-08-19-1238-18M.COL___254                                                 6
 STAT SP IPHASW D HRMM SECON CODA AMPLIT PERI AZIMU VELO AIN AR TRES W  DIS CAZ7
 BAR2 SZ EP       1247 36.54                             172   -0.0710 19.8 201 
 BAR2 SZ I        1247 36.66         7.2 0.42            173           19.8 201 
 BAR2 SZ ES       1247 51.78                             172    0.3710 19.8 201 
 BRR  HZ EP       1247 38.53                             150   -0.0210 76.1 300 
 BRR  HE ES       1247 54.76                             150   -0.1010 76.1 300 
 PAM  SZ EP       1247 39.62                             149    0.1810 79.1  36 
 PAM  SN ES       1247 56.26                             149   -0.1910 79.1  36 
 PAM  SZ I        1247 58.83         4.6 0.40            148           79.1  36 
 RUS  HZ EP       1247 40.61                             144    0.0410 95.9 178 
 RUS  HZ I        1247 41.36         2.3 0.26            145           95.9 178 
 RUS  HN ES       1247 58.25                             144   -0.2110 95.9 178 
                                                                                
