 2011  519 1747  2.2 L   6.808 -73.099144.8  RSN  4 0.5 1.6LRSN                1
 GAP=142        1.05       7.2    12.1 15.6 -0.2085E+02 -0.2817E+01  0.3237E+02E
 Epicentro: LOS SANTOS - SANTANDER                                             3
 ACTION:UP  11-06-29 08:54 OP:tino STATUS:               ID:20110519174702 L   I
 2011-05-19-1744-26S.COL___138                                                 6
 STAT SP IPHASW D HRMM SECON CODA AMPLIT PERI AZIMU VELO SNR AR TRES W  DIS CAZ7
 PAM  SZ EP       1747 24.72                             152     0.610   74  37 
 PAM  SN ES   2   1747 41.04                             152    -0.1 5   74  37 
 BRR  HZ EP       1747 23.60                             151     0.110   75 296 
 BRR  HZ I        1747 26.46        10.2 0.15                            75 296 
 BRR  HN ES   2   1747 40.17                             151     0.1 5   75 296 
 RUS  HZ EP       1747 25.77                             143    -0.210  101 179 
 RUS  HN ES   2   1747 44.17                             143    -0.2 5  101 179 
 RUS  HZ I        1747 45.26         4.6 0.30                           101 179 
 GRA  SZ EP   2   1747 25.81                             137    -1.4 5  123  15 
 GRA  SZ ES   1   1747 46.36                             137    -0.3 7  123  15 
 GRA  SZ I        1747 49.72         5.3 0.29                           123  15 
                                                                                
