 2015  219 1151 33.9 L   7.016 -73.704 23.5  RSN  6 0.5 1.6LRSN                1
 GAP=111        1.15       3.9     3.7  3.6 -0.5359E+01 -0.7212E+01  0.4568E+01E
 Epicentro: BARRANCABERMEJA - SANTANDER                                        3
 ACTION:UPD 15-04-30 21:27 OP:nd   STATUS:               ID:20150219115133 L   I
 OLDACT:REG 15-02-19 20:58 OP:fm   STATUS:               ID:20150219114747     3
 2015-02-19-1147-47M.COL___299                                                 6
 STAT SP IPHASW D HRMM SECON CODA AMPLIT PERI AZIMU VELO AIN AR TRES W  DIS CAZ7
 BRR  HZ EP     D 1151 38.02                             156   -0.0210 10.1 355 
 BRR  HN ES       1151 41.21                             156   -0.0610 10.1 355 
 BRR  HZ I        1151 41.74       168.6 0.10            164           10.1 355 
 BAR2 EZ EP       1151 46.22                             106   -0.1810 74.3 129 
 PTB  HZ EP       1151 49.85                             102    0.1310 98.4 238 
 PTB  HN ES       1152  1.75                             102   -0.3110 98.4 238 
 PTB  HZ I        1152  2.35        20.3 0.38            101           98.4 238 
 PAM  SZ EP       1151 53.29                              56    0.6410  117  72 
 PAM  SE ES       1152  6.70                              56   -0.5710  117  72 
 PAM  SZ I        1152  8.51         6.0 0.18             56            117  72 
 RUS  HZ EP       1151 56.71                              56    0.90 9  142 151 
 RUS  HE ES   1   1152 12.19                              56   -0.72 7  142 151 
 RUS  HZ I        1152 17.06         6.1 0.26             56            142 151 
 SML  HE ES   1   1152 24.95                              56   -0.16 6  202 348 
                                                                                
