 2011  319 1122  2.5 L   6.755 -73.125141.2  RSN  8 0.2 1.8LRSN                1
 GAP=161        0.40       2.1     3.5  3.9 -0.2081E+01  0.7548E+00 -0.3216E-01E
 Epicentro: LOS SANTOS - SANTANDER                                             3
 ACTION:UP  11-06-16 14:34 OP:jfem STATUS:               ID:20110319112202 L   I
 2011-03-19-1118-52S.COL___135                                                 6
 STAT SP IPHASW D HRMM SECON CODA AMPLIT PERI AZIMU VELO SNR AR TRES W  DIS CAZ7
 BAR2 SZ EP   1   1122 21.37                             172    -0.1 7   19 200 
 BAR2 SZ ES   1   1122 36.19                             172    -0.1 7   19 200 
 BAR2 SZ I        1122 38.45        14.0 0.30                            19 200 
 BTL  SZ EP       1122 21.63                             170     0.110   24 319 
 GIR2 SZ EP   2   1122 21.72                             165     0.0 5   37 348 
 GIR2 SZ ES   3   1122 36.59                             165    -0.2 2   37 348 
 BRR  HZ EP       1122 23.46                             150     0.110   76 301 
 BRR  HN ES   1   1122 40.00                             150     0.3 7   76 301 
 RUS  HZ EP   1   1122 25.52                             145     0.1 7   95 177 
 RUS  HN ES   1   1122 43.44                             145     0.1 7   95 177 
 RUS  HZ I        1122 45.36         7.9 0.33                            95 177 
 GRA  SZ EP   1   1122 27.38                             135    -0.3 7  130  16 
 GRA  SZ ES   1   1122 47.35                             135     0.0 7  130  16 
 GRA  SZ I        1122 47.86        11.6 0.38                           130  16 
 NOR  SZ EP   3   1122 37.91                             118     0.1 2  234 236 
 NOR  SN ES   1   1123  5.12                             118    -0.3 6  234 236 
 CHI  HZ EP   3   1122 40.49                             117     1.0 2  244 196 
 CHI  HN ES   2   1123  8.07                             117    -0.2 4  244 196 
                                                                                
