 2012  919 1408 38.5 L   6.764 -73.127149.1  RSN  6 0.2 1.9LRSN                1
 GAP=141        0.49       3.6     3.8  4.5  0.5513E+00 -0.2187E+01  0.1843E+01E
 Epicentro: LOS SANTOS - SANTANDER                                             3
 ACTION:UPD 12-10-22 14:19 OP:ep   STATUS:               ID:20120919140838 L   I
 2012-09-19-1400-00M.COL___226                                                 6
 STAT SP IPHASW D HRMM SECON CODA AMPLIT PERI AZIMU VELO AIN AR TRES W  DIS CAZ7
 BAR2 SZ EP       14 8 58.43                             172   -0.0110 20.0 198 
 BAR2 SZ ES       14 9 13.84                             172   -0.1810 20.0 198 
 BAR2 SZ I        14 9 15.11        34.5 0.12                          20.0 198 
 BRR  HZ EP   2   14 9  0.21                             152    0.02 5 75.0 300 
 BRR  HE ES   1   14 9 17.63                             152    0.49 7 75.0 300 
 BRR  HZ I        14 9 19.18        15.6 0.15                          75.0 300 
 PAM  SZ EP   1   14 9  1.06                             151   -0.09 7 79.2  37 
 PAM  SN ES   2   14 9 18.63                             151   -0.21 5 79.2  37 
 PAM  SZ I        14 9 21.16        11.5 0.55                          79.2  37 
 RUS  HZ EP       14 9  2.36                             146    0.1010 96.5 177 
 RUS  HE ES   1   14 9 20.97                             146    0.15 7 96.5 177 
 RUS  HZ I        14 9 22.89         7.7 0.35                          96.5 177 
 PTB  HE ES   1   14 9 26.81                             132   -0.37 7  149 260 
 CHI  HZ EP   2   14 9 16.04                             118    0.04 4  245 196 
                                                                                
