 2017  419 1238 45.9 L   6.700 -73.244142.1  RSN  4 0.4 1.1LRSN                1
 GAP=199        0.97       7.4     6.9  7.9  0.2480E+02  0.8558E+01  0.4539E+01E
 Epicentro: BARICHARA - SANTANDER                                              3
 ACTION:UPD 17-05-30 21:14 OP:jn   STATUS:               ID:20170419123845 L   I
 OLDACT:UP  17-04-19 22:00 OP:lv   STATUS:               ID:20170419122747     3
 OLDACT:REG 17-04-19 20:46 OP:lv   STATUS:               ID:20170419122747     3
 2017-04-19-1228-00M.COL___362                                                 6
 STAT SP IPHASW D HRMM SECON CODA AMPLIT PERI AZIMU VELO AIN AR TRES W  DIS CAZ7
 BAR2 EZ EP       1239  5.06                             174    0.1010 13.7 150 
 BAR2 EZ ES       1239 19.10                             174   -0.7010 13.7 150 
 BRR  HZ EP       1239  6.47                             153   -0.0710 68.6 311 
 BRR  HN ES       1239 23.16                             153    0.5510 68.6 311 
 RUS  HZ EP       1239  8.59                             146   -0.0510 91.0 169 
 RUS  HN ES       1239 26.81                             146    0.4510 91.0 169 
 RUS  HZ I        1239 27.67         2.2 0.30            143           91.0 169 
 PTB  HZ EP       1239 11.36                             134   -0.12 9  135 263 
 PTB  HN ES       1239 31.21                             134   -0.19 9  135 263 
 PTB  HZ I        1239 37.57         1.8 0.09            130            135 263 
                                                                                
