 2014  419 1903 22.9 L   6.828 -73.146142.2  RSN 11 0.5 2.2LRSN                1
 GAP=135        1.16       3.7     4.5  7.8 -0.3326E+01  0.1121E+02  0.5929E+00E
 Epicentro: LOS SANTOS - SANTANDER                                             3
 ACTION:UPD 14-05-13 23:09 OP:nd   STATUS:               ID:20140419190322 L   I
 OLDACT:REG 14-04-19 21:03 OP:nd   STATUS:               ID:20140419190045     3
 2014-04-19-1900-45M.COL___242                                                 6
 STAT SP IPHASW D HRMM SECON CODA AMPLIT PERI AZIMU VELO AIN AR TRES W  DIS CAZ7
 BRR  HZ EP       19 3 44.06                             152    0.4310 69.8 296 
 BRR  HN ES   1   19 4  0.46                             152    0.71 7 69.8 296 
 BRR  HZ I        19 4  6.09        23.7 0.36            151           69.8 296 
 PAM  SZ EP       19 3 44.90                             151    0.2610 75.1  41 
 PAM  SN ES       19 4  1.89                             151    0.3310 75.1  41 
 PAM  SZ I        19 4  4.12        20.4 0.58            156           75.1  41 
 RUS  HZ EP       19 3 46.24                             142   -0.3310  104 176 
 RUS  HN ES       19 4  4.94                             142   -0.0610  104 176 
 RUS  HZ I        19 4  7.42        11.8 0.40            146            104 176 
 PTB  HZ EP   2   19 3 49.51                             131   -0.17 5  148 258 
 PTB  HN ES       19 4  9.68                             131   -0.85 9  148 258 
 PTB  HZ I        19 4 12.40        17.6 0.54            132            148 258 
 SPBC HZ EP       19 3 50.99                             128   -0.41 9  166 218 
 SPBC HN ES       19 4 13.03                             128   -0.56 9  166 218 
 SPBC HZ I        19 4 19.15        28.5 0.32            130            166 218 
 ZAR  HZ EP   4   19 3 53.35                             122   -1.69 0  203 291 
 ZAR  HN ES       19 4 20.39                             122    0.32 9  203 291 
 ZAR  HZ I        19 4 25.76        12.9 0.52            123            203 291 
 NOR  HZ EP       19 3 58.23                             118   -0.43 8  236 234 
 NOR  HN ES       19 4 26.84                             118    0.32 8  236 234 
 NOR  HZ I        19 4 31.80        10.9 0.34            120            236 234 
 SML  HZ EP       19 3 59.00                             117   -0.07 8  241 335 
 SML  HN ES       19 4 26.33                             117   -0.91 8  241 335 
 SML  HZ I        19 4 32.15        19.7 0.10            119            241 335 
 HEL  HZ EP   1   19 4  4.02                             114    0.96 6  273 255 
 HEL  HN ES       19 4 34.32                             114   -0.03 8  273 255 
 HEL  HZ I        19 4 40.58         7.4 0.24            116            273 255 
 RREF HZ EP       19 4  9.79                             110    0.63 7  324 229 
 RREF HN ES       19 4 46.10                             110    0.89 7  324 229 
 RREF HZ I        19 4 54.15         7.3 0.32            112            324 229 
 SJC  HZ EP   4   19 4 16.27                             105   -1.82 0  407 327 
 SJC  HN ES   4   19 4 56.95                             105   -4.15 0  407 327 
 SJC  HZ I        19 5  5.30         3.0 0.58            107            407 327 
                                                                                
