 2014  919 1930 22.0 L   6.818 -73.114148.0  RSN 13 0.4 1.9LRSN                1
 GAP=140        0.89       3.3     4.1  5.7  0.8945E+00  0.2836E+01  0.3385E+01E
 Epicentro: LOS SANTOS - SANTANDER                                             3
 ACTION:UPD 14-10-03 23:06 OP:nd   STATUS:               ID:20140919193022 L   I
 OLDACT:DUP 14-09-20 00:54 OP:spq  STATUS:               ID:20140919192819d    3
 OLDACT:REG 14-09-19 21:33 OP:spq  STATUS:               ID:20140919192818     3
 2014-09-19-1928-18M.COL___284                                                 6
 STAT SP IPHASW D HRMM SECON CODA AMPLIT PERI AZIMU VELO AIN AR TRES W  DIS CAZ7
 BAR2 SZ EP       1930 42.05                             170    0.0510 26.1 197 
 BAR2 SZ ES   1   1930 57.39                             170   -0.18 7 26.1 197 
 BAR2 SZ I        1930 58.72        19.1 0.20            166           26.1 197 
 BRR  HZ EP   1   1930 43.03                             152   -0.53 7 73.4 296 
 BRR  HN ES       1931  0.91                             152    0.5710 73.4 296 
 BRR  HZ I        1931  7.42        14.5 0.20            150           73.4 296 
 PAM  SZ EP       1930 44.78                             152    0.5010 73.6  38 
 PAM  SN ES   1   1931  1.37                             152   -0.25 7 73.6  38 
 PAM  SZ I        1931  4.13         9.0 0.18            159           73.6  38 
 RUS  HZ EP       1930 45.88                             144   -0.2710  102 178 
 RUS  HE ES       1931  4.81                             144   -0.1410  102 178 
 RUS  HZ I        1931 10.61         3.6 0.26            146            102 178 
 PTB  HZ EP       1930 49.05                             132   -0.50 9  152 258 
 PTB  HE ES       1931 10.46                             132   -0.54 9  152 258 
 PTB  HZ I        1931 15.85         6.6 0.18            131            152 258 
 SPBC HZ EP       1930 50.96                             129   -0.12 9  167 219 
 SPBC HN ES       1931 13.98                             129    0.26 9  167 219 
 SPBC HZ I        1931 19.94        11.3 0.42            130            167 219 
 ZAR  HN ES       1931 20.94                             123    0.42 8  207 291 
 ZAR  HZ I        1931 30.95         6.4 0.36            123            207 291 
 SML  HN ES   1   1931 26.94                             118   -0.46 6  243 334 
 SML  HZ I        1931 30.52        14.8 0.24            120            243 334 
 CHI  HZ EP   1   1931  0.35                             117    0.17 6  252 196 
 CHI  HN ES   1   1931 30.56                             117    0.63 6  252 196 
 CHI  HZ I        1931 35.37         2.4 0.44            119            252 196 
 GUY2CHZ EP   4   1931  7.66                             112    1.44 0  305 235 
 GUY2CHN ES   4   1931 45.82                             112    5.15 0  305 235 
 GUY2CHZ I        1931 48.88         4.0 0.74                           305 235 
 TOL  SZ EP   1   1931 11.65                             109    0.81 5  347 225 
 TOL  SN ES   4   1931 50.83                             109    1.92 0  347 225 
 TOL  SZ I        1931 52.93         6.5 0.40            111            347 225 
 MON  HN ES   4   1931 47.44                             109   -2.30 0  355 308 
 MON  HZ I        1931 54.27         1.3 0.38            110            355 308 
 PRA  HZ EP       1931 16.08                             107    0.02 6  396 210 
 PRA  HN ES   4   1932  0.23                             107    2.05 0  396 210 
 PRA  HZ I        1932  3.80         4.0 0.38            108            396 210 
                                                                                
