 2014 1019 1904 11.9 L   6.977 -73.175159.5  RSN  5 0.5 1.6LRSN                1
 GAP=201        1.17       6.1     8.6 11.1  0.2540E+02 -0.2721E+02 -0.2428E+02E
 Epicentro: GIRON - SANTANDER                                                  3
 ACTION:UPD 14-11-29 23:51 OP:nd   STATUS:               ID:20141019190412 L   I
 OLDACT:UP  14-11-26 14:44 OP:nd   STATUS:               ID:20141019190412 L   3
 OLDACT:DUP 14-10-19 23:50 OP:cam  STATUS:               ID:20141019185817d    3
 OLDACT:REG 14-10-19 21:29 OP:cam  STATUS:               ID:20141019185816     3
 2014-10-19-1858-16M.COL___267                                                 6
 STAT SP IPHASW D HRMM SECON CODA AMPLIT PERI AZIMU VELO AIN AR TRES W  DIS CAZ7
 BRR  HZ EP       19 4 35.08                             158    1.0710 61.0 284 
 BRR  HN ES       19 4 51.55                             158    0.2610 61.0 284 
 BRR  HZ I        19 4 55.02        10.5 0.36            161           61.0 284 
 RUS  HZ EP       19 4 38.27                             141   -0.1410  120 175 
 RUS  HN ES       19 4 58.63                             141   -0.4910  120 175 
 RUS  HZ I        19 5  0.95         1.9 0.22            145            120 175 
 PTB  HZ EP       19 4 40.19                             135    0.04 9  150 251 
 PTB  HN ES       19 5  2.06                             135   -0.15 9  150 251 
 PTB  HN I        19 5  3.38         3.6 0.22            139            150 251 
 ZAR  HN ES       19 5  9.45                             127   -0.12 9  194 287 
 SML  HZ EP       19 4 47.08                             122   -0.22 8  225 334 
 SML  HE ES       19 5 14.35                             122   -0.60 8  225 334 
 SML  HZ I        19 5 17.24         5.8 0.10            125            225 334 
                                                                                
