 2010  219 1457 52.9 L   6.792 -72.982152.8  RSN  5 0.4 2.3LRSN                1
 GAP=199        0.69       4.7    20.3  9.6 -0.2746E+02  0.5990E+02 -0.4831E+01E
 Epicentro: CEPITA - SANTANDER                                                 3
 ACTION:UP  10-08-24 09:49 OP:vdl  STATUS:               ID:20100219145752 L   I
 2010-02-19-1440-00S.COL___092                                                 6
 STAT SP IPHASW D HRMM SECON CODA AMPLIT PERI AZIMU VELO SNR AR TRES W  DIS CAZ7
 BAR2 SZ IP       1458 13.53                             168     0.010   31 225 
 BAR2 SZ ES   2   1458 29.12                             168    -0.5 5   31 225 
 RUS  BZ EP   1   1458 17.48                             145     0.2 7  100 186 
 RUS  BN ES   2   1458 36.88                             145     0.5 5  100 186 
 OCA  SZ EP   1   1458 21.72                             131    -0.4 7  164 347 
 OCA  SZ ES   2   1458 45.51                             131     0.6 5  164 347 
 OCA  SZ I        1458 48.95        39.2 0.22                           164 347 
 CHI  HN ES   2   1459  0.82                             118    -0.7 4  253 199 
 CHI  HZ I        1459 15.64         7.1 0.46                           253 199 
 PRA  HZ EP   1   1458 47.93                             107     0.3 4  400 212 
 PRA  HN ES   2   1459 30.61                             107     0.3 3  400 212 
 PRA  HZ I        1459 32.97         7.0 0.38                           400 212 
                                                                                
