 2017  119 1915 34.8 L   6.726 -73.126141.6  RSN  9 0.3 1.6LRSN                1
 GAP=142        0.98       3.7     4.3  5.9 -0.9904E+00  0.3783E+01  0.5503E+01E
 Epicentro: JORDAN - SANTANDER                                                 3
 ACTION:UPD 17-05-22 16:01 OP:jn   STATUS:               ID:20170119191534 L   I
 OLDACT:UP  17-01-20 00:16 OP:edw  STATUS:               ID:20170119190745     3
 OLDACT:UP  17-01-20 00:15 OP:edw  STATUS:               ID:20170119190745     3
 OLDACT:REG 17-01-19 22:45 OP:cog  STATUS:               ID:20170119190745     3
 2017-01-19-1908-00M.COL___331                                                 6
 STAT SP IPHASW D HRMM SECON CODA AMPLIT PERI AZIMU VELO AIN AR TRES W  DIS CAZ7
 BAR2 EZ EP       1915 53.74                             173   -0.0810 16.0 203 
 BAR2 EZ ES       1916  8.52                             173   -0.1210 16.0 203 
 BAR2 EZ I        1916  9.67        12.2 0.18            173           16.0 203 
 BRR  HZ EP       1915 55.76                             149   -0.1210 77.2 303 
 BRR  HN ES       1916 12.96                             149    0.6610 77.2 303 
 PAM  EZ EP       1915 56.76                             148   -0.1610 82.6  35 
 PAM  EN ES       1916 13.89                             148   -0.2710 82.6  35 
 PAM  EZ I        1916 16.86         4.9 0.35            149           82.6  35 
 RUS  HZ EP       1915 57.86                             145    0.2910 92.3 177 
 RUS  HN ES       1916 15.13                             145   -0.1810 92.3 177 
 RUS  HZ I        1916 16.96        12.0 0.32            146           92.3 177 
 PTB  HZ EP   9   1916  0.39                             130   -1.13 0  149 262 
 PTB  HN ES       1916 20.43                             131   -0.78 9  149 262 
 PTB  HZ I        1916 23.50         4.3 0.12            131            149 262 
 ZAR  HZ EP   4   1916  9.72                             120    2.18 0  209 294 
 ZAR  HE ES       1916 33.14                             120    0.09 8  209 294 
 ZAR  HZ I        1916 34.61         4.5 0.16            121            209 294 
 NOR  HZ EP       1916 10.40                             118    0.40 8  232 236 
 NOR  HE ES       1916 36.63                             118   -0.81 8  232 236 
 NOR  HZ I        1916 41.87         2.5 0.21            118            232 236 
 CHI  HZ EP       1916 11.53                             117    0.04 8  241 196 
 CHI  HE ES       1916 40.35                             117    0.25 8  241 196 
 URE  HZ EP   4   1916 13.68                             112   -2.58 0  289 293 
 URE  HN ES   4   1916 46.81                             112   -1.78 0  289 293 
 URE  HZ I        1916 49.31         2.9 0.12            113            289 293 
                                                                                
