 2017  319 1234 54.6 L   6.798 -73.144154.5  RSN  7 0.4 1.6LRSN                1
 GAP=137        0.88       4.1     3.9  6.4 -0.8414E+00  0.4194E+01  0.1585E+01E
 Epicentro: LOS SANTOS - SANTANDER                                             3
 ACTION:UPD 17-05-25 18:42 OP:jn   STATUS:               ID:20170319123454 L   I
 OLDACT:REG 17-03-19 22:55 OP:dnl  STATUS:               ID:20170319122746     3
 2017-03-19-1228-00M.COL___394                                                 6
 STAT SP IPHASW D HRMM SECON CODA AMPLIT PERI AZIMU VELO AIN AR TRES W  DIS CAZ7
 BAR2 EZ IP     C 1235 15.19                             171   -0.0410 23.2 190 
 BAR2 EZ ES       1235 31.35                             171   -0.0110 23.2 190 
 BAR2 EZ I        1235 31.94         7.8 0.22            171           23.2 190 
 BRR  HZ EP   2   1235 16.85                             154    0.18 5 71.4 299 
 BRR  HE ES       1235 34.58                             154    0.6710 71.4 299 
 BRR  HZ I        1235 43.72        18.9 0.24            150           71.4 299 
 PAM  EZ EP       1235 18.05                             152    0.3410 77.4  39 
 PAM  EN ES       1235 35.43                             152   -0.3410 77.4  39 
 PAM  EZ I        1235 37.46         3.1 0.20            155           77.4  39 
 RUS  HZ EP       1235 19.11                             146   -0.0510  100 176 
 RUS  HN ES       1235 38.06                             146   -0.2910  100 176 
 RUS  HZ I        1235 39.04         2.4 0.28            151            100 176 
 PTB  HZ EP       1235 22.11                             134   -0.15 9  148 259 
 PTB  HN ES       1235 43.34                             134   -0.53 9  148 259 
 PTB  HZ I        1235 49.21         4.1 0.30            134            148 259 
 SPBC HZ EP   2   1235 24.06                             131    0.33 5  163 219 
 SPBC HE ES       1235 47.02                             131    0.53 9  163 219 
 SPBC HZ I        1235 49.85         7.5 0.22            133            163 219 
 ZAR  HN ES       1235 53.07                             124   -0.32 9  204 292 
 ZAR  HZ I        1235 59.50         7.0 0.46            125            204 292 
                                                                                
