 2013  319 1035 59.1 L   6.783 -73.147151.4  RSN 10 0.4 2.3LRSN                1
 GAP=137        0.91       2.9     4.2  5.1 -0.1773E+00  0.5129E+01 -0.5306E+00E
 Epicentro: LOS SANTOS - SANTANDER                                             3
 ACTION:UPD 13-04-09 14:03 OP:ep   STATUS:               ID:20130319103559 L   I
 2013-03-19-1030-00M.COL___244                                                 6
 STAT SP IPHASW D HRMM SECON CODA AMPLIT PERI AZIMU VELO AIN AR TRES W  DIS CAZ7
 BAR2 SZ EP       1036 19.28                             172   -0.0610 21.4 190 
 BAR2 SZ ES       1036 35.37                             172    0.2210 21.4 190 
 BAR2 SZ I        1036 37.49        18.8 0.28            170           21.4 190 
 BRR  HZ IP     C 1036 21.24                             153    0.3710 72.0 300 
 BRR  HN ES       1036 38.62                             153    0.7410 72.0 300 
 BRR  HN I        1036 40.91        41.9 0.20            151           72.0 300 
 PAM  SZ EP       1036 22.06                             151    0.0810 79.0  39 
 PAM  SN ES       1036 39.30                             151   -0.5510 79.0  39 
 PAM  SN I        1036 40.39        32.7 0.50            155           79.0  39 
 RUS  HZ EP       1036 23.10                             146   -0.1410 98.7 176 
 RUS  HE ES       1036 42.04                             146   -0.0610 98.7 176 
 RUS  HE I        1036 43.00        21.9 0.22            146           98.7 176 
 PTB  HZ EP       1036 26.20                             133   -0.25 9  147 260 
 PTB  HN ES       1036 47.23                             133   -0.58 9  147 260 
 PTB  HN I        1036 52.46        37.0 0.28            132            147 260 
 OCA  HN EP   2   1036 27.47                             131   -0.53 5  162 353 
 OCA  HN ES   1   1036 50.29                             131   -0.27 7  162 353 
 OCA  HN I        1036 53.35        54.0 0.40            131            162 353 
 ZAR  HZ EP       1036 31.89                             124   -0.05 9  205 293 
 ZAR  HN ES   1   1036 57.74                             124    0.15 6  205 293 
 ZAR  HN I        1037  3.60        19.5 0.18            123            205 293 
 CHI  HZ EP       1036 37.55                             119    0.67 8  247 195 
 CHI  HN ES       1037  6.32                             119   -0.05 8  247 195 
 CHI  HN I        1037 14.38        10.2 0.58            119            247 195 
 URE  HZ EP       1036 39.97                             115   -0.51 7  284 292 
 COD  HZ EP   2   1036 48.33                             110    0.44 3  350 355 
 COD  HE ES       1037 26.47                             110    0.50 6  350 355 
 COD  HE I        1037 29.85         4.9 0.50            111            350 355 
                                                                                
