 2010  619 1638 49.0 L   6.804 -73.108142.8  RSN 13 0.4 3.4LRSN                1
 GAP=160        0.79       3.6     7.2  6.8 -0.1343E+02  0.9905E+01  0.3673E+01E
 Epicentro: LOS SANTOS - SANTANDER                                             3
 ACTION:UP  10-08-24 10:11 OP:vdl  STATUS:               ID:20100619163849 L   I
 2010-06-19-1635-21S.COL___118                                                 6
 STAT SP IPHASW D HRMM SECON CODA AMPLIT PERI AZIMU VELO SNR AR TRES W  DIS CAZ7
 BAR2 SZ IP       1639  8.33                             170     0.010   25 200 
 BAR2 SZ ES   2   1639 22.84                             170    -0.5 5   25 200 
 BRR  HZ IP     C 1639 10.03                             151     0.010   75 297 
 BRR  HN ES   2   1639 26.97                             151     0.6 5   75 297 
 BRR  HZ I        1639 29.79       375.0 0.31                            75 297 
 RUS  HZ EP   1   1639 12.14                             143    -0.3 7  101 178 
 RUS  HN ES   2   1639 30.51                             143    -0.2 5  101 178 
 RUS  HZ I        1639 32.23       457.3 0.30                           101 178 
 BRI  SZ IP       1639 12.75                             141     0.310  107  19 
 BRI  SZ ES   2   1639 30.90                             141     0.1 5  107  19 
 GUE  SZ EP   1   1639 13.12                             139    -0.2 7  115  10 
 GRA  SZ IP       1639 14.02                             137     0.210  124  16 
 GRA  SZ ES   2   1639 33.44                             137     0.2 5  124  16 
 OCA  SZ EP   1   1639 16.53                             129    -0.5 7  160 352 
 OCA  SZ ES   2   1639 38.30                             129    -0.7 5  160 352 
 CHI  HZ EP   1   1639 26.08                             116    -0.6 6  250 196 
 CHI  HE ES   2   1639 55.76                             116    -0.3 4  250 196 
 CHI  HZ I        1639 59.20       175.9 0.22                           250 196 
 ROSC BZ IP     D 1639 28.02                             116     0.8 8  255 212 
 ROSC BN ES   2   1639 57.05                             116     0.0 4  255 212 
 ROSC BZ I        1640  6.61       185.4 0.34                           255 212 
 CVER SZ EP   1   1639 29.62                             114     0.2 6  274 203 
 HEL  HZ EP   1   1639 28.83                             114    -0.7 6  276 256 
 HEL  HZ I        1640  8.48       127.7 0.37                           276 256 
 RREF HZ EP   1   1639 35.00                             110    -0.4 5  325 230 
 RREF HE ES   2   1640 12.28                             110     0.7 3  325 230 
 RREF HZ I        1640 20.59       182.3 0.46                           325 230 
 TOL  SZ EP   1   1639 37.59                             108     0.1 5  347 225 
                                                                                
