 2014  819 1842  8.8 L   6.816 -73.185141.8  RSN  7 0.5 2.1LRSN                1
 GAP=131        1.21       4.4     5.7  7.9 -0.2970E+01  0.9320E+01 -0.1571E+01E
 Epicentro: ZAPATOCA - SANTANDER                                               3
 ACTION:UPD 14-09-15 21:51 OP:nd   STATUS:               ID:20140819184208 L   I
 OLDACT:REG 14-08-19 21:02 OP:stll STATUS:               ID:20140819183818     3
 2014-08-19-1838-18M.COL___272                                                 6
 STAT SP IPHASW D HRMM SECON CODA AMPLIT PERI AZIMU VELO AIN AR TRES W  DIS CAZ7
 BAR2 SZ EP       1842 28.14                             170    0.1610 24.8 179 
 BAR2 SZ ES       1842 43.40                             170    0.4510 24.8 179 
 BAR2 SZ I        1842 44.65        53.5 0.18            169           24.8 179 
 BRR  HZ EP       1842 29.90                             153    0.6410 66.5 299 
 BRR  HN ES       1842 45.91                             153    0.6910 66.5 299 
 PAM  SZ EP       1842 30.94                             149    0.2610 78.9  43 
 PAM  SZ I        1842 31.27        29.4 0.24            153           78.9  43 
 PAM  SN ES       1842 47.10                             149   -0.6610 78.9  43 
 RUS  HZ EP       1842 32.50                             142    0.1810  103 174 
 RUS  HE ES       1842 49.95                             142   -0.7210  103 174 
 RUS  HZ I        1842 51.96        14.0 0.24            144            103 174 
 PTB  HZ EP       1842 35.21                             132    0.12 9  144 258 
 PTB  HE ES       1842 55.04                             132   -0.56 9  144 258 
 PTB  HZ I        1843  2.91         8.0 0.72            131            144 258 
 SPBC HZ EP       1842 36.97                             128    0.10 9  162 217 
 SPBC HN ES       1842 58.44                             128   -0.33 9  162 217 
 SPBC HZ I        1843  1.75        15.3 0.34            128            162 217 
 SML  HZ EP   2   1842 44.54                             117   -0.29 4  240 336 
 SML  HE ES       1843 12.33                             117   -0.61 8  240 336 
 SML  HZ I        1843 17.27        12.2 0.26            117            240 336 
                                                                                
