 2012  119 1834 42.3 L   6.819 -73.082143.6  RSN 10 0.4 2.2LRSN                1
 GAP=144        0.76       3.5     4.2  5.8 -0.1312E+01  0.5767E+01  0.3060E+01E
 Epicentro: LOS SANTOS - SANTANDER                                             3
 ACTION:UP  12-02-03 08:18 OP:REBC STATUS:               ID:20120119183442 L   I
 2012-01-19-1830-00M.COL___187                                                 6
 STAT SP IPHASW D HRMM SECON CODA AMPLIT PERI AZIMU VELO SNR AR TRES W  DIS CAZ7
 BAR2 SZ EP       1835  1.59                             169    -0.210   27 204 
 BAR2 SZ I        1835  1.92        34.8 0.10                            27 204 
 BAR2 SZ ES   1   1835 16.66                             169    -0.3 7   27 204 
 PAM  SZ EP       1835  4.36                             152     0.410   71  36 
 PAM  SN ES   1   1835 21.41                             152     0.6 7   71  36 
 BRR  HZ EP       1835  3.38                             150    -0.210   77 295 
 BRR  HZ I        1835  3.68        60.2 0.19                            77 295 
 BRR  HN ES   1   1835 20.37                             150     0.2 7   77 295 
 RUS  HZ EP   1   1835  5.75                             143    -0.3 7  102 180 
 RUS  HE ES   2   1835 24.18                             143    -0.3 5  102 180 
 RUS  HZ I        1835 25.77        12.0 0.33                           102 180 
 PTB  HZ EP   2   1835  9.20                             130    -0.6 5  155 259 
 PTB  HN ES   2   1835 30.87                             130    -0.4 5  155 259 
 OCA  SZ EP   1   1835  9.91                             129    -0.5 7  159 351 
 OCA  SZ ES   2   1835 31.81                             129    -0.4 5  159 351 
 OCA  SZ I        1835 37.06        23.3 0.38                           159 351 
 ZAR  HZ EP   1   1835 15.60                             121     0.3 6  210 291 
 ZAR  HN ES   1   1835 40.74                             121    -0.2 6  210 291 
 ZAR  HZ I        1835 46.55        25.7 0.41                           210 291 
 NOR  SZ EP   1   1835 18.82                             117     0.1 6  242 235 
 NOR  SN ES   2   1835 47.69                             117     0.6 4  242 235 
 CHI  HZ EP   1   1835 20.39                             116     0.0 6  253 197 
 CHI  HN ES   1   1835 50.33                             116     0.3 6  253 197 
 CHI  HZ I        1835 57.21         4.1 0.65                           253 197 
 HEL  HZ EP   2   1835 24.00                             114     0.7 4  279 256 
 HEL  HN ES   2   1835 56.04                             114     0.8 4  279 256 
                                                                                
