 2016  219 1133 48.6 L   6.792 -73.164138.9  RSN  4 0.2 1.3LRSN                1
 GAP=135        0.55       2.8     2.6  5.9 -0.1739E+00  0.5594E+01 -0.7154E+00E
 Epicentro: LOS SANTOS - SANTANDER                                             3
 ACTION:UPD 16-03-04 21:27 OP:rebc STATUS:               ID:20160219113348 L   I
 OLDACT:REG 16-02-19 20:34 OP:ak   STATUS:               ID:20160219112750     3
 2016-02-19-1127-50M.COL___309                                                 6
 STAT SP IPHASW D HRMM SECON CODA AMPLIT PERI AZIMU VELO AIN AR TRES W  DIS CAZ7
 PAM  EZ EP       1134 10.37                             149    0.2010 79.3  40 
 PAM  EN ES       1134 26.92                             149   -0.1010 79.3  40 
 PAM  EZ I        1134 29.65         3.2 0.50            153           79.3  40 
 RUS  HZ EP       1134 11.66                             142    0.0710 99.9 175 
 RUS  HN ES       1134 29.48                             142   -0.0710 99.9 175 
 RUS  HZ I        1134 31.65         2.9 0.52            146           99.9 175 
 PTB  HZ EP       1134 14.41                             131   -0.37 9  146 259 
 PTB  HN ES       1134 35.50                             131    0.27 9  146 259 
 PTB  HZ I        1134 38.90         2.4 0.14            134            146 259 
 ZAR  HZ EP   2   1134 20.78                             121    0.37 4  203 293 
 ZAR  HN ES       1134 45.12                             121   -0.12 9  203 293 
 ZAR  HZ I        1134 47.63         2.4 0.13            124            203 293 
                                                                                
