 2017  319 2050 13.9 L   6.792 -73.208144.6  RSN  5 0.3 1.4LRSN                1
 GAP=144        0.90       5.0     5.0  6.9 -0.1121E+02  0.9886E+01 -0.2302E+01E
 Epicentro: ZAPATOCA - SANTANDER                                               3
 ACTION:UPD 17-05-25 18:42 OP:jn   STATUS:               ID:20170319205013 L   I
 OLDACT:REG 17-03-20 04:24 OP:ar   STATUS:               ID:20170319204747     3
 2017-03-19-2048-00M.COL___394                                                 6
 STAT SP IPHASW D HRMM SECON CODA AMPLIT PERI AZIMU VELO AIN AR TRES W  DIS CAZ7
 BAR2 EZ EP       2050 34.10                             171    0.7210 22.3 173 
 BAR2 EZ ES       2050 48.61                             171    0.0510 22.3 173 
 BAR2 EZ I        2050 50.76         9.2 0.30            172           22.3 173 
 PAM  EZ EP       2050 35.97                             149   -0.3510 82.6  43 
 PAM  EN ES       2050 53.70                             149   -0.1010 82.6  43 
 PAM  EZ I        2050 55.09         3.9 0.62            152           82.6  43 
 RUS  HZ EP       2050 37.13                             144   -0.4010  100 172 
 RUS  HN ES       2050 56.12                             144    0.1610  100 172 
 RUS  HZ I        2050 56.39         4.1 0.36            146            100 172 
 PTB  HZ EP       2050 40.23                             133    0.07 9  141 259 
 PTB  HN ES       2051  0.61                             133   -0.02 9  141 259 
 PTB  HZ I        2051  3.01         2.0 0.12            134            141 259 
 SPBC HZ EP       2050 42.15                             130    0.30 9  158 217 
 SPBC HN ES       2051  3.19                             130   -0.45 9  158 217 
 SPBC HZ I        2051  6.74         5.7 0.32            131            158 217 
                                                                                
