 2016  819 2150 57.0 L   6.776 -73.136143.4  RSN 14 0.5 2.3LRSN                1
 GAP= 98        1.09       3.9     3.7  5.6 -0.2258E+01  0.3463E+01  0.5547E+01E
 Epicentro: LOS SANTOS - SANTANDER                                             3
 ACTION:UPD 16-10-29 15:37 OP:rebc STATUS:               ID:20160819215057 L   I
 OLDACT:UP  16-08-20 03:39 OP:dani STATUS:               ID:20160819214759     3
 OLDACT:REG 16-08-20 02:52 OP:dani STATUS:               ID:20160819214759     3
 2016-08-19-2147-59S.COL___349                                                 6
 STAT SP IPHASW D HRMM SECON CODA AMPLIT PERI AZIMU VELO AIN AR TRES W  DIS CAZ7
 BAR2 EZ EP       2151 16.14                             171   -0.1810 21.0 194 
 BAR2 EZ ES       2151 31.17                             171   -0.2010 21.0 194 
 BAR2 EZ I        2151 32.51        60.0 0.22                          21.0 194 
 BRR  HZ EP       2151 17.98                             151   -0.0510 73.4 300 
 BRR  HN ES       2151 35.01                             151    0.5810 73.4 300 
 BRR  HZ I        2151 36.14        25.5 0.23                          73.4 300 
 PAM  EZ EP       2151 19.07                             150    0.0110 78.8  38 
 PAM  EE ES       2151 36.26                             150   -0.0010 78.8  38 
 PAM  EZ I        2151 38.39        17.7 0.30                          78.8  38 
 RUS  HZ EP       2151 20.08                             144   -0.2610 97.9 177 
 RUS  HE ES       2151 38.97                             144    0.4410 97.9 177 
 PTB  HZ EP       2151 22.99                             131   -0.85 9  148 260 
 PTB  HN ES       2151 44.12                             131   -0.64 9  148 260 
 PTB  HZ I        2151 51.27        24.6 0.40                           148 260 
 TAM  HZ EP       2151 24.34                             130   -0.01 9  153 104 
 SPBC HZ EP       2151 25.11                             129   -0.09 9  162 220 
 SPBC HE ES       2151 47.48                             129    0.29 9  162 220 
 SPBC HZ I        2151 52.64        25.3 0.19                           162 220 
 ZAR  HZ EP       2151 30.49                             122    0.98 8  206 293 
 ZAR  HE ES       2151 54.50                             122   -0.35 8  206 293 
 ZAR  HZ I        2152  0.45        14.8 0.29                           206 293 
 NOR  HZ EP       2151 32.56                             118    0.03 8  234 235 
 NOR  HE ES       2151 59.92                             118   -0.32 8  234 235 
 NOR  HZ I        2152  5.80        16.9 0.46                           234 235 
 CHI  HZ EP       2151 34.10                             117   -0.24 8  246 196 
 CHI  HN ES   4   2152  5.08                             117    1.63 0  246 196 
 CHI  HZ I        2152 10.65         7.9 0.41                           246 196 
 ROSC BZ EP   4   2151 36.21                             116    1.39 0  251 212 
 ROSC BZ I        2152 14.26        25.6 0.46                           251 212 
 GUY2CHZ EP       2151 41.47                             112    1.03 7  301 235 
 GUY2CHE ES   4   2152 15.78                             112    1.47 0  301 235 
 GUY2CHZ I        2152 22.72        18.8 0.36                           301 235 
 ELA  HE ES       2152 20.81                             110    0.76 7  328 230 
 PRA  HZ EP       2151 49.84                             106   -0.41 6  390 210 
 PRA  HN ES       2152 31.67                             106   -0.10 6  390 210 
 PRA  HZ I        2152 38.86        15.4 0.25                           390 210 
                                                                                
