 2015  319 2237 56.3 L   6.790 -73.142147.1  RSN  9 0.4 1.8LRSN                1
 GAP=137        0.84       3.6     3.7  5.9 -0.1189E+01  0.6385E+01  0.6228E+00E
 Epicentro: LOS SANTOS - SANTANDER                                             3
 ACTION:UPD 15-04-30 16:27 OP:nd   STATUS:               ID:20150319223756 L   I
 OLDACT:DUP 15-03-20 07:03 OP:spq  STATUS:               ID:20150319222737d    3
 2015-03-19-2227-36M.COL___281                                                 6
 STAT SP IPHASW D HRMM SECON CODA AMPLIT PERI AZIMU VELO AIN AR TRES W  DIS CAZ7
 BAR2 EZ EP       2238 15.98                             171   -0.0810 22.3 191 
 BAR2 EZ ES   1   2238 31.57                             171    0.09 7 22.3 191 
 BAR2 EZ I        2238 31.94        14.7 0.20            168           22.3 191 
 BRR  HZ EP       2238 17.76                             152    0.1310 72.0 299 
 BRR  HN ES       2238 34.69                             152    0.4110 72.0 299 
 BRR  HZ I        2238 35.24        16.2 0.30            152           72.0 299 
 PAM  SZ EP     C 2238 18.63                             151   -0.0510 78.0  39 
 PAM  SN ES       2238 35.75                             151   -0.4010 78.0  39 
 PAM  SZ I        2238 37.78        12.2 0.44            155           78.0  39 
 RUS  HZ EP       2238 19.99                             144   -0.1010 99.5 176 
 RUS  HN ES       2238 38.90                             144    0.2410 99.5 176 
 RUS  HZ I        2238 40.45         7.9 0.30            143           99.5 176 
 PTB  HZ EP   1   2238 22.77                             132   -0.61 7  148 259 
 PTB  HN ES   1   2238 43.72                             132   -0.79 7  148 259 
 PTB  HZ I        2238 45.85         9.0 0.16            131            148 259 
 SPBC HN ES   1   2238 46.94                             129   -0.15 7  163 219 
 SPBC HZ I        2238 52.05        10.9 0.30            129            163 219 
 ZAR  HZ EP       2238 29.67                             122    0.77 9  205 292 
 ZAR  HN ES       2238 54.23                             122   -0.10 9  205 292 
 ZAR  HZ I        2238 56.74         7.1 0.14            123            205 292 
 NOR  HZ EP   1   2238 31.89                             119   -0.17 6  234 235 
 NOR  HN ES       2239  0.15                             119    0.19 8  234 235 
 NOR  HZ I        2239  7.39         4.3 0.12            119            234 235 
 GUY2CHZ EP   4   2238 42.41                             113    2.49 0  301 235 
 GUY2CHE ES   4   2239 15.38                             113    1.43 0  301 235 
 GUY2CHZ I        2239 22.49         2.3 0.64                           301 235 
                                                                                
