 2013  519 2001 21.4 L   6.819 -73.143154.0  RSN 20 0.4 3.2LRSN 3.5WRSN        1
 SPEC AVERAGE  MO 14.3 ST 28.9 OM  3.0 f0 3.99 R0.4317 AL 2.60 WI 51.8 MW  3.5 3
 SPEC SD       MO  0.3 ST 30.8 OM  0.5 f0 1.35 R0.1294 AL      WI      MW  0.2 3
 GAP= 55        0.96       2.3     2.8  3.9 -0.3483E+00  0.5108E+00  0.2290E+00E
 Epicentro: LOS SANTOS - SANTANDER                                             3
 SPEC RUS HH N MO 14.4 ST 12.4 OM  2.7 f0 3.58 R0.4341 AL 2.68 WI 31.1 MW  3.5 3
 SPEC RUS HH N T20 2 2 K 0.000 GD  185 VS 4.20 DE 3.20 Q0300.0 QA 0.60 VS 4.20 3
 SPEC OCA HH N MO 14.7 ST 77.9 OM  3.0 f0 4.95 R0.3139 AL 2.34 WI145.0 MW  3.8 3
 SPEC OCA HH N T20 2 9 K 0.000 GD  220 VS 4.20 DE 3.20 Q0300.0 QA 0.60 VS 4.20 3
 SPEC COD HH E MO 14.2 ST  8.8 OM  2.2 f0 3.69 R0.4211 AL 1.59 WI 69.9 MW  3.4 3
 SPEC COD HH E T20 246 K 0.000 GD  378 VS 4.20 DE 3.20 Q0300.0 QA 0.60 VS 4.20 3
 SPEC CHI HH N MO 14.5 ST  6.6 OM  2.6 f0 2.68 R0.5799 AL 1.96 WI 23.5 MW  3.6 3
 SPEC CHI HH N T20 227 K 0.000 GD  294 VS 4.20 DE 3.20 Q0300.0 QA 0.60 VS 4.20 3
 SPEC BRR HH E MO 14.3 ST 66.0 OM  2.7 f0 6.44 R0.2413 AL 5.13 WI 22.3 MW  3.5 3
 SPEC BRR HH E T20 2 0 K 0.000 GD  169 VS 4.20 DE 3.20 Q0300.0 QA 0.60 VS 4.20 3
 SPEC GIR2SH Z MO 13.9 ST  1.6 OM  2.3 f0 2.59 R0.6000 AL 1.92 WI 18.9 MW  3.2 3
 SPEC GIR2SH Z T20 158 K 0.000 GD  156 VS 4.20 DE 3.20 Q0300.0 QA 0.60 VS 4.20 3
 ACTION:UPD 13-06-20 09:51 OP:ep   STATUS:               ID:20130519200121 L   I
 2013-05-19-2000-00M.COL___256                                                 6
 STAT SP IPHASW D HRMM SECON CODA AMPLIT PERI AZIMU VELO AIN AR TRES W  DIS CAZ7
 BAR2 SZ IP     C 20 1 42.02                             170   -0.0310 25.4 190 
 BAR2 SZ ES       20 1 57.38                             170   -0.7910 25.4 190 
 BAR2 SZ I        20 1 58.22       216.8 0.28            170           25.4 190 
 GIR2 SZ EP       20 1 42.10                             169    0.1110 29.3 349 
 GIR2 SZ ES       20 1 58.40                             169    0.3410 29.3 349 
 BRR  HZ IP     D 20 1 43.89                             154    0.5010 70.5 297 
 BRR  HE ES       20 2  1.13                             154    0.5710 70.5 297 
 BRR  HZ I        20 2  5.02       159.4 0.18            148           70.5 297 
 PAM  SZ EP     C 20 1 44.91                             153    0.5210 75.6  40 
 PAM  SE ES       20 2  2.17                             153   -0.1510 75.6  40 
 PAM  SZ I        20 2  4.24       414.5 0.56            151           75.6  40 
 RUS  HZ EP     D 20 1 45.85                             145   -0.2510  103 176 
 RUS  HN ES       20 2  4.92                             145   -0.4610  103 176 
 RUS  HZ I        20 2  5.64       131.7 0.30            144            103 176 
 PTB  HZ EP   1   20 1 48.60                             133   -0.50 7  148 258 
 PTB  HN ES       20 2 10.38                             133   -0.33 9  148 258 
 PTB  HN ISg      20 2 10.38                             133   -0.33 9  148 258 
 PTB  HZ I        20 2 15.87       194.0 0.24            129            148 258 
 TAM  HZ IP     D 20 1 50.19                             132    0.43 9  155 106 
 TAM  HZ I        20 1 50.25       391.0 0.34            132            155 106 
 TAM  HN ES   1   20 2 11.91                             132    0.03 7  155 106 
 OCA  HZ EP       20 1 50.07                             132   -0.09 9  158 353 
 OCA  HN ES       20 2 12.21                             132   -0.40 9  158 353 
 OCA  HZ I        20 2 16.95       169.9 0.46            128            158 353 
 YOP  SZ EP       20 1 52.52                             128    0.31 9  181 154 
 YOP  SN ES   1   20 2 16.60                             128    0.36 7  181 154 
 NOR  HZ EP       20 1 57.98                             120    0.22 8  236 234 
 NOR  HN ES   1   20 2 26.21                             120    0.08 6  236 234 
 NOR  HZ I        20 2 28.57       106.3 0.20            117            236 234 
 SML  HZ EP   1   20 1 58.18                             119   -0.12 6  242 335 
 SML  HE ES       20 2 27.14                             119    0.05 8  242 335 
 SML  HZ I        20 2 29.83       234.9 0.10            116            242 335 
 CHI  HZ EP       20 2  0.16                             118    0.38 8  251 195 
 CHI  HN ES       20 2 29.35                             118   -0.37 8  251 195 
 CHI  HZ I        20 2 33.17        60.9 0.62            116            251 195 
 HEL  HE ES       20 2 34.90                             116    1.01 8  273 255 
 HEL  HZ I        20 2 41.37        64.7 0.68            113            273 255 
 URE  HZ EP   2   20 2  1.91                             115   -0.90 4  283 291 
 COD  HZ EP       20 2  9.11                             110   -0.76 6  346 355 
 COD  HE ES       20 2 48.11                             110    0.43 6  346 355 
 COD  HZ I        20 2 52.71        28.0 0.26            108            346 355 
 SDV  BZ EP       20 2 11.20                             110   -0.38 6  359  50 
 SDV  BZ I        20 2 12.20        36.4 0.30            108            359  50 
 PRA  HZ EP       20 2 15.51                             108    0.08 6  394 209 
 PRA  HN ES   1   20 2 58.03                             108    0.45 4  394 209 
 PRA  HZ I        20 3  3.82        62.8 0.38            106            394 209 
 SJC  HZ EP       20 2 16.26                             107   -0.79 6  408 327 
 SJC  HZ I        20 3  1.74        32.4 0.40            105            408 327 
 YOT  HZ EP       20 2 24.52                             104   -0.34 5  473 229 
 SMAR HZ EP   2   20 2 26.74                             103   -0.51 2  495 346 
                                                                                
