 2014  419 2310 42.2 L   6.786 -73.172149.1  RSN  6 0.5 1.8LRSN                1
 GAP=234        1.15       6.0     7.5  9.0  0.1665E+02  0.6413E+01  0.1630E+01E
 Epicentro: LOS SANTOS - SANTANDER                                             3
 ACTION:UPD 14-05-13 23:09 OP:nd   STATUS:               ID:20140419231042 L   I
 OLDACT:UP  14-04-20 04:42 OP:cam  STATUS:               ID:20140419230810     3
 OLDACT:UP  14-04-20 04:42 OP:cam  STATUS:               ID:20140419230810     3
 OLDACT:REG 14-04-20 02:36 OP:cam  STATUS:               ID:20140419230810     3
 2014-04-19-2308-10M.COL___239                                                 6
 STAT SP IPHASW D HRMM SECON CODA AMPLIT PERI AZIMU VELO AIN AR TRES W  DIS CAZ7
 BRR  HZ IP     C 2311  3.59                             154   -0.0110 69.5 301 
 BRR  HE ES       2311 20.97                             154    0.6710 69.5 301 
 BRR  HZ I        2311 24.18        12.1 0.54            151           69.5 301 
 RUS  HZ EP   1   2311  5.80                             145   -0.37 7 99.3 174 
 RUS  HE ES       2311 24.64                             145   -0.2410 99.3 174 
 RUS  HZ I        2311 25.57         7.9 0.24            146           99.3 174 
 PTB  HZ EP       2311  8.60                             133   -0.55 9  145 259 
 PTB  HE ES       2311 29.25                             133   -0.93 9  145 259 
 PTB  HZ I        2311 31.60         9.3 0.16            132            145 259 
 SPBC HZ EP       2311 11.15                             130    0.49 9  160 219 
 SPBC HN ES       2311 33.08                             130    0.21 9  160 219 
 SPBC HZ I        2311 37.10        10.2 0.48            130            160 219 
 ZAR  HZ EP   1   2311 15.00                             123    0.37 6  202 293 
 ZAR  HE ES       2311 39.79                             123   -0.16 9  202 293 
 ZAR  HZ I        2311 47.01         7.6 0.50            123            202 293 
 NOR  HZ EP       2311 18.03                             120    0.27 8  231 234 
 NOR  HE ES   1   2311 46.29                             120    0.77 6  231 234 
 NOR  HZ I        2311 51.64         4.7 0.24            120            231 234 
                                                                                
