 2013  319 2114 34.0 L   6.874 -73.322124.8  RSN 16 0.4 2.9LRSN                1
 GAP= 53        0.89       2.4     2.8  4.3 -0.2131E+00  0.2864E+01 -0.3312E+00E
 Epicentro: BETULIA - SANTANDER                                                3
 ACTION:UPD 13-04-09 14:03 OP:ep   STATUS:               ID:20130319211434 L   I
 2013-03-19-2110-00M.COL___244                                                 6
 STAT SP IPHASW D HRMM SECON CODA AMPLIT PERI AZIMU VELO AIN AR TRES W  DIS CAZ7
 BAR2 SZ EP     C 2114 51.65                             164    0.1710 34.8 154 
 BAR2 SZ ES       2115  4.79                             164   -0.3010 34.8 154 
 BRR  HZ IP     C 2114 52.03                             157    0.2710 50.2 301 
 BRR  HN ES       2115  6.12                             157    0.5210 50.2 301 
 BRR  HZ I        2115  6.83       351.5 0.12            154           50.2 301 
 PAM  SZ EP       2114 54.65                             144   -0.0110 85.9  53 
 PAM  SN ES   1   2115 11.16                             144    0.41 7 85.9  53 
 PAM  SZ I        2115 15.19       195.2 0.40            146           85.9  53 
 RUS  HZ EP       2114 56.36                             136   -0.3410  112 166 
 RUS  HN ES   1   2115 13.96                             136   -0.42 7  112 166 
 RUS  HZ I        2115 15.03        53.3 0.28            137            112 166 
 PTB  HZ IP       2114 56.92                             131   -0.8310  131 254 
 PTB  HN ES   1   2115 15.81                             131   -0.44 7  131 254 
 PTB  HZ I        2115 18.79       100.3 0.34            129            131 254 
 OCA  HZ EP       2114 59.72                             126   -0.15 9  151   0 
 OCA  HN ES   1   2115 19.81                             126   -0.22 7  151   0 
 OCA  HZ I        2115 24.86       188.7 0.16            126            151   0 
 TAM  HZ IP     D 2115  2.57                             122    0.30 9  176 106 
 TAM  HN ES   2   2115 23.93                             122   -0.37 4  176 106 
 ZAR  HZ EP       2115  3.43                             120    0.49 9  183 292 
 ZAR  HN ES   1   2115 25.75                             120    0.26 7  183 292 
 ZAR  HZ I        2115 29.29        81.1 0.16            120            183 292 
 NOR  HZ EP       2115  6.87                             115   -0.60 8  224 230 
 NOR  HN ES   1   2115 33.80                             115    0.24 6  224 230 
 NOR  HZ I        2115 39.80        54.4 0.16            115            224 230 
 SML  HZ EP       2115  7.44                             114   -0.43 8  229 339 
 SML  HN ES   1   2115 34.43                             114    0.15 6  229 339 
 SML  HZ I        2115 38.35       188.2 0.12            114            229 339 
 CHI  HZ EP       2115 11.64                             112    0.58 8  252 190 
 CHI  HN ES   1   2115 40.58                             112    0.62 6  252 190 
 CHI  HZ I        2115 45.93        34.9 0.48            113            252 190 
 HEL  HZ EP   1   2115 12.04                             112    0.67 6  255 253 
 HEL  HN ES   1   2115 40.63                             112    0.14 6  255 253 
 HEL  HZ I        2115 46.14        24.5 0.20            112            255 253 
 URE  HZ EP       2115 11.16                             111   -0.58 8  263 292 
 URE  HN ES   4   2115 40.19                             111   -0.96 0  263 292 
 URE  HZ I        2115 41.71        60.9 0.14            111            263 292 
 DBB  SZ EP       2115 18.80                             107    0.41 7  319 273 
 DBB  SZ ES   1   2115 52.40                             107   -0.59 5  319 273 
 DBB  SZ I        2116  5.60        18.7 0.70            107            319 273 
 COD  HZ EP       2115 20.45                             105   -0.10 7  339 358 
 COD  HN ES   1   2115 57.32                             105    0.49 5  339 358 
 COD  HZ I        2116  3.00        17.5 0.36            106            339 358 
 PRA  HZ EP   1   2115 26.99                             103    0.32 4  390 206 
 PRA  HN ES   1   2116  8.15                             103    0.42 4  390 206 
 PRA  HZ I        2116 13.46        25.3 0.26            103            390 206 
                                                                                
