 2017  219 2233 32.0 L   6.814 -73.127149.9  RSN  4 0.3 1.1LRSN                1
 GAP=138        0.55       2.9     4.4  4.9 -0.1559E+01  0.7958E+00  0.4230E+01E
 Epicentro: LOS SANTOS - SANTANDER                                             3
 ACTION:UPD 17-05-24 15:38 OP:jn   STATUS:               ID:20170219223332 L   I
 OLDACT:UP  17-02-20 04:09 OP:and  STATUS:               ID:20170219222742     3
 OLDACT:UP  17-02-20 04:09 OP:and  STATUS:               ID:20170219222742     3
 OLDACT:REG 17-02-20 02:44 OP:and  STATUS:               ID:20170219222742     3
 2017-02-19-2228-00M.COL___352                                                 6
 STAT SP IPHASW D HRMM SECON CODA AMPLIT PERI AZIMU VELO AIN AR TRES W  DIS CAZ7
 BRR  HZ EP       2233 53.50                             153   -0.1910 72.3 297 
 BRR  HN ES       2234 10.66                             153    0.0810 72.3 297 
 PAM  EZ IP     C 2233 54.62                             152    0.0710 74.9  39 
 PAM  EN ES       2234 12.21                             152    0.1010 74.9  39 
 PAM  EZ I        2234 13.76         2.1 0.52            152           74.9  39 
 RUS  HZ EP   2   2233 56.10                             144   -0.20 5  102 177 
 RUS  HN ES       2234 15.03                             144   -0.1910  102 177 
 RUS  HZ I        2234 15.54         2.7 0.32            145            102 177 
 CHI  HZ EP       2234 10.23                             118    0.04 8  251 196 
 CHI  HN ES   2   2234 41.04                             118    1.10 4  251 196 
                                                                                
