 2012  819 2056 13.4 L   5.946 -73.823105.3  RSN  6 0.4 1.0LRSN                1
 GAP=219        0.76       6.1     4.4 10.3  0.1164E+02  0.1031E+02 -0.5058E+00E
 Epicentro: SUCRE - SANTANDER                                                  3
 ACTION:UPD 12-09-10 11:57 OP:ep   STATUS:               ID:20120819205613 L   I
 2012-08-19-2050-00M.COL___217                                                 6
 STAT SP IPHASW D HRMM SECON CODA AMPLIT PERI AZIMU VELO AIN AR TRES W  DIS CAZ7
 RUS  HZ EP   1   2056 32.03                             139    0.11 7 82.1  94 
 RUS  HZ I        2056 32.41         2.3 0.19                          82.1  94 
 RUS  HN ES   1   2056 46.35                             139    0.02 7 82.1  94 
 PTB  HZ EP   1   2056 32.52                             134    0.10 7 96.0 313 
 PTB  HN ES   1   2056 46.71                             134   -0.52 7 96.0 313 
 PTB  HZ I        2056 50.78         2.4 0.11                          96.0 313 
 BAR2 SZ EP   1   2056 32.90                             133   -0.23 7  101  45 
 BAR2 SZ ES   1   2056 48.66                             133    0.16 7  101  45 
 BRR  HZ EP   1   2056 35.65                             125    0.14 7  129   5 
 BRR  HN ES   1   2056 53.23                             125    0.51 7  129   5 
 PAM  SN ES   2   2057  5.60                             113   -1.40 4  198  39 
 ZAR  HN ES   1   2057  7.79                             111    0.30 6  206 326 
                                                                                
