 2011 1119 2024 14.2 L   6.768 -73.092148.2  RSN  5 0.2 1.7LRSN                1
 GAP=145        0.40       2.6     3.8  3.7  0.1152E+01 -0.1728E+01 -0.1301E+01E
 Epicentro: LOS SANTOS - SANTANDER                                             3
 ACTION:UPD 12-07-13 16:11 OP:ep   STATUS:               ID:20111119202414 L   I
 2011-11-19-2021-56S.COL___178                                                 6
 STAT SP IPHASW D HRMM SECON CODA AMPLIT PERI AZIMU VELO AIN AR TRES W  DIS CAZ7
 BAR2 SZ EP   1   2024 33.82                             171   -0.32 7 21.9 207 
 BAR2 SZ ES   1   2024 49.83                             171    0.17 7 21.9 207 
 BAR2 SZ I        2024 50.38        11.0 0.37                          21.9 207 
 PAM  SZ EP   1   2024 36.91                             151    0.24 7 76.6  34 
 PAM  SN ES   1   2024 54.00                             151   -0.17 7 76.6  34 
 BRR  HZ EP       2024 35.98                             151   -0.0810 78.2 299 
 BRR  HZ I        2024 36.30        22.6 0.17                          78.2 299 
 BRR  HN ES       2024 53.09                             151    0.0210 78.2 299 
 RUS  HZ EP   1   2024 38.01                             145    0.04 7 96.8 179 
 RUS  HN ES   1   2024 56.49                             145    0.02 7 96.8 179 
 RUS  HZ I        2024 58.00         3.9 0.28                          96.8 179 
 OCA  SZ EP   1   2024 43.29                             129    0.14 7  165 351 
 OCA  SZ I        2025 13.19         6.1 0.41                           165 351 
                                                                                
