 2010  819 2321  9.2 L   6.561 -73.489112.9  RSN 14 0.4 2.2LRSN                1
 GAP= 65        0.64       2.5     4.0  4.4 -0.9219E+00  0.6748E+01 -0.2494E-01E
 Epicentro: EL CARMEN DE CHUCURI - SANTANDER                                   3
 ACTION:UP  10-09-07 10:56 OP:vdl  STATUS:               ID:20100819232109 L   I
 2010-08-19-2319-08S.COL___117                                                 6
 STAT SP IPHASW D HRMM SECON CODA AMPLIT PERI AZIMU VELO SNR AR TRES W  DIS CAZ7
 BAR2 SZ IP       2321 25.47                             162     0.310   34  84 
 BAR2 SZ ES   1   2321 37.77                             162     0.1 7   34  84 
 BTL  SZ IP       2321 25.96                             156     0.210   47  32 
 BTL  SZ ES   1   2321 38.72                             156     0.0 7   47  32 
 BRR  HZ EP       2321 26.19                             148    -0.310   65 338 
 BRR  HZ I        2321 26.45        49.9 0.09                            65 338 
 BRR  HE ES   1   2321 40.02                             148     0.0 7   65 338 
 GIR2 SZ EP       2321 26.90                             148     0.210   66  30 
 GIR2 SZ ES   2   2321 40.44                             148     0.0 5   66  30 
 RUS  HZ EP       2321 28.49                             140    -0.210   86 149 
 RUS  HE ES   1   2321 43.61                             140    -0.3 7   86 149 
 RUS  HZ I        2321 45.66        20.3 0.15                            86 149 
 GUE  SZ EP       2321 34.33                             122    -0.3 9  154  24 
 GRA  SZ EP       2321 35.70                             120     0.1 9  165  27 
 GRA  SZ ES   2   2321 56.54                             120     0.3 5  165  27 
 GRA  SZ I        2321 58.99        19.6 0.43                           165  27 
 OCA  SZ EP   2   2321 38.70                             117     0.7 4  187   6 
 OCA  SZ ES   2   2321 59.57                             117    -0.9 4  187   6 
 OCA  SZ I        2322  6.62        17.6 0.18                           187   6 
 CHI  HZ EP   2   2321 41.77                             113     0.3 4  215 187 
 CHI  HE ES   3   2322  6.13                             113    -0.5 2  215 187 
 HEL  HZ EP       2321 43.28                             111     0.3 8  229 260 
 HEL  HE ES   3   2322  8.87                             111    -0.5 2  229 260 
 HEL  HZ I        2322 13.77         9.7 0.16                           229 260 
 GUY  SZ EP   3   2321 46.98                             109     0.9 2  255 235 
 GUY  SN ES   3   2322 15.55                             109     0.7 2  255 235 
 GUY  SZ I        2322 19.72        23.6 0.46                           255 235 
 RREF HZ EP   3   2321 49.09                             107     0.4 2  276 228 
 RREF HE ES   3   2322 20.25                             107     0.7 2  276 228 
 RREF HZ I        2322 24.97         7.6 0.30                           276 228 
 MON  HE ES   2   2322 31.33                             103    -0.9 3  342 316 
 MON  HZ I        2322 32.33         5.8 0.09                           342 316 
 PRA  HZ EP   3   2321 56.84                             102     0.0 2  351 206 
 PRA  HE ES   2   2322 33.13                             102    -0.9 3  351 206 
 PRA  HZ I        2322 41.84         7.1 0.68                           351 206 
                                                                                
