 2010  819 2256  6.5 L   6.784 -73.026144.5  RSN 13 0.3 2.2LRSN                1
 GAP=172        0.74       2.8     5.7  5.0 -0.4870E+01  0.5111E+01  0.2109E+01E
 Epicentro: CEPITA - SANTANDER                                                 3
 ACTION:UP  10-09-07 10:56 OP:vdl  STATUS:               ID:20100819225606 L   I
 2010-08-19-2254-35S.COL___117                                                 6
 STAT SP IPHASW D HRMM SECON CODA AMPLIT PERI AZIMU VELO SNR AR TRES W  DIS CAZ7
 BAR2 SZ EP       2256 26.10                             169     0.010   27 219 
 BAR2 SZ ES   2   2256 41.08                             169    -0.2 5   27 219 
 BAR2 SZ I        2256 42.76        51.4 0.12                            27 219 
 BTL  SZ EP       2256 26.38                             168     0.210   31 299 
 BTL  SZ ES   2   2256 41.93                             168     0.5 5   31 299 
 GIR2 SZ EP   2   2256 26.27                             165     0.1 5   37 330 
 GIR2 SZ ES   2   2256 41.27                             165    -0.3 5   37 330 
 BRR  HZ IP     D 2256 27.99                             149    -0.310   84 295 
 BRR  HE ES   1   2256 45.15                             149    -0.1 7   84 295 
 BRR  HZ I        2256 48.57        29.8 0.10                            84 295 
 RUS  HZ EP       2256 29.97                             144     0.010   99 184 
 RUS  HE ES   1   2256 48.58                             144     0.3 7   99 184 
 RUS  HZ I        2256 49.86        14.7 0.28                            99 184 
 GUE  SZ EP   1   2256 30.92                             139    -0.1 7  116   6 
 GRA  SZ IP       2256 31.85                             137     0.410  124  11 
 GRA  SZ ES   1   2256 50.89                             137    -0.1 7  124  11 
 GRA  SZ I        2256 53.20         9.8 0.26                           124  11 
 OCA  SZ EP   1   2256 35.33                             129     0.3 7  164 349 
 OCA  SZ ES   1   2256 57.35                             129     0.0 7  164 349 
 OCA  SZ I        2257  0.99        14.3 0.79                           164 349 
 CHI  HZ EP   1   2256 44.03                             117    -0.3 6  251 198 
 CHI  HE ES   1   2257 13.02                             117    -0.8 6  251 198 
 CHI  HZ I        2257 19.13         7.4 0.55                           251 198 
 HEL  HZ EP       2256 47.64                             113    -0.4 7  284 257 
 HEL  HZ I        2257 24.33         7.2 0.24                           284 257 
 GUY  SZ EP       2256 50.82                             111    -0.4 7  311 237 
 GUY  SE ES   2   2257 26.66                             111     0.6 3  311 237 
 GUY  SZ I        2257 31.35        28.0 0.69                           311 237 
 RREF HZ EP   1   2256 54.43                             110     0.8 5  331 231 
 RREF HZ I        2257 37.80         8.9 0.45                           331 231 
 PRA  HZ EP   2   2257  0.52                             106     0.0 3  397 211 
 PRA  HE ES   2   2257 43.35                             106     0.6 3  397 211 
 PRA  HZ I        2257 47.62        10.6 0.22                           397 211 
                                                                                
