 2017  119 2317 19.0 L   6.790 -73.121153.9  RSN  6 0.4 1.4LRSN                1
 GAP=140        1.07       5.2     6.2  8.2  0.9382E+00  0.1208E+02  0.1256E+02E
 Epicentro: LOS SANTOS - SANTANDER                                             3
 ACTION:UPD 17-05-22 16:01 OP:jn   STATUS:               ID:20170119231719 L   I
 OLDACT:REG 17-01-20 04:32 OP:ar   STATUS:               ID:20170119230749     3
 2017-01-19-2308-00M.COL___325                                                 6
 STAT SP IPHASW D HRMM SECON CODA AMPLIT PERI AZIMU VELO AIN AR TRES W  DIS CAZ7
 BAR2 EZ EP       2317 39.46                             171   -0.1710 22.9 197 
 BAR2 EZ ES       2317 55.55                             171   -0.1510 22.9 197 
 BRR  HZ EP       2317 41.69                             153    0.4710 74.1 298 
 BRR  HE ES       2317 59.27                             153    0.7410 74.1 298 
 PAM  EN ES       2317 59.83                             152   -0.2110 76.5  37 
 RUS  HZ EP       2317 43.36                             146   -0.1510 99.4 178 
 RUS  HN ES       2318  2.50                             146   -0.1010 99.4 178 
 RUS  HZ I        2318  3.82         3.4 0.50            144           99.4 178 
 PTB  HZ EP       2317 46.48                             133   -0.41 9  150 259 
 PTB  HN ES       2318  7.96                             133   -0.66 9  150 259 
 PTB  HZ I        2318 13.46         4.8 0.22            131            150 259 
 CHI  HZ EP   2   2317 57.95                             119    0.79 4  248 196 
 CHI  HN ES       2318 27.51                             119    0.61 8  248 196 
 CHI  HZ I        2318 32.49         1.6 0.34            118            248 196 
                                                                                
