 2012  419 2118 37.1 L   6.754 -73.150140.0  RSN  9 0.4 2.1LRSN                1
 GAP=138        0.98       5.9     5.3  8.4 -0.1716E+01  0.1370E+02  0.5108E+01E
 Epicentro: LOS SANTOS - SANTANDER                                             3
 ACTION:UPD 12-07-05 11:54 OP:tino STATUS:               ID:20120419211837 L   I
 2012-04-19-2117-59S.COL___195                                                 6
 STAT SP IPHASW D HRMM SECON CODA AMPLIT PERI AZIMU VELO AIN AR TRES W  DIS CAZ7
 BAR2 SZ EP       2118 55.94                             172     0.010   18 191 
 BAR2 SZ I        2118 56.25        39.4 0.10                            18 191 
 BAR2 SZ ES   1   2119 10.45                             172    -0.2 7   18 191 
 BRR  HZ EP   1   2118 57.87                             151     0.1 7   73 302 
 BRR  HZ I        2118 58.94        40.3 0.11                            73 302 
 BRR  HE ES   1   2119 14.49                             151     0.6 7   73 302 
 PAM  SZ EP   1   2118 58.99                             149     0.0 7   82  38 
 PAM  SN ES   1   2119 15.74                             149    -0.3 7   82  38 
 RUS  HZ EP   1   2118 59.91                             144     0.0 7   96 176 
 RUS  HZ I        2119  0.80        11.0 0.11                            96 176 
 RUS  HN ES   1   2119 18.23                             144     0.5 7   96 176 
 PTB  HZ EP   1   2119  2.60                             131    -0.9 7  146 261 
 PTB  HN ES   1   2119 23.93                             131    -0.1 7  146 261 
 PTB  HZ I        2119 25.92        15.5 0.19                           146 261 
 ZAR  HN ES   1   2119 34.64                             121     0.1 6  206 293 
 ZAR  HZ I        2119 43.01        16.0 0.29                           206 293 
 NOR  SN ES   1   2119 38.90                             118    -0.6 6  231 235 
 HEL  HZ EP   1   2119 17.71                             114     0.8 6  270 257 
 HEL  HZ I        2119 54.98        10.3 0.51                           270 257 
 RREF HZ EP   2   2119 23.32                             110     0.7 3  318 230 
                                                                                
