 2012 1219 2120 33.9 L   6.747 -73.122141.6  RSN  7 0.5 1.8LRSN                1
 GAP=142        1.36       6.7     6.1 10.2  0.1490E+01  0.1219E+02 -0.4593E+00E
 Epicentro: LOS SANTOS - SANTANDER                                             3
 ACTION:UPD 13-01-04 14:29 OP:ep   STATUS:               ID:20121219212033 L   I
 2012-12-19-2120-00M.COL___242                                                 6
 STAT SP IPHASW D HRMM SECON CODA AMPLIT PERI AZIMU VELO AIN AR TRES W  DIS CAZ7
 BAR2 SZ ES       2121  8.19                             172    0.3810 18.4 201 
 BAR2 SZ I        2121 12.38        12.1 0.48                          18.4 201 
 GIR2 SZ EP       2120 53.59                             164    0.3010 37.5 348 
 BRR  HN ES       2121 12.16                             150    0.8410 76.4 301 
 BRR  HN I        2121 13.18        16.7 0.46                          76.4 301 
 PAM  SZ EP       2120 56.21                             149    0.3210 80.4  35 
 PAM  SZ I        2120 56.47        10.1 0.24                          80.4  35 
 PAM  SN ES       2121 12.09                             149   -0.9310 80.4  35 
 RUS  HZ EP       2120 57.28                             145    0.4410 94.6 177 
 RUS  HN ES       2121 14.26                             145   -0.4510 94.6 177 
 RUS  HN I        2121 17.61         5.6 0.42                          94.6 177 
 PTB  HZ EP       2121  0.37                             131   -0.33 9  149 261 
 PTB  HN ES       2121 21.15                             131   -0.44 9  149 261 
 PTB  HN I        2121 27.00        11.9 0.38                           149 261 
 ZAR  HE ES       2121 31.73                             121   -0.34 8  209 293 
                                                                                
