 2014  519 2221 19.3 L   6.817 -73.187144.1  RSN  6 0.3 1.6LRSN                1
 GAP=131        0.82       3.8     3.6  8.5 -0.1734E+01  0.1121E+02  0.5361E+01E
 Epicentro: ZAPATOCA - SANTANDER                                               3
 ACTION:UPD 15-03-16 16:59 OP:nd   STATUS:               ID:20140519222119 L   I
 OLDACT:DUP 14-05-20 06:24 OP:carl STATUS:               ID:20140519221819d    3
 2014-05-19-2218-18M.COL___254                                                 6
 STAT SP IPHASW D HRMM SECON CODA AMPLIT PERI AZIMU VELO AIN AR TRES W  DIS CAZ7
 PAM  SZ EP       2221 41.81                             150    0.3410 79.0  43 
 PAM  SE ES       2221 58.37                             150   -0.3610 79.0  43 
 PAM  SZ I        2222  1.09        11.2 0.40            155           79.0  43 
 RUS  HZ EP       2221 43.31                             143    0.2310  103 174 
 RUS  HN ES       2222  1.78                             143    0.1710  103 174 
 RUS  HZ I        2222  2.59         4.4 0.26            147            103 174 
 PTB  HZ EP       2221 45.18                             132   -0.61 9  144 258 
 PTB  HN ES       2222  6.40                             132   -0.03 9  144 258 
 PTB  HZ I        2222 13.46         5.3 0.42            135            144 258 
 ZAR  HE ES       2222 16.41                             123    0.43 9  199 292 
 NOR  HE ES       2222 22.14                             118   -0.11 8  232 233 
 PRA  HN ES       2222 54.22                             106   -0.14 6  391 209 
                                                                                
