 2015 1119 2220 41.6 L   6.794 -73.132139.7  RSN  5 0.2 1.7LRSN                1
 GAP=156        0.59       4.1     3.3  5.3  0.1854E+01  0.3184E+01 -0.6401E+01E
 Epicentro: LOS SANTOS - SANTANDER                                             3
 ACTION:UPD 15-12-28 16:12 OP:cam  STATUS:               ID:20151119222041 L   I
 OLDACT:REG 15-11-20 03:56 OP:cara STATUS:               ID:20151119221749     3
 2015-11-19-2217-49M.COL___316                                                 6
 STAT SP IPHASW D HRMM SECON CODA AMPLIT PERI AZIMU VELO AIN AR TRES W  DIS CAZ7
 BAR2 EZ EP       2221  0.42                             170   -0.1010 23.0 194 
 BAR2 EZ ES       2221 14.96                             170   -0.3010 23.0 194 
 BAR2 EZ I        2221 16.23        10.2 0.34            173           23.0 194 
 BRR  HZ IP     D 2221  2.24                             151    0.0210 72.8 298 
 BRR  HN ES       2221 18.43                             151    0.1510 72.8 298 
 BRR  HZ I        2221 21.81        10.8 0.48            152           72.8 298 
 PAM  EZ IP       2221  3.28                             150    0.1110 76.9  38 
 PAM  EE ES       2221 20.20                             150    0.2210 76.9  38 
 PAM  EZ I        2221 22.51         9.4 0.66            151           76.9  38 
 ZAR  HE ES       2221 39.25                             121    0.26 8  206 292 
 SML  HE ES       2221 46.04                             116   -0.42 8  245 335 
                                                                                
