 2016  619 2133 24.9 L   6.781 -73.142142.0  RSN  9 0.4 1.7LRSN                1
 GAP=138        1.11       4.5     4.5  6.7 -0.3588E+01  0.9575E+01  0.5288E+01E
 Epicentro: LOS SANTOS - SANTANDER                                             3
 ACTION:UPD 16-07-21 22:20 OP:rebc STATUS:               ID:20160619213324 L   I
 OLDACT:UP  16-06-20 05:43 OP:edw  STATUS:               ID:20160619212744d    3
 OLDACT:UP  16-06-20 05:42 OP:edw  STATUS:               ID:20160619212744d    3
 OLDACT:DUP 16-06-20 05:37 OP:edw  STATUS:               ID:20160619212744d    3
 2016-06-19-2127-43M.COL___352                                                 6
 STAT SP IPHASW D HRMM SECON CODA AMPLIT PERI AZIMU VELO AIN AR TRES W  DIS CAZ7
 BAR2 EZ ES       2133 57.96                             171   -0.9910 21.3 192 
 BAR2 EZ I        2134  0.44        11.1 0.44                          21.3 192 
 BRR  HZ EP       2133 45.74                             151    0.0310 72.6 300 
 BRR  HE ES       2134  2.83                             151    0.8810 72.6 300 
 PAM  EZ EP       2133 46.79                             150    0.0110 78.8  38 
 PAM  EN ES       2134  3.96                             150    0.0910 78.8  38 
 PAM  EZ I        2134  4.10         7.2 0.26                          78.8  38 
 RUS  HZ EP       2133 48.02                             144   -0.0910 98.4 176 
 RUS  HE ES       2134  6.82                             144    0.6010 98.4 176 
 RUS  HZ I        2134  9.02         4.5 0.34                          98.4 176 
 PTB  HZ EP       2133 51.02                             131   -0.53 9  148 260 
 PTB  HN ES       2134 11.94                             131   -0.41 9  148 260 
 PTB  HZ I        2134 13.65         7.5 0.34                           148 260 
 SPBC HZ EP       2133 52.95                             128   -0.01 9  162 220 
 SPBC HE ES       2134 14.97                             128    0.11 9  162 220 
 ZAR  HE ES       2134 22.39                             121   -0.04 8  205 293 
 NOR  HZ EP       2134  0.16                             118   -0.14 8  234 235 
 NOR  HE ES       2134 27.85                             118   -0.07 8  234 235 
 NOR  HZ I        2134 34.54         5.0 0.16                           234 235 
 HEL  HZ EP   4   2134  7.84                             114    2.94 0  272 256 
 HEL  HN ES   4   2134 40.82                             114    4.72 0  272 256 
 GUY2CHZ EP       2134  8.59                             112    0.37 7  300 235 
 GUY2CHN ES       2134 42.37                             112    0.35 7  300 235 
 GUY2CHZ I        2134 50.50         3.1 0.32                           300 235 
                                                                                
