 2014  219 2021 44.0 L   6.822 -73.155145.2  RSN  8 0.4 1.9LRSN                1
 GAP=134        0.93       3.6     4.1  6.2 -0.8518E+00  0.7572E+01  0.4688E+00E
 Epicentro: LOS SANTOS - SANTANDER                                             3
 ACTION:UPD 14-03-10 08:11 OP:ep   STATUS:               ID:20140219202144 L   I
 OLDACT:REG 14-02-20 00:17 OP:mh   STATUS:               ID:20140219202000     3
 2014-02-19-2020-00M.COL___212                                                 6
 STAT SP IPHASW D HRMM SECON CODA AMPLIT PERI AZIMU VELO AIN AR TRES W  DIS CAZ7
 BAR2 SZ EP   1   2022  3.47                             170   -0.15 7 25.6 187 
 BAR2 SZ ES       2022 19.29                             170    0.3810 25.6 187 
 BAR2 SZ I        2022 20.07        31.4 0.30            171           25.6 187 
 BRR  HZ EP       2022  5.51                             153    0.5310 69.1 297 
 BRR  HN ES       2022 21.43                             153    0.1010 69.1 297 
 BRR  HZ I        2022 27.03        16.6 0.35            151           69.1 297 
 PAM  SZ EP       2022  6.24                             151    0.1510 76.2  41 
 PAM  SN ES       2022 23.22                             151   -0.1010 76.2  41 
 PAM  SZ I        2022 25.80        16.7 0.58            153           76.2  41 
 RUS  HZ EP       2022  7.99                             143    0.1010  103 176 
 RUS  HN ES       2022 26.12                             143   -0.3910  103 176 
 RUS  HZ I        2022 27.94         3.4 0.18            146            103 176 
 PTB  HZ EP       2022 10.42                             132   -0.46 9  147 258 
 PTB  HN ES       2022 31.50                             132   -0.34 9  147 258 
 PTB  HZ I        2022 33.94         9.1 0.09            132            147 258 
 ZAR  HN ES   1   2022 42.17                             123    0.82 6  202 292 
 NOR  HZ EP       2022 20.10                             118    0.33 8  235 234 
 NOR  HN ES       2022 47.57                             118   -0.09 8  235 234 
 NOR  HZ I        2022 54.51         5.3 0.22            120            235 234 
 SML  HN ES       2022 47.89                             118   -0.74 8  241 335 
 SML  HZ I        2022 55.53        14.1 0.10            118            241 335 
                                                                                
