 2012  919 2024 27.3 L   6.815 -73.129146.1  RSN  6 0.4 1.8LRSN                1
 GAP=138        0.73       5.5     5.2 10.2  0.2958E+01  0.2149E+02 -0.3465E+01E
 Epicentro: LOS SANTOS - SANTANDER                                             3
 ACTION:UPD 12-10-22 14:19 OP:ep   STATUS:               ID:20120919202427 L   I
 2012-09-19-2020-00M.COL___226                                                 6
 STAT SP IPHASW D HRMM SECON CODA AMPLIT PERI AZIMU VELO AIN AR TRES W  DIS CAZ7
 BAR2 SZ EP   1   2024 47.02                             170   -0.04 7 25.4 194 
 BAR2 SZ I        2024 47.43        12.2 0.09                          25.4 194 
 BAR2 SZ ES   1   2025  2.03                             170   -0.40 7 25.4 194 
 BRR  HZ EP   1   2024 48.66                             152    0.08 7 72.1 297 
 BRR  HZ I        2024 48.97        14.2 0.12                          72.1 297 
 BRR  HN ES   1   2025  5.76                             152    0.62 7 72.1 297 
 PAM  SN ES   1   2025  6.47                             152   -0.22 7 74.9  39 
 RUS  HN ES   1   2025 10.25                             143    0.37 7  102 177 
 PTB  HE ES   1   2025 15.20                             132   -0.55 7  150 258 
 PTB  HE I        2025 16.89         8.0 0.12                           150 258 
 ZAR  HN ES   1   2025 25.42                             122    0.08 6  205 292 
                                                                                
