 2016  819 2304  8.9 L   6.789 -73.165139.8  RSN  6 0.3 1.7LRSN                1
 GAP=135        0.89       4.1     4.4  6.5 -0.4892E+01  0.1346E+01  0.4230E+01E
 Epicentro: LOS SANTOS - SANTANDER                                             3
 ACTION:UPD 16-10-29 15:37 OP:rebc STATUS:               ID:20160819230408 L   I
 OLDACT:UP  16-08-20 04:35 OP:dani STATUS:               ID:20160819225759     3
 OLDACT:REG 16-08-20 02:56 OP:dani STATUS:               ID:20160819225759     3
 2016-08-19-2257-59S.COL___349                                                 6
 STAT SP IPHASW D HRMM SECON CODA AMPLIT PERI AZIMU VELO AIN AR TRES W  DIS CAZ7
 BAR2 EZ EP       23 4 27.71                             171   -0.0810 21.9 185 
 BAR2 EZ ES       23 4 43.07                             171    0.5510 21.9 185 
 BAR2 EZ I        23 4 44.54        10.3 0.26                          21.9 185 
 BRR  HZ EP       23 4 29.62                             152    0.2810 70.0 300 
 BRR  HE ES       23 4 44.99                             152   -0.2910 70.0 300 
 BRR  HZ I        23 4 47.82        10.8 0.30                          70.0 300 
 PAM  EZ EP       23 4 30.72                             149    0.0910 79.6  40 
 PAM  EN ES       23 4 47.56                             149   -0.0210 79.6  40 
 PAM  EZ I        23 4 49.03         7.8 0.26                          79.6  40 
 RUS  HZ EP       23 4 31.75                             143   -0.2510 99.6 175 
 RUS  HN ES       23 4 49.52                             143   -0.4910 99.6 175 
 RUS  HZ I        23 4 51.49         4.2 0.29                          99.6 175 
 PTB  HZ EP   4   23 4 32.66                             131   -2.52 0  145 259 
 PTB  HE ES       23 4 55.31                             131   -0.37 9  145 259 
 PTB  HZ I        23 4 57.70        10.9 0.15                           145 259 
 SPBC HZ EP       23 4 36.82                             128    0.08 9  161 219 
 SPBC HN ES       23 4 59.01                             128    0.56 9  161 219 
 SPBC HZ I        23 5  9.79         5.7 0.10                           161 219 
 ZAR  HN ES   4   23 5  6.88                             121    1.18 0  203 293 
                                                                                
