 2013  519 2348 40.6 L   6.794 -73.151146.8  RSN  9 0.5 2.1LRSN                1
 GAP=136        1.14       4.8     5.4  8.3 -0.5400E+01  0.1040E+02  0.2570E+01E
 Epicentro: LOS SANTOS - SANTANDER                                             3
 ACTION:UPD 13-06-20 09:52 OP:ep   STATUS:               ID:20130519234840 L   I
 2013-05-19-2347-51M.COL___218                                                 6
 STAT SP IPHASW D HRMM SECON CODA AMPLIT PERI AZIMU VELO AIN AR TRES W  DIS CAZ7
 GIR2 SZ EP       2349  0.47                             167    0.0210 31.8 351 
 GIR2 SZ ES       2349 15.97                             167    0.0610 31.8 351 
 GIR2 SZ I        2349 16.56        16.6 0.13            168           31.8 351 
 BRR  HZ EP       2349  2.27                             153    0.3810 71.0 299 
 BRR  HZ I        2349  2.61        33.0 0.10            153           71.0 299 
 BRR  HN ES       2349 19.20                             153    0.7310 71.0 299 
 PAM  SZ EP       2349  3.34                             151    0.3210 78.2  40 
 PAM  SN ES       2349 20.35                             151   -0.1210 78.2  40 
 PAM  SZ I        2349 22.55        26.4 0.62            152           78.2  40 
 RUS  HZ EP   2   2349  4.80                             144    0.35 5  100 176 
 RUS  HE ES       2349 22.90                             144   -0.1310  100 176 
 RUS  HZ I        2349 23.61        15.3 0.18            145            100 176 
 PTB  HZ EP   1   2349  7.00                             132   -0.63 7  147 259 
 PTB  HN ES       2349 27.80                             132   -0.89 9  147 259 
 PTB  HZ I        2349 30.82        19.5 0.10            133            147 259 
 OCA  HN ES       2349 30.43                             130   -0.84 9  161 353 
 ZAR  HN ES   1   2349 39.38                             123    0.91 6  204 292 
 NOR  HZ EP   1   2349 16.41                             119    0.07 6  234 235 
 NOR  HN ES   1   2349 44.28                             119    0.09 6  234 235 
 NOR  HZ I        2349 46.22         9.2 0.18            119            234 235 
 SML  HZ EP   2   2349 17.41                             118    0.05 4  244 335 
                                                                                
