 2016  119 2249 13.7 L   7.036 -73.280120.0  RSN 16 0.4 2.3LRSN                1
 GAP=105        0.98       2.8     3.8  6.0 -0.2493E+01  0.1222E+02 -0.4842E-01E
 Epicentro: LEBRIJA - SANTANDER                                                3
 ACTION:UPD 16-03-09 23:26 OP:cam  STATUS:               ID:20160119224913 L   I
 OLDACT:UP  16-01-20 03:59 OP:drio STATUS:               ID:20160119224749     3
 OLDACT:UP  16-01-20 03:56 OP:drio STATUS:               ID:20160119224749     3
 OLDACT:UP  16-01-20 03:56 OP:drio STATUS:               ID:20160119224749     3
 OLDACT:UP  16-01-20 03:55 OP:drio STATUS:               ID:20160119224749     3
 OLDACT:REG 16-01-20 02:41 OP:drio STATUS:               ID:20160119224749     3
 2016-01-19-2247-49M.COL___328                                                 6
 STAT SP IPHASW D HRMM SECON CODA AMPLIT PERI AZIMU VELO AIN AR TRES W  DIS CAZ7
 BAR2 EZ EP       2249 31.32                             156    0.0510 50.3 168 
 BAR2 EZ ES       2249 45.41                             156    0.4510 50.3 168 
 BAR2 EZ I        2249 47.10        97.6 0.32            159           50.3 168 
 PAM  EZ EP       2249 32.90                             147   -0.0210 72.3  62 
 PAM  EE ES       2249 48.59                             147    0.6910 72.3  62 
 PAM  EZ I        2249 50.31        47.3 0.34            157           72.3  62 
 RUS  HZ EP       2249 37.50                             130    0.0310  128 170 
 RUS  HE ES       2249 55.23                             130   -0.7810  128 170 
 OCA  HZ EP       2249 37.09                             129   -0.3810  133 358 
 OCA  HE ES       2249 55.55                             129   -0.4410  133 358 
 OCA  HZ I        2249 58.68        49.4 0.26            132            133 358 
 PTB  HZ EP       2249 37.93                             127   -0.14 9  141 247 
 PTB  HN ES       2249 56.53                             127   -0.53 9  141 247 
 PTB  HZ I        2250  1.51        32.0 0.16            127            141 247 
 SPBC HZ EP       2249 41.43                             120   -0.32 9  176 210 
 SPBC HN ES       2250  3.65                             120    0.03 9  176 210 
 SPBC HZ I        2250  8.33        20.1 0.44            122            176 210 
 ZAR  HZ EP       2249 42.53                             119    0.35 9  181 286 
 ZAR  HN ES   4   2250  6.09                             119    1.71 0  181 286 
 ZAR  HZ I        2250 10.13        36.7 0.26            120            181 286 
 SML  HZ EP   4   2249 44.52                             115   -1.16 0  214 336 
 SML  HN ES   4   2250  9.17                             115   -1.44 0  214 336 
 SML  HZ I        2250 17.87        33.7 0.10            117            214 336 
 NOR  HZ EP       2249 48.11                             112   -0.54 8  240 227 
 NOR  HE ES       2250 16.37                             112    0.47 8  240 227 
 NOR  HZ I        2250 23.92        14.0 0.16            114            240 227 
 HEL  HZ EP   4   2249 53.40                             110    1.38 0  266 250 
 HEL  HE ES   4   2250 26.17                             110    4.28 0  266 250 
 HEL  HZ I        2250 28.16        11.3 0.52            111            266 250 
 CHI  HZ EP       2249 52.60                             109   -0.06 8  271 191 
 CHI  HE ES   4   2250 24.94                             109    1.90 0  271 191 
 CHI  HZ I        2250 29.13         5.5 0.48            112            271 191 
 GUY2CHZ EP       2249 56.54                             107   -0.24 7  306 229 
 GUY2CHN ES   4   2250 33.61                             107    3.24 0  306 229 
 GUY2CHZ I        2250 41.51         7.9 0.64                           306 229 
 DBB  SZ EP       2249 58.87                             105    0.45 7  324 270 
 DBB  SZ ES       2250 33.60                             105    0.32 7  324 270 
 CBOC HZ EP       2249 59.20                             105    0.07 7  329 247 
 CBOC HE ES       2250 35.06                             105    0.51 7  329 247 
 CBOC HZ I        2250 47.55         5.3 0.54            107            329 247 
 ELA  HZ EP   4   2250  3.12                             105    2.69 0  336 224 
 ELA  HN ES   4   2250 42.08                             105    5.21 0  336 224 
 ELA  HZ I        2250 46.73         6.8 0.36            107            336 224 
 PRA  HZ EP       2250  9.30                             101    0.89 6  408 206 
 PRA  HE ES       2250 51.44                             101    0.38 6  408 206 
 PRA  HZ I        2250 58.60        10.1 0.32            103            408 206 
                                                                                
