 2012  919 2047 30.3 L   6.773 -73.210148.7  RSN  5 0.4 1.7LRSN                1
 GAP=228        0.80       8.7     7.7 11.4  0.3673E+02  0.1135E+02 -0.1875E+02E
 Epicentro: ZAPATOCA - SANTANDER                                               3
 ACTION:UPD 12-10-22 14:19 OP:ep   STATUS:               ID:20120919204730 L   I
 2012-09-19-2040-00M.COL___226                                                 6
 STAT SP IPHASW D HRMM SECON CODA AMPLIT PERI AZIMU VELO AIN AR TRES W  DIS CAZ7
 BAR2 SZ EP   1   2047 50.08                             172   -0.11 7 20.2 171 
 BAR2 SZ ES   1   2048  5.08                             172   -0.66 7 20.2 171 
 BAR2 SZ I        2048  6.43        15.5 0.18                          20.2 171 
 BRR  HZ EP   1   2047 51.69                             154    0.20 7 66.7 304 
 BRR  HZ I        2047 51.79        13.7 0.14                          66.7 304 
 BRR  HN ES   1   2048  8.68                             154    0.63 7 66.7 304 
 RUS  HN ES   1   2048 13.05                             145    0.27 7 98.3 172 
 RUS  HZ I        2048 14.16         4.9 0.36                          98.3 172 
 PTB  HN ES   1   2048 17.50                             134   -0.02 7  140 259 
 PTB  HN I        2048 20.20         3.8 0.08                           140 259 
 ZAR  HN ES   1   2048 26.98                             124   -0.41 6  199 294 
                                                                                
