 2010  719 2236 32.7 L   6.803 -73.032142.6  RSN  6 0.5 1.9LRSN                1
 GAP=177        1.07       6.6    11.0  9.2  0.2341E+02 -0.1549E+02 -0.6438E+01E
 Epicentro: CEPITA - SANTANDER                                                 3
 ACTION:UPD 10-12-01 15:18 OP:pat  STATUS:               ID:20100719223632 L   I
 2010-07-19-2232-37S.COL___122                                                 6
 STAT SP IPHASW D HRMM SECON CODA AMPLIT PERI AZIMU VELO AIN AR TRES W  DIS CAZ7
 BAR2 SZ EP       2236 51.96                             168    -0.110   29 216 
 BAR2 SZ ES   1   2237  6.43                             168    -0.7 7   29 216 
 BAR2 SZ I        2237  9.67        23.9 0.23                            29 216 
 GIR2 SZ EP   2   2236 52.21                             165     0.1 5   35 330 
 GIR2 SZ ES   3   2237  7.46                             165     0.3 2   35 330 
 BRR  HZ EP       2236 53.88                             149    -0.310   82 294 
 BRR  HN ES       2237 11.10                             149     0.210   82 294 
 BRR  HZ I        2237 13.91        14.9 0.15                            82 294 
 RUS  HZ EP       2236 55.88                             143    -0.210  101 183 
 RUS  HN ES       2237 14.85                             143     0.510  101 183 
 RUS  HZ I        2237 16.25         7.8 1.11                           101 183 
 GUE  SZ EP   1   2236 57.49                             139     0.6 7  114   6 
 RREF HZ EP   1   2237 18.82                             110    -1.0 5  332 231 
 RREF HN ES   2   2237 57.88                             110     1.3 3  332 231 
 RREF HZ I        2238  2.29         3.5 0.83                           332 231 
                                                                                
