 2014 1019 2212 33.5 L   6.534 -73.561110.9  RSN  7 0.6 1.5LRSN                1
 GAP= 75        1.49       4.7     5.4  9.6 -0.3343E+01  0.7729E+01 -0.9403E+01E
 Epicentro: EL CARMEN - SANTANDER                                              3
 ACTION:UPD 14-11-29 23:51 OP:nd   STATUS:               ID:20141019221233 L   I
 OLDACT:REG 14-10-20 05:24 OP:stll STATUS:               ID:20141019220747     3
 2014-10-19-2207-47M.COL___268                                                 6
 STAT SP IPHASW D HRMM SECON CODA AMPLIT PERI AZIMU VELO AIN AR TRES W  DIS CAZ7
 BAR2 SZ EP       2212 50.12                             158    0.4210 42.3  81 
 BAR2 SZ ES       2213  2.75                             158    0.4510 42.3  81 
 BAR2 SZ I        2213  3.73        16.2 0.48            159           42.3  81 
 BRR  HZ EP     C 2212 50.93                             147    0.2610 65.6 345 
 BRR  HN ES       2213  4.79                             147    0.7610 65.6 345 
 RUS  HZ EP       2212 53.71                             139    0.6610 88.4 143 
 RUS  HN ES       2213  7.65                             139   -0.6110 88.4 143 
 RUS  HZ I        2213 10.06         2.3 0.18            141           88.4 143 
 PTB  HZ EP       2212 52.64                             135   -0.6410 99.1 270 
 PTB  HZ I        2212 53.25         6.4 0.18            134           99.1 270 
 PTB  HN ES       2213  7.90                             135   -0.7710 99.1 270 
 SPBC HZ EP       2212 55.16                             131    0.5610  113 210 
 SPBC HE ES       2213 11.04                             131    0.0210  113 210 
 SPBC HZ I        2213 15.29        10.4 0.16            132            113 210 
 PAM  SZ EP       2212 56.44                             127   -0.3710  130  47 
 PAM  SN ES       2213 13.92                             127   -1.0310  130  47 
 PAM  SZ I        2213 15.70         3.5 0.40            127            130  47 
 SML  HZ EP       2213  9.97                             108   -0.05 8  257 347 
 SML  HN ES       2213 38.83                             108    0.36 8  257 347 
 SML  HZ I        2213 47.98         5.6 0.10            108            257 347 
                                                                                
