 2012 1119 2210 40.2 L   6.821 -73.164142.7  RSN 15 0.4 2.2LRSN                1
 GAP=133        1.02       2.9     4.3  5.3  0.8699E+00  0.7714E+01  0.3502E+01E
 Epicentro: LOS SANTOS - SANTANDER                                             3
 ACTION:UPD 12-12-05 15:34 OP:}ep  STATUS:               ID:20121119221039 L   I
 2012-11-19-2210-00M.COL___233                                                 6
 STAT SP IPHASW D HRMM SECON CODA AMPLIT PERI AZIMU VELO AIN AR TRES W  DIS CAZ7
 BAR2 SZ IP       2210 59.46                             169   -0.0410 25.4 185 
 BAR2 SZ I        2210 59.77        43.7 0.32                          25.4 185 
 BAR2 SZ ES       2211 13.95                             169   -0.6010 25.4 185 
 GIR2 SZ EP       2210 59.51                             168    0.0810 28.7 353 
 GIR2 SZ ES       2211 14.61                             168    0.1710 28.7 353 
 BRR  HZ IP     D 2211  1.26                             153    0.4110 68.3 298 
 BRR  HN ES       2211 18.05                             153    1.0910 68.3 298 
 BRR  HN I        2211 22.88        58.0 0.18                          68.3 298 
 PAM  SZ EP       2211  2.23                             150    0.1810 76.9  42 
 PAM  SZ I        2211  2.60        39.0 0.18                          76.9  42 
 PAM  SN ES       2211 19.09                             150   -0.0210 76.9  42 
 RUS  HZ EP       2211  3.48                             142   -0.3410  103 175 
 RUS  HN ES       2211 22.01                             142   -0.2510  103 175 
 RUS  HN I        2211 23.62        15.6 0.66                           103 175 
 PTB  HZ EP       2211  6.48                             132   -0.29 9  146 258 
 PTB  HZ I        2211  7.40        13.2 0.10                           146 258 
 PTB  HN ES       2211 27.18                             132   -0.32 9  146 258 
 OCA  HN ES       2211 29.55                             129   -0.18 9  158 354 
 OCA  HN I        2211 32.37        43.7 0.24                           158 354 
 ZAR  HZ EP       2211 12.22                             122    0.06 9  201 292 
 ZAR  HN ES       2211 36.47                             122   -0.62 9  201 292 
 ZAR  HN I        2211 43.58        25.1 0.16                           201 292 
 SML  HN ES       2211 44.11                             117   -0.40 8  241 335 
 SML  HN I        2211 53.48        31.4 0.10                           241 335 
 CHI  HZ EP       2211 17.85                             116   -0.06 8  250 195 
 CHI  HN ES       2211 47.88                             116    0.55 8  250 195 
 CHI  HN I        2211 49.74         7.9 0.44                           250 195 
 HEL  HZ EP       2211 20.64                             114    0.54 8  271 255 
 HEL  HN I        2211 58.09         5.7 0.24                           271 255 
 GUY  SN ES   4   2211 59.27                             112    1.30 0  303 234 
 GUY  SN I        2212  4.08        16.5 0.26                           303 234 
 RREF HN ES   4   2212  0.63                             110   -1.46 0  322 229 
 RREF HZ I        2212 10.90         5.6 0.24                           322 229 
 MON  HZ EP   4   2211 26.97                             108   -1.76 0  351 308 
 MON  HN ES   4   2212  5.11                             108   -1.47 0  351 308 
 MON  HN I        2212  7.96         3.6 0.30                           351 308 
 PRA  HZ EP       2211 33.92                             106    0.19 6  393 209 
 PRA  HN ES       2212 15.44                             106   -0.05 6  393 209 
 PRA  HN I        2212 22.36         3.3 0.38                           393 209 
                                                                                
