 2012  919 2157 31.7 L   6.745 -73.147147.0  RSN  7 0.4 1.9LRSN                1
 GAP=139        0.76       4.9     4.5  6.6  0.1227E+01  0.5863E+01  0.2640E+01E
 Epicentro: JORDAN - SANTANDER                                                 3
 ACTION:UPD 12-10-22 14:19 OP:ep   STATUS:               ID:20120919215731 L   I
 2012-09-19-2150-00M.COL___226                                                 6
 STAT SP IPHASW D HRMM SECON CODA AMPLIT PERI AZIMU VELO AIN AR TRES W  DIS CAZ7
 BAR2 SZ EP   1   2157 51.33                             173    0.00 7 17.3 193 
 BAR2 SZ ES   1   2158  6.94                             173    0.26 7 17.3 193 
 BAR2 SZ I        2158  7.47        29.7 0.20                          17.3 193 
 GIR2 SZ EP   1   2157 51.61                             165   -0.04 7 37.3 352 
 GIR2 SZ ES   1   2158  6.63                             165   -0.61 7 37.3 352 
 BRR  HZ EP   1   2157 53.64                             152    0.53 7 74.2 303 
 BRR  HZ I        2157 54.21        17.4 0.12                          74.2 303 
 BRR  HN ES   1   2158 10.50                             152    0.66 7 74.2 303 
 PAM  SZ EP   1   2157 54.51                             149    0.21 7 82.2  37 
 PAM  SZ I        2157 54.69        13.5 0.16                          82.2  37 
 PAM  SN ES   1   2158 11.61                             149   -0.35 7 82.2  37 
 RUS  HZ EP   1   2157 54.92                             146   -0.18 7 94.5 176 
 RUS  HE ES   1   2158 13.60                             146    0.21 7 94.5 176 
 RUS  HZ I        2158 15.11         8.1 0.34                          94.5 176 
 PTB  HN EP   1   2157 58.30                             132   -0.32 7  147 261 
 PTB  HN ES   1   2158 19.10                             132   -0.55 7  147 261 
 PTB  HN I        2158 19.79        10.7 0.34                           147 261 
 ZAR  HE ES   1   2158 30.06                             122    0.09 6  206 294 
 ZAR  HZ I        2158 36.07        10.1 0.36                           206 294 
                                                                                
