 2015  619 2213 38.3 L   6.828 -73.115142.2  RSN 23 0.6 2.6LRSN                1
 GAP=120        1.18       2.6     4.0  5.4 -0.9901E+00  0.7313E+01  0.3460E+01E
 Epicentro: LOS SANTOS - SANTANDER                                             3
 ACTION:UPD 15-09-10 22:13 OP:cam  STATUS:               ID:20150619221338 L   I
 OLDACT:REG 15-06-20 05:57 OP:ak   STATUS:               ID:20150619220750     3
 2015-06-19-2207-50M.COL___328                                                 6
 STAT SP IPHASW D HRMM SECON CODA AMPLIT PERI AZIMU VELO AIN AR TRES W  DIS CAZ7
 BAR2 EZ IP     D 2213 57.71                             169    0.1610 27.1 196 
 BAR2 EZ ES       2214 12.15                             169   -0.4410 27.1 196 
 BAR2 EZ I        2214 13.99       113.0 0.18            166           27.1 196 
 PAM  SZ EP       2214  0.42                             152    0.5910 72.8  39 
 PAM  SN ES       2214 17.34                             152    0.6910 72.8  39 
 PAM  SZ I        2214 19.85        66.5 0.54            156           72.8  39 
 BRR  HZ IP     D 2213 59.59                             151    0.4710 72.9 295 
 BRR  HN ES       2214 15.72                             151    0.3210 72.9 295 
 BRR  HZ I        2214 17.45        59.5 0.20            149           72.9 295 
 RUS  HZ EP       2214  1.78                             142   -0.1010  103 178 
 RUS  HN ES       2214 20.08                             142   -0.2210  103 178 
 RUS  HZ I        2214 22.11        51.2 0.36            143            103 178 
 OCA  HZ EP       2214  5.14                             129   -0.91 9  158 352 
 OCA  HN ES       2214 27.11                             129   -0.62 9  158 352 
 OCA  HZ I        2214 31.95        82.7 0.24            131            158 352 
 ZAR  HZ EP   1   2214 11.65                             121    0.96 6  206 291 
 ZAR  HN ES       2214 36.16                             121    0.18 8  206 291 
 ZAR  HZ I        2214 42.51        51.0 0.24            121            206 291 
 NOR  HZ EP       2214 14.17                             117   -0.11 8  239 234 
 NOR  HN ES       2214 41.39                             117   -0.99 8  239 234 
 NOR  HZ I        2214 45.55        37.5 0.44            117            239 234 
 SML  HZ EP       2214 14.07                             117   -0.47 8  242 334 
 SML  HN ES       2214 42.36                             117   -0.49 8  242 334 
 SML  HZ I        2214 48.37        17.2 0.15            118            242 334 
 CHI  HZ EP       2214 15.60                             116   -0.59 8  253 196 
 CHI  HN ES       2214 45.36                             116   -0.41 8  253 196 
 CHI  HZ I        2214 49.78        12.1 0.21            117            253 196 
 ROSC BZ EP       2214 17.42                             115    0.75 8  257 211 
 ROSC BN ES       2214 47.43                             115    0.80 8  257 211 
 ROSC BZ I        2214 54.74        41.7 0.40            116            257 211 
 HEL  HZ EP   1   2214 19.73                             114    0.98 6  276 255 
 HEL  HN ES       2214 50.09                             114   -0.24 7  276 255 
 HEL  HZ I        2214 56.25        27.6 0.42            114            276 255 
 GUY2CHZ EP       2214 23.16                             111    0.94 7  306 235 
 GUY2CHN ES       2214 56.69                             111    0.17 7  306 235 
 GUY2CHZ I        2215  4.33        24.1 0.41                           306 235 
 VIL  SZ EP   1   2214 22.16                             111    0.22 5  307 192 
 VIL  SE ES       2214 56.26                             111    0.25 7  307 192 
 VIL  SZ I        2215  7.44        24.5 0.31            112            307 192 
 PTGC HZ EP       2214 21.19                             111   -0.96 7  310 159 
 PTGC HN ES   4   2214 54.47                             111   -1.91 0  310 159 
 CRECREZ EP   4   2214 31.35                             110    7.12 0  323 230 
 CRECREN ES   4   2215  6.15                             110    6.06 0  323 230 
 RREF HZ EP   1   2214 24.64                             110   -0.14 5  326 229 
 RREF HN ES       2215  1.29                             110    0.23 7  326 229 
 RREF HZ I        2215  6.90         8.1 0.18            110            326 229 
 CBOC HZ EP       2214 26.27                             109    0.76 7  338 252 
 CBOC HE ES   4   2215  0.26                             109   -2.11 0  338 252 
 CBOC HZ I        2215  8.45         6.5 0.23            109            338 252 
 DBB  SZ EP       2214 26.10                             109    0.14 7  343 274 
 DBB  SZ ES       2215  2.45                             109   -0.72 7  343 274 
 TOL  SZ EP       2214 27.58                             108    0.68 6  348 225 
 TOL  SN ES       2215  4.51                             108   -0.34 6  348 225 
 TOL  SZ I        2215 15.99        12.6 0.44            109            348 225 
 MON  HZ EP   4   2214 25.35                             108   -1.87 0  354 308 
 MON  HN ES   4   2215  2.77                             108   -2.63 0  354 308 
 MON  HZ I        2215  8.56         5.6 0.50            109            354 308 
 ANIL HZ EP   1   2214 29.07                             108    0.61 5  362 225 
 ANIL HE ES   1   2215  7.98                             108    0.36 5  362 225 
 ANIL HZ I        2215 14.90        41.7 0.26            108            362 225 
 PRA  HZ EP       2214 31.63                             106   -0.54 6  396 210 
 PRA  HE ES       2215 13.51                             106   -0.71 6  396 210 
 PRA  HZ I        2215 20.52        16.9 0.25            106            396 210 
 ORTC HZ EP       2214 32.27                             106   -0.32 6  400 216 
 ORTC HE ES       2215 14.52                             106   -0.44 6  400 216 
 ORTC HZ I        2215 23.60        19.6 0.78            106            400 216 
 SJC  HZ EP   4   2214 32.07                             105   -1.55 0  409 326 
 SJC  HE ES   4   2215 12.25                             105   -4.56 0  409 326 
 SJC  HZ I        2215 17.79         7.1 0.41            106            409 326 
                                                                                
