 2013  119 2134 53.7 L   6.790 -73.165140.7  RSN  7 0.4 1.8LRSN                1
 GAP=135        1.10       4.5     4.9  8.0  0.9972E+00  0.6977E+01  0.7165E+01E
 Epicentro: LOS SANTOS - SANTANDER                                             3
 ACTION:UPD 13-02-15 09:15 OP:ep   STATUS:               ID:20130119213453 L   I
 2013-01-19-2130-00M.COL___241                                                 6
 STAT SP IPHASW D HRMM SECON CODA AMPLIT PERI AZIMU VELO AIN AR TRES W  DIS CAZ7
 BAR2 SZ EP       2135 12.68                             171   -0.0110 21.9 185 
 BAR2 SZ ES       2135 27.26                             171   -0.2510 21.9 185 
 BAR2 SZ I        2135 28.56        13.2 0.24            168           21.9 185 
 BRR  HZ EP       2135 14.56                             152    0.3310 69.9 300 
 BRR  HN ES       2135 31.14                             152    0.9010 69.9 300 
 BRR  HN I        2135 32.30        15.5 0.16            149           69.9 300 
 PAM  SZ EP       2135 15.69                             149    0.1710 79.6  40 
 PAM  SN ES       2135 32.11                             149   -0.4310 79.6  40 
 PAM  SN I        2135 33.44        18.2 0.46            152           79.6  40 
 RUS  HN ES       2135 34.91                             143   -0.0610 99.6 175 
 RUS  HN I        2135 36.94         4.6 0.42            142           99.6 175 
 PTB  HN ES       2135 40.57                             131   -0.02 9  145 259 
 PTB  HN I        2135 45.85        12.8 0.20            129            145 259 
 ZAR  HN ES       2135 49.67                             121   -0.91 9  202 293 
 ZAR  HN I        2135 56.83         9.1 0.20            120            202 293 
 CHI  HZ EP       2135 31.12                             116    0.18 8  247 195 
 CHI  HN ES       2135 59.86                             116   -0.13 8  247 195 
 CHI  HN I        2136  6.04         3.2 0.54            116            247 195 
                                                                                
