 2010 1119 2022 32.8 L   6.815 -73.001139.5  RSN  4 0.2 1.6LRSN                1
 GAP=175        0.37       3.2     6.9  6.6 -0.1253E+01 -0.1362E+02 -0.2315E+01E
 Epicentro: CEPITA - SANTANDER                                                 3
 ACTION:UP  10-12-17 16:53 OP:REBC STATUS:               ID:20101119202232 L   I
 2010-11-19-2019-05S.COL___132                                                 6
 STAT SP IPHASW D HRMM SECON CODA AMPLIT PERI AZIMU VELO SNR AR TRES W  DIS CAZ7
 BAR2 SZ EP   2   2022 51.73                             166    -0.1 5   32 219 
 BAR2 SZ ES   2   2023  6.82                             166     0.1 5   32 219 
 BAR2 SZ I        2023  9.30         9.2 0.24                            32 219 
 BRR  HZ EP   2   2022 54.17                             147     0.1 5   85 292 
 BRR  HZ I        2023  0.15        26.2 0.24                            85 292 
 BRR  HN ES   2   2023 10.74                             147     0.0 5   85 292 
 RUS  HZ EP   2   2022 55.82                             142    -0.2 5  102 185 
 RUS  HN ES   2   2023 14.37                             142     0.2 5  102 185 
 RUS  HZ I        2023 15.89         3.2 0.50                           102 185 
 GRA  SZ EP   2   2022 57.34                             137     0.3 5  120  10 
 GRA  SZ ES   2   2023 15.73                             137    -0.2 5  120  10 
 GRA  SZ I        2023 20.14         5.6 0.28                           120  10 
                                                                                
