 2014 1219 2346 19.1 L   6.807 -73.167153.1  RSN  6 0.4 1.9LRSN                1
 GAP=134        1.03       4.4     5.4  6.9  0.3909E+00  0.6835E+01 -0.6737E+01E
 Epicentro: LOS SANTOS - SANTANDER                                             3
 ACTION:UPD 15-02-10 17:05 OP:nd   STATUS:               ID:20141219234619 L   I
 OLDACT:REG 14-12-20 04:43 OP:cam  STATUS:               ID:20141219233816     3
 2014-12-19-2338-16M.COL___302                                                 6
 STAT SP IPHASW D HRMM SECON CODA AMPLIT PERI AZIMU VELO AIN AR TRES W  DIS CAZ7
 BAR2 EZ ES       2346 55.65                             171    0.0010 23.8 184 
 BRR  HZ EP       2346 41.54                             154    0.6110 68.8 299 
 BRR  HN ES       2346 57.85                             154   -0.1010 68.8 299 
 BRR  HN I        2346 59.58        23.4 0.34            153           68.8 299 
 PAM  SZ EP       2346 42.41                             152    0.2410 78.3  41 
 PAM  SN ES       2347  0.08                             152   -0.0810 78.3  41 
 PAM  SZ I        2347  2.18        10.2 0.50            152           78.3  41 
 RUS  HZ EP       2346 43.70                             145    0.0410  102 175 
 RUS  HN ES       2347  2.54                             145   -0.2710  102 175 
 RUS  HZ I        2347  3.64         9.3 0.34            148            102 175 
 PTB  HZ EP       2346 46.82                             134    0.32 9  146 258 
 PTB  HN ES       2347  7.69                             134   -0.17 9  146 258 
 PTB  HZ I        2347  9.72         5.3 0.14            135            146 258 
 SML  HZ EP       2346 54.79                             119   -1.20 8  242 336 
 SML  HE ES       2347 25.05                             119    0.31 8  242 336 
 SML  HZ I        2347 30.10        10.6 0.10            119            242 336 
                                                                                
