 2017  219 2352 19.6 L   6.794 -73.140146.3  RSN 13 0.3 2.0LRSN                1
 GAP=100        0.65       2.5     2.3  4.1 -0.3819E-01  0.5418E+00  0.3450E+01E
 Epicentro: LOS SANTOS - SANTANDER                                             3
 ACTION:UPD 17-05-24 15:38 OP:jn   STATUS:               ID:20170219235219 L   I
 OLDACT:UP  17-02-20 04:36 OP:and  STATUS:               ID:20170219234744d    3
 OLDACT:UP  17-02-20 04:36 OP:and  STATUS:               ID:20170219234744d    3
 OLDACT:UP  17-02-20 04:34 OP:and  STATUS:               ID:20170219234744d    3
 OLDACT:UP  17-02-20 04:34 OP:and  STATUS:               ID:20170219234744d    3
 OLDACT:UP  17-02-20 04:34 OP:and  STATUS:               ID:20170219234744d    3
 OLDACT:UP  17-02-20 04:33 OP:and  STATUS:               ID:20170219234744d    3
 OLDACT:UP  17-02-20 04:33 OP:and  STATUS:               ID:20170219234744d    3
 OLDACT:DUP 17-02-20 04:31 OP:and  STATUS:               ID:20170219234744d    3
 OLDACT:UP  17-02-20 04:29 OP:and  STATUS:               ID:20170219234743     3
 OLDACT:REG 17-02-20 02:51 OP:and  STATUS:               ID:20170219234743     3
 2017-02-19-2348-00M.COL___352                                                 6
 STAT SP IPHASW D HRMM SECON CODA AMPLIT PERI AZIMU VELO AIN AR TRES W  DIS CAZ7
 BAR2 EZ EP   2   2352 39.22                             171   -0.05 5 22.7 192 
 BAR2 EZ ES   2   2352 54.79                             171    0.17 5 22.7 192 
 BAR2 EZ I        2352 56.87        31.8 0.26            168           22.7 192 
 BRR  HZ IP     D 2352 40.93                             152    0.0910 72.1 299 
 BRR  HN ES       2352 57.96                             152    0.5410 72.1 299 
 BRR  HZ I        2353  1.88        14.5 0.30            149           72.1 299 
 PAM  EZ IP     C 2352 41.82                             151   -0.0410 77.5  39 
 PAM  EN ES       2352 58.95                             151   -0.3010 77.5  39 
 PAM  EZ I        2353  2.09        10.4 0.39            155           77.5  39 
 RUS  HZ EP       2352 42.94                             144   -0.3910 99.8 176 
 RUS  HN ES       2353  1.56                             144   -0.3010 99.8 176 
 RUS  HZ I        2353  2.93        12.3 0.32            144           99.8 176 
 PTB  HZ EP   9   2352 45.79                             132   -0.84 0  148 259 
 PTB  HN ES       2353  6.71                             132   -0.18 9  148 259 
 PTB  HZ I        2353 13.59         7.6 0.24            130            148 259 
 TAM  HZ IP     C 2352 47.45                             131    0.22 9  154 105 
 TAM  HN ES       2353  9.06                             131    0.26 9  154 105 
 ZAR  HZ EP   4   2352 54.41                             122    2.27 0  205 292 
 ZAR  HN ES       2353 17.17                             122   -0.38 9  205 292 
 ZAR  HZ I        2353 22.18         9.0 0.38            122            205 292 
 NOR  HZ EP   2   2352 55.16                             118   -0.19 4  235 235 
 NOR  HN ES   2   2353 24.08                             118    0.83 4  235 235 
 NOR  HZ I        2353 28.56         5.3 0.22            118            235 235 
 CHI  HZ EP       2352 57.34                             117    0.09 8  248 195 
 CHI  HN ES       2353 26.58                             117   -0.06 8  248 195 
 CHI  HZ I        2353 32.52         3.9 0.40            117            248 195 
 ROSC BZ EP   4   2352 59.45                             117    1.75 0  252 211 
 ROSC BN ES   4   2353 30.60                             117    3.17 0  252 211 
 ROSC BZ I        2353 33.71        12.2 0.40            117            252 211 
 PTGC HZ EP   4   2353  2.24                             112   -1.12 0  308 159 
 PTGC HN ES   4   2353 35.40                             112   -2.11 0  308 159 
 DBB  EZ EP   2   2353  7.31                             109    0.16 3  340 274 
 PRA  HZ EP       2353 13.03                             107   -0.05 6  392 210 
 PRA  HN ES       2353 55.13                             107    0.32 6  392 210 
 PRA  HZ I        2354  1.27         6.5 0.42            107            392 210 
 SJC  HZ EP   4   2353 13.29                             106   -1.97 0  410 327 
 SJC  HN ES   4   2353 54.74                             106   -3.96 0  410 327 
 SJC  HZ I        2354  5.14         1.6 0.35            106            410 327 
                                                                                
