 2014  219 2317 41.1 L   6.786 -73.174138.1  RSN  6 0.4 1.7LRSN                1
 GAP=134        1.02       4.8     4.4  7.8  0.6546E+00  0.6964E+01 -0.4090E+00E
 Epicentro: LOS SANTOS - SANTANDER                                             3
 ACTION:UPD 14-03-10 08:11 OP:ep   STATUS:               ID:20140219231741 L   I
 OLDACT:REG 14-02-20 00:26 OP:mh   STATUS:               ID:20140219231000     3
 2014-02-19-2310-00M.COL___212                                                 6
 STAT SP IPHASW D HRMM SECON CODA AMPLIT PERI AZIMU VELO AIN AR TRES W  DIS CAZ7
 BRR  HZ EP       2318  1.60                             152    0.2510 69.2 301 
 BRR  HN ES       2318 17.14                             152    0.0310 69.2 301 
 BRR  HZ I        2318 24.77        10.6 0.34            151           69.2 301 
 PAM  SZ EP       2318  2.84                             148    0.0910 80.7  41 
 PAM  SN ES       2318 19.60                             148   -0.0110 80.7  41 
 PAM  SZ I        2318 21.82         5.4 0.52            155           80.7  41 
 RUS  HZ EP       2318  4.19                             143    0.1410 99.3 174 
 RUS  HN ES   1   2318 21.99                             143    0.08 7 99.3 174 
 RUS  HZ I        2318 24.22         4.5 0.14            148           99.3 174 
 PTB  HZ EP       2318  6.69                             131   -0.48 9  144 259 
 PTB  HN ES       2318 26.83                             131   -0.65 9  144 259 
 PTB  HZ I        2318 35.22         4.2 0.18            134            144 259 
 ZAR  HZ EP       2318 13.43                             121    0.58 9  202 293 
 ZAR  HN ES       2318 38.29                             121    0.70 9  202 293 
 ZAR  HZ I        2318 44.01         5.8 0.31            124            202 293 
 SML  HZ EP   1   2318 16.33                             116   -1.03 6  244 336 
 SML  HN ES   1   2318 45.30                             116   -0.32 6  244 336 
 SML  HZ I        2318 48.16         8.9 0.09            120            244 336 
                                                                                
