 2010  219 2225 17.9 L   6.822 -73.006139.3  RSN  4 0.2 2.0LRSN                1
 GAP=197        0.48       4.2     9.8  7.5  0.2359E+02 -0.4173E+02 -0.1428E+02E
 Epicentro: CEPITA - SANTANDER                                                 3
 ACTION:UP  10-08-24 09:49 OP:vdl  STATUS:               ID:20100219222517 L   I
 2010-02-19-2220-00S.COL___095                                                 6
 STAT SP IPHASW D HRMM SECON CODA AMPLIT PERI AZIMU VELO SNR AR TRES W  DIS CAZ7
 BAR2 SZ EP   1   2225 36.98                             167     0.0 7   32 218 
 BAR2 SZ ES   2   2225 51.30                             167    -0.5 5   32 218 
 BRR  HZ EP       2225 39.00                             147    -0.110   84 292 
 BRR  HZ I        2225 39.38        26.9 0.11                            84 292 
 BRR  HE ES   1   2225 55.83                             147     0.1 7   84 292 
 RUS  BZ EP   1   2225 41.11                             142    -0.1 7  103 185 
 RUS  BE ES   2   2225 59.84                             142     0.5 5  103 185 
 RUS  BZ I        2226  1.07        10.0 0.44                           103 185 
 OCA  SZ EP   1   2225 45.79                             128     0.1 7  160 348 
 OCA  SZ ES   2   2226  7.57                             128     0.2 5  160 348 
                                                                                
