 2012  619 2154 55.2 L   6.801 -73.168144.4  RSN  8 0.3 2.2LRSN                1
 GAP=134        0.66       3.7     3.8  5.8 -0.2501E+01  0.6681E+01 -0.5077E+00E
 Epicentro: LOS SANTOS - SANTANDER                                             3
 ACTION:UPD 12-08-06 17:51 OP:ep   STATUS:               ID:20120619215455 L   I
 2012-06-19-2153-47M.COL___182                                                 6
 STAT SP IPHASW D HRMM SECON CODA AMPLIT PERI AZIMU VELO AIN AR TRES W  DIS CAZ7
 BAR2 SZ EP   1   2155 14.92                             170    0.21 7 23.1 184 
 BAR2 SZ ES   1   2155 29.76                             170   -0.13 7 23.1 184 
 BAR2 SZ I        2155 31.03        47.9 0.17                          23.1 184 
 PAM  SZ EP   1   2155 17.67                             150    0.26 7 78.9  41 
 PAM  SN ES   1   2155 34.98                             150    0.28 7 78.9  41 
 RUS  HZ EP   1   2155 18.67                             143   -0.21 7  101 175 
 RUS  HN ES   1   2155 37.19                             143   -0.13 7  101 175 
 RUS  HZ I        2155 38.79        13.4 0.29                           101 175 
 PTB  HZ EP   1   2155 21.36                             132   -0.52 7  145 259 
 PTB  HN ES   1   2155 42.24                             132   -0.41 7  145 259 
 PTB  HZ I        2155 49.97        12.3 0.42                           145 259 
 OCA  HZ EP   1   2155 22.89                             129   -0.53 7  160 354 
 OCA  HZ I        2155 39.20        86.8 0.08                           160 354 
 ZAR  HN ES   1   2155 52.78                             122    0.37 6  202 292 
 ZAR  HZ I        2155 58.35        11.7 0.15                           202 292 
 NOR  SZ EP   1   2155 31.15                             118    0.47 6  233 234 
 NOR  SN ES   1   2155 58.78                             118    0.46 6  233 234 
 CHI  HZ EP   1   2155 32.95                             117    0.14 6  248 195 
 CHI  HZ I        2155 33.38         7.0 0.19                           248 195 
                                                                                
