 2011  619 2144 40.7 L   6.812 -73.073146.5  RSN  5 0.2 1.7LRSN                1
 GAP=205        0.47       5.2     8.7  4.3  0.2339E+02 -0.3244E+01  0.4129E+01E
 Epicentro: LOS SANTOS - SANTANDER                                             3
 ACTION:UP  11-07-14 19:06 OP:ep   STATUS:               ID:20110619214440 L   I
 2011-06-19-2141-27S.COL___140                                                 6
 STAT SP IPHASW D HRMM SECON CODA AMPLIT PERI AZIMU VELO SNR AR TRES W  DIS CAZ7
 BTL  SZ EP   1   2145  0.51                             170     0.1 7   25 299 
 BTL  SZ ES   1   2145 15.37                             170    -0.4 7   25 299 
 BAR2 SZ EP   1   2145  0.44                             169     0.0 7   27 207 
 BAR2 SZ ES   1   2145 15.96                             169     0.1 7   27 207 
 BAR2 SZ I        2145 16.52        12.0 0.30                            27 207 
 GIR2 SZ EP   1   2145  0.41                             167     0.0 7   32 336 
 GIR2 SZ ES       2145 16.04                             167     0.210   32 336 
 BRR  HZ EP   1   2145  2.07                             151    -0.2 7   78 295 
 BRR  HZ I        2145  2.26        21.1 0.13                            78 295 
 BRR  HN ES   1   2145 19.29                             151     0.2 7   78 295 
 RUS  HZ EP   1   2145  4.67                             144     0.1 7  102 181 
 RUS  HE ES   2   2145 23.17                             144     0.0 5  102 181 
 RUS  HZ I        2145 24.00         3.0 0.33                           102 181 
                                                                                
