 2010  119 2323 35.9 L   6.776 -72.945150.8  RSN  8 0.4 2.3LRSN                1
 GAP=228        0.63       5.7     9.2  7.0 -0.1328E+02  0.2333E+02  0.1095E+02E
 Epicentro: CEPITA - SANTANDER                                                 3
 ACTION:UP  10-08-24 09:44 OP:vdl  STATUS:               ID:20100119232335 L   I
 2010-01-19-2320-00S.COL___103                                                 6
 STAT SP IPHASW D HRMM SECON CODA AMPLIT PERI AZIMU VELO SNR AR TRES W  DIS CAZ7
 BAR2 SZ IP       2323 56.33                             167     0.010   33 232 
 BAR2 SZ ES   2   2324 11.90                             167    -0.4 5   33 232 
 GIR2 SZ EP   1   2323 56.46                             163    -0.1 7   43 321 
 GIR2 SZ ES   2   2324 12.72                             163     0.1 5   43 321 
 RUS  BZ EP   1   2324  0.18                             145     0.2 7   99 189 
 RUS  BN ES   2   2324 19.21                             145     0.4 5   99 189 
 RUS  BZ I        2324 20.23        13.7 0.24                            99 189 
 CHI  HZ EP   1   2324 14.24                             118    -0.1 6  253 200 
 CHI  HN ES   2   2324 43.92                             118    -0.4 4  253 200 
 CHI  HZ I        2324 49.62         8.5 0.37                           253 200 
 HEL  HZ EP   1   2324 18.45                             114    -0.2 5  293 257 
 HEL  HZ I        2324 56.82         9.4 0.33                           293 257 
 RREF BN ES   2   2325  1.83                             111     0.3 3  337 232 
 RREF BZ I        2325  7.87        14.5 0.39                           337 232 
 TOL  SZ EP   1   2324 26.69                             109     0.7 5  358 227 
 TOL  SZ ES   2   2325  5.79                             109     0.8 3  358 227 
 PRA  HZ EP   1   2324 30.14                             107    -0.5 4  401 213 
 PRA  HE ES   2   2325 12.04                             107    -1.3 3  401 213 
 PRA  HZ I        2325 18.07        11.4 0.33                           401 213 
                                                                                
