 2011  919 2226 34.5 L   6.770 -73.103148.8  RSN  6 0.1 1.9LRSN                1
 GAP=143        0.30       3.0     3.7  4.4 -0.2414E+01  0.4874E+00  0.2475E+01E
 Epicentro: LOS SANTOS - SANTANDER                                             3
 ACTION:UPD 12-07-13 15:58 OP:ep   STATUS:               ID:20110919222634 L   I
 2011-09-19-2225-37S.COL___165                                                 6
 STAT SP IPHASW D HRMM SECON CODA AMPLIT PERI AZIMU VELO AIN AR TRES W  DIS CAZ7
 BAR2 SZ EP   1   2226 54.39                             171   -0.10 7 21.5 204 
 BAR2 SZ ES   2   2227  9.89                             171   -0.17 5 21.5 204 
 BAR2 SZ I        2227 11.16        29.2 0.28                          21.5 204 
 BTL  SZ EP   2   2226 54.71                             170    0.15 5 24.5 312 
 BRR  HZ EP   2   2226 56.15                             151   -0.19 5 76.9 299 
 BRR  HZ I        2226 59.50        19.6 0.40                          76.9 299 
 BRR  HN ES   2   2227 13.37                             151    0.02 5 76.9 299 
 PAM  SZ EP   2   2226 57.25                             151    0.19 5 77.2  35 
 PAM  SE ES   2   2227 14.72                             151    0.08 5 77.2  35 
 RUS  HZ EP   1   2226 58.27                             145   -0.06 7 97.0 179 
 RUS  HZ I        2226 59.49         5.4 0.21                          97.0 179 
 RUS  HE ES   2   2227 17.06                             145    0.16 5 97.0 179 
 NOR  SN ES   2   2227 39.01                             119    0.20 4  237 236 
                                                                                
