 2014  519 2219 57.1 L   6.793 -73.131155.8  RSN 11 0.5 2.1LRSN                1
 GAP=139        1.10       3.3     4.6  6.5 -0.9868E+00  0.7028E+01  0.3971E+01E
 Epicentro: LOS SANTOS - SANTANDER                                             3
 ACTION:UPD 15-03-16 16:59 OP:nd   STATUS:               ID:20140519221957 L   I
 OLDACT:REG 14-05-20 05:52 OP:carl STATUS:               ID:20140519221818     3
 2014-05-19-2218-18M.COL___254                                                 6
 STAT SP IPHASW D HRMM SECON CODA AMPLIT PERI AZIMU VELO AIN AR TRES W  DIS CAZ7
 BRR  HZ EP       2220 19.96                             154    0.5310 73.0 298 
 BRR  HN ES       2220 37.58                             154    0.7310 73.0 298 
 PAM  SZ EP       2220 20.91                             153    0.5510 77.0  38 
 PAM  SN ES       2220 38.04                             153   -0.4710 77.0  38 
 PAM  SZ I        2220 40.16         7.2 0.22            155           77.0  38 
 RUS  HZ EP       2220 21.94                             146    0.1610 99.7 177 
 RUS  HN ES       2220 40.80                             146   -0.2410 99.7 177 
 RUS  HZ I        2220 41.65        13.2 0.30            146           99.7 177 
 PTB  HZ EP       2220 24.64                             134   -0.38 9  149 259 
 PTB  HN ES       2220 46.19                             134   -0.62 9  149 259 
 PTB  HZ I        2220 48.17        19.5 0.24            132            149 259 
 ZAR  HZ EP       2220 30.62                             124    0.22 8  206 292 
 ZAR  HN ES       2220 56.19                             124   -0.18 8  206 292 
 ZAR  HZ I        2221  2.19        22.6 0.30            123            206 292 
 NOR  HZ EP       2220 33.92                             120    0.40 8  236 235 
 NOR  HE ES       2221  2.28                             120    0.35 8  236 235 
 NOR  HZ I        2221  6.31        12.4 0.20            120            236 235 
 SML  HZ EP       2220 33.67                             119   -0.78 8  245 335 
 SML  HN ES       2221  3.41                             119   -0.18 8  245 335 
 SML  HZ I        2221 11.50        14.4 0.28            119            245 335 
 CHI  HZ EP       2220 34.52                             119   -0.81 8  248 196 
 CHI  HN ES       2221  5.25                             119    0.09 8  248 196 
 CHI  HZ I        2221 11.27         5.4 0.34            119            248 196 
 GUY2CHZ EP       2220 41.41                             114    0.13 7  302 235 
 GUY2CHN ES       2221 15.68                             114   -0.07 7  302 235 
 GUY2CHZ I        2221 23.89         6.1 0.56                           302 235 
 RREF HZ EP   4   2220 45.87                             113    2.10 0  322 230 
 RREF HN ES   4   2221 22.59                             113    2.41 0  322 230 
 RREF HZ I        2221 29.48         8.6 0.28            112            322 230 
 PRA  HZ EP       2220 51.81                             108    0.82 6  392 210 
 PRA  HN ES       2221 32.56                             108   -0.47 6  392 210 
 PRA  HZ I        2221 37.44         5.2 0.26            108            392 210 
                                                                                
