 2016  419 2056  7.0 L   6.769 -73.162139.9  RSN  4 0.5 1.6LRSN                1
 GAP=136        1.31       6.8     6.2 13.1 -0.1056E+01  0.3253E+02 -0.1054E+02E
 Epicentro: LOS SANTOS - SANTANDER                                             3
 ACTION:UPD 16-05-05 14:22 OP:rebc STATUS:               ID:20160419205607 L   I
 OLDACT:UP  16-04-20 06:53 OP:mh   STATUS:               ID:20160419204746d    3
 OLDACT:UP  16-04-20 06:53 OP:mh   STATUS:               ID:20160419204746d    3
 OLDACT:DUP 16-04-20 06:48 OP:mh   STATUS:               ID:20160419204746d    3
 2016-04-19-2047-45M.COL___307                                                 6
 STAT SP IPHASW D HRMM SECON CODA AMPLIT PERI AZIMU VELO AIN AR TRES W  DIS CAZ7
 PAM  EZ EP       2056 28.57                             148   -0.2210 81.2  39 
 PAM  EN ES       2056 45.67                             148   -0.1410 81.2  39 
 RUS  HZ EP       2056 30.11                             143    0.2210 97.3 175 
 RUS  HN ES       2056 48.22                             143    0.4410 97.3 175 
 RUS  HZ I        2056 49.31         4.7 0.10            147           97.3 175 
 PTB  HZ EP       2056 32.53                             131   -0.69 9  145 260 
 PTB  HN ES       2056 52.94                             131   -0.77 9  145 260 
 PTB  HZ I        2056 58.82         5.3 0.16            132            145 260 
 ZAR  HZ EP       2056 39.44                             121    0.46 9  204 293 
 ZAR  HE ES       2057  4.87                             121    0.91 9  204 293 
 ZAR  HZ I        2057  9.37         4.8 0.56            123            204 293 
                                                                                
