 2013  719 2350 52.6 L   6.771 -73.152140.0  RSN 15 0.4 2.5LRSN                1
 GAP=182        1.01       3.1     4.5  5.1  0.2414E+00  0.6964E+01  0.5492E+01E
 Epicentro: LOS SANTOS - SANTANDER                                             3
 ACTION:UPD 13-08-12 10:38 OP:ep   STATUS:               ID:20130719235052 L   I
 OLDACT:UP  13-07-25 11:38 OP:ep   STATUS:               ID:20130719235052 L   3
 OLDACT:DUP 13-07-20 01:06 OP:stll STATUS:               ID:20130719234851d    3
 2013-07-19-2348-50M.COL___231                                                 6
 STAT SP IPHASW D HRMM SECON CODA AMPLIT PERI AZIMU VELO AIN AR TRES W  DIS CAZ7
 BAR2 SZ EP       2351 11.36                             171   -0.1210 20.1 190 
 BAR2 SZ ES       2351 25.96                             171   -0.2410 20.1 190 
 BAR2 SZ I        2351 27.95        28.9 0.22            172           20.1 190 
 GIR2 SZ EP       2351 11.46                             166   -0.2310 34.3 352 
 GIR2 SZ ES       2351 26.74                             166    0.1710 34.3 352 
 BRR  HZ EP       2351 13.18                             151   -0.0210 72.2 301 
 BRR  HN ES       2351 30.07                             151    0.8210 72.2 301 
 BRR  HN I        2351 30.98       114.8 0.24            149           72.2 301 
 RUS  HZ EP       2351 15.41                             144   -0.1610 97.4 176 
 RUS  HN ES       2351 33.89                             144    0.4210 97.4 176 
 RUS  HN I        2351 35.75        21.6 0.70            145           97.4 176 
 PTB  HZ EP       2351 18.20                             131   -0.80 9  146 260 
 PTB  HE ES       2351 39.70                             131    0.13 9  146 260 
 PTB  HE I        2351 45.33        19.5 0.18            130            146 260 
 SPBC HZ EP       2351 20.17                             128   -0.22 9  160 220 
 SPBC HN ES       2351 41.99                             128   -0.07 9  160 220 
 SPBC HN I        2351 43.81        46.6 0.10            128            160 220 
 OCA  HZ EP   4   2351 22.05                             128    1.27 0  163 354 
 OCA  HN ES       2351 42.49                             128   -0.26 9  163 354 
 OCA  HN I        2351 50.20        51.4 0.24            127            163 354 
 ZAR  HE ES       2351 49.30                             121   -0.51 9  205 293 
 NOR  HZ EP       2351 27.74                             118   -0.01 8  232 235 
 NOR  HE ES       2351 54.94                             118   -0.22 8  232 235 
 NOR  HE I        2351 59.35        15.6 0.22            118            232 235 
 CHI  HZ EP       2351 29.80                             116    0.16 8  245 195 
 CHI  HE ES       2351 58.24                             116   -0.28 8  245 195 
 CHI  HE I        2352  0.94        16.7 0.34            117            245 195 
 SML  HN ES   4   2351 56.49                             116   -1.26 0  246 336 
 SML  HN I        2352  3.56        46.0 0.10            116            246 336 
 HEL  HZ EP       2351 33.46                             114    1.09 8  271 256 
 GUY2CHZ EP       2351 36.62                             112    0.94 7  299 235 
 GUY2CHN ES   4   2352 11.48                             112    2.20 0  299 235 
 PRA  HZ EP       2351 45.81                             106    0.24 6  389 210 
 PRA  HE ES       2352 26.69                             106   -0.19 6  389 210 
 PRA  HE I        2352 32.86        13.1 0.32            106            389 210 
 ORTC HZ EP       2351 46.12                             106    0.13 6  392 216 
 ORTC HN ES       2352 27.08                             106   -0.54 6  392 216 
 ORTC HN I        2352 31.78        11.3 0.30            106            392 216 
                                                                                
