 2016  119 2356  1.4 L   6.808 -73.180135.5  RSN 10 0.4 1.7LRSN                1
 GAP=132        1.04       4.0     4.5  6.4 -0.6122E+01  0.1053E+02 -0.4623E+00E
 Epicentro: ZAPATOCA - SANTANDER                                               3
 ACTION:UPD 16-03-09 23:27 OP:cam  STATUS:               ID:20160119235601 L   I
 OLDACT:UP  16-01-20 04:17 OP:drio STATUS:               ID:20160119234748     3
 OLDACT:UP  16-01-20 04:17 OP:drio STATUS:               ID:20160119234748     3
 OLDACT:UP  16-01-20 04:16 OP:drio STATUS:               ID:20160119234748     3
 OLDACT:REG 16-01-20 02:42 OP:drio STATUS:               ID:20160119234748     3
 2016-01-19-2347-48M.COL___328                                                 6
 STAT SP IPHASW D HRMM SECON CODA AMPLIT PERI AZIMU VELO AIN AR TRES W  DIS CAZ7
 BAR2 EZ EP       2356 20.01                             169    0.1710 23.9 181 
 BAR2 EZ ES       2356 33.26                             169   -0.9510 23.9 181 
 BAR2 EZ I        2356 35.84        12.7 0.32            170           23.9 181 
 PAM  EZ EP       2356 22.93                             148    0.2510 79.2  42 
 PAM  EN ES       2356 39.60                             148    0.3510 79.2  42 
 PAM  EZ I        2356 41.44         8.0 0.18            150           79.2  42 
 RUS  HZ EP       2356 24.72                             141    0.4410  102 174 
 RUS  HE ES       2356 42.11                             141   -0.0010  102 174 
 RUS  HZ I        2356 43.31         5.4 0.24            142            102 174 
 PTB  HZ EP       2356 26.80                             130   -0.45 9  144 258 
 PTB  HE ES       2356 47.72                             130    0.33 9  144 258 
 PTB  HZ I        2356 50.41         7.7 0.12            130            144 258 
 SPBC HZ EP       2356 29.31                             127    0.31 9  162 218 
 SPBC HE ES       2356 51.03                             127    0.52 9  162 218 
 SPBC HZ I        2356 54.36        10.0 0.30            127            162 218 
 SML  HZ EP       2356 36.72                             115   -0.51 8  241 336 
 SML  HN ES   4   2357  3.67                             115   -1.49 0  241 336 
 SML  HZ I        2357  8.97         9.8 0.10            116            241 336 
 CHI  HZ EP       2356 38.34                             115   -0.23 8  249 194 
 CHI  HE ES       2357  7.18                             115   -0.36 8  249 194 
 CHI  HZ I        2357 12.04         1.4 0.50            116            249 194 
 HEL  HZ EP   4   2356 42.47                             113    1.72 0  269 255 
 HEL  HN ES       2357 11.69                             113    0.27 8  269 255 
 GUY2CHZ EP   4   2356 46.65                             110    2.36 0  299 234 
 GUY2CHE ES       2357 17.32                             110   -0.40 7  299 234 
 GUY2CHZ I        2357 25.44         3.0 0.24                           299 234 
 PRA  HZ EP       2356 54.23                             105   -0.26 6  391 209 
 PRA  HE ES   4   2357 37.12                             105    1.24 0  391 209 
 PRA  HZ I        2357 40.27         1.7 0.22            105            391 209 
                                                                                
