 2016  619 2302 21.5 L   6.774 -73.129145.0  RSN 11 0.4 1.9LRSN                1
 GAP=122        0.99       3.0     3.9  5.3 -0.2785E+01  0.3787E+01  0.3276E+01E
 Epicentro: LOS SANTOS - SANTANDER                                             3
 ACTION:UPD 16-07-21 22:20 OP:rebc STATUS:               ID:20160619230221 L   I
 OLDACT:UP  16-06-20 06:27 OP:edw  STATUS:               ID:20160619225742     3
 OLDACT:REG 16-06-20 02:51 OP:edw  STATUS:               ID:20160619225742     3
 2016-06-19-2257-42M.COL___352                                                 6
 STAT SP IPHASW D HRMM SECON CODA AMPLIT PERI AZIMU VELO AIN AR TRES W  DIS CAZ7
 BAR2 EZ EP       23 2 41.17                             171    0.1610 21.0 196 
 BAR2 EZ ES       23 2 56.52                             171    0.3110 21.0 196 
 BAR2 EZ I        23 2 57.60        15.7 0.24                          21.0 196 
 BRR  HZ EP       23 2 42.93                             151    0.1810 74.2 300 
 BRR  HE ES       23 2 59.85                             151    0.5310 74.2 300 
 PAM  EZ EP       23 2 44.04                             150    0.3310 78.5  37 
 PAM  EN ES       23 3  1.17                             150    0.1410 78.5  37 
 PAM  EZ I        23 3  3.25        13.7 0.50                          78.5  37 
 RUS  HZ EP       23 2 45.17                             144    0.1910 97.6 177 
 RUS  HN ES       23 3  2.85                             144   -0.4310 97.6 177 
 RUS  HZ I        23 3  4.92        10.3 0.36                          97.6 177 
 PTB  HZ EP       23 2 47.88                             132   -0.66 9  149 260 
 PTB  HN ES       23 3  8.80                             132   -0.81 9  149 260 
 PTB  HZ I        23 3 15.78         7.9 0.42                           149 260 
 SPBC HZ EP       23 2 49.82                             129   -0.04 9  162 220 
 SPBC HN ES       23 3 11.71                             129   -0.26 9  162 220 
 OCA  HZ EP       23 2 49.89                             129   -0.16 9  163 353 
 OCA  HN ES       23 3 11.74                             129   -0.57 9  163 353 
 OCA  HZ I        23 3 14.88        17.8 0.20                           163 353 
 ZAR  HZ EP   4   23 2 59.35                             122    5.15 0  207 293 
 ZAR  HN ES   4   23 3 19.81                             122    0.12 0  207 293 
 NOR  HZ EP       23 2 57.30                             118    0.11 8  235 235 
 NOR  HE ES       23 3 25.57                             118    0.56 8  235 235 
 NOR  HZ I        23 3 30.62         5.4 0.18                           235 235 
 ROSC BZ EP   4   23 3  1.72                             117    2.29 0  251 212 
 ROSC BN ES   4   23 3 33.59                             117    4.58 0  251 212 
 GUY2CHZ EP       23 3  5.63                             112    0.55 7  301 235 
 GUY2CHE ES       23 3 39.28                             112    0.23 7  301 235 
 GUY2CHZ I        23 3 46.25         3.6 0.34                           301 235 
 PTGC HZ EP   4   23 3  4.47                             112   -0.49 0  305 159 
 PTGC HN ES       23 3 38.26                             112   -0.59 7  305 159 
 PRA  HZ EP       23 3 14.85                             106    0.02 6  390 210 
 PRA  HE ES       23 3 56.90                             106    0.49 6  390 210 
 PRA  HZ I        23 4  1.12         4.1 0.26                           390 210 
                                                                                
