 2015  319 2337 23.0 L   6.758 -73.184151.1  RSN  4 0.2 1.3LRSN                1
 GAP=230        0.54       5.3     5.8  5.4  0.1622E+02  0.3672E+01  0.2650E+01E
 Epicentro: LOS SANTOS - SANTANDER                                             3
 ACTION:UPD 15-04-30 16:27 OP:nd   STATUS:               ID:20150319233723 L   I
 OLDACT:DUP 15-03-20 08:28 OP:spq  STATUS:               ID:20150319232748d    3
 2015-03-19-2327-46M.COL___278                                                 6
 STAT SP IPHASW D HRMM SECON CODA AMPLIT PERI AZIMU VELO AIN AR TRES W  DIS CAZ7
 BAR2 EZ ES   1   2337 58.59                             173   -0.29 7 18.3 179 
 BAR2 EZ I        2337 58.99         4.0 0.20            172           18.3 179 
 BRR  HZ EP       2337 44.67                             154    0.0510 70.0 304 
 BRR  HN ES       2338  1.61                             154    0.1010 70.0 304 
 BRR  HZ I        2338  3.26         5.4 0.40            153           70.0 304 
 RUS  HZ EP   1   2337 47.24                             146    0.30 7 96.3 173 
 RUS  HN ES   1   2338  5.65                             146    0.01 7 96.3 173 
 RUS  HZ I        2338  6.58         1.6 0.20            147           96.3 173 
 PTB  HZ EP   1   2337 49.44                             134   -0.48 7  143 260 
 PTB  HN ES   1   2338 11.10                             134    0.15 7  143 260 
 PTB  HZ I        2338 12.33         2.3 0.54            134            143 260 
                                                                                
