 2014 1019 2145 51.8 L   6.691 -73.186138.8  RSN  4 0.5 1.2LRSN                1
 GAP=224        1.19       9.3     9.6 11.4  0.4840E+02  0.1202E+02  0.8111E+01E
 Epicentro: VILLANUEVA - SANTANDER                                             3
 ACTION:UPD 14-11-29 23:51 OP:nd   STATUS:               ID:20141019214551 L   I
 OLDACT:DUP 14-10-20 07:09 OP:stll STATUS:               ID:20141019213746d    3
 2014-10-19-2137-45M.COL___267                                                 6
 STAT SP IPHASW D HRMM SECON CODA AMPLIT PERI AZIMU VELO AIN AR TRES W  DIS CAZ7
 BAR2 SZ ES       2146 24.50                             175   -0.3710 11.0 178 
 BAR2 SZ I        2146 30.53         3.9 0.38            175           11.0 178 
 BRR  HZ EP       2146 11.71                             150   -0.6310 74.1 308 
 BRR  HN ES       2146 29.03                             150    0.6510 74.1 308 
 RUS  HZ EP       2146 14.56                             146    0.5510 89.1 173 
 RUS  HN ES       2146 31.29                             146   -0.0710 89.1 173 
 RUS  HZ I        2146 33.65         2.0 0.24            149           89.1 173 
 PTB  HN ES       2146 37.59                             132   -0.15 9  141 263 
 PTB  HZ I        2146 40.34         2.3 0.12            136            141 263 
                                                                                
