 2011 1119 2335 51.0 L   6.782 -73.110142.0  RSN  7 0.3 2.2LRSN                1
 GAP=142        0.65       3.5     4.0  4.8  0.1409E+01  0.2484E+01 -0.2408E+01E
 Epicentro: LOS SANTOS - SANTANDER                                             3
 ACTION:UPD 12-07-13 16:11 OP:ep   STATUS:               ID:20111119233551 L   I
 2011-11-19-2331-46S.COL___178                                                 6
 STAT SP IPHASW D HRMM SECON CODA AMPLIT PERI AZIMU VELO AIN AR TRES W  DIS CAZ7
 BAR2 SZ EP       2336 10.14                             171    0.0010 22.5 201 
 BAR2 SZ ES   1   2336 24.62                             171   -0.46 7 22.5 201 
 BAR2 SZ I        2336 25.99        28.5 0.33                          22.5 201 
 BRR  HZ EP       2336 12.00                             150    0.0210 75.6 298 
 BRR  HZ I        2336 14.24        30.7 0.11                          75.6 298 
 BRR  HN ES       2336 28.75                             150    0.3810 75.6 298 
 PAM  SZ EP       2336 13.04                             150    0.3010 76.5  36 
 PAM  SE ES   1   2336 29.90                             150    0.18 7 76.5  36 
 RUS  HZ EP   1   2336 14.19                             144   -0.02 7 98.4 178 
 RUS  HE ES   1   2336 32.16                             144   -0.16 7 98.4 178 
 OCA  SZ EP       2336 18.89                             128   -0.35 9  163 352 
 OCA  SZ ES   2   2336 40.59                             128   -0.69 5  163 352 
 OCA  SZ I        2336 45.48        17.8 0.33                           163 352 
 ZAR  HZ EP   1   2336 24.06                             121    0.42 6  208 292 
 ZAR  HN ES   1   2336 48.86                             121   -0.26 6  208 292 
 ZAR  HZ I        2336 54.09        14.9 0.34                           208 292 
 HEL  HZ EP   1   2336 31.17                             114   -0.21 6  275 256 
                                                                                
