 2016  519 2058 33.3 L   6.788 -73.162146.0  RSN  7 0.4 2.2LRSN                1
 GAP=135        1.01       4.5     4.2  6.4 -0.8269E+00  0.8557E+01  0.1563E+01E
 Epicentro: LOS SANTOS - SANTANDER                                             3
 ACTION:UPD 16-08-18 17:47 OP:cam  STATUS:               ID:20160519205833 L   I
 OLDACT:UP  16-05-20 06:42 OP:edw  STATUS:               ID:20160519205744     3
 OLDACT:REG 16-05-20 06:36 OP:edw  STATUS:               ID:20160519205744     3
 2016-05-19-2057-44M.COL___313                                                 6
 STAT SP IPHASW D HRMM SECON CODA AMPLIT PERI AZIMU VELO AIN AR TRES W  DIS CAZ7
 BAR2 EZ EP       2058 52.89                             171    0.0110 21.7 186 
 BAR2 EZ ES       2059  7.62                             171   -0.5710 21.7 186 
 BAR2 EZ I        2059 10.65        42.5 0.26            170           21.7 186 
 BRR  HZ EP       2058 54.82                             153    0.4410 70.3 300 
 BRR  HE ES       2059 11.56                             153    0.7010 70.3 300 
 BRR  HZ I        2059 17.65        24.9 0.32            151           70.3 300 
 PAM  EZ EP       2058 55.64                             150    0.0110 79.6  40 
 PAM  EE ES       2059 13.19                             150    0.1110 79.6  40 
 RUS  HZ EP       2058 56.76                             144   -0.1810 99.3 175 
 RUS  HN ES       2059 15.42                             144    0.0010 99.3 175 
 RUS  HZ I        2059 16.74        20.5 0.30            148           99.3 175 
 PTB  HZ EP       2058 59.63                             132   -0.43 9  146 259 
 PTB  HE ES       2059 20.73                             132   -0.24 9  146 259 
 PTB  HZ I        2059 25.74        13.1 0.12            133            146 259 
 ZAR  HZ EP       2059  5.36                             123   -0.24 9  203 293 
 ZAR  HE ES       2059 30.23                             123   -0.60 9  203 293 
 ZAR  HZ I        2059 36.04        11.5 0.26            124            203 293 
 NOR  HZ EP       2059  9.24                             119    0.48 8  232 234 
 NOR  HE ES       2059 37.01                             119    0.56 8  232 234 
 NOR  HZ I        2059 42.47        14.6 0.18            121            232 234 
                                                                                
