 2010  319 2225 31.0 L   6.828 -72.958140.0  RSN  7 0.7 1.8LRSN                1
 GAP=139        1.46       7.6    12.3 12.9  0.4097E+01 -0.3285E+02  0.1164E+02E
 Epicentro: CEPITA - SANTANDER                                                 3
 ACTION:UP  10-08-24 09:54 OP:vdl  STATUS:               ID:20100319222531 L   I
 2010-03-19-2223-37S.COL___098                                                 6
 STAT SP IPHASW D HRMM SECON CODA AMPLIT PERI AZIMU VELO SNR AR TRES W  DIS CAZ7
 BAR2 SZ EP   1   2225 49.96                             165    -0.3 7   36 224 
 BAR2 SZ ES   2   2226  3.77                             165    -1.6 5   36 224 
 BRR  HZ EP       2225 51.88                             146    -0.810   89 290 
 BRR  HN ES       2226 10.36                             146     0.810   89 290 
 BRR  HZ I        2226 12.48        25.8 0.19                            89 290 
 RUS  HZ EP   1   2225 54.67                             141     0.2 7  104 188 
 RUS  HN ES       2226 13.37                             141     0.610  104 188 
 RUS  HZ I        2226 14.68         4.2 0.07                           104 188 
 CHI  HZ EP   1   2226  9.71                             115     0.3 6  258 199 
 CHI  HE ES   1   2226 39.18                             115    -0.2 6  258 199 
 CHI  HZ I        2226 44.78         3.7 0.39                           258 199 
 RREF BN ES   1   2226 56.35                             109    -0.1 5  340 231 
 RREF BZ I        2227  3.15         4.1 1.20                           340 231 
 SDV  BZ EP   1   2226 19.07                             108     0.3 5  343  48 
 PRA  HN ES   1   2227  8.07                             105    -0.7 4  405 212 
                                                                                
