 2012  419 2028 59.6 L   6.686 -73.519113.2  RSN  6 0.4 1.5LRSN                1
 GAP=110        1.00       6.1     5.8 10.4  0.1023E+02  0.1574E+02  0.5629E+01E
 Epicentro: EL CARMEN DE CHUCURI - SANTANDER                                   3
 ACTION:UPD 12-07-05 11:54 OP:tino STATUS:               ID:20120419202859 L   I
 2012-04-19-2026-59S.COL___195                                                 6
 STAT SP IPHASW D HRMM SECON CODA AMPLIT PERI AZIMU VELO AIN AR TRES W  DIS CAZ7
 BAR2 SZ EP   1   2029 16.25                             160     0.4 7   39 106 
 BAR2 SZ ES   1   2029 28.37                             160    -0.1 7   39 106 
 BAR2 SZ I        2029 29.31        25.7 0.17                            39 106 
 BRR  HZ EP   1   2029 16.06                             154     0.0 7   51 335 
 BRR  HN ES   1   2029 29.04                             154     0.1 7   51 335 
 RUS  HZ EP   1   2029 20.40                             136     0.2 7  100 151 
 RUS  HN ES   1   2029 36.51                             136     0.1 7  100 151 
 RUS  HZ I        2029 38.14         3.6 0.38                           100 151 
 PTB  HZ EP   1   2029 19.01                             134    -1.0 7  105 261 
 PTB  HZ I        2029 37.41         3.3 0.14                           105 261 
 PAM  SZ EP   1   2029 21.97                             131     0.3 7  116  51 
 PAM  SN ES   1   2029 38.35                             131    -0.5 7  116  51 
 ZAR  HN ES   1   2029 48.36                             119     0.5 7  173 301 
 ZAR  HZ I        2029 51.65         4.1 0.26                           173 301 
                                                                                
