 2016  119 2046  1.4 L   7.193 -73.656 10.3  RSN  9 0.4 2.1LRSN                1
 GAP= 63        1.07       2.0     2.0  5.6 -0.5717E-01  0.4013E+01  0.1825E+01E
 Epicentro: BARRANCABERMEJA - SANTANDER                                        3
 ACTION:UPD 16-03-09 23:26 OP:cam  STATUS:               ID:20160119204601 L   I
 OLDACT:UP  16-01-20 03:00 OP:drio STATUS:               ID:20160119203746     3
 OLDACT:UP  16-01-20 03:00 OP:drio STATUS:               ID:20160119203746     3
 OLDACT:REG 16-01-20 02:36 OP:drio STATUS:               ID:20160119203746     3
 2016-01-19-2037-46M.COL___322                                                 6
 STAT SP IPHASW D HRMM SECON CODA AMPLIT PERI AZIMU VELO AIN AR TRES W  DIS CAZ7
 BAR2 EZ EP       2046 15.67                              95    0.5810 84.6 142 
 BAR2 EZ ES       2046 25.36                              95   -0.4110 84.6 142 
 BAR2 EZ I        2046 29.25        41.7 0.26             47           84.6 142 
 PAM  EZ IP     D 2046 18.95                              94    0.2410  107  81 
 PAM  EE ES       2046 31.80                              94   -0.4210  107  81 
 PAM  EZ I        2046 34.92        26.9 0.14             47            107  81 
 PTB  HZ EP       2046 19.47                              93    0.1410  114 231 
 PTB  HN ES       2046 33.01                              93   -0.3210  114 231 
 PTB  HZ I        2046 34.15        85.5 0.20             47            114 231 
 OCA  HZ EP       2046 20.72                              93    0.1510  121  18 
 OCA  HN ES       2046 35.07                              93   -0.4610  121  18 
 OCA  HZ I        2046 39.48        69.3 0.44             47            121  18 
 ZAR  HZ EP       2046 22.87                              93    0.13 9  137 284 
 ZAR  HE ES       2046 39.12                              93   -0.27 9  137 284 
 ZAR  HZ I        2046 40.24        38.0 0.24             47            137 284 
 RUS  HZ EP       2046 26.82                              92    0.50 9  157 156 
 RUS  HE ES       2046 45.52                              92   -0.25 9  157 156 
 RUS  HZ I        2046 47.80        23.9 0.18             47            157 156 
 SML  HZ EP       2046 29.29                              56    0.24 9  184 346 
 SML  HE ES   4   2046 48.03                              56   -2.59 0  184 346 
 SML  HZ I        2046 54.33        40.7 0.10             37            184 346 
 NOR  HZ EP       2046 34.94                              56    0.69 8  225 217 
 NOR  HE ES       2046 59.12                              56   -0.77 8  225 217 
 NOR  HZ I        2047  2.46         7.0 0.18             37            225 217 
 GUY2CHZ EP       2046 43.53                              55    0.81 7  288 221 
 GUY2CHN ES       2047 14.62                              55   -0.34 7  288 221 
 GUY2CHZ I        2047 26.15         3.1 0.52                           288 221 
                                                                                
