 2011 1119 2325  1.8 L   6.772 -73.045144.0  RSN  4 0.2 1.6LRSN                1
 GAP=151        0.50       4.4     4.6  6.5 -0.2074E-01 -0.4398E+01  0.1004E+02E
 Epicentro: LOS SANTOS - SANTANDER                                             3
 ACTION:UPD 12-07-13 16:11 OP:ep   STATUS:               ID:20111119232501 L   I
 2011-11-19-2320-56S.COL___178                                                 6
 STAT SP IPHASW D HRMM SECON CODA AMPLIT PERI AZIMU VELO AIN AR TRES W  DIS CAZ7
 BAR2 SZ EP   2   2325 21.02                             170   -0.23 5 25.0 217 
 BAR2 SZ I        2325 40.49         5.9 0.41                          25.0 217 
 PAM  SZ EP   1   2325 23.92                             152    0.33 7 73.4  31 
 PAM  SN ES   1   2325 40.43                             152   -0.16 7 73.4  31 
 BRR  HZ EP       2325 23.18                             149   -0.2510 82.5 297 
 BRR  HE ES       2325 40.47                             149    0.1610 82.5 297 
 BRR  HE I        2325 41.86        29.1 0.06                          82.5 297 
 RUS  HZ EP   1   2325 25.28                             144    0.14 7 97.3 182 
 RUS  HZ I        2325 26.64         2.0 0.37                          97.3 182 
 RUS  HN ES   2   2325 43.26                             144   -0.09 5 97.3 182 
                                                                                
