 2010 1019 2233 27.9 L   6.676 -73.302149.2  RSN  4 0.4 1.6LRSN                1
 GAP=152        0.97      13.7    28.6 12.4  0.3136E+03  0.1101E+01 -0.6274E+01E
 Epicentro: GALAN - SANTANDER                                                  3
 ACTION:UP  11-02-18 11:10 OP:tino STATUS:               ID:20101019223327 L   I
 2010-10-19-2231-02S.COL___126                                                 6
 STAT SP IPHASW D HRMM SECON CODA AMPLIT PERI AZIMU VELO SNR AR TRES W  DIS CAZ7
 BAR2 SZ EP       2233 47.24                             173    -0.610   16 125 
 BAR2 SZ ES   3   2234  2.86                             173    -0.5 2   16 125 
 BAR2 SZ I        2234  3.94        12.1 0.21                            16 125 
 BTL  SZ EP       2233 48.70                             169     0.610   27   8 
 BTL  SZ ES   2   2234  3.72                             169     0.0 5   27   8 
 BRR  HZ EP       2233 49.05                             155    -0.110   66 316 
 BRR  HE ES   2   2234  5.86                             155     0.1 5   66 316 
 RUS  HZ EP       2233 51.32                             148     0.010   90 164 
 RUS  HN ES   1   2234  9.75                             148     0.2 7   90 164 
 RUS  HZ I        2234 11.14         4.1 0.35                            90 164 
                                                                                
