 2012  419 2243 12.8 L   6.305 -73.609114.4  RSN  5 0.3 1.4LRSN                1
 GAP=158        0.76       7.1     5.3  9.0  0.1938E+02  0.1904E+02  0.6087E+01E
 Epicentro: SANTA HELENA DEL OPON - SANTANDER                                  3
 ACTION:UPD 12-07-05 11:54 OP:tino STATUS:               ID:20120419224312 L   I
 2012-04-19-2240-00M.COL___187                                                 6
 STAT SP IPHASW D HRMM SECON CODA AMPLIT PERI AZIMU VELO AIN AR TRES W  DIS CAZ7
 BAR2 SZ EP   1   2243 30.35                             152     0.3 7   57  56 
 BAR2 SZ I        2243 30.66        11.3 0.36                            57  56 
 BAR2 SZ ES   1   2243 43.49                             152    -0.1 7   57  56 
 RUS  HZ EP   1   2243 31.92                             145     0.4 7   74 128 
 RUS  HN ES   1   2243 45.85                             145    -0.3 7   74 128 
 RUS  HZ I        2243 47.52         4.3 0.26                            74 128 
 BRR  HN ES   2   2243 46.94                             139    -0.1 5   89 353 
 PTB  HZ EP   1   2243 32.06                             136    -0.6 7   97 286 
 PTB  HN ES   1   2243 48.61                             136     0.4 7   97 286 
 PTB  HZ I        2243 49.42         6.2 0.33                            97 286 
 ZAR  HZ EP   1   2243 42.02                             116     0.1 7  191 314 
 ZAR  HN ES   2   2244  4.33                             116    -0.3 4  191 314 
                                                                                
