 2010  419 2254 49.5 L   6.803 -73.095144.7  RSN 11 0.5 2.8LRSN                1
 GAP=205        0.95       4.2     8.6  6.7 -0.1124E+02  0.2136E+02  0.3396E+01E
 Epicentro: LOS SANTOS - SANTANDER                                             3
 ACTION:UPD 10-08-24 10:00 OP:vdl  STATUS:               ID:20100419225456 L   I
 2010-04-19-2253-16S.COL___100                                                 6
 STAT SP IPHASW D HRMM SECON CODA AMPLIT PERI AZIMU VELO AIN AR TRES W  DIS CAZ7
 BAR2 SZ IP       2255  8.90                             169    -0.110   25 203 
 BAR2 SZ ES       2255 24.01                             169    -0.310   25 203 
 BRR  HZ IP     D 2255 11.25                             151     0.510   76 296 
 BRR  HN ES   2   2255 27.50                             151     0.1 5   76 296 
 BRR  HZ I        2255 31.04        82.9 0.15                            76 296 
 OCA  SZ EP       2255 17.47                             130    -0.3 9  161 351 
 OCA  SZ ES   1   2255 40.30                             130     0.5 7  161 351 
 OCA  SZ I        2255 44.22       102.2 0.13                           161 351 
 CHI  HZ EP       2255 26.85                             117    -0.5 8  250 196 
 CHI  HE ES   2   2255 57.63                             117     0.8 4  250 196 
 CHI  HZ I        2256  4.64        26.6 0.44                           250 196 
 ROSC BZ EP       2255 28.55                             116     0.7 8  256 212 
 ROSC BN ES   1   2255 57.80                             116    -0.1 6  256 212 
 ROSC BZ I        2256  2.47        22.6 0.50                           256 212 
 HEL  HZ EP       2255 30.32                             114     0.1 7  278 256 
 HEL  HN ES   2   2256  1.20                             114    -0.8 4  278 256 
 HEL  HZ I        2256  7.22        29.4 0.32                           278 256 
 RREF BZ EP   1   2255 36.21                             111     0.1 5  326 230 
 RREF BE ES   1   2256 13.06                             111     0.6 5  326 230 
 RREF BZ I        2256 20.59        42.0 0.31                           326 230 
 DBB  SZ EP       2255 36.73                             109    -0.8 7  345 274 
 TOL  SZ EP   2   2255 39.00                             109     0.8 3  348 225 
 ANIL BZ EP   2   2255 40.26                             108     0.5 3  362 225 
 ANIL BN ES   2   2256 19.29                             108     0.4 3  362 225 
 PRA  HZ EP       2255 42.56                             106    -0.8 6  395 210 
 PRA  HN ES   1   2256 25.53                             106     0.2 4  395 210 
 PRA  HZ I        2256 30.01        27.3 0.28                           395 210 
                                                                                
