 2010  919 2113  7.4 L   6.752 -73.094142.5  RSN  7 0.3 1.5LRSN                1
 GAP=165        0.67       6.2    12.8 11.4  0.2109E+02 -0.7301E+02 -0.3308E+02E
 Epicentro: LOS SANTOS - SANTANDER                                             3
 ACTION:UP  11-02-18 11:04 OP:tino STATUS:               ID:20100919211307 L   I
 2010-09-19-2108-32S.COL___121                                                 6
 STAT SP IPHASW D HRMM SECON CODA AMPLIT PERI AZIMU VELO SNR AR TRES W  DIS CAZ7
 BAR2 SZ EP   1   2113 26.38                             172    -0.2 7   20 209 
 BAR2 SZ ES   2   2113 41.20                             172    -0.3 5   20 209 
 BAR2 SZ I        2113 42.83         6.8 0.41                            20 209 
 BTL  SZ EP   1   2113 27.15                             169     0.4 7   27 314 
 GIR2 SZ EP   1   2113 26.55                             164    -0.3 7   38 343 
 BRR  HZ EP   1   2113 28.50                             149    -0.2 7   79 300 
 BRR  HZ I        2113 28.71        12.9 0.07                            79 300 
 BRR  HE ES   2   2113 45.41                             149     0.2 5   79 300 
 RUS  HZ EP   1   2113 30.38                             145    -0.1 7   95 179 
 RUS  HN ES   2   2113 48.80                             145     0.4 5   95 179 
 RUS  HZ I        2113 49.94         2.0 0.40                            95 179 
 GUE  SZ EP   1   2113 32.65                             138     0.5 7  121   9 
 GRA  SZ EP   1   2113 32.40                             135    -0.3 7  129  14 
                                                                                
