 2010  919 2128 51.2 L   6.806 -73.124139.8  RSN 11 0.5 2.9LRSN                1
 GAP=161        0.93       5.2     8.8  8.3 -0.1867E+02  0.1373E+02 -0.7712E-01E
 Epicentro: LOS SANTOS - SANTANDER                                             3
 ACTION:UP  11-02-18 11:04 OP:tino STATUS:               ID:20100919212851 L   I
 2010-09-19-2126-46S.COL___121                                                 6
 STAT SP IPHASW D HRMM SECON CODA AMPLIT PERI AZIMU VELO SNR AR TRES W  DIS CAZ7
 BTL  SZ EP   1   2129 10.26                             171     0.2 7   20 308 
 BAR2 SZ EP   1   2129 10.19                             170     0.0 7   25 196 
 BAR2 SZ ES   2   2129 24.89                             170     0.0 5   25 196 
 BAR2 SZ I        2129 27.71       256.2 0.35                            25 196 
 GIR2 SZ EP   1   2129 10.15                             167     0.0 7   31 346 
 GIR2 SZ ES   2   2129 24.82                             167    -0.1 5   31 346 
 BRR  HZ IP     D 2129 11.91                             151     0.110   73 297 
 BRR  HZ I        2129 12.09       244.3 0.15                            73 297 
 BRR  HE ES   2   2129 28.80                             151     0.9 5   73 297 
 RUS  HZ EP   1   2129 14.14                             142    -0.3 7  101 177 
 RUS  HN ES   2   2129 32.34                             142    -0.2 5  101 177 
 RUS  HZ I        2129 34.24        91.4 0.24                           101 177 
 GUE  SZ EP   1   2129 15.98                             138     0.7 7  115  11 
 GRA  SZ IP     D 2129 15.90                             136     0.110  124  16 
 GRA  SZ I        2129 17.25        98.1 0.62                           124  16 
 GRA  SZ ES   2   2129 34.22                             136    -0.8 5  124  16 
 OCA  SZ EP   1   2129 18.44                             128    -0.6 7  160 352 
 OCA  SZ ES   2   2129 40.35                             128    -0.4 5  160 352 
 OCA  SZ I        2129 45.29       132.6 0.27                           160 352 
 NOR  HZ EP   1   2129 26.07                             117    -0.8 6  237 235 
 NOR  HE ES   2   2129 53.98                             117    -0.7 4  237 235 
 ROSC BZ EP   1   2129 30.13                             115     0.9 6  255 211 
 ROSC BZ I        2130  6.73        60.2 0.60                           255 211 
 HEL  HZ EP   1   2129 31.56                             113     0.1 6  275 256 
 HEL  HZ I        2130 10.21        43.8 0.30                           275 256 
                                                                                
