 2012  419 2246 40.4 L   6.771 -73.151136.9  RSN  6 0.2 1.4LRSN                1
 GAP=137        0.59       4.1     4.1  6.9 -0.2224E+01  0.6506E+01 -0.4274E+01E
 Epicentro: LOS SANTOS - SANTANDER                                             3
 ACTION:UPD 12-07-05 11:54 OP:tino STATUS:               ID:20120419224640 L   I
 2012-04-19-2240-00M.COL___187                                                 6
 STAT SP IPHASW D HRMM SECON CODA AMPLIT PERI AZIMU VELO AIN AR TRES W  DIS CAZ7
 BAR2 SZ EP   1   2246 58.86                             171     0.0 7   20 190 
 BAR2 SZ I        2246 59.05         8.1 0.21                            20 190 
 BAR2 SZ ES   1   2247 13.38                             171     0.0 7   20 190 
 BRR  HZ EP   1   2247  1.06                             150     0.4 7   72 301 
 BRR  HZ I        2247  2.43         9.7 0.35                            72 301 
 PAM  SZ EP   1   2247  1.91                             148     0.0 7   80  38 
 PAM  SN ES   1   2247 18.43                             148    -0.2 7   80  38 
 RUS  HZ EP   1   2247  2.75                             143    -0.3 7   97 176 
 RUS  HZ I        2247  3.73         2.8 0.10                            97 176 
 RUS  HN ES   1   2247 20.98                             143     0.3 7   97 176 
 PTB  HN ES   1   2247 26.62                             130    -0.3 7  147 260 
 PTB  HZ I        2247 29.13         2.6 0.14                           147 260 
 ZAR  HN ES   2   2247 37.54                             120     0.3 4  205 293 
                                                                                
