 2011 1119 2141 25.7 L   6.789 -73.065139.2  RSN  4 0.2 1.6LRSN                1
 GAP=148        0.46       3.1     4.5  4.8  0.7039E-01  0.5357E+00 -0.3196E+00E
 Epicentro: LOS SANTOS - SANTANDER                                             3
 ACTION:UPD 12-07-13 16:11 OP:ep   STATUS:               ID:20111119214125 L   I
 2011-11-19-2137-59S.COL___178                                                 6
 STAT SP IPHASW D HRMM SECON CODA AMPLIT PERI AZIMU VELO AIN AR TRES W  DIS CAZ7
 BAR2 SZ ES   1   2141 59.26                             169   -0.07 7 25.3 211 
 BAR2 SZ I        2142  1.18         8.0 0.19                          25.3 211 
 PAM  SZ EP   1   2141 47.29                             151    0.32 7 73.1  33 
 PAM  SN ES   1   2142  3.39                             151   -0.16 7 73.1  33 
 BRR  HZ EP       2141 46.64                             148   -0.0410 79.7 296 
 BRR  HN ES   1   2142  3.09                             148    0.06 7 79.7 296 
 BRR  HZ I        2142 23.45        21.3 0.49                          79.7 296 
 RUS  HZ EP   1   2141 48.43                             143   -0.28 7 99.1 181 
 RUS  HE ES   1   2142  6.85                             143    0.20 7 99.1 181 
 RUS  HZ I        2142  8.27         2.6 0.24                          99.1 181 
                                                                                
