 2011  519 2232 48.6 L   7.370 -73.154129.8  RSN 12 0.3 2.3LRSN                1
 GAP= 86        0.60       3.3     4.6  5.0 -0.5941E+01  0.4617E+01  0.1739E+01E
 Epicentro: RIONEGRO - SANTANDER                                               3
 ACTION:UP  11-06-29 08:54 OP:tino STATUS:               ID:20110519223248 L   I
 2011-05-19-2220-00M.COL___141                                                 6
 STAT SP IPHASW D HRMM SECON CODA AMPLIT PERI AZIMU VELO SNR AR TRES W  DIS CAZ7
 PAM  SZ EP   1   2233  7.69                             158     0.1 7   50  94 
 PAM  SN ES   2   2233 22.42                             158     0.0 5   50  94 
 BTL  SZ EP   1   2233  7.57                             157     0.3 7   52 194 
 BRI  SZ EP   1   2233  7.48                             156     0.1 7   55  46 
 BRI  SZ I        2233  7.99        63.3 0.28                            55  46 
 BRI  SZ ES   1   2233 21.48                             156    -0.5 7   55  46 
 BRR  HZ EP   1   2233  7.49                             150    -0.3 7   68 245 
 BRR  HN ES   1   2233 22.72                             150    -0.1 7   68 245 
 BRR  HZ I        2233 23.68        59.0 0.15                            68 245 
 GRA  SZ IP       2233  8.09                             150     0.010   69  34 
 GRA  SZ ES   2   2233 23.48                             150     0.2 5   69  34 
 GRA  SZ I        2233 27.35        63.8 0.42                            69  34 
 BAR2 SZ EP   1   2233  9.18                             144    -0.2 7   86 182 
 BAR2 SZ ES   1   2233 25.99                             144     0.4 7   86 182 
 BAR2 SZ I        2233 26.99        41.6 0.39                            86 182 
 OCA  SZ EP   2   2233 10.62                             141     0.5 5   98 349 
 OCA  SZ ES   2   2233 27.11                             141     0.2 5   98 349 
 OCA  SZ I        2233 29.87        34.4 0.19                            98 349 
 RUS  HZ EP   1   2233 16.10                             125    -0.4 7  164 177 
 RUS  HN ES   2   2233 38.19                             125     0.0 5  164 177 
 NOR  SE ES   2   2233 58.65                             111    -0.1 4  275 224 
 HEL  HZ EP   2   2233 31.09                             110     0.7 4  293 244 
 HEL  HZ I        2234 10.09         5.5 0.26                           293 244 
 DBB  SZ EP   2   2233 34.94                             106    -0.5 3  340 264 
 GUY  SZ EP   2   2233 36.28                             106     0.0 3  343 226 
                                                                                
