 2013  119 2023 16.1 L   6.793 -73.141139.1  RSN  7 0.4 1.9LRSN                1
 GAP=137        1.14       4.9     5.4  8.1 -0.5499E+01  0.3339E+01  0.1324E+02E
 Epicentro: LOS SANTOS - SANTANDER                                             3
 ACTION:UPD 13-02-15 09:15 OP:ep   STATUS:               ID:20130119202316 L   I
 2013-01-19-2020-00M.COL___241                                                 6
 STAT SP IPHASW D HRMM SECON CODA AMPLIT PERI AZIMU VELO AIN AR TRES W  DIS CAZ7
 BAR2 SZ ES       2023 49.57                             170   -0.0210 22.7 192 
 BAR2 SZ I        2023 51.01        21.2 0.40            169           22.7 192 
 BRR  HZ EP       2023 36.65                             151    0.0710 72.0 299 
 BRR  HN ES       2023 53.47                             151    0.9210 72.0 299 
 BRR  HN I        2023 54.04        27.6 0.18            151           72.0 299 
 PAM  SZ EP       2023 37.89                             149    0.2610 77.6  39 
 PAM  SN ES       2023 53.74                             149   -0.6810 77.6  39 
 PAM  SN I        2023 55.88         8.4 0.40            152           77.6  39 
 RUS  HZ EP       2023 39.11                             143   -0.0310 99.8 176 
 RUS  HN ES       2023 57.19                             143    0.0710 99.8 176 
 RUS  HN I        2023 58.59         7.5 0.18            143           99.8 176 
 PTB  HN ES       2024  2.45                             130   -0.76 9  148 259 
 PTB  HN I        2024  7.96        16.2 0.32            130            148 259 
 NOR  HN ES       2024 18.78                             117   -0.24 8  235 235 
 CHI  HZ EP       2023 53.44                             116    0.07 8  248 195 
 CHI  HN ES       2024 22.74                             116    0.29 8  248 195 
 CHI  HN I        2024 27.36         3.9 0.32            116            248 195 
                                                                                
