 2012 1119 2243 22.2 L   6.834 -73.108142.9  RSN 22 0.5 2.8LRSN                1
 GAP= 72        1.15       2.7     3.4  4.9 -0.1440E+01  0.4488E+01  0.9506E+00E
 Epicentro: LOS SANTOS - SANTANDER                                             3
 ACTION:UPD 12-12-05 15:34 OP:}ep  STATUS:               ID:20121119224322 L   I
 2012-11-19-2240-00M.COL___233                                                 6
 STAT SP IPHASW D HRMM SECON CODA AMPLIT PERI AZIMU VELO AIN AR TRES W  DIS CAZ7
 BAR2 SZ EP       2243 41.52                             168   -0.1110 28.0 197 
 BAR2 SZ ES       2243 56.25                             168   -0.5010 28.0 197 
 BAR2 SZ I        2243 57.60       278.5 0.20                          28.0 197 
 GIR2 SZ IP       2243 41.57                             168    0.0710 28.6 341 
 GIR2 SZ ES       2243 56.55                             168    0.0310 28.6 341 
 PAM  SZ IP       2243 44.31                             152    0.4910 71.8  39 
 PAM  SZ I        2243 44.65       152.3 0.22                          71.8  39 
 PAM  SN ES       2244  0.67                             152    0.0110 71.8  39 
 BRR  HZ IP     C 2243 43.38                             151    0.1910 73.2 294 
 BRR  HN ES       2244  0.28                             151    0.7410 73.2 294 
 BRR  HN I        2244  0.80       315.4 0.22                          73.2 294 
 RUS  HZ IP     D 2243 45.48                             142   -0.4910  104 178 
 RUS  HN ES       2244  4.00                             142   -0.4910  104 178 
 RUS  HN I        2244  5.60        80.9 0.26                           104 178 
 TAM  HZ IP     C 2243 49.83                             130    0.42 9  152 107 
 TAM  HN ES       2244 11.29                             130    0.68 9  152 107 
 PTB  HE ES       2244  9.83                             130   -0.78 9  153 258 
 PTB  HN I        2244 14.58        65.7 0.54                           153 258 
 OCA  HZ EP       2243 49.71                             130   -0.31 9  157 351 
 OCA  HN ES       2244 11.62                             130   -0.07 9  157 351 
 OCA  HN I        2244 16.58       195.8 0.20                           157 351 
 ZAR  HZ EP       2243 55.10                             121    0.35 8  206 291 
 SML  HZ EP       2243 57.89                             117   -0.63 8  242 334 
 SML  HN ES       2244 26.61                             117   -0.21 8  242 334 
 CHI  HZ EP       2243 59.67                             116   -0.63 8  253 196 
 CHI  HE ES       2244 30.05                             116    0.06 8  253 196 
 CHI  HN I        2244 34.46        38.1 0.52                           253 196 
 ROSC BN ES   4   2244 32.30                             116    1.44 0  258 211 
 ROSC BZ I        2244 40.11        25.4 0.30                           258 211 
 HEL  HZ EP       2244  3.21                             114    0.36 7  277 255 
 HEL  HN ES       2244 34.89                             114    0.36 7  277 255 
 HEL  HN I        2244 41.26        19.0 0.38                           277 255 
 GUY  SZ EP       2244  6.11                             111   -0.49 7  309 235 
 GUY  SN ES       2244 42.19                             111    0.97 7  309 235 
 GUY  SN I        2244 48.83        69.9 0.24                           309 235 
 RREF HN ES       2244 46.51                             110    1.22 7  327 229 
 DBB  SZ EP   4   2244  9.03                             109   -1.01 0  343 274 
 DBB  SZ I        2244 53.61        11.9 0.38                           343 274 
 COD  HZ EP       2244  9.53                             109   -0.58 7  345 354 
 COD  HN ES       2244 47.76                             109    0.31 7  345 354 
 TOL  SZ EP       2244 11.35                             108    0.33 6  349 225 
 TOL  SZ ES       2244 49.14                             108    0.06 6  349 225 
 MON  HN ES   4   2244 47.72                             108   -1.73 0  355 307 
 MON  HN I        2245  3.47        11.5 0.36                           355 307 
 ANIL HN ES       2244 51.34                             108   -0.51 6  363 225 
 ANIL HZ I        2244 56.93        39.7 0.30                           363 225 
 PRA  HZ EP       2244 15.30                             106   -0.98 6  397 210 
 PRA  HN ES   4   2244 57.42                             106   -1.02 0  397 210 
 PRA  HN I        2245  2.94        16.7 0.58                           397 210 
 SJC  HN EP   4   2244 15.87                             105   -1.72 0  408 326 
 SJC  HN I        2245  0.68        14.3 0.42                           408 326 
                                                                                
