 2013 1119 2248 57.4 L   6.838 -73.227143.2  RSN  5 0.4 1.7LRSN                1
 GAP=123        1.07       6.2     5.6  7.8 -0.7774E+01  0.1108E+02 -0.1446E+02E
 Epicentro: ZAPATOCA - SANTANDER                                               3
 ACTION:UPD 14-01-09 16:29 OP:ep   STATUS:               ID:20131119224857 L   I
 OLDACT:REG 13-11-19 23:34 OP:stll STATUS:               ID:20131119224814     3
 2013-11-19-2248-14M.COL___238                                                 6
 STAT SP IPHASW D HRMM SECON CODA AMPLIT PERI AZIMU VELO AIN AR TRES W  DIS CAZ7
 BAR2 SZ EP       2249 16.85                             169    0.0210 27.6 170 
 BAR2 SZ ES       2249 31.42                             169   -0.5610 27.6 170 
 BAR2 SZ I        2249 33.08        15.5 0.24            168           27.6 170 
 BRR  HZ EP       2249 18.41                             155    0.6610 61.3 299 
 BRR  HN ES       2249 34.30                             155    0.6910 61.3 299 
 PAM  SZ EP       2249 19.60                             149    0.0510 80.5  46 
 PAM  SZ I        2249 19.71        10.0 0.20            153           80.5  46 
 PAM  SN ES       2249 36.74                             149   -0.0710 80.5  46 
 PTB  HZ EP       2249 23.58                             133    0.12 9  140 256 
 PTB  HN ES       2249 43.34                             133   -0.43 9  140 256 
 PTB  HZ I        2249 51.51         4.8 0.34            131            140 256 
 SML  HZ EP       2249 32.79                             118   -0.30 8  236 337 
 SML  HN ES       2250  0.43                             118   -0.48 8  236 337 
 SML  HZ I        2250  3.77         5.4 0.10            118            236 337 
                                                                                
