 2012  919 2011 53.2 L   6.791 -73.152146.0  RSN 10 0.4 2.4LRSN                1
 GAP=136        0.72       3.7     4.1  5.9  0.1066E+01  0.6404E+01  0.3906E+01E
 Epicentro: LOS SANTOS - SANTANDER                                             3
 ACTION:UPD 12-10-22 14:19 OP:ep   STATUS:               ID:20120919201153 L   I
 2012-09-19-2010-00M.COL___226                                                 6
 STAT SP IPHASW D HRMM SECON CODA AMPLIT PERI AZIMU VELO AIN AR TRES W  DIS CAZ7
 BAR2 SZ EP   1   2012 12.62                             171   -0.20 7 22.2 189 
 BAR2 SZ ES   1   2012 28.29                             171    0.16 7 22.2 189 
 BRR  HZ EP   1   2012 14.79                             153    0.44 7 71.0 300 
 BRR  HN ES   1   2012 31.38                             153    0.53 7 71.0 300 
 BRR  HZ I        2012 33.98        58.3 0.22                          71.0 300 
 PAM  SZ EP   1   2012 15.41                             150   -0.09 7 78.6  39 
 PAM  SZ I        2012 15.85        74.6 0.22                          78.6  39 
 PAM  SN ES   1   2012 32.44                             150   -0.46 7 78.6  39 
 RUS  HZ EP   1   2012 16.91                             144    0.02 7 99.6 176 
 RUS  HE ES   1   2012 35.45                             144    0.07 7 99.6 176 
 RUS  HZ I        2012 36.27        28.0 0.28                          99.6 176 
 PTB  HN ES   1   2012 40.33                             132   -0.74 7  147 259 
 PTB  HN I        2012 43.05        27.8 0.22                           147 259 
 ZAR  HZ EP   1   2012 26.24                             122    0.63 6  204 292 
 ZAR  HE ES   1   2012 50.75                             122   -0.15 6  204 292 
 ZAR  HZ I        2012 58.80        20.9 0.40                           204 292 
 NOR  SN ES   2   2012 56.83                             119    0.25 4  234 235 
 CHI  HZ EP   1   2012 30.86                             117    0.09 6  247 195 
 CHI  HN ES   1   2013  0.16                             117    0.08 6  247 195 
 CHI  HN I        2013  6.63        17.5 0.30                           247 195 
 HEL  HZ EP   1   2012 32.66                             115   -0.64 6  271 256 
 HEL  HZ I        2013 12.26        13.3 0.28                           271 256 
 URE  HZ EP   9   2012 36.09                             114    1.86 0  284 292 
 URE  HN ES   9   2013  4.57                                   -3.53 0  284 292 
 URE  HZ I        2013 14.39        11.6 0.34                           284 292 
                                                                                
