 2010 1019 2232 13.1 L   6.691 -73.265141.7  RSN  4 0.4 1.5LRSN                1
 GAP=146        0.98      13.7    22.6  9.7  0.2395E+03  0.4414E+02  0.4034E+02E
 Epicentro: GALAN - SANTANDER                                                  3
 ACTION:UP  11-02-18 11:10 OP:tino STATUS:               ID:20101019223213 L   I
 2010-10-19-2231-02S.COL___126                                                 6
 STAT SP IPHASW D HRMM SECON CODA AMPLIT PERI AZIMU VELO SNR AR TRES W  DIS CAZ7
 BAR2 SZ EP       2232 31.58                             174    -0.510   14 141 
 BAR2 SZ ES   1   2232 46.53                             174    -0.3 7   14 141 
 BAR2 SZ I        2232 47.74        13.0 0.21                            14 141 
 BTL  SZ EP       2232 32.87                             169     0.610   25 359 
 BTL  SZ ES   1   2232 47.32                             169     0.1 7   25 359 
 BRR  HZ EP       2232 33.61                             153     0.010   68 313 
 BRR  HN ES   1   2232 49.36                             153    -0.2 7   68 313 
 RUS  HZ EP       2232 35.58                             146    -0.110   91 167 
 RUS  HZ I        2232 36.70         3.8 0.22                            91 167 
 RUS  HN ES   2   2232 54.14                             146     0.8 5   91 167 
                                                                                
