 2017  919 2325 10.7 L   6.769 -73.129142.2  RSN  6 0.2 1.5LRSN                1
 GAP=140        0.51       2.3     2.4  3.9 -0.5138E-01  0.2496E+01  0.3708E+00E
 Epicentro: LOS SANTOS - SANTANDER                                             3
 ACTION:UPD 17-10-05 19:14 OP:rebc STATUS:               ID:20170919232510 L   I
 OLDACT:REG 17-09-20 03:39 OP:dnl  STATUS:               ID:20170919231738     3
 2017-09-19-2318-00M.COL___450                                                 6
 STAT SP IPHASW D HRMM SECON CODA AMPLIT PERI AZIMU VELO AIN AR TRES W  DIS CAZ7
 BAR2 EZ EP       2325 29.70                             171   -0.1710 20.4 197 
 BAR2 EZ ES       2325 44.91                             171    0.1110 20.4 197 
 BAR2 EZ I        2325 45.70         7.7 0.22            171           20.4 197 
 BRR  HZ EP       2325 31.58                             151   -0.1010 74.5 300 
 BRR  HN ES       2325 48.15                             151    0.1210 74.5 300 
 BRR  HZ I        2325 49.15         8.5 0.32            149           74.5 300 
 PAM  EZ EP       2325 32.81                             150    0.1510 78.9  37 
 PAM  EN ES       2325 49.63                             150   -0.1310 78.9  37 
 PAM  EZ I        2325 52.10         4.9 0.40            151           78.9  37 
 RUS  HZ EP       2325 33.74                             144   -0.1310 97.0 177 
 RUS  HN ES       2325 52.11                             144    0.1910 97.0 177 
 RUS  HZ I        2325 53.02         3.4 0.24            145           97.0 177 
 ZAR  HZ EP   2   2325 44.14                             121    0.89 4  207 293 
 ZAR  HN ES       2326  8.54                             121   -0.09 8  207 293 
 ZAR  HZ I        2326 14.30         3.7 0.32            121            207 293 
 NOR  HN ES       2326 13.67                             118   -0.20 8  234 235 
 NOR  HZ I        2326 17.64         3.1 0.44            118            234 235 
                                                                                
