 2011  519 2056 51.2 L   6.777 -73.089144.3  RSN  9 0.3 2.2LRSN                1
 GAP=172        0.67       5.0     6.3  4.9 -0.1975E+02  0.6992E+00  0.2853E+01E
 Epicentro: LOS SANTOS - SANTANDER                                             3
 ACTION:UP  11-06-29 08:54 OP:tino STATUS:               ID:20110519205651 L   I
 2011-05-19-2054-36S.COL___140                                                 6
 STAT SP IPHASW D HRMM SECON CODA AMPLIT PERI AZIMU VELO SNR AR TRES W  DIS CAZ7
 BAR2 SZ EP   1   2057 10.60                             171    -0.1 7   23 207 
 BAR2 SZ ES   1   2057 25.28                             171    -0.6 7   23 207 
 BAR2 SZ I        2057 26.81        60.9 0.27                            23 207 
 BTL  SZ EP   1   2057 10.65                             170    -0.1 7   25 308 
 BTL  SZ ES   1   2057 26.36                             170     0.4 7   25 308 
 PAM  SZ EP   1   2057 13.39                             151     0.2 7   76  35 
 PAM  SN ES   2   2057 30.65                             151     0.4 5   76  35 
 BRR  HZ IP     D 2057 12.35                             150    -0.310   78 298 
 BRR  HZ I        2057 12.57       108.1 0.11                            78 298 
 BRR  HN ES   1   2057 29.58                             150     0.3 7   78 298 
 BRI  SZ EP   1   2057 15.12                             141     0.1 7  109  17 
 BRI  SZ I        2057 35.18         8.7 0.36                           109  17 
 GRA  SZ EP   1   2057 16.27                             136    -0.1 7  126  14 
 GRA  SZ ES   1   2057 35.99                             136     0.0 7  126  14 
 GRA  SZ I        2057 41.17        11.7 0.22                           126  14 
 OCA  SZ EP   2   2057 19.45                             129    -0.3 5  164 351 
 OCA  SZ ES   2   2057 41.59                             129    -0.4 5  164 351 
 OCA  SZ I        2057 46.45        19.7 0.38                           164 351 
 NOR  SZ EP   1   2057 27.58                             118     0.3 6  238 236 
 NOR  SN ES   2   2057 54.62                             118    -0.8 4  238 236 
 RREF HZ EP   1   2057 38.04                             110     0.4 5  325 230 
 RREF HN ES   2   2058 14.35                             110     0.5 3  325 230 
 RREF HZ I        2058 23.28         8.8 0.33                           325 230 
                                                                                
