 2014  219 2319 52.5 L   6.820 -73.122151.5  RSN 15 0.4 2.3LRSN                1
 GAP=139        0.87       2.7     4.2  6.1 -0.1806E+01  0.7032E+01  0.4897E+01E
 Epicentro: LOS SANTOS - SANTANDER                                             3
 ACTION:UPD 14-03-10 08:11 OP:ep   STATUS:               ID:20140219231952 L   I
 OLDACT:UP  14-02-20 03:26 OP:mh   STATUS:               ID:20140219231848     3
 OLDACT:UP  14-02-20 03:24 OP:mh   STATUS:               ID:20140219231848     3
 OLDACT:REG 14-02-20 00:39 OP:mh   STATUS:               ID:20140219231848     3
 2014-02-19-2318-48M.COL___196                                                 6
 STAT SP IPHASW D HRMM SECON CODA AMPLIT PERI AZIMU VELO AIN AR TRES W  DIS CAZ7
 BRR  HZ EP   1   2320 14.57                             153    0.24 7 72.5 296 
 BRR  HN ES   1   2320 31.73                             153    0.37 7 72.5 296 
 BRR  HZ I        2320 36.22        33.1 0.11            152           72.5 296 
 PAM  SZ EP   1   2320 15.48                             153    0.36 7 74.0  39 
 PAM  SN ES       2320 32.71                             153   -0.0610 74.0  39 
 PAM  SZ I        2320 36.70        10.9 0.31            153           74.0  39 
 RUS  HZ EP   1   2320 16.52                             144   -0.43 7  103 178 
 RUS  HZ I        2320 36.42        12.1 0.24            138            103 178 
 PTB  HZ EP   1   2320 19.45                             133   -0.74 7  151 258 
 PTB  HZ I        2320 44.05        32.6 0.10            129            151 258 
 OCA  HZ EP   1   2320 21.16                             131    0.09 7  158 352 
 OCA  HN ES       2320 43.35                             131   -0.02 9  158 352 
 OCA  HZ I        2320 47.70        30.5 0.21            130            158 352 
 SPBC HZ EP   1   2320 21.59                             130   -0.15 7  167 219 
 SPBC HN ES       2320 44.06                             130   -0.50 9  167 219 
 SPBC HZ I        2320 50.96        45.8 0.32            125            167 219 
 ZAR  HZ EP       2320 25.19                             123   -0.28 8  206 291 
 ZAR  HN ES       2320 51.51                             123    0.31 8  206 291 
 ZAR  HZ I        2320 57.13        31.3 0.11            121            206 291 
 NOR  HZ EP   1   2320 28.53                             119   -0.39 6  238 234 
 NOR  HZ I        2321  0.36        27.4 0.24            116            238 234 
 SML  HZ EP       2320 29.19                             119   -0.15 8  243 335 
 SML  HN ES   1   2320 57.55                             119   -0.54 6  243 335 
 SML  HZ I        2321  0.04        39.6 0.07            117            243 335 
 CHI  HZ EP       2320 30.57                             118   -0.24 8  251 196 
 CHI  HN ES       2321  1.38                             118    0.67 8  251 196 
 CHI  HZ I        2321  6.03         6.4 0.53            114            251 196 
 ROSC BZ EP   2   2320 31.43                             117    0.15 4  256 211 
 ROSC BN ES   4   2321  4.80                             117    3.27 0  256 211 
 HEL  HZ EP       2320 34.56                             116    1.23 8  275 255 
 HEL  HE ES       2321  4.93                             116   -0.26 8  275 255 
 HEL  HZ I        2321 11.80        10.8 0.22            113            275 255 
 URE  HZ EP   4   2320 32.63                             114   -1.39 0  285 291 
 URE  HN ES   4   2321  4.24                             114   -2.17 0  285 291 
 GUY2CHZ EP       2320 37.34                             113    0.59 7  305 235 
 GUY2CHN ES   4   2321 13.16                             113    1.89 0  305 235 
 CBOC HZ EP   1   2320 39.95                             111   -0.05 5  337 252 
 CBOC HN ES   2   2321 16.82                             111   -0.25 3  337 252 
 CBOC HZ I        2321 28.47         4.4 0.47            108            337 252 
 PRA  HZ EP   1   2320 46.21                             107   -0.37 4  395 210 
 PRA  HN ES       2321 28.67                             107   -0.11 6  395 210 
 PRA  HZ I        2321 34.43         6.7 0.36            105            395 210 
 SJC  HZ EP   4   2320 46.64                             107   -1.55 0  409 326 
 SJC  HN ES   4   2321 27.31                             107   -4.33 0  409 326 
                                                                                
