 2014  119 2126 28.0 L   6.789 -73.165143.3  RSN  8 0.5 1.7LRSN                1
 GAP=235        1.19       5.4     6.6  8.0  0.1310E+02  0.1402E+02  0.1178E+02E
 Epicentro: LOS SANTOS - SANTANDER                                             3
 ACTION:UPD 14-03-13 09:56 OP:ep   STATUS:               ID:20140119212628 L   I
 OLDACT:REG 14-01-19 21:07 OP:jn   STATUS:               ID:20140119212000     3
 2014-01-19-2120-00M.COL___285                                                 6
 STAT SP IPHASW D HRMM SECON CODA AMPLIT PERI AZIMU VELO AIN AR TRES W  DIS CAZ7
 BAR2 SZ ES       2127  1.85                             171   -0.5210 21.8 185 
 BAR2 SZ I        2127  3.43        18.6 0.30            166           21.8 185 
 BRR  HZ EP       2126 49.13                             152    0.3110 70.0 300 
 BRR  HN ES       2127  5.67                             152    0.6210 70.0 300 
 BRR  HZ I        2127  8.69         9.5 0.36            150           70.0 300 
 RUS  HZ EP       2126 51.31                             144   -0.1310 99.5 175 
 RUS  HN ES       2127 10.18                             144    0.4610 99.5 175 
 RUS  HZ I        2127 10.89         3.2 0.18            143           99.5 175 
 PTB  HZ EP       2126 54.22                             132   -0.35 9  145 259 
 PTB  HN ES       2127 14.84                             132   -0.44 9  145 259 
 PTB  HZ I        2127 17.03         6.1 0.18            130            145 259 
 SPBC HN ES       2127 17.32                             129   -0.69 9  161 219 
 ZAR  HN ES       2127 24.93                             122   -0.27 9  203 293 
 ZAR  HZ I        2127 30.38         6.2 0.26            121            203 293 
 NOR  HZ EP       2127  3.36                             118    0.03 8  232 234 
 NOR  HE ES       2127 32.00                             118    1.11 8  232 234 
 NOR  HZ I        2127 40.41         3.0 0.36            117            232 234 
 CHI  HZ EP       2127  5.40                             117    0.02 8  247 195 
 CHI  HN ES       2127 34.47                             117   -0.06 8  247 195 
 CHI  HZ I        2127 40.07         2.9 0.32            117            247 195 
                                                                                
