 2016 1019 2134 45.2 L   5.804 -73.949106.1  RSN 10 0.4 1.8LRSN                1
 GAP= 85        1.09       3.2     3.3  6.2 -0.3622E+01 -0.9139E+00  0.1686E+01E
 Epicentro: FLORIAN - SANTANDER                                                3
 ACTION:UPD 16-11-09 19:21 OP:rebc STATUS:               ID:20161019213445 L   I
 OLDACT:REG 16-10-20 03:10 OP:lv   STATUS:               ID:20161019212747     3
 2016-10-19-2128-00M.COL___343                                                 6
 STAT SP IPHASW D HRMM SECON CODA AMPLIT PERI AZIMU VELO AIN AR TRES W  DIS CAZ7
 SPBC HZ EP       2134 59.81                             168   -0.0510 21.7 219 
 SPBC HE ES       2135 11.34                             168    0.0810 21.7 219 
 SPBC HZ I        2135 12.14        57.3 0.25            167           21.7 219 
 RUS  HZ EP       2135  4.83                             135   -0.1410 96.3  84 
 RUS  HE ES       2135 19.85                             135   -0.5110 96.3  84 
 RUS  HZ I        2135 20.88         4.4 0.22            135           96.3  84 
 PTB  HZ EP       2135  3.66                             133   -0.8710 98.8 325 
 PTB  HE ES       2135 20.22                             133    0.6310 98.8 325 
 PTB  HZ I        2135 20.85         8.9 0.16            132           98.8 325 
 NOR  HZ EP       2135  5.45                             131    0.2710  105 255 
 NOR  HN ES       2135 20.20                             131   -0.5310  105 255 
 NOR  HZ I        2135 22.32        26.1 0.12            130            105 255 
 BAR2 EZ EP       2135  7.14                             127    0.1910  122  44 
 BAR2 EZ ES       2135 24.11                             127    0.2210  122  44 
 BAR2 EZ I        2135 25.30        33.0 0.28            127            122  44 
 CHI  HZ EP       2135  8.92                             125    0.7010  132 170 
 CHI  HN ES       2135 26.36                             125    0.2010  132 170 
 CHI  HZ I        2135 27.45         3.5 0.24            124            132 170 
 GUY2CHZ EP       2135 12.61                             117    0.39 9  170 248 
 GUY2CHN ES   4   2135 35.33                             117    2.06 0  170 248 
 GUY2CHZ I        2135 37.46         3.7 0.28                           170 248 
 HEL  HZ EP   4   2135 14.62                             116    1.39 0  180 284 
 HEL  HN ES   4   2135 37.59                             116    2.51 0  180 284 
 HEL  HZ I        2135 39.36        14.6 0.64            114            180 284 
 PAM  EZ EP       2135 17.76                             111    0.02 8  219  39 
 PAM  EE ES       2135 43.05                             111   -0.04 8  219  39 
 PAM  EZ I        2135 47.27         3.9 0.39            110            219  39 
 PRA  HZ EP       2135 20.57                             107   -0.61 8  253 204 
 PRA  HE ES       2135 49.19                             107   -0.03 8  253 204 
 PRA  HZ I        2135 54.54         4.0 0.36            106            253 204 
                                                                                
