 2016 1119 2011 33.3 L   5.746 -73.905120.4  RSN  6 0.5 1.7LRSN                1
 GAP=131        1.10       3.6     4.7 10.1 -0.1710E+01 -0.2275E+01 -0.6863E+01E
 Epicentro: ALBANIA - SANTANDER                                                3
 ACTION:UPD 17-10-26 21:09 OP:lp   STATUS:               ID:20161119201133 L   I
 OLDACT:UP  16-11-20 09:45 OP:dnl  STATUS:               ID:20161119200743     3
 OLDACT:REG 16-11-20 09:35 OP:dnl  STATUS:               ID:20161119200743     3
 2016-11-19-2008-00M.COL___334                                                 6
 STAT SP IPHASW D HRMM SECON CODA AMPLIT PERI AZIMU VELO AIN AR TRES W  DIS CAZ7
 PTB  HZ EP       2011 53.87                             135   -0.6610  107 325 
 PTB  HN ES       2012 11.08                             135   -0.0010  107 325 
 PTB  HZ I        2012 13.13         6.1 0.28            137            107 325 
 NOR  HZ EP       2011 55.19                             135    0.4510  109 259 
 NOR  HN ES       2012 11.43                             135   -0.0310  109 259 
 NOR  HZ I        2012 13.23         9.0 0.12            136            109 259 
 BAR2 EZ EP       2011 56.49                             131    0.2110  123  40 
 BAR2 EZ ES       2012 13.67                             131   -0.5210  123  40 
 BAR2 EZ I        2012 14.18        14.5 0.64            134            123  40 
 CHI  HZ EP   2   2011 57.48                             131    0.79 5  125 171 
 CHI  HN ES       2012 14.77                             131   -0.1510  125 171 
 CHI  HZ I        2012 20.12         3.1 0.26            133            125 171 
 BRR  HZ EP       2011 59.06                             124    0.32 9  152   8 
 BRR  HN ES       2012 19.34                             124    0.76 9  152   8 
 BRR  HZ I        2012 21.27        11.5 0.16            127            152   8 
 ZAR  HZ EP       2012  5.32                             114   -0.68 8  220 331 
 ZAR  HE ES       2012 31.54                             114    0.04 8  220 331 
 ZAR  HZ I        2012 36.94         6.6 0.44            116            220 331 
                                                                                
