 2010  919 2337  7.6 L   6.616 -73.614101.7  RSN  4 0.2 1.4LRSN                1
 GAP=205        0.48       4.5     9.4  6.4  0.2698E+02  0.1466E+01  0.1059E+01E
 Epicentro: EL CARMEN DE CHUCURI - SANTANDER                                   3
 ACTION:UP  11-02-18 11:04 OP:tino STATUS:               ID:20100919233707 L   I
 2010-09-19-2334-32S.COL___121                                                 6
 STAT SP IPHASW D HRMM SECON CODA AMPLIT PERI AZIMU VELO SNR AR TRES W  DIS CAZ7
 BAR2 SZ EP   1   2337 23.18                             153     0.2 7   48  93 
 BAR2 SZ I        2337 23.53         9.6 0.21                            48  93 
 BAR2 SZ ES   2   2337 35.20                             153     0.2 5   48  93 
 BRR  HZ EP   1   2337 23.39                             149     0.3 7   55 349 
 BRR  HN ES   2   2337 34.86                             149    -0.3 5   55 349 
 RUS  HZ EP       2337 27.12                             133    -0.110   99 144 
 RUS  HN ES   2   2337 42.34                             133    -0.2 5   99 144 
 RUS  HZ I        2337 43.69         4.9 0.21                            99 144 
 GUE  SZ EP   1   2337 32.32                             119    -0.2 7  154  30 
                                                                                
