 2017  119 2029 51.3 L   6.791 -73.175153.1  RSN  5 0.4 1.3LRSN                1
 GAP=133        0.95       5.5     5.1  8.1 -0.3650E+01  0.2291E+01  0.6679E+01E
 Epicentro: LOS SANTOS - SANTANDER                                             3
 ACTION:UPD 17-05-22 16:01 OP:jn   STATUS:               ID:20170119202951 L   I
 OLDACT:UP  17-01-20 04:41 OP:ar   STATUS:               ID:20170119202743     3
 OLDACT:UP  17-01-20 04:39 OP:ar   STATUS:               ID:20170119202743     3
 OLDACT:UP  17-01-20 04:38 OP:ar   STATUS:               ID:20170119202743     3
 OLDACT:REG 17-01-20 04:16 OP:ar   STATUS:               ID:20170119202743     3
 2017-01-19-2028-00M.COL___331                                                 6
 STAT SP IPHASW D HRMM SECON CODA AMPLIT PERI AZIMU VELO AIN AR TRES W  DIS CAZ7
 BAR2 EZ EP   2   2030 11.63                             171   -0.19 5 22.0 182 
 BAR2 EZ ES   2   2030 27.63                             171   -0.18 5 22.0 182 
 BAR2 EZ I        2030 28.48         9.6 0.30            171           22.0 182 
 BRR  HZ EP   2   2030 13.71                             154    0.55 5 68.9 301 
 BRR  HN ES       2030 30.83                             154    0.6510 68.9 301 
 PAM  EZ EP       2030 14.80                             151    0.3010 80.2  41 
 PAM  EN ES       2030 31.95                             151   -0.6210 80.2  41 
 PAM  EZ I        2030 33.58         3.1 0.60            152           80.2  41 
 RUS  HZ EP       2030 15.83                             145    0.0610 99.9 174 
 RUS  HN ES       2030 35.00                             145    0.1810 99.9 174 
 RUS  HZ I        2030 36.09         2.0 0.42            146           99.9 174 
 PTB  HZ EP       2030 18.35                             134   -0.27 9  144 259 
 PTB  HN ES       2030 39.47                             134   -0.43 9  144 259 
                                                                                
