 2010  919 2118 36.5 L   6.809 -73.080139.0  RSN  6 0.4 1.6LRSN                1
 GAP=203        0.72       7.7    15.5  9.3  0.6673E+02 -0.3957E+01  0.7487E+01E
 Epicentro: LOS SANTOS - SANTANDER                                             3
 ACTION:UP  11-02-18 11:04 OP:tino STATUS:               ID:20100919211836 L   I
 2010-09-19-2113-40S.COL___121                                                 6
 STAT SP IPHASW D HRMM SECON CODA AMPLIT PERI AZIMU VELO SNR AR TRES W  DIS CAZ7
 BTL  SZ EP   1   2118 55.59                             170     0.3 7   24 300 
 BAR2 SZ EP   1   2118 55.44                             169     0.1 7   27 205 
 BAR2 SZ ES   2   2119  9.18                             169    -0.9 5   27 205 
 BAR2 SZ I        2119 12.77         9.0 0.29                            27 205 
 GIR2 SZ EP   1   2118 55.44                             166     0.1 7   32 337 
 BRR  HZ IP     C 2118 57.12                             150    -0.210   77 295 
 BRR  HE ES   2   2119 13.89                             150     0.4 5   77 295 
 BRR  HZ I        2119 17.79        12.8 0.15                            77 295 
 RUS  HZ EP   1   2118 59.66                             142     0.0 7  101 180 
 RUS  HE ES   2   2119 18.29                             142     0.6 5  101 180 
 RUS  HZ I        2119 19.67         4.3 0.21                           101 180 
 CHI  HZ EP   1   2119 13.82                             115    -0.3 6  252 197 
                                                                                
