 2017  919 2255 51.7 L   7.354 -73.175131.7  RSN  5 0.1 1.8LRSN                1
 GAP=177        0.34       2.1     2.0  3.6  0.7451E+00  0.2694E+01  0.9928E+00E
 Epicentro: RIONEGRO - SANTANDER                                               3
 ACTION:UPD 17-10-05 19:14 OP:rebc STATUS:               ID:20170919225551 L   I
 OLDACT:UP  17-09-20 04:38 OP:dnl  STATUS:               ID:20170919224737d    3
 OLDACT:DUP 17-09-20 04:33 OP:dnl  STATUS:               ID:20170919224737d    3
 2017-09-19-2248-00M.COL___450                                                 6
 STAT SP IPHASW D HRMM SECON CODA AMPLIT PERI AZIMU VELO AIN AR TRES W  DIS CAZ7
 PAM  EZ EP       2256 11.07                             157    0.0110 52.5  92 
 PAM  EE ES       2256 26.09                             157   -0.0510 52.5  92 
 PAM  EZ I        2256 28.88        22.4 0.28            161           52.5  92 
 BAR2 EZ EP   2   2256 12.58                             145    0.02 5 84.3 181 
 BAR2 EZ ES       2256 28.96                             145    0.1410 84.3 181 
 BAR2 EZ I        2256 30.02        29.4 0.38            145           84.3 181 
 RUS  HZ EP       2256 19.66                             126    0.07 9  162 176 
 RUS  HN ES       2256 41.17                             126   -0.16 9  162 176 
 RUS  HZ I        2256 42.79         2.2 0.38            126            162 176 
 ZAR  HZ EP   4   2256 20.31                             122   -1.12 0  186 275 
 ZAR  HE ES       2256 44.58                             122   -0.03 9  186 275 
 ZAR  HZ I        2256 46.58         8.7 0.10            122            186 275 
 NOR  HZ EP   4   2256 33.19                             112    2.27 0  273 224 
 NOR  HE ES   4   2257  5.10                             112    3.60 0  273 224 
 NOR  HZ I        2257  8.92         2.4 0.46            112            273 224 
                                                                                
