 2012 1019 2141  0.7 L   6.759 -73.119140.6  RSN  5 0.1 1.8LRSN                1
 GAP=142        0.37       2.8     3.6  4.0 -0.6700E+00 -0.1539E+01  0.4300E+01E
 Epicentro: LOS SANTOS - SANTANDER                                             3
 ACTION:UPD 12-11-22 17:04 OP:ep   STATUS:               ID:20121019214100 L   I
 2012-10-19-2139-50M.COL___210                                                 6
 STAT SP IPHASW D HRMM SECON CODA AMPLIT PERI AZIMU VELO AIN AR TRES W  DIS CAZ7
 BAR2 SZ EP       2141 19.67                             172    0.0010 19.7 201 
 BAR2 SZ I        2141 19.85        34.1 0.40                          19.7 201 
 GIR2 SZ EP       2141 19.74                             165   -0.2010 36.3 347 
 GIR2 SZ ES   1   2141 34.94                             165    0.02 7 36.3 347 
 BRR  HZ EP       2141 21.64                             150    0.0310 76.0 300 
 BRR  HZ I        2141 22.05        24.0 0.32                          76.0 300 
 BRR  HN ES   1   2141 37.94                             150    0.05 7 76.0 300 
 PAM  SZ EP       2141 22.73                             149    0.2210 79.2  36 
 PAM  SE ES   1   2141 39.36                             149   -0.14 7 79.2  36 
 PAM  SZ I        2141 40.06         7.0 0.34                          79.2  36 
 RUS  HZ EP       2141 23.59                             144   -0.0410 95.9 178 
 RUS  HZ I        2141 24.77         3.4 0.20                          95.9 178 
 RUS  HN ES   2   2141 41.60                             144    0.10 5 95.9 178 
                                                                                
