 2014 1119 2238 48.8 L   6.774 -73.203147.5  RSN  6 0.4 1.7LRSN                1
 GAP=229        1.09       6.2     6.5  7.5  0.1834E+02  0.1042E+02  0.2244E+01E
 Epicentro: ZAPATOCA - SANTANDER                                               3
 ACTION:UPD 14-12-19 15:44 OP:nd   STATUS:               ID:20141119223848 L   I
 OLDACT:REG 14-11-20 09:08 OP:cam  STATUS:               ID:20141119223816     3
 2014-11-19-2238-16M.COL___301                                                 6
 STAT SP IPHASW D HRMM SECON CODA AMPLIT PERI AZIMU VELO AIN AR TRES W  DIS CAZ7
 BAR2 SZ EP       2239  8.34                             172   -0.2110 20.2 174 
 BAR2 SZ ES       2239 23.42                             172   -0.5510 20.2 174 
 BAR2 SZ I        2239 24.83        14.5 0.14            171           20.2 174 
 BRR  HN ES       2239 27.19                             154    0.8410 67.2 303 
 RUS  HZ EP       2239 12.38                             145   -0.1510 98.4 172 
 RUS  HN ES       2239 31.27                             145    0.2010 98.4 172 
 RUS  HZ I        2239 32.70         6.0 0.38            147           98.4 172 
 PTB  HZ EP       2239 15.20                             134   -0.07 9  141 259 
 PTB  HN ES       2239 35.29                             134   -0.65 9  141 259 
 PTB  HZ I        2239 41.18         5.4 0.26            132            141 259 
 SPBC HZ EP       2239 17.35                             131    0.53 9  157 218 
 SPBC HN ES       2239 38.94                             131    0.24 9  157 218 
 ZAR  HZ EP       2239 20.74                             123   -0.10 9  199 294 
 ZAR  HE ES       2239 45.77                             123   -0.09 9  199 294 
 ZAR  HZ I        2239 56.78         3.6 0.26            122            199 294 
                                                                                
