 2013 1219 2131 43.8 L   6.791 -73.161148.3  RSN  7 0.5 1.9LRSN                1
 GAP=135        1.34       5.8     5.8  9.1 -0.1723E+01  0.1009E+02  0.4532E+01E
 Epicentro: LOS SANTOS - SANTANDER                                             3
 ACTION:UPD 14-01-13 10:19 OP:ep   STATUS:               ID:20131219213143 L   I
 OLDACT:REG 13-12-19 21:25 OP:carl STATUS:               ID:20131219213000     3
 2013-12-19-2130-00M.COL___285                                                 6
 STAT SP IPHASW D HRMM SECON CODA AMPLIT PERI AZIMU VELO AIN AR TRES W  DIS CAZ7
 BAR2 SZ EP       2132  2.79                             171   -0.8910 22.1 186 
 BAR2 SZ ES       2132 18.84                             171   -0.3710 22.1 186 
 BAR2 SZ I        2132 19.77        26.7 0.34            168           22.1 186 
 BRR  HZ EP       2132  5.00                             153   -0.1310 70.2 300 
 BRR  HE ES       2132 22.71                             153    0.9110 70.2 300 
 PAM  SZ EP       2132  6.98                             151    0.6210 79.2  40 
 PAM  SN ES       2132 23.69                             151   -0.2910 79.2  40 
 RUS  HZ EP       2132  8.05                             145    0.3410 99.8 175 
 RUS  HN ES       2132 26.50                             145    0.1210 99.8 175 
 RUS  HZ I        2132 28.42         8.5 0.28            143           99.8 175 
 PTB  HZ EP       2132 10.94                             133    0.16 9  146 259 
 PTB  HN ES       2132 31.14                             133   -0.70 9  146 259 
 PTB  HZ I        2132 33.87         9.6 0.16            132            146 259 
 SPBC HZ EP       2132 11.98                             130   -0.31 9  161 219 
 SPBC HN ES       2132 35.16                             130    0.62 9  161 219 
 SPBC HZ I        2132 40.75         9.1 0.76            129            161 219 
 ZAR  HN ES       2132 41.48                             123   -0.11 9  203 293 
                                                                                
