 2014 1119 2255 58.3 L   6.778 -73.171144.0  RSN  5 0.3 1.4LRSN                1
 GAP=233        0.69       5.5     5.4  5.7  0.1949E+02  0.6911E+01  0.2176E+01E
 Epicentro: LOS SANTOS - SANTANDER                                             3
 ACTION:UPD 14-12-19 15:44 OP:nd   STATUS:               ID:20141119225558 L   I
 OLDACT:REG 14-11-20 09:08 OP:cam  STATUS:               ID:20141119224817     3
 2014-11-19-2248-17M.COL___298                                                 6
 STAT SP IPHASW D HRMM SECON CODA AMPLIT PERI AZIMU VELO AIN AR TRES W  DIS CAZ7
 BAR2 SZ ES       2256 32.42                             171   -0.3210 20.6 183 
 BAR2 SZ I        2256 33.32         6.3 0.24            170           20.6 183 
 BRR  HZ EP       2256 19.19                             153    0.0210 69.9 301 
 BRR  HN ES       2256 35.69                             153    0.2410 69.9 301 
 BRR  HZ I        2256 39.51         5.4 0.48            152           69.9 301 
 RUS  HZ EP       2256 21.41                             144   -0.2910 98.4 174 
 RUS  HE ES       2256 40.35                             144    0.3810 98.4 174 
 RUS  HE I        2256 41.13         3.1 0.46            146           98.4 174 
 PTB  HZ EP       2256 25.03                             132    0.22 9  145 260 
 PTB  HN ES       2256 45.23                             132   -0.27 9  145 260 
 PTB  HZ I        2256 49.02         5.2 0.12            133            145 260 
 ZAR  HN ES       2256 55.53                             122    0.02 9  202 293 
                                                                                
