 2010 1019 2255 34.1 L   6.808 -73.025144.0  RSN  6 0.4 2.0LRSN                1
 GAP=172        1.09       5.9    12.6 11.3 -0.1054E+02 -0.5271E+02 -0.4062E+01E
 Epicentro: CEPITA - SANTANDER                                                 3
 ACTION:UP  11-02-18 11:10 OP:tino STATUS:               ID:20101019225534 L   I
 2010-10-19-2253-28S.COL___126                                                 6
 STAT SP IPHASW D HRMM SECON CODA AMPLIT PERI AZIMU VELO SNR AR TRES W  DIS CAZ7
 BAR2 SZ EP   2   2255 53.44                             168    -0.2 5   30 216 
 BAR2 SZ ES   1   2256  8.62                             168    -0.3 7   30 216 
 BAR2 SZ I        2256 11.60        23.6 0.51                            30 216 
 BRR  HZ IP     D 2255 55.69                             148     0.010   83 294 
 BRR  HN ES   1   2256 12.94                             148     0.3 7   83 294 
 BRR  HZ I        2256 15.03        23.3 0.14                            83 294 
 RUS  HZ EP       2255 57.67                             143     0.010  101 184 
 RUS  HE ES   2   2256 16.57                             143     0.4 5  101 184 
 RUS  HZ I        2256 17.60         7.7 0.25                           101 184 
 GUE  SZ EP       2255 57.72                             140    -0.710  114   6 
 GRA  SZ EP       2255 59.58                             138     0.810  122  12 
 GRA  SZ I        2256  0.95        15.5 0.45                           122  12 
 GRA  SZ ES   1   2256 18.17                             138     0.1 7  122  12 
 OCA  SZ ES   2   2256 24.03                             129    -0.4 5  162 348 
                                                                                
