 2015  319 2120 26.5 L   6.828 -73.169142.7  RSN  7 0.3 1.7LRSN                1
 GAP=132        0.68       2.9     3.3  5.6 -0.2055E+01  0.5363E+01 -0.1644E+01E
 Epicentro: LOS SANTOS - SANTANDER                                             3
 ACTION:UPD 15-04-30 16:27 OP:nd   STATUS:               ID:20150319212026 L   I
 OLDACT:REG 15-03-20 03:55 OP:spq  STATUS:               ID:20150319211749     3
 2015-03-19-2117-49M.COL___280                                                 6
 STAT SP IPHASW D HRMM SECON CODA AMPLIT PERI AZIMU VELO AIN AR TRES W  DIS CAZ7
 BAR2 EZ EP   1   2120 46.08                             169    0.29 7 26.1 183 
 BAR2 EZ ES   1   2121  1.18                             169    0.32 7 26.1 183 
 BAR2 EZ I        2121  2.28         8.4 0.22            170           26.1 183 
 PAM  SZ EP     C 2120 48.46                             150    0.1410 76.8  42 
 PAM  SN ES       2121  5.33                             150   -0.0310 76.8  42 
 PAM  SZ I        2121  7.36         9.1 0.46            154           76.8  42 
 RUS  HZ EP       2120 49.88                             142   -0.2810  104 175 
 RUS  HE ES   1   2121  8.46                             142   -0.18 7  104 175 
 RUS  HZ I        2121 10.10         7.1 0.28            145            104 175 
 PTB  HZ EP   1   2120 53.73                             132    0.72 7  146 257 
 PTB  HN ES       2121 13.36                             132   -0.36 9  146 257 
 PTB  HZ I        2121 16.06         6.1 0.26            132            146 257 
 SPBC HZ EP       2120 54.93                             128    0.12 9  164 218 
 SPBC HN ES       2121 16.82                             128   -0.10 9  164 218 
 SPBC HZ I        2121 20.46         9.9 0.26            130            164 218 
 ZAR  HN ES   1   2121 23.60                             122    0.38 6  201 292 
 ZAR  HZ I        2121 29.34         6.0 0.26            123            201 292 
 SML  HZ EP   1   2121  2.09                             117   -0.41 6  240 336 
 SML  HE ES   1   2121 30.22                             117   -0.39 6  240 336 
                                                                                
