 2010  819 2039 43.2 L   6.764 -73.583  4.3  RSN  5 0.5 1.2LRSN                1
 GAP=189        0.99       4.4     6.3  9.0  0.1860E+02 -0.5233E+01 -0.5115E+01E
 Epicentro: EL CARMEN DE CHUCURI - SANTANDER                                   3
 ACTION:UP  10-09-07 10:56 OP:vdl  STATUS:               ID:20100819203943 L   I
 2010-08-19-2037-10S.COL___116                                                 6
 STAT SP IPHASW D HRMM SECON CODA AMPLIT PERI AZIMU VELO SNR AR TRES W  DIS CAZ7
 BRR  HZ EP       2039 49.53                              47    -0.410   41 339 
 BRR  HE ES   1   2039 54.97                              47    -0.2 7   41 339 
 BRR  HZ I        2039 55.52        18.7 0.04                            41 339 
 BAR2 SZ EP       2039 50.98                              47    -0.310   48 113 
 BAR2 SZ ES   2   2039 57.08                              47    -0.5 5   48 113 
 BAR2 SZ I        2039 58.56        10.1 0.93                            48 113 
 RUS  HZ EP   2   2040  1.92                              47     0.8 5  111 150 
 RUS  HN ES   2   2040 14.91                              47    -0.2 5  111 150 
 GUE  SZ EP       2040  5.64                              47     0.6 9  138  32 
 GUE  SZ ES   3   2040 21.80                              47    -0.3 2  138  32 
 GRA  SZ EP   1   2040  7.44                              47     0.7 7  151  35 
 GRA  SZ ES   2   2040 24.94                              47    -0.2 5  151  35 
 GRA  SZ I        2040 29.57         7.5 0.26                           151  35 
                                                                                
