 2013 1219 2058  1.6 L   6.750 -73.147148.2  RSN  8 0.5 1.9LRSN                1
 GAP=139        1.20       5.0     5.1  8.2 -0.3946E+01  0.1295E+02 -0.2682E+01E
 Epicentro: LOS SANTOS - SANTANDER                                             3
 ACTION:UPD 14-01-13 10:19 OP:ep   STATUS:               ID:20131219205801 L   I
 OLDACT:REG 13-12-19 21:23 OP:carl STATUS:               ID:20131219205000     3
 2013-12-19-2050-00M.COL___285                                                 6
 STAT SP IPHASW D HRMM SECON CODA AMPLIT PERI AZIMU VELO AIN AR TRES W  DIS CAZ7
 BAR2 SZ ES       2058 36.49                             173   -0.3610 17.9 193 
 BAR2 SZ I        2058 39.14        31.0 0.24            174           17.9 193 
 BRR  HZ EP       2058 23.61                             152    0.4910 73.9 302 
 BRR  HN ES       2058 40.97                             152    1.0310 73.9 302 
 BRR  HZ I        2058 43.70        34.3 0.92            151           73.9 302 
 PAM  SZ EP       2058 24.54                             150    0.2410 81.8  37 
 PAM  SN ES       2058 41.48                             150   -0.5510 81.8  37 
 RUS  HZ EP       2058 25.56                             146    0.3910 95.1 176 
 RUS  HN ES       2058 43.31                             146   -0.2710 95.1 176 
 RUS  HZ I        2058 44.85         4.6 0.44            150           95.1 176 
 PTB  HZ EP       2058 28.57                             133   -0.06 9  147 261 
 PTB  HN ES       2058 49.35                             133   -0.39 9  147 261 
 SPBC HN ES       2058 52.08                             130    0.18 9  159 220 
 ZAR  HZ EP       2058 33.72                             122   -0.65 8  206 294 
 ZAR  HN ES       2058 59.64                             122   -0.32 8  206 294 
 ZAR  HZ I        2059  6.79         5.1 0.28            123            206 294 
 NOR  HN ES       2059  4.78                             119   -0.01 8  231 236 
                                                                                
