 2015  919 2235 48.9 L   6.821 -73.100134.3  RSN  4 0.4 1.2LRSN                1
 GAP=162        1.07      11.6     6.0  9.2 -0.9628E+01  0.2011E+02 -0.3591E+02E
 Epicentro: LOS SANTOS - SANTANDER                                             3
 ACTION:UPD 15-10-28 16:27 OP:cam  STATUS:               ID:20150919223548 L   I
 OLDACT:REG 15-09-20 03:55 OP:stll STATUS:               ID:20150919222748     3
 2015-09-19-2227-48M.COL___349                                                 6
 STAT SP IPHASW D HRMM SECON CODA AMPLIT PERI AZIMU VELO AIN AR TRES W  DIS CAZ7
 BAR2 EZ ES       2236 21.22                             168   -0.3110 26.9 200 
 BAR2 EZ I        2236 23.32         3.9 0.42            166           26.9 200 
 PAM  EZ EP       2236  9.81                             150    0.2310 72.4  38 
 PAM  EN ES       2236 25.43                             150   -0.3010 72.4  38 
 BRR  HZ EP   1   2236  9.21                             149    0.19 7 74.6 295 
 BRR  HE ES       2236 25.46                             149    0.7410 74.6 295 
 ZAR  HZ EP       2236 21.05                             119    0.04 8  208 291 
 ZAR  HN ES       2236 45.38                             119   -0.69 8  208 291 
                                                                                
