 2011 1219 2041  3.2 L   6.767 -73.103140.1  RSN  7 0.3 1.8LRSN                1
 GAP=144        0.53       3.4     4.8  4.8 -0.3404E+01 -0.1903E+01  0.4205E+01E
 Epicentro: LOS SANTOS - SANTANDER                                             3
 ACTION:UPD 12-07-13 16:17 OP:ep   STATUS:               ID:20111219204103 L   I
 2011-12-19-2040-00M.COL___191                                                 6
 STAT SP IPHASW D HRMM SECON CODA AMPLIT PERI AZIMU VELO AIN AR TRES W  DIS CAZ7
 BAR2 SZ ES   1   2041 36.63                             171   -0.20 7 21.2 205 
 BAR2 SZ I        2041 38.23        28.9 0.38                          21.2 205 
 GIR2 SZ EP   1   2041 22.66                             165    0.34 7 36.0 344 
 GIR2 SZ ES   2   2041 37.51                             165    0.27 5 36.0 344 
 BRR  HZ EP       2041 23.68                             150   -0.4010 77.1 299 
 BRR  HN ES   1   2041 40.67                             150    0.30 7 77.1 299 
 BRR  HZ I        2041 41.73        17.2 0.11                          77.1 299 
 PAM  SZ EP       2041 24.89                             150    0.0910 77.4  35 
 PAM  SN ES   2   2041 41.45                             150   -0.21 5 77.4  35 
 RUS  HZ EP   1   2041 26.01                             144   -0.08 7 96.7 179 
 RUS  HN ES   2   2041 43.85                             144   -0.11 5 96.7 179 
 RUS  HZ I        2041 46.08         5.0 0.29                          96.7 179 
 NOR  SN ES   2   2042  6.37                             117   -0.18 4  236 236 
 CHI  HZ EP   1   2041 40.48                             116    0.16 6  246 196 
 CHI  HZ I        2041 44.43         2.4 0.49                           246 196 
 CHI  HN ES   2   2042  9.83                             116    0.54 4  246 196 
                                                                                
