 2016  519 2204 35.9 L   6.802 -73.099139.8  RSN  6 0.3 1.5LRSN                1
 GAP=142        0.66       3.4     3.8  5.6 -0.1491E+01  0.1300E+02 -0.1511E+01E
 Epicentro: LOS SANTOS - SANTANDER                                             3
 ACTION:UPD 16-08-18 17:47 OP:cam  STATUS:               ID:20160519220435 L   I
 OLDACT:DUP 16-05-20 07:09 OP:cara STATUS:               ID:20160519215749d    3
 2016-05-19-2157-48M.COL___313                                                 6
 STAT SP IPHASW D HRMM SECON CODA AMPLIT PERI AZIMU VELO AIN AR TRES W  DIS CAZ7
 BAR2 EZ EP       22 4 55.04                             169    0.1610 25.0 202 
 BAR2 EZ ES       22 5 10.06                             169    0.4010 25.0 202 
 BAR2 EZ I        22 5 11.35         5.8 0.26            166           25.0 202 
 PAM  EE ES       22 5 13.71                             151   -0.2810 74.0  37 
 RUS  HE ES       22 5 17.08                             142   -0.1010  101 179 
 RUS  HZ I        22 5 18.82         4.2 0.28            143            101 179 
 PTB  HZ EP       22 5  2.62                             130   -0.28 9  153 259 
 PTB  HN ES       22 5 23.53                             130   -0.40 9  153 259 
 PTB  HZ I        22 5 25.87         3.3 0.24            129            153 259 
 ZAR  HZ EP       22 5  8.66                             120    0.17 8  209 292 
 ZAR  HE ES       22 5 34.15                             120    0.27 8  209 292 
 ZAR  HZ I        22 5 39.67         6.4 0.36            121            209 292 
 NOR  HZ EP       22 5 11.96                             117    0.16 8  239 235 
 NOR  HE ES       22 5 39.74                             117   -0.03 8  239 235 
 NOR  HZ I        22 5 46.99         1.9 0.20            117            239 235 
                                                                                
