 2011  719 2012 20.9 L   6.754 -73.095134.3  RSN  6 0.5 1.8LRSN                1
 GAP=162        0.88       5.8     7.5  7.7 -0.4119E+01  0.8934E+01  0.1299E+01E
 Epicentro: LOS SANTOS - SANTANDER                                             3
 ACTION:UPD 12-07-25 14:02 OP:epov STATUS:               ID:20110719201220 L   I
 2011-07-19-2010-03S.COL___143                                                 6
 STAT SP IPHASW D HRMM SECON CODA AMPLIT PERI AZIMU VELO AIN AR TRES W  DIS CAZ7
 BAR2 SZ EP       2012 39.07                             171    0.0010 20.4 208 
 BAR2 SZ ES   1   2012 52.53                             171   -0.73 7 20.4 208 
 BAR2 SZ I        2012 54.93        16.5 0.12                          20.4 208 
 BRR  HZ EP   1   2012 40.96                             148   -0.30 7 78.6 300 
 BRR  HZ I        2012 41.60        27.2 0.12                          78.6 300 
 BRR  HE ES   1   2012 57.67                             148    0.51 7 78.6 300 
 RUS  HZ EP   1   2012 43.18                             143    0.06 7 95.3 179 
 RUS  HN ES   1   2013  0.95                             143    0.47 7 95.3 179 
 RUS  HZ I        2013  2.54         6.2 0.20                          95.3 179 
 BRI  SZ EP   1   2012 44.19                             138    0.26 7  111  17 
 BRI  SZ I        2013  7.62         6.6 0.25                           111  17 
 NOR  SZ EP   1   2012 55.25                             116   -0.91 6  236 236 
 NOR  SN ES   1   2013 23.87                             116    0.19 6  236 236 
 TOL  SZ EP   1   2013  9.27                             107    0.52 5  344 226 
                                                                                
