 2016 1119 2225 51.2 L   6.769 -73.133136.7  RSN  8 0.5 2.3LRSN                1
 GAP=159        1.13       6.0     5.1  7.5 -0.9150E+01  0.9431E+01  0.1223E+02E
 Epicentro: LOS SANTOS - SANTANDER                                             3
 ACTION:UPD 17-10-26 21:09 OP:lp   STATUS:               ID:20161119222551 L   I
 OLDACT:REG 16-11-20 09:37 OP:dnl  STATUS:               ID:20161119221715     3
 2016-11-19-2218-00M.COL___331                                                 6
 STAT SP IPHASW D HRMM SECON CODA AMPLIT PERI AZIMU VELO AIN AR TRES W  DIS CAZ7
 BAR2 EZ IP     C 2226  9.76                             171    0.0610 20.3 196 
 BAR2 EZ ES       2226 23.63                             171   -0.4910 20.3 196 
 BAR2 EZ I        2226 28.63        34.0 0.42            169           20.3 196 
 BRR  HZ IP     C 2226 11.65                             150    0.0710 74.2 300 
 BRR  HE ES       2226 28.31                             150    0.8610 74.2 300 
 BRR  HZ I        2226 33.31        35.8 0.12            150           74.2 300 
 PAM  EZ IP     C 2226 12.60                             148    0.0010 79.2  37 
 PAM  EE ES       2226 29.31                             148    0.0510 79.2  37 
 PAM  EZ I        2226 30.18        32.0 0.34            154           79.2  37 
 PTB  HZ EP   4   2226 16.35                             130   -1.20 0  149 260 
 PTB  HN ES       2226 37.32                             130   -0.75 9  149 260 
 PTB  HZ I        2226 40.12        30.3 0.18            131            149 260 
 ZAR  HZ EP       2226 22.92                             120   -0.46 8  207 293 
 ZAR  HE ES       2226 48.53                             120    0.08 8  207 293 
 ZAR  HZ I        2226 54.62        42.9 0.42            122            207 293 
 NOR  HZ EP       2226 26.15                             117   -0.21 8  234 235 
 NOR  HE ES       2226 53.79                             117    0.03 8  234 235 
 NOR  HZ I        2226 57.84        16.4 0.34            119            234 235 
 ORTC HZ EP       2226 44.75                             105    0.12 6  394 217 
 ORTC HN ES       2227 27.64                             105    1.36 6  394 217 
 ORTC HZ I        2227 33.01         5.9 0.38            107            394 217 
 SJC  HZ EP   4   2226 44.53                             104   -2.41 0  413 327 
 SJC  HN ES   4   2227 25.44                             104   -4.96 0  413 327 
 SJC  HZ I        2227 29.88         3.0 0.36            106            413 327 
                                                                                
