 2015  819 2058 20.0 L   6.787 -73.116142.1  RSN  7 0.5 2.1LRSN                1
 GAP=162        1.22       4.4     7.1  9.5 -0.9511E+01  0.3453E+02 -0.7012E+01E
 Epicentro: LOS SANTOS - SANTANDER                                             3
 ACTION:UPD 15-09-15 23:03 OP:cam  STATUS:               ID:20150819205820 L   I
 OLDACT:REG 15-08-20 03:43 OP:mh   STATUS:               ID:20150819205748     3
 2015-08-19-2057-48M.COL___337                                                 6
 STAT SP IPHASW D HRMM SECON CODA AMPLIT PERI AZIMU VELO AIN AR TRES W  DIS CAZ7
 BAR2 EZ EP       2058 39.12                             171   -0.0510 22.7 199 
 BAR2 EZ ES       2058 53.83                             171   -0.3010 22.7 199 
 BAR2 EZ I        2058 55.11        17.0 0.16            169           22.7 199 
 PAM  EZ EP       2058 42.03                             150    0.2610 76.5  37 
 PAM  EN ES       2058 58.81                             150    0.0610 76.5  37 
 PAM  EZ I        2059  1.34        23.9 0.48            154           76.5  37 
 OCA  HN ES       2059 11.10                             128    0.90 9  162 352 
 SPBC HZ EP       2058 48.60                             128    0.30 9  164 220 
 SPBC HN ES       2059  9.89                             128   -0.50 9  164 220 
 SPBC HZ I        2059 16.10        11.4 0.32            129            164 220 
 ZAR  HZ EP       2058 52.74                             121    0.17 8  208 292 
 ZAR  HN ES       2059 18.28                             121    0.29 8  208 292 
 ZAR  HZ I        2059 24.04         9.8 0.20            122            208 292 
 SML  HZ EP       2058 55.69                             116   -1.02 8  246 335 
 SML  HN ES       2059 24.51                             116   -0.84 8  246 335 
 SML  HZ I        2059 30.01        14.9 0.22            118            246 335 
 TOL  SN ES       2059 46.58                             108    0.69 7  345 225 
                                                                                
