 2011  919 2243  1.1 L   6.810 -73.121148.8  RSN 12 0.2 2.5LRSN                1
 GAP=139        0.35       2.0     2.7  3.6 -0.7177E+00  0.3902E+01  0.1544E+01E
 Epicentro: LOS SANTOS - SANTANDER                                             3
 ACTION:UPD 12-07-13 15:58 OP:ep   STATUS:               ID:20110919224301 L   I
 2011-09-19-2239-49S.COL___165                                                 6
 STAT SP IPHASW D HRMM SECON CODA AMPLIT PERI AZIMU VELO AIN AR TRES W  DIS CAZ7
 BTL  SZ EP   1   2243 21.21                             172    0.16 7 20.2 307 
 BAR2 SZ IP       2243 21.04                             170   -0.1010 25.0 196 
 BAR2 SZ ES   2   2243 36.58                             170   -0.18 5 25.0 196 
 BAR2 SZ I        2243 39.77        52.0 0.30                          25.0 196 
 BRR  HZ IP     C 2243 22.84                             152    0.1510 73.1 297 
 BRR  HZ I        2243 23.09       116.1 0.21                          73.1 297 
 BRR  HN ES   2   2243 39.72                             152    0.19 5 73.1 297 
 PAM  SZ EP   2   2243 23.80                             152    0.30 5 74.8  38 
 PAM  SN ES   2   2243 40.87                             152   -0.09 5 74.8  38 
 RUS  HZ EP   2   2243 25.11                             144   -0.11 5  102 178 
 RUS  HE ES   2   2243 44.10                             144    0.07 5  102 178 
 RUS  HZ I        2243 44.96        33.6 0.40                           102 178 
 OCA  SZ EP   2   2243 29.14                             130   -0.45 5  160 352 
 OCA  SZ ES   2   2243 51.78                             130   -0.02 5  160 352 
 OCA  SZ I        2243 55.93        29.4 0.46                           160 352 
 ZAR  HZ EP   2   2243 33.96                             123   -0.01 4  206 292 
 ZAR  HN ES   2   2243 59.14                             123   -0.47 4  206 292 
 ZAR  HZ I        2244  4.77        47.8 0.40                           206 292 
 NOR  SZ EP       2243 37.17                             119   -0.15 8  238 235 
 NOR  SN ES   2   2244  5.24                             119   -0.33 4  238 235 
 CHI  HZ EP   2   2243 39.57                             118    0.41 4  250 196 
 CHI  HE ES   2   2244  8.66                             118   -0.19 4  250 196 
 CHI  HZ I        2244 16.53        12.5 0.38                           250 196 
 HEL  HZ EP   2   2243 41.93                             115    0.13 4  275 256 
 HEL  HN ES   2   2244 14.00                             115    0.46 4  275 256 
 HEL  HZ I        2244 20.15        18.1 0.24                           275 256 
 RREF HZ EP   2   2243 47.83                             111    0.13 3  325 230 
 RREF HN ES   2   2244 24.50                             111    0.46 3  325 230 
 RREF HZ I        2244 31.28        11.7 0.33                           325 230 
 PRA  HZ EP   2   2243 54.76                             107   -0.24 3  394 210 
 PRA  HN ES   2   2244 36.86                             107   -0.18 3  394 210 
                                                                                
