 2014 1119 2235 10.2 L   6.649 -73.207162.0  RSN  4 0.2 1.6LRSN                1
 GAP=204        0.67       5.9     5.7  7.1  0.1364E+02 -0.1019E+01 -0.8017E+01E
 Epicentro: BARICHARA - SANTANDER                                              3
 ACTION:UPD 14-12-19 15:44 OP:nd   STATUS:               ID:20141119223510 L   I
 OLDACT:REG 14-11-20 09:08 OP:cam  STATUS:               ID:20141119222818     3
 2014-11-19-2228-18M.COL___301                                                 6
 STAT SP IPHASW D HRMM SECON CODA AMPLIT PERI AZIMU VELO AIN AR TRES W  DIS CAZ7
 BAR2 SZ EP       2235 31.31                             177   -0.2510 6.84 156 
 BRR  HZ EP       2235 33.16                             154   -0.1510 75.4 312 
 BRR  HN ES       2235 51.56                             154    0.2010 75.4 312 
 RUS  HE ES       2235 53.66                             151    0.0910 84.7 171 
 PTB  HZ EP       2235 38.14                             137    0.40 9  139 265 
 PTB  HN ES       2235 58.96                             137   -0.28 9  139 265 
 PTB  HZ I        2236  6.37         5.0 0.48            132            139 265 
                                                                                
