 2013  319 2257 30.3 L   6.795 -73.105149.2  RSN 12 0.4 2.1LRSN                1
 GAP=142        0.78       3.0     4.4  4.9 -0.7218E+00  0.6150E+01  0.2947E+01E
 Epicentro: LOS SANTOS - SANTANDER                                             3
 ACTION:UPD 13-04-09 14:03 OP:ep   STATUS:               ID:20130319225730 L   I
 2013-03-19-2250-00M.COL___244                                                 6
 STAT SP IPHASW D HRMM SECON CODA AMPLIT PERI AZIMU VELO AIN AR TRES W  DIS CAZ7
 BAR2 SZ ES       2258  5.46                             170   -0.5710 24.1 201 
 BAR2 SZ I        2258  6.55        55.6 0.26            165           24.1 201 
 PAM  SZ IP     C 2257 53.08                             152    0.3110 75.0  37 
 PAM  SN ES   1   2258 10.49                             152    0.21 7 75.0  37 
 BRR  HZ IP       2257 52.20                             152    0.1110 75.5 297 
 BRR  HN ES       2258  9.64                             152    0.5710 75.5 297 
 BRR  HZ I        2258 13.31        17.4 0.12            149           75.5 297 
 RUS  HZ EP       2257 54.29                             145   -0.0810 99.9 179 
 RUS  HN ES   1   2258 12.91                             145   -0.21 7 99.9 179 
 RUS  HZ I        2258 14.27        10.1 0.30            144           99.9 179 
 PTB  HZ EP   1   2257 57.24                             132   -0.73 7  152 259 
 PTB  HN ES   3   2258 18.27                             132   -1.26 2  152 259 
 PTB  HZ I        2258 25.60        29.0 0.58            130            152 259 
 OCA  HN ES   1   2258 21.27                             130   -0.11 7  161 352 
 ZAR  HZ EP   1   2258  3.21                             122   -0.24 6  208 292 
 ZAR  HN ES   2   2258 29.44                             122    0.15 4  208 292 
 ZAR  HZ I        2258 34.94        13.1 0.16            122            208 292 
 NOR  HZ EP       2258  6.32                             119   -0.30 8  238 235 
 NOR  HN ES   1   2258 35.42                             119    0.48 6  238 235 
 NOR  HZ I        2258 39.01        11.5 0.20            119            238 235 
 SML  HZ EP   2   2258  6.53                             118   -0.88 4  246 334 
 SML  HN ES   2   2258 35.83                             118   -0.50 4  246 334 
 CHI  HZ EP   1   2258  8.79                             118    0.49 6  249 196 
 CHI  HN ES   1   2258 38.44                             118    0.52 6  249 196 
 CHI  HZ I        2258 47.56         6.2 0.32            118            249 196 
 HEL  HZ EP   2   2258 11.72                             115    0.53 4  276 256 
 HEL  HN ES   2   2258 42.77                             115   -0.29 4  276 256 
 PRA  HN EP       2258 24.35                             107    0.17 6  394 210 
 PRA  HE ES   2   2259  6.09                             107   -0.10 3  394 210 
 PRA  HN I        2259 10.63         4.7 0.32            108            394 210 
                                                                                
