 2011 1219 2202 24.7 L   6.469 -73.729 99.2  RSN 14 0.4 2.6LRSN                1
 GAP=100        0.69       2.4     2.5  5.4 -0.2433E+01  0.4967E+01  0.3298E+00E
 Epicentro: SANTA HELENA DEL OPON - SANTANDER                                  3
 ACTION:UPD 12-07-13 16:17 OP:ep   STATUS:               ID:20111219220224 L   I
 2011-12-19-2159-59S.COL___190                                                 6
 STAT SP IPHASW D HRMM SECON CODA AMPLIT PERI AZIMU VELO AIN AR TRES W  DIS CAZ7
 BAR2 SZ IP       22 2 40.89                             146    0.1810 61.9  77 
 BAR2 SZ ES   1   22 2 53.47                             146    0.26 7 61.9  77 
 BAR2 SZ I        22 2 55.73       202.2 0.42                          61.9  77 
 BRR  HZ IP     D 22 2 40.77                             142   -0.2410 70.6   1 
 BRR  HN ES   1   22 2 53.86                             142    0.13 7 70.6   1 
 BRR  HZ I        22 2 58.02       154.4 0.15                          70.6   1 
 GIR2 SZ IP       22 2 42.90                             135    0.1310 89.7  41 
 RUS  HZ EP       22 2 43.69                             133   -0.0910 95.7 132 
 RUS  HN ES   1   22 2 58.51                             133   -0.16 7 95.7 132 
 RUS  HZ I        22 3  0.96        99.8 0.20                          95.7 132 
 PAM  SZ EP       22 2 49.12                             120    0.04 9  149  50 
 PAM  SN ES   2   22 3  7.49                             120   -0.61 5  149  50 
 NOR  SZ EP   1   22 2 49.20                             117   -0.63 7  161 232 
 NOR  SE ES       22 3  8.86                             117   -0.59 9  161 232 
 OCA  SZ EP   1   22 2 54.88                             112    0.46 6  201  13 
 OCA  SZ I        22 3 25.04        42.3 0.26                           201  13 
 HEL  HZ EP       22 2 54.38                             112   -0.39 9  202 261 
 HEL  HN ES   1   22 3 18.46                             112    0.23 6  202 261 
 HEL  HZ I        22 3 20.82        48.8 0.30                           202 261 
 CHI  HZ EP   1   22 2 54.87                             112   -0.16 6  203 180 
 CHI  HN ES   1   22 3 19.18                             112    0.48 6  203 180 
 CHI  HZ I        22 3 33.13        17.0 0.47                           203 180 
 GUY  SZ EP   1   22 2 58.43                             109    0.26 6  230 233 
 GUY  SN ES   1   22 3 25.15                             109    0.87 6  230 233 
 GUY  SZ I        22 3 33.38        32.0 0.49                           230 233 
 RREF HZ EP   1   22 3  0.42                             108   -0.24 6  249 226 
 RREF HN ES   2   22 3 28.65                             108   -0.07 4  249 226 
 RREF HZ I        22 3 34.39        24.9 0.23                           249 226 
 TOL  SZ EP   1   22 3  3.59                             106    0.53 6  273 220 
 TOL  SZ ES   2   22 3 33.32                             106    0.32 4  273 220 
 PRA  HZ EP   1   22 3  9.58                             103   -0.02 5  331 203 
 COD  HZ EP   1   22 3 16.56                             101    0.49 4  385   5 
 COD  HN ES   2   22 3 56.14                             101   -0.01 3  385   5 
 COD  HZ I        22 4  3.05        27.5 0.50                           385   5 
                                                                                
