 2017  719 2149 59.3 L   6.766 -73.164137.7  RSN 10 0.4 1.8LRSN                1
 GAP=111        0.93       3.6     3.4  5.3 -0.7158E+00  0.3501E+01  0.4081E+01E
 Epicentro: LOS SANTOS - SANTANDER                                             3
 ACTION:UPD 17-08-30 15:35 OP:rebc STATUS:               ID:20170719214959 L   I
 OLDACT:REG 17-07-20 02:36 OP:dhb  STATUS:               ID:20170719214738     3
 2017-07-19-2148-00M.COL___395                                                 6
 STAT SP IPHASW D HRMM SECON CODA AMPLIT PERI AZIMU VELO AIN AR TRES W  DIS CAZ7
 BAR2 HZ EP       2150 17.79                             172   -0.1310 19.4 186 
 BAR2 HZ ES       2150 32.34                             172   -0.0710 19.4 186 
 BAR2 HZ I        2150 34.07        24.2 0.16            172           19.4 186 
 BRR  HZ EP       2150 19.93                             151    0.3110 71.3 302 
 BRR  HN ES       2150 35.81                             151    0.3710 71.3 302 
 BRR  HZ I        2150 40.23        12.5 0.39            151           71.3 302 
 PAM  EZ IP     C 2150 20.78                             148   -0.1810 81.5  39 
 PAM  EN ES       2150 37.95                             148    0.1310 81.5  39 
 PAM  EZ I        2150 40.08        11.0 0.70            151           81.5  39 
 RUS  HZ EP       2150 21.74                             143   -0.3010 97.0 175 
 RUS  HN ES       2150 39.96                             143    0.2210 97.0 175 
 RUS  HZ I        2150 41.48         7.6 0.35            146           97.0 175 
 PTB  HZ EP       2150 25.27                             131   -0.14 9  145 260 
 PTB  HN ES       2150 45.13                             131   -0.61 9  145 260 
 PTB  HZ I        2150 49.69         4.7 0.10            132            145 260 
 SPBC HZ EP       2150 26.72                             128   -0.10 9  159 219 
 SPBC HN ES       2150 48.13                             128   -0.13 9  159 219 
 SPBC HZ I        2150 49.69         9.9 0.24            130            159 219 
 YPLC HZ IP     C 2150 28.12                             125   -0.21 9  175 150 
 YPLC HN ES   4   2150 48.89                             125   -2.05 0  175 150 
 YPLC HZ I        2150 52.63         9.8 0.28            128            175 150 
 ZAR  HZ EP   2   2150 30.07                             121   -1.15 4  204 293 
 ZAR  HN ES       2150 55.99                             121   -0.10 9  204 293 
 ZAR  HZ I        2151  1.29         6.2 0.20            122            204 293 
 NOR  HZ IP       2150 34.44                             117    0.24 8  231 235 
 NOR  HE ES       2151  1.56                             117    0.17 8  231 235 
 NOR  HZ I        2151  5.41         4.7 0.18            119            231 235 
 GUY2CHZ EP       2150 43.47                             111    1.32 7  297 235 
 GUY2CHE ES   4   2151 19.61                             111    4.06 0  297 235 
 GUY2CHZ I        2151 22.79         3.2 0.32                           297 235 
                                                                                
