 2010  520 0959 38.7 L   6.766 -72.974144.0  RSN 10 0.4 2.4LRSN                1
 GAP=164        0.96       7.4     7.9  7.4 -0.4080E+02 -0.1546E+02  0.1234E+02E
 Epicentro: CEPITA - SANTANDER                                                 3
 ACTION:UP  10-08-24 10:06 OP:vdl  STATUS:               ID:20100520095938 L   I
 2010-05-20-0957-44S.COL___109                                                 6
 STAT SP IPHASW D HRMM SECON CODA AMPLIT PERI AZIMU VELO AIN AR TRES W  DIS CAZ7
 BAR2 SZ IP     D  959 58.31                             168     0.110   30 230 
 BAR2 SZ ES   1   10 0 13.62                             168     0.1 7   30 230 
 BRR  HZ IP     C 10 0  0.88                             146     0.110   90 295 
 BRR  HZ I        10 0  1.17        75.6 0.24                            90 295 
 BRR  HN ES   1   10 0 17.95                             146    -0.1 7   90 295 
 BRI  SZ EP       10 0  1.74                             141    -0.510  107  11 
 GUE  SZ EP       10 0  3.18                             139    -0.110  118   3 
 GRA  SZ IP       10 0  4.06                             137     0.410  125   9 
 ROSC BZ EP   3   10 0 17.09                             115    -0.4 2  260 215 
 ROSC BZ I        10 0 53.37        17.0 0.16                           260 215 
 HEL  HZ EP       10 0 20.26                             113    -0.5 7  290 257 
 HEL  HZ I        10 0 56.69        13.9 0.29                           290 257 
 RREF BZ EP       10 0 26.61                             110     0.5 7  334 232 
 RREF BN ES   2   10 1  3.81                             110     0.7 3  334 232 
 RREF BZ I        10 1  6.73        11.0 0.49                           334 232 
 SDV  BZ EP       10 0 28.21                             108     1.0 6  349  48 
 SDV  BN ES   1   10 1  4.43                             108    -0.7 5  349  48 
 SDV  BZ I        10 1  7.04         6.2 0.48                           349  48 
 PRA  HZ EP       10 0 32.59                             106    -0.3 6  399 212 
 PRA  HE ES   2   10 1 14.30                             106    -0.9 3  399 212 
 PRA  HZ I        10 1 19.10         8.8 0.37                           399 212 
                                                                                
