 2015 1120 0419 40.5 L   5.780 -73.871109.6  RSN  6 0.3 1.1LRSN                1
 GAP=156        0.80       3.6     3.1  6.1 -0.4306E+01  0.6810E+01 -0.8800E+01E
 Epicentro: ALBANIA - SANTANDER                                                3
 ACTION:UPD 15-12-28 16:12 OP:cam  STATUS:               ID:20151120041940 L   I
 OLDACT:UP  15-11-20 15:24 OP:ak   STATUS:               ID:20151120041742d    3
 OLDACT:UP  15-11-20 15:23 OP:ak   STATUS:               ID:20151120041742d    3
 OLDACT:DUP 15-11-20 15:19 OP:ak   STATUS:               ID:20151120041742d    3
 OLDACT:UP  15-11-20 15:16 OP:ak   STATUS:               ID:20151120041741     3
 OLDACT:REG 15-11-20 13:10 OP:ak   STATUS:               ID:20151120041741     3
 2015-11-20-0417-41M.COL___316                                                 6
 STAT SP IPHASW D HRMM SECON CODA AMPLIT PERI AZIMU VELO AIN AR TRES W  DIS CAZ7
 SPBC HZ EP        419 55.84                             166    0.1610 26.4 238 
 SPBC HN ES        420  7.42                             166   -0.0910 26.4 238 
 RUS  HZ EP        419 59.61                             139   -0.2610 88.1  82 
 RUS  HN ES        420 14.74                             139   -0.2310 88.1  82 
 RUS  HZ I         420 19.14         1.5 0.45            139           88.1  82 
 BAR2 EZ EP        420  2.39                             129    0.2510  118  40 
 BAR2 EZ ES        420 19.10                             129    0.1010  118  40 
 BRR  HZ EP        420  5.08                             122    0.28 9  148   7 
 BRR  HN ES        420 24.07                             122    0.34 9  148   7 
 BRR  HZ I         420 27.15         3.8 0.19            124            148   7 
 GUY2CHZ EP   1    420  9.06                             117    0.60 7  177 250 
 GUY2CHE ES        420 30.26                             117    0.00 9  177 250 
 GUY2CHZ I         420 35.84         1.7 0.26                           177 250 
 ZAR  HZ EP        420 11.74                             111   -0.80 8  219 330 
 ZAR  HN ES        420 37.27                             111   -0.24 8  219 330 
                                                                                
