 2011 1120 0507 49.6 L   6.766 -73.086151.8  RSN  4 0.2 1.2LRSN                1
 GAP=146        0.42       5.7     9.9  6.1  0.4129E+02 -0.1283E+02 -0.9803E+01E
 Epicentro: LOS SANTOS - SANTANDER                                             3
 ACTION:UPD 12-07-13 16:11 OP:ep   STATUS:               ID:20111120050749 L   I
 2011-11-20-0507-21S.COL___178                                                 6
 STAT SP IPHASW D HRMM SECON CODA AMPLIT PERI AZIMU VELO AIN AR TRES W  DIS CAZ7
 BAR2 SZ EP   2    5 8  9.41                             171   -0.57 5 22.0 209 
 BAR2 SZ ES   2    5 8 25.67                             171   -0.17 5 22.0 209 
 BAR2 SZ I         5 8 28.16         4.9 0.54                          22.0 209 
 PAM  SE ES   3    5 8 30.59                             152    0.35 2 76.4  34 
 BRR  HZ EP        5 8 11.96                             151    0.0810 78.7 299 
 BRR  HZ I         5 8 12.30         4.2 0.12                          78.7 299 
 BRR  HN ES   1    5 8 29.21                             151   -0.01 7 78.7 299 
 RUS  HZ EP   2    5 8 13.87                             146    0.15 5 96.6 180 
 RUS  HN ES   1    5 8 32.59                             146    0.09 7 96.6 180 
 RUS  HZ I         5 8 33.53         1.2 0.27                          96.6 180 
                                                                                
