 2017  520 0213 28.9 L   6.851 -73.100146.5  RSN 10 0.6 2.1LRSN                1
 GAP=221        1.10       5.2     5.3  8.3  0.8782E+01 -0.1466E+01  0.8201E+01E
 Epicentro: LOS SANTOS - SANTANDER                                             3
 ACTION:UPD 17-06-16 13:37 OP:jn   STATUS:               ID:20170520021328 L   I
 OLDACT:UP  17-05-20 14:12 OP:cog  STATUS:               ID:20170520020731     3
 OLDACT:UP  17-05-20 14:11 OP:cog  STATUS:               ID:20170520020731     3
 OLDACT:UP  17-05-20 14:10 OP:cog  STATUS:               ID:20170520020731     3
 OLDACT:REG 17-05-20 12:19 OP:dnl  STATUS:               ID:20170520020731     3
 2017-05-20-0208-00M.COL___359                                                 6
 STAT SP IPHASW D HRMM SECON CODA AMPLIT PERI AZIMU VELO AIN AR TRES W  DIS CAZ7
 BRR  HZ EP        213 50.40                             151    0.1410 73.3 293 
 BRR  HE ES        214  7.30                             151    0.3910 73.3 293 
 BRR  HZ I         214 11.49        31.4 0.12            150           73.3 293 
 RUS  HZ EP        213 52.94                             142   -0.2010  106 179 
 RUS  HE ES        214 11.74                             142   -0.2910  106 179 
 RUS  HZ I         214 12.89        12.9 0.32            141            106 179 
 PTB  HZ EP   9    213 55.43                             130   -1.07 0  154 257 
 PTB  HE EP        213 55.68                             130   -0.82 9  154 257 
 PTB  HN ES        214 16.12                             130   -0.83 9  154 257 
 PTB  HZ I         214 20.20        10.4 0.28            130            154 257 
 SPBC HZ EP        213 58.16                             127   -0.03 9  171 219 
 SPBC HN ES   3    214 18.76                             127   -2.27 2  171 219 
 SPBC HZ I         214 26.92        25.2 0.22            127            171 219 
 YPLC HZ EP        213 59.31                             126    0.28 9  179 154 
 YPLC HN ES   3    214 23.86                             126    1.35 2  179 154 
 ZAR  HZ EP   4    214  2.97                             122    1.28 0  207 290 
 ZAR  HN ES        214 26.96                             122   -0.28 8  207 290 
 ZAR  HZ I         214 29.68        17.0 0.22            123            207 290 
 NOR  HN ES        214 34.01                             117    0.00 8  242 234 
 NOR  HZ I         214 39.34        11.6 0.39            118            242 234 
 CHI  HZ EP   3    214  7.28                             116   -0.11 2  255 196 
 CHI  HE ES        214 37.37                             116   -0.04 8  255 196 
 CHI  HZ I         214 44.37         6.4 0.50            117            255 196 
 HEL  HZ EP   4    214 11.11                             114    1.24 0  278 255 
 HEL  HE ES        214 42.85                             114    1.04 7  278 255 
 HEL  HZ I         214 47.14         7.2 0.26            114            278 255 
 HEL  HN I         214 48.15        10.0 0.24                           278 255 
 DBB  EZ EP   4    214 39.77                             109   22.81 0  344 273 
 DBB  EN ES   4    214 52.33                             109   -2.10 0  344 273 
 ORTC HN ES        215  6.98                             106    0.47 6  403 216 
                                                                                
