 2013  720 0118 36.0 L   6.851 -73.155134.0  RSN  4 0.2 1.7LRSN                1
 GAP=201        0.53       3.4     4.2  9.5  0.5079E+01 -0.8124E+00 -0.1823E+02E
 Epicentro: LOS SANTOS - SANTANDER                                             3
 ACTION:UPD 13-08-12 10:38 OP:ep   STATUS:               ID:20130720011836 L   I
 OLDACT:UP  13-07-20 09:36 OP:mh   STATUS:               ID:20130720011648     3
 OLDACT:UP  13-07-20 09:36 OP:mh   STATUS:               ID:20130720011648     3
 OLDACT:REG 13-07-20 09:02 OP:mh   STATUS:               ID:20130720011648     3
 2013-07-20-0116-48M.COL___234                                                 6
 STAT SP IPHASW D HRMM SECON CODA AMPLIT PERI AZIMU VELO AIN AR TRES W  DIS CAZ7
 BAR2 SZ EP   1    118 54.73                             167    0.36 8 28.7 186 
 BAR2 SZ I         119 11.17         4.1 0.36            170           28.7 186 
 RUS  HZ EP   1    118 59.25                             140    0.18 7  106 176 
 RUS  HN ES        119 16.85                             140   -0.2010  106 176 
 RUS  HN I         119 19.08         7.2 0.38            144            106 176 
 PTB  HZ EP        119  1.88                             129   -0.19 9  148 257 
 PTB  HN ES        119 22.53                             129    0.15 9  148 257 
 PTB  HN I         119 25.51        11.0 0.20            137            148 257 
 SML  HN ES        119 38.90                             115   -0.10 8  238 335 
 SML  HN I         119 44.42         9.2 0.10            116            238 335 
                                                                                
