 2012  320 0906 38.9 L   6.776 -73.165150.5  RSN  6 0.2 1.5LRSN                1
 GAP=135        0.50       3.5     3.5  4.6  0.9972E+00  0.4381E+01 -0.2242E+00E
 ACTION:UP  12-03-31 23:21 OP:EP   STATUS:               ID:20120320090638 L   I
 2012-03-20-0900-00M.COL___202                                                 6
 STAT SP IPHASW D HRMM SECON CODA AMPLIT PERI AZIMU VELO SNR AR TRES W  DIS CAZ7
 BAR2 SZ EP   1    9 6 59.05                             172     0.0 7   20 185 
 BAR2 SZ ES   1    9 7 14.79                             172     0.1 7   20 185 
 BAR2 SZ I         9 7 16.76         8.4 0.31                            20 185 
 BRR  HZ EP   2    9 7  0.20                             153    -0.3 5   71 301 
 BRR  HN ES   1    9 7 17.60                             153     0.2 7   71 301 
 BRR  HZ I         9 7 22.60        10.2 0.29                            71 301 
 PAM  SZ EP   1    9 7  1.72                             151    -0.1 7   81  39 
 PAM  SE ES   1    9 7 19.49                             151    -0.2 7   81  39 
 RUS  HZ EP   1    9 7  3.18                             145     0.3 7   98 175 
 RUS  HE ES   1    9 7 21.63                             145     0.0 7   98 175 
 RUS  HZ I         9 7 23.54         2.1 0.53                            98 175 
 PTB  HZ EP   1    9 7  5.69                             133    -0.3 7  145 260 
 PTB  HN ES   2    9 7 26.75                             133    -0.4 5  145 260 
 PTB  HZ I         9 7 29.30         2.6 0.16                           145 260 
 ZAR  HZ EP   1    9 7 11.86                             123     0.3 6  203 293 
 ZAR  HE ES   2    9 7 37.21                             123     0.2 4  203 293 
 ZAR  HZ I         9 7 43.63         3.2 0.24                           203 293 
                                                                                
