 2012  120 0526 18.3 L   6.783 -73.076143.3  RSN 10 0.3 1.8LRSN                1
 GAP=146        0.59       2.7     3.4  4.8 -0.2307E+00  0.4266E+01  0.2977E+01E
 Epicentro: LOS SANTOS - SANTANDER                                             3
 ACTION:UP  12-02-03 08:19 OP:REBC STATUS:               ID:20120120052618 L   I
 2012-01-20-0520-00M.COL___187                                                 6
 STAT SP IPHASW D HRMM SECON CODA AMPLIT PERI AZIMU VELO SNR AR TRES W  DIS CAZ7
 BAR2 SZ EP        526 37.45                             170    -0.210   24 209 
 BAR2 SZ I         526 38.03        10.8 0.13                            24 209 
 BAR2 SZ ES   1    526 52.77                             170     0.0 7   24 209 
 PAM  SZ EP        526 40.34                             152     0.310   74  34 
 PAM  SN ES   1    526 57.11                             152     0.1 7   74  34 
 BRR  HZ EP        526 39.27                             150    -0.410   79 297 
 BRR  HE ES   1    526 56.34                             150     0.0 7   79 297 
 BRR  HZ I         527  0.38        13.9 0.17                            79 297 
 RUS  HZ EP        526 41.49                             144    -0.210   98 180 
 RUS  HZ I         526 42.78         5.4 0.18                            98 180 
 RUS  HN ES   1    527  0.20                             144     0.3 7   98 180 
 OCA  SZ ES   2    527  9.21                             129     0.3 5  163 351 
 OCA  SZ I         527 14.52         6.7 0.23                           163 351 
 ZAR  HN ES   1    527 17.34                             121     0.1 6  212 292 
 ZAR  HZ I         527 21.29         8.2 0.31                           212 292 
 NOR  SN ES   2    527 22.53                             117    -0.2 4  240 236 
 CHI  HZ EP   1    526 56.05                             117     0.1 6  249 197 
 CHI  HN ES   1    527 25.25                             117     0.0 6  249 197 
 CHI  HZ I         527 31.56         2.8 0.61                           249 197 
 HEL  HZ EP   1    526 59.22                             114     0.0 6  279 257 
 HEL  HN ES   2    527 31.33                             114     0.3 4  279 257 
 HEL  HZ I         527 36.88         4.6 0.38                           279 257 
 RREF HZ EP   2    527  5.56                             110     0.7 3  326 231 
 RREF HN ES   2    527 41.86                             110     0.6 3  326 231 
 RREF HZ I         527 49.54         4.3 0.30                           326 231 
                                                                                
