 2015  320 0856 57.3 L   6.815 -73.171145.1  RSN 14 0.5 2.5LRSN                1
 GAP= 69        1.03       2.8     3.3  5.9 -0.5766E+00  0.2793E+01  0.1527E+01E
 Epicentro: LOS SANTOS - SANTANDER                                             3
 ACTION:UPD 15-04-30 16:27 OP:nd   STATUS:               ID:20150320085657 L   I
 OLDACT:UP  15-03-20 18:32 OP:mh   STATUS:               ID:20150320084735     3
 OLDACT:REG 15-03-20 13:19 OP:fm   STATUS:               ID:20150320084735     3
 2015-03-20-0847-35M.COL___275                                                 6
 STAT SP IPHASW D HRMM SECON CODA AMPLIT PERI AZIMU VELO AIN AR TRES W  DIS CAZ7
 BAR2 EZ EP        857 16.92                             170    0.0410 24.7 183 
 BAR2 EZ I         857 32.86        41.1 0.24            169           24.7 183 
 BRR  HZ EP        857 18.76                             154    0.5710 67.9 298 
 BRR  HN ES        857 35.31                             154    0.8210 67.9 298 
 BRR  HZ I         857 39.60        36.2 0.18            152           67.9 298 
 PAM  SZ EP        857 20.16                             150    0.6810 77.9  42 
 PAM  SN ES        857 36.86                             150    0.0810 77.9  42 
 PAM  SZ I         857 38.84        75.4 0.48            155           77.9  42 
 RUS  HZ EP        857 20.88                             143   -0.2410  102 175 
 RUS  HN ES        857 39.43                             143   -0.2710  102 175 
 RUS  HZ I         857 40.63        34.8 0.32            145            102 175 
 PTB  HZ EP        857 23.72                             132   -0.27 9  145 258 
 PTB  HN ES        857 44.00                             132   -0.81 9  145 258 
 PTB  HZ I         857 51.66        14.4 0.24            132            145 258 
 TAM  HZ EP     D  857 25.41                             130    0.19 9  158 105 
 TAM  HE ES   1    857 46.36                             130   -0.63 7  158 105 
 OCA  HZ EP        857 25.09                             130   -0.28 9  158 354 
 OCA  HN ES        857 46.60                             130   -0.67 9  158 354 
 OCA  HZ I         857 52.01        52.8 0.32            132            158 354 
 SPBC HZ EP        857 25.66                             129   -0.04 9  163 218 
 SPBC HN ES   1    857 47.52                             129   -0.34 7  163 218 
 SPBC HZ I         857 50.39        50.3 0.38            130            163 218 
 ZAR  HZ EP        857 29.14                             123   -0.23 9  201 292 
 ZAR  HN ES        857 54.55                             123    0.17 9  201 292 
 ZAR  HZ I         858  0.93        23.0 0.56            124            201 292 
 NOR  HZ EP        857 33.07                             118    0.22 8  233 234 
 NOR  HN ES        858  0.77                             118    0.19 8  233 234 
 NOR  HZ I         858  8.23        20.7 0.56            119            233 234 
 SML  HZ EP        857 33.25                             118   -0.34 8  241 336 
 SML  HN ES        858  1.97                             118    0.06 8  241 336 
 SML  HZ I         858  5.20        40.1 0.26            119            241 336 
 ROSC BZ EP   2    857 36.67                             117    1.29 4  253 210 
 ROSC BN ES   2    858  4.89                             117   -0.20 4  253 210 
 ROSC BZ I         858 10.03        30.0 0.30            118            253 210 
 URE  HZ EP   4    857 37.30                             114   -0.67 0  281 292 
 URE  HN ES   4    858  9.54                             114   -0.16 0  281 292 
 PTGC HZ EP   4    857 40.15                             111   -1.27 0  311 158 
 PTGC HN ES   4    858 12.79                             111   -3.04 0  311 158 
 RREF HZ EP   4    857 44.80                             111    1.51 0  321 229 
 RREF HN ES   4    858 21.49                             111    2.32 0  321 229 
 TOL  SZ EP   4    857 47.00                             109    1.56 0  343 224 
 TOL  SN ES   4    858 24.43                             109    1.44 0  343 224 
 TOL  SZ I         858 30.34        11.4 0.48            110            343 224 
 PRA  HZ EP        857 50.86                             106    0.06 6  392 209 
 PRA  HN ES   1    858 33.32                             106    0.78 4  392 209 
 PRA  HZ I         858 38.73        10.2 0.20            108            392 209 
                                                                                
