 2017  620 0916 29.7 L   6.791 -73.330128.7  RSN  6 0.4 1.4LRSN                1
 GAP=264        0.95       4.8     7.8  8.1 -0.9029E+01 -0.5938E+01  0.6061E+01E
 Epicentro: ZAPATOCA - SANTANDER                                               3
 ACTION:UPD 17-09-14 16:53 OP:jn   STATUS:               ID:20170620091629 L   I
 OLDACT:REG 17-06-20 15:24 OP:lv   STATUS:               ID:20170620090759     3
 2017-06-20-0907-59S.COL___273                                                 6
 STAT SP IPHASW D HRMM SECON CODA AMPLIT PERI AZIMU VELO AIN AR TRES W  DIS CAZ7
 BRR  HZ EP        916 47.96                             156   -0.1410 54.7 310 
 BRR  HN ES        917  2.40                             156   -0.0510 54.7 310 
 BRR  HZ I         917  3.77         6.4 0.10            150           54.7 310 
 PTB  HZ EP        916 53.07                             132   -0.3810  128 257 
 PTB  HN ES        917 11.59                             132   -0.3810  128 257 
 PTB  HZ I         917 15.20         3.2 0.32            129            128 257 
 SPBC HN ES        917 16.70                             127    0.74 9  150 213 
 ZAR  HZ EP        916 59.59                             121    0.44 9  186 295 
 ZAR  HN ES        917 22.53                             121    0.41 9  186 295 
 ZAR  HZ I         917 26.63         2.5 0.15            119            186 295 
 NOR  HZ EP        917  2.57                             117   -0.07 8  218 232 
 NOR  HN ES        917 27.83                             117   -0.51 8  218 232 
 NOR  HZ I         917 32.68         2.0 0.20            115            218 232 
 GUY2CHZ EP   9    917 12.46                             110    1.84 0  284 233 
 GUY2CHN ES        917 44.55                                    0.17 7  284 233 
 GUY2CHZ I         917 51.15         1.8 0.31                           284 233 
                                                                                
