 2015  120 0108  7.6 L   6.780 -73.125146.6  RSN  8 0.5 1.7LRSN                1
 GAP=140        1.19       4.8     4.9  7.6 -0.2973E+01  0.1045E+02  0.8055E+00E
 Epicentro: LOS SANTOS - SANTANDER                                             3
 ACTION:UPD 15-03-02 15:40 OP:nd   STATUS:               ID:20150120010807 L   I
 OLDACT:REG 15-01-20 12:54 OP:carl STATUS:               ID:20150120005748     3
 2015-01-20-0057-48M.COL___256                                                 6
 STAT SP IPHASW D HRMM SECON CODA AMPLIT PERI AZIMU VELO AIN AR TRES W  DIS CAZ7
 BAR2 EZ EP        1 8 27.37                             171    0.0310 21.7 197 
 BAR2 EZ ES        1 8 42.95                             171    0.2410 21.7 197 
 BAR2 EZ I         1 8 45.18         6.7 0.16            170           21.7 197 
 BRR  HZ EP        1 8 29.13                             152    0.0710 74.3 299 
 BRR  HN ES        1 8 45.86                             152    0.0910 74.3 299 
 BRR  HZ I         1 8 50.29         9.5 0.36            151           74.3 299 
 PAM  SZ EP        1 8 30.19                             151    0.2210 77.7  37 
 PAM  SN ES        1 8 46.97                             151   -0.4110 77.7  37 
 PAM  SZ I         1 8 47.69         7.0 0.18            155           77.7  37 
 RUS  HZ EP        1 8 31.38                             145    0.0710 98.2 177 
 RUS  HN ES        1 8 49.93                             145    0.1610 98.2 177 
 RUS  HZ I         1 8 51.17         4.6 0.32            147           98.2 177 
 PTB  HZ EP        1 8 34.04                             132   -0.81 9  150 260 
 PTB  HN ES        1 8 54.97                             132   -1.10 9  150 260 
 PTB  HZ I         1 8 57.15         4.9 0.16            133            150 260 
 SPBC HZ EP        1 8 36.38                             129    0.20 9  163 220 
 SPBC HN ES        1 8 58.58                             129    0.14 9  163 220 
 SPBC HZ I         1 9  5.63         6.8 0.10            131            163 220 
 ZAR  HZ EP        1 8 40.41                             122   -0.04 8  207 292 
 ZAR  HN ES        1 9  7.15                             122    1.11 8  207 292 
 ZAR  HZ I         1 9 11.34        11.0 0.44            124            207 292 
 NOR  HE ES        1 9 11.65                             119    0.21 8  235 235 
                                                                                
