 2016 1220 0432 53.4 L   6.746 -74.040 28.7  RSN  5 0.3 1.1LRSN                1
 GAP=112        0.84       2.7     2.0  3.5 -0.5861E+00 -0.2546E+01  0.2144E+01E
 Epicentro: PUERTO PARRA - SANTANDER                                           3
 ACTION:UPD 17-01-11 20:17 OP:rebc STATUS:               ID:20161220043253 L   I
 OLDACT:REG 16-12-20 13:01 OP:cog  STATUS:               ID:20161220042742     3
 2016-12-20-0428-00M.COL___345                                                 6
 STAT SP IPHASW D HRMM SECON CODA AMPLIT PERI AZIMU VELO AIN AR TRES W  DIS CAZ7
 PTB  HZ EP        433  2.54                             111   -0.0710 51.4 244 
 PTB  HN ES        433  9.71                             111   -0.1110 51.4 244 
 PTB  HZ I         433 10.43        11.8 0.18            114           51.4 244 
 BRR  HZ EP        433  2.84                             110   -0.0910 53.9  42 
 BRR  HE ES        433 10.63                             110    0.2510 53.9  42 
 BRR  HZ I         433 11.89         4.2 0.42            111           53.9  42 
 BAR2 EZ EP        433  8.56                              61   -0.3510 96.3 100 
 BAR2 EZ ES        433 20.49                              61   -0.5310 96.3 100 
 BAR2 EZ I         433 21.86         4.6 0.24             61           96.3 100 
 ZAR  HE ES        433 26.42                              61    0.1110  122 312 
 RUS  HZ EP        433 15.35                              61    0.45 9  142 132 
 RUS  HE ES        433 32.15                              61    0.46 9  142 132 
 RUS  HZ I         433 33.38         3.7 0.40             61            142 132 
                                                                                
