 2014 1120 0357 27.2 L   6.803 -73.164136.0  RSN 17 0.5 2.4LRSN                1
 GAP=134        1.00       2.7     3.5  5.6 -0.1366E+01  0.4440E+01  0.4618E+01E
 Epicentro: LOS SANTOS - SANTANDER                                             3
 ACTION:UPD 14-12-19 15:44 OP:nd   STATUS:               ID:20141120035727 L   I
 OLDACT:UP  14-11-20 19:29 OP:mher STATUS:               ID:20141120034743     3
 OLDACT:UP  14-11-20 19:29 OP:mher STATUS:               ID:20141120034743     3
 OLDACT:REG 14-11-20 13:02 OP:fm   STATUS:               ID:20141120034743     3
 2014-11-20-0347-43M.COL___295                                                 6
 STAT SP IPHASW D HRMM SECON CODA AMPLIT PERI AZIMU VELO AIN AR TRES W  DIS CAZ7
 BAR2 SZ EP        357 45.75                             170    0.0710 23.3 185 
 BAR2 SZ I         358  2.12        79.9 0.14            169           23.3 185 
 BRR  HZ EP     D  357 47.70                             151    0.5010 69.2 299 
 BRR  HN ES        358  3.00                             151    0.2110 69.2 299 
 BRR  HZ I         358  8.90        59.5 0.57            152           69.2 299 
 PAM  SZ EP        357 48.65                             149    0.1810 78.5  41 
 PAM  SN ES        358  5.44                             149    0.3910 78.5  41 
 PAM  SZ I         358 10.07        23.7 0.46            155           78.5  41 
 RUS  HZ EP     C  357 49.73                             142   -0.3310  101 175 
 RUS  HN ES        358  7.99                             142    0.1210  101 175 
 RUS  HZ I         358  8.91        32.1 0.22            144            101 175 
 PTB  HZ EP        357 52.57                             130   -0.65 9  146 259 
 PTB  HN ES        358 13.11                             130   -0.39 9  146 259 
 PTB  HZ I         358 16.53        28.5 0.12            132            146 259 
 OCA  HZ EP        357 54.35                             128   -0.39 9  160 354 
 OCA  HN ES        358 15.45                             128   -0.75 9  160 354 
 OCA  HZ I         358 19.41        40.8 0.38            132            160 354 
 SPBC HZ EP        357 54.77                             127   -0.11 9  162 218 
 SPBC HN ES   1    358 15.75                             127   -0.71 7  162 218 
 SPBC HZ I         358 24.43        24.5 0.30            129            162 218 
 ZAR  HZ EP        357 59.02                             120    0.19 9  202 292 
 ZAR  HN ES        358 24.15                             120    0.66 9  202 292 
 ZAR  HZ I         358 30.41        33.4 0.80            123            202 292 
 NOR  HZ EP   1    358  2.24                             117    0.01 6  233 234 
 NOR  HN ES        358 29.55                             117    0.01 8  233 234 
 NOR  HZ I         358 35.09        17.4 0.29            119            233 234 
 CHI  HZ EP        358  3.84                             115   -0.53 8  248 195 
 CHI  HN ES        358 33.30                             115   -0.04 8  248 195 
 ROSC BZ EP        358  5.81                             115    1.08 8  252 211 
 ROSC BN ES   4    358 34.16                             115    0.17 0  252 211 
 ROSC BZ I         358 43.38        13.7 0.35            117            252 211 
 HEL  HZ EP        358  7.08                             113    0.35 8  270 256 
 HEL  HN ES        358 37.19                             113   -0.36 8  270 256 
 HEL  HZ I         358 44.01         9.0 0.24            115            270 256 
 PTGC HZ EP   4    358  8.81                             110   -1.96 0  310 158 
 PTGC HN ES   4    358 41.61                             110   -3.14 0  310 158 
 CBOC HZ EP        358 13.76                             108    0.23 7  332 252 
 CBOC HN ES   4    358 50.03                             108    0.38 0  332 252 
 CBOC HZ I         358 59.64                             111            332 252 
 TOL  SZ EP   1    358 15.46                             108    0.51 5  342 224 
 TOL  SN ES        358 52.22                             108    0.03 7  342 224 
 TOL  SZ I         358 58.41        16.1 0.09            110            342 224 
 MON  HZ EP   9    358 13.66                             107   -1.99 0  352 309 
 MON  HN ES        358 51.68                                    0.25 6  352 309 
 MON  HZ I         358 55.36        24.2 0.97            110            352 309 
 PRA  HZ EP        358 19.41                             105   -0.92 6  391 209 
 PRA  HN ES        359  1.76                             105    0.01 6  391 209 
 PRA  HZ I         359  8.43        11.8 0.28            107            391 209 
 ORTC HZ EP   1    358 20.73                             105    0.03 4  394 216 
 ORTC HN ES        359  3.28                             105    0.86 6  394 216 
 ORTC HZ I         359  8.77         5.9 0.44            107            394 216 
 PTLC HZ EP   4    358 12.57                              95   -56.0 0  792 193 
 PTLC HN ES   4    358 50.08                              95   -97.5 0  792 193 
                                                                                
