 2017  220 0351 21.0 L   6.771 -73.146144.8  RSN 11 0.4 1.9LRSN                1
 GAP= 97        0.99       3.7     3.5  5.4 -0.6144E-01  0.3599E+01  0.3863E+01E
 Epicentro: LOS SANTOS - SANTANDER                                             3
 ACTION:UPD 17-05-24 15:38 OP:jn   STATUS:               ID:20170220035121 L   I
 OLDACT:UP  17-02-20 15:26 OP:dani STATUS:               ID:20170220034740     3
 OLDACT:UP  17-02-20 15:25 OP:dani STATUS:               ID:20170220034740     3
 OLDACT:REG 17-02-20 12:38 OP:dani STATUS:               ID:20170220034740     3
 2017-02-20-0348-00M.COL___351                                                 6
 STAT SP IPHASW D HRMM SECON CODA AMPLIT PERI AZIMU VELO AIN AR TRES W  DIS CAZ7
 BAR2 EZ EP     D  351 40.42                             172   -0.0210 20.2 192 
 BAR2 EZ ES        351 55.53                             172   -0.0810 20.2 192 
 BAR2 EZ I         351 56.71        24.3 0.18            168           20.2 192 
 BRR  HZ EP     D  351 42.28                             152    0.1710 72.8 301 
 BRR  HE ES        351 59.36                             152    0.7610 72.8 301 
 BRR  HZ I         352  2.23        13.8 0.38            143           72.8 301 
 PAM  EZ EP     D  351 43.22                             150   -0.0310 79.9  38 
 PAM  EE ES        352  0.33                             150   -0.2810 79.9  38 
 PAM  EZ I         352  2.32         9.0 0.38            138           79.9  38 
 RUS  HZ EP        351 44.35                             144   -0.0610 97.4 176 
 RUS  HN ES        352  2.34                             144   -0.3410 97.4 176 
 RUS  HZ I         352  4.97         6.3 0.28            133           97.4 176 
 PTB  HZ EP        351 47.06                             132   -0.75 9  147 260 
 PTB  HN ES        352  8.49                             132   -0.25 9  147 260 
 PTB  HZ I         352 14.24        15.4 0.52            121            147 260 
 TAM  HZ EP        351 48.67                             130    0.16 9  154 104 
 TAM  HZ I         352 10.88         6.6 0.30            118            154 104 
 ZAR  HZ EP        351 53.22                             122   -0.27 8  205 293 
 ZAR  HE ES        352 19.15                             122    0.31 8  205 293 
 ZAR  HZ I         352 24.54        16.3 0.54            112            205 293 
 NOR  HZ EP        351 56.69                             118    0.24 8  233 235 
 NOR  HE ES        352 23.47                             118   -0.65 8  233 235 
 NOR  HZ I         352 27.47         6.3 0.26            109            233 235 
 CHI  HZ EP        351 58.64                             117    0.35 8  246 195 
 CHI  HE ES        352 28.21                             117    0.82 8  246 195 
 CHI  HZ I         352 37.57         2.9 0.32            108            246 195 
 URE  HZ EP   3    352  0.45                             113   -1.69 2  285 293 
 URE  HN ES   4    352 31.19                             113   -3.05 0  285 293 
 URE  HZ I         352 37.44         6.1 0.14            105            285 293 
 CBOC HZ EP        352  8.15                             110    0.41 7  333 253 
 CBOC HZ I         352 59.20         1.6 0.28            103            333 253 
                                                                                
