 2012  920 0844 56.2 L   6.681 -73.218151.1  RSN  5 0.3 1.5LRSN                1
 GAP=155        0.70      19.3     7.8 12.0  0.4159E+02  0.6273E+01 -0.1506E+03E
 Epicentro: BARICHARA - SANTANDER                                              3
 ACTION:UPD 12-10-22 14:19 OP:ep   STATUS:               ID:20120920084456 L   I
 2012-09-20-0840-00M.COL___226                                                 6
 STAT SP IPHASW D HRMM SECON CODA AMPLIT PERI AZIMU VELO AIN AR TRES W  DIS CAZ7
 BAR2 SZ EP   1    845 16.12                             176   -0.18 7 10.6 158 
 BAR2 SZ ES   1    845 31.82                             176   -0.15 7 10.6 158 
 GIR2 SZ EP   1    845 16.63                             163   -0.28 7 44.1   3 
 BRR  HZ EP        845 18.53                             153    0.5410 72.1 311 
 PTB  HN ES   2    845 43.51                             135    0.06 5  138 264 
 PTB  HN I         845 50.25         5.2 0.48                           138 264 
 ZAR  HZ EP   1    845 28.45                             124   -0.37 6  202 296 
 ZAR  HE ES   2    845 53.89                             124   -0.36 4  202 296 
 ZAR  HZ I         846  1.22         2.3 0.40                           202 296 
                                                                                
