 2016 1220 0846 10.5 L   6.517 -73.146163.4  RSN  9 0.5 1.5LRSN                1
 GAP=200        0.87       3.9     5.4  6.5  0.6443E+01  0.8447E+01  0.3312E+01E
 Epicentro: PINCHOTE - SANTANDER                                               3
 ACTION:UPD 17-01-11 20:17 OP:rebc STATUS:               ID:20161220084610 L   I
 OLDACT:UP  16-12-20 15:39 OP:cog  STATUS:               ID:20161220083747d    3
 OLDACT:DUP 16-12-20 15:29 OP:cog  STATUS:               ID:20161220083747d    3
 2016-12-20-0838-00M.COL___345                                                 6
 STAT SP IPHASW D HRMM SECON CODA AMPLIT PERI AZIMU VELO AIN AR TRES W  DIS CAZ7
 BAR2 EZ EP        846 32.36                             177    0.3010 9.23 334 
 BAR2 EZ I         846 49.25         5.1 0.26            176           9.23 334 
 RUS  HZ EP        846 33.74                             156   -0.4610 69.4 174 
 RUS  HN ES        846 52.86                             156    0.1710 69.4 174 
 RUS  HZ I         846 53.96        10.2 0.26            155           69.4 174 
 BRR  HZ EP        846 34.27                             150   -0.3810 90.4 316 
 BRR  HE ES        846 53.73                             150    0.2310 90.4 316 
 BRR  HZ I         846 56.10         5.5 0.52            151           90.4 316 
 PTB  HZ EP   3    846 37.13                             136   -1.58 2  145 271 
 PTB  HN ES   2    846 59.58                             136   -1.14 5  145 271 
 PTB  HZ I         847  1.07         4.3 0.18            138            145 271 
 ZAR  HZ EP        846 45.77                             124    0.26 8  218 300 
 ZAR  HE ES        847 12.84                             124    0.01 8  218 300 
 ZAR  HZ I         847 14.86         3.0 0.12            125            218 300 
 NOR  HZ EP        846 45.34                             124   -0.25 8  218 241 
 NOR  HN ES        847 13.00                             124    0.02 8  218 241 
 NOR  HZ I         847 19.99         2.2 0.34            125            218 241 
 CHI  HZ EP        846 45.97                             124   -0.16 8  219 197 
 CHI  HN ES        847 14.24                             124    0.31 8  219 197 
 CHI  HZ I         847 20.59         1.1 0.52            124            219 197 
 GUY2CHZ EP   4    846 54.86                             117    1.74 0  284 240 
 GUY2CHE ES   4    847 29.23                             117    2.86 0  284 240 
 GUY2CHZ I         847 35.30         0.8 0.42                           284 240 
 CBOC HZ EP        846 58.03                             114    0.77 7  325 257 
 CBOC HE ES   4    847 34.89                             114    1.15 0  325 257 
                                                                                
