 2010  520 0748  6.3 L   6.774 -73.092150.0  RSN 16 0.6 3.5LRSN                1
 GAP=156        1.18       5.8     9.1  9.8 -0.2688E+02 -0.4695E+01  0.1753E+02E
 Epicentro: LOS SANTOS - SANTANDER                                             3
 ACTION:UP  10-08-24 10:05 OP:vdl  STATUS:               ID:20100520074806 L   I
 2010-05-20-0746-29S.COL___109                                                 6
 STAT SP IPHASW D HRMM SECON CODA AMPLIT PERI AZIMU VELO AIN AR TRES W  DIS CAZ7
 BAR2 SZ EP        748 26.25                             171    -0.210   23 207 
 BAR2 SZ ES   2    748 41.39                             171    -0.7 5   23 207 
 BRR  HZ EP        748 28.90                             152     0.610   78 298 
 BRR  HN ES   1    748 46.21                             152     0.8 7   78 298 
 BRR  HZ I         748 48.30       452.8 0.19                            78 298 
 BRI  SZ EP        748 31.77                             143     1.110  109  17 
 GUE  SZ EP        748 31.13                             141    -0.410  118   9 
 GRA  SZ EP        748 32.01                             138     0.010  127  15 
 GRA  SZ ES   2    748 51.08                             138    -1.0 5  127  15 
 OCA  SZ EP        748 34.56                             131    -0.7 9  164 351 
 OCA  SZ ES   2    748 57.32                             131    -0.6 5  164 351 
 OCA  SZ I         749  1.47       485.0 0.24                           164 351 
 CHI  HZ EP   1    748 44.16                             119     0.0 6  248 197 
 CHI  HE ES   2    749 13.36                             119    -0.3 4  248 197 
 CHI  HZ I         749 18.62       141.6 0.47                           248 197 
 ROSC BZ EP   1    748 45.22                             118     0.5 6  253 213 
 ROSC BE ES   2    749 14.48                             118    -0.2 4  253 213 
 ROSC BZ I         749 21.67       173.2 0.40                           253 213 
 HEL  HZ EP   2    748 47.93                             116     0.6 4  277 257 
 HEL  HN ES   2    749 18.48                             116    -0.8 4  277 257 
 HEL  HZ I         749 24.37       191.2 0.24                           277 257 
 RREF BZ EP   1    748 53.13                             112     0.2 5  324 230 
 RREF BN ES   2    749 29.73                             112     0.4 3  324 230 
 RREF BZ I         749 37.90       193.4 0.43                           324 230 
 DBB  SZ EP        748 53.81                             110    -0.8 6  346 275 
 PRA  HZ EP        748 59.44                             108    -0.6 6  392 211 
 PRA  HN ES   2    749 41.98                             108     0.0 3  392 211 
 PRA  HZ I         749 46.20       144.8 0.47                           392 211 
 GUA  SZ EP   2    749  8.58                             104    -0.6 2  470 174 
 GUA  SZ ES   2    749 57.75                             104    -0.4 2  470 174 
 PCON HZ EP   2    749 26.71                             100    -0.2 1  613 217 
 PCON HZ I         750 30.67        12.1 0.61                           613 217 
 POP2 HZ EP   2    749 26.16                             100    -0.4 1  614 220 
 POP2 HZ I         749 29.48        12.5 0.24                           614 220 
 POP2 HE ES   2    750 29.53                             100     0.3 1  614 220 
 SOTA HZ EP   2    749 30.97                             100     0.4 1  644 217 
                                                                                
