 2010  520 0218 52.7 L   6.761 -73.064148.3  RSN  8 0.5 2.0LRSN                1
 GAP=195        0.92       8.0    12.9  8.8 -0.6838E+02 -0.7545E+00 -0.4597E+01E
 Epicentro: LOS SANTOS - SANTANDER                                             3
 ACTION:UP  10-08-24 10:05 OP:vdl  STATUS:               ID:20100520021852 L   I
 2010-05-20-0215-56S.COL___109                                                 6
 STAT SP IPHASW D HRMM SECON CODA AMPLIT PERI AZIMU VELO AIN AR TRES W  DIS CAZ7
 BAR2 SZ EP   2    219 13.05                             171     0.4 5   23 215 
 BAR2 SZ ES   1    219 27.93                             171    -0.3 8   23 215 
 BRR  HZ EP   2    219 15.05                             150     0.3 5   81 298 
 BRR  HE ES   2    219 31.84                             150    -0.1 5   81 298 
 BRI  SZ EP   1    219 16.96                             142     0.0 8  110  16 
 BRI  SZ ES   2    219 36.60                             142     0.7 5  110  16 
 GUE  SZ EP        219 18.42                             139     0.510  119   7 
 GRA  SZ EP        219 18.01                             137    -0.310  128  13 
 GRA  SZ ES   2    219 37.80                             137    -0.5 5  128  13 
 OCA  SZ EP   1    219 20.82                             129    -0.9 7  166 350 
 OCA  SZ ES   2    219 45.22                             129     0.8 5  166 350 
 OCA  SZ I         219 46.77        11.2 0.25                           166 350 
 RREF BZ EP   2    219 39.69                             111     0.2 3  326 231 
 RREF BE ES   2    220 15.44                             111    -0.5 3  326 231 
 RREF BZ I         220 22.68         3.9 0.43                           326 231 
 PRA  HN ES   2    220 29.12                             107     0.8 3  393 211 
 PRA  HZ I         220 32.43         2.7 0.25                           393 211 
                                                                                
