 2016  520 0939 27.8 L   6.786 -73.017148.0  RSN  7 0.4 1.6LRSN                1
 GAP=196        1.09       4.1     7.0  8.8  0.4047E+01  0.1017E+01 -0.4271E+01E
 Epicentro: CEPITA - SANTANDER                                                 3
 ACTION:UPD 16-08-18 17:47 OP:cam  STATUS:               ID:20160520093927 L   I
 OLDACT:UP  16-05-20 18:29 OP:mh   STATUS:               ID:20160520093743     3
 OLDACT:REG 16-05-20 18:10 OP:mh   STATUS:               ID:20160520093743     3
 2016-05-20-0937-43M.COL___306                                                 6
 STAT SP IPHASW D HRMM SECON CODA AMPLIT PERI AZIMU VELO AIN AR TRES W  DIS CAZ7
 BAR2 EZ EP        939 46.95                             169   -0.8710 28.2 220 
 BAR2 EZ I         940  6.06                             174           28.2 220 
 BRR  HZ EP        939 50.45                             149    0.4410 84.6 295 
 BRR  HN ES        940  7.28                             149   -0.0410 84.6 295 
 BRR  HZ I         940 10.00        11.7 0.36            154           84.6 295 
 RUS  HZ EP        939 51.82                             145    0.1410 99.1 184 
 RUS  HN ES        940 10.11                             145   -0.1910 99.1 184 
 RUS  HZ I         940 13.91         1.9 0.42            149           99.1 184 
 PTB  HZ EP        939 56.08                             130   -0.15 9  161 260 
 PTB  HN ES   4    940 16.55                             130   -1.84 0  161 260 
 PTB  HZ I         940 22.37         5.5 0.38            135            161 260 
 OCA  HZ EP        939 57.01                             129    0.35 9  164 348 
 OCA  HN ES        940 19.50                             129    0.34 9  164 348 
 OCA  HZ I         940 28.42         5.8 0.36            131            164 348 
 SPBC HZ EP        939 57.49                             128    0.23 9  171 223 
 SPBC HN ES        940 20.90                             128    0.66 9  171 223 
 SPBC HZ I         940 22.86         3.9 0.14            133            171 223 
 ZAR  HZ EP        940  1.31                             121   -0.52 8  218 291 
 ZAR  HE ES        940 27.95                             121   -0.42 8  218 291 
 ZAR  HZ I         940 32.12         4.5 0.32            125            218 291 
                                                                                
