 2015 1220 0235 40.3 L   6.769 -73.137138.1  RSN 13 0.4 2.2LRSN                1
 GAP=184        0.91       3.0     4.1  5.0  0.5548E-01  0.5736E+01 -0.9786E+00E
 Epicentro: LOS SANTOS - SANTANDER                                             3
 ACTION:UPD 16-02-04 15:06 OP:cam  STATUS:               ID:20151220023540 L   I
 OLDACT:DUP 15-12-20 15:04 OP:cara STATUS:               ID:20151220022750d    3
 OLDACT:REG 15-12-20 13:10 OP:cara STATUS:               ID:20151220022749     3
 2015-12-20-0227-49M.COL___326                                                 6
 STAT SP IPHASW D HRMM SECON CODA AMPLIT PERI AZIMU VELO AIN AR TRES W  DIS CAZ7
 BAR2 EZ IP        235 58.96                             171   -0.0110 20.2 194 
 BAR2 EZ ES        236 13.24                             171   -0.2710 20.2 194 
 BAR2 EZ I         236 15.08        34.4 0.16            160           20.2 194 
 BRR  HZ IP     C  236  0.89                             150    0.1010 73.7 300 
 BRR  HN ES        236 17.10                             150    0.3410 73.7 300 
 BRR  HZ I         236 18.74        19.7 0.12            142           73.7 300 
 PAM  EN ES   4    236  1.76                             149   -16.9 0 79.4  37 
 PAM  EZ I         236  2.14        70.1 0.24            156           79.4  37 
 RUS  HZ EP        236  3.00                             143   -0.0710 97.1 176 
 RUS  HN ES        236 20.94                             143    0.1310 97.1 176 
 RUS  HZ I         236 22.53        21.8 0.28            139           97.1 176 
 PTB  HZ IP        236  5.91                             130   -0.79 9  148 260 
 PTB  HN ES   4    236 26.45                             130   -0.83 0  148 260 
 PTB  HZ I         236 28.40        12.5 0.12            123            148 260 
 SPBC HN ES        236 29.95                             128    0.28 9  161 220 
 SPBC HZ I         236 30.92        22.1 0.20            122            161 220 
 OCA  HZ EP        236  8.68                             127    0.30 9  164 353 
 OCA  HN ES   4    236 28.90                             127   -1.37 0  164 353 
 OCA  HZ I         236 30.10        27.0 0.20            127            164 353 
 ZAR  HZ EP        236 12.81                             120    0.30 8  206 293 
 ZAR  HN IS        236 37.85                             120    0.24 8  206 293 
 ZAR  HZ I         236 43.34        18.8 0.48            116            206 293 
 NOR  HZ IP     D  236 15.78                             117    0.29 8  234 235 
 NOR  HE ES        236 42.20                             117   -0.72 8  234 235 
 CHI  HZ IP        236 17.54                             116    0.27 8  246 196 
 CHI  HN ES        236 45.89                             116   -0.20 8  246 196 
 SML  HZ IP        236 16.08                             115   -0.83 8  247 335 
 SML  HE ES   4    236 42.92                             115   -2.53 0  247 335 
 HEL  HZ EP        236 20.28                             113    0.12 8  272 257 
 HEL  HN ES        236 50.98                             113   -0.26 8  272 257 
 HEL  HZ I         236 57.85         6.4 0.22            110            272 257 
 GUY2CHZ EP        236 24.09                             111    0.64 7  300 235 
 GUY2CHN ES        236 57.32                             111    0.23 7  300 235 
 GUY2CHZ I         237  4.07         7.2 0.24                           300 235 
                                                                                
