 2011  320 0805 38.7 L   6.813 -73.224132.0  RSN  4 0.3 1.4LRSN                1
 GAP=166        0.67       3.7    15.7 11.5 -0.8072E+01  0.4478E+02 -0.1495E+02E
 Epicentro: ZAPATOCA - SANTANDER                                               3
 ACTION:UP  11-06-16 14:34 OP:jfem STATUS:               ID:20110320080538 L   I
 2011-03-20-0801-34S.COL___136                                                 6
 STAT SP IPHASW D HRMM SECON CODA AMPLIT PERI AZIMU VELO SNR AR TRES W  DIS CAZ7
 BTL  SZ EP   1    8 5 57.06                             174     0.5 8   13 337 
 RUS  HZ EP   2    8 6  1.53                             140     0.2 5  103 171 
 RUS  HN ES   1    8 6 18.70                             140    -0.3 8  103 171 
 RUS  HZ I         8 6 21.66         1.9 0.28                           103 171 
 GRA  SZ EP        8 6  2.78                             133    -0.110  127  21 
 GRA  SZ ES   1    8 6 22.00                             133     0.2 7  127  21 
 GRA  SZ I         8 6 23.29         4.8 0.39                           127  21 
 OCA  SZ EP   1    8 6  5.68                             127    -0.1 7  158 356 
 OCA  SZ ES   1    8 6 26.65                             127    -0.3 7  158 356 
 OCA  SZ I         8 6 28.19         5.3 0.21                           158 356 
                                                                                
