 2017  420 0450 28.4 L   6.779 -73.134149.1  RSN  8 0.4 1.6LRSN                1
 GAP=139        1.00       4.3     4.2  6.6 -0.2749E+01  0.7152E+01  0.2115E+01E
 Epicentro: LOS SANTOS - SANTANDER                                             3
 ACTION:UPD 17-05-30 21:14 OP:jn   STATUS:               ID:20170420045028 L   I
 OLDACT:UP  17-04-20 15:29 OP:cog  STATUS:               ID:20170420044731     3
 OLDACT:REG 17-04-20 13:15 OP:cog  STATUS:               ID:20170420044731     3
 2017-04-20-0448-00M.COL___365                                                 6
 STAT SP IPHASW D HRMM SECON CODA AMPLIT PERI AZIMU VELO AIN AR TRES W  DIS CAZ7
 BAR2 EZ EP        450 48.29                             171   -0.0910 21.4 195 
 BAR2 EZ ES        451  4.15                             171    0.1710 21.4 195 
 BAR2 EZ I         451  6.01        10.2 0.28            171           21.4 195 
 BRR  HZ EP        450 50.35                             152    0.3310 73.4 300 
 BRR  HN ES        451  7.51                             152    0.6110 73.4 300 
 BRR  HZ I         451 14.00         9.2 0.28            151           73.4 300 
 PAM  EZ EP        450 51.12                             151    0.1110 78.3  38 
 PAM  EE ES        451  8.39                             151   -0.2710 78.3  38 
 PAM  EZ I         451  9.34         3.8 0.18            155           78.3  38 
 RUS  HZ EP        450 52.31                             145    0.0110 98.2 177 
 RUS  HN ES        451 10.83                             145   -0.1210 98.2 177 
 RUS  HZ I         451 12.17         3.8 0.32            148           98.2 177 
 PTB  HZ EP        450 55.31                             133   -0.39 9  149 260 
 PTB  HN ES        451 16.75                             133   -0.26 9  149 260 
 PTB  HZ I         451 20.98         4.3 0.22            133            149 260 
 SPBC HN ES        451 18.77                             130   -0.65 9  162 220 
 ZAR  HZ EP   3    451  1.11                             123   -0.15 2  206 293 
 ZAR  HE ES        451 26.27                             123   -0.64 8  206 293 
 NOR  HZ EP        451  4.70                             119    0.42 8  234 235 
 NOR  HE ES        451 33.12                             119    0.84 8  234 235 
 NOR  HZ I         451 37.87         4.3 0.30            121            234 235 
                                                                                
