 2012  620 0912 30.2 L   6.746 -73.172133.9  RSN  5 0.5 1.9LRSN                1
 GAP=145        0.81       8.8     7.0 12.4 -0.9853E+01  0.1969E+02 -0.2908E+02E
 Epicentro: VILLANUEVA - SANTANDER                                             3
 ACTION:UPD 12-08-06 17:51 OP:ep   STATUS:               ID:20120620091230 L   I
 2012-06-20-0910-39M.COL___176                                                 6
 STAT SP IPHASW D HRMM SECON CODA AMPLIT PERI AZIMU VELO AIN AR TRES W  DIS CAZ7
 BAR2 SZ EP   2    912 48.68                             173    0.44 5 17.0 184 
 BAR2 SZ ES   2    913  2.58                             173    0.24 5 17.0 184 
 BAR2 SZ I         913  5.00        10.1 0.19                          17.0 184 
 PAM  SZ EP   2    912 51.63                             146    0.08 5 83.9  38 
 PAM  SZ I         912 51.81        25.8 0.18                          83.9  38 
 PTB  HZ EP   1    912 55.45                             130   -0.37 7  144 261 
 PTB  HN ES   1    913 15.34                             130   -0.49 7  144 261 
 PTB  HZ I         913 17.92         4.0 0.16                           144 261 
 OCA  HN ES   2    913 19.13                             126   -0.82 5  166 354 
 OCA  HZ I         913 22.77        22.6 0.40                           166 354 
 ZAR  HZ EP   1    913  1.91                             120    0.09 6  204 294 
 ZAR  HE ES   1    913 27.42                             120    0.90 6  204 294 
 ZAR  HZ I         913 32.70         9.5 0.35                           204 294 
                                                                                
