 2013  320 0816  9.1 L   6.802 -73.145148.9  RSN  6 0.2 1.6LRSN                1
 GAP=137        0.50       2.6     3.2  4.3  0.5121E+00  0.4219E+01 -0.1968E+01E
 Epicentro: LOS SANTOS - SANTANDER                                             3
 ACTION:UPD 13-04-09 14:03 OP:ep   STATUS:               ID:20130320081000 L   I
 2013-03-20-0810-00M.COL___244                                                 6
 STAT SP IPHASW D HRMM SECON CODA AMPLIT PERI AZIMU VELO AIN AR TRES W  DIS CAZ7
 BAR2 SZ EP        816 29.07                             171    0.0010 23.6 190 
 BAR2 SZ ES        816 44.64                             171   -0.0410 23.6 190 
 PAM  SZ EP        816 31.97                             151    0.3810 77.1  40 
 PAM  SE ES        816 48.98                             151   -0.1810 77.1  40 
 PAM  SE I         816 50.52         4.1 0.48            148           77.1  40 
 RUS  HZ EP        816 33.07                             144   -0.0710  101 176 
 RUS  HE ES        816 51.90                             144   -0.0110  101 176 
 RUS  HE I         816 54.14         3.3 0.54            133            101 176 
 PTB  HZ EP   2    816 36.07                             132   -0.22 5  148 259 
 PTB  HE EP   2    816 57.63                                            148 259 
 PTB  HE I         817  2.48         9.5 0.40            118            148 259 
 ZAR  HN ES        817  7.31                             123    0.14 9  204 292 
 ZAR  HN I         817 12.87         8.3 0.34            111            204 292 
 SML  HZ EP   1    816 45.47                             118   -0.37 6  244 335 
                                                                                
