 2014  920 0220 30.9 L   6.856 -73.264124.5  RSN  4 0.3 0.9LRSN                1
 GAP=224        0.75       6.1     5.2  7.3  0.1341E+02  0.2284E+01  0.6403E+01E
 Epicentro: ZAPATOCA - SANTANDER                                               3
 ACTION:UPD 14-10-03 23:06 OP:nd   STATUS:               ID:20140920022030 L   I
 OLDACT:REG 14-09-20 12:14 OP:spq  STATUS:               ID:20140920021816     3
 2014-09-20-0218-16M.COL___290                                                 6
 STAT SP IPHASW D HRMM SECON CODA AMPLIT PERI AZIMU VELO AIN AR TRES W  DIS CAZ7
 BAR2 SZ EP        220 48.50                             165    0.3010 30.5 163 
 BAR2 SZ ES   1    221  1.50                             165   -0.17 7 30.5 163 
 BRR  HZ EP        220 48.93                             154   -0.0410 56.7 299 
 BRR  HN ES        221  2.97                             154   -0.0610 56.7 299 
 BRR  HZ I         221  5.50         4.1 0.50            154           56.7 299 
 RUS  HZ EP   1    220 53.62                             136    0.32 7  108 169 
 RUS  HN ES   1    221 10.45                             136   -0.29 7  108 169 
 RUS  HZ I         221 12.13         0.6 0.32            138            108 169 
 PTB  HZ EP   1    220 54.39                             129   -0.77 7  136 255 
 PTB  HN ES        221 14.36                             129    0.31 9  136 255 
 PTB  HZ I         221 15.90         1.8 0.32            130            136 255 
                                                                                
