 2016  320 0331 31.3 L   6.791 -73.147141.6  RSN  8 0.3 1.7LRSN                1
 GAP=137        0.44       2.1     2.1  4.2 -0.5359E+00  0.3440E+01 -0.1597E-01E
 Epicentro: LOS SANTOS - SANTANDER                                             3
 ACTION:UPD 16-05-13 21:25 OP:cam  STATUS:               ID:20160320033131 L   I
 OLDACT:REG 16-03-20 14:39 OP:dnl  STATUS:               ID:20160320032743     3
 2016-03-20-0327-43M.COL___301                                                 6
 STAT SP IPHASW D HRMM SECON CODA AMPLIT PERI AZIMU VELO AIN AR TRES W  DIS CAZ7
 BAR2 EZ EP   2    331 50.41                             171    0.02 5 22.3 190 
 BAR2 EZ ES   2    332  4.52                             171   -0.78 5 22.3 190 
 BAR2 EZ I         332  8.24         9.4 0.24            168           22.3 190 
 PAM  EZ EP     D  331 53.04                             150   -0.0710 78.3  39 
 PAM  EE ES        332 10.21                             150    0.0810 78.3  39 
 PAM  EZ I         332 12.61        12.2 0.54            155           78.3  39 
 RUS  HZ EP   2    331 54.58                             143    0.03 5 99.6 176 
 RUS  HE ES        332 12.88                             143    0.1810 99.6 176 
 RUS  HZ I         332 13.89         4.7 0.26            144           99.6 176 
 PTB  HZ EP   2    331 57.56                             131   -0.32 5  147 259 
 PTB  HN ES        332 18.62                             131   -0.01 9  147 259 
 PTB  HZ I         332 20.60         4.7 0.23            131            147 259 
 SPBC HZ EP   2    331 59.14                             128   -0.23 5  162 219 
 SPBC HN ES   2    332 21.41                             128    0.12 5  162 219 
 SPBC HZ I         332 28.46        11.0 0.22            129            162 219 
 ZAR  HZ EP   2    332  3.32                             121   -0.16 4  204 292 
 ZAR  HN ES        332 28.79                             121    0.19 9  204 292 
 ZAR  HZ I         332 34.18         9.7 0.32            123            204 292 
 CHI  HZ EP   2    332  8.24                             116   -0.39 4  248 195 
 CHI  HN ES   2    332 37.90                             116    0.12 4  248 195 
 CHI  HZ I         332 43.51         2.5 0.26            117            248 195 
 GUY2CHZ EP   2    332 15.19                             112    0.58 4  300 235 
 GUY2CHN ES   2    332 48.04                             112   -0.38 4  300 235 
 GUY2CHZ I         332 57.32         2.9 0.30                           300 235 
                                                                                
