 2017  320 0150 11.8 L   6.777 -73.114140.7  RSN  6 0.3 1.1LRSN                1
 GAP=142        0.86       4.2     3.9  6.4  0.1059E+01  0.5943E+01 -0.3054E-01E
 Epicentro: LOS SANTOS - SANTANDER                                             3
 ACTION:UPD 17-05-25 18:42 OP:jn   STATUS:               ID:20170320015011 L   I
 OLDACT:REG 17-03-20 12:52 OP:cog  STATUS:               ID:20170320014746     3
 2017-03-20-0148-00M.COL___382                                                 6
 STAT SP IPHASW D HRMM SECON CODA AMPLIT PERI AZIMU VELO AIN AR TRES W  DIS CAZ7
 BAR2 EZ ES        150 44.99                             171   -0.5810 21.7 200 
 BRR  HZ EP        150 32.72                             150    0.0910 75.6 299 
 BRR  HN ES        150 49.26                             150    0.3610 75.6 299 
 PAM  EZ EP        150 33.58                             150    0.1410 77.2  36 
 PAM  EE ES        150 50.32                             150   -0.0210 77.2  36 
 PAM  EZ I         150 52.73         3.3 0.58            151           77.2  36 
 RUS  HZ EP        150 35.05                             143    0.2310 97.8 178 
 RUS  HN ES        150 52.98                             143    0.1810 97.8 178 
 RUS  HZ I         150 53.77         1.7 0.54            145           97.8 178 
 PTB  HZ EP        150 37.97                             130   -0.63 9  151 260 
 PTB  HE ES        150 59.82                             130    0.28 9  151 260 
 PTB  HZ I         151  3.44         1.8 0.38            131            151 260 
 ZAR  HN ES        151  9.60                             121   -0.14 8  208 292 
                                                                                
