 2016 1120 0859 57.7 L   6.751 -73.140140.7  RSN  5 0.2 1.3LRSN                1
 GAP=158        0.60       6.0     2.9  5.6 -0.4973E+01  0.1678E+01  0.1114E+02E
 Epicentro: LOS SANTOS - SANTANDER                                             3
 ACTION:UPD 17-10-26 21:09 OP:lp   STATUS:               ID:20161120085957 L   I
 OLDACT:DUP 16-11-20 18:07 OP:and  STATUS:               ID:20161120085745d    3
 2016-11-20-0858-00M.COL___328                                                 6
 STAT SP IPHASW D HRMM SECON CODA AMPLIT PERI AZIMU VELO AIN AR TRES W  DIS CAZ7
 BAR2 EZ EP        9 0 16.96                             172    0.3510 18.2 195 
 BRR  HZ EP        9 0 18.68                             151    0.1910 74.5 302 
 BRR  HN ES        9 0 34.60                             151   -0.1110 74.5 302 
 PAM  EZ EP        9 0 19.56                             149   -0.0510 81.2  37 
 PAM  EN ES        9 0 36.58                             149   -0.1210 81.2  37 
 PTB  HZ EP        9 0 23.76                             131   -0.46 9  147 261 
 PTB  HN ES        9 0 44.91                             131   -0.00 9  147 261 
 PTB  HZ I         9 0 46.80         1.8 0.14            129            147 261 
 ZAR  HZ EP        9 0 30.08                             121   -0.01 8  207 293 
 ZAR  HN ES        9 0 55.56                             121    0.19 8  207 293 
 ZAR  HZ I         9 1  0.99         2.2 0.25            119            207 293 
                                                                                
