 2011  520 0910 21.1 L   6.771 -73.109139.5  RSN 12 0.4 2.0LRSN                1
 GAP=143        0.92       4.0     6.2  6.6 -0.1061E+02  0.8644E+01 -0.1209E+01E
 Epicentro: LOS SANTOS - SANTANDER                                             3
 ACTION:UP  11-06-29 08:54 OP:tino STATUS:               ID:20110520091021 L   I
 2011-05-20-0908-47S.COL___140                                                 6
 STAT SP IPHASW D HRMM SECON CODA AMPLIT PERI AZIMU VELO SNR AR TRES W  DIS CAZ7
 BAR2 SZ EP   1    910 40.25                             171     0.3 7   21 202 
 BAR2 SZ ES   1    910 54.61                             171    -0.1 7   21 202 
 BAR2 SZ I         910 56.48        31.2 0.24                            21 202 
 BTL  SZ EP        910 40.30                             170     0.310   24 313 
 GIR2 SZ EP        910 40.14                             165     0.010   35 345 
 BRR  HZ EP        910 41.94                             150     0.010   76 299 
 BRR  HE ES   1    910 58.75                             150     0.6 7   76 299 
 BRR  HZ I         911  1.41        24.8 0.29                            76 299 
 PAM  SZ EP        910 43.01                             150     0.310   77  36 
 PAM  SE ES   1    910 59.95                             150     0.4 7   77  36 
 RUS  HZ EP   1    910 44.14                             143     0.1 7   97 178 
 RUS  HN ES   1    911  1.18                             143    -0.7 7   97 178 
 RUS  HZ I         911  4.17        14.9 0.25                            97 178 
 BRI  SZ EP   1    910 44.69                             140     0.1 7  110  18 
 GRA  SZ EP        910 45.88                             135    -0.110  128  15 
 GRA  SZ ES   1    911  4.82                             135    -0.6 7  128  15 
 GRA  SZ I         911  6.49        10.9 0.41                           128  15 
 OCA  SZ EP   1    910 49.07                             127    -0.3 7  164 352 
 OCA  SZ ES   1    911 10.45                             127    -0.9 7  164 352 
 OCA  SZ I         911 13.68        20.3 0.14                           164 352 
 NOR  SZ EP   1    910 56.40                             117    -0.3 6  236 236 
 NOR  SE ES   1    911 23.98                             117    -0.4 6  236 236 
 HEL  HZ EP   1    911  2.01                             113     0.6 6  275 257 
 HEL  HZ I         911 39.25         5.0 0.57                           275 257 
 PRA  HZ EP   1    911 14.23                             105    -0.1 4  391 210 
                                                                                
