 2012  520 0525  2.0 L   6.780 -73.150147.5  RSN 10 0.5 2.0LRSN                1
 GAP=137        1.13       4.5     5.8  7.9 -0.3075E+01  0.1469E+02  0.5291E+01E
 Epicentro: LOS SANTOS - SANTANDER                                             3
 ACTION:UP  12-07-05 12:06 OP:pat  STATUS:               ID:20120520052502 L   I
 2012-05-20-0520-00M.COL___200                                                 6
 STAT SP IPHASW D HRMM SECON CODA AMPLIT PERI AZIMU VELO SNR AR TRES W  DIS CAZ7
 BAR2 SZ EP   1    525 21.70                             171    -0.1 7   21 190 
 BAR2 SZ ES   1    525 37.23                             171     0.0 7   21 190 
 BAR2 SZ I         525 39.86        30.5 0.28                            21 190 
 BRR  HN ES   1    525 41.24                             153     1.2 7   72 300 
 BRR  HZ I         525 43.05        21.5 0.11                            72 300 
 PAM  SZ EP   1    525 24.60                             150     0.1 7   79  39 
 PAM  SN ES        525 42.02                             150    -0.110   79  39 
 RUS  HZ EP   1    525 25.73                             145    -0.1 7   98 176 
 RUS  HN ES   1    525 44.26                             145    -0.1 7   98 176 
 RUS  HZ I         525 45.75         9.9 0.17                            98 176 
 PTB  HZ EP   1    525 28.81                             132    -0.2 7  147 260 
 PTB  HN ES   1    525 49.39                             132    -0.7 7  147 260 
 PTB  HZ I         525 52.85         7.5 0.15                           147 260 
 OCA  HZ EP   1    525 30.23                             130    -0.4 7  162 353 
 OCA  HN ES   1    525 52.44                             130    -0.6 7  162 353 
 OCA  HZ I         525 55.33        23.0 0.38                           162 353 
 ZAR  HZ EP        525 35.47                             123     0.8 9  204 293 
 ZAR  HE ES   1    525 59.89                             123    -0.2 6  204 293 
 ZAR  HZ I         526  7.67         7.0 0.08                           204 293 
 NOR  SZ EP   1    525 37.81                             119     0.1 6  233 235 
 NOR  SN ES   1    526  4.74                             119    -0.8 6  233 235 
 CHI  HZ EP   1    525 39.52                             118    -0.1 6  246 195 
 CHI  HN ES   1    526  9.35                             118     0.5 6  246 195 
 CHI  HZ I         526 13.53         5.6 0.25                           246 195 
 PRA  HZ EP   1    525 55.80                             107     0.4 4  390 210 
                                                                                
