 2017  120 0913 44.5 L   6.809 -73.380123.9  RSN  5 0.5 1.3LRSN                1
 GAP=186        0.89       6.3     5.5  7.3  0.1721E+02  0.8307E+01  0.9229E+01E
 Epicentro: SAN VICENTE DE CHUCURI - SANTANDER                                 3
 ACTION:UPD 17-05-22 16:01 OP:jn   STATUS:               ID:20170120091344 L   I
 OLDACT:UP  17-01-20 18:03 OP:dani STATUS:               ID:20170120090741     3
 OLDACT:UP  17-01-20 18:03 OP:dani STATUS:               ID:20170120090741     3
 OLDACT:REG 17-01-20 12:47 OP:dani STATUS:               ID:20170120090741     3
 2017-01-20-0908-00M.COL___301                                                 6
 STAT SP IPHASW D HRMM SECON CODA AMPLIT PERI AZIMU VELO AIN AR TRES W  DIS CAZ7
 BAR2 EZ EP        914  1.71                             164   -0.0310 32.4 138 
 BAR2 EZ ES        914 14.71                             164   -0.5010 32.4 138 
 BAR2 EZ I         914 15.98        19.1 0.38            165           32.4 138 
 BRR  HZ EP        914  2.06                             157   -0.0110 49.3 312 
 BRR  HE ES        914 16.00                             157    0.2110 49.3 312 
 BRR  HZ I         914 17.21         5.6 0.22            157           49.3 312 
 RUS  HZ EP        914  7.07                             136    0.4310  107 162 
 RUS  HN ES        914 24.23                             136    0.3210  107 162 
 RUS  HZ I         914 25.27         1.4 0.28            138            107 162 
 PTB  HZ EP        914  6.91                             132   -0.4810  123 256 
 PTB  HN ES        914 25.20                             132   -0.0510  123 256 
 PTB  HZ I         914 28.73         2.5 0.40            132            123 256 
 ZAR  HN ES   3    914 37.26                             120    1.98 2  180 295 
                                                                                
