 2010  620 0139 53.9 L   6.776 -73.063144.5  RSN 11 0.3 1.7LRSN                1
 GAP=132        0.63       2.9     5.5  5.1 -0.4568E+01 -0.4918E+01 -0.1575E+01E
 Epicentro: LOS SANTOS - SANTANDER                                             3
 ACTION:DUP 10-08-24 10:11 OP:vdl  STATUS:               ID:20100620013954dL   I
 2010-06-20-0137-05S.COL___118                                                 6
 STAT SP IPHASW D HRMM SECON CODA AMPLIT PERI AZIMU VELO SNR AR TRES W  DIS CAZ7
 BAR2 SZ EP        140 13.33                             170    -0.110   24 213 
 BAR2 SZ ES   1    140 28.40                             170    -0.2 7   24 213 
 BRR  HZ IP     D  140 15.20                             149    -0.310   81 297 
 BRR  HN ES   1    140 32.23                             149    -0.1 7   81 297 
 BRR  HZ I         140 34.23        13.6 0.27                            81 297 
 RUS  HZ EP        140 17.28                             144     0.010   98 181 
 RUS  HN ES   1    140 35.94                             144     0.3 7   98 181 
 RUS  HZ I         140 37.29         3.8 0.09                            98 181 
 BRI  SZ EP   1    140 18.29                             141     0.6 7  108  16 
 GUE  SZ EP   1    140 18.35                             139    -0.2 7  118   7 
 GRA  SZ EP        140 19.13                             137     0.110  126  13 
 GRA  SZ ES   1    140 38.67                             137     0.0 7  126  13 
 OCA  SZ EP   1    140 22.67                             129     0.2 7  164 350 
 OCA  SZ I         140 46.83         7.6 0.23                           164 350 
 CHI  HZ EP   2    140 31.11                             117    -0.4 4  249 197 
 CHI  HE ES   2    141  0.84                             117     0.0 4  249 197 
 CHI  HZ I         141  2.88         3.2 0.28                           249 197 
 HEL  HZ EP   2    140 35.50                             114     0.5 4  280 257 
 HEL  HZ I         141 11.95         3.5 0.29                           280 257 
 RREF HN ES   2    141 17.25                             110     0.2 3  327 231 
 RREF HZ I         141 27.57         3.8 0.51                           327 231 
 SDV  BZ EP   1    140 42.88                             108    -0.4 5  355  49 
 SDV  BZ I         140 43.45         1.7 0.33                           355  49 
                                                                                
