 2010 1220 0223 45.3 L   6.800 -73.125143.4  RSN 13 0.5 3.1LRSN                1
 GAP=127        0.99       3.7     5.9  7.0 -0.1074E+02  0.9334E+01  0.1462E+00E
 Epicentro: LOS SANTOS - SANTANDER                                             3
 ACTION:UP  11-01-14 15:26 OP:pat  STATUS:               ID:20101220022345 L   I
 2010-12-20-0221-42S.COL___133                                                 6
 STAT SP IPHASW D HRMM SECON CODA AMPLIT PERI AZIMU VELO SNR AR TRES W  DIS CAZ7
 BAR2 SZ IP        224  4.89                             170     0.210   24 196 
 BAR2 SZ ES   1    224 19.38                             170    -0.4 7   24 196 
 BAR2 SZ I         224 22.39       147.6 0.32                            24 196 
 RUS  HZ IP     C  224  8.90                             143     0.110  100 177 
 RUS  HE ES   1    224 27.65                             143     0.5 7  100 177 
 RUS  HZ I         224 29.39        86.6 0.25                           100 177 
 GRA  SZ IP        224 10.67                             137     0.410  125  16 
 GRA  SZ ES   1    224 29.79                             137     0.0 7  125  16 
 GRA  SZ I         224 33.04       154.6 0.34                           125  16 
 OCA  SZ IP        224 13.21                             129    -0.2 9  161 352 
 OCA  SZ ES   1    224 35.01                             129    -0.4 7  161 352 
 OCA  SZ I         224 39.11        96.0 0.13                           161 352 
 NOR  SZ EP   1    224 21.09                             118     0.0 6  237 235 
 NOR  SN ES   1    224 49.47                             118     0.4 6  237 235 
 ROSC BE ES   1    224 51.72                             116    -1.4 6  254 211 
 ROSC BZ I         224 58.64       126.5 0.84                           254 211 
 HEL  HZ EP   1    224 26.11                             114     0.5 6  274 256 
 HEL  HN ES   1    224 56.71                             114    -0.4 6  274 256 
 HEL  HZ I         225  3.99        58.5 0.40                           274 256 
 VIL  SZ EP   1    224 28.52                             112     0.1 5  302 190 
 VIL  SE ES   1    225  1.79                             112    -0.3 5  302 190 
 VIL  SZ I         225 12.67        37.0 0.32                           302 190 
 RREF HZ EP   1    224 31.59                             110     0.1 5  323 230 
 RREF HN ES   1    225  7.88                             110     0.3 5  323 230 
 RREF HZ I         225 13.29        47.9 0.29                           323 230 
 TOL  SZ EP   1    224 34.47                             109     0.8 5  345 225 
 SDV  BZ IP     D  224 34.45                             108    -0.6 6  359  50 
 SDV  BZ I         224 35.20        24.3 0.30                           359  50 
 PRA  HZ EP   1    224 39.08                             106     0.2 4  393 210 
 PRA  HE ES   1    225 20.05                             106    -0.6 4  393 210 
 PRA  HZ I         225 26.47       146.7 0.21                           393 210 
 SJA  SZ EP   1    224 39.46                             106    -0.4 4  401 193 
 SJA  SZ I         225 33.60        76.0 0.21                           401 193 
                                                                                
