 2017  520 0043 12.5 L   6.761 -73.107142.8  RSN 14 0.5 2.9LRSN 3.4WRSN        1
 SPEC AVERAGE  MO 14.2 ST0.994 OM  2.3 f0 1.89 R1.2995 AL 0.00 WI 30.0 MW  3.4 3
 SPEC SD       MO  0.2 ST  1.9 OM  0.3 f0 1.12 R0.5584 AL      WI      MW  0.1 3
 GAP=124        0.91       3.2     3.5  5.3 -0.1710E+01  0.9616E+00  0.6691E+01E
 Epicentro: LOS SANTOS - SANTANDER                                             3
 SPEC BRR HH Z MO 13.9 ST  1.0 OM  2.0 f0 2.72 R0.7074 AL-0.00 WI 30.0 MW  3.2 3
 SPEC BRR HH Z T 04348 K 0.000 GD  162 VS 5.20 DE 3.50 Q0750.0 QA 1.50 VS 5.20 3
 SPEC PAM EH Z MO 14.4 ST0.269 OM  2.5 f0 1.18 R1.6305 AL-0.00 WI 30.0 MW  3.6 3
 SPEC PAM EH Z T 04350 K 0.000 GD  162 VS 5.20 DE 3.50 Q0750.0 QA 1.50 VS 5.20 3
 SPEC RUS HH Z MO 14.3 ST0.378 OM  2.4 f0 1.40 R1.3743 AL-0.00 WI 30.0 MW  3.5 3
 SPEC RUS HH Z T 04352 K 0.000 GD  172 VS 5.20 DE 3.50 Q0750.0 QA 1.50 VS 5.20 3
 SPEC PTB HH Z MO 14.0 ST0.537 OM  2.0 f0 2.01 R0.9572 AL-0.00 WI 30.0 MW  3.3 3
 SPEC PTB HH Z T 04357 K 0.000 GD  207 VS 5.20 DE 3.50 Q0750.0 QA 1.50 VS 5.20 3
 SPEC SPBCHH Z MO 13.9 ST  7.1 OM  1.9 f0 5.05 R0.3810 AL-0.00 WI 30.0 MW  3.2 3
 SPEC SPBCHH Z T 044 1 K 0.000 GD  216 VS 5.20 DE 3.50 Q0750.0 QA 1.50 VS 5.20 3
 SPEC NOR HH Z MO 14.0 ST  1.1 OM  1.8 f0 2.67 R0.7206 AL-0.00 WI 30.0 MW  3.2 3
 SPEC NOR HH Z T 04413 K 0.000 GD  275 VS 5.20 DE 3.50 Q0750.0 QA 1.50 VS 5.20 3
 SPEC CHI HH Z MO 14.2 ST0.153 OM  2.0 f0 1.19 R1.6168 AL-0.00 WI 30.0 MW  3.4 3
 SPEC CHI HH Z T 04417 K 0.000 GD  284 VS 5.20 DE 3.50 Q0750.0 QA 1.50 VS 5.20 3
 SPEC HEL HH Z MO 14.0 ST0.167 OM  1.8 f0 1.39 R1.3842 AL-0.00 WI 30.0 MW  3.3 3
 SPEC HEL HH Z T 04426 K 0.000 GD  309 VS 5.20 DE 3.50 Q0750.0 QA 1.50 VS 5.20 3
 SPEC PTGCHH Z MO 14.1 ST0.387 OM  1.9 f0 1.66 R1.1590 AL-0.00 WI 30.0 MW  3.4 3
 SPEC PTGCHH Z T 04426 K 0.000 GD  334 VS 5.20 DE 3.50 Q0750.0 QA 1.50 VS 5.20 3
 SPEC ELA HH Z MO 14.6 ST0.121 OM  2.3 f00.809 R2.3782 AL-0.00 WI 30.0 MW  3.7 3
 SPEC ELA HH Z T 04435 K 0.000 GD  359 VS 5.20 DE 3.50 Q0750.0 QA 1.50 VS 5.20 3
 SPEC CBOCHH Z MO 14.2 ST0.069 OM  1.9 f00.908 R2.1189 AL-0.00 WI 30.0 MW  3.4 3
 SPEC CBOCHH Z T 04434 K 0.000 GD  365 VS 5.20 DE 3.50 Q0750.0 QA 1.50 VS 5.20 3
 SPEC ANILHH Z MO 14.4 ST0.692 OM  2.1 f0 1.65 R1.1661 AL-0.00 WI 30.0 MW  3.5 3
 SPEC ANILHH Z T 04440 K 0.000 GD  384 VS 5.20 DE 3.50 Q0750.0 QA 1.50 VS 5.20 3
 OLDACT:UP  17-05-20 13:35 OP:cog  STATUS:               ID:20170520003745     3
 OLDACT:UP  17-05-20 13:34 OP:cog  STATUS:               ID:20170520003745     3
 OLDACT:REG 17-05-20 12:15 OP:dnl  STATUS:               ID:20170520003745     3
 ACTION:UPD 17-06-16 13:37 OP:jn   STATUS:               ID:20170520004312 L   I
 OLDACT:UP  17-05-20 13:35 OP:cog  STATUS:               ID:20170520003745     3
 2017-05-20-0038-00M.COL___359                                                 6
 STAT SP IPHASW D HRMM SECON CODA AMPLIT PERI AZIMU VELO AIN AR TRES W  DIS CAZ7
 BRR  HZ EP        043 33.77                             150    0.0910 77.1 300 
 BRR  HE ES        043 49.86                             150   -0.3410 77.1 300 
 BRR  HZ I         043 54.50       185.2 0.20            149           77.1 300 
 PAM  EZ EP        043 34.71                             150    0.2610 78.2  35 
 PAM  EN ES        043 51.53                             150   -0.0410 78.2  35 
 RUS  HZ EP        043 35.85                             144    0.2110 96.1 178 
 RUS  HN ES        043 54.15                             144    0.4610 96.1 178 
 RUS  HZ I         043 55.13       121.2 0.24            143           96.1 178 
 PTB  HZ EP   9    043 38.47                             131   -1.08 0  151 261 
 PTB  HN ES        043 59.36                             130   -0.21 9  151 261 
 PTB  HZ I         044  2.15        97.7 0.24            130            151 261 
 SPBC HZ EP        043 40.83                             128    0.10 9  163 221 
 SPBC HN ES        044  2.58                             128   -0.16 9  163 221 
 SPBC HZ I         044 10.05       151.9 0.22            128            163 221 
 NOR  HZ EP        043 47.95                             118   -0.23 8  236 236 
 NOR  HN ES        044 15.46                             118   -0.55 8  236 236 
 NOR  HZ I         044 18.66        67.8 0.18            118            236 236 
 CHI  HZ EP        043 50.15                             117    0.43 8  246 196 
 CHI  HE ES        044 18.87                             117    0.13 8  246 196 
 CHI  HZ I         044 23.67        38.8 0.46            117            246 196 
 HEL  HZ EP   3    043 54.04                             114    1.12 2  275 257 
 HEL  HE ES   4    044 27.82                             114    3.37 0  275 257 
 HEL  HZ I         044 30.40        49.7 0.52            114            275 257 
 VIL  EZ EP        043 55.78                             112    0.37 7  300 193 
 VIL  EN ES        044 29.01                             112    0.13 7  300 193 
 VIL  EZ I         044 40.95        56.7 0.40            112            300 193 
 PTGC HZ EP        043 55.05                             111   -0.55 7  303 159 
 PTGC HE ES        044 28.06                             111   -1.15 7  303 159 
 PTGC HZ I         044 30.69        65.6 0.38            113            303 159 
 ELA  HZ EP   4    044  2.60                             110    3.31 0  330 231 
 ELA  HE ES   4    044 36.99                             110    1.20 0  330 231 
 ELA  HZ I         044 46.01        41.0 0.54            110            330 231 
 CBOC HZ EP        043 58.81                             109   -0.81 7  336 253 
 CBOC HE ES        044 36.43                             109    0.06 7  336 253 
 CBOC HZ I         044 40.53        16.5 0.28            110            336 253 
 ANIL HZ EP        044  3.13                             108    0.93 6  357 225 
 ANIL HE ES   3    044 41.95                             108    0.99 2  357 225 
 ORTC HN ES        044 48.30                             106    0.18 6  395 217 
                                                                                
