 2013  720 0905 30.3 L   6.765 -73.171153.3  RSN  6 0.2 1.8LRSN                1
 GAP=178        0.52       3.1     3.8  5.0  0.1587E+01 -0.1289E+01 -0.6051E+00E
 Epicentro: LOS SANTOS - SANTANDER                                             3
 ACTION:UPD 13-08-12 10:39 OP:ep   STATUS:               ID:20130720090530 L   I
 OLDACT:REG 13-07-20 08:45 OP:mh   STATUS:               ID:20130720085959     3
 2013-07-20-0859-59M.COL___266                                                 6
 STAT SP IPHASW D HRMM SECON CODA AMPLIT PERI AZIMU VELO AIN AR TRES W  DIS CAZ7
 BAR2 SZ EP   1    9 5 50.48                             173   -0.24 7 19.2 184 
 BAR2 SZ ES   1    9 6  6.46                             173   -0.22 7 19.2 184 
 BAR2 SZ I         9 6  7.32         5.7 0.20            173           19.2 184 
 GIR2 SZ EP   1    9 5 50.90                             167   -0.02 7 34.8 356 
 GIR2 SZ I         9 6  7.98         5.4 0.20            161           34.8 356 
 BRR  HZ EP        9 5 52.50                             154    0.3010 70.8 302 
 BRR  HN ES        9 6  9.57                             154    0.2610 70.8 302 
 BRR  HN I         9 6 10.67        28.3 0.26            150           70.8 302 
 RUS  HZ EP   1    9 5 54.56                             146    0.05 7 97.0 174 
 RUS  HN ES   1    9 6 13.52                             146    0.10 7 97.0 174 
 RUS  HN I         9 6 14.75         6.0 0.18            142           97.0 174 
 PTB  HZ EP   1    9 5 57.52                             134   -0.03 7  144 260 
 PTB  HN ES        9 6 18.57                             134   -0.26 9  144 260 
 PTB  HN I         9 6 24.14        23.7 0.36            130            144 260 
 OCA  HN ES   1    9 6 22.00                             131   -0.28 7  164 354 
 OCA  HN I         9 6 25.08        13.7 0.32            124            164 354 
                                                                                
