 2016  320 0417 40.6 L   6.792 -73.180142.0  RSN  9 0.3 1.8LRSN                1
 GAP=133        0.60       2.7     2.6  4.5 -0.1317E+01  0.3962E+01 -0.2797E+00E
 Epicentro: LOS SANTOS - SANTANDER                                             3
 ACTION:UPD 16-05-13 21:25 OP:cam  STATUS:               ID:20160320041740 L   I
 OLDACT:DUP 16-03-20 15:26 OP:dnl  STATUS:               ID:20160320040749d    3
 2016-03-20-0407-47M.COL___301                                                 6
 STAT SP IPHASW D HRMM SECON CODA AMPLIT PERI AZIMU VELO AIN AR TRES W  DIS CAZ7
 BAR2 EZ EP        417 59.70                             171   -0.0210 22.1 181 
 BAR2 EZ ES        418 14.92                             171    0.2610 22.1 181 
 BAR2 EZ I         418 17.44        15.3 0.26            170           22.1 181 
 PAM  EZ EP        418  2.53                             149   -0.0510 80.6  41 
 PAM  EN ES        418 19.79                             149    0.0410 80.6  41 
 PAM  EZ I         418 22.76         9.6 0.30            153           80.6  41 
 RUS  HZ EP        418  3.69                             143   -0.2210  100 174 
 RUS  HN ES        418 22.00                             143   -0.1210  100 174 
 RUS  HZ I         418 23.58         4.9 0.34            147            100 174 
 PTB  HZ EP   2    418  5.93                             132   -0.95 5  144 259 
 PTB  HN ES        418 26.96                             132   -0.43 9  144 259 
 PTB  HZ I         418 30.02         5.4 0.16            131            144 259 
 SPBC HZ EP        418  8.67                             129    0.18 9  160 218 
 SPBC HN ES        418 30.54                             129    0.28 9  160 218 
 SPBC HZ I         418 37.09         9.5 0.24            130            160 218 
 ZAR  HZ EP   2    418 12.83                             122    0.38 4  201 293 
 ZAR  HN ES        418 37.46                             122    0.15 9  201 293 
 ZAR  HZ I         418 46.61         6.9 0.20            122            201 293 
 NOR  HZ EP   3    418 15.95                             118    0.26 2  231 234 
 NOR  HE ES   2    418 43.32                             118    0.23 4  231 234 
 HEL  HZ EP   2    418 20.83                             114    0.67 4  268 256 
 HEL  HE ES   4    418 53.04                             114    2.00 0  268 256 
 HEL  HZ I         418 59.94         3.3 0.38            115            268 256 
 GUY2CHZ EP   4    418 22.36                             112   -1.24 0  298 234 
 GUY2CHN ES   2    418 57.15                             112   -0.00 4  298 234 
 GUY2CHZ I         419  5.88         3.7 0.36                           298 234 
                                                                                
