 2016  920 0053  9.7 L   7.194 -73.396118.0  RSN  7 0.4 1.6LRSN                1
 GAP= 83        0.93       3.2     3.4  6.9 -0.5644E+00  0.3885E+01 -0.1383E+01E
 Epicentro: LEBRIJA - SANTANDER                                                3
 ACTION:UPD 17-08-17 21:14 OP:lp   STATUS:               ID:20160920005309 L   I
 OLDACT:UP  16-09-20 14:40 OP:and  STATUS:               ID:20160920004740     3
 OLDACT:REG 16-09-20 12:26 OP:and  STATUS:               ID:20160920004740     3
 2016-09-20-0048-00M.COL___363                                                 6
 STAT SP IPHASW D HRMM SECON CODA AMPLIT PERI AZIMU VELO AIN AR TRES W  DIS CAZ7
 BRR  HZ EP        053 25.92                             162   -0.1210 36.2 255 
 BRR  HE ES        053 38.49                             162   -0.3110 36.2 255 
 BRR  HZ I         053 39.87         9.0 0.14            162           36.2 255 
 BAR2 EZ EP        053 28.32                             147    0.1010 70.6 160 
 BAR2 EZ ES        053 42.76                             147    0.0910 70.6 160 
 BAR2 EZ I         053 43.96        20.6 0.18            148           70.6 160 
 PAM  EZ EP        053 29.31                             144    0.1910 78.6  78 
 PAM  EN ES        053 44.87                             144    0.6010 78.6  78 
 PAM  EZ I         053 47.42         4.9 0.20            146           78.6  78 
 OCA  HZ EP        053 31.46                             132   -0.2310  116   4 
 OCA  HN ES        053 48.37                             132   -0.4810  116   4 
 OCA  HZ I         053 49.47        18.2 0.20            134            116   4 
 PTB  HZ EP        053 33.27                             127   -0.29 9  138 238 
 PTB  HN ES        053 52.29                             127    0.12 9  138 238 
 PTB  HZ I         053 53.80         4.5 0.14            128            138 238 
 RUS  HZ EP   2    053 35.73                             125    0.53 5  148 166 
 RUS  HE ES        053 54.64                             125   -0.47 9  148 166 
 RUS  HZ I         053 58.10         2.6 0.22            126            148 166 
 ZAR  HZ EP   4    053 37.92                             122    1.64 0  165 282 
 ZAR  HN ES        053 57.70                             122    0.69 9  165 282 
 ZAR  HZ I         054  0.87         5.7 0.22            123            165 282 
                                                                                
