 2010  920 0442 59.9 L   6.788 -73.075148.0  RSN  6 0.2 1.4LRSN                1
 GAP=167        0.64       3.5     9.0  8.0  0.3873E+01 -0.3122E+02 -0.7326E+01E
 Epicentro: LOS SANTOS - SANTANDER                                             3
 ACTION:UP  11-02-18 11:04 OP:tino STATUS:               ID:20100920044259 L   I
 2010-09-20-0441-35S.COL___121                                                 6
 STAT SP IPHASW D HRMM SECON CODA AMPLIT PERI AZIMU VELO SNR AR TRES W  DIS CAZ7
 BTL  SZ EP        443 20.21                             170     0.410   26 304 
 BRR  HZ EP        443 21.51                             151    -0.210   79 297 
 BRR  HZ I         443 21.76        11.7 0.11                            79 297 
 BRR  HE ES   1    443 38.83                             151     0.1 7   79 297 
 RUS  HZ EP   1    443 23.90                             145     0.1 7   99 181 
 RUS  HN ES   1    443 42.08                             145    -0.3 7   99 181 
 RUS  HZ I         443 43.27         2.2 0.21                            99 181 
 GRA  SZ EP        443 25.24                             138     0.010  125  14 
 GRA  SZ I         443 49.80         2.7 0.36                           125  14 
 OCA  SZ EP        443 28.50                             130    -0.1 9  163 350 
 OCA  SZ I         443 54.57         3.4 1.21                           163 350 
 CHI  HZ EP   1    443 37.58                             118    -0.2 6  249 197 
 CHI  HZ I         443 38.62         1.3 0.13                           249 197 
 CHI  HN ES   2    444  7.83                             118     0.4 4  249 197 
                                                                                
