 2013  120 0944 27.1 L   6.782 -73.150145.8  RSN 10 0.4 2.1LRSN                1
 GAP= 71        0.85       3.6     3.6  6.1  0.1267E+01  0.3586E+01  0.1867E+01E
 Epicentro: LOS SANTOS - SANTANDER                                             3
 *MAL-YOT-HORQ                                                                 3
 ACTION:UPD 13-02-15 09:15 OP:ep   STATUS:               ID:20130120094427 L   I
 2013-01-20-0940-00M.COL___241                                                 6
 STAT SP IPHASW D HRMM SECON CODA AMPLIT PERI AZIMU VELO AIN AR TRES W  DIS CAZ7
 BAR2 SZ EP        944 46.64                             171   -0.0810 21.3 190 
 BAR2 SZ ES   1    945  1.57                             171   -0.44 7 21.3 190 
 BRR  HZ EP     C  944 48.54                             152    0.2310 71.8 300 
 BRR  HN ES   1    945  5.77                             152    0.93 7 71.8 300 
 BRR  HZ I         945 10.37        22.7 0.28            141           71.8 300 
 PAM  SZ EP   1    944 49.53                             150    0.08 7 79.2  39 
 PAM  SN ES   1    945  6.59                             150   -0.28 7 79.2  39 
 PAM  SZ I         945  8.87        25.9 0.54            147           79.2  39 
 RUS  HZ EP   1    944 50.51                             144   -0.24 7 98.7 176 
 RUS  HN ES   1    945  9.42                             144    0.25 7 98.7 176 
 RUS  HZ I         945 10.27         9.7 0.28            135           98.7 176 
 PTB  HZ EP   1    944 53.33                             132   -0.70 7  147 260 
 PTB  HN ES   1    945 14.52                             132   -0.49 7  147 260 
 PTB  HZ I         945 21.93        34.5 0.28            120            147 260 
 TAM  HZ EP   1    944 54.80                             131    0.00 7  155 104 
 TAM  HN ES   1    945 16.80                             131    0.41 7  155 104 
 TAM  HZ I         945 20.73         6.2 0.13            124            155 104 
 OCA  HZ EP   1    944 55.45                             129   -0.17 7  162 353 
 OCA  HN ES   1    945 17.53                             129   -0.31 7  162 353 
 OCA  HZ I         945 21.55        21.0 0.30            121            162 353 
 ZAR  HZ EP   1    944 59.29                             122   -0.32 6  204 293 
 ZAR  HE ES   1    945 25.13                             122    0.19 6  204 293 
 ZAR  HZ I         945 31.49        18.5 0.42            112            204 293 
 CHI  HZ EP   1    945  4.67                             117    0.06 6  247 195 
 CHI  HN ES   1    945 33.65                             117   -0.20 6  247 195 
 CHI  HZ I         945 41.86         5.8 0.58            109            247 195 
 HEL  HZ EP   1    945  8.46                             115    1.22 6  271 256 
 HEL  HZ I         945 45.84        11.5 0.28            106            271 256 
                                                                                
