 2013  520 0636 32.1 L   6.820 -73.138150.0  RSN 23 0.4 3.1LRSN 3.5WRSN        1
 SPEC AVERAGE  MO 14.3 ST  8.1 OM  2.4 f0 3.65 R0.6096 AL 1.89 WI 30.1 MW  3.5 3
 SPEC SD       MO  0.3 ST  8.4 OM  0.5 f0 1.14 R0.1923 AL      WI      MW  0.2 3
 GAP= 49        0.99       2.0     2.3  3.8 -0.6255E+00  0.1204E+01  0.7587E+00E
 Epicentro: LOS SANTOS - SANTANDER                                             3
 SPEC VIL SH N MO 14.6 ST  2.3 OM  2.4 f0 2.10 R0.9162 AL 1.87 WI 39.3 MW  3.7 3
 SPEC VIL SH N T 63750 K 0.050 GD  340 VS 5.20 DE 3.20 Q0750.0 QA 1.50 VS 5.20 3
 SPECGUY2CHH N MO 14.1 ST  1.0 OM  1.9 f0 2.38 R0.8073 AL 2.07 WI 23.7 MW  3.3 3
 SPECGUY2CHH N T 63750 K 0.050 GD  339 VS 5.20 DE 3.20 Q0750.0 QA 1.50 VS 5.20 3
 SPEC HEL HH N MO 14.1 ST0.831 OM  1.9 f0 2.26 R0.8513 AL 1.35 WI 40.3 MW  3.3 3
 SPEC HEL HH N T 63743 K 0.050 GD  311 VS 5.20 DE 3.20 Q0750.0 QA 1.50 VS 5.20 3
 SPEC CHI HH N MO 14.2 ST  1.8 OM  2.1 f0 2.54 R0.7575 AL 1.39 WI 26.7 MW  3.4 3
 SPEC CHI HH N T 63739 K 0.050 GD  292 VS 5.20 DE 3.20 Q0750.0 QA 1.50 VS 5.20 3
 SPEC NOR HH E MO 14.4 ST 27.0 OM  2.3 f0 5.49 R0.3505 AL 2.10 WI 29.2 MW  3.6 3
 SPEC NOR HH E T 63735 K 0.050 GD  280 VS 5.20 DE 3.20 Q0750.0 QA 1.50 VS 5.20 3
 SPEC ZAR HH N MO 14.4 ST 21.6 OM  2.3 f0 5.28 R0.3644 AL 1.86 WI 34.1 MW  3.5 3
 SPEC ZAR HH N T 63729 K 0.050 GD  253 VS 5.20 DE 3.20 Q0750.0 QA 1.50 VS 5.20 3
 SPEC YOP SH E MO 14.1 ST  3.8 OM  2.1 f0 3.55 R0.5420 AL 2.43 WI 22.9 MW  3.4 3
 SPEC YOP SH E T 63726 K 0.050 GD  234 VS 5.20 DE 3.20 Q0750.0 QA 1.50 VS 5.20 3
 SPEC OCA HH N MO 14.7 ST 10.0 OM  2.7 f0 3.16 R0.6089 AL 1.92 WI 35.7 MW  3.8 3
 SPEC OCA HH N T 63722 K 0.050 GD  217 VS 5.20 DE 3.20 Q0750.0 QA 1.50 VS 5.20 3
 SPEC TAM HH Z MO 14.5 ST  2.8 OM  1.8 f0 4.14 R0.7686 AL 1.11 WI 17.1 MW  3.6 3
 SPEC TAM HH Z T 637 0 K 0.050 GD  215 VP 8.60 DE 3.20 Q0750.0 QA 1.50 VS 5.20 3
 SPEC RUS HH E MO 14.0 ST  6.9 OM  2.1 f0 4.70 R0.4094 AL 2.31 WI 27.4 MW  3.3 3
 SPEC RUS HH E T 63714 K 0.050 GD  181 VS 5.20 DE 3.20 Q0750.0 QA 1.50 VS 5.20 3
 SPEC PAM SH N MO 14.3 ST  3.3 OM  2.4 f0 3.00 R0.6413 AL 1.96 WI 24.0 MW  3.5 3
 SPEC PAM SH N T 63712 K 0.050 GD  167 VS 5.20 DE 3.20 Q0750.0 QA 1.50 VS 5.20 3
 SPEC BRR HH E MO 14.4 ST  8.9 OM  2.5 f0 3.88 R0.4959 AL 2.51 WI 34.8 MW  3.5 3
 SPEC BRR HH E T 63711 K 0.050 GD  165 VS 5.20 DE 3.20 Q0750.0 QA 1.50 VS 5.20 3
 ACTION:UPD 13-06-20 09:52 OP:ep   STATUS:               ID:20130520063632 L   I
 2013-05-20-0628-50M.COL___214                                                 6
 STAT SP IPHASW D HRMM SECON CODA AMPLIT PERI AZIMU VELO AIN AR TRES W  DIS CAZ7
 BAR2 SZ IP     D  636 52.29                             170   -0.0210 25.6 191 
 BAR2 SZ ES        637  7.75                             170   -0.3110 25.6 191 
 BAR2 SZ I         637 11.03       126.0 0.66            169           25.6 191 
 GIR2 SZ IP        636 52.39                             168    0.1410 29.3 348 
 GIR2 SZ ES        637  7.97                             168    0.0210 29.3 348 
 BRR  HZ EP        636 54.18                             153    0.4610 71.0 297 
 BRR  HN ES        637 11.67                             153    1.1110 71.0 297 
 BRR  HE I         637 14.82       207.0 0.20            151           71.0 297 
 PAM  SZ IP     D  636 55.07                             152    0.4110 75.1  40 
 PAM  SZ I         636 55.48       133.1 0.26            155           75.1  40 
 PAM  SN ES        637 12.14                             152   -0.1010 75.1  40 
 RUS  HZ IP     C  636 56.13                             144   -0.3110  103 177 
 RUS  HE ES        637 14.87                             144   -0.5410  103 177 
 RUS  HE I         637 16.27       175.4 0.24            145            103 177 
 CAPV BZ IP     D  637  0.11                             133    0.45 9  147  38 
 CAPV BZ ES        637 20.79                             133   -0.35 9  147  38 
 PTB  HZ EP        636 58.99                             133   -0.56 9  149 258 
 PTB  HN ES        637 20.10                             133   -0.85 9  149 258 
 PTB  HE I         637 27.72       157.0 0.28            132            149 258 
 TAM  HZ IP     C  637  0.45                             132    0.34 9  155 106 
 TAM  HZ I         637  0.64       135.9 0.34            135            155 106 
 TAM  HN ES        637 22.20                             132    0.26 9  155 106 
 OCA  HZ EP        637  0.52                             131   -0.05 9  158 353 
 OCA  HN ES        637 22.89                             131    0.12 9  158 353 
 OCA  HN I         637 26.69       337.6 0.42            132            158 353 
 YOP  SZ EP        637  2.73                             127    0.11 9  180 154 
 YOP  SN ES        637 26.70                             127    0.29 9  180 154 
 YOP  SE I         637 28.12       191.0 0.82            129            180 154 
 ZAR  HZ EP        637  5.07                             123    0.23 9  204 291 
 ZAR  HN ES        637 29.93                             123   -0.44 9  204 291 
 ZAR  HN I         637 36.76       149.3 0.40            123            204 291 
 NOR  HZ EP        637  8.17                             119   -0.14 8  237 234 
 NOR  HN ES        637 36.87                             119    0.33 8  237 234 
 NOR  HE I         637 40.04       116.1 0.28            119            237 234 
 SML  HZ EP        637  8.61                             119   -0.20 8  242 335 
 SML  HN ES        637 37.07                             119   -0.37 8  242 335 
 SML  HE I         637 44.67       163.9 0.10            119            242 335 
 CHI  HZ EP        637 10.48                             118    0.17 8  251 195 
 CHI  HN ES        637 40.01                             118   -0.08 8  251 195 
 CHI  HN I         637 43.45        66.4 0.26            118            251 195 
 HEL  HZ EP   4    637 14.23                             115    1.53 0  273 255 
 HEL  HN ES        637 43.90                             115   -0.46 8  273 255 
 HEL  HN I         637 50.89        37.9 0.50            116            273 255 
 SOCV BZ IP     D  637 14.43                             113   -0.72 7  299  57 
 SOCV BZ ES   4    637 46.37                             113   -2.34 0  299  57 
 GUY2CHZ EP        637 16.36                             113    0.21 7  303 235 
 GUY2CHN ES        637 51.06                             113    0.57 7  303 235 
 GUY2CHN I         638  1.19        65.2 0.66                           303 235 
 VIL  SZ EP        637 15.62                             113   -0.37 7  306 192 
 VIL  SN ES        637 50.08                             113   -0.13 7  306 192 
 VIL  SN I         637 57.03       120.8 0.52            113            306 192 
 RREF HN ES   4    637 56.90                             111    1.89 0  324 229 
 RREF HZ I         638  1.76        50.5 0.26            112            324 229 
 COD  HZ EP        637 20.21                             110   -0.22 6  346 354 
 COD  HN ES        637 58.64                             110    0.53 6  346 354 
 COD  HN I         638  3.12        36.1 0.58            111            346 354 
 SDV  BZ EP        637 21.45                             109   -0.63 6  358  50 
 PRA  HZ EP        637 25.58                             107   -0.48 6  394 210 
 PRA  HN ES        638  8.61                             107    0.48 6  394 210 
 PRA  HN I         638 13.74        27.0 0.62            108            394 210 
 PAL  HZ EP        637 28.11                             106    0.47 6  408 239 
 PAL  HE ES        638 11.47                             106    0.52 6  408 239 
                                                                                
