 2013  420 0621 18.2 L   6.798 -73.150141.6  RSN  5 0.5 1.4LRSN                1
 GAP=136        1.28       8.2     8.0 11.7  0.1492E+01 -0.8954E+01  0.2959E+02E
 Epicentro: LOS SANTOS - SANTANDER                                             3
 ACTION:UPD 13-05-22 14:39 OP:EP   STATUS:               ID:20130420062118 L   I
 2013-04-20-0620-00M.COL___250                                                 6
 STAT SP IPHASW D HRMM SECON CODA AMPLIT PERI AZIMU VELO AIN AR TRES W  DIS CAZ7
 BAR2 SZ EP        621 37.79                             170    0.5010 23.1 189 
 BAR2 SZ I         621 54.49         7.0 0.24            168           23.1 189 
 BRR  HZ EP        621 38.00                             152   -0.8510 70.9 299 
 BRR  HE ES        621 54.87                             152   -0.1110 70.9 299 
 BRR  HN ES   1    621 55.84                             152    0.86 7 70.9 299 
 PAM  SZ EP        621 40.51                             150    0.5410 77.8  40 
 PAM  SN ES   1    621 56.19                             150   -0.78 7 77.8  40 
 PAM  SZ I         622  0.66         3.3 0.48            150           77.8  40 
 RUS  HZ EP        621 41.80                             143    0.3010  100 176 
 RUS  HN ES   1    621 59.27                             143   -0.43 7  100 176 
 RUS  HZ I         622  1.92         3.7 0.34            140            100 176 
 PTB  HZ EP        621 44.47                             131   -0.28 9  147 259 
 PTB  HN ES   2    622  5.71                             131    0.22 5  147 259 
 PTB  HZ I         622 10.77         3.1 0.20            131            147 259 
                                                                                
