 2013 1220 0316 51.8 L   6.769 -73.150144.1  RSN  7 0.4 1.5LRSN                1
 GAP=200        0.93       4.1     5.3  7.3  0.7283E+01  0.4696E+01 -0.4969E+01E
 Epicentro: LOS SANTOS - SANTANDER                                             3
 ACTION:UPD 14-01-13 10:19 OP:ep   STATUS:               ID:20131220031651 L   I
 OLDACT:REG 13-12-20 07:19 OP:jn   STATUS:               ID:20131220031000     3
 2013-12-20-0310-00M.COL___285                                                 6
 STAT SP IPHASW D HRMM SECON CODA AMPLIT PERI AZIMU VELO AIN AR TRES W  DIS CAZ7
 BAR2 SZ EP        317 11.32                             172    0.1210 19.9 190 
 BAR2 SZ ES        317 25.94                             172   -0.3710 19.9 190 
 BAR2 SZ I         317 27.84        13.3 0.40            173           19.9 190 
 BRR  HZ EP        317 13.18                             152    0.3010 72.5 301 
 BRR  HN ES        317 29.53                             152    0.2410 72.5 301 
 BRR  HZ I         317 35.80         6.1 0.36            152           72.5 301 
 RUS  HZ EP        317 15.23                             144    0.0510 97.2 176 
 RUS  HN ES        317 33.45                             144    0.0610 97.2 176 
 RUS  HZ I         317 34.69         3.1 0.22            149           97.2 176 
 PTB  HZ EP        317 17.88                             132   -0.69 9  147 260 
 PTB  HN ES        317 38.89                             132   -0.53 9  147 260 
 PTB  HZ I         317 43.05         2.6 0.28            134            147 260 
 SPBC HN ES        317 42.32                             129    0.48 9  160 220 
 ZAR  HE ES        317 49.98                             122    0.42 9  205 293 
 SML  HN ES        317 57.34                             117   -0.09 8  247 336 
                                                                                
