 2012  520 0546 49.2 L   6.833 -73.154147.2  RSN 27 0.5 3.9LRSN 4.2WRSN        1
 SPEC AVERAGE  MO 15.4 ST326.5 OM 83.9 f0 4.07 R  0.37 AL 3.54 WI 21.1 MW  4.2 3
 GAP=122        1.23       3.3     5.0  5.8 -0.1398E+01  0.1079E+02  0.2175E+01E
 Epicentro: LOS SANTOS - SANTANDER                                             3
 SPEC ROSCBH Z MO 15.5 ST228.3 OM  3.6 f0 3.84 R0.3828 AL 3.25 WI 23.7 MW  4.3 3
 SPEC ROSCBH Z T 54757 K 0.020 GD  294 VS 4.20 DE 3.20 Q0230.0 QA 0.60 VS 4.20 3
 SPEC HEL HH Z MO 15.6 ST694.7 OM  3.7 f0 5.07 R0.2899 AL 3.74 WI 25.0 MW  4.3 3
 SPEC HEL HH Z T 548 2 K 0.020 GD  309 VS 4.20 DE 3.20 Q0230.0 QA 0.60 VS 4.20 3
 SPEC CHI HH Z MO 15.1 ST 56.6 OM  3.2 f0 3.29 R0.4468 AL 3.63 WI 14.7 MW  4.0 3
 SPEC CHI HH Z T 54757 K 0.020 GD  291 VS 4.20 DE 3.20 Q0230.0 QA 0.60 VS 4.20 3
 ACTION:UP  12-07-05 12:06 OP:pat  STATUS:               ID:20120520054649 L   I
 2012-05-20-0545-43M.COL___193                                                 6
 STAT SP IPHASW D HRMM SECON CODA AMPLIT PERI AZIMU VELO SNR AR TRES W  DIS CAZ7
 BAR2 SZ EP        547  9.22                             169     0.210   27 187 
 BAR2 SZ ES        547 23.90                             169    -0.710   27 187 
 BAR2 SZ I         547 25.55      2214.1 0.39                            27 187 
 BRR  HZ EP        547 10.99                             154     0.610   69 296 
 BRR  HN ES   1    547 27.63                             154     0.8 7   69 296 
 BRR  HZ I         547 31.79      2220.6 0.17                            69 296 
 PAM  SZ EP        547 11.92                             152     0.510   75  42 
 PAM  SN ES        547 28.86                             152     0.110   75  42 
 RUS  HZ EP        547 13.17                             143    -0.210  104 176 
 RUS  HN ES   1    547 31.59                             143    -0.6 7  104 176 
 RUS  HZ I         547 33.85       544.7 0.32                           104 176 
 PTB  HZ EP        547 15.77                             132    -0.5 9  148 257 
 PTB  HN ES   1    547 37.03                             132    -0.4 7  148 257 
 PTB  HZ I         547 42.66       736.6 0.24                           148 257 
 OCA  HZ EP        547 17.34                             130     0.1 9  157 353 
 OCA  HE ES        547 39.06                             130    -0.1 9  157 353 
 OCA  HZ I         547 43.94      2020.4 0.26                           157 353 
 ZAR  HZ EP   1    547 21.59                             123     0.1 6  202 291 
 ZAR  HN ES   1    547 46.89                             123     0.2 6  202 291 
 ZAR  HZ I         547 53.07      1620.3 0.41                           202 291 
 NOR  SZ EP        547 25.08                             118    -0.1 8  236 234 
 NOR  SN ES   1    547 53.49                             118     0.3 6  236 234 
 CHI  HZ EP   1    547 27.31                             117     0.0 6  252 195 
 CHI  HN ES   1    547 56.81                             117    -0.3 6  252 195 
 CHI  HZ I         548  4.23       450.5 0.31                           252 195 
 ROSC BZ IP     C  547 29.14                             117     1.5 8  255 210 
 ROSC BZ I         548  3.35      1000.5 0.35                           255 210 
 HEL  HZ EP        547 29.35                             115    -0.1 8  272 255 
 HEL  HZ I         548  8.46       672.7 0.47                           272 255 
 URE  HZ EP        547 29.23                             114    -0.9 7  282 291 
 URE  HZ I         548  5.01       539.8 0.12                           282 291 
 GUY  SZ EP   1    547 34.13                             112     0.8 5  305 234 
 GUY  SZ I         548 16.33       593.3 0.31                           305 234 
 VIL  SZ EP   1    547 32.63                             112    -0.4 5  307 191 
 VIL  SN ES   1    548  7.42                             112     0.1 5  307 191 
 VIL  SZ I         548 11.45       305.6 0.73                           307 191 
 RREF HZ EP        547 35.77                             111     0.2 7  323 229 
 DBB  SZ EP        547 37.07                             110     0.5 7  338 274 
 COD  HZ EP   1    547 36.70                             109    -0.5 5  345 355 
 COD  HE ES   1    548 15.43                             109     0.8 5  345 355 
 COD  HZ I         548 18.57       158.6 0.28                           345 355 
 MON  HN ES        548 15.25                             109    -0.7 6  351 308 
 MON  HZ I         548 18.61       190.7 0.52                           351 308 
 ANIL HZ EP   1    547 39.04                             108    -0.2 5  359 224 
 SDV  BZ EP   1    547 38.68                             108    -0.4 5  359  51 
 ANIL HZ I         548 26.86      1241.3 0.29                           359 224 
 PRA  HZ EP   1    547 42.57                             106    -0.5 4  395 209 
 PRA  HN ES   1    548 25.47                             106     0.4 4  395 209 
 SJC  HZ EP        547 43.22                             106    -1.2 6  406 327 
 SJC  HZ I         548 29.13       222.9 0.51                           406 327 
 PAL  HZ EP   1    547 45.05                             106     0.5 4  407 239 
 YOT  HZ EP   1    547 52.06                             103    -0.4 4  474 228 
 YOT  HZ I         547 56.77        84.6 0.39                           474 228 
 GUA  SZ EP   1    547 52.01                             103    -0.8 3  478 173 
 HORQ SZ EP   1    547 59.48                             101    -0.4 3  534 226 
 HORQ SZ I         549  9.54        36.6 0.83                           534 226 
 PCON HZ EP   1    548 10.93                              99     1.0 2  614 216 
                                                                                
