 2012  420 0345 36.3 L   6.756 -73.159146.1  RSN  8 0.4 2.1LRSN                1
 GAP=137        0.93       4.6     4.7  7.4 -0.3149E+01  0.9387E+01 -0.6209E+00E
 Epicentro: LOS SANTOS - SANTANDER                                             3
 ACTION:UPD 12-07-05 11:54 OP:tino STATUS:               ID:20120420034536 L   I
 2012-04-20-0340-00M.COL___187                                                 6
 STAT SP IPHASW D HRMM SECON CODA AMPLIT PERI AZIMU VELO AIN AR TRES W  DIS CAZ7
 BAR2 SZ EP   1    345 55.91                             172     0.1 7   18 188 
 BAR2 SZ ES   1    346 11.01                             172    -0.1 7   18 188 
 BAR2 SZ I         346 12.81        34.3 0.35                            18 188 
 BRR  HZ EP   1    345 57.92                             152     0.4 7   72 302 
 BRR  HN ES   1    346 15.10                             152     1.0 7   72 302 
 BRR  HZ I         346 18.30        25.4 0.17                            72 302 
 PAM  SZ EP   1    345 58.83                             149     0.0 7   82  38 
 PAM  SN ES        346 15.97                             149    -0.410   82  38 
 PAM  SZ I         346 18.20         8.3 0.36                            82  38 
 RUS  HZ EP   1    345 59.98                             145     0.3 7   96 175 
 RUS  HN ES   1    346 17.87                             145    -0.2 7   96 175 
 RUS  HZ I         346 20.43        17.5 0.64                            96 175 
 PTB  HZ EP   1    346  2.73                             132    -0.3 7  145 261 
 PTB  HN ES        346 23.79                             132    -0.2 9  145 261 
 PTB  HZ I         346 31.61        13.0 0.21                           145 261 
 OCA  SZ EP   1    346  5.29                             129     0.2 7  165 354 
 OCA  SZ ES   2    346 27.93                             129     0.4 5  165 354 
 ZAR  HZ EP   1    346  8.52                             122    -0.3 6  205 294 
 ZAR  HN ES   1    346 33.58                             122    -0.6 6  205 294 
 ZAR  HZ I         346 40.21        18.7 0.23                           205 294 
 PRA  HN ES   1    347 11.02                             107     0.5 4  387 210 
                                                                                
