 2015  420 0649 39.8 L   6.820 -73.175138.0  RSN 15 0.5 1.9LRSN                1
 GAP=132        1.13       2.8     3.9  5.6 -0.2921E+01  0.7752E+01  0.4219E+00E
 Epicentro: ZAPATOCA - SANTANDER                                               3
 ACTION:UPD 15-06-03 16:56 OP:cam  STATUS:               ID:20150420064939 L   I
 OLDACT:REG 15-04-20 13:58 OP:ak   STATUS:               ID:20150420064750     3
 2015-04-20-0647-50M.COL___265                                                 6
 STAT SP IPHASW D HRMM SECON CODA AMPLIT PERI AZIMU VELO AIN AR TRES W  DIS CAZ7
 BAR2 EZ EP        649 58.65                             169    0.1310 25.2 182 
 BAR2 EZ ES        650 13.55                             169    0.4110 25.2 182 
 BAR2 EZ I         650 15.38        23.7 0.16            169           25.2 182 
 BRR  HZ IP     C  650  0.49                             152    0.6210 67.2 298 
 BRR  HE ES        650 15.25                             152   -0.2810 67.2 298 
 BRR  HZ I         650 21.67        19.2 0.14            149           67.2 298 
 PAM  SZ EP        650  1.44                             149    0.2410 77.8  42 
 PAM  SN ES        650 18.24                             149    0.3310 77.8  42 
 PAM  SZ I         650 20.85        13.3 0.56            154           77.8  42 
 RUS  HZ EP        650  2.74                             141   -0.2310  103 174 
 RUS  HN ES        650 20.27                             141   -0.7810  103 174 
 RUS  HZ I         650 22.40         9.4 0.34            146            103 174 
 PTB  HZ EP        650  5.47                             131   -0.40 9  145 258 
 PTB  HE ES        650 26.53                             131    0.31 9  145 258 
 PTB  HZ I         650 32.38         8.5 0.32            131            145 258 
 OCA  HZ EP        650  6.71                             128   -0.54 9  158 354 
 OCA  HE ES        650 28.24                             128   -0.43 9  158 354 
 OCA  HZ I         650 33.74        19.9 0.44            130            158 354 
 SPBC HZ EP        650  7.58                             127   -0.09 9  163 218 
 SPBC HE ES        650 29.50                             127    0.08 9  163 218 
 SPBC HZ I         650 31.77        23.1 0.12            129            163 218 
 ZAR  HZ EP   1    650 11.72                             121    0.39 6  200 292 
 ZAR  HE ES        650 35.75                             121   -0.18 9  200 292 
 ZAR  HZ I         650 45.01         4.0 0.12            122            200 292 
 NOR  HZ EP        650 14.39                             117   -0.54 8  233 234 
 NOR  HE ES        650 41.72                             117   -0.62 8  233 234 
 NOR  HZ I         650 46.67         7.8 0.18            119            233 234 
 SML  HZ EP        650 15.42                             116   -0.19 8  240 336 
 SML  HN ES        650 44.18                             116    0.63 8  240 336 
 SML  HZ I         650 49.13        13.2 0.22            118            240 336 
 ROSC BZ EP   1    650 16.44                             115   -1.08 6  253 210 
 ROSC BE ES        650 47.88                             115    0.93 8  253 210 
 ROSC BZ I         650 54.55        10.0 0.60            118            253 210 
 HEL  HN ES        650 49.55                             113   -0.61 8  269 255 
 HEL  HZ I         650 56.91         3.0 0.28            115            269 255 
 GUY2CHZ EP        650 23.57                             111    0.68 7  300 234 
 GUY2CHE ES        650 56.85                             111    0.34 7  300 234 
 GUY2CHZ I         651  5.15         3.9 0.26                           300 234 
 CBOC HZ EP   1    650 26.33                             109    0.22 5  331 252 
 CBOC HN ES        651  2.00                             109   -0.24 7  331 252 
 CBOC HZ I         651 12.06         1.0 0.38            110            331 252 
 TOL  SZ EP        650 28.13                             108    0.47 7  343 224 
 TOL  SE ES        651  5.93                             108    0.93 7  343 224 
 TOL  SZ I         651  9.51         3.9 0.52            110            343 224 
                                                                                
