 2012  520 0710  3.3 L   6.793 -73.145145.6  RSN  6 0.5 1.5LRSN                1
 GAP=137        1.25       8.4     7.1 14.0  0.8334E+00  0.8496E+01  0.7625E+01E
 Epicentro: LOS SANTOS - SANTANDER                                             3
 ACTION:UP  12-07-05 12:06 OP:pat  STATUS:               ID:20120520071003 L   I
 2012-05-20-0710-00M.COL___200                                                 6
 STAT SP IPHASW D HRMM SECON CODA AMPLIT PERI AZIMU VELO SNR AR TRES W  DIS CAZ7
 BAR2 SZ EP   1    710 22.78                             171    -0.1 7   23 191 
 BAR2 SZ I         710 38.77         8.0 0.25                            23 191 
 BRR  HZ EP   1    710 24.69                             152     0.3 7   72 299 
 BRR  HN ES   1    710 41.42                             152     0.5 7   72 299 
 BRR  HZ I         710 45.95        11.0 0.18                            72 299 
 PAM  SZ EP        710 25.72                             151     0.210   78  39 
 PAM  SN ES   1    710 42.09                             151    -0.7 7   78  39 
 RUS  HZ EP   1    710 26.98                             144     0.0 7  100 176 
 RUS  HN ES   1    710 45.86                             144     0.5 7  100 176 
 RUS  HZ I         710 47.38         1.8 0.30                           100 176 
 PTB  HZ EP   1    710 29.59                             132    -0.6 7  148 259 
 PTB  HN ES   1    710 50.27                             132    -1.0 7  148 259 
 PTB  HZ I         710 54.67         2.3 0.14                           148 259 
 ZAR  HN ES   1    711  1.73                             122     0.7 6  204 292 
 ZAR  HZ I         711  7.00         3.8 0.37                           204 292 
                                                                                
