 2012  220 0048 47.5 L   6.768 -73.127149.8  RSN  5 0.3 1.4LRSN                1
 GAP=140        0.50       3.6     4.4  5.6 -0.1317E+01 -0.1426E+01  0.3825E+01E
 ACTION:UP  12-03-07 16:32 OP:epov STATUS:               ID:20120220004847 L   I
 2012-02-20-0046-59S.COL___191                                                 6
 STAT SP IPHASW D HRMM SECON CODA AMPLIT PERI AZIMU VELO AIN AR TRES W  DIS CAZ7
 GIR2 SZ EP   1    049  7.91                             166    0.13 7 35.2 348 
 GIR2 SZ ES   1    049 23.60                             166    0.02 7 35.2 348 
 BRR  HZ EP   1    049  9.30                             152    0.00 7 74.7 300 
 BRR  HZ I         049  9.55         8.6 0.15                          74.7 300 
 BRR  HE ES   1    049 26.61                             152    0.32 7 74.7 300 
 PAM  SZ EP   1    049 10.34                             151    0.09 7 78.9  37 
 PAM  SN ES   1    049 27.67                             151   -0.32 7 78.9  37 
 PAM  SZ I         049 29.59         3.0 0.23                          78.9  37 
 RUS  HZ EP   1    049 11.35                             146   -0.06 7 96.9 177 
 RUS  HN ES   1    049 30.15                             146    0.11 7 96.9 177 
 RUS  HZ I         049 31.74         3.4 0.38                          96.9 177 
 PTB  HN ES   2    049 35.58                             133   -0.75 5  149 260 
                                                                                
