 2010 1120 0731  3.9 L   6.783 -73.113153.2  RSN  4 0.1 1.5LRSN                1
 GAP=186        0.33       4.7     8.8  4.2  0.3391E+02 -0.1825E+02 -0.1042E+02E
 Epicentro: LOS SANTOS - SANTANDER                                             3
 ACTION:UP  10-12-17 16:53 OP:REBC STATUS:               ID:20101120073103 L   I
 2010-11-20-0728-24S.COL___132                                                 6
 STAT SP IPHASW D HRMM SECON CODA AMPLIT PERI AZIMU VELO SNR AR TRES W  DIS CAZ7
 BAR2 SZ EP   1    731 24.33                             171    -0.1 7   23 200 
 BAR2 SZ ES   1    731 40.33                             171    -0.1 7   23 200 
 BAR2 SZ I         731 40.97        11.5 0.21                            23 200 
 BRR  HZ EP        731 26.09                             152     0.010   75 299 
 BRR  HZ I         731 27.59         5.6 0.12                            75 299 
 BRR  HN ES   1    731 43.38                             152     0.0 7   75 299 
 RUS  HZ EP   1    731 28.17                             146    -0.1 7   98 178 
 RUS  HE ES   1    731 47.34                             146     0.1 7   98 178 
 RUS  HZ I         731 48.46         2.9 0.21                            98 178 
 OCA  SZ EP   2    731 33.19                             131     0.2 5  163 352 
 OCA  SZ I         732  0.98         3.0 0.70                           163 352 
                                                                                
