 2010  720 0321 35.5 L   6.879 -73.269122.3  RSN  5 0.3 1.1LRSN                1
 GAP=139        0.66       3.6     6.9  7.1  0.9901E+00 -0.1172E+02 -0.6577E+01E
 Epicentro: BETULIA - SANTANDER                                                3
 ACTION:UPD 10-12-01 15:18 OP:pat  STATUS:               ID:20100720032135 L   I
 2010-07-20-0317-49S.COL___123                                                 6
 STAT SP IPHASW D HRMM SECON CODA AMPLIT PERI AZIMU VELO AIN AR TRES W  DIS CAZ7
 BAR2 SZ EP   1    321 52.65                             164     0.0 7   33 164 
 BAR2 SZ ES   1    322  5.91                             164     0.0 7   33 164 
 BAR2 SZ I         322  6.98        10.6 0.44                            33 164 
 BRR  HZ IP     D  321 53.04                             154    -0.210   55 297 
 BRR  HZ I         321 53.46         5.5 0.11                            55 297 
 BRR  HE ES   1    322  7.25                             154     0.2 7   55 297 
 RUS  HZ EP   2    321 57.49                             135    -0.4 5  111 169 
 RUS  HE ES   1    322 15.47                             135     0.1 7  111 169 
 RUS  HZ I         322 17.17         1.3 0.36                           111 169 
 GUE  SZ EP   1    321 57.64                             135    -0.1 7  112  20 
 GUE  SZ ES   1    322 14.79                             135    -0.3 7  112  20 
 GUE  SZ I         322 15.57         0.9 0.17                           112  20 
 GRA  SZ EP   1    321 59.02                             132     0.6 7  122  25 
 GRA  SZ I         322 21.43         2.5 0.51                           122  25 
                                                                                
