 2015  220 0335 25.1 L   6.126 -73.734122.0  RSN  4 0.6 1.2LRSN                1
 GAP=130        1.36       6.3     8.3 13.9  0.1424E+01  0.7090E+01  0.2578E+02E
 Epicentro: EL PENON - SANTANDER                                               3
 ACTION:UPD 15-04-30 21:27 OP:nd   STATUS:               ID:20150220033525 L   I
 OLDACT:REG 15-02-20 12:46 OP:mher STATUS:               ID:20150220032748     3
 2015-02-20-0327-48M.COL___284                                                 6
 STAT SP IPHASW D HRMM SECON CODA AMPLIT PERI AZIMU VELO AIN AR TRES W  DIS CAZ7
 SPBC HZ EP        335 44.38                             150    0.9110 64.4 216 
 SPBC HN ES        335 57.73                             150   -0.0410 64.4 216 
 SPBC HZ I         335 59.97         2.8 0.26            152           64.4 216 
 BAR2 EZ ES        335 59.94                             145   -0.0210 79.9  50 
 BAR2 EZ I         336  1.70        11.2 0.44            148           79.9  50 
 PTB  HZ EP        335 44.46                             140   -0.8310 92.1 300 
 PTB  HN ES        336  1.23                             140    0.2110 92.1 300 
 PTB  HZ I         336  3.97         3.3 0.12            143           92.1 300 
 CHI  HZ EP   1    335 53.07                             123    0.49 7  165 180 
 CHI  HN ES        336 13.43                             123   -0.56 9  165 180 
 CHI  HZ I         336 16.84         1.2 0.62            125            165 180 
                                                                                
