 2012 1120 0839 43.4 L   6.721 -73.223149.0  RSN  4 0.2 1.2LRSN                1
 GAP=222        0.50       5.1     5.2  6.1  0.1505E+02 -0.1774E+00 -0.2151E+01E
 Epicentro: VILLANUEVA - SANTANDER                                             3
 ACTION:UPD 12-12-05 15:34 OP:}ep  STATUS:               ID:20121120083943 L   I
 2012-11-20-0834-39M.COL___192                                                 6
 STAT SP IPHASW D HRMM SECON CODA AMPLIT PERI AZIMU VELO AIN AR TRES W  DIS CAZ7
 BRR  HZ EP        840  4.77                             154    0.0010 68.9 308 
 BRR  HN ES   1    840 21.41                             154   -0.03 7 68.9 308 
 RUS  HZ EP   1    840  7.29                             147    0.35 7 92.9 170 
 RUS  HN ES   1    840 25.19                             147   -0.12 7 92.9 170 
 RUS  HZ I         840 27.27         2.4 0.35                          92.9 170 
 PTB  HZ EP        840  9.48                             135   -0.29 9  138 262 
 PTB  HN ES   1    840 30.47                             135    0.14 7  138 262 
 PTB  HZ I         840 34.29         2.0 0.14                           138 262 
 ZAR  HE ES   2    840 41.19                             124    0.43 4  200 295 
 ZAR  HZ I         840 48.65         1.6 0.24                           200 295 
                                                                                
