 2013  320 0002  6.3 L   6.765 -73.167150.8  RSN  4 0.4 1.7LRSN                1
 GAP=135        0.98       5.7     5.5  8.8 -0.5557E+00 -0.4472E+00  0.2048E+01E
 Epicentro: LOS SANTOS - SANTANDER                                             3
 ACTION:UPD 13-04-09 14:03 OP:ep   STATUS:               ID:20130320000206 L   I
 2013-03-20-0000-00M.COL___244                                                 6
 STAT SP IPHASW D HRMM SECON CODA AMPLIT PERI AZIMU VELO AIN AR TRES W  DIS CAZ7
 BRR  HZ EP        0 2 28.45                             153    0.4810 71.1 302 
 BRR  HN ES        0 2 45.30                             153    0.4210 71.1 302 
 BRR  HN I         0 2 49.34        22.5 0.26            154           71.1 302 
 PAM  SZ EP        0 2 29.34                             150    0.0410 81.9  39 
 PAM  SE ES   1    0 2 46.55                             150   -0.70 7 81.9  39 
 PAM  SE I         0 2 48.83         6.3 0.52            152           81.9  39 
 RUS  HZ EP        0 2 30.51                             146    0.2310 97.0 174 
 RUS  HN ES        0 2 48.98                             146   -0.0210 97.0 174 
 RUS  HN I         0 2 49.43         4.1 0.40            150           97.0 174 
 PTB  HZ EP        0 2 32.89                             134   -0.50 9  145 260 
 PTB  HN ES        0 2 54.18                             134   -0.36 9  145 260 
                                                                                
