 2016  620 0725  6.8 L   7.041 -73.512109.8  RSN 12 0.5 1.8LRSN                1
 GAP= 80        1.10       3.1     3.1  6.6 -0.1891E+01  0.6269E+01  0.9390E+00E
 Epicentro: SAN VICENTE DE CHUCURI - SANTANDER                                 3
 ACTION:UPD 16-07-21 22:20 OP:rebc STATUS:               ID:20160620072506 L   I
 OLDACT:DUP 16-06-20 19:44 OP:ak   STATUS:               ID:20160620071742d    3
 OLDACT:REG 16-06-20 13:36 OP:ar   STATUS:               ID:20160620071741     3
 2016-06-20-0717-41M.COL___343                                                 6
 STAT SP IPHASW D HRMM SECON CODA AMPLIT PERI AZIMU VELO AIN AR TRES W  DIS CAZ7
 BRR  HZ IP     D  725 22.10                             167    0.3110 23.3 288 
 BRR  HN ES        725 33.71                             167    0.2510 23.3 288 
 BRR  HZ I         725 34.38        15.6 0.10                          23.3 288 
 BAR2 EZ EP        725 24.51                             149    0.6010 61.6 144 
 BAR2 EZ ES        725 37.52                             149    0.2710 61.6 144 
 BAR2 EZ I         725 38.78        49.8 0.28                          61.6 144 
 PAM  EZ IP     D  725 26.95                             136    0.1410 95.6  70 
 PAM  EN ES        725 42.16                             136   -0.2410 95.6  70 
 PAM  EZ I         725 45.22         9.2 0.18                          95.6  70 
 PTB  HZ EP        725 27.80                             129   -0.4010  118 242 
 PTB  HN ES        725 44.05                             129   -0.8310  118 242 
 PTB  HZ I         725 46.18         8.2 0.16                           118 242 
 OCA  HZ EP        725 29.75                             125   -0.1810  134   9 
 OCA  HN ES        725 47.38                             125   -0.5810  134   9 
 OCA  HZ I         725 52.61        22.6 0.16                           134   9 
 RUS  HZ EP        725 30.59                             125    0.07 9  136 160 
 RUS  HN ES        725 48.76                             125   -0.24 9  136 160 
 RUS  HZ I         725 52.08         3.3 0.36                           136 160 
 ZAR  HZ EP   2    725 32.95                             121    0.89 5  157 289 
 ZAR  HN ES        725 52.63                             121    0.88 9  157 289 
 ZAR  HZ I         725 55.34         8.2 0.28                           157 289 
 SPBC HZ EP   2    725 32.51                             119   -0.59 5  166 202 
 SPBC HN ES        725 53.41                             119   -0.20 9  166 202 
 HEL  HN ES        726  8.69                             109   -0.74 8  242 247 
 HEL  HZ I         726 15.34         4.7 0.34                           242 247 
 CHI  HZ EP   9    725 47.34                             107    2.31 0  268 185 
 CHI  HE ES        726 17.31                                    0.16 8  268 185 
 GUY2CHZ EP   1    725 47.65                             105    0.27 5  287 226 
 GUY2CHN ES        726 19.63                             105    0.62 7  287 226 
 GUY2CHZ I         726 32.36         2.6 0.58                           287 226 
 CBOC HZ EP   4    725 51.29                             104    2.10 0  306 245 
 CBOC HN ES        726 22.38                             104    0.14 7  306 245 
                                                                                
