 2012 1020 0458 20.3 L   6.794 -73.091149.6  RSN  5 0.3 1.1LRSN                1
 GAP=144        0.68       4.9     5.2  7.3  0.4839E+01  0.5221E+01  0.5402E+01E
 Epicentro: LOS SANTOS - SANTANDER                                             3
 ACTION:UPD 12-11-22 17:04 OP:ep   STATUS:               ID:20121020045820 L   I
 2012-10-20-0450-00M.COL___233                                                 6
 STAT SP IPHASW D HRMM SECON CODA AMPLIT PERI AZIMU VELO AIN AR TRES W  DIS CAZ7
 GIR2 SZ EP   1    458 40.95                             167    0.44 7 33.5 340 
 GIR2 SZ ES   1    458 56.26                             167    0.01 7 33.5 340 
 PAM  SZ EP   1    458 43.08                             152    0.32 7 74.2  36 
 PAM  SZ I         458 43.32         2.6 0.24                          74.2  36 
 PAM  SE ES   1    458 59.78                             152   -0.49 7 74.2  36 
 BRR  HZ EP   1    458 42.09                             151   -0.12 7 76.9 297 
 BRR  HN ES   1    458 59.70                             151    0.42 7 76.9 297 
 RUS  HZ EP   1    458 44.11                             145   -0.27 7 99.6 180 
 RUS  HZ I         458 44.78         1.5 0.22                          99.6 180 
 RUS  HN ES   1    459  3.16                             145    0.01 7 99.6 180 
 RUS  HN I         459  4.83         2.9 0.22                          99.6 180 
 ZAR  HN ES   1    459 19.14                             122   -0.46 6  210 292 
                                                                                
