 2011  520 0456 33.3 L   6.799 -73.109137.2  RSN 10 0.3 1.8LRSN                1
 GAP=141        0.81       3.7     6.5  6.5 -0.4718E+01  0.3407E+01 -0.2934E+01E
 Epicentro: LOS SANTOS - SANTANDER                                             3
 ACTION:UP  11-06-29 08:54 OP:tino STATUS:               ID:20110520045633 L   I
 2011-05-20-0454-58S.COL___140                                                 6
 STAT SP IPHASW D HRMM SECON CODA AMPLIT PERI AZIMU VELO SNR AR TRES W  DIS CAZ7
 BTL  SZ EP        456 52.23                             170     0.410   22 307 
 BAR2 SZ EP        456 51.96                             169     0.010   24 200 
 BAR2 SZ ES   1    457  6.13                             169    -0.3 7   24 200 
 BAR2 SZ I         457  9.59        16.7 0.30                            24 200 
 GIR2 SZ EP   1    456 52.00                             166     0.0 7   32 343 
 BRR  HZ EP        456 53.71                             150     0.010   75 297 
 BRR  HZ I         456 54.09        22.3 0.12                            75 297 
 BRR  HE ES   1    457 10.08                             150     0.4 7   75 297 
 PAM  SZ EP        456 54.72                             150     0.310   75  37 
 PAM  SN ES   2    457 11.56                             150     0.6 5   75  37 
 RUS  HZ EP   1    456 56.07                             142    -0.1 7  100 178 
 RUS  HE ES   1    457 13.59                             142    -0.4 7  100 178 
 RUS  HZ I         457 16.47         9.3 0.23                           100 178 
 GRA  SZ EP        456 57.65                             135     0.010  125  16 
 GRA  SZ I         456 58.83        11.5 0.28                           125  16 
 GRA  SZ ES   1    457 16.78                             135     0.1 7  125  16 
 OCA  SZ EP   1    457  0.51                             127    -0.5 7  161 352 
 OCA  SZ ES   1    457 21.88                             127    -0.8 7  161 352 
 OCA  SZ I         457 26.81         5.6 0.25                           161 352 
 HEL  HZ EP   1    457 13.71                             113     0.2 6  276 256 
 HEL  HZ I         457 50.63         3.3 0.48                           276 256 
 RREF HZ EP   2    457 19.54                             109     0.1 3  325 230 
 RREF HZ I         458  4.27         2.8 0.25                           325 230 
                                                                                
