 2013 1120 0145 14.3 L   6.760 -73.110144.0  RSN  5 0.3 1.4LRSN                1
 GAP=238        0.81       5.9     7.7  6.1  0.2198E+02  0.1056E+02  0.5795E+01E
 Epicentro: LOS SANTOS - SANTANDER                                             3
 ACTION:UPD 14-01-09 16:29 OP:ep   STATUS:               ID:20131120014514 L   I
 OLDACT:REG 13-11-20 07:16 OP:nd   STATUS:               ID:20131120014000     3
 2013-11-20-0140-00M.COL___279                                                 6
 STAT SP IPHASW D HRMM SECON CODA AMPLIT PERI AZIMU VELO AIN AR TRES W  DIS CAZ7
 BAR2 SZ EP        145 33.04                             172   -0.6610 20.2 203 
 BAR2 SZ ES        145 48.92                             172    0.1210 20.2 203 
 BAR2 SZ I         145 51.68         8.9 0.28            168           20.2 203 
 BRR  HZ EP        145 36.01                             150    0.3810 76.8 300 
 BRR  HN ES        145 52.29                             150    0.0510 76.8 300 
 BRR  HZ I         146  3.40         8.1 0.42            149           76.8 300 
 RUS  HZ EP        145 37.96                             145    0.3710 96.0 178 
 RUS  HN ES        145 55.62                             145   -0.1110 96.0 178 
 RUS  HZ I         145 57.95         2.8 0.28            149           96.0 178 
 PTB  HZ EP        145 41.12                             131   -0.33 9  151 261 
 PTB  HN ES   2    146  2.40                             131   -0.20 5  151 261 
 PTB  HZ I         146  4.27         2.7 0.16            132            151 261 
 SPBC HZ EP        145 42.83                             129    0.20 9  162 221 
 SPBC HN ES   2    146  4.81                             129    0.12 5  162 221 
 SPBC HZ I         146 11.83         3.3 0.30            132            162 221 
                                                                                
