 2010  620 0834 35.0 L   6.677 -73.246146.8  RSN  5 0.5 1.0LRSN                1
 GAP=144        1.08      10.7    22.6 24.2  0.8439E+02 -0.3387E+03 -0.1359E+03E
 Epicentro: BARICHARA - SANTANDER                                              3
 ACTION:UP  10-08-24 10:11 OP:vdl  STATUS:               ID:20100620083435 L   I
 2010-06-20-0832-38S.COL___118                                                 6
 STAT SP IPHASW D HRMM SECON CODA AMPLIT PERI AZIMU VELO SNR AR TRES W  DIS CAZ7
 BAR2 SZ EP   2    834 54.37                             175    -0.2 5   12 144 
 BRR  HZ EP   1    834 55.88                             154    -0.3 8   70 313 
 BRR  HN ES   2    835 12.96                             154     0.3 5   70 313 
 BRR  HZ I         835 20.47         3.9 0.45                            70 313 
 RUS  HZ EP   1    834 58.21                             148     0.2 8   89 168 
 RUS  HN ES   2    835 15.56                             148    -0.4 5   89 168 
 RUS  HZ I         835 18.18         0.8 0.30                            89 168 
 BRI  SZ EP        835  0.88                             137     0.610  125  23 
 GRA  SZ EP   1    835  0.76                             133    -0.9 7  142  20 
                                                                                
