 2014  620 0246 48.2 L   6.848 -73.365125.9  RSN  8 0.5 1.9LRSN                1
 GAP= 91        1.20       3.7     4.5  7.5 -0.7976E+00  0.9723E+01 -0.1137E+01E
 Epicentro: SAN VICENTE DE CHUCURI - SANTANDER                                 3
 ACTION:UPD 14-07-01 22:55 OP:nd   STATUS:               ID:20140620024648 L   I
 OLDACT:DUP 14-06-20 17:18 OP:carl STATUS:               ID:20140620023817d    3
 2014-06-20-0238-16M.COL___259                                                 6
 STAT SP IPHASW D HRMM SECON CODA AMPLIT PERI AZIMU VELO AIN AR TRES W  DIS CAZ7
 BAR2 SZ EP        247  6.10                             164    0.3310 34.8 144 
 BAR2 SZ ES        247 19.57                             164    0.0810 34.8 144 
 BAR2 SZ I         247 20.45        42.9 0.36            165           34.8 144 
 BRR  HZ EP        247  6.47                             158    0.5310 47.8 307 
 BRR  HN ES        247 20.60                             158    0.8110 47.8 307 
 PAM  SN ES        247 25.51                             142   -0.3210 91.4  54 
 PAM  SZ I         247 27.72        14.4 0.30            147           91.4  54 
 RUS  HZ EP        247 10.93                             136    0.1010  110 164 
 RUS  HN ES        247 28.43                             136   -0.0710  110 164 
 PTB  HZ EP        247 11.39                             132   -0.1210  125 254 
 PTB  HN ES        247 28.91                             132   -0.7910  125 254 
 PTB  HZ I         247 33.25        15.6 0.44            132            125 254 
 SPBC HZ EP        247 14.66                             126    0.36 9  154 211 
 SPBC HN ES        247 34.02                             126   -0.64 9  154 211 
 SPBC HZ I         247 42.73         7.1 0.44            127            154 211 
 OCA  HZ EP        247 14.34                             126   -0.06 9  154   2 
 OCA  HN ES        247 34.00                             126   -0.84 9  154   2 
 OCA  HZ I         247 35.78        10.9 0.20            128            154   2 
 ZAR  HZ EP        247 16.98                             121    0.16 9  180 293 
 ZAR  HN ES        247 39.47                             121    0.31 9  180 293 
 ZAR  HZ I         247 44.39         9.1 0.32            122            180 293 
                                                                                
