 2013 1120 0910 50.2 L   6.743 -73.202146.0  RSN  5 0.2 1.3LRSN                1
 GAP=226        0.60       4.6     4.1  4.7  0.1169E+02  0.2982E+01 -0.9401E-01E
 Epicentro: VILLANUEVA - SANTANDER                                             3
 ACTION:UPD 14-01-09 16:29 OP:ep   STATUS:               ID:20131120091050 L   I
 OLDACT:REG 13-11-20 07:35 OP:nd   STATUS:               ID:20131120091000     3
 2013-11-20-0910-00M.COL___279                                                 6
 STAT SP IPHASW D HRMM SECON CODA AMPLIT PERI AZIMU VELO AIN AR TRES W  DIS CAZ7
 BAR2 SZ EP        911  9.37                             173   -0.3810 16.8 173 
 BAR2 SZ ES        911 24.86                             173   -0.1410 16.8 173 
 BAR2 SZ I         911 25.90         8.0 0.20            169           16.8 173 
 BRR  HZ IP     C  911 11.44                             153    0.1610 69.3 306 
 BRR  HN ES        911 27.84                             153    0.1310 69.3 306 
 BRR  HZ I         911 33.46         3.4 0.20            150           69.3 306 
 RUS  HZ EP        911 13.81                             145    0.2310 94.9 172 
 RUS  HN ES        911 31.99                             145    0.1710 94.9 172 
 RUS  HZ I         911 33.28         2.2 0.28            147           94.9 172 
 PTB  HZ EP        911 16.24                             134   -0.31 9  141 261 
 PTB  HN ES        911 37.02                             134   -0.07 9  141 261 
 PTB  HZ I         911 44.45         2.2 0.20            132            141 261 
 ZAR  HZ EP   2    911 22.90                             123    0.56 4  201 294 
 ZAR  HN ES        911 47.49                             123    0.09 9  201 294 
 ZAR  HZ I         911 53.21         2.4 0.48            123            201 294 
                                                                                
