 2012 1220 0902 14.5 L   6.799 -73.128151.0  RSN 17 0.3 2.8LRSN                1
 GAP=113        0.75       2.2     2.9  4.0  0.1077E+01  0.1204E+01  0.1226E+01E
 Epicentro: LOS SANTOS - SANTANDER                                             3
 ACTION:UPD 13-01-04 14:29 OP:ep   STATUS:               ID:20121220090214 L   I
 2012-12-20-0900-00M.COL___242                                                 6
 STAT SP IPHASW D HRMM SECON CODA AMPLIT PERI AZIMU VELO AIN AR TRES W  DIS CAZ7
 BAR2 SZ IP        9 2 34.74                             171   -0.0410 23.7 195 
 BAR2 SZ ES        9 2 50.50                             171   -0.0810 23.7 195 
 BAR2 SZ I         9 2 52.63       185.6 0.18                          23.7 195 
 GIR2 SZ EP        9 2 34.80                             168   -0.0210 31.7 347 
 BRR  HZ EP     C  9 2 36.63                             153    0.3110 73.0 298 
 BRR  HN ES        9 2 54.09                             153    0.7510 73.0 298 
 BRR  HZ I         9 2 57.88        76.6 0.15                          73.0 298 
 RUS  HZ IP     C  9 2 38.59                             145   -0.1810  100 177 
 RUS  HN ES   1    9 2 57.39                             145   -0.30 7  100 177 
 RUS  HN I         9 2 59.43        77.7 0.28                           100 177 
 PTB  HZ EP        9 2 41.42                             133   -0.66 9  150 259 
 PTB  HE ES   1    9 3  3.10                             133   -0.49 7  150 259 
 PTB  HZ I         9 3  8.79        77.3 0.32                           150 259 
 TAM  HZ IP     C  9 2 42.89                             132    0.46 9  153 105 
 TAM  HZ I         9 2 43.14        57.7 0.17                           153 105 
 TAM  HE ES   1    9 3  3.94                             132   -0.27 7  153 105 
 OCA  HZ EP        9 2 43.35                             131    0.09 9  161 352 
 OCA  HN ES        9 3  5.40                             131   -0.29 9  161 352 
 OCA  HZ I         9 3 10.83        64.6 0.28                           161 352 
 ZAR  HZ EP        9 2 47.25                             123   -0.24 8  206 292 
 ZAR  HN ES        9 3 13.21                             123   -0.01 8  206 292 
 ZAR  HZ I         9 3 19.35        79.0 0.41                           206 292 
 SML  HZ EP        9 2 51.45                             118   -0.08 8  245 335 
 SML  HE ES   1    9 3 20.26                             118   -0.15 6  245 335 
 SML  HZ I         9 3 22.15        82.8 0.35                           245 335 
 CHI  HZ EP        9 2 52.69                             118    0.14 8  249 196 
 CHI  HE ES   1    9 3 22.36                             118    0.13 6  249 196 
 ROSC BZ EP   4    9 2 54.31                             118    1.29 0  254 211 
 ROSC BE ES   4    9 3 23.41                             118    0.34 0  254 211 
 ROSC BZ I         9 3 32.62        56.4 0.48                           254 211 
 HEL  HZ EP   1    9 2 55.53                             116    0.33 6  274 256 
 HEL  HZ I         9 3 34.54        29.8 0.34                           274 256 
 URE  HZ EP   4    9 2 54.53                             114   -1.52 0  286 292 
 URE  HZ I         9 3 33.20        33.2 0.21                           286 292 
 VIL  SZ EP   1    9 2 58.28                             113    0.07 5  304 192 
 VIL  SN ES   1    9 3 32.10                             113   -0.19 5  304 192 
 MON  HZ EP   4    9 3  1.86                             109   -2.04 0  355 308 
 MON  HN ES   4    9 3 40.05                             109   -2.38 0  355 308 
 MON  HZ I         9 3 42.88        14.9 0.47                           355 308 
 ANIL HZ EP   1    9 3  5.38                             109    0.71 5  359 225 
 PRA  HZ EP        9 3  8.17                             107   -0.15 6  393 210 
 PRA  HE ES        9 3 50.60                             107    0.30 6  393 210 
 PRA  HZ I         9 3 56.61        37.7 0.37                           393 210 
                                                                                
