 2012  520 0341 38.1 L   6.784 -73.149150.0  RSN  9 0.4 1.7LRSN                1
 GAP=137        1.04       5.8     5.5  9.3 -0.5622E+01  0.6107E+01  0.5639E+01E
 Epicentro: LOS SANTOS - SANTANDER                                             3
 ACTION:UP  12-07-05 12:06 OP:pat  STATUS:               ID:20120520034138 L   I
 2012-05-20-0340-00M.COL___200                                                 6
 STAT SP IPHASW D HRMM SECON CODA AMPLIT PERI AZIMU VELO SNR AR TRES W  DIS CAZ7
 BAR2 SZ EP        341 58.10                             172    -0.110   22 190 
 BAR2 SZ I         341 58.48        12.0 0.35                            22 190 
 BRR  HZ EP        342  0.05                             153     0.310   72 300 
 BRR  HN ES   1    342 17.50                             153     0.9 7   72 300 
 BRR  HZ I         342 19.72        11.5 0.08                            72 300 
 PAM  SZ EP        342  0.88                             151     0.010   79  39 
 PAM  SN ES   1    342 18.18                             151    -0.4 7   79  39 
 RUS  HZ EP   1    342  1.97                             145    -0.2 7   99 176 
 RUS  HN ES   1    342 21.11                                     0.2 7   99 176 
 RUS  HZ I         342 23.59         2.9 0.17                            99 176 
 PTB  HZ EP   1    342  4.87                             133    -0.5 7  147 259 
 PTB  HN ES   1    342 25.67                             133    -1.0 7  147 259 
 PTB  HZ I         342 31.97         5.5 0.47                           147 259 
 OCA  HZ EP   1    342  6.97                             130     0.1 7  162 353 
 OCA  HZ I         342 34.09         7.5 0.14                           162 353 
 ZAR  HE ES   1    342 36.38                             123     0.0 6  204 293 
 ZAR  HZ I         342 42.53         8.6 0.41                           204 293 
 NOR  SZ EP   1    342 13.79                             119    -0.2 6  233 235 
 NOR  SN ES   1    342 42.28                             119     0.4 6  233 235 
 PRA  HZ EP   1    342 32.37                             107     0.8 4  390 210 
                                                                                
