 2012  320 0029 47.4 L   7.089 -73.404111.9  RSN  6 0.2 1.8LRSN                1
 GAP=145        0.46       3.4     2.7  4.2  0.2572E+01  0.1076E+01  0.4652E+00E
 ACTION:UP  12-03-31 23:21 OP:EP   STATUS:               ID:20120320002947 L   I
 2012-03-20-0030-00M.COL___202                                                 6
 STAT SP IPHASW D HRMM SECON CODA AMPLIT PERI AZIMU VELO SNR AR TRES W  DIS CAZ7
 BRR  HZ EP        030  2.80                             162    -0.110   34 273 
 BRR  HE ES   1    030 15.27                             162     0.2 7   34 273 
 BRR  HZ I         030 15.68        26.2 0.15                            34 273 
 BAR2 SZ EP   1    030  4.55                             150    -0.1 7   60 156 
 BAR2 SZ ES   1    030 17.88                             150    -0.2 7   60 156 
 BAR2 SZ I         030 20.14        33.0 0.23                            60 156 
 PAM  SZ EP   1    030  6.84                             141     0.3 7   83  70 
 PAM  SE ES   2    030 21.27                             141    -0.2 5   83  70 
 PTB  HZ EP   2    030 10.19                             127     0.0 5  131 242 
 PTB  HN ES   2    030 27.95                             127     0.0 5  131 242 
 PTB  HZ I         030 29.93         4.1 0.16                           131 242 
 RUS  HZ EP        030 11.40                             126     0.0 9  137 165 
 RUS  HN ES   2    030 30.31                             126     0.2 5  137 165 
 ZAR  HZ EP   1    030 13.49                             119    -0.3 7  167 286 
 ZAR  HN ES   2    030 34.82                             119     0.4 5  167 286 
 ZAR  HZ I         030 38.22         8.8 0.45                           167 286 
                                                                                
