 2016  520 0859 55.8 L   6.849 -73.151139.9  RSN  6 0.4 1.3LRSN                1
 GAP=241        0.72       5.0     5.5  6.7  0.9519E+01  0.1162E+02  0.1940E+01E
 Epicentro: LOS SANTOS - SANTANDER                                             3
 ACTION:UPD 16-08-18 17:47 OP:cam  STATUS:               ID:20160520085955 L   I
 OLDACT:REG 16-05-20 13:09 OP:mher STATUS:               ID:20160520085740     3
 2016-05-20-0857-40M.COL___306                                                 6
 STAT SP IPHASW D HRMM SECON CODA AMPLIT PERI AZIMU VELO AIN AR TRES W  DIS CAZ7
 BAR2 EZ EP        9 0 14.98                             168    0.1510 28.6 187 
 BAR2 EZ ES        9 0 29.65                             168   -0.0310 28.6 187 
 BAR2 EZ I         9 0 32.88         3.6 0.17            172           28.6 187 
 BRR  HZ EP   2    9 0 16.92                             152    0.79 5 68.2 295 
 BRR  HZ I         9 0 29.26        11.6 0.34            149           68.2 295 
 BRR  HE ES   2    9 0 31.16                             152   -0.83 5 68.2 295 
 RUS  HZ EP   2    9 0 19.20                             141   -0.17 5  106 176 
 RUS  HE ES   2    9 0 37.86                             141    0.10 5  106 176 
 RUS  HZ I         9 0 39.47         2.5 0.50            142            106 176 
 PTB  HZ EP   2    9 0 21.31                             130   -1.02 5  148 257 
 PTB  HN ES   2    9 0 42.50                             130   -0.53 5  148 257 
 PTB  HZ I         9 0 44.35         2.3 0.44            129            148 257 
 SPBC HZ EP        9 0 23.98                             127   -0.23 9  167 218 
 SPBC HE ES        9 0 46.65                             127    0.27 9  167 218 
 SPBC HZ I         9 0 53.16         3.3 0.23            126            167 218 
 ZAR  HZ EP   2    9 0 27.46                             121   -0.13 4  202 291 
 ZAR  HE ES        9 0 52.69                             121    0.30 9  202 291 
 ZAR  HZ I         9 0 58.76         1.1 0.31            118            202 291 
                                                                                
