 2011  420 0636 48.6 L   6.784 -73.081147.6  RSN 12 0.4 2.6LRSN                1
 GAP=174        1.00       7.6     8.4  6.4 -0.4223E+02  0.9454E+01 -0.1697E+01E
 Epicentro: LOS SANTOS - SANTANDER                                             3
 ACTION:UP  11-06-22 15:31 OP:REBC STATUS:               ID:20110420063648 L   I
 2011-04-20-0635-23S.COL___138                                                 6
 STAT SP IPHASW D HRMM SECON CODA AMPLIT PERI AZIMU VELO SNR AR TRES W  DIS CAZ7
 BAR2 SZ IP        637  8.47                             170     0.010   24 208 
 BAR2 SZ ES   1    637 23.56                             170    -0.4 7   24 208 
 BAR2 SZ I         637 24.62        77.9 0.22                            24 208 
 BTL  SZ IP        637  8.69                             170     0.110   25 306 
 BTL  SZ ES   1    637 24.37                             170     0.3 7   25 306 
 GIR2 SZ IP        637  8.51                             166    -0.110   35 339 
 PAM  SZ IP        637 11.25                             152     0.410   74  34 
 PAM  SZ I         637 11.47        44.8 0.20                            74  34 
 PAM  SN ES   1    637 28.30                             152     0.1 7   74  34 
 BRR  HZ IP        637 10.30                             151    -0.110   78 297 
 BRR  HZ I         637 10.67       126.5 0.18                            78 297 
 BRR  HN ES   1    637 27.95                             151     0.6 7   78 297 
 BRI  SZ IP        637 12.95                             142     0.310  108  17 
 GUE  SZ EP   3    637 13.34                             140    -0.2 2  117   8 
 GRA  SZ IP        637 14.21                             138     0.210  126  14 
 GRA  SZ ES   1    637 33.22                             138    -0.6 7  126  14 
 GRA  SZ I         637 36.80        71.1 0.25                           126  14 
 OCA  SZ EP        637 16.65                             130    -0.7 9  163 351 
 OCA  SZ I         637 44.49        53.5 0.43                           163 351 
 NOR  SZ EP        637 24.70                             118    -0.3 8  240 236 
 NOR  SN ES   2    637 52.32                             118    -1.0 4  240 236 
 HEL  HZ EP        637 30.26                             115     0.6 7  279 257 
 HEL  HZ I         638  7.80        20.1 0.16                           279 257 
 GUY  SZ EP   3    637 34.23                             112     1.1 2  308 236 
 GUY  SZ I         638 16.91        22.6 0.00                           308 236 
                                                                                
