 2012  120 0742 27.7 L   6.785 -73.123149.0  RSN 11 0.3 1.9LRSN                1
 GAP=140        0.74       3.0     3.8  5.3 -0.1642E+01  0.5484E+01  0.1916E+01E
 Epicentro: LOS SANTOS - SANTANDER                                             3
 ACTION:UP  12-02-03 08:19 OP:REBC STATUS:               ID:20120120074227 L   I
 2012-01-20-0740-00M.COL___187                                                 6
 STAT SP IPHASW D HRMM SECON CODA AMPLIT PERI AZIMU VELO SNR AR TRES W  DIS CAZ7
 BAR2 SZ IP        742 47.45                             171    -0.310   22 197 
 BAR2 SZ ES   1    743  3.27                             171     0.0 7   22 197 
 BAR2 SZ I         743  5.05        12.4 0.25                            22 197 
 BRR  HZ IP     C  742 49.35                             152     0.010   74 299 
 BRR  HZ I         742 49.66        26.6 0.18                            74 299 
 BRR  HN ES   1    743  6.49                             152     0.2 7   74 299 
 PAM  SZ EP   1    742 50.37                             151     0.1 7   77  37 
 PAM  SN ES   1    743  7.89                             151     0.0 7   77  37 
 RUS  HZ EP        742 51.43                             145    -0.210   99 177 
 RUS  HN ES   1    743 10.37                             145     0.0 7   99 177 
 RUS  HZ I         743 11.76         4.7 0.23                            99 177 
 PTB  HZ EP   1    742 54.54                             132    -0.6 7  150 260 
 PTB  HN ES   1    743 16.39                             132    -0.1 7  150 260 
 OCA  SZ EP   1    742 57.19                             130     0.7 7  162 352 
 OCA  SZ ES   1    743 18.95                             130     0.1 7  162 352 
 OCA  SZ I         743 23.54        11.3 0.32                           162 352 
 ZAR  HZ EP   1    743  0.15                             123    -0.5 6  207 292 
 ZAR  HN ES   2    743 25.93                             123    -0.4 4  207 292 
 ZAR  HZ I         743 31.93         7.3 0.19                           207 292 
 NOR  SN ES   1    743 31.74                             119    -0.1 6  236 235 
 CHI  HZ EP   1    743  5.49                             118     0.0 6  248 196 
 CHI  HN ES   1    743 35.70                             118     0.7 6  248 196 
 CHI  HZ I         743 40.92         3.3 0.66                           248 196 
 HEL  HZ EP   1    743  8.54                             115     0.2 6  274 256 
 HEL  HE ES   1    743 40.62                             115     0.6 6  274 256 
 HEL  HZ I         743 45.48         4.1 0.40                           274 256 
 RREF HZ EP   1    743 14.22                             111     0.1 5  323 230 
 RREF HN ES   2    743 50.37                             111     0.1 3  323 230 
 RREF HZ I         743 59.69         3.8 0.31                           323 230 
                                                                                
