 2013  120 0630 26.2 L   5.802 -73.714124.3  RSN  4 0.3 0.8LRSN                1
 GAP=134        0.54       2.7     6.0 10.2  0.5126E+01 -0.2051E+02 -0.2081E+01E
 Epicentro: JESUS MARIA - SANTANDER                                            3
 ACTION:UPD 13-02-15 09:15 OP:ep   STATUS:               ID:20130120063026 L   I
 2013-01-20-0630-00M.COL___241                                                 6
 STAT SP IPHASW D HRMM SECON CODA AMPLIT PERI AZIMU VELO AIN AR TRES W  DIS CAZ7
 RUS  HZ EP   1    630 45.58                             149   -0.15 7 70.6  82 
 RUS  HZ I         631  2.59         0.8 0.34            133           70.6  82 
 PTB  HZ EP   1    630 48.09                             134   -0.43 7  116 315 
 PTB  HE ES   1    631  6.09                             134    0.15 7  116 315 
 PTB  HZ I         631  7.04         2.2 0.60            144            116 315 
 CHI  HZ EP   1    630 50.39                             131    0.08 7  130 181 
 CHI  HN ES   1    631  9.15                             131    0.04 7  130 181 
 CHI  HZ I         631 11.97         1.2 0.34            134            130 181 
 BRR  HZ EP   1    630 51.59                             127    0.44 7  144   0 
 BRR  HN ES   1    631 10.51                             127   -0.10 7  144   0 
                                                                                
