 2014  820 0928  6.3 L   6.783 -73.113147.5  RSN  6 0.4 1.7LRSN                1
 GAP=142        0.96       5.5     9.3  6.9  0.1685E+02 -0.8112E+01 -0.9511E+01E
 Epicentro: LOS SANTOS - SANTANDER                                             3
 ACTION:UPD 14-09-15 21:51 OP:nd   STATUS:               ID:20140820092806 L   I
 OLDACT:REG 14-08-20 12:40 OP:stll STATUS:               ID:20140820091805     3
 2014-08-20-0918-05M.COL___251                                                 6
 STAT SP IPHASW D HRMM SECON CODA AMPLIT PERI AZIMU VELO AIN AR TRES W  DIS CAZ7
 BAR2 SZ EP        928 26.19                             171    0.0210 22.5 200 
 BAR2 SZ ES        928 41.16                             171   -0.4710 22.5 200 
 BAR2 SZ I         928 42.73        25.0 0.16            170           22.5 200 
 BRR  HZ EP        928 28.17                             151    0.2610 75.3 298 
 BRR  HN ES        928 45.04                             151    0.3010 75.3 298 
 BRR  HZ I         928 49.43         4.2 0.12            149           75.3 298 
 PAM  SZ EP        928 29.12                             151    0.4210 76.6  37 
 RUS  HZ EP        928 30.28                             145    0.1510 98.6 178 
 RUS  HN ES        928 48.48                             145   -0.1910 98.6 178 
 RUS  HZ I         928 50.05         5.9 0.22            147           98.6 178 
 SPBC HZ EP        928 35.16                             129    0.10 9  164 220 
 SML  HZ EP        928 42.50                             117   -0.91 8  247 335 
                                                                                
