 2016  220 0529 42.3 L   6.784 -73.084141.3  RSN  8 0.5 1.6LRSN                1
 GAP=145        1.12       4.0     5.5  7.0  0.2456E+00  0.9813E+01  0.5049E+01E
 Epicentro: LOS SANTOS - SANTANDER                                             3
 ACTION:UPD 16-03-04 21:27 OP:rebc STATUS:               ID:20160220052942 L   I
 OLDACT:UP  16-02-20 19:10 OP:drio STATUS:               ID:20160220052745     3
 OLDACT:UP  16-02-20 19:09 OP:drio STATUS:               ID:20160220052745     3
 OLDACT:REG 16-02-20 13:09 OP:drio STATUS:               ID:20160220052745     3
 2016-02-20-0527-45M.COL___327                                                 6
 STAT SP IPHASW D HRMM SECON CODA AMPLIT PERI AZIMU VELO AIN AR TRES W  DIS CAZ7
 BAR2 EZ EP        530  1.27                             170   -0.1410 23.8 207 
 BAR2 EZ ES        530 15.78                             170   -0.5410 23.8 207 
 BAR2 EZ I         530 17.17         9.7 0.12            169           23.8 207 
 PAM  EZ EP        530  4.20                             151    0.3110 74.7  35 
 PAM  EE ES        530 20.86                             151    0.1410 74.7  35 
 PAM  EZ I         530 23.54         6.4 0.58            152           74.7  35 
 BRR  HZ EP        530  3.31                             149   -0.0810 78.0 297 
 BRR  HE ES        530 20.13                             149    0.3010 78.0 297 
 BRR  HZ I         530 21.20         9.1 0.20            148           78.0 297 
 RUS  HZ EP        530  5.18                             143   -0.3010 98.6 180 
 RUS  HE ES        530 23.78                             143    0.2210 98.6 180 
 PTB  HZ EP   4    530  8.00                             130   -1.51 0  154 260 
 PTB  HN ES   4    530 28.97                             130   -1.75 0  154 260 
 PTB  HZ I         530 31.86         5.7 0.12            129            154 260 
 SPBC HZ EP        530 10.52                             127   -0.24 9  166 221 
 SPBC HN ES        530 32.32                             127   -0.64 9  166 221 
 SPBC HZ I         530 37.20         4.7 0.30            128            166 221 
 ZAR  HZ EP        530 14.81                             120   -0.38 8  211 292 
 ZAR  HE ES        530 41.30                             120    0.46 8  211 292 
 ZAR  HZ I         530 46.25         5.4 0.32            120            211 292 
 CHI  HZ EP        530 19.68                             116   -0.10 8  249 197 
 CHI  HN ES        530 50.33                             116    1.31 8  249 197 
 MON  HZ EP   4    530 28.63                             107   -3.25 0  360 308 
 MON  HN ES   4    531  6.31                             107   -4.24 0  360 308 
                                                                                
