 2017  220 0026 45.5 L   6.797 -73.129151.6  RSN  6 0.5 1.3LRSN                1
 GAP=139        1.09       4.7     5.4  8.8  0.2674E+01  0.8728E+01  0.1309E+02E
 Epicentro: LOS SANTOS - SANTANDER                                             3
 ACTION:UPD 17-05-24 15:38 OP:jn   STATUS:               ID:20170220002645 L   I
 OLDACT:UP  17-02-20 13:14 OP:dani STATUS:               ID:20170220001745     3
 OLDACT:UP  17-02-20 13:13 OP:dani STATUS:               ID:20170220001745     3
 OLDACT:REG 17-02-20 12:09 OP:dani STATUS:               ID:20170220001745     3
 2017-02-20-0018-00M.COL___352                                                 6
 STAT SP IPHASW D HRMM SECON CODA AMPLIT PERI AZIMU VELO AIN AR TRES W  DIS CAZ7
 BRR  HZ EP     D  027  7.75                             153    0.3610 73.0 298 
 BRR  HN ES        027 25.19                             153    0.7310 73.0 298 
 BRR  HZ I         027 27.39         4.4 0.18            153           73.0 298 
 PAM  EZ EP        027  8.38                             152    0.0810 76.4  38 
 PAM  EN ES        027 25.77                             152   -0.3010 76.4  38 
 PAM  EZ I         027 27.95         3.1 0.48            157           76.4  38 
 RUS  HZ EP        027  9.66                             145   -0.1510  100 177 
 RUS  HN ES        027 28.49                             145   -0.2810  100 177 
 RUS  HZ I         027 29.53         2.2 0.38            146            100 177 
 PTB  HZ EP        027 12.68                             133   -0.44 9  150 259 
 PTB  HN ES   1    027 33.58                             133   -1.07 7  150 259 
 PTB  HZ I         027 39.59         4.6 0.22            134            150 259 
 ZAR  HE ES        027 44.25                             123   -0.03 8  206 292 
 CHI  HZ EP        027 23.73                             118    0.17 8  249 196 
 CHI  HN ES        027 53.83                             118    0.59 8  249 196 
 CHI  HZ I         027 59.01         1.2 0.38            120            249 196 
                                                                                
