 2011  720 0449 46.2 L   6.747 -73.109141.9  RSN  4 0.1 1.6LRSN                1
 GAP=161        0.30       1.7     3.4  3.9  0.7278E+00 -0.7725E+00 -0.7249E+00E
 Epicentro: LOS SANTOS - SANTANDER                                             3
 ACTION:UPD 12-07-25 14:02 OP:epov STATUS:               ID:20110720044946 L   I
 2011-07-20-0447-05S.COL___143                                                 6
 STAT SP IPHASW D HRMM SECON CODA AMPLIT PERI AZIMU VELO AIN AR TRES W  DIS CAZ7
 BAR2 SZ EP        450  5.37                             172    0.0910 18.9 205 
 BAR2 SZ I         450  5.51         9.0 0.11                          18.9 205 
 BRR  HZ EP        450  7.28                             150   -0.0410 77.7 301 
 BRR  HZ I         450  7.64        13.7 0.08                          77.7 301 
 BRR  HE ES   1    450 23.80                             150    0.01 7 77.7 301 
 RUS  HZ EP   1    450  9.05                             145   -0.08 7 94.5 178 
 RUS  HE ES        450 27.02                             145   -0.0110 94.5 178 
 RUS  HZ I         450 28.85         4.4 0.35                          94.5 178 
 BRI  SZ EP   2    450 10.13                             139    0.08 5  113  18 
 BRI  SZ ES   1    450 28.61                             139   -0.05 7  113  18 
 BRI  SZ I         450 30.26         7.9 0.36                           113  18 
                                                                                
