 2014  520 0628  6.5 L   5.735 -73.873110.1  RSN 12 0.5 1.5LRSN                1
 GAP= 94        1.14       3.6     4.1  7.4 -0.3443E+01  0.2021E+01 -0.2202E+01E
 Epicentro: ALBANIA - SANTANDER                                                3
 OLDACT:REG 14-05-20 18:12 OP:fm   STATUS:               ID:20140520062638     3
 ACTION:UPD 15-03-16 16:59 OP:nd   STATUS:               ID:20140520062806 L   I
 OLDACT:UP  14-05-20 19:26 OP:nlst STATUS:               ID:20140520062806 L   3
 OLDACT:UP  14-05-20 18:21 OP:fm   STATUS:               ID:20140520062638     3
 2014-05-20-0626-38M.COL___251                                                 6
 STAT SP IPHASW D HRMM SECON CODA AMPLIT PERI AZIMU VELO AIN AR TRES W  DIS CAZ7
 SPBC HE ES        628 33.52                             167    0.0510 23.9 247 
 RUS  HZ EP   1    628 25.80                             138   -0.19 7 89.2  79 
 RUS  HE ES   1    628 40.54                             138   -0.65 7 89.2  79 
 RUS  HZ I         628 42.70         4.4 0.90            132           89.2  79 
 PTB  HN ES   1    628 42.30                             132   -0.91 7  110 324 
 ROSC BE ES   1    628 44.42                             132    0.17 7  111 207 
 NOR  HZ EP        628 27.44                             131    0.0810  112 260 
 NOR  HN ES        628 44.34                             131    0.7010  112 260 
 NOR  HZ I         628 45.31        11.0 0.22            122            112 260 
 CHI  HZ EP        628 28.89                             128   -0.0210  123 173 
 CHI  HE ES        628 46.60                             128    0.2110  123 173 
 CHI  HZ I         628 51.49         4.4 0.26            121            123 173 
 BRR  HZ EP        628 32.04                             121    0.72 9  153   7 
 BRR  HN ES   1    628 51.38                             121    0.69 7  153   7 
 BRR  HZ I         628 54.56         9.6 0.12            114            153   7 
 GUY2CHZ EP        628 33.27                             118   -1.00 9  175 251 
 GUY2CHE ES        628 55.44                             118   -0.49 9  175 251 
 GUY2CHZ I         629  8.45         4.1 3.70                           175 251 
 RREF HZ EP   1    628 36.29                             116    0.41 7  188 241 
 RREF HN ES   2    628 58.95                             116    0.15 4  188 241 
 RREF HZ I         629  6.66         4.7 1.66            110            188 241 
 HEL  HZ EP   4    628 36.95                             115    1.14 0  190 285 
 HEL  HZ I         628 55.79         3.0 1.26            109            190 285 
 HEL  HN ES   4    628 57.23                             115   -1.45 0  190 285 
 PRA  HN ES   1    629 10.04                             108   -0.02 6  250 207 
 OCA  HN ES   1    629 17.05                             106   -0.20 6  284  12 
                                                                                
