 2011  720 0110 44.0 L   6.699 -73.235141.2  RSN  4 0.5 1.4LRSN                1
 GAP=141        0.95       5.8    12.4 13.6  0.4562E+01 -0.5584E+02 -0.9884E+01E
 Epicentro: BARICHARA - SANTANDER                                              3
 ACTION:UPD 12-07-25 14:02 OP:epov STATUS:               ID:20110720011044 L   I
 2011-07-20-0105-50S.COL___143                                                 6
 STAT SP IPHASW D HRMM SECON CODA AMPLIT PERI AZIMU VELO AIN AR TRES W  DIS CAZ7
 BAR2 SZ EP   2    111  1.86                             174   -1.00 5 13.2 154 
 BRR  HZ EP   1    111  3.92                             152   -0.58 7 69.4 311 
 BRR  HE ES   1    111 20.90                             152    0.37 7 69.4 311 
 BRR  HZ I         111 23.67         7.4 0.14                          69.4 311 
 RUS  HZ EP   1    111  6.77                             146    0.22 7 90.8 169 
 RUS  HN ES   1    111 24.24                             146    0.06 7 90.8 169 
 RUS  HZ I         111 25.80         3.2 0.26                          90.8 169 
 GRA  SZ EP   1    111 10.75                             133    0.76 7  139  20 
 GRA  SZ ES   1    111 29.95                             133   -0.34 7  139  20 
 GRA  SZ I         111 33.01         3.7 0.17                           139  20 
                                                                                
