 2016  720 0040 55.5 L   6.824 -73.093144.7  RSN  4 0.2 1.2LRSN                1
 GAP=142        0.59       3.2     4.6  4.8 -0.4965E+00 -0.1486E+01  0.8488E+00E
 Epicentro: LOS SANTOS - SANTANDER                                             3
 ACTION:UPD 17-03-29 16:53 OP:lp   STATUS:               ID:20160720004055 L   I
 OLDACT:REG 16-07-20 12:53 OP:ar   STATUS:               ID:20160720003759     3
 2016-07-20-0037-59S.COL___343                                                 6
 STAT SP IPHASW D HRMM SECON CODA AMPLIT PERI AZIMU VELO AIN AR TRES W  DIS CAZ7
 BAR2 EZ EP        041 14.67                             169   -0.4010 27.5 201 
 BAR2 EZ ES        041 30.33                             169   -0.0310 27.5 201 
 PAM  EZ EP        041 17.60                             152    0.3510 71.7  37 
 PAM  HE ES        041 34.10                             152   -0.1310 71.7  37 
 PAM  EZ I         041 36.49         4.1 0.34            155           71.7  37 
 BRR  HZ EP        041 16.74                             151   -0.0110 75.3 295 
 BRR  HN ES        041 33.43                             151    0.0910 75.3 295 
 BRR  HZ I         041 38.74         3.5 0.38            150           75.3 295 
 RUS  HZ EP        041 19.26                             143   -0.0410  103 179 
 RUS  HN ES        041 38.05                             143    0.1710  103 179 
 RUS  HZ I         041 39.25         1.8 0.30            146            103 179 
                                                                                
