 2016  620 0030 10.5 L   6.811 -73.121145.5  RSN 17 0.4 1.9LRSN                1
 GAP=139        0.95       2.7     3.5  4.8 -0.1741E+01  0.4823E+01  0.2888E+01E
 Epicentro: LOS SANTOS - SANTANDER                                             3
 ACTION:UPD 16-07-21 22:20 OP:rebc STATUS:               ID:20160620003010 L   I
 OLDACT:REG 16-06-20 12:47 OP:ar   STATUS:               ID:20160620002740     3
 2016-06-20-0027-40M.COL___349                                                 6
 STAT SP IPHASW D HRMM SECON CODA AMPLIT PERI AZIMU VELO AIN AR TRES W  DIS CAZ7
 BAR2 EZ EP   2    030 30.36                             170    0.25 5 25.1 196 
 BAR2 EZ ES        030 45.68                             170    0.2610 25.1 196 
 BAR2 EZ I         030 48.11         7.8 0.17                          25.1 196 
 BRR  HZ EP        030 32.05                             152    0.3510 73.1 297 
 BRR  HN ES        030 48.65                             152    0.4010 73.1 297 
 BRR  HZ I         030 55.23        10.9 0.18                          73.1 297 
 PAM  EZ EP        030 32.90                             152    0.4010 74.7  38 
 PAM  EN ES        030 50.08                             152    0.4010 74.7  38 
 PAM  EZ I         030 52.16         5.5 0.40                          74.7  38 
 RUS  HZ EP        030 33.99                             143   -0.2810  102 178 
 RUS  HN ES        030 52.14                             143   -0.6910  102 178 
 RUS  HZ I         030 54.38         8.3 0.46                           102 178 
 PTB  HZ EP        030 36.93                             131   -0.76 9  151 259 
 PTB  HN ES        030 58.34                             131   -0.57 9  151 259 
 PTB  HZ I         031  0.36        13.5 0.12                           151 259 
 OCA  HZ EP   2    030 38.54                             130   -0.15 5  159 352 
 OCA  HN ES        031  0.18                             130   -0.51 9  159 352 
 OCA  HZ I         031  5.20        32.0 0.22                           159 352 
 SPBC HZ EP        030 38.75                             128   -0.45 9  166 219 
 SPBC HN ES        031  1.61                             128   -0.00 9  166 219 
 SPBC HZ I         031  3.89        16.0 0.16                           166 219 
 ZAR  HZ EP        030 42.52                             122   -0.60 8  206 292 
 ZAR  HE ES        031  8.51                             122   -0.07 8  206 292 
 ZAR  HZ I         031 15.86         7.3 0.09                           206 292 
 NOR  HZ EP        030 46.75                             118    0.25 8  238 235 
 NOR  HN ES        031 14.71                             118    0.11 8  238 235 
 NOR  HZ I         031 17.93        10.5 0.16                           238 235 
 CHI  HZ EP   2    030 47.93                             117   -0.43 4  251 196 
 CHI  HN ES        031 17.73                             117   -0.18 8  251 196 
 ROSC BZ IP        030 49.54                             116    0.69 8  255 211 
 ROSC BE ES   4    031 21.02                             116    2.25 0  255 211 
 ROSC BZ I         031 28.13         5.9 0.45                           255 211 
 HEL  HZ EP   2    030 51.02                             114    0.02 4  275 256 
 HEL  HN ES        031 22.91                             114    0.30 8  275 256 
 HEL  HZ I         031 28.49         6.1 0.32                           275 256 
 GUY2CHZ EP        030 55.22                             112    0.82 7  304 235 
 GUY2CHE ES        031 29.25                             112    0.59 7  304 235 
 GUY2CHZ I         031 36.32         4.9 0.34                           304 235 
 ELA  HZ EP   9    031  0.26                             110    2.62 0  332 230 
 ELA  HN ES        031 37.19                                    0.14 7  332 230 
 ELA  HZ I         031 42.74         5.4 0.36                           332 230 
 DBB  SZ EP   2    030 58.58                             109    0.33 3  342 274 
 PRA  HZ EP        031  4.27                             106    0.00 6  394 210 
 PRA  HE ES        031 46.53                             106    0.31 6  394 210 
 PRA  HZ I         031 51.15         3.0 0.48                           394 210 
 ORTC HZ EP   2    031  4.36                             106   -0.33 3  398 216 
 ORTC HN ES        031 47.25                             106    0.28 6  398 216 
 ORTC HZ I         031 52.58         1.7 0.20                           398 216 
                                                                                
