 2012  220 0143 18.3 L   6.770 -73.108150.0  RSN  4 0.4 1.3LRSN                1
 GAP=143        0.63       4.7     5.8  8.5 -0.4329E+01  0.9672E+01  0.1129E+01E
 ACTION:UP  12-03-07 16:32 OP:epov STATUS:               ID:20120220014318 L   I
 2012-02-20-0140-00M.COL___191                                                 6
 STAT SP IPHASW D HRMM SECON CODA AMPLIT PERI AZIMU VELO AIN AR TRES W  DIS CAZ7
 BRR  HZ EP   1    143 40.20                             151    0.00 7 76.5 299 
 BRR  HZ I         143 40.51         7.0 0.34                          76.5 299 
 BRR  HN ES   2    143 57.91                             151    0.63 5 76.5 299 
 PAM  SZ EP   1    143 41.15                             151    0.19 7 77.5  36 
 PAM  SZ I         143 41.30         2.6 0.19                          77.5  36 
 PAM  SN ES   1    143 58.33                             151   -0.31 7 77.5  36 
 RUS  HZ EP   1    143 42.60                             145    0.39 7 97.1 178 
 RUS  HE ES   1    144  0.68                             145   -0.19 7 97.1 178 
 RUS  HZ I         144  1.78         1.9 0.30                          97.1 178 
 PTB  HZ EP   2    143 45.23                             132   -0.69 5  151 260 
 PTB  HN ES   2    144  7.24                             132   -0.24 5  151 260 
                                                                                
