 2015  120 0803 26.9 L   6.823 -73.154145.5  RSN 14 0.4 1.9LRSN                1
 GAP= 70        1.00       2.8     2.9  5.0 -0.2702E+00  0.3092E+01  0.1237E+01E
 Epicentro: LOS SANTOS - SANTANDER                                             3
 ACTION:UPD 15-03-02 15:40 OP:nd   STATUS:               ID:20150120080326 L   I
 OLDACT:REG 15-01-20 13:34 OP:carl STATUS:               ID:20150120075743     3
 2015-01-20-0757-43M.COL___256                                                 6
 STAT SP IPHASW D HRMM SECON CODA AMPLIT PERI AZIMU VELO AIN AR TRES W  DIS CAZ7
 BAR2 EZ EP        8 3 46.56                             170    0.0610 25.7 187 
 BAR2 EZ ES        8 4  1.54                             170   -0.2910 25.7 187 
 BAR2 EZ I         8 4  3.22        12.5 0.18            167           25.7 187 
 BRR  HZ IP     D  8 3 48.58                             153    0.7210 69.2 297 
 BRR  HN ES        8 4  5.11                             153    0.8610 69.2 297 
 BRR  HZ I         8 4  8.89        12.5 0.30            151           69.2 297 
 PAM  SZ EP        8 3 49.48                             151    0.5210 76.0  41 
 PAM  SN ES        8 4  5.78                             151   -0.4210 76.0  41 
 RUS  HZ EP        8 3 50.34                             143   -0.4310  103 176 
 RUS  HN ES        8 4  9.42                             143   -0.0010  103 176 
 RUS  HZ I         8 4 10.89         6.4 0.38            144            103 176 
 PTB  HZ EP        8 3 53.43                             132   -0.34 9  147 258 
 PTB  HN ES        8 4 14.11                             132   -0.65 9  147 258 
 PTB  HZ I         8 4 21.04         7.6 0.26            131            147 258 
 TAM  HZ IP     D  8 3 54.68                             130    0.03 9  157 106 
 TAM  HN ES        8 4 16.46                             130    0.13 9  157 106 
 SPBC HZ EP        8 3 55.64                             129    0.17 9  165 218 
 SPBC HN ES        8 4 17.72                             129   -0.07 9  165 218 
 SPBC HZ I         8 4 20.09        13.2 0.26            128            165 218 
 ZAR  HZ EP        8 3 58.63                             123   -0.47 9  202 292 
 ZAR  HN ES        8 4 24.35                             123    0.10 9  202 292 
 ZAR  HZ I         8 4 30.38         9.4 0.22            122            202 292 
 NOR  HZ EP        8 4  2.86                             118    0.20 8  235 234 
 NOR  HE ES        8 4 30.51                             118   -0.07 8  235 234 
 NOR  HZ I         8 4 35.97         6.3 0.18            118            235 234 
 SML  HZ EP        8 4  2.97                             118   -0.20 8  241 335 
 SML  HN ES        8 4 31.19                             118   -0.31 8  241 335 
 SML  HZ I         8 4 34.51         9.6 0.22            119            241 335 
 CHI  HZ EP        8 4  4.83                             117    0.05 8  251 195 
 CHI  HN ES        8 4 34.10                             117   -0.27 8  251 195 
 CHI  HZ I         8 4 40.46         3.0 0.70            118            251 195 
 GUY2CHZ EP   4    8 4 11.90                             112    1.36 0  302 234 
 GUY2CHN ES   4    8 4 47.58                             112    2.97 0  302 234 
 GUY2CHZ I         8 4 53.31         5.3 0.32                           302 234 
 CBOC HZ EP   4    8 4 12.64                             110   -1.12 0  334 252 
 CBOC HN ES   4    8 4 51.24                             110    0.90 0  334 252 
 CBOC HZ I         8 4 56.75         1.3 0.64            110            334 252 
 TOL  SZ EP        8 4 15.00                             109   -0.24 7  345 224 
 TOL  SN ES        8 4 53.88                             109    0.90 7  345 224 
 TOL  SZ I         8 5  0.62         9.1 0.38            110            345 224 
                                                                                
