 2015 1220 0605 57.7 L   6.801 -73.125147.0  RSN 10 0.4 1.6LRSN                1
 GAP=185        0.92       2.5     4.4  5.5  0.1754E+00  0.3482E+01 -0.1945E+01E
 Epicentro: LOS SANTOS - SANTANDER                                             3
 ACTION:UPD 16-02-04 15:06 OP:cam  STATUS:               ID:20151220060557 L   I
 OLDACT:REG 15-12-20 13:36 OP:cara STATUS:               ID:20151220055746     3
 2015-12-20-0557-46M.COL___322                                                 6
 STAT SP IPHASW D HRMM SECON CODA AMPLIT PERI AZIMU VELO AIN AR TRES W  DIS CAZ7
 BAR2 EZ IP        6 6 17.52                             170    0.0310 24.0 195 
 BAR2 EZ ES        6 6 32.58                             170   -0.3510 24.0 195 
 BAR2 EZ I         6 6 35.19         9.0 0.28            169           24.0 195 
 BRR  HZ IP     C  6 6 19.37                             152    0.2810 73.2 298 
 BRR  HE ES        6 6 36.17                             152    0.3910 73.2 298 
 BRR  HZ I         6 6 39.93         4.8 0.21            151           73.2 298 
 RUS  HZ EP        6 6 21.90                             144    0.3310  101 177 
 RUS  HN ES        6 6 40.45                             144    0.2610  101 177 
 RUS  HZ I         6 6 42.81         2.2 0.16            147            101 177 
 PTB  HZ EP        6 6 24.43                             132   -0.54 9  150 259 
 PTB  HN ES        6 6 45.93                             132   -0.32 9  150 259 
 PTB  HZ I         6 6 52.75         6.6 0.36            132            150 259 
 OCA  HZ EP        6 6 25.74                             130   -0.38 9  160 352 
 OCA  HN ES        6 6 48.60                             130    0.31 9  160 352 
 OCA  HZ I         6 6 53.43         9.2 0.18            132            160 352 
 SPBC HZ IP        6 6 26.61                             129    0.17 9  165 220 
 SPBC HN ES        6 6 48.34                             129   -0.52 9  165 220 
 SPBC HZ I         6 6 53.81         6.2 0.12            131            165 220 
 ZAR  HZ EP        6 6 30.92                             122    0.48 8  206 292 
 ZAR  HE ES        6 6 56.05                             122    0.07 8  206 292 
 ZAR  HZ I         6 7  2.61         5.4 0.30            124            206 292 
 SML  HZ EP        6 6 34.24                             118   -0.24 8  245 335 
 SML  HN ES        6 7  2.75                             118   -0.43 8  245 335 
 SML  HZ I         6 7  5.48         8.5 0.28            120            245 335 
 CHI  HN ES        6 7  4.71                             117   -0.35 8  249 196 
 CHI  HZ I         6 7  8.37         1.7 0.30            120            249 196 
 GUY2CHN ES        6 7 16.56                             112    0.74 7  303 235 
 GUY2CHZ I         6 7 24.79         2.1 0.26                           303 235 
                                                                                
