 2012  320 0541 52.2 L   6.741 -73.184158.0  RSN  5 0.3 1.3LRSN                1
 GAP=228        0.63       6.9     6.4  7.4  0.2465E+02 -0.4580E+00 -0.2763E+01E
 ACTION:UP  12-03-31 23:21 OP:EP   STATUS:               ID:20120320054152 L   I
 2012-03-20-0540-00M.COL___202                                                 6
 STAT SP IPHASW D HRMM SECON CODA AMPLIT PERI AZIMU VELO SNR AR TRES W  DIS CAZ7
 BAR2 SZ EP   1    542 12.95                             174    -0.3 7   16 179 
 BAR2 SZ ES   2    542 28.87                             174    -0.7 5   16 179 
 BAR2 SZ I         542 29.69         4.4 0.38                            16 179 
 BRR  HZ EP   1    542 14.88                             155     0.2 7   71 305 
 BRR  HZ I         542 15.09         5.8 0.18                            71 305 
 BRR  HN ES   1    542 32.52                             155     0.3 7   71 305 
 RUS  HZ EP   1    542 16.85                             148     0.1 7   94 173 
 RUS  HN ES   1    542 36.12                             148     0.2 7   94 173 
 RUS  HZ I         542 36.36         1.7 0.63                            94 173 
 PTB  HZ EP   1    542 19.69                             136     0.0 7  142 261 
 PTB  HE ES   1    542 41.16                             136    -0.1 7  142 261 
 PTB  HZ I         542 48.26         1.9 0.34                           142 261 
 ZAR  HN ES   2    542 50.83                             125    -0.4 4  203 294 
 ZAR  HZ I         542 55.18         2.9 0.31                           203 294 
                                                                                
