 2016 1220 0742 49.0 L   6.749 -73.120158.0  RSN  5 0.4 1.1LRSN                1
 GAP=142        0.63      10.6     3.8  7.5 -0.3119E+01  0.3447E+01  0.2593E+02E
 Epicentro: LOS SANTOS - SANTANDER                                             3
 ACTION:UPD 17-01-11 20:17 OP:rebc STATUS:               ID:20161220074249 L   I
 OLDACT:UP  16-12-20 16:46 OP:cog  STATUS:               ID:20161220073744d    3
 OLDACT:DUP 16-12-20 15:24 OP:cog  STATUS:               ID:20161220073744d    3
 2016-12-20-0738-00M.COL___345                                                 6
 STAT SP IPHASW D HRMM SECON CODA AMPLIT PERI AZIMU VELO AIN AR TRES W  DIS CAZ7
 BRR  HZ EP        743 11.93                             153    0.1310 76.5 301 
 BRR  HE ES        743 29.35                             153   -0.2110 76.5 301 
 BRR  HZ I         743 32.95         2.9 0.14            154           76.5 301 
 PAM  EZ EP        743 12.33                             152   -0.3810 80.1  35 
 PAM  EE ES        743 31.47                             152    0.2810 80.1  35 
 RUS  HZ EP   4    743 16.25                             148    2.63 0 94.8 178 
 RUS  HN ES   3    743 33.55                             148    0.75 2 94.8 178 
 PTB  HZ EP   3    743 18.38                             134    1.20 2  150 261 
 PTB  HN ES   3    743 38.43                             134   -0.71 2  150 261 
 PTB  HZ I         743 44.20         1.3 0.32            135            150 261 
 ZAR  HZ EP   3    743 23.30                             124    0.52 2  209 293 
 ZAR  HN ES        743 49.23                             124    0.12 8  209 293 
                                                                                
