 2011  720 0739 14.3 L   6.839 -73.029140.7  RSN  4 0.1 1.6LRSN                1
 GAP=195        0.36       4.1     8.6  5.7  0.2129E+02 -0.2379E+02 -0.4522E+01E
 Epicentro: CEPITA - SANTANDER                                                 3
 ACTION:UPD 12-07-25 14:02 OP:epov STATUS:               ID:20110720073914 L   I
 2011-07-20-0738-46S.COL___116                                                 6
 STAT SP IPHASW D HRMM SECON CODA AMPLIT PERI AZIMU VELO AIN AR TRES W  DIS CAZ7
 BRR  HZ EP        739 35.61                             148    0.1510 81.1 292 
 BRR  HN ES   1    739 51.87                             148   -0.13 7 81.1 292 
 BRR  HZ I         739 53.67         8.7 0.15                          81.1 292 
 RUS  HZ EP   1    739 37.82                             141   -0.01 7  105 183 
 RUS  HE ES   2    739 56.22                             141    0.01 5  105 183 
 RUS  HZ I         739 57.51         3.8 0.21                           105 183 
 OCA  SZ EP   2    739 41.75                             129   -0.22 5  158 348 
 OCA  SZ I         740  8.39         5.8 0.26                           158 348 
 PRA  HZ EP   1    740  8.67                             105   -0.14 4  402 211 
                                                                                
