 2013  120 0728 13.7 L   6.796 -73.151150.1  RSN  5 0.4 1.4LRSN                1
 GAP=136        0.74       7.8     5.7  7.5 -0.5091E+01  0.8452E+01  0.1562E+02E
 Epicentro: LOS SANTOS - SANTANDER                                             3
 ACTION:UPD 13-02-15 09:15 OP:ep   STATUS:               ID:20130120072813 L   I
 2013-01-20-0726-35M.COL___180                                                 6
 STAT SP IPHASW D HRMM SECON CODA AMPLIT PERI AZIMU VELO AIN AR TRES W  DIS CAZ7
 BAR2 SZ EP   1    728 33.75                             171   -0.14 7 22.8 189 
 BAR2 SZ ES        728 49.59                             171   -0.0110 22.8 189 
 BRR  HZ EP   1    728 35.71                             153    0.36 7 70.9 299 
 BRR  HE ES   1    728 52.76                             153    0.56 7 70.9 299 
 BRR  HZ I         728 53.71         3.5 0.66            150           70.9 299 
 PAM  SN ES   1    728 53.77                             151   -0.42 7 78.1  40 
 PAM  SZ I         728 55.79         4.2 0.58            153           78.1  40 
 RUS  HZ EP   1    728 38.23                             145    0.33 7  100 176 
 PTB  HZ EP   1    728 40.70                             133   -0.31 7  147 259 
 PTB  HN ES   1    729  1.81                             133   -0.47 7  147 259 
 PTB  HZ I         729  7.67         4.9 0.42            132            147 259 
                                                                                
