 2012  220 0645 29.6 L   6.834 -73.184135.7  RSN  5 0.2 1.2LRSN                1
 GAP=176        0.37       6.2     5.4  7.8  0.2432E+01  0.1018E+02 -0.2716E+02E
 ACTION:UP  12-03-07 16:32 OP:epov STATUS:               ID:20120220064529 L   I
 2012-02-20-0640-00M.COL___191                                                 6
 STAT SP IPHASW D HRMM SECON CODA AMPLIT PERI AZIMU VELO AIN AR TRES W  DIS CAZ7
 BAR2 SZ EP   2    645 47.89                             168   -0.24 5 26.8 180 
 BAR2 SZ ES   1    646  2.53                             168   -0.03 7 26.8 180 
 GIR2 SZ EP   2    645 47.84                             168   -0.15 5 27.1 358 
 BRR  HZ EP   1    645 49.59                             152    0.21 7 65.7 297 
 BRR  HZ I         645 49.83         3.4 0.17                          65.7 297 
 RUS  HE ES   2    646 10.82                             140    0.09 5  105 174 
 PTB  HE ES   2    646 15.52                             130   -0.13 5  144 257 
                                                                                
