 2010  820 0608  5.3 L   6.773 -73.201148.8  RSN  6 0.1 1.4LRSN                1
 GAP=153        0.42       5.0     9.1  7.2 -0.2784E+02  0.3078E+02 -0.2700E+02E
 Epicentro: VILLANUEVA - SANTANDER                                             3
 ACTION:UP  10-09-07 10:56 OP:vdl  STATUS:               ID:20100820060805 L   I
 2010-08-20-0606-36S.COL___117                                                 6
 STAT SP IPHASW D HRMM SECON CODA AMPLIT PERI AZIMU VELO SNR AR TRES W  DIS CAZ7
 BAR2 SZ EP   1    6 8 25.51                             172     0.2 8   20 174 
 BAR2 SZ ES   1    6 8 40.80                             172     0.0 8   20 174 
 BAR2 SZ I         6 8 42.24        11.5 0.86                            20 174 
 GIR2 SZ EP   2    6 8 25.64                             167     0.2 5   34   1 
 RUS  HN ES   1    6 8 47.74                             145    -0.1 8   98 172 
 RUS  HZ I         6 8 49.46         3.7 0.16                            98 172 
 GUE  SZ EP        6 8 30.53                             139    -0.110  121  15 
 GUE  SZ I         6 8 52.60         1.5 0.31                           121  15 
 GRA  SZ EP   1    6 8 31.28                             136     0.0 7  131  20 
 RREF HN ES   2    6 9 26.21                             112    -0.2 4  315 229 
 RREF HZ I         6 9 34.78         1.7 0.18                           315 229 
                                                                                
