 2011  620 0930  0.3 L   6.787 -73.092143.0  RSN  9 0.2 1.6LRSN                1
 GAP=162        0.53       3.4     5.5  4.4 -0.3729E+01 -0.5268E+01 -0.1366E+01E
 Epicentro: LOS SANTOS - SANTANDER                                             3
 ACTION:UP  11-07-14 19:06 OP:ep   STATUS:               ID:20110620093000 L   I
 2011-06-20-0920-00M.COL___126                                                 6
 STAT SP IPHASW D HRMM SECON CODA AMPLIT PERI AZIMU VELO SNR AR TRES W  DIS CAZ7
 BAR2 SZ EP   1    930 19.42                             170    -0.2 7   24 205 
 BAR2 SZ ES   1    930 34.67                             170     0.0 7   24 205 
 BAR2 SZ I         930 35.46         8.4 0.34                            24 205 
 BTL  SZ EP   1    930 20.09                             170     0.5 7   24 307 
 BTL  SZ ES   2    930 34.92                             170     0.2 5   24 307 
 GIR2 SZ EP   1    930 20.04                             166     0.3 7   34 341 
 GIR2 SZ ES   1    930 34.50                             166    -0.4 7   34 341 
 BRR  HZ EP   1    930 21.48                             150     0.0 7   77 297 
 BRR  HZ I         930 26.58        12.2 0.34                            77 297 
 BRR  HN ES   1    930 38.05                             150     0.0 7   77 297 
 RUS  HZ EP   1    930 23.45                             144    -0.2 7   99 179 
 RUS  HE ES   2    930 41.90                             144     0.0 5   99 179 
 RUS  HZ I         930 43.64         4.7 0.51                            99 179 
 BRI  SZ EP   1    930 23.91                             141     0.0 7  108  18 
 BRI  SZ I         930 44.12         6.6 0.50                           108  18 
 GRA  SZ EP   1    930 25.29                             136     0.0 7  125  15 
 GRA  SZ ES   2    930 44.78                             136     0.0 5  125  15 
 GRA  SZ I         930 45.95         4.0 0.30                           125  15 
 OCA  SZ EP   1    930 28.30                             128    -0.3 7  163 351 
 OCA  SZ I         930 54.09         4.3 0.40                           163 351 
 NOR  SE ES   2    931  4.35                             117     0.0 4  239 236 
                                                                                
