 2015  520 0605 45.4 L   6.809 -73.113146.1  RSN 18 0.4 2.2LRSN                1
 GAP= 68        0.91       2.4     2.8  4.5 -0.5743E+00  0.2986E+01  0.1428E+01E
 Epicentro: LOS SANTOS - SANTANDER                                             3
 ACTION:UPD 15-09-10 22:05 OP:cam  STATUS:               ID:20150520060545 L   I
 OLDACT:REG 15-05-20 12:30 OP:spq  STATUS:               ID:20150520055746     3
 2015-05-20-0557-46M.COL___287                                                 6
 STAT SP IPHASW D HRMM SECON CODA AMPLIT PERI AZIMU VELO AIN AR TRES W  DIS CAZ7
 BAR2 EZ EP        6 6  5.01                             170   -0.1510 25.2 198 
 BAR2 EZ ES   1    6 6 20.49                             170   -0.04 7 25.2 198 
 BAR2 EZ I         6 6 25.02        21.5 0.22            167           25.2 198 
 BRR  HZ EP        6 6  6.90                             152    0.1210 73.9 297 
 BRR  HE ES        6 6 23.92                             152    0.4910 73.9 297 
 BRR  HZ I         6 6 28.18        40.2 0.10            149           73.9 297 
 PAM  SZ EP        6 6  7.86                             152    0.3410 74.3  38 
 PAM  SN ES        6 6 24.80                             152    0.0610 74.3  38 
 PAM  SZ I         6 6 27.17        44.9 0.56            149           74.3  38 
 RUS  HZ EP   1    6 6  9.28                             144   -0.01 7  101 178 
 RUS  HN ES   1    6 6 27.32                             144   -0.57 7  101 178 
 RUS  HZ I         6 6 28.24        12.3 0.24            139            101 178 
 TAM  HZ EP        6 6 13.37                             131    0.51 9  152 106 
 TAM  HZ I         6 6 33.30         8.6 0.22            126            152 106 
 TAM  HN ES   1    6 6 34.81                             131    0.57 7  152 106 
 OCA  HZ EP        6 6 13.31                             130   -0.42 9  160 352 
 OCA  HE ES        6 6 35.18                             130   -0.61 9  160 352 
 OCA  HZ I         6 6 38.37        60.5 0.32            126            160 352 
 SPBC HZ EP        6 6 13.91                             129   -0.35 9  166 220 
 SPBC HE ES   1    6 6 36.68                             129   -0.06 7  166 220 
 SPBC HZ I         6 6 43.57        17.7 0.06            124            166 220 
 ZAR  HZ EP        6 6 17.77                             122   -0.45 8  207 292 
 ZAR  HN ES        6 6 43.84                             122    0.06 8  207 292 
 ZAR  HZ I         6 6 49.55        24.4 0.30            118            207 292 
 NOR  HZ EP        6 6 21.62                             118    0.05 8  238 235 
 NOR  HE ES        6 6 49.68                             118   -0.07 8  238 235 
 NOR  HZ I         6 6 54.32        10.5 0.20            114            238 235 
 SML  HZ EP        6 6 21.38                             118   -0.77 8  244 334 
 SML  HE ES   1    6 6 50.71                             118   -0.08 6  244 334 
 SML  HZ I         6 6 58.28        26.9 0.24            114            244 334 
 CHI  HZ EP   1    6 6 23.67                             117    0.30 6  251 196 
 CHI  HN ES   1    6 6 52.42                             117   -0.54 6  251 196 
 CHI  HZ I         6 6 56.64         5.0 0.34            113            251 196 
 HEL  HZ EP   1    6 6 26.65                             115    0.56 6  276 256 
 HEL  HE ES   1    6 6 57.81                             115    0.02 6  276 256 
 HEL  HZ I         6 7  4.28         8.3 0.44            111            276 256 
 GUY2CHZ EP        6 6 29.78                             112    0.31 7  305 235 
 GUY2CHN ES        6 7  4.50                             112    0.70 7  305 235 
 GUY2CHZ I         6 7 10.33         6.3 0.36                           305 235 
 PTGC HZ EP        6 6 28.32                             112   -0.96 7  308 159 
 PTGC HE ES   4    6 7  1.31                             112   -2.16 0  308 159 
 PTGC HZ I         6 7  5.62        12.8 0.49            108            308 159 
 CBOC HZ EP        6 6 33.11                             110    0.31 7  337 252 
 CBOC HE ES   1    6 7  9.49                             110   -0.25 5  337 252 
 CBOC HZ I         6 7 21.18         3.1 0.64            106            337 252 
 ARGC HZ EP        6 6 35.89                             108    0.75 6  359 340 
 ARGC HN ES   1    6 7 14.13                             108    0.22 5  359 340 
 ARGC HZ I         6 7 27.19         4.2 0.21            105            359 340 
 ORTC HZ EP        6 6 40.30                             106    0.58 6  398 217 
 ORTC HZ I         6 7 29.83         5.1 0.46            103            398 217 
 SJC  HZ EP   4    6 6 39.40                             106   -1.75 0  410 326 
 SJC  HN ES   4    6 7 21.33                             106   -3.27 0  410 326 
 SJC  HZ I         6 7 24.20         3.1 0.56            103            410 326 
                                                                                
