 2016  520 0311 44.4 L   6.967 -73.139133.7  RSN  5 0.3 1.2LRSN                1
 GAP=285        0.80       7.4     5.4  9.9  0.8283E+01  0.4865E+01 -0.2147E+02E
 Epicentro: PIEDECUESTA - SANTANDER                                            3
 ACTION:UPD 16-08-18 17:47 OP:cam  STATUS:               ID:20160520031143 L   I
 OLDACT:UP  16-07-18 16:10 OP:cam  STATUS:               ID:20160520031143 L   3
 OLDACT:UP  16-05-24 15:33 OP:dnl  STATUS:               ID:20160520031143 L   3
 OLDACT:UP  16-05-20 18:02 OP:mh   STATUS:               ID:20160520030740d    3
 OLDACT:DUP 16-05-20 17:57 OP:mh   STATUS:               ID:20160520030740d    3
 OLDACT:REG 16-05-20 12:28 OP:mh   STATUS:               ID:20160520030739     3
 2016-05-20-0307-39M.COL___306                                                 6
 STAT SP IPHASW D HRMM SECON CODA AMPLIT PERI AZIMU VELO AIN AR TRES W  DIS CAZ7
 RUS  HZ EP        312  9.00                             136    0.4910  119 177 
 RUS  HE ES        312 26.96                             136   -0.3210  119 177 
 RUS  HZ I         312 28.95         1.3 0.18            135            119 177 
 PTB  HZ EP        312 10.70                             128   -0.2610  153 252 
 PTB  HN ES        312 32.00                             128    0.3610  153 252 
 PTB  HZ I         312 34.13         1.7 0.40            127            153 252 
 SPBC HE ES        312 36.35                             124    0.08 9  178 215 
 NOR  HZ EP        312 20.45                             115   -0.35 8  246 231 
 NOR  HN ES        312 48.82                             115   -0.33 8  246 231 
 NOR  HZ I         312 51.88         1.5 0.17            115            246 231 
 PRA  HZ EP   4    312 38.19                             104   -1.34 0  409 208 
 PRA  HN ES        313 22.90                             104    0.41 6  409 208 
 PRA  HZ I         313 26.19         0.9 0.51            104            409 208 
                                                                                
