 2014  520 0245 28.4 L   6.827 -73.127138.0  RSN 22 0.4 2.2LRSN                1
 GAP= 71        0.92       2.3     2.5  5.0 -0.1040E+01  0.1829E+01  0.2634E+01E
 Epicentro: LOS SANTOS - SANTANDER                                             3
 ACTION:UPD 15-03-16 16:59 OP:nd   STATUS:               ID:20140520024528 L   I
 OLDACT:REG 14-05-20 12:19 OP:spq  STATUS:               ID:20140520023808     3
 2014-05-20-0238-08M.COL___254                                                 6
 STAT SP IPHASW D HRMM SECON CODA AMPLIT PERI AZIMU VELO AIN AR TRES W  DIS CAZ7
 BRR  HZ EP        245 49.45                             151    0.6610 71.7 296 
 BRR  HE ES        246  4.07                             151   -0.5810 71.7 296 
 BRR  HZ I         246 11.78        23.1 0.16            150           71.7 296 
 PAM  SZ EP   1    245 49.63                             150    0.01 7 73.8  40 
 PAM  SE ES   1    246  5.97                             150   -0.16 7 73.8  40 
 PAM  SZ I         246  9.78        43.5 0.56            157           73.8  40 
 RUS  HZ EP        245 51.39                             141   -0.2710  103 177 
 RUS  HN ES   1    246  9.96                             141    0.20 7  103 177 
 RUS  HZ I         246 13.09        14.7 0.38            146            103 177 
 PTB  HZ EP        245 54.23                             129   -0.81 9  150 258 
 PTB  HN ES        246 15.37                             129   -0.41 9  150 258 
 PTB  HZ I         246 23.14        16.7 0.27            131            150 258 
 TAM  HZ IP     D  245 55.77                             129    0.37 9  154 106 
 TAM  HN ES        246 16.71                             129    0.28 9  154 106 
 OCA  HZ EP        245 56.27                             128    0.37 9  158 352 
 OCA  HE ES        246 17.57                             128    0.25 9  158 352 
 OCA  HZ I         246 22.53        16.7 0.32            132            158 352 
 SPBC HZ EP        245 56.61                             126   -0.10 9  167 219 
 SPBC HN ES        246 18.87                             126    0.11 9  167 219 
 SPBC HZ I         246 23.62        28.8 0.22            130            167 219 
 ZAR  HZ EP        246  0.82                             120    0.34 9  205 291 
 ZAR  HN ES   1    246 25.56                             120    0.09 6  205 291 
 ZAR  HZ I         246 33.09        11.1 0.26            123            205 291 
 NOR  HZ EP        246  3.69                             116   -0.42 8  238 234 
 NOR  HN ES        246 31.91                             116   -0.01 8  238 234 
 NOR  HZ I         246 38.58        11.2 0.28            119            238 234 
 SML  HZ EP   1    246  3.89                             116   -0.56 6  242 335 
 SML  HN ES   1    246 32.30                             116   -0.23 6  242 335 
 SML  HZ I         246 35.82        25.4 0.10            119            242 335 
 CHI  HZ EP   1    246  5.61                             115   -0.49 6  252 195 
 CHI  HN ES        246 35.10                             115   -0.37 8  252 195 
 CHI  HZ I         246 40.52         6.3 0.30            119            252 195 
 ROSC BZ EP        246  7.28                             114    0.73 8  256 211 
 ROSC BE ES        246 36.05                             114   -0.23 8  256 211 
 ROSC BZ I         246 42.07        14.5 0.40            118            256 211 
 HEL  HZ EP   1    246  8.34                             113   -0.24 6  275 255 
 HEL  HE ES        246 40.32                             113    0.43 8  275 255 
 HEL  HZ I         246 45.91         7.6 0.30            116            275 255 
 URE  HN ES   4    246 38.39                             112   -2.67 0  285 291 
 URE  HZ I         246 53.77         7.6 0.16            115            285 291 
 GUY2CHZ EP        246 12.80                             110    0.71 7  305 235 
 GUY2CHN ES        246 46.37                             110    0.23 7  305 235 
 GUY2CHZ I         246 54.54         8.2 0.54                           305 235 
 PTGC HE ES   4    246 43.76                             110   -2.56 0  311 159 
 PTGC HZ I         246 45.65        16.2 0.48            114            311 159 
 RREF HZ EP        246 15.05                             109    0.38 7  325 229 
 RREF HN ES   1    246 51.33                             109    0.61 5  325 229 
 RREF HZ I         246 59.33        10.3 0.34            112            325 229 
 CBOC HZ EP   1    246 14.76                             108   -0.62 5  337 252 
 CBOC HN ES        246 52.28                             108    0.28 7  337 252 
 CBOC HZ I         246 58.07         3.7 0.44            111            337 252 
 SDV  BZ EP   1    246 16.94                             107   -0.85 5  357  50 
 SDV  BN ES   4    246 53.32                             107   -2.96 0  357  50 
 PRA  HZ EP        246 21.45                             105   -0.68 6  396 210 
 PRA  HN ES        247  3.61                             105   -0.40 6  396 210 
 PRA  HZ I         247  7.65         5.7 0.34            108            396 210 
 ORTC HZ EP   1    246 21.98                             105   -0.56 4  399 216 
 ORTC HE ES        247  5.38                             105    0.65 6  399 216 
 ORTC HZ I         247 12.33         5.4 0.22            108            399 216 
 SJC  HZ EP   4    246 21.41                             104   -2.19 0  408 326 
 SJC  HN ES   4    247  1.79                             104   -4.83 0  408 326 
 SJC  HZ I         247  8.72         3.1 0.42            107            408 326 
                                                                                
