 2011  120 0420 28.9 L   6.782 -72.996149.9  RSN  4 0.3 1.1LRSN                1
 GAP=176        0.72       7.6    29.8  7.9 -0.1501E+03 -0.1885E+02 -0.3257E+01E
 Epicentro: CEPITA - SANTANDER                                                 3
 ACTION:UP  11-02-08 08:41 OP:pat  STATUS:               ID:20110120042028 L   I
 2011-01-20-0417-57S.COL___138                                                 6
 STAT SP IPHASW D HRMM SECON CODA AMPLIT PERI AZIMU VELO SNR AR TRES W  DIS CAZ7
 BAR2 SZ EP   1    420 48.54                             169    -0.6 7   30 225 
 BAR2 SZ ES   1    421  5.16                             169     0.2 7   30 225 
 RUS  HZ EP   1    420 53.00                             145     0.0 7   99 186 
 RUS  HN ES   1    421 11.78                             145     0.1 7   99 186 
 RUS  HZ I         421 12.63         1.9 0.27                            99 186 
 GRA  SZ EP   1    420 54.67                             139     0.3 7  124  10 
 GRA  SZ I         421 16.71         1.8 0.28                           124  10 
 CHI  HZ EP   1    421  7.13                             118     0.0 6  252 199 
 CHI  HN ES   2    421 37.45                             118     0.4 4  252 199 
 CHI  HZ I         421 44.61         1.1 0.30                           252 199 
                                                                                
