 2011 1220 0327 46.1 L   6.778 -73.123139.9  RSN  9 0.3 2.1LRSN                1
 GAP=140        0.55       2.7     3.2  4.0 -0.1243E+01  0.2765E+01  0.3931E+01E
 Epicentro: LOS SANTOS - SANTANDER                                             3
 ACTION:UPD 12-07-13 16:17 OP:ep   STATUS:               ID:20111220032746 L   I
 2011-12-20-0320-00M.COL___191                                                 6
 STAT SP IPHASW D HRMM SECON CODA AMPLIT PERI AZIMU VELO AIN AR TRES W  DIS CAZ7
 BAR2 SZ EP        328  4.74                             171   -0.2110 21.6 198 
 BAR2 SZ ES   1    328 19.27                             171   -0.41 7 21.6 198 
 BAR2 SZ I         328 23.84        24.3 0.27                          21.6 198 
 GIR2 SZ EP   1    328  5.03                             166   -0.08 7 34.1 347 
 BRR  HZ EP        328  6.73                             150   -0.0410 74.6 299 
 BRR  HE ES        328 23.25                             150    0.3210 74.6 299 
 BRR  HE I         328 24.06       116.3 0.15                          74.6 299 
 PAM  SZ EP        328  7.92                             150    0.2510 77.7  37 
 PAM  SE ES        328 24.35                             150   -0.1710 77.7  37 
 RUS  HZ EP        328  9.09                             143    0.0410 98.0 177 
 RUS  HZ I         328 10.27        10.4 0.15                          98.0 177 
 RUS  HN ES   1    328 27.09                             143    0.11 7 98.0 177 
 CHI  HZ EP   1    328 23.37                             116    0.11 6  247 196 
 CHI  HE ES   1    328 52.78                             116    0.51 6  247 196 
 CHI  HZ I         328 56.79         5.2 0.52                           247 196 
 HEL  HZ EP   1    328 26.41                             113    0.22 6  274 256 
 HEL  HE ES   1    328 57.08                             113   -0.41 6  274 256 
 HEL  HZ I         329  4.55         5.2 0.48                           274 256 
 RREF HZ EP   1    328 31.84                             110   -0.15 5  322 230 
 RREF HZ I         329 16.79         7.8 0.14                           322 230 
 PRA  HZ EP   1    328 38.81                             105   -0.47 4  391 210 
                                                                                
