 2010 1220 0717  1.4 L   6.798 -73.224142.0  RSN  5 0.1 1.6LRSN                1
 GAP=163        0.38       1.8     9.7  4.0 -0.4512E+01  0.1283E+02 -0.1402E+01E
 Epicentro: ZAPATOCA - SANTANDER                                               3
 ACTION:UP  11-01-14 15:26 OP:pat  STATUS:               ID:20101220071701 L   I
 2010-12-20-0713-17S.COL___133                                                 6
 STAT SP IPHASW D HRMM SECON CODA AMPLIT PERI AZIMU VELO SNR AR TRES W  DIS CAZ7
 BAR2 SZ EP   1    717 20.68                             170     0.1 7   23 169 
 BAR2 SZ ES   1    717 35.49                             170     0.0 7   23 169 
 BAR2 SZ I         717 37.00        13.4 0.20                            23 169 
 RUS  HZ EP   1    717 24.63                             143    -0.2 7  101 171 
 RUS  HN ES   1    717 43.04                             143     0.0 7  101 171 
 RUS  HZ I         717 44.38         6.4 0.12                           101 171 
 GRA  SZ EP   1    717 26.73                             135     0.2 7  129  21 
 GRA  SZ I         717 45.54         6.4 0.22                           129  21 
 OCA  SZ EP   1    717 29.14                             129    -0.2 7  160 356 
 OCA  SZ ES   1    717 51.17                             129     0.0 7  160 356 
 OCA  SZ I         717 53.01         4.1 0.38                           160 356 
 CHI  HZ EP   1    717 38.63                             117     0.0 6  246 193 
 CHI  HZ I         717 41.60         1.7 0.26                           246 193 
 CHI  HN ES   1    718  7.76                             117     0.1 6  246 193 
                                                                                
