 2011  420 0955 37.8 L   6.801 -73.140145.9  RSN  8 0.3 2.1LRSN                1
 GAP=152        0.67       5.9     8.0  6.2 -0.1904E+02 -0.5423E+01 -0.6435E+01E
 Epicentro: LOS SANTOS - SANTANDER                                             3
 ACTION:UP  11-06-22 15:31 OP:REBC STATUS:               ID:20110420095537 L   I
 2011-04-20-0954-03S.COL___138                                                 6
 STAT SP IPHASW D HRMM SECON CODA AMPLIT PERI AZIMU VELO SNR AR TRES W  DIS CAZ7
 BTL  SZ EP        955 57.50                             173     0.110   19 313 
 BTL  SZ ES   2    956 12.52                             173    -0.1 5   19 313 
 BAR2 SZ EP        955 57.38                             170    -0.110   24 191 
 BAR2 SZ ES   2    956 12.55                             170    -0.2 5   24 191 
 GIR2 SZ EP        955 57.36                             168    -0.110   31 349 
 GIR2 SZ ES   2    956 12.21                             168    -0.6 5   31 349 
 BRR  HZ EP        955 59.07                             153     0.110   72 298 
 BRR  HZ I         956 16.04        21.1 0.17                            72 298 
 BRR  HN ES   2    956 16.11                             153     0.6 5   72 298 
 PAM  SZ EP        956  0.22                             151     0.210   77  39 
 PAM  SZ I         956  0.48        24.4 0.20                            77  39 
 PAM  SN ES   3    956 17.41                             151     0.1 2   77  39 
 BRI  SZ EP        956  1.83                             142     0.210  108  21 
 GRA  SZ EP        956  3.09                             137     0.110  125  17 
 GRA  SZ ES   1    956 22.75                             137     0.1 7  125  17 
 GRA  SZ I         956 23.80        17.8 0.31                           125  17 
 OCA  SZ EP        956  5.52                             130    -0.6 9  160 353 
 OCA  SZ I         956 32.76        14.2 0.14                           160 353 
                                                                                
