 2016  720 0351 33.0 L   6.768 -73.053146.9  RSN 13 0.5 2.0LRSN                1
 GAP=118        1.12       4.1     4.4  5.9 -0.5143E+01 -0.3049E+01  0.4891E+01E
 Epicentro: LOS SANTOS - SANTANDER                                             3
 ACTION:UPD 17-03-29 16:53 OP:lp   STATUS:               ID:20160720035133 L   I
 OLDACT:UP  16-07-20 15:04 OP:ar   STATUS:               ID:20160720034759     3
 OLDACT:REG 16-07-20 13:07 OP:ar   STATUS:               ID:20160720034759     3
 2016-07-20-0347-59S.COL___340                                                 6
 STAT SP IPHASW D HRMM SECON CODA AMPLIT PERI AZIMU VELO AIN AR TRES W  DIS CAZ7
 BAR2 EZ EP        351 52.87                             170    0.1210 24.1 216 
 BAR2 EZ ES        352  7.91                             170   -0.2710 24.1 216 
 BRR  HZ EP        351 54.58                             149   -0.3010 81.9 297 
 BRR  HN ES        352 11.84                             149   -0.1210 81.9 297 
 BRR  HZ I         352 14.51        11.9 0.16            147           81.9 297 
 RUS  HZ EP        351 57.03                             145    0.4610 96.9 182 
 RUS  HN ES        352 15.83                             145    0.8510 96.9 182 
 RUS  HZ I         352 16.41        12.8 0.26            143           96.9 182 
 SPBC HZ EP        352  1.72                             129   -0.22 9  167 222 
 SPBC HN ES        352 23.91                             129   -0.62 9  167 222 
 SPBC HZ I         352 30.04        17.5 0.24            126            167 222 
 CHI  HZ EP        352 10.41                             117   -0.27 8  248 198 
 CHI  HN ES        352 40.14                             117    0.05 8  248 198 
 CHI  HZ I         352 43.73         5.8 0.40            116            248 198 
 ROSC BZ EP        352 12.41                             117    0.99 8  255 213 
 ROSC BN ES   4    352 44.04                             117    2.63 0  255 213 
 ROSC BZ I         352 44.73         7.6 0.40            115            255 213 
 SOCV BZ EP        352 15.60                             113    0.26 7  295  55 
 SOCV BN ES        352 48.11                             113   -0.27 7  295  55 
 URE  HZ EP   4    352 12.70                             113   -2.61 0  295 292 
 URE  HN ES   4    352 45.03                             113   -3.30 0  295 292 
 URE  HZ I         352 55.27         5.3 0.22            112            295 292 
 PTGC HZ EP        352 16.15                             112    0.05 7  302 160 
 PTGC HN ES        352 48.83                             112   -0.90 7  302 160 
 PTGC HZ I         352 56.57         6.1 0.26            112            302 160 
 GUY2CHZ EP   4    352 18.51                             112    1.15 0  308 236 
 GUY2CHN ES   4    352 54.89                             112    2.90 0  308 236 
 GUY2CHZ I         352 58.75         5.2 0.30                           308 236 
 ELA  HZ EP   4    352 22.00                             110    1.49 0  335 231 
 ELA  HN ES        352 58.41                             110    0.81 7  335 231 
 ELA  HZ I         353  6.04         2.3 0.24            109            335 231 
 CBOC HZ EP        352 21.36                             110    0.43 7  342 253 
 CBOC HN ES        352 57.85                             110   -0.49 7  342 253 
 CBOC HZ I         353  0.55         1.7 0.46            108            342 253 
 PRA  HZ EP        352 26.39                             107   -0.39 6  394 211 
 PRA  HN ES        353  7.92                             107   -0.83 6  394 211 
 PRA  HZ I         353 15.08         3.1 0.18            106            394 211 
                                                                                
