 2013  120 0028 15.2 L   6.798 -73.147140.8  RSN  9 0.4 2.0LRSN                1
 GAP= 71        0.81       3.6     3.5  6.6  0.1235E+01  0.1685E+01  0.4459E+01E
 Epicentro: LOS SANTOS - SANTANDER                                             3
 ACTION:UPD 13-02-15 09:15 OP:ep   STATUS:               ID:20130120002815 L   I
 2013-01-20-0026-38M.COL___181                                                 6
 STAT SP IPHASW D HRMM SECON CODA AMPLIT PERI AZIMU VELO AIN AR TRES W  DIS CAZ7
 BAR2 SZ EP   1    028 34.26                             170    0.03 7 23.1 190 
 BAR2 SZ ES   1    028 48.87                             170   -0.20 7 23.1 190 
 BRR  HZ EP     C  028 36.06                             152    0.2510 71.1 299 
 BRR  HN ES   1    028 52.69                             152    0.80 7 71.1 299 
 BRR  HZ I         028 53.91        30.7 0.12            153           71.1 299 
 PAM  SZ EP   1    028 37.17                             150    0.27 7 77.6  40 
 PAM  SN ES   1    028 53.84                             150    0.01 7 77.6  40 
 PAM  SZ I         028 56.39        17.9 0.42            154           77.6  40 
 RUS  HZ EP   1    028 38.33                             143   -0.12 7  100 176 
 RUS  HN ES   1    028 56.26                             143   -0.33 7  100 176 
 RUS  HZ I         028 58.41        10.2 0.34            143            100 176 
 PTB  HZ EP   1    028 41.25                             131   -0.50 7  148 259 
 PTB  HN ES   1    029  2.17                             131   -0.29 7  148 259 
 PTB  HZ I         029  4.74        20.8 0.16            132            148 259 
 TAM  HZ EP   1    028 42.69                             129    0.19 7  155 105 
 TAM  HN ES   1    029  3.97                             129    0.18 7  155 105 
 OCA  HN ES   1    029  3.88                             128   -1.06 7  160 353 
 ZAR  HN ES   1    029 12.77                             121    0.40 6  204 292 
 CHI  HZ EP   1    028 52.83                             116    0.23 6  248 195 
 CHI  HN ES   1    029 21.64                             116   -0.14 6  248 195 
 CHI  HZ I         029 27.83         3.6 0.40            117            248 195 
                                                                                
