 2017  120 0126 56.2 L   6.751 -73.173152.4  RSN  8 0.4 1.5LRSN                1
 GAP=135        0.91       5.7     4.7  7.0  0.8954E+01 -0.3650E+01 -0.1005E+02E
 Epicentro: LOS SANTOS - SANTANDER                                             3
 ACTION:UPD 17-05-22 16:01 OP:jn   STATUS:               ID:20170120012656 L   I
 OLDACT:UP  17-01-20 13:47 OP:dani STATUS:               ID:20170120011747     3
 OLDACT:UP  17-01-20 13:43 OP:dani STATUS:               ID:20170120011747     3
 OLDACT:UP  17-01-20 13:43 OP:dani STATUS:               ID:20170120011747     3
 OLDACT:UP  17-01-20 13:43 OP:dani STATUS:               ID:20170120011747     3
 OLDACT:REG 17-01-20 12:19 OP:dani STATUS:               ID:20170120011747     3
 2017-01-20-0118-00M.COL___322                                                 6
 STAT SP IPHASW D HRMM SECON CODA AMPLIT PERI AZIMU VELO AIN AR TRES W  DIS CAZ7
 BAR2 EZ EP        127 16.17                             172   -0.3210 17.6 183 
 BAR2 EZ ES        127 32.02                             172   -0.3310 17.6 183 
 BAR2 EZ I         127 32.94         6.3 0.52            171           17.6 183 
 BRR  HZ EP     C  127 18.15                             154    0.1110 71.4 303 
 BRR  HN ES        127 35.62                             154    0.5110 71.4 303 
 BRR  HZ I         127 40.81         5.2 0.07            152           71.4 303 
 PAM  EZ EP        127 19.18                             151   -0.2610 83.4  39 
 RUS  HZ EP        127 20.61                             146    0.3910 95.5 174 
 RUS  HN ES        127 39.13                             146    0.1410 95.5 174 
 RUS  HZ I         127 40.09         3.4 0.22            149           95.5 174 
 PTB  HZ EP        127 23.26                             134   -0.07 9  144 261 
 PTB  HN ES        127 44.45                             134   -0.08 9  144 261 
 PTB  HZ I         127 51.71         6.3 0.42            134            144 261 
 ZAR  HE ES        127 54.56                             124   -0.02 9  203 294 
 URE  HE ES   3    128  7.38                             115   -2.33 2  283 293 
 GUY2CHZ EP   9    127 42.44                             114    2.98 0  296 235 
 GUY2CHE ES        128 17.11                             114    0.89 7  296 235 
 GUY2CHZ I         128 23.62         1.7 0.37                           296 235 
                                                                                
