 2012  220 0358 10.8 L   6.763 -73.152138.9  RSN 10 0.4 2.2LRSN                1
 GAP=137        0.82       4.9     4.9  6.0 -0.5069E+01  0.7122E+01  0.8563E+01E
 ACTION:UP  12-03-07 16:32 OP:epov STATUS:               ID:20120220035810 L   I
 2012-02-20-0356-59S.COL___191                                                 6
 STAT SP IPHASW D HRMM SECON CODA AMPLIT PERI AZIMU VELO AIN AR TRES W  DIS CAZ7
 BAR2 SZ EP   1    358 29.61                             172    0.05 7 19.1 190 
 BAR2 SZ ES   1    358 43.29                             172   -0.88 7 19.1 190 
 BAR2 SZ I         358 47.90        57.0 0.47                          19.1 190 
 GIR2 SZ EP   1    358 29.73                             165   -0.08 7 35.3 352 
 GIR2 SZ ES   1    358 44.73                             165    0.12 7 35.3 352 
 BRR  HZ EP   1    358 31.53                             151    0.19 7 72.7 302 
 BRR  HE ES   1    358 48.01                             151    0.69 7 72.7 302 
 BRR  HZ I         358 49.80        78.6 0.19                          72.7 302 
 PAM  SZ EP   1    358 32.47                             148   -0.09 7 81.0  38 
 PAM  SZ I         358 32.83        38.2 0.18                          81.0  38 
 PAM  SN ES   1    358 49.48                             148   -0.02 7 81.0  38 
 RUS  HZ EP   1    358 33.57                             143   -0.05 7 96.5 175 
 RUS  HE ES   1    358 52.00                             143    0.61 7 96.5 175 
 RUS  HZ I         358 53.80        15.2 0.36                          96.5 175 
 PTB  HZ EP   1    358 36.29                             131   -0.83 7  146 260 
 PTB  HN ES   1    358 57.42                             131   -0.21 7  146 260 
 NOR  SZ EP   1    358 45.65                             117   -0.21 6  232 235 
 NOR  SN ES   1    359 13.10                             117   -0.08 6  232 235 
 CHI  HZ EP   1    358 47.89                             116    0.18 6  244 195 
 CHI  HZ I         359 24.31         5.7 0.35                           244 195 
 HEL  HZ EP   1    358 51.18                             113    0.65 6  270 257 
 HEL  HZ I         359 28.07        12.5 0.48                           270 257 
 RREF HZ EP   2    358 56.64                             110    0.32 3  319 230 
                                                                                
