 2017  120 0604 30.0 L   6.782 -73.157148.2  RSN 11 0.5 1.8LRSN                1
 GAP=119        0.95       3.7     3.8  5.9  0.1282E+00  0.4750E+01  0.4092E+01E
 Epicentro: LOS SANTOS - SANTANDER                                             3
 ACTION:UPD 17-05-22 16:01 OP:jn   STATUS:               ID:20170120060430 L   I
 OLDACT:UP  17-01-20 16:48 OP:dani STATUS:               ID:20170120055741     3
 OLDACT:UP  17-01-20 16:48 OP:dani STATUS:               ID:20170120055741     3
 OLDACT:UP  17-01-20 16:46 OP:dani STATUS:               ID:20170120055741     3
 OLDACT:UP  17-01-20 16:46 OP:dani STATUS:               ID:20170120055741     3
 OLDACT:UP  17-01-20 16:46 OP:dani STATUS:               ID:20170120055741     3
 OLDACT:UP  17-01-20 16:46 OP:dani STATUS:               ID:20170120055741     3
 OLDACT:UP  17-01-20 16:45 OP:dani STATUS:               ID:20170120055741     3
 OLDACT:REG 17-01-20 12:35 OP:dani STATUS:               ID:20170120055741     3
 2017-01-20-0558-00M.COL___313                                                 6
 STAT SP IPHASW D HRMM SECON CODA AMPLIT PERI AZIMU VELO AIN AR TRES W  DIS CAZ7
 BAR2 EZ EP     D  6 4 49.88                             172    0.0410 21.2 188 
 BAR2 EZ ES        6 5  4.86                             172   -0.4810 21.2 188 
 BAR2 EZ I         6 5  5.88        21.0 0.26            167           21.2 188 
 BRR  HZ EP     D  6 4 51.61                             153    0.2510 71.1 300 
 BRR  HE ES        6 5  8.85                             153    0.8010 71.1 300 
 BRR  HZ I         6 5 11.95         9.5 0.34            149           71.1 300 
 PAM  EZ EP     D  6 4 52.53                             150   -0.0410 79.7  39 
 PAM  EE ES        6 5  9.93                             150   -0.2710 79.7  39 
 PAM  EZ I         6 5 11.86         8.9 0.48            156           79.7  39 
 RUS  HZ EP        6 4 53.67                             145   -0.1410 98.7 175 
 RUS  HN ES        6 5 12.56                             145    0.1410 98.7 175 
 RUS  HZ I         6 5 13.56         6.6 0.42            144           98.7 175 
 PTB  HZ EP     D  6 4 56.75                             133   -0.22 9  146 259 
 PTB  HN ES        6 5 17.45                             133   -0.60 9  146 259 
 PTB  HZ I         6 5 25.12        10.5 0.46            130            146 259 
 ZAR  HZ EP   4    6 5  5.83                             123    3.31 0  204 293 
 ZAR  HN ES        6 5 28.11                             123    0.20 9  204 293 
 ZAR  HZ I         6 5 35.26         6.6 0.40            122            204 293 
 CHI  HZ EP        6 5  7.88                             118    0.33 8  246 195 
 CHI  HN ES        6 5 37.42                             118    0.55 8  246 195 
 CHI  HZ I         6 5 39.80         2.4 0.22            118            246 195 
 ROSC BZ EP   9    6 5  9.33                             117    1.38 0  250 211 
 ROSC BN ES        6 5 38.46                             117   -0.51 8  250 211 
 ROSC BZ I         6 5 47.77        10.5 0.22            117            250 211 
 PTGC HZ EP   3    6 5 12.75                             112   -1.02 2  307 158 
 CBOC HZ EP   3    6 5 18.42                             110    1.66 2  332 252 
 CBOC HE ES        6 5 52.69                             110   -0.58 7  332 252 
 CBOC HZ I         6 6  2.93         1.3 0.39            110            332 252 
 SJC  HZ EP   3    6 5 24.06                             106   -1.65 1  410 327 
 SJC  HN ES   4    6 6  6.41                             106   -2.79 0  410 327 
 SJC  HZ I         6 6  8.12         1.9 0.32            106            410 327 
                                                                                
