 2011 1220 0700  0.4 L   6.761 -73.122139.7  RSN  5 0.1 1.5LRSN                1
 GAP=141        0.29       2.1     3.0  3.2  0.2663E+00  0.9818E+00 -0.5535E+00E
 Epicentro: LOS SANTOS - SANTANDER                                             3
 ACTION:UPD 12-07-13 16:17 OP:ep   STATUS:               ID:20111220070000 L   I
 2011-12-20-0700-00M.COL___192                                                 6
 STAT SP IPHASW D HRMM SECON CODA AMPLIT PERI AZIMU VELO AIN AR TRES W  DIS CAZ7
 BAR2 SZ EP   1    7 0 19.24                             172   -0.02 7 19.9 200 
 BAR2 SZ I         7 0 19.97         6.0 0.20                          19.9 200 
 BAR2 SZ ES   1    7 0 33.95                             172    0.01 7 19.9 200 
 GIR2 SZ EP   1    7 0 19.43                             165   -0.09 7 36.0 347 
 BRR  HZ EP        7 0 21.22                             150    0.0310 75.6 300 
 BRR  HZ I         7 0 21.58        11.9 0.12                          75.6 300 
 BRR  HN ES   1    7 0 37.38                             150    0.00 7 75.6 300 
 PAM  SZ EP   2    7 0 21.95                             149   -0.16 5 79.1  36 
 PAM  SN ES   1    7 0 39.08                             149    0.07 7 79.1  36 
 RUS  HZ EP   2    7 0 23.50                             144    0.24 5 96.2 177 
 RUS  HN ES   1    7 0 41.01                             144   -0.06 7 96.2 177 
 RUS  HZ I         7 0 43.00         2.9 0.27                          96.2 177 
                                                                                
