 2015  320 0728 11.1 L   6.821 -73.136144.4  RSN 25 0.5 2.4LRSN                1
 GAP= 66        1.06       2.4     2.7  4.4 -0.8374E+00  0.3505E+01  0.1574E+01E
 Epicentro: LOS SANTOS - SANTANDER                                             3
 ACTION:UPD 15-04-30 16:27 OP:nd   STATUS:               ID:20150320072811 L   I
 OLDACT:REG 15-03-20 13:12 OP:fm   STATUS:               ID:20150320071739     3
 2015-03-20-0717-39M.COL___275                                                 6
 STAT SP IPHASW D HRMM SECON CODA AMPLIT PERI AZIMU VELO AIN AR TRES W  DIS CAZ7
 BAR2 EZ IP     D  728 30.80                             169    0.2010 25.8 191 
 BAR2 EZ ES        728 45.63                             169   -0.1910 25.8 191 
 BAR2 EZ I         728 47.01        49.8 0.24            169           25.8 191 
 BRR  HZ IP     C  728 32.65                             152    0.5710 71.1 296 
 BRR  HE ES        728 49.46                             152    1.0110 71.1 296 
 BRR  HZ I         728 52.74        38.4 0.30            149           71.1 296 
 PAM  SZ IP     C  728 33.59                             151    0.5810 74.9  40 
 PAM  SN ES        728 50.45                             151    0.3410 74.9  40 
 PAM  SZ I         728 51.52        33.3 0.20            154           74.9  40 
 RUS  HZ EP        728 34.74                             143   -0.1210  103 177 
 RUS  HE ES        728 52.89                             143   -0.5210  103 177 
 RUS  HZ I         728 56.28        17.0 0.48            146            103 177 
 PTB  HZ EP        728 37.35                             131   -0.73 9  149 258 
 PTB  HN ES        728 58.70                             131   -0.43 9  149 258 
 PTB  HZ I         729  3.67        28.4 0.48            131            149 258 
 TAM  HZ IP     D  728 39.28                             130    0.66 9  155 106 
 TAM  HN ES        728 59.76                             130   -0.33 9  155 106 
 TAM  HZ I         729  1.66        15.8 0.24            135            155 106 
 OCA  HZ EP        728 38.91                             130   -0.18 9  158 353 
 OCA  HN ES        729  0.21                             130   -0.71 9  158 353 
 OCA  HZ I         729  9.28        69.1 0.24            130            158 353 
 SPBC HZ EP        728 39.66                             128   -0.05 9  166 219 
 SPBC HE ES        729  1.63                             128   -0.41 9  166 219 
 SPBC HZ I         729  8.81        29.6 0.12            129            166 219 
 ZAR  HZ EP        728 43.73                             122    0.28 9  204 291 
 ZAR  HN ES        729  8.16                             122   -0.54 9  204 291 
 ZAR  HZ I         729 14.13        26.5 0.36            122            204 291 
 NOR  HZ EP        728 46.81                             118   -0.16 8  237 234 
 NOR  HN ES        729 14.88                             118   -0.08 8  237 234 
 NOR  HZ I         729 22.11        15.0 0.34            119            237 234 
 SML  HZ EP        728 46.94                             117   -0.52 8  242 335 
 SML  HE ES        729 15.59                             117   -0.23 8  242 335 
 SML  HZ I         729 26.89        27.5 0.28            118            242 335 
 ROSC BZ EP        728 49.61                             116    0.20 8  255 211 
 ROSC BN ES        729 19.64                             116    0.35 8  255 211 
 ROSC BZ I         729 25.16        44.0 0.40            117            255 211 
 HEL  HZ EP        728 52.32                             114    0.91 8  274 255 
 HEL  HN ES        729 23.13                             114    0.28 8  274 255 
 HEL  HZ I         729 29.40        15.0 0.24            115            274 255 
 URE  HE ES   4    729 20.53                             113   -3.56 0  284 291 
 URE  HZ I         729 33.02        18.1 0.18            114            284 291 
 GUY2CHZ EP        728 55.14                             112    0.26 7  303 235 
 GUY2CHE ES        729 29.17                             112    0.13 7  303 235 
 GUY2CHZ I         729 37.19        14.8 0.56                           303 235 
 PTGC HZ EP        728 54.02                             111   -1.06 7  310 159 
 PTGC HN ES   4    729 26.54                             111   -2.86 0  310 159 
 RREF HZ EP        728 57.44                             110    0.01 7  324 229 
 RREF HE ES        729 33.87                             110    0.29 7  324 229 
 RREF HZ I         729 42.61        17.2 0.44            111            324 229 
 CBOC HZ EP        728 58.44                             109    0.30 7  335 252 
 CBOC HN ES        729 34.56                             109   -0.28 7  335 252 
 CBOC HZ I         729 46.93         3.7 0.64            110            335 252 
 DBB  SZ EP        728 58.87                             109    0.26 7  340 274 
 DBB  SZ ES        729 35.35                             109   -0.32 7  340 274 
 TOL  SZ EP        729  0.16                             109    0.60 6  346 224 
 TOL  SE ES        729 38.03                             109    0.66 6  346 224 
 TOL  SZ I         729 46.95        10.8 0.54            110            346 224 
 MON  HZ EP        728 59.39                             108   -0.58 6  353 308 
 PRA  HZ EP        729  4.82                             106   -0.04 6  395 210 
 PRA  HN ES        729 46.17                             106   -0.62 6  395 210 
 PRA  HZ I         729 51.07        15.1 0.22            107            395 210 
 ORTC HZ EP        729  5.03                             106   -0.22 6  398 216 
 ORTC HE ES        729 47.58                             106    0.08 6  398 216 
 ORTC HZ I         729 52.27         6.9 0.20            107            398 216 
 PAL  HZ EP        729  6.29                             106   -0.16 6  408 239 
 PAL  HZ I         729 59.70         3.1 0.60            106            408 239 
 SJC  HZ EP   4    729  4.46                             105   -1.98 0  408 327 
 SJC  HN ES   4    729 44.77                             105   -4.85 0  408 327 
 SJC  HZ I         730  0.70         3.3 0.40            106            408 327 
                                                                                
