 2010 1120 0541 59.5 L   6.780 -73.152141.7  RSN  4 0.2 1.5LRSN                1
 GAP=235        0.58       5.3     7.5  6.2  0.1793E+02  0.7556E+01  0.2760E+01E
 Epicentro: LOS SANTOS - SANTANDER                                             3
 ACTION:UP  10-12-17 16:53 OP:REBC STATUS:               ID:20101120054159 L   I
 2010-11-20-0540-00M.COL___119                                                 6
 STAT SP IPHASW D HRMM SECON CODA AMPLIT PERI AZIMU VELO SNR AR TRES W  DIS CAZ7
 BAR2 SZ EP   1    542 18.32                             171    -0.3 7   21 190 
 BAR2 SZ ES   1    542 33.17                             171    -0.3 7   21 190 
 BAR2 SZ I         542 34.42         5.7 0.33                            21 190 
 BRR  HZ IP     D  542 20.12                             151    -0.110   72 300 
 BRR  HZ I         542 20.52        11.7 0.10                            72 300 
 BRR  HE ES   1    542 36.75                             151     0.4 7   72 300 
 RUS  HZ EP   1    542 22.93                             143     0.2 7   98 176 
 RUS  HN ES   1    542 40.94                             143     0.2 7   98 176 
 RUS  HZ I         542 42.43         4.8 0.30                            98 176 
 NOR  SZ EP   2    542 34.97                             118     0.2 4  233 235 
 NOR  SN ES   2    543  2.09                             118    -0.2 4  233 235 
                                                                                
