 2017  320 0058 35.2 L   6.785 -73.149144.0  RSN 11 0.3 2.0LRSN                1
 GAP=137        0.84       3.0     3.5  4.8  0.7193E-01  0.4357E+01  0.2685E+01E
 Epicentro: LOS SANTOS - SANTANDER                                             3
 ACTION:UPD 17-05-25 18:42 OP:jn   STATUS:               ID:20170320005835 L   I
 OLDACT:UP  17-03-20 14:59 OP:cog  STATUS:               ID:20170320005742     3
 OLDACT:REG 17-03-20 12:48 OP:cog  STATUS:               ID:20170320005742     3
 2017-03-20-0058-00M.COL___388                                                 6
 STAT SP IPHASW D HRMM SECON CODA AMPLIT PERI AZIMU VELO AIN AR TRES W  DIS CAZ7
 BAR2 HZ EP        058 54.43                             171   -0.1310 21.6 190 
 BAR2 HZ ES        059  9.39                             171   -0.2910 21.6 190 
 BAR2 HZ I         059 12.21        31.6 0.26            168           21.6 190 
 BRR  HZ EP        058 56.21                             152    0.0410 71.7 300 
 BRR  HE ES        059 13.38                             152    0.8410 71.7 300 
 BRR  HZ I         059 13.80        16.1 0.12            153           71.7 300 
 PAM  EZ EP        058 57.36                             150    0.0610 78.9  39 
 PAM  EN ES        059 14.32                             150   -0.2410 78.9  39 
 PAM  EZ I         059 16.65        16.0 0.38            156           78.9  39 
 RUS  HZ EP        058 58.37                             144   -0.2710 98.9 176 
 RUS  HN ES        059 17.25                             144    0.3210 98.9 176 
 RUS  HZ I         059 18.46         8.0 0.28            144           98.9 176 
 PTB  HZ EP        059  1.55                             132   -0.39 9  147 259 
 PTB  HN ES        059 22.41                             132   -0.40 9  147 259 
 PTB  HZ I         059 29.21         9.6 0.22            132            147 259 
 SPBC HZ EP        059  3.35                             129   -0.05 9  162 219 
 SPBC HE ES        059 25.37                             129   -0.03 9  162 219 
 SPBC HZ I         059 29.99        17.2 0.38            129            162 219 
 ZAR  HZ EP        059  7.92                             122    0.38 9  204 293 
 ZAR  HN ES        059 32.43                             122   -0.35 9  204 293 
 CHI  HZ EP        059 13.01                             117    0.42 8  247 195 
 CHI  HE ES        059 41.72                             117   -0.05 8  247 195 
 CHI  HZ I         059 45.38         6.9 0.60            118            247 195 
 ROSC BZ EP   4    059 14.99                             116    1.97 0  251 211 
 ROSC BE ES   4    059 40.87                             116   -1.67 0  251 211 
 ROSC BZ I         059 49.04        17.1 0.40            118            251 211 
 GUY2CHZ EP        059 18.89                             112    0.33 7  300 235 
 GUY2CHN ES   4    059 57.00                             112    4.60 0  300 235 
 GUY2CHZ  IAML     1 0  0.75         5.4 0.60                           300 235 
 ORTC HN ES   3    1 0 10.92                             106    0.20 1  394 216 
                                                                                
