 2015  520 0510 42.8 L   6.806 -73.094146.2  RSN  9 0.4 1.8LRSN                1
 GAP=143        0.91       4.0     4.9  6.2  0.2320E+01  0.6345E+01 -0.4477E+01E
 Epicentro: LOS SANTOS - SANTANDER                                             3
 ACTION:UPD 15-09-10 22:05 OP:cam  STATUS:               ID:20150520051042 L   I
 OLDACT:REG 15-05-20 12:28 OP:spq  STATUS:               ID:20150520050751     3
 2015-05-20-0507-51M.COL___288                                                 6
 STAT SP IPHASW D HRMM SECON CODA AMPLIT PERI AZIMU VELO AIN AR TRES W  DIS CAZ7
 BAR2 EZ EP        511  2.37                             170   -0.1310 25.6 203 
 BAR2 EZ ES   1    511 17.37                             170   -0.52 7 25.6 203 
 BAR2 EZ I         511 18.40        11.2 0.13            170           25.6 203 
 PAM  SZ EP        511  5.34                             152    0.5410 73.3  36 
 PAM  SN ES        511 22.27                             152    0.2910 73.3  36 
 PAM  SZ I         511 24.35        15.5 0.56            154           73.3  36 
 BRR  HZ EP        511  4.30                             151    0.0510 76.0 296 
 BRR  HN ES        511 21.18                             151    0.1810 76.0 296 
 BRR  HZ I         511 24.43        14.3 0.32            150           76.0 296 
 RUS  HZ EP   1    511  6.57                             144   -0.03 7  101 179 
 RUS  HN ES   1    511 25.02                             144   -0.16 7  101 179 
 RUS  HZ I         511 25.94         4.7 0.36            148            101 179 
 OCA  HZ EP        511 10.91                             130   -0.23 9  160 351 
 OCA  HE ES        511 32.82                             130   -0.44 9  160 351 
 OCA  HZ I         511 36.82        11.1 0.14            131            160 351 
 ZAR  HZ EP        511 16.43                             122    0.65 8  209 291 
 ZAR  HE ES        511 41.47                             122   -0.05 8  209 291 
 ZAR  HZ I         511 47.15         6.8 0.39            123            209 291 
 SML  HZ EP        511 18.82                             117   -0.81 8  246 334 
 SML  HE ES   1    511 48.70                             117    0.32 6  246 334 
 SML  HZ I         511 52.04         7.0 0.22            119            246 334 
 GUY2CHN ES   4    512  3.43                             112    1.98 0  306 235 
 GUY2CHZ I         512  7.39         2.5 0.32                           306 235 
 SJC  HZ EP   4    511 36.67                             106   -1.99 0  412 326 
 SJC  HE ES   4    512 20.30                             106   -1.95 0  412 326 
 SJC  HZ I         512 21.87         1.5 0.56            107            412 326 
                                                                                
