 2016  220 0557 40.9 L   6.753 -73.122146.5  RSN  6 0.3 1.1LRSN                1
 GAP=142        0.78       3.7     3.9  5.3 -0.3672E+01  0.2822E+01  0.1961E+01E
 Epicentro: LOS SANTOS - SANTANDER                                             3
 ACTION:UPD 16-03-04 21:27 OP:rebc STATUS:               ID:20160220055740 L   I
 OLDACT:DUP 16-02-20 19:29 OP:drio STATUS:               ID:20160220054744d    3
 2016-02-20-0547-42M.COL___327                                                 6
 STAT SP IPHASW D HRMM SECON CODA AMPLIT PERI AZIMU VELO AIN AR TRES W  DIS CAZ7
 BAR2 EZ EP        558  0.65                             172    0.1010 19.0 200 
 BAR2 EZ ES        558 15.73                             172   -0.1410 19.0 200 
 BAR2 EZ I         558 16.83         2.5 0.22            170           19.0 200 
 BRR  HZ EP        558  2.02                             151   -0.4010 76.0 301 
 BRR  HE ES        558 19.69                             151    0.5010 76.0 301 
 PAM  EZ EP        558  3.59                             150    0.2310 79.9  36 
 PAM  EN ES        558 20.57                             150   -0.2910 79.9  36 
 PAM  EZ I         558 21.30         3.6 0.28            154           79.9  36 
 RUS  HZ EP        558  4.71                             145    0.3510 95.3 177 
 RUS  HN ES        558 22.63                             145   -0.0210 95.3 177 
 RUS  HZ I         558 24.17         0.9 0.44            146           95.3 177 
 PTB  HZ EP        558  7.66                             132   -0.43 9  149 261 
 PTB  HE ES        558 29.38                             132    0.10 9  149 261 
 PTB  HZ I         558 35.80         2.2 0.38            131            149 261 
 SPBC HZ EP        558  9.47                             130    0.22 9  161 221 
 SPBC HN ES        558 31.08                             130   -0.27 9  161 221 
 SPBC HZ I         558 34.70         2.4 0.46            130            161 221 
                                                                                
