 2013  820 0231 51.9 L   6.732 -73.175146.8  RSN  7 0.4 1.5LRSN                1
 GAP=136        0.80       4.2     4.4  9.4 -0.1931E+01 -0.1429E+01  0.1555E+01E
 Epicentro: VILLANUEVA - SANTANDER                                             3
 2013-08-20-0229-59M.COL___269                                                 6
 OLDACT:REG 13-08-20 08:50 OP:mh   STATUS:               ID:20130820022959     3
 ACTION:UPD 14-01-14 09:04 OP:ep   STATUS:               ID:20130820023151 L   I
 OLDACT:UP  13-08-20 11:22 OP:mh   STATUS:               ID:20130820022959     3
 STAT SP IPHASW D HRMM SECON CODA AMPLIT PERI AZIMU VELO AIN AR TRES W  DIS CAZ7
 BAR2 SZ EP        232 11.47                             174   -0.0410 15.4 183 
 BAR2 SZ I         232 28.36         6.1 0.22            170           15.4 183 
 BRR  HZ EP        232 13.59                             152    0.3710 72.4 305 
 BRR  HN ES   1    232 30.57                             152    0.72 7 72.4 305 
 BRR  HN I         232 31.31        12.3 0.20            152           72.4 305 
 BRR  SZ I         232 33.76         6.0 0.90                          72.4 305 
 PAM  SZ EP   1    232 14.52                             148   -0.18 7 85.3  38 
 PAM  SN ES   1    232 31.93                             148   -0.56 7 85.3  38 
 PAM  SZ I         232 33.15         4.9 0.46            145           85.3  38 
 RUS  HZ EP        232 15.37                             146    0.1410 93.3 174 
 RUS  HN ES   1    232 33.59                             146    0.15 7 93.3 174 
 RUS  HZ I         232 35.19         2.3 0.32            140           93.3 174 
 RUS  SZ I         233 12.04         4.1 3.24                          93.3 174 
 PTB  HN ES   1    232 38.85                             133   -0.47 7  143 262 
 SPBC HN ES        232 41.23                             131   -0.21 9  155 220 
 SPBC HN I         232 47.39         6.6 0.14            126            155 220 
 ZAR  HN ES   1    232 49.42                             123   -0.34 6  204 294 
                                                                                
