 2010  920 0452 21.4 L   6.126 -73.822 99.1  RSN 16 0.5 2.5LRSN                1
 GAP= 94        1.16       3.5     5.0 10.8 -0.9508E+01  0.2845E+02 -0.6042E+01E
 Epicentro: EL PEON - SANTANDER                                                3
 ACTION:UP  11-02-18 11:04 OP:tino STATUS:               ID:20100920045221 L   I
 2010-09-20-0450-24S.COL___121                                                 6
 STAT SP IPHASW D HRMM SECON CODA AMPLIT PERI AZIMU VELO SNR AR TRES W  DIS CAZ7
 RUS  HZ EP        452 39.47                             137    -0.110   86 107 
 RUS  HE ES   1    452 53.27                             137    -0.6 7   86 107 
 RUS  HZ I         452 57.13        55.9 0.36                            86 107 
 BAR2 SZ IP        452 39.66                             136     0.310   87  54 
 BAR2 SZ ES   1    452 53.44                             136     0.0 7   87  54 
 BAR2 SZ I         452 55.16       111.3 0.43                            87  54 
 BTL  SZ EP        452 41.41                             130     0.210  107  35 
 BRR  HZ IP     C  452 40.84                             129    -0.210  109   6 
 BRR  HZ I         452 41.15        56.7 0.16                           109   6 
 BRR  HN ES   1    452 56.61                             129     0.2 7  109   6 
 GIR2 SZ EP        452 43.11                             124     0.210  126  33 
 NOR  HZ EP        452 42.49                             123    -0.910  132 242 
 ROSC BZ EP        452 46.02                             119     0.0 9  153 201 
 ROSC BN ES   2    453  5.66                             119     0.4 5  153 201 
 ROSC BZ I         453 13.42        25.9 0.33                           153 201 
 CHI  HZ EP        452 47.22                             117    -0.3 9  166 177 
 CHI  HE ES   1    453  8.13                             117     0.2 7  166 177 
 CVER SZ EP   1    452 50.02                             115     0.9 7  180 189 
 CVER SZ I         453 16.69        24.4 0.74                           180 189 
 HEL  HZ EP        452 49.81                             114    -0.2 9  189 272 
 HEL  HZ I         453 16.03        18.9 0.28                           189 272 
 GUY  SZ EP        452 51.70                             113     0.5 9  198 240 
 GUY  SN ES   1    453 14.35                             113    -0.1 6  198 240 
 GUY  SZ I         453 19.17        70.6 0.35                           198 240 
 RREF HZ EP        452 53.14                             111    -0.4 8  217 231 
 RREF HE ES   1    453 19.64                             111     1.0 6  217 231 
 RREF HZ I         453 23.40        37.9 0.54                           217 231 
 GRA  SZ EP        452 53.86                             110     0.0 8  225  30 
 GRA  SZ ES   1    453 19.91                             110     0.7 6  225  30 
 GRA  SZ I         453 24.04        24.6 0.20                           225  30 
 TOL  SZ EP        452 55.86                             108     0.2 8  238 224 
 OCA  SZ EP        452 54.86                             108    -0.8 8  240  13 
 OCA  SZ ES   1    453 22.93                             108     0.5 6  240  13 
 OCA  SZ I         453 27.78        28.8 0.86                           240  13 
 ANIL HZ EP        452 57.58                             107     0.4 8  252 224 
 ANIL HE ES   2    453 24.63                             107    -0.5 4  252 224 
 ANIL HZ I         453 31.83        47.0 0.45                           252 224 
                                                                                
