 2014 1120 0956 38.5 L   6.744 -73.144155.1  RSN  5 0.5 1.2LRSN                1
 GAP=233        1.32      10.6     9.6 10.6  0.6332E+02  0.1032E+02 -0.3190E+01E
 Epicentro: LOS SANTOS - SANTANDER                                             3
 ACTION:UPD 14-12-19 15:45 OP:nd   STATUS:               ID:20141120095638 L   I
 OLDACT:REG 14-11-20 13:24 OP:fm   STATUS:               ID:20141120094748     3
 2014-11-20-0947-48M.COL___292                                                 6
 STAT SP IPHASW D HRMM SECON CODA AMPLIT PERI AZIMU VELO AIN AR TRES W  DIS CAZ7
 BAR2 SZ EP        956 58.92                             173   -0.2710 17.3 194 
 BAR2 SZ ES        957 15.61                             173    0.3110 17.3 194 
 BAR2 SZ I         957 17.62         3.6 0.20            170           17.3 194 
 BRR  HZ EP        957  0.19                             153   -0.6910 74.6 303 
 BRR  HN ES        957 18.78                             153    0.4710 74.6 303 
 BRR  HZ I         957 19.74         5.2 0.38            151           74.6 303 
 RUS  HZ EP        957  3.26                             147    0.4710 94.4 176 
 RUS  HN ES        957 21.14                             147   -0.5810 94.4 176 
 RUS  HZ I         957 24.68         1.2 0.30            148           94.4 176 
 PTB  HZ EP        957  7.04                             134    0.84 9  147 261 
 PTB  HN ES        957 27.71                             134   -0.07 9  147 261 
 PTB  HZ I         957 30.56         2.3 0.14            133            147 261 
 ZAR  HE ES        957 37.33                             124   -0.54 8  207 294 
 ZAR  HZ I         957 46.12         1.6 0.54            124            207 294 
                                                                                
