 2014 1220 0659 43.9 L   6.794 -73.126149.8  RSN 10 0.3 1.5LRSN                1
 GAP=139        0.67       2.1     3.5  4.4  0.3279E+00  0.2320E+01  0.1034E+01E
 Epicentro: LOS SANTOS - SANTANDER                                             3
 ACTION:UPD 15-02-10 17:05 OP:nd   STATUS:               ID:20141220065943 L   I
 OLDACT:REG 14-12-20 13:15 OP:spq  STATUS:               ID:20141220065747     3
 2014-12-20-0657-47M.COL___305                                                 6
 STAT SP IPHASW D HRMM SECON CODA AMPLIT PERI AZIMU VELO AIN AR TRES W  DIS CAZ7
 BAR2 EZ EP        7 0  3.85                             171   -0.1310 23.1 196 
 BAR2 EZ ES   1    7 0 19.42                             171   -0.25 7 23.1 196 
 BAR2 EZ I         7 0 20.54        10.1 0.14            170           23.1 196 
 BRR  HZ EP        7 0  5.72                             152    0.1410 73.4 298 
 BRR  HN ES        7 0 23.05                             152    0.5310 73.4 298 
 BRR  HZ I         7 0 26.03         3.9 0.46            150           73.4 298 
 PAM  SZ EP        7 0  6.69                             152    0.2210 76.6  38 
 PAM  SN ES   1    7 0 23.79                             152   -0.31 7 76.6  38 
 PAM  SZ I         7 0 26.13         4.8 0.52            153           76.6  38 
 RUS  HZ EP        7 0  7.96                             145   -0.0010 99.7 177 
 RUS  HN ES   1    7 0 26.66                             145   -0.09 7 99.7 177 
 RUS  HZ I         7 0 27.78         5.7 0.30            146           99.7 177 
 PTB  HZ I         7 0 33.83         2.4 0.24            132            150 259 
 OCA  HN ES        7 0 35.09                             130    0.10 9  161 352 
 OCA  HZ I         7 0 40.27         3.2 0.20            130            161 352 
 SPBC HZ EP        7 0 12.69                             130   -0.07 9  164 220 
 SPBC HN ES        7 0 35.23                             130   -0.06 9  164 220 
 SPBC HZ I         7 0 37.58         8.2 0.24            130            164 220 
 ZAR  HZ EP        7 0 17.07                             123    0.26 8  206 292 
 ZAR  HN ES        7 0 42.21                             123   -0.29 8  206 292 
 ZAR  HZ I         7 0 48.37         2.7 0.10            122            206 292 
 SML  HZ EP   1    7 0 20.77                             118   -0.12 6  245 335 
 SML  HN ES   1    7 0 48.82                             118   -0.95 6  245 335 
 SML  HZ I         7 0 55.50         5.2 0.10            118            245 335 
 CHI  HZ EP        7 0 22.01                             118    0.23 8  249 196 
 CHI  HN ES   1    7 0 51.02                             118   -0.33 6  249 196 
 CHI  HZ I         7 1  1.14         1.5 0.50            118            249 196 
                                                                                
