 2015 1120 0253 43.1 L   6.807 -73.126143.9  RSN  9 0.4 1.8LRSN                1
 GAP=139        0.96       3.1     4.2  5.5 -0.1883E+01  0.9184E+01 -0.6593E+00E
 Epicentro: LOS SANTOS - SANTANDER                                             3
 ACTION:UPD 15-12-28 16:12 OP:cam  STATUS:               ID:20151120025343 L   I
 OLDACT:UP  15-11-20 15:04 OP:ak   STATUS:               ID:20151120024748     3
 OLDACT:REG 15-11-20 13:03 OP:ak   STATUS:               ID:20151120024748     3
 2015-11-20-0247-48M.COL___316                                                 6
 STAT SP IPHASW D HRMM SECON CODA AMPLIT PERI AZIMU VELO AIN AR TRES W  DIS CAZ7
 BAR2 EZ EP        254  2.65                             170    0.0910 24.5 195 
 BAR2 EZ ES        254 17.62                             170   -0.0910 24.5 195 
 BAR2 EZ I         254 18.61        18.0 0.28            169           24.5 195 
 BRR  HZ EP   1    254  4.82                             152    0.65 7 72.8 297 
 BRR  HN ES        254 20.87                             152    0.2910 72.8 297 
 PAM  EZ EP        254  5.53                             151    0.5010 75.4  39 
 PAM  EN ES        254 22.44                             151    0.3410 75.4  39 
 PAM  EZ I         254 24.64        11.6 0.50            154           75.4  39 
 RUS  HZ EP        254  6.39                             143   -0.3510  101 177 
 RUS  HN ES        254 24.46                             143   -0.6910  101 177 
 RUS  HZ I         254 26.33         4.3 0.34            145            101 177 
 SPBC HZ EP        254 11.74                             128    0.07 9  165 219 
 SPBC HN ES        254 34.03                             128    0.10 9  165 219 
 SPBC HZ I         254 35.24         9.5 0.20            129            165 219 
 ZAR  HZ EP        254 15.39                             122   -0.25 8  206 292 
 ZAR  HN ES        254 40.62                             122   -0.37 8  206 292 
 ZAR  HZ I         254 46.75         5.4 0.25            122            206 292 
 NOR  HZ EP        254 19.10                             118    0.11 8  237 235 
 NOR  HE ES        254 46.83                             118   -0.13 8  237 235 
 NOR  HZ I         254 53.41         5.7 0.24            119            237 235 
 SML  HZ EP        254 18.97                             117   -0.71 8  244 335 
 SML  HN ES        254 47.78                             117   -0.41 8  244 335 
 GUY2CHZ EP        254 27.41                             112    0.51 7  303 235 
 GUY2CHN ES        255  1.65                             112    0.60 7  303 235 
 GUY2CHZ I         255  9.23         3.3 0.44                           303 235 
 MON  HZ EP   4    254 29.90                             108   -2.31 0  355 308 
 MON  HN ES   4    255  8.40                             108   -2.09 0  355 308 
                                                                                
