 2011  820 0218  8.5 L   6.762 -73.113136.0  RSN  7 0.3 2.3LRSN                1
 GAP=238        0.49       3.1     3.8  4.3  0.2943E+01  0.5816E+01  0.4136E+01E
 Epicentro: LOS SANTOS - SANTANDER                                             3
 ACTION:UPD 12-07-13 15:52 OP:ep   STATUS:               ID:20110820021808 L   I
 2011-08-20-0215-16S.COL___151                                                 6
 STAT SP IPHASW D HRMM SECON CODA AMPLIT PERI AZIMU VELO AIN AR TRES W  DIS CAZ7
 BAR2 SZ EP        218 26.72                             171   -0.2010 20.3 202 
 BAR2 SZ ES   1    218 41.05                             171   -0.22 7 20.3 202 
 BAR2 SZ I         218 45.29        49.8 0.45                          20.3 202 
 BRR  HZ EP        218 28.87                             149   -0.0710 76.4 300 
 BRR  HN ES   1    218 45.31                             149    0.44 7 76.4 300 
 BRR  HZ I         218 47.19        69.7 0.16                          76.4 300 
 RUS  HZ EP        218 30.96                             143   -0.0410 96.2 178 
 RUS  HN ES   1    218 48.75                             143    0.22 7 96.2 178 
 RUS  HZ I         218 51.16        16.7 0.46                          96.2 178 
 NOR  SZ EP   2    218 43.50                             116   -0.27 4  235 236 
 NOR  SE ES   2    219 10.89                             116   -0.37 4  235 236 
 CHI  HZ EP   1    218 45.61                             115    0.25 6  246 196 
 CHI  HE ES   1    219 14.19                             115    0.09 6  246 196 
 CHI  HZ I         219 21.01         5.6 0.37                           246 196 
 HEL  HZ EP   1    218 48.91                             112    0.37 6  275 257 
 HEL  HE ES   1    219 19.41                             112   -0.35 6  275 257 
 HEL  HZ I         219 27.44        15.6 0.23                           275 257 
 RREF HZ EP   2    218 54.89                             109    0.62 3  322 230 
 RREF HN ES   2    219 29.69                             109   -0.26 3  322 230 
 RREF HZ I         219 40.10        12.6 0.44                           322 230 
                                                                                
