 2014  120 0351 36.1 L   6.812 -73.173141.3  RSN 13 0.4 2.0LRSN                1
 GAP=133        0.85       2.3     3.2  5.2 -0.1134E+01  0.6166E+01 -0.4239E+00E
 Epicentro: LOS SANTOS - SANTANDER                                             3
 ACTION:UPD 14-03-13 09:56 OP:ep   STATUS:               ID:20140120035136 L   I
 OLDACT:REG 14-01-20 08:15 OP:nd   STATUS:               ID:20140120035000     3
 2014-01-20-0350-00M.COL___285                                                 6
 STAT SP IPHASW D HRMM SECON CODA AMPLIT PERI AZIMU VELO AIN AR TRES W  DIS CAZ7
 BAR2 SZ EP        351 55.50                             170    0.2610 24.3 183 
 BAR2 SZ ES        352 10.46                             170    0.3110 24.3 183 
 BAR2 SZ I         352 12.21        41.8 0.22            169           24.3 183 
 PAM  SZ EP        351 58.37                             150    0.4410 78.3  42 
 PAM  SN ES        352 14.80                             150   -0.1310 78.3  42 
 PAM  SZ I         352 18.07         9.8 0.62            154           78.3  42 
 RUS  HZ EP        351 59.53                             142   -0.0210  102 174 
 RUS  HN ES        352 17.47                             142   -0.3610  102 174 
 RUS  HZ I         352 19.46        13.3 0.28            144            102 174 
 PTB  HZ EP        352  2.31                             131   -0.18 9  145 258 
 PTB  HN ES        352 22.81                             131   -0.24 9  145 258 
 PTB  HZ I         352 25.30        12.3 0.12            132            145 258 
 OCA  HZ EP   2    352  3.77                             129   -0.17 5  159 354 
 OCA  HN ES        352 25.57                             129   -0.06 9  159 354 
 OCA  HZ I         352 29.31         7.7 0.22            131            159 354 
 SPBC HZ EP        352  4.57                             128    0.37 9  162 218 
 SPBC HN ES        352 26.13                             128    0.02 9  162 218 
 SPBC HZ I         352 34.03        13.3 0.46            129            162 218 
 ZAR  HZ EP   2    352  7.51                             122   -0.43 4  201 292 
 ZAR  HN ES        352 32.73                             122   -0.03 9  201 292 
 ZAR  HZ I         352 36.07         7.5 0.40            123            201 292 
 NOR  HZ EP   2    352 11.13                             118   -0.29 4  233 234 
 NOR  HN ES        352 38.42                             118   -0.53 8  233 234 
 NOR  HZ I         352 44.95         8.2 0.16            119            233 234 
 SML  HZ EP        352 12.27                             117    0.03 8  241 336 
 SML  HN ES        352 39.99                             117   -0.42 8  241 336 
 SML  HZ I         352 43.10        14.2 0.24            118            241 336 
 CHI  HZ EP        352 13.77                             116    0.14 8  249 194 
 CHI  HN ES        352 42.56                             116   -0.33 8  249 194 
 CHI  HZ I         352 48.69         4.4 0.32            118            249 194 
 HEL  HZ EP        352 15.46                             114   -0.37 8  270 255 
 HEL  HN ES        352 48.04                             114    1.25 8  270 255 
 HEL  HZ I         352 55.92         5.5 0.30            115            270 255 
 GUY2CHZ EP   4    352 20.96                             111    1.62 0  300 234 
 GUY2CHN ES   4    352 54.47                             111    1.42 0  300 234 
 GUY2CHZ I         353  1.30         4.4 0.42                           300 234 
 SJC  HZ EP   4    352 29.05                             105   -2.17 0  407 327 
 SJC  HN ES   4    353 10.32                             105   -3.88 0  407 327 
 SJC  HZ I         353 17.07         1.3 0.36            106            407 327 
                                                                                
