 2010 1220 0343 36.1 L   6.828 -73.163140.0  RSN  9 0.4 2.1LRSN                1
 GAP=156        0.86       3.9     7.5  7.8 -0.1259E+02  0.2744E+02 -0.2439E+01E
 Epicentro: LOS SANTOS - SANTANDER                                             3
 ACTION:UP  11-01-14 15:26 OP:pat  STATUS:               ID:20101220034337dL   I
 2010-12-20-0340-25S.COL___133                                                 6
 STAT SP IPHASW D HRMM SECON CODA AMPLIT PERI AZIMU VELO SNR AR TRES W  DIS CAZ7
 BAR2 SZ IP        343 55.31                             169     0.210   26 185 
 BAR2 SZ I         343 55.68        38.5 0.08                            26 185 
 BAR2 SZ ES   1    344 10.61                             169     0.7 7   26 185 
 RUS  HZ IP     D  343 59.32                             142    -0.210  104 175 
 RUS  HE ES   1    344 17.83                             142     0.0 7  104 175 
 RUS  HZ I         344 19.26        14.7 0.37                           104 175 
 GRA  SZ EP   1    344  1.03                             136     0.4 7  123  19 
 GRA  SZ ES   1    344 18.89                             136    -0.9 7  123  19 
 GRA  SZ I         344 23.22        19.1 0.76                           123  19 
 OCA  SZ EP   1    344  3.98                             129     0.3 7  157 354 
 OCA  SZ ES   2    344 25.08                             129    -0.1 5  157 354 
 OCA  SZ I         344 31.76        12.6 0.37                           157 354 
 NOR  SZ EP   1    344 11.67                             117     0.1 6  235 234 
 NOR  SN ES   2    344 39.40                             117     0.2 4  235 234 
 CHI  HZ EP   1    344 13.53                             116    -0.2 6  251 195 
 CHI  HE ES   1    344 42.63                             116    -0.5 6  251 195 
 CHI  HZ I         344 50.93         5.4 0.33                           251 195 
 HEL  HZ EP   2    344 16.04                             114     0.1 4  271 255 
 HEL  HE ES   2    344 46.45                             114    -0.5 4  271 255 
 HEL  HZ I         344 54.55        10.6 0.35                           271 255 
 RREF HZ EP   1    344 22.56                             110     0.5 5  322 229 
 RREF HE ES   1    344 57.44                             110    -0.5 5  322 229 
 RREF HZ I         345  3.81         7.4 0.32                           322 229 
 PRA  HZ EP   1    344 29.90                             106     0.3 4  394 209 
                                                                                
