 2013 1020 0246 56.4 L   6.851 -73.075150.0  RSN  7 0.5 1.9LRSN                1
 GAP=207        0.90       7.4    16.5  7.5  0.9832E+02 -0.3689E+02 -0.2503E+02E
 Epicentro: LOS SANTOS - SANTANDER                                             3
 ACTION:UPD 13-11-25 09:22 OP:ep   STATUS:               ID:20131020024656 L   I
 OLDACT:UP  13-10-20 11:21 OP:cam  STATUS:               ID:20131020023841     3
 OLDACT:UP  13-10-20 11:21 OP:cam  STATUS:               ID:20131020023841     3
 OLDACT:REG 13-10-20 10:44 OP:cam  STATUS:               ID:20131020023841     3
 2013-10-20-0238-41M.COL___215                                                 6
 STAT SP IPHASW D HRMM SECON CODA AMPLIT PERI AZIMU VELO AIN AR TRES W  DIS CAZ7
 BAR2 SZ EP   1    247 17.07                             168    0.33 7 31.0 203 
 BAR2 SZ ES        247 32.34                             168   -0.2410 31.0 203 
 BAR2 SZ I         247 34.55        15.9 0.18            171           31.0 203 
 BRR  HZ EP        247 18.67                             152    0.3710 75.9 292 
 BRR  HN ES        247 35.70                             152    0.3410 75.9 292 
 BRR  HZ I         247 36.15         8.8 0.10            154           75.9 292 
 RUS  HZ EP   1    247 21.10                             143    0.12 7  106 180 
 RUS  HE ES        247 39.71                             143   -0.4310  106 180 
 RUS  HZ I         247 41.57         6.7 0.20            146            106 180 
 PTB  HZ EP   2    247 23.93                             131   -0.61 5  157 257 
 SML  HZ EP   1    247 33.87                             118    0.75 6  242 333 
 SML  HN ES        248  1.14                             118   -0.59 8  242 333 
 SML  HZ I         248  4.79        11.0 0.10            119            242 333 
 CHI  HZ EP   2    247 35.65                             117    0.47 4  256 197 
 SJC  HZ EP   1    247 51.32                             106   -0.77 4  409 326 
                                                                                
