 2012 1120 0602 40.8 L   6.304 -73.607108.0  RSN 11 0.4 2.3LRSN                1
 GAP= 60        0.81       2.9     2.7  5.6  0.5267E+00  0.2552E+01  0.3299E+01E
 Epicentro: SANTA HELENA DEL OPON - SANTANDER                                  3
 ACTION:UPD 12-12-05 15:34 OP:}ep  STATUS:               ID:20121120060240 L   I
 2012-11-20-0600-00M.COL___234                                                 6
 STAT SP IPHASW D HRMM SECON CODA AMPLIT PERI AZIMU VELO AIN AR TRES W  DIS CAZ7
 BAR2 SZ IP        6 2 57.72                             151    0.3610 56.7  56 
 BAR2 SZ ES   1    6 3 10.13                             151   -0.18 7 56.7  56 
 RUS  HZ IP     D  6 2 58.96                             144    0.1110 73.7 128 
 RUS  HE ES   1    6 3 13.12                             144    0.16 7 73.7 128 
 RUS  HE I         6 3 14.36        36.3 0.32                          73.7 128 
 BRR  HZ EP        6 2 59.28                             137   -0.1210 89.6 353 
 BRR  HE ES        6 3 14.51                             137    0.5710 89.6 353 
 BRR  HZ I         6 3 17.98        45.4 0.25                          89.6 353 
 GIR2 SZ EP        6 3  0.40                             135    0.1710 97.1  28 
 PTB  HZ EP        6 2 59.52                             135   -0.5810 97.5 286 
 PTB  HE ES   1    6 3 14.57                             135   -0.62 7 97.5 286 
 PTB  HZ I         6 3 15.06        66.3 0.33                          97.5 286 
 PAM  SZ EP        6 3  5.73                             121   -0.29 9  152  41 
 PAM  SN ES   1    6 3 25.40                             121   -0.33 7  152  41 
 PAM  SZ I         6 3 29.47        22.7 0.22                           152  41 
 CHI  HZ EP   1    6 3  9.37                             116   -0.16 7  186 184 
 CHI  HE ES   1    6 3 32.02                             116    0.05 7  186 184 
 ZAR  HZ EP        6 3  9.47                             115   -0.10 9  191 314 
 ZAR  HN ES   1    6 3 32.17                             115    0.12 7  191 314 
 ZAR  HZ I         6 3 36.37        50.2 0.17                           191 314 
 TAM  HZ EP        6 3 10.54                             113   -0.26 9  201  86 
 HEL  HZ EP   1    6 3 13.34                             112    0.81 6  213 267 
 HEL  HN ES   1    6 3 37.62                             112    0.30 6  213 267 
 HEL  HZ I         6 3 41.51        16.3 0.30                           213 267 
 PRA  HZ EP   1    6 3 24.88                             103    0.32 5  320 206 
                                                                                
