 2010  820 0526 18.2 L   6.842 -73.130140.0  RSN  6 0.3 1.6LRSN                1
 GAP=160        0.84       4.1     7.3  8.4 -0.1144E+02  0.2227E+02 -0.1199E+02E
 Epicentro: LOS SANTOS - SANTANDER                                             3
 ACTION:UP  10-09-07 10:56 OP:vdl  STATUS:               ID:20100820052618 L   I
 2010-08-20-0521-32S.COL___117                                                 6
 STAT SP IPHASW D HRMM SECON CODA AMPLIT PERI AZIMU VELO SNR AR TRES W  DIS CAZ7
 BAR2 SZ EP        526 37.24                             168     0.010   28 192 
 BAR2 SZ I         526 37.39        12.7 0.53                            28 192 
 BAR2 SZ ES   1    526 52.47                             168     0.4 7   28 192 
 RUS  HZ EP   1    526 41.58                             142    -0.1 7  105 177 
 RUS  HN ES   1    526 59.72                             142    -0.3 7  105 177 
 RUS  HZ I         527  2.02         3.6 0.63                           105 177 
 GUE  SZ EP        526 41.91                             140    -0.110  112  12 
 GUE  SZ I         526 42.47         3.4 0.19                           112  12 
 GRA  SZ EP        526 42.63                             137     0.110  121  17 
 GRA  SZ ES   1    527  1.86                             137     0.4 7  121  17 
 GRA  SZ I         527  4.23         9.3 0.06                           121  17 
 OCA  SZ EP        526 45.33                             129    -0.3 9  156 352 
 OCA  SZ ES   1    527  6.72                             129    -0.3 7  156 352 
 OCA  SZ I         527 11.43        10.1 0.37                           156 352 
 HEL  HZ EP   1    526 59.35                             114     0.9 6  275 255 
 HEL  HN ES   1    527 29.54                             114    -0.3 6  275 255 
 HEL  HZ I         527 35.73         3.0 0.79                           275 255 
                                                                                
