 2013  120 0854 51.4 L   6.759 -73.211154.0  RSN  5 0.3 1.0LRSN                1
 GAP=226        0.60       4.6     5.9  7.0  0.9665E+01 -0.2467E+01  0.6579E+01E
 Epicentro: VILLANUEVA - SANTANDER                                             3
 ACTION:UPD 13-02-15 09:15 OP:ep   STATUS:               ID:20130120085451 L   I
 2013-01-20-0850-00M.COL___241                                                 6
 STAT SP IPHASW D HRMM SECON CODA AMPLIT PERI AZIMU VELO AIN AR TRES W  DIS CAZ7
 BAR2 SZ EP   1    855 11.45                             173   -0.50 7 18.7 170 
 BRR  HZ EP   1    855 13.35                             155    0.10 7 67.4 305 
 BRR  HN ES   1    855 30.64                             155    0.35 7 67.4 305 
 BRR  HZ I         855 33.71         2.4 0.32            152           67.4 305 
 RUS  HZ EP   1    855 15.88                             147    0.16 7 96.9 172 
 RUS  HN ES   1    855 34.65                             147   -0.03 7 96.9 172 
 RUS  HZ I         855 36.47         0.9 0.50            146           96.9 172 
 PTB  HZ EP   1    855 18.03                             136   -0.34 7  140 260 
 PTB  HN ES   1    855 39.31                             136   -0.09 7  140 260 
 PTB  HZ I         855 45.23         2.0 0.36            133            140 260 
 CHI  HZ EP   1    855 29.46                             120    0.55 6  242 194 
 CHI  HN ES   1    855 58.11                             120   -0.06 6  242 194 
 CHI  HZ I         856  2.87         0.6 0.34            120            242 194 
                                                                                
