 2012  620 0617 59.9 L   6.816 -73.173144.0  RSN  6 0.2 1.4LRSN                1
 GAP=180        0.54       3.0     3.3  5.6  0.1409E+01  0.4369E+01 -0.1599E+01E
 Epicentro: LOS SANTOS - SANTANDER                                             3
 ACTION:UPD 12-08-06 17:51 OP:ep   STATUS:               ID:20120620061759 L   I
 2012-06-20-0616-36M.COL___176                                                 6
 STAT SP IPHASW D HRMM SECON CODA AMPLIT PERI AZIMU VELO AIN AR TRES W  DIS CAZ7
 BAR2 SZ EP   1    618 19.61                             170    0.21 8 24.8 182 
 BAR2 SZ ES   1    618 34.64                             170    0.07 8 24.8 182 
 BAR2 SZ I         618 36.29         6.1 0.36                          24.8 182 
 RUS  HZ EP        618 23.71                             143    0.0410  103 174 
 RUS  HN ES   1    618 41.89                             143   -0.29 7  103 174 
 RUS  HZ I         618 45.62         2.5 0.42                           103 174 
 PTB  HZ EP        618 26.20                             132   -0.34 9  145 258 
 PTB  HN ES        618 47.43                             132    0.15 9  145 258 
 PTB  HZ I         618 49.31         2.8 0.42                           145 258 
 OCA  HN ES   1    618 49.86                             130    0.11 7  158 354 
 ZAR  HZ EP   1    618 32.17                             122    0.25 6  201 292 
 ZAR  HN ES   1    618 56.45                             122   -0.41 6  201 292 
 ZAR  HZ I         619  3.66         3.8 0.36                           201 292 
 NOR  SE ES   1    619  3.48                             118    0.38 6  233 234 
                                                                                
