 2017  420 0051  7.4 L   6.891 -73.416111.3  RSN 10 0.4 1.9LRSN                1
 GAP=112        1.05       3.7     3.1  5.9  0.1941E+01  0.4068E+01  0.5102E+01E
 Epicentro: SAN VICENTE DE CHUCURI - SANTANDER                                 3
 ACTION:UPD 17-05-30 21:14 OP:jn   STATUS:               ID:20170420005107 L   I
 OLDACT:UP  17-04-20 14:06 OP:cog  STATUS:               ID:20170420004300     3
 OLDACT:UP  17-04-20 14:06 OP:cog  STATUS:               ID:20170420004300     3
 OLDACT:REG 17-04-20 12:56 OP:cog  STATUS:               ID:20170420004300     3
 2017-04-20-0048-00M.COL___365                                                 6
 STAT SP IPHASW D HRMM SECON CODA AMPLIT PERI AZIMU VELO AIN AR TRES W  DIS CAZ7
 BRR  HZ EP        051 23.05                             158   -0.0810 40.5 306 
 BRR  HN ES        051 35.71                             158    0.2810 40.5 306 
 BAR2 EZ IP     D  051 23.68                             158    0.1410 41.9 142 
 BAR2 EZ ES        051 36.01                             158   -0.1610 41.9 142 
 BAR2 EZ I         051 37.89        34.8 0.00            156           41.9 142 
 PAM  EZ EP        051 27.19                             137   -0.1110 93.4  58 
 PAM  EN ES        051 42.63                             137   -0.2210 93.4  58 
 PAM  EZ I         051 45.55         6.2 0.18            139           93.4  58 
 RUS  HZ EP        051 29.14                             130   -0.1910  116 162 
 RUS  HN ES        051 46.01                             130   -0.4510  116 162 
 RUS  HZ I         051 50.26         9.9 0.34            130            116 162 
 PTB  HZ EP   9    051 27.96                             128   -1.20 0  121 251 
 PTB  HN ES        051 44.24                             129   -0.7210  121 251 
 PTB  HZ I         051 45.64        15.9 0.12            129            121 251 
 SPBC HN ES   3    051 53.30                             121    0.97 2  155 208 
 ZAR  HZ EP        051 34.52                             118    0.15 9  173 293 
 ZAR  HE ES        051 55.88                             118    0.44 9  173 293 
 YPLC HZ EP        051 37.69                             114    0.11 9  201 145 
 YPLC HN ES        052  2.02                             114    0.86 9  201 145 
 YPLC HZ I         052  3.85        15.6 0.24            114            201 145 
 NOR  HZ EP        051 38.62                             112   -0.80 8  218 228 
 NOR  HE ES        052  5.02                             112    0.59 8  218 228 
 NOR  HZ I         052  8.25         6.3 0.34            112            218 228 
 HEL  HE ES        052 10.40                             109   -0.52 8  246 252 
 HEL  HZ I         052 15.11         5.2 0.28            109            246 252 
                                                                                
