 2016  620 0721 52.6 L   6.782 -73.147148.0  RSN 10 0.4 1.6LRSN                1
 GAP=137        1.06       3.5     4.1  5.8 -0.3200E+01  0.8034E+01 -0.4132E-01E
 Epicentro: LOS SANTOS - SANTANDER                                             3
 ACTION:UPD 16-07-21 22:20 OP:rebc STATUS:               ID:20160620072152 L   I
 OLDACT:REG 16-06-20 13:36 OP:ar   STATUS:               ID:20160620071741     3
 2016-06-20-0717-41M.COL___343                                                 6
 STAT SP IPHASW D HRMM SECON CODA AMPLIT PERI AZIMU VELO AIN AR TRES W  DIS CAZ7
 BAR2 EZ EP        722 12.48                             171    0.0510 21.4 191 
 BAR2 EZ ES        722 28.15                             171    0.2310 21.4 191 
 BAR2 EZ I         722 29.27         9.5 0.16                          21.4 191 
 BRR  HZ EP        722 14.55                             153    0.5410 72.1 300 
 BRR  HN ES        722 31.45                             153    0.7210 72.1 300 
 BRR  HZ I         722 35.47         7.6 0.16                          72.1 300 
 PAM  EZ EP        722 15.43                             151    0.3110 79.0  39 
 PAM  EN ES        722 32.29                             151   -0.4110 79.0  39 
 PAM  EZ I         722 35.29         4.4 0.78                          79.0  39 
 RUS  HZ EP        722 16.44                             145    0.0410 98.6 176 
 RUS  HN ES        722 34.81                             145   -0.1810 98.6 176 
 RUS  HZ I         722 36.37         5.0 0.26                          98.6 176 
 PTB  HZ EP        722 18.98                             133   -0.70 9  147 260 
 PTB  HN ES        722 40.23                             133   -0.59 9  147 260 
 PTB  HZ I         722 45.23         5.1 0.14                           147 260 
 SPBC HN ES        722 43.10                             130   -0.24 9  162 219 
 SPBC HZ I         722 50.15        10.0 0.36                           162 219 
 OCA  HZ E         722  5.31                                            162 353 
 OCA  HZ EP        722 21.08                             130   -0.16 9  162 353 
 OCA  HZ I         722 48.31         6.3 0.22                           162 353 
 SPBC HZ EP        722 21.00                             130   -0.09 9  162 219 
 OCA  HN ES        722 43.16                             130   -0.44 9  162 353 
 ZAR  HZ EP        722 25.17                             123   -0.06 9  205 293 
 ZAR  HN ES        722 51.02                             123    0.32 9  205 293 
 ZAR  HZ I         722 56.37         5.1 0.30                           205 293 
 GUY2CHZ EP        722 36.81                             113    0.66 7  300 235 
 GUY2CHE ES        723 10.74                             113    0.60 7  300 235 
 GUY2CHZ I         723 16.75         1.9 0.26                           300 235 
 CBOC HZ EP        722 39.81                             110    0.31 7  333 252 
 CBOC HN ES        723 15.27                             110   -0.83 7  333 252 
 CBOC HZ I         723 28.25         0.6 0.24                           333 252 
                                                                                
