 2016 1120 0056 21.6 L   7.466 -73.194136.0  RSN 14 0.5 2.2LRSN                1
 GAP= 89        1.18       4.2     4.1  6.8 -0.1127E+01  0.7273E+01 -0.4643E+01E
 Epicentro: EL PLAYON - SANTANDER                                              3
 ACTION:UPD 17-10-26 21:09 OP:lp   STATUS:               ID:20161120005621 L   I
 OLDACT:UP  16-11-20 14:08 OP:e    STATUS:               ID:20161120004742     3
 OLDACT:UP  16-11-20 14:02 OP:e    STATUS:               ID:20161120004742     3
 OLDACT:UP  16-11-20 13:57 OP:e    STATUS:               ID:20161120004742     3
 OLDACT:REG 16-11-20 12:42 OP:and  STATUS:               ID:20161120004742     3
 2016-11-20-0048-00M.COL___331                                                 6
 STAT SP IPHASW D HRMM SECON CODA AMPLIT PERI AZIMU VELO AIN AR TRES W  DIS CAZ7
 PAM  EZ EP        056 41.93                             156    0.3310 56.3 104 
 PAM  EN ES        056 57.57                             156    0.3710 56.3 104 
 BRR  HZ EP        056 41.79                             151    0.1910 69.6 235 
 BRR  HN ES        056 57.32                             151    0.1110 69.6 235 
 BRR  HZ I         056 58.14        31.2 0.12            141           69.6 235 
 BAR2 EZ IP     D  056 43.50                             142   -0.2510 96.7 179 
 BAR2 EZ ES        057  0.15                             142   -0.8810 96.7 179 
 BAR2 EZ I         057  1.25        86.3 0.22            134           96.7 179 
 PTB  HZ EP        056 49.90                             125   -0.34 9  173 234 
 PTB  HN ES        057 12.02                             125   -0.57 9  173 234 
 PTB  HZ I         057 15.95        22.4 0.19            117            173 234 
 ZAR  HZ EP        056 51.80                             123    0.49 9  184 271 
 ZAR  HN ES        057 15.20                             123    0.72 9  184 271 
 ZAR  HZ I         057 19.06        36.7 0.38            117            184 271 
 TAM  HZ EP        056 52.44                             121    0.19 9  192 126 
 TAM  HE ES   4    057 14.67                             121   -1.48 0  192 126 
 LL6C HZ EP   9    056 40.48                             114   -18.0 0  251 358 
 LL6C HE ES        057  8.07                                   -1.21 8  251 358 
 URE  HN ES   4    057 27.77                             113   -1.34 0  260 277 
 NOR  HZ EP        057  1.63                             112   -0.23 7  280 221 
 NOR  HE ES        057 33.28                             112    0.01 7  280 221 
 NOR  HZ I         057 38.84        13.7 0.20            106            280 221 
 CHI  HN ES        057 42.18                             109    0.18 7  319 191 
 CHI  HZ I         057 57.35         4.8 0.08            104            319 191 
 SJC  HZ EP        057  9.84                             107    0.37 6  346 321 
 SJC  HN ES        057 45.78                             107   -1.03 6  346 321 
 SJC  HZ I         057 48.76         2.3 0.16            104            346 321 
 CBOC HZ EP   4    057 12.61                             106    1.60 0  358 241 
 CBOC HE ES        057 50.02                             106    0.46 6  358 241 
 CBOC HZ I         058  4.03         2.6 0.41            102            358 241 
 ELA  HN ES   4    057 56.34                             105    1.97 0  378 220 
 ELA  HZ I         058  2.95         7.2 0.46            101            378 220 
 ORTC HZ EP   4    057 24.08                             102    1.90 0  454 210 
 ORTC HN ES   4    058 12.15                             102    2.72 0  454 210 
 ORTC HZ I         058 18.40         3.5 0.32             98            454 210 
 URI  HZ EP   3    057 27.12                             101    1.14 1  487  16 
 URI  HE ES        058 15.63                             101   -0.56 4  487  16 
                                                                                
