 2011  320 0015 29.5 L   6.813 -73.159135.3  RSN  5 0.3 1.8LRSN                1
 GAP=157        0.84       3.8     8.3  8.4 -0.1406E+02  0.2408E+02 -0.7628E+01E
 Epicentro: LOS SANTOS - SANTANDER                                             3
 ACTION:UP  11-06-16 14:34 OP:jfem STATUS:               ID:20110320001529 L   I
 2011-03-20-0013-10S.COL___136                                                 6
 STAT SP IPHASW D HRMM SECON CODA AMPLIT PERI AZIMU VELO SNR AR TRES W  DIS CAZ7
 BAR2 SZ EP        015 48.12                             169     0.310   25 186 
 BAR2 SZ ES   1    016  2.64                             169     0.4 7   25 186 
 BAR2 SZ I         016  4.17        25.5 0.35                            25 186 
 RUS  HZ EP        015 52.17                             141    -0.110  102 175 
 RUS  HN ES   1    016  9.55                             141    -0.6 7  102 175 
 RUS  HZ I         016 11.45         6.9 0.24                           102 175 
 GRA  SZ EP        015 54.09                             135     0.410  125  18 
 GRA  SZ I         015 55.40         9.9 0.39                           125  18 
 GRA  SZ ES   1    016 12.54                             135    -0.1 7  125  18 
 OCA  SZ EP   1    015 56.50                             127    -0.3 7  159 354 
 OCA  SZ ES   1    016 17.72                             127    -0.5 7  159 354 
 OCA  SZ I         016 23.62         9.9 0.21                           159 354 
 NOR  SZ EP   1    016  4.72                             116     0.1 6  234 234 
 NOR  SN ES   1    016 32.03                             116     0.1 6  234 234 
                                                                                
