 2017  520 0800 50.6 L   6.814 -73.127150.0  RSN  7 0.3 1.5LRSN                1
 GAP=120        0.65       3.3     3.7  5.3 -0.3219E+01 -0.9456E+00  0.2220E+01E
 Epicentro: LOS SANTOS - SANTANDER                                             3
 ACTION:UPD 17-06-16 13:37 OP:jn   STATUS:               ID:20170520080050 L   I
 OLDACT:UP  17-05-20 17:07 OP:cog  STATUS:               ID:20170520075735     3
 OLDACT:REG 17-05-20 12:41 OP:dnl  STATUS:               ID:20170520075735     3
 2017-05-20-0758-00M.COL___359                                                 6
 STAT SP IPHASW D HRMM SECON CODA AMPLIT PERI AZIMU VELO AIN AR TRES W  DIS CAZ7
 BRR  HZ EP        8 1 11.95                             153   -0.3210 72.3 297 
 BRR  HN ES        8 1 29.54                             153    0.3710 72.3 297 
 BRR  HZ I         8 1 33.67         9.2 0.30            151           72.3 297 
 PAM  EZ EP        8 1 13.19                             152    0.0610 74.9  39 
 PAM  EE ES        8 1 30.49                             152   -0.2110 74.9  39 
 RUS  HZ EP        8 1 15.03                             144    0.1610  102 177 
 RUS  HE ES        8 1 33.80                             144   -0.0010  102 177 
 RUS  HZ I         8 1 35.16         4.5 0.30            145            102 177 
 PTB  HZ EP   9    8 1 17.45                             132   -0.67 0  150 258 
 PTB  HN ES        8 1 38.52                             133   -0.40 9  150 258 
 PTB  HZ I         8 1 40.97         3.0 0.16            131            150 258 
 SPBC HN ES   3    8 1 41.02                             129   -1.30 2  166 219 
 NOR  HZ EP   4    8 1 27.44                             119    0.59 0  237 234 
 NOR  HN ES        8 1 55.14                             119    0.02 8  237 234 
 NOR  HZ I         8 2  0.25         3.0 0.15            119            237 234 
 PTGC HZ EP   9    8 1 33.53                             112   -1.20 0  309 159 
 PTGC HN ES        8 2  7.85                             113   -0.10 7  309 159 
                                                                                
