 2014 1120 0607 40.9 L   6.791 -73.126152.4  RSN 12 0.4 1.6LRSN                1
 GAP=140        0.99       3.0     3.9  5.4 -0.6603E+00  0.5928E+01  0.3602E+01E
 Epicentro: LOS SANTOS - SANTANDER                                             3
 ACTION:UPD 14-12-19 15:44 OP:nd   STATUS:               ID:20141120060740 L   I
 OLDACT:DUP 14-11-20 14:56 OP:fm   STATUS:               ID:20141120055744d    3
 2014-11-20-0557-42M.COL___295                                                 6
 STAT SP IPHASW D HRMM SECON CODA AMPLIT PERI AZIMU VELO AIN AR TRES W  DIS CAZ7
 BAR2 SZ EP        6 8  1.49                             171    0.2110 22.9 196 
 BAR2 SZ ES        6 8 17.17                             171   -0.0410 22.9 196 
 BAR2 SZ I         6 8 19.21         6.7 0.30            169           22.9 196 
 BRR  HZ EP        6 8  2.76                             153   -0.1010 73.6 298 
 BRR  HN ES        6 8 20.82                             153    0.8010 73.6 298 
 BRR  HZ I         6 8 25.60         3.7 0.20            150           73.6 298 
 PAM  SZ EP     C  6 8  4.28                             152    0.5310 76.8  38 
 PAM  SN ES        6 8 21.18                             152   -0.4210 76.8  38 
 PAM  SZ I         6 8 23.38         6.7 0.40            156           76.8  38 
 RUS  HZ EP        6 8  5.35                             145    0.1610 99.5 177 
 RUS  HE ES        6 8 24.41                             145    0.2410 99.5 177 
 RUS  HZ I         6 8 25.66         2.8 0.50            148           99.5 177 
 PTB  HZ EP        6 8  8.22                             133   -0.33 9  150 259 
 PTB  HN ES        6 8 29.55                             133   -0.60 9  150 259 
 PTB  HZ I         6 8 35.31         5.3 0.22            132            150 259 
 OCA  HN ES        6 8 31.89                             131   -0.50 9  162 352 
 OCA  HZ I         6 8 40.07         3.4 0.26            132            162 352 
 SPBC HZ EP        6 8 10.33                             130    0.40 9  164 220 
 SPBC HN ES        6 8 32.05                             130   -0.56 9  164 220 
 SPBC HZ I         6 8 39.61         7.7 0.40            131            164 220 
 ZAR  HZ EP        6 8 13.78                             123   -0.21 8  206 292 
 ZAR  HN ES        6 8 39.87                             123    0.03 8  206 292 
 ZAR  HZ I         6 8 45.81         4.5 0.32            124            206 292 
 CHI  HZ EP        6 8 18.42                             118   -0.47 8  248 196 
 CHI  HN ES        6 8 48.36                             118   -0.20 8  248 196 
 CHI  HZ I         6 8 55.42         2.0 0.22            120            248 196 
 HEL  HZ EP        6 8 21.83                             116    0.20 8  274 256 
 HEL  HN ES        6 8 54.11                             116    0.68 8  274 256 
 HEL  HZ I         6 9  0.22         2.4 0.38            117            274 256 
 MON  HN ES   4    6 9  4.18                             110   -4.85 0  356 308 
 MON  HZ I         6 9 15.27         0.9 0.24            111            356 308 
 PRA  HZ EP        6 8 34.62                             108   -0.02 6  392 210 
 PRA  HN ES        6 9 16.71                             108    0.11 6  392 210 
 PRA  HZ I         6 9 22.98         2.1 0.58            109            392 210 
                                                                                
