 2014  520 0154 40.6 L   6.799 -73.119137.9  RSN 11 0.5 1.7LRSN                1
 GAP=140        0.93       2.6     4.0  6.4 -0.1041E+01  0.4772E+01  0.7518E+00E
 Epicentro: LOS SANTOS - SANTANDER                                             3
 ACTION:UPD 15-03-16 16:59 OP:nd   STATUS:               ID:20140520015440 L   I
 OLDACT:REG 14-05-20 12:15 OP:spq  STATUS:               ID:20140520014811     3
 2014-05-20-0148-11M.COL___254                                                 6
 STAT SP IPHASW D HRMM SECON CODA AMPLIT PERI AZIMU VELO AIN AR TRES W  DIS CAZ7
 BRR  HN ES   1    155 18.09                             150    1.04 7 73.8 298 
 BRR  HZ I         155 23.45        15.3 0.42            149           73.8 298 
 PAM  SZ EP        155  2.40                             150    0.4910 75.6  38 
 PAM  SN ES   1    155 18.18                             150   -0.32 7 75.6  38 
 PAM  SZ I         155 20.44         5.6 0.16            155           75.6  38 
 RUS  HZ EP        155  3.22                             142   -0.3810  100 178 
 RUS  HE ES        155 21.46                             142   -0.0510  100 178 
 RUS  HZ I         155 24.01         3.0 0.27            146            100 178 
 PTB  HZ EP        155  7.07                             130   -0.17 9  151 259 
 PTB  HN ES        155 27.68                             130   -0.31 9  151 259 
 PTB  HZ I         155 33.45         4.8 0.20            131            151 259 
 OCA  HZ EP   1    155  8.83                             128    0.44 7  161 352 
 OCA  HN ES        155 29.64                             128   -0.40 9  161 352 
 OCA  HZ I         155 33.56         4.8 0.28            131            161 352 
 SPBC HE ES        155 30.87                             127    0.26 9  165 220 
 SPBC HZ I         155 35.62         5.4 0.19            129            165 220 
 ZAR  HZ EP        155 13.10                             120    0.23 8  207 292 
 ZAR  HE ES        155 38.08                             120    0.07 8  207 292 
 ZAR  HZ I         155 44.42         7.1 0.24            122            207 292 
 SML  HZ EP   1    155 16.53                             116   -0.45 6  245 335 
 SML  HE ES   1    155 44.65                             116   -0.67 6  245 335 
 SML  HZ I         155 52.68        10.5 0.26            118            245 335 
 CHI  HZ EP   1    155 18.21                             115    0.22 6  249 196 
 CHI  HN ES   1    155 46.45                             115   -0.67 6  249 196 
 CHI  HZ I         155 52.00         2.2 0.32            118            249 196 
 GUY2CHZ EP   1    155 25.02                             111    0.86 5  304 235 
 GUY2CHE ES   1    155 57.49                             111   -0.61 5  304 235 
 GUY2CHZ I         156  7.48         1.8 0.32                           304 235 
 PRA  HZ EP        155 34.53                             105    0.47 6  393 210 
 PRA  HN ES   1    156 15.53                             105   -0.19 4  393 210 
 PRA  HZ I         156 22.00         2.1 0.30            107            393 210 
                                                                                
