 2013 1220 0715  3.1 L   6.832 -73.034147.3  RSN  4 0.1 1.0LRSN                1
 GAP=211        0.31       8.4    18.2  9.0  0.1471E+03 -0.1361E+03 -0.6550E+02E
 Epicentro: CEPITA - SANTANDER                                                 3
 ACTION:UPD 14-01-13 10:19 OP:ep   STATUS:               ID:20131220071503 L   I
 OLDACT:REG 13-12-20 07:39 OP:jn   STATUS:               ID:20131220071000     3
 2013-12-20-0710-00M.COL___285                                                 6
 STAT SP IPHASW D HRMM SECON CODA AMPLIT PERI AZIMU VELO AIN AR TRES W  DIS CAZ7
 BAR2 SZ EP   2    715 23.21                             167    0.11 5 31.2 212 
 BAR2 SZ I         715 41.19         4.9 0.38             98           31.2 212 
 BRR  HZ EP     D  715 25.03                             150    0.0510 80.9 292 
 BRR  HE ES   2    715 42.00                             150   -0.05 5 80.9 292 
 RUS  HZ EP        715 27.20                             143   -0.0510  104 183 
 RUS  HN ES        715 46.09                             143    0.0010  104 183 
 RUS  HZ I         715 46.59         0.8 0.52             97            104 183 
 SML  HE ES   2    716  8.78                             117   -0.11 4  246 332 
                                                                                
