 2012 1120 0952 11.1 L   6.732 -73.206144.8  RSN  5 0.2 1.5LRSN                1
 GAP=224        0.43       4.1     4.0  4.3  0.9714E+01  0.1901E+01 -0.1594E+01E
 Epicentro: VILLANUEVA - SANTANDER                                             3
 ACTION:UPD 12-12-05 15:34 OP:}ep  STATUS:               ID:20121120095211 L   I
 2012-11-20-0950-00M.COL___233                                                 6
 STAT SP IPHASW D HRMM SECON CODA AMPLIT PERI AZIMU VELO AIN AR TRES W  DIS CAZ7
 BAR2 SZ EP   2    952 30.30                             174   -0.14 5 15.7 170 
 BAR2 SZ ES   2    952 44.94                             174   -0.62 5 15.7 170 
 BAR2 SZ I         952 46.46        10.6 0.45                          15.7 170 
 BRR  HZ EP        952 32.18                             153    0.1710 69.6 307 
 BRR  HZ I         952 44.55         6.3 0.22                          69.6 307 
 BRR  HE ES   1    952 48.57                             153    0.21 7 69.6 307 
 RUS  HZ EP   1    952 34.25                             146    0.01 7 93.8 172 
 RUS  HN ES   1    952 52.45                             146    0.13 7 93.8 172 
 RUS  HN I         952 54.05         4.9 0.24                          93.8 172 
 PTB  HZ EP        952 37.12                             134   -0.12 9  140 261 
 PTB  HN ES   1    952 57.66                             134    0.00 7  140 261 
 PTB  HZ I         953  0.43         3.7 0.17                           140 261 
 ZAR  HZ EP   1    952 43.08                             123   -0.04 6  201 295 
 ZAR  HE ES   1    953  7.98                             123   -0.14 6  201 295 
 ZAR  HZ I         953 13.77         3.5 0.42                           201 295 
                                                                                
