 2010  220 0524  3.1 L   6.817 -73.069144.9  RSN  6 0.2 1.8LRSN                1
 GAP=191        0.42       2.4     7.3  4.6  0.9371E+00 -0.3692E-02  0.1735E+01E
 Epicentro: LOS SANTOS - SANTANDER                                             3
 ACTION:UP  10-08-24 09:49 OP:vdl  STATUS:               ID:20100220052403 L   I
 2010-02-20-0520-00S.COL___095                                                 6
 STAT SP IPHASW D HRMM SECON CODA AMPLIT PERI AZIMU VELO SNR AR TRES W  DIS CAZ7
 BAR2 SZ EP   1    524 22.80                             169     0.0 7   28 207 
 BAR2 SZ ES   2    524 37.49                             169    -0.6 5   28 207 
 BRR  HZ EP   1    524 24.60                             150     0.0 7   78 294 
 BRR  HE ES   2    524 41.47                             150     0.2 5   78 294 
 BRR  HZ I         524 45.65        11.2 0.48                            78 294 
 RUS  BZ EP   1    524 26.90                             143     0.0 7  102 181 
 RUS  BE ES   2    524 45.74                             143     0.3 5  102 181 
 RUS  BZ I         524 47.30         7.6 0.31                           102 181 
 OCA  SZ EP   1    524 31.26                             129     0.0 7  160 350 
 OCA  SZ ES   2    524 53.39                             129     0.1 5  160 350 
 OCA  SZ I         524 56.66        13.1 0.15                           160 350 
 CHI  HZ EP   1    524 41.38                             116     0.2 6  253 197 
 CHI  HE ES   2    525 11.12                             116     0.2 4  253 197 
 CHI  HZ I         525 15.68         2.8 0.51                           253 197 
 PRA  HZ EP   1    524 56.93                             106    -0.4 4  398 211 
 PRA  HN ES   2    525 39.37                             106    -0.2 3  398 211 
 PRA  HZ I         525 45.28         2.8 0.31                           398 211 
                                                                                
