 2012  120 0046 40.2 L   6.763 -73.094148.9  RSN 18 0.4 4.0LRSN                1
 GAP=145        0.84       2.8     4.0  5.0 -0.1553E+01  0.6021E+01  0.3471E+01E
 Epicentro: LOS SANTOS - SANTANDER                                             3
 ACTION:UP  12-02-03 08:18 OP:REBC STATUS:               ID:20120120004640 L   I
 2012-01-20-0040-00M.COL___187                                                 6
 STAT SP IPHASW D HRMM SECON CODA AMPLIT PERI AZIMU VELO SNR AR TRES W  DIS CAZ7
 BAR2 SZ IP        047  0.09                             172    -0.110   21 207 
 BAR2 SZ ES   1    047 15.42                             172    -0.3 7   21 207 
 BAR2 SZ I         047 16.98      2054.6 0.33                            21 207 
 PAM  SZ IP        047  2.93                             151     0.210   77  34 
 PAM  SN ES   1    047 20.32                             151     0.0 7   77  34 
 BRR  HZ IP     C  047  2.04                             151    -0.110   78 299 
 BRR  HZ I         047  2.35      3457.8 0.14                            78 299 
 BRR  HN ES   1    047 19.52                             151     0.4 7   78 299 
 RUS  HZ IP     D  047  3.87                             146    -0.110   96 179 
 RUS  HN ES   1    047 22.62                             146     0.1 7   96 179 
 RUS  HZ I         047 24.05       619.0 0.26                            96 179 
 PTB  HE ES   2    047 28.87                             132    -0.6 5  153 261 
 OCA  SZ EP        047  9.57                             129     0.4 9  165 351 
 OCA  SZ ES   2    047 31.87                             129     0.0 5  165 351 
 OCA  SZ I         047 37.82      1210.9 0.29                           165 351 
 ZAR  HZ EP   1    047 12.80                             122    -0.8 6  211 293 
 ZAR  HE ES   1    047 39.38                             122    -0.2 6  211 293 
 ZAR  HZ I         047 43.98      1097.1 0.45                           211 293 
 NOR  SZ EP        047 15.84                             119    -0.5 8  237 236 
 NOR  SN ES   2    047 45.05                             119     0.5 4  237 236 
 CHI  HZ IP     D  047 17.58                             118    -0.2 8  246 197 
 CHI  HN ES   1    047 46.79                             118    -0.4 6  246 197 
 CHI  HZ I         047 55.32       433.0 0.34                           246 197 
 ROSC BZ IP     D  047 19.55                             117     1.1 8  252 213 
 ROSC BN ES   2    047 48.35                             117     0.1 4  252 213 
 ROSC BZ I         047 57.89       762.3 0.49                           252 213 
 HEL  HZ EP        047 20.47                             115    -0.6 7  277 257 
 HEL  HE ES   2    047 53.29                             115     0.3 4  277 257 
 HEL  HZ I         047 58.86       673.2 0.33                           277 257 
 VIL  SZ EP   1    047 23.14                             113    -0.3 5  301 193 
 VIL  SN ES   1    047 57.16                             113     0.0 5  301 193 
 VIL  SZ I         048 11.38       235.9 0.40                           301 193 
 GUY  SZ EP   1    047 24.63                             112     0.1 5  306 236 
 GUY  SN ES   1    047 59.53                             112     0.5 5  306 236 
 GUY  SZ I         048  8.03       747.1 0.40                           306 236 
 RREF HZ EP        047 26.75                             111     0.1 7  323 231 
 RREF HN ES   2    048  3.19                             111     0.3 3  323 231 
 RREF HZ I         048 12.35       519.1 0.34                           323 231 
 DBB  SZ ES   2    048  6.35                             110     0.2 3  345 275 
 TOL  SZ EP        047 29.34                             110     0.6 7  345 226 
 TOL  SZ ES   2    048  6.67                             110     0.1 3  345 226 
 COD  HN ES   2    048  7.12                             109    -0.4 3  353 354 
 COD  HZ I         048 14.93       722.0 0.51                           353 354 
 PRA  HZ EP        047 33.47                             107    -0.3 6  391 211 
 PRA  HN ES   2    048 15.49                             107     0.0 3  391 211 
                                                                                
