 2013  820 0717 56.5 L   6.782 -73.158155.7  RSN  6 0.4 1.9LRSN                1
 GAP=235        0.94       5.5     6.0  8.3  0.1411E+02 -0.4291E+01 -0.6540E+01E
 Epicentro: LOS SANTOS - SANTANDER                                             3
 ACTION:UPD 14-01-14 09:05 OP:ep   STATUS:               ID:20130820071756 L   I
 OLDACT:REG 13-08-20 14:02 OP:mh   STATUS:               ID:20130820071741     3
 2013-08-20-0717-41M.COL___192                                                 6
 STAT SP IPHASW D HRMM SECON CODA AMPLIT PERI AZIMU VELO AIN AR TRES W  DIS CAZ7
 BAR2 SZ EP        718 17.20                             172   -0.0610 21.2 187 
 BAR2 SZ I         718 33.70         8.6 0.20            171           21.2 187 
 BRR  HZ EP        718 19.11                             154    0.4210 71.0 300 
 BRR  HN ES        718 36.35                             154    0.3310 71.0 300 
 BRR  HN I         718 36.88        24.9 0.28            154           71.0 300 
 RUS  HZ EP        718 21.28                             146    0.2010 98.7 175 
 RUS  HN ES        718 39.68                             146   -0.6010 98.7 175 
 RUS  HN I         718 40.47         4.9 0.40            144           98.7 175 
 PTB  HZ EP        718 23.89                             135   -0.23 9  146 259 
 PTB  HN ES        718 45.47                             135   -0.21 9  146 259 
 PTB  HN I         718 49.94        14.9 0.50            133            146 259 
 SPBC HZ EP   1    718 26.00                             132    0.47 7  161 219 
 SPBC HN ES        718 48.59                             132    0.39 9  161 219 
 SPBC HN I         718 56.59        18.1 0.10            130            161 219 
 ZAR  HZ EP   1    718 28.66                             125   -0.88 6  204 293 
 ZAR  HN ES        718 55.19                             125   -0.13 9  204 293 
 ZAR  HN I         719  0.52         9.7 0.18            123            204 293 
                                                                                
