 2013  520 0528 28.1 L   6.801 -73.177141.7  RSN  7 0.4 2.2LRSN                1
 GAP=133        1.18       4.5     5.9  7.1 -0.3277E+01  0.4815E+01 -0.1710E+01E
 Epicentro: LOS SANTOS - SANTANDER                                             3
 ACTION:UPD 13-06-20 09:52 OP:ep   STATUS:               ID:20130520052828 L   I
 2013-05-20-0518-50M.COL___215                                                 6
 STAT SP IPHASW D HRMM SECON CODA AMPLIT PERI AZIMU VELO AIN AR TRES W  DIS CAZ7
 BAR2 SZ EP        528 47.24                             170   -0.0410 23.1 182 
 BAR2 SZ ES        529  1.84                             170   -0.3610 23.1 182 
 BAR2 SZ I         529  3.00        21.9 0.44            172           23.1 182 
 GIR2 SZ EP        528 47.38                             167    0.0610 30.7 357 
 GIR2 SZ ES        529  2.21                             167   -0.0610 30.7 357 
 BRR  HZ EP        528 49.20                             153    0.5210 68.1 300 
 BRR  HN ES        529  5.79                             153    1.0910 68.1 300 
 BRR  HN I         529  6.28        53.8 0.20            152           68.1 300 
 PAM  SZ EP        528 50.33                             149    0.2710 79.5  42 
 PAM  SZ I         528 50.53        23.3 0.24            149           79.5  42 
 PAM  SN ES        529  7.10                             149   -0.0510 79.5  42 
 RUS  HZ EP        528 51.61                             143    0.0810  101 174 
 RUS  HN ES        529  9.65                             143   -0.1210  101 174 
 PTB  HZ EP        528 54.37                             132   -0.11 9  144 259 
 PTB  HN ES        529 14.36                             132   -0.65 9  144 259 
 OCA  HN EP        528 56.05                             129   -0.05 9  160 354 
 OCA  HN ES        529 17.08                             129   -0.81 9  160 354 
 OCA  HN I         529 21.05        22.5 0.44            129            160 354 
                                                                                
