 2010  120 0409 32.5 L   6.833 -72.969142.0  RSN  6 0.4 1.7LRSN                1
 GAP=201        0.91       3.9    19.4  6.5 -0.1929E+02  0.1722E+02  0.1549E+01E
 Epicentro: LOS SANTOS - SANTANDER                                             3
 ACTION:UP  10-08-24 09:45 OP:vdl  STATUS:               ID:20100120040932 L   I
 2010-01-20-0406-11S.COL___096                                                 6
 STAT SP IPHASW D HRMM SECON CODA AMPLIT PERI AZIMU VELO SNR AR TRES W  DIS CAZ7
 BAR2 SZ EP        4 9 51.97                             165     0.010   36 222 
 BAR2 SZ ES   1    410  6.54                             165    -0.6 7   36 222 
 GIR2 SZ EP   1    4 9 52.14                             165     0.3 7   37 318 
 GIR2 SZ ES   1    410  7.15                             165     0.2 7   37 318 
 RUS  BZ EP        4 9 56.00                             142    -0.210  105 187 
 RUS  BN ES        410 14.67                             142     0.010  105 187 
 RUS  BZ I         410 16.26         6.1 0.61                           105 187 
 OCA  SZ EP        410  0.64                             129     0.1 9  160 346 
 OCA  SZ ES   2    410 22.29                             129    -0.1 5  160 346 
 CHI  HZ EP        410 10.62                             115    -0.4 8  258 199 
 CHI  HN ES        410 42.03                             115     1.0 8  258 199 
 CHI  HZ I         410 42.73         3.9 0.68                           258 199 
 PRA  HZ EP        410 27.03                             105    -0.4 6  405 212 
 PRA  HE ES   2    411  9.34                             105    -0.9 3  405 212 
                                                                                
