 2013  120 0925 28.9 L   6.192 -73.677115.3  RSN  4 0.2 0.9LRSN                1
 GAP=131        0.45       4.8     3.7  7.8 -0.1371E+00  0.1134E+01  0.2340E+02E
 Epicentro: LA PAZ - SANTANDER                                                 3
 ACTION:UPD 13-02-15 09:15 OP:ep   STATUS:               ID:20130120092528 L   I
 2013-01-20-0920-00M.COL___241                                                 6
 STAT SP IPHASW D HRMM SECON CODA AMPLIT PERI AZIMU VELO AIN AR TRES W  DIS CAZ7
 BAR2 SZ ES   1    926  1.22                             147   -0.09 7 70.4  51 
 PTB  HN ES   1    926  3.89                             138   -0.07 7 94.4 294 
 PTB  HZ I         926  4.73         1.2 0.34             47           94.4 294 
 BRR  HZ EP   1    925 48.96                             136   -0.17 7  101 358 
 BRR  HN ES   2    926  5.41                             136    0.47 5  101 358 
 BRR  HZ I         926  5.84         2.1 0.16             47            101 358 
 CHI  HZ EP   1    925 56.80                             120    0.15 7  173 182 
 CHI  HZ I         926 23.46         0.8 0.52             37            173 182 
                                                                                
