 2014  320 0242  6.9 L   6.788 -73.103146.0  RSN  8 0.4 1.7LRSN                1
 GAP=204        0.73       3.6     4.9 10.5  0.6438E+00 -0.8332E+01 -0.1769E+02E
 Epicentro: LOS SANTOS - SANTANDER                                             3
 OLDACT:REG 14-03-20 07:32 OP:fm   STATUS:               ID:20140320023811     3
 ACTION:UPD 14-04-09 23:19 OP:nd   STATUS:               ID:20140320024207dL   I
 OLDACT:UP  14-03-20 09:07 OP:fm   STATUS:               ID:20140320023811     3
 2014-03-20-0238-11M.COL___241                                                 6
 STAT SP IPHASW D HRMM SECON CODA AMPLIT PERI AZIMU VELO AIN AR TRES W  DIS CAZ7
 BAR2 SZ EP        242 27.03                             171    0.4810 23.4 202 
 BAR2 SZ I         242 53.87         9.8 0.26            172           23.4 202 
 RUS  HZ EP   2    242 29.99                             145   -0.56 5 99.1 179 
 RUS  HN ES   2    242 48.88                             145   -0.13 5 99.1 179 
 RUS  SZ I         242 51.75         4.6 0.48            151           99.1 179 
 PTB  HZ EP        242 33.77                             132   -0.50 9  152 260 
 PTB  HE ES        242 55.72                             132    0.09 9  152 260 
 PTB  SZ I         243  3.80         4.3 0.42            144            152 260 
 SPBC HZ EP   1    242 35.63                             129    0.04 7  165 221 
 SPBC HN ES        242 57.87                             129   -0.11 9  165 221 
 SPBC SZ I         243  0.59         7.6 0.18            140            165 221 
 ZAR  HZ EP   2    242 40.68                             122    0.83 4  209 292 
 ZAR  HE ES   1    243  5.44                             122   -0.12 6  209 292 
 ZAR  SZ I         243 11.90         6.8 0.32            131            209 292 
 NOR  HN ES   1    243 11.14                             119    0.04 6  238 235 
 SML  HZ EP        242 43.61                             118   -0.26 8  247 334 
 SML  HN ES        243 12.73                             118    0.01 8  247 334 
 SML  SZ I         243 17.41         6.0 0.08            123            247 334 
 HEL  HN ES   2    243 20.44                             115    1.12 4  276 256 
 SJC  HZ EP   4    243  1.35                             106   -1.54 0  413 327 
 SJC  HE ES   4    243 43.99                             106   -2.58 0  413 327 
                                                                                
