 2014 1020 0952  6.0 L   6.754 -73.177142.9  RSN  5 0.4 1.2LRSN                1
 GAP=135        1.02       5.8     4.9 11.1  0.2418E+01  0.1289E+02 -0.1771E+02E
 Epicentro: LOS SANTOS - SANTANDER                                             3
 ACTION:UPD 14-11-29 23:51 OP:nd   STATUS:               ID:20141020095206 L   I
 OLDACT:UP  14-10-20 19:10 OP:mh   STATUS:               ID:20141020094748     3
 OLDACT:UP  14-10-20 19:10 OP:mh   STATUS:               ID:20141020094748     3
 OLDACT:UP  14-10-20 19:10 OP:mh   STATUS:               ID:20141020094748     3
 OLDACT:UP  14-10-20 19:09 OP:mh   STATUS:               ID:20141020094748     3
 OLDACT:UP  14-10-20 19:09 OP:mh   STATUS:               ID:20141020094748     3
 OLDACT:UP  14-10-20 19:06 OP:mh   STATUS:               ID:20141020094748     3
 OLDACT:REG 14-10-20 13:03 OP:mh   STATUS:               ID:20141020094748     3
 2014-10-20-0947-48M.COL___256                                                 6
 STAT SP IPHASW D HRMM SECON CODA AMPLIT PERI AZIMU VELO AIN AR TRES W  DIS CAZ7
 BAR2 SZ EP   1    952 24.55                             172   -0.66 7 17.9 182 
 BAR2 SZ I         952 43.12         4.6 0.18            174           17.9 182 
 PAM  SZ EP        952 28.51                             148    0.1910 83.5  39 
 PAM  SN ES   1    952 45.60                             148   -0.11 7 83.5  39 
 RUS  HZ EP        952 29.85                             144    0.7010 95.8 174 
 RUS  HN ES        952 47.00                             144   -0.1910 95.8 174 
 RUS  HZ I         952 49.42         1.9 0.34            146           95.8 174 
 PTB  HZ EP   1    952 31.52                             132   -0.84 7  143 261 
 PTB  HN ES        952 52.97                             132    0.06 9  143 261 
 PTB  HZ I         952 59.22         2.6 0.50            132            143 261 
 ZAR  HZ EP        952 37.92                             122   -0.23 9  203 294 
 ZAR  HN ES        953  3.58                             122    0.36 9  203 294 
 ZAR  HZ I         953 10.70         1.9 0.15            122            203 294 
                                                                                
