 2010  520 0436 44.0 L   6.800 -72.956149.6  RSN  4 0.1 1.8LRSN                1
 GAP=226        0.28       2.9     6.3  4.6 -0.1874E+01 -0.7174E+01  0.3836E+01E
 Epicentro: CEPITA - SANTANDER                                                 3
 ACTION:UP  10-08-24 10:05 OP:vdl  STATUS:               ID:20100520043643 L   I
 2010-05-20-0420-00S.COL___104                                                 6
 STAT SP IPHASW D HRMM SECON CODA AMPLIT PERI AZIMU VELO AIN AR TRES W  DIS CAZ7
 BAR2 SZ EP   2    437  4.44                             167     0.1 5   34 227 
 BAR2 SZ ES   2    437 20.21                             167     0.0 5   34 227 
 BRR  HZ EP   2    437  6.74                             147     0.0 5   90 292 
 BRR  HZ I         437  7.29         8.9 0.11                            90 292 
 BRR  HN ES   1    437 24.47                             147     0.0 7   90 292 
 OCA  SZ EP   3    437 13.27                             130     0.3 2  164 346 
 OCA  SZ ES   2    437 35.50                             130    -0.1 5  164 346 
 OCA  SZ I         437 40.82         5.6 0.36                           164 346 
 PRA  HZ EP   2    437 38.70                             107    -0.2 3  403 212 
 PRA  HN ES   2    438 21.84                             107     0.1 3  403 212 
 PRA  HZ I         438 26.02         2.0 0.29                           403 212 
                                                                                
