 2010 1020 0555  4.9 L   6.792 -73.107140.0  RSN  4 0.2 1.2LRSN                1
 GAP=163        0.53       6.2    12.2 13.3  0.3901E+02 -0.1241E+03 -0.4214E+02E
 Epicentro: LOS SANTOS - SANTANDER                                             3
 ACTION:UP  11-02-18 11:10 OP:tino STATUS:               ID:20101020055504 L   I
 2010-10-20-0552-46S.COL___126                                                 6
 STAT SP IPHASW D HRMM SECON CODA AMPLIT PERI AZIMU VELO SNR AR TRES W  DIS CAZ7
 BTL  SZ EP   1    555 24.08                             171     0.3 7   23 308 
 BRR  HZ EP   1    555 25.42                             150    -0.3 7   75 298 
 BRR  HN ES   1    555 41.97                             150     0.1 7   75 298 
 BRR  HZ I         555 43.44         6.1 0.28                            75 298 
 RUS  HZ EP   2    555 28.31                             143     0.3 5   99 178 
 RUS  HN ES   2    555 45.73                             143    -0.3 5   99 178 
 RUS  HZ I         555 48.19         1.4 0.38                            99 178 
 GRA  SZ EP   1    555 29.51                             136    -0.1 7  125  15 
 GRA  SZ I         555 50.07         3.3 0.43                           125  15 
                                                                                
