 2010  420 0233 49.4 L   6.742 -73.156144.6  RSN  8 0.5 2.6LRSN                1
 GAP=141        1.00       5.9     9.7  8.4 -0.2184E+02 -0.1595E+02  0.8652E+01E
 Epicentro: JORDAN - SANTANDER                                                 3
 ACTION:UPD 10-08-24 10:00 OP:vdl  STATUS:               ID:20100420023359 L   I
 2010-04-20-0232-00S.COL___100                                                 6
 STAT SP IPHASW D HRMM SECON CODA AMPLIT PERI AZIMU VELO AIN AR TRES W  DIS CAZ7
 BAR2 SZ IP        234  8.74                             173    -0.110   17 190 
 BAR2 SZ ES   1    234 23.66                             173    -0.3 7   17 190 
 BRR  HZ IP     C  234 11.08                             152     0.510   74 303 
 BRR  HE ES   1    234 27.60                             152     0.5 7   74 303 
 OCA  SZ EP   1    234 18.20                             128     0.0 7  167 354 
 OCA  SZ ES   1    234 39.60                             128    -1.1 7  167 354 
 OCA  SZ I         234 42.78       111.3 0.46                           167 354 
 CHI  HZ EP   3    234 26.19                             117    -0.2 2  242 195 
 CHI  HE ES   3    234 54.53                             117    -0.6 2  242 195 
 CHI  HZ I         234 59.66        14.7 0.25                           242 195 
 HEL  HZ EP   2    234 28.96                             115    -0.3 4  269 257 
 HEL  HZ I         235  4.38        29.6 0.52                           269 257 
 RREF BN ES   2    235 10.65                             111     0.2 3  317 230 
 RREF BZ I         235 21.41        16.0 0.58                           317 230 
 SDV  BZ IP     C  234 40.57                             107     0.6 6  365  50 
 PRA  HZ EP   1    234 41.93                             106    -0.3 4  386 210 
 PRA  HE ES   1    235 22.68                             106    -0.7 4  386 210 
 PRA  HZ I         235 27.99        12.3 0.49                           386 210 
                                                                                
