 2015 1120 0707  2.4 L   6.778 -73.056154.7  RSN  5 0.4 0.9LRSN                1
 GAP=149        0.94       4.3     6.6  7.2 -0.7994E+01  0.6724E+01 -0.9965E+00E
 Epicentro: LOS SANTOS - SANTANDER                                             3
 ACTION:UPD 15-12-28 16:12 OP:cam  STATUS:               ID:20151120070702 L   I
 OLDACT:UP  15-11-20 17:48 OP:ak   STATUS:               ID:20151120065739d    3
 OLDACT:DUP 15-11-20 17:44 OP:ak   STATUS:               ID:20151120065739d    3
 OLDACT:DUP 15-11-20 17:27 OP:ak   STATUS:               ID:20151120065738d    3
 OLDACT:UP  15-11-20 17:04 OP:ak   STATUS:               ID:20151120065737     3
 OLDACT:REG 15-11-20 13:21 OP:y    STATUS:               ID:20151120065737     3
 2015-11-20-0657-37M.COL___316                                                 6
 STAT SP IPHASW D HRMM SECON CODA AMPLIT PERI AZIMU VELO AIN AR TRES W  DIS CAZ7
 PAM  EZ EP        7 7 25.75                             153    0.4010 73.5  32 
 PAM  EN ES        7 7 43.25                             153   -0.0210 73.5  32 
 PAM  EZ I         7 7 44.44         1.5 0.42            154           73.5  32 
 BRR  HZ EP        7 7 25.33                             151    0.2510 81.2 297 
 BRR  HN ES        7 7 42.74                             151   -0.0410 81.2 297 
 BRR  HZ I         7 7 43.62         2.2 0.48            152           81.2 297 
 RUS  HZ EP        7 7 27.16                             146    0.3110 97.9 182 
 RUS  HN ES        7 7 45.37                             146   -0.5610 97.9 182 
 RUS  HZ I         7 7 47.01         0.6 0.15            147           97.9 182 
 SPBC HZ EP        7 7 31.63                             130   -0.39 9  168 222 
 SPBC HE ES        7 7 55.54                             130    0.41 9  168 222 
 SML  HZ EP        7 7 39.65                             118   -0.58 8  250 333 
                                                                                
