 2013  120 0813 15.7 L   6.745 -73.188149.7  RSN  4 0.2 1.0LRSN                1
 GAP=228        0.51       6.5     6.2  6.7  0.1101E+02  0.1498E+02  0.3651E+00E
 Epicentro: VILLANUEVA - SANTANDER                                             3
 ACTION:UPD 13-02-15 09:15 OP:ep   STATUS:               ID:20130120081315 L   I
 2013-01-20-0810-00M.COL___241                                                 6
 STAT SP IPHASW D HRMM SECON CODA AMPLIT PERI AZIMU VELO AIN AR TRES W  DIS CAZ7
 BAR2 SZ ES   1    813 50.97                             174   -0.33 7 16.9 178 
 BRR  HZ EP   1    813 37.46                             153    0.22 7 70.4 305 
 BRR  HN ES   1    813 54.21                             153    0.17 7 70.4 305 
 RUS  HN ES   2    813 58.32                             146    0.33 5 95.0 173 
 RUS  HZ I         814  0.30         0.9 0.29            142           95.0 173 
 PTB  HZ EP   1    813 42.24                             134   -0.26 7  142 261 
 PTB  HN ES   1    814  3.42                             134    0.03 7  142 261 
 PTB  HZ I         814  6.70         2.6 0.62            131            142 261 
                                                                                
