 2016  620 0634  9.4 L   6.808 -73.121151.3  RSN 22 0.6 2.3LRSN                1
 GAP=121        1.19       2.8     3.7  5.2 -0.2029E+01  0.5156E+01  0.5680E+00E
 Epicentro: LOS SANTOS - SANTANDER                                             3
 ACTION:UPD 16-07-21 22:20 OP:rebc STATUS:               ID:20160620063409 L   I
 OLDACT:REG 16-06-20 13:30 OP:ar   STATUS:               ID:20160620062744     3
 2016-06-20-0627-44M.COL___343                                                 6
 STAT SP IPHASW D HRMM SECON CODA AMPLIT PERI AZIMU VELO AIN AR TRES W  DIS CAZ7
 BAR2 EZ IP     C  634 29.94                             170    0.1610 24.8 196 
 BAR2 EZ ES        634 45.20                             170   -0.4410 24.8 196 
 BAR2 EZ I         634 46.29        51.5 0.16                          24.8 196 
 BRR  HZ IP     C  634 31.76                             153    0.4510 73.2 297 
 BRR  HN ES        634 48.90                             153    0.5310 73.2 297 
 BRR  HZ I         634 52.12        31.6 0.42                          73.2 297 
 PAM  EZ EP        634 32.80                             152    0.6810 74.9  38 
 PAM  EN ES        634 50.02                             152    0.2210 74.9  38 
 PAM  EZ I         634 51.60        11.8 0.18                          74.9  38 
 RUS  HZ EP        634 33.86                             145    0.0610  101 178 
 RUS  HE ES        634 52.54                             145   -0.2610  101 178 
 RUS  HZ I         634 53.61        28.9 0.20                           101 178 
 PTB  HZ EP        634 36.47                             133   -0.66 9  151 259 
 PTB  HN ES        634 58.24                             133   -0.49 9  151 259 
 PTB  HZ I         634 59.72        28.2 0.16                           151 259 
 OCA  HZ EP        634 38.11                             131   -0.04 9  160 352 
 OCA  HN ES        635  0.69                             131    0.16 9  160 352 
 OCA  HZ I         635  6.76        33.1 0.34                           160 352 
 SPBC HZ EP        634 38.83                             130    0.22 9  166 220 
 SPBC HN ES        635  0.56                             130   -0.79 9  166 220 
 SPBC HZ I         635  6.96        36.9 0.22                           166 220 
 ZAR  HZ EP        634 42.42                             123   -0.07 8  206 292 
 ZAR  HN ES        635  8.08                             123   -0.18 8  206 292 
 ZAR  HZ I         635 13.71        30.7 0.34                           206 292 
 NOR  HZ EP        634 45.84                             119    0.04 8  237 235 
 NOR  HN ES        635 14.57                             119    0.41 8  237 235 
 NOR  HZ I         635 17.39        16.7 0.16                           237 235 
 CHI  HZ EP        634 47.50                             118   -0.13 8  250 196 
 CHI  HN ES        635 16.99                             118   -0.43 8  250 196 
 CHI  HZ I         635 19.82        10.8 0.36                           250 196 
 ROSC BZ EP   4    634 49.60                             118    1.48 0  255 211 
 ROSC BN ES        635 19.02                             118    0.74 8  255 211 
 ROSC BZ I         635 24.70        18.7 0.40                           255 211 
 HEL  HZ EP        634 52.04                             116    1.77 8  275 256 
 HEL  HN ES        635 21.93                             116   -0.18 8  275 256 
 HEL  HZ I         635 28.83        11.1 0.30                           275 256 
 URE  HZ EP   4    634 49.65                             114   -1.39 0  286 292 
 URE  HN ES   4    635 20.51                             114   -2.97 0  286 292 
 URE  HZ I         635 31.52        16.9 0.18                           286 292 
 GUY2CHZ EP   4    634 55.20                             113    1.57 0  304 235 
 GUY2CHN ES        635 28.72                             113    0.63 7  304 235 
 GUY2CHZ I         635 35.78         8.2 0.30                           304 235 
 PTGC HZ EP        634 52.89                             113   -0.65 7  309 159 
 PTGC HN ES   4    635 26.56                             113   -1.38 0  309 159 
 PTGC HZ I         635 29.66         6.6 0.11                           309 159 
 CBOC HZ EP        634 57.82                             111    0.89 7  337 252 
 CBOC HN ES        635 33.89                             111   -0.07 7  337 252 
 CBOC HZ I         635 37.82         3.1 0.20                           337 252 
 DBB  SZ EP        634 57.37                             110   -0.09 7  342 274 
 DBB  SZ ES        635 34.22                             110   -0.69 7  342 274 
 ANIL HZ EP   9    635  1.38                             109    1.61 0  360 225 
 ANIL HN ES        635 41.08                                    0.45 6  360 225 
 ANIL HZ I         635 46.38        18.6 0.32                           360 225 
 PRA  HZ EP        635  2.91                             107   -0.51 6  394 210 
 PRA  HN ES        635 44.76                             107   -0.75 6  394 210 
 PRA  HZ I         635 49.86         8.1 0.64                           394 210 
 PAL  HZ EP        635  4.73                             107   -0.40 6  409 239 
 PAL  HE ES        635 49.12                             107    0.56 6  409 239 
 PAL  HZ I         635 58.42         2.1 0.28                           409 239 
 SJC  HZ EP        635  4.13                             107   -1.15 6  410 327 
 SJC  HN ES        635 48.33                             107   -0.51 6  410 327 
 SJC  HZ I         635 53.17         3.3 0.46                           410 327 
 CRJC HZ EP   1    635 11.05                             104   -0.93 4  467   3 
 CRJC HN ES        636  0.01                             104   -0.75 5  467   3 
 CRJC HZ I         636  3.39         5.8 0.67                           467   3 
                                                                                
