 2016 1020 0908 45.7 L   6.793 -73.108154.0  RSN 14 0.4 1.7LRSN                1
 GAP=123        0.86       3.2     4.3  5.4 -0.4643E+01 -0.1554E+01  0.4922E+01E
 Epicentro: LOS SANTOS - SANTANDER                                             3
 ACTION:UPD 16-11-09 19:21 OP:rebc STATUS:               ID:20161020090845 L   I
 OLDACT:UP  16-10-20 19:24 OP:and  STATUS:               ID:20161020090738     3
 OLDACT:UP  16-10-20 19:21 OP:and  STATUS:               ID:20161020090738     3
 OLDACT:UP  16-10-20 19:19 OP:and  STATUS:               ID:20161020090738     3
 OLDACT:UP  16-10-20 19:12 OP:and  STATUS:               ID:20161020090738     3
 OLDACT:UP  16-10-20 19:11 OP:and  STATUS:               ID:20161020090738     3
 OLDACT:REG 16-10-20 15:12 OP:cog  STATUS:               ID:20161020090738     3
 2016-10-20-0908-00M.COL___334                                                 6
 STAT SP IPHASW D HRMM SECON CODA AMPLIT PERI AZIMU VELO AIN AR TRES W  DIS CAZ7
 BAR2 EZ IP     D  9 9  6.26                             171   -0.0510 23.7 200 
 BAR2 EZ ES        9 9 22.64                             171    0.2410 23.7 200 
 BAR2 EZ I         9 9 24.28         7.1 0.24            167           23.7 200 
 BRR  HZ EP        9 9  8.29                             153    0.3410 75.2 297 
 BRR  HN ES        9 9 25.62                             153    0.3110 75.2 297 
 PAM  EZ EP        9 9  9.21                             153    0.5410 75.4  37 
 PAM  EN ES        9 9 26.39                             153   -0.2010 75.4  37 
 PAM  EZ I         9 9 28.53        13.1 0.58            157           75.4  37 
 RUS  HZ EP   2    9 9  9.91                             146   -0.28 5 99.7 178 
 RUS  HN ES   2    9 9 29.35                             146    0.05 5 99.7 178 
 RUS  HZ I         9 9 30.09         2.6 0.36            145           99.7 178 
 PTB  HZ EP        9 9 13.10                             133   -0.58 9  152 259 
 PTB  HN ES        9 9 35.46                             133   -0.06 9  152 259 
 PTB  HZ I         9 9 41.64         6.2 0.24            131            152 259 
 OCA  HZ EP   2    9 9 15.51                             131    0.75 5  162 352 
 OCA  HE ES        9 9 36.89                             131   -0.55 9  162 352 
 SPBC HZ IP     C  9 9 15.26                             131    0.24 9  165 220 
 SPBC HN ES        9 9 37.39                             131   -0.51 9  165 220 
 SPBC HZ I         9 9 40.39         6.1 0.10            129            165 220 
 NOR  HZ EP   2    9 9 22.61                             120    0.39 4  238 235 
 NOR  HE ES   2    9 9 51.20                             120    0.48 4  238 235 
 NOR  HZ I         9 9 58.07         4.3 0.18            119            238 235 
 CHI  HN ES        9 9 53.65                             119   -0.05 8  249 196 
 HEL  HZ EP   4    9 9 30.24                             116    3.49 0  276 256 
 HEL  HN ES   4    910  4.05                             116    5.27 0  276 256 
 HEL  HZ I         910  5.85         2.7 0.52            115            276 256 
 GUY2CHZ EP   9    9 9 32.93                             114    2.91 0  304 235 
 GUY2CHN ES        910  8.14                                    0.63 7  304 235 
 GUY2CHZ I         910 14.27         2.8 0.36                           304 235 
 PTGC HZ EP        9 9 29.25                             113   -0.42 7  307 159 
 PTGC HN ES   4    910  2.53                             113   -1.46 0  307 159 
 PTGC HZ I         910  8.85         4.2 0.24            114            307 159 
 PRA  HZ EP   4    9 9 40.91                             108    1.24 0  393 210 
 PRA  HN ES   2    910 22.71                             108    0.94 3  393 210 
 PRA  HZ I         910 25.91         2.7 0.38            108            393 210 
 SJC  HZ EP   3    9 9 40.43                             107   -1.43 1  412 327 
 SJC  HN ES   4    910 22.18                             107   -3.50 0  412 327 
 SJC  HZ I         910 25.44         1.0 0.32            107            412 327 
                                                                                
