 2014  520 0754 51.1 L   6.831 -73.130148.8  RSN 27 0.5 2.5LRSN 3.1WRSN        1
 SPEC AVERAGE  MO 13.7 ST0.363 OM  1.7 f0 1.93 R1.3123 AL 0.00 WI 30.0 MW  3.1 3
 SPEC SD       MO  0.3 ST0.595 OM  0.4 f0 1.09 R0.6219 AL      WI      MW  0.2 3
 GAP= 71        1.09       2.3     3.0  5.2 -0.9652E+00  0.4370E+01  0.1589E+01E
 Epicentro: LOS SANTOS - SANTANDER                                             3
 SPEC PAM SH Z MO 13.6 ST0.209 OM  1.7 f0 1.99 R0.9668 AL-0.00 WI 30.0 MW  3.0 3
 SPEC PAM SH Z T 75529 K 0.000 GD  166 VS 5.20 DE 3.50 Q0750.0 QA 1.50 VS 5.20 3
 SPEC OCA HH Z MO 13.6 ST0.534 OM  1.6 f0 2.69 R0.7152 AL-0.00 WI 30.0 MW  3.0 3
 SPEC OCA HH Z T 75539 K 0.000 GD  216 VS 5.20 DE 3.50 Q0750.0 QA 1.50 VS 5.20 3
 SPEC SPBCHH Z MO 13.6 ST  1.9 OM  1.5 f0 4.40 R0.4373 AL-0.00 WI 30.0 MW  3.0 3
 SPEC SPBCHH Z T 75540 K 0.000 GD  223 VS 5.20 DE 3.50 Q0750.0 QA 1.50 VS 5.20 3
 SPEC ZAR HH Z MO 13.5 ST0.888 OM  1.4 f0 3.53 R0.5450 AL-0.00 WI 30.0 MW  3.0 3
 SPEC ZAR HH Z T 75547 K 0.000 GD  252 VS 5.20 DE 3.50 Q0750.0 QA 1.50 VS 5.20 3
 SPEC NOR HH Z MO 13.6 ST0.364 OM  1.4 f0 2.53 R0.7605 AL-0.00 WI 30.0 MW  3.0 3
 SPEC NOR HH Z T 75554 K 0.000 GD  280 VS 5.20 DE 3.50 Q0750.0 QA 1.50 VS 5.20 3
 SPEC ROSCBH Z MO 14.0 ST0.053 OM  1.8 f00.963 R1.9979 AL-0.00 WI 30.0 MW  3.3 3
 SPEC ROSCBH Z T 75559 K 0.000 GD  296 VS 5.20 DE 3.50 Q0750.0 QA 1.50 VS 5.20 3
 SPEC HEL HH Z MO 13.6 ST0.063 OM  1.4 f0 1.36 R1.4147 AL-0.00 WI 30.0 MW  3.0 3
 SPEC HEL HH Z T 756 2 K 0.000 GD  312 VS 5.20 DE 3.50 Q0750.0 QA 1.50 VS 5.20 3
 SPECGUY2CHH Z MO 14.1 ST  0.1 OM  1.8 f00.908 R  2.12 AL-0.00 WI 30.0 MW  3.3 3
 SPECGUY2CHH Z T 756 8 K       GD339.4 VS 5.20 DE 3.50 Q0750.0 QA 1.50 VS 5.20 3
 SPEC RREFHH Z MO 13.9 ST0.060 OM  1.6 f0 1.10 R1.7491 AL-0.00 WI 30.0 MW  3.2 3
 SPEC RREFHH Z T 75613 K 0.000 GD  357 VS 5.20 DE 3.50 Q0750.0 QA 1.50 VS 5.20 3
 SPEC CBOCHH Z MO 13.6 ST0.031 OM  1.3 f0 1.10 R1.7491 AL-0.00 WI 30.0 MW  3.0 3
 SPEC CBOCHH Z T 75614 K 0.000 GD  367 VS 5.20 DE 3.50 Q0750.0 QA 1.50 VS 5.20 3
 SPEC DBB SH Z MO 14.5 ST0.095 OM  2.2 f00.797 R2.4141 AL-0.00 WI 30.0 MW  3.6 3
 SPEC DBB SH Z T 75610 K 0.000 GD  372 VS 5.20 DE 3.50 Q0750.0 QA 1.50 VS 5.20 3
 SPEC PRA HH Z MO 13.7 ST0.045 OM  1.4 f0 1.10 R1.7491 AL-0.00 WI 30.0 MW  3.1 3
 SPEC PRA HH Z T 75625 K 0.000 GD  423 VS 5.20 DE 3.50 Q0750.0 QA 1.50 VS 5.20 3
 SPEC ORTCHH Z MO 13.6 ST0.099 OM  1.3 f0 1.54 R1.2494 AL-0.00 WI 30.0 MW  3.0 3
 SPEC ORTCHH Z T 75627 K 0.000 GD  425 VS 5.20 DE 3.50 Q0750.0 QA 1.50 VS 5.20 3
 OLDACT:DUP 14-05-20 16:51 OP:fm   STATUS:               ID:20140520074817d    3
 ACTION:UPD 15-03-16 16:59 OP:nd   STATUS:               ID:20140520075451 L   I
 OLDACT:UP  14-05-20 17:09 OP:fm   STATUS:               ID:20140520074817d    3
 2014-05-20-0748-16M.COL___251                                                 6
 STAT SP IPHASW D HRMM SECON CODA AMPLIT PERI AZIMU VELO AIN AR TRES W  DIS CAZ7
 BRR  HZ IP     C  755 12.94                             153    0.3610 71.2 295 
 BRR  HE ES        755 30.29                             153    0.9610 71.2 295 
 BRR  HZ I         755 33.85        36.7 0.10            141           71.2 295 
 PAM  SZ EP     C  755 13.85                             152    0.4210 73.7  40 
 PAM  SN ES        755 31.15                             152    0.3110 73.7  40 
 PAM  HZ I         755 32.80        42.3 0.54            142           73.7  40 
 RUS  HZ EP        755 15.25                             144   -0.1410  104 177 
 RUS  HE ES        755 33.93                             144   -0.4010  104 177 
 RUS  HZ I         755 34.66        36.7 0.36            135            104 177 
 PTB  HZ EP        755 17.67                             132   -0.86 9  150 258 
 PTB  HE ES   1    755 38.83                             132   -1.09 7  150 258 
 PTB  HZ I         755 44.77        33.7 0.28            120            150 258 
 TAM  HZ IP     C  755 19.23                             131    0.28 9  154 106 
 TAM  HE ES        755 40.63                             131   -0.05 9  154 106 
 TAM  HZ I         755 41.81        18.8 0.42            121            154 106 
 OCA  HZ EP        755 19.25                             131   -0.11 9  157 352 
 OCA  HN ES        755 41.01                             131   -0.39 9  157 352 
 OCA  HZ I         755 46.74        59.3 0.32            118            157 352 
 SPBC HZ EP        755 20.08                             129   -0.10 9  167 219 
 SPBC HN ES        755 42.19                             129   -0.68 9  167 219 
 SPBC HZ I         755 44.61        58.9 0.48            118            167 219 
 ZAR  HZ EP        755 23.63                             123   -0.15 9  204 291 
 ZAR  HE ES        755 49.35                             123    0.08 9  204 291 
 ZAR  HZ I         755 56.01        42.3 0.32            112            204 291 
 NOR  HZ EP        755 27.17                             119   -0.20 8  238 234 
 NOR  HE ES        755 55.57                             119   -0.08 8  238 234 
 NOR  HZ I         756  0.23        31.7 0.18            109            238 234 
 SML  HZ EP        755 27.43                             118   -0.22 8  241 335 
 SML  HE ES        755 55.88                             118   -0.27 8  241 335 
 SML  HZ I         756  5.42        58.2 0.08            107            241 335 
 CHI  HZ EP        755 29.33                             117   -0.04 8  252 195 
 CHI  HE ES        755 58.39                             117   -0.83 8  252 195 
 CHI  HZ I         756  3.78        12.2 0.30            108            252 195 
 ROSC BZ EP        755 29.93                             117    0.13 8  257 211 
 ROSC BN ES   1    756  0.50                             117    0.52 6  257 211 
 ROSC HZ I         756  5.82        23.2 0.50            107            257 211 
 HEL  HZ EP        755 31.84                             115    0.10 8  275 255 
 HEL  HE ES        756  3.68                             115    0.23 8  275 255 
 HEL  HZ I         756  9.31        16.0 0.32            105            275 255 
 URE  HZ EP        755 31.48                             114   -0.88 7  284 291 
 URE  HE ES   4    756  2.82                             114   -1.72 0  284 291 
 URE  HZ I         756 14.41        21.9 0.18            104            284 291 
 GUY2CHZ EP        755 35.91                             113    0.68 7  305 234 
 GUY2CHE ES        756  9.99                             113    0.34 7  305 234 
 GUY2CHZ I         756 18.27        19.5 0.64                           305 234 
 PTGC HZ IP   4    755 33.94                             112   -1.44 0  311 159 
 PTGC HE ES   4    756  7.03                             112   -2.89 0  311 159 
 PTGC HZ I         756 11.38        11.6 0.46            103            311 159 
 RREF HZ EP        755 38.31                             111    0.54 7  325 229 
 RREF HE ES   4    756 15.39                             111    1.21 0  325 229 
 RREF HZ I         756 18.97        21.0 0.30            102            325 229 
 CBOC HZ EP   4    755 39.93                             110    1.48 0  336 252 
 CBOC HE ES        756 15.75                             110    0.37 7  336 252 
 CBOC HZ I         756 29.40         6.6 0.88            101            336 252 
 DBB  SZ EP   4    755 36.46                             110   -2.41 0  341 274 
 DBB  HZ I         756 35.72        25.6 0.80            101            341 274 
 TOL  SZ EP        755 40.81                             110    0.92 6  347 224 
 TOL  SZ ES   1    756 18.06                             110    0.11 5  347 224 
 TOL  HZ I         756 21.86         6.2 0.40            101            347 224 
 ARGC HZ EP        755 41.16                             109    0.59 6  357 340 
 ARGC HN ES        756 18.72                             109   -0.44 6  357 340 
 ARGC HZ I         756 24.43         8.4 2.76            100            357 340 
 SDV  BZ EP   4    755 38.12                             109   -2.74 0  357  50 
 SDV  BE ES   4    756 17.58                             109   -2.08 0  357  50 
 SDV  HZ I         756 19.53         5.7 1.10            100            357  50 
 ANIL HZ EP   4    755 42.73                             109    1.29 0  361 224 
 ANIL HN ES        756 21.63                             109    0.93 6  361 224 
 ANIL HZ I         756 28.74        29.6 0.22            100            361 224 
 PRA  HZ EP        755 44.68                             107   -0.49 6  396 210 
 PRA  HN ES        756 26.96                             107   -0.38 6  396 210 
 PRA  HZ I         756 33.25        10.5 0.92             99            396 210 
 ORTC HZ EP        755 45.42                             107   -0.14 6  399 216 
 ORTC HE ES        756 28.94                             107    0.90 6  399 216 
 ORTC HZ I         756 54.98        11.9 0.32             98            399 216 
 SJC  HZ EP   4    755 45.28                             106   -1.26 0  407 326 
 SJC  HN ES   4    756 25.80                             106   -3.99 0  407 326 
 SJC  HZ I         756 30.97         5.6 1.04             98            407 326 
 MACC HZ EP   4    755 57.72                             102   -2.59 0  524 189 
 MACC HN ES   4    756 48.76                             102   -5.54 0  524 189 
 MACC HZ I         756 58.05         2.5 0.58             94            524 189 
                                                                                
