 2012 1120 0307 47.7 L   6.727 -73.177152.8  RSN  4 0.1 1.4LRSN                1
 GAP=228        0.30       3.1     3.2  4.0  0.5003E+01 -0.2092E+01 -0.2014E+01E
 Epicentro: VILLANUEVA - SANTANDER                                             3
 ACTION:UPD 12-12-05 15:34 OP:}ep  STATUS:               ID:20121120030747 L   I
 2012-11-20-0300-00M.COL___234                                                 6
 STAT SP IPHASW D HRMM SECON CODA AMPLIT PERI AZIMU VELO AIN AR TRES W  DIS CAZ7
 BAR2 SZ EP   1    3 8  7.94                             174   -0.15 7 14.9 182 
 BAR2 SZ I         3 8 24.98         6.4 0.42                          14.9 182 
 BRR  HZ IP        3 8  9.76                             153    0.0210 72.5 305 
 BRR  HZ I         3 8 10.06         5.9 0.17                          72.5 305 
 BRR  HN ES   1    3 8 26.93                             153    0.04 7 72.5 305 
 RUS  HZ EP   1    3 8 11.75                             147    0.08 7 92.8 174 
 RUS  HE ES   1    3 8 30.35                             147    0.01 7 92.8 174 
 RUS  HE I         3 8 31.59         3.5 0.48                          92.8 174 
 PTB  HZ EP   1    3 8 14.90                             135    0.02 7  143 262 
 PTB  HE ES   1    3 8 35.99                             135   -0.05 7  143 262 
 PTB  HZ I         3 8 39.28         2.4 0.14                           143 262 
                                                                                
