 2012 1020 0710 43.0 L   6.786 -73.151146.1  RSN  5 0.4 1.4LRSN                1
 GAP=182        0.60       5.9     9.8 11.1  0.3169E+02  0.8511E+01 -0.1682E+02E
 Epicentro: LOS SANTOS - SANTANDER                                             3
 ACTION:UPD 12-11-22 17:04 OP:ep   STATUS:               ID:20121020071043 L   I
 2012-10-20-0710-00M.COL___233                                                 6
 STAT SP IPHASW D HRMM SECON CODA AMPLIT PERI AZIMU VELO AIN AR TRES W  DIS CAZ7
 BAR2 SZ ES   2    711 17.18                             171   -0.74 5 21.6 189 
 BRR  HZ EP   1    711  4.24                             152    0.08 7 71.4 300 
 BRR  HZ I         711  4.39         3.7 0.17                          71.4 300 
 BRR  HN ES   1    711 21.06                             152    0.37 7 71.4 300 
 RUS  HN ES   1    711 25.17                             144    0.07 7 99.0 176 
 OCA  HN ES   2    711 33.60                             129   -0.05 5  162 353 
 ZAR  HN ES   2    711 40.22                             122   -0.54 4  204 293 
 ZAR  HN I         711 42.22         3.0 0.12                           204 293 
                                                                                
