 2017  720 0455 44.1 L   5.936 -73.577127.1  RSN  5 0.4 1.2LRSN                1
 GAP=145        0.85       4.9     4.2  8.5  0.8898E+00 -0.9075E+00 -0.1117E+02E
 Epicentro: BARBOSA - SANTANDER                                                3
 ACTION:UPD 17-08-30 15:35 OP:rebc STATUS:               ID:20170720045544 L   I
 OLDACT:UP  17-07-20 16:17 OP:dnl  STATUS:               ID:20170720044740d    3
 OLDACT:DUP 17-07-20 16:14 OP:dnl  STATUS:               ID:20170720044740d    3
 OLDACT:REG 17-07-20 13:11 OP:dnl  STATUS:               ID:20170720044739     3
 2017-07-20-0448-00M.COL___383                                                 6
 STAT SP IPHASW D HRMM SECON CODA AMPLIT PERI AZIMU VELO AIN AR TRES W  DIS CAZ7
 RUS  HZ EP        456  3.00                             155   -0.0710 54.9  95 
 RUS  HN ES        456 17.42                             155   -0.4310 54.9  95 
 RUS  HZ I         456 18.35         4.1 0.34            159           54.9  95 
 SPBC HZ EP   4    456  4.34                             152    1.40 0 63.2 240 
 SPBC HE ES        456 18.12                             152    0.5010 63.2 240 
 SPBC HZ I         456 19.88         5.6 0.74            152           63.2 240 
 BAR2 EZ EP        456  4.63                             144    0.0910 84.6  31 
 BAR2 EZ ES        456 20.66                             144    0.2010 84.6  31 
 BAR2 EZ I         456 21.98         5.2 0.40            147           84.6  31 
 PTB  HZ EP   2    456  6.59                             134   -0.30 5  118 304 
 PTB  HN ES        456 24.09                             134   -0.5510  118 304 
 PTB  HZ I         456 27.61         1.5 0.10            135            118 304 
 BRR  HZ EP   2    456  8.42                             131    0.45 5  130 353 
 BRR  HE ES        456 26.79                             131    0.2210  130 353 
 BRR  HZ I         456 27.51         2.7 0.42            133            130 353 
                                                                                
