 2011  820 0739 12.8 L   6.922 -72.976166.2  RSN 20 0.4 4.1LRSN                1
 GAP=163        0.72       2.7     4.5  4.3 -0.1944E+01  0.4303E+01  0.1959E+01E
 Epicentro: PIEDECUESTA - SANTANDER                                            3
 ACTION:UPD 12-07-13 15:52 OP:ep   STATUS:               ID:20110820073912 L   I
 2011-08-20-0737-23S.COL___151                                                 6
 STAT SP IPHASW D HRMM SECON CODA AMPLIT PERI AZIMU VELO AIN AR TRES W  DIS CAZ7
 BAR2 SZ EP   1    739 35.66                             165    0.25 7 43.1 212 
 BAR2 SZ ES   1    739 52.28                             165   -0.74 7 43.1 212 
 BAR2 SZ I         739 55.82       996.4 0.83                          43.1 212 
 BRR  HZ EP        739 37.07                             152    0.1710 83.9 284 
 BRR  HN ES   1    739 55.92                             152    0.25 7 83.9 284 
 BRR  HZ I         740  1.52      1724.6 0.33                          83.9 284 
 BRI  SZ IP        739 37.69                             150    0.1710 90.0  13 
 RUS  HZ IP     C  739 39.97                             144    0.3810  115 186 
 RUS  HN ES        740  0.85                             144    0.3910  115 186 
 RUS  HZ I         740  3.29       812.5 0.58                           115 186 
 OCA  SZ IP        739 41.49                             136   -0.46 9  150 345 
 OCA  SZ ES   1    740  4.41                             136   -0.25 7  150 345 
 OCA  SZ I         740  9.22      2333.1 0.63                           150 345 
 NOR  SZ EP   1    739 52.61                             120    0.38 6  258 234 
 CHI  HZ EP        739 53.72                             119    0.05 8  267 198 
 CHI  HN ES   1    740 24.83                             119   -0.70 6  267 198 
 CHI  HZ I         740 33.41       319.4 0.63                           267 198 
 HEL  HZ EP   1    739 56.35                             117   -0.14 5  294 254 
 HEL  HE ES   1    740 30.24                             117   -0.32 5  294 254 
 HEL  HZ I         740 39.22       604.0 0.38                           294 254 
 VIL  SZ EP        739 58.83                             114   -0.34 7  321 194 
 VIL  SZ I         740 47.00       312.7 0.44                           321 194 
 GUY  SZ EP        740  0.41                             114    0.14 7  327 235 
 GUY  SN ES   1    740 37.49                             114    0.22 5  327 235 
 GUY  SZ I         740 46.33      1263.8 0.58                           327 235 
 RREF HZ EP        740  2.75                             113    0.25 7  345 230 
 RREF HE ES   2    740 41.13                             113   -0.12 3  345 230 
 RREF HZ I         740 50.88       650.7 0.54                           345 230 
 DBB  SZ EP        740  3.28                             112    0.05 6  358 272 
 TOL  SZ EP        740  5.16                             111    0.60 6  366 225 
 ANIL HZ EP   1    740  6.75                             110    0.67 5  380 225 
 ANIL HN ES   2    740 47.69                             110    0.06 3  380 225 
 PRA  HZ EP        740  9.41                             109   -0.15 6  413 211 
 PRA  HN ES        740 53.12                             109   -0.69 6  413 211 
 SJA  SZ EP        740  9.34                             108   -0.84 5  418 195 
 SJA  SZ I         741  0.20       605.2 0.32                           418 195 
 GUA  SZ EP   1    740 17.19                             106   -0.77 3  486 175 
 SOL  SZ EP   1    740 18.61                             105   -0.57 3  496 261 
 PCON HZ EP   2    740 35.80                             101   -0.49 1  634 217 
 FLO2 HZ EP   2    740 38.29                             101   -0.54 1  661 207 
                                                                                
