 2016  920 0312 55.8 L   6.773 -73.089150.2  RSN 24 0.5 2.5LRSN                1
 GAP=125        0.86       2.4     3.1  4.2 -0.5015E+00  0.7298E+00  0.2232E+01E
 Epicentro: LOS SANTOS - SANTANDER                                             3
 ACTION:UPD 17-08-17 21:14 OP:lp   STATUS:               ID:20160920031255 L   I
 OLDACT:UP  16-09-20 18:03 OP:and  STATUS:               ID:20160920030733     3
 OLDACT:UP  16-09-20 17:58 OP:and  STATUS:               ID:20160920030733     3
 OLDACT:UP  16-09-20 17:52 OP:and  STATUS:               ID:20160920030733     3
 OLDACT:UP  16-09-20 17:50 OP:and  STATUS:               ID:20160920030733     3
 OLDACT:REG 16-09-20 12:38 OP:and  STATUS:               ID:20160920030733     3
 2016-09-20-0308-00M.COL___363                                                 6
 STAT SP IPHASW D HRMM SECON CODA AMPLIT PERI AZIMU VELO AIN AR TRES W  DIS CAZ7
 BAR2 EZ IP        313 15.94                             171   -0.0110 22.6 207 
 BAR2 EZ ES        313 31.92                             171    0.2510 22.6 207 
 BAR2 EZ I         313 33.81        90.4 0.42            167           22.6 207 
 PAM  EZ EP     C  313 18.63                             152    0.2210 75.9  34 
 PAM  EN ES        313 35.90                             152   -0.1410 75.9  34 
 PAM  EZ I         313 38.31        49.8 0.52            153           75.9  34 
 BRR  HZ EP     D  313 17.82                             151   -0.0110 78.2 298 
 BRR  HN ES        313 35.17                             151    0.1610 78.2 298 
 BRR  HZ I         313 39.63        30.9 0.10            146           78.2 298 
 RUS  HZ EP        313 19.90                             145    0.1310 97.4 180 
 RUS  HE ES        313 38.86                             145    0.3910 97.4 180 
 RUS  HZ I         313 41.39        39.5 0.40            145           97.4 180 
 PTB  HZ EP   9    313 22.53                             132   -1.12 0  153 260 
 PTB  HN ES        313 44.03                                   -0.22 9  153 260 
 PTB  HZ I         313 46.26        43.9 0.14            128            153 260 
 OCA  HZ EP        313 24.74                             130   -0.07 9  164 351 
 OCA  HN ES        313 47.23                             130   -0.21 9  164 351 
 OCA  HZ I         313 51.62        87.1 0.22            128            164 351 
 SPBC HZ EP        313 24.78                             130   -0.03 9  165 221 
 SPBC HN ES        313 47.29                             130   -0.16 9  165 221 
 SPBC HZ I         313 49.80        64.2 0.29            127            165 221 
 ZAR  HZ EP   3    313 29.75                             122    0.50 2  211 292 
 ZAR  HE ES        313 54.45                             122   -0.90 8  211 292 
 ZAR  HZ I         314  1.18        23.7 0.14            120            211 292 
 NOR  HZ EP        313 31.79                             119   -0.37 8  238 236 
 NOR  HE ES        314  0.07                             119   -0.46 8  238 236 
 NOR  HZ I         314  3.68        32.8 0.19            117            238 236 
 CHI  HZ EP        313 34.18                             118    0.55 8  248 197 
 CHI  HN ES   2    314  3.44                             118    0.30 4  248 197 
 CHI  HZ I         314 13.04        13.4 0.38            117            248 197 
 ROSC BZ EP   2    313 35.56                             117    1.30 4  254 213 
 ROSC BE ES   4    314  7.44                             117    3.19 0  254 213 
 ROSC BZ I         314 11.84        35.9 0.40            116            254 213 
 HEL  HZ EP   9    313 38.15                             115    1.31 0  278 257 
 HEL  HN ES        314  9.89                                   -0.27 7  278 257 
 HEL  HZ I         314 14.94        22.1 0.38            113            278 257 
 URE  HZ EP   3    313 36.64                             114   -1.22 2  291 292 
 URE  HN ES   4    314  7.56                             114   -3.11 0  291 292 
 URE  HZ I         314 19.96        16.2 0.20            112            291 292 
 PTGC HZ EP        313 38.84                             113   -0.45 7  304 160 
 PTGC HN ES        314 12.27                             113   -0.95 7  304 160 
 PTGC HZ I         314 14.60        13.8 0.24            112            304 160 
 GUY2CHZ EP        313 40.93                             113    0.92 7  305 236 
 GUY2CHN ES   3    314 15.72                             113    1.22 2  305 236 
 GUY2CHZ I         314 24.91        19.3 0.47                           305 236 
 LL6C HZ EP   4    313 35.91                             111   -6.15 0  328 357 
 LL6C HE ES   4    314 15.45                             111   -2.70 0  328 357 
 LL6C HZ I         314 32.97         5.9 0.44            110            328 357 
 ELA  HZ EP   4    313 45.99                             111    2.81 0  332 231 
 ELA  HN ES   4    314 22.35                             111    2.22 0  332 231 
 ELA  HZ I         314 30.03        14.1 0.30            109            332 231 
 CBOC HZ EP   3    313 44.57                             110    1.08 2  339 253 
 CBOC HN ES        314 20.95                             110    0.26 7  339 253 
 CBOC HZ I         314 34.01         7.3 0.49            109            339 253 
 ANIL HZ EP   4    313 47.72                             109    1.67 0  360 226 
 ANIL HN ES   4    314 28.15                             109    2.90 0  360 226 
 ANIL HZ I         314 32.06        36.3 0.32            108            360 226 
 ARGC HZ EP   4    313 47.58                             109    1.38 0  364 340 
 ARGC HN ES   2    314 26.15                             109    0.64 3  364 340 
 PAL  HZ EP   2    313 51.72                             106    0.15 3  410 240 
 PAL  HN ES   4    314 28.58                             106   -6.49 0  410 240 
 PAL  HZ I         314 38.31         8.3 0.16            105            410 240 
 SJC  HZ EP   4    313 50.19                             106   -2.01 0  415 326 
 SJC  HN ES   4    314 31.58                             106   -4.62 0  415 326 
 SJC  HZ I         314 34.97         6.1 0.25            105            415 326 
 CRJC HZ EP   4    313 56.23                             104   -2.50 0  470   3 
 CRJC HE ES   4    314 44.07                             104   -3.75 0  470   3 
 CRJC HZ I         314 48.07         6.8 0.30            103            470   3 
 URI  HZ EP   9    314  6.21                             101   -2.87 0  558  12 
 URI  HN ES        315  4.14                                    0.77 3  558  12 
                                                                                
