 2015  520 0001  8.4 L   6.777 -73.113151.8  RSN  9 0.3 1.6LRSN                1
 GAP=142        0.66       2.8     3.5  5.0  0.2665E+00  0.4820E+01 -0.2212E+00E
 Epicentro: LOS SANTOS - SANTANDER                                             3
 ACTION:UPD 15-09-10 22:05 OP:cam  STATUS:               ID:20150520000108 L   I
 OLDACT:REG 15-05-20 12:07 OP:spq  STATUS:               ID:20150520000005     3
 2015-05-20-0000-05M.COL___291                                                 6
 STAT SP IPHASW D HRMM SECON CODA AMPLIT PERI AZIMU VELO AIN AR TRES W  DIS CAZ7
 BAR2 EZ EP        0 1 28.62                             171   -0.1310 21.8 200 
 BAR2 EZ ES   1    0 1 44.29                             171   -0.31 7 21.8 200 
 BAR2 EZ I         0 1 46.70         5.0 0.12            169           21.8 200 
 BRR  HZ EP        0 1 30.76                             152    0.2910 75.6 299 
 BRR  HN ES        0 1 48.16                             152    0.4910 75.6 299 
 BRR  HZ I         0 1 51.74        11.1 0.28            151           75.6 299 
 PAM  SZ EP        0 1 31.53                             152    0.2510 77.2  36 
 PAM  SE ES        0 1 48.92                             152   -0.1810 77.2  36 
 PAM  SZ I         0 1 50.87         4.8 0.54            157           77.2  36 
 RUS  HZ EP   1    0 1 32.51                             146   -0.07 7 97.8 178 
 RUS  HN ES        0 1 51.45                             146    0.0310 97.8 178 
 RUS  HZ I         0 1 52.15         3.4 0.56            148           97.8 178 
 OCA  HE ES   1    0 1 59.82                             130   -0.34 7  163 352 
 SPBC HZ EP   1    0 1 37.72                             130    0.30 7  163 221 
 SPBC HE ES   1    0 1 59.72                             130   -0.32 7  163 221 
 SPBC HZ I         0 2  6.07        11.6 0.24            131            163 221 
 ZAR  HZ EP        0 1 41.43                             123   -0.28 8  208 292 
 ZAR  HN ES        0 2  7.44                             123   -0.22 8  208 292 
 ZAR  HZ I         0 2 12.29         6.3 0.30            124            208 292 
 MON  HN ES   4    0 2 34.90                             109   -2.08 0  358 308 
 MON  HZ I         0 2 38.32         1.2 0.24            111            358 308 
 SJC  HZ EP   4    0 2  3.28                             106   -1.39 0  413 327 
 SJC  HE ES   4    0 2 45.40                             106   -3.14 0  413 327 
 SJC  HZ I         0 2 48.65         1.4 0.32            108            413 327 
                                                                                
