 2017  320 0617 23.6 L   6.144 -73.743110.0  RSN  5 0.3 1.1LRSN                1
 GAP=188        0.71       4.5     3.7  6.9  0.9331E+01  0.9879E+01  0.3105E+01E
 Epicentro: LANDAZURI - SANTANDER                                              3
 ACTION:UPD 17-05-25 18:42 OP:jn   STATUS:               ID:20170320061724 L   I
 OLDACT:UP  17-04-28 12:16 OP:nlst STATUS:               ID:20170320061724 L   3
 OLDACT:DUP 17-03-20 14:20 OP:lv   STATUS:               ID:20170320060743d    3
 2017-03-20-0608-00M.COL___382                                                 6
 STAT SP IPHASW D HRMM SECON CODA AMPLIT PERI AZIMU VELO AIN AR TRES W  DIS CAZ7
 RUS  HZ EP        617 42.25                             142    0.0710 78.1 111 
 RUS  HE ES        617 56.62                             142   -0.0810 78.1 111 
 BAR2 EZ ES   1    617 56.60                             141    0.37 7 79.4  51 
 BAR2 EZ I         617 58.67         6.8 0.40            144           79.4  51 
 PTB  HZ EP        617 42.67                             137    0.2010 90.3 299 
 PTB  HN ES        617 57.03                             137   -0.1910 90.3 299 
 PTB  HZ I         617 59.91         1.2 0.09            139           90.3 299 
 BRR  HZ EP   1    617 43.02                             132   -0.84 7  107   2 
 BRR  HN ES        617 59.67                             132   -0.0210  107   2 
 ZAR  HZ EP        617 52.98                             114    0.20 9  193 320 
 ZAR  HN ES        618 15.73                             114    0.15 9  193 320 
 ZAR  HZ I         618 19.28         1.7 0.32            116            193 320 
                                                                                
