 2015  220 0113 21.8 L   6.854 -73.147147.4  RSN 12 0.5 2.0LRSN                1
 GAP=134        1.13       4.1     5.2  6.5 -0.2804E+01  0.6937E+01  0.4039E+01E
 Epicentro: LOS SANTOS - SANTANDER                                             3
 ACTION:UPD 15-04-30 21:27 OP:nd   STATUS:               ID:20150220011321 L   I
 OLDACT:UP  15-02-20 17:52 OP:mh   STATUS:               ID:20150220010749     3
 OLDACT:UP  15-02-20 17:52 OP:mh   STATUS:               ID:20150220010749     3
 OLDACT:UP  15-02-20 17:52 OP:mh   STATUS:               ID:20150220010749     3
 OLDACT:REG 15-02-20 12:38 OP:mher STATUS:               ID:20150220010749     3
 2015-02-20-0107-49M.COL___281                                                 6
 STAT SP IPHASW D HRMM SECON CODA AMPLIT PERI AZIMU VELO AIN AR TRES W  DIS CAZ7
 BAR2 EZ EP   1    113 41.52                             168   -0.26 7 29.2 188 
 BAR2 EZ ES        113 57.17                             168   -0.1810 29.2 188 
 BAR2 EZ I         113 59.37        15.0 0.31            167           29.2 188 
 BRR  HZ EP        113 43.48                             154    0.4810 68.4 294 
 BRR  HN ES        114  0.07                             154    0.5610 68.4 294 
 BRR  HZ I         114  4.24        15.9 0.14            153           68.4 294 
 PAM  SZ EP        113 44.63                             152    0.6710 73.0  43 
 PAM  SN ES        114  1.06                             152   -0.1710 73.0  43 
 PAM  SZ I         114  3.29        25.1 0.32            156           73.0  43 
 RUS  HZ EP        113 45.94                             142   -0.2310  107 176 
 RUS  HN ES        114  4.93                             142   -0.2310  107 176 
 PTB  HZ EP        113 48.10                             132   -0.92 9  149 257 
 PTB  HN ES        114 10.04                             132   -0.20 9  149 257 
 PTB  HZ I         114 12.00        15.7 0.52            132            149 257 
 SPBC HZ EP        113 51.34                             129    0.46 9  168 218 
 SPBC HN ES        114 13.60                             129    0.06 9  168 218 
 SPBC HZ I         114 18.48        12.4 0.20            129            168 218 
 SML  HZ EP   4    113 55.13                             118   -2.82 0  238 335 
 SML  HN ES        114 25.45                             118   -0.68 8  238 335 
 SML  HZ I         114 31.36        14.9 0.10            120            238 335 
 NOR  HZ EP   1    113 58.58                             118    0.57 6  238 233 
 NOR  HN ES   1    114 26.68                             118    0.45 6  238 233 
 CHI  HZ EP        113 59.70                             117   -0.53 8  254 195 
 CHI  HN ES   4    114 31.95                             117    1.76 0  254 195 
 CHI  HZ I         114 38.85         3.7 0.44            117            254 195 
 GUY2CHZ EP   4    114  7.56                             112    1.68 0  305 234 
 GUY2CHN ES   4    114 43.01                             112    2.76 0  305 234 
 GUY2CHZ I         114 49.89         4.7 0.36                           305 234 
 MON  HZ EP   4    114  7.47                             109   -2.98 0  350 308 
 MON  HN ES   4    114 46.50                             109   -1.88 0  350 308 
 MON  HZ I         114 47.51         2.2 0.16            110            350 308 
 PRA  HZ EP        114 16.51                             106    0.52 6  397 209 
 PRA  HN ES   4    114 59.75                             106    1.50 0  397 209 
 PRA  HZ I         115  5.08         4.6 0.22            107            397 209 
                                                                                
