 2013  820 0033 19.9 L   6.869 -73.152148.3  RSN  9 0.5 1.7LRSN                1
 GAP=132        1.08       3.7     4.9  8.1 -0.1515E+01  0.1045E+02 -0.6252E+01E
 Epicentro: LOS SANTOS - SANTANDER                                             3
 2013-08-20-0029-59M.COL___269                                                 6
 ACTION:UP  14-01-14 09:04 OP:ep   STATUS:               ID:20130820003319 L   I
 OLDACT:UPD 13-09-13 09:31 OP:ep   STATUS:               ID:20130820003319 L   3
 OLDACT:REG 13-08-20 08:47 OP:mh   STATUS:               ID:20130820002959     3
 STAT SP IPHASW D HRMM SECON CODA AMPLIT PERI AZIMU VELO AIN AR TRES W  DIS CAZ7
 BRR  HZ EP        033 41.58                             154    0.4210 67.3 293 
 BRR  HN ES   1    033 58.03                             154    0.33 7 67.3 293 
 BRR  HN I         034  1.69        24.9 0.34            154           67.3 293 
 BRR  SZ I         034  3.13         8.6 0.22                          67.3 293 
 PAM  SZ EP        033 42.58                             153    0.4510 72.1  44 
 PAM  SN ES        033 59.16                             153   -0.2810 72.1  44 
 PAM  SZ I         034  1.27         6.9 0.32            155           72.1  44 
 RUS  HZ EP        033 44.76                             142    0.2510  108 176 
 RUS  HN ES        034  3.28                             142   -0.3910  108 176 
 RUS  HZ I         034  5.15         1.4 0.38            147            108 176 
 RUS  SZ I         034 12.36         3.3 1.14                           108 176 
 PTB  HZ EP        033 46.88                             132   -0.34 9  149 256 
 PTB  HN ES   1    034  7.26                             132   -1.22 7  149 256 
 PTB  SZ I         034  9.45         5.4 1.04            135            149 256 
 PTB  HN I         034 13.01         9.9 0.32                           149 256 
 OCA  HZ EP        033 47.48                             132   -0.27 9  153 353 
 OCA  HN ES   1    034  9.86                             132    0.42 7  153 353 
 OCA  SZ I         034 13.80         3.9 0.14            133            153 353 
 SPBC HN ES        034 12.40                             129    0.43 9  169 217 
 ZAR  HZ EP        033 52.28                             123    0.07 9  201 290 
 ZAR  HN ES        034 17.96                             123    0.58 9  201 290 
 ZAR  HN I         034 22.96        24.5 0.64            125            201 290 
 ZAR  SZ I         034 23.34         7.9 0.30                           201 290 
 SML  HZ EP        033 55.36                             119   -0.58 8  237 335 
 SML  HN ES        034 23.76                             119   -0.26 8  237 335 
 SML  SZ I         034 28.37         5.1 0.08            121            237 335 
 GUY2CHZ EP   4    034  5.04                             112    0.92 0  305 234 
 GUY2CHN ES   4    034 39.77                             112    1.20 0  305 234 
 GUY2CSZ I         034 48.34         3.6 1.82                           305 234 
                                                                                
