 2016  920 0747 37.6 L   6.749 -73.122144.9  RSN 12 0.5 1.9LRSN                1
 GAP=165        1.20       4.4     5.2  6.8 -0.1066E+02  0.9547E+01 -0.1562E+01E
 Epicentro: LOS SANTOS - SANTANDER                                             3
 ACTION:UPD 17-08-17 21:14 OP:lp   STATUS:               ID:20160920074737 L   I
 OLDACT:UP  16-09-20 21:52 OP:ar   STATUS:               ID:20160920073735     3
 OLDACT:UP  16-09-20 21:36 OP:ar   STATUS:               ID:20160920073735     3
 OLDACT:UP  16-09-20 21:35 OP:ar   STATUS:               ID:20160920073735     3
 OLDACT:REG 16-09-20 12:51 OP:and  STATUS:               ID:20160920073735     3
 2016-09-20-0738-00M.COL___347                                                 6
 STAT SP IPHASW D HRMM SECON CODA AMPLIT PERI AZIMU VELO AIN AR TRES W  DIS CAZ7
 BAR2 EZ EP        747 57.15                             172    0.1010 18.5 201 
 BAR2 EZ ES        748 11.83                             172   -0.3810 18.5 201 
 BAR2 EZ I         748 13.42        18.4 0.18            169           18.5 201 
 BRR  HZ IP     C  747 59.01                             151    0.0510 76.3 301 
 BRR  HE ES        748 16.10                             151    0.4810 76.3 301 
 BRR  HZ I         748 18.85        14.3 0.30            146           76.3 301 
 PAM  EZ EP        748  0.05                             150    0.1410 80.3  36 
 PAM  EN ES        748 17.26                             150   -0.0510 80.3  36 
 PAM  EZ I         748 19.07        17.1 0.62            152           80.3  36 
 PTB  HZ EP        748  3.79                             131   -0.86 9  149 261 
 PTB  HN ES        748 24.86                             131   -0.88 9  149 261 
 PTB  HZ I         748 27.10         6.6 0.12            130            149 261 
 SPBC HZ EP        748  6.11                             129    0.32 9  160 221 
 SPBC HN ES        748 28.30                             129    0.53 9  160 221 
 SPBC HZ I         748 33.94         5.1 0.15            130            160 221 
 OCA  HZ EP        748  5.64                             128   -0.78 9  166 352 
 OCA  HN ES        748 29.59                             128    0.70 9  166 352 
 OCA  HZ I         748 34.29        21.2 0.24            128            166 352 
 ZAR  HZ EP        748 10.25                             122   -0.22 8  209 293 
 ZAR  HN ES        748 36.03                             122   -0.08 8  209 293 
 ZAR  HZ I         748 42.06         9.1 0.44            121            209 293 
 NOR  HZ EP        748 13.54                             118    0.37 8  234 236 
 NOR  HN ES        748 40.54                             118   -0.37 8  234 236 
 NOR  HZ I         748 45.90         5.7 0.16            119            234 236 
 HEL  HZ EP        748 18.43                             114    0.52 8  273 257 
 HEL  HN ES        748 50.14                             114    0.80 8  273 257 
 HEL  HZ I         748 58.46         2.4 0.36            114            273 257 
 URE  HZ EP   4    748 20.64                             113    1.49 0  288 293 
 URE  HN ES   4    748 48.72                             113   -2.83 0  288 293 
 URE  HZ I         749  1.98         5.6 0.26            113            288 293 
 GUY2CHZ EP   4    748 23.43                             112    2.38 0  300 236 
 GUY2CHN ES   4    748 58.63                             112    3.69 0  300 236 
 GUY2CHZ I         749  1.70         3.0 0.36                           300 236 
 LL6C HZ EP   4    748 21.91                             110   -2.03 0  331 357 
 LL6C HE ES        749  0.02                             110   -0.05 7  331 357 
                                                                                
