 2015  320 0044 37.1 L   6.824 -73.153139.5  RSN 24 0.4 2.6LRSN                1
 GAP= 70        0.97       2.2     2.4  4.0 -0.1104E+01  0.2762E+01  0.1162E+01E
 Epicentro: LOS SANTOS - SANTANDER                                             3
 ACTION:UPD 15-04-30 16:27 OP:nd   STATUS:               ID:20150320004437 L   I
 OLDACT:UP  15-03-20 13:44 OP:fm   STATUS:               ID:20150320003746     3
 OLDACT:REG 15-03-20 12:38 OP:fm   STATUS:               ID:20150320003746     3
 2015-03-20-0037-46M.COL___281                                                 6
 STAT SP IPHASW D HRMM SECON CODA AMPLIT PERI AZIMU VELO AIN AR TRES W  DIS CAZ7
 BAR2 EZ IP     C  044 56.29                             169    0.2310 25.9 187 
 BAR2 EZ ES        045 10.81                             169   -0.0210 25.9 187 
 BAR2 EZ I         045 12.44        48.7 0.24            168           25.9 187 
 BRR  HZ EP        044 58.13                             152    0.6410 69.2 297 
 BRR  HE ES        045 13.86                             152    0.5010 69.2 297 
 BRR  HZ I         045 18.10        43.6 0.12            151           69.2 297 
 PAM  SZ EP        044 59.12                             150    0.5310 75.9  41 
 PAM  SE ES        045 15.58                             150    0.2510 75.9  41 
 PAM  SZ I         045 17.37        25.2 0.16            146           75.9  41 
 RUS  HZ EP     C  045  0.16                             142   -0.3110  103 176 
 RUS  HE ES        045 18.05                             142   -0.6310  103 176 
 RUS  HZ I         045 20.10        29.3 0.36            138            103 176 
 PTB  HZ EP        045  2.90                             131   -0.67 9  147 258 
 PTB  HN ES        045 23.49                             131   -0.69 9  147 258 
 PTB  HZ I         045 28.86        37.0 0.16            128            147 258 
 OCA  HZ EP        045  4.96                             129    0.26 9  157 353 
 OCA  HE ES        045 26.09                             129   -0.10 9  157 353 
 OCA  HZ I         045 31.19       129.1 0.16            125            157 353 
 TAM  HZ EP        045  4.38                             129   -0.08 9  157 106 
 TAM  HN ES        045 25.72                             129   -0.06 9  157 106 
 TAM  HZ I         045 32.36        18.8 0.42            124            157 106 
 SPBC HZ EP        045  5.19                             127   -0.12 9  165 218 
 SPBC HE ES        045 27.57                             127    0.29 9  165 218 
 SPBC HZ I         045 32.89        75.3 0.20            124            165 218 
 ZAR  HZ EP        045  8.72                             121   -0.27 9  202 292 
 ZAR  HN ES        045 33.11                             121   -0.72 9  202 292 
 ZAR  HZ I         045 39.88        42.0 0.30            118            202 292 
 NOR  HZ EP        045 12.33                             117   -0.27 8  236 234 
 NOR  HE ES        045 39.72                             117   -0.54 8  236 234 
 NOR  HZ I         045 45.63        42.0 0.28            114            236 234 
 SML  HZ EP        045 13.23                             116    0.12 8  241 335 
 SML  HE ES        045 40.96                             116   -0.21 8  241 335 
 SML  HZ I         045 43.06        55.3 0.28            113            241 335 
 ROSC BZ EP        045 15.82                             115    0.70 8  255 211 
 ROSC BE ES        045 44.53                             115   -0.22 8  255 211 
 ROSC BZ I         045 54.11        43.0 0.40            112            255 211 
 HEL  HZ EP        045 17.06                             113    0.05 8  272 255 
 HEL  HN ES        045 48.52                             113    0.40 8  272 255 
 HEL  HZ I         045 56.89        23.9 0.36            111            272 255 
 URE  HZ EP   4    045 16.21                             112   -1.49 0  282 291 
 URE  HN ES   4    045 46.74                             112   -2.61 0  282 291 
 URE  HZ I         045 51.82        21.1 0.12            110            282 291 
 GUY2CHZ EP        045 21.15                             111    0.59 7  302 234 
 GUY2CHN ES        045 54.92                             111    0.50 7  302 234 
 GUY2CHZ I         046  2.83        26.5 0.50                           302 234 
 RREF HZ EP        045 23.34                             110    0.20 7  323 229 
 RREF HN ES        045 59.30                             110    0.28 7  323 229 
 RREF HZ I         046  8.15        25.1 0.24            107            323 229 
 CBOC HZ EP        045 23.92                             109    0.12 7  334 252 
 CBOC HN ES        046  0.62                             109    0.43 7  334 252 
 CBOC HZ I         046 12.12         6.6 0.46            106            334 252 
 DBB  SZ EP        045 23.87                             108   -0.37 7  338 274 
 DBB  SZ ES        046  0.94                             108   -0.04 7  338 274 
 DBB  SZ I         046  3.09        27.4 0.56            106            338 274 
 TOL  SZ EP        045 25.92                             108    0.62 7  345 224 
 TOL  SN ES        046  2.44                             108   -0.42 7  345 224 
 TOL  SZ I         046  7.98        20.1 0.42            105            345 224 
 ANIL HZ EP        045 26.99                             107    0.13 6  359 224 
 ANIL HN ES        046  6.27                             107    0.63 6  359 224 
 ANIL HZ I         046 17.70         5.5 0.46            105            359 224 
 SDV  BZ EP        045 26.02                             107   -0.80 6  359  51 
 SDV  BN ES   4    046  3.79                             107   -1.78 0  359  51 
 SDV  BZ I         046  5.11         6.2 0.55            104            359  51 
 PRA  HZ EP        045 29.98                             105   -0.69 6  394 209 
 PRA  HE ES        046 12.69                             105    0.27 6  394 209 
 PRA  HZ I         046 20.60        16.6 0.58            103            394 209 
 ORTC HZ EP        045 30.46                             105   -0.58 6  397 216 
 ORTC HN ES        046 14.05                             105    0.96 6  397 216 
 ORTC HZ I         046 18.62        10.4 0.20            103            397 216 
 PAL  HZ EP        045 31.68                             105   -0.49 6  406 239 
 PAL  HN ES        046 14.62                             105   -0.47 6  406 239 
 PAL  HZ I         046 20.93         8.3 0.40            102            406 239 
 MACC HZ EP   4    045 42.98                             101   -3.02 0  523 189 
 MACC HE ES   4    046 33.35                             101   -6.36 0  523 189 
                                                                                
