 2012  120 0722 48.6 L   6.797 -73.152142.7  RSN 12 0.5 1.9LRSN                1
 GAP=136        0.93       3.6     4.7  6.6 -0.2083E+01  0.8466E+01  0.3953E+01E
 Epicentro: LOS SANTOS - SANTANDER                                             3
 ACTION:UP  12-02-03 08:19 OP:REBC STATUS:               ID:20120120072248 L   I
 2012-01-20-0720-00M.COL___187                                                 6
 STAT SP IPHASW D HRMM SECON CODA AMPLIT PERI AZIMU VELO SNR AR TRES W  DIS CAZ7
 BAR2 SZ IP        723  7.66                             170    -0.210   23 188 
 BAR2 SZ I         723  7.98        20.7 0.08                            23 188 
 BAR2 SZ ES   1    723 22.72                             170    -0.1 7   23 188 
 BRR  HZ IP     C  723  9.44                             152     0.110   71 299 
 BRR  HZ I         723  9.71        44.0 0.21                            71 299 
 BRR  HN ES   1    723 26.04                             152     0.5 7   71 299 
 PAM  SZ EP   1    723 10.81                             150     0.3 7   78  40 
 PAM  SN ES   1    723 27.59                             150     0.0 7   78  40 
 RUS  HZ EP        723 11.69                             143    -0.310  100 176 
 RUS  HE ES   1    723 30.53                             143     0.2 7  100 176 
 RUS  HZ I         723 32.63         7.7 0.22                           100 176 
 PTB  HZ EP   1    723 14.30                             131    -0.9 7  147 259 
 PTB  HN ES   1    723 35.27                             131    -0.7 7  147 259 
 OCA  SZ EP   1    723 16.97                             129     0.3 7  161 353 
 OCA  SZ ES   1    723 38.47                             129    -0.1 7  161 353 
 OCA  SZ I         723 41.57         8.1 0.27                           161 353 
 ZAR  HZ EP   1    723 21.37                             122     0.6 6  204 292 
 ZAR  HN ES   2    723 45.39                             122    -0.5 4  204 292 
 ZAR  HZ I         723 51.78        10.8 0.38                           204 292 
 NOR  SZ EP   1    723 23.56                             118    -0.5 6  234 234 
 NOR  SN ES   2    723 52.54                             118     0.8 4  234 234 
 CHI  HZ EP   1    723 26.18                             116     0.1 6  248 195 
 CHI  HN ES   1    723 55.56                             116     0.3 6  248 195 
 CHI  HZ I         723 58.91         3.0 0.42                           248 195 
 ROSC BZ EP   2    723 27.04                             116     0.6 4  252 211 
 ROSC BN ES   2    723 56.69                             116     0.7 4  252 211 
 ROSC BZ I         724  4.41         6.2 0.40                           252 211 
 HEL  HN ES   1    724  0.55                             114     0.8 6  271 256 
 HEL  HZ I         724  8.27         4.4 0.25                           271 256 
 RREF HZ EP   1    723 34.51                             110     0.0 5  321 229 
 RREF HN ES   2    724  9.82                             110    -0.5 3  321 229 
 RREF HZ I         724 19.90         4.8 0.22                           321 229 
                                                                                
