 2015 1020 0327  9.9 L   6.800 -73.128151.4  RSN  9 0.5 1.6LRSN                1
 GAP=139        1.04       3.5     5.3  8.5 -0.8305E+00  0.1678E+02  0.1328E+01E
 Epicentro: LOS SANTOS - SANTANDER                                             3
 ACTION:UPD 15-12-22 20:41 OP:cam  STATUS:               ID:20151020032709 L   I
 OLDACT:REG 15-10-20 12:34 OP:mh   STATUS:               ID:20151020031749     3
 2015-10-20-0317-49M.COL___337                                                 6
 STAT SP IPHASW D HRMM SECON CODA AMPLIT PERI AZIMU VELO AIN AR TRES W  DIS CAZ7
 BAR2 EZ EP   1    327 30.06                             171   -0.19 7 23.8 195 
 BAR2 EZ I         327 46.18         6.8 0.18            169           23.8 195 
 BRR  HZ EP        327 32.26                             153    0.4710 72.9 298 
 BRR  HN ES        327 49.19                             153    0.3510 72.9 298 
 BRR  HZ I         327 50.77         4.8 0.66            153           72.9 298 
 PAM  EZ EP   1    327 33.20                             152    0.53 7 76.1  38 
 PAM  EN ES        327 50.64                             152    0.2210 76.1  38 
 PAM  EZ I         327 52.54         6.3 0.60            150           76.1  38 
 RUS  HZ EP   1    327 34.56                             145    0.33 7  101 177 
 RUS  HN ES        327 52.98                             145   -0.2110  101 177 
 RUS  HZ I         327 54.02         3.9 0.24            142            101 177 
 OCA  HN ES        328  0.37                             131   -0.77 9  160 352 
 OCA  HZ I         328  4.00        10.2 0.14            129            160 352 
 SPBC HZ EP        327 38.47                             130   -0.52 9  164 220 
 SPBC HN ES   1    328  0.71                             130   -0.94 7  164 220 
 SPBC HZ I         328  7.29         6.1 0.12            128            164 220 
 ZAR  HZ EP        327 43.16                             123    0.23 8  206 292 
 ZAR  HN ES        328  8.80                             123    0.12 8  206 292 
 ZAR  HZ I         328 10.84         3.3 0.26            122            206 292 
 NOR  HN ES        328 14.86                             119    0.43 8  236 235 
 NOR  HZ I         328 17.69         2.6 0.16            118            236 235 
 SML  HE ES        328 15.48                             119   -0.37 8  244 335 
 SML  HZ I         328 19.59         4.7 0.10            117            244 335 
                                                                                
