 2015 1120 0902  7.1 L   6.813 -73.140146.0  RSN 17 0.4 2.2LRSN                1
 GAP=137        0.96       2.5     3.9  4.6 -0.2119E+01  0.6359E+01  0.5144E+00E
 Epicentro: LOS SANTOS - SANTANDER                                             3
 ACTION:UPD 15-12-28 16:12 OP:cam  STATUS:               ID:20151120090207 L   I
 OLDACT:UP  15-11-20 19:23 OP:ak   STATUS:               ID:20151120085748     3
 OLDACT:REG 15-11-20 13:31 OP:y    STATUS:               ID:20151120085748     3
 2015-11-20-0857-48M.COL___310                                                 6
 STAT SP IPHASW D HRMM SECON CODA AMPLIT PERI AZIMU VELO AIN AR TRES W  DIS CAZ7
 BAR2 EZ EP     C  9 2 26.66                             170   -0.1610 24.9 191 
 BAR2 EZ ES        9 2 42.39                             170    0.2210 24.9 191 
 BAR2 EZ I         9 2 43.74        15.8 0.20            167           24.9 191 
 BRR  HZ EP     C  9 2 28.56                             153    0.2710 71.1 297 
 BRR  HN ES        9 2 45.10                             153    0.3010 71.1 297 
 BRR  HZ I         9 2 49.77        19.5 0.15            143           71.1 297 
 PAM  EZ EP        9 2 29.54                             151    0.2610 75.9  40 
 PAM  EN ES        9 2 46.77                             151    0.2210 75.9  40 
 PAM  EZ I         9 2 48.91        20.8 0.56            151           75.9  40 
 RUS  HZ EP        9 2 30.53                             144   -0.4710  102 176 
 RUS  HE ES        9 2 49.75                             144    0.1310  102 176 
 RUS  HZ I         9 2 50.51         8.7 0.28            144            102 176 
 OCA  HZ EP        9 2 35.30                             130   -0.03 9  159 353 
 OCA  HN ES        9 2 56.88                             130   -0.44 9  159 353 
 OCA  HZ I         9 3  1.83        37.1 0.38            125            159 353 
 SPBC HZ EP        9 2 35.69                             129   -0.10 9  165 219 
 SPBC HN ES        9 2 57.67                             129   -0.47 9  165 219 
 SPBC HZ I         9 3  0.67        28.3 0.22            125            165 219 
 ZAR  HZ EP        9 2 40.24                             122    0.65 9  204 292 
 ZAR  HN ES        9 3  4.61                             122   -0.30 9  204 292 
 ZAR  HZ I         9 3 11.60        20.8 0.34            117            204 292 
 NOR  HZ EP        9 2 42.51                             118   -0.50 8  236 234 
 NOR  HN ES        9 3 10.68                             118   -0.33 8  236 234 
 NOR  HZ I         9 3 18.55        12.9 0.32            115            236 234 
 SML  HZ EP        9 2 43.21                             118   -0.44 8  243 335 
 SML  HN ES        9 3 11.62                             118   -0.52 8  243 335 
 SML  HZ I         9 3 18.97        22.3 0.10            114            243 335 
 ROSC BZ EP   9    9 2 47.39                             117    1.96 0  254 211 
 ROSC BE ES        9 3 17.74                                    0.47 8  254 211 
 ROSC BZ I         9 3 23.77        14.0 0.45            114            254 211 
 HEL  HZ EP        9 2 48.43                             115    0.97 8  273 256 
 HEL  HE ES   4    9 3 22.36                             115    3.44 0  273 256 
 URE  HZ EP   4    9 2 51.01                             114    2.80 0  284 292 
 URE  HZ I         9 3 30.07        11.9 0.20            110            284 292 
 GUY2CHZ EP        9 2 51.81                             112    0.91 7  303 235 
 GUY2CHN ES        9 3 25.21                             112    0.17 7  303 235 
 GUY2CHZ I         9 3 34.56         6.7 0.44                           303 235 
 PTGC HE ES   4    9 3 22.61                             112   -2.82 0  310 159 
 CBOC HZ EP        9 2 54.81                             110    0.64 7  335 252 
 CBOC HN ES   4    9 3 29.93                             110   -0.93 0  335 252 
 CBOC HZ I         9 3 35.83         1.7 0.36            107            335 252 
 MON  HZ EP   9    9 2 54.10                             109   -1.99 0  353 308 
 MON  HN ES        9 3 32.58                                    0.29 6  353 308 
 MON  HZ I         9 3 48.01         5.5 0.44            106            353 308 
 PRA  HZ EP        9 3  0.36                             107   -0.48 6  394 210 
 PRA  HN ES        9 3 42.30                             107   -0.43 6  394 210 
 PRA  HZ I         9 3 46.29         6.8 0.42            105            394 210 
 ORTC HZ EP        9 3  1.48                             106    0.25 6  397 216 
 ORTC HE ES        9 3 42.97                             106   -0.47 6  397 216 
 ORTC HZ I         9 3 47.36         3.0 0.46            105            397 216 
                                                                                
