 2014 1220 0643 39.9 L   6.799 -73.149148.1  RSN 16 0.4 2.0LRSN                1
 GAP= 71        0.87       2.4     2.5  4.4 -0.4333E+00  0.2248E+01  0.1019E+01E
 Epicentro: LOS SANTOS - SANTANDER                                             3
 ACTION:UPD 15-02-10 17:05 OP:nd   STATUS:               ID:20141220064339 L   I
 OLDACT:REG 14-12-20 13:14 OP:spq  STATUS:               ID:20141220063745     3
 2014-12-20-0637-45M.COL___305                                                 6
 STAT SP IPHASW D HRMM SECON CODA AMPLIT PERI AZIMU VELO AIN AR TRES W  DIS CAZ7
 BAR2 EZ EP        643 59.72                             171   -0.0910 23.1 189 
 BAR2 EZ ES   1    644 15.23                             171   -0.11 7 23.1 189 
 BAR2 EZ I         644 16.25        23.9 0.18            169           23.1 189 
 BRR  HZ EP        644  1.57                             153    0.2710 71.0 299 
 BRR  HN ES        644 18.83                             153    0.8510 71.0 299 
 BRR  HZ I         644 21.39        10.9 0.20            152           71.0 299 
 PAM  SZ EP        644  2.52                             151    0.1310 77.7  40 
 PAM  SN ES        644 19.83                             151   -0.1010 77.7  40 
 PAM  SZ I         644 22.20        17.7 0.60            155           77.7  40 
 RUS  HZ EP        644  3.64                             144   -0.2410  100 176 
 RUS  HE ES        644 22.54                             144   -0.0410  100 176 
 RUS  HZ I         644 23.57        14.3 0.24            144            100 176 
 PTB  HZ EP        644  6.63                             133   -0.41 9  147 259 
 PTB  HN ES        644 27.68                             133   -0.51 9  147 259 
 PTB  HZ I         644 30.73        11.0 0.35            132            147 259 
 TAM  HZ EP        644  7.98                             131    0.18 9  155 105 
 TAM  HN ES        644 29.82                             131    0.27 9  155 105 
 TAM  HZ I         644 31.66         5.2 0.36            134            155 105 
 OCA  HZ EP   1    644  7.50                             130   -0.91 7  160 353 
 OCA  HN ES        644 30.59                             130   -0.05 9  160 353 
 OCA  HZ I         644 34.65        12.8 0.40            132            160 353 
 SPBC HZ EP        644  8.56                             130    0.00 9  163 219 
 SPBC HN ES        644 30.43                             130   -0.47 9  163 219 
 SPBC HZ I         644 33.42        23.5 0.30            129            163 219 
 ZAR  HZ EP        644 12.19                             123   -0.29 9  204 292 
 ZAR  HN ES        644 38.03                             123    0.14 9  204 292 
 ZAR  HZ I         644 43.91        11.4 0.30            123            204 292 
 NOR  HZ EP        644 15.92                             119    0.18 8  234 234 
 NOR  HN ES        644 43.86                             119    0.18 8  234 234 
 NOR  HZ I         644 48.34         8.3 0.20            119            234 234 
 SML  HZ EP        644 16.20                             118   -0.47 8  244 335 
 SML  HN ES   1    644 45.56                             118    0.22 6  244 335 
 SML  HZ I         644 49.06        16.0 0.10            119            244 335 
 CHI  HZ EP        644 17.82                             118    0.11 8  248 195 
 CHI  HN ES   1    644 46.77                             118   -0.43 6  248 195 
 CHI  HZ I         644 53.02         4.3 0.62            118            248 195 
 ROSC BZ EP   4    644 19.42                             117    1.30 0  252 211 
 ROSC BN ES   4    644 49.70                             117    1.77 0  252 211 
 ROSC BZ I         644 57.58        11.6 0.35            117            252 211 
 HEL  HZ EP   1    644 20.40                             115    0.20 6  272 256 
 HEL  HN ES   1    644 52.18                             115    0.55 6  272 256 
 HEL  HZ I         644 58.70         5.8 0.32            115            272 256 
 TOL  SZ EP        644 29.03                             110    0.81 7  343 225 
 TOL  SN ES   1    645  6.44                             110    0.54 5  343 225 
 TOL  SZ I         645 17.42         9.6 0.66            110            343 225 
 MON  HZ EP   4    644 26.62                             109   -2.36 0  354 308 
 MON  HN ES   4    645  5.16                             109   -2.10 0  354 308 
 MON  HZ I         645  7.71         2.6 0.46            109            354 308 
                                                                                
