 2015  520 0034 52.5 L   6.280 -73.591113.7  RSN 12 0.3 1.7LRSN                1
 GAP= 73        0.74       2.2     2.5  4.9 -0.1229E+01  0.3068E+01 -0.4806E+00E
 Epicentro: SANTA HELENA DEL OPON - SANTANDER                                  3
 ACTION:UPD 15-09-10 22:05 OP:cam  STATUS:               ID:20150520003452 L   I
 OLDACT:REG 15-05-20 12:10 OP:spq  STATUS:               ID:20150520002750     3
 2015-05-20-0027-50M.COL___291                                                 6
 STAT SP IPHASW D HRMM SECON CODA AMPLIT PERI AZIMU VELO AIN AR TRES W  DIS CAZ7
 BAR2 EZ EP        035 10.00                             152    0.2310 56.9  53 
 BAR2 EZ ES   1    035 23.44                             152    0.23 7 56.9  53 
 BAR2 EZ I         035 24.40        36.8 0.56            156           56.9  53 
 RUS  HZ EP        035 10.82                             146   -0.1810 70.7 127 
 RUS  HE ES        035 25.17                             146   -0.2310 70.7 127 
 RUS  HZ I         035 26.03         6.5 0.18            149           70.7 127 
 SPBC HZ EP   1    035 11.14                             140   -0.53 7 87.5 218 
 SPBC HN ES        035 26.56                             140   -0.0310 87.5 218 
 SPBC HZ I         035 32.99        13.4 0.30            140           87.5 218 
 BRR  HZ EP        035 11.90                             138   -0.0510 92.5 352 
 BRR  HE ES        035 27.23                             138    0.1510 92.5 352 
 BRR  HZ I         035 28.23         9.5 0.28            141           92.5 352 
 PAM  SZ EP   1    035 18.56                             123    0.28 7  153  40 
 PAM  SN ES        035 38.25                             123   -0.11 9  153  40 
 PAM  SZ I         035 41.85         5.0 0.20            126            153  40 
 NOR  HZ EP   1    035 18.51                             121   -0.14 7  162 241 
 NOR  HN ES        035 39.39                             121    0.38 9  162 241 
 NOR  HZ I         035 40.11        18.7 0.20            122            162 241 
 CHI  HZ EP   1    035 20.72                             117   -0.63 7  183 185 
 CHI  HE ES   1    035 44.33                             117    0.51 7  183 185 
 CHI  HZ I         035 50.06         3.8 0.28            119            183 185 
 ZAR  HZ EP   1    035 22.64                             116    0.64 6  194 314 
 ZAR  HE ES        035 44.41                             116   -0.57 9  194 314 
 ZAR  HZ I         035 50.52         6.7 0.36            118            194 314 
 TAM  HZ EP   1    035 22.88                             115    0.17 6  200  85 
 HEL  HN ES   4    035 51.48                             113    1.57 0  215 267 
 HEL  HZ I         035 53.09         3.1 0.40            115            215 267 
 GUY2CHZ EP        035 26.65                             112    0.18 8  228 239 
 GUY2CHN ES   4    035 54.85                             112    1.92 0  228 239 
 GUY2CHZ I         035 57.85         2.9 0.19                           228 239 
 MON  HZ EP   4    035 39.77                             102   -1.35 0  359 320 
 MON  HN ES   4    036 17.44                             102   -1.56 0  359 320 
 MON  HZ I         036 19.21         1.2 0.23            104            359 320 
                                                                                
