 2016 1120 0619 43.4 L   6.856 -73.142144.2  RSN 11 0.5 1.9LRSN                1
 GAP= 82        1.06       3.7     3.5  6.4 -0.5961E+00  0.9328E+01  0.4487E+01E
 Epicentro: LOS SANTOS - SANTANDER                                             3
 ACTION:UPD 17-10-26 21:09 OP:lp   STATUS:               ID:20161120061943 L   I
 OLDACT:UP  16-11-20 15:32 OP:e    STATUS:               ID:20161120061745     3
 OLDACT:UP  16-11-20 15:31 OP:e    STATUS:               ID:20161120061745     3
 OLDACT:UP  16-11-20 15:31 OP:e    STATUS:               ID:20161120061745     3
 OLDACT:UP  16-11-20 15:27 OP:e    STATUS:               ID:20161120061745     3
 OLDACT:UP  16-11-20 15:26 OP:e    STATUS:               ID:20161120061745     3
 OLDACT:REG 16-11-20 13:30 OP:and  STATUS:               ID:20161120061745     3
 2016-11-20-0618-00M.COL___331                                                 6
 STAT SP IPHASW D HRMM SECON CODA AMPLIT PERI AZIMU VELO AIN AR TRES W  DIS CAZ7
 BAR2 EZ IP     C  620  2.70                             168   -0.3010 29.5 189 
 BAR2 EZ ES        620 17.77                             168   -0.5110 29.5 189 
 BAR2 EZ I         620 19.00        22.7 0.18            166           29.5 189 
 PAM  EZ IP     C  620  5.65                             152    0.4710 72.4  42 
 PAM  EN ES        620 22.46                             152    0.3010 72.4  42 
 PAM  EZ I         620 23.18        11.0 0.34            156           72.4  42 
 PTB  HZ EP        620  9.81                             131   -0.61 9  149 257 
 PTB  HN ES   2    620 30.58                             131   -0.90 5  149 257 
 PTB  HZ I         620 32.40         7.6 0.12            130            149 257 
 TAM  HZ EP        620 11.03                             130   -0.06 9  156 107 
 TAM  HE ES        620 32.61                             130   -0.07 9  156 107 
 ZAR  HZ EP        620 15.63                             122    0.06 9  202 290 
 ZAR  HN ES        620 41.71                             122    1.06 9  202 290 
 ZAR  HZ I         620 47.70        12.0 0.24            122            202 290 
 NOR  HZ EP        620 19.07                             118   -0.42 8  239 233 
 NOR  HN ES        620 47.01                             118   -0.61 8  239 233 
 NOR  HZ I         620 51.07         6.5 0.19            118            239 233 
 CHI  HZ EP        620 22.08                             116    0.39 8  255 195 
 CHI  HN ES        620 52.03                             116    0.48 8  255 195 
 CHI  HZ I         620 56.37         4.0 0.18            117            255 195 
 PTGC HZ EP   4    620 26.00                             111   -1.84 0  314 159 
 PTGC HN ES   4    620 59.35                             111   -3.14 0  314 159 
 CBOC HZ EP        620 31.23                             109    0.69 7  336 251 
 CBOC HN ES        621  7.59                             109    0.30 7  336 251 
 CBOC HZ I         621 13.77         1.5 0.30            110            336 251 
 PRA  HZ EP        620 37.24                             106   -0.30 6  398 209 
 PRA  HE ES        621 20.36                             106    0.61 6  398 209 
 PRA  HZ I         621 25.60         4.8 0.26            106            398 209 
 ORTC HZ EP        620 37.95                             106    0.05 6  401 216 
 ORTC HN ES        621 20.57                             106    0.18 6  401 216 
 ORTC HZ I         621 25.27         2.8 0.32            106            401 216 
 SJC  HZ EP        620 37.43                             105   -0.92 6  404 326 
 SJC  HN ES        621 20.79                             105   -0.41 6  404 326 
                                                                                
