 2012  420 0537 18.0 L   6.824 -73.136138.1  RSN  5 0.2 1.0LRSN                1
 GAP=137        0.49       3.4     3.1  5.6 -0.2004E+01  0.3067E+01  0.4993E+01E
 Epicentro: LOS SANTOS - SANTANDER                                             3
 ACTION:UPD 12-07-05 11:54 OP:tino STATUS:               ID:20120420053718 L   I
 2012-04-20-0530-00M.COL___187                                                 6
 STAT SP IPHASW D HRMM SECON CODA AMPLIT PERI AZIMU VELO AIN AR TRES W  DIS CAZ7
 BAR2 SZ EP   1    537 37.13                             169     0.4 7   26 191 
 BRR  HZ EP   1    537 38.34                             151     0.1 7   71 296 
 BRR  HN ES   1    537 54.17                             151     0.0 7   71 296 
 BRR  HZ I         538 10.55         3.7 0.41                            71 296 
 PAM  SZ EP   1    537 39.02                             150    -0.2 7   75  40 
 PAM  SN ES        537 55.75                             150     0.010   75  40 
 RUS  HZ EP   1    537 41.33                             141     0.2 7  103 177 
 RUS  HN ES   1    537 59.08                             141    -0.2 7  103 177 
 RUS  HZ I         538  0.46         1.3 0.32                           103 177 
 PTB  HZ EP   1    537 44.19                             130    -0.3 7  149 258 
 PTB  HN ES   1    538  5.15                             130     0.0 7  149 258 
 PTB  HZ I         538 12.42         1.1 0.30                           149 258 
                                                                                
