 2017  820 0833 30.0 L   6.084 -73.692106.9  RSN  6 0.2 1.0LRSN                1
 GAP=114        0.52       2.4     2.5  4.9 -0.1925E+01  0.5239E+01 -0.3421E+01E
 Epicentro: CHIPATA - SANTANDER                                                3
 ACTION:UPD 17-09-04 20:22 OP:rebc STATUS:               ID:20170820083330 L   I
 OLDACT:UP  17-08-20 15:43 OP:mg   STATUS:               ID:20170820082523     3
 OLDACT:REG 17-08-20 12:05 OP:mg   STATUS:               ID:20170820082523     3
 2017-08-20-0828-00M.COL___405                                                 6
 STAT SP IPHASW D HRMM SECON CODA AMPLIT PERI AZIMU VELO AIN AR TRES W  DIS CAZ7
 SPBC HZ EP        833 46.30                             147   -0.3710 63.7 221 
 SPBC HN ES        833 59.97                             147    0.2610 63.7 221 
 SPBC HZ I         834  0.44         3.0 0.22            149           63.7 221 
 RUS  HE EP        833 47.95                             144    0.2310 70.6 107 
 RUS  HN ES   1    834  1.53                             144   -0.05 7 70.6 107 
 RUS  HZ I         834  2.11         1.2 0.22            149           70.6 107 
 BAR2 EZ EP   4    833 50.83                             141    2.80 0 79.6  45 
 BAR2 EZ ES        834  1.95                             141   -0.1810 79.6  45 
 BAR2 EZ I         834  3.23         4.5 0.23            143           79.6  45 
 BRR  HZ EP   1    833 50.79                             129    0.19 7  113 359 
 BRR  HN ES   1    834  6.68                             129   -0.03 7  113 359 
 BRR  HZ I         834  9.84         3.2 0.40            131            113 359 
 NOR  HZ EP   1    833 53.44                             122   -0.14 7  143 246 
 NOR  HN ES   1    834 11.93                             122   -0.08 7  143 246 
 NOR  HZ I         834 13.75         1.1 0.23            125            143 246 
 ZAR  HZ EP   1    834  0.24                             113    0.25 6  202 320 
 ZAR  HN ES   1    834 23.44                             113    0.02 6  202 320 
 ZAR  HZ I         834 24.56         0.8 0.25            114            202 320 
                                                                                
