 2012  320 0932 51.2 L   6.854 -74.119 15.8  RSN  6 0.3 1.5LRSN                1
 GAP=107        0.51       2.5     1.7  4.1  0.2115E+00 -0.1313E+01  0.3450E+01E
 ACTION:UP  12-03-31 23:21 OP:EP   STATUS:               ID:20120320093251 L   I
 2012-03-20-0930-00M.COL___202                                                 6
 STAT SP IPHASW D HRMM SECON CODA AMPLIT PERI AZIMU VELO SNR AR TRES W  DIS CAZ7
 PTB  HN ES   2    933  6.02                             104    -0.4 5   51 227 
 BRR  HZ EP        933  0.03                             103     0.010   53  58 
 BRR  HN ES   1    933  6.60                             103    -0.3 7   53  58 
 BRR  HZ I         933  7.86        39.8 0.16                            53  58 
 ZAR  HZ EP   2    933  8.39                              96     0.2 5  108 311 
 ZAR  HN ES   1    933 21.64                              96     0.1 7  108 311 
 BAR2 SZ EP   2    933  8.22                              96    -0.2 5  108 106 
 BAR2 SZ I         933  8.42         6.8 0.33                           108 106 
 BAR2 SZ ES   2    933 22.52                              96     0.7 5  108 106 
 ZAR  HZ I         933 24.92         6.4 0.13                           108 311 
 RUS  HZ EP   2    933 15.80                              56     0.3 5  156 133 
 RUS  HE ES   2    933 34.35                              56    -0.2 5  156 133 
 RUS  HZ I         933 36.30        12.0 0.28                           156 133 
 PAM  SZ EP   2    933 16.77                              56     0.1 5  166  71 
 PAM  SN ES   2    933 36.55                              56    -0.1 5  166  71 
                                                                                
