 2015 1120 0132 37.3 L   6.823 -73.086149.0  RSN 23 0.5 2.5LRSN                1
 GAP=103        1.01       2.3     3.3  4.4 -0.2370E+01  0.3067E+01  0.3842E+00E
 Epicentro: LOS SANTOS - SANTANDER                                             3
 ACTION:UPD 15-12-28 16:12 OP:cam  STATUS:               ID:20151120013237 L   I
 OLDACT:UP  15-11-20 14:13 OP:ak   STATUS:               ID:20151120012739     3
 OLDACT:REG 15-11-20 12:44 OP:ak   STATUS:               ID:20151120012739     3
 2015-11-20-0127-39M.COL___316                                                 6
 STAT SP IPHASW D HRMM SECON CODA AMPLIT PERI AZIMU VELO AIN AR TRES W  DIS CAZ7
 BAR2 EZ EP     D  132 57.55                             169    0.1610 27.6 203 
 BAR2 EZ ES        133 12.83                             169   -0.2510 27.6 203 
 BAR2 EZ I         133 13.82       128.0 0.20            167           27.6 203 
 PAM  EZ EP        133  0.33                             153    0.8310 71.4  37 
 PAM  EN ES        133 17.34                             153    0.5110 71.4  37 
 PAM  EZ I         133 19.81        58.7 0.42            156           71.4  37 
 BRR  HZ EP     C  132 59.39                             152    0.3410 75.9 295 
 BRR  HN ES        133 16.02                             152   -0.0110 75.9 295 
 BRR  HZ I         133 19.76        82.2 0.32            147           75.9 295 
 RUS  HZ EP     D  133  1.43                             144   -0.0810  103 180 
 RUS  HN ES        133 20.19                             144   -0.2310  103 180 
 RUS  HZ I         133 22.03        16.3 0.46            146            103 180 
 OCA  HZ EP        133  5.68                             131   -0.02 9  159 351 
 OCA  HN ES        133 28.18                             131    0.31 9  159 351 
 OCA  HZ I         133 33.19        45.5 0.42            130            159 351 
 SPBC HZ EP        133  6.39                             129   -0.22 9  169 220 
 SPBC HN ES        133 28.58                             129   -0.90 9  169 220 
 SPBC HZ I         133 31.93        39.2 0.12            128            169 220 
 ZAR  HZ EP        133 10.27                             122   -0.20 8  209 291 
 ZAR  HN ES        133 36.19                             122   -0.17 8  209 291 
 ZAR  HZ I         133 40.80        35.6 0.28            121            209 291 
 NOR  HZ EP        133 13.56                             118   -0.37 8  241 235 
 NOR  HN ES        133 41.93                             118   -0.58 8  241 235 
 NOR  HZ I         133 47.78        21.5 0.20            118            241 235 
 SML  HZ EP        133 13.82                             118   -0.33 8  244 334 
 SML  HN ES        133 42.59                             118   -0.32 8  244 334 
 SML  HZ I         133 48.20        32.7 0.15            118            244 334 
 ROSC BZ EP   1    133 17.22                             117    1.04 6  258 212 
 ROSC BN ES        133 46.69                             117    0.16 8  258 212 
 ROSC BZ I         133 51.20        35.0 0.35            117            258 212 
 HEL  HZ EP        133 19.04                             115    0.61 7  279 256 
 HEL  HE ES        133 50.49                             115   -0.04 7  279 256 
 HEL  HZ I         133 56.47        17.2 0.30            114            279 256 
 URE  HZ EP   4    133 17.37                             114   -1.72 0  289 291 
 URE  HN ES   4    133 49.60                             114   -2.10 0  289 291 
 URE  HZ I         133 59.12        22.0 0.16            113            289 291 
 SOCV BZ EP        133 19.30                             113   -0.41 7  294  57 
 SOCV BE ES   4    133 51.24                             113   -1.56 0  294  57 
 GUY2CHZ EP   1    133 22.17                             112    0.36 5  308 235 
 GUY2CHE ES        133 57.41                             112    0.87 7  308 235 
 GUY2CHZ I         134  3.53        14.7 0.38                           308 235 
 PTGC HZ EP        133 20.91                             112   -0.38 7  309 160 
 PTGC HN ES   4    133 53.74                             112   -1.87 0  309 160 
 LL6C HZ EP        133 22.11                             111   -0.76 7  323 356 
 LL6C HN ES        133 57.80                             111   -0.64 7  323 356 
 ELA  HZ EP   4    133 28.24                             110    3.22 0  336 230 
 ELA  HN ES   4    134  4.94                             110    2.68 0  336 230 
 ELA  HZ I         134 10.19        13.5 0.54            111            336 230 
 CBOC HZ EP        133 25.53                             110    0.40 7  341 252 
 CBOC HN ES        134  2.65                             110    0.19 7  341 252 
 CBOC HZ I         134 10.49         4.1 0.58            110            341 252 
 MON  HZ EP   4    133 24.63                             109   -2.20 0  357 307 
 MON  HN ES   4    134  3.35                             109   -2.12 0  357 307 
 MON  HZ I         134 17.75         5.2 0.54            109            357 307 
 ANIL HZ EP   4    133 29.90                             109    1.95 0  364 225 
 ANIL HN ES        134  8.31                             109    0.84 6  364 225 
 PRA  HZ EP        133 31.30                             107   -0.25 6  397 210 
 PRA  HE ES        134 14.23                             107    0.35 6  397 210 
 PRA  HZ I         134 19.63        15.9 0.34            107            397 210 
 ORTC HZ EP        133 32.11                             107    0.11 6  401 217 
 ORTC HE ES        134 14.01                             107   -0.67 6  401 217 
 ORTC HZ I         134 20.14        10.4 0.48            107            401 217 
 SJC  HZ EP   4    133 31.42                             106   -1.71 0  411 326 
 SJC  HN ES   4    134 11.52                             106   -5.17 0  411 326 
 SJC  HZ I         134 19.86         5.5 0.28            106            411 326 
                                                                                
