 2012  120 0932 17.4 L   6.774 -73.136144.6  RSN  8 0.3 1.7LRSN                1
 GAP=139        0.64       3.6     3.7  5.1  0.1726E+01  0.5481E+01  0.2552E+01E
 Epicentro: LOS SANTOS - SANTANDER                                             3
 ACTION:UP  12-02-03 08:19 OP:REBC STATUS:               ID:20120120093217 L   I
 2012-01-20-0930-00M.COL___187                                                 6
 STAT SP IPHASW D HRMM SECON CODA AMPLIT PERI AZIMU VELO SNR AR TRES W  DIS CAZ7
 BAR2 SZ EP        932 36.83                             171     0.010   21 194 
 BAR2 SZ ES   1    932 51.62                             171    -0.4 7   21 194 
 BAR2 SZ I         932 53.49         8.4 0.25                            21 194 
 BRR  HZ EP        932 38.67                             152     0.110   74 300 
 BRR  HZ I         932 40.32        13.5 0.14                            74 300 
 BRR  HN ES   1    932 55.48                             152     0.4 7   74 300 
 PAM  SZ EP   1    932 39.81                             150     0.2 7   79  38 
 PAM  SN ES   1    932 56.66                             150    -0.2 7   79  38 
 RUS  HZ EP   1    932 40.75                             144    -0.1 7   98 177 
 RUS  HN ES   1    932 59.49                             144     0.4 7   98 177 
 RUS  HZ I         933  1.01         4.9 0.42                            98 177 
 PTB  HZ EP   1    932 43.86                             132    -0.5 7  148 260 
 PTB  HN ES   1    933  4.96                             132    -0.4 7  148 260 
 ZAR  HZ EP   1    932 49.85                             122    -0.1 6  206 293 
 ZAR  HN ES   1    933 15.68                             122     0.3 6  206 293 
 ZAR  HZ I         933 21.28         6.3 0.22                           206 293 
 CHI  HZ EP   1    932 54.80                             117     0.0 6  246 196 
 CHI  HN ES   2    933 24.08                             117     0.2 4  246 196 
 CHI  HZ I         933 29.92         2.3 0.28                           246 196 
 HEL  HZ EP   1    932 57.76                             114     0.2 6  272 256 
 HEL  HZ I         933 37.36         3.1 0.31                           272 256 
                                                                                
