 2017  920 0545  6.1 L   6.783 -73.126147.5  RSN  5 0.2 1.4LRSN                1
 GAP=140        0.59       3.1     3.3  4.7  0.2216E+01  0.1787E+01 -0.1532E+00E
 Epicentro: LOS SANTOS - SANTANDER                                             3
 ACTION:UPD 17-10-05 19:14 OP:rebc STATUS:               ID:20170920054506 L   I
 OLDACT:UP  17-09-20 14:48 OP:and  STATUS:               ID:20170920053742d    3
 OLDACT:UP  17-09-20 14:47 OP:and  STATUS:               ID:20170920053742d    3
 OLDACT:DUP 17-09-20 14:46 OP:and  STATUS:               ID:20170920053742d    3
 OLDACT:REG 17-09-20 13:00 OP:and  STATUS:               ID:20170920053741     3
 2017-09-20-0538-00M.COL___443                                                 6
 STAT SP IPHASW D HRMM SECON CODA AMPLIT PERI AZIMU VELO AIN AR TRES W  DIS CAZ7
 BAR2 EZ IP     C  545 25.76                             171   -0.1310 22.0 196 
 BAR2 EZ ES        545 41.31                             171   -0.0310 22.0 196 
 BAR2 EZ I         545 41.61         4.7 0.30            170           22.0 196 
 BRR  HZ EP        545 27.44                             152   -0.1310 74.0 299 
 BRR  HN ES        545 44.73                             152    0.3910 74.0 299 
 PAM  EZ IP     C  545 28.65                             151    0.1710 77.5  37 
 PAM  EN ES        545 45.78                             151   -0.1810 77.5  37 
 RUS  HZ EP        545 30.10                             145    0.2410 98.6 177 
 RUS  HN ES        545 48.25                             145   -0.1510 98.6 177 
 RUS  HZ I         545 49.77         5.8 0.24            144           98.6 177 
 ZAR  HN ES        546  4.26                             122   -0.27 8  207 292 
                                                                                
