 2012  520 0134 58.2 L   6.806 -73.139148.8  RSN 16 0.5 2.9LRSN                1
 GAP=126        1.20       4.1     5.4  6.6 -0.2882E+01  0.9988E+01  0.4575E+01E
 Epicentro: LOS SANTOS - SANTANDER                                             3
 ACTION:UP  12-07-05 12:06 OP:pat  STATUS:               ID:20120520013458 L   I
 2012-05-20-0130-00M.COL___200                                                 6
 STAT SP IPHASW D HRMM SECON CODA AMPLIT PERI AZIMU VELO SNR AR TRES W  DIS CAZ7
 BAR2 SZ IP        135 18.24                             170     0.110   24 192 
 BAR2 SZ ES        135 33.38                             170    -0.410   24 192 
 BAR2 SZ I         135 35.90       303.9 0.40                            24 192 
 BRR  HZ IP     D  135 20.08                             153     0.410   72 298 
 BRR  HN ES   1    135 37.26                             153     0.8 7   72 298 
 BRR  HZ I         135 39.75       169.6 0.13                            72 298 
 PAM  SZ EP        135 20.95                             151     0.310   76  39 
 PAM  SN ES        135 38.19                             151     0.010   76  39 
 RUS  HZ EP        135 22.07                             144    -0.210  101 177 
 RUS  HN ES   1    135 40.77                             144    -0.3 7  101 177 
 RUS  HZ I         135 42.48        87.1 0.21                           101 177 
 PTB  HZ EP        135 24.69                             132    -0.8 9  149 259 
 PTB  HN ES   1    135 45.87                             132    -0.9 7  149 259 
 PTB  HZ I         135 51.85       113.0 0.31                           149 259 
 OCA  HZ EP   1    135 26.59                             130    -0.1 7  160 353 
 OCA  HN ES   1    135 48.81                             130    -0.1 7  160 353 
 OCA  HZ I         135 53.99       176.8 0.29                           160 353 
 ZAR  HZ EP   1    135 30.92                             123     0.1 6  205 292 
 ZAR  HE ES   1    135 56.79                             123     0.4 6  205 292 
 ZAR  HZ I         136  3.34       109.1 0.37                           205 292 
 NOR  SZ EP   1    135 34.23                             119     0.1 6  236 234 
 NOR  SN ES   1    136  2.03                             119    -0.2 6  236 234 
 CHI  HZ EP   1    135 36.27                             117     0.1 6  249 195 
 CHI  HN ES   1    136  6.29                             117     0.6 6  249 195 
 CHI  HZ I         136 11.19        42.3 0.23                           249 195 
 ROSC BZ EP   1    135 37.85                             117     1.3 6  254 211 
 ROSC BZ I         136 20.91        36.0 0.39                           254 211 
 HEL  HZ EP   1    135 39.56                             115     0.9 6  273 256 
 HEL  HZ I         136 17.23        61.2 0.33                           273 256 
 URE  HZ EP   1    135 38.13                             114    -1.3 6  284 292 
 URE  HZ I         136 17.93        42.8 0.07                           284 292 
 VIL  SZ EP   1    135 41.21                             112    -0.6 5  304 192 
 VIL  SN ES   1    136 16.33                             112     0.5 5  304 192 
 VIL  SZ I         136 21.46        22.3 0.29                           304 192 
 DBB  SZ EP   1    135 46.07                             110     0.2 5  340 274 
 SDV  BZ EP   1    135 47.63                             109    -0.6 5  359  50 
 PRA  HZ EP   1    135 51.78                             107    -0.1 4  393 210 
 PRA  HN ES   1    136 33.99                             107     0.2 4  393 210 
                                                                                
