 2012  120 0615 20.8 L   6.784 -73.164145.2  RSN  6 0.3 1.7LRSN                1
 GAP=135        0.78       5.1     4.4  7.2  0.6514E+00  0.4188E+01 -0.2281E+01E
 Epicentro: LOS SANTOS - SANTANDER                                             3
 ACTION:UP  12-02-03 08:19 OP:REBC STATUS:               ID:20120120061520 L   I
 2012-01-20-0610-00M.COL___187                                                 6
 STAT SP IPHASW D HRMM SECON CODA AMPLIT PERI AZIMU VELO SNR AR TRES W  DIS CAZ7
 BAR2 SZ EP   1    615 40.35                             171     0.1 7   21 185 
 BAR2 SZ ES   1    615 55.06                             171    -0.5 7   21 185 
 BAR2 SZ I         615 57.04        11.3 0.23                            21 185 
 BRR  HZ EP        615 42.17                             153     0.410   70 301 
 BRR  HZ I         615 42.51        14.3 0.10                            70 301 
 BRR  HN ES   1    615 58.80                             153     0.6 7   70 301 
 PAM  SZ EP        615 43.04                             150     0.010   80  40 
 PAM  SE ES   1    616  0.29                             150    -0.2 7   80  40 
 RUS  HZ EP   1    615 44.29                             144    -0.1 7   99 175 
 RUS  HN ES   1    616  2.87                             144     0.1 7   99 175 
 RUS  HZ I         616  4.43         4.1 0.52                            99 175 
 PTB  HZ EP   1    615 47.25                             132    -0.2 7  145 259 
 PTB  HN ES   1    616  8.27                             132     0.0 7  145 259 
 ZAR  HN ES   1    616 17.65                             122    -0.6 6  203 293 
 ZAR  HZ I         616 23.90         6.4 0.48                           203 293 
                                                                                
