 2011  620 0401  2.6 L   6.751 -73.094150.0  RSN  7 0.4 1.2LRSN                1
 GAP=165        0.72       5.7    11.6 10.9  0.1241E+02 -0.3293E+02 -0.2097E+01E
 Epicentro: LOS SANTOS - SANTANDER                                             3
 ACTION:UP  11-07-14 19:06 OP:ep   STATUS:               ID:20110620040102 L   I
 2011-06-20-0400-00M.COL___126                                                 6
 STAT SP IPHASW D HRMM SECON CODA AMPLIT PERI AZIMU VELO SNR AR TRES W  DIS CAZ7
 BAR2 SZ EP   1    4 1 22.68                             172     0.0 7   20 209 
 BAR2 SZ I         4 1 23.72         3.1 0.43                            20 209 
 BAR2 SZ ES   2    4 1 37.62                             172    -0.8 5   20 209 
 BTL  SZ EP   2    4 1 23.13                             170     0.3 5   27 314 
 GIR2 SZ EP   2    4 1 22.87                             165    -0.1 5   38 343 
 BRR  HZ EP   1    4 1 24.20                             151    -0.5 7   79 300 
 BRR  HZ I         4 1 24.82         4.3 0.12                            79 300 
 BRR  HE ES   1    4 1 42.18                             151     0.3 7   79 300 
 RUS  HZ EP   2    4 1 26.82                             146     0.4 5   95 179 
 RUS  HZ I         4 1 31.01         0.9 0.20                            95 179 
 RUS  HE ES   2    4 1 45.38                             146     0.4 5   95 179 
 GRA  SZ ES   2    4 1 48.85                             137     0.1 5  129  14 
 GRA  SZ I         4 1 49.42         2.0 0.41                           129  14 
 OCA  SZ ES   2    4 1 54.94                             130     0.3 5  166 351 
 OCA  SZ I         4 1 55.58         2.4 0.30                           166 351 
                                                                                
