 2016  920 0338 28.8 L   6.768 -73.114137.5  RSN  7 0.4 1.6LRSN                1
 GAP=209        0.66       3.2     6.1  6.1 -0.8106E+01  0.1309E+02 -0.2807E+01E
 Epicentro: LOS SANTOS - SANTANDER                                             3
 ACTION:UPD 17-08-17 21:14 OP:lp   STATUS:               ID:20160920033828 L   I
 OLDACT:UP  16-09-20 19:57 OP:and  STATUS:               ID:20160920032735     3
 OLDACT:UP  16-09-20 19:29 OP:and  STATUS:               ID:20160920032735     3
 OLDACT:REG 16-09-20 12:40 OP:and  STATUS:               ID:20160920032735     3
 2016-09-20-0328-00M.COL___363                                                 6
 STAT SP IPHASW D HRMM SECON CODA AMPLIT PERI AZIMU VELO AIN AR TRES W  DIS CAZ7
 BAR2 EZ EP        338 47.57                             171    0.1710 20.8 201 
 BAR2 HN ES        339  1.59                             171   -0.3110 20.8 201 
 BAR2 EZ ES        339  2.70                                           20.8 201 
 BAR2 EZ I         339  3.65         6.5 0.13            168           20.8 201 
 BRR  HZ EP        338 49.72                             149    0.3510 76.0 300 
 BRR  HE ES   3    339  6.37                             149    0.97 2 76.0 300 
 PTB  HZ EP   2    338 54.53                             129   -0.85 5  151 260 
 PTB  HN ES   2    339 15.34                             129   -0.76 5  151 260 
 PTB  HZ I         339 17.58         3.4 0.16            128            151 260 
 SPBC HZ EP        338 56.43                             127   -0.21 9  163 221 
 SPBC HE ES        339 18.62                             127    0.27 9  163 221 
 SPBC HZ I         339 20.61         6.1 0.12            128            163 221 
 OCA  HZ EP   2    338 56.74                             127   -0.15 5  164 352 
 OCA  HN ES        339 18.75                             127   -0.03 9  164 352 
 ZAR  HZ EP   4    338 59.90                             120   -1.32 0  209 293 
 ZAR  HN ES   2    339 26.59                             120    0.10 4  209 293 
 ZAR  HZ I         339 33.02         3.4 0.08            119            209 293 
 NOR  HZ EP   2    339  4.18                             116    0.01 4  235 236 
 NOR  HE ES   2    339 32.11                             116    0.37 4  235 236 
 NOR  HZ I         339 33.39         3.3 0.16            117            235 236 
                                                                                
