 2014 1020 0626 56.5 L   6.810 -73.120150.7  RSN 15 0.5 2.2LRSN                1
 GAP=139        1.07       2.8     4.1  5.5 -0.1164E+01  0.6149E+01  0.1605E+01E
 Epicentro: LOS SANTOS - SANTANDER                                             3
 ACTION:UPD 14-11-29 23:51 OP:nd   STATUS:               ID:20141020062656 L   I
 OLDACT:UP  14-10-20 15:14 OP:mh   STATUS:               ID:20141020061742     3
 OLDACT:UP  14-10-20 15:12 OP:mh   STATUS:               ID:20141020061742     3
 OLDACT:REG 14-10-20 12:55 OP:mh   STATUS:               ID:20141020061742     3
 2014-10-20-0617-42M.COL___268                                                 6
 STAT SP IPHASW D HRMM SECON CODA AMPLIT PERI AZIMU VELO AIN AR TRES W  DIS CAZ7
 BAR2 SZ EP        627 16.87                             170    0.1410 25.1 196 
 BAR2 SZ ES   1    627 32.55                             170    0.02 7 25.1 196 
 BAR2 SZ I         627 35.28        23.3 0.19            168           25.1 196 
 BRR  HZ EP     D  627 18.90                             153    0.6310 73.2 297 
 BRR  HN ES        627 35.97                             153    0.7010 73.2 297 
 BRR  HZ I         627 38.83        20.9 0.16            149           73.2 297 
 PAM  SZ EP   1    627 19.80                             153    0.74 7 74.7  38 
 PAM  SN ES        627 36.18                             153   -0.5010 74.7  38 
 PAM  SZ I         627 37.87        10.1 0.16            154           74.7  38 
 RUS  HZ EP        627 20.80                             145    0.0210  102 178 
 RUS  HN ES        627 39.77                             145    0.0310  102 178 
 RUS  HZ I         627 41.94        12.1 0.50            143            102 178 
 PTB  HZ EP        627 23.48                             133   -0.64 9  151 259 
 PTB  HN ES        627 44.73                             133   -0.95 9  151 259 
 PTB  HZ I         627 46.78        24.3 0.24            129            151 259 
 OCA  HZ EP        627 24.52                             131   -0.58 9  160 352 
 OCA  HN ES        627 47.70                             131    0.27 9  160 352 
 OCA  HZ I         627 51.73        17.5 0.34            130            160 352 
 SPBC HZ EP        627 25.74                             130    0.14 9  166 220 
 SPBC HN ES        627 48.42                             130    0.09 9  166 220 
 SPBC HZ I         627 51.32        22.5 0.16            127            166 220 
 ZAR  HZ EP        627 28.90                             123   -0.57 8  206 292 
 ZAR  HN ES        627 55.80                             123    0.58 8  206 292 
 ZAR  HZ I         628  1.47        25.7 0.30            121            206 292 
 SML  HZ EP        627 33.26                             119   -0.14 8  244 335 
 SML  HN ES        628  1.65                             119   -0.56 8  244 335 
 SML  HZ I         628  8.61        32.2 0.24            117            244 335 
 CHI  HZ EP        627 34.88                             118    0.23 8  250 196 
 CHI  HN ES   1    628  3.76                             118   -0.66 6  250 196 
 CHI  HZ I         628 11.71         7.0 0.56            117            250 196 
 ROSC BZ EP   4    627 36.55                             117    1.42 0  255 211 
 ROSC BN ES   4    628  7.91                             117    2.63 0  255 211 
 HEL  HZ EP   1    627 38.04                             116    0.76 6  275 256 
 HEL  HN ES        628  9.26                             116    0.15 8  275 256 
 HEL  HZ I         628 14.90         8.4 0.26            114            275 256 
 URE  HZ EP   4    627 36.14                             114   -1.90 0  286 291 
 URE  HN ES   4    628  8.46                             114   -2.00 0  286 291 
 RREF HZ EP   4    627 40.26                             112   -2.90 0  325 230 
 RREF HN ES   4    628 17.86                             112   -1.72 0  325 230 
 RREF HZ I         628 25.64         9.5 0.60            110            325 230 
 CBOC HZ EP   1    627 44.30                             111    0.35 5  337 252 
 CBOC HZ I         628 10.08         3.4 0.10            109            337 252 
 CBOC HN ES        628 20.91                             111   -0.07 7  337 252 
 TOL  SZ EP        627 45.53                             110    0.28 6  346 225 
 TOL  SN ES   4    628 23.95                             110    0.65 0  346 225 
 TOL  SZ I         628 29.98        10.1 0.21            109            346 225 
 MON  HZ EP   4    627 43.96                             109   -1.89 0  355 308 
 MON  HN ES   4    628 22.73                             109   -1.64 0  355 308 
 PRA  HZ EP        627 50.38                             107   -0.06 6  394 210 
 PRA  HN ES        628 32.67                             107    0.13 6  394 210 
 PRA  HZ I         628 37.85         5.1 0.26            106            394 210 
 SJC  HZ EP   4    627 50.38                             107   -1.90 0  410 327 
 SJC  HN ES   4    628 34.73                             107   -1.07 0  410 327 
                                                                                
