 2010 1220 0951 35.8 L   6.616 -72.950  0.0  RSN 14 0.6 3.7LRSN                1
 GAP=149        1.31       4.3     7.6  7.9 -0.1460E+02  0.1935E+02  0.4225E+01E
 Epicentro: ARATOCA - SANTANDER                                                3
 ACTION:UP  11-01-14 15:26 OP:pat  STATUS:               ID:20101220095135 L   I
 2010-12-20-0950-03S.COL___132                                                 6
 STAT SP IPHASW D HRMM SECON CODA AMPLIT PERI AZIMU VELO SNR AR TRES W  DIS CAZ7
 BAR2 SZ IP        951 40.08                              47    -1.010   26 264 
 BAR2 SZ I         951 48.52      7320.2 0.37                            26 264 
 GUE  SZ EP   1    951 58.01                              47     0.4 7  134   1 
 GRA  SZ EP        951 57.98                              47    -0.5 9  141   7 
 GRA  SZ I         952 21.79       467.3 0.37                           141   7 
 OCA  SZ EP        952  5.66                              37     0.8 9  184 347 
 OCA  SZ ES   1    952 28.26                              37     0.7 7  184 347 
 OCA  SZ I         952 36.87       676.9 0.31                           184 347 
 CHI  HZ EP        952 11.58                              37    -0.1 8  236 202 
 CHI  HZ I         952 14.88      1048.1 0.93                           236 202 
 CHI  HE ES   1    952 40.10                              37     0.4 6  236 202 
 NOR  SZ EP        952 11.75                              37    -0.3 8  242 241 
 NOR  SN ES   1    952 40.06                              37    -0.3 6  242 241 
 ROSC BZ EP   1    952 13.29                              37     0.1 6  248 218 
 ROSC BZ I         952 53.44       264.2 0.46                           248 218 
 VIL  SZ EP   1    952 17.09                              37    -0.6 6  286 195 
 VIL  SE ES   1    952 51.27                              37     1.0 6  286 195 
 VIL  SZ I         953  0.69       333.1 0.57                           286 195 
 HEL  HZ IP     C  952 18.84                              37     0.6 7  289 261 
 HEL  HN ES   1    952 51.50                              37     0.1 5  289 261 
 GUY  SZ EP   1    952 21.80                              36     1.0 5  309 240 
 GUY  SE ES   1    952 56.64                              36     0.7 5  309 240 
 GUY  SZ I         953  3.29       625.4 0.40                           309 240 
 RREF HZ EP        952 23.26                              36     0.1 7  326 235 
 RREF HE ES   1    953  0.08                              36    -0.1 5  326 235 
 RREF HZ I         953  8.54       276.6 0.69                           326 235 
 TOL  SZ EP   1    952 25.01                              36    -0.2 5  346 230 
 SDV  BZ EP   1    952 25.89                              36    -0.7 5  358  45 
 SDV  BZ I         953 14.35       154.4 0.60                           358  45 
 PRA  HZ EP        952 29.69                              36    -0.2 6  386 214 
 PRA  HZ I         953 26.52       286.5 0.76                           386 214 
                                                                                
