 2014  420 0438 23.7 L   6.252 -73.423119.1  RSN  5 0.5 1.5LRSN                1
 GAP=242        1.12       5.8     9.6 13.8  0.3447E+01 -0.5709E+02 -0.3253E+02E
 Epicentro: GUADALUPE - SANTANDER                                              3
 ACTION:UPD 14-05-13 23:09 OP:nd   STATUS:               ID:20140420043823 L   I
 OLDACT:REG 14-04-20 13:33 OP:nd   STATUS:               ID:20140420043044     3
 2014-04-20-0430-44M.COL___230                                                 6
 STAT SP IPHASW D HRMM SECON CODA AMPLIT PERI AZIMU VELO AIN AR TRES W  DIS CAZ7
 SPBC HZ EP        438 43.86                             138   -0.2910 97.8 227 
 SPBC HN ES   1    439  0.88                             138    0.78 7 97.8 227 
 SPBC HZ I         439  4.36         5.0 0.12            143           97.8 227 
 PTB  HZ EP        438 45.63                             132   -0.2210  119 286 
 PTB  HN ES        439  2.60                             132   -0.5310  119 286 
 PTB  HZ I         439  7.54         3.9 0.10            135            119 286 
 ZAR  HZ EP        438 55.47                             115    0.29 8  210 311 
 ZAR  HN ES        439 20.55                             115    0.82 8  210 311 
 ZAR  HZ I         439 22.37         5.3 0.36            118            210 311 
 HEL  HZ EP        438 58.02                             112   -0.24 8  233 268 
 HEL  HN ES        439 25.12                             112   -0.09 8  233 268 
 HEL  HZ I         439 33.36         1.9 0.24            117            233 268 
 SML  HZ EP        439  5.04                             107    0.63 7  291 346 
 SML  HN ES        439 35.51                             107   -0.65 7  291 346 
 SML  HZ I         439 48.27         1.9 0.24            111            291 346 
                                                                                
