 2014 1220 0252 29.6 L   6.813 -73.157147.5  RSN 14 0.4 1.9LRSN                1
 GAP= 70        0.90       2.5     2.8  5.2  0.3453E+00  0.2576E+01  0.2370E+00E
 Epicentro: LOS SANTOS - SANTANDER                                             3
 ACTION:UPD 15-02-10 17:05 OP:nd   STATUS:               ID:20141220025229 L   I
 OLDACT:REG 14-12-20 12:57 OP:spq  STATUS:               ID:20141220024743     3
 2014-12-20-0247-43M.COL___305                                                 6
 STAT SP IPHASW D HRMM SECON CODA AMPLIT PERI AZIMU VELO AIN AR TRES W  DIS CAZ7
 BAR2 EZ EP        252 49.35                             170   -0.0710 24.6 187 
 BAR2 EZ ES   1    253  4.68                             170   -0.24 7 24.6 187 
 BAR2 EZ I         253  5.65        17.6 0.30            169           24.6 187 
 BRR  HZ EP        252 50.26                             153   -0.5410 69.4 298 
 BRR  HN ES   1    253  8.38                             153    1.02 7 69.4 298 
 BRR  HZ I         253 11.44        12.7 0.24            151           69.4 298 
 PAM  SZ EP        252 52.19                             151    0.2510 77.1  41 
 PAM  SN ES        253  9.28                             151   -0.1210 77.1  41 
 PAM  SZ I         253 11.57        10.0 0.50            155           77.1  41 
 RUS  HZ EP        252 53.32                             144   -0.2710  102 175 
 RUS  HN ES        253 12.09                             144   -0.2510  102 175 
 RUS  HZ I         253 13.93         5.9 0.42            145            102 175 
 PTB  HZ EP        252 56.29                             132   -0.30 9  147 258 
 PTB  HE ES        253 17.91                             132    0.25 9  147 258 
 PTB  HZ I         253 24.13         8.3 0.74            132            147 258 
 TAM  HZ EP        252 57.89                             130    0.37 9  157 105 
 TAM  HN ES        253 19.65                             130    0.32 9  157 105 
 TAM  HZ I         253 21.18         8.2 0.30            135            157 105 
 OCA  HZ EP   1    252 57.52                             130   -0.34 7  159 354 
 OCA  HN ES        253 19.52                             130   -0.41 9  159 354 
 OCA  HZ I         253 24.52         8.4 0.44            131            159 354 
 SPBC HZ EP        252 58.68                             129    0.45 9  164 218 
 SPBC HN ES   1    253 20.05                             129   -0.53 7  164 218 
 SPBC HZ I         253 28.97        11.0 0.24            130            164 218 
 ZAR  HZ EP   1    253  1.84                             123   -0.10 6  202 292 
 ZAR  HN ES        253 27.41                             123    0.21 9  202 292 
 ZAR  HZ I         253 32.64         9.5 0.26            123            202 292 
 SML  HZ EP        253  6.09                             118    0.01 8  242 335 
 SML  HN ES   1    253 35.05                             118    0.48 6  242 335 
 SML  HZ I         253 41.58         8.0 0.26            119            242 335 
 CHI  HZ EP        253  8.07                             117    0.60 8  250 195 
 CHI  HE ES        253 36.63                             117   -0.41 8  250 195 
 CHI  HZ I         253 40.75         6.1 0.46            119            250 195 
 HEL  HZ EP   4    253 11.13                             115    1.36 0  271 255 
 HEL  HN ES   1    253 41.50                             115    0.37 6  271 255 
 HEL  HZ I         253 45.81         3.2 0.28            116            271 255 
 TOL  SN ES   4    253 57.12                             109    1.51 0  344 224 
 TOL  SZ I         254  3.32         9.1 0.64            110            344 224 
 SJC  HZ EP   4    253 23.66                             106   -1.30 0  407 327 
 SJC  HN ES   1    254  7.39                             106   -0.77 4  407 327 
 SJC  HZ I         254 14.38         1.6 0.40            107            407 327 
                                                                                
