 2010  620 0448 14.9 L   6.550 -72.994191.0  RSN  9 0.5 2.1LRSN                1
 GAP=178        1.25       7.0    18.1 10.5 -0.6716E+02  0.4546E+02 -0.1000E+02E
 Epicentro: MOGOTES - SANTANDER                                                3
 ACTION:UP  10-08-24 10:11 OP:vdl  STATUS:               ID:20100620044814 L   I
 2010-06-20-0445-56S.COL___118                                                 6
 STAT SP IPHASW D HRMM SECON CODA AMPLIT PERI AZIMU VELO SNR AR TRES W  DIS CAZ7
 BAR2 SZ IP        448 39.38                             173    -0.610   21 283 
 BAR2 SZ ES   1    448 59.20                             173    -0.3 7   21 283 
 RUS  HZ EP        448 41.92                             158     0.010   73 188 
 RUS  HZ I         448 42.17        41.2 0.15                            73 188 
 RUS  HE ES   1    449  3.08                             158     0.1 7   73 188 
 BRI  SZ IP        448 45.24                             144     0.410  131  10 
 BRI  SZ ES   1    449  9.17                             144     1.0 7  131  10 
 GUE  SZ EP        448 45.21                             142    -0.6 9  142   3 
 GRA  SZ IP        448 46.24                             140     0.1 9  149   8 
 GRA  SZ ES   1    449 10.85                             140     0.3 7  149   8 
 OCA  SZ ES   1    449 15.83                             133    -0.8 7  190 349 
 OCA  SZ I         449 22.40         6.1 0.11                           190 349 
 CHI  HN ES   2    449 23.50                             128     0.1 4  227 201 
 CHI  HZ I         449 28.01         5.8 0.31                           227 201 
 HEL  HZ EP   1    448 59.88                             122     1.0 6  283 262 
 HEL  HZ I         449 35.79         3.5 0.41                           283 262 
 RREF HZ EP   1    449  3.15                             119     0.2 5  318 235 
 RREF HZ I         449  4.68         6.0 0.15                           318 235 
                                                                                
