 2013 1120 0541 36.4 L   7.357 -73.697 91.7  RSN  9 0.3 1.7LRSN                1
 GAP= 69        0.75       2.1     2.9  4.9 -0.2692E+00  0.2002E+01  0.4574E+00E
 Epicentro: SABANA DE TORRES - SANTANDER                                       3
 ACTION:UPD 14-01-09 16:29 OP:ep   STATUS:               ID:20131120054136 L   I
 OLDACT:REG 13-11-20 07:27 OP:nd   STATUS:               ID:20131120054000     3
 2013-11-20-0540-00M.COL___279                                                 6
 STAT SP IPHASW D HRMM SECON CODA AMPLIT PERI AZIMU VELO AIN AR TRES W  DIS CAZ7
 BRR  HZ EP        541 49.83                             162    0.4210 27.7 183 
 BRR  HN ES        541 59.36                             162   -0.1710 27.7 183 
 BRR  HZ I         542  0.98        24.7 0.12            158           27.7 183 
 BAR2 SZ EP        541 55.45                             128    0.2810  102 146 
 BAR2 SZ I         542 11.38        24.7 0.40            124            102 146 
 OCA  HZ EP        541 55.65                             127    0.1910  106  23 
 OCA  HN ES        542 10.25                             127   -0.0410  106  23 
 OCA  HZ I         542 17.31         7.0 0.68            125            106  23 
 PAM  SZ EP        541 56.75                             126    0.4410  110  91 
 PAM  SN ES        542 11.66                             126   -0.1510  110  91 
 PAM  SZ I         542 13.72        12.3 0.58            123            110  91 
 PTB  HZ EP        541 56.87                             123   -0.1610  123 223 
 PTB  HN ES   2    542 13.09                             123   -0.01 5  123 223 
 PTB  HZ I         542 15.25         6.2 0.44            119            123 223 
 ZAR  HZ EP   2    541 57.88                             121    0.26 5  129 277 
 ZAR  HN ES   2    542 15.06                             121    0.92 5  129 277 
 ZAR  HZ I         542 18.95         9.9 0.10            118            129 277 
 SML  HZ EP        542  1.45                             115   -0.08 9  165 346 
 SML  HN ES        542 20.65                             115   -0.45 9  165 346 
 SML  HZ I         542 27.33        20.9 0.10            112            165 346 
 RUS  HZ EP        542  3.24                             113   -0.12 9  176 157 
 RUS  HN ES   2    542 24.01                             113   -0.36 4  176 157 
 RUS  HZ I         542 29.06         2.0 0.18            110            176 157 
 SPBC HZ EP        542  4.25                             111   -0.61 9  193 192 
 SPBC HN ES   2    542 27.00                             111   -0.02 4  193 192 
 SPBC HZ I         542 36.24         5.2 0.34            108            193 192 
 SJC  HZ EP   4    542 14.22                             102   -6.27 0  325 330 
 SJC  HN ES   4    542 53.42                             102   -1.42 0  325 330 
                                                                                
