 2011  520 0013 27.7 L   6.843 -73.057133.1  RSN  6 0.4 1.4LRSN                1
 GAP=146        0.90       4.9     9.0  9.3 -0.8388E+01 -0.1618E+02 -0.2452E+01E
 Epicentro: LOS SANTOS - SANTANDER                                             3
 ACTION:UP  11-06-29 08:54 OP:tino STATUS:               ID:20110520001327 L   I
 2011-05-20-0010-56S.COL___140                                                 6
 STAT SP IPHASW D HRMM SECON CODA AMPLIT PERI AZIMU VELO SNR AR TRES W  DIS CAZ7
 BTL  SZ EP        013 46.10                             169     0.210   25 290 
 BAR2 SZ EP   1    013 45.88                             166    -0.2 7   31 207 
 BAR2 SZ I         013 46.50         6.7 0.17                            31 207 
 BAR2 SZ ES   1    013 59.97                             166    -0.3 7   31 207 
 PAM  SZ EP   1    013 48.72                             152     0.7 7   68  36 
 PAM  SN ES   2    014  4.01                             152     0.2 5   68  36 
 BRR  HZ EP   1    013 47.59                             148    -0.4 7   78 292 
 BRR  HE ES   1    014  4.05                             148     0.3 7   78 292 
 BRR  HZ I         014  8.26        11.1 0.16                            78 292 
 RUS  HZ EP   1    013 50.12                             140    -0.5 7  105 182 
 RUS  HN ES   1    014  8.71                             140     0.3 7  105 182 
 RUS  HZ I         014 10.23         2.2 0.31                           105 182 
 GRA  SZ EP   1    013 51.34                             136     0.1 7  119  14 
 GRA  SZ ES   1    014  9.05                             136    -0.5 7  119  14 
 GRA  SZ I         014 14.30         5.2 0.30                           119  14 
                                                                                
