 2015  220 0637 44.3 L   6.776 -73.130142.2  RSN 11 0.5 1.7LRSN                1
 GAP= 98        1.16       4.0     3.4  6.1 -0.1102E+01  0.4206E+01  0.5005E+01E
 Epicentro: LOS SANTOS - SANTANDER                                             3
 ACTION:UPD 15-04-30 21:27 OP:nd   STATUS:               ID:20150220063744 L   I
 OLDACT:REG 15-02-20 13:58 OP:mher STATUS:               ID:20150220062740     3
 2015-02-20-0627-40M.COL___281                                                 6
 STAT SP IPHASW D HRMM SECON CODA AMPLIT PERI AZIMU VELO AIN AR TRES W  DIS CAZ7
 BAR2 EZ IP     C  638  3.78                             171    0.3110 21.1 196 
 BAR2 EZ I         638  4.09        16.1 0.10            168           21.1 196 
 BAR2 EZ ES        638 18.68                             171    0.2610 21.1 196 
 BRR  HZ IP     C  638  5.70                             151    0.4510 74.1 300 
 BRR  HZ I         638  5.88         9.9 0.28            151           74.1 300 
 BRR  HE ES        638 21.94                             151    0.3610 74.1 300 
 PAM  SZ IP     C  638  6.60                             150    0.3810 78.4  37 
 PAM  SN ES        638 23.12                             150   -0.1810 78.4  37 
 PAM  SZ I         638 24.38         5.3 0.30            154           78.4  37 
 RUS  HZ EP        638  7.42                             144   -0.0910 97.8 177 
 RUS  HZ I         638  8.54         4.9 0.48            144           97.8 177 
 RUS  HN ES        638 25.83                             144    0.2210 97.8 177 
 PTB  HZ EP        638 10.58                             131   -0.53 9  149 260 
 PTB  HN ES        638 31.10                             131   -0.91 9  149 260 
 PTB  HZ I         638 37.31         6.8 0.30            131            149 260 
 TAM  HZ EP        638 12.03                             130    0.54 9  153 104 
 TAM  HN ES        638 31.49                             130   -1.19 9  153 104 
 TAM  HZ I         638 34.15         4.0 0.28            133            153 104 
 SPBC HZ EP        638 12.60                             128    0.15 9  162 220 
 SPBC HN ES        638 34.51                             128    0.11 9  162 220 
 SPBC HZ I         638 37.86         8.6 0.20            128            162 220 
 ZAR  HZ EP        638 16.82                             121    0.01 8  207 293 
 ZAR  HN ES        638 41.82                             121   -0.33 8  207 293 
 ZAR  HZ I         638 47.96         8.0 0.32            122            207 293 
 NOR  HZ EP        638 19.31                             118   -0.52 8  235 235 
 NOR  HE ES        638 48.14                             118    0.61 8  235 235 
 NOR  HZ I         638 54.06         5.9 0.18            118            235 235 
 CHI  HZ EP        638 21.63                             117    0.05 8  247 196 
 CHI  HN ES        638 50.79                             117    0.13 8  247 196 
 CHI  HZ I         638 59.09         1.4 0.62            117            247 196 
 GUY2CHZ EP        638 28.21                             112    0.46 7  301 235 
 GUY2CHN ES        639  1.07                             112   -0.56 7  301 235 
 GUY2CHZ I         639 10.32         3.9 0.40                           301 235 
                                                                                
