 2016  120 0449 14.0 L   7.447 -73.239128.0  RSN  4 0.4 1.6LRSN                1
 GAP=133        0.94       4.2     5.7 10.9 -0.1605E+01  0.3304E+02 -0.1555E+02E
 Epicentro: EL PLAYON - SANTANDER                                              3
 ACTION:UPD 16-03-09 23:27 OP:cam  STATUS:               ID:20160120044914 L   I
 OLDACT:REG 16-01-20 12:24 OP:mh   STATUS:               ID:20160120044747     3
 2016-01-20-0447-47M.COL___328                                                 6
 STAT SP IPHASW D HRMM SECON CODA AMPLIT PERI AZIMU VELO AIN AR TRES W  DIS CAZ7
 PAM  EZ EP        449 33.63                             153    0.3310 60.7 101 
 PAM  EE ES        449 48.65                             153    0.2710 60.7 101 
 PAM  EZ I         449 50.01         7.1 0.42            159           60.7 101 
 BAR2 EZ EP   1    449 35.16                             141   -0.03 7 94.7 176 
 BAR2 EZ ES        449 51.09                             141   -0.6610 94.7 176 
 PTB  HZ EP   1    449 41.23                             124   -0.29 7  168 233 
 PTB  HN ES        450  3.61                             124    0.58 9  168 233 
 PTB  HZ I         450  7.65         2.6 0.14            125            168 233 
 SML  HZ EP        449 42.17                             122   -0.12 9  176 329 
 SML  HN ES        450  4.19                             122   -0.21 9  176 329 
 SML  HZ I         450  5.88         8.8 0.10            125            176 329 
                                                                                
