 2012  820 0123 50.8 L   6.805 -73.151150.5  RSN 17 0.5 3.6LRSN 3.8WRSN        1
 SPEC AVERAGE  MO 14.9 ST 73.7 OM  3.7 f0 3.43 R0.4548 AL 2.21 WI 21.7 MW  3.8 3
 SPEC SD       MO  0.2 ST 96.4 OM  0.6 f00.839 R0.1128 AL      WI      MW  0.2 3
 GAP= 55        0.94       2.8     2.9  5.2 -0.7931E+00  0.8140E+00  0.2056E+01E
 Epicentro: LOS SANTOS - SANTANDER                                             3
 SPEC TAM HH N MO 14.9 ST 11.6 OM  3.2 f0 2.19 R0.6712 AL 1.81 WI 17.2 MW  3.9 3
 SPEC TAM HH N T 12440 K 0.000 GD  216 VS 4.20 DE 3.00 Q0230.0 QA 0.60 VS 4.20 3
 SPEC OCA HH N MO 15.2 ST281.6 OM  3.5 f0 5.01 R0.2934 AL 2.86 WI 20.7 MW  4.1 3
 SPEC OCA HH N T 12439 K 0.000 GD  219 VS 4.20 DE 3.00 Q0230.0 QA 0.60 VS 4.20 3
 SPEC PTB HH N MO 14.7 ST 21.6 OM  3.0 f0 3.17 R0.4637 AL 1.73 WI 25.1 MW  3.7 3
 SPEC PTB HH N T 12438 K 0.000 GD  210 VS 4.20 DE 3.00 Q0230.0 QA 0.60 VS 4.20 3
 SPEC RUS HH N MO 15.1 ST 87.7 OM  3.5 f0 3.62 R0.4061 AL 2.18 WI 10.8 MW  4.0 3
 SPEC RUS HH N T 12432 K 0.000 GD  181 VS 4.20 DE 3.00 Q0230.0 QA 0.60 VS 4.20 3
 SPEC HEL HH N MO 14.6 ST 15.6 OM  2.7 f0 3.14 R0.4682 AL 1.87 WI 35.7 MW  3.7 3
 SPEC HEL HH N T 12459 K 0.000 GD  310 VS 4.20 DE 3.00 Q0230.0 QA 0.60 VS 4.20 3
 SPEC CHI HH N MO 14.6 ST 24.3 OM  2.8 f0 3.45 R0.4261 AL 2.80 WI 20.6 MW  3.7 3
 SPEC CHI HH N T 12457 K 0.000 GD  290 VS 4.20 DE 3.00 Q0230.0 QA 0.60 VS 4.20 3
 ACTION:UPD 12-09-10 11:57 OP:ep   STATUS:               ID:20120820012350 L   I
 2012-08-20-0120-00M.COL___217                                                 6
 STAT SP IPHASW D HRMM SECON CODA AMPLIT PERI AZIMU VELO AIN AR TRES W  DIS CAZ7
 BAR2 SZ IP        124 11.10                             171    0.1210 23.8 188 
 BAR2 SZ ES   1    124 26.38                             171   -0.36 7 23.8 188 
 BAR2 SZ I         124 27.38      2027.9 0.27                          23.8 188 
 BRR  HZ IP     C  124 12.99                             154    0.5910 70.5 298 
 BRR  HZ I         124 13.29      1915.9 0.20                          70.5 298 
 BRR  HN ES   1    124 30.09                             154    0.83 7 70.5 298 
 PAM  SZ IP        124 13.90                             152    0.4110 77.3  40 
 PAM  SZ I         124 14.18      1096.6 0.20                          77.3  40 
 PAM  SN ES   1    124 31.11                             152   -0.10 7 77.3  40 
 RUS  HZ IP     D  124 14.96                             145   -0.0710  101 176 
 RUS  HN ES   1    124 33.31                             145   -0.64 7  101 176 
 RUS  HZ I         124 35.01       648.3 0.36                           101 176 
 PTB  HZ EP   1    124 17.56                             133   -0.53 7  147 259 
 PTB  HN ES   1    124 39.02                             133   -0.38 7  147 259 
 PTB  HZ I         124 46.32       280.8 0.34                           147 259 
 TAM  HZ IP     C  124 19.28                             131    0.39 9  156 105 
 TAM  HN ES   1    124 40.82                             131    0.00 7  156 105 
 TAM  HZ I         124 42.30       212.8 0.36                           156 105 
 OCA  HZ EP        124 19.15                             131   -0.25 9  160 353 
 OCA  HN ES   1    124 41.76                             131    0.03 7  160 353 
 OCA  HZ I         124 48.27       787.3 0.27                           160 353 
 YOP  SZ IP        124 21.58                             127    0.35 9  180 153 
 YOP  SN ES   1    124 45.72                             127    0.73 7  180 153 
 YOP  SZ I         124 46.62       265.0 0.26                           180 153 
 ZAR  HZ EP        124 23.24                             124   -0.22 9  203 292 
 ZAR  HE ES   1    124 48.57                             124   -0.38 6  203 292 
 ZAR  HZ I         124 56.14       528.0 0.31                           203 292 
 NOR  SZ EP        124 26.83                             120    0.06 8  235 234 
 NOR  SN ES   1    124 54.64                             120   -0.20 6  235 234 
 NOR  SZ I         125  0.59       148.2 0.29                           235 234 
 CHI  HZ EP        124 28.78                             118    0.00 8  249 195 
 CHI  HZ I         124 31.77       153.2 0.40                           249 195 
 CHI  HN ES   1    124 58.01                             118   -0.41 6  249 195 
 ROSC BN ES   1    124 58.08                             118   -1.05 6  253 211 
 HEL  HZ EP   2    124 31.69                             116    0.50 4  272 256 
 HEL  HE ES   1    125  2.73                             116    0.02 6  272 256 
 HEL  HZ I         125  9.73       142.5 0.35                           272 256 
 GUY  SN ES   2    125 10.07                             113    0.84 4  303 235 
 GUY  SZ I         125 16.62       482.3 0.40                           303 235 
 VIL  SZ EP        124 33.92                             113   -0.54 7  304 191 
 VIL  SN ES   1    125  8.36                             113   -0.17 5  304 191 
 VIL  SZ I         125 11.44       147.5 0.41                           304 191 
 TOL  SZ EP        124 40.05                             110    0.83 7  343 225 
 SDV  BZ EP        124 40.16                             109   -0.85 6  360  50 
 SDV  BN ES   1    125 19.21                             109   -0.98 5  360  50 
                                                                                
