 2013  320 0933 13.4 L   6.305 -73.584117.7  RSN  5 0.5 1.7LRSN                1
 GAP=156        1.26       7.9     7.3 11.3  0.3310E+02  0.3392E+02  0.1103E+02E
 Epicentro: SANTA HELENA DEL OPON - SANTANDER                                  3
 ACTION:UPD 13-04-09 14:03 OP:ep   STATUS:               ID:20130320093001dL   I
 2013-03-20-0930-00M.COL___244                                                 6
 STAT SP IPHASW D HRMM SECON CODA AMPLIT PERI AZIMU VELO AIN AR TRES W  DIS CAZ7
 BAR2 SZ ES   1    933 43.97                             154   -0.61 7 54.6  54 
 RUS  HZ EP        933 32.68                             147    0.3610 71.8 129 
 RUS  HN ES        933 47.13                             147    0.0410 71.8 129 
 RUS  HN I         933 47.65         3.5 0.22            151           71.8 129 
 BRR  HZ EP   1    933 32.57                             140   -0.36 7 89.8 351 
 BRR  HN ES        933 48.52                             140    0.3410 89.8 351 
 BRR  HN I         933 53.90        12.7 0.22            138           89.8 351 
 PTB  HZ EP        933 32.86                             137   -0.9210 99.9 285 
 PTB  HN ES        933 50.04                             137    0.3510 99.9 285 
 PTB  HN I         933 50.36         8.9 0.28            138           99.9 285 
 ZAR  HZ EP        933 43.69                             117    0.79 9  193 313 
 ZAR  HE ES        934  5.62                             117   -0.31 9  193 313 
 ZAR  HE I         934 10.25        13.2 0.16            118            193 313 
                                                                                
