 2010  320 0442  7.3 L   6.329 -73.478124.0  RSN  4 0.2 1.4LRSN                1
 GAP=135        0.53       5.1     8.0  8.8  0.1635E+02  0.3823E+02  0.2826E+02E
 Epicentro: CONTRATACION - SANTANDER                                           3
 ACTION:UP  10-08-24 09:55 OP:vdl  STATUS:               ID:20100320044207 L   I
 2010-03-20-0438-59S.COL___098                                                 6
 STAT SP IPHASW D HRMM SECON CODA AMPLIT PERI AZIMU VELO SNR AR TRES W  DIS CAZ7
 BAR2 SZ IP        442 25.33                             159     0.310   44  48 
 BAR2 SZ ES   1    442 38.73                             159    -0.1 7   44  48 
 RUS  HZ EP   1    442 26.21                             151    -0.3 7   65 138 
 RUS  HZ I         442 42.21         4.6 0.32                            65 138 
 BRR  HZ IP        442 27.32                             141    -0.110   90 343 
 BRR  HE ES   1    442 43.18                             141     0.0 7   90 343 
 BRR  HZ I         442 47.55         7.5 0.14                            90 343 
 PRA  HZ EP   2    442 52.44                             106    -0.2 3  329 208 
 PRA  HN ES   2    443 28.21                             106     0.2 3  329 208 
                                                                                
