 2011 1120 0847 50.3 L   6.756 -73.117140.9  RSN  5 0.3 1.7LRSN                1
 GAP=142        0.61       4.8     5.0  6.2  0.2578E+01  0.4040E+01  0.1818E+01E
 Epicentro: LOS SANTOS - SANTANDER                                             3
 ACTION:UPD 12-07-13 16:11 OP:ep   STATUS:               ID:20111120084750 L   I
 2011-11-20-0846-17S.COL___178                                                 6
 STAT SP IPHASW D HRMM SECON CODA AMPLIT PERI AZIMU VELO AIN AR TRES W  DIS CAZ7
 BAR2 SZ EP   1    848  9.20                             172   -0.08 7 19.5 202 
 BAR2 SZ ES   1    848 23.57                             172   -0.52 7 19.5 202 
 BAR2 SZ I         848 25.23        14.8 0.26                          19.5 202 
 BRR  HZ EP   1    848 11.15                             150   -0.09 7 76.4 301 
 BRR  HZ I         848 11.55        11.7 0.13                          76.4 301 
 BRR  HE ES   1    848 28.07                             150    0.50 7 76.4 301 
 PAM  SZ EP   1    848 12.26                             149    0.13 7 79.3  36 
 PAM  SN ES   1    848 29.13                             149   -0.02 7 79.3  36 
 PAM  SZ I         848 31.27         8.2 0.47                          79.3  36 
 RUS  HZ EP   1    848 13.22                             144    0.00 7 95.6 178 
 RUS  HE ES   2    848 31.66                             144    0.56 5 95.6 178 
 RUS  HZ I         848 33.73         3.1 0.27                          95.6 178 
 ZAR  HZ EP   2    848 23.07                             121    0.12 4  209 293 
 ZAR  HN ES   2    848 47.78                             121   -0.62 4  209 293 
 ZAR  HZ I         848 53.89         5.5 0.07                           209 293 
                                                                                
