 2013 1020 0909 23.7 L   6.806 -73.162145.4  RSN  4 0.2 1.6LRSN                1
 GAP=199        0.44       2.2     5.4  4.6  0.2887E+01  0.7529E+01 -0.3264E+01E
 Epicentro: LOS SANTOS - SANTANDER                                             3
 ACTION:UPD 13-11-25 09:22 OP:ep   STATUS:               ID:20131020090923 L   I
 OLDACT:UP  13-10-20 12:01 OP:cam  STATUS:               ID:20131020090840     3
 OLDACT:REG 13-10-20 10:50 OP:cam  STATUS:               ID:20131020090840     3
 2013-10-20-0908-40M.COL___212                                                 6
 STAT SP IPHASW D HRMM SECON CODA AMPLIT PERI AZIMU VELO AIN AR TRES W  DIS CAZ7
 BAR2 SZ EP   1    9 9 43.14                             170   -0.11 8 23.7 185 
 BAR2 SZ ES   1    9 9 58.85                             170    0.31 8 23.7 185 
 BAR2 SZ I         9 9 59.84         9.1 0.26            165           23.7 185 
 RUS  HZ EP        9 9 47.57                             143    0.1410  101 175 
 RUS  HN ES        910  5.72                             143   -0.2510  101 175 
 RUS  HZ I         910  6.80         2.5 0.30            144            101 175 
 SPBC HZ EP        9 9 52.16                             129    0.09 9  162 218 
 SPBC HN ES   1    910 14.20                             129   -0.02 7  162 218 
 SPBC HZ I         910 19.19         4.6 0.18            128            162 218 
 SML  HZ EP        910  0.11                             117   -0.01 8  242 336 
 SML  HE ES        910 28.47                             117   -0.09 8  242 336 
 SML  HZ I         910 31.05         6.3 0.10            118            242 336 
                                                                                
