 2014 1220 0310 23.7 L   6.804 -73.127144.6  RSN 10 0.4 1.6LRSN                1
 GAP= 72        0.98       3.6     4.0  6.1  0.2438E+01  0.2556E+01 -0.1525E+01E
 Epicentro: LOS SANTOS - SANTANDER                                             3
 ACTION:UPD 15-02-10 17:05 OP:nd   STATUS:               ID:20141220031023 L   I
 OLDACT:REG 14-12-20 12:58 OP:spq  STATUS:               ID:20141220030744     3
 2014-12-20-0307-44M.COL___305                                                 6
 STAT SP IPHASW D HRMM SECON CODA AMPLIT PERI AZIMU VELO AIN AR TRES W  DIS CAZ7
 BAR2 EZ EP        310 43.18                             170   -0.0310 24.2 195 
 BAR2 EZ ES   1    310 57.82                             170   -0.60 7 24.2 195 
 BAR2 EZ I         310 58.91         6.8 0.48            171           24.2 195 
 BRR  HZ EP        310 45.14                             152    0.3210 72.8 297 
 BRR  HN ES        311  1.79                             152    0.5110 72.8 297 
 BRR  HZ I         311  5.40         7.3 0.28            150           72.8 297 
 PAM  SZ EP        310 46.15                             151    0.4510 75.8  39 
 PAM  SN ES        311  2.86                             151    0.0110 75.8  39 
 PAM  SZ I         311  5.23         9.1 0.62            152           75.8  39 
 RUS  HZ EP        310 47.18                             143   -0.1810  101 177 
 RUS  HN ES        311  5.71                             143   -0.1010  101 177 
 RUS  HZ I         311  6.62         2.6 0.38            147            101 177 
 PTB  HZ EP        310 50.32                             131   -0.45 9  150 259 
 PTB  HE ES   1    311 11.46                             131   -0.41 7  150 259 
 PTB  HZ I         311 13.91         3.9 0.18            132            150 259 
 TAM  HZ EP        310 51.53                             131    0.41 9  153 105 
 OCA  HN ES        311 13.29                             129   -0.61 9  160 352 
 OCA  HZ I         311 14.36         6.2 0.40            130            160 352 
 ZAR  HZ EP        310 56.22                             122   -0.03 8  206 292 
 ZAR  HN ES        311 22.36                             122    0.72 8  206 292 
 ZAR  HZ I         311 27.12         4.0 0.46            122            206 292 
 SML  HZ EP        310 59.86                             117   -0.46 8  244 335 
 SML  HN ES   1    311 28.58                             117   -0.29 6  244 335 
 SML  HZ I         311 37.14         5.1 0.28            118            244 335 
 SJC  HZ EP   4    311 18.14                             105   -1.18 0  410 327 
 SJC  HN ES   4    312  0.02                             105   -2.67 0  410 327 
 SJC  HZ I         312  1.11         2.9 0.92            106            410 327 
                                                                                
