 2011  720 0755 45.9 L   6.775 -73.130141.9  RSN 15 0.4 2.6LRSN                1
 GAP=140        0.83       3.3     5.6  5.1 -0.6462E+01  0.8833E+01  0.1727E+01E
 Epicentro: LOS SANTOS - SANTANDER                                             3
 ACTION:UPD 12-07-25 14:02 OP:epov STATUS:               ID:20110720075545 L   I
 2011-07-20-0754-05S.COL___143                                                 6
 STAT SP IPHASW D HRMM SECON CODA AMPLIT PERI AZIMU VELO AIN AR TRES W  DIS CAZ7
 BAR2 SZ IP        756  5.08                             171    0.0610 21.0 196 
 BAR2 SZ ES   1    756 19.34                             171   -0.59 7 21.0 196 
 BAR2 SZ I         756 22.53       109.0 0.28                          21.0 196 
 BTL  SZ EP        756  5.74                             171    0.7010 22.0 316 
 GIR2 SZ EP        756  5.28                             166    0.0810 34.3 348 
 GIR2 SZ ES   1    756 20.05                             166   -0.21 7 34.3 348 
 BRR  HZ EP        756  6.99                             151    0.1910 74.1 300 
 BRR  HN ES   1    756 23.97                             151    0.87 7 74.1 300 
 BRR  HZ I         756 25.17       131.5 0.17                          74.1 300 
 PAM  SZ EP        756  7.94                             150    0.1710 78.5  37 
 PAM  SE ES   1    756 24.54                             150   -0.29 7 78.5  37 
 RUS  HZ EP   1    756  8.79                             144   -0.28 7 97.7 177 
 RUS  HN ES   1    756 27.29                             144    0.16 7 97.7 177 
 RUS  HZ I         756 28.57        58.2 0.31                          97.7 177 
 BRI  SZ EP        756  9.76                             140    0.1810  110  19 
 BRI  SZ ES   2    756 27.43                             140   -0.62 5  110  19 
 BRI  SZ I         756 30.21        43.6 0.43                           110  19 
 OCA  SZ EP        756 13.76                             128   -0.44 9  163 353 
 OCA  SZ ES   1    756 35.72                             128   -0.55 7  163 353 
 OCA  SZ I         756 41.77        34.3 0.20                           163 353 
 NOR  SZ EP   1    756 20.61                             118   -0.78 6  235 235 
 NOR  SE ES   2    756 48.00                             118   -1.07 4  235 235 
 CHI  HZ EP   1    756 23.24                             117    0.09 6  246 196 
 CHI  HN ES   2    756 52.01                             117   -0.19 4  246 196 
 CHI  HZ I         757  0.60        20.3 0.52                           246 196 
 HEL  HZ EP   1    756 25.94                             114   -0.10 6  273 256 
 RREF HZ EP   1    756 32.17                             110    0.34 5  321 230 
 RREF HZ I         757 14.07        20.4 0.27                           321 230 
 DBB  SZ EP   1    756 33.68                             109    0.23 5  341 275 
 TOL  SZ EP   1    756 34.02                             109    0.10 5  343 225 
 PRA  HZ EP   1    756 38.56                             106   -0.55 4  390 210 
 PRA  HN ES   1    757 20.78                             106    0.17 4  390 210 
                                                                                
