 2015 1120 0647  2.4 L   6.802 -73.133147.0  RSN  8 0.4 1.5LRSN                1
 GAP=138        0.91       2.9     4.5  5.4  0.1305E+00  0.7160E+01  0.8281E-01E
 Epicentro: LOS SANTOS - SANTANDER                                             3
 ACTION:UPD 15-12-28 16:12 OP:cam  STATUS:               ID:20151120064702 L   I
 OLDACT:UP  15-11-20 16:28 OP:ak   STATUS:               ID:20151120063747     3
 OLDACT:REG 15-11-20 13:19 OP:ak   STATUS:               ID:20151120063747     3
 2015-11-20-0637-47M.COL___316                                                 6
 STAT SP IPHASW D HRMM SECON CODA AMPLIT PERI AZIMU VELO AIN AR TRES W  DIS CAZ7
 BAR2 EZ EP        647 22.04                             170   -0.1010 23.8 193 
 BAR2 EZ ES        647 36.87                             170   -0.7010 23.8 193 
 BAR2 EZ I         647 38.18         7.1 0.34            171           23.8 193 
 BRR  HZ EP        647 24.00                             152    0.3110 72.3 298 
 BRR  HE ES        647 41.04                             152    0.7010 72.3 298 
 BRR  HZ I         647 42.63         5.2 0.22            149           72.3 298 
 PAM  EZ EP        647 24.99                             151    0.3510 76.4  39 
 PAM  EN ES        647 42.10                             151    0.0810 76.4  39 
 PAM  EZ I         647 44.15         4.7 0.50            153           76.4  39 
 RUS  HZ EP        647 26.08                             144   -0.1510  101 177 
 RUS  HN ES        647 44.90                             144    0.0510  101 177 
 RUS  HZ I         647 46.24         2.3 0.46            147            101 177 
 SPBC HZ EP        647 31.09                             129    0.05 9  164 219 
 SPBC HE ES        647 53.27                             129   -0.14 9  164 219 
 SPBC HZ I         647 57.55         5.4 0.13            130            164 219 
 ZAR  HZ EP   1    647 35.02                             122    0.02 6  205 292 
 ZAR  HE ES        648  0.08                             122   -0.38 8  205 292 
 ZAR  HZ I         648  5.16         4.0 0.30            122            205 292 
 SML  HZ EP        647 38.43                             118   -0.66 8  244 335 
 SML  HE ES        648  7.72                             118   -0.03 8  244 335 
 SML  HZ I         648 16.67         5.9 0.14            118            244 335 
 PRA  HZ EP        647 56.02                             107    0.01 6  393 210 
 PRA  HE ES        648 38.50                             107    0.64 6  393 210 
                                                                                
