 2016  620 0700  2.3 L   6.790 -73.136143.2  RSN  9 0.5 1.4LRSN                1
 GAP=138        1.18       4.0     4.9  7.1 -0.2671E+01  0.1109E+02  0.2089E+01E
 Epicentro: LOS SANTOS - SANTANDER                                             3
 ACTION:UPD 16-07-21 22:20 OP:rebc STATUS:               ID:20160620070002 L   I
 OLDACT:REG 16-06-20 13:32 OP:ar   STATUS:               ID:20160620065742     3
 2016-06-20-0657-42M.COL___343                                                 6
 STAT SP IPHASW D HRMM SECON CODA AMPLIT PERI AZIMU VELO AIN AR TRES W  DIS CAZ7
 BAR2 EZ EP        7 0 21.66                             171    0.0910 22.5 193 
 BAR2 EZ ES        7 0 37.10                             171    0.4810 22.5 193 
 BAR2 EZ I         7 0 37.93         3.1 0.15                          22.5 193 
 BRR  HZ IP     C  7 0 23.47                             152    0.2510 72.6 299 
 BRR  HE ES        7 0 40.14                             152    0.5810 72.6 299 
 BRR  HZ I         7 0 40.78         4.0 0.16                          72.6 299 
 PAM  EZ EP        7 0 24.48                             150    0.2610 77.6  38 
 PAM  EN ES        7 0 41.23                             150   -0.1110 77.6  38 
 PAM  EZ I         7 0 42.02         5.7 0.20                          77.6  38 
 RUS  HZ EP        7 0 25.79                             144    0.1110 99.4 177 
 RUS  HN ES        7 0 43.75                             144   -0.1910 99.4 177 
 RUS  HZ I         7 0 45.57         3.0 0.30                          99.4 177 
 PTB  HZ EP        7 0 28.74                             131   -0.36 9  149 259 
 PTB  HN ES        7 0 49.21                             131   -0.82 9  149 259 
 PTB  HZ I         7 0 51.50         2.8 0.07                           149 259 
 OCA  HN ES        7 0 51.46                             129   -1.04 9  161 353 
 SPBC HZ EP        7 0 30.55                             128   -0.00 9  163 220 
 SPBC HN ES        7 0 52.00                             128   -0.61 9  163 220 
 SPBC HZ I         7 0 56.02         4.6 0.06                           163 220 
 ZAR  HZ EP        7 0 34.72                             122    0.03 8  205 292 
 ZAR  HN ES        7 1  0.74                             122    0.77 8  205 292 
 ZAR  HZ I         7 1  5.52         4.8 0.44                           205 292 
 GUY2CHZ EP        7 0 46.19                             112    0.41 7  301 235 
 GUY2CHN ES        7 1 19.98                             112    0.26 7  301 235 
 GUY2CHZ I         7 1 30.77         1.6 0.34                           301 235 
 CBOC HZ EP   4    7 0 50.84                             109    1.69 0  334 252 
                                                                                
