 2010  520 0308 22.5 L   6.762 -73.097152.5  RSN  4 0.2 1.8LRSN                1
 GAP=190        0.43       4.7     7.9  6.6 -0.7236E+01 -0.5217E+01 -0.2276E+01E
 Epicentro: LOS SANTOS - SANTANDER                                             3
 ACTION:UP  10-08-24 10:05 OP:vdl  STATUS:               ID:20100520030822 L   I
 2010-05-20-0307-15S.COL___109                                                 6
 STAT SP IPHASW D HRMM SECON CODA AMPLIT PERI AZIMU VELO AIN AR TRES W  DIS CAZ7
 BAR2 SZ EP   1    3 8 42.81                             172    -0.1 7   21 207 
 BAR2 SZ ES   2    3 8 58.83                             172     0.0 5   21 207 
 BRR  HZ EP   1    3 8 44.99                             151     0.2 7   78 299 
 BRR  HZ I         3 8 45.85        15.4 0.26                            78 299 
 BRR  HN ES   2    3 9  1.92                             151    -0.2 5   78 299 
 BRI  SZ EP   2    3 8 47.36                             142     0.2 5  111  17 
 BRI  SZ ES   2    3 9  6.39                             142    -0.1 5  111  17 
 OCA  SZ EP   2    3 8 51.30                             130    -0.5 5  165 351 
 OCA  SZ ES   2    3 9 14.89                             130     0.2 5  165 351 
 OCA  SZ I         3 9 18.86         4.5 0.30                           165 351 
                                                                                
