 2016  420 0141 32.4 L   6.783 -73.149144.8  RSN  7 0.3 1.6LRSN                1
 GAP=139        0.64       3.6     3.5  4.3 -0.6209E+01  0.5652E+01 -0.8006E+00E
 Epicentro: LOS SANTOS - SANTANDER                                             3
 ACTION:UPD 16-05-05 14:22 OP:rebc STATUS:               ID:20160420014132 L   I
 OLDACT:ARG 16-04-20 12:40 OP:cara STATUS:               ID:20160420013749     3
 2016-04-20-0137-49M.COL___310                                                 6
 STAT SP IPHASW D HRMM SECON CODA AMPLIT PERI AZIMU VELO AIN AR TRES W  DIS CAZ7
 BAR2 EZ EP        141 51.89                             171    0.0110 21.5 190 
 BAR2 EZ ES        142  6.72                             171   -0.3610 21.5 190 
 BAR2 EZ I         142  9.65         5.2 0.26            171           21.5 190 
 PAM  EZ EP        141 54.83                             150    0.2110 79.0  39 
 PAM  EE ES        142 12.01                             150    0.0710 79.0  39 
 PAM  EZ I         142 13.76         9.3 0.52            154           79.0  39 
 RUS  HZ EP        141 55.82                             144   -0.1110 98.8 176 
 RUS  HE ES        142 14.33                             144    0.0510 98.8 176 
 RUS  HZ I         142 16.12         2.6 0.42            149           98.8 176 
 PTB  HZ EP        141 58.84                             132   -0.39 9  147 260 
 PTB  HE ES        142 20.40                             132    0.25 9  147 260 
 PTB  HZ I         142 27.42         5.2 0.48            133            147 260 
 SPBC HZ EP        142  1.00                             129    0.33 9  162 219 
 SPBC HN ES        142 22.98                             129    0.26 9  162 219 
 SPBC HZ I         142 25.17         6.2 0.10            132            162 219 
 NOR  HZ EP        142  8.12                             118    0.19 8  233 235 
 NOR  HE ES        142 35.48                             118   -0.16 8  233 235 
 NOR  HZ I         142 38.51         3.2 0.18            121            233 235 
 GUY2CHZ EP        142 15.35                             112   -0.47 7  300 235 
 GUY2CHE ES   4    142 52.97                             112    3.30 0  300 235 
 GUY2CHZ I         142 58.58         2.7 0.64                           300 235 
                                                                                
