 2016  920 0031  7.9 L   6.540 -73.522108.5  RSN  8 0.4 1.6LRSN                1
 GAP= 71        0.93       2.8     3.3  6.5 -0.1620E+01  0.7627E+01 -0.2151E+01E
 Epicentro: EL CARMEN - SANTANDER                                              3
 ACTION:UPD 17-08-17 21:14 OP:lp   STATUS:               ID:20160920003107 L   I
 OLDACT:UP  16-09-20 13:47 OP:and  STATUS:               ID:20160920002746d    3
 OLDACT:UP  16-09-20 13:43 OP:and  STATUS:               ID:20160920002746d    3
 OLDACT:UP  16-09-20 13:42 OP:and  STATUS:               ID:20160920002746d    3
 OLDACT:DUP 16-09-20 13:29 OP:and  STATUS:               ID:20160920002746d    3
 OLDACT:UP  16-09-20 13:15 OP:and  STATUS:               ID:20160920002745     3
 OLDACT:REG 16-09-20 12:23 OP:and  STATUS:               ID:20160920002745     3
 2016-09-20-0028-00M.COL___363                                                 6
 STAT SP IPHASW D HRMM SECON CODA AMPLIT PERI AZIMU VELO AIN AR TRES W  DIS CAZ7
 BAR2 EZ EP        031 24.03                             159    0.4310 38.0  81 
 BAR2 EZ ES        031 36.23                             159    0.4010 38.0  81 
 BRR  HZ EP        031 24.30                             146   -0.5210 66.1 342 
 BRR  HN ES        031 37.65                             146   -0.3610 66.1 342 
 BRR  HZ I         031 46.24         7.8 0.17            146           66.1 342 
 RUS  HZ EP        031 27.22                             139    0.1810 86.5 146 
 RUS  HN ES        031 41.92                             139   -0.0310 86.5 146 
 RUS  HZ I         031 44.26         4.2 0.31            150           86.5 146 
 PTB  HZ EP   4    031 26.34                             133   -1.47 0  103 270 
 PTB  HN ES   4    031 40.72                             133   -2.60 0  103 270 
 PTB  HZ I    4    031 41.91        21.7 0.12            134            103 270 
 SPBC HZ EP        031 28.75                             129   -0.2810  116 212 
 SPBC HN ES        031 45.44                             129   -0.0610  116 212 
 SPBC HZ I         031 49.63         6.8 0.09            134            116 212 
 PAM  EZ EP        031 30.88                             127    0.2310  127  46 
 PAM  EN ES        031 48.07                             127   -0.3110  127  46 
 PAM  EZ I         031 49.96         3.9 0.16            134            127  46 
 ZAR  HZ EP        031 36.18                             116    0.47 9  181 306 
 ZAR  HN ES        031 58.00                             116    0.61 9  181 306 
 ZAR  HZ I         032  6.46         4.3 0.12            119            181 306 
 NOR  HZ EP   4    031 34.99                             115   -1.08 0  184 234 
 NOR  HE ES        031 57.61                             115   -0.43 9  184 234 
 NOR  HN ES        031 59.36                                            184 234 
 NOR  HZ I         032  5.56         4.0 0.15            120            184 234 
 OCA  HZ EP   2    031 36.13                             115   -0.64 4  189   7 
 OCA  HN ES   2    031 58.78                             115   -0.49 4  189   7 
 OCA  HZ I         032  5.20        13.9 0.16            119            189   7 
                                                                                
