 2010  920 0309 48.1 L   6.366 -73.543108.0  RSN 13 0.4 2.2LRSN                1
 GAP= 82        0.86       3.0     5.5  8.3 -0.7648E+01  0.2837E+02 -0.3875E+01E
 Epicentro: CONTRATACION - SANTANDER                                           3
 ACTION:UP  11-02-18 11:04 OP:tino STATUS:               ID:20100920030948 L   I
 2010-09-20-0307-34S.COL___121                                                 6
 STAT SP IPHASW D HRMM SECON CODA AMPLIT PERI AZIMU VELO SNR AR TRES W  DIS CAZ7
 BAR2 SZ IP        310  4.45                             155     0.310   47  58 
 BAR2 SZ I         310  4.71       101.7 0.19                            47  58 
 BAR2 SZ ES   1    310 16.78                             155     0.1 7   47  58 
 BTL  SZ IP        310  5.83                             146     0.310   68  26 
 RUS  HZ EP        310  6.00                             144    -0.210   73 136 
 RUS  HN ES   2    310 19.85                             144    -0.4 5   73 136 
 RUS  HZ I         310 22.08        25.3 0.18                            73 136 
 BRR  HZ IP     D  310  6.17                             139    -0.210   84 347 
 BRR  HZ I         310  6.44        37.0 0.12                            84 347 
 GIR2 SZ IP        310  7.00                             138     0.210   88  26 
 GRA  SZ EP        310 16.48                             115    -0.2 9  187  26 
 GRA  SZ ES   1    310 39.43                             115     0.5 7  187  26 
 GRA  SZ I         310 46.40        13.6 0.34                           187  26 
 ROSC BZ EP   1    310 17.53                             115     0.2 7  189 207 
 ROSC BZ I         310 45.27        10.5 0.60                           189 207 
 CHI  HZ EP        310 17.25                             115    -0.5 9  193 186 
 CHI  HZ I         310 19.10        10.5 0.45                           193 186 
 CHI  HN ES   1    310 40.98                             115     0.1 7  193 186 
 OCA  SZ EP        310 18.62                             112    -0.5 8  209   7 
 OCA  SZ ES   1    310 43.13                             112    -0.2 6  209   7 
 OCA  SZ I         310 49.89        30.0 0.38                           209   7 
 HEL  HZ EP        310 20.94                             111     0.2 8  221 265 
 HEL  HN ES   2    310 45.18                             111    -1.1 4  221 265 
 HEL  HZ I         310 48.86         8.4 0.17                           221 265 
 GUY  SZ EP   1    310 23.59                             109     0.6 6  238 238 
 GUY  SN ES   2    310 50.15                             109     0.1 4  238 238 
 GUY  SZ I         310 57.70        25.0 0.20                           238 238 
 RREF HZ EP        310 25.31                             108     0.0 8  257 231 
 RREF HZ I         311  1.32         9.9 0.31                           257 231 
 TOL  SZ EP        310 27.82                             106     0.4 7  279 225 
                                                                                
