 2013  820 0046 10.2 L   6.720 -73.169146.4  RSN  6 0.3 1.5LRSN                1
 GAP=137        0.74       5.3     4.3  6.9  0.5744E+01 -0.3924E+01 -0.6671E+01E
 Epicentro: VILLANUEVA - SANTANDER                                             3
 ACTION:UPD 14-01-14 09:04 OP:ep   STATUS:               ID:20130820004610 L   I
 OLDACT:REG 13-08-20 08:48 OP:mh   STATUS:               ID:20130820003959     3
 2013-08-20-0039-59M.COL___269                                                 6
 STAT SP IPHASW D HRMM SECON CODA AMPLIT PERI AZIMU VELO AIN AR TRES W  DIS CAZ7
 BAR2 SZ EP   1    046 29.51                             174   -0.22 7 14.2 186 
 BAR2 SZ ES   1    046 44.47                             174   -0.51 7 14.2 186 
 BAR2 SZ I         046 47.17         4.8 0.42            171           14.2 186 
 BRR  HZ EP        046 32.00                             152    0.4610 73.8 306 
 BRR  HN ES        046 48.43                             152    0.2310 73.8 306 
 PAM  SZ EP        046 32.78                             148   -0.2110 85.9  37 
 RUS  HZ EP   1    046 33.37                             146   -0.02 7 92.0 174 
 RUS  HN ES   1    046 51.99                             146    0.50 7 92.0 174 
 RUS  HN I         046 53.85         4.7 0.26            146           92.0 174 
 PTB  HZ EP   1    046 36.65                             133   -0.19 7  144 262 
 PTB  HN ES        046 57.35                             133   -0.28 9  144 262 
 PTB  HN I         047  0.54         5.5 0.24            134            144 262 
 ZAR  HN ES   1    047  8.24                             122    0.02 6  205 295 
                                                                                
