 2013  120 0421 60.0 L   6.681 -73.137144.7  RSN  4 0.2 1.1LRSN                1
 GAP=230        0.47       7.4    10.2  6.5  0.6425E+02 -0.1167E+02 -0.9598E+01E
 Epicentro: VILLANUEVA - SANTANDER                                             3
 ACTION:UPD 13-02-15 09:15 OP:ep   STATUS:               ID:20130120042160 L   I
 2013-01-20-0420-00M.COL___241                                                 6
 STAT SP IPHASW D HRMM SECON CODA AMPLIT PERI AZIMU VELO AIN AR TRES W  DIS CAZ7
 BAR2 SZ EP   1    422 19.19                             176   -0.11 7 11.0 207 
 BAR2 SZ ES   2    422 34.80                             176    0.44 5 11.0 207 
 BRR  HZ EP   1    422 21.31                             150   -0.18 7 79.2 307 
 BRR  HN ES   1    422 38.22                             150   -0.04 7 79.2 307 
 BRR  HZ I         422 39.40         3.4 0.24            150           79.2 307 
 RUS  HZ EP   1    422 23.02                             147    0.30 7 87.4 176 
 RUS  HN ES   1    422 40.22                             147   -0.23 7 87.4 176 
 RUS  HZ I         422 42.67         1.5 0.30            147           87.4 176 
 ZAR  HE ES   2    422 58.94                             121    0.18 4  210 295 
                                                                                
