 2015 1220 0311 45.4 L   5.960 -73.689113.1  RSN  5 0.2 1.5LRSN                1
 GAP=135        0.50       2.6     2.4  4.3  0.3351E+00  0.2619E+01 -0.4983E+01E
 Epicentro: GUAVATA - SANTANDER                                                3
 ACTION:UPD 16-02-04 15:06 OP:cam  STATUS:               ID:20151220031145 L   I
 OLDACT:DUP 15-12-20 16:21 OP:cara STATUS:               ID:20151220030748d    3
 2015-12-20-0307-47M.COL___326                                                 6
 STAT SP IPHASW D HRMM SECON CODA AMPLIT PERI AZIMU VELO AIN AR TRES W  DIS CAZ7
 SPBC HZ EP   4    312  3.98                             152    1.73 0 54.4 231 
 SPBC HN ES        312 15.37                             152    0.0210 54.4 231 
 SPBC HZ I         312 17.45        25.5 0.84            156           54.4 231 
 RUS  HZ IP        312  3.44                             147   -0.1910 67.5  96 
 RUS  HZ EP        312  3.79                                           67.5  96 
 RUS  HN ES        312 17.79                             147   -0.0210 67.5  96 
 RUS  HZ I         312 18.92         3.4 0.24            152           67.5  96 
 BAR2 EZ IP        312  5.05                             139    0.1610 89.6  39 
 BAR2 EZ ES        312 20.28                             139    0.2310 89.6  39 
 BAR2 EZ I         312 21.81         6.7 0.24            141           89.6  39 
 BRR  HZ IP        312  7.90                             128    0.0310  127 359 
 BRR  HN ES        312 25.01                             128   -0.3610  127 359 
 BRR  HZ I         312 30.01         3.5 0.28            130            127 359 
 ZAR  HZ EP        312 16.99                             113   -0.01 8  213 323 
 ZAR  HE ES        312 41.78                             113    0.16 8  213 323 
 ZAR  HZ I         312 43.86         3.4 0.48            116            213 323 
                                                                                
