 2012  720 0315 35.8 L   6.797 -73.122145.4  RSN 11 0.5 2.3LRSN                1
 GAP=140        1.21       4.5     5.6  7.9 -0.3122E+01  0.1088E+02  0.5452E+01E
 Epicentro: LOS SANTOS - SANTANDER                                             3
 ACTION:UPD 12-08-14 11:46 OP:ep   STATUS:               ID:20120720031536 L   I
 2012-07-20-0310-00M.COL___215                                                 6
 STAT SP IPHASW D HRMM SECON CODA AMPLIT PERI AZIMU VELO AIN AR TRES W  DIS CAZ7
 BAR2 SZ EP        315 55.39                             170     0.010   24 196 
 BAR2 SZ ES   1    316 11.12                             170     0.4 7   24 196 
 BAR2 SZ I         316 11.59        71.6 0.20            168             24 196 
 BRR  HZ EP        315 57.27                             152     0.210   74 298 
 BRR  HN ES   1    316 14.28                             152     0.6 7   74 298 
 BRR  HZ I         316 18.51        51.5 0.18            149             74 298 
 PAM  SZ EP        315 58.35                             151     0.410   76  38 
 PAM  SN ES   1    316 15.18                             151     0.0 7   76  38 
 RUS  HZ EP        315 59.29                             144    -0.210  100 178 
 RUS  HN ES   1    316 17.41                             144    -0.6 7  100 178 
 RUS  HZ I         316 19.14        26.0 0.40            146            100 178 
 PTB  HZ EP   1    316  2.13                             131    -0.8 7  150 259 
 PTB  HN ES   1    316 22.89                             131    -1.3 7  150 259 
 PTB  HZ I         316 27.17        14.4 0.24            131            150 259 
 OCA  HZ EP        316  4.02                             129    -0.1 9  161 352 
 OCA  HN ES   1    316 25.25                             129    -1.0 7  161 352 
 OCA  HZ I         316 29.84        53.3 0.24            131            161 352 
 ZAR  HZ EP   1    316  9.00                             122     0.5 6  207 292 
 ZAR  HN ES   1    316 34.03                             122     0.0 6  207 292 
 ZAR  HZ I         316 39.93        28.5 0.60            122            207 292 
 NOR  SZ EP        316 11.75                             118     0.0 8  237 235 
 NOR  SN ES   1    316 40.24                             118     0.5 6  237 235 
 CHI  HZ EP        316 13.41                             117    -0.1 8  249 196 
 CHI  HN ES   1    316 43.43                             117     0.5 6  249 196 
 CHI  HZ I         316 48.87         9.6 0.39            119            249 196 
 HEL  HZ EP        316 16.94                             114     0.7 8  275 256 
 HEL  HN ES   1    316 48.31                             114     0.5 6  275 256 
 HEL  HZ I         316 54.17         8.5 0.48            115            275 256 
 PRA  HZ EP   1    316 28.88                             106    -0.6 4  393 210 
 PRA  HE ES   2    317 10.41                             106    -0.9 3  393 210 
