 2012  820 0725 17.7 L   6.745 -73.163146.0  RSN  6 0.5 1.6LRSN                1
 GAP=231        0.92       9.2     8.5  8.6  0.4694E+02  0.1828E+02  0.4233E+01E
 Epicentro: VILLANUEVA - SANTANDER                                             3
 ACTION:UPD 12-09-10 11:57 OP:ep   STATUS:               ID:20120820072517 L   I
 2012-08-20-0720-00M.COL___217                                                 6
 STAT SP IPHASW D HRMM SECON CODA AMPLIT PERI AZIMU VELO AIN AR TRES W  DIS CAZ7
 BAR2 SZ EP   1    725 37.04                             173   -0.23 7 17.1 187 
 BAR2 SZ ES   1    725 51.78                             173   -0.73 7 17.1 187 
 BAR2 SZ I         725 53.75        12.5 0.21                          17.1 187 
 BRR  HZ EP   1    725 39.21                             152    0.23 7 72.7 303 
 BRR  HN ES   1    725 56.36                             152    0.81 7 72.7 303 
 BRR  HZ I         726  0.15         8.7 0.14                          72.7 303 
 RUS  HZ EP   1    725 41.08                             146    0.00 7 94.7 175 
 RUS  HN ES   1    725 59.79                             146    0.49 7 94.7 175 
 RUS  HZ I         726  0.52         3.7 0.50                          94.7 175 
 PTB  HZ EP   1    725 43.86                             133   -0.58 7  145 261 
 PTB  HN ES   1    726  5.02                             133   -0.26 7  145 261 
 ZAR  HZ EP   2    725 49.98                             122   -0.26 4  205 294 
 ZAR  HN ES   1    726 15.35                             122   -0.26 6  205 294 
 ZAR  HZ I         726 20.80         4.3 0.15                           205 294 
 HEL  HZ EP   1    725 58.31                             115    0.73 6  269 257 
                                                                                
