 2017  420 0726 37.2 L   6.768 -73.151147.8  RSN  6 0.3 1.5LRSN                1
 GAP=137        0.86       4.4     3.9  5.8  0.1774E+01  0.5587E+01 -0.1177E+01E
 Epicentro: LOS SANTOS - SANTANDER                                             3
 ACTION:UPD 17-05-30 21:14 OP:jn   STATUS:               ID:20170420072637 L   I
 OLDACT:REG 17-04-20 13:32 OP:cog  STATUS:               ID:20170420071745     3
 2017-04-20-0718-00M.COL___362                                                 6
 STAT SP IPHASW D HRMM SECON CODA AMPLIT PERI AZIMU VELO AIN AR TRES W  DIS CAZ7
 BAR2 EZ EP        726 56.82                             172   -0.1510 19.8 190 
 BAR2 EZ ES        727 12.22                             172   -0.2010 19.8 190 
 BAR2 EZ I         727 15.38         7.8 0.30            174           19.8 190 
 BRR  HZ EP        726 58.73                             152    0.1310 72.4 301 
 BRR  HE ES        727 16.02                             152    0.7010 72.4 301 
 BRR  HZ I         727 20.62         7.0 0.10            154           72.4 301 
 PAM  EZ EP        726 59.61                             150   -0.1710 80.5  38 
 PAM  EN ES        727 17.16                             150   -0.2610 80.5  38 
 PAM  EZ I         727 19.30         5.9 0.60            153           80.5  38 
 RUS  HZ EP        727  1.19                             145    0.3210 97.2 176 
 RUS  HE ES        727 19.52                             145    0.1510 97.2 176 
 RUS  HZ I         727 20.54         3.1 0.42            149           97.2 176 
 PTB  HZ EP        727  3.94                             133   -0.24 9  146 260 
 PTB  HN ES        727 24.70                             133   -0.56 9  146 260 
 PTB  HZ I         727 26.54         3.3 0.20            136            146 260 
 ZAR  HZ EP        727 10.14                             123    0.32 9  205 293 
 ZAR  HE ES        727 35.20                             123   -0.09 9  205 293 
                                                                                
