 2014 1020 0606 50.0 L   6.803 -73.172141.7  RSN  7 0.4 1.5LRSN                1
 GAP=133        0.87       3.6     4.0  6.7 -0.1066E+01  0.9319E+01 -0.2967E+01E
 Epicentro: LOS SANTOS - SANTANDER                                             3
 ACTION:UPD 14-11-29 23:51 OP:nd   STATUS:               ID:20141020060650 L   I
 OLDACT:REG 14-10-20 12:55 OP:mh   STATUS:               ID:20141020055742     3
 2014-10-20-0557-42M.COL___268                                                 6
 STAT SP IPHASW D HRMM SECON CODA AMPLIT PERI AZIMU VELO AIN AR TRES W  DIS CAZ7
 BAR2 SZ EP   1    6 7  9.72                             170    0.56 7 23.3 183 
 BAR2 SZ ES        6 7 24.09                             170    0.0010 23.3 183 
 BAR2 SZ I         6 7 25.55         8.8 0.30            172           23.3 183 
 PAM  SZ EP        6 7 12.02                             149    0.1210 79.0  41 
 PAM  SN ES        6 7 28.94                             149   -0.0310 79.0  41 
 PAM  SZ I         6 7 30.96         4.0 0.52            152           79.0  41 
 RUS  HZ EP        6 7 13.30                             143   -0.1110  101 174 
 RUS  HN ES   2    6 7 32.09                             143    0.43 5  101 174 
 PTB  HZ EP        6 7 15.98                             132   -0.42 9  145 258 
 PTB  HN ES        6 7 36.54                             132   -0.44 9  145 258 
 PTB  HZ I         6 7 39.76         4.7 0.20            132            145 258 
 OCA  HN ES        6 7 39.43                             129   -0.31 9  160 354 
 OCA  HZ I         6 7 42.34         5.1 0.14            130            160 354 
 ZAR  HZ EP   1    6 7 22.65                             122    0.74 6  201 292 
 ZAR  HN ES        6 7 47.36                             122    0.58 9  201 292 
 ZAR  HZ I         6 7 55.17         3.7 0.30            122            201 292 
 SML  HZ EP   1    6 7 25.61                             117   -0.64 6  242 336 
 SML  HN ES   1    6 7 54.83                             117    0.31 6  242 336 
                                                                                
