 2015  420 0103 34.8 L   6.800 -73.141145.8  RSN 14 0.4 2.0LRSN                1
 GAP=137        0.99       2.6     3.7  4.8 -0.2259E+01  0.5809E+01  0.3790E+00E
 Epicentro: LOS SANTOS - SANTANDER                                             3
 ACTION:UPD 15-06-03 16:56 OP:cam  STATUS:               ID:20150420010334 L   I
 OLDACT:DUP 15-04-20 15:33 OP:ak   STATUS:               ID:20150420005746d    3
 2015-04-20-0057-45M.COL___265                                                 6
 STAT SP IPHASW D HRMM SECON CODA AMPLIT PERI AZIMU VELO AIN AR TRES W  DIS CAZ7
 BAR2 EZ EP        1 3 54.39                             170   -0.0610 23.4 191 
 BAR2 EZ ES        1 4  9.75                             170   -0.0210 23.4 191 
 BAR2 EZ I         1 4 10.54        15.3 0.22            169           23.4 191 
 BRR  HZ IP     D  1 3 56.21                             152    0.2210 71.6 298 
 BRR  HN ES        1 4 13.39                             152    0.8810 71.6 298 
 BRR  HZ I         1 4 16.21        11.8 0.20            150           71.6 298 
 PAM  SZ IP     D  1 3 57.10                             151    0.0810 77.1  39 
 PAM  SN ES        1 4 14.56                             151    0.2210 77.1  39 
 PAM  SZ I         1 4 16.53         7.9 0.24            156           77.1  39 
 RUS  HZ EP        1 3 58.66                             144    0.1010  101 176 
 RUS  HE ES        1 4 16.78                             144   -0.3110  101 176 
 RUS  HZ I         1 4 18.17         8.4 0.28            146            101 176 
 PTB  HZ EP        1 4  1.43                             132   -0.39 9  148 259 
 PTB  HN ES        1 4 22.24                             132   -0.65 9  148 259 
 PTB  HZ I         1 4 29.81        14.6 0.41            131            148 259 
 OCA  HZ EP        1 4  2.47                             130   -0.66 9  160 353 
 OCA  HN ES        1 4 25.15                             130   -0.08 9  160 353 
 OCA  HZ I         1 4 29.72        22.7 0.16            132            160 353 
 SPBC HZ EP        1 4  3.41                             129    0.07 9  163 219 
 SPBC HN ES        1 4 25.09                             129   -0.50 9  163 219 
 SPBC HZ I         1 4 31.02        12.0 0.16            130            163 219 
 ZAR  HZ EP        1 4  7.37                             122    0.07 9  204 292 
 ZAR  HE ES        1 4 32.74                             122    0.09 9  204 292 
 ZAR  HZ I         1 4 39.76        10.6 0.34            123            204 292 
 NOR  HZ EP        1 4 10.67                             118    0.09 8  235 235 
 NOR  HN ES        1 4 38.37                             118   -0.11 8  235 235 
 NOR  HZ I         1 4 42.00         8.6 0.22            119            235 235 
 SML  HZ EP        1 4 10.72                             117   -0.74 8  244 335 
 SML  HN ES        1 4 39.93                             117   -0.12 8  244 335 
 ROSC BZ EP   4    1 4  9.06                             117   -3.90 0  253 211 
 ROSC BE ES   4    1 4 46.07                             117    3.36 0  253 211 
 HEL  HZ EP        1 4 16.01                             115    0.94 8  273 256 
 HEL  HN ES        1 4 46.42                             115   -0.06 8  273 256 
 HEL  HZ I         1 4 52.65         4.3 0.34            116            273 256 
 GUY2CHZ EP        1 4 19.30                             112    0.84 7  302 235 
 GUY2CHN ES   4    1 4 54.52                             112    2.01 0  302 235 
 GUY2CHZ I         1 4 59.25         5.2 0.36                           302 235 
 TOL  SZ EP        1 4 23.34                             109    0.24 7  344 225 
 TOL  SN ES        1 5  0.82                             109    0.05 7  344 225 
 TOL  SZ I         1 5  7.65         3.6 0.30            111            344 225 
 ORTC HZ EP        1 4 29.34                             106    0.58 6  396 216 
 ORTC HN ES        1 5 10.75                             106   -0.09 6  396 216 
 ORTC HZ I         1 5 17.21         2.8 0.46            108            396 216 
                                                                                
