 2015 1120 0841 37.2 L   6.792 -73.120144.9  RSN  5 0.3 1.1LRSN                1
 GAP=203        0.71       4.8     7.1  5.9  0.2490E+02 -0.1005E+02 -0.1286E+02E
 Epicentro: LOS SANTOS - SANTANDER                                             3
 ACTION:UPD 15-12-28 16:12 OP:cam  STATUS:               ID:20151120084137 L   I
 OLDACT:UP  15-11-20 19:10 OP:ak   STATUS:               ID:20151120083744     3
 OLDACT:REG 15-11-20 13:30 OP:y    STATUS:               ID:20151120083744     3
 2015-11-20-0837-44M.COL___310                                                 6
 STAT SP IPHASW D HRMM SECON CODA AMPLIT PERI AZIMU VELO AIN AR TRES W  DIS CAZ7
 BAR2 EZ EP        841 56.80                             170    0.1210 23.2 197 
 BAR2 EZ ES        842 11.41                             170   -0.5010 23.2 197 
 BAR2 EZ I         842 13.31         2.7 0.12            150           23.2 197 
 BRR  HZ EP        841 58.60                             151    0.2210 74.1 298 
 BRR  HN ES        842 15.36                             151    0.4210 74.1 298 
 RUS  HZ EP        842  0.74                             144   -0.0110 99.6 178 
 RUS  HE ES        842 19.25                             144    0.0910 99.6 178 
 RUS  HZ I         842 20.34         1.6 0.24            156           99.6 178 
 ZAR  HE ES        842 35.06                             122   -0.30 8  207 292 
 SML  HZ EP        842 13.73                             117   -0.22 8  246 335 
 SML  HN ES        842 42.69                             117    0.04 8  246 335 
 SML  HZ I         842 47.01         1.5 0.11            106            246 335 
                                                                                
