 2013  720 0222  7.2 L   7.197 -73.439111.2  RSN  6 0.5 1.8LRSN                1
 GAP=137        1.00       5.3     5.5  9.3  0.7758E+01  0.5976E+01 -0.1453E+02E
 Epicentro: SABANA DE TORRES - SANTANDER                                       3
 ACTION:UPD 13-08-12 10:38 OP:ep   STATUS:               ID:20130720022207 L   I
 OLDACT:UP  13-07-20 10:14 OP:mh   STATUS:               ID:20130720021959     3
 OLDACT:UP  13-07-20 10:13 OP:mh   STATUS:               ID:20130720021959     3
 OLDACT:REG 13-07-20 08:34 OP:mh   STATUS:               ID:20130720021959     3
 2013-07-20-0219-59M.COL___267                                                 6
 STAT SP IPHASW D HRMM SECON CODA AMPLIT PERI AZIMU VELO AIN AR TRES W  DIS CAZ7
 GIR2 SZ EP        222 22.85                             164    0.1310 30.1 116 
 BRR  HZ EP        222 22.70                             163    0.1410 31.7 252 
 BRR  HN ES        222 34.47                             163   -0.1010 31.7 252 
 BRR  HN I         222 35.53        34.2 0.38            156           31.7 252 
 BAR2 SZ EP   1    222 25.28                             145    0.14 7 72.7 157 
 BAR2 SZ ES   1    222 39.33                             145    0.16 7 72.7 157 
 BAR2 SZ I         222 40.68         8.4 0.24            145           72.7 157 
 PTB  HZ EP   1    222 29.49                             126   -0.67 7  134 237 
 PTB  HN ES   1    222 47.28                             126   -0.82 7  134 237 
 PTB  HN I         222 54.11         5.7 0.28            123            134 237 
 ZAR  HZ EP   1    222 33.25                             120    0.43 7  160 282 
 ZAR  HE ES        222 53.57                             120    0.73 9  160 282 
 ZAR  HE I         222 57.68        12.7 0.16            118            160 282 
 SML  HE ES        222 58.17                             115   -0.51 9  191 339 
 SML  HE I         223  2.03         8.2 0.10            115            191 339 
                                                                                
