 2016 1020 0651  2.4 L   6.776 -73.023144.0  RSN  7 0.6 1.6LRSN                1
 GAP=195        0.97       7.4    10.1 11.0 -0.3138E+02 -0.1712E+02  0.3740E+02E
 Epicentro: CEPITA - SANTANDER                                                 3
 ACTION:UPD 16-11-09 19:21 OP:rebc STATUS:               ID:20161020065102 L   I
 OLDACT:REG 16-10-20 14:14 OP:cog  STATUS:               ID:20161020064747     3
 2016-10-20-0648-00M.COL___334                                                 6
 STAT SP IPHASW D HRMM SECON CODA AMPLIT PERI AZIMU VELO AIN AR TRES W  DIS CAZ7
 BAR2 EZ EP        651 22.01                             169    0.1710 26.8 221 
 BAR2 EZ ES   3    651 37.63                             169    0.58 2 26.8 221 
 BAR2 EZ I         651 38.59        10.1 0.42            164           26.8 221 
 BRR  HZ EP        651 23.84                             147   -0.2810 84.5 296 
 BRR  HN ES        651 41.20                             147    0.1110 84.5 296 
 BRR  HZ I         651 43.52         5.7 0.13            145           84.5 296 
 RUS  HZ EP   4    651 26.53                             144    0.80 0 97.9 184 
 RUS  HE ES   3    651 45.25                             144    1.28 2 97.9 184 
 PTB  HZ EP   3    651 28.88                             128   -1.49 2  161 261 
 PTB  HN ES   4    651 50.03                             128   -2.19 0  161 261 
 PTB  HZ I         651 57.13         5.0 0.30            128            161 261 
 OCA  HZ EP   4    651 30.81                             127   -0.17 0  165 349 
 OCA  HE ES   3    651 53.73                             127    0.42 2  165 349 
 SPBC HZ EP   1    651 31.02                             127   -0.35 7  170 223 
 SPBC HN ES        651 53.26                             127   -0.75 9  170 223 
 SPBC HZ I         651 57.49         5.3 0.10            128            170 223 
 GUY2CHZ EP        651 47.82                             111    0.85 7  311 237 
 GUY2CHN ES        652 22.38                             111    0.60 7  311 237 
 GUY2CHZ I         652 30.63         2.0 0.48                           311 237 
                                                                                
