 2014  220 0200 21.7 L   6.779 -73.115150.7  RSN  7 0.3 2.0LRSN                1
 GAP=141        0.62       2.2     3.4  4.3 -0.1104E+01  0.7767E+00  0.1516E+01E
 Epicentro: LOS SANTOS - SANTANDER                                             3
 ACTION:UPD 14-03-10 08:11 OP:ep   STATUS:               ID:20140220020022dL   I
 OLDACT:REG 14-02-20 08:02 OP:fm   STATUS:               ID:20140220020000     3
 2014-02-20-0200-00M.COL___212                                                 6
 STAT SP IPHASW D HRMM SECON CODA AMPLIT PERI AZIMU VELO AIN AR TRES W  DIS CAZ7
 BAR2 SZ EP        2 0 41.62                             171   -0.3010 22.0 200 
 BAR2 SZ ES   1    2 0 57.70                             171    0.03 7 22.0 200 
 BAR2 SZ I         2 0 58.63        32.9 0.27            169           22.0 200 
 BRR  HZ EP     C  2 0 43.62                             152   -0.0110 75.3 299 
 BRR  HN ES        2 1  0.99                             152    0.2710 75.3 299 
 BRR  HZ I         2 1  3.54        16.2 0.14            151           75.3 299 
 PAM  SZ EP        2 0 44.43                             152   -0.0210 77.1  37 
 PAM  SN ES        2 1  1.99                             152   -0.1810 77.1  37 
 PAM  SZ I         2 1  4.40         6.9 0.58            155           77.1  37 
 RUS  HZ EP   1    2 0 46.00                             145    0.21 7 98.1 178 
 RUS  HN ES        2 1  4.58                             145    0.0210 98.1 178 
 RUS  HZ I         2 1  7.12        11.2 0.56            146           98.1 178 
 PTB  HZ EP   1    2 0 48.57                             132   -0.79 7  151 260 
 PTB  HN ES        2 1 10.82                             132   -0.09 9  151 260 
 PTB  HZ I         2 1 17.14        19.7 0.31            132            151 260 
 OCA  HZ EP   1    2 0 51.14                             130    0.47 7  163 352 
 OCA  HN ES        2 1 13.34                             130    0.09 9  163 352 
 OCA  HZ I         2 1 16.73        13.7 0.25            132            163 352 
 CHI  HZ EP        2 0 59.81                             118    0.25 8  247 196 
 CHI  HN ES        2 1 29.21                             118    0.14 8  247 196 
 CHI  HZ I         2 1 35.32         4.9 0.54            119            247 196 
                                                                                
