 2010  120 0350 55.8 L   6.836 -73.121136.1  RSN 13 0.6 2.5LRSN                1
 GAP=186        1.16       4.1     7.8  8.2 -0.1589E+01  0.3501E+02  0.5233E+01E
 Epicentro: LOS SANTOS - SANTANDER                                             3
 ACTION:UP  10-08-24 09:45 OP:vdl  STATUS:               ID:20100120035055 L   I
 2010-01-20-0348-00S.COL___096                                                 6
 STAT SP IPHASW D HRMM SECON CODA AMPLIT PERI AZIMU VELO SNR AR TRES W  DIS CAZ7
 BAR2 SZ IP        351 14.55                             168     0.110   28 194 
 BAR2 SZ ES   1    351 27.87                             168    -1.0 7   28 194 
 GIR2 SZ EP        351 14.59                             168     0.310   28 343 
 GIR2 SZ ES   1    351 29.55                             168     0.9 7   28 343 
 RUS  BZ EP        351 18.59                             141    -0.310  104 178 
 RUS  BE ES   1    351 36.77                             141    -0.2 7  104 178 
 RUS  BZ I         351 38.70        80.5 0.37                           104 178 
 OCA  SZ EP        351 23.00                             128    -0.1 9  157 352 
 OCA  SZ ES   1    351 44.25                             128    -0.1 7  157 352 
 CHI  HZ EP        351 32.89                             114    -0.6 8  253 196 
 CHI  HN ES   1    352  2.47                             114    -0.4 6  253 196 
 CHI  HZ I         352  5.61        16.8 0.52                           253 196 
 ROSC BZ EP        351 34.54                             114     0.6 8  258 211 
 ROSC BZ I         352  9.27        21.2 0.22                           258 211 
 HEL  HZ EP   1    351 36.90                             112     0.9 6  276 255 
 HEL  HZ I         352 14.70        27.1 0.53                           276 255 
 RREF BZ EP        351 42.80                             109     0.7 7  326 229 
 RREF BN ES        352 18.76                             109     0.5 7  326 229 
 RREF BZ I         352 23.89        17.3 0.31                           326 229 
 DBB  SZ EP        351 43.04                             107    -0.2 7  342 274 
 DBB  SZ ES   1    352 19.35                             107    -0.8 5  342 274 
 TOL  SZ EP        351 44.37                             107     0.1 6  348 225 
 TOL  SZ ES   1    352 22.37                             107     0.3 5  348 225 
 MON  HE ES   1    352 20.96                             107    -1.3 5  353 308 
 MON  HZ I         352 21.62         8.0 0.31                           353 308 
 ANIL BZ EP   1    351 45.65                             106    -0.2 5  362 224 
 ANIL BE ES   2    352 25.91                             106     1.1 3  362 224 
 PRA  HZ EP   2    351 48.52                             104    -1.1 3  397 210 
 PRA  HN ES   2    352 31.11                             104    -0.4 3  397 210 
                                                                                
