 2014  720 0411 52.4 L   6.827 -73.176157.1  RSN  4 0.5 1.4LRSN                1
 GAP=244        1.25      16.0    10.9 13.3  0.2645E+02 -0.1949E+02  0.8350E+01E
 Epicentro: ZAPATOCA - SANTANDER                                               3
 ACTION:UPD 15-03-16 20:45 OP:nd   STATUS:               ID:20140720041152 L   I
 OLDACT:REG 14-07-20 13:05 OP:fm   STATUS:               ID:20140720040818     3
 2014-07-20-0408-18M.COL___266                                                 6
 STAT SP IPHASW D HRMM SECON CODA AMPLIT PERI AZIMU VELO AIN AR TRES W  DIS CAZ7
 BAR2 SZ EP   1    412 13.15                             170   -0.29 7 26.0 182 
 BAR2 SZ I         412 29.85         6.7 0.82            161           26.0 182 
 BRR  HZ EP        412 15.36                             156    0.8010 66.8 298 
 BRR  HN ES        412 31.56                             156   -0.2810 66.8 298 
 BRR  HZ I         412 36.08         3.3 0.38            164           66.8 298 
 PTB  HZ EP   1    412 20.47                             135    0.39 7  145 257 
 PTB  HN ES        412 41.58                             135   -0.10 9  145 257 
 PTB  HZ I         412 48.72         2.7 0.50            137            145 257 
 ZAR  HZ EP        412 24.22                             125   -0.97 9  200 292 
 ZAR  HN ES        412 51.10                             125    0.34 9  200 292 
 ZAR  HZ I         412 58.25         2.8 0.28            130            200 292 
                                                                                
