 2013 1220 0022 18.6 L   6.763 -73.172140.1  RSN  6 0.5 1.5LRSN                1
 GAP=232        1.19       6.9     8.6  8.7  0.3350E+02  0.2134E+02  0.1994E+02E
 Epicentro: LOS SANTOS - SANTANDER                                             3
 ACTION:UPD 14-01-13 10:19 OP:ep   STATUS:               ID:20131220002218 L   I
 OLDACT:REG 13-12-20 07:17 OP:jn   STATUS:               ID:20131220002000     3
 2013-12-20-0020-00M.COL___285                                                 6
 STAT SP IPHASW D HRMM SECON CODA AMPLIT PERI AZIMU VELO AIN AR TRES W  DIS CAZ7
 BAR2 SZ ES        022 51.38                             172   -0.8110 18.9 183 
 BAR2 SZ I         022 54.07        10.7 0.48            171           18.9 183 
 BRR  HZ EP        022 39.08                             152   -0.0510 70.7 303 
 BRR  HN ES        022 55.92                             152    0.8010 70.7 303 
 RUS  HZ EP        022 41.54                             144    0.0110 96.8 174 
 RUS  HN ES        022 59.87                             144    0.4610 96.8 174 
 RUS  HZ I         023  0.89         3.8 0.34            144           96.8 174 
 PTB  HZ EP        022 44.34                             131   -0.45 9  144 260 
 PTB  HN ES        023  4.76                             131   -0.45 9  144 260 
 PTB  HZ I         023  7.52         4.7 0.14            132            144 260 
 ZAR  HE ES   1    023 15.91                             121    0.40 6  203 294 
 ZAR  HE E         023 15.91                                            203 294 
 CHI  HZ EP        022 55.53                             116    0.04 8  244 195 
 CHI  HN ES        023 24.55                             116    0.30 8  244 195 
                                                                                
