 2013  420 0624 28.6 L   6.723 -73.138151.6  RSN  5 0.5 1.6LRSN                1
 GAP=141        1.03       6.9     6.7  8.9 -0.4317E+01  0.6061E+01  0.1600E+01E
 Epicentro: JORDAN - SANTANDER                                                 3
 ACTION:UPD 13-05-22 14:39 OP:EP   STATUS:               ID:20130420062428 L   I
 2013-04-20-0620-00M.COL___250                                                 6
 STAT SP IPHASW D HRMM SECON CODA AMPLIT PERI AZIMU VELO AIN AR TRES W  DIS CAZ7
 BAR2 SZ EP        624 49.07                             174    0.2310 15.2 199 
 BAR2 SZ ES   1    625  4.16                             174   -0.44 7 15.2 199 
 BAR2 SZ I         625  5.03         7.2 0.34            174           15.2 199 
 BRR  HZ EP        624 51.14                             152    0.4310 76.3 304 
 BRR  HN ES   1    625  8.32                             152    0.40 7 76.3 304 
 BRR  HZ I         625  9.97        10.1 0.14            153           76.3 304 
 PAM  SZ IP     D  624 52.11                             150    0.2610 83.7  35 
 PAM  SN ES   1    625  9.30                             150   -0.66 7 83.7  35 
 PAM  SZ I         625 11.13         5.0 0.52            151           83.7  35 
 RUS  HZ EP        624 51.86                             147   -0.5210 92.0 176 
 RUS  HN ES   1    625 11.65                             147    0.75 7 92.0 176 
 RUS  HZ I         625 12.56         4.6 0.44            149           92.0 176 
 PTB  HZ EP        624 55.74                             133   -0.29 9  147 262 
 PTB  HN ES   1    625 17.05                             133   -0.35 7  147 262 
                                                                                
