 2015  920 0212 60.0 L   6.821 -73.151144.0  RSN 23 0.5 2.6LRSN                1
 GAP=135        1.05       2.2     3.3  4.5 -0.1819E+01  0.4680E+01  0.6781E+00E
 Epicentro: LOS SANTOS - SANTANDER                                             3
 ACTION:UPD 15-10-28 16:27 OP:cam  STATUS:               ID:20150920021260 L   I
 OLDACT:REG 15-09-20 12:11 OP:drio STATUS:               ID:20150920020735     3
 2015-09-20-0207-35M.COL___355                                                 6
 STAT SP IPHASW D HRMM SECON CODA AMPLIT PERI AZIMU VELO AIN AR TRES W  DIS CAZ7
 BAR2 EZ EP        213 19.39                             169   -0.0610 25.5 188 
 BAR2 EZ ES        213 35.17                             169    0.5410 25.5 188 
 BAR2 EZ I         213 36.94       102.4 0.26            168           25.5 188 
 BRR  HZ EP        213 21.21                             153    0.3610 69.6 297 
 BRR  HN ES        213 37.42                             153    0.2910 69.6 297 
 BRR  HZ I         213 42.43        32.9 0.14            149           69.6 297 
 PAM  EZ EP        213 22.21                             151    0.2910 76.0  41 
 PAM  EN ES        213 39.51                             151    0.4710 76.0  41 
 PAM  EZ I         213 41.38        51.1 0.60            155           76.0  41 
 RUS  HZ EP        213 23.20                             143   -0.5310  103 176 
 RUS  HE ES        213 41.84                             143   -0.4110  103 176 
 RUS  HZ I         213 43.18        46.3 0.30            145            103 176 
 PTB  HZ EP        213 26.21                             132   -0.59 9  148 258 
 PTB  HN ES        213 47.31                             132   -0.41 9  148 258 
 PTB  HZ I         213 48.85        38.8 0.16            130            148 258 
 OCA  HZ EP        213 27.75                             130   -0.18 9  158 353 
 OCA  HN ES        213 49.09                             130   -0.64 9  158 353 
 OCA  HZ I         213 53.11        77.8 0.18            131            158 353 
 SPBC HZ EP        213 28.44                             128   -0.04 9  165 218 
 SPBC HE ES        213 50.52                             128   -0.20 9  165 218 
 SPBC HZ I         213 52.92        90.7 0.24            128            165 218 
 ZAR  HZ EP        213 32.12                             122   -0.05 9  203 292 
 ZAR  HE ES        213 57.50                             122    0.22 9  203 292 
 ZAR  HZ I         214  3.62        36.1 0.28            122            203 292 
 NOR  HZ EP        213 35.28                             118   -0.43 8  236 234 
 NOR  HE ES        214  3.69                             118    0.12 8  236 234 
 NOR  HZ I         214  9.36        32.3 0.20            118            236 234 
 SML  HZ EP        213 36.13                             117   -0.13 8  241 335 
 SML  HN ES        214  3.94                             117   -0.61 8  241 335 
 SML  HZ I         214  7.94        35.0 0.10            118            241 335 
 CHI  HZ EP        213 37.46                             116   -0.35 8  251 195 
 CHI  HN ES        214  6.82                             116   -0.49 8  251 195 
 CHI  HZ I         214 10.03        11.7 0.26            118            251 195 
 ROSC BZ EP        213 38.85                             116    0.66 8  254 211 
 ROSC BN ES   4    214  9.93                             116    1.94 0  254 211 
 ROSC BZ I         214 15.14        41.1 0.35            117            254 211 
 HEL  HZ EP        213 41.01                             114    0.90 8  272 255 
 HEL  HN ES        214 12.36                             114    0.95 8  272 255 
 HEL  HZ I         214 18.56        17.9 0.24            115            272 255 
 URE  HZ EP   4    213 39.30                             113   -1.51 0  282 292 
 URE  HN ES   4    214  9.09                             113   -3.57 0  282 292 
 URE  HZ I         214 20.90        23.6 0.20            113            282 292 
 GUY2CHZ EP        213 44.23                             112    0.62 7  302 234 
 GUY2CHN ES        214 17.14                             112   -0.50 7  302 234 
 GUY2CHZ I         214 25.83        27.3 0.28                           302 234 
 LL2C HZ EP        213 43.40                             112    0.18 7  304 354 
 LL2C HE ES        214 17.03                             112    0.09 7  304 354 
 LL2C HZ I         214 25.18        21.9 0.22            113            304 354 
 ELA  HZ EP        213 46.96                             110    0.08 7  330 229 
 ELA  HE ES        214 23.52                             110    0.05 7  330 229 
 ELA  HZ I         214 38.93        17.6 0.54            111            330 229 
 CBOC HZ EP        213 47.40                             109    0.55 7  334 252 
 CBOC HN ES        214 23.17                             109   -0.23 7  334 252 
 CBOC HZ I         214 39.31         6.9 0.36            110            334 252 
 DBB  SZ EP        213 47.78                             109    0.47 7  339 274 
 DBB  SZ ES        214 23.18                             109   -1.04 7  339 274 
 DBB  SZ I         214 27.22        49.1 0.82            110            339 274 
 ANIL HN EP        213 50.58                             108    0.71 6  359 224 
 ANIL HZ ES        214 29.35                             108    0.58 6  359 224 
 PRA  HZ EP        213 52.87                             106   -0.78 6  394 209 
 PRA  HN ES        214 35.29                             106   -0.21 6  394 209 
 PRA  HZ I         214 41.78        17.7 0.24            107            394 209 
 ORTC HZ EP        213 53.51                             106   -0.51 6  397 216 
 ORTC HN ES        214 36.95                             106    0.78 6  397 216 
 ORTC HZ I         214 42.42        11.7 0.46            107            397 216 
 SJC  HZ EP   4    213 53.57                             105   -1.65 0  407 327 
 SJC  HN ES   4    214 34.74                             105   -3.57 0  407 327 
 SJC  HZ I         214 42.47         5.3 0.48            106            407 327 
                                                                                
