 2015  920 0342  0.9 L   6.784 -73.159145.5  RSN  5 0.4 1.3LRSN                1
 GAP=235        1.00       5.9     6.4  7.4  0.8579E+01  0.5909E+01  0.4180E+01E
 Epicentro: LOS SANTOS - SANTANDER                                             3
 ACTION:UPD 15-10-28 16:27 OP:cam  STATUS:               ID:20150920034200 L   I
 OLDACT:REG 15-09-20 12:18 OP:drio STATUS:               ID:20150920033746     3
 2015-09-20-0337-46M.COL___355                                                 6
 STAT SP IPHASW D HRMM SECON CODA AMPLIT PERI AZIMU VELO AIN AR TRES W  DIS CAZ7
 BAR2 EZ EP        342 20.28                             171   -0.2010 21.4 187 
 BAR2 EZ ES        342 35.30                             171   -0.4410 21.4 187 
 BAR2 EZ I         342 43.18         3.6 0.54            170           21.4 187 
 BRR  HZ EP        342 22.25                             153    0.2410 70.7 300 
 BRR  HN ES        342 39.04                             153    0.5710 70.7 300 
 BRR  HZ I         342 44.31         4.9 0.34            153           70.7 300 
 RUS  HZ EP        342 24.46                             144   -0.0710 99.0 175 
 RUS  HE ES        342 43.08                             144    0.1310 99.0 175 
 RUS  HZ I         342 45.09         1.9 0.40            149           99.0 175 
 PTB  HZ EP        342 27.13                             132   -0.57 9  146 259 
 PTB  HN ES        342 48.15                             132   -0.44 9  146 259 
 PTB  HZ I         342 54.45         3.1 0.28            135            146 259 
 SPBC HZ EP        342 29.73                             129    0.55 9  161 219 
 SPBC HN ES        342 51.46                             129    0.23 9  161 219 
 SPBC HZ I         342 57.49         4.4 0.22            133            161 219 
                                                                                
