 2016 1220 0843 37.9 L   6.769 -73.190138.7  RSN  6 0.4 1.2LRSN                1
 GAP=230        1.07       5.6     6.8  7.1  0.2130E+02  0.1218E+02  0.7777E+01E
 Epicentro: LOS SANTOS - SANTANDER                                             3
 ACTION:UPD 17-01-11 20:17 OP:rebc STATUS:               ID:20161220084337 L   I
 OLDACT:UP  16-12-20 15:34 OP:cog  STATUS:               ID:20161220083746     3
 OLDACT:REG 16-12-20 13:32 OP:cog  STATUS:               ID:20161220083746     3
 2016-12-20-0838-00M.COL___345                                                 6
 STAT SP IPHASW D HRMM SECON CODA AMPLIT PERI AZIMU VELO AIN AR TRES W  DIS CAZ7
 BAR2 EZ EP        843 56.11                             172   -0.4910 19.6 177 
 BAR2 EZ ES        844 10.90                             172   -0.3010 19.6 177 
 BAR2 EZ I         844 12.26         5.6 0.38            173           19.6 177 
 BRR  HZ EP        843 58.02                             152   -0.1210 68.7 303 
 BRR  HE ES        844 14.72                             152    0.7810 68.7 303 
 BRR  HZ I         844 19.38         3.2 0.32            153           68.7 303 
 RUS  HZ EP        844  0.87                             143    0.1310 97.6 173 
 RUS  HN ES        844 18.72                             143    0.1610 97.6 173 
 RUS  HZ I         844 20.45         1.6 0.52            146           97.6 173 
 PTB  HZ EP        844  3.17                             131   -0.62 9  142 260 
 PTB  HN ES        844 23.50                             131   -0.49 9  142 260 
 PTB  HZ I         844 25.87         2.4 0.42            134            142 260 
 ZAR  HZ EP        844 10.05                             121    0.50 9  201 294 
 ZAR  HE ES        844 34.29                             121    0.04 9  201 294 
 CHI  HZ EP        844 14.97                             116    0.26 8  244 194 
 CHI  HN ES        844 43.84                             116    0.42 8  244 194 
                                                                                
