 2010  620 0935 11.3 L   6.754 -73.123147.3  RSN 10 0.4 2.5LRSN                1
 GAP=128        1.14       4.9     9.3  8.4 -0.5885E+01 -0.2228E+02 -0.4790E+01E
 Epicentro: LOS SANTOS - SANTANDER                                             3
 ACTION:UP  10-08-24 10:11 OP:vdl  STATUS:               ID:20100620093511 L   I
 2010-06-20-0933-38S.COL___118                                                 6
 STAT SP IPHASW D HRMM SECON CODA AMPLIT PERI AZIMU VELO SNR AR TRES W  DIS CAZ7
 BAR2 SZ IP        935 31.12                             172     0.010   19 200 
 BAR2 SZ ES   1    935 46.11                             172    -0.4 7   19 200 
 BRR  HZ IP        935 33.02                             151     0.110   76 301 
 BRR  HE ES        935 49.59                             151    -0.210   76 301 
 BRR  HZ I         935 51.32        52.2 0.26                            76 301 
 BTN  SZ IP        935 33.43                             148    -0.510   85   2 
 RUS  HZ IP     C  935 35.09                             145     0.210   95 177 
 RUS  HN ES   1    935 53.40                             145     0.2 7   95 177 
 RUS  HZ I         935 55.39        45.0 0.39                            95 177 
 BRI  SZ IP        935 35.78                             141     0.110  112  19 
 BRI  SZ ES   1    935 54.49                             141    -0.2 7  112  19 
 GUE  SZ EP   1    935 36.14                             139    -0.4 7  121  10 
 GRA  SZ IP        935 38.10                             136     1.010  130  16 
 GRA  SZ ES   1    935 57.28                             136     0.1 7  130  16 
 OCA  SZ IP        935 39.71                             129    -0.6 9  166 353 
 OCA  SZ ES   1    936  3.47                             129     0.6 7  166 353 
 OCA  SZ I         936  7.74        62.2 0.57                           166 353 
 HEL  HZ EP   2    935 51.64                             115    -0.1 4  273 257 
 HEL  HZ I         936 28.29        11.6 0.22                           273 257 
 SDV  BZ EP   1    936  0.75                             108    -0.8 5  362  49 
 SDV  BZ I         936 40.43        11.8 0.15                           362  49 
                                                                                
