 2011 1220 0220 26.7 L   6.479 -73.804 90.3  RSN  8 0.3 1.5LRSN                1
 GAP=100        0.62       2.9     2.6  6.2  0.3189E+00  0.3904E+01 -0.1378E+01E
 Epicentro: SANTA HELENA DEL OPON - SANTANDER                                  3
 ACTION:UPD 12-07-13 16:17 OP:ep   STATUS:               ID:20111220022026 L   I
 2011-12-20-0220-00M.COL___192                                                 6
 STAT SP IPHASW D HRMM SECON CODA AMPLIT PERI AZIMU VELO AIN AR TRES W  DIS CAZ7
 BAR2 SZ EP        220 42.57                             139    0.1710 69.9  80 
 BAR2 SZ ES   1    220 54.95                             139    0.27 7 69.9  80 
 BAR2 SZ I         220 56.51         8.4 0.18                          69.9  80 
 BRR  HZ EP        220 41.87                             139   -0.2210 70.2   8 
 BRR  HZ I         220 47.57        16.6 0.28                          70.2   8 
 BRR  HN ES   1    220 54.05                             139   -0.08 7 70.2   8 
 PTB  HZ EP   1    220 42.49                             138    0.19 7 72.5 275 
 PTB  HN ES   2    220 54.62                             138    0.11 5 72.5 275 
 GIR2 SZ EP   1    220 44.24                             130   -0.20 7 94.6  45 
 RUS  HZ EP   1    220 46.20                             128    0.51 7  103 129 
 RUS  HE ES   1    220 59.94                             128   -0.60 7  103 129 
 RUS  HZ I         221  2.57         6.1 0.23                           103 129 
 NOR  SN ES   1    221  9.37                             115   -0.05 7  155 229 
 PAM  SZ EP   1    220 51.34                             116    0.18 7  155  52 
 MON  HZ EP   1    221 10.27                             101   -0.56 5  327 321 
 MON  HN ES   1    221 45.51                             101    0.22 5  327 321 
                                                                                
