 2013  620 0537 45.0 L   6.870 -72.994142.8  RSN  4 0.3 1.6LRSN                1
 GAP=214        0.60       8.3    18.1  9.3  0.1342E+03 -0.1166E+03 -0.5847E+02E
 Epicentro: CEPITA - SANTANDER                                                 3
 ACTION:UPD 14-01-08 09:55 OP:ep   STATUS:               ID:20130620053745 L   I
 OLDACT:REG 13-06-20 09:46 OP:carl STATUS:               ID:20130620052959     3
 2013-06-20-0529-59M.COL___263                                                 6
 STAT SP IPHASW D HRMM SECON CODA AMPLIT PERI AZIMU VELO AIN AR TRES W  DIS CAZ7
 BAR2 SZ EP   1    538  5.07                             165    0.41 7 37.1 214 
 BAR2 SZ ES   1    538 20.04                             165    0.06 7 37.1 214 
 BAR2 SZ I         538 20.82         8.0 0.32            174           37.1 214 
 BRR  HZ EP   1    538  6.79                             148    0.19 7 83.5 288 
 BRR  HN ES   1    538 23.57                             148    0.13 7 83.5 288 
 BRR  HZ I         538 26.58         6.7 0.18            148           83.5 288 
 RUS  HZ EP   1    538  9.17                             141    0.09 7  109 185 
 RUS  HE ES   1    538 27.31                             141   -0.53 7  109 185 
 SML  HZ EP   1    538 21.36                             117   -0.19 6  244 331 
 SML  HN ES   1    538 49.66                             117   -0.39 6  244 331 
 SML  HZ I         538 59.24         4.5 0.26            117            244 331 
                                                                                
