 2012  620 0328 46.9 L   6.792 -73.190145.8  RSN 12 0.3 3.1LRSN                1
 GAP=131        0.57       1.7     2.4  3.6 -0.4079E+00  0.3900E+01  0.8292E+00E
 Epicentro: ZAPATOCA - SANTANDER                                               3
 ACTION:UPD 12-08-06 17:51 OP:ep   STATUS:               ID:20120620032846 L   I
 2012-06-20-0326-36M.COL___179                                                 6
 STAT SP IPHASW D HRMM SECON CODA AMPLIT PERI AZIMU VELO AIN AR TRES W  DIS CAZ7
 BAR2 SZ IP        329  6.62                             171    0.1510 22.1 178 
 BAR2 SZ ES   1    329 21.96                             171    0.20 7 22.1 178 
 BAR2 SZ I         329 24.69       221.8 0.32                          22.1 178 
 PAM  SZ EP        329  9.52                             150    0.2110 81.3  42 
 PAM  SN ES        329 26.73                             150   -0.1010 81.3  42 
 RUS  HZ IP     D  329 10.48                             144   -0.1010  100 173 
 RUS  HZ I         329 11.70        73.9 0.53                           100 173 
 RUS  HE ES        329 29.17                             144    0.0810  100 173 
 PTB  HZ EP        329 13.31                             133   -0.06 9  143 259 
 PTB  HN ES   1    329 34.25                             133    0.19 7  143 259 
 PTB  HZ I         329 40.02       153.4 0.21                           143 259 
 OCA  HZ EP        329 14.93                             130   -0.27 9  161 355 
 OCA  HN ES        329 37.06                             130   -0.25 9  161 355 
 OCA  HZ I         329 42.66       433.7 0.26                           161 355 
 ZAR  HZ EP        329 18.93                             123    0.06 9  200 293 
 ZAR  HE ES        329 43.75                             123   -0.09 9  200 293 
 ZAR  HZ I         329 51.13       225.8 0.32                           200 293 
 NOR  SZ EP        329 22.18                             119    0.08 8  230 234 
 NOR  SN ES   1    329 49.34                             119   -0.26 6  230 234 
 CHI  HZ EP        329 24.51                             117    0.18 8  247 194 
 CHI  HN ES        329 53.12                             117   -0.44 8  247 194 
 HEL  HZ EP        329 26.85                             115    0.34 8  267 256 
 HEL  HN ES   1    329 57.72                             115    0.27 6  267 256 
 HEL  HZ I         330  7.61        78.9 0.49                           267 256 
 DBB  SZ EP   1    329 33.50                             110   -0.27 5  335 274 
 TOL  SZ EP        329 35.34                             109    0.70 7  339 224 
 PRA  HZ EP        329 39.90                             107   -0.10 6  389 209 
 PRA  HE ES        330 20.80                             107   -0.66 6  389 209 
                                                                                
