 2014  120 0031 32.2 L   6.803 -73.133145.0  RSN  9 0.5 1.8LRSN                1
 GAP=184        1.29       4.1     6.6  8.0  0.2759E+01  0.4052E+01 -0.8009E+01E
 Epicentro: LOS SANTOS - SANTANDER                                             3
 ACTION:UPD 14-03-13 09:56 OP:ep   STATUS:               ID:20140120003132 L   I
 OLDACT:REG 14-01-20 07:51 OP:nd   STATUS:               ID:20140120003000     3
 2014-01-20-0030-00M.COL___285                                                 6
 STAT SP IPHASW D HRMM SECON CODA AMPLIT PERI AZIMU VELO AIN AR TRES W  DIS CAZ7
 BAR2 SZ EP        031 51.94                             170    0.1910 23.9 193 
 BAR2 SZ ES        032  6.93                             170   -0.0610 23.9 193 
 BAR2 SZ I         032  8.69        25.2 0.22            174           23.9 193 
 BRR  HZ IP     C  031 53.79                             152    0.4610 72.3 298 
 BRR  HN ES        032 10.86                             152    1.0610 72.3 298 
 BRR  HZ I         032 15.11        13.8 0.46            150           72.3 298 
 RUS  HZ EP        031 56.14                             144    0.2510  101 177 
 RUS  HN ES        032 13.94                             144   -0.4310  101 177 
 RUS  HZ I         032 17.13         2.7 0.20            149            101 177 
 PTB  HZ EP        031 58.86                             132   -0.38 9  149 259 
 PTB  HN ES        032 19.67                             132   -0.65 9  149 259 
 PTB  HZ I         032 25.75        12.2 0.34            133            149 259 
 OCA  HZ EP        032  0.44                             129    0.00 9  160 353 
 OCA  HN ES        032 21.65                             129   -0.81 9  160 353 
 OCA  HZ I         032 37.72         4.7 0.18            129            160 353 
 SPBC HZ EP        032  0.74                             129   -0.01 9  164 219 
 SPBC HN ES        032 22.92                             129   -0.09 9  164 219 
 SPBC HZ I         032 26.58         7.0 0.18            132            164 219 
 ZAR  HZ EP        032  5.70                             122    0.98 8  205 292 
 ZAR  HN ES        032 29.82                             122   -0.26 8  205 292 
 ZAR  HZ I         032 37.27         7.4 0.26            123            205 292 
 SML  HZ EP        032  8.26                             117   -0.55 8  244 335 
 SML  HN ES        032 37.38                             117    0.01 8  244 335 
 SML  HZ I         032 40.00         7.6 0.10            118            244 335 
 SJC  HZ EP   4    032 27.54                             106   -0.25 0  410 327 
 SJC  HZ I         032 45.84         1.9 0.60            106            410 327 
 SJC  HN ES   4    033  6.46                             106   -4.70 0  410 327 
                                                                                
