 2016  620 0434 12.0 L   6.823 -73.115142.0  RSN  6 0.4 1.5LRSN                1
 GAP=204        1.02       4.6     6.4  8.3 -0.4673E+01  0.9893E+01 -0.2912E+01E
 Epicentro: LOS SANTOS - SANTANDER                                             3
 ACTION:UPD 16-07-21 22:20 OP:rebc STATUS:               ID:20160620043412 L   I
 OLDACT:DUP 16-06-20 17:25 OP:ak   STATUS:               ID:20160620042746d    3
 OLDACT:UP  16-06-20 17:22 OP:ak   STATUS:               ID:20160620042745     3
 OLDACT:REG 16-06-20 13:19 OP:ar   STATUS:               ID:20160620042745     3
 2016-06-20-0427-45M.COL___343                                                 6
 STAT SP IPHASW D HRMM SECON CODA AMPLIT PERI AZIMU VELO AIN AR TRES W  DIS CAZ7
 BAR2 EZ EP        434 31.31                             169    0.0210 26.6 196 
 BAR2 EZ ES        434 46.15                             169   -0.1610 26.6 196 
 BAR2 EZ I         434 47.60         3.9 0.16                          26.6 196 
 BRR  HZ EP        434 33.61                             151    0.7110 73.1 296 
 BRR  HN ES        434 49.78                             151    0.6210 73.1 296 
 BRR  HZ I         434 53.97         6.9 0.14                          73.1 296 
 PTB  HZ EP        434 38.62                             130   -0.44 9  152 258 
 PTB  HN ES        434 59.99                             130   -0.14 9  152 258 
 PTB  HZ I         435  1.99         2.3 0.09                           152 258 
 OCA  HZ EP   2    434 39.57                             129   -0.30 5  158 352 
 OCA  HN ES        435  0.98                             129   -0.59 9  158 352 
 OCA  HZ I         435  4.95         6.7 0.32                           158 352 
 SPBC HZ EP   2    434 41.45                             128    0.80 5  167 219 
 SPBC HN ES        435  2.60                             128   -0.36 9  167 219 
 SPBC HZ I         435  7.05         3.2 0.18                           167 219 
 ZAR  HZ EP   2    434 44.94                             121    0.46 4  206 291 
 ZAR  HN ES        435  9.67                             121   -0.10 8  206 291 
 ZAR  HZ I         435 15.84         2.7 0.24                           206 291 
                                                                                
