 2014  320 0044 22.3 L   6.747 -73.169143.7  RSN  7 0.5 1.6LRSN                1
 GAP=136        1.07       6.2     5.4 10.7 -0.5133E+01  0.1667E+02 -0.1082E+02E
 Epicentro: VILLANUEVA - SANTANDER                                             3
 OLDACT:REG 14-03-20 07:27 OP:fm   STATUS:               ID:20140320003812     3
 ACTION:UPD 14-04-09 23:19 OP:nd   STATUS:               ID:20140320004422 L   I
 OLDACT:UP  14-03-20 08:28 OP:fm   STATUS:               ID:20140320003812     3
 2014-03-20-0038-12M.COL___238                                                 6
 STAT SP IPHASW D HRMM SECON CODA AMPLIT PERI AZIMU VELO AIN AR TRES W  DIS CAZ7
 BAR2 SZ EP   1    044 41.69                             173    0.10 7 17.1 185 
 BAR2 SZ I         045  3.51        10.2 0.92            170           17.1 185 
 BRR  HZ EP        044 43.58                             152    0.2910 72.0 304 
 BRR  HE ES   1    045  0.29                             152    0.64 7 72.0 304 
 BRR  SZ I         045 16.78         7.7 1.88            155           72.0 304 
 PAM  SZ EP        044 44.67                             148   -0.0310 83.6  38 
 PAM  SN ES        045  1.73                             148   -0.4310 83.6  38 
 PAM  SZ I         045  3.28         7.8 0.74            155           83.6  38 
 RUS  HN ES   1    045  4.15                             145    0.63 7 94.9 174 
 PTB  HZ EP   1    044 48.26                             132   -0.53 7  144 261 
 PTB  HN ES        045  8.57                             132   -0.87 9  144 261 
 PTB  SZ I         045 12.72         5.2 1.22            135            144 261 
 ZAR  HZ EP   1    044 55.00                             122    0.38 6  204 294 
 ZAR  HE ES   1    045 20.43                             122    0.61 6  204 294 
 ZAR  SZ I         045 26.77         4.8 0.28            126            204 294 
 SML  HE ES   1    045 28.23                             116    0.08 6  248 336 
                                                                                
