 2016  320 0506 31.0 L   6.799 -73.226134.4  RSN  4 0.3 1.3LRSN                1
 GAP=270        0.43       8.3     6.0  8.1 -0.4651E+01  0.1505E+02 -0.1560E+01E
 Epicentro: ZAPATOCA - SANTANDER                                               3
 ACTION:UPD 16-05-13 21:25 OP:cam  STATUS:               ID:20160320050631 L   I
 OLDACT:DUP 16-03-20 16:09 OP:dnl  STATUS:               ID:20160320045744d    3
 OLDACT:REG 16-03-20 14:41 OP:dnl  STATUS:               ID:20160320045743     3
 2016-03-20-0457-43M.COL___301                                                 6
 STAT SP IPHASW D HRMM SECON CODA AMPLIT PERI AZIMU VELO AIN AR TRES W  DIS CAZ7
 BAR2 EZ EP   2    5 6 49.46                             169    0.21 5 23.4 168 
 BAR2 EZ ES   2    5 7  3.60                             169    0.10 5 23.4 168 
 BAR2 EZ I         5 7  6.73         6.3 0.26            170           23.4 168 
 RUS  HZ EP   3    5 6 53.35                             141   -0.35 2  102 171 
 RUS  HN ES   3    5 7 10.87                             141   -0.56 2  102 171 
 RUS  HZ I         5 7 12.82         3.5 0.28            145            102 171 
 PTB  HZ EP   2    5 6 56.48                             131    0.25 5  139 258 
 PTB  HN ES   2    5 7 15.47                             131   -0.46 5  139 258 
 PTB  HZ I         5 7 17.76         1.9 0.18            135            139 258 
 SPBC HZ EP   2    5 6 57.83                             127   -0.26 5  158 216 
 SPBC HE ES   2    5 7 19.63                             127    0.39 5  158 216 
 SPBC HZ I         5 7 21.67         4.5 0.20            131            158 216 
                                                                                
