 2015  720 0134 37.9 L   6.804 -73.167138.0  RSN 14 0.4 2.2LRSN                1
 GAP=134        0.91       2.5     3.3  4.9 -0.1807E+01  0.6801E+01  0.1532E+01E
 Epicentro: LOS SANTOS - SANTANDER                                             3
 ACTION:UPD 15-09-08 21:49 OP:cam  STATUS:               ID:20150720013437 L   I
 OLDACT:REG 15-07-20 14:22 OP:stll STATUS:               ID:20150720012747     3
 2015-07-20-0127-47M.COL___334                                                 6
 STAT SP IPHASW D HRMM SECON CODA AMPLIT PERI AZIMU VELO AIN AR TRES W  DIS CAZ7
 BAR2 EZ IP     C  134 56.64                             170    0.0710 23.4 184 
 BAR2 EZ ES        135 11.58                             170    0.4310 23.4 184 
 BAR2 EZ I         135 12.97        41.0 0.16            166           23.4 184 
 PAM  EZ EP        134 59.39                             149    0.0510 78.6  41 
 PAM  EZ I         134 59.66        29.0 0.22            149           78.6  41 
 PAM  EN ES        135 16.26                             149    0.1710 78.6  41 
 RUS  HZ EP     C  135  0.51                             142   -0.4010  101 175 
 RUS  HN ES        135 19.11                             142    0.2310  101 175 
 RUS  HZ I         135 20.28        13.1 0.34            138            101 175 
 CPBEREZ EP        135  3.84                             131   -0.17 9  146 258 
 CPBEREN ES        135 24.66                             131    0.26 9  146 258 
 OCA  HZ EP        135  5.18                             128   -0.34 9  160 354 
 OCA  HN ES        135 26.58                             128   -0.51 9  160 354 
 OCA  HZ I         135 29.86        31.1 0.22            124            160 354 
 ZAR  HZ EP        135  9.29                             121   -0.28 9  202 292 
 ZAR  HN ES        135 34.49                             121    0.19 9  202 292 
 ZAR  HZ I         135 43.09        13.6 0.40            115            202 292 
 NOR  HZ EP     D  135 13.06                             117    0.09 8  233 234 
 NOR  HE ES        135 39.63                             117   -0.73 8  233 234 
 NOR  HZ I         135 46.56        14.4 0.18            112            233 234 
 CHI  HZ EP        135 14.59                             115   -0.53 8  248 195 
 CHI  HN ES        135 44.04                             115   -0.14 8  248 195 
 CHI  HZ I         135 51.06         5.0 0.34            111            248 195 
 ROSC BZ EP        135 16.19                             115    0.71 8  252 211 
 ROSC BN ES        135 44.37                             115   -0.45 8  252 211 
 ROSC BZ I         135 54.10        13.3 0.35            111            252 211 
 HEL  HZ EP        135 18.08                             113    0.63 8  270 256 
 HEL  HN ES        135 48.64                             113    0.32 8  270 256 
 HEL  HZ I         135 57.37         6.2 0.38            109            270 256 
 GUY2CHZ EP        135 21.19                             111    0.26 7  299 234 
 GUY2CHN ES        135 54.73                             111    0.21 7  299 234 
 GUY2CHZ I         136  3.09        13.1 0.34                           299 234 
 CBOC HZ EP        135 24.70                             109    0.47 7  331 252 
 CBOC HZ I         136 21.66         2.4 0.62            105            331 252 
 TOL  SZ EP        135 26.15                             108    0.49 7  342 224 
 TOL  SN ES        136  1.95                             108   -0.99 7  342 224 
 TOL  SZ I         136 13.08         6.9 0.50            104            342 224 
 ORTC HZ IP     C  135 31.71                             105    0.30 6  394 216 
 ORTC HE ES        136 12.99                             105   -0.18 6  394 216 
 ORTC HZ I         136 19.63         4.7 0.48            102            394 216 
                                                                                
