 2016 1220 0856 25.0 L   6.925 -73.112141.1  RSN  5 0.4 1.2LRSN                1
 GAP=250        0.88       6.3     6.2  7.2  0.2248E+02  0.8716E+01  0.4972E+01E
 Epicentro: PIEDECUESTA - SANTANDER                                            3
 ACTION:UPD 17-01-11 20:17 OP:rebc STATUS:               ID:20161220085625 L   I
 OLDACT:REG 16-12-20 13:33 OP:cog  STATUS:               ID:20161220084748     3
 2016-12-20-0848-00M.COL___345                                                 6
 STAT SP IPHASW D HRMM SECON CODA AMPLIT PERI AZIMU VELO AIN AR TRES W  DIS CAZ7
 BAR2 EZ EP        856 43.78                             164   -0.6910 37.6 192 
 BAR2 EZ ES        856 59.71                             164    0.0710 37.6 192 
 BAR2 EZ I         857  3.45         5.2 0.24            164           37.6 192 
 RUS  HZ EP        856 49.52                             139    0.1610  114 178 
 RUS  HN ES        857  8.73                             139    0.3810  114 178 
 RUS  HZ I         857  9.68         2.9 0.36            141            114 178 
 PTB  HZ EP     C  856 52.60                             129    0.35 9  155 254 
 PTB  HN ES        857 13.38                             129   -0.10 9  155 254 
 PTB  HZ I         857 14.54         1.9 0.30            130            155 254 
 ZAR  HE ES        857 22.07                             121    0.07 9  203 288 
 ZAR  HZ I         857 29.37         1.4 0.30            122            203 288 
 CHI  HZ EP     D  857  4.27                             115    0.23 8  263 195 
 CHI  HN ES        857 33.96                             115   -0.51 8  263 195 
 CHI  HZ I         857 39.21         0.9 0.68            116            263 195 
                                                                                
