 2015  520 0958 34.6 L   6.801 -73.133140.0  RSN 12 0.5 1.9LRSN                1
 GAP=184        1.15       3.0     5.3  6.4 -0.1257E+01  0.1051E+02 -0.8305E+00E
 Epicentro: LOS SANTOS - SANTANDER                                             3
 ACTION:UPD 15-09-10 22:05 OP:cam  STATUS:               ID:20150520095834 L   I
 OLDACT:REG 15-05-20 12:43 OP:spq  STATUS:               ID:20150520094748     3
 2015-05-20-0947-48M.COL___283                                                 6
 STAT SP IPHASW D HRMM SECON CODA AMPLIT PERI AZIMU VELO AIN AR TRES W  DIS CAZ7
 BAR2 EZ IP     D  958 53.81                             170    0.2310 23.8 193 
 BAR2 EZ ES        959  8.17                             170   -0.1910 23.8 193 
 BAR2 EZ I         959  9.81        27.5 0.11            170           23.8 193 
 BRR  HZ EP        958 55.72                             151    0.4910 72.3 298 
 BRR  HN ES        959 12.20                             151    0.9110 72.3 298 
 BRR  HZ I         959 13.54        11.1 0.10            148           72.3 298 
 RUS  HZ EP   1    958 58.05                             143    0.22 7  101 177 
 RUS  HN ES        959 16.03                             143    0.1110  101 177 
 RUS  HZ I         959 17.30        11.1 0.24            146            101 177 
 OCA  HZ EP        959  2.18                             128   -0.32 9  160 353 
 OCA  HN ES        959 23.50                             128   -0.74 9  160 353 
 OCA  HZ I         959 31.95         9.7 0.20            129            160 353 
 SPBC HZ EP        959  2.64                             128   -0.15 9  164 219 
 SPBC HN ES        959 23.86                             128   -0.89 9  164 219 
 SPBC HZ I         959 27.49        13.9 0.10            129            164 219 
 ZAR  HZ EP        959  6.87                             121    0.04 8  205 292 
 ZAR  HN ES        959 31.94                             121   -0.01 8  205 292 
 ZAR  HZ I         959 40.57         6.3 0.38            121            205 292 
 NOR  HZ EP        959 10.26                             117    0.10 8  236 235 
 NOR  HN ES        959 37.91                             117    0.03 8  236 235 
 NOR  HZ I         959 39.92         4.9 0.18            119            236 235 
 SML  HZ EP        959 11.59                             116    0.60 8  244 335 
 SML  HN ES        959 38.74                             116   -0.61 8  244 335 
 CHI  HZ EP   1    959 11.13                             116   -0.94 6  249 195 
 CHI  HN ES        959 41.12                             116   -0.16 8  249 195 
 HEL  HZ EP        959 15.22                             113    0.51 8  273 256 
 HEL  HN ES        959 45.26                             113   -0.71 8  273 256 
 HEL  HZ I         959 52.97         5.0 0.26            115            273 256 
 GUY2CHZ EP        959 18.72                             111    0.60 7  302 235 
 GUY2CHN ES        959 52.42                             111    0.39 7  302 235 
 GUY2CHZ I         959 58.86         3.6 0.30                           302 235 
 SJC  HZ EP   4    959 28.46                             105   -1.62 0  410 327 
 SJC  HN ES   4   10 0  9.03                             105   -4.30 0  410 327 
 SJC  HZ I        10 0 13.83         1.6 0.52            106            410 327 
                                                                                
