 2016  520 0835 48.4 L   6.791 -73.157147.7  RSN 10 0.5 2.0LRSN                1
 GAP=194        1.28       5.1     6.4  7.7 -0.1147E+02  0.1152E+02  0.2956E+00E
 Epicentro: LOS SANTOS - SANTANDER                                             3
 ACTION:UPD 16-08-18 17:47 OP:cam  STATUS:               ID:20160520083548 L   I
 OLDACT:UP  16-05-20 17:56 OP:mh   STATUS:               ID:20160520082743d    3
 OLDACT:DUP 16-05-20 17:45 OP:mh   STATUS:               ID:20160520082743d    3
 OLDACT:UP  16-05-20 17:43 OP:mh   STATUS:               ID:20160520082742     3
 OLDACT:REG 16-05-20 12:38 OP:mh   STATUS:               ID:20160520082742     3
 2016-05-20-0827-42M.COL___303                                                 6
 STAT SP IPHASW D HRMM SECON CODA AMPLIT PERI AZIMU VELO AIN AR TRES W  DIS CAZ7
 BAR2 EZ EP        836  8.17                             171   -0.0310 22.2 187 
 BAR2 EZ ES        836 23.11                             171   -0.5710 22.2 187 
 BAR2 EZ I         836 24.08        20.1 0.24            176           22.2 187 
 BRR  HZ IP     C  836  9.97                             153    0.2910 70.6 300 
 BRR  HN ES        836 27.25                             153    0.9410 70.6 300 
 BRR  HZ I         836 29.99        16.8 0.38            154           70.6 300 
 PTB  HZ EP        836 14.71                             133   -0.64 9  146 259 
 PTB  HN ES        836 35.46                             133   -0.95 9  146 259 
 PTB  HZ I         836 37.84         9.4 0.16            141            146 259 
 OCA  HZ EP        836 16.37                             130   -0.52 9  161 354 
 OCA  HN ES        836 39.52                             130    0.36 9  161 354 
 OCA  HZ I         836 46.05        16.5 0.28            131            161 354 
 SPBC HZ EP        836 17.03                             130    0.18 9  162 219 
 SPBC HN ES        836 39.60                             130    0.51 9  162 219 
 SPBC HZ I         836 45.89        13.0 0.12            142            162 219 
 ZAR  HZ I         823 40.05        27.3 0.50            128            203 293 
 ZAR  HZ EP        836 20.70                             123   -0.14 9  203 293 
 ZAR  HN ES        836 45.94                             123   -0.25 9  203 293 
 ZAR  HZ I         836 51.75         7.6 0.48            128            203 293 
 NOR  HZ EP   1    836 24.07                             119    0.05 6  233 234 
 NOR  HN ES        836 51.91                             119    0.06 8  233 234 
 NOR  HZ I         836 58.58         5.4 0.19            128            233 234 
 HEL  HZ EP        836 29.38                             115    0.88 8  271 256 
 HEL  HN ES        836 59.26                             115   -0.56 8  271 256 
 URE  HZ EP   4    836 30.88                             114    1.45 0  283 292 
 URE  HE ES   4    836 58.71                             114   -2.75 0  283 292 
 URE  HZ I         837  4.50         4.4 0.14            119            283 292 
 CBOC HZ EP        836 35.17                             110   -0.00 7  332 252 
 CBOC HE ES        837 12.48                             110    0.78 7  332 252 
                                                                                
