 2011  220 0604 57.7 L   6.807 -73.131137.9  RSN  6 0.3 1.2LRSN                1
 GAP=160        0.85       5.0     8.0  9.2 -0.1911E+02  0.2557E+02 -0.1423E+02E
 Epicentro: LOS SANTOS - SANTANDER                                             3
 ACTION:UP  11-03-28 15:09 OP:jfem STATUS:               ID:20110220060457 L   I
 2011-02-20-0600-00M.COL___140                                                 6
 STAT SP IPHASW D HRMM SECON CODA AMPLIT PERI AZIMU VELO SNR AR TRES W  DIS CAZ7
 BAR2 SZ EP   1    6 5 16.55                             169     0.1 8   25 194 
 BAR2 SZ ES   1    6 5 31.05                             169     0.0 8   25 194 
 BAR2 SZ I         6 5 33.04         3.5 0.31                            25 194 
 RUS  HZ EP        6 5 20.32                             142    -0.510  101 177 
 RUS  HE ES   1    6 5 38.69                             142    -0.1 7  101 177 
 RUS  HZ I         6 5 39.95         3.0 0.39                           101 177 
 GRA  SZ EP   1    6 5 22.69                             135     0.5 7  125  17 
 GRA  SZ I         6 5 57.68         2.6 0.39                           125  17 
 OCA  SZ EP   1    6 5 25.29                             128    -0.1 7  160 353 
 OCA  SZ I         6 5 52.58         3.2 0.33                           160 353 
 NOR  SZ EP   2    6 5 32.80                             117    -0.4 4  237 235 
 NOR  SN ES        6 6  0.86                             117    -0.1 8  237 235 
 CHI  HN ES        6 6  4.86                             115     0.5 8  250 195 
 CHI  HZ I         6 6 51.13         1.0 0.20                           250 195 
                                                                                
