 2014 1120 0653 38.8 L   6.779 -73.174144.4  RSN 11 0.4 1.7LRSN                1
 GAP=134        1.11       3.2     4.2  5.9 -0.1313E+01  0.6111E+01  0.1906E+01E
 Epicentro: LOS SANTOS - SANTANDER                                             3
 ACTION:UPD 14-12-19 15:44 OP:nd   STATUS:               ID:20141120065338 L   I
 OLDACT:REG 14-11-20 13:14 OP:fm   STATUS:               ID:20141120064746     3
 2014-11-20-0647-46M.COL___295                                                 6
 STAT SP IPHASW D HRMM SECON CODA AMPLIT PERI AZIMU VELO AIN AR TRES W  DIS CAZ7
 BAR2 SZ EP        653 58.47                             171    0.2910 20.6 183 
 BAR2 SZ ES        654 13.06                             171   -0.2610 20.6 183 
 BAR2 SZ I         654 14.45        12.0 0.28            171           20.6 183 
 BRR  HZ EP     C  654  0.11                             153    0.4310 69.7 301 
 BRR  HN ES        654 17.02                             153    1.0210 69.7 301 
 BRR  HZ I         654 18.27         9.2 0.22            151           69.7 301 
 PAM  SZ EP        654  1.18                             149    0.1110 81.2  40 
 PAM  SN ES        654 18.08                             149   -0.3910 81.2  40 
 PAM  SZ I         654 20.63        10.2 0.80            152           81.2  40 
 RUS  HZ EP        654  2.08                             144   -0.1510 98.5 174 
 RUS  HN ES        654 20.47                             144   -0.0610 98.5 174 
 RUS  HZ I         654 22.08         5.6 0.28            146           98.5 174 
 PTB  HZ EP        654  4.91                             132   -0.39 9  144 260 
 PTB  HN ES        654 25.15                             132   -0.85 9  144 260 
 PTB  HZ I         654 27.72         6.3 0.40            132            144 260 
 SPBC HZ EP        654  6.57                             129   -0.23 9  159 219 
 SPBC HN ES        654 28.42                             129   -0.24 9  159 219 
 SPBC HZ I         654 34.39         7.9 0.22            130            159 219 
 OCA  HZ EP        654  7.10                             129   -0.06 9  162 354 
 OCA  HN ES        654 29.28                             129   -0.03 9  162 354 
 OCA  HZ I         654 36.00         3.9 0.30            130            162 354 
 ZAR  HZ EP        654 10.14                             122   -0.78 9  202 293 
 ZAR  HN ES        654 36.19                             122    0.19 9  202 293 
 ZAR  HZ I         654 41.71         5.8 0.28            122            202 293 
 CHI  HZ EP        654 16.19                             117    0.14 8  246 195 
 CHI  HN ES        654 45.78                             117    0.65 8  246 195 
 CHI  HZ I         654 48.32         3.2 0.38            118            246 195 
 HEL  HZ EP        654 19.17                             115    0.66 8  268 256 
 HEL  HN ES        654 49.59                             115    0.08 8  268 256 
 HEL  HZ I         654 56.74         2.9 0.32            115            268 256 
 MON  HZ EP   4    654 25.63                             108   -1.97 0  353 309 
 PRA  HZ EP        654 31.96                             106    0.15 6  388 209 
 PRA  HN ES   4    655 10.78                             106   -2.41 0  388 209 
 PRA  HZ I         655 19.30         1.9 0.70            107            388 209 
 SMAR HZ EP   4    654 37.58                             102   -7.21 0  499 347 
                                                                                
