 2012  220 0621 55.5 L   6.727 -73.220149.5  RSN  4 0.3 1.4LRSN                1
 GAP=217        0.69       7.2     6.8  7.4  0.2361E+02  0.5667E+01  0.2331E+01E
 ACTION:UP  12-03-07 16:32 OP:epov STATUS:               ID:20120220062155 L   I
 2012-02-20-0620-00M.COL___191                                                 6
 STAT SP IPHASW D HRMM SECON CODA AMPLIT PERI AZIMU VELO AIN AR TRES W  DIS CAZ7
 BAR2 SZ EP   1    622 15.14                             174   -0.30 7 15.4 164 
 BAR2 SZ ES   1    622 30.50                             174   -0.49 7 15.4 164 
 BAR2 SZ I         622 31.68         8.4 0.15                          15.4 164 
 BRR  HZ EP   1    622 16.93                             154    0.02 7 68.7 308 
 BRR  HE ES   1    622 34.12                             154    0.51 7 68.7 308 
 BRR  HZ I         622 37.91         4.8 0.32                          68.7 308 
 RUS  HZ EP   1    622 19.16                             147    0.04 7 93.5 171 
 RUS  HE ES   1    622 37.95                             147    0.40 7 93.5 171 
 RUS  HZ I         622 39.52         2.9 0.45                          93.5 171 
 PTB  HZ EP   1    622 22.06                             135    0.13 7  138 261 
 PTB  HN ES   1    622 42.22                             135   -0.33 7  138 261 
                                                                                
