 2017  420 0919 30.8 L   6.754 -73.163148.6  RSN  4 0.2 1.1LRSN                1
 GAP=232        0.52       4.3     4.4  5.3  0.1274E+02 -0.6762E+00 -0.1864E+01E
 Epicentro: LOS SANTOS - SANTANDER                                             3
 ACTION:UPD 17-05-30 21:14 OP:jn   STATUS:               ID:20170420091930 L   I
 OLDACT:UP  17-04-20 17:26 OP:cog  STATUS:               ID:20170420091719     3
 OLDACT:REG 17-04-20 13:53 OP:cog  STATUS:               ID:20170420091719     3
 2017-04-20-0918-00M.COL___362                                                 6
 STAT SP IPHASW D HRMM SECON CODA AMPLIT PERI AZIMU VELO AIN AR TRES W  DIS CAZ7
 BRR  HZ EP        919 52.16                             153   -0.1310 72.1 303 
 BRR  HN ES        920  8.98                             153   -0.0910 72.1 303 
 BRR  HZ I         920 17.65         3.8 0.62            155           72.1 303 
 RUS  HZ EP        919 54.55                             146    0.0710 95.7 175 
 RUS  HN ES        920 13.07                             146    0.1210 95.7 175 
 RUS  HZ I         920 14.46         1.2 0.28            156           95.7 175 
 PTB  HZ EP        919 57.61                             133   -0.13 9  145 261 
 PTB  HN ES        920 18.57                             133   -0.19 9  145 261 
 PTB  HZ I         920 20.63         1.6 0.22            141            145 261 
 ZAR  HZ EP   4    920  5.88                             123    2.44 0  204 294 
 ZAR  HN ES        920 29.32                             123    0.42 9  204 294 
                                                                                
