 2016  220 0807 33.7 L   6.789 -73.157147.5  RSN 10 0.4 1.8LRSN                1
 GAP=119        1.11       4.1     4.5  6.6  0.1010E+00  0.2295E+01  0.7831E+01E
 Epicentro: LOS SANTOS - SANTANDER                                             3
 ACTION:UPD 16-03-04 21:27 OP:rebc STATUS:               ID:20160220080733 L   I
 OLDACT:UP  16-02-20 20:03 OP:drio STATUS:               ID:20160220075746     3
 OLDACT:REG 16-02-20 13:17 OP:drio STATUS:               ID:20160220075746     3
 2016-02-20-0757-46M.COL___318                                                 6
 STAT SP IPHASW D HRMM SECON CODA AMPLIT PERI AZIMU VELO AIN AR TRES W  DIS CAZ7
 BAR2 EZ EP        8 7 53.50                             171   -0.0210 21.9 187 
 BAR2 EZ ES        8 8  8.17                             171   -0.8010 21.9 187 
 BAR2 EZ I         8 8 11.07        13.5 0.72            167           21.9 187 
 BRR  HZ EP     C  8 7 55.27                             153    0.2410 70.7 300 
 BRR  HE ES        8 8 12.52                             153    0.8810 70.7 300 
 BRR  HZ I         8 8 15.50        10.0 0.28            149           70.7 300 
 PAM  EZ EP        8 7 56.50                             151    0.2810 79.1  40 
 PAM  EN ES        8 8 13.67                             151   -0.0910 79.1  40 
 PAM  EZ I         8 8 15.68         7.9 0.50            156           79.1  40 
 RUS  HZ EP        8 7 57.58                             144    0.0210 99.5 175 
 RUS  HE ES        8 8 16.32                             144    0.1710 99.5 175 
 RUS  HZ I         8 8 17.24         7.6 0.24            145           99.5 175 
 PTB  HZ EP        8 8  0.25                             133   -0.45 9  146 259 
 PTB  HN ES        8 8 21.43                             133   -0.31 9  146 259 
 PTB  HZ I         8 8 28.07         7.9 0.32            130            146 259 
 SPBC HZ EP        8 8  2.45                             130    0.26 9  161 219 
 SPBC HE ES        8 8 24.56                             130    0.17 9  161 219 
 SPBC HZ I         8 8 31.52        11.6 0.20            128            161 219 
 ZAR  HN ES        8 8 31.02                             123   -0.53 9  203 293 
 CHI  HZ EP        8 8 11.77                             118    0.42 8  247 195 
 CHI  HE ES        8 8 40.95                             118    0.25 8  247 195 
 CHI  HZ I         8 8 44.28         4.4 0.38            118            247 195 
 PTGC HZ EP        8 8 16.73                             112   -0.84 7  308 158 
 PTGC HN ES   4    8 8 50.18                             112   -1.60 0  308 158 
 PTGC HZ I         8 8 51.86         4.8 0.28            113            308 158 
 CBOC HZ EP   4    8 8 21.92                             110    1.39 0  332 252 
 CBOC HN ES   4    8 8 55.80                             110   -1.24 0  332 252 
 CBOC HZ I         8 9 13.01         1.3 0.68            110            332 252 
                                                                                
