 2016  920 0708 58.8 L   6.818 -73.180150.4  RSN  5 0.4 1.2LRSN                1
 GAP=242        1.03       7.7     8.0  8.4 -0.7996E+01  0.5657E+01  0.1231E+02E
 Epicentro: ZAPATOCA - SANTANDER                                               3
 ACTION:UPD 17-08-17 21:14 OP:lp   STATUS:               ID:20160920070858 L   I
 OLDACT:DUP 16-09-20 21:01 OP:ar   STATUS:               ID:20160920065736d    3
 OLDACT:UP  16-09-20 20:58 OP:ar   STATUS:               ID:20160920065735     3
 OLDACT:REG 16-09-20 12:50 OP:and  STATUS:               ID:20160920065735     3
 2016-09-20-0658-00M.COL___347                                                 6
 STAT SP IPHASW D HRMM SECON CODA AMPLIT PERI AZIMU VELO AIN AR TRES W  DIS CAZ7
 BAR2 EZ EP        7 9 18.71                             170   -0.2910 25.0 181 
 BAR2 EZ ES        7 9 34.46                             170   -0.3210 25.0 181 
 BAR2 EZ I         7 9 45.87         4.8 0.50            167           25.0 181 
 BRR  HZ EP        7 9 20.63                             155    0.4310 66.9 299 
 BRR  HN ES        7 9 37.35                             155    0.4310 66.9 299 
 BRR  HZ I         7 9 38.07         3.3 0.10            156           66.9 299 
 PTB  HZ EP        7 9 25.38                             134   -0.46 9  144 258 
 PTB  HN ES        7 9 46.43                             134   -0.52 9  144 258 
 PTB  HZ I         7 9 53.36         1.6 0.44            137            144 258 
 SPBC HZ EP        7 9 27.85                             130    0.28 9  162 218 
 SPBC HN ES        7 9 50.47                             130    0.44 9  162 218 
 SPBC HZ I         7 9 56.61         1.4 0.13            133            162 218 
 ZAR  HZ EP   4    7 9 40.29                             124    9.19 0  200 292 
 ZAR  HN ES   4    7 9 58.67                             124    2.36 0  200 292 
 ZAR  HZ I         710  3.34         2.1 0.38            129            200 292 
                                                                                
