 2012  720 0357 29.7 L   6.957 -73.484 12.5  RSN  4 0.2 1.2LRSN                1
 GAP=197        0.60       3.4     2.8  4.7  0.6459E+01  0.3205E+01  0.1524E+01E
 Epicentro: SAN VICENTE DE CHUCURI - SANTANDER                                 3
 ACTION:UPD 12-08-14 11:46 OP:ep   STATUS:               ID:20120720035729 L   I
 2012-07-20-0350-00M.COL___215                                                 6
 STAT SP IPHASW D HRMM SECON CODA AMPLIT PERI AZIMU VELO AIN AR TRES W  DIS CAZ7
 BRR  HZ IP        357 34.98                             108    -0.110   30 303 
 BRR  HZ I         357 35.11        46.7 0.15            109             30 303 
 BRR  HN ES   1    357 39.26                             108     0.0 7   30 303 
 BAR2 SZ EP   1    357 38.49                             100    -0.1 7   52 140 
 BAR2 SZ ES   1    357 45.46                             100     0.0 7   52 140 
 PTB  HZ EP   1    357 48.65                              94     0.6 7  117 247 
 PTB  HN ES   1    358  2.12                              94    -0.3 7  117 247 
 PTB  HZ I         358  5.19         2.7 0.18             95            117 247 
 ZAR  HN ES   1    358 13.95                              56    -0.1 7  163 291 
