 2010  220 0409  1.0 L   6.810 -73.018144.6  RSN  9 0.5 2.0LRSN                1
 GAP=196        0.73       4.1     9.0  6.8 -0.6892E+01  0.1243E+02  0.7456E+01E
 Epicentro: CEPITA - SANTANDER                                                 3
 ACTION:UP  10-08-24 09:49 OP:vdl  STATUS:               ID:20100220040901 L   I
 2010-02-20-0405-28S.COL___094                                                 6
 STAT SP IPHASW D HRMM SECON CODA AMPLIT PERI AZIMU VELO SNR AR TRES W  DIS CAZ7
 BAR2 SZ EP   1    4 9 20.66                             168     0.0 7   30 217 
 BAR2 SZ ES   2    4 9 35.14                             168    -0.8 5   30 217 
 GIR2 SZ EP   1    4 9 20.80                             166     0.2 7   35 327 
 GIR2 SZ ES   2    4 9 36.39                             166     0.4 5   35 327 
 BRR  HZ EP   1    4 9 22.48                             148    -0.2 7   83 293 
 BRR  HE ES   2    4 9 39.50                             148    -0.2 5   83 293 
 BRR  HZ I         4 9 43.11        16.9 0.08                            83 293 
 RUS  BZ EP   1    4 9 24.88                             143     0.2 7  102 184 
 RUS  BN ES   2    4 9 43.66                             143     0.5 5  102 184 
 RUS  BZ I         4 9 45.59         9.0 0.30                           102 184 
 OCA  SZ EP   1    4 9 29.42                             129     0.1 7  161 348 
 OCA  SZ ES   2    4 9 51.18                             129    -0.2 5  161 348 
 CHI  HZ EP   1    4 9 38.67                             116    -0.5 6  254 198 
 CHI  HE ES   2    410  8.96                             116     0.0 4  254 198 
 CHI  HZ I         410 13.26         5.1 0.44                           254 198 
 RREF BZ EP   1    4 9 49.20                             110     0.8 5  333 231 
 RREF BE ES   2    410 24.86                             110    -0.5 3  333 231 
 RREF BZ I         410 32.40         6.0 0.39                           333 231 
 TOL  SZ EP   1    4 9 50.60                             108     0.2 5  354 226 
 TOL  SZ ES   2    410 30.14                             108     1.1 3  354 226 
 PRA  HZ EP   1    4 9 54.44                             106    -1.0 4  400 211 
 PRA  HN ES   2    410 37.29                             106    -0.6 3  400 211 
 PRA  HZ I         410 43.24         5.2 0.30                           400 211 
                                                                                
