 2010  620 0555 29.8 L   6.803 -73.013144.2  RSN  8 0.4 1.7LRSN                1
 GAP=171        0.79       4.6     7.6  7.2 -0.1030E+02 -0.3232E+01 -0.2475E+01E
 Epicentro: CEPITA - SANTANDER                                                 3
 ACTION:UP  10-08-24 10:11 OP:vdl  STATUS:               ID:20100620055529 L   I
 2010-06-20-0552-51S.COL___118                                                 6
 STAT SP IPHASW D HRMM SECON CODA AMPLIT PERI AZIMU VELO SNR AR TRES W  DIS CAZ7
 BAR2 SZ EP        555 49.11                             168    -0.310   30 219 
 BAR2 SZ ES   1    556  4.86                             168     0.2 7   30 219 
 BRR  HZ EP   1    555 51.06                             148    -0.5 7   84 294 
 BRR  HE ES   1    556  8.43                             148    -0.1 7   84 294 
 BRR  HZ I         556 12.38         7.8 0.05                            84 294 
 RUS  HZ EP   1    555 53.05                             143    -0.3 7  101 184 
 RUS  HE ES   1    556 11.95                             143     0.1 7  101 184 
 RUS  HZ I         556 12.86         4.8 0.22                           101 184 
 BRI  SZ EP   2    555 53.99                             142     0.8 5  104  13 
 GUE  SZ EP        555 54.50                             140     0.410  114   5 
 GRA  SZ EP   2    555 53.97                             138    -0.6 5  122  11 
 ROSC BZ EP   1    556  8.94                             116     0.2 6  261 214 
 ROSC BN ES   2    556 39.03                             116     0.0 4  261 214 
 ROSC BZ I         556 43.90         2.6 0.38                           261 214 
 RREF HN ES   1    556 54.55                             110     0.4 5  333 231 
 RREF HZ I         557  0.63         3.8 0.33                           333 231 
                                                                                
