 2016  620 0734 39.0 L   6.821 -73.511  3.8  RSN 16 0.6 1.9LRSN                1
 GAP= 67        1.35       2.1     2.1  5.2  0.2508E+00  0.2245E+01  0.1326E+01E
 Epicentro: SAN VICENTE DE CHUCURI - SANTANDER                                 3
 ACTION:UPD 16-07-21 22:20 OP:rebc STATUS:               ID:20160620073439 L   I
 OLDACT:REG 16-06-20 13:37 OP:ar   STATUS:               ID:20160620072742     3
 2016-06-20-0727-42M.COL___343                                                 6
 STAT SP IPHASW D HRMM SECON CODA AMPLIT PERI AZIMU VELO AIN AR TRES W  DIS CAZ7
 BRR  HZ EP        734 45.11                              47   -0.4110 38.7 325 
 BRR  HE ES        734 50.41                              47   -0.1610 38.7 325 
 BRR  HZ I         734 52.58        46.3 0.18                          38.7 325 
 BAR2 EZ IP     D  734 46.27                              47   -0.3410 44.3 125 
 BAR2 EZ ES        734 52.35                              47   -0.1710 44.3 125 
 BAR2 EZ I         734 53.35        45.1 0.30                          44.3 125 
 PAM  EZ EP        734 56.46                              47    0.1710  106  57 
 PAM  EE ES        735  9.65                              47   -0.0910  106  57 
 PAM  EZ I         735 11.02        25.1 0.32                           106  57 
 PTB  HZ IP     D  734 55.55                              47   -0.6510  109 253 
 PTB  HE ES        735  9.02                              47   -0.5610  109 253 
 PTB  HZ I         735 11.49        57.0 0.32                           109 253 
 RUS  HZ EP        734 57.27                              47   -0.0310  113 155 
 RUS  HN ES        735 10.81                              47   -0.7210  113 155 
 RUS  HZ I         735 20.49         7.9 0.20                           113 155 
 SPBC HZ EP   2    735  2.27                              47    0.79 5  143 206 
 SPBC HN ES        735 19.93                              47    0.95 9  143 206 
 SPBC HZ I         735 23.13        46.3 0.42                           143 206 
 OCA  HZ EP        735  4.55                              47    0.75 9  158   8 
 OCA  HN ES        735 23.68                              47    0.58 9  158   8 
 OCA  HZ I         735 32.64        35.8 0.50                           158   8 
 ZAR  HZ EP        735  4.24                              47   -0.63 9  166 297 
 ZAR  HN ES        735 23.93                              47   -1.08 9  166 297 
 ZAR  HZ I         735 25.24        42.0 0.22                           166 297 
 NOR  HZ EP        735 10.30                              37    0.31 9  205 227 
 NOR  HE ES        735 34.01                              37   -0.11 9  205 227 
 NOR  HZ I         735 34.97         8.2 0.16                           205 227 
 HEL  HZ EP        735 13.72                              37   -0.28 8  234 253 
 HEL  HN ES   4    735 39.80                              37   -1.46 0  234 253 
 HEL  HZ I         735 41.09        20.6 0.24                           234 253 
 CHI  HZ EP   2    735 16.14                              37    0.87 4  244 186 
 CHI  HN ES   4    735 48.69                              37    5.16 0  244 186 
 URE  HZ EP   2    735 15.96                              37    0.88 4  246 295 
 URE  HN ES        735 44.19                              37    1.01 8  246 295 
 URE  HZ I         735 49.86         6.8 0.26                           246 295 
 GUY2CHZ EP        735 19.16                              37    0.42 8  271 229 
 GUY2CHN ES        735 49.58                              37   -0.13 8  271 229 
 GUY2CHZ I         735 53.67         4.2 0.32                           271 229 
 CBOC HZ EP        735 22.74                              36    1.18 7  296 249 
 CBOC HN ES        735 55.14                              36    0.41 7  296 249 
 CBOC HZ I         735 59.15         1.8 0.18                           296 249 
 PTGC HN ES   4    736  5.29                              36    4.04 0  328 152 
 ORTC HZ EP   2    735 32.09                              36    0.96 3  375 211 
 ORTC HN ES        736 12.37                              36    0.62 6  375 211 
 ORTC HZ I         736 29.51         3.4 0.32                           375 211 
 PRA  HZ EP   4    735 33.80                              36    2.57 0  376 204 
 PRA  HN ES   4    736 16.59                              36    4.65 0  376 204 
 PRA  HZ I         736 29.78         4.3 0.32                           376 204 
                                                                                
