 2010  420 0030 24.4 L   6.757 -73.246137.0  RSN  7 0.5 2.4LRSN                1
 GAP=162        0.91       5.1    11.1  8.8 -0.2371E+02  0.1426E+02  0.1342E+02E
 Epicentro: ZAPATOCA - SANTANDER                                               3
 ACTION:UPD 10-08-24 10:00 OP:vdl  STATUS:               ID:20100420003029 L   I
 2010-04-20-0028-44S.COL___100                                                 6
 STAT SP IPHASW D HRMM SECON CODA AMPLIT PERI AZIMU VELO AIN AR TRES W  DIS CAZ7
 BAR2 SZ EP   2    030 42.76                             171    -0.2 5   20 160 
 BAR2 SZ ES   2    030 56.63                             171    -0.8 5   20 160 
 BRR  HZ IP     C  030 44.71                             154     0.410   64 307 
 BRR  HZ I         030 45.47        44.7 0.14                            64 307 
 BRR  HE ES   1    030 59.86                             154     0.1 7   64 307 
 OCA  SZ EP   1    030 52.87                             127     0.4 7  164 357 
 OCA  SZ ES   1    031 13.91                             127    -0.4 7  164 357 
 OCA  SZ I         031 17.78        66.1 0.36                           164 357 
 CHI  HZ EP   2    031  0.68                             116    -0.2 4  241 193 
 CHI  HZ I         031  2.16         9.7 0.36                           241 193 
 CHI  HN ES   2    031 29.40                             116     0.1 4  241 193 
 RREF BZ EP   1    031  9.25                             110     0.3 5  310 229 
 RREF BE ES   1    031 43.72                             110     0.1 5  310 229 
 RREF BZ I         031 51.72        10.6 0.63                           310 229 
 DBB  SZ EP   1    031  9.08                             109    -1.3 5  329 275 
 PRA  HZ EP   1    031 15.98                             105    -0.6 4  383 208 
 PRA  HN ES   1    031 57.41                             105     0.2 4  383 208 
 PRA  HZ I         032  5.38         6.8 0.28                           383 208 
                                                                                
