 2015  220 0428 36.0 L   6.811 -73.149143.1  RSN  6 0.4 1.4LRSN                1
 GAP=136        1.04       4.9     4.7  7.6 -0.3681E+01  0.1284E+02 -0.2083E+01E
 Epicentro: LOS SANTOS - SANTANDER                                             3
 ACTION:UPD 15-04-30 21:27 OP:nd   STATUS:               ID:20150220042836 L   I
 OLDACT:REG 15-02-20 13:31 OP:mher STATUS:               ID:20150220041749     3
 2015-02-20-0417-49M.COL___284                                                 6
 STAT SP IPHASW D HRMM SECON CODA AMPLIT PERI AZIMU VELO AIN AR TRES W  DIS CAZ7
 BAR2 EZ EP        428 55.41                             170    0.0510 24.5 189 
 BAR2 EZ ES        429 10.97                             170    0.5310 24.5 189 
 BAR2 EZ I         429 13.24         5.7 0.30            169           24.5 189 
 PAM  SZ EP        428 58.30                             151    0.3810 76.7  40 
 PAM  SN ES        429 14.34                             151   -0.6510 76.7  40 
 PAM  SZ I         429 17.81         5.9 0.50            156           76.7  40 
 RUS  HZ EP        428 59.29                             143   -0.3210  102 176 
 RUS  HN ES   1    429 18.48                             143    0.48 7  102 176 
 RUS  HZ I         429 19.59         1.7 0.50            147            102 176 
 PTB  HZ EP        429  2.39                             131   -0.38 9  148 258 
 PTB  HN ES        429 23.14                             131   -0.48 9  148 258 
 PTB  HZ I         429 29.44         3.9 0.22            133            148 258 
 SPBC HZ EP        429  4.68                             128    0.29 9  164 219 
 SPBC HN ES        429 26.19                             128   -0.32 9  164 219 
 SPBC HZ I         429 32.53         5.8 0.12            131            164 219 
 ZAR  HZ EP        429  8.41                             122    0.20 9  203 292 
 ZAR  HE ES        429 33.83                             122    0.51 9  203 292 
 ZAR  HZ I         429 39.48         2.7 0.52            124            203 292 
                                                                                
