 2015 1220 0131 16.6 L   6.742 -73.402113.4  RSN  5 0.3 1.4LRSN                1
 GAP=164        0.70       5.0     4.1  5.7  0.1420E+02  0.8314E+01  0.1015E+02E
 Epicentro: EL CARMEN - SANTANDER                                              3
 ACTION:UPD 16-02-04 15:06 OP:cam  STATUS:               ID:20151220013116 L   I
 OLDACT:REG 15-12-20 13:05 OP:cara STATUS:               ID:20151220012748     3
 2015-12-20-0127-48M.COL___326                                                 6
 STAT SP IPHASW D HRMM SECON CODA AMPLIT PERI AZIMU VELO AIN AR TRES W  DIS CAZ7
 BAR2 EZ EP        131 32.10                             165   -0.4110 29.4 124 
 BAR2 EZ ES        131 44.79                             165   -0.1510 29.4 124 
 BRR  HE ES        131 46.44                             153    0.2710 52.9 320 
 BRR  HZ I         131 46.90         7.0 0.14            150           52.9 320 
 RUS  HZ EP        131 37.08                             136   -0.2110  100 159 
 RUS  HZ EPg       131 37.57                             136    0.2810  100 159 
 RUS  HN ES        131 53.71                             136    0.2710  100 159 
 PTB  HZ EP        131 38.48                             130    0.2010  119 259 
 PTB  HE ES        131 54.92                             130   -0.2910  119 259 
 PTB  HZ I         131 59.49         5.0 0.34            127            119 259 
 OCA  HZ IP   4    131 40.41                             120   -2.77 0  166   3 
 OCA  HE ES   4    132  0.33                             120   -3.60 0  166   3 
 ZAR  HE ES        132  6.54                             117    0.06 9  181 297 
 ZAR  HZ I         132 11.97         2.9 0.42            116            181 297 
                                                                                
