 2013 1120 0820 59.0 L   6.804 -73.170147.2  RSN  5 0.5 1.2LRSN                1
 GAP=133        1.24       6.7     6.4  9.0 -0.4095E+01  0.6780E+01  0.2872E+01E
 Epicentro: LOS SANTOS - SANTANDER                                             3
 ACTION:UPD 14-01-09 16:29 OP:ep   STATUS:               ID:20131120082059 L   I
 OLDACT:REG 13-11-20 07:34 OP:nd   STATUS:               ID:20131120082000     3
 2013-11-20-0820-00M.COL___279                                                 6
 STAT SP IPHASW D HRMM SECON CODA AMPLIT PERI AZIMU VELO AIN AR TRES W  DIS CAZ7
 BAR2 SZ EP        821 18.73                             171   -0.0510 23.4 183 
 BAR2 SZ ES        821 34.82                             171    0.5910 23.4 183 
 BAR2 SZ I         821 39.70         4.1 0.20            170           23.4 183 
 BRR  HZ EP        821 20.65                             154    0.5110 68.7 299 
 BRR  HN ES        821 37.11                             154    0.4610 68.7 299 
 BRR  HZ I         821 41.52         3.2 0.26            153           68.7 299 
 PAM  SZ EP        821 21.67                             151    0.2410 78.8  41 
 PAM  SN ES        821 38.10                             151   -0.8410 78.8  41 
 PAM  SZ I         821 41.04         3.6 0.20            156           78.8  41 
 RUS  HZ EP        821 22.88                             144   -0.0410  101 175 
 RUS  HN ES        821 41.47                             144   -0.1210  101 175 
 RUS  HZ I         821 43.17         1.4 0.40            148            101 175 
 PTB  HZ EP        821 25.76                             133   -0.08 9  145 258 
 PTB  HN ES        821 45.99                             133   -0.79 9  145 258 
 PTB  HZ I         821 54.23         3.5 0.48            134            145 258 
                                                                                
