 2011  120 0016 49.0 L   6.812 -73.136142.7  RSN 12 0.3 2.4LRSN                1
 GAP=137        0.62       2.3     4.6  5.2 -0.3895E+01  0.1013E+02 -0.6500E+00E
 Epicentro: LOS SANTOS - SANTANDER                                             3
 ACTION:UP  11-02-08 08:41 OP:pat  STATUS:               ID:20110120001649 L   I
 2011-01-20-0013-27S.COL___138                                                 6
 STAT SP IPHASW D HRMM SECON CODA AMPLIT PERI AZIMU VELO SNR AR TRES W  DIS CAZ7
 BTL  SZ EP        017  8.43                             172     0.310   19 309 
 BAR2 SZ EP   1    017  8.12                             170    -0.2 7   25 192 
 BAR2 SZ ES   1    017 23.10                             170    -0.2 7   25 192 
 BAR2 SZ I         017 26.44        48.8 0.44                            25 192 
 RUS  HZ EP   1    017 12.25                             143    -0.3 7  102 177 
 RUS  HN ES   1    017 30.79                             143    -0.1 7  102 177 
 RUS  HZ I         017 32.19        40.7 0.23                           102 177 
 GRA  SZ EP        017 13.99                             137     0.210  124  17 
 GRA  SZ ES   1    017 33.52                             137     0.3 7  124  17 
 GRA  SZ I         017 34.96        45.0 0.28                           124  17 
 OCA  SZ EP   1    017 16.80                             129    -0.2 7  159 353 
 OCA  SZ ES   1    017 38.34                             129    -0.4 7  159 353 
 OCA  SZ I         017 43.27        29.4 0.34                           159 353 
 YOP  SZ EP   2    017 18.61                             125    -0.3 4  180 154 
 YOP  SE ES   2    017 43.04                             125     0.8 4  180 154 
 YOP  SZ I         017 43.65        22.5 0.26                           180 154 
 NOR  SZ EP   1    017 24.43                             118    -0.3 6  236 234 
 NOR  SN ES   1    017 52.90                             118     0.3 6  236 234 
 CHI  HZ EP   1    017 26.40                             116    -0.3 6  250 195 
 CHI  HE ES   1    017 55.76                             116    -0.3 6  250 195 
 CHI  HZ I         017 59.21        14.9 0.48                           250 195 
 ROSC BZ EP   2    017 27.26                             116     0.1 4  254 211 
 ROSC BN ES   2    017 57.10                             116     0.2 4  254 211 
 ROSC BZ I         018  0.27        20.4 0.21                           254 211 
 HEL  HZ EP   2    017 29.70                             114     0.5 4  273 256 
 HEL  HZ I         018  6.58        11.6 0.33                           273 256 
 RREF HZ EP   1    017 35.37                             110     0.2 5  323 229 
 RREF HE ES   1    018 11.60                             110     0.4 5  323 229 
 RREF HZ I         018 20.54        15.9 0.43                           323 229 
 DBB  SZ EP   1    017 36.31                             109    -0.1 5  340 274 
                                                                                
