 2011  520 0443  2.3 L   6.778 -73.058146.7  RSN  9 0.2 1.6LRSN                1
 GAP=149        0.55       2.7     5.1  4.6 -0.2186E+01 -0.1461E+01 -0.2061E+01E
 Epicentro: LOS SANTOS - SANTANDER                                             3
 ACTION:UP  11-06-29 08:54 OP:tino STATUS:               ID:20110520044302 L   I
 2011-05-20-0441-30S.COL___140                                                 6
 STAT SP IPHASW D HRMM SECON CODA AMPLIT PERI AZIMU VELO SNR AR TRES W  DIS CAZ7
 BAR2 SZ EP   1    443 21.74                             170    -0.3 7   25 214 
 BAR2 SZ ES   1    443 37.23                             170    -0.2 7   25 214 
 BAR2 SZ I         443 40.78         9.8 0.50                            25 214 
 BTL  SZ EP   1    443 22.24                             169     0.1 7   28 304 
 GIR2 SZ EP   1    443 22.22                             165     0.0 7   36 336 
 PAM  SZ EP   1    443 24.40                             152     0.0 7   74  33 
 PAM  SN ES   1    443 41.78                             152     0.2 7   74  33 
 BRR  HZ EP        443 23.87                             150    -0.210   81 297 
 BRR  HZ I         443 24.32         9.8 0.17                            81 297 
 BRR  HE ES   1    443 41.45                             150     0.3 7   81 297 
 RUS  HZ EP   1    443 25.98                             145     0.1 7   98 182 
 RUS  HN ES   1    443 44.44                             145     0.1 7   98 182 
 RUS  HZ I         443 46.37         4.6 0.36                            98 182 
 BRI  SZ EP   1    443 26.56                             142     0.4 7  108  16 
 GRA  SZ EP        443 27.73                             137     0.110  126  13 
 GRA  SZ ES   1    443 46.93                             137    -0.4 7  126  13 
 GRA  SZ I         443 48.63         6.7 0.24                           126  13 
 OCA  SZ EP   1    443 30.84                             129    -0.2 7  164 350 
 OCA  SZ ES   1    443 53.44                             129     0.0 7  164 350 
 OCA  SZ I         443 58.98         5.0 0.37                           164 350 
                                                                                
