 2015  820 0427 32.7 L   6.817 -73.132141.0  RSN 20 0.5 2.3LRSN                1
 GAP=113        0.98       2.6     2.8  5.2 -0.4474E+00  0.3854E+01  0.1470E+01E
 Epicentro: LOS SANTOS - SANTANDER                                             3
 ACTION:UPD 15-09-15 23:03 OP:cam  STATUS:               ID:20150820042732 L   I
 OLDACT:REG 15-08-20 12:37 OP:spq  STATUS:               ID:20150820041747     3
 2015-08-20-0417-47M.COL___337                                                 6
 STAT SP IPHASW D HRMM SECON CODA AMPLIT PERI AZIMU VELO AIN AR TRES W  DIS CAZ7
 BAR2 EZ EP     C  427 51.72                             169   -0.1310 25.5 193 
 BAR2 EZ ES   1    428  6.52                             169   -0.22 7 25.5 193 
 BAR2 EZ I         428  7.69        67.1 0.14            168           25.5 193 
 BRR  HZ IP     C  427 53.59                             152    0.1810 71.7 297 
 BRR  HN ES        428 10.55                             152    1.0210 71.7 297 
 BRR  HZ I         428 13.71        41.4 0.20            152           71.7 297 
 RUS  HZ EP        427 56.00                             142   -0.1610  102 177 
 RUS  HN ES   1    428 14.33                             142   -0.09 7  102 177 
 RUS  HZ I         428 15.23        17.1 0.20            144            102 177 
 TAM  HZ IP     D  428  0.07                             130    0.12 9  154 106 
 TAM  HN ES        428 21.62                             130    0.45 9  154 106 
 TAM  HZ I         428 24.43         9.9 0.32            133            154 106 
 OCA  HZ EP        428  0.08                             129   -0.45 9  159 353 
 OCA  HE ES        428 21.78                             129   -0.42 9  159 353 
 OCA  HZ I         428 25.15        40.4 0.26            131            159 353 
 SPBC HZ EP        428  0.75                             128   -0.37 9  166 219 
 SPBC HE ES        428 22.87                             128   -0.37 9  166 219 
 SPBC HZ I         428 27.62        31.3 0.12            129            166 219 
 ZAR  HZ EP        428  5.22                             121    0.26 9  205 291 
 ZAR  HE ES        428 30.22                             121    0.13 9  205 291 
 ZAR  HZ I         428 36.53        23.5 0.20            123            205 291 
 NOR  HZ EP        428  8.02                             117   -0.44 8  237 234 
 NOR  HE ES        428 35.62                             117   -0.69 8  237 234 
 NOR  HZ I         428 39.74        22.7 0.36            118            237 234 
 SML  HZ EP        428  8.29                             117   -0.71 8  243 335 
 SML  HN ES   1    428 36.92                             117   -0.35 6  243 335 
 SML  HZ I         428 42.13        20.1 0.10            118            243 335 
 CHI  HZ EP   1    428 10.15                             116   -0.28 6  251 195 
 CHI  HN ES   1    428 40.03                             116    0.22 6  251 195 
 CHI  HZ I         428 43.21         5.0 0.38            117            251 195 
 ROSC BN ES   4    428 44.62                             116    4.01 0  255 211 
 ROSC BZ I         428 47.54        15.2 0.35            117            255 211 
 HEL  HZ EP   1    428 13.70                             114    0.76 6  274 256 
 HEL  HE ES        428 44.19                             114   -0.10 8  274 256 
 HEL  HZ I         428 50.75         8.5 0.34            115            274 256 
 URE  HE ES   4    428 43.37                             113   -2.23 0  285 291 
 URE  HZ I         428 45.78        14.2 0.12            114            285 291 
 SOCV BZ EP   4    428 13.57                             112   -1.75 0  299  57 
 GUY2CHZ EP        428 17.08                             111    0.68 7  304 235 
 GUY2CHE ES        428 50.05                             111   -0.41 7  304 235 
 GUY2CHZ I         428 58.35        12.6 0.50                           304 235 
 PTGC HZ EP   4    428 14.98                             111   -1.55 0  310 159 
 PTGC HE ES   4    428 48.18                             111   -2.49 0  310 159 
 PTGC HZ I         428 52.35        16.1 0.42            112            310 159 
 CBOC HZ EP        428 20.52                             109    0.82 7  336 252 
 CBOC HE ES        428 56.31                             109   -0.02 7  336 252 
 CBOC HZ I         428 57.46         3.5 0.32            110            336 252 
 DBB  SZ EP        428 20.48                             109    0.28 7  341 274 
 DBB  SZ ES   1    428 56.92                             109   -0.29 5  341 274 
 TOL  SZ EP        428 21.89                             108    0.80 6  346 225 
 TOL  SE ES        428 59.16                             108    0.36 6  346 225 
 TOL  SZ I         429  7.40         6.4 0.42            110            346 225 
 ORTC HZ EP        428 27.00                             106    0.21 6  398 216 
 ORTC HN ES        429  8.63                             106   -0.31 6  398 216 
 ORTC HZ I         429 13.22         4.2 0.44            107            398 216 
 SJC  HZ EP   4    428 26.00                             105   -2.07 0  409 327 
 SJC  HE ES   4    429  7.96                             105   -3.27 0  409 327 
 SJC  HZ I         429 11.95         3.0 0.46            106            409 327 
                                                                                
