 2010  720 0856  5.5 L   7.403 -73.159129.3  RSN  5 0.4 1.3LRSN                1
 GAP=145        1.03      11.6    14.0 11.4 -0.1200E+03  0.3485E+02 -0.2362E+02E
 Epicentro: EL PLAYON - SANTANDER                                              3
 ACTION:UPD 10-12-01 15:19 OP:pat  STATUS:               ID:20100720085605 L   I
 2010-07-20-0853-00S.COL___123                                                 6
 STAT SP IPHASW D HRMM SECON CODA AMPLIT PERI AZIMU VELO AIN AR TRES W  DIS CAZ7
 GUE  SZ EP        856 24.84                             156     0.410   54  29 
 GUE  SZ ES   1    856 39.45                             156     0.3 7   54  29 
 GUE  SZ I         856 40.10         4.1 0.14                            54  29 
 GRA  SZ EP   1    856 24.06                             151    -0.8 7   66  36 
 GRA  SZ ES   1    856 39.53                             151    -0.4 7   66  36 
 GRA  SZ I         856 42.36         8.9 0.25                            66  36 
 BRR  HZ EP        856 24.72                             150    -0.110   69 242 
 BRR  HE ES   1    856 39.67                             150    -0.2 7   69 242 
 BRR  HZ I         856 41.00         7.2 0.09                            69 242 
 BAR2 SZ ES   2    856 43.16                             143     0.3 5   90 182 
 BAR2 SZ I         856 44.55         3.3 0.66                            90 182 
 OCA  SZ EP   1    856 26.99                             142     0.3 7   94 349 
 OCA  SZ I         856 46.07         2.8 0.24                            94 349 
                                                                                
