 2015  520 0746 17.3 L   6.822 -73.121145.9  RSN 12 0.5 2.0LRSN                1
 GAP=121        1.16       3.2     4.3  5.8 -0.2953E+01  0.6783E+01 -0.5501E+00E
 Epicentro: LOS SANTOS - SANTANDER                                             3
 ACTION:UPD 15-09-10 22:05 OP:cam  STATUS:               ID:20150520074617 L   I
 OLDACT:DUP 15-05-20 18:55 OP:stll STATUS:               ID:20150520073751d    3
 2015-05-20-0737-50M.COL___286                                                 6
 STAT SP IPHASW D HRMM SECON CODA AMPLIT PERI AZIMU VELO AIN AR TRES W  DIS CAZ7
 BAR2 EZ EP        746 36.97                             169   -0.0710 26.3 195 
 BAR2 EZ ES        746 52.20                             169   -0.2210 26.3 195 
 BAR2 EZ I         746 53.80        26.8 0.12            168           26.3 195 
 BRR  HZ EP     C  746 38.96                             152    0.3910 72.5 296 
 BRR  HN ES        746 56.18                             152    1.0510 72.5 296 
 BRR  HZ I         746 59.19        18.0 0.38            150           72.5 296 
 PAM  SZ EP        746 39.68                             152    0.3310 73.8  39 
 PAM  SE ES        746 56.70                             152    0.1710 73.8  39 
 PAM  SZ I         746 59.33         9.1 0.48            156           73.8  39 
 RUS  HZ EP        746 41.12                             143   -0.1410  103 178 
 RUS  HN ES        746 59.65                             143   -0.2810  103 178 
 RUS  HZ I         747  1.25        10.1 0.28            145            103 178 
 OCA  HZ EP        746 45.84                             130    0.39 9  158 352 
 OCA  HN ES        747  7.00                             130   -0.39 9  158 352 
 OCA  HZ I         747 10.39        20.0 0.24            132            158 352 
 SPBC HZ EP        746 46.20                             128    0.02 9  167 219 
 SPBC HE ES        747  7.83                             128   -0.86 9  167 219 
 SPBC HZ I         747 15.52        17.6 0.42            129            167 219 
 ZAR  HZ EP        746 49.62                             122   -0.33 8  206 291 
 ZAR  HE ES        747 15.02                             122   -0.37 8  206 291 
 ZAR  HZ I         747 21.48        12.2 0.30            123            206 291 
 SML  HZ EP        746 53.55                             118   -0.29 8  243 334 
 SML  HN ES        747 21.24                             118   -1.09 8  243 334 
 SML  HZ I         747 24.59        11.3 0.10            119            243 334 
 HEL  HZ EP        746 58.63                             114    0.72 7  275 255 
 HEL  HN ES        747 29.74                             114    0.18 7  275 255 
 HEL  HZ I         747 35.02         4.7 0.32            115            275 255 
 SOCV BZ EP        746 59.94                             112   -0.03 7  298  57 
 GUY2CHZ EP        747  1.94                             112    0.59 7  305 235 
 GUY2CHN ES        747 36.28                             112    0.59 7  305 235 
 GUY2CHZ I         747 43.26         4.2 0.38                           305 235 
 ORTC HZ EP        747 11.37                             106   -0.30 6  399 216 
 ORTC HN ES        747 53.65                             106   -0.41 6  399 216 
 ORTC HZ I         748  0.87         2.0 0.54            108            399 216 
                                                                                
