 2014  920 0909 59.5 L   6.814 -73.166147.4  RSN 14 0.4 2.3LRSN                1
 GAP=133        0.98       2.4     4.0  4.9 -0.8656E+00  0.4575E+01  0.1154E+01E
 Epicentro: LOS SANTOS - SANTANDER                                             3
 ACTION:UPD 14-10-03 23:06 OP:nd   STATUS:               ID:20140920090959 L   I
 OLDACT:REG 14-09-20 12:53 OP:spq  STATUS:               ID:20140920090812     3
 2014-09-20-0908-12M.COL___293                                                 6
 STAT SP IPHASW D HRMM SECON CODA AMPLIT PERI AZIMU VELO AIN AR TRES W  DIS CAZ7
 BAR2 SZ EP        910 19.21                             170   -0.1210 24.6 184 
 BAR2 SZ ES        910 34.60                             170   -0.2110 24.6 184 
 BAR2 SZ I         910 37.03        43.9 0.24            167           24.6 184 
 BRR  HZ IP     C  910 21.07                             154    0.4210 68.4 298 
 BRR  HN ES        910 38.02                             154    0.8610 68.4 298 
 BRR  HZ I         910 42.16        33.4 0.28            149           68.4 298 
 PAM  SZ EP     C  910 22.07                             151    0.1910 77.7  42 
 PAM  SN ES        910 39.40                             151    0.0410 77.7  42 
 PAM  SZ I         910 41.66        36.4 0.62            156           77.7  42 
 RUS  HZ EP        910 23.25                             144   -0.2610  102 175 
 RUS  HN ES        910 42.03                             144   -0.2310  102 175 
 RUS  HZ I         910 43.29        22.8 0.28            145            102 175 
 PTB  HZ EP        910 25.99                             133   -0.41 9  146 258 
 PTB  HN ES        910 46.87                             133   -0.53 9  146 258 
 OCA  HZ EP        910 27.63                             130   -0.11 9  158 354 
 OCA  HN ES        910 50.14                             130    0.35 9  158 354 
 OCA  HZ I         910 53.23        20.3 0.14            131            158 354 
 SPBC HZ EP        910 28.21                             129    0.13 9  163 218 
 SPBC HN ES        910 49.96                             129   -0.43 9  163 218 
 SPBC HZ I         910 56.46        36.4 0.24            129            163 218 
 ZAR  HZ EP        910 31.76                             123    0.01 9  201 292 
 ZAR  HN ES        910 57.01                             123    0.09 9  201 292 
 ZAR  HZ I         911  2.38        17.9 0.38            122            201 292 
 SML  HZ EP        910 35.73                             118   -0.21 8  241 336 
 SML  HN ES        911  3.56                             118   -0.81 8  241 336 
 SML  HZ I         911 10.52        29.3 0.10            119            241 336 
 CHI  HZ EP        910 37.66                             117    0.29 8  250 195 
 CHI  HN ES        911  6.81                             117   -0.11 8  250 195 
 CHI  HZ I         911 13.04        12.3 0.32            118            250 195 
 ROSC BZ EP   4    910 39.38                             117    1.67 0  253 210 
 ROSC BN ES   4    911 10.07                             117    2.55 0  253 210 
 URE  HZ EP   4    910 39.45                             114   -0.87 0  281 292 
 URE  HE ES   4    911  9.54                             114   -2.64 0  281 292 
 GUY2CHZ EP   4    910 43.66                             113    0.60 0  300 234 
 GUY2CHN ES   4    911 17.73                             113    0.69 0  300 234 
 GUY2CHZ I         911 25.50        12.6 0.74                           300 234 
 VIL  SZ EP   4    910 43.14                             112    0.05 0  304 191 
 VIL  SN ES   4    911 15.32                             112   -1.79 0  304 191 
 CBOC HZ EP   4    910 47.32                             110    1.05 0  332 252 
 CBOC HN ES   4    911 23.86                             110    1.10 0  332 252 
 CBOC HZ I         911 40.35         3.6 0.68            110            332 252 
 TOL  SN ES   4    911 25.44                             110    0.05 0  343 224 
 PRA  HZ EP        910 53.29                             107    0.20 6  392 209 
 PRA  HN ES        911 35.31                             107    0.41 6  392 209 
 PRA  HZ I         911 41.71        13.5 0.26            107            392 209 
 ORTC HZ EP        910 53.40                             107   -0.05 6  395 216 
 ORTC HN ES        911 36.94                             107    1.40 6  395 216 
 ORTC HZ I         911 43.18         5.9 0.24            107            395 216 
                                                                                
