 2012 1020 0937 12.4 L   6.802 -73.149147.8  RSN 15 0.4 3.6LRSN 3.7WRSN        1
 SPEC AVERAGE  MO 14.6 ST 78.1 OM  2.9 f0 4.87 R0.3057 AL 4.09 WI 15.5 MW  3.7 3
 SPEC SD       MO  0.2 ST 59.6 OM  0.7 f00.553 R0.0356 AL      WI      MW  0.1 3
 GAP= 65        0.81       3.0     3.0  4.8  0.3338E+00  0.3784E+01  0.3782E+01E
 Epicentro: LOS SANTOS - SANTANDER                                             3
 SPEC ZAR HH Z MO 14.6 ST 32.6 OM  2.0 f0 3.99 R0.3684 AL 4.19 WI 21.6 MW  3.7 3
 SPEC ZAR HH Z T 93744 K 0.000 GD  251 VP 7.60 DE 3.20 Q0230.0 QA 0.60 VS 4.20 3
 SPEC TAM HH Z MO 14.4 ST 53.7 OM  1.9 f0 5.37 R0.2737 AL 4.34 WI 17.5 MW  3.5 3
 SPEC TAM HH Z T 93740 K 0.000 GD  214 VP 7.60 DE 3.20 Q0230.0 QA 0.60 VS 4.20 3
 SPEC RUS HH Z MO 14.4 ST 42.4 OM  2.0 f0 4.88 R0.3012 AL 3.35 WI 17.1 MW  3.6 3
 SPEC RUS HH Z T 93735 K 0.000 GD  179 VP 7.60 DE 3.20 Q0230.0 QA 0.60 VS 4.20 3
 SPEC HEL HH N MO 14.6 ST 57.5 OM  2.7 f0 4.76 R0.3088 AL 3.42 WI 18.6 MW  3.7 3
 SPEC HEL HH N T 93824 K 0.000 GD  309 VS 4.20 DE 3.20 Q0230.0 QA 0.60 VS 4.20 3
 SPEC CHI HH E MO 14.8 ST 74.0 OM  2.9 f0 4.54 R0.3238 AL 5.05 WI 11.0 MW  3.8 3
 SPEC CHI HH E T 93819 K 0.000 GD  289 VS 4.20 DE 3.20 Q0230.0 QA 0.60 VS 4.20 3
 SPEC BRR HH N MO 14.9 ST208.2 OM  3.3 f0 5.70 R0.2579 AL 4.20 WI  7.3 MW  3.9 3
 SPEC BRR HH N T 93751 K 0.000 GD  163 VS 4.20 DE 3.20 Q0230.0 QA 0.60 VS 4.20 3
 ACTION:UPD 12-11-22 17:04 OP:ep   STATUS:               ID:20121020093712 L   I
 2012-10-20-0934-37M.COL___195                                                 6
 STAT SP IPHASW D HRMM SECON CODA AMPLIT PERI AZIMU VELO AIN AR TRES W  DIS CAZ7
 BAR2 SZ EP        937 32.24                             171   -0.0510 23.5 189 
 BAR2 SZ I         937 32.66       569.9 0.10                          23.5 189 
 BAR2 SZ ES   1    937 47.40                             171   -0.39 7 23.5 189 
 GIR2 SZ EP        937 32.32                             167    0.0010 31.0 351 
 GIR2 SZ ES   1    937 47.53                             167   -0.32 7 31.0 351 
 BRR  HZ EP   1    937 34.13                             153    0.37 7 70.8 299 
 BRR  HN ES   1    937 51.34                             153    0.93 7 70.8 299 
 BRR  HN I         937 52.03      2081.1 0.28                          70.8 299 
 PAM  SZ EP        937 35.05                             151    0.2010 77.4  40 
 PAM  SZ I         937 35.33       537.5 0.20                          77.4  40 
 PAM  SN ES   1    937 52.50                             151    0.16 7 77.4  40 
 PAM  SN I         937 54.64       842.3 0.48                          77.4  40 
 RUS  HZ EP   1    937 36.00                             144   -0.38 7  101 176 
 RUS  HN ES   1    937 54.42                             144   -0.65 7  101 176 
 RUS  HN I         937 56.85       520.3 0.22                           101 176 
 TAM  HZ EP   1    937 40.45                             131    0.17 7  155 105 
 TAM  HN ES   1    938  2.24                             131    0.22 7  155 105 
 OCA  HZ EP   1    937 40.30                             130   -0.56 7  160 353 
 YOP  SZ EP        937 42.68                             127    0.05 9  179 153 
 YOP  SZ I         937 43.94       209.0 0.54                           179 153 
 YOP  SN ES   1    938  6.27                             127    0.06 7  179 153 
 YOP  SN I         938 10.26       205.2 0.27                           179 153 
 ZAR  HZ EP   1    937 44.71                             123   -0.24 6  204 292 
 ZAR  HE ES   1    938 10.24                             123   -0.09 6  204 292 
 NOR  HZ EP        937 48.14                             119   -0.11 8  235 234 
 NOR  HE ES   1    938 15.57                             119   -0.62 6  235 234 
 NOR  HE I         938 21.41       783.8 0.22                           235 234 
 CHI  HZ EP        937 50.23                             117   -0.01 8  249 195 
 CHI  HZ I         937 52.71       103.5 0.28                           249 195 
 CHI  HE ES   1    938 19.41                             117   -0.33 6  249 195 
 CHI  HE I         938 25.14       533.0 0.30                           249 195 
 ROSC BZ EP   1    937 51.63                             117    0.98 6  253 211 
 ROSC BN ES   1    938 21.43                             117    0.96 6  253 211 
 ROSC BZ I         938 28.47       414.8 0.50                           253 211 
 HEL  HZ EP   1    937 52.04                             115   -0.66 6  272 256 
 HEL  HN ES   1    938 24.59                             115    0.46 6  272 256 
 HEL  HN I         938 33.74       185.5 0.34                           272 256 
 GUY  SZ EP   1    937 56.50                             112    0.14 5  303 235 
 GUY  SN ES   2    938 30.82                             112    0.18 4  303 235 
 GUY  SZ I         938 39.62       476.0 0.46                           303 235 
 DBB  SZ EP   1    937 59.58                             110   -0.35 5  339 274 
 DBB  SZ I         938 38.74       130.1 0.40                           339 274 
                                                                                
