 2011  520 0623 25.9 L   6.794 -73.032139.4  RSN  7 0.2 1.6LRSN                1
 GAP=171        0.59       3.3     6.8  6.0 -0.1802E+00 -0.8350E+01 -0.5183E+01E
 Epicentro: CEPITA - SANTANDER                                                 3
 ACTION:UP  11-06-29 08:54 OP:tino STATUS:               ID:20110520062325 L   I
 2011-05-20-0619-46S.COL___140                                                 6
 STAT SP IPHASW D HRMM SECON CODA AMPLIT PERI AZIMU VELO SNR AR TRES W  DIS CAZ7
 BAR2 SZ EP   1    623 44.92                             168     0.0 7   28 217 
 BAR2 SZ ES   1    623 59.37                             168    -0.3 7   28 217 
 BAR2 SZ I         624  2.44         7.9 0.29                            28 217 
 BTL  SZ EP        623 45.33                             168     0.410   29 298 
 GIR2 SZ EP   1    623 45.14                             165     0.1 7   36 330 
 BRR  HZ EP        623 46.85                             148    -0.310   83 295 
 BRR  HN ES   1    624  3.82                             148     0.2 7   83 295 
 BRR  HZ I         624  8.03        10.2 0.18                            83 295 
 RUS  HZ EP   1    623 48.99                             143     0.0 7  100 183 
 RUS  HZ I         623 49.88         3.1 0.10                           100 183 
 RUS  HE ES   1    624  7.04                             143     0.0 7  100 183 
 GRA  SZ EP   1    623 50.36                             136     0.0 7  123  12 
 GRA  SZ ES   1    624  9.50                             136     0.0 7  123  12 
 GRA  SZ I         624 13.33         5.2 0.46                           123  12 
 OCA  SZ EP   1    623 53.82                             128    -0.2 7  163 349 
 OCA  SZ I         624 18.48         6.5 0.30                           163 349 
                                                                                
