 2012 1020 0220  6.9 L   6.790 -73.139142.2  RSN 13 0.4 2.5LRSN 2.9WRSN        1
 SPEC AVERAGE  MO 13.5 ST 21.4 OM  2.9 f0 6.36 R0.2535 AL 2.49 WI  9.3 MW  2.9 3
 SPEC SD       MO  0.2 ST 24.3 OM  1.1 f0 2.09 R0.0677 AL      WI      MW  0.1 3
 GAP= 66        0.77       2.7     2.9  4.8  0.1596E+01  0.3844E+01  0.2909E+01E
 Epicentro: LOS SANTOS - SANTANDER                                             3
 SPEC CHI HH N MO 13.6 ST  5.9 OM  1.7 f0 4.94 R0.2976 AL 4.11 WI 12.8 MW  3.0 3
 SPEC CHI HH N T 22112 K 0.000 GD  285 VS 4.20 DE 3.20 Q0230.0 QA 0.60 VS 4.20 3
 SPEC RUS HH N MO 13.2 ST  2.7 OM  1.6 f0 4.82 R0.3050 AL 3.36 WI  8.2 MW  2.8 3
 SPEC RUS HH N T 22047 K 0.000 GD  173 VS 4.20 DE 3.20 Q0230.0 QA 0.60 VS 4.20 3
 SPEC BRR HH N MO 13.7 ST 55.7 OM  2.1 f0 9.31 R0.1579 AL 0.00 WI  7.0 MW  3.1 3
 SPEC BRR HH N T 22044 K 0.000 GD  159 VS 4.20 DE 3.20 Q0230.0 QA 0.60 VS 4.20 3
 ACTION:UPD 12-11-22 17:04 OP:ep   STATUS:               ID:20121020022006 L   I
 2012-10-20-0220-00M.COL___233                                                 6
 STAT SP IPHASW D HRMM SECON CODA AMPLIT PERI AZIMU VELO AIN AR TRES W  DIS CAZ7
 BAR2 SZ EP   1    220 26.14                             171    0.02 7 22.4 192 
 BAR2 SZ I         220 26.55       103.7 0.09                          22.4 192 
 BAR2 SZ ES   1    220 41.38                             171    0.30 7 22.4 192 
 GIR2 SZ EP   1    220 26.27                             166    0.05 7 32.4 349 
 GIR2 SZ ES   1    220 40.72                             166   -0.53 7 32.4 349 
 BRR  HZ EP        220 28.06                             151    0.3010 72.3 299 
 BRR  HZ I         220 29.45        58.0 0.14                          72.3 299 
 BRR  HN ES   1    220 44.76                             151    0.75 7 72.3 299 
 PAM  SZ EP   1    220 29.07                             150    0.27 7 77.8  39 
 PAM  SN ES   1    220 45.76                             150   -0.09 7 77.8  39 
 PAM  SN I         220 47.15        52.0 0.18                          77.8  39 
 RUS  HZ EP        220 30.02                             143   -0.2410 99.5 176 
 RUS  HE ES   1    220 48.06                             143   -0.39 7 99.5 176 
 RUS  HN I         220 50.09        64.0 0.28                          99.5 176 
 TAM  HZ EP   1    220 34.54                             130    0.30 7  154 105 
 TAM  HZ I         220 34.71        17.8 0.08                           154 105 
 TAM  HE ES   1    220 55.67                             130    0.12 7  154 105 
 OCA  HZ EP   1    220 34.55                             129   -0.53 7  161 353 
 OCA  HZ I         220 35.19        15.8 0.06                           161 353 
 OCA  HN ES   1    220 56.42                             129   -0.61 7  161 353 
 YOP  SZ EP   1    220 36.87                             126    0.27 7  178 153 
 YOP  SZ I         220 37.70        39.0 0.15                           178 153 
 YOP  SN ES        220 59.76                             126    0.03 9  178 153 
 YOP  SN I         221  3.17        73.2 0.46                           178 153 
 ZAR  HZ EP   1    220 38.70                             121   -0.56 6  205 292 
 ZAR  HN ES   1    221  5.08                             121    0.61 6  205 292 
 NOR  HZ EP   1    220 42.17                             118   -0.28 6  235 235 
 NOR  HZ I         220 42.97        21.8 0.14                           235 235 
 NOR  HE ES   1    221  9.78                             118   -0.38 6  235 235 
 CHI  HZ EP   1    220 44.37                             116    0.03 6  248 195 
 CHI  HN ES   1    221 13.34                             116   -0.18 6  248 195 
 CHI  HN I         221 19.54        30.9 0.52                           248 195 
 HEL  HZ EP   1    220 47.98                             114    0.97 6  272 256 
 HEL  HN ES   1    221 17.83                             114   -0.44 6  272 256 
 HEL  HZ I         221 24.95        21.6 0.42                           272 256 
 DBB  SZ EP   1    220 54.41                             109    0.05 5  340 274 
                                                                                
