 2016  820 0657 41.1 L   6.842 -73.079147.6  RSN  5 0.5 1.2LRSN                1
 GAP=143        1.14       5.2     6.5  8.9 -0.4624E+01  0.2444E+02 -0.4013E+01E
 Epicentro: LOS SANTOS - SANTANDER                                             3
 ACTION:UPD 16-10-29 15:37 OP:rebc STATUS:               ID:20160820065741 L   I
 OLDACT:DUP 16-08-20 18:57 OP:ar   STATUS:               ID:20160820064746d    3
 2016-08-20-0647-45M.COL___349                                                 6
 STAT SP IPHASW D HRMM SECON CODA AMPLIT PERI AZIMU VELO AIN AR TRES W  DIS CAZ7
 BAR2 EZ EP        658  0.80                             168   -0.3310 29.9 203 
 BAR2 EZ I         658  7.94         2.3 0.03                          29.9 203 
 BAR2 EZ ES        658 16.70                             168   -0.0310 29.9 203 
 PAM  EZ EP        658  3.11                             154    0.0410 69.1  37 
 PAM  EE ES        658 19.87                             154   -0.3210 69.1  37 
 PAM  EZ I         658 20.95         3.5 0.18                          69.1  37 
 RUS  HZ EP        658  5.51                             143    0.1310  105 180 
 RUS  HE ES        658 25.19                             143    0.8910  105 180 
 RUS  HZ I         658 25.60         1.3 0.26                           105 180 
 SPBC HZ EP        658 10.20                             128   -0.36 9  172 220 
 SPBC HN ES        658 32.77                             128   -0.75 9  172 220 
 SPBC HZ I         658 35.67         2.9 0.12                           172 220 
 ZAR  HZ EP        658 14.77                             122    0.54 8  209 290 
 ZAR  HN ES        658 40.27                             122    0.22 8  209 290 
 ZAR  HZ I         658 44.59         2.7 0.26                           209 290 
                                                                                
