 2015  520 0617  5.9 L   6.808 -73.107145.7  RSN  4 0.3 1.4LRSN                1
 GAP=225        0.68       7.8     7.3  6.5  0.1888E+02 -0.1663E+01 -0.2517E+02E
 Epicentro: LOS SANTOS - SANTANDER                                             3
 ACTION:UPD 15-09-10 22:05 OP:cam  STATUS:               ID:20150520061705 L   I
 OLDACT:DUP 15-05-20 20:08 OP:spq  STATUS:               ID:20150520060738d    3
 2015-05-20-0607-36M.COL___286                                                 6
 STAT SP IPHASW D HRMM SECON CODA AMPLIT PERI AZIMU VELO AIN AR TRES W  DIS CAZ7
 BAR2 EZ ES   1    617 40.40                             170   -0.47 7 25.3 199 
 BAR2 EZ I         617 41.60         5.5 0.50            164           25.3 199 
 BRR  HZ EP        617 27.32                             151    0.1210 74.6 296 
 BRR  HN ES        617 44.24                             151    0.4010 74.6 296 
 BRR  HZ I         617 46.58         4.6 0.44            145           74.6 296 
 ZAR  HZ EP        617 38.86                             122    0.18 8  208 291 
 ZAR  HE ES        618  3.91                             122   -0.37 8  208 291 
 ZAR  HZ I         618 12.11         2.2 0.42            120            208 291 
 SML  HZ EP        617 42.51                             117   -0.09 8  245 334 
 SML  HN ES   1    618 11.08                             117   -0.17 6  245 334 
 SML  HZ I         618 13.16         2.6 0.08            117            245 334 
                                                                                
