 2014  720 0058 39.1 L   6.829 -73.156146.5  RSN 29 0.5 3.0LRSN 3.4WRSN        1
 SPEC AVERAGE  MO 14.1 ST  1.1 OM  2.3 f0 2.12 R1.2459 AL 0.00 WI 30.0 MW  3.4 3
 SPEC SD       MO  0.3 ST  1.5 OM  0.3 f0 1.25 R0.6428 AL      WI      MW  0.2 3
 GAP= 70        1.09       2.5     2.9  4.8 -0.5027E+00  0.4137E+01  0.1842E+01E
 Epicentro: LOS SANTOS - SANTANDER                                             3
 SPEC BAR2SH Z MO 14.5 ST  1.1 OM  2.6 f0 1.82 R1.0571 AL-0.00 WI 30.0 MW  3.6 3
 SPEC BAR2SH Z T 05912 K 0.000 GD  148 VS 5.20 DE 3.50 Q0750.0 QA 1.50 VS 5.20 3
 SPEC BRR HH Z MO 13.8 ST  2.7 OM  1.9 f0 4.06 R0.4739 AL-0.00 WI 30.0 MW  3.2 3
 SPEC BRR HH Z T 05916 K 0.000 GD  161 VS 5.20 DE 3.50 Q0750.0 QA 1.50 VS 5.20 3
 SPEC PAM SH Z MO 13.8 ST0.392 OM  1.9 f0 2.11 R0.9118 AL-0.00 WI 30.0 MW  3.2 3
 SPEC PAM SH Z T 05917 K 0.000 GD  164 VS 5.20 DE 3.50 Q0750.0 QA 1.50 VS 5.20 3
 SPEC TAM HH Z MO 13.8 ST0.582 OM  1.8 f0 2.38 R0.8084 AL-0.00 WI 30.0 MW  3.2 3
 SPEC TAM HH Z T 05927 K 0.000 GD  214 VS 5.20 DE 3.50 Q0750.0 QA 1.50 VS 5.20 3
 SPEC OCA HH Z MO 13.8 ST  1.4 OM  1.8 f0 3.21 R0.5994 AL-0.00 WI 30.0 MW  3.2 3
 SPEC OCA HH Z T 05927 K 0.000 GD  214 VS 5.20 DE 3.50 Q0750.0 QA 1.50 VS 5.20 3
 SPEC SPBCHH Z MO 13.9 ST  5.5 OM  1.8 f0 5.00 R0.3848 AL-0.00 WI 30.0 MW  3.2 3
 SPEC SPBCHH Z T 05928 K 0.000 GD  220 VS 5.20 DE 3.50 Q0750.0 QA 1.50 VS 5.20 3
 SPEC CHI HH Z MO 14.1 ST0.193 OM  1.9 f0 1.38 R1.3942 AL-0.00 WI 30.0 MW  3.3 3
 SPEC CHI HH Z T 05944 K 0.000 GD  290 VS 5.20 DE 3.50 Q0750.0 QA 1.50 VS 5.20 3
 SPEC HEL HH Z MO 14.0 ST0.156 OM  1.8 f0 1.36 R1.4147 AL-0.00 WI 30.0 MW  3.3 3
 SPEC HEL HH Z T 05949 K 0.000 GD  308 VS 5.20 DE 3.50 Q0750.0 QA 1.50 VS 5.20 3
 SPECGUY2CHH Z MO 14.5 ST  0.1 OM  2.3 f00.699 R  2.75 AL-0.00 WI 30.0 MW  3.6 3
 SPECGUY2CHH Z T 05958 K       GD335.7 VS 5.20 DE 3.50 Q0750.0 QA 1.50 VS 5.20 3
 SPEC RREFHH Z MO 14.5 ST0.065 OM  2.2 f00.715 R2.6909 AL-0.00 WI 30.0 MW  3.6 3
 SPEC RREFHH Z T 1 0 2 K 0.000 GD  354 VS 5.20 DE 3.50 Q0750.0 QA 1.50 VS 5.20 3
 SPEC TOL SH Z MO 14.8 ST0.343 OM  2.5 f00.969 R1.9856 AL-0.00 WI 30.0 MW  3.8 3
 SPEC TOL SH Z T 1 0 4 K 0.000 GD  374 VS 5.20 DE 3.50 Q0750.0 QA 1.50 VS 5.20 3
 SPEC ANILHH Z MO 14.5 ST0.391 OM  2.2 f0 1.26 R1.5270 AL-0.00 WI 30.0 MW  3.6 3
 SPEC ANILHH Z T 1 0 8 K 0.000 GD  387 VS 5.20 DE 3.50 Q0750.0 QA 1.50 VS 5.20 3
 SPEC ORTCHH Z MO 14.2 ST0.154 OM  1.9 f0 1.13 R1.7027 AL-0.00 WI 30.0 MW  3.4 3
 SPEC ORTCHH Z T 1 015 K 0.000 GD  423 VS 5.20 DE 3.50 Q0750.0 QA 1.50 VS 5.20 3
 OLDACT:REG 14-07-20 12:47 OP:fm   STATUS:               ID:20140720005817     3
 ACTION:UPD 15-03-16 20:45 OP:nd   STATUS:               ID:20140720005839 L   I
 OLDACT:UP  14-07-20 14:06 OP:fm   STATUS:               ID:20140720005817     3
 2014-07-20-0058-17M.COL___269                                                 6
 STAT SP IPHASW D HRMM SECON CODA AMPLIT PERI AZIMU VELO AIN AR TRES W  DIS CAZ7
 BAR2 SZ IP     C  058 58.78                             169   -0.1310 26.3 186 
 BAR2 SZ ES   1    059 13.84                             169   -0.50 7 26.3 186 
 BAR2 SZ I         059 14.98       274.2 0.32            167           26.3 186 
 BRR  HZ IP     C  059  0.58                             153    0.3610 68.7 297 
 BRR  HN ES        059 17.66                             153    0.9910 68.7 297 
 BRR  HZ I         059 20.66       148.7 0.36            150           68.7 297 
 PAM  SZ EP        059  1.78                             151    0.4610 75.7  42 
 PAM  SN ES        059 18.59                             151   -0.0510 75.7  42 
 PAM  SZ I         059 21.58        88.7 0.70            149           75.7  42 
 RUS  HZ EP        059  2.81                             143   -0.3810  104 176 
 RUS  HN ES        059 21.87                             143   -0.0810  104 176 
 RUS  HZ I         059 22.56        75.5 0.28            139            104 176 
 PTB  HZ EP        059  5.35                             132   -0.76 9  147 258 
 PTB  HN ES        059 26.37                             132   -0.79 9  147 258 
 PTB  HZ I         059 32.29        60.6 0.20            128            147 258 
 TAM  HZ EP     D  059  7.27                             130    0.22 9  157 106 
 OCA  HZ EP        059  7.10                             130   -0.09 9  157 353 
 TAM  HZ I         059 29.66        56.3 0.54            126            157 106 
 OCA  HN ES        059 29.46                             130    0.39 9  157 353 
 OCA  HZ I         059 34.11        71.9 0.34            126            157 353 
 TAM  HN ES        059 28.71                             130   -0.11 9  157 106 
 SPBC HZ EP        059  7.83                             129   -0.02 9  165 218 
 SPBC HN ES        059 30.39                             129    0.14 9  165 218 
 SPBC HZ I         059 34.86       121.1 0.18            124            165 218 
 ZAR  HZ EP        059 11.20                             123   -0.19 9  202 291 
 ZAR  HN ES        059 36.42                             123   -0.13 9  202 291 
 ZAR  HZ I         059 42.03        88.5 0.56            119            202 291 
 NOR  HZ EP        059 14.77                             118   -0.23 8  236 234 
 NOR  HN ES        059 42.37                             118   -0.61 8  236 234 
 NOR  HZ I         059 46.56        47.4 0.22            114            236 234 
 SML  HZ EP        059 15.47                             118    0.04 8  240 335 
 SML  HN ES        059 43.19                             118   -0.56 8  240 335 
 SML  HZ I         059 47.72       105.2 0.26            114            240 335 
 CHI  HZ EP        059 17.08                             117   -0.09 8  251 195 
 CHI  HE ES        059 46.39                             117   -0.45 8  251 195 
 CHI  HZ I         059 50.82        45.8 0.48            113            251 195 
 ROSC BZ EP   4    059 18.78                             117    1.26 0  255 210 
 ROSC BN ES   4    059 49.03                             117    1.57 0  255 210 
 ROSC BZ I         059 52.99        81.3 0.30            113            255 210 
 HEL  HZ EP        059 19.53                             115    0.19 8  272 255 
 HEL  HN ES        059 51.28                             115    0.57 8  272 255 
 HEL  HZ I         059 57.19        46.3 0.30            111            272 255 
 URE  HZ EP        059 18.72                             114   -1.26 7  282 291 
 URE  HE ES   4    059 48.67                             114   -3.18 0  282 291 
 URE  HZ I         1 0  0.69        59.1 0.28            110            282 291 
 GUY2CHZ EP        059 23.43                             112    0.56 7  302 234 
 GUY2CHN ES   4    1 0  0.21                             112    3.22 0  302 234 
 GUY2CHZ I         1 0  5.54        54.8 0.82                           302 234 
 VIL  SZ EP   4    059 21.87                             112   -1.04 0  306 191 
 VIL  SN ES        059 56.65                             112   -0.40 7  306 191 
 VIL  SZ I         1 0  7.20        49.4 0.40            108            306 191 
 PTGC HZ EP   4    059 22.03                             111   -1.37 0  312 159 
 PTGC HN ES   4    059 55.44                             111   -2.49 0  312 159 
 PTGC HZ I         1 0  2.50        27.7 0.24            108            312 159 
 RREF HZ EP        059 26.49                             111    1.05 7  323 229 
 RREF HN ES   4    1 0  3.69                             111    2.13 0  323 229 
 RREF HZ I         1 0  8.54        53.8 0.26            107            323 229 
 CBOC HZ EP        059 26.40                             110    0.34 7  333 252 
 CBOC HN ES        1 0  3.07                             110    0.40 7  333 252 
 CBOC HZ I         1 0 19.65        11.7 0.56            107            333 252 
 DBB  SZ EP   1    059 26.09                             110   -0.39 5  338 274 
 DBB  SZ ES   1    1 0  3.01                             110   -0.40 5  338 274 
 DBB  SZ I         1 0  5.17        81.6 0.40            106            338 274 
 TOL  SZ EP        059 28.09                             109    0.51 7  345 224 
 TOL  SN ES        1 0  6.19                             109    0.82 7  345 224 
 TOL  SZ I         1 0 13.13        91.8 0.36            106            345 224 
 ANIL HZ EP        059 29.73                             108    0.60 6  359 224 
 ANIL HE ES   4    1 0  9.85                             108    1.72 0  359 224 
 ANIL HZ I         1 0 13.45       100.6 0.26            105            359 224 
 PRA  HZ EP        059 32.65                             106   -0.28 6  394 209 
 PRA  HN ES   4    1 0 14.34                             106   -0.55 0  394 209 
 PRA  HZ I         1 0 19.20        32.6 0.54            103            394 209 
 ORTC HZ EP        059 33.08                             106   -0.21 6  397 216 
 ORTC HN ES        1 0 16.59                             106    1.05 6  397 216 
 ORTC HZ I         1 0 19.70        18.0 0.38            103            397 216 
 SJC  HZ EP   4    059 32.98                             106   -1.35 0  406 327 
 SJC  HN ES   4    1 0 13.89                             106   -3.49 0  406 327 
 SJC  HZ I         1 0 28.51        13.3 0.66            103            406 327 
 PAL  HZ EP        059 34.56                             106    0.17 6  406 239 
 PAL  HZ I         1 0 23.69        27.5 0.18            103            406 239 
 SMAR HZ EP   1    059 44.14                             102   -0.48 3  494 346 
 SMAR HN ES   4    1 0 31.79                             102   -3.91 0  494 346 
 SMAR HZ I         1 0 34.48        12.0 0.46            100            494 346 
 PTA  HZ EP   4    1 0  5.96                             102   18.77 0  515 274 
 MACC HZ EP   4    059 46.05                             102   -2.16 0  524 188 
 MACC HZ  AMP      1 0 48.92        80.2 0.56                           524 188 
                                                                                
