 2010  920 0021 53.6 L   6.770 -73.099138.0  RSN  6 0.3 1.3LRSN                1
 GAP=164        0.94       4.3    10.5  9.3  0.2301E+01 -0.2577E+02 -0.6711E+01E
 Epicentro: LOS SANTOS - SANTANDER                                             3
 ACTION:UP  11-02-18 11:04 OP:tino STATUS:               ID:20100920002153 L   I
 2010-09-20-0021-13S.COL___121                                                 6
 STAT SP IPHASW D HRMM SECON CODA AMPLIT PERI AZIMU VELO SNR AR TRES W  DIS CAZ7
 BAR2 SZ EP        022 12.49                             171     0.210   22 205 
 BAR2 SZ ES   1    022 27.05                             171     0.2 7   22 205 
 BAR2 SZ I         022 29.37         5.9 0.47                            22 205 
 BTL  SZ EP        022 12.82                             169     0.510   25 312 
 BRR  HZ EP        022 13.89                             149    -0.410   77 299 
 BRR  HE ES   1    022 30.69                             149     0.3 7   77 299 
 BRR  HZ I         022 30.79         6.9 0.33                            77 299 
 RUS  HZ EP        022 16.02                             143    -0.310   97 179 
 RUS  HN ES   1    022 33.79                             143    -0.3 7   97 179 
 RUS  HZ I         022 36.10         1.6 0.32                            97 179 
 GRA  SZ EP        022 18.63                             135     0.310  128  15 
 GRA  SZ ES   1    022 37.26                             135    -0.3 7  128  15 
 GRA  SZ I         022 38.80         3.5 0.41                           128  15 
 OCA  SZ EP   2    022 21.89                             127     0.2 5  164 352 
 OCA  SZ ES   1    022 43.15                             127    -0.5 7  164 352 
 OCA  SZ I         022 44.25         3.3 0.28                           164 352 
                                                                                
