 2012 1220 0130 14.4 L   6.760 -73.158146.8  RSN  8 0.2 1.9LRSN                1
 GAP=137        0.48       2.4     2.5  3.5  0.3328E+00  0.1094E+01  0.1677E+01E
 Epicentro: LOS SANTOS - SANTANDER                                             3
 ACTION:UPD 13-01-04 14:29 OP:ep   STATUS:               ID:20121220013014 L   I
 2012-12-20-0130-00M.COL___242                                                 6
 STAT SP IPHASW D HRMM SECON CODA AMPLIT PERI AZIMU VELO AIN AR TRES W  DIS CAZ7
 BAR2 SZ EP   1    130 33.98                             172   -0.08 7 18.8 188 
 BAR2 SZ ES   1    130 49.32                             172   -0.09 7 18.8 188 
 BAR2 SZ I         130 50.74        39.4 0.18                          18.8 188 
 GIR2 SZ EP   1    130 34.10                             166   -0.20 7 35.4 354 
 BRR  HZ EP        130 35.89                             152    0.1810 72.3 302 
 BRR  HN ES        130 52.68                             152    0.3410 72.3 302 
 BRR  HZ I         130 55.90         5.7 0.10                          72.3 302 
 PAM  SZ EP        130 36.88                             150   -0.0910 81.6  38 
 PAM  SZ I         130 37.34        15.3 0.25                          81.6  38 
 PAM  SN ES        130 54.55                             150   -0.0410 81.6  38 
 RUS  HZ EP        130 38.02                             145    0.0810 96.3 175 
 RUS  HE ES        130 56.22                             145   -0.1010 96.3 175 
 RUS  HE I         130 58.15        19.4 0.27                          96.3 175 
 PTB  HZ EP   1    130 40.97                             133   -0.28 7  146 260 
 PTB  HE ES   1    131  1.98                             133   -0.23 7  146 260 
 PTB  HZ I         131  3.86         4.3 0.16                           146 260 
 ZAR  HN ES   1    131 12.10                             122   -0.25 6  205 293 
 CHI  HZ EP        130 51.96                             118    0.31 8  244 195 
                                                                                
