 2015 1020 0358 16.3 L   6.809 -73.133148.2  RSN 14 0.5 2.1LRSN                1
 GAP=138        1.07       2.9     4.3  5.8 -0.1854E+01  0.7578E+01  0.4870E+00E
 Epicentro: LOS SANTOS - SANTANDER                                             3
 ACTION:UPD 15-12-22 20:41 OP:cam  STATUS:               ID:20151020035816 L   I
 OLDACT:UP  15-11-01 03:30 OP:DRIO STATUS:               ID:20151020035816 L   3
 OLDACT:REG 15-10-20 12:35 OP:mh   STATUS:               ID:20151020035739     3
 2015-10-20-0357-39M.COL___337                                                 6
 STAT SP IPHASW D HRMM SECON CODA AMPLIT PERI AZIMU VELO AIN AR TRES W  DIS CAZ7
 BAR2 EZ EP        358 36.46                             170    0.1810 24.6 193 
 BAR2 EZ ES        358 51.51                             170   -0.3410 24.6 193 
 BAR2 EZ I         358 53.14        20.5 0.36            167           24.6 193 
 BRR  HZ IP     C  358 38.35                             153    0.5610 72.0 297 
 BRR  HN ES        358 55.03                             153    0.5010 72.0 297 
 BRR  HZ I         359  0.02        15.5 0.24            147           72.0 297 
 PAM  EZ EP        358 39.19                             152    0.4810 75.7  39 
 PAM  EN ES        358 56.40                             152    0.2310 75.7  39 
 PAM  EZ I         358 58.33        10.7 0.42            156           75.7  39 
 RUS  HZ EP        358 40.33                             144   -0.0610  102 177 
 RUS  HN ES   1    358 58.82                             144   -0.34 7  102 177 
 RUS  HZ I         358 59.65        11.3 0.40            146            102 177 
 OCA  HZ EP        358 44.16                             130   -0.59 9  159 353 
 OCA  HN ES        359  6.70                             130   -0.22 9  159 353 
 OCA  HZ I         359 12.16        34.2 0.22            131            159 353 
 SPBC HZ EP   1    358 45.32                             129    0.14 7  165 219 
 SPBC HN ES        359  7.33                             129   -0.35 9  165 219 
 SPBC HZ I         359  9.86        18.8 0.30            129            165 219 
 ZAR  HZ EP        358 49.33                             123    0.30 9  205 292 
 ZAR  HN ES        359 14.46                             123   -0.08 9  205 292 
 ZAR  HZ I         359 21.38        22.8 0.28            121            205 292 
 NOR  HZ EP        358 51.62                             119   -0.77 8  236 234 
 NOR  HN ES        359 19.87                             119   -0.64 8  236 234 
 NOR  HZ I         359 28.11        10.0 0.32            118            236 234 
 SML  HZ EP        358 52.83                             118   -0.23 8  243 335 
 SML  HN ES        359 20.92                             118   -0.78 8  243 335 
 SML  HZ I         359 24.14        12.3 0.28            118            243 335 
 CHI  HZ EP        358 54.69                             117    0.38 8  250 195 
 CHI  HN ES        359 23.86                             117   -0.08 8  250 195 
 CHI  HZ I         359 33.19         4.7 0.34            119            250 195 
 HEL  HZ EP        358 57.20                             115    0.35 8  274 256 
 HEL  HN ES        359 29.39                             115    0.94 8  274 256 
 HEL  HZ I         359 36.08         5.5 0.32            115            274 256 
 URE  HZ EP   4    359  0.50                             114    2.88 0  285 292 
 URE  HN ES   4    359 32.35                             114    2.52 0  285 292 
 URE  HZ I         359 40.37        11.0 0.28            114            285 292 
 GUY2CHZ EP   4    359  2.47                             113    2.22 0  303 235 
 GUY2CHN ES   4    359 38.08                             113    3.58 0  303 235 
 GUY2CHZ I         359 44.80         4.9 0.66                           303 235 
 MON  HZ EP   4    359  3.39                             109   -2.09 0  354 308 
 MON  HN ES   4    359 42.51                             109   -1.31 0  354 308 
 MON  HZ I         359 57.56         5.9 0.44            109            354 308 
                                                                                
