 2011  520 0006 26.5 L   6.843 -73.019134.0  RSN  4 0.3 1.3LRSN                1
 GAP=253        0.81      13.1    23.7 15.0  0.2617E+03 -0.2376E+03 -0.1162E+03E
 Epicentro: CEPITA - SANTANDER                                                 3
 ACTION:UP  11-06-29 08:54 OP:tino STATUS:               ID:20110520000626 L   I
 2011-05-20-0005-09S.COL___140                                                 6
 STAT SP IPHASW D HRMM SECON CODA AMPLIT PERI AZIMU VELO SNR AR TRES W  DIS CAZ7
 BTL  SZ EP   1    0 6 45.13                             168     0.3 7   29 287 
 BAR2 SZ EP        0 6 44.93                             166     0.010   33 213 
 BAR2 SZ ES   2    0 6 58.99                             166    -0.3 5   33 213 
 BAR2 SZ I         0 7  2.03         5.7 0.32                            33 213 
 BRR  HZ EP   1    0 6 46.36                             147    -0.7 7   82 291 
 BRR  HZ I         0 7  0.13         8.8 0.40                            82 291 
 BRR  HN ES   1    0 7  3.42                             147     0.3 7   82 291 
 RUS  HZ EP   1    0 6 49.67                             141     0.2 7  105 184 
 RUS  HE ES   1    0 7  7.28                             141    -0.1 7  105 184 
 RUS  HZ I         0 7  8.54         1.1 0.23                           105 184 
                                                                                
