 2012  220 0247 13.4 L   6.775 -73.108148.0  RSN  4 0.3 1.4LRSN                1
 GAP=240        0.53       7.5     8.9  8.0  0.4118E+02 -0.1283E+02  0.6490E+00E
 ACTION:UP  12-03-07 16:32 OP:epov STATUS:               ID:20120220024713 L   I
 2012-02-20-0240-00M.COL___191                                                 6
 STAT SP IPHASW D HRMM SECON CODA AMPLIT PERI AZIMU VELO AIN AR TRES W  DIS CAZ7
 BAR2 SZ ES   2    247 48.19                             171   -0.55 5 21.8 202 
 BRR  HZ EP   1    247 34.92                             151   -0.13 7 76.2 299 
 BRR  HZ I         247 37.19         3.3 0.11                          76.2 299 
 BRR  HN ES   1    247 52.26                             151    0.30 7 76.2 299 
 RUS  HZ EP   1    247 37.16                             145    0.02 7 97.6 178 
 RUS  HN ES   2    247 56.04                             145    0.37 5 97.6 178 
 RUS  HZ I         248  4.18         4.7 0.66                          97.6 178 
 PTB  HE ES   2    248  2.01                             132   -0.28 5  151 260 
                                                                                
