 2012 1120 0240  9.0 L   6.751 -73.160151.8  RSN  6 0.3 1.6LRSN                1
 GAP=137        0.63       4.3     4.7  5.3  0.3535E+01 -0.4365E+01  0.1569E+01E
 Epicentro: LOS SANTOS - SANTANDER                                             3
 ACTION:UPD 12-12-05 15:34 OP:}ep  STATUS:               ID:20121120024009 L   I
 2012-11-20-0240-00M.COL___234                                                 6
 STAT SP IPHASW D HRMM SECON CODA AMPLIT PERI AZIMU VELO AIN AR TRES W  DIS CAZ7
 BAR2 SZ ES   1    240 44.98                             173   -0.03 7 17.7 188 
 BAR2 SZ I         240 45.74        20.4 0.21                          17.7 188 
 BRR  HZ EP        240 31.03                             153    0.1910 72.6 303 
 BRR  HN ES        240 48.17                             153    0.2710 72.6 303 
 BRR  HZ I         240 55.47         7.5 0.36                          72.6 303 
 PAM  SZ EP        240 31.85                             150   -0.2710 82.6  38 
 PAM  SZ I         240 32.28         6.6 0.23                          82.6  38 
 RUS  HZ EP        240 32.94                             146    0.0010 95.3 175 
 RUS  HE ES   1    240 51.60                             146   -0.05 7 95.3 175 
 RUS  HE I         240 52.71        10.1 0.47                          95.3 175 
 PTB  HZ EP   1    240 36.11                             134   -0.09 7  145 261 
 PTB  HN ES   1    240 56.88                             134   -0.57 7  145 261 
 PTB  HZ I         241  0.12         2.1 0.20                           145 261 
 CHI  HZ EP   1    240 46.91                             119    0.52 6  243 195 
                                                                                
