 2011  220 0935 39.0 L   6.812 -73.246134.3  RSN  5 0.1 1.2LRSN                1
 GAP=142        0.39       3.0     9.4  6.4 -0.5731E+01  0.1703E+02 -0.1855E+01E
 Epicentro: ZAPATOCA - SANTANDER                                               3
 ACTION:UP  11-03-28 15:09 OP:jfem STATUS:               ID:20110220093538 L   I
 2011-02-20-0920-00M.COL___139                                                 6
 STAT SP IPHASW D HRMM SECON CODA AMPLIT PERI AZIMU VELO SNR AR TRES W  DIS CAZ7
 BTL  SZ EP        935 57.28                             174     0.210   12 348 
 BAR2 SZ EP        935 57.16                             169    -0.210   25 164 
 BAR2 SZ ES   2    936 11.57                             169     0.0 5   25 164 
 BAR2 SZ I         936 14.89         3.9 0.25                            25 164 
 RUS  HZ EP        936  1.91                             141     0.010  103 170 
 RUS  HN ES   1    936 19.76                             141     0.0 7  103 170 
 RUS  HZ I         936 22.01         2.8 0.23                           103 170 
 GRA  SZ ES   2    936 22.53                             134    -0.1 5  128  22 
 NOR  SN ES   3    936 39.87                             117    -0.1 2  227 233 
                                                                                
