 2016  420 0953  5.3 L   6.813 -73.171147.3  RSN 11 0.3 2.3LRSN                1
 GAP=133        0.73       2.1     2.9  4.2 -0.1473E+01  0.4374E+01  0.1289E+00E
 Epicentro: LOS SANTOS - SANTANDER                                             3
 ACTION:UPD 16-05-05 14:22 OP:rebc STATUS:               ID:20160420095305 L   I
 OLDACT:ARG 16-04-20 12:40 OP:cara STATUS:               ID:20160420094748     3
 2016-04-20-0947-48M.COL___306                                                 6
 STAT SP IPHASW D HRMM SECON CODA AMPLIT PERI AZIMU VELO AIN AR TRES W  DIS CAZ7
 BAR2 EZ IP        953 25.19                             170    0.0610 24.5 183 
 BAR2 EZ ES        953 40.59                             170   -0.0110 24.5 183 
 BAR2 EZ I         953 41.68        58.0 0.28            169           24.5 183 
 PAM  EZ EP     C  953 27.89                             151    0.1810 78.1  42 
 PAM  EZ I         953 28.25        89.9 0.20            155           78.1  42 
 PAM  EN ES        953 45.16                             151   -0.0410 78.1  42 
 RUS  HZ EP        953 29.16                             144   -0.1510  102 175 
 RUS  HE ES        953 47.99                             144   -0.0610  102 175 
 RUS  HZ I         953 49.15        21.6 0.24            146            102 175 
 PTB  HZ EP        953 31.64                             133   -0.53 9  145 258 
 PTB  HN ES        953 52.81                             133   -0.32 9  145 258 
 PTB  HZ I         953 59.68        16.4 0.16            132            145 258 
 OCA  HZ EP        953 32.87                             130   -0.69 9  159 354 
 OCA  HN ES        953 55.95                             130    0.35 9  159 354 
 OCA  HZ I         953 58.72        40.8 0.16            132            159 354 
 SPBC HZ EP        953 34.20                             129    0.35 9  163 218 
 SPBC HN ES        953 56.38                             129    0.25 9  163 218 
 SPBC HZ I         954  0.98        31.0 0.18            130            163 218 
 ZAR  HZ EP        953 37.64                             123    0.12 9  201 292 
 ZAR  HN ES        954  3.04                             123    0.38 9  201 292 
 ZAR  HZ I         954  8.32        22.7 0.32            123            201 292 
 NOR  HZ EP        953 41.30                             119    0.34 8  233 234 
 NOR  HE ES        954  8.79                             119    0.01 8  233 234 
 NOR  HZ I         954 14.65         9.7 0.28            120            233 234 
 CHI  HZ EP        953 43.36                             117    0.21 8  249 194 
 CHI  HN ES        954 12.55                             117   -0.13 8  249 194 
 CHI  HZ I         954 16.39         9.2 0.50            119            249 194 
 URE  HZ EP   2    953 45.51                             114   -0.58 4  281 292 
 URE  HE ES   4    954 16.82                             114   -1.09 0  281 292 
 URE  HZ I         954 26.55        10.9 0.14            115            281 292 
 GUY2CHZ EP        953 49.14                             113    0.33 7  300 234 
 GUY2CHN ES        954 22.42                             113   -0.34 7  300 234 
 GUY2CHZ I         954 31.28        10.6 0.36                           300 234 
                                                                                
