 2015  720 0030 21.7 L   6.797 -73.153143.7  RSN 10 0.4 2.0LRSN                1
 GAP=136        0.88       2.8     3.4  5.4 -0.2220E+01  0.7929E+01 -0.5697E-01E
 Epicentro: LOS SANTOS - SANTANDER                                             3
 ACTION:UPD 15-09-08 21:49 OP:cam  STATUS:               ID:20150720003021 L   I
 OLDACT:DUP 15-07-20 15:05 OP:stll STATUS:               ID:20150720002749d    3
 2015-07-20-0027-48M.COL___337                                                 6
 STAT SP IPHASW D HRMM SECON CODA AMPLIT PERI AZIMU VELO AIN AR TRES W  DIS CAZ7
 BAR2 EZ EP        030 41.18                             170    0.0710 22.9 188 
 BAR2 EZ ES        030 56.19                             170   -0.0210 22.9 188 
 BAR2 EZ I         030 59.05        16.3 0.22            171           22.9 188 
 PAM  EZ EP        030 44.18                             150    0.4110 78.1  40 
 PAM  EE ES        031  1.06                             150    0.1010 78.1  40 
 RUS  HZ EP        030 45.09                             143   -0.1710  100 176 
 RUS  HN ES        031  3.68                             143    0.0610  100 176 
 RUS  HZ I         031  5.36         6.0 0.20            147            100 176 
 CPBEREZ EP        030 48.27                             132   -0.19 9  147 259 
 CPBEREN ES        031  9.41                             132    0.10 9  147 259 
 OCA  HZ EP        030 49.41                             129   -0.49 9  160 353 
 OCA  HN ES        031 11.58                             129   -0.29 9  160 353 
 OCA  HZ I         031 16.07        28.7 0.34            131            160 353 
 ZAR  HZ EP        030 53.73                             122   -0.25 9  203 292 
 ZAR  HE ES        031 19.73                             122    0.59 9  203 292 
 ZAR  HZ I         031 24.97        12.2 0.24            123            203 292 
 NOR  HZ EP        030 57.17                             118   -0.09 8  234 234 
 NOR  HE ES        031 24.66                             118   -0.31 8  234 234 
 NOR  HZ I         031 28.82         9.1 0.16            120            234 234 
 CHI  HZ EP   1    030 59.30                             117    0.03 6  248 195 
 CHI  HZ I         031  0.05         3.8 0.46            119            248 195 
 CHI  HN ES   1    031 27.87                             117   -0.67 6  248 195 
 HEL  HZ EP        031  2.18                             114    0.43 8  271 256 
 HEL  HE ES        031 32.20                             114   -0.77 8  271 256 
 HEL  HZ I         031 39.37         7.4 0.38            116            271 256 
 GUY2CHZ EP        031  6.10                             112    0.94 7  300 235 
 GUY2CHE ES        031 39.49                             112    0.46 7  300 235 
 GUY2CHZ I         031 45.97         5.9 0.32                           300 235 
                                                                                
