 2010  720 0203 44.3 L   6.773 -73.083153.3  RSN  4 0.1 1.2LRSN                1
 GAP=171        0.33       3.4     6.9  5.3  0.1466E+02 -0.2254E+02 -0.9967E+01E
 Epicentro: LOS SANTOS - SANTANDER                                             3
 ACTION:UPD 10-12-01 15:18 OP:pat  STATUS:               ID:20100720020344 L   I
 2010-07-20-0202-12S.COL___122                                                 6
 STAT SP IPHASW D HRMM SECON CODA AMPLIT PERI AZIMU VELO AIN AR TRES W  DIS CAZ7
 BAR2 SZ EP   1    2 4  4.76                             171    -0.1 7   23 209 
 BAR2 SZ I         2 4 18.20         6.7 0.53                            23 209 
 BAR2 SZ ES   2    2 4 20.75                             171    -0.1 5   23 209 
 BRR  HZ EP   1    2 4  6.76                             151     0.0 7   79 298 
 BRR  HN ES   1    2 4 24.21                             151     0.0 7   79 298 
 BRR  HZ I         2 4 27.18         5.1 0.16                            79 298 
 RUS  HZ EP   1    2 4  8.58                             146     0.0 7   97 180 
 RUS  HN ES   1    2 4 27.67                             146     0.1 7   97 180 
 RUS  HZ I         2 4 28.87         1.8 0.49                            97 180 
 GUE  SZ EP   1    2 4  9.97                             141     0.1 7  118   9 
 GUE  SZ I         2 4 32.05         0.9 0.14                           118   9 
                                                                                
