 2010  820 0542 47.2 L   6.814 -73.122140.3  RSN 10 0.5 1.8LRSN                1
 GAP=161        1.03       4.0     8.3  8.0 -0.1600E+02  0.1952E+02 -0.1972E+01E
 Epicentro: LOS SANTOS - SANTANDER                                             3
 ACTION:UP  10-09-07 10:56 OP:vdl  STATUS:               ID:20100820054247 L   I
 2010-08-20-0539-33S.COL___117                                                 6
 STAT SP IPHASW D HRMM SECON CODA AMPLIT PERI AZIMU VELO SNR AR TRES W  DIS CAZ7
 BAR2 SZ EP   1    543  6.09                             169    -0.2 8   25 195 
 BAR2 SZ ES   1    543 20.72                             169    -0.4 8   25 195 
 GIR2 SZ EP   1    543  6.10                             167    -0.1 8   30 345 
 GIR2 SZ ES   2    543 20.83                             167    -0.2 5   30 345 
 RUS  HZ EP   1    543 10.38                             142    -0.2 8  102 178 
 RUS  HN ES   1    543 28.82                             142     0.1 8  102 178 
 RUS  HZ I         543 29.45         2.7 0.28                           102 178 
 GUE  SZ EP        543 11.00                             139    -0.310  115  11 
 GUE  SZ I         543 11.89         5.2 0.10                           115  11 
 GRA  SZ EP        543 11.89                             136     0.110  124  17 
 GRA  SZ I         543 13.42        12.7 0.40                           124  17 
 GRA  SZ ES   1    543 31.87                             136     0.9 7  124  17 
 OCA  SZ EP        543 14.68                             129    -0.3 9  159 352 
 OCA  SZ ES   1    543 37.22                             129     0.5 7  159 352 
 OCA  SZ I         543 42.83        13.0 1.01                           159 352 
 CHI  HZ EP   1    543 24.91                             116     0.0 6  251 196 
 CHI  HN ES   1    543 54.77                             116     0.5 6  251 196 
 CHI  HZ I         544  0.29         2.5 0.78                           251 196 
 HEL  HN ES   1    543 58.15                             113    -0.8 6  275 256 
 HEL  HZ I         544  5.00         4.2 0.71                           275 256 
 RREF HN ES   1    544 10.94                             110     1.4 5  325 229 
 RREF HZ I         544 17.87         2.9 0.47                           325 229 
 PRA  HZ EP        543 40.87                             105     0.0 6  395 210 
 PRA  HN ES   1    544 22.75                             105     0.0 4  395 210 
 PRA  HZ I         544 27.95         4.1 1.88                           395 210 
                                                                                
