 2010  920 0108 24.3 L   6.679 -72.948  4.0  RSN  6 0.5 1.3LRSN                1
 GAP=183        1.18       3.6     6.6 11.6  0.6618E+01  0.4294E+02  0.1742E+02E
 Epicentro: ARATOCA - SANTANDER                                                3
 ACTION:UP  11-02-18 11:04 OP:tino STATUS:               ID:20100920010824 L   I
 2010-09-20-0106-11S.COL___121                                                 6
 STAT SP IPHASW D HRMM SECON CODA AMPLIT PERI AZIMU VELO SNR AR TRES W  DIS CAZ7
 BAR2 SZ IP        1 8 29.29                              47    -0.110   28 250 
 BAR2 SZ ES   1    1 8 33.15                              47    -0.1 7   28 250 
 BAR2 SZ I         1 8 33.83        53.2 0.17                            28 250 
 BTL  SZ EP        1 8 31.55                              47    -0.310   44 307 
 GIR2 SZ EP        1 8 32.27                              47    -0.610   52 328 
 GIR2 SZ ES   3    1 8 38.41                              47    -1.2 2   52 328 
 RUS  HZ EP        1 8 39.24                              47     0.510   88 190 
 RUS  HZ I         1 8 39.59        12.7 0.18                            88 190 
 RUS  HN ES   1    1 8 49.58                              47    -0.5 7   88 190 
 BRR  HZ EP        1 8 40.06                              47     0.510   97 299 
 BRR  HN ES   1    1 8 52.01                              47     0.5 7   97 299 
 BRR  HZ I         1 8 52.98         6.0 0.16                            97 299 
 GRA  SZ EP        1 8 45.65                              47     0.210  134   7 
 GRA  SZ I         1 9  5.61         2.9 0.46                           134   7 
                                                                                
