 2013 1220 0736  7.8 L   6.828 -73.152145.1  RSN 10 0.5 1.6LRSN                1
 GAP=134        1.03       4.8     4.9  7.6 -0.4597E+01  0.9818E+01 -0.1026E+02E
 Epicentro: LOS SANTOS - SANTANDER                                             3
 ACTION:UPD 14-01-13 10:19 OP:ep   STATUS:               ID:20131220073607 L   I
 OLDACT:REG 13-12-20 07:40 OP:jn   STATUS:               ID:20131220073000     3
 2013-12-20-0730-00M.COL___285                                                 6
 STAT SP IPHASW D HRMM SECON CODA AMPLIT PERI AZIMU VELO AIN AR TRES W  DIS CAZ7
 BAR2 SZ EP        736 27.51                             169    0.1010 26.3 187 
 BAR2 SZ ES        736 42.62                             169   -0.1010 26.3 187 
 BAR2 SZ I         736 43.37        12.4 0.24            171           26.3 187 
 BRR  HZ EP     C  736 29.20                             153    0.4410 69.1 297 
 BRR  HN ES        736 45.68                             153    0.5710 69.1 297 
 BRR  HZ I         736 54.12         5.5 0.36            150           69.1 297 
 PAM  SZ EP        736 30.38                             151    0.5510 75.5  41 
 PAM  SN ES        736 46.72                             151   -0.3010 75.5  41 
 PAM  SZ I         736 48.86         7.0 0.18            154           75.5  41 
 RUS  HE ES   2    736 49.45                             143   -0.93 5  104 176 
 PTB  HZ EP   1    736 34.53                             132   -0.18 7  148 258 
 PTB  HN ES        736 55.11                             132   -0.58 9  148 258 
 PTB  HZ I         736 58.46         4.2 0.15            133            148 258 
 OCA  HN ES   2    736 56.77                             130   -0.80 5  157 353 
 SPBC HE ES   2    736 58.80                             128    0.03 5  165 218 
 ZAR  HN ES   1    737  5.90                             122    0.76 6  202 291 
 ZAR  HZ I         737 12.51         6.3 0.32            124            202 291 
 NOR  HE ES   2    737 11.27                             118   -0.30 4  236 234 
 SML  HZ EP        736 43.84                             118   -0.21 8  241 335 
 SML  HE ES        737 11.68                             118   -0.64 8  241 335 
                                                                                
