 2010 1020 0443 31.8 L   6.877 -73.174132.0  RSN  8 0.4 1.9LRSN                1
 GAP=155        0.99       5.7    13.2 18.0 -0.8708E+01  0.1237E+03  0.4051E+02E
 Epicentro: ZAPATOCA - SANTANDER                                               3
 ACTION:UP  11-02-18 11:10 OP:tino STATUS:               ID:20101020044331 L   I
 2010-10-20-0442-17S.COL___126                                                 6
 STAT SP IPHASW D HRMM SECON CODA AMPLIT PERI AZIMU VELO SNR AR TRES W  DIS CAZ7
 BAR2 SZ EP        443 50.12                             166     0.110   32 182 
 BAR2 SZ I         444  8.73        12.9 0.25                            32 182 
 BRR  HZ EP   1    443 51.61                             152     0.5 7   65 293 
 BRR  HZ I         444 11.26        19.2 0.42                            65 293 
 RUS  HZ EP   1    443 54.42                             138    -0.5 7  109 175 
 RUS  HZ I         444 15.30         6.7 0.27                           109 175 
 GRA  SZ EP   1    443 55.71                             136     0.4 7  119  20 
 GRA  SZ ES   1    444 13.73                             136     0.2 7  119  20 
 GRA  SZ I         444 17.21        11.1 0.11                           119  20 
 OCA  SZ EP        443 58.02                             128    -0.2 9  152 354 
 OCA  SZ ES   1    444 18.37                             128    -0.5 7  152 354 
 OCA  SZ I         444 23.32         9.4 0.29                           152 354 
 NOR  SZ EP   1    444  6.53                             115    -0.6 6  237 232 
 CHI  HZ EP   1    444  9.83                             114     0.2 6  256 194 
 CHI  HZ I         444 45.10         6.2 0.34                           256 194 
 HEL  HZ EP   1    444 11.81                             112     0.5 6  271 254 
 HEL  HZ I         444 48.66         7.5 0.32                           271 254 
                                                                                
