 2016  420 0212 30.5 L   6.816 -73.178137.3  RSN  9 0.4 2.0LRSN                1
 GAP=132        0.94       3.0     3.8  5.9 -0.3499E+01  0.9577E+01 -0.1656E+01E
 Epicentro: ZAPATOCA - SANTANDER                                               3
 ACTION:UPD 16-05-05 14:22 OP:rebc STATUS:               ID:20160420021230 L   I
 OLDACT:UP  16-04-20 14:19 OP:drio STATUS:               ID:20160420020743     3
 OLDACT:UP  16-04-20 14:13 OP:drio STATUS:               ID:20160420020743     3
 OLDACT:ARG 16-04-20 12:40 OP:cara STATUS:               ID:20160420020743     3
 2016-04-20-0207-43M.COL___307                                                 6
 STAT SP IPHASW D HRMM SECON CODA AMPLIT PERI AZIMU VELO AIN AR TRES W  DIS CAZ7
 BAR2 EZ EP        212 49.16                             169    0.0410 24.8 181 
 BAR2 EZ ES        213  4.08                             169    0.4210 24.8 181 
 BAR2 EZ I         213  6.37        12.0 0.28            172           24.8 181 
 PAM  EZ EP        212 52.04                             149    0.1810 78.3  42 
 PAM  EN ES        213  8.91                             149    0.3810 78.3  42 
 PAM  EZ I         213 10.95        27.1 0.66            152           78.3  42 
 RUS  HZ EP        212 53.65                             141    0.0910  103 174 
 RUS  HE ES        213 11.06                             141   -0.5110  103 174 
 RUS  HZ I         213 12.59        13.3 0.34            148            103 174 
 PTB  HZ EP        212 56.05                             131   -0.43 9  145 258 
 PTB  HN ES        213 16.48                             131   -0.27 9  145 258 
 PTB  HZ I         213 21.91         8.2 0.32            132            145 258 
 OCA  HZ EP        212 57.45                             128   -0.48 9  158 354 
 OCA  HE ES        213 18.72                             128   -0.62 9  158 354 
 OCA  HZ I         213 26.25        23.3 0.22            130            158 354 
 SPBC HZ EP        212 58.07                             127   -0.19 9  162 218 
 SPBC HN ES        213 19.91                             127   -0.02 9  162 218 
 SPBC HZ I         213 20.78        14.4 0.20            131            162 218 
 ZAR  HZ EP        213  2.67                             121    0.70 9  200 292 
 ZAR  HE ES        213 26.84                             121    0.31 9  200 292 
 ZAR  HZ I         213 33.57        16.9 0.58            123            200 292 
 NOR  HZ EP        213  5.77                             117    0.24 8  233 234 
 NOR  HE ES        213 33.00                             117    0.13 8  233 234 
 NOR  HZ I         213 34.76         8.0 0.16            120            233 234 
 GUY2CHZ EP        213 14.06                             111    0.56 7  299 234 
 GUY2CHN ES        213 46.75                             111   -0.30 7  299 234 
 GUY2CHZ I         213 54.20         4.6 0.34                           299 234 
                                                                                
