 2013  520 0232 23.9 L   6.804 -73.185140.9  RSN  9 0.5 2.0LRSN                1
 GAP= 69        1.29       5.0     5.2  7.4 -0.5905E+01  0.1714E+01  0.8340E+01E
 Epicentro: LOS SANTOS - SANTANDER                                             3
 ACTION:UPD 13-06-20 09:52 OP:ep   STATUS:               ID:20130520023223 L   I
 2013-05-20-0228-51M.COL___218                                                 6
 STAT SP IPHASW D HRMM SECON CODA AMPLIT PERI AZIMU VELO AIN AR TRES W  DIS CAZ7
 BAR2 SZ EP        232 43.02                             170    0.1010 23.4 179 
 BAR2 SZ ES        232 57.47                             170   -0.3110 23.4 179 
 BAR2 SZ I         232 58.69        21.7 0.18            170           23.4 179 
 GIR2 SZ EP        232 43.04                             167    0.1010 30.4 358 
 GIR2 SZ ES        232 57.92                             167    0.1010 30.4 358 
 GIR2 SZ I         232 59.92         9.4 0.30            167           30.4 358 
 BRR  HN ES        233  1.44                             153    1.2610 67.2 300 
 BRR  HN I         233  1.95        52.4 0.22            151           67.2 300 
 PAM  SZ IP     C  232 45.99                             149    0.2610 79.9  42 
 PAM  SZ I         232 46.18        21.9 0.22            151           79.9  42 
 PAM  SN ES        233  2.34                             149   -0.4310 79.9  42 
 RUS  HZ EP        232 47.48                             143    0.2710  101 174 
 RUS  HN ES        233  5.41                             143   -0.0010  101 174 
 RUS  HN I         233  6.82        18.9 0.24            143            101 174 
 PTB  HZ EP        232 49.87                             132   -0.19 9  144 258 
 PTB  HN ES        233  9.42                             132   -1.07 9  144 258 
 PTB  HZ I         233 14.34         7.4 0.18            130            144 258 
 TAM  HZ IP     D  232 51.34                             129   -0.24 9  159 105 
 OCA  HN ES        233 13.04                             129   -0.40 9  159 355 
 OCA  HN I         233 16.49        33.1 0.26            129            159 355 
 NOR  HZ EP        232 59.42                             118    0.45 8  231 234 
 NOR  HE ES        233 26.34                             118   -0.01 8  231 234 
 NOR  HE I         233 32.63         7.4 0.16            117            231 234 
                                                                                
