 2016  320 0423 18.6 L   6.839 -73.183144.0  RSN 11 0.3 2.0LRSN                1
 GAP=130        0.59       2.7     2.9  4.3 -0.2620E+01  0.4912E+01 -0.1290E+01E
 Epicentro: ZAPATOCA - SANTANDER                                               3
 ACTION:UPD 16-05-13 21:25 OP:cam  STATUS:               ID:20160320042318 L   I
 OLDACT:UP  16-03-28 15:35 OP:Mher STATUS:               ID:20160320042318 L   3
 OLDACT:REG 16-03-20 14:40 OP:dnl  STATUS:               ID:20160320041743     3
 2016-03-20-0417-43M.COL___301                                                 6
 STAT SP IPHASW D HRMM SECON CODA AMPLIT PERI AZIMU VELO AIN AR TRES W  DIS CAZ7
 BAR2 EZ EP        423 38.12                             169    0.0310 27.3 180 
 BAR2 EZ IS        423 53.37                             169    0.0710 27.3 180 
 BAR2 EZ I         423 54.73        21.4 0.20            168           27.3 180 
 PAM  EZ EP        423 40.32                             151   -0.2610 76.9  44 
 PAM  EN ES        423 58.05                             151    0.3110 76.9  44 
 PAM  EZ I         424  0.37        21.7 0.48            153           76.9  44 
 RUS  HZ EP        423 42.15                             143   -0.3610  105 174 
 RUS  HE ES        424  1.28                             143    0.1110  105 174 
 RUS  HZ I         424  1.92        11.8 0.24            147            105 174 
 PTB  HZ EP        423 44.93                             133   -0.20 9  145 257 
 PTB  HN ES        424  5.98                             133    0.15 9  145 257 
 PTB  HZ I         424  6.94        14.9 0.16            129            145 257 
 OCA  HZ EP   2    423 46.61                             131    0.30 5  155 354 
 OCA  HE ES   2    424  7.85                             131   -0.09 5  155 354 
 OCA  HZ I         424 14.61        17.9 0.28            128            155 354 
 SPBC HZ EP        423 46.96                             129   -0.07 9  164 217 
 SPBC HN ES        424  9.36                             129    0.14 9  164 217 
 SPBC HZ I         424 15.01        17.8 0.10            128            164 217 
 ZAR  HZ EP   2    423 49.89                             123   -0.46 4  199 291 
 ZAR  HN ES   2    424 14.66                             123   -0.47 4  199 291 
 ZAR  HZ I         424 26.58         9.6 0.13            120            199 291 
 HEL  HZ EP   2    423 59.46                             115    1.07 4  269 255 
 HEL  HN ES   2    424 29.85                             115    0.42 4  269 255 
 HEL  HZ I         424 36.89         6.3 0.42            114            269 255 
 GUY2CHZ EP   4    424  3.25                             112    1.23 0  300 234 
 GUY2CHN ES   2    424 35.61                             112   -0.29 4  300 234 
 GUY2CHZ I         424 46.60         4.9 0.26                           300 234 
 PTGC HZ EP   4    424  1.72                             111   -1.28 0  314 158 
 PTGC HN ES   4    424 33.99                             111   -3.64 0  314 158 
 PTGC HZ I         424 34.73        12.1 0.36            114            314 158 
 CBOC HZ EP   2    424  6.09                             110    0.96 3  331 251 
 CBOC HN ES   2    424 40.80                             110   -0.64 3  331 251 
 CBOC HZ I         424 59.27         1.8 0.23            109            331 251 
 MON  HZ EP   4    424  5.39                             109   -1.44 0  348 308 
 MON  HE ES   4    424 40.55                             109   -3.91 0  348 308 
                                                                                
