 2016 1020 0340 36.5 L   6.786 -73.067152.8  RSN 18 0.6 2.0LRSN                1
 GAP=103        0.96       2.9     3.5  4.9 -0.2014E+00  0.2264E-01  0.1430E+01E
 Epicentro: LOS SANTOS - SANTANDER                                             3
 ACTION:UPD 16-11-09 19:21 OP:rebc STATUS:               ID:20161020034036 L   I
 OLDACT:UP  16-10-20 15:58 OP:and  STATUS:               ID:20161020033747     3
 OLDACT:UP  16-10-20 15:54 OP:and  STATUS:               ID:20161020033747     3
 OLDACT:UP  16-10-20 15:52 OP:and  STATUS:               ID:20161020033747     3
 OLDACT:UP  16-10-20 15:50 OP:and  STATUS:               ID:20161020033747     3
 OLDACT:UP  16-10-20 15:48 OP:and  STATUS:               ID:20161020033747     3
 OLDACT:REG 16-10-20 13:02 OP:and  STATUS:               ID:20161020033747     3
 2016-10-20-0338-00M.COL___341                                                 6
 STAT SP IPHASW D HRMM SECON CODA AMPLIT PERI AZIMU VELO AIN AR TRES W  DIS CAZ7
 BAR2 EZ IP        340 56.74                             170   -0.2310 24.9 211 
 BAR2 EZ ES        341 12.81                             170   -0.1610 24.9 211 
 BAR2 EZ I         341 14.39        13.3 0.13            167           24.9 211 
 BRR  HZ IP     D  340 58.78                             151   -0.0810 79.7 297 
 BRR  HE ES        341 16.13                             151   -0.1910 79.7 297 
 BRR  HZ I         341 20.37         8.1 0.14            149           79.7 297 
 RUS  HZ EP     D  341  0.57                             145   -0.2210 98.8 181 
 RUS  HN ES        341 19.61                             145   -0.1510 98.8 181 
 RUS  HZ I         341 22.20         8.0 0.42            145           98.8 181 
 TAM  HE ES        341 26.03                             133    0.70 9  146 105 
 PTB  HZ EP   9    341  3.42                             131   -1.34 0  156 260 
 PTB  HN ES        341 24.67                             132   -0.82 9  156 260 
 PTB  HZ I         341 26.88        13.9 0.09            130            156 260 
 OCA  HZ EP        341  5.92                             130    0.33 9  163 350 
 OCA  HE ES        341 28.14                             130   -0.16 9  163 350 
 OCA  HZ I         341 32.55        23.9 0.21            131            163 350 
 SPBC HZ EP        341  5.65                             129   -0.28 9  168 222 
 SPBC HN ES        341 29.44                             129    0.53 9  168 222 
 SPBC HZ I         341 33.31        13.2 0.17            128            168 222 
 NOR  HZ EP   2    341 13.46                             119    0.18 4  241 236 
 NOR  HE ES   3    341 39.93                             119   -2.06 2  241 236 
 NOR  HZ I         341 44.47        11.9 0.16            118            241 236 
 CHI  HZ EP        341 14.93                             118    0.27 8  250 197 
 CHI  HN ES   2    341 45.23                             118    0.77 4  250 197 
 CHI  HZ I         341 53.82         2.5 0.24            118            250 197 
 ROSC BZ EP   9    341 17.85                             117    2.52 0  256 213 
 ROSC BN ES        341 47.85                                   -0.32 8  256 213 
 HEL  HZ EP   2    341 19.11                             115    1.18 4  280 257 
 HEL  HE ES   3    341 49.90                             115   -0.38 2  280 257 
 HEL  HZ I         341 55.74         7.3 0.36            115            280 257 
 PTGC HZ EP        341 19.63                             113   -0.51 7  304 160 
 PTGC HN ES        341 53.05                             113   -1.15 7  304 160 
 GUY2CHZ EP        341 21.82                             113    0.71 7  307 236 
 GUY2CHE ES        341 56.38                             113    0.45 7  307 236 
 GUY2CHZ I         342  2.17         5.2 0.24                           307 236 
 CBOC HZ EP   2    341 25.50                             110    0.93 3  341 253 
 CBOC HN ES   2    342  1.89                             110   -0.21 3  341 253 
 CBOC HZ I         342  4.95         1.7 0.24            110            341 253 
 ANIL HZ EP   9    341 29.14                             109    2.01 0  362 226 
 ANIL HE ES        342  8.30                                   -0.36 6  362 226 
 ANIL HZ I         342 16.54         9.3 0.36            109            362 226 
 PRA  HZ EP   2    341 30.90                             107    0.31 3  395 211 
 PRA  HE ES   2    342 12.56                             107   -0.25 3  395 211 
 PRA  HZ I         342 16.81         3.1 0.28            107            395 211 
 SJC  HZ EP   4 D  341 31.00                             106   -1.98 0  415 326 
 SJC  HE ES   4    342 13.66                             106   -3.40 0  415 326 
 SJC  HZ I         342 17.19         1.6 0.26            107            415 326 
 CRJC HZ EP   2    341 38.62                             104   -0.68 2  469   2 
 CRJC HN ES   2    342 26.60                             104   -1.71 2  469   2 
 URI  HZ EP   4    341 46.94                             101   -2.65 0  556  12 
 URI  HN ES   4    342 44.57                             101   -2.05 0  556  12 
                                                                                
