 2013 1220 0520 38.4 L   6.784 -73.135145.7  RSN  9 0.5 1.5LRSN                1
 GAP=139        1.35       4.8     6.3  9.3  0.4314E+00  0.1676E+02 -0.7385E+01E
 Epicentro: LOS SANTOS - SANTANDER                                             3
 ACTION:UPD 14-01-13 10:19 OP:ep   STATUS:               ID:20131220052038 L   I
 OLDACT:REG 13-12-20 07:26 OP:jn   STATUS:               ID:20131220052000     3
 2013-12-20-0520-00M.COL___285                                                 6
 STAT SP IPHASW D HRMM SECON CODA AMPLIT PERI AZIMU VELO AIN AR TRES W  DIS CAZ7
 BAR2 SZ EP        520 58.17                             171    0.1410 21.8 194 
 BAR2 SZ ES        521 12.29                             171   -1.0210 21.8 194 
 BAR2 SZ I         521 14.87         9.2 0.28            173           21.8 194 
 BRR  HZ EP        521  0.07                             152    0.3810 73.1 299 
 BRR  HN ES        521 17.41                             152    1.1510 73.1 299 
 BRR  HZ I         521 20.64         4.8 0.66            149           73.1 299 
 PAM  SN ES        521 18.15                             151    0.1110 78.0  38 
 PAM  SZ I         521 20.36         4.7 0.56            151           78.0  38 
 RUS  HZ EP        521  2.30                             144    0.2510 98.7 177 
 RUS  HN ES        521 20.30                             144   -0.1710 98.7 177 
 RUS  HZ I         521 21.83         1.9 0.30            150           98.7 177 
 PTB  HZ EP        521  5.22                             132   -0.25 9  149 260 
 PTB  HN ES        521 25.94                             132   -0.62 9  149 260 
 PTB  HZ I         521 32.15         3.6 0.40            133            149 260 
 OCA  HN ES   2    521 29.29                             129    0.15 5  162 353 
 OCA  HZ I         521 43.95         3.6 0.12            129            162 353 
 SPBC HN ES        521 29.51                             129    0.46 9  163 220 
 SPBC HZ I         521 34.24         4.8 0.16            132            163 220 
 ZAR  HE ES        521 36.55                             122    0.05 8  206 292 
 ZAR  HZ I         521 42.54         3.7 0.28            123            206 292 
 SML  HZ EP        521 15.10                             117   -0.19 8  246 335 
 SML  HN ES        521 43.36                             117   -0.67 8  246 335 
                                                                                
