 2015  420 0509 24.9 L   5.866 -73.845 85.9  RSN  7 0.2 1.0LRSN                1
 GAP=159        0.44       1.9     1.3  4.9 -0.1554E-01  0.2205E+01  0.1744E+00E
 Epicentro: JESUS MARIA - SANTANDER                                            3
 ACTION:UPD 15-06-03 16:56 OP:cam  STATUS:               ID:20150420050924 L   I
 OLDACT:REG 15-04-20 13:29 OP:ak   STATUS:               ID:20150420050743     3
 2015-04-20-0507-43M.COL___265                                                 6
 STAT SP IPHASW D HRMM SECON CODA AMPLIT PERI AZIMU VELO AIN AR TRES W  DIS CAZ7
 RUS  HZ EP        5 9 41.93                             132    0.0410 84.4  88 
 RUS  HZ IP   1    5 9 41.93                             132    0.04 7 84.4  88 
 RUS  HE ES        5 9 54.89                             132   -0.2210 84.4  88 
 RUS  HZ I         510  0.44         1.4 0.34            145           84.4  88 
 PTB  HZ EP        5 9 42.66                             126   -0.1410  101 318 
 PTB  HE ES        5 9 56.87                             126    0.1310  101 318 
 PTB  HZ I         510  2.63         1.9 0.38            134            101 318 
 BAR2 EZ EP        5 9 44.15                             124    0.2310  109  42 
 BAR2 EZ ES   1    5 9 58.63                             124   -0.09 7  109  42 
 BAR2 EZ I         510  2.13         6.5 0.50            134            109  42 
 BRR  HZ EP        5 9 46.82                             117    0.10 9  138   6 
 BRR  HN ES        510  3.83                             117    0.11 9  138   6 
 BRR  HZ I         510  8.64         2.7 0.30            125            138   6 
 GUY2CHE ES        510 13.83                             110    0.03 9  183 247 
 GUY2CHZ I         510 21.54         0.8 0.44                           183 247 
 HEL  HN ES        510 15.11                             109    0.08 9  190 281 
 HEL  HZ I         510 22.35         1.1 0.30            117            190 281 
 ZAR  HZ EP   1    5 9 54.89                             107   -0.32 6  212 328 
 ZAR  HN ES   1    510 18.44                             107   -0.39 6  212 328 
 ZAR  HZ I         510 24.25         1.4 0.54            113            212 328 
                                                                                
