 2017  320 0214 53.9 L   6.801 -73.168144.1  RSN  8 0.4 1.8LRSN                1
 GAP=134        0.89       3.3     3.8  5.7 -0.2357E+00  0.3594E+01  0.4550E+01E
 Epicentro: LOS SANTOS - SANTANDER                                             3
 ACTION:UPD 17-05-25 18:42 OP:jn   STATUS:               ID:20170320021453 L   I
 OLDACT:UP  17-03-20 15:21 OP:cog  STATUS:               ID:20170320020747     3
 OLDACT:REG 17-03-20 12:53 OP:cog  STATUS:               ID:20170320020747     3
 2017-03-20-0208-00M.COL___382                                                 6
 STAT SP IPHASW D HRMM SECON CODA AMPLIT PERI AZIMU VELO AIN AR TRES W  DIS CAZ7
 BAR2 EZ EP        215 13.04                             170   -0.2810 23.1 184 
 BAR2 EZ ES        215 28.05                             170   -0.4310 23.1 184 
 BAR2 EZ I         215 29.78        16.6 0.20            171           23.1 184 
 BRR  HZ EP        215 14.88                             153    0.1410 69.0 299 
 BRR  HN ES        215 31.61                             153    0.6110 69.0 299 
 BRR  HZ I         215 35.87        11.2 0.48            154           69.0 299 
 PAM  EZ EP        215 16.02                             150   -0.0110 78.9  41 
 PAM  EN ES        215 33.50                             150    0.2110 78.9  41 
 PAM  EZ I         215 35.26        22.6 0.50            153           78.9  41 
 RUS  HZ EP        215 17.30                             143   -0.2010  101 175 
 RUS  HN ES        215 35.81                             143   -0.1110  101 175 
 RUS  HZ I         215 36.94         8.5 0.32            145            101 175 
 PTB  HZ EP        215 20.14                             132   -0.37 9  145 259 
 PTB  HN ES        215 41.17                             132   -0.09 9  145 259 
 PTB  HZ I         215 43.02         5.3 0.21            134            145 259 
 SPBC HZ EP        215 22.56                             129    0.44 9  162 218 
 SPBC HE ES        215 43.88                             129   -0.26 9  162 218 
 SPBC HZ I         215 45.81        13.0 0.18            131            162 218 
 ZAR  HZ EP   4    215 27.43                             122    1.44 0  202 292 
 ZAR  HE ES        215 50.79                             122   -0.23 9  202 292 
 CHI  HZ EP        215 31.38                             117   -0.06 8  248 195 
 CHI  HN ES        216  1.59                             117    0.86 8  248 195 
 CHI  HZ I         216  4.07         3.8 0.38            119            248 195 
 GUY2CHZ EP   4    215 39.02                             112    1.82 0  299 234 
 GUY2CHN ES   4    216 14.09                             112    3.11 0  299 234 
                                                                                
