 2016  320 0746  4.5 L   6.800 -73.139148.0  RSN  8 0.3 1.8LRSN                1
 GAP=184        0.51       3.1     3.6  6.3  0.3493E+01  0.4373E+01  0.3053E+01E
 Epicentro: LOS SANTOS - SANTANDER                                             3
 ACTION:UPD 16-05-13 21:25 OP:cam  STATUS:               ID:20160320074604 L   I
 OLDACT:REG 16-03-20 14:46 OP:dnl  STATUS:               ID:20160320073747     3
 2016-03-20-0737-47M.COL___294                                                 6
 STAT SP IPHASW D HRMM SECON CODA AMPLIT PERI AZIMU VELO AIN AR TRES W  DIS CAZ7
 BAR2 EZ EP        746 24.49                             171    0.0910 23.5 192 
 BAR2 EZ ES   2    746 40.04                             171    0.12 5 23.5 192 
 BAR2 EZ I         746 41.48         8.8 0.32            166           23.5 192 
 RUS  HZ EP        746 28.36                             144   -0.1010  101 176 
 RUS  HN ES   2    746 47.26                             144    0.10 5  101 176 
 RUS  HZ I         746 48.14         5.1 0.24            143            101 176 
 PTB  HZ EP        746 31.16                             133   -0.55 9  148 259 
 PTB  HE ES   2    746 52.77                             133   -0.16 5  148 259 
 PTB  HZ I         746 55.53         7.6 0.10            129            148 259 
 OCA  HZ EP   2    746 33.48                             130    0.50 5  160 353 
 OCA  HN ES   2    746 54.98                             130   -0.22 5  160 353 
 OCA  HZ I         746 58.86        11.8 0.18            131            160 353 
 ZAR  HZ EP   3    746 37.44                             123    0.29 2  205 292 
 ZAR  HE ES        747  2.86                             123    0.24 9  205 292 
 ZAR  HZ I         747  8.29        10.1 0.66            121            205 292 
 NOR  HZ EP   2    746 40.45                             119    0.03 4  235 235 
 NOR  HE ES   2    747  8.84                             119    0.40 4  235 235 
 NOR  HZ I         747 15.85         5.0 0.22            117            235 235 
 CHI  HZ EP   2    746 42.83                             118    0.49 4  249 195 
 CHI  HN ES   2    747 12.11                             118    0.25 4  249 195 
 CHI  HZ I         747 19.96         3.1 0.26            117            249 195 
 PTGC HZ EP   4    746 47.79                             112   -0.63 0  308 159 
 PTGC HE ES   4    747 20.63                             112   -2.06 0  308 159 
 ORTC HZ EP   2    746 59.19                             107    0.65 3  396 216 
 ORTC HE ES   2    747 40.50                             107   -0.20 3  396 216 
 ORTC HZ I         747 48.39         1.2 0.09            106            396 216 
                                                                                
