 2012  320 0313 28.4 L   6.765 -73.143143.1  RSN  4 0.2 1.3LRSN                1
 GAP=138        0.44       3.5     3.4  6.1 -0.5967E+00  0.1674E+01 -0.2360E+01E
 ACTION:UP  12-03-31 23:21 OP:EP   STATUS:               ID:20120320031328 L   I
 2012-03-20-0310-00M.COL___202                                                 6
 STAT SP IPHASW D HRMM SECON CODA AMPLIT PERI AZIMU VELO SNR AR TRES W  DIS CAZ7
 BRR  HZ EP   1    313 49.50                             151     0.1 7   73 301 
 BRR  HN ES   2    314  6.14                             151     0.4 5   73 301 
 BRR  HZ I         314 11.51        11.5 0.33                            73 301 
 PAM  SZ EP   1    313 50.53                             149     0.0 7   80  38 
 PAM  SE ES   2    314  7.42                             149    -0.3 5   80  38 
 RUS  HZ EP   1    313 51.75                             144     0.2 7   97 176 
 RUS  HN ES   1    314  9.64                             144    -0.1 7   97 176 
 RUS  HZ I         314 11.25         1.5 0.31                            97 176 
 PTB  HZ EP   1    313 54.92                             131    -0.2 7  147 260 
 PTB  HN ES   1    314 15.80                             131    -0.1 7  147 260 
 PTB  HZ I         314 17.59         1.5 0.23                           147 260 
                                                                                
