 2010  720 0908 53.5 L   6.813 -73.028144.0  RSN  8 0.3 1.4LRSN                1
 GAP=172        0.60       5.0     9.1  8.5 -0.2040E+02 -0.5161E+01 -0.8452E+00E
 Epicentro: CEPITA - SANTANDER                                                 3
 ACTION:UPD 10-12-01 15:19 OP:pat  STATUS:               ID:20100720090853 L   I
 2010-07-20-0907-22S.COL___123                                                 6
 STAT SP IPHASW D HRMM SECON CODA AMPLIT PERI AZIMU VELO AIN AR TRES W  DIS CAZ7
 BAR2 SZ EP   2    9 9 12.95                             168    -0.1 5   30 215 
 BAR2 SZ I         9 9 28.18         6.7 0.97                            30 215 
 BRR  HZ EP   1    9 9 15.08                             149     0.0 8   82 293 
 BRR  HE ES   2    9 9 31.89                             149    -0.1 5   82 293 
 BRR  HZ I         9 9 35.05        10.0 0.45                            82 293 
 RUS  HE ES   2    9 9 35.81                             143     0.2 5  102 183 
 RUS  HZ I         9 9 36.98         2.4 0.60                           102 183 
 GUE  SZ EP        9 9 17.72                             140     0.010  113   6 
 GUE  SZ I         9 9 42.63         1.1 0.14                           113   6 
 GRA  SZ EP   1    9 9 17.82                             138    -0.4 7  121  12 
 GRA  SZ ES   1    9 9 37.59                             138     0.1 7  121  12 
 GRA  SZ I         9 9 38.81         3.3 0.33                           121  12 
 OCA  SZ EP   2    9 9 22.53                             129     0.8 5  161 348 
 OCA  SZ I         9 9 48.47         3.2 0.22                           161 348 
 HEL  HZ EP   3    9 9 34.46                             113    -0.6 2  285 256 
 HEL  HZ I         910 13.54         1.3 0.56                           285 256 
 PRA  HZ EP   2    9 9 48.12                             106     0.3 3  400 211 
 PRA  HZ I         910 33.96         1.3 0.05                           400 211 
                                                                                
