 2012  320 0725 33.2 L   6.761 -73.169144.2  RSN  6 0.4 1.4LRSN                1
 GAP=135        0.82       6.0     5.4  7.8  0.4886E+01  0.4803E+01 -0.4270E+01E
 ACTION:UP  12-03-31 23:21 OP:EP   STATUS:               ID:20120320072533 L   I
 2012-03-20-0720-00M.COL___202                                                 6
 STAT SP IPHASW D HRMM SECON CODA AMPLIT PERI AZIMU VELO SNR AR TRES W  DIS CAZ7
 BAR2 SZ EP   1    725 52.54                             172     0.0 7   19 184 
 BAR2 SZ ES   1    726  7.29                             172    -0.3 7   19 184 
 BAR2 SZ I         726  8.80         9.2 0.23                            19 184 
 BRR  HZ EP   1    725 54.36                             152     0.2 7   71 303 
 BRR  HN ES   1    726 11.08                             152     0.6 7   71 303 
 BRR  HZ I         726 15.08         5.8 0.16                            71 303 
 PAM  SZ EP   1    725 55.25                             149    -0.3 7   82  39 
 PAM  SE ES   2    726 12.67                             149    -0.3 5   82  39 
 RUS  HZ EP   1    725 56.64                             145     0.2 7   97 174 
 RUS  HZ I         725 57.83         2.0 0.17                            97 174 
 RUS  HN ES   1    726 14.96                             145     0.3 7   97 174 
 PTB  HZ EP   1    725 59.57                             132    -0.1 7  144 260 
 PTB  HN ES   1    726 19.64                             132    -0.8 7  144 260 
 PTB  HZ I         726 27.32         2.2 0.32                           144 260 
 ZAR  HZ EP   2    726  5.55                             122     0.1 4  203 294 
 ZAR  HN ES   2    726 31.09                             122     0.5 4  203 294 
 ZAR  HZ I         726 36.93         4.0 0.35                           203 294 
                                                                                
