 2017  120 0144 31.6 L   6.795 -73.174153.9  RSN  4 0.3 1.1LRSN                1
 GAP=133        0.77       5.6     6.2  9.6  0.1273E+02 -0.2357E+02 -0.1115E+02E
 Epicentro: LOS SANTOS - SANTANDER                                             3
 ACTION:UPD 17-05-22 16:01 OP:jn   STATUS:               ID:20170120014431 L   I
 OLDACT:UP  17-01-20 14:07 OP:dani STATUS:               ID:20170120013741     3
 OLDACT:UP  17-01-20 14:07 OP:dani STATUS:               ID:20170120013741     3
 OLDACT:REG 17-01-20 12:20 OP:dani STATUS:               ID:20170120013741     3
 2017-01-20-0138-00M.COL___316                                                 6
 STAT SP IPHASW D HRMM SECON CODA AMPLIT PERI AZIMU VELO AIN AR TRES W  DIS CAZ7
 BRR  HZ EP        144 53.85                             155    0.3710 68.7 300 
 BRR  HN ES        145 10.71                             155    0.1510 68.7 300 
 BRR  HZ I         145 14.62         3.9 0.36            150           68.7 300 
 PAM  EZ EP   1    144 54.22                             151   -0.59 7 79.8  41 
 PAM  EZ I         145 14.40         2.2 0.28            133           79.8  41 
 RUS  HZ EP        144 56.30                             145    0.1810  100 174 
 RUS  HE ES        145 15.22                             145   -0.0510  100 174 
 RUS  HZ I         145 16.58         1.0 0.30            148            100 174 
 PTB  HN ES        145 19.93                             134   -0.36 9  145 259 
                                                                                
