 2016  220 0102 42.9 L   7.178 -73.005150.5  RSN  4 0.2 1.3LRSN                1
 GAP=158        0.56       3.5     4.1  5.4 -0.4252E+01 -0.5695E-01  0.6040E+01E
 Epicentro: TONA - SANTANDER                                                   3
 ACTION:UPD 16-03-04 21:27 OP:rebc STATUS:               ID:20160220010242 L   I
 OLDACT:DUP 16-02-20 14:41 OP:drio STATUS:               ID:20160220005748d    3
 2016-02-20-0057-47M.COL___328                                                 6
 STAT SP IPHASW D HRMM SECON CODA AMPLIT PERI AZIMU VELO AIN AR TRES W  DIS CAZ7
 PAM  EZ EP        1 3  4.01                             165    0.1510 38.2  62 
 PAM  EN ES        1 3 20.06                             165   -0.1510 38.2  62 
 PAM  EZ I         1 3 22.70         3.4 0.64            159           38.2  62 
 BRR  HZ EP        1 3  4.68                             151   -0.3110 78.5 264 
 BRR  HZ I         1 3 20.85         7.8 0.36            140           78.5 264 
 BRR  HN ES        1 3 22.45                             151    0.2410 78.5 264 
 RUS  HZ EP        1 3 10.67                             134    0.22 9  142 183 
 RUS  HE ES        1 3 31.91                             134   -0.02 9  142 183 
 RUS  HZ I         1 3 33.68         1.2 0.32            131            142 183 
 SPBC HE ES        1 3 41.61                             123   -0.15 8  206 215 
                                                                                
