 2011  620 0014 39.8 L   6.777 -73.115147.1  RSN 16 0.3 2.6LRSN                1
 GAP=142        0.61       2.4     3.9  4.0 -0.3992E+01  0.4822E+01  0.7551E+00E
 Epicentro: LOS SANTOS - SANTANDER                                             3
 ACTION:UP  11-07-14 19:06 OP:ep   STATUS:               ID:20110620001439 L   I
 2011-06-20-0010-34S.COL___140                                                 6
 STAT SP IPHASW D HRMM SECON CODA AMPLIT PERI AZIMU VELO SNR AR TRES W  DIS CAZ7
 BAR2 SZ IP        014 59.48                             171    -0.110   22 200 
 BAR2 SZ ES   1    015 14.53                             171    -0.4 7   22 200 
 BAR2 SZ I         015 16.24       189.4 0.15                            22 200 
 BTL  SZ EP   1    015  0.31                             171     0.7 7   23 313 
 BRR  HZ EP        015  1.31                             151     0.010   75 299 
 BRR  HE ES   1    015 18.57                             151     0.4 7   75 299 
 BRR  HZ I         015 20.48        80.3 0.14                            75 299 
 PAM  SZ EP   1    015  2.32                             151     0.2 7   77  36 
 PAM  SE ES   1    015 19.66                             151     0.1 7   77  36 
 RUS  HZ EP   1    015  3.35                             145    -0.1 7   98 178 
 RUS  HN ES   1    015 21.84                             145    -0.1 7   98 178 
 RUS  HZ I         015 23.72        53.0 0.27                            98 178 
 BRI  SZ EP   1    015  4.04                             141     0.1 7  110  19 
 BRI  SZ ES   2    015 22.37                             141    -0.4 5  110  19 
 BRI  SZ I         015 28.01        32.2 0.71                           110  19 
 GRA  SZ IP        015  5.29                             137     0.010  127  16 
 GRA  SZ ES   1    015 25.12                             137     0.0 7  127  16 
 GRA  SZ I         015 26.78        36.5 0.35                           127  16 
 OCA  SZ EP   1    015  8.21                             129    -0.3 7  163 352 
 OCA  SZ ES   2    015 30.70                             129    -0.2 5  163 352 
 OCA  SZ I         015 34.33        42.4 0.26                           163 352 
 NOR  SZ EP   1    015 15.54                             119    -0.2 6  236 235 
 NOR  SE ES   2    015 43.42                             119    -0.4 4  236 235 
 CHI  HZ EP   1    015 17.32                             118    -0.1 6  247 196 
 CHI  HE ES   1    015 47.25                             118     0.5 6  247 196 
 CHI  HZ I         015 52.30        21.7 0.55                           247 196 
 HEL  HZ EP   1    015 20.69                             115     0.3 6  275 256 
 HEL  HE ES   2    015 51.80                             115    -0.2 4  275 256 
 HEL  HZ I         015 59.01        17.4 0.28                           275 256 
 RREF HZ EP   2    015 26.49                             111     0.4 3  323 230 
 RREF HN ES   2    016  2.17                             111    -0.1 3  323 230 
 RREF HZ I         016 10.05        27.4 0.32                           323 230 
 DBB  SZ EP   1    015 27.20                             109    -0.5 5  343 275 
 TOL  SZ EP   2    015 28.78                             109     0.6 3  344 225 
 PRA  HZ EP   1    015 32.84                             107    -0.5 4  391 210 
 PRA  HE ES   2    016 15.19                             107     0.1 3  391 210 
 SJA  SZ EP   2    015 34.31                             106     0.1 3  398 193 
                                                                                
