 2016  620 0403 54.0 L   6.742 -73.147154.8  RSN  5 0.3 1.0LRSN                1
 GAP=233        0.65       5.8     6.0  6.5  0.2111E+02  0.1680E+02  0.2831E+01E
 Epicentro: LOS SANTOS - SANTANDER                                             3
 ACTION:UPD 16-07-21 22:20 OP:rebc STATUS:               ID:20160620040354 L   I
 OLDACT:UP  16-06-20 17:10 OP:ak   STATUS:               ID:20160620035744     3
 OLDACT:REG 16-06-20 13:17 OP:ar   STATUS:               ID:20160620035744     3
 2016-06-20-0357-44M.COL___340                                                 6
 STAT SP IPHASW D HRMM SECON CODA AMPLIT PERI AZIMU VELO AIN AR TRES W  DIS CAZ7
 BAR2 EZ EP   2    4 4 13.78                             174   -0.85 5 17.0 193 
 BAR2 EZ ES        4 4 30.72                             174    0.0110 17.0 193 
 BRR  HZ EP   2    4 4 15.83                             153   -0.49 5 74.3 303 
 BRR  HN ES        4 4 33.89                             153    0.1710 74.3 303 
 RUS  HN ES        4 4 37.18                             147    0.0510 94.2 176 
 PTB  HZ EP        4 4 21.94                             134    0.32 9  146 261 
 PTB  HN ES        4 4 42.92                             134   -0.23 9  146 261 
 PTB  HZ I         4 4 47.01         1.0 0.06                           146 261 
 ZAR  HZ EP   2    4 4 27.94                             124    0.64 4  206 294 
 ZAR  HN ES        4 4 53.15                             124   -0.12 8  206 294 
 ZAR  HZ I         4 4 58.92         0.8 0.16                           206 294 
                                                                                
