 2017  920 0053 22.9 L   6.785 -73.139136.0  RSN  7 0.4 1.8LRSN                1
 GAP=138        0.96       4.3     4.6  7.1 -0.1476E+01  0.1290E+02  0.4886E+01E
 Epicentro: LOS SANTOS - SANTANDER                                             3
 ACTION:UPD 17-10-05 19:14 OP:rebc STATUS:               ID:20170920005322 L   I
 OLDACT:REG 17-09-20 13:07 OP:leo  STATUS:               ID:20170920004740     3
 2017-09-20-0048-00M.COL___444                                                 6
 STAT SP IPHASW D HRMM SECON CODA AMPLIT PERI AZIMU VELO AIN AR TRES W  DIS CAZ7
 BRR  HZ EP        053 42.66                             150   -0.4810 72.6 299 
 BRR  HN ES        053 59.08                             150    0.2010 72.6 299 
 BRR  HZ I         053 59.50        14.9 0.14            149           72.6 299 
 PAM  EZ IP     C  053 43.94                             149   -0.2510 78.2  38 
 PAM  EN ES   1    054  1.08                             149    0.33 7 78.2  38 
 RUS  HZ EP        053 45.29                             142   -0.3310 98.9 176 
 RUS  HN ES        054  3.62                             142    0.3110 98.9 176 
 RUS  HZ I         054  5.10         7.1 0.34            144           98.9 176 
 ZAR  HZ EP        053 55.14                             120    0.23 8  205 292 
 ZAR  HN ES   1    054 19.91                             120    0.06 6  205 292 
 ZAR  HZ I         054 25.22         7.2 0.38            121            205 292 
 NOR  HZ EP        053 57.85                             116   -0.24 8  234 235 
 NOR  HN ES        054 24.88                             116   -0.62 8  234 235 
 NOR  HZ I         054 25.79         5.3 0.24            117            234 235 
 GUY2CHZ EP        054  6.90                             110    0.82 7  301 235 
 GUY2CHN ES   1    054 40.31                             110    0.59 5  301 235 
 GUY2CHZ I         054 47.90         2.8 0.38                           301 235 
 CBOC HZ EP        054 10.22                             108    0.72 7  334 252 
 CBOC HN ES   1    054 45.10                             108   -0.70 5  334 252 
                                                                                
