 2011  920 0415 29.1 L   6.790 -73.110147.1  RSN 17 0.4 3.0LRSN                1
 GAP=118        0.62       2.3     3.3  5.0 -0.3337E+00  0.5024E+01  0.2605E+01E
 Epicentro: LOS SANTOS - SANTANDER                                             3
 ACTION:UPD 12-07-13 15:58 OP:ep   STATUS:               ID:20110920041529 L   I
 2011-09-20-0412-58S.COL___165                                                 6
 STAT SP IPHASW D HRMM SECON CODA AMPLIT PERI AZIMU VELO AIN AR TRES W  DIS CAZ7
 BTL  SZ EP        415 49.12                             171    0.2310 22.5 309 
 BAR2 SZ IP        415 48.84                             171   -0.0710 23.3 200 
 BAR2 SZ ES   2    416  3.85                             171   -0.50 5 23.3 200 
 BAR2 SZ I         416  6.75       311.0 0.35                          23.3 200 
 BRR  HZ EP        415 50.65                             151    0.0110 75.2 298 
 BRR  HE ES   2    416  7.86                             151    0.43 5 75.2 298 
 BRR  HZ I         416 11.54       206.4 0.45                          75.2 298 
 PAM  SZ EP        415 51.62                             152    0.2410 75.8  37 
 PAM  SN ES   2    416  8.75                             152    0.00 5 75.8  37 
 RUS  HZ EP        415 52.70                             144   -0.2110 99.3 178 
 RUS  HN ES   2    416 11.15                             144   -0.32 5 99.3 178 
 RUS  HZ I         416 14.24        64.7 0.36                          99.3 178 
 BRI  SZ IP        415 53.28                             142    0.1710  108  19 
 OCA  SZ EP        415 57.08                             130   -0.60 9  162 352 
 OCA  SZ ES   2    416 20.04                             130    0.08 5  162 352 
 OCA  SZ I         416 23.11       157.3 0.27                           162 352 
 YOP  SZ EP        415 59.35                             127    0.36 9  176 154 
 YOP  SE ES   1    416 22.18                             127   -0.12 7  176 154 
 YOP  SZ I         416 26.42        33.0 0.44                           176 154 
 ZAR  HZ EP   2    416  2.10                             122    0.03 4  208 292 
 ZAR  HN ES   2    416 27.49                             122   -0.28 4  208 292 
 ZAR  HZ I         416 33.41        94.2 0.42                           208 292 
 NOR  SZ EP        416  4.72                             118   -0.48 8  237 235 
 NOR  SN ES   2    416 33.37                             118    0.02 4  237 235 
 CHI  HZ EP   2    416  6.80                             117   -0.09 4  249 196 
 CHI  HN ES   2    416 36.48                             117    0.12 4  249 196 
 CHI  HZ I         416 46.12        53.3 0.44                           249 196 
 HEL  HZ EP   2    416 10.50                             115    0.71 4  276 256 
 HEL  HN ES   2    416 42.23                             115    0.71 4  276 256 
 HEL  HZ I         416 47.74        50.7 0.44                           276 256 
 VIL  SZ EP   2    416 12.53                             112   -0.04 4  303 192 
 VIL  SE ES   2    416 46.86                             112    0.40 4  303 192 
 VIL  SZ I         416 52.27        39.2 0.45                           303 192 
 GUY  SZ EP   1    416 14.17                             112    0.82 5  306 236 
 GUY  SZ I         416 59.93        78.4 0.62                           306 236 
 RREF HZ EP        416 15.90                             111    0.32 7  324 230 
 RREF HN ES   2    416 51.85                             111    0.03 3  324 230 
 RREF HZ I         416 58.78        60.1 0.54                           324 230 
 TOL  SZ EP   1    416 17.45                             109   -0.21 5  346 225 
 PRA  HZ EP        416 22.09                             107   -0.71 6  393 210 
 PRA  HN ES   2    417  4.78                             107    0.10 3  393 210 
                                                                                
