 2017  620 0547 44.8 L   6.805 -73.181151.3  RSN 10 0.5 1.7LRSN                1
 GAP=255        1.03       4.5     6.3  7.8  0.1316E+01 -0.6635E+01  0.6497E+01E
 Epicentro: ZAPATOCA - SANTANDER                                               3
 ACTION:UPD 17-09-14 16:53 OP:jn   STATUS:               ID:20170620054744 L   I
 OLDACT:DUP 17-06-20 16:37 OP:l    STATUS:               ID:20170620053760d    3
 2017-06-20-0537-59S.COL___276                                                 6
 STAT SP IPHASW D HRMM SECON CODA AMPLIT PERI AZIMU VELO AIN AR TRES W  DIS CAZ7
 BRR  HZ EP        548  6.46                             155    0.1010 67.5 300 
 BRR  HN ES        548 23.58                             155    0.4110 67.5 300 
 PTB  HZ EP        548 11.15                             134   -0.75 9  144 258 
 PTB  HN ES        548 32.31                             134   -0.72 9  144 258 
 PTB  HZ I         548 33.51         4.4 0.16            132            144 258 
 SPBC HZ EP        548 13.72                             131    0.17 9  161 218 
 SPBC HN ES        548 35.93                             131   -0.04 9  161 218 
 ZAR  HZ EP        548 17.50                             124    0.27 9  200 292 
 ZAR  HE ES        548 42.42                             124   -0.09 9  200 292 
 ZAR  HZ I         548 48.12         3.7 0.19            123            200 292 
 CHI  HZ EP        548 22.95                             118    0.18 8  248 194 
 CHI  HN ES        548 52.32                             118   -0.06 8  248 194 
 CHI  HZ I         548 57.88         2.4 0.20            117            248 194 
 ROSC BZ EP   9    548 25.48                             118    2.41 0  251 210 
 ROSC BN ES        548 54.86                                   -0.46 8  251 210 
 ROSC BZ I         549  4.42         2.8 0.29            116            251 210 
 HEL  HZ EP        548 24.30                             116   -0.60 8  268 255 
 HEL  HN ES        548 56.93                             116    0.75 8  268 255 
 HEL  HZ I         549  2.28         2.6 0.25            115            268 255 
 GUY2CHZ EP   2    548 29.29                             114    0.94 4  298 234 
 GUY2CHN ES        549  3.00                             114    0.68 7  298 234 
 GUY2CHZ I         549 10.74         2.1 0.09                           298 234 
 PTGC HZ EP   4    548 28.02                             112   -1.12 0  311 158 
 PTGC HN ES   4    548 59.73                             112   -3.99 0  311 158 
 PTGC HZ I         549  6.02         4.6 0.17            112            311 158 
 CBOC HN ES        549  7.80                             111   -0.21 7  330 252 
 SJC  HZ EP   4    548 38.91                             107   -1.34 0  407 327 
 SJC  HN ES   4    549 19.98                             107   -3.51 0  407 327 
                                                                                
