 2016 1020 0501 13.8 L   6.523 -73.718 98.1  RSN  8 0.3 1.4LRSN                1
 GAP= 89        0.81       3.5     4.1  6.0 -0.4166E+01 -0.1571E+01  0.4074E+01E
 Epicentro: SANTA HELENA DEL OPON - SANTANDER                                  3
 ACTION:UPD 16-11-09 19:21 OP:rebc STATUS:               ID:20161020050113 L   I
 OLDACT:UP  16-10-20 16:46 OP:and  STATUS:               ID:20161020045646     3
 OLDACT:UP  16-10-20 16:39 OP:and  STATUS:               ID:20161020045646     3
 OLDACT:UP  16-10-20 16:37 OP:and  STATUS:               ID:20161020045646     3
 OLDACT:REG 16-10-20 13:15 OP:and  STATUS:               ID:20161020045646     3
 2016-10-20-0457-00M.COL___337                                                 6
 STAT SP IPHASW D HRMM SECON CODA AMPLIT PERI AZIMU VELO AIN AR TRES W  DIS CAZ7
 BAR2 EZ IP     D  5 1 29.46                             146   -0.1510 59.7  83 
 BAR2 EZ ES        5 1 42.27                             146    0.3710 59.7  83 
 BAR2 EZ I         5 1 43.51        26.6 0.36            149           59.7  83 
 BRR  HZ EP     D  5 1 29.43                             144   -0.1810 64.6   1 
 BRR  HE ES        5 1 41.84                             144   -0.0610 64.6   1 
 BRR  HZ I         5 1 43.75         6.2 0.12            148           64.6   1 
 PTB  HZ IP   9 C  5 1 29.98                             137   -0.99 0 81.7 271 
 PTB  HN ES        5 1 43.24                             139   -0.0910 81.7 271 
 PTB  HZ I         5 1 44.65        11.5 0.16            138           81.7 271 
 RUS  HZ EP        5 1 33.02                             131   -0.1210 99.0 135 
 RUS  HN ES   2    5 1 48.14                             131   -0.06 5 99.0 135 
 RUS  HZ I         5 1 49.11         3.7 0.16            133           99.0 135 
 SPBC HZ EP   4    5 1 36.23                             130    3.16 0  104 202 
 SPBC HE ES        5 1 47.99                             130   -0.0710  104 202 
 SPBC HZ I         5 1 52.60         4.5 0.18            130            104 202 
 NOR  HZ EP   9    5 1 40.97                             116    1.52 0  166 230 
 NOR  HN ES        5 2  0.05                                   -0.89 9  166 230 
 NOR  HZ I         5 2  1.40         2.5 0.16            116            166 230 
 HEL  HZ EP   2    5 1 44.10                             111   -0.02 4  204 260 
 HEL  HN ES   4    5 2  9.57                             111    1.84 0  204 260 
 GUY2CHZ EP   2    5 1 48.43                             109    0.88 4  232 232 
 GUY2CHN ES   2    5 2 14.36                             109    0.52 4  232 232 
 GUY2CHZ I         5 2 21.13         1.6 0.38                           232 232 
                                                                                
