 2016  520 0505 49.1 L   6.807 -73.125152.6  RSN 10 0.5 1.9LRSN                1
 GAP=139        1.18       4.0     4.7  6.7 -0.3926E+01  0.1011E+02  0.7238E+00E
 Epicentro: LOS SANTOS - SANTANDER                                             3
 ACTION:UPD 16-08-18 17:47 OP:cam  STATUS:               ID:20160520050549 L   I
 OLDACT:UP  16-05-20 15:38 OP:mh   STATUS:               ID:20160520045742     3
 OLDACT:REG 16-05-20 12:31 OP:mh   STATUS:               ID:20160520045742     3
 2016-05-20-0457-42M.COL___312                                                 6
 STAT SP IPHASW D HRMM SECON CODA AMPLIT PERI AZIMU VELO AIN AR TRES W  DIS CAZ7
 BAR2 EZ EP        5 6  9.50                             170   -0.0810 24.6 195 
 BAR2 EZ ES        5 6 25.10                             170   -0.4510 24.6 195 
 BAR2 EZ I         5 6 27.61         9.3 0.42            168           24.6 195 
 BRR  HZ IP     D  5 6 11.47                             153    0.3910 72.8 297 
 BRR  HN ES        5 6 29.22                             153    0.9910 72.8 297 
 BRR  HZ I         5 6 33.32        12.5 0.28            149           72.8 297 
 PAM  EZ EP        5 6 12.43                             153    0.5010 75.4  39 
 PAM  EN ES        5 6 29.54                             153   -0.2010 75.4  39 
 PAM  EZ I         5 6 31.76        10.4 0.40            157           75.4  39 
 RUS  HZ EP        5 6 13.64                             145    0.0710  101 177 
 RUS  HZ I         5 6 14.64         5.0 0.38            147            101 177 
 RUS  HN ES        5 6 33.05                             145    0.3910  101 177 
 PTB  HZ EP        5 6 16.20                             133   -0.64 9  150 259 
 PTB  HN ES        5 6 37.76                             133   -0.72 9  150 259 
 PTB  HZ I         5 6 43.46        12.7 0.36            131            150 259 
 OCA  HZ EP   1    5 6 18.10                             131    0.19 7  160 352 
 OCA  HN ES        5 6 39.53                             131   -0.85 9  160 352 
 OCA  HZ I         5 6 45.29        16.8 0.42            132            160 352 
 SPBC HZ EP        5 6 18.50                             130    0.18 9  165 219 
 SPBC HN ES        5 6 40.65                             130   -0.46 9  165 219 
 SPBC HZ I         5 6 47.48        19.9 0.34            130            165 219 
 ZAR  HZ EP        5 6 22.03                             124   -0.15 8  206 292 
 ZAR  HN ES        5 6 48.58                             124    0.59 8  206 292 
 ZAR  HZ I         5 6 54.68        15.4 0.28            123            206 292 
 NOR  HZ EP        5 6 25.29                             120   -0.18 8  237 235 
 NOR  HN ES        5 6 53.95                             120    0.10 8  237 235 
 NOR  HZ I         5 6 57.14         9.2 0.18            120            237 235 
 CBOC HZ EP        5 6 36.63                             111    0.05 7  336 252 
 CBOC HN ES        5 7 13.88                             111    0.27 7  336 252 
 CBOC HZ I         5 7 34.79         1.7 0.48            111            336 252 
                                                                                
