 2015  720 0218  3.5 L   6.808 -73.166140.1  RSN 17 0.5 2.4LRSN                1
 GAP=134        1.13       3.0     4.0  5.9 -0.2526E+01  0.9755E+01  0.2492E+01E
 Epicentro: LOS SANTOS - SANTANDER                                             3
 ACTION:UPD 15-09-08 21:49 OP:cam  STATUS:               ID:20150720021803 L   I
 OLDACT:REG 15-07-20 14:25 OP:stll STATUS:               ID:20150720020750     3
 2015-07-20-0207-50M.COL___334                                                 6
 STAT SP IPHASW D HRMM SECON CODA AMPLIT PERI AZIMU VELO AIN AR TRES W  DIS CAZ7
 BAR2 EZ IP     C  218 22.69                             170    0.2410 23.9 184 
 BAR2 EZ ES        218 37.23                             170   -0.0110 23.9 184 
 BAR2 EZ I         218 40.35        40.1 0.44            168           23.9 184 
 PAM  EZ EP        218 25.42                             149    0.2610 78.2  41 
 PAM  EN ES        218 42.49                             149    0.4410 78.2  41 
 PAM  EZ I         218 44.98        22.2 0.68            152           78.2  41 
 RUS  HZ EP     C  218 26.49                             142   -0.2810  102 175 
 RUS  HN ES        218 44.43                             142   -0.4910  102 175 
 RUS  HZ I         218 48.05        20.4 0.24            144            102 175 
 CPBEREZ EP        218 29.55                             131   -0.27 9  146 258 
 CPBEREN ES        218 50.30                             131   -0.06 9  146 258 
 OCA  HZ EP        218 30.53                             128   -0.73 9  159 354 
 OCA  HN ES        218 53.08                             128    0.15 9  159 354 
 OCA  HZ I         218 57.51        64.2 0.30            127            159 354 
 ZAR  HZ EP        218 34.98                             121   -0.35 9  202 292 
 ZAR  HN ES        219  0.81                             121    0.65 9  202 292 
 ZAR  HZ I         219  6.93        26.9 0.30            119            202 292 
 NOR  HZ EP        218 38.26                             117   -0.50 8  233 234 
 NOR  HN ES        219  4.97                             117   -1.30 8  233 234 
 NOR  HZ I         219 12.05        22.9 0.28            116            233 234 
 CHI  HZ EP        218 40.68                             116   -0.23 8  249 195 
 CHI  HZ I         218 43.26         8.3 0.42            116            249 195 
 CHI  HN ES        219  9.81                             116   -0.28 8  249 195 
 ROSC BZ EP     D  218 42.40                             115    1.14 8  252 210 
 ROSC BN ES        219 11.33                             115    0.60 8  252 210 
 ROSC BZ I         219 18.22        20.9 0.45            115            252 210 
 HEL  HZ EP        218 43.25                             114    0.04 8  270 256 
 HEL  HN ES        219 14.29                             114    0.11 8  270 256 
 HEL  HZ I         219 23.13        14.3 0.28            112            270 256 
 GUY2CHZ EP        218 46.76                             111    0.07 7  300 234 
 GUY2CHN ES        219 20.34                             111   -0.05 7  300 234 
 GUY2CHZ I         219 29.05        16.3 0.54                           300 234 
 PTGC HZ EP   4    218 45.44                             110   -1.84 0  310 158 
 PTGC HN ES   4    219 17.66                             110   -3.78 0  310 158 
 CBOC HZ EP     C  218 50.36                             109    0.39 7  332 252 
 CBOC HE ES   4    219 26.07                             109   -0.14 0  332 252 
 CBOC HZ I         219 40.50         5.0 0.64            108            332 252 
 DBB  SZ EP        218 49.48                             109   -1.00 7  337 274 
 DBB  SZ I         219 29.09        21.9 0.52            108            337 274 
 TOL  SZ EP        218 52.28                             108    0.86 7  343 224 
 TOL  SN ES        219 29.02                             108    0.22 7  343 224 
 TOL  SZ I         219 34.64         9.9 0.32            108            343 224 
 MON  HZ EP   9    218 49.97                             108   -2.05 0  351 308 
 MON  HN ES        219 27.80                                   -0.02 6  351 308 
 MON  HZ I         219 31.69         6.1 0.34            107            351 308 
 ANIL HZ EP        218 52.71                             107   -0.26 6  356 224 
 ANIL HE ES        219 32.30                             107    0.73 6  356 224 
 ANIL HZ I         219 36.49        23.9 0.32            107            356 224 
 ORTC HZ EP        218 57.42                             105    0.27 6  395 216 
 ORTC HN ES        219 39.73                             105    0.73 6  395 216 
 ORTC HZ I         219 45.98         8.7 0.68            105            395 216 
                                                                                
