 2017  520 0419 57.3 L   6.718 -73.174153.8  RSN  4 0.2 1.3LRSN                1
 GAP=228        0.48       3.1     3.6  4.9  0.3312E+01 -0.1448E+01 -0.1221E+01E
 Epicentro: VILLANUEVA - SANTANDER                                             3
 ACTION:UPD 17-06-16 13:37 OP:jn   STATUS:               ID:20170520041957 L   I
 OLDACT:REG 17-05-20 12:23 OP:dnl  STATUS:               ID:20170520041232     3
 2017-05-20-0418-00M.COL___353                                                 6
 STAT SP IPHASW D HRMM SECON CODA AMPLIT PERI AZIMU VELO AIN AR TRES W  DIS CAZ7
 BRR  HZ EP        420 19.29                             153   -0.1610 73.4 306 
 BRR  HN ES        420 36.81                             153    0.0810 73.4 306 
 BRR  HZ I         420 47.23         5.3 0.36            154           73.4 306 
 RUS  HZ EP        420 21.57                             148    0.2910 91.9 174 
 RUS  HN ES        420 39.81                             148   -0.1610 91.9 174 
 RUS  HZ I         420 41.68         1.9 0.42            159           91.9 174 
 PTB  HZ EP        420 24.40                             135   -0.14 9  143 262 
 PTB  HN ES        420 45.88                             135    0.09 9  143 262 
 PTB  HZ I         420 47.42         2.5 0.52            142            143 262 
 SPBC HN ES        420 47.69                             133   -0.01 9  154 220 
                                                                                
