 2015 1020 0519 56.4 L   6.801 -73.110145.2  RSN  9 0.4 1.7LRSN                1
 GAP=141        0.96       3.2     4.3  6.5 -0.3314E+00  0.9379E+01 -0.7863E+00E
 Epicentro: LOS SANTOS - SANTANDER                                             3
 ACTION:UPD 15-12-22 20:41 OP:cam  STATUS:               ID:20151020051956 L   I
 OLDACT:UP  15-10-20 19:58 OP:mh   STATUS:               ID:20151020051746     3
 OLDACT:UP  15-10-20 19:55 OP:mh   STATUS:               ID:20151020051746     3
 OLDACT:REG 15-10-20 12:37 OP:mh   STATUS:               ID:20151020051746     3
 2015-10-20-0517-46M.COL___337                                                 6
 STAT SP IPHASW D HRMM SECON CODA AMPLIT PERI AZIMU VELO AIN AR TRES W  DIS CAZ7
 BAR2 EZ EP        520 16.16                             170    0.1410 24.4 199 
 BAR2 EZ I         520 32.19         9.7 0.34            170           24.4 199 
 BRR  HZ EP        520 18.06                             151    0.3310 74.7 297 
 BRR  HN ES        520 34.75                             151    0.4210 74.7 297 
 BRR  HZ I         520 36.39         9.2 0.14            150           74.7 297 
 PAM  EZ EP        520 18.83                             152    0.3910 74.9  37 
 PAM  EN ES        520 35.60                             152   -0.0110 74.9  37 
 PAM  EZ I         520 37.84         7.0 0.44            152           74.9  37 
 RUS  HZ EP        520 19.71                             144   -0.4110  100 178 
 RUS  HN ES        520 38.37                             144   -0.2310  100 178 
 RUS  HZ I         520 40.27         2.9 0.42            144            100 178 
 OCA  HZ EP   1    520 25.71                             129    0.96 7  161 352 
 OCA  HN ES   1    520 46.03                             129   -0.80 7  161 352 
 OCA  HZ I         520 49.25        13.2 0.34            129            161 352 
 SPBC HZ EP        520 25.26                             128    0.12 9  166 220 
 SPBC HN ES   1    520 46.92                             128   -0.61 7  166 220 
 SPBC HZ I         520 50.57         4.7 0.10            128            166 220 
 ZAR  HZ EP        520 29.16                             122   -0.07 8  208 292 
 ZAR  HN ES        520 54.82                             122    0.02 8  208 292 
 ZAR  HZ I         521  0.54         4.5 0.32            121            208 292 
 SML  HZ EP        520 32.57                             117   -0.64 8  245 334 
 SML  HN ES        521  1.37                             117   -0.52 8  245 334 
 SML  HZ I         521  9.67         6.0 0.20            117            245 334 
 HEL  HZ EP        520 37.37                             114    0.32 7  276 256 
 HEL  HN ES        521  8.85                             114    0.12 7  276 256 
 HEL  HZ I         521 16.30         2.2 0.26            114            276 256 
                                                                                
