 2017  220 0231 24.2 L   6.568 -73.588103.1  RSN  8 0.5 1.3LRSN                1
 GAP= 64        1.13       5.6     4.4  7.7  0.6792E+01  0.7626E+01  0.1697E+02E
 Epicentro: EL CARMEN - SANTANDER                                              3
 ACTION:UPD 17-05-24 15:38 OP:jn   STATUS:               ID:20170220023124 L   I
 OLDACT:UP  17-02-20 14:24 OP:dani STATUS:               ID:20170220022741     3
 OLDACT:UP  17-02-20 14:22 OP:dani STATUS:               ID:20170220022741     3
 OLDACT:UP  17-02-20 14:22 OP:dani STATUS:               ID:20170220022741     3
 OLDACT:UP  17-02-20 14:21 OP:dani STATUS:               ID:20170220022741     3
 OLDACT:UP  17-02-20 14:21 OP:dani STATUS:               ID:20170220022741     3
 OLDACT:REG 17-02-20 12:19 OP:dani STATUS:               ID:20170220022741     3
 2017-02-20-0228-00M.COL___351                                                 6
 STAT SP IPHASW D HRMM SECON CODA AMPLIT PERI AZIMU VELO AIN AR TRES W  DIS CAZ7
 BAR2 EZ EP     C  231 39.58                             155   -0.0510 44.9  87 
 BAR2 EZ ES        231 51.98                             155    0.3310 44.9  87 
 BRR  HZ EP        231 40.38                             146    0.1310 61.1 347 
 BRR  HE ES        231 53.10                             146    0.3410 61.1 347 
 BRR  HZ I         231 58.12         6.6 0.24            133           61.1 347 
 RUS  HZ EP        231 42.80                             135   -0.6310 93.3 143 
 RUS  HZ I         232  0.69         2.5 0.30            120           93.3 143 
 PTB  HZ EP     C  231 42.42                             133   -0.6110 96.1 268 
 PTB  HN ES        231 57.25                             133   -0.4510 96.1 268 
 PTB  HZ I         231 58.53         8.2 0.44            129           96.1 268 
 PAM  EZ EP        231 46.54                             124   -0.3610  130  49 
 PAM  EZ I         232  8.31         3.3 0.38            110            130  49 
 ZAR  HZ EP        231 51.07                             115    0.18 9  174 306 
 ZAR  HN ES        232 12.03                             115    0.35 9  174 306 
 ZAR  HZ I         232 15.77         7.7 0.60            108            174 306 
 CHI  HZ EP        231 56.91                             110    0.85 8  215 184 
 CHI  HN ES   4    232 23.57                             110    2.67 0  215 184 
 CHI  HZ I         232 25.73         0.6 0.24            103            215 184 
 PRA  HZ EP        232 11.80                              99    0.62 6  347 205 
                                                                                
