 2012  720 0344 37.4 L   6.801 -73.139151.6  RSN  7 0.5 1.7LRSN                1
 GAP=184        1.16       6.4     7.8 10.4  0.7062E+01  0.2065E+02 -0.9139E+00E
 Epicentro: LOS SANTOS - SANTANDER                                             3
 ACTION:UPD 12-08-14 11:46 OP:ep   STATUS:               ID:20120720034437 L   I
 2012-07-20-0340-00M.COL___215                                                 6
 STAT SP IPHASW D HRMM SECON CODA AMPLIT PERI AZIMU VELO AIN AR TRES W  DIS CAZ7
 BAR2 SZ EP        344 57.90                             171     0.210   24 192 
 BAR2 SZ ES        345 13.26                             171    -0.310   24 192 
 BAR2 SZ I         345 15.00         8.8 0.29            167             24 192 
 BRR  HZ IP     C  344 59.80                             153     0.610   72 298 
 BRR  HN ES   1    345 17.16                             153     1.0 7   72 298 
 RUS  HZ EP   1    345  1.75                             145     0.0 7  101 176 
 RUS  HN ES   1    345 20.49                             145    -0.2 7  101 176 
 RUS  HZ I         345 21.75         4.5 0.27            146            101 176 
 PTB  HZ EP        345  4.48                             133    -0.4 9  149 259 
 PTB  HN ES   1    345 25.85                             133    -0.5 7  149 259 
 PTB  HZ I         345 33.17         5.8 0.53            131            149 259 
 OCA  HN ES   1    345 27.99                             131    -0.6 7  160 353 
 ZAR  HN ES   1    345 35.67                             123    -0.3 6  205 292 
 ZAR  HZ I         345 43.01        10.5 0.27            123            205 292 
 NOR  SN ES   1    345 41.92                             120     0.2 6  235 235 
