 2016  820 0630 12.5 L   6.797 -73.132153.1  RSN 12 0.5 2.0LRSN                1
 GAP=100        1.20       4.8     3.6  6.4 -0.9825E+00  0.4191E+01 -0.6464E-01E
 Epicentro: LOS SANTOS - SANTANDER                                             3
 ACTION:UPD 16-10-29 15:37 OP:rebc STATUS:               ID:20160820063012 L   I
 OLDACT:UP  16-08-20 18:40 OP:ar   STATUS:               ID:20160820062746     3
 OLDACT:UP  16-08-20 18:38 OP:ar   STATUS:               ID:20160820062746     3
 OLDACT:REG 16-08-20 14:36 OP:ar   STATUS:               ID:20160820062746     3
 2016-08-20-0627-46M.COL___349                                                 6
 STAT SP IPHASW D HRMM SECON CODA AMPLIT PERI AZIMU VELO AIN AR TRES W  DIS CAZ7
 BAR2 EZ EP        630 32.81                             171   -0.2010 23.4 194 
 BAR2 EZ ES        630 48.68                             171   -0.3410 23.4 194 
 BAR2 EZ I         630 50.77        18.1 0.22                          23.4 194 
 BRR  HZ IP     C  630 34.68                             153    0.1510 72.7 298 
 BRR  HN ES        630 52.60                             153    0.8910 72.7 298 
 BRR  HZ I         630 55.17        11.3 0.17                          72.7 298 
 PAM  EZ EP        630 35.59                             152    0.1310 76.6  39 
 PAM  EN ES        630 52.88                             152   -0.4910 76.6  39 
 PAM  EZ I         630 54.87        15.8 0.58                          76.6  39 
 RUS  HZ EP        630 36.62                             145   -0.3310  100 177 
 RUS  HN ES        630 55.72                             145   -0.3110  100 177 
 RUS  HZ I         630 57.00         5.8 0.18                           100 177 
 PTB  HZ EP        630 39.84                             133   -0.36 9  149 259 
 PTB  HN ES        631  0.84                             133   -0.97 9  149 259 
 PTB  HZ I         631  7.96        20.1 0.38                           149 259 
 TAM  HZ EP        630 40.99                             132    0.36 9  154 105 
 TAM  HN ES        631  2.97                             132    0.40 9  154 105 
 SPBC HZ EP        630 41.72                             130    0.08 9  164 219 
 SPBC HN ES        631  5.18                             130    0.81 9  164 219 
 SPBC HZ I         631  7.08        21.6 0.12                           164 219 
 ZAR  HZ EP        630 45.53                             124   -0.06 8  206 292 
 ZAR  HN ES        631 12.07                             124    0.68 8  206 292 
 ZAR  HZ I         631 16.58        11.3 0.26                           206 292 
 NOR  HZ EP        630 49.15                             120    0.37 8  236 235 
 NOR  HN ES        631 17.03                             120   -0.05 8  236 235 
 NOR  HZ I         631 20.47         6.0 0.19                           236 235 
 ROSC BZ EP   4    630 53.60                             118    2.51 0  253 211 
 ROSC BN ES   4    631 22.82                             118    1.63 0  253 211 
 ROSC BZ I         631 30.53         7.3 0.35                           253 211 
 URE  HZ EP        630 53.39                             115   -0.71 7  285 292 
 URE  HN ES   4    631 25.03                             115   -1.52 0  285 292 
 URE  HZ I         631 37.15         5.8 0.16                           285 292 
 GUY2CHZ EP   9    630 58.97                             114    2.40 0  302 235 
 GUY2CHN ES        631 33.23                             113   -0.12 7  302 235 
 GUY2CHZ I         631 37.66         5.1 0.36                           302 235 
                                                                                
