 2014  220 0731 19.4 L   6.801 -73.179144.2  RSN  7 0.4 1.3LRSN                1
 GAP=132        0.83       3.9     4.4  8.5  0.4961E-01  0.1479E+02 -0.1703E+01E
 Epicentro: LOS SANTOS - SANTANDER                                             3
 ACTION:UPD 14-03-10 08:11 OP:ep   STATUS:               ID:20140220073119 L   I
 OLDACT:REG 14-02-20 12:18 OP:cam  STATUS:               ID:20140220073000     3
 2014-02-20-0730-00M.COL___212                                                 6
 STAT SP IPHASW D HRMM SECON CODA AMPLIT PERI AZIMU VELO AIN AR TRES W  DIS CAZ7
 BAR2 SZ EP   1    731 38.74                             170   -0.06 7 23.0 181 
 PAM  SZ EP        731 41.58                             150    0.0310 79.7  42 
 PAM  SN ES        731 58.74                             150   -0.1110 79.7  42 
 PAM  SZ I         731 59.17         2.6 0.56            156           79.7  42 
 RUS  HE ES   1    732  1.73                             143    0.32 7  101 174 
 PTB  HZ EP        731 45.77                             132   -0.11 9  144 259 
 PTB  HN ES   1    732  5.70                             132   -0.86 7  144 259 
 PTB  HZ I         732 12.92         1.9 0.28            132            144 259 
 ZAR  HZ EP   4    731 53.31                             122    1.96 0  201 293 
 ZAR  HE ES        732 17.08                             122    0.77 9  201 293 
 ZAR  HZ I         732 22.84         2.3 0.24            124            201 293 
 SML  HZ EP   1    731 55.47                             117   -0.26 6  242 336 
 SML  HN ES        732 23.98                             117   -0.12 8  242 336 
 SML  HZ I         732 25.58         2.6 0.30            120            242 336 
 CHI  HZ EP   1    731 57.04                             117    0.16 6  248 194 
                                                                                
