 2014  720 0338 47.7 L   6.801 -73.122147.4  RSN  8 0.5 1.4LRSN                1
 GAP=185        1.03       4.4     7.1  8.3  0.9715E+01  0.1295E+02 -0.2718E+01E
 Epicentro: LOS SANTOS - SANTANDER                                             3
 ACTION:UPD 15-03-16 20:45 OP:nd   STATUS:               ID:20140720033847 L   I
 OLDACT:REG 14-07-20 14:56 OP:fm   STATUS:               ID:20140720033811     3
 2014-07-20-0338-11M.COL___266                                                 6
 STAT SP IPHASW D HRMM SECON CODA AMPLIT PERI AZIMU VELO AIN AR TRES W  DIS CAZ7
 BAR2 SZ ES   1    339 23.50                             171    0.47 7 24.1 196 
 BAR2 SZ I         339 24.61         6.5 0.26            169           24.1 196 
 BRR  HZ EP        339  9.60                             152    0.4310 73.4 297 
 BRR  HN ES        339 26.47                             152    0.5710 73.4 297 
 BRR  HZ I         339 29.58         5.0 0.40            150           73.4 297 
 RUS  HZ EP   1    339 11.89                             144    0.26 7  101 178 
 RUS  HE ES        339 29.63                             144   -0.6510  101 178 
 RUS  HZ I         339 31.11         1.4 0.20            147            101 178 
 PTB  HZ EP        339 14.76                             132   -0.29 9  150 259 
 PTB  HN ES   1    339 35.72                             132   -0.65 7  150 259 
 PTB  HZ I         339 40.53         3.3 0.18            132            150 259 
 OCA  HN ES   1    339 37.71                             130   -0.66 7  160 352 
 OCA  HZ I         339 42.24         3.8 0.16            132            160 352 
 SPBC HZ EP   1    339 16.76                             129    0.25 7  165 220 
 SPBC HN ES   1    339 38.73                             129   -0.23 7  165 220 
 SPBC HZ I         339 43.17         2.8 0.18            130            165 220 
 ZAR  HZ EP   1    339 21.11                             122    0.60 6  206 292 
 ZAR  HN ES        339 46.15                             122    0.06 8  206 292 
 ZAR  HZ I         339 51.33         2.5 0.28            123            206 292 
 SML  HN ES   1    339 52.74                             118   -0.52 6  245 335 
 SML  HZ I         339 55.22         4.7 0.10            119            245 335 
                                                                                
