 2013  820 0057 27.6 L   6.790 -73.236164.8  RSN  4 0.5 1.5LRSN                1
 GAP=221        1.22      16.0     9.9 15.3  0.2607E+02 -0.2691E+02  0.7217E+02E
 Epicentro: ZAPATOCA - SANTANDER                                               3
 2013-08-20-0049-59M.COL___269                                                 6
 ACTION:UP  14-01-14 09:04 OP:ep   STATUS:               ID:20130820005727 L   I
 OLDACT:UPD 13-09-13 09:31 OP:ep   STATUS:               ID:20130820005727 L   3
 OLDACT:UP  13-08-20 10:40 OP:mh   STATUS:               ID:20130820004960d    3
 OLDACT:DUP 13-08-20 10:37 OP:mh   STATUS:               ID:20130820004960d    3
 STAT SP IPHASW D HRMM SECON CODA AMPLIT PERI AZIMU VELO AIN AR TRES W  DIS CAZ7
 BAR2 SZ EP        057 49.39                             172   -0.1210 22.7 165 
 BAR2 SZ I         058  7.16         3.4 0.40            155           22.7 165 
 BRR  HZ EP        057 51.23                             158    0.7810 63.2 304 
 BRR  HN ES        058  7.91                             158   -0.3610 63.2 304 
 BRR  HN I         058  9.38         7.8 0.34            173           63.2 304 
 BRR  HZ I         058 49.52         7.9 3.58                          63.2 304 
 PTB  HZ EP        057 54.65                             138   -0.70 9  138 258 
 PTB  HN ES        058 17.41                             138    0.42 9  138 258 
 PTB  HZ I         058 20.05         3.1 0.46            141            138 258 
 ZAR  HN ES        058 26.07                             128   -0.09 9  195 294 
                                                                                
