 2014 1020 0017 57.7 L   6.778 -73.160143.1  RSN  5 0.4 1.5LRSN                1
 GAP=136        0.93       5.1     4.6 11.5 -0.2002E+01  0.1454E+02 -0.1484E+02E
 Epicentro: LOS SANTOS - SANTANDER                                             3
 ACTION:UPD 14-11-29 23:51 OP:nd   STATUS:               ID:20141020001757 L   I
 OLDACT:UP  14-10-20 13:25 OP:mh   STATUS:               ID:20141020000739d    3
 OLDACT:DUP 14-10-20 13:17 OP:mh   STATUS:               ID:20141020000739d    3
 OLDACT:UP  14-10-20 13:14 OP:mh   STATUS:               ID:20141020000737     3
 OLDACT:REG 14-10-20 12:31 OP:mh   STATUS:               ID:20141020000737     3
 2014-10-20-0007-37M.COL___267                                                 6
 STAT SP IPHASW D HRMM SECON CODA AMPLIT PERI AZIMU VELO AIN AR TRES W  DIS CAZ7
 PAM  SZ EP        018 20.24                             149    0.4310 80.2  39 
 PAM  SN ES   1    018 36.83                             149   -0.22 7 80.2  39 
 PAM  SZ I         018 39.28        10.0 0.56            155           80.2  39 
 RUS  HZ EP   1    018 21.06                             144    0.03 7 98.3 175 
 RUS  HN ES        018 39.04                             144   -0.1910 98.3 175 
 RUS  HZ I         018 42.64         3.2 0.42            148           98.3 175 
 PTB  HZ EP        018 23.67                             132   -0.61 9  146 260 
 PTB  HN ES        018 44.80                             132   -0.20 9  146 260 
 PTB  HZ I         018 50.87         4.0 0.26            136            146 260 
 SPBC HN ES   1    018 48.40                             129    0.81 7  160 219 
 ZAR  HN ES        018 55.33                             122    0.27 9  204 293 
                                                                                
