 2014  520 0949 48.4 L   6.813 -73.161138.7  RSN  9 0.5 1.6LRSN                1
 GAP=134        1.01       4.4     6.0 11.3 -0.1181E+01  0.3544E+00 -0.1680E+02E
 Epicentro: LOS SANTOS - SANTANDER                                             3
 ACTION:UPD 15-03-16 16:59 OP:nd   STATUS:               ID:20140520094948 L   I
 OLDACT:UP  14-05-20 17:46 OP:fm   STATUS:               ID:20140520094817     3
 OLDACT:REG 14-05-20 13:19 OP:spq  STATUS:               ID:20140520094817     3
 2014-05-20-0948-17M.COL___245                                                 6
 STAT SP IPHASW D HRMM SECON CODA AMPLIT PERI AZIMU VELO AIN AR TRES W  DIS CAZ7
 PAM  SZ EP   1    950 10.15                             150    0.27 8 77.4  41 
 PAM  SZ I         950 29.22         8.0 0.38            140           77.4  41 
 RUS  HN ES   1    950 30.06                             142    0.38 8  102 175 
 PTB  HZ EP        950 14.04                             131   -0.6510  146 258 
 PTB  HN ES        950 34.99                             131   -0.2010  146 258 
 PTB  HZ I         950 37.31         4.0 0.30            139            146 258 
 OCA  HN ES   2    950 37.04                             128   -0.53 5  159 354 
 SPBC HN ES        950 37.96                             128   -0.2510  163 218 
 ZAR  HZ EP        950 20.85                             121    0.66 9  202 292 
 ZAR  HN ES        950 45.75                             121    0.77 9  202 292 
 ZAR  HZ I         950 51.18         3.1 0.32            125            202 292 
 NOR  HE ES   1    950 50.89                             117   -0.31 6  234 234 
 SML  HZ EP   1    950 23.76                             116   -0.67 6  242 336 
 SML  HE ES   1    950 52.20                             116   -0.33 6  242 336 
 SML  HZ I         951  0.13         3.5 0.24            116            242 336 
 PRA  HZ EP        950 42.11                             105    0.36 6  392 209 
 PRA  HN ES   4    951 20.79                             105   -2.56 0  392 209 
 PRA  HZ I         951 28.40         1.4 0.28            107            392 209 
                                                                                
