 2010  120 0640 45.8 L   6.840 -73.077144.6  RSN 12 0.6 2.5LRSN                1
 GAP=190        1.28       4.7     9.2  8.5 -0.1059E+02  0.3866E+02  0.4272E+01E
 Epicentro: LOS SANTOS - SANTANDER                                             3
 ACTION:UP  10-08-24 09:45 OP:vdl  STATUS:               ID:20100120064045 L   I
 2010-01-20-0635-53S.COL___096                                                 6
 STAT SP IPHASW D HRMM SECON CODA AMPLIT PERI AZIMU VELO SNR AR TRES W  DIS CAZ7
 GIR2 SZ EP        641  5.40                             168     0.110   29 334 
 GIR2 SZ ES   1    641 20.55                             168     0.1 7   29 334 
 BAR2 SZ EP        641  5.33                             168    -0.110   30 203 
 BAR2 SZ ES   1    641 20.15                             168    -0.6 7   30 203 
 RUS  BZ EP        641  9.63                             142    -0.110  105 180 
 RUS  BN ES        641 28.66                             142     0.210  105 180 
 RUS  BZ I         641 29.33        40.0 0.48                           105 180 
 OCA  SZ EP   1    641 14.53                             130     0.8 7  157 350 
 OCA  SZ ES   1    641 35.63                             130     0.1 7  157 350 
 CHI  HZ EP        641 23.54                             116    -0.6 8  255 197 
 CHI  HN ES        641 53.47                             116    -0.6 8  255 197 
 CHI  HZ I         641 56.31        16.9 0.34                           255 197 
 ROSC BZ EP        641 25.59                             116     0.9 8  260 212 
 ROSC BN ES        641 55.93                             116     0.9 8  260 212 
 ROSC BZ I         641 59.81        12.9 0.32                           260 212 
 HEL  HZ EP   1    641 27.03                             114     0.1 6  281 255 
 HEL  HN ES   1    641 57.89                             114    -1.1 6  281 255 
 HEL  HZ I         642  3.65        12.5 0.18                           281 255 
 RREF BZ EP        641 31.62                             110    -1.3 7  330 230 
 RREF BE ES   2    642 10.86                             110     1.2 3  330 230 
 RREF BZ I         642 17.67        15.9 0.79                           330 230 
 DBB  SZ EP   1    641 33.29                             109    -0.8 5  347 273 
 TOL  SZ EP        641 35.42                             108     0.4 6  352 225 
 TOL  SZ ES   1    642 14.06                             108     0.7 5  352 225 
 ANIL BZ EP        641 36.98                             108     0.4 6  366 225 
 ANIL BN ES        642 16.29                             108     0.2 6  366 225 
 ANIL BZ I         642 21.69        26.1 0.19                           366 225 
 PRA  HZ IP        641 39.39                             106    -0.8 6  400 210 
 PRA  HN ES   1    642 22.81                             106     0.2 4  400 210 
 PRA  HZ I         642 25.84        11.0 1.00                           400 210 
                                                                                
