 2017  320 0635 13.0 L   6.734 -73.153150.9  RSN  4 0.2 0.9LRSN                1
 GAP=232        0.49       3.1     3.6  5.0  0.3474E+01 -0.1459E+01 -0.1161E+01E
 Epicentro: LOS SANTOS - SANTANDER                                             3
 ACTION:UPD 17-05-25 18:42 OP:jn   STATUS:               ID:20170320063513 L   I
 OLDACT:DUP 17-03-20 14:40 OP:lv   STATUS:               ID:20170320062742d    3
 2017-03-20-0628-00M.COL___382                                                 6
 STAT SP IPHASW D HRMM SECON CODA AMPLIT PERI AZIMU VELO AIN AR TRES W  DIS CAZ7
 BRR  HZ EP        635 34.69                             152   -0.2310 74.3 304 
 BRR  HE ES        635 52.17                             152    0.1910 74.3 304 
 BRR  HZ I         635 57.81         1.8 0.36            155           74.3 304 
 RUS  HZ EP        635 36.95                             147    0.1410 93.4 175 
 RUS  HN ES        635 55.20                             147   -0.1410 93.4 175 
 RUS  HZ I         635 56.85         1.0 0.38            152           93.4 175 
 PTB  HZ EP        635 40.35                             134    0.10 9  146 262 
 PTB  HN ES        636  1.30                             134   -0.18 9  146 262 
 PTB  HZ I         636  1.83         1.0 0.18            138            146 262 
 SPBC HN ES        636  3.60                             131    0.13 9  157 220 
 SPBC HZ I         636  5.07         1.4 0.15            137            157 220 
                                                                                
