 2015  920 0137  5.5 L   6.759 -73.171137.6  RSN  8 0.3 1.6LRSN                1
 GAP=135        0.87       3.4     3.5  5.5 -0.1244E+01  0.6115E+01  0.7815E+00E
 Epicentro: LOS SANTOS - SANTANDER                                             3
 ACTION:UPD 15-10-28 16:27 OP:cam  STATUS:               ID:20150920013705 L   I
 OLDACT:REG 15-09-20 12:09 OP:drio STATUS:               ID:20150920012743     3
 2015-09-20-0127-43M.COL___355                                                 6
 STAT SP IPHASW D HRMM SECON CODA AMPLIT PERI AZIMU VELO AIN AR TRES W  DIS CAZ7
 BAR2 EZ EP        137 24.06                             172    0.0410 18.5 184 
 BAR2 EZ ES        137 37.80                             172   -0.7010 18.5 184 
 BAR2 EZ I         137 40.11        11.9 0.42            170           18.5 184 
 BRR  HZ EP        137 25.80                             151    0.0710 71.1 303 
 BRR  HN ES        137 42.01                             151    0.4710 71.1 303 
 BRR  HZ I         137 44.59         5.6 0.24            151           71.1 303 
 PAM  EZ EP        137 27.02                             148   -0.1410 82.7  39 
 PAM  EE ES        137 44.15                             148    0.0810 82.7  39 
 PAM  EZ I         137 46.24         7.2 0.62            154           82.7  39 
 RUS  HZ EP        137 28.06                             143   -0.0510 96.3 174 
 RUS  HE ES        137 46.13                             143    0.3610 96.3 174 
 RUS  HZ I         137 48.52         4.7 0.16            145           96.3 174 
 PTB  HZ EP        137 30.83                             131   -0.62 9  144 260 
 PTB  HN ES        137 51.48                             131   -0.23 9  144 260 
 PTB  HZ I         137 56.51         6.7 0.16            132            144 260 
 SPBC HZ EP        137 33.29                             128    0.45 9  158 219 
 SPBC HN ES        137 54.39                             128    0.20 9  158 219 
 SPBC HZ I         138  3.93         7.7 0.22            129            158 219 
 ZAR  HZ EP        137 37.35                             121    0.05 9  203 294 
 ZAR  HN ES        138  2.34                             121    0.20 9  203 294 
 ZAR  HZ I         138  7.79         5.2 0.44            123            203 294 
 GUY2CHZ EP   4    137 49.76                             111    1.61 0  296 235 
 GUY2CHN ES        138 21.21                             111   -0.23 7  296 235 
 GUY2CHZ I         138 32.61         2.9 0.70                           296 235 
                                                                                
