 2012  220 0509 45.3 L   6.765 -73.169146.4  RSN  5 0.4 1.3LRSN                1
 GAP=135        0.88       6.2     6.0  8.5 -0.3446E+01  0.6088E+01  0.2035E+01E
 ACTION:UP  12-03-07 16:32 OP:epov STATUS:               ID:20120220050945 L   I
 2012-02-20-0508-59S.COL___191                                                 6
 STAT SP IPHASW D HRMM SECON CODA AMPLIT PERI AZIMU VELO AIN AR TRES W  DIS CAZ7
 BAR2 SZ EP   1    510  4.88                             172   -0.04 7 19.1 184 
 BAR2 SZ ES   1    510 19.64                             172   -0.60 7 19.1 184 
 BAR2 SZ I         510 21.66         6.0 0.25                          19.1 184 
 BRR  HZ EP   1    510  6.93                             153    0.43 7 70.9 302 
 BRR  HN ES   1    510 23.80                             153    0.76 7 70.9 302 
 BRR  HZ I         510 28.03         5.4 0.11                          70.9 302 
 PAM  SZ EP   1    510  7.78                             149   -0.08 7 82.1  39 
 PAM  SN ES   1    510 25.19                             149   -0.27 7 82.1  39 
 PAM  SZ I         510 27.07         3.0 0.24                          82.1  39 
 RUS  HZ EP   1    510  8.78                             145   -0.07 7 96.9 174 
 RUS  HN ES   1    510 27.75                             145    0.53 7 96.9 174 
 RUS  HZ I         510 28.75         2.4 0.37                          96.9 174 
 PTB  HZ EP   1    510 11.87                             133   -0.15 7  144 260 
 PTB  HN ES   1    510 32.25                             133   -0.61 7  144 260 
                                                                                
