 2011  720 0657 21.0 L   6.746 -73.051136.0  RSN  4 0.2 1.2LRSN                1
 GAP=170        0.37       4.3     8.3  9.5  0.1993E+02 -0.6025E+02 -0.2272E+02E
 Epicentro: ARATOCA - SANTANDER                                                3
 ACTION:UPD 12-07-25 14:02 OP:epov STATUS:               ID:20110720065721 L   I
 2011-07-20-0640-00M.COL___136                                                 6
 STAT SP IPHASW D HRMM SECON CODA AMPLIT PERI AZIMU VELO AIN AR TRES W  DIS CAZ7
 BAR2 SZ EP   2    657 39.68                             170    0.25 5 22.3 221 
 BAR2 SZ I         657 56.54         4.3 0.30                          22.3 221 
 BRR  HZ EP   1    657 41.70                             147   -0.16 7 83.2 299 
 BRR  HE ES   1    657 58.21                             147    0.07 7 83.2 299 
 BRR  HZ I         658  2.70         3.7 0.31                          83.2 299 
 RUS  HZ EP   2    657 43.52                             144    0.18 5 94.4 182 
 RUS  HE ES   2    658  0.59                             144   -0.18 5 94.4 182 
 RUS  HZ I         658  3.36         1.8 0.27                          94.4 182 
 GRA  SZ EP   1    657 45.63                             134   -0.02 7  129  12 
                                                                                
