 2016  720 0445 19.5 L   6.764 -73.152147.8  RSN  4 0.3 1.5LRSN                1
 GAP=234        0.76       4.6     6.9  6.1  0.6035E+01  0.3239E+01  0.3797E+01E
 Epicentro: LOS SANTOS - SANTANDER                                             3
 ACTION:UPD 17-03-29 16:53 OP:lp   STATUS:               ID:20160720044519 L   I
 OLDACT:REG 16-07-20 13:11 OP:ar   STATUS:               ID:20160720043759     3
 2016-07-20-0437-59S.COL___334                                                 6
 STAT SP IPHASW D HRMM SECON CODA AMPLIT PERI AZIMU VELO AIN AR TRES W  DIS CAZ7
 BAR2 EZ EP        445 38.96                             172   -0.2910 19.2 190 
 BAR2 EZ ES        445 54.32                             172   -0.3610 19.2 190 
 BRR  HZ EP        445 40.84                             152   -0.0510 72.6 302 
 BRR  HN ES        445 57.94                             152    0.3310 72.6 302 
 BRR  HZ I         446  1.34         5.6 0.36            149           72.6 302 
 RUS  HZ EP        445 43.16                             145    0.0410 96.6 175 
 RUS  HN ES        446  1.99                             145    0.4110 96.6 175 
 RUS  HZ I         446  2.21         4.0 0.22            146           96.6 175 
 SPBC HZ EP        445 48.00                             130    0.23 9  160 220 
 SPBC HN ES        446  9.53                             130   -0.32 9  160 220 
 SPBC HZ I         446 13.26         4.6 0.24            130            160 220 
                                                                                
