 2014  920 0954  3.2 L   6.769 -73.131147.9  RSN 14 0.4 1.8LRSN                1
 GAP=140        0.84       2.6     3.6  4.7 -0.8197E+00  0.2879E+01  0.8792E+00E
 Epicentro: LOS SANTOS - SANTANDER                                             3
 ACTION:UPD 14-10-03 23:06 OP:nd   STATUS:               ID:20140920095403 L   I
 OLDACT:REG 14-09-20 12:57 OP:spq  STATUS:               ID:20140920094818     3
 2014-09-20-0948-18M.COL___293                                                 6
 STAT SP IPHASW D HRMM SECON CODA AMPLIT PERI AZIMU VELO AIN AR TRES W  DIS CAZ7
 BAR2 SZ EP        954 23.02                             172    0.0310 20.4 196 
 BAR2 SZ ES   1    954 38.08                             172   -0.38 7 20.4 196 
 BAR2 SZ I         954 39.18        12.8 0.18            170           20.4 196 
 BRR  HZ EP     C  954 25.03                             152    0.3110 74.3 300 
 BRR  HN ES        954 42.34                             152    0.8110 74.3 300 
 BRR  HZ I         954 43.21        13.4 0.12            147           74.3 300 
 PAM  SZ EP     C  954 26.04                             151    0.3410 79.0  37 
 PAM  SE ES        954 43.11                             151   -0.1710 79.0  37 
 PAM  SZ I         954 45.45         5.9 0.58            151           79.0  37 
 RUS  HZ EP        954 26.88                             145    0.0010 97.1 177 
 RUS  HE ES   1    954 44.96                             145   -0.41 7 97.1 177 
 RUS  HZ I         954 46.57         7.9 0.36            146           97.1 177 
 PTB  HZ EP        954 29.75                             132   -0.65 9  149 260 
 PTB  HE ES        954 51.37                             132   -0.26 9  149 260 
 PTB  HZ I         954 55.89         7.5 0.18            130            149 260 
 SPBC HZ EP        954 31.83                             130    0.15 9  162 220 
 SPBC HN ES        954 53.78                             130   -0.14 9  162 220 
 SPBC HZ I         954 56.17         7.4 0.26            129            162 220 
 OCA  HZ EP   1    954 32.22                             129    0.24 7  164 353 
 OCA  HN ES   1    954 53.93                             129   -0.52 7  164 353 
 OCA  HZ I         955  0.10         8.5 0.32            128            164 353 
 ZAR  HZ EP        954 36.11                             122    0.07 8  207 293 
 ZAR  HN ES        955  1.67                             122   -0.01 8  207 293 
 ZAR  HZ I         955  7.18         8.9 0.48            120            207 293 
 CHI  HZ EP   1    954 40.86                             118    0.19 6  246 196 
 CHI  HN ES   1    955 10.17                             118    0.24 6  246 196 
 CHI  HZ I         955 14.18         2.8 0.48            118            246 196 
 SML  HZ EP        954 39.77                             117   -0.55 8  248 335 
 SML  HN ES   1    955  9.28                             117   -0.02 6  248 335 
 SML  HZ I         955 13.10         9.0 0.09            116            248 335 
 GUY2CHZ EP   1    954 46.72                             113   -0.08 5  301 235 
 GUY2CHN ES   4    955 24.64                             113    3.80 0  301 235 
 GUY2CHZ I         955 28.85         2.1 0.64                           301 235 
 MON  HZ EP   4    954 50.51                             109   -2.13 0  357 309 
 MON  HN ES   4    955 29.36                             109   -1.88 0  357 309 
 MON  HZ I         955 45.41         1.9 0.46            108            357 309 
 PRA  HZ EP        954 57.09                             107    0.58 6  390 210 
 PRA  HE ES   4    955 39.87                             107    1.75 0  390 210 
 PRA  HZ I         955 45.90         3.6 0.36            107            390 210 
 SJC  HZ EP   4    954 57.68                             106   -1.56 0  413 327 
 SJC  HN ES   4    955 41.14                             106   -1.84 0  413 327 
 SJC  HZ I         955 48.40         1.6 0.36            105            413 327 
                                                                                
