 2011  820 0630 32.4 L   6.791 -73.154144.7  RSN  5 0.2 1.4LRSN                1
 GAP=183        0.50       4.4     5.4  4.9  0.1102E+02 -0.4986E+00 -0.4747E+00E
 Epicentro: LOS SANTOS - SANTANDER                                             3
 ACTION:UPD 12-07-13 15:52 OP:ep   STATUS:               ID:20110820063032 L   I
 2011-08-20-0620-00M.COL___153                                                 6
 STAT SP IPHASW D HRMM SECON CODA AMPLIT PERI AZIMU VELO AIN AR TRES W  DIS CAZ7
 BAR2 SZ EP   1    630 51.52                             171   -0.38 7 22.2 188 
 BAR2 SZ ES   1    631  7.17                             171    0.07 7 22.2 188 
 BAR2 SZ I         631  8.16         5.7 0.34                          22.2 188 
 GIR2 SZ EP        630 51.85                             167   -0.1410 32.1 352 
 BRR  HZ EP        630 53.80                             152    0.3610 70.9 300 
 BRR  HE ES        631  9.75                             152   -0.0810 70.9 300 
 BRR  HZ I         631 13.18         6.8 0.51                          70.9 300 
 RUS  HZ EP   1    630 56.11                             144    0.11 7 99.6 175 
 RUS  HZ I         630 57.21         1.9 0.11                          99.6 175 
 RUS  HE ES   1    631 14.43                             144    0.04 7 99.6 175 
 HEL  HZ EP   2    631 12.42                             114   -0.04 4  271 256 
 HEL  HN ES   2    631 43.43                             114   -0.25 4  271 256 
 HEL  HZ I         631 50.93         2.7 0.37                           271 256 
                                                                                
