 2017  420 0857 35.6 L   6.813 -73.176137.4  RSN  6 0.4 1.2LRSN                1
 GAP=110        0.80       4.0     3.4  5.9  0.1315E+01  0.3942E+01  0.1703E+01E
 Epicentro: ZAPATOCA - SANTANDER                                               3
 ACTION:UPD 17-05-30 21:14 OP:jn   STATUS:               ID:20170420085735 L   I
 OLDACT:UP  17-04-20 17:17 OP:cog  STATUS:               ID:20170420084604     3
 OLDACT:REG 17-04-20 13:51 OP:cog  STATUS:               ID:20170420084604     3
 2017-04-20-0848-00M.COL___362                                                 6
 STAT SP IPHASW D HRMM SECON CODA AMPLIT PERI AZIMU VELO AIN AR TRES W  DIS CAZ7
 BAR2 EZ ES        858  8.49                             169   -0.2710 24.4 182 
 BAR2 EZ I         858 10.56         8.2 0.16            170           24.4 182 
 PAM  EZ EP        857 56.79                             149   -0.1810 78.5  42 
 PAM  EN ES        858 13.86                             149    0.2010 78.5  42 
 PAM  EZ I         858 16.44         3.0 0.64            152           78.5  42 
 RUS  HZ EP        857 58.84                             142    0.2110  102 174 
 RUS  HN ES        858 16.96                             142    0.3410  102 174 
 RUS  HZ I         858 17.54         2.0 0.48            145            102 174 
 PTB  HZ EP        858  0.96                             131   -0.63 9  145 258 
 PTB  HN ES        858 21.96                             131    0.08 9  145 258 
 PTB  HZ I         858 28.99         2.1 0.28            132            145 258 
 YPLC HZ EP        858  4.97                             124   -0.09 9  180 151 
 YPLC HN ES   4    858 25.66                             124   -2.40 0  180 151 
 ZAR  HZ EP   3    858  9.04                             121    1.94 2  200 292 
 ZAR  HN ES        858 31.92                             121    0.23 9  200 292 
                                                                                
