 2016  920 0748 39.9 L   6.806 -73.149148.6  RSN 15 0.5 1.9LRSN                1
 GAP= 65        1.27       3.5     3.4  6.2  0.1575E+00  0.3877E+01  0.2396E+01E
 Epicentro: LOS SANTOS - SANTANDER                                             3
 ACTION:UPD 17-08-17 21:14 OP:lp   STATUS:               ID:20160920074839 L   I
 OLDACT:UP  16-09-20 21:46 OP:ar   STATUS:               ID:20160920073736d    3
 OLDACT:UP  16-09-20 21:42 OP:ar   STATUS:               ID:20160920073736d    3
 OLDACT:DUP 16-09-20 21:37 OP:ar   STATUS:               ID:20160920073736d    3
 OLDACT:UP  16-09-20 21:35 OP:ar   STATUS:               ID:20160920073735     3
 OLDACT:REG 16-09-20 12:51 OP:and  STATUS:               ID:20160920073735     3
 2016-09-20-0738-00M.COL___347                                                 6
 STAT SP IPHASW D HRMM SECON CODA AMPLIT PERI AZIMU VELO AIN AR TRES W  DIS CAZ7
 BAR2 EZ EP        748 59.84                             170   -0.0710 23.9 189 
 BAR2 EZ ES        749 15.00                             170   -0.5010 23.9 189 
 BAR2 EZ I         749 16.14        20.1 0.24            170           23.9 189 
 BRR  HZ EP        749  1.89                             153    0.5510 70.5 298 
 BRR  HN ES        749 18.81                             153    0.7610 70.5 298 
 BRR  HZ I         749 22.97        10.5 0.14            152           70.5 298 
 PAM  EZ EP        749  2.91                             151    0.4910 77.1  40 
 PAM  EN ES        749 19.94                             151   -0.0410 77.1  40 
 PAM  EZ I         749 22.10        20.2 0.52            154           77.1  40 
 RUS  HZ EP        749  4.16                             144    0.1610  101 176 
 RUS  HN ES        749 23.09                             144    0.3010  101 176 
 RUS  HZ I         749 23.68         9.4 0.24            145            101 176 
 PTB  HZ EP        749  7.03                             133   -0.07 9  147 259 
 PTB  HN ES        749 27.81                             133   -0.48 9  147 259 
 PTB  HZ I         749 30.62         7.1 0.16            132            147 259 
 TAM  HZ EP        749  8.24                             131    0.36 9  156 105 
 TAM  HN ES        749 28.93                             131   -0.76 9  156 105 
 OCA  HZ EP        749  9.31                             130    0.93 9  160 353 
 OCA  HN ES        749 29.83                             130   -0.76 9  160 353 
 OCA  HZ I         749 33.23        12.5 0.18            132            160 353 
 SPBC HZ EP        749  9.13                             130    0.47 9  163 219 
 SPBC HN ES        749 30.88                             130   -0.21 9  163 219 
 SPBC HZ I         749 37.29        13.5 0.20            130            163 219 
 ZAR  HZ EP        749 12.31                             123   -0.18 9  203 292 
 ZAR  HN ES        749 37.96                             123    0.07 9  203 292 
 ZAR  HZ I         749 41.77         4.0 0.24            123            203 292 
 NOR  HZ EP        749 15.17                             119   -0.65 8  235 234 
 NOR  HN ES        749 44.41                             119    0.58 8  235 234 
 NOR  HZ I         749 46.43         6.4 0.16            119            235 234 
 CHI  HZ EP        749 18.23                             118    0.39 8  249 195 
 CHI  HN ES        749 47.21                             118   -0.20 8  249 195 
 CHI  HZ I         749 51.23         4.9 0.48            119            249 195 
 HEL  HZ EP   4    749 22.83                             115    2.58 0  272 256 
 HEL  HN ES        749 52.00                             115    0.29 8  272 256 
 HEL  HZ I         749 58.00         3.8 0.28            116            272 256 
 URE  HZ EP        749 20.30                             114   -0.76 7  283 292 
 URE  HN ES        749 52.24                             114   -0.90 7  283 292 
 URE  HZ I         750  2.64         4.0 0.22            115            283 292 
 GUY2CHZ EP   4    749 26.10                             113    2.43 0  301 235 
 GUY2CHE ES   4    749 59.96                             113    2.17 0  301 235 
 GUY2CHZ I         750  6.06         3.8 0.28                           301 235 
 PTGC HZ EP        749 23.07                             112   -0.92 7  309 159 
 PTGC HN ES   4    749 56.11                             112   -2.26 0  309 159 
 PTGC HZ I         750  1.33         5.0 0.30            113            309 159 
                                                                                
