 2014  120 0204 26.6 L   6.775 -73.152151.2  RSN 11 0.5 1.9LRSN                1
 GAP=182        1.05       2.9     5.6  7.1  0.1789E+01 -0.3581E+01 -0.1807E+01E
 Epicentro: LOS SANTOS - SANTANDER                                             3
 ACTION:UPD 14-03-13 09:56 OP:ep   STATUS:               ID:20140120020426 L   I
 OLDACT:REG 14-01-20 07:55 OP:nd   STATUS:               ID:20140120020000     3
 2014-01-20-0200-00M.COL___285                                                 6
 STAT SP IPHASW D HRMM SECON CODA AMPLIT PERI AZIMU VELO AIN AR TRES W  DIS CAZ7
 BRR  HZ EP        2 4 48.53                             153    0.1910 72.0 301 
 BRR  HN ES        2 5  5.99                             153    0.6610 72.0 301 
 BRR  HZ I         2 5  9.02        10.9 0.14            150           72.0 301 
 RUS  HZ EP        2 4 50.47                             146   -0.1910 97.9 176 
 RUS  HN ES        2 5  9.02                             146   -0.4410 97.9 176 
 RUS  HZ I         2 5 10.77         4.5 0.16            147           97.9 176 
 PTB  HZ EP        2 4 53.64                             134   -0.23 9  147 260 
 PTB  HN ES        2 5 14.21                             134   -0.97 9  147 260 
 PTB  HZ I         2 5 22.13        14.2 0.44            132            147 260 
 SPBC HZ EP        2 4 55.14                             131   -0.10 9  161 219 
 SPBC HN ES        2 5 18.02                             131    0.40 9  161 219 
 SPBC HZ I         2 5 21.73         9.0 0.20            130            161 219 
 OCA  HZ EP        2 4 55.81                             130    0.27 9  163 353 
 OCA  HN ES        2 5 18.08                             130   -0.07 9  163 353 
 OCA  HZ I         2 5 21.65        10.3 0.24            132            163 353 
 ZAR  HZ EP        2 4 58.79                             124   -0.62 9  204 293 
 ZAR  HN ES        2 5 25.45                             124    0.42 9  204 293 
 ZAR  HZ I         2 5 31.49         7.2 0.50            123            204 293 
 CHI  HZ EP        2 5  4.76                             119    0.50 8  246 195 
 CHI  HN ES        2 5 34.12                             119    0.45 8  246 195 
 CHI  HZ I         2 5 40.03         1.7 0.32            120            246 195 
 SML  HZ EP        2 5  3.51                             118   -0.22 8  246 336 
 SML  HN ES        2 5 32.67                             118   -0.06 8  246 336 
 SML  HZ I         2 5 34.98        14.3 0.10            120            246 336 
 HEL  HZ EP   2    2 5  7.92                             116    1.01 4  271 256 
 HEL  HN ES   2    2 5 38.35                             116   -0.03 4  271 256 
 HEL  HZ I         2 5 45.83         4.8 0.38            116            271 256 
 GUY2CHZ EP   4    2 5 11.67                             114    1.49 0  299 235 
 GUY2CHN ES   4    2 5 45.61                             114    1.40 0  299 235 
 GUY2CHZ I         2 5 53.90         4.0 0.31                           299 235 
 SJC  HZ EP   4    2 5 20.89                             106   -1.64 0  411 327 
 SJC  HN ES   4    2 6  1.59                             106   -4.60 0  411 327 
 SJC  HZ I         2 6  6.16         1.7 0.36            108            411 327 
                                                                                
