 2010  820 0632 51.4 L   6.303 -73.574115.3  RSN  5 0.1 1.3LRSN                1
 GAP=137        0.44       4.9     3.3  7.5 -0.5206E+01  0.1185E+02 -0.2419E+02E
 Epicentro: SANTA HELENA DEL OPON - SANTANDER                                  3
 ACTION:UP  10-09-07 10:56 OP:vdl  STATUS:               ID:20100820063251 L   I
 2010-08-20-0631-57S.COL___117                                                 6
 STAT SP IPHASW D HRMM SECON CODA AMPLIT PERI AZIMU VELO SNR AR TRES W  DIS CAZ7
 BAR2 SZ EP        633  8.77                             153     0.210   54  53 
 BAR2 SZ I         633  8.95        12.5 0.06                            54  53 
 BAR2 SZ ES   2    633 22.10                             153     0.1 5   54  53 
 RUS  HZ EP   1    633 10.14                             146     0.1 7   71 130 
 RUS  HN ES   1    633 24.36                             146    -0.2 7   71 130 
 RUS  HZ I         633 25.94         2.7 0.53                            71 130 
 GIR2 SZ EP   2    633 11.54                             137     0.1 5   96  26 
 GUE  SZ EP        633 20.03                             118    -0.2 9  184  23 
 GUE  SZ I         633 26.44         1.5 0.13                           184  23 
 HEL  HN ES   1    633 49.26                             113     0.0 6  217 267 
 HEL  HZ I         633 55.82         2.0 0.18                           217 267 
                                                                                
