 2012  220 0123 32.2 L   6.754 -73.113139.9  RSN  5 0.3 1.7LRSN                1
 GAP=143        0.54       3.6     4.3  5.7 -0.4115E+01  0.5564E+01  0.3654E+01E
 ACTION:UP  12-03-07 16:32 OP:epov STATUS:               ID:20120220012332 L   I
 2012-02-20-0120-00M.COL___191                                                 6
 STAT SP IPHASW D HRMM SECON CODA AMPLIT PERI AZIMU VELO AIN AR TRES W  DIS CAZ7
 BAR2 SZ ES   2    124  5.00                             172   -0.77 5 19.4 203 
 BAR2 SZ I         124  7.07        16.9 0.18                          19.4 203 
 BRR  HZ EP   1    123 53.00                             150   -0.08 7 76.9 301 
 BRR  HN ES   1    124  9.66                             150    0.31 7 76.9 301 
 BRR  HZ I         124 15.22        12.8 0.17                          76.9 301 
 PAM  SZ EP   1    123 54.00                             149    0.07 7 79.2  35 
 PAM  SN ES   1    124 10.77                             149   -0.09 7 79.2  35 
 PAM  SZ I         124 13.21         8.2 0.30                          79.2  35 
 RUS  HZ EP   1    123 54.89                             144   -0.13 7 95.3 178 
 RUS  HN ES   1    124 13.16                             144    0.37 7 95.3 178 
 RUS  HZ I         124 15.00         7.4 0.36                          95.3 178 
 NOR  SZ EP   1    124  7.63                             117    0.00 6  235 236 
 NOR  SN ES   1    124 35.09                             117   -0.15 6  235 236 
                                                                                
