 2011  220 0820 56.5 L   6.800 -73.177135.8  RSN  9 0.4 1.8LRSN                1
 GAP=133        0.93       3.6     6.7  7.5 -0.6068E+01  0.1915E+02  0.1372E+01E
 Epicentro: LOS SANTOS - SANTANDER                                             3
 ACTION:UP  11-03-28 15:09 OP:jfem STATUS:               ID:20110220082056 L   I
 2011-02-20-0819-54S.COL___137                                                 6
 STAT SP IPHASW D HRMM SECON CODA AMPLIT PERI AZIMU VELO SNR AR TRES W  DIS CAZ7
 BAR2 SZ EP        821 14.95                             170     0.110   23 182 
 BAR2 SZ ES   1    821 28.65                             170    -0.6 7   23 182 
 BAR2 SZ I         821 30.88        18.9 0.12                            23 182 
 RUS  HZ EP   1    821 19.11                             141    -0.2 7  101 174 
 RUS  HN ES   1    821 37.12                             141     0.1 7  101 174 
 GRA  SZ EP   1    821 21.65                             134     0.7 7  127  19 
 GRA  SZ ES   1    821 40.24                             134     0.2 7  127  19 
 GRA  SZ I         821 46.11         4.9 0.41                           127  19 
 OCA  SZ EP   1    821 23.69                             127    -0.3 7  160 354 
 OCA  SZ ES   1    821 45.39                             127     0.0 7  160 354 
 OCA  SZ I         821 48.94         7.6 0.17                           160 354 
 YOP  SZ EP        821 25.75                             124    -0.2 9  181 152 
 NOR  SZ EP   1    821 31.27                             116    -0.1 6  232 234 
 NOR  SN ES   1    821 59.12                             116     0.6 6  232 234 
 CHI  HZ EP   1    821 33.54                             115     0.0 6  248 194 
 CHI  HN ES   1    822  3.37                             115     0.9 6  248 194 
 CHI  HZ I         822  6.88         4.0 0.65                           248 194 
 HEL  HZ EP        821 35.65                             113    -0.2 8  269 256 
 HEL  HZ I         822 13.00         2.9 0.46                           269 256 
 RREF HZ EP        821 41.26                             109    -0.6 7  319 229 
 RREF HZ I         822 25.03         3.6 0.45                           319 229 
                                                                                
