 2011  120 0049 58.0 L   6.737 -72.880148.0  RSN  4 0.2 1.5LRSN                1
 GAP=190        0.47       3.8     8.6  9.0 -0.2068E+02  0.2919E+02 -0.4442E+01E
 Epicentro: MOLAGAVITA - SANTANDER                                             3
 ACTION:UP  11-02-08 08:41 OP:pat  STATUS:               ID:20110120004958 L   I
 2011-01-20-0045-45S.COL___138                                                 6
 STAT SP IPHASW D HRMM SECON CODA AMPLIT PERI AZIMU VELO SNR AR TRES W  DIS CAZ7
 RUS  HZ EP   1    050 21.53                             145    -0.1 7   96 194 
 RUS  HN ES   2    050 40.08                             145     0.0 5   96 194 
 RUS  HZ I         050 41.93         2.6 0.36                            96 194 
 GRA  SZ EP   1    050 23.80                             137     0.3 7  127   4 
 GRA  SZ ES   1    050 43.41                             137    -0.1 7  127   4 
 GRA  SZ I         050 45.64         4.5 0.28                           127   4 
 OCA  SZ EP   2    050 27.26                             128    -0.4 4  173 344 
 OCA  SZ I         050 53.03         6.1 0.77                           173 344 
 RREF HN ES   1    051 24.14                             110     0.1 5  340 234 
 RREF HZ I         051 28.83         1.8 0.66                           340 234 
                                                                                
