 2012 1220 0658 42.8 L   6.788 -73.146144.2  RSN 16 0.4 2.6LRSN                1
 GAP= 72        0.90       2.8     2.9  4.6 -0.1104E+00  0.2087E+01  0.1886E+01E
 Epicentro: LOS SANTOS - SANTANDER                                             3
 ACTION:UPD 13-01-04 14:29 OP:ep   STATUS:               ID:20121220065842 L   I
 2012-12-20-0654-41M.COL___207                                                 6
 STAT SP IPHASW D HRMM SECON CODA AMPLIT PERI AZIMU VELO AIN AR TRES W  DIS CAZ7
 BAR2 SZ IP        659  2.34                             171    0.1210 22.0 191 
 BAR2 SZ ES   1    659 17.27                             171   -0.10 7 22.0 191 
 BAR2 SZ I         659 18.42       110.3 0.16                          22.0 191 
 GIR2 SZ EP        659  2.46                             167    0.1310 32.6 351 
 GIR2 SZ ES        659 17.25                             167   -0.3110 32.6 351 
 GIR2 SZ I         659 19.63        73.6 0.45                          32.6 351 
 BRR  HZ IP     C  659  4.23                             152    0.4110 71.9 299 
 BRR  HN ES        659 21.13                             152    0.9110 71.9 299 
 BRR  HZ I         659 22.90        63.3 0.16                          71.9 299 
 PAM  SZ EP        659  5.23                             150    0.3110 78.4  39 
 PAM  SZ I         659  5.54       107.6 0.20                          78.4  39 
 PAM  SE ES   1    659 21.97                             150   -0.20 7 78.4  39 
 RUS  HZ EP        659  6.25                             144   -0.0610 99.2 176 
 RUS  HE ES        659 24.20                             144   -0.4310 99.2 176 
 RUS  HE I         659 25.98        73.4 0.37                          99.2 176 
 PTB  HZ EP        659  9.00                             132   -0.62 9  148 259 
 PTB  HE ES   1    659 30.15                             132   -0.39 7  148 259 
 PTB  HZ I         659 32.36        61.0 0.17                           148 259 
 TAM  HZ IP     D  659 10.64                             130    0.31 9  155 104 
 TAM  HZ I         659 10.79        47.9 0.20                           155 104 
 TAM  HN ES        659 31.74                             130   -0.05 9  155 104 
 OCA  HZ EP   1    659 10.81                             129   -0.31 7  162 353 
 OCA  HE ES   1    659 32.72                             129   -0.49 7  162 353 
 OCA  HZ I         659 35.69        31.7 0.33                           162 353 
 ZAR  HZ EP   1    659 15.42                             122    0.22 6  205 292 
 ZAR  HE ES   1    659 40.96                             122    0.49 6  205 292 
 ZAR  HZ I         659 46.88        52.2 0.50                           205 292 
 SML  HZ EP   1    659 18.90                             117   -0.58 6  245 335 
 CHI  HZ EP        659 20.55                             117    0.28 8  247 195 
 CHI  HN ES   1    659 49.16                             117   -0.34 6  247 195 
 ROSC BZ EP   4    659 22.59                             116    1.88 0  252 211 
 ROSC BN ES        659 50.60                             116    0.32 8  252 211 
 ROSC BZ I         659 56.64        17.7 0.29                           252 211 
 HEL  HZ EP   1    659 23.09                             114    0.19 6  272 256 
 HEL  HN ES   1    659 53.32                             114   -0.86 6  272 256 
 HEL  HZ I         7 0  1.55        18.4 0.42                           272 256 
 COD  HZ EP   1    659 30.60                             109   -0.68 5  350 355 
 MON  HZ EP   4    659 29.60                             108   -2.24 0  355 309 
 MON  HE ES   4    7 0  8.49                             108   -1.60 0  355 309 
 MON  HZ I         7 0 11.25         7.9 0.61                           355 309 
 PRA  HZ EP   1    659 36.02                             106   -0.11 4  391 210 
 PRA  HN ES   1    7 0 17.86                             106    0.13 4  391 210 
 PRA  HZ I         7 0 23.41        15.1 0.32                           391 210 
                                                                                
