 2015  220 0715  9.6 L   6.810 -73.140146.5  RSN 18 0.5 2.3LRSN                1
 GAP=119        1.36       3.0     5.2  6.1 -0.4194E+01  0.9148E+01  0.7854E+00E
 Epicentro: LOS SANTOS - SANTANDER                                             3
 ACTION:UPD 15-04-30 21:27 OP:nd   STATUS:               ID:20150220071509 L   I
 OLDACT:REG 15-02-20 14:42 OP:mher STATUS:               ID:20150220070747     3
 2015-02-20-0707-47M.COL___278                                                 6
 STAT SP IPHASW D HRMM SECON CODA AMPLIT PERI AZIMU VELO AIN AR TRES W  DIS CAZ7
 BAR2 EZ EP        715 29.55                             170    0.1810 24.5 191 
 BAR2 EZ ES        715 44.54                             170   -0.2310 24.5 191 
 BAR2 EZ I         715 46.56        36.0 0.16            169           24.5 191 
 BRR  HZ EP        715 31.21                             152    0.3510 71.3 297 
 BRR  HZ I         715 31.66        32.9 0.28            148           71.3 297 
 BRR  HN ES        715 48.29                             152    0.8710 71.3 297 
 PAM  SZ EP        715 32.29                             151    0.4510 76.1  40 
 PAM  SE ES        715 48.79                             151   -0.3810 76.1  40 
 RUS  HZ EP        715 33.39                             144   -0.1310  102 176 
 RUS  HN ES        715 51.96                             144   -0.2010  102 176 
 RUS  HZ I         715 54.71        22.0 0.48            146            102 176 
 PTB  HZ EP        715 36.04                             132   -0.69 9  149 258 
 PTB  HN ES        715 57.33                             132   -0.54 9  149 258 
 PTB  HZ I         716  1.99        33.8 0.28            130            149 258 
 OCA  HZ EP        715 37.97                             130    0.07 9  159 353 
 OCA  HE ES        716  0.04                             130    0.09 9  159 353 
 OCA  HZ I         716 10.18        16.0 0.30            130            159 353 
 SPBC HZ EP        715 38.44                             129    0.14 9  164 219 
 SPBC HN ES        716  0.88                             129    0.22 9  164 219 
 SPBC HZ I         716  7.13        31.6 0.24            129            164 219 
 NOR  HZ EP        715 45.04                             118   -0.48 8  236 234 
 NOR  HN ES        716 13.14                             118   -0.38 8  236 234 
 NOR  HZ I         716 17.82        22.8 0.20            118            236 234 
 SML  HZ EP        715 45.99                             118   -0.22 8  243 335 
 SML  HE ES        716 14.14                             118   -0.61 8  243 335 
 SML  HZ I         716 22.30        24.7 0.10            117            243 335 
 CHI  HZ EP        715 47.39                             117   -0.11 8  250 195 
 CHI  HN ES        716 16.47                             117   -0.57 8  250 195 
 CHI  HZ I         716 22.80         9.8 0.28            118            250 195 
 ROSC BZ EP        715 48.74                             117    0.82 8  254 211 
 ROSC BN ES        716 18.94                             117    1.14 8  254 211 
 ROSC BZ I         716 22.76        19.4 0.35            117            254 211 
 GUY2CHZ EP        715 53.73                             112    0.33 7  302 235 
 GUY2CHN ES        716 28.48                             112    0.94 7  302 235 
 GUY2CHZ I         716 35.26         9.8 0.52                           302 235 
 PTGC HZ EP   9    715 52.46                             112   -1.14 0  309 159 
 PTGC HZ I         715 52.85        15.2 0.10            114            309 159 
 PTGC HN ES        716 24.87                                   -1.89 7  309 159 
 CBOC HZ EP        715 57.42                             110    0.74 7  335 252 
 CBOC HN ES        716 32.30                             110   -1.08 7  335 252 
 CBOC HZ I         716 39.67         3.7 0.64            110            335 252 
 MON  HZ EP   9    715 56.02                             109   -2.61 0  354 308 
 MON  HN ES        716 35.30                                    1.05 6  354 308 
 MON  HZ I         716 50.88         6.6 0.46            109            354 308 
 ARGC HZ EP        715 58.89                             108   -0.32 6  358 340 
 ARGC HN ES        716 37.68                             108   -0.21 6  358 340 
 ARGC HZ I         716 45.61         5.3 0.28            109            358 340 
 PRA  HZ EP        716  3.28                             106   -0.04 6  393 210 
 PRA  HN ES        716 44.72                             106   -0.48 6  393 210 
 PRA  HZ I         716 48.55         9.3 0.66            107            393 210 
 ORTC HZ EP        716  4.54                             106    0.82 6  397 216 
 ORTC HE ES        716 44.87                             106   -1.04 6  397 216 
 ORTC HZ I         716 53.29         4.1 0.14            107            397 216 
                                                                                
