 2012  420 0615 35.2 L   6.334 -73.645106.2  RSN  4 0.3 1.0LRSN                1
 GAP=156        0.76       6.4     4.9 11.2  0.1406E+02  0.1875E+02  0.2518E+02E
 Epicentro: SANTA HELENA DEL OPON - SANTANDER                                  3
 ACTION:UPD 12-07-05 11:54 OP:tino STATUS:               ID:20120420061535 L   I
 2012-04-20-0610-00M.COL___187                                                 6
 STAT SP IPHASW D HRMM SECON CODA AMPLIT PERI AZIMU VELO AIN AR TRES W  DIS CAZ7
 BAR2 SZ EP   1    615 51.54                             149    -0.2 7   59  61 
 BAR2 SZ ES   1    616  4.38                             149    -0.2 7   59  61 
 BAR2 SZ I         616  6.64         8.5 0.19                            59  61 
 RUS  HZ EP   1    615 53.26                             141    -0.3 7   79 128 
 RUS  HN ES   1    616  8.19                             141     0.4 7   79 128 
 RUS  HZ I         616  9.57         1.6 0.29                            79 128 
 BRR  HZ I         615 45.77         4.0 0.31                            86 355 
 BRR  HN ES   1    616  7.84                             138     0.3 7   86 355 
 PTB  HZ EP   1    615 54.34                             136     0.4 7   93 284 
 PTB  HN ES   1    616  8.31                             136    -0.3 7   93 284 
 PTB  HZ I         616 11.93         1.1 0.13                            93 284 
                                                                                
