 2011  520 0920 10.5 L   6.747 -73.081145.6  RSN  6 0.3 1.4LRSN                1
 GAP=147        0.69       4.6     7.2  6.8 -0.2563E+01 -0.6197E+01 -0.4010E+01E
 Epicentro: LOS SANTOS - SANTANDER                                             3
 ACTION:UP  11-06-29 08:54 OP:tino STATUS:               ID:20110520092010 L   I
 2011-05-20-0918-43S.COL___140                                                 6
 STAT SP IPHASW D HRMM SECON CODA AMPLIT PERI AZIMU VELO SNR AR TRES W  DIS CAZ7
 BAR2 SZ EP   1    920 29.73                             172    -0.3 7   21 213 
 BAR2 SZ ES   1    920 45.32                             172     0.0 7   21 213 
 BAR2 SZ I         920 45.87         7.1 0.34                            21 213 
 BTL  SZ EP   1    920 30.51                             169     0.3 7   28 312 
 PAM  SZ EP   1    920 32.66                             151    -0.1 7   78  33 
 PAM  SE ES   1    920 50.18                             151     0.1 7   78  33 
 BRR  HZ EP   1    920 31.87                             149    -0.3 7   80 300 
 BRR  HN ES   1    920 49.24                             149     0.2 7   80 300 
 BRR  HZ I         920 52.35         6.4 0.17                            80 300 
 RUS  HZ EP   1    920 34.39                             145     0.6 7   95 180 
 RUS  HN ES   1    920 51.70                             145    -0.3 7   95 180 
 RUS  HZ I         920 53.65         2.5 0.46                            95 180 
 GRA  SZ EP   1    920 35.89                             136    -0.2 7  129  14 
 GRA  SZ I         920 58.65         3.5 0.28                           129  14 
                                                                                
