 2011  220 0201 12.8 L   6.586 -73.532109.8  RSN  6 0.3 1.7LRSN                1
 GAP=156        0.69       3.4     4.1  6.6 -0.3140E+01  0.1094E+02  0.4979E+00E
 Epicentro: EL CARMEN DE CHUCURI - SANTANDER                                   3
 ACTION:UP  11-03-28 15:09 OP:jfem STATUS:               ID:20110220020112 L   I
 2011-02-20-0157-19S.COL___137                                                 6
 STAT SP IPHASW D HRMM SECON CODA AMPLIT PERI AZIMU VELO SNR AR TRES W  DIS CAZ7
 BAR2 SZ IP        2 1 29.01                             159     0.310   39  89 
 BAR2 SZ ES   1    2 1 41.03                             159     0.0 7   39  89 
 BAR2 SZ I         2 1 43.08        53.8 0.39                            39  89 
 RUS  HZ EP   1    2 1 32.36                             138    -0.1 7   91 147 
 RUS  HN ES   1    2 1 47.37                             138    -0.4 7   91 147 
 RUS  HZ I         2 1 51.74         6.9 0.36                            91 147 
 GRA  SZ EP   1    2 1 39.00                             119    -0.1 7  165  29 
 GRA  SZ ES   2    2 1 59.93                             119     0.3 5  165  29 
 GRA  SZ I         2 2 12.10         5.9 0.27                           165  29 
 YOP  SZ EP   1    2 1 40.94                             116    -0.2 7  184 138 
 YOP  SN ES   1    2 2  3.23                             116     0.1 7  184 138 
 NOR  SZ EP        2 1 41.14                             116    -0.2 9  186 233 
 NOR  SN ES   1    2 2  3.50                             116     0.0 7  186 233 
 CHI  HZ EP   1    2 1 44.96                             112    -0.3 6  217 186 
 CHI  HZ I         2 1 46.88         2.8 0.44                           217 186 
 CHI  HN ES   1    2 2 11.32                             112     0.8 6  217 186 
                                                                                
