 2016  420 0649 30.7 L   6.801 -73.164137.4  RSN 11 0.3 2.1LRSN                1
 GAP=134        0.69       2.2     2.7  4.2 -0.1946E+01  0.5302E+01 -0.9069E+00E
 Epicentro: LOS SANTOS - SANTANDER                                             3
 ACTION:UPD 16-05-05 14:22 OP:rebc STATUS:               ID:20160420064930 L   I
 OLDACT:ARG 16-04-20 12:40 OP:cara STATUS:               ID:20160420064748     3
 2016-04-20-0647-48M.COL___306                                                 6
 STAT SP IPHASW D HRMM SECON CODA AMPLIT PERI AZIMU VELO AIN AR TRES W  DIS CAZ7
 BAR2 EZ IP     C  649 49.29                             170   -0.0010 23.2 185 
 BAR2 EZ ES        650  3.97                             170    0.1510 23.2 185 
 BAR2 EZ I         650  5.02        43.8 0.16            171           23.2 185 
 PAM  EZ IP     C  649 52.36                             149    0.2810 78.5  41 
 PAM  EN ES        650  9.10                             149    0.3310 78.5  41 
 PAM  EZ I         650 11.39        28.4 0.58            152           78.5  41 
 RUS  HZ EP        649 53.60                             142   -0.0310  101 175 
 RUS  HE ES        650 11.46                             142   -0.0810  101 175 
 RUS  HZ I         650 13.34        13.3 0.30            145            101 175 
 PTB  HZ EP        649 56.35                             130   -0.44 9  146 259 
 PTB  HN ES        650 16.91                             130   -0.26 9  146 259 
 PTB  HZ I         650 19.69        16.5 0.14            132            146 259 
 OCA  HZ IP        649 58.07                             128   -0.24 9  160 354 
 OCA  HN ES        650 19.52                             128   -0.35 9  160 354 
 OCA  HZ I         650 22.99        34.0 0.48            130            160 354 
 SPBC HZ EP        649 58.38                             127   -0.05 9  162 218 
 SPBC HN ES        650 19.69                             127   -0.40 9  162 218 
 SPBC HZ I         650 24.04        14.3 0.20            129            162 218 
 ZAR  HZ EP        650  2.42                             121    0.03 9  202 292 
 ZAR  HN ES        650 27.34                             121    0.21 9  202 292 
 ZAR  HZ I         650 29.96        10.1 0.32            122            202 292 
 NOR  HZ EP        650  5.37                             117   -0.39 8  233 234 
 NOR  HN ES        650 33.41                             117    0.28 8  233 234 
 NOR  HZ I         650 35.13         8.5 0.14            119            233 234 
 URE  HZ EP   4    650 10.36                             112   -0.77 0  282 292 
 URE  HN ES   4    650 40.89                             112   -1.80 0  282 292 
 URE  HZ I         650 43.05         7.4 0.22            114            282 292 
 GUY2CHZ EP        650 14.21                             111    0.48 7  300 235 
 GUY2CHE ES        650 47.47                             111    0.15 7  300 235 
 GUY2CHZ I         650 54.61         6.5 0.24                           300 235 
 CBOC HZ EP        650 17.52                             108    0.48 7  332 252 
 CBOC HE ES        650 53.62                             108    0.41 7  332 252 
 CBOC HZ I         650 58.29         2.1 0.42            110            332 252 
                                                                                
