 2017  920 0148  2.3 L   6.778 -73.140137.6  RSN 10 0.4 1.5LRSN                1
 GAP=113        0.76       3.2     3.3  5.1  0.1155E+00  0.3350E+01  0.2829E+01E
 Epicentro: LOS SANTOS - SANTANDER                                             3
 ACTION:UPD 17-10-05 19:14 OP:rebc STATUS:               ID:20170920014803dL   I
 OLDACT:UP  17-09-20 18:18 OP:and  STATUS:               ID:20170920014745d    3
 OLDACT:UP  17-09-20 18:17 OP:and  STATUS:               ID:20170920014745d    3
 OLDACT:UP  17-09-20 18:16 OP:and  STATUS:               ID:20170920014745d    3
 OLDACT:UP  17-09-20 18:12 OP:and  STATUS:               ID:20170920014745d    3
 OLDACT:UP  17-09-20 18:12 OP:and  STATUS:               ID:20170920014745d    3
 OLDACT:DUP 17-09-20 18:10 OP:and  STATUS:               ID:20170920014745d    3
 OLDACT:UP  17-09-20 18:08 OP:and  STATUS:               ID:20170920014744     3
 OLDACT:UP  17-09-20 18:08 OP:and  STATUS:               ID:20170920014744     3
 OLDACT:UP  17-09-20 18:07 OP:and  STATUS:               ID:20170920014744     3
 OLDACT:UP  17-09-20 18:07 OP:and  STATUS:               ID:20170920014744     3
 OLDACT:UP  17-09-20 18:07 OP:and  STATUS:               ID:20170920014744     3
 OLDACT:UP  17-09-20 17:56 OP:and  STATUS:               ID:20170920014744     3
 OLDACT:UP  17-09-20 17:56 OP:and  STATUS:               ID:20170920014744     3
 OLDACT:UP  17-09-20 17:56 OP:and  STATUS:               ID:20170920014744     3
 OLDACT:UP  17-09-20 17:55 OP:and  STATUS:               ID:20170920014744     3
 OLDACT:UP  17-09-20 17:55 OP:and  STATUS:               ID:20170920014744     3
 OLDACT:UP  17-09-20 17:53 OP:and  STATUS:               ID:20170920014744     3
 OLDACT:UP  17-09-20 17:53 OP:and  STATUS:               ID:20170920014744     3
 OLDACT:UP  17-09-20 17:52 OP:and  STATUS:               ID:20170920014744     3
 OLDACT:REG 17-09-20 13:25 OP:leo  STATUS:               ID:20170920014744     3
 2017-09-20-0148-00M.COL___444                                                 6
 STAT SP IPHASW D HRMM SECON CODA AMPLIT PERI AZIMU VELO AIN AR TRES W  DIS CAZ7
 BAR2 EZ ES        148 35.18                             171   -0.2310 21.0 193 
 BAR2 EZ I         148 39.32         5.7 0.20            170           21.0 193 
 BRR  HZ EP        148 22.86                             150    0.1810 72.9 300 
 BRR  HN ES   2    148 39.50                             150    0.94 5 72.9 300 
 BRR  HZ I         148 43.02         5.5 0.27            149           72.9 300 
 PAM  EZ IP     C  148 23.60                             149   -0.1510 78.9  38 
 PAM  EN ES        148 40.51                             149    0.0310 78.9  38 
 PAM  EZ I         148 42.91         5.8 0.62            152           78.9  38 
 RUS  HZ EP        148 25.16                             143    0.0910 98.1 176 
 RUS  HN ES        148 42.81                             143   -0.0210 98.1 176 
 RUS  HZ I         148 44.04         4.4 0.22            146           98.1 176 
 YPLC HZ EP        148 31.19                             125   -0.08 9  174 151 
 YPLC HN ES   2    148 54.65                             125    0.79 4  174 151 
 ZAR  HN ES        148 59.30                             120   -0.11 8  206 293 
 ZAR  HZ I         149  5.67         4.2 0.36            121            206 293 
 NOR  HZ EP   2    148 38.27                             117    0.80 4  234 235 
 NOR  HN ES        149  4.36                             117   -0.53 8  234 235 
 NOR  HZ I         149  6.75         1.9 0.16            118            234 235 
 GUY2CHZ EP   9    148 46.73                             111    1.29 0  300 235 
 GUY2CHE ES        149 21.16                             111    0.79 7  300 235 
 GUY2CHZ I         149 26.84         1.3 0.44                           300 235 
 PTGC HZ EP   3    148 43.95                             110   -1.57 2  306 159 
 PRA  HZ EP        148 55.59                             105    0.26 6  390 210 
 PRA  HN ES   3    149 37.77                             105    1.07 1  390 210 
 PRA  HZ I         149 42.73         1.3 0.24            107            390 210 
                                                                                
