 2017  120 0419 58.5 L   6.818 -73.135150.1  RSN  6 0.5 1.3LRSN                1
 GAP=137        1.25       5.4     5.7  9.9  0.2481E+01  0.8240E+01  0.1701E+02E
 Epicentro: LOS SANTOS - SANTANDER                                             3
 ACTION:UPD 17-05-22 16:01 OP:jn   STATUS:               ID:20170120041960dL   I
 2017-01-20-0418-00M.COL___313                                                 6
 STAT SP IPHASW D HRMM SECON CODA AMPLIT PERI AZIMU VELO AIN AR TRES W  DIS CAZ7
 BRR  HZ EP        420 20.09                             153    0.0110 71.3 297 
 BRR  HN ES        420 37.23                             153    0.2810 71.3 297 
 BRR  HZ I         420 40.05         5.0 0.76            154           71.3 297 
 PAM  EZ EP        420 20.92                             152   -0.0810 75.1  40 
 PAM  EE ES        420 38.75                             152    0.1610 75.1  40 
 PAM  EZ I         420 40.51         4.0 0.48            155           75.1  40 
 RUS  HZ EP        420 22.47                             144   -0.3010  102 177 
 RUS  HN ES        420 41.49                             144   -0.2410  102 177 
 RUS  HZ I         420 42.10         2.4 0.40            145            102 177 
 PTB  HZ EP        420 25.48                             133   -0.44 9  149 258 
 PTB  HE ES        420 46.38                             133   -0.96 9  149 258 
 PTB  HZ I         420 49.71         2.5 0.11            134            149 258 
 ZAR  HN ES        420 57.60                             123    0.82 9  204 292 
 CHI  HZ EP        420 36.81                             118    0.18 8  251 195 
 CHI  HE ES        421  7.47                             118    1.06 8  251 195 
 CHI  HZ I         421 12.04         1.1 0.29            119            251 195 
                                                                                
