 2015  720 0710 17.8 L   6.823 -73.149146.5  RSN  5 0.3 1.6LRSN                1
 GAP=135        0.82       3.4     5.2  6.9  0.1432E+01  0.8214E+01 -0.4449E+01E
 Epicentro: LOS SANTOS - SANTANDER                                             3
 ACTION:UPD 15-09-08 21:49 OP:cam  STATUS:               ID:20150720071017 L   I
 OLDACT:REG 15-07-20 14:41 OP:stll STATUS:               ID:20150720070748     3
 2015-07-20-0707-48M.COL___331                                                 6
 STAT SP IPHASW D HRMM SECON CODA AMPLIT PERI AZIMU VELO AIN AR TRES W  DIS CAZ7
 BAR2 EZ EP        710 37.50                             170   -0.1110 25.8 188 
 BAR2 EZ ES        710 53.21                             170    0.1810 25.8 188 
 BAR2 EZ I         710 54.81         6.9 0.26            170           25.8 188 
 PAM  EZ EP        710 40.54                             151    0.5110 75.6  41 
 PAM  EZ I         710 40.68         9.2 0.20            154           75.6  41 
 PAM  EN ES        710 57.46                             151    0.1210 75.6  41 
 RUS  HZ EP        710 42.01                             143    0.1710  103 176 
 RUS  HN ES        711  0.14                             143   -0.4310  103 176 
 RUS  HZ I         711  3.39         2.5 0.26            146            103 176 
 OCA  HZ EP        710 45.59                             130   -0.37 9  158 353 
 OCA  HN ES        711  7.52                             130   -0.38 9  158 353 
 OCA  HZ I         711 13.50         6.0 0.38            131            158 353 
 ZAR  HN ES        711 15.69                             123    0.25 9  203 292 
 ZAR  HZ I         711 21.22         5.1 0.42            123            203 292 
                                                                                
