 2017  120 0947 40.4 L   6.225 -74.022  0.6  RSN  4 0.4 1.0LRSN                1
 GAP=196        0.92       5.6     2.5  8.9  0.4279E+01 -0.5261E+01 -0.3170E+02E
 Epicentro: CIMITARRA - SANTANDER                                              3
 ACTION:UPD 17-05-22 16:01 OP:jn   STATUS:               ID:20170120094741dL   I
 OLDACT:UP  17-01-20 17:53 OP:edw  STATUS:               ID:20170120093742     3
 OLDACT:UP  17-01-20 17:50 OP:edw  STATUS:               ID:20170120093742     3
 OLDACT:UP  17-01-20 17:50 OP:edw  STATUS:               ID:20170120093742     3
 OLDACT:REG 17-01-20 12:49 OP:dani STATUS:               ID:20170120093742     3
 2017-01-20-0938-00M.COL___301                                                 6
 STAT SP IPHASW D HRMM SECON CODA AMPLIT PERI AZIMU VELO AIN AR TRES W  DIS CAZ7
 PTB  HZ EP        947 50.47                              47    0.0310 59.3 306 
 PTB  HE ES        947 58.20                              47   -0.1210 59.3 306 
 PTB  HZ I         947 58.32         8.8 0.14             47           59.3 306 
 BAR2 EZ EP   4    947 54.90                              47   -2.14 0  101  66 
 BAR2 EZ ES        948  9.64                              47   -0.4110  101  66 
 BAR2 EZ I         948 11.12         6.3 0.38             47            101  66 
 BRR  HZ EP        947 56.71                              47   -0.3910  103  19 
 BRR  HN ES        948 10.69                              47    0.5310  103  19 
 RUS  HZ EP        947 59.01                              47    0.3710  110 109 
 RUS  HZ I         948 18.82         1.9 0.42             47            110 109 
                                                                                
