 2011 1120 0945 43.0 L   6.787 -73.125140.0  RSN 11 0.4 2.8LRSN                1
 GAP=140        0.72       3.2     4.8  5.4 -0.2376E+01  0.1001E+02  0.1269E+01E
 Epicentro: LOS SANTOS - SANTANDER                                             3
 ACTION:UPD 12-07-13 16:11 OP:ep   STATUS:               ID:20111120094543 L   I
 2011-11-20-0944-09S.COL___178                                                 6
 STAT SP IPHASW D HRMM SECON CODA AMPLIT PERI AZIMU VELO AIN AR TRES W  DIS CAZ7
 BAR2 SZ IP        946  1.96                             170    0.0310 22.4 196 
 BAR2 SZ ES   1    946 16.53                             170   -0.15 7 22.4 196 
 BAR2 SZ I         946 17.73       100.6 0.13                          22.4 196 
 BRR  HZ EP        946  3.88                             151    0.1810 73.9 299 
 BRR  HE ES   1    946 20.56                             151    0.72 7 73.9 299 
 BRR  HZ I         946 21.83       148.9 0.15                          73.9 299 
 PAM  SZ EP   1    946  4.86                             150    0.26 7 77.1  38 
 PAM  SZ I         946  5.23       176.6 0.17                          77.1  38 
 PAM  SN ES   1    946 21.59                             150    0.16 7 77.1  38 
 RUS  HZ EP   1    946  5.97                             143   -0.11 7 99.0 177 
 RUS  HN ES   1    946 23.79                             143   -0.29 7 99.0 177 
 RUS  HZ I         946 26.37        37.9 0.31                          99.0 177 
 OCA  SZ EP   1    946 10.70                             128   -0.34 7  162 352 
 OCA  SZ ES   1    946 32.25                             128   -0.66 7  162 352 
 OCA  SZ I         946 36.80       115.4 0.55                           162 352 
 ZAR  HZ EP   1    946 14.99                             121   -0.38 6  207 292 
 ZAR  HN ES   2    946 40.86                             121    0.26 4  207 292 
 ZAR  HZ I         946 49.10        49.6 0.22                           207 292 
 NOR  SZ EP   1    946 18.64                             117    0.12 6  236 235 
 NOR  SN ES   1    946 45.47                             117   -0.75 6  236 235 
 HEL  HZ EP   2    946 22.54                             113   -0.61 4  274 256 
 HEL  HZ I         947  2.71        27.3 0.21                           274 256 
 GUY  SZ EP   1    946 27.15                             111    0.41 5  305 236 
 GUY  SZ I         947  6.12        32.3 0.41                           305 236 
 RREF HZ EP   2    946 30.02                             110    1.02 3  323 230 
 PRA  HZ EP   1    946 36.84                             106    0.52 4  392 210 
 PRA  HN ES   2    947 18.06                             106    0.15 3  392 210 
                                                                                
