 2014  920 0736 54.1 L   6.792 -73.113147.8  RSN  8 0.3 1.4LRSN                1
 GAP=141        0.79       3.2     3.6  5.8 -0.1650E+01  0.4541E+01 -0.1835E+01E
 Epicentro: LOS SANTOS - SANTANDER                                             3
 ACTION:UPD 14-10-03 23:06 OP:nd   STATUS:               ID:20140920073654 L   I
 OLDACT:DUP 14-09-20 18:08 OP:spq  STATUS:               ID:20140920072813d    3
 OLDACT:REG 14-09-20 12:42 OP:spq  STATUS:               ID:20140920072811     3
 2014-09-20-0728-11M.COL___293                                                 6
 STAT SP IPHASW D HRMM SECON CODA AMPLIT PERI AZIMU VELO AIN AR TRES W  DIS CAZ7
 BAR2 SZ EP        737 13.88                             171   -0.0810 23.3 199 
 BAR2 SZ ES   1    737 28.68                             171   -0.78 7 23.3 199 
 BAR2 SZ I         737 31.72         5.1 0.28            170           23.3 199 
 BRR  HN ES   1    737 32.80                             152    0.31 7 74.9 298 
 BRR  HZ I         737 34.41         4.7 0.42            150           74.9 298 
 PAM  SZ EP        737 16.78                             152    0.3510 75.9  37 
 PAM  SN ES        737 34.07                             152    0.2110 75.9  37 
 PAM  SZ I         737 36.17         4.2 0.20            155           75.9  37 
 RUS  HZ EP   1    737 17.71                             144   -0.25 7 99.5 178 
 RUS  HN ES   1    737 36.48                             144   -0.10 7 99.5 178 
 RUS  HZ I         737 38.06         1.8 0.30            147           99.5 178 
 PTB  HZ EP   1    737 21.34                             132   -0.19 7  151 259 
 PTB  HE ES        737 42.55                             132   -0.38 9  151 259 
 PTB  HZ I         737 47.97         4.9 0.19            132            151 259 
 SPBC HZ EP        737 22.90                             129    0.00 9  165 220 
 SPBC HN ES        737 45.97                             129    0.61 9  165 220 
 SPBC HZ I         737 50.08         3.8 0.40            130            165 220 
 ZAR  HN ES        737 52.98                             122    0.22 8  208 292 
 ZAR  HZ I         737 58.36         2.8 0.32            123            208 292 
 SML  HZ EP        737 30.82                             118   -0.27 8  246 335 
 SML  HN ES   1    737 59.74                             118   -0.21 6  246 335 
 SML  HZ I         738  2.63         3.7 0.10            119            246 335 
                                                                                
