 2011 1120 1147 24.4 L   6.750 -73.173138.6  RSN  5 0.4 1.3LRSN                1
 GAP=135        0.74       5.1     6.0  9.1  0.2083E+01  0.1797E+02 -0.7266E+01E
 Epicentro: VILLANUEVA - SANTANDER                                             3
 ACTION:UPD 12-07-13 16:11 OP:ep   STATUS:               ID:20111120114724 L   I
 2011-11-20-1146-12S.COL___183                                                 6
 STAT SP IPHASW D HRMM SECON CODA AMPLIT PERI AZIMU VELO AIN AR TRES W  DIS CAZ7
 BAR2 SZ ES   1   1147 58.02                             172    0.40 7 17.5 183 
 BRR  HZ EP   1   1147 45.01                             151    0.22 7 71.4 304 
 BRR  HZ I        1147 57.57         7.7 0.40                          71.4 304 
 PAM  SZ EP   1   1147 45.94                             147   -0.31 7 83.6  39 
 PAM  SN ES   1   1148  3.25                             147   -0.05 7 83.6  39 
 PAM  SZ I        1148  5.49         2.0 0.32                          83.6  39 
 RUS  HZ EP   1   1147 47.54                             144    0.47 7 95.4 174 
 RUS  HN ES   1   1148  4.18                             144   -0.57 7 95.4 174 
 ZAR  HN ES   1   1148 20.98                             121   -0.23 6  203 294 
                                                                                
