 2010  920 1010  5.9 L   6.793 -73.104144.8  RSN  5 0.2 1.3LRSN                1
 GAP=163        0.52       5.4    10.7  8.9  0.2198E+02 -0.4572E+02 -0.2034E+02E
 Epicentro: LOS SANTOS - SANTANDER                                             3
 ACTION:UP  11-02-18 11:04 OP:tino STATUS:               ID:20100920101005 L   I
 2010-09-20-1008-52S.COL___121                                                 6
 STAT SP IPHASW D HRMM SECON CODA AMPLIT PERI AZIMU VELO SNR AR TRES W  DIS CAZ7
 BTL  SZ EP   1   1010 25.58                             171     0.2 7   23 308 
 BAR2 SZ EP   1   1010 25.28                             170    -0.1 7   24 201 
 BAR2 SZ ES   2   1010 40.28                             170    -0.4 5   24 201 
 BAR2 SZ I        1010 41.93         6.1 0.22                            24 201 
 BRR  HZ EP   1   1010 26.85                             151    -0.3 7   76 297 
 BRR  HE ES   2   1010 44.15                             151     0.4 5   76 297 
 BRR  HZ I        1010 46.60         5.2 0.32                            76 297 
 RUS  HZ EP   1   1010 29.55                             144     0.1 7  100 179 
 RUS  HN ES   2   1010 47.95                             144     0.1 5  100 179 
 RUS  HZ I        1010 49.27         2.1 0.40                           100 179 
 GRA  SZ EP   1   1010 31.09                             137     0.1 7  125  15 
 GRA  SZ I        1010 32.51         3.4 0.30                           125  15 
                                                                                
