 2011 1120 1424 46.4 L   6.767 -73.091153.0  RSN  4 0.4 1.6LRSN                1
 GAP=145        0.78       5.7     6.6  9.0 -0.1043E+02  0.1201E+02  0.1104E+02E
 Epicentro: LOS SANTOS - SANTANDER                                             3
 ACTION:UPD 12-07-13 16:11 OP:ep   STATUS:               ID:20111120142446 L   I
 2011-11-20-1423-15S.COL___177                                                 6
 STAT SP IPHASW D HRMM SECON CODA AMPLIT PERI AZIMU VELO AIN AR TRES W  DIS CAZ7
 PAM  SZ EP   1   1425  9.30                             152   -0.09 7 76.7  34 
 PAM  SN ES   1   1425 26.71                             152   -0.58 7 76.7  34 
 BRR  HZ EP   1   1425  9.29                             151    0.51 7 78.3 299 
 BRR  HE ES   1   1425 26.48                             151    0.29 7 78.3 299 
 BRR  HZ I        1425 28.00         7.5 0.10                          78.3 299 
 RUS  HZ EP   1   1425 11.05                             146    0.40 7 96.7 179 
 RUS  HN ES   1   1425 29.63                             146    0.11 7 96.7 179 
 RUS  HZ I        1425 30.98         6.0 0.30                          96.7 179 
 NOR  SZ EP   1   1425 22.44                             120   -0.47 6  238 236 
 NOR  SN ES   1   1425 50.84                             120   -0.51 6  238 236 
                                                                                
