 2016  920 1834 59.7 L   6.779 -73.138139.3  RSN  5 0.2 1.5LRSN                1
 GAP=138        0.58       3.0     2.7  4.9 -0.3052E+00  0.4389E+01 -0.1281E+01E
 Epicentro: LOS SANTOS - SANTANDER                                             3
 ACTION:UPD 17-08-17 21:14 OP:lp   STATUS:               ID:20160920183459 L   I
 OLDACT:UP  16-09-20 23:17 OP:ar   STATUS:               ID:20160920182734     3
 OLDACT:REG 16-09-20 21:15 OP:edw  STATUS:               ID:20160920182734     3
 2016-09-20-1828-00M.COL___360                                                 6
 STAT SP IPHASW D HRMM SECON CODA AMPLIT PERI AZIMU VELO AIN AR TRES W  DIS CAZ7
 BAR2 EZ EP       1835 18.45                             171   -0.0310 21.2 193 
 BAR2 EZ ES       1835 33.15                             171    0.0110 21.2 193 
 BAR2 EZ I        1835 35.32         7.9 0.28            172           21.2 193 
 PAM  EZ EP       1835 21.27                             149   -0.0110 78.7  38 
 PAM  EE ES       1835 38.08                             149   -0.0510 78.7  38 
 PAM  EZ I        1835 40.33        10.0 0.52            151           78.7  38 
 RUS  HZ EP       1835 22.36                             143   -0.2510 98.2 176 
 RUS  HN ES       1835 40.78                             143    0.2710 98.2 176 
 RUS  HZ I        1835 42.11         2.5 0.24            147           98.2 176 
 PTB  HZ EP       1835 26.37                             130    0.22 9  148 260 
 PTB  HE ES       1835 46.41                             130   -0.39 9  148 260 
 PTB  HZ I        1835 48.48         4.1 0.14            132            148 260 
 ZAR  HZ EP   4   1835 34.50                             121    2.63 0  206 293 
 ZAR  HN ES       1835 57.27                             121    0.28 8  206 293 
 ZAR  HZ I        1836  2.59         4.8 0.30            122            206 293 
                                                                                
