 2010  320 1003 38.9 L   6.779 -73.033142.5  RSN  7 0.2 1.9LRSN                1
 GAP=194        0.37       2.2     5.1  3.4  0.1514E+01 -0.3403E+00  0.1968E+00E
 Epicentro: CEPITA - SANTANDER                                                 3
 ACTION:UP  10-08-24 09:55 OP:vdl  STATUS:               ID:20100320100338 L   I
 2010-03-20-1002-06S.COL___098                                                 6
 STAT SP IPHASW D HRMM SECON CODA AMPLIT PERI AZIMU VELO SNR AR TRES W  DIS CAZ7
 BAR2 SZ IP       10 3 58.31                             169     0.110   27 219 
 BAR2 SZ ES   1   10 4 13.09                             169    -0.2 7   27 219 
 BRR  HZ IP       10 4  0.51                             148     0.110   83 296 
 BRR  HE ES   1   10 4 17.26                             148     0.0 7   83 296 
 BRR  HZ I        10 4 21.84        15.0 0.36                            83 296 
 RUS  HZ EP   2   10 4  2.25                             144     0.1 5   98 183 
 RUS  HN ES   2   10 4 20.32                             144     0.0 5   98 183 
 OCA  SZ EP   1   10 4  7.06                             128    -0.3 7  164 349 
 OCA  SZ ES   2   10 4 29.96                             128     0.4 5  164 349 
 OCA  SZ I        10 4 33.63        14.9 0.31                           164 349 
 CHI  HZ EP   2   10 4 16.73                             116     0.2 4  250 198 
 CHI  HN ES   2   10 4 45.99                             116     0.0 4  250 198 
 CHI  HZ I        10 4 52.32         2.0 0.26                           250 198 
 HEL  HZ EP   2   10 4 20.00                             113    -0.2 4  284 257 
 HEL  HZ I        10 4 56.74         2.4 0.34                           284 257 
 PRA  HZ EP   2   10 4 32.88                             106     0.1 3  396 211 
 PRA  HE ES   2   10 5 14.84                             106     0.0 3  396 211 
 PRA  HZ I        10 5 20.11         3.7 0.24                           396 211 
                                                                                
