 2017  220 1418 14.2 L   6.796 -73.188140.6  RSN  7 0.5 1.6LRSN                1
 GAP=131        1.30       5.2     5.6  8.7  0.2736E+01  0.9392E+01  0.1114E+02E
 Epicentro: ZAPATOCA - SANTANDER                                               3
 ACTION:UPD 17-05-24 15:38 OP:jn   STATUS:               ID:20170220141814 L   I
 OLDACT:REG 17-02-20 21:49 OP:cog  STATUS:               ID:20170220141134     3
 2017-02-20-1418-00M.COL___364                                                 6
 STAT SP IPHASW D HRMM SECON CODA AMPLIT PERI AZIMU VELO AIN AR TRES W  DIS CAZ7
 BAR2 EZ EP       1418 32.98                             170   -0.2110 22.6 178 
 BAR2 EZ ES       1418 48.20                             170    0.2010 22.6 178 
 BAR2 EZ I        1418 50.75        12.1 0.34            173           22.6 178 
 BRR  HZ EP       1418 34.78                             153    0.2110 67.3 301 
 BRR  HN ES       1418 51.15                             153    0.6910 67.3 301 
 BRR  HZ I        1418 57.78        11.9 0.55            154           67.3 301 
 PAM  EZ EP       1418 35.91                             149   -0.1710 80.7  42 
 PAM  EE ES       1418 53.06                             149   -0.0810 80.7  42 
 PAM  EZ I        1418 56.21         6.2 0.50            152           80.7  42 
 RUS  HZ EP       1418 37.09                             143   -0.3610  101 173 
 RUS  HN ES       1418 55.25                             143   -0.3310  101 173 
 RUS  HZ I        1418 56.62         4.0 0.18            147            101 173 
 PTB  HZ EP       1418 40.90                             132    0.58 9  143 259 
 PTB  HN ES       1418 59.53                             132   -1.17 9  143 259 
 PTB  HZ I        1419  3.39         5.0 0.10            135            143 259 
 ZAR  HN ES       1419 10.58                             122   -0.01 9  200 293 
 CHI  HZ EP       1418 51.32                             116   -0.12 8  247 194 
 CHI  HN ES       1419 21.53                             116    1.04 8  247 194 
                                                                                
