 2011  520 1937 34.0 L   6.783 -73.104142.0  RSN  6 0.4 1.9LRSN                1
 GAP=143        1.16       6.3    12.6 14.5 -0.7878E+01 -0.6489E+02 -0.4973E+01E
 Epicentro: LOS SANTOS - SANTANDER                                             3
 ACTION:UP  11-06-29 08:55 OP:tino STATUS:               ID:20110520193734 L   I
 2011-05-20-1920-00M.COL___142                                                 6
 STAT SP IPHASW D HRMM SECON CODA AMPLIT PERI AZIMU VELO SNR AR TRES W  DIS CAZ7
 BAR2 SZ EP       1937 52.73                             171    -0.510   23 202 
 BAR2 SZ ES   3   1938  7.53                             171    -0.6 2   23 202 
 BTL  SZ EP       1937 53.95                             171     0.710   24 310 
 PAM  SZ EP       1937 56.28                             151     0.510   76  36 
 BRR  HZ EP       1937 54.71                             151    -0.310   76 298 
 BRR  HZ I        1937 55.00        43.2 0.12                            76 298 
 BRR  HN ES   1   1938 11.76                             151     0.3 7   76 298 
 RUS  HZ EP       1937 56.98                             144    -0.310   98 179 
 RUS  HN ES   1   1938 15.57                             144     0.2 7   98 179 
 RUS  HZ I        1938 16.73        10.4 0.17                            98 179 
 GRA  SZ EP       1937 58.74                             137    -0.210  126  15 
 GRA  SZ ES   1   1938 18.04                             137    -0.4 7  126  15 
 GRA  SZ I        1938 24.66         7.3 0.33                           126  15 
                                                                                
