 2012  920 1406 30.1 L   6.676 -73.261152.5  RSN  4 0.2 1.6LRSN                1
 GAP=183        0.49       8.8    11.0  7.0  0.8173E+02 -0.1699E+02 -0.1341E+01E
 Epicentro: BARICHARA - SANTANDER                                              3
 ACTION:UPD 12-10-22 14:19 OP:ep   STATUS:               ID:20120920140630 L   I
 2012-09-20-1400-00M.COL___224                                                 6
 STAT SP IPHASW D HRMM SECON CODA AMPLIT PERI AZIMU VELO AIN AR TRES W  DIS CAZ7
 BAR2 SZ EP       14 6 50.13                             175   -0.2810 12.7 137 
 BAR2 SZ I        14 7  7.01        13.7 0.18                          12.7 137 
 BRR  HZ EP       14 6 52.06                             154    0.1710 69.0 314 
 BRR  HZ I        14 6 59.54         8.2 0.41                          69.0 314 
 BRR  HN ES       14 7  8.90                             154    0.0410 69.0 314 
 RUS  HZ EP   1   14 6 53.98                             148    0.22 7 88.8 167 
 RUS  HZ I        14 6 55.50         2.6 0.23                          88.8 167 
 RUS  HN ES   2   14 7 12.17                             148   -0.02 5 88.8 167 
 ZAR  HN ES   2   14 7 27.34                             124   -0.29 4  198 297 
                                                                                
