 2011  120 1935 20.9 L   5.985 -73.659110.6  RSN  5 0.1 1.7LRSN                1
 GAP=122        0.41       2.7     2.8  6.4 -0.2328E+01  0.7115E+01 -0.2279E+01E
 Epicentro: VELEZ - SANTANDER                                                  3
 ACTION:UP  11-02-08 08:41 OP:pat  STATUS:               ID:20110120193520 L   I
 2011-01-20-1920-00S.MAN___124                                                 6
 STAT SP IPHASW D HRMM SECON CODA AMPLIT PERI AZIMU VELO SNR AR TRES W  DIS CAZ7
 RUS  HZ EP   1   1935 38.80                             148     0.2 8   65  99 
 RUS  HN ES   1   1935 52.47                             148     0.0 8   65  99 
 RUS  HZ I        1935 54.80        14.4 0.32                            65  99 
 BAR2 SZ EP   1   1935 39.54                             140    -0.2 8   85  38 
 NOR  SN ES   1   1936  3.37                             124     0.1 8  142 251 
 CHI  HZ EP   1   1935 46.15                             122     0.2 7  150 183 
 CHI  HE ES       1936  5.46                             122    -0.110  150 183 
 CHI  HZ I        1936  9.34         6.7 0.33                           150 183 
 HEL  HZ EP   2   1935 52.18                             113    -0.1 5  208 276 
 HEL  HZ I        1936 18.94         6.1 0.49                           208 276 
                                                                                
