 2011  720 1412  7.3 L   6.428 -73.592 93.3  RSN  7 0.5 2.5LRSN                1
 GAP=114        0.94       4.2     6.2  9.9 -0.1080E+02  0.3058E+02 -0.9355E+01E
 Epicentro: SANTA HELENA DEL OPON - SANTANDER                                  3
 ACTION:UPD 12-07-25 14:02 OP:epov STATUS:               ID:20110720141207 L   I
 2011-07-20-1410-31S.COL___143                                                 6
 STAT SP IPHASW D HRMM SECON CODA AMPLIT PERI AZIMU VELO AIN AR TRES W  DIS CAZ7
 BAR2 SZ IP   1   1412 20.95                             151   -0.89 7 48.8  68 
 BAR2 SZ ES   1   1412 33.24                             151    0.04 7 48.8  68 
 BAR2 SZ I        1412 35.01       250.6 0.53                          48.8  68 
 BRR  HN ES   2   1412 35.83                             138   -0.31 5 76.2 350 
 BRR  HZ I        1412 37.03       101.1 0.12                          76.2 350 
 RUS  HZ EP   1   1412 24.26                             136   -0.38 7 81.8 136 
 RUS  HE ES   1   1412 38.66                             136    0.48 7 81.8 136 
 RUS  HZ I        1412 41.17        26.9 0.22                          81.8 136 
 NOR  SZ EP   1   1412 32.44                             114   -0.73 7  171 236 
 NOR  SN ES   1   1412 53.96                             114    0.60 7  171 236 
 GRA  SZ EP   1   1412 35.01                             113    0.30 7  183  28 
 GRA  SZ ES   1   1412 56.50                             113    0.39 7  183  28 
 GRA  SZ I        1412 58.09        43.8 0.24                           183  28 
 OCA  SZ ES   1   1413  0.34                             110    0.27 6  202   9 
 PRA  HZ EP   1   1412 52.88                             102    0.59 5  333 206 
                                                                                
