 2017  220 1928 15.7 L   6.793 -73.123140.0  RSN  6 0.3 1.8LRSN                1
 GAP=140        0.72       2.8     3.8  4.7  0.1919E+01  0.5052E+01  0.2649E+01E
 Epicentro: LOS SANTOS - SANTANDER                                             3
 ACTION:UPD 17-05-24 15:38 OP:jn   STATUS:               ID:20170220192815 L   I
 OLDACT:REG 17-02-20 22:18 OP:cog  STATUS:               ID:20170220191745     3
 2017-02-20-1918-00M.COL___373                                                 6
 STAT SP IPHASW D HRMM SECON CODA AMPLIT PERI AZIMU VELO AIN AR TRES W  DIS CAZ7
 BAR2 EZ EP       1928 34.29                             170   -0.3510 23.2 196 
 BAR2 EZ ES       1928 49.44                             170    0.0410 23.2 196 
 BAR2 EZ I        1928 50.09        16.2 0.19            168           23.2 196 
 BRR  HZ EP       1928 36.25                             151   -0.1310 73.7 298 
 BRR  HN ES       1928 52.98                             151    0.4710 73.7 298 
 BRR  HZ I        1928 56.48        15.0 0.12            150           73.7 298 
 PAM  EZ EP       1928 37.36                             150    0.1110 76.4  38 
 PAM  EN ES       1928 54.05                             150   -0.0010 76.4  38 
 PAM  EZ I        1928 56.05        22.1 0.34            154           76.4  38 
 RUS  HZ EP       1928 38.65                             143   -0.1710 99.7 177 
 RUS  HN ES       1928 56.77                             143   -0.0910 99.7 177 
 RUS  HZ I        1928 58.87         4.2 0.25            143           99.7 177 
 ZAR  HZ EP       1928 47.95                             121   -0.10 8  207 292 
 ZAR  HN ES       1929 12.98                             121   -0.30 8  207 292 
 ZAR  HZ I        1929 15.79         6.3 0.10            122            207 292 
 CHI  HZ EP       1928 53.80                             116    0.72 8  249 196 
 CHI  HN ES       1929 22.16                             116   -0.08 8  249 196 
 CHI  HZ I        1929 28.98         2.4 0.53            117            249 196 
                                                                                
