 2013  520 1211 19.2 L   6.794 -73.130144.2  RSN  6 0.4 1.4LRSN                1
 GAP=207        0.77       6.8     6.3  8.3  0.1931E+01  0.1550E+02  0.6056E+01E
 Epicentro: LOS SANTOS - SANTANDER                                             3
 ACTION:UPD 13-06-20 09:52 OP:ep   STATUS:               ID:20130520121119 L   I
 2013-05-20-1210-00M.COL___256                                                 6
 STAT SP IPHASW D HRMM SECON CODA AMPLIT PERI AZIMU VELO AIN AR TRES W  DIS CAZ7
 BAR2 SZ EP   1   1211 38.70                             170    0.05 7 23.0 194 
 BAR2 SZ I        1211 56.13         5.1 0.26            152           23.0 194 
 GIR2 SZ EP   1   1211 38.72                             167   -0.00 7 32.2 348 
 GIR2 SZ ES       1211 53.87                             167   -0.0810 32.2 348 
 BRR  HE ES   1   1211 57.15                             152    0.41 7 73.0 298 
 BRR  HZ I        1211 59.84         7.9 0.50            163           73.0 298 
 PTB  HZ EP   1   1211 46.44                             131    0.25 7  149 259 
 PTB  HN ES   1   1212  6.49                             131   -0.74 7  149 259 
 PTB  HZ I        1212  8.76         2.7 0.28            128            149 259 
 ZAR  HN ES   1   1212 17.70                             122    0.59 6  206 292 
 SML  HE ES   1   1212 23.98                             117   -0.52 6  245 335 
                                                                                
