 2011 1120 1803 14.9 L   6.757 -73.113147.2  RSN 10 0.4 2.5LRSN                1
 GAP=143        0.77       3.1     4.4  5.7 -0.3132E+01  0.1042E+02  0.2242E+01E
 Epicentro: LOS SANTOS - SANTANDER                                             3
 ACTION:UPD 12-07-13 16:11 OP:ep   STATUS:               ID:20111120180314 L   I
 2011-11-20-1801-22S.COL___178                                                 6
 STAT SP IPHASW D HRMM SECON CODA AMPLIT PERI AZIMU VELO AIN AR TRES W  DIS CAZ7
 BAR2 SZ IP       18 3 34.74                             172    0.1510 19.8 203 
 BAR2 SZ ES   1   18 3 49.88                             172   -0.10 7 19.8 203 
 BAR2 SZ I        18 3 50.89        97.4 0.21                          19.8 203 
 BRR  HZ IP     C 18 3 36.75                             151    0.2810 76.7 300 
 BRR  HZ I        18 3 37.22       148.4 0.11                          76.7 300 
 BRR  HN ES   1   18 3 53.79                             151    0.46 7 76.7 300 
 PAM  SZ EP   1   18 3 37.88                             151    0.57 7 79.0  35 
 PAM  SN ES       18 3 54.78                             151   -0.0510 79.0  35 
 PAM  SZ I        18 3 56.25        23.5 0.23                          79.0  35 
 RUS  HZ EP   1   18 3 38.40                             145    0.00 7 95.7 178 
 RUS  HE ES   1   18 3 56.63                             145   -0.13 7 95.7 178 
 RUS  HZ I        18 3 58.75        45.4 0.20                          95.7 178 
 OCA  SZ EP   1   18 3 43.77                             129    0.01 7  165 352 
 OCA  SZ ES   1   18 4  5.45                             129   -0.86 7  165 352 
 OCA  SZ I        18 4 11.12        29.3 0.18                           165 352 
 ZAR  HZ EP   1   18 3 47.55                             122   -0.37 6  209 293 
 ZAR  HN ES   2   18 4 13.15                             122   -0.56 4  209 293 
 ZAR  HZ I        18 4 18.76        43.4 0.22                           209 293 
 NOR  SZ EP   1   18 3 50.36                             119   -0.33 6  235 236 
 NOR  SN ES   1   18 4 18.89                             119    0.25 6  235 236 
 CHI  HZ EP   1   18 3 51.62                             118   -0.62 6  245 196 
 CHI  HN ES   1   18 4 20.68                             118   -0.73 6  245 196 
 CHI  HZ I        18 4 25.08         9.9 0.27                           245 196 
 HEL  HZ EP   1   18 3 55.58                             115    0.18 6  274 257 
 HEL  HN ES   1   18 4 26.71                             115   -0.32 6  274 257 
 HEL  HZ I        18 4 34.13        20.1 0.24                           274 257 
 RREF HZ EP   1   18 4  1.85                             111    0.83 5  321 230 
 RREF HN ES   1   18 4 37.56                             111    0.53 5  321 230 
 RREF HZ I        18 4 44.17        21.1 0.20                           321 230 
                                                                                
