 2017  220 1843 48.4 L   6.818 -73.185147.3  RSN  4 0.2 1.4LRSN                1
 GAP=145        0.58       3.6     3.4  5.0 -0.3853E+01  0.4910E+01 -0.1737E+01E
 Epicentro: ZAPATOCA - SANTANDER                                               3
 ACTION:UPD 17-05-24 15:38 OP:jn   STATUS:               ID:20170220184348 L   I
 OLDACT:REG 17-02-20 22:14 OP:cog  STATUS:               ID:20170220183745     3
 2017-02-20-1838-00M.COL___373                                                 6
 STAT SP IPHASW D HRMM SECON CODA AMPLIT PERI AZIMU VELO AIN AR TRES W  DIS CAZ7
 BAR2 EZ ES       1844 24.06                             170    0.3610 25.0 179 
 BAR2 EZ I        1844 25.84         9.4 0.42            170           25.0 179 
 PAM  EZ EP       1844 10.81                             151   -0.0310 78.7  43 
 PAM  EE ES       1844 28.20                             151   -0.1510 78.7  43 
 PAM  EZ I        1844 30.36         4.0 0.56            152           78.7  43 
 RUS  HZ EP       1844 12.64                             143    0.1910  103 174 
 RUS  HN ES       1844 30.94                             143   -0.2910  103 174 
 RUS  HZ I        1844 33.43         3.2 0.42            145            103 174 
 PTB  HZ EP       1844 15.15                             133    0.03 9  144 258 
 PTB  HN ES       1844 35.86                             133   -0.12 9  144 258 
                                                                                
