 2011  220 1525 27.6 L   6.777 -74.180 16.9  RSN  4 0.2 1.2LRSN                1
 GAP=262        0.39       3.7    12.4  7.6  0.2683E+02  0.7858E+02  0.1433E+02E
 Epicentro: PUERTO PARRA - SANTANDER                                           3
 ACTION:UP  11-03-28 15:09 OP:jfem STATUS:               ID:20110220152527 L   I
 2011-02-20-1523-37S.COL___137                                                 6
 STAT SP IPHASW D HRMM SECON CODA AMPLIT PERI AZIMU VELO SNR AR TRES W  DIS CAZ7
 BTL  SZ EP       1525 44.10                              98     0.110  102  81 
 BAR2 SZ EP   3   1525 44.73                              97    -0.8 2  112 100 
 BAR2 SZ I        1525 46.19         5.8 0.80                           112 100 
 RUS  HZ EP       1525 51.84                              56     0.0 9  156 129 
 RUS  HZ I        1525 52.24         3.2 0.19                           156 129 
 RUS  HN ES   3   1526 10.48                              56    -0.2 2  156 129 
 OCA  SZ EP       1525 55.34                              56     0.0 9  188  30 
 OCA  SZ ES   3   1526 17.10                              56     0.1 2  188  30 
                                                                                
