 2010  420 1152 40.5 L   6.801 -72.990151.0  RSN  9 0.5 2.6LRSN                1
 GAP=212        0.98       4.9     9.5  8.3 -0.1532E+02 -0.5272E+01  0.1399E+02E
 Epicentro: CEPITA - SANTANDER                                                 3
 ACTION:UP  10-08-24 10:00 OP:vdl  STATUS:               ID:20100420115249 L   I
 2010-04-20-1149-50S.COL___100                                                 6
 STAT SP IPHASW D HRMM SECON CODA AMPLIT PERI AZIMU VELO AIN AR TRES W  DIS CAZ7
 BAR2 SZ EP       1153  0.98                             168     0.010   32 223 
 BAR2 SZ ES   2   1153 16.19                             168    -0.7 5   32 223 
 BRR  HZ IP     C 1153  3.33                             149     0.210   87 293 
 BRR  HZ I        1153  3.59        77.0 0.15                            87 293 
 BRR  HE ES       1153 20.73                             149    -0.110   87 293 
 OCA  SZ EP       1153  9.54                             130     0.1 9  163 347 
 OCA  SZ ES   1   1153 32.36                             130     0.3 7  163 347 
 OCA  SZ I        1153 37.23        79.2 0.40                           163 347 
 CHI  HZ EP   1   1153 19.23                             118     0.2 6  254 199 
 CHI  HN ES   1   1153 49.08                             118     0.0 6  254 199 
 HEL  HZ EP   2   1153 22.95                             114     0.1 4  289 257 
 HEL  HZ I        1153 59.45        14.3 0.49                           289 257 
 RREF BZ EP   1   1153 29.07                             111     0.7 5  335 231 
 RREF BN ES       1154  6.47                             111     0.7 7  335 231 
 RREF BZ I        1154  9.85        10.9 0.08                           335 231 
 DBB  SZ EP       1153 28.81                             109    -1.3 6  357 274 
 ANIL BN ES   3   1154 11.31                             109    -0.7 2  370 226 
 PRA  HZ EP   1   1153 34.45                             107    -0.8 4  401 212 
 PRA  HN ES   2   1154 17.49                             107    -0.4 3  401 212 
 PRA  HZ I        1154 22.86         7.0 1.06                           401 212 
                                                                                
