 2015  420 1311 27.9 L   6.883 -73.507 11.4  RSN  5 0.2 1.1LRSN                1
 GAP=118        0.47       1.6     1.3  2.7  0.7129E+00  0.1078E+01  0.9682E-01E
 Epicentro: SAN VICENTE DE CHUCURI - SANTANDER                                 3
 ACTION:UPD 15-06-03 16:56 OP:cam  STATUS:               ID:20150420131127 L   I
 OLDACT:DUP 15-04-21 00:54 OP:spq  STATUS:               ID:20150420130748d    3
 2015-04-20-1307-47M.COL___262                                                 6
 STAT SP IPHASW D HRMM SECON CODA AMPLIT PERI AZIMU VELO AIN AR TRES W  DIS CAZ7
 BRR  HZ EP     D 1311 33.50                             104   -0.2110 33.5 318 
 BRR  HN ES       1311 38.31                             104    0.0710 33.5 318 
 BRR  HZ I        1311 38.77        22.9 0.10            106           33.5 318 
 BAR2 EZ EP       1311 36.29                             100    0.1510 48.2 132 
 BAR2 EZ ES   1   1311 42.33                             100   -0.24 7 48.2 132 
 BAR2 EZ I        1311 42.99         5.2 0.21            101           48.2 132 
 PAM  SN ES   1   1311 57.63                              94    0.06 7  102  60 
 PAM  SZ I        1311 59.52         3.6 0.20             95            102  60 
 PTB  HZ EP       1311 45.40                              94   -0.0510  112 250 
 PTB  HN ES   1   1311 59.25                              94    0.10 7  112 250 
 PTB  HZ I        1312  1.47         6.2 0.26             94            112 250 
 ZAR  HZ EP       1311 53.29                              56    0.30 9  164 294 
 ZAR  HE ES       1312 12.37                              56   -0.20 9  164 294 
 ZAR  HZ I        1312 13.14         4.7 0.44             56            164 294 
                                                                                
