 2014 1220 1005 34.3 L   6.805 -73.107136.0  RSN  6 0.4 1.3LRSN                1
 GAP=141        0.89       3.8     4.7  6.2  0.4548E+01  0.6018E+01 -0.4457E+01E
 Epicentro: LOS SANTOS - SANTANDER                                             3
 ACTION:UPD 15-02-10 17:05 OP:nd   STATUS:               ID:20141220100534 L   I
 OLDACT:REG 14-12-20 20:20 OP:fm   STATUS:               ID:20141220095748     3
 2014-12-20-0957-48M.COL___305                                                 6
 STAT SP IPHASW D HRMM SECON CODA AMPLIT PERI AZIMU VELO AIN AR TRES W  DIS CAZ7
 BAR2 EZ EP       10 5 52.87                             169    0.0610 25.0 200 
 BAR2 EZ ES       10 6  7.21                             169   -0.0210 25.0 200 
 BAR2 EZ I        10 6  8.86         4.8 0.34            171           25.0 200 
 PAM  SZ EP       10 5 55.79                             150    0.4810 74.3  37 
 PAM  SE ES       10 6 11.63                             150   -0.0510 74.3  37 
 PAM  SZ I        10 6 15.15         2.5 0.42            152           74.3  37 
 BRR  HZ EP       10 5 54.77                             149    0.1310 74.8 297 
 BRR  HN ES       10 6 10.63                             149    0.1510 74.8 297 
 BRR  HZ I        10 6 14.58         4.2 0.34            149           74.8 297 
 RUS  HZ EP       10 5 57.40                             141    0.2510  101 179 
 RUS  HN ES       10 6 14.41                             141   -0.5510  101 179 
 RUS  HZ I        10 6 16.03         1.4 0.46            146            101 179 
 RUS  HN I        10 6 17.21         3.1 0.56                           101 179 
 ZAR  HZ EP   1   10 6  6.02                             119   -0.53 6  208 292 
 ZAR  HN ES       10 6 32.17                             119    0.48 8  208 292 
 ZAR  HZ I        10 6 36.85         2.8 0.30            121            208 292 
 SML  HZ EP   1   10 6 10.15                             115   -0.41 6  245 334 
 SML  HN ES       10 6 38.14                             115   -0.69 8  245 334 
 SML  HZ I        10 6 42.84         2.4 0.22            117            245 334 
                                                                                
