 2017  520 1255 49.3 L   6.824 -73.129144.2  RSN  5 0.3 1.6LRSN                1
 GAP=221        0.77       7.5     5.7  9.3  0.3081E+02 -0.2085E+02 -0.3661E+02E
 Epicentro: LOS SANTOS - SANTANDER                                             3
 ACTION:UPD 17-06-16 13:37 OP:jn   STATUS:               ID:20170520125549 L   I
 OLDACT:UP  17-06-01 22:14 OP:nlst STATUS:               ID:20170520125549 L   3
 OLDACT:REG 17-05-20 20:33 OP:lv   STATUS:               ID:20170520124652     3
 2017-05-20-1248-00M.COL___359                                                 6
 STAT SP IPHASW D HRMM SECON CODA AMPLIT PERI AZIMU VELO AIN AR TRES W  DIS CAZ7
 RUS  HZ EP       1256 13.69                             143    0.5610  103 177 
 RUS  HN ES       1256 31.60                             143   -0.0810  103 177 
 RUS  HZ I        1256 34.12         3.0 0.23            144            103 177 
 PTB  HZ EP       1256 16.13                             131   -0.27 9  150 258 
 PTB  HN ES       1256 37.14                             131   -0.36 9  150 258 
 PTB  HZ I        1256 42.38         5.5 0.32            132            150 258 
 YPLC HZ EP       1256 18.87                             126   -0.30 9  178 152 
 YPLC HN ES   4   1256 44.39                             126    1.96 0  178 152 
 YPLC HZ I        1256 44.90         5.3 0.21            129            178 152 
 ZAR  HZ EP       1256 21.64                             122   -0.13 9  205 291 
 ZAR  HN ES       1256 47.42                             122    0.37 9  205 291 
 ZAR  HZ I        1256 53.23         4.2 0.16            123            205 291 
 NOR  HZ EP   1   1256 25.35                             118    0.04 6  238 234 
 NOR  HN ES   1   1256 53.68                             118    0.31 6  238 234 
 NOR  HZ I        1256 58.82         2.6 0.12            119            238 234 
                                                                                
