 2010  520 1245 28.1 L   6.818 -73.111149.7  RSN 13 0.5 3.5LRSN                1
 GAP=146        1.10       4.8     7.8  8.3 -0.2119E+02 -0.5812E+01  0.1247E+02E
 Epicentro: LOS SANTOS - SANTANDER                                             3
 ACTION:UP  10-08-24 10:06 OP:vdl  STATUS:               ID:20100520124528 L   I
 2010-05-20-1243-55S.COL___112                                                 6
 STAT SP IPHASW D HRMM SECON CODA AMPLIT PERI AZIMU VELO AIN AR TRES W  DIS CAZ7
 BAR2 SZ IP       1245 47.79                             170    -0.410   26 198 
 BAR2 SZ ES   2   1246  3.15                             170    -0.8 5   26 198 
 BRR  HZ IP     C 1245 50.37                             153     0.610   74 296 
 BRR  HE ES   1   1246  6.89                             153     0.2 7   74 296 
 BRR  HZ I        1246 10.54       340.3 0.14                            74 296 
 BRI  SZ IP       1245 52.24                             143     0.110  105  19 
 GUE  SZ EP       1245 53.60                             141     0.710  114  10 
 GRA  SZ IP       1245 53.47                             139     0.110  123  16 
 GRA  SZ ES   1   1246 13.30                             139     0.1 7  123  16 
 OCA  SZ IP       1245 56.10                             131    -0.4 9  159 352 
 OCA  SZ ES   1   1246 18.13                             131    -0.6 7  159 352 
 OCA  SZ I        1246 21.16       318.3 0.28                           159 352 
 CHI  HZ EP       1246  6.07                             118    -0.2 8  252 196 
 CHI  HE ES   1   1246 35.98                             118    -0.1 6  252 196 
 CHI  HZ I        1246 43.67       130.6 0.40                           252 196 
 ROSC BZ EP       1246  7.71                             117     0.9 8  256 212 
 ROSC BN ES   1   1246 37.34                             117     0.3 6  256 212 
 ROSC BZ I        1246 45.08       170.3 0.35                           256 212 
 HEL  HZ EP       1246  9.00                             115     0.1 7  276 256 
 HEL  HZ I        1246 48.40       113.9 0.23                           276 256 
 RREF BZ EP   1   1246 14.77                             111    -0.1 5  326 230 
 RREF BE ES   2   1246 50.89                             111    -0.5 3  326 230 
 RREF BZ I        1247  0.94       175.0 0.54                           326 230 
 DBB  SZ EP       1246 15.47                             110    -0.7 7  343 274 
 SDV  BZ EP       1246 17.32                             109    -0.4 6  356  50 
 PRA  HZ EP   1   1246 21.54                             107    -0.6 4  396 210 
 PRA  HE ES   2   1247  3.40                             107    -0.9 3  396 210 
 PRA  HZ I        1247  9.10       178.1 0.65                           396 210 
                                                                                
