 2012 1020 1426 21.0 L   6.805 -73.141142.0  RSN  5 0.4 1.9LRSN                1
 GAP=137        0.84       5.8     6.2  8.9  0.7582E+01  0.6762E+01 -0.1347E+00E
 Epicentro: LOS SANTOS - SANTANDER                                             3
 ACTION:UPD 12-11-22 17:04 OP:ep   STATUS:               ID:20121020142621 L   I
 2012-10-20-1420-00M.COL___233                                                 6
 STAT SP IPHASW D HRMM SECON CODA AMPLIT PERI AZIMU VELO AIN AR TRES W  DIS CAZ7
 BAR2 SZ EP   1   1426 40.10                             170   -0.12 7 24.0 191 
 BAR2 SZ ES   1   1426 54.61                             170   -0.58 7 24.0 191 
 BAR2 SZ I        1426 56.18        17.2 0.12                          24.0 191 
 BRR  HZ EP   1   1426 41.97                             152    0.19 7 71.4 298 
 BRR  HN ES   1   1426 58.80                             152    0.83 7 71.4 298 
 PAM  SZ EP   1   1426 42.99                             150    0.19 7 76.6  40 
 PAM  SZ I        1426 43.17        12.2 0.22                          76.6  40 
 PAM  SN ES   1   1426 59.57                             150   -0.21 7 76.6  40 
 PAM  SN I        1427  0.93        12.0 0.42                          76.6  40 
 RUS  HZ EP   1   1426 44.43                             143   -0.02 7  101 176 
 RUS  HE ES   1   1427  2.92                             143    0.20 7  101 176 
 RUS  HE I        1427  4.74        17.5 0.22                           101 176 
 ZAR  HE ES   1   1427 17.71                             121   -0.68 6  204 292 
                                                                                
