 2016 1020 1012 49.2 L   6.816 -73.144144.5  RSN 19 0.4 2.4LRSN                1
 GAP= 71        1.04       3.1     3.3  4.9 -0.3105E+01  0.1737E+01  0.3635E+01E
 Epicentro: LOS SANTOS - SANTANDER                                             3
 ACTION:UPD 16-11-09 19:21 OP:rebc STATUS:               ID:20161020101249 L   I
 OLDACT:UP  16-10-21 02:04 OP:ar   STATUS:               ID:20161020100747     3
 OLDACT:UP  16-10-21 02:03 OP:ar   STATUS:               ID:20161020100747     3
 OLDACT:REG 16-10-21 01:51 OP:ar   STATUS:               ID:20161020100747     3
 2016-10-20-1008-00M.COL___341                                                 6
 STAT SP IPHASW D HRMM SECON CODA AMPLIT PERI AZIMU VELO AIN AR TRES W  DIS CAZ7
 BAR2 EZ IP     D 1013  8.63                             170   -0.0810 25.1 190 
 BAR2 EZ ES       1013 23.34                             170   -0.5910 25.1 190 
 BAR2 EZ I        1013 26.28        71.5 0.44            165           25.1 190 
 BRR  HZ EP       1013 10.44                             152    0.2710 70.6 297 
 BRR  HN ES       1013 27.40                             152    0.8710 70.6 297 
 BRR  HZ I        1013 29.65        35.7 0.40            155           70.6 297 
 PAM  EZ EP       1013 11.53                             151    0.3410 75.9  40 
 PAM  EN ES       1013 28.48                             151    0.1410 75.9  40 
 PAM  EZ I        1013 34.18        25.1 0.68            146           75.9  40 
 RUS  HZ EP       1013 12.65                             143   -0.3010  102 176 
 RUS  HN ES       1013 31.58                             143    0.1110  102 176 
 RUS  HZ I        1013 33.09        34.2 0.38            137            102 176 
 PTB  HZ EP       1013 15.20                             132   -0.91 9  148 258 
 PTB  HN ES       1013 36.38                             132   -0.72 9  148 258 
 PTB  HZ I        1013 38.12        38.8 0.50            130            148 258 
 TAM  HZ IP     C 1013 16.96                             130    0.16 9  155 106 
 TAM  HN IP     D 1013 16.97                             130    0.17 9  155 106 
 TAM  HZ I        1013 34.75        13.7 0.38            123            155 106 
 OCA  HZ EP       1013 17.09                             130   -0.15 9  159 353 
 OCA  HN ES       1013 38.68                             130   -0.44 9  159 353 
 OCA  HZ I        1013 43.08        61.1 0.24            127            159 353 
 SPBC HZ EP       1013 17.57                             128   -0.17 9  165 219 
 SPBC HN ES       1013 40.09                             128    0.09 9  165 219 
 SPBC HZ I        1013 46.60        60.6 0.22            125            165 219 
 NOR  HZ EP       1013 24.65                             118   -0.33 8  236 234 
 NOR  HN ES       1013 52.93                             118    0.04 8  236 234 
 NOR  HZ I        1013 57.55        30.7 0.38            115            236 234 
 CHI  HZ EP       1013 26.92                             117   -0.09 8  250 195 
 CHI  HE ES       1013 56.80                             117    0.29 8  250 195 
 CHI  HZ I        1014  1.62        10.4 0.28            112            250 195 
 HEL  HZ EP       1013 30.10                             114    0.69 8  273 255 
 HEL  HE ES       1014  1.74                             114    0.96 8  273 255 
 HEL  HZ I        1014  9.28        14.8 0.26            112            273 255 
 GUY2CHZ EP   4   1013 34.02                             112    1.14 0  302 235 
 GUY2CHN ES   4   1014  9.57                             112    2.62 0  302 235 
 GUY2CHZ I        1014 16.94        13.7 0.70                           302 235 
 PTGC HZ EP   4   1013 31.85                             111   -1.32 0  310 159 
 PTGC HZ I        1014  4.97        12.1 0.38            107            310 159 
 PTGC HE ES   4   1014  5.03                             111   -2.44 0  310 159 
 ELA  HZ EP   4   1013 37.91                             110    1.77 0  330 229 
 ELA  HN ES   4   1014 14.35                             110    1.59 0  330 229 
 ELA  HZ I        1014 24.82        11.7 0.30            107            330 229 
 ANIL HZ EP       1013 39.56                             108    0.45 6  359 224 
 ANIL HN ES       1014 18.28                             108    0.23 6  359 224 
 ANIL HZ I        1014 23.34        26.8 0.26            105            359 224 
 PRA  HZ EP       1013 42.61                             106   -0.25 6  394 209 
 PRA  HN ES       1014 24.73                             106    0.01 6  394 209 
 PRA  HZ I        1014 29.01        10.4 0.40            103            394 209 
 PAL  HZ EP       1013 44.52                             106    0.08 6  407 239 
 PAL  HN ISg      1014 27.02                             106   -0.51 6  407 239 
 SJC  HZ EP   4   1013 42.93                             105   -1.62 0  408 327 
 SJC  HN ES   4   1014 24.02                             105   -3.71 0  408 327 
 SJC  HZ I        1014 27.42         5.6 0.34            103            408 327 
 CRJC HZ EP   4   1013 49.13                             103   -2.32 0  466   4 
 CRJC HN ES   4   1014 35.77                             103   -4.23 0  466   4 
 CRJC HZ I        1014 46.07         6.1 0.40            100            466   4 
                                                                                
