 2012  320 1752 52.9 L   6.761 -73.136146.0  RSN  6 0.3 1.6LRSN                1
 GAP=139        0.77       5.1     5.2  7.2  0.3434E+01  0.6679E+01 -0.1151E+01E
 ACTION:UP  12-03-31 23:21 OP:EP   STATUS:               ID:20120320175252 L   I
 2012-03-20-1750-00M.COL___202                                                 6
 STAT SP IPHASW D HRMM SECON CODA AMPLIT PERI AZIMU VELO SNR AR TRES W  DIS CAZ7
 BAR2 SZ EP       1753 12.56                             172     0.010   19 195 
 BAR2 SZ ES   1   1753 27.65                             172    -0.1 7   19 195 
 BAR2 SZ I        1753 30.41        11.6 0.61                            19 195 
 BRR  HZ EP       1753 14.47                             151     0.210   74 301 
 BRR  HN ES   1   1753 31.42                             151     0.5 7   74 301 
 PAM  SZ EP       1753 15.54                             150     0.210   80  37 
 PAM  SN ES   1   1753 32.33                             150    -0.5 7   80  37 
 RUS  HZ EP   1   1753 16.49                             145     0.1 7   96 176 
 RUS  HN ES   1   1753 34.69                             145     0.0 7   96 176 
 RUS  HZ I        1753 36.75         5.2 0.44                            96 176 
 PTB  HZ EP   1   1753 19.33                             132    -0.6 7  148 261 
 PTB  HZ I        1753 43.21         3.9 0.21                           148 261 
 ZAR  HN ES   1   1753 50.95                             122    -0.2 6  207 293 
 ZAR  HZ I        1753 56.48         6.7 0.23                           207 293 
                                                                                
