 2016  420 1514  9.9 L   6.396 -73.285136.9  RSN  4 0.3 1.4LRSN                1
 GAP=130        0.47       8.2     6.7  7.3  0.1244E+02  0.3038E+02  0.4012E+01E
 Epicentro: PALMAS DEL SOCORRO - SANTANDER                                     3
 ACTION:UPD 16-05-05 14:22 OP:rebc STATUS:               ID:20160420151409 L   I
 OLDACT:ARG 16-04-20 21:02 OP:ar   STATUS:               ID:20160420150750     3
 2016-04-20-1507-50M.COL___307                                                 6
 STAT SP IPHASW D HRMM SECON CODA AMPLIT PERI AZIMU VELO AIN AR TRES W  DIS CAZ7
 BAR2 EZ EP   2   1514 27.83                             170   -0.63 5 24.5  28 
 BAR2 EZ ES       1514 43.04                             170    0.0810 24.5  28 
 BAR2 EZ I        1514 44.59         5.1 0.17            178           24.5  28 
 RUS  HZ EP   3   1514 31.01                             156    0.85 2 60.0 158 
 RUS  HE ES   2   1514 45.91                             156   -0.08 5 60.0 158 
 RUS  HZ I        1514 51.25         3.3 0.42            151           60.0 158 
 PTB  HZ EP   2   1514 34.69                             134    0.14 5  131 277 
 PTB  HN ES   2   1514 53.81                             134   -0.00 5  131 277 
 ZAR  HZ EP   2   1514 42.64                             119    0.06 4  212 305 
 ZAR  HN ES   4   1515  5.47                             119   -2.63 0  212 305 
 ZAR  HZ I        1515 11.58         4.1 0.24            121            212 305 
                                                                                
