 2016  520 1247 43.8 L   6.791 -73.143147.7  RSN  5 0.5 1.6LRSN                1
 GAP=237        1.32      11.0    10.0  9.8  0.7396E+02  0.1473E+02 -0.3298E+01E
 Epicentro: LOS SANTOS - SANTANDER                                             3
 ACTION:UPD 16-08-18 17:47 OP:cam  STATUS:               ID:20160520124743 L   I
 OLDACT:REG 16-05-20 21:39 OP:ar   STATUS:               ID:20160520123747     3
 2016-05-20-1237-47M.COL___296                                                 6
 STAT SP IPHASW D HRMM SECON CODA AMPLIT PERI AZIMU VELO AIN AR TRES W  DIS CAZ7
 BAR2 EZ EP       1248  3.73                             171    0.0710 22.4 191 
 BAR2 EZ ES       1248 18.15                             171   -0.9910 22.4 191 
 BAR2 EZ I        1248 21.41         7.9 0.20            173           22.4 191 
 BRR  HN ES       1248 22.61                             153    0.7110 71.9 299 
 RUS  HZ EP       1248  7.59                             144   -0.1010 99.6 176 
 RUS  HE ES       1248 27.03                             144    0.7210 99.6 176 
 RUS  HZ I        1248 28.23         4.4 0.26            148           99.6 176 
 PTB  HZ EP       1248 10.55                             132   -0.40 9  148 259 
 PTB  HN ES       1248 31.87                             132   -0.24 9  148 259 
 PTB  HZ I        1248 32.41         6.2 0.18            133            148 259 
 ZAR  HZ EP       1248 16.66                             123    0.21 9  205 292 
 ZAR  HN ES       1248 41.90                             123   -0.01 9  205 292 
 ZAR  HZ I        1248 51.97         4.6 0.26            123            205 292 
                                                                                
