 2010  320 1032 31.6 L   6.826 -73.053143.2  RSN  6 0.4 1.7LRSN                1
 GAP=192        0.69       3.7    10.4  7.4  0.2361E+01 -0.1281E+02  0.3886E+01E
 Epicentro: LOS SANTOS - SANTANDER                                             3
 ACTION:UP  10-08-24 09:55 OP:vdl  STATUS:               ID:20100320103231 L   I
 2010-03-20-1028-59S.COL___098                                                 6
 STAT SP IPHASW D HRMM SECON CODA AMPLIT PERI AZIMU VELO SNR AR TRES W  DIS CAZ7
 BAR2 SZ IP       1032 50.97                             168    -0.110   30 209 
 BAR2 SZ ES   2   1033  6.28                             168     0.0 5   30 209 
 BRR  HZ IP       1032 52.79                             149    -0.210   79 293 
 BRR  HZ I        1032 58.05         7.3 0.39                            79 293 
 BRR  HE ES   1   1033  9.84                             149     0.2 7   79 293 
 RUS  HZ EP   2   1032 55.13                             143    -0.2 5  103 182 
 RUS  HE ES   2   1033 14.33                             143     0.5 5  103 182 
 RUS  HZ I        1033 15.51         5.0 0.24                           103 182 
 OCA  SZ EP   1   1033  0.28                             129     0.7 7  159 349 
 OCA  SZ ES   1   1033 21.11                             129    -0.3 7  159 349 
 OCA  SZ I        1033 25.73        11.4 0.28                           159 349 
 CHI  HZ EP   2   1033 10.16                             116     0.4 4  254 197 
 CHI  HE ES   2   1033 38.95                             116    -0.6 4  254 197 
 CHI  HZ I        1033 45.81         1.8 0.43                           254 197 
 PRA  HZ EP   1   1033 25.76                             106    -0.2 4  400 211 
 PRA  HE ES   2   1034  8.86                             106     0.5 3  400 211 
 PRA  HZ I        1034 12.86         1.9 0.31                           400 211 
                                                                                
