 2011  220 1032 44.4 L   6.814 -73.088146.5  RSN 10 0.4 1.9LRSN                1
 GAP=165        0.87       4.3     8.8  5.9 -0.1788E+02  0.1321E+02 -0.8565E+00E
 Epicentro: LOS SANTOS - SANTANDER                                             3
 ACTION:UP  11-03-28 15:09 OP:jfem STATUS:               ID:20110220103244 L   I
 2011-02-20-1030-45S.COL___137                                                 6
 STAT SP IPHASW D HRMM SECON CODA AMPLIT PERI AZIMU VELO SNR AR TRES W  DIS CAZ7
 BTL  SZ EP       1033  4.47                             170     0.310   23 300 
 BTL  SZ ES   1   1033 19.95                             170     0.4 7   23 300 
 BAR2 SZ IP       1033  4.41                             169     0.210   27 203 
 BAR2 SZ ES   1   1033 18.97                             169    -0.7 7   27 203 
 BAR2 SZ I        1033 22.14        29.5 0.35                            27 203 
 GIR2 SZ EP   1   1033  4.61                             167     0.4 7   32 338 
 GIR2 SZ ES   2   1033 20.12                             167     0.5 5   32 338 
 RUS  HZ EP       1033  8.31                             144     0.010  102 180 
 RUS  HN ES   1   1033 27.19                             144     0.2 7  102 180 
 RUS  HZ I        1033 29.97         8.3 0.52                           102 180 
 GRA  SZ IP       1033  9.22                             138    -0.310  122  15 
 GRA  SZ I        1033 10.52        12.7 0.44                           122  15 
 GRA  SZ ES   1   1033 28.22                             138    -0.8 7  122  15 
 OCA  SZ EP       1033 13.03                             130     0.3 9  160 351 
 OCA  SZ I        1033 41.88        11.0 0.27                           160 351 
 NOR  SZ EP       1033 20.90                             118     0.0 8  241 235 
 NOR  SN ES   2   1033 48.34                             118    -1.0 4  241 235 
 CHI  HZ EP       1033 22.28                             117    -0.3 8  252 196 
 CHI  HN ES   3   1033 51.37                             117    -0.9 2  252 196 
 CHI  HZ I        1034  1.42         4.4 0.23                           252 196 
 HEL  HZ EP   3   1033 26.07                             114     0.6 2  279 256 
 HEL  HN ES   3   1033 56.80                             114    -0.6 2  279 256 
 HEL  HZ I        1034  3.44         4.0 0.28                           279 256 
 RREF HZ EP   2   1033 31.43                             110     0.1 3  328 230 
 RREF HN ES   2   1034  8.03                             110     0.2 3  328 230 
 RREF HZ I        1034 14.60         5.7 0.70                           328 230 
                                                                                
