 2013  420 1315 17.7 L   6.779 -73.159139.5  RSN  6 0.2 1.6LRSN                1
 GAP=136        0.66       3.3     4.4  4.4 -0.3557E+00  0.3051E+01  0.1888E+01E
 Epicentro: LOS SANTOS - SANTANDER                                             3
 ACTION:UPD 13-05-22 14:39 OP:EP   STATUS:               ID:20130420131517 L   I
 2013-04-20-1308-49M.COL___211                                                 6
 STAT SP IPHASW D HRMM SECON CODA AMPLIT PERI AZIMU VELO AIN AR TRES W  DIS CAZ7
 BAR2 SZ EP       1315 36.46                             171   -0.0410 20.8 187 
 BAR2 SZ ES       1315 51.28                             171    0.1010 20.8 187 
 BAR2 SZ I        1315 52.48         6.6 0.48            172           20.8 187 
 GIR2 SZ EP       1315 36.76                             166    0.1010 33.4 353 
 GIR2 SZ I        1315 50.48         9.2 0.38            163           33.4 353 
 GIR2 SZ ES       1315 50.97                             166   -0.5010 33.4 353 
 BRR  HZ EP       1315 38.44                             151    0.3010 71.1 301 
 BRR  HN ES       1315 54.40                             151    0.3010 71.1 301 
 BRR  HN I        1315 55.66        15.7 0.26            149           71.1 301 
 PAM  SZ EP       1315 39.43                             149    0.0310 80.1  39 
 PAM  SN ES       1315 56.35                             149    0.0110 80.1  39 
 PAM  SN I        1315 57.34        10.1 0.42            145           80.1  39 
 RUS  HZ EP       1315 40.68                             143    0.0310 98.4 175 
 RUS  HN ES       1315 58.62                             143    0.0510 98.4 175 
 RUS  HN I        1316  0.12         3.8 0.16            142           98.4 175 
 PTB  HZ EP       1315 43.53                             131   -0.43 9  146 260 
                                                                                
