 2011  920 1421 23.5 L   6.768 -73.135147.3  RSN  8 0.4 1.9LRSN                1
 GAP=139        0.66       5.1     6.2  7.9  0.1465E+02 -0.3743E+01  0.5258E+01E
 Epicentro: LOS SANTOS - SANTANDER                                             3
 ACTION:UPD 12-07-13 15:58 OP:ep   STATUS:               ID:20110920142123 L   I
 2011-09-20-1417-03S.COL___165                                                 6
 STAT SP IPHASW D HRMM SECON CODA AMPLIT PERI AZIMU VELO AIN AR TRES W  DIS CAZ7
 BAR2 SZ EP       1421 43.14                             172   -0.1510 20.2 195 
 BAR2 SZ ES   2   1421 58.14                             172   -0.56 5 20.2 195 
 BAR2 SZ I        1422  0.81        20.7 0.34                          20.2 195 
 BTL  SZ EP       1421 43.45                             171    0.1210 22.2 318 
 BRR  HZ EP       1421 45.06                             152    0.0510 74.0 300 
 BRR  HZ I        1421 52.34        13.8 0.32                          74.0 300 
 BRR  HN ES   1   1422  2.35                             152    0.60 7 74.0 300 
 PAM  SZ EP   2   1421 45.42                             151   -0.61 5 79.4  37 
 RUS  HZ EP       1421 47.43                             145    0.2410 97.0 177 
 RUS  HN ES   2   1422  5.22                             145   -0.41 5 97.0 177 
 ZAR  HN ES   1   1422 21.37                             122   -0.55 6  207 293 
 ZAR  HZ I        1422 28.70         6.0 0.14                           207 293 
 NOR  SN ES   3   1422 26.50                             119   -0.60 2  234 235 
 CHI  HZ EP   2   1422  0.98                             118   -0.01 4  246 196 
 CHI  HN ES   2   1422 30.47                             118    0.26 4  246 196 
 CHI  HZ I        1422 38.59         3.9 0.44                           246 196 
                                                                                
