 2015  920 1955 26.2 L   6.722 -73.127144.7  RSN  5 0.3 1.6LRSN                1
 GAP=142        0.79       4.1     4.4  5.7  0.4022E+01  0.5907E+01 -0.1382E+01E
 Epicentro: JORDAN - SANTANDER                                                 3
 ACTION:UPD 15-10-28 16:27 OP:cam  STATUS:               ID:20150920195526 L   I
 OLDACT:REG 15-09-20 21:25 OP:ak   STATUS:               ID:20150920194747     3
 2015-09-20-1947-47M.COL___349                                                 6
 STAT SP IPHASW D HRMM SECON CODA AMPLIT PERI AZIMU VELO AIN AR TRES W  DIS CAZ7
 BAR2 EZ EP       1955 45.64                             174    0.0510 15.6 203 
 BAR2 EZ ES       1956  0.42                             174   -0.2710 15.6 203 
 BAR2 EZ I        1956  1.77        12.8 0.38            173           15.6 203 
 BRR  HZ EP       1955 47.82                             150    0.2110 77.4 303 
 BRR  HN ES       1956  4.93                             150    0.6310 77.4 303 
 PAM  EZ EP       1955 48.71                             149    0.0510 83.0  35 
 PAM  EN ES       1956  5.93                             149   -0.2410 83.0  35 
 PAM  EZ I        1956  8.32         6.2 0.42            150           83.0  35 
 RUS  HZ EP       1955 49.24                             146   -0.0110 91.8 177 
 RUS  HN ES       1956  7.20                             146   -0.0110 91.8 177 
 RUS  HZ I        1956  9.04         5.4 0.20            148           91.8 177 
 ZAR  HZ EP       1955 59.19                             121    0.05 8  209 294 
 ZAR  HN ES       1956 24.22                             121   -0.60 8  209 294 
 ZAR  HZ I        1956 30.74         5.5 0.18            122            209 294 
                                                                                
