 2015  220 1356 33.7 L   6.809 -73.141145.3  RSN 18 0.4 2.5LRSN                1
 GAP= 71        1.03       2.5     3.0  4.7 -0.1993E+01  0.2556E+01  0.1279E+01E
 Epicentro: LOS SANTOS - SANTANDER                                             3
 ACTION:UPD 15-04-30 21:27 OP:nd   STATUS:               ID:20150220135633 L   I
 OLDACT:REG 15-02-20 22:11 OP:fm   STATUS:               ID:20150220134745     3
 2015-02-20-1347-45M.COL___286                                                 6
 STAT SP IPHASW D HRMM SECON CODA AMPLIT PERI AZIMU VELO AIN AR TRES W  DIS CAZ7
 BAR2 EZ EP     C 1356 53.61                             170    0.3510 24.4 191 
 BAR2 EZ ES       1357  8.44                             170   -0.1110 24.4 191 
 BAR2 EZ I        1357 10.47        54.6 0.38            170           24.4 191 
 BRR  HZ EP       1356 55.40                             152    0.6410 71.2 298 
 BRR  HE ES       1357 11.24                             152    0.0310 71.2 298 
 BRR  HZ I        1357 16.81        44.5 0.14            153           71.2 298 
 PAM  SZ EP       1356 56.44                             151    0.6810 76.3  40 
 PAM  SE ES       1357 13.42                             151    0.4210 76.3  40 
 PAM  SZ I        1357 15.87        87.1 0.58            153           76.3  40 
 RUS  HZ EP     C 1356 57.40                             143   -0.0410  102 176 
 RUS  HN ES       1357 15.83                             143   -0.1610  102 176 
 RUS  HZ I        1357 18.98        24.6 0.18            145            102 176 
 PTB  HZ EP       1357  0.53                             132   -0.13 9  148 258 
 PTB  HE ES       1357 21.73                             132    0.02 9  148 258 
 PTB  HZ I        1357 25.22        34.9 0.40            133            148 258 
 TAM  HZ IP     C 1357  1.74                             130    0.46 9  155 105 
 TAM  HN ES       1357 21.93                             130   -0.90 9  155 105 
 TAM  HZ I        1357 28.20        31.4 0.36            133            155 105 
 OCA  HZ EP       1357  1.67                             130   -0.18 9  159 353 
 OCA  HE ES       1357 23.63                             130   -0.20 9  159 353 
 OCA  HZ I        1357 28.56        49.0 0.38            132            159 353 
 SPBC HZ EP       1357  2.49                             129    0.26 9  164 219 
 SPBC HE ES       1357 24.24                             129   -0.28 9  164 219 
 SPBC HZ I        1357 29.58        77.0 0.22            130            164 219 
 NOR  HZ EP       1357  9.38                             118   -0.09 8  236 234 
 NOR  HE ES       1357 36.53                             118   -0.88 8  236 234 
 NOR  HZ I        1357 45.16        29.0 0.14            119            236 234 
 SML  HZ EP       1357 10.17                             117   -0.01 8  243 335 
 SML  HE ES       1357 37.83                             117   -0.84 8  243 335 
 SML  HZ I        1357 45.09        42.8 0.28            119            243 335 
 CHI  HZ EP       1357 11.57                             117    0.11 8  250 195 
 CHI  HN ES       1357 40.36                             117   -0.58 8  250 195 
 CHI  HZ I        1357 44.98        17.8 0.36            118            250 195 
 ROSC BZ EP   4   1357 12.96                             116    1.08 0  254 211 
 ROSC BN ES       1357 42.63                             116    0.94 8  254 211 
 ROSC BZ I        1357 49.83        36.8 0.70            118            254 211 
 GUY2CHZ EP       1357 17.70                             112    0.34 7  302 235 
 GUY2CHN ES       1357 51.76                             112    0.31 7  302 235 
 GUY2CHZ I        1358  0.03        20.1 0.26                           302 235 
 MON  HE ES   4   1357 58.89                             108   -1.91 0  353 308 
 MON  HZ I        1358  0.79         5.3 0.18            110            353 308 
 SDV  BZ EP       1357 22.79                             108   -0.77 6  359  50 
 SDV  BE ES   4   1358  0.54                             108   -1.94 0  359  50 
 SDV  BZ I        1358  7.57         6.8 0.25            110            359  50 
 PRA  HZ EP       1357 27.19                             106   -0.11 6  393 210 
 PRA  HE ES       1358  9.15                             106    0.01 6  393 210 
 PRA  HZ I        1358 15.20        28.7 0.30            107            393 210 
 ORTC HZ EP   4   1357 26.44                             106   -1.26 0  397 216 
 ORTC HE ES       1358  9.97                             106    0.12 6  397 216 
 ORTC HZ I        1358 17.37        14.6 0.20            107            397 216 
 PAL  HZ EP       1357 28.65                             106   -0.27 6  407 239 
 PAL  HE ES       1358 11.83                             106   -0.19 6  407 239 
 PAL  HZ I        1358 17.94         8.3 0.42            107            407 239 
                                                                                
