 2011  720 1303 23.7 L   6.363 -73.188178.3  RSN  5 0.3 2.1LRSN                1
 GAP=151        0.56       4.6     6.6  7.2 -0.4873E+00 -0.5462E+01 -0.6817E+01E
 Epicentro: PARAMO - SANTANDER                                                 3
 ACTION:UPD 12-07-25 14:02 OP:epov STATUS:               ID:20110720130323 L   I
 2011-07-20-1301-14S.COL___142                                                 6
 STAT SP IPHASW D HRMM SECON CODA AMPLIT PERI AZIMU VELO AIN AR TRES W  DIS CAZ7
 BAR2 SZ EP   1   13 3 46.98                             172   -0.28 7 25.3   1 
 BAR2 SZ I        13 4  6.59        11.4 0.40                          25.3   1 
 RUS  HZ EP   1   13 3 48.82                             163    0.42 7 53.3 167 
 RUS  HN ES   1   13 4  7.55                             163   -0.13 7 53.3 167 
 RUS  HZ I        13 4  8.97        14.6 0.27                          53.3 167 
 BRR  HZ EP   1   13 3 50.37                             149    0.33 7  101 325 
 BRR  HZ I        13 3 50.56        39.4 0.16                           101 325 
 BRR  HN ES   1   13 4 10.65                             149    0.05 7  101 325 
 BRI  SZ EP   1   13 3 54.01                             137   -0.34 7  156  16 
 BRI  SZ I        13 3 54.21         8.4 0.11                           156  16 
 BRI  SZ ES   2   13 4 18.36                             137    0.09 5  156  16 
 NOR  SN ES   2   13 4 25.63                             128   -0.37 4  206 245 
                                                                                
