 2016  920 1927 56.3 L   6.846 -73.131143.9  RSN 24 0.5 2.9LRSN                1
 GAP= 70        1.18       2.9     2.8  5.1 -0.1904E+01  0.2525E+01  0.1695E+01E
 Epicentro: LOS SANTOS - SANTANDER                                             3
 ACTION:UPD 17-08-17 21:14 OP:lp   STATUS:               ID:20160920192756 L   I
 OLDACT:UP  16-09-20 23:12 OP:ar   STATUS:               ID:20160920192737     3
 OLDACT:UP  16-09-20 23:11 OP:ar   STATUS:               ID:20160920192737     3
 OLDACT:REG 16-09-20 21:19 OP:edw  STATUS:               ID:20160920192737     3
 2016-09-20-1928-00M.COL___348                                                 6
 STAT SP IPHASW D HRMM SECON CODA AMPLIT PERI AZIMU VELO AIN AR TRES W  DIS CAZ7
 BAR2 EZ IP     C 1928 15.92                             168    0.0510 28.6 191 
 BAR2 EZ ES       1928 30.92                             168   -0.1810 28.6 191 
 BAR2 EZ I        1928 31.99       145.0 0.36            167           28.6 191 
 BRR  HZ IP     C 1928 17.67                             153    0.4310 70.3 294 
 BRR  HE ES       1928 34.28                             153    0.7410 70.3 294 
 BRR  HZ I        1928 38.20       141.4 0.32            150           70.3 294 
 PAM  EZ EP       1928 18.80                             152    0.7310 72.5  41 
 PAM  EN ES       1928 35.54                             152    0.5210 72.5  41 
 PAM  EZ I        1928 37.99       124.3 0.26            154           72.5  41 
 RUS  HZ IP     C 1928 19.97                             142   -0.3110  106 177 
 RUS  HN ES       1928 38.65                             142   -0.3010  106 177 
 RUS  HZ I        1928 39.77        44.3 0.34            142            106 177 
 PTB  HZ EP       1928 22.76                             131   -0.64 9  150 257 
 PTB  HN ES       1928 43.69                             131   -0.81 9  150 257 
 PTB  HZ I        1928 45.42        96.7 0.54            130            150 257 
 OCA  HZ EP       1928 24.15                             130    0.10 9  155 352 
 OCA  HN ES       1928 45.34                             130   -0.33 9  155 352 
 OCA  HZ I        1928 50.30       199.3 0.40            130            155 352 
 TAM  HZ EP       1928 24.27                             130    0.41 9  155 107 
 TAM  HN ES       1928 45.71                             130    0.38 9  155 107 
 TAM  HZ I        1928 46.35        71.8 0.30            132            155 107 
 SPBC HZ EP       1928 24.91                             128   -0.26 9  168 218 
 SPBC HN ES       1928 47.17                             128   -0.49 9  168 218 
 SPBC HZ I        1928 51.39       133.8 0.68            127            168 218 
 ZAR  HZ EP       1928 28.58                             122   -0.05 9  204 291 
 ZAR  HN ES       1928 53.77                             122   -0.04 9  204 291 
 ZAR  HZ I        1928 59.54       115.6 0.58            121            204 291 
 NOR  HZ EP       1928 32.24                             118   -0.18 8  239 234 
 NOR  HN ES       1929  0.59                             118    0.02 8  239 234 
 NOR  HZ I        1929  1.76        65.2 0.20            117            239 234 
 CHI  HZ EP       1928 34.37                             116   -0.15 8  254 195 
 CHI  HN ES       1929  3.59                             116   -0.71 8  254 195 
 CHI  HZ I        1929  8.69        26.7 0.24            116            254 195 
 ROSC BZ EP   4   1928 36.25                             116    1.32 0  258 211 
 ROSC BN ES       1929  5.34                             116    0.32 8  258 211 
 ROSC BZ I        1929 10.03        64.3 0.45            116            258 211 
 HEL  HZ EP       1928 37.15                             114    0.38 8  275 255 
 HEL  HN ES       1929  8.09                             114   -0.22 8  275 255 
 URE  HZ EP       1928 36.41                             113   -0.87 7  283 291 
 URE  HN ES   4   1929  6.48                             113   -2.73 0  283 291 
 URE  HZ I        1929 17.30        58.8 0.20            113            283 291 
 SOCV BZ EP       1928 38.67                             112   -0.17 7  297  58 
 SOCV BN ES       1929 10.66                             112   -1.33 7  297  58 
 GUY2CHZ EP       1928 40.34                             112   -0.00 7  305 234 
 GUY2CHE ES   4   1929 16.09                             112    1.43 0  305 234 
 GUY2CHZ I        1929 24.06        42.1 0.64                           305 234 
 VIL  EZ EP       1928 41.22                             111    0.94 7  309 192 
 VIL  EE ES       1929 14.45                             111   -0.10 7  309 192 
 VIL  EZ I        1929 24.57        45.4 0.44            111            309 192 
 PTGC HZ EP   4   1928 39.35                             111   -1.24 0  313 159 
 PTGC HN ES   4   1929 12.66                             111   -2.45 0  313 159 
 PTGC HZ I        1929 16.04        38.4 0.32            111            313 159 
 ELA  HZ EP   4   1928 45.22                             110    1.59 0  334 229 
 ELA  HE ES   4   1929 23.65                             110    3.13 0  334 229 
 ELA  HZ I        1929 31.26        21.8 0.36            110            334 229 
 CBOC HZ EP       1928 44.62                             109    1.09 7  337 251 
 CBOC HN ES       1929 20.83                             109    0.49 7  337 251 
 CBOC HZ I        1929 36.75        13.6 0.68            109            337 251 
 ANIL HZ EP   4   1928 48.36                             108    1.74 0  362 224 
 ANIL HN ES       1929 25.76                             108   -0.08 6  362 224 
 SJC  HZ EP   4   1928 50.17                             106   -1.27 0  406 326 
 SJC  HN ES   4   1929 31.84                             106   -2.58 0  406 326 
 SJC  HZ I        1929 35.42        14.3 0.48            106            406 326 
 PAL  HZ EP       1928 51.75                             105   -0.16 6  410 239 
 PAL  HN ES       1929 36.34                             105    1.09 6  410 239 
 PAL  HZ I        1929 43.35         9.2 0.40            105            410 239 
 CRJC HZ EP   4   1928 56.33                             103   -1.85 0  462   3 
 CRJC HN ES   4   1929 42.45                             103   -3.95 0  462   3 
 CRJC HZ I        1929 52.82        11.5 0.18            103            462   3 
                                                                                
