 2014  920 1333  1.8 L   7.453 -73.207133.3  RSN  6 0.3 1.8LRSN                1
 GAP=135        0.71       3.1     3.1  5.7  0.5005E+00  0.4831E+01 -0.4876E+01E
 Epicentro: EL PLAYON - SANTANDER                                              3
 ACTION:UPD 14-10-03 23:06 OP:nd   STATUS:               ID:20140920133301 L   I
 OLDACT:REG 14-09-20 22:26 OP:carl STATUS:               ID:20140920132819     3
 2014-09-20-1328-19M.COL___293                                                 6
 STAT SP IPHASW D HRMM SECON CODA AMPLIT PERI AZIMU VELO AIN AR TRES W  DIS CAZ7
 PAM  SZ EP       1333 21.95                             156    0.3910 57.4 103 
 PAM  SN ES       1333 37.03                             156    0.0610 57.4 103 
 PAM  SZ I        1333 38.50        10.7 0.42            157           57.4 103 
 BRR  HZ EP       1333 21.57                             151    0.1710 67.6 236 
 BRR  HN ES       1333 36.98                             151    0.3010 67.6 236 
 BRR  HZ I        1333 37.47        16.8 0.34            152           67.6 236 
 BAR2 SZ EP       1333 23.50                             142   -0.0810 95.2 178 
 BAR2 SZ ES       1333 40.03                             142   -0.5410 95.2 178 
 BAR2 SZ I        1333 41.15        11.0 0.12            144           95.2 178 
 PTB  HZ EP       1333 29.96                             125   -0.09 9  171 234 
 PTB  HN ES       1333 52.12                             125    0.03 9  171 234 
 PTB  HZ I        1333 54.56         6.3 0.40            126            171 234 
 SML  HZ EP       1333 30.54                             124   -0.08 9  177 327 
 SML  HE ES       1333 52.74                             124   -0.36 9  177 327 
 SML  HZ I        1333 54.92        13.9 0.10            125            177 327 
 ZAR  HN ES       1333 54.24                             123    0.13 9  182 271 
                                                                                
