 2014  720 1159  4.4 L   6.316 -73.563115.8  RSN  4 0.4 1.4LRSN                1
 GAP=130        0.94       5.6     4.2  8.6 -0.1601E+00  0.9132E+01 -0.4582E+00E
 Epicentro: SANTA HELENA DEL OPON - SANTANDER                                  3
 ACTION:UPD 15-03-16 20:45 OP:nd   STATUS:               ID:20140720115904 L   I
 OLDACT:REG 14-07-20 21:06 OP:stll STATUS:               ID:20140720115816     3
 2014-07-20-1158-16M.COL___266                                                 6
 STAT SP IPHASW D HRMM SECON CODA AMPLIT PERI AZIMU VELO AIN AR TRES W  DIS CAZ7
 BAR2 SZ EP       1159 22.06                             154    0.4410 52.0  54 
 BAR2 SZ ES       1159 35.28                             154    0.2610 52.0  54 
 BAR2 SZ I        1159 36.81        14.0 0.36            164           52.0  54 
 RUS  HZ EP       1159 22.75                             147   -0.3610 70.8 131 
 RUS  HN ES       1159 37.23                             147   -0.4510 70.8 131 
 SPBC HZ EP       1159 24.37                             139    0.2110 92.5 218 
 SPBC HN ES       1159 39.98                             139    0.4310 92.5 218 
 SPBC HZ I        1159 49.64         5.2 0.22            138           92.5 218 
 PTB  HZ EP       1159 24.66                             136   -0.1710  102 284 
 PTB  HN ES       1159 40.38                             136   -0.3610  102 284 
 PTB  HZ I        1159 41.38         3.5 0.14            140            102 284 
                                                                                
