 2010 1120 1936 34.8 L   6.773 -73.088144.4  RSN 16 0.3 2.6LRSN                1
 GAP=189        0.71       3.3     4.5  4.9 -0.2420E+01  0.6681E+01  0.4056E+01E
 Epicentro: LOS SANTOS - SANTANDER                                             3
 ACTION:UP  10-12-17 16:53 OP:REBC STATUS:               ID:20101120193634 L   I
 2010-11-20-1934-00S.COL___128                                                 6
 STAT SP IPHASW D HRMM SECON CODA AMPLIT PERI AZIMU VELO SNR AR TRES W  DIS CAZ7
 BAR2 SZ IP     C 1936 54.11                             171    -0.110   23 208 
 BAR2 SZ ES   1   1937  9.04                             171    -0.3 7   23 208 
 BAR2 SZ I        1937 10.68       140.3 0.60                            23 208 
 BTL  SZ IP       1936 54.73                             169     0.510   26 309 
 GIR2 SZ EP   1   1936 54.22                             165    -0.2 7   36 341 
 BRR  HZ EP       1936 55.89                             150    -0.310   78 298 
 BRR  HN ES   1   1937 13.18                             150     0.3 7   78 298 
 BRR  HZ I        1937 17.31        61.3 0.26                            78 298 
 RUS  HZ IP     D 1936 58.10                             144     0.010   97 180 
 RUS  HN ES   1   1937 16.48                             144     0.1 7   97 180 
 RUS  HZ I        1937 18.41        51.2 0.06                            97 180 
 OCA  SZ EP   2   1937  3.30                             129     0.0 5  164 351 
 OCA  SZ  AML     1937 29.79        55.6 0.55                           164 351 
 NOR  SZ EP       1937 10.51                             118    -0.3 8  238 236 
 NOR  SN ES   1   1937 38.57                             118    -0.3 6  238 236 
 NOR  SZ I        1937 43.36        10.8 0.04                           238 236 
 CHI  HZ EP       1937 12.25                             117     0.0 8  248 197 
 CHI  HE ES   1   1937 41.25                             117    -0.3 6  248 197 
 CHI  HZ I        1937 45.37        24.3 0.46                           248 197 
 ROSC BZ I        1937 15.91        30.8 0.35                           254 213 
 ROSC BE ES   1   1937 43.30                             116     0.7 6  254 213 
 HEL  HZ EP   1   1937 15.39                             114    -0.1 6  278 257 
 HEL  HN ES   2   1937 46.93                             114    -0.4 4  278 257 
 HEL  HZ I        1937 53.68        31.8 0.40                           278 257 
 VIL  SZ EP   1   1937 17.48                             112    -0.2 5  300 191 
 GUY  SZ EP       1937 19.50                             112     0.8 7  305 236 
 GUY  SN ES   1   1937 52.68                             112    -0.3 5  305 236 
 GUY  SZ I        1938  1.21        55.2 1.24                           305 236 
 RREF HZ EP   1   1937 20.90                             110    -0.3 5  325 231 
 RREF HN ES   1   1937 57.72                             110     0.3 5  325 231 
 RREF HZ I        1938  3.49        26.8 0.39                           325 231 
 TOL  SZ EP       1937 23.34                             109     0.1 6  346 226 
 DBB  SZ EP   2   1937 22.78                             109    -0.1 3  346 275 
 PRA  HZ EP   1   1937 28.04                             106    -0.3 4  393 211 
 PRA  HN ES   1   1938 10.17                             106     0.1 4  393 211 
                                                                                
