 2011  720 1256 25.2 L   6.970 -72.911115.4  RSN  5 0.2 1.3LRSN                1
 GAP=180        0.41       3.1     8.2  6.4  0.4992E+00 -0.1416E+02 -0.9545E+01E
 Epicentro: SANTA BARBARA - SANTANDER                                          3
 ACTION:UPD 12-07-25 14:02 OP:epov STATUS:               ID:20110720125625 L   I
 2011-07-20-1252-10S.COL___142                                                 6
 STAT SP IPHASW D HRMM SECON CODA AMPLIT PERI AZIMU VELO AIN AR TRES W  DIS CAZ7
 BAR2 SZ EP   1   1256 42.51                             154    0.17 7 51.4 216 
 BAR2 SZ I        1256 42.75         4.0 0.19                          51.4 216 
 BAR2 SZ ES   1   1256 55.78                             154    0.10 7 51.4 216 
 BRI  SZ EP   1   1256 44.17                             142   -0.17 7 83.5   9 
 BRR  HZ EP   1   1256 44.40                             139   -0.17 7 89.8 280 
 BRR  HZ I        1257  1.04         8.2 0.50                          89.8 280 
 RUS  HZ EP   1   1256 48.02                             131    0.10 7  121 189 
 RUS  HN ES   1   1257  5.45                             131   -0.16 7  121 189 
 RUS  HZ I        1257  6.28         2.4 0.32                           121 189 
 OCA  SZ EP   2   1256 50.40                             124    0.34 5  147 342 
                                                                                
