 2015  620 1338  1.8 L   6.819 -73.126137.9  RSN  5 0.6 2.1LRSN                1
 GAP=138        1.45       9.0    16.2 12.9  0.9641E+02 -0.8953E+02 -0.6552E+02E
 Epicentro: LOS SANTOS - SANTANDER                                             3
 ACTION:UPD 15-09-10 22:13 OP:cam  STATUS:               ID:20150620133801 L   I
 OLDACT:DUP 15-06-20 23:02 OP:stll STATUS:               ID:20150620132752d    3
 2015-06-20-1327-50M.COL___322                                                 6
 STAT SP IPHASW D HRMM SECON CODA AMPLIT PERI AZIMU VELO AIN AR TRES W  DIS CAZ7
 BAR2 EZ EP       1338 20.67                             169    0.1510 25.9 194 
 BAR2 EZ ES       1338 34.28                             169   -0.8610 25.9 194 
 BAR2 EZ I        1338 38.39        20.3 0.22            172           25.9 194 
 BRR  HZ EP       1338 22.54                             150    0.4010 72.1 296 
 BRR  HN ES       1338 38.83                             150    0.8110 72.1 296 
 PAM  SZ EP       1338 23.62                             150    0.6510 74.3  39 
 RUS  HZ EP       1338 24.92                             141    0.0110  103 177 
 RUS  HN ES       1338 42.71                             141   -0.2510  103 177 
 RUS  HZ I        1338 44.51        14.4 0.34            145            103 177 
 SML  HZ EP       1338 37.25                             116   -0.61 8  243 335 
 SML  HN ES       1339  5.17                             116   -0.83 8  243 335 
 SML  HZ I        1339  8.90        18.4 0.26            118            243 335 
                                                                                
