 2012  220 1803 26.6 L   6.815 -73.123146.9  RSN 10 0.4 2.2LRSN                1
 GAP=139        0.66       3.5     4.3  5.0 -0.2607E+01  0.5889E+01  0.5330E+01E
 ACTION:UP  12-03-07 16:32 OP:epov STATUS:               ID:20120220180326 L   I
 2012-02-20-1800-00M.COL___191                                                 6
 STAT SP IPHASW D HRMM SECON CODA AMPLIT PERI AZIMU VELO AIN AR TRES W  DIS CAZ7
 BAR2 SZ IP       18 3 46.35                             170   -0.0310 25.5 195 
 BAR2 SZ I        18 3 46.91        33.6 0.22                          25.5 195 
 BAR2 SZ ES   1   18 4  1.74                             170   -0.10 7 25.5 195 
 GIR2 SZ EP   1   18 3 46.22                             168   -0.13 7 30.1 345 
 GIR2 SZ ES   2   18 4  1.80                             168    0.02 5 30.1 345 
 BRR  HZ IP     C 18 3 47.97                             152    0.0510 72.6 296 
 BRR  HZ I        18 3 48.23        48.8 0.12                          72.6 296 
 BRR  HN ES   1   18 4  5.19                             152    0.61 7 72.6 296 
 PAM  SZ EP   1   18 3 48.94                             152    0.20 7 74.5  39 
 PAM  SN ES   1   18 4  5.96                             152   -0.07 7 74.5  39 
 RUS  HZ EP   1   18 3 50.39                             144   -0.15 7  102 178 
 RUS  HN ES   1   18 4  8.99                             144   -0.25 7  102 178 
 RUS  HZ I        18 4 10.59        12.1 0.23                           102 178 
 PTB  HZ EP   1   18 3 52.91                             132   -0.97 7  151 258 
 PTB  HE ES   2   18 4 14.93                             132   -0.25 5  151 258 
 NOR  SZ EP   1   18 4  2.51                             118   -0.17 6  238 234 
 NOR  SN ES   2   18 4 30.86                             118    0.01 4  238 234 
 CHI  HZ EP   1   18 4  5.47                             117    0.89 6  251 196 
 CHI  HN ES   1   18 4 34.38                             117    0.16 6  251 196 
 CHI  HZ I        18 4 42.21         6.0 0.54                           251 196 
 HEL  HZ EP   2   18 4  7.31                             115    0.16 4  275 256 
 HEL  HN ES   2   18 4 38.83                             115    0.03 4  275 256 
 HEL  HZ I        18 4 46.36        11.8 0.56                           275 256 
 PRA  HZ EP   1   18 4 20.73                             107    0.29 4  395 210 
 PRA  HE ES   1   18 5  2.73                             107    0.27 4  395 210 
                                                                                
