 2016  920 1201 51.3 L   6.665 -73.155156.2  RSN  4 0.1 1.2LRSN                1
 GAP=226        0.36       3.0     2.8  2.9  0.4028E+01  0.7908E+00  0.6582E-01E
 Epicentro: VILLANUEVA - SANTANDER                                             3
 ACTION:UPD 17-08-17 21:14 OP:lp   STATUS:               ID:20160920120151 L   I
 OLDACT:UP  16-09-20 23:31 OP:edw  STATUS:               ID:20160920115737d    3
 OLDACT:REG 16-09-20 20:33 OP:edw  STATUS:               ID:20160920115737d    3
 2016-09-20-1158-00M.COL___360                                                 6
 STAT SP IPHASW D HRMM SECON CODA AMPLIT PERI AZIMU VELO AIN AR TRES W  DIS CAZ7
 BAR2 EZ EP       12 2 11.91                             177   -0.0810 8.58 200 
 BAR2 EZ ES       12 2 27.98                             177   -0.1510 8.58 200 
 BAR2 EZ I        12 2 30.36         3.8 0.64            175           8.58 200 
 BRR  HZ EP       12 2 14.12                             152    0.1310 78.6 309 
 BRR  HN ES       12 2 31.77                             152    0.0810 78.6 309 
 RUS  HZ EP       12 2 15.10                             150   -0.0210 85.8 175 
 RUS  HN ES       12 2 33.85                             150    0.1410 85.8 175 
 PTB  HZ EP       12 2 18.77                             135   -0.08 9  145 265 
 PTB  HE ES       12 2 40.31                             135   -0.03 9  145 265 
 PTB  HZ I        12 2 42.87         1.8 0.44            135            145 265 
                                                                                
