 2013  220 1237 13.7 L   6.773 -73.188142.7  RSN  7 0.5 1.9LRSN                1
 GAP=132        1.03       5.5     6.0  9.1  0.2986E+01  0.1034E+02  0.1220E+02E
 Epicentro: VILLANUEVA - SANTANDER                                             3
 ACTION:UPD 13-03-12 09:34 OP:ep   STATUS:               ID:20130220123713 L   I
 2013-02-20-1230-00M.COL___241                                                 6
 STAT SP IPHASW D HRMM SECON CODA AMPLIT PERI AZIMU VELO AIN AR TRES W  DIS CAZ7
 BAR2 SZ EP   1   1237 32.79                             172   -0.10 7 20.0 178 
 BAR2 SZ ES   1   1237 47.68                             172   -0.19 7 20.0 178 
 BAR2 SZ I        1237 48.88        29.9 0.14            169           20.0 178 
 BRR  HZ EP   1   1237 34.92                             153    0.55 7 68.6 303 
 BRR  HN ES   1   1237 51.47                             153    0.98 7 68.6 303 
 BRR  HZ I        1237 57.37        13.2 0.24            148           68.6 303 
 PAM  SZ EP   1   1237 35.34                             149   -0.58 7 82.7  41 
 PAM  SN ES   1   1237 52.92                             149   -0.32 7 82.7  41 
 RUS  HZ EP   1   1237 36.98                             144    0.01 7 98.1 173 
 RUS  HN ES   1   1237 55.40                             144    0.29 7 98.1 173 
 RUS  HZ I        1237 56.42        11.6 0.30            146           98.1 173 
 PTB  HZ EP   1   1237 40.13                             132    0.19 7  143 260 
 PTB  HN ES   1   1237 59.84                             132   -0.57 7  143 260 
 PTB  HZ I        1238  4.72        13.0 0.60            130            143 260 
 ZAR  HN ES   1   1238  9.90                             122   -0.60 6  201 293 
 ZAR  HZ I        1238 17.87         6.8 0.24            122            201 293 
 CHI  HZ EP   1   1237 51.75                             117    0.97 6  245 194 
 CHI  HN ES   1   1238 18.97                             117   -0.74 6  245 194 
 CHI  HZ I        1238 23.71         3.4 0.22            118            245 194 
                                                                                
