 2010 1020 1913 21.8 L   6.768 -73.107143.0  RSN 10 0.5 2.1LRSN                1
 GAP=163        0.93       5.2    10.5  8.0 -0.2239E+02  0.8125E+01  0.6209E+01E
 Epicentro: LOS SANTOS - SANTANDER                                             3
 ACTION:UP  11-02-18 11:10 OP:tino STATUS:               ID:20101020191321 L   I
 2010-10-20-1909-08S.COL___128                                                 6
 STAT SP IPHASW D HRMM SECON CODA AMPLIT PERI AZIMU VELO SNR AR TRES W  DIS CAZ7
 BAR2 SZ IP     D 1913 40.82                             171    -0.210   21 203 
 BAR2 SZ ES   2   1913 55.62                             171    -0.5 5   21 203 
 BAR2 SZ I        1913 56.93        31.1 0.38                            21 203 
 BTL  SZ EP   1   1913 41.06                             170    -0.1 7   24 313 
 BTL  SZ ES   2   1913 56.79                             170     0.6 5   24 313 
 BRR  HZ EP   1   1913 42.57                             150    -0.4 7   77 299 
 BRR  HE ES   2   1913 59.29                             150    -0.2 5   77 299 
 BRR  HZ I        1914  2.85        38.3 0.23                            77 299 
 RUS  HZ EP   1   1913 44.96                             144    -0.1 7   97 178 
 RUS  HN ES   2   1914  3.26                             144     0.1 5   97 178 
 RUS  HZ I        1914  5.46        13.1 0.31                            97 178 
 GUE  SZ EP   1   1913 45.75                             138    -0.7 7  119  10 
 GRA  SZ IP     D 1913 47.56                             136     0.610  128  15 
 GRA  SZ ES   2   1914  7.14                             136     0.5 5  128  15 
 GRA  SZ I        1914  8.15        13.7 0.27                           128  15 
 CHI  HZ EP   1   1913 58.68                             117    -0.4 6  246 196 
 CHI  HN ES   2   1914 29.40                             117     1.2 4  246 196 
 CHI  HZ I        1914 36.46         7.4 0.66                           246 196 
 ROSC BZ EP   1   1913 59.55                             116    -0.1 6  252 212 
 ROSC BZ I        1914 40.76        11.5 0.63                           252 212 
 HEL  HZ EP   1   1914  2.78                             114     0.5 6  275 257 
 HEL  HZ I        1914 38.71         8.4 0.72                           275 257 
 PRA  HZ EP   1   1914 15.18                             106     0.1 4  391 210 
 PRA  HE ES   2   1914 57.28                             106     0.6 3  391 210 
                                                                                
