 2014 1020 1117 15.9 L   6.509 -73.755 94.1  RSN 20 0.5 2.4LRSN                1
 GAP= 51        1.21       2.3     2.8  6.2 -0.4288E+00  0.3692E+01  0.1453E+01E
 Epicentro: SANTA HELENA DEL OPON - SANTANDER                                  3
 ACTION:UPD 14-11-29 23:51 OP:nd   STATUS:               ID:20141020111715 L   I
 OLDACT:REG 14-10-20 23:16 OP:spq  STATUS:               ID:20141020110746     3
 2014-10-20-1107-46M.COL___265                                                 6
 STAT SP IPHASW D HRMM SECON CODA AMPLIT PERI AZIMU VELO AIN AR TRES W  DIS CAZ7
 BAR2 SZ EP       1117 31.78                             143    0.2610 64.0  82 
 BAR2 SZ ES   1   1117 44.42                             143    0.68 7 64.0  82 
 BAR2 SZ I        1117 45.10       177.0 0.24            143           64.0  82 
 BRR  HZ EP     C 1117 31.51                             142    0.1610 66.3   4 
 BRR  HN ES       1117 44.04                             142    0.6010 66.3   4 
 BRR  HZ I        1117 45.39        63.9 0.10            142           66.3   4 
 PTB  HZ EP     C 1117 31.65                             137   -0.6310 77.6 273 
 PTB  HE ES       1117 44.26                             137   -0.8310 77.6 273 
 PTB  HZ I        1117 45.11        74.3 0.24            134           77.6 273 
 SPBC HZ EP       1117 34.54                             129    0.0510  101 200 
 SPBC HE ES       1117 48.94                             129   -0.0810  101 200 
 SPBC HZ I        1117 51.58        65.5 0.32            125            101 200 
 RUS  HZ EP       1117 34.79                             130   -0.2210  101 132 
 RUS  HN ES       1117 49.54                             130   -0.4210  101 132 
 RUS  HZ I        1117 51.72        21.0 0.32            127            101 132 
 PAM  SZ EP       1117 39.80                             118   -0.08 9  148  52 
 PAM  SE ES       1117 58.38                             118   -0.25 9  148  52 
 PAM  SZ I        1117 59.54        39.7 0.16            117            148  52 
 ZAR  HZ EP       1117 41.59                             115    0.69 9  163 312 
 ZAR  HE ES       1118  0.97                             115    0.54 9  163 312 
 ZAR  HZ I        1118  5.58        46.7 0.40            113            163 312 
 ROSC BN ES   1   1118  7.63                             111   -0.05 6  195 199 
 ROSC BZ I        1118 13.52        16.9 0.35            109            195 199 
 OCA  HZ EP       1117 44.42                             111   -0.52 9  197  14 
 OCA  HE ES       1118  8.13                             111    0.51 9  197  14 
 OCA  HZ I        1118 13.35        24.1 0.18            110            197  14 
 HEL  HZ EP       1117 46.28                             111    0.83 9  199 260 
 HEL  HN ES       1118  8.44                             111   -0.10 9  199 260 
 HEL  HZ I        1118 12.71        33.8 0.30            108            199 260 
 CHI  HZ EP       1117 46.30                             110   -0.19 8  208 179 
 CHI  HE ES       1118 10.62                             110    0.23 8  208 179 
 CHI  HZ I        1118 18.07         7.5 0.30            108            208 179 
 URE  HZ EP       1117 48.66                             107   -1.05 8  240 305 
 URE  HE ES       1118 15.67                             107   -0.45 8  240 305 
 URE  HZ I        1118 21.97        29.4 0.24            105            240 305 
 SML  HZ EP       1117 50.80                             106   -0.81 8  256 352 
 SML  HE ES   4   1118 21.86                             106    2.36 0  256 352 
 SML  HZ I        1118 24.02        30.0 0.10            104            256 352 
 VIL  SZ EP   1   1117 52.34                             105   -0.55 6  265 179 
 VIL  SN ES   1   1118 21.20                             105   -0.58 6  265 179 
 VIL  SZ I        1118 25.29        15.6 0.38            103            265 179 
 TOL  SZ EP       1117 55.23                             105    0.98 8  274 219 
 TOL  SN ES       1118 24.44                             105    0.24 8  274 219 
 TOL  SZ I        1118 31.23        33.8 0.26            103            274 219 
 ANIL HZ EP   4   1117 59.44                             104    3.58 0  288 219 
 ANIL HN ES   4   1118 30.18                             104    3.12 0  288 219 
 MON  HZ EP   4   1117 58.44                             102   -1.78 0  328 320 
 MON  HN ES   4   1118 33.44                             102   -1.39 0  328 320 
 MON  HZ I        1118 35.81         7.1 0.16            101            328 320 
 ORTC HZ EP       1118  1.25                             102    0.49 7  332 210 
 ORTC HN ES   4   1118 38.47                             102    2.69 0  332 210 
 ORTC HZ I        1118 43.74         8.8 0.28            100            332 210 
 PRA  HZ EP       1118  1.65                             102    0.66 7  334 202 
 PRA  HN ES       1118 36.40                             102    0.20 7  334 202 
 PRA  HZ I        1118 42.10         9.4 0.24            100            334 202 
 SJC  HZ EP   4   1118  6.98                              99   -2.85 0  406 337 
 SJC  HN ES   4   1118 48.79                              99   -3.14 0  406 337 
 SJC  HZ I        1118 52.37         7.6 0.48             98            406 337 
 MACC HZ EP   4   1118 16.46                              98   -2.66 0  483 181 
 MACC HE ES   4   1119  4.97                              98   -3.50 0  483 181 
 MACC HZ I        1119 13.78         5.1 0.48             97            483 181 
                                                                                
