 2014 1020 1103 17.4 L   6.793 -73.154154.4  RSN  9 0.5 1.7LRSN                1
 GAP=136        1.07       3.6     5.0  6.8  0.2341E+01  0.5779E+01  0.3297E+00E
 Epicentro: LOS SANTOS - SANTANDER                                             3
 ACTION:UPD 14-11-29 23:51 OP:nd   STATUS:               ID:20141020110317 L   I
 OLDACT:DUP 14-10-21 05:38 OP:fm   STATUS:               ID:20141020105748d    3
 2014-10-20-1057-47M.COL___265                                                 6
 STAT SP IPHASW D HRMM SECON CODA AMPLIT PERI AZIMU VELO AIN AR TRES W  DIS CAZ7
 BAR2 SZ EP   1   11 3 38.19                             171    0.13 7 22.4 188 
 BAR2 SZ ES   1   11 3 53.70                             171   -0.47 7 22.4 188 
 BAR2 SZ I        11 3 55.05        14.7 0.16            171           22.4 188 
 BRR  HZ EP   1   11 3 40.12                             154    0.64 7 70.8 299 
 BRR  HN ES       11 3 57.53                             154    0.8410 70.8 299 
 BRR  HZ I        11 4  1.04         8.2 0.34            154           70.8 299 
 PAM  SZ EP       11 3 41.14                             152    0.5210 78.5  40 
 PAM  SE ES       11 3 58.45                             152   -0.2710 78.5  40 
 PAM  SZ I        11 4  0.91         5.2 0.52            154           78.5  40 
 RUS  HZ EP       11 3 41.73                             146   -0.2410 99.9 176 
 RUS  HN ES       11 4  0.76                             146   -0.3710 99.9 176 
 RUS  HZ I        11 4  2.13         5.6 0.36            147           99.9 176 
 PTB  HZ EP   1   11 3 44.52                             134   -0.49 7  147 259 
 PTB  HN ES       11 4  6.09                             134   -0.44 9  147 259 
 PTB  HZ I        11 4  9.72         4.5 0.42            135            147 259 
 ZAR  HN ES   1   11 4 16.50                             124    0.40 6  204 292 
 SML  HZ EP       11 3 54.07                             119   -0.50 8  244 336 
 SML  HN ES       11 4 23.35                             119   -0.21 8  244 336 
 SML  HZ I        11 4 26.45         6.2 0.10            120            244 336 
 CHI  HZ EP       11 3 55.84                             119    0.34 8  248 195 
 CHI  HN ES       11 4 25.57                             119    0.37 8  248 195 
 CHI  HZ I        11 4 29.18         2.2 0.44            120            248 195 
 MON  HE ES   1   11 4 44.38                             110   -0.83 5  353 309 
 SJC  HZ EP   4   11 4 12.10                             107   -1.19 0  409 327 
 SJC  HN ES   4   11 4 53.19                             107   -3.68 0  409 327 
                                                                                
