 2010  820 1332 28.8 L   6.813 -73.010147.8  RSN  5 0.4 1.5LRSN                1
 GAP=180        1.19       9.4    16.8 12.7  0.7130E+02 -0.1201E+03 -0.5035E+02E
 Epicentro: CEPITA - SANTANDER                                                 3
 ACTION:UP  10-09-07 10:56 OP:vdl  STATUS:               ID:20100820133228 L   I
 2010-08-20-1328-55S.COL___119                                                 6
 STAT SP IPHASW D HRMM SECON CODA AMPLIT PERI AZIMU VELO SNR AR TRES W  DIS CAZ7
 BAR2 SZ EP   1   1332 48.97                             168     0.1 7   31 218 
 BTL  SZ IP       1332 48.06                             168    -0.810   31 292 
 BTL  SZ ES   1   1333  3.96                             168    -0.5 7   31 292 
 BAR2 SZ ES   1   1333  4.84                             168     0.3 7   31 218 
 BAR2 SZ I        1333  5.72         7.8 0.20                            31 218 
 BRR  HZ EP       1332 50.82                             149    -0.110   84 293 
 BRR  HZ I        1332 51.10        15.4 0.19                            84 293 
 BRR  HN ES       1333  8.55                             149     0.310   84 293 
 RUS  HZ EP   1   1332 53.27                             144     0.4 7  102 185 
 RUS  HN ES   1   1333 11.69                             144     0.1 7  102 185 
 RUS  HZ I        1333 12.78         2.1 0.45                           102 185 
 GUE  SZ EP       1332 53.86                             141     0.410  113   5 
 GUE  SZ I        1333 25.60         2.3 0.08                           113   5 
                                                                                
