 2012 1220 1151  8.2 L   6.821 -73.137146.6  RSN 11 0.4 2.2LRSN                1
 GAP=184        0.76       2.9     4.7  5.2  0.2036E+01  0.7361E+01  0.2294E+01E
 Epicentro: LOS SANTOS - SANTANDER                                             3
 ACTION:UPD 13-01-04 14:29 OP:ep   STATUS:               ID:20121220115108 L   I
 2012-12-20-1150-00M.COL___242                                                 6
 STAT SP IPHASW D HRMM SECON CODA AMPLIT PERI AZIMU VELO AIN AR TRES W  DIS CAZ7
 BAR2 SZ EP   1   1151 28.08                             170    0.09 7 25.8 191 
 BAR2 SZ ES   1   1151 43.56                             170    0.14 7 25.8 191 
 BAR2 SZ I        1151 44.49        53.6 0.24                          25.8 191 
 GIR2 SZ EP   1   1151 28.08                             168    0.15 7 29.2 348 
 GIR2 SZ ES   1   1151 42.84                             168   -0.47 7 29.2 348 
 GIR2 SZ I        1151 45.74        10.5 0.14                          29.2 348 
 BRR  HZ EP   1   1151 29.96                             153    0.52 7 71.0 297 
 BRR  HE ES   1   1151 46.90                             153    0.91 7 71.0 297 
 BRR  HZ I        1151 49.32        22.7 0.14                          71.0 297 
 RUS  HZ EP   1   1151 32.12                             143   -0.08 7  103 177 
 RUS  HE ES   1   1151 50.76                             143   -0.16 7  103 177 
 RUS  HZ I        1151 53.03        16.9 0.28                           103 177 
 PTB  HZ EP   1   1151 34.71                             132   -0.66 7  149 258 
 PTB  HN ES   1   1151 55.85                             132   -0.71 7  149 258 
 PTB  HZ I        1151 58.52        21.8 0.21                           149 258 
 OCA  HN ES   1   1151 57.89                             130   -0.47 7  158 353 
 OCA  HZ I        1152  3.45        29.9 0.20                           158 353 
 ZAR  HZ EP   1   1151 40.55                             123   -0.16 6  204 291 
 ZAR  HN ES   1   1152  6.04                             123   -0.03 6  204 291 
 ZAR  HZ I        1152 12.37        16.7 0.31                           204 291 
 SML  HZ EP   1   1151 44.54                             118   -0.16 6  242 335 
 SML  HE ES   1   1152 13.49                             118    0.33 6  242 335 
 CHI  HZ EP   1   1151 46.41                             117    0.19 6  251 195 
 CHI  HN ES   1   1152 15.97                             117    0.10 6  251 195 
 CHI  HZ I        1152 21.89         7.1 0.24                           251 195 
 HEL  HZ EP   1   1151 49.23                             115    0.60 6  274 255 
 HEL  HN ES   1   1152 20.15                             115   -0.01 6  274 255 
 HEL  HZ I        1152 28.97        11.3 0.28                           274 255 
 MON  HN ES   4   1152 33.22                             109   -2.13 0  353 308 
 PRA  HZ EP   1   1152  1.65                             106   -0.40 4  394 210 
 PRA  HN ES   1   1152 44.44                             106    0.40 4  394 210 
 PRA  HZ I        1152 50.90         7.1 0.42                           394 210 
                                                                                
