 2012  320 1220 46.6 L   6.822 -73.178143.9  RSN  4 0.2 1.1LRSN                1
 GAP=145        0.48       4.0     3.8  5.6 -0.3719E+01  0.6803E+01 -0.3275E+00E
 ACTION:UP  12-03-31 23:21 OP:EP   STATUS:               ID:20120320122046 L   I
 2012-03-20-1220-00M.COL___202                                                 6
 STAT SP IPHASW D HRMM SECON CODA AMPLIT PERI AZIMU VELO SNR AR TRES W  DIS CAZ7
 BAR2 SZ EP   1   1221  5.62                             170    -0.4 7   25 181 
 BAR2 SZ ES   1   1221 21.03                             170    -0.2 7   25 181 
 BAR2 SZ I        1221 22.68         4.7 0.30                            25 181 
 PAM  SZ EP   2   1221  8.71                             150     0.1 5   78  43 
 PAM  SN ES   1   1221 25.97                             150     0.2 7   78  43 
 RUS  HZ EP   1   1221 10.42                             143     0.1 7  103 174 
 RUS  HZ I        1221 25.15         1.3 0.36                           103 174 
 RUS  HE ES   1   1221 29.02                             143     0.1 7  103 174 
 PTB  HZ EP   1   1221 13.17                             132     0.1 7  145 258 
 PTB  HN ES   1   1221 33.90                             132     0.1 7  145 258 
 PTB  HZ I        1221 39.00         1.6 0.26                           145 258 
                                                                                
