 2011  520 1045  0.5 L   6.789 -73.100140.3  RSN 11 0.5 2.2LRSN                1
 GAP=143        1.08       4.9     8.6  6.3 -0.1214E+02  0.1326E+01  0.3776E+01E
 Epicentro: LOS SANTOS - SANTANDER                                             3
 ACTION:UP  11-06-29 08:54 OP:tino STATUS:               ID:20110520104500 L   I
 2011-05-20-1044-27S.COL___140                                                 6
 STAT SP IPHASW D HRMM SECON CODA AMPLIT PERI AZIMU VELO SNR AR TRES W  DIS CAZ7
 BTL  SZ EP       1045 19.59                             170     0.210   23 308 
 BTL  SZ ES   1   1045 34.35                             170     0.1 7   23 308 
 BAR2 SZ IP       1045 19.42                             170     0.010   24 203 
 BAR2 SZ ES   1   1045 33.77                             170    -0.5 7   24 203 
 BAR2 SZ I        1045 35.24        24.7 0.36                            24 203 
 GIR2 SZ EP       1045 19.52                             166     0.010   34 342 
 GIR2 SZ ES   1   1045 34.89                             166     0.4 7   34 342 
 PAM  SZ EP       1045 22.39                             151     0.410   75  36 
 PAM  SN ES   1   1045 38.81                             151     0.1 7   75  36 
 BRR  HZ EP       1045 21.25                             150    -0.110   76 297 
 BRR  HN ES   1   1045 37.81                             150     0.2 7   76 297 
 BRR  HZ I        1045 38.84        42.2 0.14                            76 297 
 RUS  HZ EP       1045 23.44                             143    -0.110   99 179 
 RUS  HZ I        1045 24.64        12.5 0.12                            99 179 
 RUS  HN ES   2   1045 41.20                             143    -0.4 5   99 179 
 BRI  SZ EP   1   1045 23.92                             140     0.1 7  108  18 
 GRA  SZ EP       1045 25.35                             136     0.210  125  15 
 GRA  SZ I        1045 49.18        11.0 0.45                           125  15 
 OCA  SZ EP       1045 28.10                             128    -0.4 9  162 351 
 OCA  SZ ES   1   1045 49.38                             128    -1.0 7  162 351 
 OCA  SZ I        1045 54.65        26.0 0.32                           162 351 
 RREF HZ EP       1045 47.87                             110     1.2 7  325 230 
 RREF HZ I        1046 32.39         7.3 0.55                           325 230 
 PRA  HZ EP       1045 53.07                             105    -0.9 6  394 210 
 PRA  HN ES   2   1046 34.87                             105    -0.8 3  394 210 
 PRA  HZ I        1046 39.22        19.6 0.22                           394 210 
                                                                                
