 2013  820 1036 50.8 L   6.492 -73.701 86.1  RSN  6 0.7 1.4LRSN                1
 GAP= 99        1.75       8.2     5.6 16.8  0.7948E+01  0.4134E+02  0.6986E+02E
 Epicentro: SANTA HELENA DEL OPON - SANTANDER                                  3
 ACTION:UPD 14-01-14 09:05 OP:ep   STATUS:               ID:20130820103650 L   I
 OLDACT:UP  13-08-20 18:14 OP:stll STATUS:               ID:20130820102835     3
 OLDACT:REG 13-08-20 15:49 OP:stll STATUS:               ID:20130820102835     3
 2013-08-20-1028-35M.COL___192                                                 6
 STAT SP IPHASW D HRMM SECON CODA AMPLIT PERI AZIMU VELO AIN AR TRES W  DIS CAZ7
 BAR2 SZ EP       1037  5.10                             143   -0.1210 58.4  79 
 BAR2 SZ I        1037  5.72        12.5 0.10            143           58.4  79 
 BAR2 SZ ES       1037 17.73                             143    1.2310 58.4  79 
 BRR  HZ EP       1037  5.22                             138   -0.4110 68.0 359 
 BRR  HN ES       1037 17.41                             138    0.1710 68.0 359 
 PTB  HZ EP   4   1037  5.75                             132   -1.27 0 83.7 274 
 PTB  HN ES       1037 18.75                             132   -0.9510 83.7 274 
 PTB  HZ I        1037 19.17         8.0 0.12            132           83.7 274 
 RUS  HZ EP       1037  7.93                             128   -0.8110 95.2 134 
 RUS  HN ES       1037 22.37                             128   -0.4010 95.2 134 
 RUS  HZ I        1037 25.72         3.8 0.34            127           95.2 134 
 HEL  HN ES       1037 44.39                             108    0.38 9  205 261 
 HEL  HZ I        1037 48.62         2.7 0.48            108            205 261 
 GUY2CHZ EP       1037 24.85                             106    0.90 8  231 233 
 GUY2CHN ES       1037 50.48                             106    0.64 8  231 233 
 PRA  HN ES   4   1038 12.59                             100    1.70 0  334 203 
                                                                                
