 2011  520 1054 10.9 L   6.790 -73.074141.4  RSN 12 0.4 2.4LRSN                1
 GAP=146        1.00       4.5     7.0  5.6 -0.1392E+02  0.5409E+01  0.3858E+01E
 Epicentro: LOS SANTOS - SANTANDER                                             3
 ACTION:UP  11-06-29 08:54 OP:tino STATUS:               ID:20110520105410 L   I
 2011-05-20-1052-02S.COL___140                                                 6
 STAT SP IPHASW D HRMM SECON CODA AMPLIT PERI AZIMU VELO SNR AR TRES W  DIS CAZ7
 BAR2 SZ EP       1054 29.91                             170    -0.210   25 209 
 BAR2 SZ ES   1   1054 44.58                             170    -0.4 7   25 209 
 BAR2 SZ I        1054 46.38        50.4 0.35                            25 209 
 BTL  SZ EP       1054 30.11                             169     0.010   26 304 
 BTL  SZ ES   1   1054 44.39                             169    -0.7 7   26 304 
 GIR2 SZ EP       1054 30.16                             165     0.010   35 338 
 GIR2 SZ ES   1   1054 45.30                             165     0.1 7   35 338 
 PAM  SZ EP       1054 32.83                             151     0.410   74  34 
 PAM  SN ES   1   1054 50.04                             151     0.8 7   74  34 
 BRR  HZ EP       1054 31.83                             149    -0.210   79 296 
 BRR  HZ I        1054 32.03        45.1 0.14                            79 296 
 BRR  HN ES   1   1054 49.39                             149     0.8 7   79 296 
 RUS  HZ EP       1054 33.77                             144    -0.410   99 181 
 RUS  HN ES   2   1054 52.43                             144     0.1 5   99 181 
 RUS  HZ I        1054 53.95        21.4 0.25                            99 181 
 BRI  SZ EP       1054 34.59                             141     0.310  107  17 
 BRI  SZ ES   1   1054 52.16                             141    -0.4 7  107  17 
 GRA  SZ EP       1054 35.81                             136     0.110  125  14 
 GRA  SZ ES   1   1054 55.54                             136     0.5 7  125  14 
 GRA  SZ I        1054 58.37        21.8 0.25                           125  14 
 OCA  SZ EP       1054 38.83                             128    -0.3 9  162 350 
 OCA  SZ ES   2   1055  0.67                             128    -0.4 5  162 350 
 OCA  SZ I        1055  4.77        24.5 0.22                           162 350 
 ROSC BZ EP       1054 49.42                             116     0.2 8  256 213 
 ROSC BN ES   3   1055 20.26                             116     1.3 2  256 213 
 ROSC BZ I        1055 23.41        27.8 0.48                           256 213 
 HEL  HZ EP       1054 51.14                             113    -0.6 7  279 256 
 HEL  HN ES   3   1055 24.38                             113     0.8 2  279 256 
 HEL  HZ I        1055 28.21        12.1 0.31                           279 256 
 RREF HZ EP       1054 57.69                             110     0.2 7  327 230 
 RREF HZ I        1055 38.47        15.1 0.23                           327 230 
                                                                                
