 2017  320 1011 16.3 L   6.817 -73.168145.7  RSN 10 0.5 2.0LRSN                1
 GAP=142        1.13       4.8     4.9  7.4 -0.4680E+01  0.5567E+01  0.1170E+02E
 Epicentro: LOS SANTOS - SANTANDER                                             3
 ACTION:UPD 17-05-25 18:42 OP:jn   STATUS:               ID:20170320101116 L   I
 OLDACT:UP  17-03-20 23:43 OP:dnl  STATUS:               ID:20170320100740     3
 OLDACT:UP  17-03-20 23:43 OP:dnl  STATUS:               ID:20170320100740     3
 OLDACT:REG 17-03-20 22:01 OP:dnl  STATUS:               ID:20170320100740     3
 2017-03-20-1008-00M.COL___366                                                 6
 STAT SP IPHASW D HRMM SECON CODA AMPLIT PERI AZIMU VELO AIN AR TRES W  DIS CAZ7
 BAR2 EZ IP     C 1011 35.84                             170   -0.1010 24.9 184 
 BAR2 EZ ES       1011 50.92                             170   -0.3510 24.9 184 
 BAR2 EZ I        1011 53.53        30.4 0.32            169           24.9 184 
 BRR  HZ EP       1011 37.52                             154    0.2710 68.1 298 
 BRR  HN ES       1011 54.66                             154    1.0510 68.1 298 
 BRR  HZ I        1011 58.50        14.4 0.32            149           68.1 298 
 PAM  EZ IP     D 1011 38.53                             151    0.0310 77.6  42 
 PAM  EN ES       1011 55.49                             151   -0.3410 77.6  42 
 PAM  EZ I        1011 57.87        20.7 0.48            154           77.6  42 
 PTB  HZ EP   2   1011 42.36                             132   -0.69 5  146 258 
 PTB  HN ES       1012  3.04                             132   -0.90 9  146 258 
 PTB  HZ I        1012 10.44         9.2 0.60            130            146 258 
 SPBC HZ EP       1011 44.68                             129   -0.09 9  163 218 
 SPBC HN ES       1012  6.95                             129   -0.04 9  163 218 
 SPBC HZ I        1012  9.31        21.0 0.34            129            163 218 
 ZAR  HZ EP   2   1011 48.67                             123    0.26 4  201 292 
 ZAR  HN ES       1012 13.63                             123    0.16 9  201 292 
 ZAR  HZ I        1012 19.41         7.6 0.26            122            201 292 
 CHI  HZ EP       1011 54.02                             117   -0.08 8  250 194 
 CHI  HN ES       1012 24.46                             117    0.85 8  250 194 
 CHI  HZ I        1012 29.17         4.5 0.66            118            250 194 
 URE  HZ EP   2   1011 55.90                             114   -1.11 4  281 292 
 URE  HN ES   4   1012 27.17                             114   -1.60 0  281 292 
 URE  HZ I        1012 38.76         4.8 0.22            113            281 292 
 GUY2CHZ EP   2   1012  0.68                             112    0.90 4  300 234 
 GUY2CHN ES       1012 33.39                             112   -0.32 7  300 234 
 GUY2CHZ  IAML    1012 41.72         5.3 0.32                           300 234 
 ORTC HZ EP   2   1012 10.72                             106    0.52 3  396 216 
 ORTC HN ES   4   1012 53.85                             106    1.58 0  396 216 
 ORTC HZ I        1012 59.66         3.0 0.38            107            396 216 
                                                                                
