 2013  120 1718  6.9 L   6.796 -73.112152.5  RSN  8 0.4 1.8LRSN                1
 GAP=141        0.86       3.9     4.3  6.3 -0.7399E+00  0.6635E+01  0.1227E+01E
 Epicentro: LOS SANTOS - SANTANDER                                             3
 ACTION:UPD 13-02-15 09:15 OP:ep   STATUS:               ID:20130120171806 L   I
 2013-01-20-1710-00M.COL___241                                                 6
 STAT SP IPHASW D HRMM SECON CODA AMPLIT PERI AZIMU VELO AIN AR TRES W  DIS CAZ7
 BAR2 SZ EP       1718 27.14                             171   -0.1710 23.8 199 
 BAR2 SZ ES   1   1718 43.14                             171   -0.12 7 23.8 199 
 BAR2 SZ I        1718 45.36        16.7 0.18            169           23.8 199 
 BRR  HZ EP     C 1718 29.18                             153    0.2410 74.7 297 
 BRR  HN ES   1   1718 46.54                             153    0.39 7 74.7 297 
 BRR  HZ I        1718 50.88        12.4 0.14            152           74.7 297 
 PAM  SZ EP       1718 29.90                             153    0.2110 75.4  37 
 PAM  SN ES   1   1718 47.24                             153   -0.25 7 75.4  37 
 PAM  SZ I        1718 49.42         6.3 0.18            157           75.4  37 
 RUS  HZ EP       1718 31.07                             145   -0.1710 99.9 178 
 RUS  HN ES       1718 50.39                             145    0.1410 99.9 178 
 RUS  HZ I        1718 52.05         3.6 0.26            147           99.9 178 
 PTB  HN ES   1   1718 55.27                             133   -1.16 7  151 259 
 ZAR  HZ EP       1718 39.71                             123   -0.42 8  208 292 
 ZAR  HN ES   1   1719  6.86                             123    0.79 6  208 292 
 ZAR  HZ I        1719 11.68         9.7 0.44            125            208 292 
 NOR  HZ EP   1   1718 42.98                             120   -0.31 6  237 235 
 NOR  HE ES       1719 12.03                             120    0.33 8  237 235 
 NOR  HZ I        1719 14.93         8.6 0.18            121            237 235 
 CHI  HZ EP   1   1718 45.29                             118    0.28 6  249 196 
 CHI  HN ES   1   1719 14.95                             118    0.20 6  249 196 
 CHI  HZ I        1719 22.35         2.7 0.54            120            249 196 
                                                                                
