 2016 1120 1215 52.7 L   6.822 -73.269123.2  RSN  4 0.4 1.5LRSN                1
 GAP=134        0.98      11.3     7.1  8.5  0.4217E+02  0.1320E+02 -0.1721E+02E
 Epicentro: ZAPATOCA - SANTANDER                                               3
 ACTION:UPD 17-10-26 21:10 OP:lp   STATUS:               ID:20161120121552 L   I
 OLDACT:REG 16-11-20 20:47 OP:ar   STATUS:               ID:20161120120742     3
 2016-11-20-1208-00M.COL___331                                                 6
 STAT SP IPHASW D HRMM SECON CODA AMPLIT PERI AZIMU VELO AIN AR TRES W  DIS CAZ7
 BAR2 EZ EP       1216 10.16                             167    0.4110 27.2 159 
 BAR2 EZ ES       1216 22.93                             167   -0.0910 27.2 159 
 BAR2 EZ I        1216 28.63         9.2 0.62            161           27.2 159 
 BRR  HZ EP       1216  9.87                             153   -0.8310 58.2 303 
 BRR  HN ES       1216 24.73                             153    0.0110 58.2 303 
 BRR  HZ I        1216 25.61         6.7 0.38            154           58.2 303 
 PAM  EZ EP   2   1216 12.91                             143   -0.22 5 85.0  48 
 PAM  EE ES   2   1216 29.52                             143    0.48 5 85.0  48 
 ZAR  HZ EP       1216 22.74                             119    0.39 9  191 293 
 ZAR  HN ES       1216 45.64                             119    0.18 9  191 293 
 ZAR  HZ I        1216 48.48         2.7 0.44            121            191 293 
                                                                                
