 2012  420 1533 20.1 L   6.792 -73.159147.9  RSN  4 0.3 1.8LRSN                1
 GAP=147        0.55       8.9     4.4  7.8  0.6908E+01  0.1748E+01 -0.1046E+02E
 Epicentro: LOS SANTOS - SANTANDER                                             3
 ACTION:UPD 12-07-05 11:54 OP:tino STATUS:               ID:20120420153320 L   I
 2012-04-20-1530-00M.COL___186                                                 6
 STAT SP IPHASW D HRMM SECON CODA AMPLIT PERI AZIMU VELO AIN AR TRES W  DIS CAZ7
 BAR2 SZ EP   1   1533 40.02                             171     0.0 7   22 187 
 BAR2 SZ ES   2   1533 55.42                             171    -0.1 5   22 187 
 BAR2 SZ I        1533 58.64        10.7 0.47                            22 187 
 BRR  HN ES   2   1533 58.13                             153     0.0 5   70 300 
 BRR  HZ I        1534 32.57        17.1 0.44                            70 300 
 PAM  SZ EP       1533 42.85                             151     0.210   79  40 
 PAM  SE ES   2   1533 59.88                             151    -0.4 5   79  40 
 ZAR  HZ EP   2   1533 51.90                             123    -0.7 4  203 293 
 ZAR  HN ES   1   1534 18.13                             123     0.2 6  203 293 
 ZAR  HZ I        1534 26.47         4.2 0.14                           203 293 
                                                                                
