 2013  120 1401  5.2 L   6.783 -73.186146.6  RSN  5 0.3 1.4LRSN                1
 GAP=132        0.68       6.1     7.5  8.2  0.1625E+02 -0.1956E+02 -0.1235E+02E
 Epicentro: LOS SANTOS - SANTANDER                                             3
 ACTION:UPD 13-02-15 09:15 OP:ep   STATUS:               ID:20130120140105 L   I
 2013-01-20-1400-00M.COL___241                                                 6
 STAT SP IPHASW D HRMM SECON CODA AMPLIT PERI AZIMU VELO AIN AR TRES W  DIS CAZ7
 BAR2 SZ EP   1   14 1 24.99                             171    0.08 7 21.1 179 
 BAR2 SZ ES   1   14 1 40.49                             171    0.23 7 21.1 179 
 BAR2 SZ I        14 1 41.64        10.7 0.48            152           21.1 179 
 BRR  HZ EP   1   14 1 26.89                             154    0.60 7 68.3 302 
 BRR  HE ES   1   14 1 42.29                             154   -0.45 7 68.3 302 
 PAM  SZ EP   1   14 1 27.68                             150   -0.10 7 81.7  41 
 PAM  SZ I        14 1 46.99         4.3 0.58            122           81.7  41 
 RUS  HZ EP   1   14 1 28.47                             144   -0.47 7 99.1 173 
 RUS  HN ES   1   14 1 47.56                             144    0.11 7 99.1 173 
 RUS  HZ I        14 1 48.89         1.8 0.30            136           99.1 173 
 PTB  HN ES   2   14 1 52.61                             133    0.03 5  143 259 
                                                                                
