 2014  720 1744 24.2 L   6.267 -73.722 99.2  RSN  5 0.3 1.3LRSN                1
 GAP=102        0.79       3.9     2.9  6.8  0.4793E+00  0.4048E+01 -0.6227E+01E
 Epicentro: LANDAZURI - SANTANDER                                              3
 ACTION:UPD 15-03-16 20:45 OP:nd   STATUS:               ID:20140720174424 L   I
 OLDACT:DUP 14-07-21 00:34 OP:stll STATUS:               ID:20140720173815d    3
 2014-07-20-1738-14M.COL___263                                                 6
 STAT SP IPHASW D HRMM SECON CODA AMPLIT PERI AZIMU VELO AIN AR TRES W  DIS CAZ7
 BAR2 SZ EP       1744 41.01                             143    0.2410 69.7  59 
 BAR2 SZ ES       1744 53.94                             143    0.2310 69.7  59 
 BAR2 SZ I        1744 56.25        14.3 0.20            147           69.7  59 
 SPBC HZ EP       1744 41.27                             139    0.0310 78.3 210 
 SPBC HN ES       1744 54.97                             139    0.4310 78.3 210 
 RUS  HZ EP       1744 41.73                             138   -0.3610 82.0 120 
 RUS  HZ I        1744 42.16         3.9 0.10            146           82.0 120 
 RUS  HN ES       1744 55.80                             138   -0.2610 82.0 120 
 PTB  HZ EP       1744 41.63                             136   -0.2010 86.6 290 
 PTB  HN ES       1744 55.23                             136   -0.3610 86.6 290 
 PTB  HZ I        1745  1.68         2.9 0.10            137           86.6 290 
 ZAR  HZ EP       1744 52.22                             114    0.33 9  185 317 
                                                                                
