 2012  520 1458 32.2 L   6.755 -73.140143.3  RSN  5 0.3 1.5LRSN                1
 GAP=139        0.79       6.2     6.1  9.1  0.1009E+02  0.6574E+01  0.8253E+01E
 Epicentro: LOS SANTOS - SANTANDER                                             3
 ACTION:UP  12-07-05 12:06 OP:pat  STATUS:               ID:20120520145832 L   I
 2012-05-20-1450-00M.COL___200                                                 6
 STAT SP IPHASW D HRMM SECON CODA AMPLIT PERI AZIMU VELO SNR AR TRES W  DIS CAZ7
 BAR2 SZ EP       1458 51.46                             172     0.010   19 195 
 BAR2 SZ I        1459  7.28         7.4 0.44                            19 195 
 BRR  HZ EP       1458 53.46                             151     0.210   74 302 
 BRR  HN ES   1   1459 10.00                             151     0.3 7   74 302 
 BRR  HZ I        1459 14.15         9.6 0.12                            74 302 
 PAM  SN ES   2   1459 10.84                             149    -0.8 5   81  37 
 RUS  HZ EP       1458 55.51                             145     0.210   96 176 
 RUS  HN ES   1   1459 13.28                             145    -0.1 7   96 176 
 RUS  HZ I        1459 15.16         5.4 0.38                            96 176 
 PTB  HZ EP       1458 58.57                             131    -0.3 9  147 261 
 PTB  HZ I        1458 59.43         2.3 0.14                           147 261 
 PTB  HN ES   1   1459 19.55                             131    -0.2 7  147 261 
                                                                                
