 2010 1220 1358 50.6 L   6.806 -73.163139.8  RSN  6 0.2 1.8LRSN                1
 GAP=157        0.58       3.9     6.5  5.4 -0.1356E+02  0.1290E+02 -0.4517E+01E
 Epicentro: LOS SANTOS - SANTANDER                                             3
 ACTION:UP  11-01-14 15:26 OP:pat  STATUS:               ID:20101220135850 L   I
 2010-12-20-1358-38S.COL___133                                                 6
 STAT SP IPHASW D HRMM SECON CODA AMPLIT PERI AZIMU VELO SNR AR TRES W  DIS CAZ7
 BAR2 SZ EP       1359  9.61                             170     0.110   24 186 
 BAR2 SZ ES   1   1359 23.86                             170    -0.4 7   24 186 
 BAR2 SZ I        1359 27.85        17.8 0.21                            24 186 
 RUS  HZ EP   1   1359 13.90                             142     0.1 7  101 175 
 RUS  HE ES   1   1359 32.37                             142     0.4 7  101 175 
 RUS  HZ I        1359 34.09         9.4 0.48                           101 175 
 GRA  SZ EP       1359 15.39                             136     0.110  126  18 
 GRA  SZ I        1359 36.47        11.2 0.43                           126  18 
 NOR  SZ EP   1   1359 25.69                             117    -0.2 6  234 234 
 NOR  SN ES   1   1359 53.73                             117     0.3 6  234 234 
 CHI  HZ EP       1359 27.85                             116    -0.2 8  249 195 
 CHI  HE ES   1   1359 56.96                             116    -0.2 6  249 195 
 CHI  HZ I        14 0  2.51         5.0 0.68                           249 195 
 PRA  HZ EP   1   1359 43.80                             105    -0.1 4  392 209 
                                                                                
