 2017  820 1106 59.0 L   6.794 -73.125146.4  RSN  6 0.3 1.4LRSN                1
 GAP=139        0.85       3.8     4.3  6.7 -0.3223E+00  0.4078E+01  0.1836E+00E
 Epicentro: LOS SANTOS - SANTANDER                                             3
 ACTION:UPD 17-09-04 20:22 OP:rebc STATUS:               ID:20170820110659 L   I
 OLDACT:DUP 17-08-20 16:36 OP:lv   STATUS:               ID:20170820105738d    3
 2017-08-20-1058-00M.COL___405                                                 6
 STAT SP IPHASW D HRMM SECON CODA AMPLIT PERI AZIMU VELO AIN AR TRES W  DIS CAZ7
 BAR2 EZ EP       11 7 18.47                             171   -0.2210 23.2 196 
 BAR2 EZ ES       11 7 33.79                             171   -0.2710 23.2 196 
 BAR2 EZ I        11 7 35.19        10.2 0.19            172           23.2 196 
 BRR  HZ EP       11 7 20.43                             152    0.0910 73.5 298 
 BRR  HE ES       11 7 37.56                             152    0.5710 73.5 298 
 PAM  EZ EP       11 7 21.49                             151    0.2710 76.5  38 
 PAM  EN ES       11 7 38.44                             151   -0.1210 76.5  38 
 PAM  EZ I        11 7 41.07         2.9 0.37            152           76.5  38 
 RUS  HZ EP       11 7 22.71                             144   -0.0310 99.8 177 
 RUS  HN ES       11 7 41.10                             144   -0.1710 99.8 177 
 RUS  HZ I        11 7 42.66         2.4 0.21            146           99.8 177 
 SPBC HE ES       11 7 50.34                             129    0.39 9  164 220 
 ZAR  HE ES       11 7 56.63                             122   -0.61 8  206 292 
 ZAR  HZ I        11 8  1.68         3.2 0.36            123            206 292 
                                                                                
