 2017  720 1403  0.5 L   6.862 -73.189130.9  RSN 13 0.4 1.9LRSN                1
 GAP=110        0.87       3.0     2.7  4.8  0.6636E+00  0.1744E+01  0.2048E+01E
 Epicentro: ZAPATOCA - SANTANDER                                               3
 ACTION:UPD 17-08-30 15:35 OP:rebc STATUS:               ID:20170720140300 L   I
 OLDACT:UP  17-07-20 22:31 OP:lv   STATUS:               ID:20170720135746     3
 OLDACT:REG 17-07-20 20:00 OP:lv   STATUS:               ID:20170720135746     3
 2017-07-20-1358-00M.COL___392                                                 6
 STAT SP IPHASW D HRMM SECON CODA AMPLIT PERI AZIMU VELO AIN AR TRES W  DIS CAZ7
 BAR2 EZ IP     D 14 3 18.42                             167   -0.0510 29.8 179 
 BAR2 EZ ES       14 3 32.62                             167    0.1110 29.8 179 
 BAR2 EZ I        14 3 34.02        14.3 0.13            165           29.8 179 
 BRR  HZ EP       14 3 19.66                             152    0.0810 63.8 295 
 BRR  HN ES       14 3 34.63                             152    0.1310 63.8 295 
 BRR  HZ I        14 3 38.63        25.2 0.23            151           63.8 295 
 PAM  EZ EP       14 3 21.17                             148    0.1710 75.6  46 
 PAM  EN ES       14 3 37.21                             148    0.1910 75.6  46 
 RUS  HZ EP       14 3 22.99                             138   -0.3610  108 174 
 RUS  HN ES       14 3 41.13                             138   -0.0710  108 174 
 RUS  HZ I        14 3 43.09         6.7 0.10            138            108 174 
 PTB  HZ EP   9   14 3 24.69                             129   -1.26 0  145 256 
 PTB  HN ES       14 3 44.43                             130   -0.14 9  145 256 
 PTB  HZ I        14 3 46.62         7.4 0.09            128            145 256 
 SPBC HN ES       14 3 49.93                             125    0.26 9  166 216 
 SPBC HZ I        14 3 54.41         5.6 0.20            125            166 216 
 YPLC HZ EP       14 3 30.02                             122   -0.05 9  185 151 
 YPLC HN ES       14 3 53.02                             122   -0.15 9  185 151 
 YPLC HZ I        14 3 56.83        29.5 0.05            123            185 151 
 ZAR  HZ EP       14 3 30.53                             120   -0.71 9  197 291 
 ZAR  HN ES       14 3 54.99                             120   -0.26 9  197 291 
 ZAR  HZ I        14 4  0.50        15.5 0.40            120            197 291 
 NOR  HZ EP       14 3 35.82                             115    0.43 8  235 232 
 NOR  HN ES       14 4  2.35                             115   -0.29 8  235 232 
 NOR  HZ I        14 4  6.85         4.5 0.57            115            235 232 
 HEL  HZ EP   3   14 3 41.31                             112    1.68 2  269 254 
 HEL  HN ES       14 4 10.86                             112    0.67 8  269 254 
 HEL  HZ I        14 4 16.61         5.3 0.32            112            269 254 
 URE  HZ EP   9   14 3 37.84                             111   -2.22 0  277 291 
 URE  HN ES       14 4  7.76                                   -0.96 7  277 291 
 GUY2CHZ EP   9   14 3 44.55                             109    1.11 0  301 233 
 GUY2CHN ES       14 4 17.55                                   -0.52 7  301 233 
 GUY2CHZ I        14 4 24.55         3.1 0.32                           301 233 
 PTGC HN ES   3   14 4 16.79                             108   -2.30 2  317 158 
                                                                                
