 2013  420 1700 24.4 L   6.838 -73.319124.3  RSN  7 0.4 1.7LRSN                1
 GAP=100        0.95       3.7     4.1  6.8  0.3501E+00  0.4075E+01 -0.2662E+01E
 Epicentro: ZAPATOCA - SANTANDER                                               3
 ACTION:UPD 13-05-22 14:39 OP:EP   STATUS:               ID:20130420170024 L   I
 2013-04-20-1658-50M.COL___218                                                 6
 STAT SP IPHASW D HRMM SECON CODA AMPLIT PERI AZIMU VELO AIN AR TRES W  DIS CAZ7
 GIR2 SZ EP       17 0 41.49                             166   -0.0310 30.0  28 
 GIR2 SZ I        17 0 41.64        27.0 0.12            166           30.0  28 
 BAR2 SZ EP       17 0 41.89                             165    0.1910 31.1 151 
 BAR2 SZ ES       17 0 54.93                             165   -0.2310 31.1 151 
 BAR2 SZ I        17 0 56.07        26.6 0.26            165           31.1 151 
 BRR  HZ EP       17 0 42.30                             155    0.0710 52.6 304 
 BRR  HN ES       17 0 56.23                             155    0.1110 52.6 304 
 BRR  HN I        17 0 56.83        47.6 0.20            157           52.6 304 
 PAM  SZ EP       17 0 45.36                             143    0.1910 88.1  51 
 PAM  SN ES       17 1  1.27                             143   -0.0710 88.1  51 
 PAM  SN I        17 1  2.96         4.5 0.40            143           88.1  51 
 RUS  HZ EP       17 0 47.24                             137    0.5210  108 166 
 RUS  HN ES       17 1  3.84                             137   -0.2710  108 166 
 RUS  HN I        17 1  5.76         3.3 0.24            137            108 166 
 PTB  HZ EP       17 0 47.12                             130   -0.9210  130 255 
 PTB  HZ I        17 0 49.31         5.1 0.24            131            130 255 
 PTB  HN ES       17 1  6.92                             130    0.4610  130 255 
 SML  HE ES       17 1 25.30                             114   -0.09 8  232 339 
                                                                                
