 2013  520 1502 49.7 L   6.800 -73.158140.8  RSN  6 0.4 1.5LRSN                1
 GAP=182        0.73       4.5     5.4  6.4  0.9634E+01  0.8633E+01 -0.6681E+00E
 Epicentro: LOS SANTOS - SANTANDER                                             3
 ACTION:UPD 13-06-20 09:52 OP:ep   STATUS:               ID:20130520150249 L   I
 2013-05-20-1500-00M.COL___256                                                 6
 STAT SP IPHASW D HRMM SECON CODA AMPLIT PERI AZIMU VELO AIN AR TRES W  DIS CAZ7
 BAR2 SZ EP       15 3  8.95                             170    0.2310 23.1 187 
 BAR2 SZ ES       15 3 23.51                             170   -0.0510 23.1 187 
 BAR2 SZ I        15 3 25.11        14.3 0.16            165           23.1 187 
 GIR2 SZ EP   1   15 3  9.03                             167    0.27 7 31.1 353 
 GIR2 SZ ES   1   15 3 23.70                             167    0.06 7 31.1 353 
 RUS  HZ EP       15 3 12.86                             143   -0.1010  101 175 
 RUS  HN ES   1   15 3 31.03                             143   -0.09 7  101 175 
 RUS  HZ I        15 3 32.42         2.6 0.20            143            101 175 
 PTB  HZ EP   1   15 3 16.00                             131   -0.13 7  146 259 
 PTB  HN ES   1   15 3 36.27                             131   -0.48 7  146 259 
 ZAR  HN ES   1   15 3 47.45                             121    0.82 6  203 292 
 ZAR  HZ I        15 3 55.72         3.2 0.12            120            203 292 
 SML  HN ES   1   15 3 53.57                             116   -0.71 6  243 336 
                                                                                
