 2012 1020 1902 53.8 L   6.757 -72.982150.6  RSN  5 0.3 1.6LRSN                1
 GAP=220        0.67       7.7    11.0  8.2  0.5731E+02  0.3326E+02  0.1197E+02E
 Epicentro: CEPITA - SANTANDER                                                 3
 ACTION:UPD 12-11-22 17:04 OP:ep   STATUS:               ID:20121020190253 L   I
 2012-10-20-1900-00M.COL___233                                                 6
 STAT SP IPHASW D HRMM SECON CODA AMPLIT PERI AZIMU VELO AIN AR TRES W  DIS CAZ7
 BAR2 SZ ES   1   19 3 30.17                             169    0.19 7 28.7 231 
 BAR2 SZ I        19 3 30.35        12.4 0.38                          28.7 231 
 GIR2 SZ ES   1   19 3 30.49                             163    0.04 7 42.5 327 
 BRR  HZ EP   1   19 3 16.08                             148   -0.49 7 89.5 296 
 BRR  HN I        19 3 33.24        30.1 0.18                          89.5 296 
 RUS  HZ EP   1   19 3 18.19                             146    0.47 7 96.3 187 
 RUS  HZ I        19 3 19.39         2.4 0.14                          96.3 187 
 RUS  HN ES   1   19 3 36.06                             146   -0.33 7 96.3 187 
 RUS  HN I        19 3 38.32         3.5 0.38                          96.3 187 
 ZAR  HN ES   1   19 3 55.70                             121    0.17 6  223 292 
                                                                                
