 2016  820 1250  0.0 L   6.380 -73.479121.3  RSN 16 0.5 2.1LRSN                1
 GAP= 90        1.17       3.4     2.8  5.8 -0.3074E+01  0.5009E+01  0.7687E+00E
 Epicentro: CONTRATACION - SANTANDER                                           3
 ACTION:UPD 16-10-29 15:37 OP:rebc STATUS:               ID:20160820125000 L   I
 OLDACT:UP  16-08-20 21:46 OP:edw  STATUS:               ID:20160820124747     3
 OLDACT:REG 16-08-20 20:27 OP:edw  STATUS:               ID:20160820124747     3
 2016-08-20-1247-47M.COL___346                                                 6
 STAT SP IPHASW D HRMM SECON CODA AMPLIT PERI AZIMU VELO AIN AR TRES W  DIS CAZ7
 BAR2 EZ EP       1250 17.17                             160   -0.0910 40.3  55 
 BAR2 EZ ES       1250 30.51                             160   -0.2010 40.3  55 
 RUS  HZ EP       1250 19.00                             148   -0.1610 69.5 141 
 RUS  HN ES       1250 33.98                             148   -0.1310 69.5 141 
 RUS  HZ I        1250 35.55        21.9 0.30                          69.5 141 
 SPBC HZ IP     C 1250 20.64                             136   -0.5210  104 219 
 SPBC HE ES       1250 37.76                             136    0.1110  104 219 
 SPBC HZ I        1250 42.08        40.7 0.20                           104 219 
 PTB  HZ EP   9   1250 19.98                             135   -1.55 0  109 279 
 PTB  HN ES       1250 35.97                             135   -0.8010  109 279 
 PTB  HZ I        1250 39.28        22.6 0.10                           109 279 
 PAM  EZ EP       1250 25.00                             128    0.35 9  137  39 
 PAM  EN ES       1250 44.10                             128    0.23 9  137  39 
 PAM  EZ I        1250 49.32        15.4 0.64                           137  39 
 NOR  HZ EP       1250 27.31                             120   -0.98 9  178 240 
 NOR  HN ES       1250 50.28                             120   -0.07 9  178 240 
 NOR  HZ I        1250 52.52        12.0 0.10                           178 240 
 TAM  HZ EP       1250 29.44                             118    0.27 9  187  88 
 TAM  HN ES       1250 52.22                             118    0.30 9  187  88 
 ZAR  HZ EP       1250 28.53                             117   -1.55 9  196 309 
 ZAR  HN ES       1250 54.25                             117    0.71 9  196 309 
 CHI  HZ I        1250 59.16         6.8 0.52                           196 188 
 ZAR  HZ I        1250 57.82        22.7 0.30                           196 309 
 CHI  HZ EP       1250 30.55                             117   -0.04 9  196 188 
 CHI  HN ES       1250 54.78                             117    0.33 9  196 188 
 HEL  HZ EP       1250 34.37                             113    0.31 8  228 265 
 HEL  HN ES       1251  0.71                             113    0.08 8  228 265 
 HEL  HZ I        1251  3.34         7.9 0.19                           228 265 
 GUY2CHZ EP   2   1250 35.90                             112   -0.22 4  245 239 
 GUY2CHN ES       1251  4.33                             112    0.04 8  245 239 
 ELA  HZ EP       1250 39.53                             109    0.34 8  271 232 
 ELA  HN ES       1251  9.56                             109   -0.20 8  271 232 
 ELA  HZ I        1251 17.75         5.2 0.40                           271 232 
 URE  HZ EP   4   1250 39.87                             109    1.13 0  273 304 
 URE  HE ES   4   1251  7.68                             109   -1.27 0  273 304 
 URE  HZ I        1251 16.74         7.7 0.18                           273 304 
 CBOC HZ EP       1250 41.18                             108    0.71 7  286 259 
 CBOC HN ES       1251 12.65                             108    0.62 7  286 259 
 CBOC HZ I        1251 15.83         4.7 0.34                           286 259 
 ANIL HZ EP       1250 42.43                             107    0.37 7  298 226 
 ANIL HE ES       1251 15.30                             107    0.44 7  298 226 
 ANIL HZ I        1251 19.58        15.5 0.26                           298 226 
 PRA  HZ EP       1250 45.34                             105   -0.52 7  334 208 
 PRA  HE ES       1251 21.68                             105    0.06 7  334 208 
 PRA  HZ I        1251 26.51         6.2 0.24                           334 208 
                                                                                
