 2012 1220 1422 11.1 L   6.805 -73.144140.4  RSN 14 0.4 2.5LRSN                1
 GAP= 71        0.80       3.1     2.8  4.9  0.2291E+00  0.3355E+01  0.3407E+01E
 Epicentro: LOS SANTOS - SANTANDER                                             3
 ACTION:UPD 13-01-04 14:29 OP:ep   STATUS:               ID:20121220142211 L   I
 2012-12-20-1420-00M.COL___242                                                 6
 STAT SP IPHASW D HRMM SECON CODA AMPLIT PERI AZIMU VELO AIN AR TRES W  DIS CAZ7
 BAR2 SZ EP       1422 30.02                             170   -0.0210 23.9 190 
 BAR2 SZ ES   1   1422 44.44                             170   -0.42 7 23.9 190 
 BAR2 SZ I        1422 47.07       181.3 0.20                          23.9 190 
 GIR2 SZ EP   1   1422 30.25                             167    0.19 7 30.7 350 
 GIR2 SZ ES   1   1422 44.82                             167   -0.07 7 30.7 350 
 GIR2 SZ I        1422 47.24        56.7 0.34                          30.7 350 
 BRR  HZ EP     C 1422 31.88                             152    0.2710 71.1 298 
 BRR  HN ES   1   1422 48.52                             152    0.88 7 71.1 298 
 BRR  HZ I        1422 49.32        47.2 0.12                          71.1 298 
 PAM  SZ EP   1   1422 32.96                             150    0.30 7 76.8  40 
 PAM  SN ES   1   1422 49.53                             150    0.02 7 76.8  40 
 PAM  SZ I        1422 52.08        71.3 0.68                          76.8  40 
 RUS  HZ EP   1   1422 34.06                             142   -0.26 7  101 176 
 RUS  HN ES   1   1422 52.20                             142   -0.26 7  101 176 
 RUS  HZ I        1422 54.17        50.6 0.30                           101 176 
 PTB  HZ EP   1   1422 36.74                             131   -0.87 7  148 259 
 PTB  HN ES   1   1422 58.24                             131   -0.08 7  148 259 
 PTB  HZ I        1423  0.81        53.0 0.14                           148 259 
 TAM  HZ EP       1422 38.44                             129    0.14 9  155 105 
 TAM  HN ES   1   1422 59.83                             129    0.27 7  155 105 
 TAM  HZ I        1423  0.45        22.1 0.22                           155 105 
 OCA  HN ES   1   1422 59.82                             128   -0.79 7  160 353 
 OCA  HZ I        1423  6.20        26.8 0.22                           160 353 
 ZAR  HZ EP   1   1422 43.12                             121   -0.02 6  204 292 
 ZAR  HN ES   1   1423  8.64                             121    0.46 6  204 292 
 ZAR  HZ I        1423 15.09        30.3 0.51                           204 292 
 NOR  HZ EP   1   1422 46.08                             117   -0.45 6  235 234 
 NOR  HE ES   1   1423 13.77                             117   -0.42 6  235 234 
 NOR  HZ I        1423 17.22        27.6 0.22                           235 234 
 SML  HE ES   1   1423 15.18                             116   -0.44 6  243 335 
 HEL  HZ EP   1   1422 51.66                             114    0.63 6  272 256 
 HEL  HN ES   1   1423 22.38                             114    0.17 6  272 256 
 HEL  HZ I        1423 29.14        22.4 0.44                           272 256 
 RREF HZ EP   1   1422 57.63                             110    0.61 5  322 229 
 RREF HZ I        1423 37.58        13.0 0.28                           322 229 
 MON  HZ EP   4   1422 57.75                             108   -2.07 0  353 308 
 PRA  HZ EP   1   1423  4.11                             105   -0.35 4  393 210 
 PRA  HN ES   1   1423 46.54                             105    0.42 4  393 210 
 PRA  HZ I        1423 51.75        13.1 0.34                           393 210 
                                                                                
