 2016 1020 1633 34.4 L   7.405 -73.216130.0  RSN  6 0.3 1.7LRSN                1
 GAP=218        0.46       4.6     2.7  3.5 -0.6020E+01  0.3390E+01 -0.2045E+01E
 Epicentro: EL PLAYON - SANTANDER                                              3
 ACTION:UPD 16-11-09 19:21 OP:rebc STATUS:               ID:20161020163334 L   I
 OLDACT:UP  16-10-21 04:05 OP:dnl  STATUS:               ID:20161020162747     3
 OLDACT:REG 16-10-21 02:23 OP:ar   STATUS:               ID:20161020162747     3
 2016-10-20-1628-00M.COL___350                                                 6
 STAT SP IPHASW D HRMM SECON CODA AMPLIT PERI AZIMU VELO AIN AR TRES W  DIS CAZ7
 PAM  EZ EP       1633 53.70                             155   -0.0710 57.4  97 
 PAM  EN ES       1634  9.05                             155    0.1510 57.4  97 
 PAM  EZ I        1634 11.51         7.1 0.34            156           57.4  97 
 BRR  HZ EP       1633 53.41                             152   -0.0110 63.9 239 
 BRR  HE ES       1634  8.34                             152    0.0810 63.9 239 
 BRR  HZ I        1634  8.87        15.7 0.34            150           63.9 239 
 BAR2 EZ EP       1633 55.38                             144   -0.0810 90.0 178 
 BAR2 EZ ES       1634 11.85                             144   -0.0510 90.0 178 
 BAR2 EZ I        1634 12.65        27.1 0.38            142           90.0 178 
 PTB  HZ EP       1634  1.83                             125   -0.19 9  167 235 
 PTB  HE ES       1634 23.60                             125    0.01 9  167 235 
 PTB  HZ I        1634 27.67         4.2 0.20            124            167 235 
 NOR  HZ EP       1634 13.75                             111    0.12 8  274 222 
 NOR  HE ES   4   1634 48.42                             111    4.18 0  274 222 
 NOR  HZ I        1634 49.13         2.5 0.22            111            274 222 
 GUY2CHZ EP   4   1634 23.74                             107    2.08 0  339 225 
 GUY2CHN ES   3   1635  0.83                             107    2.29 2  339 225 
 GUY2CHZ I        1635 10.59         1.7 0.42                           339 225 
                                                                                
