 2015 1120 1551 15.5 L   6.766 -73.143144.3  RSN  4 0.3 1.6LRSN                1
 GAP=155        0.77       7.4     4.3  6.9  0.2082E+01  0.4679E+01 -0.5279E+01E
 Epicentro: LOS SANTOS - SANTANDER                                             3
 ACTION:UPD 15-12-28 16:12 OP:cam  STATUS:               ID:20151120155115 L   I
 OLDACT:REG 15-11-20 19:06 OP:dnl  STATUS:               ID:20151120154748     3
 2015-11-20-1547-48M.COL___307                                                 6
 STAT SP IPHASW D HRMM SECON CODA AMPLIT PERI AZIMU VELO AIN AR TRES W  DIS CAZ7
 BAR2 EZ EP       1551 35.13                             172    0.2210 19.7 193 
 BAR2 EZ ES       1551 49.96                             172   -0.0710 19.7 193 
 BAR2 EZ I        1551 51.27         6.7 0.36            174           19.7 193 
 BRR  HZ EP       1551 36.04                             152   -0.5910 73.3 301 
 BRR  HN ES       1551 53.28                             152    0.1810 73.3 301 
 PAM  EZ EP       1551 38.06                             150    0.3110 80.2  38 
 PAM  EN ES       1551 54.95                             150   -0.1410 80.2  38 
 PAM  EZ I        1551 57.15         9.7 0.52            149           80.2  38 
 ZAR  HZ EP   4   1551 49.50                             122    1.46 0  206 293 
 ZAR  HN ES       1552 13.53                             122    0.12 8  206 293 
 ZAR  HZ I        1552 19.68         3.9 0.26            121            206 293 
                                                                                
