 2014 1220 1026 16.9 L   6.824 -73.164134.5  RSN  4 0.3 1.1LRSN                1
 GAP=133        0.76       4.8     6.2 13.1  0.1194E+02  0.1197E+01 -0.3740E+02E
 Epicentro: LOS SANTOS - SANTANDER                                             3
 ACTION:UPD 15-02-10 17:05 OP:nd   STATUS:               ID:20141220102616 L   I
 OLDACT:DUP 14-12-20 21:46 OP:fm   STATUS:               ID:20141220101745d    3
 2014-12-20-1017-44M.COL___305                                                 6
 STAT SP IPHASW D HRMM SECON CODA AMPLIT PERI AZIMU VELO AIN AR TRES W  DIS CAZ7
 PAM  SZ EP       1026 38.20                             149    0.3410 76.7  42 
 RUS  HZ EP       1026 39.51                             140   -0.2310  103 175 
 RUS  HE ES       1026 57.53                             140   -0.0610  103 175 
 RUS  HZ I        1026 58.95         0.9 0.26            145            103 175 
 ZAR  HZ EP   1   1026 48.17                             120   -0.13 6  201 292 
 ZAR  HE ES   1   1027 13.30                             120    0.49 6  201 292 
 ZAR  HZ I        1027 18.83         1.7 0.30            122            201 292 
 SML  HZ EP   1   1026 52.96                             115    0.43 6  240 335 
 SML  HN ES       1027 19.79                             115   -0.55 8  240 335 
 SML  HZ I        1027 23.14         2.1 0.10            118            240 335 
                                                                                
