 2010  320 1205 37.8 L   6.862 -73.056145.4  RSN  4 0.2 1.8LRSN                1
 GAP=266        0.38       3.9     7.2  4.4  0.8045E+01  0.1577E+01  0.5391E+01E
 Epicentro: LOS SANTOS - SANTANDER                                             3
 ACTION:UP  10-08-24 09:55 OP:vdl  STATUS:               ID:20100320120537 L   I
 2010-03-20-1203-36S.COL___098                                                 6
 STAT SP IPHASW D HRMM SECON CODA AMPLIT PERI AZIMU VELO SNR AR TRES W  DIS CAZ7
 BAR2 SZ EP   1   12 5 57.47                             167    -0.2 7   33 205 
 BAR2 SZ ES   1   12 6 13.10                             167     0.0 7   33 205 
 BRR  HZ IP       12 5 59.34                             150     0.110   77 291 
 BRR  HN ES   1   12 6 16.00                             150     0.0 7   77 291 
 BRR  HZ I        12 6 17.34        12.9 0.51                            77 291 
 CHI  HZ EP   2   12 6 16.90                             116     0.4 4  258 197 
 CHI  HZ I        12 6 21.85         1.7 0.45                           258 197 
 CHI  HE ES   2   12 6 46.89                             116     0.2 4  258 197 
 PRA  HZ EP   2   12 6 32.28                             106    -0.3 3  403 210 
 PRA  HN ES   2   12 7 14.92                             106    -0.4 3  403 210 
 PRA  HZ I        12 7 20.24         2.9 0.21                           403 210 
                                                                                
