 2013  720 1508 58.1 L   6.600 -73.579 30.4  RSN  4 0.3 1.2LRSN                1
 GAP=175        0.80       4.1     4.4  8.8  0.9894E+01  0.3451E+02  0.2382E+02E
 Epicentro: EL CARMEN DE CHUCURI - SANTANDER                                   3
 ACTION:UPD 13-08-12 10:39 OP:ep   STATUS:               ID:20130720150858 L   I
 OLDACT:REG 13-07-20 15:44 OP:nd   STATUS:               ID:20130720145959     3
 2013-07-20-1459-59M.COL___266                                                 6
 STAT SP IPHASW D HRMM SECON CODA AMPLIT PERI AZIMU VELO AIN AR TRES W  DIS CAZ7
 BAR2 SZ EP     C 15 9  6.99                             120    0.2910 43.8  91 
 BAR2 SZ ES       15 9 13.09                             120   -0.3410 43.8  91 
 BAR2 SZ I        15 9 13.80        17.8 0.26            121           43.8  91 
 BRR  HZ EP       15 9  8.21                             110   -0.0410 57.9 345 
 BRR  HN ES       15 9 16.21                             110    0.0210 57.9 345 
 BRR  HZ I        15 9 17.04         6.4 0.12            110           57.9 345 
 GIR2 SZ EP       15 9 10.32                             106    0.5610 67.9  39 
 GIR2 SZ ES       15 9 18.55                             106   -0.3310 67.9  39 
 GIR2 SZ I        15 9 19.29         6.7 0.22            107           67.9  39 
 PTB  HZ EP     D 15 9 13.44                              61    0.1010 97.3 266 
 PTB  HN ES       15 9 25.00                              61   -0.2510 97.3 266 
 PTB  HZ I        15 9 26.43        10.7 0.16             61           97.3 266 
                                                                                
