 2014 1020 1351 37.2 L   5.751 -73.911105.9  RSN  9 0.5 1.7LRSN                1
 GAP=125        1.19       4.5     5.0  8.6 -0.1941E+01  0.8780E+00 -0.1998E+01E
 Epicentro: ALBANIA - SANTANDER                                                3
 ACTION:UPD 14-11-29 23:51 OP:nd   STATUS:               ID:20141020135137 L   I
 OLDACT:REG 14-10-20 23:58 OP:spq  STATUS:               ID:20141020134747     3
 2014-10-20-1347-47M.COL___265                                                 6
 STAT SP IPHASW D HRMM SECON CODA AMPLIT PERI AZIMU VELO AIN AR TRES W  DIS CAZ7
 SPBC HZ EP   1   1351 51.36                             168   -0.39 7 20.9 239 
 SPBC HN ES       1352  3.86                             168    0.7410 20.9 239 
 SPBC HZ I        1352  4.89        22.4 0.32            165           20.9 239 
 RUS  HZ EP       1351 56.37                             136   -0.2310 93.1  80 
 RUS  HE ES       1352 11.01                             136   -0.7510 93.1  80 
 RUS  HZ I        1352 13.74         3.8 0.20            136           93.1  80 
 PTB  HE ES       1352 12.04                             131   -0.6210  106 325 
 PTB  HZ I        1352 14.80         7.2 0.30            127            106 325 
 BAR2 SZ EP       1351 59.67                             127    0.6410  123  41 
 BAR2 SZ ES   1   1352 16.56                             127    0.48 7  123  41 
 BAR2 SZ I        1352 18.50        13.7 0.24            125            123  41 
 BRR  HZ EP   1   1352  2.06                             120    0.45 7  152   8 
 BRR  HE ES       1352 20.89                             120    0.21 9  152   8 
 BRR  HZ I        1352 26.37        11.2 0.52            118            152   8 
 RREF HZ EP   4   1352  1.87                             115   -4.15 0  185 240 
 RREF HE ES   4   1352 23.48                             115   -5.05 0  185 240 
 RREF HZ I        1352 28.55         4.2 0.20            113            185 240 
 TOL  SZ EP   1   1352  7.66                             112    0.05 6  202 231 
 TOL  SN ES   4   1352 32.07                             112    0.71 0  202 231 
 TOL  SZ I        1352 35.68         9.1 0.38            110            202 231 
 ZAR  HE ES   1   1352 33.58                             110   -0.43 6  219 332 
 ZAR  HZ I        1352 42.18         5.3 0.28            108            219 332 
 PRA  HN ES   1   1352 40.27                             107   -0.11 6  250 206 
 PRA  HZ I        1352 44.22         3.9 0.32            106            250 206 
                                                                                
