 2011  620 1639  2.9 L   6.756 -73.117145.4  RSN  4 0.2 1.6LRSN                1
 GAP=166        0.43       6.4     4.8  5.6 -0.3702E+01 -0.6868E+01  0.3656E+01E
 Epicentro: LOS SANTOS - SANTANDER                                             3
 ACTION:UP  11-07-14 19:06 OP:ep   STATUS:               ID:20110620163902 L   I
 2011-06-20-1633-07S.COL___139                                                 6
 STAT SP IPHASW D HRMM SECON CODA AMPLIT PERI AZIMU VELO SNR AR TRES W  DIS CAZ7
 BAR2 SZ EP       1639 22.46                             172     0.010   20 202 
 BAR2 SZ I        1639 22.58         6.0 0.17                            20 202 
 BAR2 SZ ES   2   1639 37.58                             172    -0.1 5   20 202 
 BTL  SZ ES   3   1639 38.35                             170     0.5 2   24 317 
 BRR  HZ EP       1639 24.17                             151    -0.110   76 301 
 BRR  HN ES   1   1639 41.09                             151     0.1 7   76 301 
 BRR  HZ I        1639 41.85        10.7 0.19                            76 301 
 PAM  SZ EP       1639 25.34                             150     0.110   79  36 
 PAM  SN ES   2   1639 42.26                             150    -0.3 5   79  36 
                                                                                
