 2017  220 1929 37.6 L   7.037 -73.668140.8  RSN  5 0.2 1.6LRSN                1
 GAP=201        0.56       4.6     3.5  5.5  0.3820E+01  0.1658E+01 -0.2583E+00E
 Epicentro: BARRANCABERMEJA - SANTANDER                                        3
 ACTION:UPD 17-05-24 15:38 OP:jn   STATUS:               ID:20170220192938 L   I
 OLDACT:UP  17-04-18 12:09 OP:nlst STATUS:               ID:20170220192938 L   3
 OLDACT:REG 17-02-20 22:19 OP:cog  STATUS:               ID:20170220192749     3
 2017-02-20-1928-00M.COL___373                                                 6
 STAT SP IPHASW D HRMM SECON CODA AMPLIT PERI AZIMU VELO AIN AR TRES W  DIS CAZ7
 BAR2 EZ EP   1   1929 58.81                             151    0.12 7 72.9 132 
 BAR2 EZ ES       1930 15.01                             151   -0.1010 72.9 132 
 BAR2 EZ I        1930 16.03         7.6 0.19            150           72.9 132 
 PTB  HZ EP       1930  0.01                             142   -0.4010  103 238 
 PTB  HN ES       1930 18.35                             142    0.1710  103 238 
 ZAR  HZ EP   1   1930  3.75                             132    0.21 7  141 291 
 RUS  HZ EP       1930  4.53                             132    0.19 9  142 153 
 CHI  HN ES       1930 47.72                             114   -0.02 8  266 182 
 CHI  HZ I        1930 49.53         2.7 0.34            114            266 182 
                                                                                
