 2013  120 1526 34.6 L   6.789 -73.143141.1  RSN  7 0.4 1.5LRSN                1
 GAP=137        0.76       3.5     5.1  6.4  0.1181E+01  0.4539E+01  0.5316E+01E
 Epicentro: LOS SANTOS - SANTANDER                                             3
 ACTION:UPD 13-02-15 09:15 OP:ep   STATUS:               ID:20130120152634 L   I
 2013-01-20-1520-00M.COL___241                                                 6
 STAT SP IPHASW D HRMM SECON CODA AMPLIT PERI AZIMU VELO AIN AR TRES W  DIS CAZ7
 BAR2 SZ EP       1526 53.45                             171   -0.1710 22.1 191 
 BAR2 SZ ES   1   1527  8.29                             171   -0.18 7 22.1 191 
 BAR2 SZ I        1527  9.72        18.3 0.20            166           22.1 191 
 BRR  HZ EP     C 1526 55.22                             151   -0.0510 72.0 299 
 BRR  HN ES   1   1527 12.19                             151    0.78 7 72.0 299 
 BRR  HZ I        1527 16.50         7.0 0.16            147           72.0 299 
 PAM  SZ EP       1526 56.34                             150   -0.0110 78.2  39 
 PAM  SN ES   1   1527 13.05                             150   -0.28 7 78.2  39 
 PAM  SZ I        1527 15.24         6.5 0.50            155           78.2  39 
 RUS  HZ EP   1   1526 58.15                             143    0.37 7 99.3 176 
 RUS  HN ES   1   1527 15.61                             143   -0.26 7 99.3 176 
 RUS  HZ I        1527 16.95         2.3 0.52            144           99.3 176 
 OCA  HN ES   2   1527 25.22                             128    0.67 5  162 353 
 ZAR  HE ES   1   1527 31.19                             121   -0.74 6  205 292 
 ZAR  HZ I        1527 39.22         3.7 0.26            120            205 292 
 CHI  HZ EP       1527 12.01                             116    0.11 8  247 195 
 CHI  HN ES   1   1527 41.26                             116    0.25 6  247 195 
 CHI  HZ I        1527 48.80         1.4 0.34            117            247 195 
                                                                                
