 2013 1220 1738 55.6 L   6.801 -73.141151.1  RSN 12 0.5 2.4LRSN                1
 GAP=137        1.21       3.6     5.1  7.2 -0.4707E+01  0.2716E+01  0.5837E+01E
 Epicentro: LOS SANTOS - SANTANDER                                             3
 ACTION:UPD 14-01-13 10:19 OP:ep   STATUS:               ID:20131220173855 L   I
 OLDACT:REG 13-12-20 16:24 OP:nd   STATUS:               ID:20131220173748     3
 2013-12-20-1737-48M.COL___244                                                 6
 STAT SP IPHASW D HRMM SECON CODA AMPLIT PERI AZIMU VELO AIN AR TRES W  DIS CAZ7
 BRR  HZ EP       1739 17.90                             153    0.5910 71.6 298 
 BRR  HN ES       1739 34.69                             153    0.4110 71.6 298 
 BRR  HZ I        1739 41.33        32.8 0.34            153           71.6 298 
 PAM  SZ EP       1739 18.58                             152    0.2610 76.9  39 
 PAM  SN ES       1739 36.51                             152    0.4410 76.9  39 
 PAM  SZ I        1739 39.88        12.9 0.34            159           76.9  39 
 RUS  HZ IP     D 1739 19.68                             145   -0.1610  101 176 
 RUS  HN ES   2   1739 38.51                             145   -0.27 5  101 176 
 RUS  HZ I        1739 39.96        16.6 0.16            148            101 176 
 PTB  HZ EP       1739 22.47                             133   -0.55 9  148 259 
 PTB  HN ES       1739 43.83                             133   -0.60 9  148 259 
 PTB  HZ I        1739 51.31        45.4 0.44            135            148 259 
 OCA  HZ EP       1739 23.58                             131   -0.71 9  160 353 
 OCA  HN ES       1739 45.90                             131   -0.79 9  160 353 
 OCA  HZ I        1739 50.85        38.9 0.26            136            160 353 
 SPBC HZ EP       1739 24.68                             130    0.17 9  164 219 
 SPBC HN ES       1739 47.16                             130    0.06 9  164 219 
 SPBC HZ I        1739 53.98        41.4 0.32            133            164 219 
 ZAR  HZ EP       1739 28.00                             124   -0.41 9  205 292 
 ZAR  HN ES       1739 54.76                             124    0.73 9  205 292 
 ZAR  HZ I        1740  0.29        28.4 0.16            126            205 292 
 NOR  HZ EP       1739 31.59                             120   -0.07 8  235 235 
 NOR  HN ES       1739 59.60                             120   -0.22 8  235 235 
 NOR  HZ I        1740  3.58        33.4 0.16            122            235 235 
 SML  HZ EP       1739 32.30                             119   -0.21 8  244 335 
 SML  HN ES   2   1740  1.19                             119   -0.13 4  244 335 
 SML  HZ I        1740  4.22        45.9 0.10            123            244 335 
 CHI  HZ EP       1739 33.83                             118    0.24 8  249 195 
 CHI  HN ES       1740  2.54                             118   -0.71 8  249 195 
 CHI  HZ I        1740 11.03         6.4 0.30            122            249 195 
 GUY2CHZ EP     D 1739 40.46                             113    0.98 7  302 235 
 GUY2CHN ES   4   1740 16.40                             113    2.67 0  302 235 
 GUY2CHZ I        1740 22.68        13.7 0.26                           302 235 
 RREF HZ EP       1739 43.03                             112    1.03 7  322 229 
 RREF HN ES   4   1740 19.83                             112    1.62 0  322 229 
 RREF HZ I        1740 28.09        12.9 0.30            115            322 229 
                                                                                
