 2013  420 1246 52.2 L   6.789 -73.169146.0  RSN  6 0.5 2.1LRSN                1
 GAP=134        1.45       7.5     7.4  9.5 -0.6434E+01  0.7990E+01  0.8392E+01E
 Epicentro: LOS SANTOS - SANTANDER                                             3
 ACTION:UPD 13-05-22 14:39 OP:EP   STATUS:               ID:20130420124652 L   I
 2013-04-20-1238-48M.COL___218                                                 6
 STAT SP IPHASW D HRMM SECON CODA AMPLIT PERI AZIMU VELO AIN AR TRES W  DIS CAZ7
 BAR2 SZ EP       1247 11.89                             171    0.1010 21.8 184 
 BAR2 SZ ES       1247 26.54                             171   -0.5510 21.8 184 
 BAR2 SZ I        1247 27.84        22.7 0.20            169           21.8 184 
 GIR2 SZ EP       1247 11.92                             167    0.0410 32.2 355 
 GIR2 SZ ES       1247 27.40                             167    0.1310 32.2 355 
 BRR  HZ EP       1247 13.77                             153    0.5310 69.5 300 
 BRR  HN ES       1247 30.73                             153    1.0510 69.5 300 
 BRR  HN I        1247 30.97        38.3 0.26            151           69.5 300 
 PAM  SZ EP       1247 14.73                             150    0.1710 80.0  40 
 PAM  SZ I        1247 14.98        18.4 0.22            153           80.0  40 
 PAM  SN ES       1247 31.20                             150   -0.8310 80.0  40 
 RUS  HZ EP       1247 15.81                             144   -0.0510 99.5 174 
 RUS  HN ES       1247 34.87                             144    0.5310 99.5 174 
 RUS  HN I        1247 36.02        16.3 0.24            144           99.5 174 
 PTB  HZ EP       1247 18.49                             133   -0.40 9  145 259 
 PTB  HN ES       1247 38.86                             133   -0.88 9  145 259 
 PTB  HN I        1247 44.91        16.8 0.36            131            145 259 
                                                                                
