 2014  220 1914 22.7 L   6.795 -73.140147.1  RSN 12 0.4 2.1LRSN                1
 GAP=137        1.03       2.9     3.9  5.2 -0.8135E+00  0.6177E+01  0.1437E+01E
 Epicentro: LOS SANTOS - SANTANDER                                             3
 ACTION:UPD 14-03-10 08:11 OP:ep   STATUS:               ID:20140220191422 L   I
 OLDACT:REG 14-02-20 16:33 OP:carl STATUS:               ID:20140220191000     3
 2014-02-20-1910-00M.COL___215                                                 6
 STAT SP IPHASW D HRMM SECON CODA AMPLIT PERI AZIMU VELO AIN AR TRES W  DIS CAZ7
 BAR2 SZ EP       1914 42.53                             171   -0.0110 22.9 192 
 BAR2 SZ ES       1914 57.77                             171   -0.2010 22.9 192 
 BAR2 SZ I        1914 58.64        35.3 0.28            168           22.9 192 
 BRR  HZ EP       1914 44.50                             152    0.4110 72.0 299 
 BRR  HN ES       1915  1.81                             152    1.0710 72.0 299 
 BRR  HZ I        1915  4.65        17.7 0.24            149           72.0 299 
 PAM  SZ EP     C 1914 45.24                             151    0.1310 77.4  39 
 PAM  SN ES       1915  2.63                             151    0.0810 77.4  39 
 PAM  SZ I        1915  4.68        20.0 0.20            156           77.4  39 
 RUS  HZ EP       1914 46.41                             144   -0.1810  100 176 
 RUS  HN ES       1915  4.64                             144   -0.5510  100 176 
 RUS  HZ I        1915  6.55        10.2 0.36            146            100 176 
 PTB  HZ EP       1914 49.42                             132   -0.45 9  148 259 
 PTB  HN ES       1915 10.18                             132   -0.85 9  148 259 
 PTB  HZ I        1915 16.31        16.4 0.24            131            148 259 
 SPBC HZ EP       1914 51.50                             129    0.15 9  163 219 
 SPBC HN ES       1915 13.86                             129    0.20 9  163 219 
 SPBC HZ I        1915 18.56        24.2 0.22            129            163 219 
 ZAR  HZ EP       1914 55.31                             123   -0.05 9  205 292 
 ZAR  HE ES       1915 20.90                             123    0.10 9  205 292 
 ZAR  HZ I        1915 26.81        18.3 0.30            122            205 292 
 NOR  HZ EP       1914 58.60                             119    0.02 8  235 235 
 NOR  HN ES       1915 26.53                             119    0.00 8  235 235 
 NOR  HZ I        1915 34.76        10.4 0.14            119            235 235 
 SML  HZ EP       1914 59.72                             118    0.19 8  244 335 
 SML  HN ES       1915 27.38                             118   -0.84 8  244 335 
 SML  HZ I        1915 34.78        20.8 0.10            119            244 335 
 CHI  HZ EP       1915  0.49                             117    0.00 8  248 195 
 CHI  HN ES       1915 30.14                             117    0.22 8  248 195 
 CHI  HZ I        1915 35.81         5.1 0.26            118            248 195 
 CBOC HZ EP       1915 10.16                             110    0.39 7  334 252 
 CBOC HE ES       1915 46.30                             110   -0.15 7  334 252 
 CBOC HZ I        1915 55.57         2.3 0.40            110            334 252 
 PRA  HZ EP       1915 16.18                             107   -0.12 6  392 210 
 PRA  HE ES       1915 58.81                             107    0.74 6  392 210 
 PRA  HZ I        1916  4.31         7.9 0.34            108            392 210 
 SJC  HZ EP   4   1915 16.65                             106   -1.80 0  410 327 
 SJC  HN ES   4   1915 57.34                             106   -4.55 0  410 327 
                                                                                
