 2012 1220 1936 52.7 L   6.799 -73.169143.1  RSN  8 0.4 1.8LRSN                1
 GAP=134        0.82       4.4     4.7  6.9  0.2362E+01  0.7352E+01 -0.8445E+00E
 Epicentro: LOS SANTOS - SANTANDER                                             3
 ACTION:UPD 13-01-04 14:29 OP:ep   STATUS:               ID:20121220193652 L   I
 2012-12-20-1930-00M.COL___242                                                 6
 STAT SP IPHASW D HRMM SECON CODA AMPLIT PERI AZIMU VELO AIN AR TRES W  DIS CAZ7
 BAR2 SZ EP   1   1937 12.02                             170    0.07 7 22.9 184 
 BAR2 SZ ES   1   1937 26.68                             170   -0.32 7 22.9 184 
 BAR2 SZ I        1937 28.84        11.2 0.10                          22.9 184 
 GIR2 SZ EP   1   1937 11.92                             167   -0.07 7 31.0 355 
 GIR2 SZ ES   1   1937 26.43                             167   -0.65 7 31.0 355 
 GIR2 SZ I        1937 28.74        12.9 0.40                          31.0 355 
 BRR  HZ EP   1   1937 13.89                             153    0.51 7 69.0 300 
 BRR  HN ES   1   1937 30.51                             153    0.96 7 69.0 300 
 BRR  HZ I        1937 34.44        16.1 0.20                          69.0 300 
 PAM  SZ EP   1   1937 14.92                             150    0.24 7 79.1  41 
 PAM  SN ES   1   1937 31.83                             150   -0.04 7 79.1  41 
 PAM  SZ I        1937 33.87        15.6 0.50                          79.1  41 
 RUS  HZ EP   1   1937 16.09                             143   -0.05 7  101 175 
 RUS  HN ES   1   1937 34.70                             143    0.23 7  101 175 
 RUS  HZ I        1937 35.99         5.6 0.36                           101 175 
 PTB  HZ EP   1   1937 18.71                             132   -0.46 7  145 259 
 PTB  HN ES   1   1937 39.50                             132   -0.35 7  145 259 
 PTB  HZ I        1937 41.16         5.5 0.20                           145 259 
 ZAR  HN ES   1   1937 49.74                             122    0.08 6  202 292 
 ZAR  HZ I        1937 56.20         7.3 0.34                           202 292 
 SML  HN ES   1   1937 57.02                             117   -0.37 6  243 336 
                                                                                
