 2015  920 1835 17.5 L   6.776 -73.139140.3  RSN  7 0.5 1.6LRSN                1
 GAP=155        1.25       6.1     5.8  8.0 -0.1074E+02  0.1678E+02 -0.6513E+01E
 Epicentro: LOS SANTOS - SANTANDER                                             3
 ACTION:UPD 15-10-28 16:27 OP:cam  STATUS:               ID:20150920183517 L   I
 OLDACT:UP  15-09-21 01:02 OP:ak   STATUS:               ID:20150920182747     3
 OLDACT:REG 15-09-20 21:18 OP:ak   STATUS:               ID:20150920182747     3
 2015-09-20-1827-47M.COL___349                                                 6
 STAT SP IPHASW D HRMM SECON CODA AMPLIT PERI AZIMU VELO AIN AR TRES W  DIS CAZ7
 BAR2 EZ EP   1   1835 36.42                             171   -0.04 7 20.8 193 
 BAR2 EZ ES       1835 50.36                             171   -0.8610 20.8 193 
 BAR2 EZ I        1835 52.80         9.1 0.18            173           20.8 193 
 BRR  HZ EP       1835 38.39                             151    0.1810 73.2 300 
 BRR  HN ES       1835 54.76                             151    0.4210 73.2 300 
 PAM  EZ EP       1835 39.39                             149    0.1110 79.0  38 
 PAM  EN ES       1835 56.86                             149    0.6310 79.0  38 
 PAM  EZ I        1835 58.76         4.7 0.41            151           79.0  38 
 PTB  HZ EP       1835 43.63                             131   -0.46 9  148 260 
 PTB  HE ES       1836  4.71                             131   -0.08 9  148 260 
 PTB  HZ I        1836  7.04         5.6 0.05            131            148 260 
 ZAR  HZ EP       1835 50.70                             121    0.89 8  206 293 
 ZAR  HN ES       1836 15.02                             121    0.04 8  206 293 
 ZAR  HZ I        1836 21.71         5.6 0.24            122            206 293 
 SML  HZ EP       1835 53.20                             116   -0.97 8  246 335 
 SML  HE ES       1836 22.20                             116   -0.54 8  246 335 
 GUY2CHZ EP   1   1836  0.92                             111    0.13 5  300 235 
 GUY2CHE ES       1836 35.02                             111    0.49 7  300 235 
 GUY2CHZ I        1836 42.96         2.4 0.36                           300 235 
                                                                                
