 2013  220 1445 33.1 L   6.310 -73.634107.3  RSN  6 0.4 1.4LRSN                1
 GAP=102        0.79       3.8     4.7  8.9  0.8156E+01  0.1102E+02  0.7695E+01E
 Epicentro: SANTA HELENA DEL OPON - SANTANDER                                  3
 ACTION:UPD 13-03-12 09:34 OP:ep   STATUS:               ID:20130220144533 L   I
 2013-02-20-1440-00M.COL___238                                                 6
 STAT SP IPHASW D HRMM SECON CODA AMPLIT PERI AZIMU VELO AIN AR TRES W  DIS CAZ7
 BAR2 SZ EP       1445 49.85                             149    0.0510 58.9  58 
 RUS  HZ EP   1   1445 51.11                             142   -0.26 7 76.5 127 
 RUS  HN ES   1   1446  5.35                             142   -0.24 7 76.5 127 
 RUS  HZ I        1446  6.77         3.1 0.14            141           76.5 127 
 BRR  HZ EP   1   1445 51.47                             137   -0.17 7 88.5 354 
 BRR  HN ES   1   1446  6.63                             137    0.56 7 88.5 354 
 PTB  HZ EP   1   1445 51.71                             135   -0.45 7 94.5 286 
 PTB  HN ES   1   1446  6.56                             135   -0.44 7 94.5 286 
 PTB  HZ I        1446  7.22         9.3 0.34            132           94.5 286 
 CHI  HZ EP   1   1446  1.78                             115   -0.15 7  186 183 
 CHI  HN ES   1   1446 25.26                             115    0.87 7  186 183 
 CHI  HZ I        1446 29.07         2.0 0.50            112            186 183 
 ZAR  HZ EP   1   1446  1.68                             114    0.05 7  188 314 
 ZAR  HN ES   1   1446 24.28                             114    0.43 7  188 314 
 ZAR  HZ I        1446 29.29         5.1 0.46            112            188 314 
                                                                                
