 2010  120 1651 22.4 L   6.796 -73.143145.3  RSN 11 0.4 3.1LRSN                1
 GAP=183        0.90       3.5     8.9  6.7 -0.3151E+01  0.3531E+02 -0.6885E+00E
 Epicentro: LOS SANTOS - SANTANDER                                             3
 ACTION:UP  10-08-24 09:45 OP:vdl  STATUS:               ID:20100120165122 L   I
 2010-01-20-1649-31S.COL___096                                                 6
 STAT SP IPHASW D HRMM SECON CODA AMPLIT PERI AZIMU VELO SNR AR TRES W  DIS CAZ7
 BAR2 SZ IP       1651 41.80                             171    -0.110   23 191 
 BAR2 SZ ES       1651 56.92                             171    -0.310   23 191 
 GIR2 SZ IP       1651 41.93                             167    -0.110   32 350 
 RUS  BZ IP       1651 45.71                             144    -0.310  100 176 
 RUS  BE ES       1652  4.61                             144     0.110  100 176 
 RUS  BZ I        1652  6.17       141.4 0.48                           100 176 
 OCA  SZ IP       1651 50.71                             129     0.0 9  161 353 
 OCA  SZ ES   1   1652 13.48                             129     0.7 7  161 353 
 OCA  SZ I        1652 17.00       214.6 0.35                           161 353 
 CHI  HZ IP       1651 59.95                             117     0.0 8  248 195 
 CHI  HZ I        1652  0.76        60.9 0.12                           248 195 
 CHI  HN ES   1   1652 29.99                             117     0.7 6  248 195 
 ROSC BZ IP       1652  1.22                             117     0.8 8  252 211 
 ROSC BZ I        1652 36.58        64.4 0.61                           252 211 
 HEL  HZ EP   2   1652  2.82                             115     0.3 4  272 256 
 HEL  HZ I        1652 42.24        81.1 0.36                           272 256 
 RREF BE ES   2   1652 44.89                             111     0.5 3  322 229 
 RREF BZ I        1652 53.87        70.9 0.24                           322 229 
 DBB  SZ IP       1652  9.49                             109    -0.4 7  340 274 
 DBB  SZ ES   2   1652 46.23                             109    -0.7 3  340 274 
 TOL  SZ IP       1652 10.45                             109    -0.1 7  343 225 
 PRA  HZ IP       1652 15.15                             106    -0.7 6  392 210 
 PRA  HE ES   2   1652 57.88                             106     0.3 3  392 210 
 PRA  HZ I        1653  3.98        64.6 0.30                           392 210 
                                                                                
