 2010  620 1029 12.5 L   6.755 -73.158144.0  RSN  7 0.5 1.6LRSN                1
 GAP=155        0.82       5.1    11.7  9.7 -0.7887E+01 -0.1880E+02 -0.9096E+01E
 Epicentro: LOS SANTOS - SANTANDER                                             3
 ACTION:UP  10-08-24 10:11 OP:vdl  STATUS:               ID:20100620102912 L   I
 2010-06-20-1027-37S.COL___118                                                 6
 STAT SP IPHASW D HRMM SECON CODA AMPLIT PERI AZIMU VELO SNR AR TRES W  DIS CAZ7
 BAR2 SZ EP   1   1029 31.70                             172    -0.1 7   18 189 
 BAR2 SZ ES   2   1029 46.24                             172    -0.6 5   18 189 
 BRR  HZ EP   1   1029 33.53                             152     0.0 7   73 303 
 BRR  HN ES   2   1029 50.64                             152     0.7 5   73 303 
 BRR  HZ I        1029 54.59         8.3 0.48                            73 303 
 RUS  HZ EP   1   1029 35.69                             145     0.0 7   96 175 
 RUS  HN ES   2   1029 54.06                             145     0.2 5   96 175 
 RUS  HZ I        1029 55.51         4.2 0.42                            96 175 
 BRI  SZ EP   1   1029 36.35                             140    -0.3 7  114  21 
 BRI  SZ ES   2   1029 55.44                             140     0.0 5  114  21 
 GUE  SZ EP   1   1029 37.17                             138    -0.3 7  122  12 
 GRA  SZ EP   1   1029 38.68                             135     0.7 7  131  17 
 GRA  SZ ES   2   1029 58.64                             135     0.7 5  131  17 
 OCA  SZ EP   1   1029 41.14                             128     0.0 7  165 354 
 OCA  SZ ES   2   1030  2.29                             128    -1.2 5  165 354 
 OCA  SZ I        1030  6.67         6.4 0.38                           165 354 
                                                                                
