 2011  420 1322 54.6 L   6.804 -73.089146.4  RSN 18 0.5 3.1LRSN                1
 GAP=119        1.11       4.0     5.2  6.7 -0.7117E+01  0.6426E+01  0.7926E+01E
 Epicentro: LOS SANTOS - SANTANDER                                             3
 ACTION:UP  11-06-22 15:32 OP:REBC STATUS:               ID:20110420132254 L   I
 2011-04-20-1321-48S.COL___139                                                 6
 STAT SP IPHASW D HRMM SECON CODA AMPLIT PERI AZIMU VELO SNR AR TRES W  DIS CAZ7
 BTL  SZ IP       1323 14.32                             170     0.110   24 303 
 BAR2 SZ EP       1323 14.04                             169    -0.310   26 204 
 BAR2 SZ ES   1   1323 29.14                             169    -0.6 7   26 204 
 BAR2 SZ I        1323 30.39       414.3 0.39                            26 204 
 GIR2 SZ EP       1323 14.16                             167    -0.210   33 339 
 GIR2 SZ ES   1   1323 29.30                             167    -0.5 7   33 339 
 PAM  SZ IP       1323 16.88                             152     0.310   73  36 
 PAM  SZ I        1323 17.15       134.0 0.18                            73  36 
 PAM  SN ES   1   1323 34.40                             152     0.6 7   73  36 
 BRR  HZ IP       1323 15.98                             151    -0.110   77 296 
 BRR  HZ I        1323 16.29       622.4 0.18                            77 296 
 BRR  HE ES   1   1323 33.45                             151     0.6 7   77 296 
 BRI  SZ IP       1323 18.63                             142     0.310  106  18 
 BRI  SZ ES   2   1323 36.19                             142    -0.7 5  106  18 
 BRI  SZ I        1323 42.15       139.3 0.37                           106  18 
 GRA  SZ IP       1323 19.90                             138     0.210  124  15 
 GRA  SZ I        1323 21.37       203.9 0.31                           124  15 
 GRA  SZ ES   1   1323 39.01                             138    -0.3 7  124  15 
 OCA  SZ EP   1   1323 22.21                             130    -0.7 7  161 351 
 YOP  SZ EP   1   1323 24.52                             127     0.1 7  177 155 
 YOP  SZ I        1323 25.30        50.2 0.49                           177 155 
 YOP  SN ES   1   1323 48.51                             127     0.8 7  177 155 
 NOR  SZ EP   1   1323 30.37                             118    -0.5 6  240 235 
 NOR  SN ES   1   1323 58.62                             118    -0.6 6  240 235 
 CHI  HZ EP   1   1323 31.85                             117    -0.7 6  251 197 
 CHI  HN ES   1   1324  2.43                             117     0.3 6  251 197 
 CHI  HZ I        1324  5.58        42.5 0.47                           251 197 
 ROSC BZ EP   1   1323 33.49                             116     0.4 6  256 212 
 ROSC BZ I        1324 11.81       110.7 0.30                           256 212 
 HEL  HZ EP   1   1323 35.95                             114     0.5 6  278 256 
 HEL  HN ES   1   1324  8.16                             114     0.7 6  278 256 
 HEL  HZ I        1324 12.48        83.2 0.32                           278 256 
 VIL  SZ EP   1   1323 38.30                             112     0.1 5  305 193 
 VIL  SN ES   1   1324 10.58                             112    -1.7 5  305 193 
 GUY  SZ EP   1   1323 39.37                             112     0.3 5  309 236 
 GUY  SN ES   1   1324 14.25                             112     0.5 5  309 236 
 GUY  SZ I        1324 21.92       101.4 0.42                           309 236 
 RREF HZ EP   2   1323 41.13                             110    -0.2 3  327 230 
 RREF HN ES   1   1324 18.83                             110     1.1 5  327 230 
 RREF HZ I        1324 22.55        64.1 0.28                           327 230 
 DBB  SZ EP   1   1323 42.27                             109    -0.5 5  346 274 
 TOL  SZ EP   1   1323 43.29                             109    -0.1 5  348 225 
                                                                                
