 2013  320 1012 54.0 L   6.804 -73.154146.0  RSN 15 0.5 2.9LRSN 3.1WRSN        1
 SPEC AVERAGE  MO 13.8 ST  3.2 OM  2.2 f0 3.30 R0.4755 AL 2.18 WI 30.6 MW  3.1 3
 SPEC SD       MO  0.2 ST  1.8 OM  0.3 f00.748 R0.1443 AL      WI      MW  0.1 3
 GAP=135        1.10       3.4     5.1  5.8  0.4958E-01  0.5329E+01  0.2619E+01E
 Epicentro: LOS SANTOS - SANTANDER                                             3
 SPEC ZAR HH N MO 13.7 ST  6.4 OM  1.9 f0 4.55 R0.3231 AL 1.90 WI 32.3 MW  3.1 3
 SPEC ZAR HH N T101349 K 0.000 GD  250 VS 4.20 DE 3.20 Q0300.0 QA 0.60 VS 4.20 3
 SPEC PTB HH E MO 13.8 ST  2.4 OM  2.1 f0 2.99 R0.4916 AL 1.54 WI 30.4 MW  3.2 3
 SPEC PTB HH E T101338 K 0.000 GD  207 VS 4.20 DE 3.20 Q0300.0 QA 0.60 VS 4.20 3
 SPEC RUS HH N MO 13.5 ST  3.3 OM  1.9 f0 4.08 R0.3603 AL 2.70 WI 18.2 MW  3.0 3
 SPEC RUS HH N T101335 K 0.000 GD  177 VS 4.20 DE 3.20 Q0300.0 QA 0.60 VS 4.20 3
 SPEC PRA HH N MO 13.6 ST  1.9 OM  1.6 f0 3.21 R0.4579 AL 1.86 WI 31.0 MW  3.0 3
 SPEC PRA HH N T101428 K 0.000 GD  418 VS 4.20 DE 3.20 Q0300.0 QA 0.60 VS 4.20 3
 SPEC HEL HH E MO 13.7 ST  2.6 OM  1.8 f0 3.41 R0.4311 AL 2.32 WI 34.8 MW  3.1 3
 SPEC HEL HH E T1014 3 K 0.000 GD  307 VS 4.20 DE 3.20 Q0300.0 QA 0.60 VS 4.20 3
 SPEC PTB HH N MO 13.8 ST  2.3 OM  2.1 f0 2.95 R0.4983 AL 1.20 WI 27.2 MW  3.2 3
 SPEC PTB HH N T101339 K 0.000 GD  207 VS 4.20 DE 3.20 Q0300.0 QA 0.60 VS 4.20 3
 SPEC PAM SH N MO 13.8 ST  2.3 OM  2.2 f0 2.95 R0.4983 AL 2.69 WI 33.2 MW  3.2 3
 SPEC PAM SH N T101330 K 0.000 GD  165 VS 4.20 DE 3.20 Q0300.0 QA 0.60 VS 4.20 3
 SPEC HEL HH Z MO 13.7 ST  3.4 OM  1.8 f0 3.71 R0.3962 AL 2.67 WI 36.2 MW  3.1 3
 SPEC HEL HH Z T1014 0 K 0.000 GD  307 VS 4.20 DE 3.20 Q0300.0 QA 0.60 VS 4.20 3
 SPEC CHI HH N MO 13.8 ST  1.7 OM  1.9 f0 2.81 R0.5231 AL 2.30 WI 39.2 MW  3.1 3
 SPEC CHI HH N T101358 K 0.000 GD  288 VS 4.20 DE 3.20 Q0300.0 QA 0.60 VS 4.20 3
 SPEC CTABSH Z MO 14.3 ST  1.3 OM  1.7 f0 1.66 R0.8855 AL 1.87 WI 23.1 MW  3.5 3
 SPEC CTABSH Z T101328 K 0.000 GD  272 VP 7.60 DE 3.20 Q0300.0 QA 0.60 VS 4.20 3
 SPEC BRR HH N MO 13.9 ST  7.3 OM  2.3 f0 4.03 R0.3648 AL 2.94 WI 31.0 MW  3.2 3
 SPEC BRR HH N T101330 K 0.000 GD  162 VS 4.20 DE 3.20 Q0300.0 QA 0.60 VS 4.20 3
 ACTION:UPD 13-04-09 14:03 OP:ep   STATUS:               ID:20130320101254 L   I
 2013-03-20-1010-00M.COL___241                                                 6
 STAT SP IPHASW D HRMM SECON CODA AMPLIT PERI AZIMU VELO AIN AR TRES W  DIS CAZ7
 BAR2 SZ IP       1013 13.51                             170   -0.1310 23.6 188 
 BAR2 SZ ES   1   1013 29.05                             170    0.08 7 23.6 188 
 BAR2 SZ I        1013 31.49       134.7 0.38            169           23.6 188 
 BRR  HZ IP     D 1013 15.42                             153    0.3310 70.2 299 
 BRR  HN ES       1013 32.46                             153    0.9010 70.2 299 
 BRR  HN I        1013 33.15       170.4 0.30            149           70.2 299 
 PAM  SZ EP       1013 16.28                             151    0.0510 77.6  40 
 PAM  SN ES   1   1013 33.54                             151   -0.05 7 77.6  40 
 PAM  SN I        1013 35.64       134.7 0.58            155           77.6  40 
 RUS  HZ EP       1013 17.38                             144   -0.4010  101 176 
 RUS  HN ES       1013 36.35                             144    0.0010  101 176 
 RUS  HN I        1013 37.65       132.2 0.40            146            101 176 
 PTB  HZ EP       1013 20.04                             132   -0.85 9  147 259 
 PTB  HN ES       1013 41.28                             132   -0.60 9  147 259 
 PTB  HN I        1013 44.87        97.3 0.20            131            147 259 
 OCA  HZ EP       1013 21.79                             130   -0.46 9  160 353 
 OCA  HN ES   2   1013 43.97                             130   -0.34 5  160 353 
 OCA  HN I        1013 47.14       195.7 0.16            130            160 353 
 ZAR  HZ EP       1013 26.18                             123   -0.15 9  203 292 
 ZAR  HN ES   2   1013 51.82                             123    0.25 4  203 292 
 ZAR  HN I        1013 57.67        75.7 0.12            122            203 292 
 CTAB SZ EP   4   1013 30.90                             119    1.17 0  230 210 
 SML  HZ EP       1013 30.75                             118    0.22 8  243 335 
 SML  HN ES   2   1013 58.46                             118   -0.58 4  243 335 
 SML  HN I        1014  5.95       102.0 0.28            118            243 335 
 CHI  HZ EP       1013 31.59                             117   -0.11 8  249 195 
 CHI  HN ES   1   1014  0.98                             117   -0.15 6  249 195 
 CHI  HN I        1014  7.42        32.6 0.40            118            249 195 
 ROSC BZ EP       1013 32.86                             117    0.77 8  253 211 
 ROSC BN ES   4   1014  4.03                             117    2.20 0  253 211 
 HEL  HZ EP       1013 35.05                             115    0.94 8  271 256 
 HEL  HN ES   2   1014  4.51                             115   -0.91 4  271 256 
 HEL  HN I        1014 12.00        18.5 0.42            115            271 256 
 URE  HZ EP   4   1013 33.41                             114   -1.53 0  283 292 
 URE  HN ES   4   1014  4.79                             114   -2.11 0  283 292 
 URE  HN I        1014 15.76        57.8 0.24            114            283 292 
 VIL  SZ EP       1013 38.26                             112    0.83 7  304 191 
 VIL  SN ES   1   1014 10.80                             112   -0.52 5  304 191 
 PRA  HZ EP       1013 46.88                             107   -0.61 6  392 209 
 PRA  HN ES   1   1014 30.05                             107    0.81 4  392 209 
 PRA  HN I        1014 35.10        15.3 0.30            107            392 209 
 SJC  HN ES   4   1014 28.96                             106   -3.75 0  408 327 
 SJC  HN I        1014 32.16        11.7 0.14            106            408 327 
 SMAR HN ES   4   1014 46.81                             102   -4.29 0  496 346 
                                                                                
