 2012  420 1404 55.8 L   6.739 -73.189142.0  RSN  6 0.3 1.9LRSN                1
 GAP=228        0.65       4.7     4.4  6.1  0.6587E+01  0.7362E+01  0.3248E+01E
 Epicentro: VILLANUEVA - SANTANDER                                             3
 ACTION:UPD 12-07-05 11:54 OP:tino STATUS:               ID:20120420140455 L   I
 2012-04-20-1400-00M.COL___187                                                 6
 STAT SP IPHASW D HRMM SECON CODA AMPLIT PERI AZIMU VELO AIN AR TRES W  DIS CAZ7
 BAR2 SZ EP       14 5 14.77                             173    -0.110   16 177 
 BAR2 SZ ES   1   14 5 29.40                             173    -0.3 7   16 177 
 BAR2 SZ I        14 5 32.70        14.3 0.43                            16 177 
 BRR  HZ EP       14 5 16.48                             152    -0.110   71 305 
 BRR  HE ES   1   14 5 33.26                             152     0.6 7   71 305 
 BRR  HZ I        14 5 36.94        15.4 0.13                            71 305 
 RUS  HZ EP   1   14 5 19.03                             145     0.3 7   94 173 
 RUS  HE ES   1   14 5 36.71                             145     0.1 7   94 173 
 RUS  HZ I        14 5 39.41        11.0 0.32                            94 173 
 PTB  HZ EP   1   14 5 21.66                             132    -0.3 7  142 261 
 PTB  HN ES   1   14 5 41.97                             132    -0.3 7  142 261 
 ZAR  HE ES   1   14 5 52.79                             122     0.0 6  202 294 
 ZAR  HZ I        14 5 58.57         9.8 0.22                           202 294 
 NOR  SZ EP   1   14 5 30.62                             119     0.1 6  227 235 
 NOR  SE ES   1   14 5 57.77                             119     0.2 6  227 235 
                                                                                
