 2012  820 1636 28.8 L   6.804 -73.147149.2  RSN  5 0.3 1.5LRSN                1
 GAP=136        0.69       4.1     5.1  7.8 -0.1151E+01 -0.1741E+01  0.5627E+01E
 Epicentro: LOS SANTOS - SANTANDER                                             3
 ACTION:UPD 12-09-10 11:57 OP:ep   STATUS:               ID:20120820163628 L   I
 2012-08-20-1630-00M.COL___217                                                 6
 STAT SP IPHASW D HRMM SECON CODA AMPLIT PERI AZIMU VELO AIN AR TRES W  DIS CAZ7
 BAR2 SZ EP   1   1636 48.45                             171   -0.37 7 23.8 189 
 BAR2 SZ I        1637  5.35        13.5 0.25                          23.8 189 
 BRR  HZ EP   1   1636 50.44                             153    0.17 7 70.8 298 
 BRR  HN ES       1637  7.34                             153    0.3010 70.8 298 
 BRR  HZ I        1637  8.36         7.2 0.16                          70.8 298 
 PAM  SZ EP   1   1636 51.64                             151    0.30 7 77.1  40 
 PAM  SZ I        1636 51.80         5.7 0.18                          77.1  40 
 PAM  SN ES       1637  8.71                             151   -0.2310 77.1  40 
 RUS  HZ EP   1   1636 52.96                             144    0.06 7  101 176 
 RUS  HN ES       1637 11.77                             144    0.0510  101 176 
 RUS  HZ I        1637 12.57         2.4 0.26                           101 176 
 PTB  HN ES   2   1637 16.30                             133   -0.97 5  148 259 
                                                                                
