 2011  520 1056 32.9 L   6.382 -73.501116.7  RSN 22 0.4 2.8LRSN                1
 GAP= 83        1.03       3.5     5.1  5.8 -0.7788E+01  0.1275E+02  0.1743E+01E
 Epicentro: CONTRATACION - SANTANDER                                           3
 ACTION:UP  11-06-29 08:54 OP:tino STATUS:               ID:20110520105632 L   I
 2011-05-20-1054-40S.COL___140                                                 6
 STAT SP IPHASW D HRMM SECON CODA AMPLIT PERI AZIMU VELO SNR AR TRES W  DIS CAZ7
 BAR2 SZ IP       1056 49.89                             159     0.210   42  57 
 BAR2 SZ ES   1   1057  2.68                             159    -0.2 7   42  57 
 BAR2 SZ I        1057  4.45       680.0 0.47                            42  57 
 BTL  SZ IP       1056 51.26                             149     0.310   65  23 
 BTL  SZ ES   1   1057  4.63                             149    -0.4 7   65  23 
 RUS  HZ IP     C 1056 51.57                             147    -0.110   71 139 
 RUS  HN ES   1   1057  6.05                             147    -0.3 7   71 139 
 RUS  HZ I        1057 10.25        65.0 0.64                            71 139 
 BRR  HZ IP     D 1056 51.69                             142    -0.210   84 344 
 BRR  HN ES   1   1057  6.68                             142     0.0 7   84 344 
 BRR  HZ I        1057  7.51       136.7 0.12                            84 344 
 GIR2 SZ IP       1056 52.35                             142     0.210   84  24 
 GIR2 SZ ES   1   1057  7.33                             142     0.2 7   84  24 
 PAM  SZ EP       1056 57.20                             127    -0.2 9  138  40 
 BRI  SZ EP       1057  0.15                             121     0.3 9  167  28 
 BRI  SZ ES   3   1057 20.89                             121     0.0 2  167  28 
 GUE  SZ EP       1057  0.29                             120    -0.3 9  172  22 
 NOR  SZ EP       1057  0.07                             119    -0.6 9  176 239 
 NOR  SN ES   3   1057 22.23                             119    -0.2 2  176 239 
 GRA  SZ EP       1057  1.62                             118     0.0 9  183  25 
 GRA  SZ ES   2   1057 24.66                             118     0.7 4  183  25 
 GRA  SZ I        1057 33.32        59.6 0.18                           183  25 
 ROSC BZ EP       1057  4.07                             117     1.1 9  193 208 
 ROSC BZ I        1057 30.10        43.9 0.57                           193 208 
 OCA  SZ EP       1057  3.88                             115    -0.2 8  206   6 
 OCA  SZ ES   2   1057 29.77                             115     1.4 4  206   6 
 OCA  SZ I        1057 37.20        96.6 0.47                           206   6 
 HEL  HZ EP       1057  6.41                             113    -0.1 8  225 265 
 HEL  HZ I        1057 35.44        39.1 0.25                           225 265 
 GUY  SZ EP       1057  8.69                             111    -0.2 8  245 239 
 GUY  SZ I        1057 42.84        68.9 0.36                           245 239 
 VIL  SZ EP       1057  9.13                             110    -0.1 8  252 185 
 RREF HZ EP       1057 10.89                             109    -0.1 8  262 231 
 RREF HZ I        1057 44.79        41.9 0.39                           262 231 
 TOL  SZ EP       1057 13.54                             107     0.5 7  283 226 
 ANIL HZ EP       1057 14.96                             106     0.3 7  297 225 
 ANIL HZ I        1057 54.21        91.0 0.32                           297 225 
 DBB  SZ EP       1057 15.28                             105    -0.3 7  308 283 
 PRA  HZ EP       1057 18.30                             104    -0.2 7  333 208 
 PRA  HZ I        1057 57.22        84.2 0.22                           333 208 
 MON  HZ EP   4   1057 19.80                             103    -1.5 0  357 318 
 MON  HZ I        1058  0.03         6.8 0.16                           357 318 
 SDV  BZ EP       1057 28.29                             100    -0.9 5  420  49 
 SDV  BZ I        1057 29.87         9.4 0.27                           420  49 
                                                                                
