 2012  620 1109 59.4 L   6.031 -73.771105.7  RSN 15 0.5 2.7LRSN                1
 GAP= 77        0.88       2.4     2.8  6.6 -0.1123E+01  0.4791E+01  0.1461E+00E
 Epicentro: BOLIVAR - SANTANDER                                                3
 ACTION:UPD 12-08-06 17:51 OP:ep   STATUS:               ID:20120620110959 L   I
 2012-06-20-1109-48M.COL___176                                                 6
 STAT SP IPHASW D HRMM SECON CODA AMPLIT PERI AZIMU VELO AIN AR TRES W  DIS CAZ7
 RUS  HZ IP       1110 17.75                             141    0.1510 77.6 101 
 RUS  HZ I        1110 18.19       146.6 0.15                          77.6 101 
 RUS  HN ES   1   1110 31.72                             141   -0.05 7 77.6 101 
 BAR2 SZ EP       1110 18.73                             136    0.5010 89.9  46 
 BAR2 SZ ES   1   1110 33.39                             136    0.49 7 89.9  46 
 BAR2 SZ I        1110 34.92       564.8 0.48                          89.9  46 
 PTB  HZ EP       1110 17.61                             135   -0.7010 94.4 307 
 PTB  HN ES   1   1110 32.39                             135   -0.65 7 94.4 307 
 PTB  HZ I        1110 35.13        67.2 0.19                          94.4 307 
 NOR  SZ EP   1   1110 22.67                             124    0.75 7  132 247 
 NOR  SE ES   1   1110 39.58                             124    0.11 7  132 247 
 ROSC BZ EP   2   1110 23.58                             122   -0.11 5  145 205 
 ROSC BZ I        1110 47.97        89.7 0.47                           145 205 
 CHI  HZ EP       1110 24.62                             120   -0.14 9  155 178 
 CHI  HN ES   1   1110 43.71                             120   -0.80 7  155 178 
 CHI  HZ I        1110 52.17        56.8 0.31                           155 178 
 PAM  SZ EP   1   1110 27.61                             114   -0.71 7  187  39 
 PAM  SE ES   1   1110 50.99                             114    0.13 7  187  39 
 HEL  HZ EP   1   1110 29.51                             113    0.40 6  195 275 
 HEL  HN ES   1   1110 52.93                             113    0.66 6  195 275 
 HEL  HZ I        1110 56.84        29.8 0.31                           195 275 
 ZAR  HZ EP       1110 29.19                             112   -0.14 9  201 323 
 ZAR  HE ES   1   1110 53.07                             112    0.42 6  201 323 
 ZAR  HZ I        1110 55.82        63.6 0.12                           201 323 
 ANIL HZ EP   1   1110 34.93                             107   -0.16 6  248 227 
 ANIL HN ES   1   1111  3.00                             107    0.09 6  248 227 
 OCA  HZ EP   1   1110 34.56                             107   -0.44 6  249  12 
 OCA  HE ES   1   1111  2.87                             107    0.12 6  249  12 
 OCA  HZ I        1111  7.65        80.5 0.25                           249  12 
 PRA  HZ EP   1   1110 38.61                             104   -0.40 6  285 206 
 PRA  HN ES   1   1111  9.90                             104    0.01 6  285 206 
 DBB  SZ EP   1   1110 40.21                             104    0.38 5  291 292 
 DBB  SZ ES   2   1111 10.56                             104   -0.78 4  291 292 
 SJA  SZ ES   1   1111 15.42                             103    0.93 5  306 184 
 COD  HZ EP   1   1110 56.46                              96   -0.34 4  433   5 
 COD  HN ES   1   1111 41.70                              96    0.14 4  433   5 
 COD  HZ I        1111 49.35         8.8 0.34                           433   5 
                                                                                
