 2011  620 1330 41.7 L   6.915 -72.851142.0  RSN  4 0.3 1.3LRSN                1
 GAP=173        0.53      11.6    19.5 17.4  0.1801E+03 -0.2301E+03 -0.1338E+03E
 Epicentro: GUACA - SANTANDER                                                  3
 ACTION:UP  11-07-14 19:06 OP:ep   STATUS:               ID:20110620133041 L   I
 2011-06-20-1328-10S.COL___140                                                 6
 STAT SP IPHASW D HRMM SECON CODA AMPLIT PERI AZIMU VELO SNR AR TRES W  DIS CAZ7
 PAM  SZ EP   3   1331  1.67                             160    -0.4 2   50  20 
 BAR2 SZ EP   2   1331  2.44                             160     0.7 5   51 226 
 BAR2 SZ I        1331 20.08         6.4 0.33                            51 226 
 BRR  HZ EP       1331  4.05                             145    -0.110   98 283 
 BRR  HN ES   2   1331 21.79                             145     0.1 5   98 283 
 RUS  HZ EP   2   1331  6.13                             140    -0.1 5  116 193 
 RUS  HN ES   2   1331 25.28                             140    -0.1 5  116 193 
 RUS  HZ I        1331 26.64         2.2 0.47                           116 193 
                                                                                
