 2011  820 1308 42.8 L   6.776 -73.099149.4  RSN 10 0.4 2.6LRSN                1
 GAP=161        0.76       3.2     5.3  6.8 -0.3083E+01  0.4484E+01  0.4405E+01E
 Epicentro: LOS SANTOS - SANTANDER                                             3
 ACTION:UPD 12-07-13 15:52 OP:ep   STATUS:               ID:20110820130842 L   I
 2011-08-20-1303-40S.COL___151                                                 6
 STAT SP IPHASW D HRMM SECON CODA AMPLIT PERI AZIMU VELO AIN AR TRES W  DIS CAZ7
 BRR  HZ IP     C 13 9  4.64                             151   -0.0610 77.0 298 
 BRR  HZ I        13 9  4.94       280.9 0.15                          77.0 298 
 BRR  HN ES   1   13 9 22.12                             151    0.36 7 77.0 298 
 RUS  HZ EP       13 9  6.58                             145   -0.1510 97.7 179 
 RUS  HN ES   1   13 9 25.09                             145   -0.29 7 97.7 179 
 RUS  HZ I        13 9 26.63        48.0 0.27                          97.7 179 
 BRI  SZ EP   1   13 9  7.29                             142    0.17 7  109  18 
 BRI  SZ I        13 9 30.78         6.9 0.35                           109  18 
 OCA  SZ EP   1   13 9 11.08                             130   -0.65 7  164 351 
 OCA  SZ ES   1   13 9 34.63                             130    0.35 7  164 351 
 OCA  SZ I        13 9 39.70        65.5 0.25                           164 351 
 NOR  SZ EP   1   13 9 18.63                             119   -0.43 6  237 236 
 NOR  SN ES   1   13 9 46.51                             119   -0.81 6  237 236 
 CHI  HZ EP   1   13 9 20.57                             118   -0.03 6  247 196 
 CHI  HN ES   1   13 9 50.91                             118    0.84 6  247 196 
 CHI  HZ I        13 9 54.21        13.8 0.45                           247 196 
 HEL  HZ EP   1   13 9 24.37                             115    0.66 6  276 257 
 HEL  HN ES   1   13 9 55.29                             115   -0.31 6  276 257 
 HEL  HZ I        1310  1.43        28.9 0.32                           276 257 
 RREF HZ EP   1   13 9 29.72                             111    0.34 5  324 230 
 RREF HZ I        1310 11.18        20.1 0.27                           324 230 
 TOL  SZ EP   1   13 9 31.85                             110    0.42 5  345 226 
 PRA  HZ EP   1   13 9 36.33                             107   -0.17 4  392 210 
 PRA  HN ES   1   1310 19.00                             107    0.63 4  392 210 
 PRA  HZ I        1310 22.06        41.9 0.25                           392 210 
                                                                                
