 2010  620 1228 42.9 L   6.762 -73.102146.1  RSN 12 0.4 2.8LRSN                1
 GAP=161        0.82       3.7     7.7  7.4 -0.1172E+02  0.1169E+02  0.3988E+01E
 Epicentro: LOS SANTOS - SANTANDER                                             3
 ACTION:UP  10-08-24 10:11 OP:vdl  STATUS:               ID:20100620122842 L   I
 2010-06-20-1224-15S.COL___118                                                 6
 STAT SP IPHASW D HRMM SECON CODA AMPLIT PERI AZIMU VELO SNR AR TRES W  DIS CAZ7
 BAR2 SZ IP     C 1229  2.25                             172    -0.210   21 206 
 BAR2 SZ ES   2   1229 17.39                             172    -0.4 5   21 206 
 BRR  HZ IP     C 1229  4.09                             150    -0.310   78 300 
 BRR  HN ES   2   1229 21.71                             150     0.5 5   78 300 
 BRR  HZ I        1229 24.17       130.5 0.06                            78 300 
 RUS  HZ IP     C 1229  6.14                             145    -0.210   96 179 
 RUS  HN ES   2   1229 25.16                             145     0.5 5   96 179 
 RUS  HZ I        1229 26.57       105.6 0.52                            96 179 
 BRI  SZ EP   1   1229  6.83                             141    -0.1 7  111  18 
 BRI  SZ ES   2   1229 25.80                             141     0.0 5  111  18 
 GUE  SZ EP   1   1229  8.33                             138     0.5 7  120   9 
 GRA  SZ EP   1   1229  8.94                             136     0.6 7  128  15 
 GRA  SZ ES   2   1229 29.07                             136     0.8 5  128  15 
 OCA  SZ EP   1   1229 11.24                             129    -0.4 7  165 352 
 OCA  SZ ES   2   1229 33.45                             129    -0.7 5  165 352 
 OCA  SZ I        1229 37.33       100.0 0.31                           165 352 
 CHI  HZ EP   1   1229 20.14                             117    -0.1 6  246 197 
 CHI  HE ES   2   1229 49.26                             117    -0.2 4  246 197 
 CHI  HZ I        1229 54.80        32.5 0.40                           246 197 
 ROSC BZ EP   1   1229 21.77                             117     0.9 6  252 212 
 ROSC BE ES   2   1229 50.46                             117    -0.1 4  252 212 
 ROSC BZ I        1229 57.46        35.9 0.36                           252 212 
 CVER SZ EP   1   1229 22.77                             115    -0.3 6  270 204 
 HEL  HZ EP   1   1229 23.48                             114     0.0 6  276 257 
 HEL  HZ I        1230  0.19        40.3 0.72                           276 257 
 RREF HZ EP   1   1229 29.52                             111     0.4 5  323 231 
 RREF HN ES   2   1230  5.80                             111     0.6 3  323 231 
 RREF HZ I        1230 14.07        39.8 0.43                           323 231 
                                                                                
