 2013  520 1210 28.1 L   6.810 -73.132152.4  RSN  6 0.4 1.6LRSN                1
 GAP=206        0.96       6.3     6.6  7.8  0.5242E+01  0.1037E+02 -0.6939E+01E
 Epicentro: LOS SANTOS - SANTANDER                                             3
 ACTION:UPD 13-06-20 09:52 OP:ep   STATUS:               ID:20130520121028 L   I
 2013-05-20-1210-00M.COL___256                                                 6
 STAT SP IPHASW D HRMM SECON CODA AMPLIT PERI AZIMU VELO AIN AR TRES W  DIS CAZ7
 BAR2 SZ EP       1210 48.64                             170    0.0810 24.7 193 
 BAR2 SZ ES       1211  4.41                             170   -0.1110 24.7 193 
 BAR2 SZ I        1211  6.48         7.4 0.26            171           24.7 193 
 GIR2 SZ EP   1   1210 48.68                             168    0.13 7 30.4 347 
 GIR2 SZ ES   1   1211  4.05                             168   -0.44 7 30.4 347 
 BRR  HZ EP       1210 50.58                             153    0.5610 72.0 297 
 BRR  HN ES       1211  7.57                             153    0.4610 72.0 297 
 BRR  HZ I        1211 11.05         8.1 0.38            154           72.0 297 
 PTB  HZ EP       1210 55.35                             133   -0.42 9  149 259 
 PTB  HN ES       1211 16.98                             133   -0.37 9  149 259 
 PTB  HZ I        1211 18.76         5.9 0.38            135            149 259 
 ZAR  HN ES   1   1211 27.40                             124    0.58 6  205 292 
 SML  HN ES       1211 33.33                             119   -0.57 8  243 335 
                                                                                
