 2017  220 1103 11.2 L   6.818 -72.984146.7  RSN  5 0.3 1.1LRSN                1
 GAP=254        0.50       9.0     7.9  5.6  0.6190E+02  0.2577E+01  0.6712E+01E
 Epicentro: CEPITA - SANTANDER                                                 3
 ACTION:UPD 17-05-24 15:38 OP:jn   STATUS:               ID:20170220110311 L   I
 OLDACT:UP  17-02-20 22:47 OP:cog  STATUS:               ID:20170220105744     3
 OLDACT:UP  17-02-20 22:46 OP:cog  STATUS:               ID:20170220105744     3
 OLDACT:UP  17-02-20 22:45 OP:cog  STATUS:               ID:20170220105744     3
 OLDACT:UP  17-02-20 22:44 OP:cog  STATUS:               ID:20170220105744     3
 OLDACT:UP  17-02-20 22:44 OP:cog  STATUS:               ID:20170220105744     3
 OLDACT:UP  17-02-20 22:42 OP:cog  STATUS:               ID:20170220105744     3
 OLDACT:UP  17-02-20 22:41 OP:cog  STATUS:               ID:20170220105744     3
 OLDACT:REG 17-02-20 21:32 OP:cog  STATUS:               ID:20170220105744     3
 2017-02-20-1058-00M.COL___349                                                 6
 STAT SP IPHASW D HRMM SECON CODA AMPLIT PERI AZIMU VELO AIN AR TRES W  DIS CAZ7
 BAR2 EZ EP       11 3 31.33                             167    0.1710 33.2 221 
 BAR2 EZ ES   3   11 3 45.66                             167   -1.08 2 33.2 221 
 BAR2 EZ I        11 3 46.95         2.5 0.56            152           33.2 221 
 BRR  HZ EP       11 3 33.39                             148    0.0310 86.6 292 
 BRR  HN ES       11 3 50.58                             148   -0.0810 86.6 292 
 BRR  HZ I        11 3 52.87         5.4 0.68            148           86.6 292 
 RUS  HZ EP       11 3 35.06                             144   -0.1310  103 186 
 RUS  HZ I        11 3 54.61         0.8 0.26            129            103 186 
 RUS  HN ES   3   11 3 55.02                             144    1.11 2  103 186 
 PTB  HZ EP   2   11 3 39.43                             129   -0.46 5  166 259 
 PTB  HN ES   4   11 3 59.28                             129   -3.00 0  166 259 
 PTB  HZ I        11 4  3.00         1.3 0.22            122            166 259 
 ZAR  HZ EP       11 3 45.47                             120    0.12 8  220 290 
 ZAR  HN ES       11 4 12.04                             120    0.04 8  220 290 
                                                                                
