 2014  220 1356 45.1 L   6.205 -73.659112.2  RSN 11 0.5 1.8LRSN                1
 GAP= 83        1.23       3.3     3.6  7.1 -0.2089E+01  0.8103E+01  0.3823E+01E
 Epicentro: LA PAZ - SANTANDER                                                 3
 ACTION:UPD 14-03-10 08:11 OP:ep   STATUS:               ID:20140220135645 L   I
 OLDACT:REG 14-02-20 16:22 OP:carl STATUS:               ID:20140220135000     3
 2014-02-20-1350-00M.COL___212                                                 6
 STAT SP IPHASW D HRMM SECON CODA AMPLIT PERI AZIMU VELO AIN AR TRES W  DIS CAZ7
 BAR2 SZ EP       1357  3.37                             146    0.5410 67.9  51 
 BAR2 SZ ES       1357 17.08                             146    0.4110 67.9  51 
 BAR2 SZ I        1357 18.56        80.6 0.56            147           67.9  51 
 RUS  HZ EP       1357  3.42                             145   -0.0810 72.5 118 
 RUS  HN ES       1357 17.45                             145   -0.4310 72.5 118 
 RUS  HZ I        1357 18.63         5.9 0.32            145           72.5 118 
 SPBC HZ EP       1357  3.43                             143    0.2210 76.4 217 
 SPBC HN ES       1357 17.26                             143   -0.1010 76.4 217 
 SPBC HZ I        1357 18.62        26.3 0.36            143           76.4 217 
 PTB  HZ EP       1357  4.02                             136   -0.6110 95.6 293 
 PTB  HN ES       1357 18.95                             136   -0.9310 95.6 293 
 PTB  HZ I        1357 22.55         9.5 0.22            136           95.6 293 
 NOR  HZ EP       1357  9.64                             122   -0.35 9  152 242 
 NOR  HN ES       1357 29.58                             122    0.16 9  152 242 
 NOR  HZ I        1357 30.85        10.4 0.24            122            152 242 
 PAM  SE ES       1357 32.80                             120    0.03 9  164  40 
 PAM  SZ I        1357 36.47         5.1 0.16            120            164  40 
 CHI  HZ EP       1357 12.32                             118   -0.54 9  174 183 
 CHI  HN ES       1357 35.41                             118    0.89 9  174 183 
 CHI  HZ I        1357 38.41         4.7 0.30            118            174 183 
 ZAR  HZ EP       1357 14.40                             115   -0.12 9  194 317 
 ZAR  HN ES       1357 38.44                             115    0.95 9  194 317 
 ZAR  HZ I        1357 40.62        11.1 0.14            115            194 317 
 GUY2CHZ EP       1357 17.91                             112    0.18 8  218 240 
 GUY2CHN ES       1357 43.94                             112    0.74 8  218 240 
 GUY2CHZ I        1357 48.50         5.9 0.36                           218 240 
 PRA  HZ EP       1357 26.90                             104   -0.64 7  307 206 
 PRA  HN ES       1358  0.54                             104   -0.12 7  307 206 
 PRA  HZ I        1358  6.02         5.1 0.34            104            307 206 
 ORTC HZ EP       1357 27.62                             104   -0.12 7  309 215 
 ORTC HN ES       1358  1.04                             104    0.03 7  309 215 
 ORTC HZ I        1358  7.00         2.7 0.26            104            309 215 
                                                                                
