 2011  220 1610 34.6 L   6.812 -73.144143.2  RSN  7 0.4 1.5LRSN                1
 GAP=159        0.81       4.9    15.7  7.0 -0.3373E+02 -0.8708E+01  0.2640E+01E
 Epicentro: LOS SANTOS - SANTANDER                                             3
 ACTION:UP  11-03-28 15:09 OP:jfem STATUS:               ID:20110220161034 L   I
 2011-02-20-1609-05S.COL___137                                                 6
 STAT SP IPHASW D HRMM SECON CODA AMPLIT PERI AZIMU VELO SNR AR TRES W  DIS CAZ7
 BTL  SZ EP       1610 54.10                             172     0.210   18 311 
 BTL  SZ ES   1   1611  9.50                             172     0.6 7   18 311 
 BAR2 SZ ES   2   1611  8.46                             170    -0.6 5   25 190 
 BAR2 SZ I        1611  9.96         9.3 0.50                            25 190 
 GIR2 SZ EP   2   1610 53.95                             167     0.0 5   30 349 
 GIR2 SZ ES   2   1611  8.33                             167    -0.7 5   30 349 
 RUS  HZ EP       1610 58.28                             143     0.010  102 176 
 RUS  HZ I        1610 59.19         3.5 0.20                           102 176 
 RUS  HN ES   1   1611 16.67                             143     0.0 7  102 176 
 GRA  SZ EP       1610 59.65                             137     0.110  124  18 
 GRA  SZ ES   2   1611 18.14                             137    -0.8 5  124  18 
 GRA  SZ I        1611 20.61         4.7 0.15                           124  18 
 NOR  SZ EP   2   1611 10.00                             118    -0.3 4  236 234 
 CHI  HZ EP   2   1611 11.76                             116    -0.6 4  250 195 
 CHI  HN ES   2   1611 41.38                             116    -0.4 4  250 195 
 CHI  HZ I        1611 45.23         3.1 0.73                           250 195 
                                                                                
