 2010  720 1106 25.6 L   6.820 -73.076144.6  RSN  8 0.3 1.7LRSN                1
 GAP=166        0.63       3.1     9.8  6.3 -0.3241E+01 -0.1471E+02 -0.4304E+01E
 Epicentro: LOS SANTOS - SANTANDER                                             3
 ACTION:UPD 10-12-01 15:19 OP:pat  STATUS:               ID:20100720110625 L   I
 2010-07-20-1102-41S.COL___123                                                 6
 STAT SP IPHASW D HRMM SECON CODA AMPLIT PERI AZIMU VELO AIN AR TRES W  DIS CAZ7
 BAR2 SZ EP   2   11 6 45.14                             168    -0.1 5   28 205 
 BAR2 SZ ES   1   11 7  0.10                             168    -0.4 8   28 205 
 BAR2 SZ I        11 7  1.15         8.6 0.33                            28 205 
 GIR2 SZ EP   2   11 6 45.01                             167    -0.2 5   31 336 
 BRR  HN ES   2   11 7  3.87                             150     0.2 5   77 294 
 BRR  HZ I        11 7  7.60        11.8 0.22                            77 294 
 RUS  HZ EP   1   11 6 49.22                             143    -0.2 8  103 180 
 RUS  HE ES   1   11 7  8.39                             143     0.4 8  103 180 
 GUE  SZ EP   1   11 6 49.84                             140    -0.1 8  113   8 
 GRA  SZ IP       11 6 50.79                             138     0.410  122  14 
 GRA  SZ ES   1   11 7  9.53                             138    -0.2 7  122  14 
 GRA  SZ I        11 7 11.25         5.3 0.34                           122  14 
 OCA  SZ EP   1   11 6 53.59                             129    -0.2 7  159 350 
 OCA  SZ ES   1   11 7 15.78                             129     0.1 7  159 350 
 OCA  SZ I        11 7 19.87         5.0 0.27                           159 350 
 PRA  HZ EP   2   11 7 19.44                             106    -0.3 3  398 210 
 PRA  HZ I        11 8 10.09         2.3 0.51                           398 210 
                                                                                
