 2013  120 1138 25.6 L   6.800 -73.189151.1  RSN  7 0.4 1.5LRSN                1
 GAP=131        0.87       4.7     5.1  7.5  0.2390E+01  0.1300E+01  0.3634E+01E
 Epicentro: ZAPATOCA - SANTANDER                                               3
 ACTION:UPD 13-02-15 09:15 OP:ep   STATUS:               ID:20130120113825 L   I
 2013-01-20-1130-00M.COL___241                                                 6
 STAT SP IPHASW D HRMM SECON CODA AMPLIT PERI AZIMU VELO AIN AR TRES W  DIS CAZ7
 BAR2 SZ EP       1138 45.80                             171   -0.0610 23.0 178 
 BAR2 SZ ES   1   1139  1.55                             171   -0.12 7 23.0 178 
 BAR2 SZ I        1139  2.14        11.9 0.18            172           23.0 178 
 BRR  HZ EP       1138 47.53                             155    0.4210 67.0 301 
 BRR  HN ES   1   1139  4.65                             155    0.77 7 67.0 301 
 BRR  HZ I        1139  7.05         7.6 0.26            152           67.0 301 
 PAM  SZ IP       1138 48.64                             151    0.0710 80.5  42 
 PAM  SZ EP       1138 48.64                                           80.5  42 
 PAM  SN ES   2   1139  5.54                             151   -0.95 5 80.5  42 
 PAM  SZ I        1139  7.79         5.1 0.44            153           80.5  42 
 RUS  HZ EP   1   1138 49.52                             145   -0.39 7  101 173 
 RUS  HN ES   1   1139  8.89                             145    0.03 7  101 173 
 RUS  HZ I        1139  9.83         3.9 0.28            147            101 173 
 PTB  HZ EP   1   1138 52.02                             134   -0.57 7  143 258 
 PTB  HN ES   1   1139 13.36                             134   -0.28 7  143 258 
 PTB  HZ I        1139 14.96         2.7 0.30            133            143 258 
 ZAR  HN ES   1   1139 22.72                             124   -0.46 6  200 293 
 ZAR  HZ I        1139 30.38         2.4 0.16            123            200 293 
 CHI  HZ EP   1   1139  4.16                             118    0.69 6  247 194 
 CHI  HN ES   1   1139 33.03                             118    0.03 6  247 194 
 CHI  HZ I        1139 34.54         3.6 0.74            119            247 194 
                                                                                
