 2011 1020 1313 19.1 L   6.760 -73.136151.8  RSN  6 0.4 2.0LRSN                1
 GAP=158        0.82       5.0     4.6  7.6 -0.6771E+01  0.8147E+01 -0.1979E+01E
 Epicentro: LOS SANTOS - SANTANDER                                             3
 ACTION:UPD 12-07-13 16:04 OP:ep   STATUS:               ID:20111020131319 L   I
 2011-10-20-1312-56S.COL___171                                                 6
 STAT SP IPHASW D HRMM SECON CODA AMPLIT PERI AZIMU VELO AIN AR TRES W  DIS CAZ7
 BAR2 SZ EP       1313 39.53                             172    0.2010 19.2 195 
 BAR2 SZ ES   1   1313 54.72                             172   -0.43 7 19.2 195 
 BAR2 SZ I        1313 56.13        14.9 0.17                          19.2 195 
 BRR  HZ EP   1   1313 41.33                             153    0.31 7 74.3 301 
 BRR  HN ES   1   1313 58.67                             153    0.51 7 74.3 301 
 BRR  HZ I        1314  2.13        14.9 0.15                          74.3 301 
 PAM  SZ EP       1313 42.20                             151    0.1310 80.2  37 
 PAM  SE ES   1   1313 59.55                             151   -0.48 7 80.2  37 
 OCA  SZ EP   1   1313 47.97                             130   -0.28 7  165 353 
 OCA  SZ ES   1   1314 11.63                             130    0.60 7  165 353 
 OCA  SZ I        1314 15.33        11.8 0.21                           165 353 
 ZAR  HZ EP   1   1313 51.51                             123   -0.65 6  207 293 
 ZAR  HE ES       1314 17.61                             123   -0.38 8  207 293 
 ZAR  HZ I        1314 24.52         9.3 0.21                           207 293 
 NOR  SE ES       1314 23.15                             120    0.19 8  233 235 
                                                                                
