 2016  320 1259  0.1 L   6.862 -73.177138.7  RSN  4 0.1 1.3LRSN                1
 GAP=279        0.34       3.0     2.2  3.3  0.7261E+00  0.1566E+01 -0.1825E+01E
 Epicentro: ZAPATOCA - SANTANDER                                               3
 ACTION:UPD 16-05-13 21:25 OP:cam  STATUS:               ID:20160320125900 L   I
 OLDACT:DUP 16-03-21 00:01 OP:cara STATUS:               ID:20160320125744d    3
 2016-03-20-1257-43M.COL___285                                                 6
 STAT SP IPHASW D HRMM SECON CODA AMPLIT PERI AZIMU VELO AIN AR TRES W  DIS CAZ7
 BAR2 EZ EP       1259 18.87                             167   -0.1510 29.8 181 
 BAR2 EZ ES       1259 33.88                             167    0.0810 29.8 181 
 BAR2 EZ I        1259 35.33         4.6 0.22            162           29.8 181 
 RUS  HZ EP       1259 23.75                             140    0.0610  108 174 
 RUS  HN ES       1259 42.07                             140   -0.0310  108 174 
 RUS  HZ I        1259 44.47         2.3 0.26            139            108 174 
 PTB  HZ EP       1259 26.41                             131    0.10 9  146 256 
 PTB  HN ES       1259 46.71                             131   -0.06 9  146 256 
 PTB  HZ I        1259 51.79         3.0 0.50            129            146 256 
 SPBC HN ES       1259 50.43                             127   -0.00 9  166 217 
 SPBC HZ I        1259 55.73         4.2 0.18            126            166 217 
                                                                                
