 2012  520 1359 43.5 L   6.776 -73.125148.8  RSN  9 0.3 2.1LRSN                1
 GAP=140        0.80       5.9     6.1  8.1 -0.1182E+02  0.2222E+02  0.5981E+01E
 Epicentro: LOS SANTOS - SANTANDER                                             3
 ACTION:UP  12-07-05 12:06 OP:pat  STATUS:               ID:20120520135943 L   I
 2012-05-20-1400-00M.COL___200                                                 6
 STAT SP IPHASW D HRMM SECON CODA AMPLIT PERI AZIMU VELO SNR AR TRES W  DIS CAZ7
 BAR2 SZ IP       14 0  3.47                             171     0.010   21 197 
 BAR2 SZ I        14 0  3.99        20.9 0.12                            21 197 
 BAR2 SZ ES   2   14 0 18.93                             171    -0.1 5   21 197 
 BRR  HZ EP       14 0  5.33                             152     0.210   75 299 
 BRR  HE ES   2   14 0 22.49                             152     0.4 5   75 299 
 BRR  HZ I        14 0 26.11        36.5 0.16                            75 299 
 PAM  SZ EP       14 0  6.35                             151     0.310   78  37 
 PAM  SN ES   1   14 0 23.42                             151    -0.3 7   78  37 
 RUS  HZ EP       14 0  7.32                             145     0.010   98 177 
 RUS  HZ I        14 0  8.62         6.2 0.20                            98 177 
 RUS  HN ES   2   14 0 25.97                             145     0.0 5   98 177 
 PTB  HZ EP       14 0 10.14                             132    -0.7 9  150 260 
 PTB  HZ I        14 0 37.36        18.9 0.36                           150 260 
 ZAR  HZ EP   3   14 0 15.73                             123    -0.7 2  207 293 
 ZAR  HZ I        14 0 47.89        22.9 0.52                           207 293 
 NOR  SZ EP       14 0 19.55                             119     0.1 8  235 235 
 NOR  SN ES   1   14 0 47.81                             119     0.3 6  235 235 
 CHI  HZ EP   3   14 0 21.25                             118     0.1 2  247 196 
 CHI  HZ I        14 0 58.32         5.5 0.34                           247 196 
 HEL  HZ EP       14 0 24.38                             115     0.3 8  274 256 
 HEL  HZ I        14 1  4.02         8.3 0.34                           274 256 
                                                                                
