 2012  320 1947 47.7 L   6.821 -73.157138.3  RSN  4 0.6 1.7LRSN                1
 GAP=134        1.39       9.6     9.0 15.9 -0.1591E+02  0.3854E+01  0.1820E+02E
 ACTION:UP  12-03-31 23:21 OP:EP   STATUS:               ID:20120320194747 L   I
 2012-03-20-1940-00M.COL___202                                                 6
 STAT SP IPHASW D HRMM SECON CODA AMPLIT PERI AZIMU VELO SNR AR TRES W  DIS CAZ7
 BRR  HZ EP   1   1948  8.29                             152     0.3 7   69 297 
 BRR  HZ I        1948 20.59        16.0 0.43                            69 297 
 BRR  HN ES   1   1948 24.43                             152     0.7 7   69 297 
 PAM  SZ EP       1948  9.64                             150     0.510   76  41 
 PAM  SN ES   1   1948 24.72                             150    -1.1 7   76  41 
 RUS  HZ EP   1   1948 10.81                             141    -0.1 7  103 175 
 RUS  HN ES   1   1948 29.31                             141     0.3 7  103 175 
 RUS  HZ I        1948 31.70         8.4 0.32                           103 175 
 PTB  HZ EP   1   1948 13.39                             130    -0.7 7  147 258 
 PTB  HZ I        1948 16.12         3.1 0.23                           147 258 
 PTB  HN ES   1   1948 34.02                             130    -0.5 7  147 258 
                                                                                
