 2017  120 1514 37.4 L   6.783 -73.162141.8  RSN  7 0.5 2.0LRSN                1
 GAP=135        1.05       4.8     4.6  6.6  0.3109E+01  0.7380E+01  0.3534E+01E
 Epicentro: LOS SANTOS - SANTANDER                                             3
 ACTION:UPD 17-05-22 16:01 OP:jn   STATUS:               ID:20170120151437 L   I
 OLDACT:REG 17-01-20 21:00 OP:cog  STATUS:               ID:20170120150742     3
 2017-01-20-1508-00M.COL___325                                                 6
 STAT SP IPHASW D HRMM SECON CODA AMPLIT PERI AZIMU VELO AIN AR TRES W  DIS CAZ7
 BAR2 EZ EP       1514 56.43                             171   -0.0810 21.2 186 
 BAR2 EZ ES       1515 11.14                             171   -0.2710 21.2 186 
 BAR2 EZ I        1515 12.92        34.9 0.26            170           21.2 186 
 BRR  HZ EP       1514 58.17                             152    0.0810 70.6 301 
 BRR  HN ES       1515 15.15                             152    0.9310 70.6 301 
 BRR  HZ I        1515 17.58        31.4 0.20            154           70.6 301 
 PAM  EZ EP       1514 59.26                             149   -0.0910 80.0  40 
 PAM  EN ES       1515 16.21                             149   -0.2710 80.0  40 
 PAM  EZ I        1515 18.58        23.6 0.74            152           80.0  40 
 RUS  HZ EP       1515  0.73                             143    0.1010 98.8 175 
 RUS  HN ES       1515 18.85                             143    0.1010 98.8 175 
 RUS  HZ I        1515 20.90        13.7 0.30            144           98.8 175 
 PTB  HZ EP       1515  3.21                             131   -0.64 9  146 259 
 PTB  HN ES       1515 23.92                             131   -0.57 9  146 259 
 PTB  HZ I        1515 26.05        11.2 0.15            133            146 259 
 ZAR  HZ EP       1515  9.94                             122    0.44 9  203 293 
 ZAR  HN ES       1515 34.39                             122   -0.14 9  203 293 
 CHI  HZ EP       1515 15.07                             116    0.44 8  246 195 
 CHI  HN ES   3   1515 45.45                             116    1.79 2  246 195 
 CHI  HZ I        1515 48.05         4.3 0.38            118            246 195 
                                                                                
