 2012  220 1205  4.8 L   6.794 -73.197151.9  RSN  4 0.4 1.0LRSN                1
 GAP=172        0.54       7.4     7.8  9.0  0.1961E+02  0.2425E+02  0.9549E+01E
 ACTION:UP  12-03-07 16:32 OP:epov STATUS:               ID:20120220120504 L   I
 2012-02-20-1200-00M.COL___191                                                 6
 STAT SP IPHASW D HRMM SECON CODA AMPLIT PERI AZIMU VELO AIN AR TRES W  DIS CAZ7
 BAR2 SZ EP   2   12 5 24.68                             171   -0.51 5 22.4 176 
 BAR2 SZ I        12 5 24.98         3.3 0.11                          22.4 176 
 BAR2 SZ ES   2   12 5 40.49                             171   -0.57 5 22.4 176 
 GIR2 SZ ES   2   12 5 41.67                             168    0.51 5 31.5   1 
 RUS  HZ EP   2   12 5 29.34                             145    0.15 5  100 173 
 RUS  HN ES   1   12 5 48.33                             145    0.15 7  100 173 
 RUS  HZ I        12 5 49.94         1.1 0.31                           100 173 
 PTB  HZ EP   2   12 5 31.98                             135    0.17 5  142 259 
 PTB  HN ES   2   12 5 52.80                             135   -0.06 5  142 259 
                                                                                
