 2014  520 1254  4.9 L   6.800 -73.126149.7  RSN 12 0.5 2.5LRSN                1
 GAP=157        0.91       4.6     4.4  7.6 -0.4970E+01  0.5957E+01  0.1995E+02E
 Epicentro: LOS SANTOS - SANTANDER                                             3
 ACTION:UPD 15-03-16 16:59 OP:nd   STATUS:               ID:20140520125404 L   I
 OLDACT:UP  14-05-20 20:38 OP:cam  STATUS:               ID:20140520125000     3
 OLDACT:REG 14-05-20 19:34 OP:cam  STATUS:               ID:20140520125000     3
 2014-05-20-1250-00M.COL___252                                                 6
 STAT SP IPHASW D HRMM SECON CODA AMPLIT PERI AZIMU VELO AIN AR TRES W  DIS CAZ7
 BRR  HZ EP       1254 26.45                             153   -0.0910 73.1 298 
 BRR  HN ES       1254 43.60                             153    0.1610 73.1 298 
 BRR  HZ I        1254 47.55        41.1 0.32            155           73.1 298 
 PAM  SZ EP     D 1254 27.65                             152    0.2410 76.0  38 
 PAM  SN ES       1254 44.84                             152   -0.1710 76.0  38 
 PAM  SZ I        1254 45.34        25.0 0.24            163           76.0  38 
 PTB  HZ EP   4 D 1254 31.36                             132   -0.97 0  150 259 
 PTB  HN ES   4   1254 52.58                             132   -1.19 0  150 259 
 PTB  HZ I        1254 59.63        20.2 0.10            135            150 259 
 NOR  HZ EP       1254 40.63                             119   -0.37 8  236 235 
 NOR  HN ES       1255  8.81                             119   -0.39 8  236 235 
 NOR  HZ I        1255 16.63        13.7 0.30            122            236 235 
 CHI  HZ EP       1254 42.64                             118   -0.20 8  249 196 
 CHI  HN ES       1255 12.45                             118   -0.02 8  249 196 
 CHI  HZ I        1255 17.45        15.9 0.26            121            249 196 
 ROSC BZ EP   4   1254 45.44                             117    2.12 0  254 211 
 ROSC BN ES   4   1255 15.15                             117    1.83 0  254 211 
 ROSC BZ I        1255 19.31        36.5 0.45            120            254 211 
 HEL  HZ EP   1   1254 46.49                             115    0.99 6  274 256 
 HEL  HE ES       1255 17.91                             115    0.71 8  274 256 
 HEL  HZ I        1255 23.25        12.1 0.24            119            274 256 
 GUY2CHZ EP   4   1254 50.06                             113    1.21 0  303 235 
 GUY2CHN ES   4   1255 25.85                             113    2.69 0  303 235 
 GUY2CHZ I        1255 31.04        14.1 0.58                           303 235 
 RREF HZ EP   4   1254 53.13                             111    1.77 0  323 230 
 RREF HE ES   4   1255 30.71                             111    3.08 0  323 230 
 RREF HZ I        1255 31.95        14.1 0.22            114            323 230 
 DBB  SZ EP   1   1254 52.89                             110    0.15 5  342 274 
 DBB  SZ ES       1255 29.11                             110   -0.97 7  342 274 
 DBB  SZ I        1255 30.96        31.1 0.54            114            342 274 
 PRA  HZ EP       1254 58.63                             107   -0.01 6  393 210 
 PRA  HN ES       1255 40.15                             107   -0.44 6  393 210 
 PRA  HZ I        1255 47.08        15.7 0.26            110            393 210 
 ORTC HZ EP       1254 58.98                             107   -0.08 6  397 216 
 ORTC HN ES       1255 42.36                             107    1.02 6  397 216 
 ORTC HZ I        1255 47.74         6.5 0.40            110            397 216 
                                                                                
