 2013 1220 1835 28.5 L   6.824 -73.177132.4  RSN 10 0.4 1.8LRSN                1
 GAP=131        0.87       3.0     3.4  5.2 -0.1277E+01  0.6687E+01  0.1918E+01E
 Epicentro: LOS SANTOS - SANTANDER                                             3
 ACTION:UPD 14-01-13 10:19 OP:ep   STATUS:               ID:20131220183528 L   I
 OLDACT:REG 13-12-20 16:15 OP:nd   STATUS:               ID:20131220183000     3
 2013-12-20-1830-00M.COL___285                                                 6
 STAT SP IPHASW D HRMM SECON CODA AMPLIT PERI AZIMU VELO AIN AR TRES W  DIS CAZ7
 BAR2 SZ EP       1835 46.57                             168    0.0310 25.6 181 
 BAR2 SZ ES       1836  0.81                             168    0.1710 25.6 181 
 BAR2 SZ I        1836  6.92        21.7 0.20            169           25.6 181 
 BRR  HZ IP     D 1835 48.58                             152    0.6610 66.9 298 
 BRR  HN ES   2   1836  3.72                             152    0.62 5 66.9 298 
 BRR  HZ I        1836  6.63        12.4 0.14            153           66.9 298 
 PAM  SZ EP       1835 49.56                             148    0.2710 77.7  43 
 PAM  SN ES       1836  5.09                             148   -0.4510 77.7  43 
 PAM  SZ I        1836  9.49         9.5 0.38            154           77.7  43 
 RUS  HZ EP       1835 50.69                             140   -0.4510  104 174 
 RUS  HN ES       1836  8.83                             140   -0.0110  104 174 
 RUS  HZ I        1836 10.64         4.7 0.28            144            104 174 
 PTB  HZ EP       1835 53.65                             129   -0.44 9  145 258 
 PTB  HN ES       1836 13.76                             129   -0.33 9  145 258 
 PTB  HZ I        1836 16.79        14.2 0.16            133            145 258 
 SPBC HZ EP       1835 55.66                             126   -0.29 9  163 217 
 SPBC HN ES       1836 17.56                             126    0.16 9  163 217 
 SPBC HZ I        1836 23.61        13.1 0.18            130            163 217 
 ZAR  HZ EP       1835 59.82                             120    0.20 9  200 292 
 ZAR  HN ES       1836 23.84                             120   -0.08 9  200 292 
 ZAR  HZ I        1836 31.01        11.6 0.22            124            200 292 
 NOR  HZ EP       1836  3.14                             116   -0.16 8  233 233 
 NOR  HN ES       1836 30.62                             116    0.13 8  233 233 
 NOR  HZ I        1836 32.49         7.0 0.20            119            233 233 
 CHI  HZ EP       1836  5.58                             114   -0.05 8  250 194 
 CHI  HN ES       1836 35.12                             114    0.49 8  250 194 
 CHI  HZ I        1836 42.29         2.7 0.26            118            250 194 
 GUY2CHZ EP       1836 11.99                             110    0.66 7  300 234 
 GUY2CHN ES       1836 44.23                             110   -0.54 7  300 234 
 GUY2CHZ I        1836 53.33         4.5 0.40                           300 234 
                                                                                
