 2012  620 1738 31.5 L   6.575 -74.122 28.8  RSN 19 0.5 4.4LRSN 4.5WRSN        1
 SPEC AVERAGE  MO 15.8 ST 60.9 OM  3.6 f0 3.16 R0.9297 AL 1.66 WI 30.4 MW  4.5 3
 SPEC SD       MO  0.2 ST 66.5 OM  0.5 f00.639 R0.1959 AL      WI      MW  0.2 3
 GAP= 57        1.02       2.5     2.2  4.1 -0.1827E+01 -0.2700E+01  0.3126E+01E
 Epicentro: PUERTO PARRA - SANTANDER                                           3
 Evento Sentido                                                                2
 Reportado como sentido en:                                                    3
 BUCARAMANGA (SANTANDER), TUNJA, DUITAMA,SOGAMOSO (BOYACA)                     3
 SPEC YOT HH Z MO 15.5 ST  6.3 OM  2.8 f0 2.13 R1.3202 AL 1.68 WI 45.8 MW  4.3 3
 SPEC YOT HH Z T173921 K 0.000 GD  379 VP 7.60 DE 3.00 Q0230.0 QA 0.60 VS 4.20 3
 SPEC ZAR HH Z MO 15.5 ST 17.0 OM  3.2 f0 3.09 R0.9100 AL 1.13 WI 16.1 MW  4.3 3
 SPEC ZAR HH Z T173850 K 0.000 GD  133 VP 7.60 DE 3.00 Q0230.0 QA 0.60 VS 4.20 3
 SPEC PRA HH Z MO 16.1 ST163.7 OM  3.4 f0 4.17 R0.6743 AL 1.66 WI 41.8 MW  4.7 3
 SPEC PRA HH Z T173915 K 0.000 GD  329 VP 7.60 DE 3.00 Q0230.0 QA 0.60 VS 4.20 3
 SPEC OCA HH Z MO 16.2 ST198.5 OM  3.7 f0 4.13 R0.6809 AL 1.98 WI 33.0 MW  4.7 3
 SPEC OCA HH Z T173859 K 0.000 GD  206 VP 7.60 DE 3.00 Q0230.0 QA 0.60 VS 4.20 3
 SPEC RUS HH Z MO 15.9 ST 48.4 OM  3.6 f0 3.17 R0.8871 AL 1.35 WI 16.2 MW  4.5 3
 SPEC RUS HH Z T173852 K 0.000 GD  139 VP 7.60 DE 3.00 Q0230.0 QA 0.60 VS 4.20 3
 SPEC COD HH Z MO 15.7 ST 25.6 OM  3.0 f0 2.91 R0.9663 AL 2.39 WI 44.4 MW  4.4 3
 SPEC COD HH Z T173920 K 0.000 GD  380 VP 7.60 DE 3.00 Q0230.0 QA 0.60 VS 4.20 3
 SPEC ANILHH Z MO 16.0 ST 55.7 OM  3.4 f0 3.10 R0.9071 AL 1.81 WI 29.9 MW  4.6 3
 SPEC ANILHH Z T1739 9 K 0.000 GD  272 VP 7.60 DE 3.00 Q0230.0 QA 0.60 VS 4.20 3
 SPEC CHI HH Z MO 15.7 ST 13.4 OM  3.2 f0 2.41 R1.1668 AL 2.03 WI 28.9 MW  4.4 3
 SPEC CHI HH Z T1739 2 K 0.000 GD  220 VP 7.60 DE 3.00 Q0230.0 QA 0.60 VS 4.20 3
 SPEC HEL HH Z MO 15.5 ST 20.0 OM  3.1 f0 3.29 R0.8547 AL 0.91 WI 17.4 MW  4.2 3
 SPEC HEL HH Z T173854 K 0.000 GD  163 VP 7.60 DE 3.00 Q0230.0 QA 0.60 VS 4.20 3
 ACTION:UPD 12-08-06 17:51 OP:ep   STATUS:               ID:20120620173831 L   I
 2012-06-20-1736-45M.COL___185                                                 6
 STAT SP IPHASW D HRMM SECON CODA AMPLIT PERI AZIMU VELO AIN AR TRES W  DIS CAZ7
 PTB  HZ IP     C 1738 38.54                             122   -0.4410 37.2 264 
 PTB  HE ES   1   1738 44.53                             122   -0.25 7 37.2 264 
 PTB  HZ I        1738 44.99     50343.4 0.23                          37.2 264 
 BRR  HZ IP     D 1738 43.89                             101   -0.0110 74.2  38 
 BRR  HN ES   1   1738 54.13                             101    0.59 7 74.2  38 
 BRR  HZ I        1738 55.76     16034.0 0.36                          74.2  38 
 BAR2 SZ IP       1738 47.82                              61   -0.1910  104  89 
 BAR2 SZ ES       1739  0.03                              61   -0.8210  104  89 
 BAR2 SZ I        1739  1.30     27134.4 0.21                           104  89 
 ZAR  HZ IP     D 1738 50.69                              61   -0.3110  130 321 
 ZAR  HE ES   1   1739  6.54                              61    0.37 7  130 321 
 ZAR  HZ I        1739 11.51      3652.5 0.42                           130 321 
 RUS  HZ IP     C 1738 52.43                              61   -0.09 9  137 123 
 RUS  HN ES   1   1739  8.21                              61   -0.66 7  137 123 
 RUS  HZ I        1739  9.92     16268.6 0.31                           137 123 
 NOR  SZ EP   1   1738 51.31                              61   -0.89 7  139 217 
 NOR  SN ES   1   1739  8.03                              61   -0.27 7  139 217 
 HEL  HZ IP       1738 55.21                              61   -0.14 9  161 255 
 HEL  HN ES   1   1739 13.28                              61   -0.65 7  161 255 
 HEL  HZ I        1739 14.98      4122.0 0.19                           161 255 
 PAM  SZ EP       1738 58.35                              61    0.72 9  178  62 
 PAM  SN ES   1   1739 18.34                              61    0.36 7  178  62 
 ROSC BZ EP       1738 59.49                              61    0.14 9  193 187 
 ROSC BZ I        1739 29.49      1108.9 0.37                           193 187 
 OCA  HZ EP       1739  0.47                              61    0.02 9  204  26 
 OCA  HZ I        1739 36.47      5289.7 0.50                           204  26 
 GUY  SZ EP       1739  1.41                              61    0.46 9  205 223 
 GUY  SN ES   2   1739 24.31                              61    0.42 4  205 223 
 GUY  SZ I        1739 25.48      3316.4 0.41                           205 223 
 CHI  HZ IP     C 1739  2.63                              61   -0.04 8  219 169 
 CHI  HZ I        1739 15.63       950.6 0.40                           219 169 
 YOP  SZ EP       1739  4.41                              61    0.57 8  232 126 
 TOL  SZ EP       1739  7.69                              60    0.42 8  257 211 
 ANIL HZ EP       1739  9.80                              60    0.90 8  271 212 
 ANIL HE ES   2   1739 38.50                              60    0.46 4  271 212 
 VIL  SZ EP       1739  9.92                              60    0.50 7  276 170 
 VIL  SZ I        1739 46.36       873.5 0.45                           276 170 
 PRA  HZ EP   1   1739 15.94                              60    0.32 5  328 195 
 YOT  HZ EP       1739 22.48                              60    0.54 6  378 221 
 YOT  HZ I        1740 28.99       569.5 0.89                           378 221 
 COD  HZ EP       1739 21.22                              60   -0.69 6  379  11 
 COD  HN ES   1   1740  1.33                              60    0.13 5  379  11 
                                                                                
