 2014 1220 1226 29.5 L   6.820 -73.139140.8  RSN 20 0.5 2.4LRSN                1
 GAP= 71        1.11       2.6     3.3  4.9 -0.1791E+01  0.2916E+01  0.1057E+01E
 Epicentro: LOS SANTOS - SANTANDER                                             3
 ACTION:UPD 15-02-10 17:05 OP:nd   STATUS:               ID:20141220122629 L   I
 OLDACT:DUP 14-12-20 23:05 OP:fm   STATUS:               ID:20141220121748d    3
 2014-12-20-1217-47M.COL___305                                                 6
 STAT SP IPHASW D HRMM SECON CODA AMPLIT PERI AZIMU VELO AIN AR TRES W  DIS CAZ7
 BAR2 EZ EP     D 1226 48.85                             169    0.2710 25.6 191 
 BAR2 EZ ES       1227  3.51                             169    0.0510 25.6 191 
 BAR2 EZ I        1227  4.49        44.8 0.34            169           25.6 191 
 BRR  HZ EP       1226 50.63                             152    0.5410 70.9 297 
 BRR  HE ES       1227  6.45                             152    0.3010 70.9 297 
 BRR  HZ I        1227 11.52        40.3 0.14            150           70.9 297 
 PAM  SZ EP       1226 51.65                             151    0.5910 75.2  40 
 PAM  SE ES       1227  7.90                             151    0.0310 75.2  40 
 PAM  SZ I        1227 10.51        81.5 0.46            153           75.2  40 
 RUS  HZ EP       1226 53.03                             142    0.1110  103 177 
 RUS  HE ES       1227 10.86                             142   -0.3310  103 177 
 RUS  HZ I        1227 12.97        32.2 0.28            144            103 177 
 PTB  HZ EP       1226 55.85                             131   -0.33 9  149 258 
 PTB  HN ES       1227 17.17                             131    0.19 9  149 258 
 PTB  HZ I        1227 19.43        25.6 0.14            130            149 258 
 TAM  HZ IP     D 1226 57.27                             129    0.50 9  155 106 
 OCA  HZ EP       1226 56.94                             129   -0.29 9  158 353 
 OCA  HE ES       1227 18.13                             129   -0.73 9  158 353 
 OCA  HZ I        1227 23.86        31.2 0.24            130            158 353 
 SPBC HZ EP       1226 57.27                             127   -0.56 9  165 219 
 SPBC HN ES       1227 19.19                             127   -0.74 9  165 219 
 SPBC HZ I        1227 24.85        33.2 0.34            128            165 219 
 ZAR  HZ EP       1227  1.79                             121    0.18 9  204 291 
 ZAR  HN ES       1227 27.44                             121    0.78 9  204 291 
 ZAR  HZ I        1227 29.27        30.3 0.24            122            204 291 
 NOR  HZ EP       1227  5.33                             117    0.18 8  237 234 
 NOR  HN ES       1227 32.96                             117    0.00 8  237 234 
 NOR  HZ I        1227 41.35        18.6 0.40            118            237 234 
 SML  HZ EP       1227  5.26                             117   -0.41 8  242 335 
 SML  HE ES       1227 33.37                             117   -0.51 8  242 335 
 SML  HZ I        1227 43.26        30.6 0.10            117            242 335 
 CHI  HZ EP       1227  6.98                             116   -0.20 8  251 195 
 CHI  HN ES       1227 35.77                             116   -0.80 8  251 195 
 CHI  HZ I        1227 39.78         6.6 0.36            117            251 195 
 ROSC BZ EP       1227  7.70                             115    0.10 8  255 211 
 ROSC BN ES       1227 38.16                             115    0.84 8  255 211 
 ROSC BZ I        1227 42.77        15.3 0.30            116            255 211 
 HEL  HZ EP       1227 10.07                             114    0.46 8  273 255 
 HEL  HN ES       1227 40.61                             114   -0.28 8  273 255 
 HEL  HZ I        1227 48.02        12.2 0.44            114            273 255 
 CBOC HZ EP       1227 16.98                             109    0.61 7  335 252 
 CBOC HN ES       1227 52.05                             109   -0.89 7  335 252 
 CBOC HZ I        1228  0.06         4.3 0.20            110            335 252 
 TOL  SZ EP       1227 18.49                             108    0.69 6  346 224 
 TOL  SN ES       1227 55.59                             108    0.11 6  346 224 
 TOL  SZ I        1228  5.04        21.4 0.42            109            346 224 
 MON  HZ EP   4   1227 16.55                             108   -1.68 0  353 308 
 MON  HE ES   4   1227 54.72                             108   -1.51 0  353 308 
 MON  HZ I        1227 55.76         6.0 0.16            108            353 308 
 SDV  BZ EP       1227 18.25                             107   -0.87 6  358  50 
 SDV  BE ES   4   1227 54.83                             107   -3.00 0  358  50 
 SDV  BZ I        1228  0.54         5.8 0.65            109            358  50 
 ANIL HE ES   1   1227 57.86                             107   -0.39 5  359 224 
 SJC  HZ EP   4   1227 22.86                             105   -1.88 0  408 327 
 SJC  HN ES   4   1228  3.34                             105   -4.48 0  408 327 
 SJC  HZ I        1228  8.15         8.2 0.52            106            408 327 
                                                                                
