 2017  220 1016 29.8 L   6.771 -73.161134.7  RSN  5 0.4 1.1LRSN                1
 GAP=136        0.84       5.5     4.8  7.4 -0.2284E+01  0.1376E+02 -0.1156E+02E
 Epicentro: LOS SANTOS - SANTANDER                                             3
 ACTION:UPD 17-05-24 15:38 OP:jn   STATUS:               ID:20170220101627 L   I
 OLDACT:UP  17-04-18 12:30 OP:jn   STATUS:               ID:20170220101627 L   3
 OLDACT:UP  17-04-18 12:09 OP:nlst STATUS:               ID:20170220101627 L   3
 OLDACT:UP  17-02-20 22:30 OP:cog  STATUS:               ID:20170220100742     3
 OLDACT:REG 17-02-20 21:27 OP:cog  STATUS:               ID:20170220100742     3
 2017-02-20-1008-00M.COL___349                                                 6
 STAT SP IPHASW D HRMM SECON CODA AMPLIT PERI AZIMU VELO AIN AR TRES W  DIS CAZ7
 BAR2 EZ EP   1   1016 48.10                             171    0.03 7 19.9 187 
 BAR2 EZ ES       1017  1.91                             171   -0.3810 19.9 187 
 BAR2 EZ I        1017  4.06         2.9 0.20            170           19.9 187 
 PAM  EZ EP       1016 50.90                             147   -0.2210 81.0  39 
 PAM  EN ES   1   1017  8.04                             147    0.32 7 81.0  39 
 RUS  HZ EP   1   1016 52.23                             142   -0.05 7 97.5 175 
 RUS  HN ES   1   1017 10.51                             142    0.72 7 97.5 175 
 RUS  HZ I        1017 11.44         1.1 0.24            144           97.5 175 
 PTB  HZ EP   1   1016 55.57                             130   -0.14 7  146 260 
 PTB  HN ES   1   1017 15.35                             130   -0.54 7  146 260 
 PTB  HZ I        1017 18.26         1.8 0.16            130            146 260 
 ZAR  HZ EP       1017  1.59                             120    0.04 9  204 293 
 ZAR  HN ES   1   1017 27.07                             120    0.78 6  204 293 
 ZAR  HZ I        1017 29.07         3.2 0.10            121            204 293 
                                                                                
