 2015  220 1611 31.0 L   6.852 -73.226144.5  RSN  8 0.5 1.7LRSN                1
 GAP=123        1.15       4.2     5.4  8.4 -0.8824E+01  0.2115E+02 -0.8147E+01E
 Epicentro: ZAPATOCA - SANTANDER                                               3
 ACTION:UPD 15-04-30 21:28 OP:nd   STATUS:               ID:20150220161131 L   I
 OLDACT:REG 15-02-20 22:17 OP:fm   STATUS:               ID:20150220160748     3
 2015-02-20-1607-48M.COL___290                                                 6
 STAT SP IPHASW D HRMM SECON CODA AMPLIT PERI AZIMU VELO AIN AR TRES W  DIS CAZ7
 BAR2 EZ EP       1611 50.82                             168    0.2310 29.1 171 
 BAR2 EZ ES   1   1612  6.60                             168    0.71 7 29.1 171 
 BAR2 EZ I        1612  8.78         7.4 0.24            170           29.1 171 
 PAM  SZ EP       1611 53.64                             150    0.4610 79.3  47 
 PAM  SE ES       1612 10.38                             150   -0.1110 79.3  47 
 PAM  SZ I        1612 13.05         5.0 0.18            156           79.3  47 
 RUS  HZ EP       1611 54.70                             142   -0.4010  107 172 
 RUS  HE ES       1612 13.48                             142   -0.4410  107 172 
 RUS  HZ I        1612 15.10         4.6 0.36            147            107 172 
 PTB  HZ EP       1611 57.74                             133    0.56 9  140 256 
 PTB  HN ES       1612 17.67                             133    0.05 9  140 256 
 PTB  HZ I        1612 24.80         9.5 0.32            135            140 256 
 SPBC HN ES       1612 21.22                             129   -0.18 9  162 215 
 SPBC HZ I        1612 28.97        10.1 0.36            132            162 215 
 NOR  HZ EP       1612  6.83                             119    0.59 8  231 232 
 NOR  HN ES       1612 32.83                             119   -0.92 8  231 232 
 NOR  HZ I        1612 36.94         4.8 0.32            122            231 232 
 SML  HZ EP       1612  5.67                             118   -0.91 8  235 337 
 SML  HN ES       1612 34.23                             118   -0.12 8  235 337 
 SML  HZ I        1612 38.37         7.6 0.10            122            235 337 
 GUY2CHZ EP       1612 14.33                             112    0.22 7  297 233 
 GUY2CHN ES       1612 48.20                             112    0.46 7  297 233 
 GUY2CHZ I        1613  0.13         2.5 0.38                           297 233 
                                                                                
