 2017  820 1911 12.3 L   6.886 -73.276126.0  RSN  9 0.4 1.6LRSN                1
 GAP=115        0.72       3.2     3.3  4.9  0.2839E+01  0.4374E+01  0.3383E+01E
 Epicentro: BETULIA - SANTANDER                                                3
 ACTION:UPD 17-09-04 20:22 OP:rebc STATUS:               ID:20170820191112 L   I
 OLDACT:UP  17-08-20 22:21 OP:mg   STATUS:               ID:20170820190742d    3
 OLDACT:UP  17-08-20 22:21 OP:mg   STATUS:               ID:20170820190742d    3
 OLDACT:DUP 17-08-20 22:08 OP:mg   STATUS:               ID:20170820190742d    3
 2017-08-20-1908-00M.COL___411                                                 6
 STAT SP IPHASW D HRMM SECON CODA AMPLIT PERI AZIMU VELO AIN AR TRES W  DIS CAZ7
 BAR2 EZ EP       1911 30.14                             164    0.2510 34.1 162 
 BAR2 EZ ES   1   1911 43.20                             164   -0.39 7 34.1 162 
 BAR2 EZ I        1911 44.19        21.4 0.44            166           34.1 162 
 BRR  HZ EP       1911 30.38                             155   -0.0010 54.0 297 
 BRR  HN ES       1911 44.55                             155    0.0810 54.0 297 
 BRR  HZ I        1911 48.24         7.6 0.12            155           54.0 297 
 PAM  EZ EP   1   1911 32.63                             145   -0.09 7 81.0  52 
 PAM  EN ES   2   1911 49.60                             145    0.96 5 81.0  52 
 PAM  EZ I        1911 50.73         5.0 0.31            148           81.0  52 
 RUS  HZ EP   1   1911 34.56                             136   -0.56 7  112 169 
 RUS  HN ES       1911 52.67                             136   -0.2310  112 169 
 RUS  HZ I        1911 53.56         6.8 0.28            138            112 169 
 SPBC HN ES   1   1912  0.56                             124    0.20 7  162 213 
 SPBC HZ I        1912  4.83         6.1 0.20            126            162 213 
 ZAR  HZ EP   1   1911 41.42                             120   -0.34 7  187 291 
 ZAR  HN ES       1912  4.62                             120   -0.10 9  187 291 
 ZAR  HZ I        1912 10.47         5.8 0.30            121            187 291 
 YPLC HZ EP   1   1911 42.35                             119   -0.03 7  192 149 
 YPLC HN ES   2   1912  6.71                             119    0.88 4  192 149 
 YPLC HZ I        1912  8.94         6.7 0.31            122            192 149 
 NOR  HZ EP       1911 46.03                             115   -0.33 8  229 230 
 NOR  HN ES   1   1912 13.08                             115    0.17 6  229 230 
 NOR  HZ I        1912 13.36         3.4 0.18            116            229 230 
 GUY2CHZ EP       1911 54.90                             109    0.48 7  295 232 
 GUY2CHN ES   2   1912 28.19                             109    0.93 4  295 232 
 GUY2CHZ I        1912 34.44         2.1 0.68                           295 232 
                                                                                
