 2014  820 1705 32.2 L   5.846 -73.975107.7  RSN  4 0.4 1.4LRSN                1
 GAP=160        1.05       6.3     5.7  9.9 -0.1625E+02  0.7341E+01 -0.1159E+02E
 Epicentro: LA BELLEZA - SANTANDER                                             3
 ACTION:UPD 14-09-15 21:51 OP:nd   STATUS:               ID:20140820170532 L   I
 OLDACT:UP  14-08-20 21:36 OP:cam  STATUS:               ID:20140820170000     3
 OLDACT:UP  14-08-20 21:36 OP:cam  STATUS:               ID:20140820170000     3
 OLDACT:UP  14-08-20 21:35 OP:cam  STATUS:               ID:20140820170000     3
 OLDACT:UP  14-08-20 21:35 OP:cam  STATUS:               ID:20140820170000     3
 OLDACT:UP  14-08-20 21:35 OP:cam  STATUS:               ID:20140820170000     3
 OLDACT:REG 14-08-20 20:25 OP:cam  STATUS:               ID:20140820170000     3
 2014-08-20-1700-00M.COL___285                                                 6
 STAT SP IPHASW D HRMM SECON CODA AMPLIT PERI AZIMU VELO AIN AR TRES W  DIS CAZ7
 SPBC HZ EP       17 5 46.93                             167   -0.1010 24.0 207 
 SPBC HN ES       17 5 58.50                             167   -0.1310 24.0 207 
 SPBC HZ I        17 5 59.49        17.6 0.22            168           24.0 207 
 PTB  HZ EP       17 5 50.36                             136   -0.7610 93.3 325 
 PTB  HN ES       17 6  6.20                             136    0.2910 93.3 325 
 PTB  HZ I        17 6  9.47         2.8 0.38            135           93.3 325 
 NOR  HZ EP       17 5 52.71                             132    0.6210  104 253 
 NOR  HN ES       17 6  7.53                             132   -0.1010  104 253 
 NOR  HZ I        17 6 10.05         6.2 0.22            133            104 253 
 BAR2 SZ ES       17 6 11.02                             128    0.1810  120  47 
                                                                                
