 2011 1020 1145 40.4 L   6.787 -73.123146.3  RSN 15 0.4 2.5LRSN                1
 GAP=140        0.75       3.0     4.0  4.6 -0.2437E+01  0.4815E+01  0.3094E+01E
 Epicentro: LOS SANTOS - SANTANDER                                             3
 ACTION:UPD 12-07-13 16:04 OP:ep   STATUS:               ID:20111020114540 L   I
 2011-10-20-1140-00M.COL___171                                                 6
 STAT SP IPHASW D HRMM SECON CODA AMPLIT PERI AZIMU VELO AIN AR TRES W  DIS CAZ7
 BTL  SZ EP   1   1146  0.29                             171    0.18 7 21.6 312 
 BAR2 SZ EP       1146  0.07                             171   -0.0510 22.5 197 
 BAR2 SZ ES   1   1146 15.36                             171   -0.11 7 22.5 197 
 BAR2 SZ I        1146 19.34        66.7 0.36                          22.5 197 
 GIR2 SZ EP   1   1146  0.13                             167   -0.10 7 33.2 346 
 GIR2 SZ ES   1   1146 16.19                             167    0.53 7 33.2 346 
 BRR  HZ IP     C 1146  1.88                             152    0.0610 74.1 299 
 BRR  HZ I        1146  2.15       127.9 0.11                          74.1 299 
 BRR  HN ES       1146 18.53                             152    0.0510 74.1 299 
 PAM  SZ EP   1   1146  2.83                             151    0.14 7 77.0  37 
 PAM  SN ES   1   1146 19.63                             151   -0.41 7 77.0  37 
 RUS  HZ EP   1   1146  3.93                             144   -0.20 7 99.0 177 
 RUS  HN ES   1   1146 22.27                             144   -0.34 7 99.0 177 
 RUS  HZ I        1146 23.95        31.3 0.34                          99.0 177 
 BRI  SZ EP   1   1146  4.47                             141    0.05 7  109  19 
 OCA  SZ EP   1   1146  8.83                             129   -0.13 7  162 352 
 OCA  SZ ES   1   1146 31.70                             129    0.50 7  162 352 
 OCA  SZ I        1146 34.84        24.4 0.20                           162 352 
 ZAR  HZ EP   1   1146 12.53                             122   -0.69 6  207 292 
 ZAR  HN ES   1   1146 38.20                             122   -0.59 6  207 292 
 ZAR  HZ I        1146 44.40        25.9 0.26                           207 292 
 NOR  SZ EP   1   1146 16.09                             118   -0.24 6  236 235 
 ROSC BZ EP   1   1146 19.70                             117    1.10 6  253 212 
 ROSC BZ I        1146 54.40        30.8 0.24                           253 212 
 GUY  SZ EP   1   1146 25.01                             112    0.53 5  305 236 
 GUY  SN ES       1146 58.74                             112   -0.09 7  305 236 
 GUY  SZ I        1147  9.80        28.7 0.38                           305 236 
 RREF HN ES   2   1147  3.86                             111    1.05 3  323 230 
 RREF HZ I        1147  9.45        12.7 0.18                           323 230 
 TOL  SZ EP   2   1146 29.34                             109    0.53 3  344 225 
 PRA  HZ EP   1   1146 32.98                             107   -1.00 4  392 210 
 PRA  HN ES   1   1147 15.98                             107    0.24 4  392 210 
                                                                                
