 2017  420 1929 10.6 L   6.797 -73.105153.3  RSN  7 0.5 1.8LRSN                1
 GAP=142        1.10       4.4     5.6  7.5 -0.2979E+00  0.1350E+02  0.4452E+01E
 Epicentro: LOS SANTOS - SANTANDER                                             3
 ACTION:UPD 17-05-30 21:14 OP:jn   STATUS:               ID:20170420192910 L   I
 OLDACT:UP  17-04-20 23:14 OP:dani STATUS:               ID:20170420192738     3
 OLDACT:UP  17-04-20 23:13 OP:dani STATUS:               ID:20170420192738     3
 OLDACT:UP  17-04-20 23:13 OP:dani STATUS:               ID:20170420192738     3
 OLDACT:REG 17-04-20 23:07 OP:dani STATUS:               ID:20170420192738     3
 2017-04-20-1927-59M.COL___377                                                 6
 STAT SP IPHASW D HRMM SECON CODA AMPLIT PERI AZIMU VELO AIN AR TRES W  DIS CAZ7
 BAR2 EZ EP       1929 31.23                             171    0.0910 24.2 201 
 BAR2 EZ ES       1929 46.42                             171   -0.7510 24.2 201 
 BAR2 EZ I        1929 48.96        17.9 0.34            168           24.2 201 
 PAM  EZ EP       1929 33.95                             153    0.4810 74.9  37 
 PAM  EN ES       1929 51.36                             153    0.0410 74.9  37 
 PAM  EZ I        1929 53.30         5.6 0.43            157           74.9  37 
 BRR  HZ EP       1929 33.10                             152    0.3110 75.3 297 
 BRR  HN ES       1929 50.47                             152    0.3810 75.3 297 
 BRR  HZ I        1929 55.07        11.7 0.34            151           75.3 297 
 RUS  HZ EP   4   1929 32.58                             145   -2.47 0  100 179 
 RUS  HN ES       1929 54.29                             145    0.1610  100 179 
 RUS  HZ I        1929 54.80         5.8 0.32            146            100 179 
 ZAR  HZ EP       1929 43.64                             123   -0.33 8  208 292 
 ZAR  HN ES       1930  9.50                             123   -0.51 8  208 292 
 ZAR  HZ I        1930 15.41         5.8 0.42            124            208 292 
 NOR  HZ EP   3   1929 48.41                             120    1.27 2  238 235 
 NOR  HE ES       1930 16.17                             120    0.53 8  238 235 
 NOR  HZ I        1930 20.57         6.4 0.34            120            238 235 
 CHI  HZ EP       1929 47.86                             119   -0.95 8  250 196 
 CHI  HN ES       1930 18.76                             119    0.13 8  250 196 
 CHI  HZ I        1930 27.59         3.1 0.23            119            250 196 
                                                                                
