 2012  520 1648 28.4 L   6.769 -73.146149.4  RSN  5 0.4 1.8LRSN                1
 GAP=138        1.12       7.5     7.2 10.6 -0.5378E+01  0.6479E+01  0.6424E+01E
 Epicentro: LOS SANTOS - SANTANDER                                             3
 ACTION:UP  12-07-05 12:06 OP:pat  STATUS:               ID:20120520164828 L   I
 2012-05-20-1640-00M.COL___200                                                 6
 STAT SP IPHASW D HRMM SECON CODA AMPLIT PERI AZIMU VELO SNR AR TRES W  DIS CAZ7
 BAR2 SZ EP       1648 48.47                             172     0.110   20 192 
 BAR2 SZ ES   2   1649  3.51                             172    -0.5 5   20 192 
 BAR2 SZ I        1649  5.33        14.0 0.32                            20 192 
 BRR  HZ EP       1648 50.38                             153     0.410   73 301 
 BRR  HZ I        1648 55.66        24.3 0.42                            73 301 
 BRR  HN ES   1   1649  7.76                             153     0.9 7   73 301 
 PAM  SZ EP       1648 51.10                             151     0.010   80  38 
 PAM  SE ES   1   1649  8.25                             151    -0.6 7   80  38 
 RUS  HZ EP       1648 52.38                             145     0.110   97 176 
 RUS  HE ES   1   1649 11.01                             145     0.2 7   97 176 
 RUS  HZ I        1649 12.35         6.9 0.40                            97 176 
 PTB  HZ EP       1648 55.21                             133    -0.4 9  147 260 
 PTB  HN ES   1   1649 16.09                             133    -0.7 7  147 260 
 PTB  HZ I        1649 19.53         6.4 0.16                           147 260 
                                                                                
