 2017  420 1429  9.3 L   6.781 -73.150140.5  RSN  9 0.6 1.8LRSN                1
 GAP=112        1.27       4.6     4.6  7.8  0.3403E+01  0.5749E+01  0.1187E+02E
 Epicentro: LOS SANTOS - SANTANDER                                             3
 ACTION:UPD 17-05-30 21:14 OP:jn   STATUS:               ID:20170420142909 L   I
 OLDACT:UP  17-04-20 21:46 OP:dani STATUS:               ID:20170420142741     3
 OLDACT:REG 17-04-20 19:56 OP:dani STATUS:               ID:20170420142741     3
 2017-04-20-1428-00M.COL___365                                                 6
 STAT SP IPHASW D HRMM SECON CODA AMPLIT PERI AZIMU VELO AIN AR TRES W  DIS CAZ7
 BAR2 EZ EP     D 1429 28.02                             171   -0.2310 21.2 190 
 BAR2 EZ ES       1429 42.44                             171   -0.5910 21.2 190 
 BAR2 EZ I        1429 44.22        16.3 0.16            169           21.2 190 
 BRR  HZ EP       1429 30.54                             151    0.6310 71.8 300 
 BRR  HE ES       1429 46.85                             151    0.8610 71.8 300 
 BRR  HZ I        1429 49.37        13.5 0.30            149           71.8 300 
 PAM  EZ EP       1429 30.95                             149   -0.1310 79.3  39 
 PAM  EN ES       1429 47.97                             149   -0.0910 79.3  39 
 PAM  EZ I        1429 50.37        13.0 0.66            153           79.3  39 
 RUS  HZ EP       1429 31.96                             143   -0.4210 98.5 176 
 RUS  HN ES       1429 50.71                             143    0.3210 98.5 176 
 RUS  HZ I        1429 51.76         7.5 0.34            144           98.5 176 
 PTB  HZ EP   3   1429 34.44                             131   -1.32 2  147 260 
 PTB  HN ES       1429 55.46                             131   -0.94 9  147 260 
 PTB  HZ I        1430  1.73         6.4 0.24            130            147 260 
 YPLC HZ EP       1429 39.24                             126    0.68 9  175 151 
 YPLC HN ES       1430  1.24                             126   -0.14 9  175 151 
 YPLC HZ I        1430  3.20         8.0 0.32            127            175 151 
 ZAR  HZ EP   3   1429 42.50                             121    1.06 2  204 293 
 ZAR  HE ES       1430  6.43                             121   -0.08 9  204 293 
 ZAR  HZ I        1430 14.54         8.9 0.42            121            204 293 
 NOR  HZ EP       1429 43.88                             117   -0.67 8  233 235 
 NOR  HE ES       1430 12.78                             117    0.73 8  233 235 
 NOR  HZ I        1430 17.40         6.6 0.48            117            233 235 
 CHI  HZ EP       1429 46.21                             116   -0.27 8  246 195 
 CHI  HN ES       1430 15.87                             116    0.40 8  246 195 
 CHI  HZ I        1430 21.28         3.2 0.18            117            246 195 
                                                                                
