 2013  420 1319 22.9 L   6.820 -73.084142.5  RSN  5 0.2 1.6LRSN                1
 GAP=143        0.59       3.3     4.9  5.3  0.1776E+01  0.2217E+01  0.6150E+01E
 Epicentro: LOS SANTOS - SANTANDER                                             3
 ACTION:UPD 13-05-22 14:39 OP:EP   STATUS:               ID:20130420131922 L   I
 2013-04-20-1318-45M.COL___212                                                 6
 STAT SP IPHASW D HRMM SECON CODA AMPLIT PERI AZIMU VELO AIN AR TRES W  DIS CAZ7
 BAR2 SZ EP       1319 42.24                             169   -0.0310 27.5 203 
 BAR2 SZ I        1319 58.15         4.3 0.30            166           27.5 203 
 GIR2 SZ EP       1319 42.03                             167   -0.1910 31.0 337 
 GIR2 SZ ES       1319 56.95                             167   -0.3010 31.0 337 
 PAM  SN ES       1320  1.44                             152    0.2010 71.4  36 
 BRR  HZ EP       1319 43.89                             150   -0.1510 76.3 295 
 BRR  HN ES       1320  0.78                             150    0.2910 76.3 295 
 BRR  HN I        1320  1.32        24.3 0.32            146           76.3 295 
 RUS  HZ EP       1319 46.76                             143    0.2410  103 180 
 RUS  HN ES       1320  4.84                             143   -0.0710  103 180 
 RUS  HN I        1320  6.04         5.0 0.70            136            103 180 
                                                                                
