 2012  320 1956 36.0 L   6.273 -73.758 99.2  RSN  5 0.4 1.3LRSN                1
 GAP=118        0.94       5.9     3.9 10.5 -0.6616E+01  0.3962E+01  0.2057E+01E
 ACTION:UP  12-03-31 23:21 OP:EP   STATUS:               ID:20120320195636 L   I
 2012-03-20-1950-00M.COL___202                                                 6
 STAT SP IPHASW D HRMM SECON CODA AMPLIT PERI AZIMU VELO SNR AR TRES W  DIS CAZ7
 BAR2 SZ ES   1   1957  6.67                             141     0.7 7   73  61 
 PTB  HZ EP   1   1956 53.38                             137     0.0 7   83 291 
 PTB  HN ES   1   1957  6.85                             137     0.0 7   83 291 
 PTB  HZ I        1957  7.60         7.5 0.15                            83 291 
 RUS  HZ EP       1956 54.38                             137     0.110   86 119 
 RUS  HZ I        1956 54.84         3.4 0.08                            86 119 
 RUS  HN ES   1   1957  8.16                             137    -0.3 7   86 119 
 NOR  SZ EP   1   1956 59.92                             120     0.4 7  146 238 
 NOR  SN ES   1   1957 17.40                             120    -0.5 7  146 238 
 PAM  SZ EP   1   1957  2.58                             117     0.3 7  166  45 
 PAM  SN ES   1   1957 21.90                             117    -0.9 7  166  45 
                                                                                
