 2016  820 1527 20.1 L   6.822 -73.113143.7  RSN 22 0.5 2.7LRSN                1
 GAP= 72        1.08       3.1     2.7  4.7 -0.1005E+01  0.2940E+01  0.1598E+01E
 Epicentro: LOS SANTOS - SANTANDER                                             3
 ACTION:UPD 16-10-29 15:37 OP:rebc STATUS:               ID:20160820152720 L   I
 OLDACT:UP  16-08-20 22:16 OP:edw  STATUS:               ID:20160820151743d    3
 OLDACT:DUP 16-08-20 22:06 OP:edw  STATUS:               ID:20160820151743d    3
 2016-08-20-1517-42M.COL___349                                                 6
 STAT SP IPHASW D HRMM SECON CODA AMPLIT PERI AZIMU VELO AIN AR TRES W  DIS CAZ7
 BAR2 EZ IP     C 1527 39.36                             169   -0.2210 26.6 197 
 BAR2 EZ ES       1527 54.83                             169    0.0810 26.6 197 
 BAR2 EZ I        1527 55.27       136.2 0.26                          26.6 197 
 PAM  EZ EP       1527 42.27                             152    0.3910 73.2  39 
 PAM  EN ES       1527 59.25                             152    0.4110 73.2  39 
 PAM  EZ I        1528  0.78        77.0 0.20                          73.2  39 
 BRR  HZ IP     C 1527 41.03                             151   -0.1510 73.3 295 
 BRR  HN ES       1527 58.06                             151    0.4710 73.3 295 
 BRR  HZ I        1528  2.15       109.1 0.34                          73.3 295 
 RUS  HZ EP       1527 43.20                             143   -0.6510  103 178 
 RUS  HE ES       1528  2.13                             143   -0.2110  103 178 
 RUS  HZ I        1528  4.03        56.7 0.40                           103 178 
 PTB  HZ EP   9   1527 45.95                             131   -1.35 0  152 258 
 PTB  HN ES       1528  7.24                             130    0.10 9  152 258 
 PTB  HZ I        1528  9.08        72.3 0.24                           152 258 
 TAM  HZ IP     D 1527 47.82                             131    0.44 9  152 106 
 TAM  HN ES       1528  8.23                             131   -0.41 9  152 106 
 TAM  HZ I        1528 10.03        32.6 0.28                           152 106 
 SPBC HZ EP       1527 48.37                             128   -0.50 9  167 219 
 SPBC HN ES       1528 11.31                             128    0.02 9  167 219 
 SPBC HZ I        1528 17.86        72.1 0.16                           167 219 
 ZAR  HZ EP       1527 53.71                             122    1.01 8  207 291 
 ZAR  HN ES       1528 17.35                             122   -0.75 8  207 291 
 ZAR  HZ I        1528 23.21        94.3 0.28                           207 291 
 NOR  HZ EP       1527 55.36                             118   -0.85 8  239 234 
 NOR  HN ES       1528 23.96                             118   -0.40 8  239 234 
 NOR  HZ I        1528 27.55        40.7 0.18                           239 234 
 CHI  HZ EP       1527 58.06                             116   -0.02 8  252 196 
 CHI  HN ES       1528 27.41                             116   -0.27 8  252 196 
 CHI  HZ I        1528 35.10        23.1 0.36                           252 196 
 ROSC BZ EP       1527 59.18                             116    0.60 8  257 211 
 ROSC BN ES       1528 29.36                             116    0.80 8  257 211 
 ROSC BZ I        1528 33.00        49.5 0.45                           257 211 
 HEL  HZ EP       1528  0.88                             114    0.18 7  276 255 
 HEL  HN ES       1528 32.50                             114    0.16 7  276 255 
 HEL  HZ I        1528 37.88        35.6 0.64                           276 255 
 URE  HZ EP       1528  0.91                             113   -0.47 7  286 291 
 URE  HN ES   4   1528 34.44                             113    0.89 0  286 291 
 URE  HZ I        1528 45.16        36.3 0.26                           286 291 
 SOCV BZ EP       1528  2.31                             112   -0.28 7  297  57 
 SOCV BN ES   4   1528 34.21                             112   -1.49 0  297  57 
 GUY2CHZ EP   2   1528  4.49                             112    0.35 4  306 235 
 GUY2CHN ES   2   1528 39.22                             112    0.75 4  306 235 
 GUY2CHZ I        1528 47.70        39.6 0.50                           306 235 
 VIL  EZ EP       1528  4.64                             111    0.83 7  307 192 
 VIL  EN ES       1528 37.41                             111   -0.48 7  307 192 
 PTGC HZ EP   4   1528  3.28                             111   -0.73 0  310 159 
 PTGC HN ES   4   1528 36.62                             111   -1.62 0  310 159 
 LL6C HZ EP   4   1528  4.34                             110   -1.14 0  323 357 
 LL6C HN ES   4   1528 41.82                             110    0.97 0  323 357 
 ELA  HZ EP   2   1528  7.78                             110    0.38 3  333 230 
 ELA  HE ES       1528 45.06                             110    0.80 7  333 230 
 ELA  HZ I        1528 54.03        23.7 0.44                           333 230 
 CBOC HZ EP       1528  7.36                             109   -0.09 7  338 252 
 CBOC HN ES       1528 44.39                             109    0.04 7  338 252 
 CBOC HZ I        1528 48.56         9.3 0.44                           338 252 
 DBB  EZ EP       1528  8.10                             109    0.18 7  343 274 
 DBB  EZ ES       1528 44.32                             109   -0.88 7  343 274 
 DBB  EZ I        1528 47.45        15.5 0.36                           343 274 
 ANIL HZ EP   4   1528 12.48                             108    2.12 0  362 225 
 ANIL HN ES   4   1528 51.86                             108    2.33 0  362 225 
 PRA  HZ EP   9   1528 13.75                             106   -0.29 0  396 210 
 PRA  HN ES       1528 56.13                             106    0.33 6  396 210 
 PRA  HZ I        1529  0.33        19.5 0.50                           396 210 
 SJC  HZ EP   4   1528 13.54                             105   -2.08 0  409 326 
 SJC  HN ES   4   1528 54.59                             105   -4.31 0  409 326 
 SJC  HZ I        1528 58.73        13.5 0.60                           409 326 
 CRJC HZ EP   9   1528 19.72                             103   -2.53 0  465   3 
 CRJC HE ES       1529  7.04                             104   -1.14 5  465   3 
                                                                                
