 2017  720 1850  5.4 L   6.831 -73.152145.0  RSN 16 0.5 2.5LRSN                1
 GAP= 64        1.03       3.5     2.8  5.5 -0.1317E+01  0.3146E+01  0.6275E+00E
 Epicentro: LOS SANTOS - SANTANDER                                             3
 ACTION:UPD 17-08-30 15:35 OP:rebc STATUS:               ID:20170720185005 L   I
 OLDACT:REG 17-07-20 20:15 OP:lv   STATUS:               ID:20170720184356     3
 2017-07-20-1848-00M.COL___395                                                 6
 STAT SP IPHASW D HRMM SECON CODA AMPLIT PERI AZIMU VELO AIN AR TRES W  DIS CAZ7
 BAR2 EZ IP     D 1850 24.92                             169   -0.0410 26.6 187 
 BAR2 EZ ES       1850 40.06                             169   -0.1910 26.6 187 
 BAR2 EZ I        1850 42.83        57.8 0.11            169           26.6 187 
 BRR  HZ IP     D 1850 26.80                             153    0.5110 68.9 296 
 BRR  HN ES   4   1850 44.24                             153    1.62 0 68.9 296 
 BRR  HZ I        1850 48.21        30.9 0.11            151           68.9 296 
 PAM  EZ EP       1850 27.76                             151    0.4010 75.2  42 
 PAM  EN ES       1850 45.03                             151    0.5110 75.2  42 
 PAM  EZ I        1850 46.59        21.7 0.32            155           75.2  42 
 RUS  HZ EP       1850 28.74                             143   -0.5410  104 176 
 RUS  HN ES   4   1850 47.06                             143   -0.89 0  104 176 
 RUS  HZ I        1850 50.48        30.4 0.14            145            104 176 
 PTB  HZ EP       1850 31.53                             132   -0.72 9  148 257 
 PTB  HN ES       1850 52.66                             132   -0.58 9  148 257 
 PTB  HZ I        1850 55.22        32.8 0.34            132            148 257 
 TAM  HZ EP       1850 32.98                             130   -0.14 9  157 106 
 TAM  HN ES       1850 54.94                             130    0.16 9  157 106 
 SPBC HZ EP       1850 33.80                             129   -0.20 9  165 218 
 SPBC HN ES       1850 56.43                             129    0.08 9  165 218 
 SPBC HZ I        1851  1.85       142.0 0.05            129            165 218 
 YPLC HZ IP     D 1850 35.11                             126   -0.31 9  180 152 
 YPLC HN ES       1850 58.70                             126   -0.18 9  180 152 
 ZAR  HZ EP       1850 37.84                             123    0.30 9  202 291 
 ZAR  HN ES       1851  2.67                             123    0.02 9  202 291 
 ZAR  HZ I        1851  9.08        30.7 0.25            123            202 291 
 TABC EZ EP   9   1850 42.51                             119    1.18 0  233 210 
 TABC EZ ES       1851 11.05                                    0.48 8  233 210 
 TABC EZ I        1851 18.01        28.2 0.36            120            233 210 
 NOR  HZ EP       1850 40.77                             118   -0.42 8  236 234 
 NOR  HN ES       1851  8.91                             118   -0.23 8  236 234 
 NOR  HZ I        1851 12.74        99.2 0.05            119            236 234 
 ROSC BZ EP   9   1850 45.08                             116    1.37 0  255 210 
 ROSC BN ES       1851 15.24                                    0.24 8  255 210 
 ROSC BZ I        1851 22.80         8.5 0.33            117            255 210 
 HEL  HZ EP   4   1850 46.82                             115    1.28 0  272 255 
 HEL  HN ES   4   1851 16.11                             115   -0.78 0  272 255 
 HEL  HZ I        1851 23.97        13.5 0.27            115            272 255 
 GUY2CHZ EP       1850 49.76                             112    0.68 7  303 234 
 GUY2CHN ES       1851 24.31                             112    1.12 7  303 234 
 GUY2CHZ I        1851 31.20        19.1 0.12                           303 234 
 LL6C HZ EP       1850 50.28                             111   -0.34 7  321 358 
 LL6C HN ES   4   1851 24.63                             111   -1.30 0  321 358 
 LL6C HZ I        1851 36.64         5.3 0.23            112            321 358 
 ORTC HZ EP       1850 59.82                             106    0.30 6  398 216 
 ORTC HN ES       1851 42.64                             106    0.87 6  398 216 
 ORTC HZ I        1851 48.86         6.7 0.22            107            398 216 
                                                                                
