 2011  320 1212 52.3 L   6.804 -73.089140.7  RSN  7 0.3 2.4LRSN                1
 GAP=140        0.76       3.5     7.3  7.4 -0.5997E+00  0.2511E+02  0.1512E+01E
 Epicentro: LOS SANTOS - SANTANDER                                             3
 ACTION:UP  11-06-16 14:34 OP:jfem STATUS:               ID:20110320121252 L   I
 2011-03-20-1200-00M.COL___138                                                 6
 STAT SP IPHASW D HRMM SECON CODA AMPLIT PERI AZIMU VELO SNR AR TRES W  DIS CAZ7
 BAR2 SZ IP       1213 11.16                             169    -0.210   26 204 
 BAR2 SZ ES   1   1213 25.96                             169    -0.3 7   26 204 
 BAR2 SZ I        1213 27.48        55.0 0.33                            26 204 
 RUS  HZ EP   1   1213 15.01                             143    -0.6 7  101 180 
 RUS  HN ES   1   1213 34.27                             143     0.5 7  101 180 
 RUS  HZ I        1213 35.49        21.1 0.22                           101 180 
 GRA  SZ EP   1   1213 17.01                             136     0.1 7  124  15 
 GRA  SZ ES   1   1213 36.38                             136     0.3 7  124  15 
 GRA  SZ I        1213 38.65        52.9 0.31                           124  15 
 YOP  SN ES       1213 44.86                             125     0.1 9  177 155 
 HEL  HZ EP   1   1213 33.29                             113     0.3 6  278 256 
 HEL  HZ I        1214  9.89        17.2 0.37                           278 256 
 RREF HZ EP   1   1213 39.23                             109     0.4 5  327 230 
 RREF HZ I        1214 23.42        15.9 0.32                           327 230 
 PRA  HZ EP   1   1213 45.86                             105    -0.2 4  396 210 
 PRA  HN ES   1   1214 28.03                             105     0.0 4  396 210 
                                                                                
