 2012  520 1346 47.8 L   6.782 -73.137140.4  RSN  9 0.5 1.9LRSN                1
 GAP=138        1.21       8.5     7.5 12.5 -0.8385E+01  0.2095E+02  0.3852E+02E
 Epicentro: LOS SANTOS - SANTANDER                                             3
 ACTION:UP  12-07-05 12:06 OP:pat  STATUS:               ID:20120520134647 L   I
 2012-05-20-1340-00M.COL___200                                                 6
 STAT SP IPHASW D HRMM SECON CODA AMPLIT PERI AZIMU VELO SNR AR TRES W  DIS CAZ7
 BAR2 SZ EP       1347  6.68                             171    -0.110   22 193 
 BAR2 SZ I        1347 23.85        20.9 0.28                            22 193 
 BRR  HZ EP       1347  8.69                             151     0.210   73 300 
 BRR  HZ I        1347 11.87        17.0 0.10                            73 300 
 BRR  HN ES   1   1347 25.09                             151     0.5 7   73 300 
 PAM  SZ EP       1347  9.59                             150     0.110   78  38 
 PAM  SN ES   1   1347 25.96                             150    -0.5 7   78  38 
 RUS  HZ EP       1347 11.25                             143     0.410   99 177 
 RUS  HN ES   2   1347 29.15                             143     0.3 5   99 177 
 RUS  HZ I        1347 30.89        14.1 0.32                            99 177 
 PTB  HZ EP       1347 13.47                             131    -0.9 9  148 260 
 PTB  HN ES   2   1347 34.68                             131    -0.5 5  148 260 
 PTB  HZ I        1347 37.07         8.2 0.66                           148 260 
 ZAR  HN ES   3   1347 45.05                             121    -0.2 2  206 293 
 ZAR  HZ I        1347 47.32         6.4 0.30                           206 293 
 NOR  SN ES   2   1347 50.43                             117    -0.4 4  234 235 
 CHI  HZ EP   2   1347 24.12                             116    -0.9 4  247 195 
 CHI  HE ES   3   1347 54.17                             116     0.1 2  247 195 
 HEL  HZ EP       1347 28.79                             114     1.0 8  272 256 
 HEL  HZ I        1348  5.55         4.2 0.38                           272 256 
                                                                                
