 2014  720 1842 55.5 L   6.863 -73.166142.3  RSN 23 0.6 2.7LRSN                1
 GAP= 68        1.31       2.7     3.3  5.3 -0.1365E+01  0.4258E+01  0.1982E+01E
 Epicentro: ZAPATOCA - SANTANDER                                               3
 ACTION:UPD 15-03-16 20:45 OP:nd   STATUS:               ID:20140720184255 L   I
 OLDACT:REG 14-07-20 21:22 OP:stll STATUS:               ID:20140720183819     3
 2014-07-20-1838-19M.COL___263                                                 6
 STAT SP IPHASW D HRMM SECON CODA AMPLIT PERI AZIMU VELO AIN AR TRES W  DIS CAZ7
 BAR2 SZ IP     D 1843 15.08                             168    0.2010 30.0 183 
 BAR2 SZ ES       1843 30.08                             168    0.0810 30.0 183 
 BAR2 SZ I        1843 31.20        88.6 0.40            167           30.0 183 
 BRR  HZ IP     C 1843 16.77                             154    0.7710 66.0 294 
 BRR  HN ES       1843 32.25                             154    0.2710 66.0 294 
 BRR  HZ I        1843 37.68        61.0 0.28            151           66.0 294 
 PAM  SZ EP       1843 17.79                             151    0.6510 73.7  44 
 PAM  SN ES       1843 34.41                             151    0.4010 73.7  44 
 PAM  SZ I        1843 36.92        78.4 0.46            156           73.7  44 
 RUS  HZ EP     D 1843 19.05                             141   -0.4110  108 175 
 RUS  HN ES       1843 37.26                             141   -0.8810  108 175 
 RUS  HZ I        1843 39.54        33.4 0.34            143            108 175 
 PTB  HZ EP       1843 21.68                             131   -0.45 9  147 256 
 PTB  HN ES       1843 42.49                             131   -0.41 9  147 256 
 PTB  HZ I        1843 45.19        74.9 0.24            131            147 256 
 OCA  HZ EP       1843 23.07                             130    0.19 9  153 354 
 OCA  HN ES       1843 44.27                             130    0.05 9  153 354 
 OCA  HZ I        1843 49.51        52.5 0.28            132            153 354 
 TAM  HZ EP       1843 23.51                             129    0.20 9  159 107 
 TAM  HZ I        1843 23.95        45.6 0.40            134            159 107 
 TAM  HE ES       1843 44.55                             129   -0.44 9  159 107 
 SPBC HZ EP       1843 24.01                             127   -0.13 9  167 217 
 SPBC HE ES       1843 46.38                             127   -0.09 9  167 217 
 SPBC HZ I        1843 51.29        70.1 0.28            128            167 217 
 ZAR  HZ EP       1843 27.31                             122    0.06 9  199 291 
 ZAR  HN ES       1843 52.45                             122    0.45 9  199 291 
 ZAR  HZ I        1844  3.11        48.8 0.20            123            199 291 
 SML  HZ EP       1843 31.03                             117   -0.12 8  236 335 
 SML  HN ES       1843 58.48                             117   -0.47 8  236 335 
 SML  HZ I        1844  2.40        62.6 0.36            119            236 335 
 CHI  HZ EP       1843 33.52                             116   -0.18 8  255 194 
 CHI  HZ I        1843 35.89        20.0 0.20            117            255 194 
 CHI  HE ES       1844  2.79                             116   -0.69 8  255 194 
 ROSC BZ EP       1843 34.99                             115    1.01 8  258 210 
 ROSC BN ES       1844  4.34                             115    0.36 8  258 210 
 ROSC BZ I        1844 10.27        35.9 0.35            117            258 210 
 HEL  HZ EP       1843 35.77                             114    0.27 8  272 254 
 HEL  HN ES       1844  6.53                             114   -0.17 8  272 254 
 HEL  HZ I        1844 13.15        34.1 0.34            115            272 254 
 SOCV BZ EP       1843 37.99                             111   -0.20 7  299  58 
 GUY2CHZ EP       1843 40.22                             111    1.01 7  303 233 
 GUY2CHN ES       1844 13.25                             111   -0.05 7  303 233 
 GUY2CHZ I        1844 21.51        27.3 0.58                           303 233 
 VIL  SZ EP       1843 39.01                             111   -0.49 7  310 191 
 RREF HZ EP       1843 43.39                             110    1.56 7  325 228 
 RREF HN ES       1844 17.52                             110   -0.45 7  325 228 
 RREF HZ I        1844 25.42        18.0 0.36            111            325 228 
 CBOC HZ EP       1843 42.57                             109    0.28 7  334 251 
 CBOC HN ES       1844 17.77                             109   -1.01 7  334 251 
 CBOC HZ I        1844 30.97         9.2 0.60            110            334 251 
 TOL  SZ EP       1843 45.03                             108    1.01 6  347 224 
 TOL  SN ES       1844 22.57                             108    0.70 6  347 224 
 ANIL HZ EP       1843 45.07                             108   -0.51 6  361 223 
 ANIL HE ES       1844 24.86                             108    0.22 6  361 223 
 ANIL HZ I        1844 38.52        55.3 0.30            109            361 223 
 PRA  HZ EP       1843 48.95                             106   -0.55 6  397 209 
 PRA  HN ES       1844 31.01                             106   -0.60 6  397 209 
 PRA  HZ I        1844 37.36        18.1 0.24            107            397 209 
 ORTC HZ EP       1843 49.57                             105   -0.25 6  400 215 
 ORTC HZ I        1843 51.22        12.5 0.20            107            400 215 
 ORTC HN ES       1844 32.58                             105    0.40 6  400 215 
 SJC  HZ EP       1843 49.20                             105   -0.92 6  402 327 
 SJC  HE ES       1844 30.17                             105   -2.55 6  402 327 
 SJC  HZ I        1844 33.68        10.5 0.42            107            402 327 
                                                                                
