 2017  720 1706 15.6 L   6.968 -73.181145.2  RSN  5 0.2 1.4LRSN                1
 GAP=125        0.55       3.0     2.5  4.8  0.5063E+00  0.1972E+01  0.2647E+01E
 Epicentro: GIRON - SANTANDER                                                  3
 ACTION:UPD 17-08-30 15:35 OP:rebc STATUS:               ID:20170720170615 L   I
 OLDACT:REG 17-07-20 20:07 OP:lv   STATUS:               ID:20170720165740     3
 2017-07-20-1658-00M.COL___395                                                 6
 STAT SP IPHASW D HRMM SECON CODA AMPLIT PERI AZIMU VELO AIN AR TRES W  DIS CAZ7
 BRR  HZ EP       17 6 36.59                             156    0.4110 60.6 285 
 BRR  HE ES       17 6 52.21                             156    0.0210 60.6 285 
 PAM  EZ EP       17 6 37.08                             154   -0.1510 67.2  52 
 PAM  EN ES       17 6 54.01                             154   -0.0610 67.2  52 
 PAM  EZ I        17 6 55.97         7.9 0.11            155           67.2  52 
 RUS  HZ EP       17 6 40.56                             139   -0.2210  119 175 
 RUS  HN ES       17 7  0.55                             139    0.1610  119 175 
 PTB  HZ EP       17 6 42.74                             132    0.08 9  149 252 
 PTB  HN ES       17 7  3.48                             132   -0.24 9  149 252 
 PTB  HZ I        17 7  6.03         2.4 0.10            133            149 252 
 ZAR  HE ES       17 7 11.47                             124   -0.04 9  194 287 
                                                                                
