 2011 1020 1921 45.8 L   6.774 -73.103144.0  RSN  4 0.2 1.7LRSN                1
 GAP=143        0.51       3.6     5.4  5.6 -0.4174E+00 -0.2055E+01  0.7148E+00E
 Epicentro: LOS SANTOS - SANTANDER                                             3
 ACTION:UPD 12-07-13 16:05 OP:ep   STATUS:               ID:20111020192145 L   I
 2011-10-20-1919-26S.COL___170                                                 6
 STAT SP IPHASW D HRMM SECON CODA AMPLIT PERI AZIMU VELO AIN AR TRES W  DIS CAZ7
 BAR2 SZ EP   1   1922  4.81                             171   -0.38 7 21.9 204 
 BAR2 SZ ES   1   1922 20.00                             171   -0.31 7 21.9 204 
 BAR2 SZ I        1922 21.89        13.1 0.17                          21.9 204 
 BRR  HZ EP   1   1922  7.06                             150   -0.02 7 76.7 299 
 BRR  HN ES   1   1922 23.87                             150    0.19 7 76.7 299 
 BRR  HZ I        1922 26.09        13.2 0.15                          76.7 299 
 PAM  SZ EP   1   1922  8.02                             151    0.22 7 76.9  35 
 PAM  SN ES   1   1922 24.97                             151    0.02 7 76.9  35 
 RUS  HZ EP   1   1922  9.13                             144   -0.02 7 97.4 179 
 RUS  HN ES   1   1922 27.68                             144    0.31 7 97.4 179 
 RUS  HZ I        1922 29.05         3.8 0.36                          97.4 179 
                                                                                
