 2017  420 1558  4.4 L   6.809 -73.173145.1  RSN  8 0.6 1.6LRSN                1
 GAP=133        1.35       6.0     5.5  8.5 -0.5345E+00  0.1117E+02  0.1224E+02E
 Epicentro: LOS SANTOS - SANTANDER                                             3
 ACTION:UPD 17-05-30 21:14 OP:jn   STATUS:               ID:20170420155804 L   I
 OLDACT:UP  17-04-20 22:25 OP:dani STATUS:               ID:20170420155738     3
 OLDACT:UP  17-04-20 22:24 OP:dani STATUS:               ID:20170420155738     3
 OLDACT:REG 17-04-20 20:03 OP:dani STATUS:               ID:20170420155738     3
 2017-04-20-1558-00M.COL___365                                                 6
 STAT SP IPHASW D HRMM SECON CODA AMPLIT PERI AZIMU VELO AIN AR TRES W  DIS CAZ7
 BAR2 EZ EP       1558 23.60                             170   -0.3910 24.0 182 
 BAR2 EZ ES       1558 38.58                             170   -0.6710 24.0 182 
 BRR  HZ EP       1558 25.74                             153    0.4110 68.0 299 
 BRR  HN ES       1558 42.29                             153    0.6610 68.0 299 
 BRR  HZ I        1558 49.46        10.3 0.32            153           68.0 299 
 PAM  EZ EP       1558 26.76                             150    0.1110 78.6  42 
 PAM  EE ES       1558 44.21                             150    0.2410 78.6  42 
 PAM  EZ I        1558 45.99         7.1 0.43            155           78.6  42 
 RUS  HZ EP       1558 28.05                             143   -0.1610  102 174 
 RUS  HN ES       1558 47.08                             143    0.3310  102 174 
 RUS  HZ I        1558 47.90         6.3 0.34            145            102 174 
 PTB  HZ EP       1558 30.42                             132   -0.67 9  145 258 
 PTB  HE ES       1558 50.97                             132   -0.92 9  145 258 
 PTB  HZ I        1558 53.43         5.3 0.58            133            145 258 
 ZAR  HN ES       1559  1.38                             123   -0.14 9  201 292 
 NOR  HZ EP       1558 40.50                             118    0.58 8  233 234 
 NOR  HN ES       1559  8.72                             118    1.12 8  233 234 
 NOR  HZ I        1559 15.81         3.7 0.26            120            233 234 
 CHI  HZ EP       1558 41.78                             117   -0.33 8  249 194 
 CHI  HE ES   3   1559 13.03                             117    1.52 2  249 194 
 CHI  HZ I        1559 14.84         2.0 0.33            119            249 194 
                                                                                
