 2012 1220 1009 53.1 L   6.808 -73.160146.5  RSN 13 0.4 2.3LRSN                1
 GAP= 70        0.76       2.7     3.2  4.8  0.7116E+00  0.3379E+01  0.1580E+01E
 Epicentro: LOS SANTOS - SANTANDER                                             3
 ACTION:UPD 13-01-04 14:29 OP:ep   STATUS:               ID:20121220100953 L   I
 2012-12-20-1008-51M.COL___192                                                 6
 STAT SP IPHASW D HRMM SECON CODA AMPLIT PERI AZIMU VELO AIN AR TRES W  DIS CAZ7
 BAR2 SZ EP       1010 12.87                             170    0.0010 23.9 186 
 BAR2 SZ ES   1   1010 28.40                             170    0.14 7 23.9 186 
 BAR2 SZ I        1010 29.61        84.9 0.42                          23.9 186 
 GIR2 SZ EP   1   1010 12.97                             168    0.10 7 30.2 353 
 GIR2 SZ ES   1   1010 28.64                             168    0.38 7 30.2 353 
 GIR2 SZ I        1010 35.84        25.8 0.30                          30.2 353 
 BRR  HZ EP       1010 14.77                             153    0.5010 69.4 299 
 BRR  HE ES   4   1010 32.22                             153    1.47 0 69.4 299 
 BRR  HZ I        1010 34.70        34.9 0.18                          69.4 299 
 PAM  SZ EP   1   1010 15.75                             151    0.30 7 77.8  41 
 PAM  SN ES   1   1010 33.07                             151    0.21 7 77.8  41 
 PAM  SZ I        1010 34.72        17.7 0.33                          77.8  41 
 RUS  HZ EP   1   1010 17.03                             144    0.00 7  102 175 
 RUS  HN ES   1   1010 35.02                             144   -0.65 7  102 175 
 RUS  HZ I        1010 36.56        31.4 0.38                           102 175 
 PTB  HZ EP   1   1010 19.72                             132   -0.32 7  146 258 
 PTB  HN ES   1   1010 40.33                             132   -0.69 7  146 258 
 PTB  HZ I        1010 46.82        22.3 0.16                           146 258 
 TAM  HZ IP     C 1010 21.06                             130    0.02 9  157 105 
 TAM  HN ES   1   1010 42.57                             130   -0.23 7  157 105 
 TAM  HZ I        1010 43.92        11.4 0.44                           157 105 
 OCA  HZ EP   1   1010 20.49                             130   -0.92 7  159 354 
 OCA  HN ES   1   1010 43.01                             130   -0.45 7  159 354 
 ZAR  HZ EP   1   1010 25.70                             123    0.25 6  202 292 
 ZAR  HE ES   1   1010 50.82                             123    0.17 6  202 292 
 ZAR  HZ I        1010 57.97        41.0 0.42                           202 292 
 SML  HZ EP   1   1010 29.49                             118   -0.16 6  242 336 
 SML  HN ES   1   1010 58.27                             118    0.14 6  242 336 
 CHI  HZ EP   1   1010 30.90                             117   -0.02 6  249 195 
 CHI  HN ES   1   1011  0.53                             117    0.14 6  249 195 
 CHI  HZ I        1011  5.79         7.3 0.44                           249 195 
 ROSC BZ EP   1   1010 32.05                             117    0.76 6  253 211 
 ROSC BZ I        1011 10.63        20.9 0.50                           253 211 
 PRA  HZ EP   1   1010 46.24                             107   -0.44 4  392 209 
 PRA  HN ES   1   1011 28.82                             107    0.38 4  392 209 
 PRA  HZ I        1011 34.70        10.1 0.26                           392 209 
                                                                                
