 2011  720 1044 15.6 L   6.771 -73.089142.2  RSN  6 0.2 1.7LRSN                1
 GAP=162        0.43       2.7     5.7  5.4 -0.2288E+01 -0.1172E+02 -0.3599E+01E
 Epicentro: LOS SANTOS - SANTANDER                                             3
 ACTION:UPD 12-07-25 14:02 OP:epov STATUS:               ID:20110720104415 L   I
 2011-07-20-1040-00M.COL___136                                                 6
 STAT SP IPHASW D HRMM SECON CODA AMPLIT PERI AZIMU VELO AIN AR TRES W  DIS CAZ7
 BAR2 SZ EP   1   1044 34.64                             171   -0.14 7 22.3 208 
 BAR2 SZ ES   1   1044 49.38                             171   -0.36 7 22.3 208 
 BAR2 SZ I        1044 51.02        17.0 0.37                          22.3 208 
 BTL  SZ EP   1   1044 34.79                             169   -0.06 7 25.6 310 
 BRR  HE ES   1   1044 53.45                             149    0.14 7 78.3 298 
 RUS  HN ES   1   1044 57.09                             144    0.29 7 97.1 180 
 RUS  HZ I        1044 57.87         4.1 0.26                          97.1 180 
 BRI  SZ EP   1   1044 39.32                             140    0.09 7  109  17 
 BRI  SZ I        1044 41.61         6.1 0.45                           109  17 
 BRI  SZ ES   2   1044 57.89                             140    0.23 5  109  17 
 GRA  SZ EP   1   1044 40.56                             136   -0.08 7  127  14 
 GRA  SZ I        1044 41.97        10.3 0.22                           127  14 
 GRA  SZ ES   1   1045  0.20                             136    0.02 7  127  14 
                                                                                
