 2016  620 1303  6.7 L   6.774 -73.173140.1  RSN  7 0.2 1.8LRSN                1
 GAP=134        0.45       2.3     2.2  3.2 -0.6345E+00  0.2368E+01  0.4105E+00E
 Epicentro: LOS SANTOS - SANTANDER                                             3
 ACTION:UPD 16-07-21 22:20 OP:rebc STATUS:               ID:20160620130306 L   I
 OLDACT:UP  16-06-20 21:25 OP:mh   STATUS:               ID:20160620125746     3
 OLDACT:UP  16-06-20 21:25 OP:mh   STATUS:               ID:20160620125746     3
 OLDACT:UP  16-06-20 21:24 OP:mh   STATUS:               ID:20160620125746     3
 OLDACT:REG 16-06-20 20:32 OP:mh   STATUS:               ID:20160620125746     3
 2016-06-20-1257-46M.COL___352                                                 6
 STAT SP IPHASW D HRMM SECON CODA AMPLIT PERI AZIMU VELO AIN AR TRES W  DIS CAZ7
 BAR2 EZ EP       13 3 25.72                             171    0.1010 20.1 183 
 BAR2 EZ ES       13 3 40.30                             171   -0.0510 20.1 183 
 BAR2 EZ I        13 3 41.70        15.0 0.21                          20.1 183 
 BRR  HZ EP       13 3 27.20                             152    0.0010 70.0 302 
 BRR  HZ I        13 3 41.38        15.7 0.32                          70.0 302 
 BRR  HN ES   1   13 3 43.25                             152    0.08 7 70.0 302 
 PAM  EZ EP       13 3 28.64                             148    0.0410 81.5  40 
 PAM  EN ES       13 3 45.49                             148   -0.1810 81.5  40 
 PAM  EZ I        13 3 47.56        12.7 0.48                          81.5  40 
 RUS  HZ EP       13 3 29.95                             143    0.2110 98.0 174 
 RUS  HN ES   1   13 3 47.82                             143    0.14 7 98.0 174 
 RUS  HZ I        13 3 49.82         8.3 0.42                          98.0 174 
 PTB  HZ EP       13 3 32.57                             131   -0.35 9  144 260 
 PTB  HN ES   1   13 3 53.16                             131   -0.18 7  144 260 
 PTB  HZ I        13 3 56.38         6.8 0.12                           144 260 
 ZAR  HZ EP   1   13 3 38.85                             121    0.22 6  202 293 
 ZAR  HN ES   1   13 4  3.88                             121    0.36 6  202 293 
 ZAR  HZ I        13 4 10.62         5.8 0.53                           202 293 
 NOR  HZ EP   1   13 3 41.49                             118   -0.20 6  231 235 
 NOR  HE ES   1   13 4  8.90                             118   -0.06 6  231 235 
                                                                                
