 2013  320 1031 45.1 L   6.754 -73.138140.0  RSN  4 0.3 1.4LRSN                1
 GAP=235        0.61       6.1     6.5  8.5  0.2353E+02 -0.7198E-01 -0.9033E+01E
 Epicentro: LOS SANTOS - SANTANDER                                             3
 ACTION:UPD 13-04-09 14:03 OP:ep   STATUS:               ID:20130320103145 L   I
 2013-03-20-1030-00M.COL___241                                                 6
 STAT SP IPHASW D HRMM SECON CODA AMPLIT PERI AZIMU VELO AIN AR TRES W  DIS CAZ7
 BRR  HZ EP       1032  6.02                             150    0.2210 74.5 302 
 BRR  HN ES   1   1032 21.62                             150   -0.34 7 74.5 302 
 BRR  HN I        1032 26.80         5.2 0.16            143           74.5 302 
 RUS  HZ EP   2   1032  7.85                             144   -0.04 5 95.5 176 
 RUS  HN ES   1   1032 25.82                             144    0.13 7 95.5 176 
 RUS  HN I        1032 28.33         2.5 0.20            146           95.5 176 
 PTB  HZ EP   1   1032 11.03                             131   -0.54 7  148 261 
 PTB  HN ES   1   1032 32.29                             131    0.05 7  148 261 
 PTB  HN I        1032 37.80         4.5 0.62            127            148 261 
 ZAR  HN ES   1   1032 43.04                             121    0.36 6  207 293 
 ZAR  HN I        1032 57.93         3.7 0.14            119            207 293 
                                                                                
