 2017  520 1546 47.3 L   6.810 -73.153154.5  RSN  5 0.3 1.6LRSN                1
 GAP=238        0.70       5.1     6.9  8.7 -0.5417E+01 -0.1727E+02  0.2764E+02E
 Epicentro: LOS SANTOS - SANTANDER                                             3
 ACTION:UPD 17-06-16 13:37 OP:jn   STATUS:               ID:20170520154647 L   I
 OLDACT:REG 17-05-20 21:28 OP:lv   STATUS:               ID:20170520153728     3
 2017-05-20-1538-00M.COL___362                                                 6
 STAT SP IPHASW D HRMM SECON CODA AMPLIT PERI AZIMU VELO AIN AR TRES W  DIS CAZ7
 BRR  HZ EP       1547  9.63                             154    0.3510 70.0 298 
 BRR  HE ES       1547 26.23                             154   -0.2410 70.0 298 
 BRR  HN ES       1547 27.02                             155           70.0 298 
 BRR  HZ I        1547 32.76         9.6 0.25            161           70.0 298 
 RUS  HZ EP       1547 11.96                             145    0.0110  102 176 
 SPBC HZ EP       1547 16.65                             131    0.19 9  164 219 
 SPBC HN ES   4   1547 37.98                             131   -1.27 0  164 219 
 SPBC HZ I        1547 42.14                             137            164 219 
 NOR  HZ EP       1547 22.89                             120   -0.61 8  235 234 
 NOR  HN ES       1547 52.08                             120    0.31 8  235 234 
 CHI  HZ EP       1547 25.44                             119   -0.10 8  249 195 
 CHI  HN ES       1547 55.36                             119   -0.04 8  249 195 
 CHI  HZ I        1548  0.32         2.3 0.19            124            249 195 
                                                                                
