 2017  220 1735 26.7 L   6.828 -73.160146.0  RSN  9 0.5 1.7LRSN                1
 GAP=133        1.16       5.0     4.7  6.7  0.4501E+00  0.8807E+01  0.7155E+01E
 Epicentro: LOS SANTOS - SANTANDER                                             3
 ACTION:UPD 17-05-24 15:38 OP:jn   STATUS:               ID:20170220173526 L   I
 OLDACT:UP  17-02-21 00:14 OP:cog  STATUS:               ID:20170220172750     3
 OLDACT:REG 17-02-20 22:08 OP:cog  STATUS:               ID:20170220172750     3
 2017-02-20-1728-00M.COL___376                                                 6
 STAT SP IPHASW D HRMM SECON CODA AMPLIT PERI AZIMU VELO AIN AR TRES W  DIS CAZ7
 BAR2 EZ EP       1735 46.29                             169   -0.1410 26.2 185 
 BAR2 EZ ES       1736  1.92                             169    0.1110 26.2 185 
 BAR2 EZ I        1736  3.46         9.1 0.09            165           26.2 185 
 BRR  HZ EP       1735 47.99                             153    0.2610 68.4 297 
 BRR  HE ES       1736  4.93                             153    0.8010 68.4 297 
 BRR  HZ I        1736  7.81        12.7 0.28            153           68.4 297 
 PAM  EZ EP       1735 49.12                             151    0.2410 76.1  42 
 PAM  EN ES       1736  6.03                             151   -0.1410 76.1  42 
 PAM  EZ I        1736  7.97         9.9 0.52            158           76.1  42 
 RUS  HZ EP       1735 50.52                             143   -0.2010  104 175 
 RUS  HN ES       1736  9.02                             143   -0.4210  104 175 
 RUS  HZ I        1736 11.42         4.6 0.40            142            104 175 
 PTB  HZ EP       1735 52.88                             132   -0.74 9  147 258 
 PTB  HN ES       1736 14.09                             132   -0.51 9  147 258 
 PTB  HZ I        1736 19.74         7.5 0.17            132            147 258 
 ZAR  HZ EP       1735 58.99                             123    0.08 9  201 292 
 ZAR  HN ES       1736 23.29                             123   -0.73 9  201 292 
 NOR  HZ EP       1736  2.92                             118    0.41 8  235 234 
 NOR  HN ES       1736 31.32                             118    0.88 8  235 234 
 NOR  HZ I        1736 39.17         4.4 0.18            119            235 234 
 CHI  HZ EP       1736  4.67                             117   -0.03 8  251 195 
 CHI  HE ES   4   1736 30.68                             117   -3.65 0  251 195 
 CHI  HZ I        1736 40.35         2.6 0.34            117            251 195 
 PRA  HZ EP       1736 21.18                             106    0.71 6  394 209 
 PRA  HE ES   4   1737  3.94                             106    1.55 0  394 209 
 PRA  HZ I        1737 11.41         2.5 0.30            107            394 209 
                                                                                
