 2016 1020 1759  0.8 L   6.787 -73.127148.0  RSN  7 0.3 1.6LRSN                1
 GAP=139        0.68       3.5     3.5  4.9 -0.2135E+01  0.3639E+00  0.7503E+00E
 Epicentro: LOS SANTOS - SANTANDER                                             3
 ACTION:UPD 16-11-09 19:21 OP:rebc STATUS:               ID:20161020175900 L   I
 OLDACT:REG 16-10-21 02:24 OP:ar   STATUS:               ID:20161020175745     3
 2016-10-20-1758-00M.COL___344                                                 6
 STAT SP IPHASW D HRMM SECON CODA AMPLIT PERI AZIMU VELO AIN AR TRES W  DIS CAZ7
 BAR2 EZ EP       1759 20.51                             171   -0.1410 22.4 196 
 BAR2 EZ ES       1759 35.75                             171   -0.4010 22.4 196 
 BAR2 EZ I        1759 37.10        14.7 0.28            177           22.4 196 
 BRR  HZ EP       1759 22.31                             152    0.0110 73.7 299 
 BRR  HN ES       1759 39.49                             152    0.4010 73.7 299 
 BRR  HZ I        1759 43.35        14.6 0.34            144           73.7 299 
 PAM  EZ EP       1759 23.32                             151    0.1110 77.2  38 
 PAM  EZ I        1759 46.57         3.2 0.36            136           77.2  38 
 RUS  HZ EP       1759 24.62                             145   -0.0110 99.0 177 
 RUS  HE ES       1759 43.31                             145    0.0710 99.0 177 
 RUS  HZ I        1759 44.58         5.0 0.26            144           99.0 177 
 PTB  HZ EP   2   1759 27.23                             132   -0.84 5  150 260 
 PTB  HE ES       1759 49.08                             132   -0.29 9  150 260 
 PTB  HZ I        1759 54.35         3.9 0.72            127            150 260 
 SPBC HZ EP       1759 29.63                             129    0.18 9  163 220 
 SPBC HE ES       1759 52.25                             129    0.42 9  163 220 
 SPBC HZ I        1759 54.27         6.2 0.64            126            163 220 
 NOR  HZ EP   2   1759 36.74                             119    0.02 4  236 235 
 NOR  HE ES       18 0  4.58                             119   -0.18 8  236 235 
 NOR  HZ I        18 0 10.17         2.4 0.14            114            236 235 
                                                                                
