 2010  920 1200 58.5 L   6.507 -73.487107.1  RSN  7 0.4 1.8LRSN                1
 GAP= 78        0.95       5.5     7.0  9.1  0.3433E+01  0.2424E+02  0.1230E+02E
 Epicentro: SIMACOTA - SANTANDER                                               3
 ACTION:UP  11-02-18 11:04 OP:tino STATUS:               ID:20100920120058 L   I
 2010-09-20-1156-29S.COL___121                                                 6
 STAT SP IPHASW D HRMM SECON CODA AMPLIT PERI AZIMU VELO SNR AR TRES W  DIS CAZ7
 BAR2 SZ IP       12 1 13.93                             161     0.110   35  74 
 BAR2 SZ I        12 1 14.24        48.0 0.20                            35  74 
 BAR2 SZ ES   1   12 1 26.03                             161     0.2 7   35  74 
 BRR  HZ EP   1   12 1 14.80                             144    -0.8 7   71 339 
 BRR  HZ I        12 1 23.01        24.1 0.10                            71 339 
 BRR  HN ES   1   12 1 28.84                             144    -0.1 7   71 339 
 RUS  HZ EP   1   12 1 16.86                             140    -0.2 7   81 147 
 RUS  HE ES   2   12 1 31.74                             140     0.2 5   81 147 
 RUS  HZ I        12 1 33.70         9.4 0.46                            81 147 
 GUE  SZ EP   1   12 1 24.01                             120    -0.1 7  159  23 
 GUE  SZ I        12 1 51.48         4.3 0.08                           159  23 
 GRA  SZ ES   2   12 1 46.79                             118     0.8 5  170  26 
 GRA  SZ I        12 1 48.63        12.2 0.45                           170  26 
 CHI  HZ EP   1   12 1 29.56                             112    -0.3 6  209 187 
 CHI  HZ I        12 1 31.55         3.7 0.44                           209 187 
 HEL  HZ EP   1   12 1 32.78                             110     0.8 6  229 261 
 HEL  HN ES   2   12 1 58.29                             110     0.2 4  229 261 
 HEL  HZ I        12 2  4.98         4.6 0.60                           229 261 
                                                                                
