 2014  120 1116 15.6 L   6.829 -73.154141.2  RSN 20 0.5 2.3LRSN 2.8WRSN        1
 SPEC AVERAGE  MO 13.3 ST121.2 OM  1.3 f0 14.7 R0.4003 AL 0.00 WI 20.0 MW  2.8 3
 SPEC SD       MO  0.3 ST213.6 OM  0.3 f0 13.3 R0.3736 AL      WI      MW  0.2 3
 GAP= 70        1.13       2.6     2.9  5.1 -0.1744E+01  0.3774E+01 -0.1129E-01E
 Epicentro: LOS SANTOS - SANTANDER                                             3
 SPEC RUS HH Z MO 12.8 ST  5.9 OM  0.9 f0 11.3 R0.1703 AL-0.00 WI 20.0 MW  2.5 3
 SPEC RUS HH Z T111655 K 0.050 GD  175 VS 5.20 DE 3.20 Q0750.0 QA 1.50 VS 5.20 3
 SPEC PTB HH Z MO 13.2 ST601.8 OM  1.2 f0 40.0 R0.0481 AL-0.00 WI 20.0 MW  2.7 3
 SPEC PTB HH Z T1117 1 K 0.050 GD  203 VS 5.20 DE 3.20 Q0750.0 QA 1.50 VS 5.20 3
 SPEC OCA HH Z MO 13.2 ST 15.2 OM  1.2 f0 11.6 R0.1659 AL-0.00 WI 20.0 MW  2.7 3
 SPEC OCA HH Z T1117 2 K 0.050 GD  211 VS 5.20 DE 3.20 Q0750.0 QA 1.50 VS 5.20 3
 SPEC SPBCHH Z MO 13.3 ST145.6 OM  1.3 f0 22.6 R0.0851 AL-0.00 WI 20.0 MW  2.8 3
 SPEC SPBCHH Z T1117 4 K 0.050 GD  217 VS 5.20 DE 3.20 Q0750.0 QA 1.50 VS 5.20 3
 SPEC ZAR HH Z MO 13.2 ST578.0 OM  1.1 f0 40.0 R0.0481 AL-0.00 WI 20.0 MW  2.7 3
 SPEC ZAR HH Z T111711 K 0.050 GD  246 VS 5.20 DE 3.20 Q0750.0 QA 1.50 VS 5.20 3
 SPEC NOR HH Z MO 13.1 ST 67.0 OM  1.0 f0 20.3 R0.0948 AL-0.00 WI 20.0 MW  2.7 3
 SPEC NOR HH Z T111717 K 0.050 GD  275 VS 5.20 DE 3.20 Q0750.0 QA 1.50 VS 5.20 3
 SPEC SML HH Z MO 13.2 ST  1.0 OM  1.1 f0 4.65 R0.4138 AL-0.00 WI 20.0 MW  2.8 3
 SPEC SML HH Z T111718 K 0.050 GD  278 VS 5.20 DE 3.20 Q0750.0 QA 1.50 VS 5.20 3
 SPEC CHI HH Z MO 13.3 ST0.289 OM  1.2 f0 2.79 R0.6896 AL-0.00 WI 20.0 MW  2.8 3
 SPEC CHI HH Z T111720 K 0.050 GD  287 VS 5.20 DE 3.20 Q0750.0 QA 1.50 VS 5.20 3
 SPEC ROSCBH Z MO 13.8 ST0.202 OM  1.7 f0 1.68 R1.1452 AL-0.00 WI 20.0 MW  3.2 3
 SPEC ROSCBH Z T111722 K 0.050 GD  291 VS 5.20 DE 3.20 Q0750.0 QA 1.50 VS 5.20 3
 SPEC URE HH Z MO 13.1 ST 38.4 OM  0.9 f0 17.4 R0.1106 AL-0.00 WI 20.0 MW  2.7 3
 SPEC URE HH Z T111724 K 0.050 GD  315 VS 5.20 DE 3.20 Q0750.0 QA 1.50 VS 5.20 3
 SPECGUY2CHH Z MO 13.6 ST  0.2 OM  1.4 f0 2.20 R 0.876 AL-0.00 WI 20.0 MW  3.0 3
 SPECGUY2CHH Z T111730 K 0.050 GD333.4 VS 5.20 DE 3.20 Q0750.0 QA 1.50 VS 5.20 3
 SPEC RREFHH Z MO 13.5 ST0.246 OM  1.3 f0 2.29 R0.8402 AL-0.00 WI 20.0 MW  3.0 3
 SPEC RREFHH Z T111736 K 0.050 GD  352 VS 5.20 DE 3.20 Q0750.0 QA 1.50 VS 5.20 3
 SPEC TOL SH Z MO 13.6 ST0.199 OM  1.4 f0 1.94 R0.9918 AL-0.00 WI 20.0 MW  3.0 3
 SPEC TOL SH Z T111740 K 0.050 GD  372 VS 5.20 DE 3.20 Q0750.0 QA 1.50 VS 5.20 3
 OLDACT:REG 14-01-20 14:56 OP:stll STATUS:               ID:20140120110810     3
 ACTION:UPD 14-03-13 09:56 OP:ep   STATUS:               ID:20140120111615 L   I
 OLDACT:UP  14-01-20 16:05 OP:stll STATUS:               ID:20140120110810     3
 2014-01-20-1108-10M.COL___223                                                 6
 STAT SP IPHASW D HRMM SECON CODA AMPLIT PERI AZIMU VELO AIN AR TRES W  DIS CAZ7
 BAR2 SZ IP     C 1116 35.05                             169    0.2910 26.4 187 
 BAR2 SZ ES       1116 49.53                             169   -0.1610 26.4 187 
 BAR2 SZ I        1116 51.46        90.0 0.22            167           26.4 187 
 PAM  SZ EP       1116 37.82                             150    0.5910 75.6  42 
 PAM  SN ES       1116 54.53                             150    0.4410 75.6  42 
 PAM  SZ I        1116 57.52        18.1 0.44            148           75.6  42 
 RUS  HZ IP     D 1116 39.00                             142   -0.1610  104 176 
 RUS  HN ES       1116 57.33                             142   -0.1910  104 176 
 RUS  SZ I        1116 58.87        18.6 0.28            138            104 176 
 PTB  HZ EP       1116 41.59                             131   -0.59 9  147 258 
 PTB  HN ES       1117  2.57                             131   -0.33 9  147 258 
 PTB  SZ I        1117  9.09        20.9 0.18            126            147 258 
 TAM  HZ IP     C 1116 43.39                             129    0.29 9  157 106 
 TAM  HN ES       1117  4.98                             129    0.45 9  157 106 
 TAM  SZ I        1117 14.07        13.4 1.10            126            157 106 
 OCA  HZ EP       1116 43.10                             129   -0.16 9  157 353 
 OCA  HN ES       1117  4.32                             129   -0.50 9  157 353 
 OCA  SZ I        1117  8.27        19.9 0.22            125            157 353 
 SPBC HZ EP       1116 43.77                             128   -0.17 9  165 218 
 SPBC HN ES       1117  5.74                             128   -0.30 9  165 218 
 SPBC SZ I        1117 10.69        25.4 0.24            123            165 218 
 ZAR  HZ EP       1116 48.11                             122    0.57 9  202 291 
 ZAR  HN ES       1117 12.57                             122    0.12 9  202 291 
 ZAR  SZ I        1117 18.19        23.3 0.26            117            202 291 
 NOR  HZ EP       1116 51.19                             117   -0.01 8  236 234 
 NOR  HN ES       1117 19.15                             117    0.20 8  236 234 
 NOR  SZ I        1117 23.80        11.0 0.14            113            236 234 
 SML  HZ EP       1116 51.47                             117   -0.15 8  240 335 
 SML  HE ES       1117 19.90                             117    0.19 8  240 335 
 SML  SZ I        1117 22.89        25.1 0.10            113            240 335 
 CHI  HZ EP       1116 52.97                             116   -0.40 8  251 195 
 CHI  HE ES       1117 21.84                             116   -0.98 8  251 195 
 CHI  SZ I        1117 32.40         8.1 0.40            112            251 195 
 ROSC BZ EP       1116 54.76                             115    1.03 8  255 210 
 ROSC BN ES       1117 23.54                             115    0.07 8  255 210 
 ROSC SZ I        1117 29.64        29.7 0.45            112            255 210 
 HEL  HZ EP       1116 56.63                             114    1.05 8  272 255 
 HEL  HN ES       1117 27.18                             114    0.43 8  272 255 
 HEL  SZ I        1117 33.34         9.1 0.30            110            272 255 
 URE  HZ EP       1116 55.22                             113   -1.01 7  282 291 
 URE  SZ I        1117 27.70         9.7 0.14            109            282 291 
 SOCV BZ EP       1116 57.32                             111   -1.03 7  300  57 
 GUY2CHZ EP       1116 59.64                             111    0.51 7  302 234 
 GUY2CHN ES       1117 32.43                             111   -0.65 7  302 234 
 GUY2CSZ I        1117 41.04        14.1 0.40                           302 234 
 RREF HZ EP       1117  2.34                             110    0.62 7  323 229 
 RREF HE ES       1117 37.75                             110    0.07 7  323 229 
 TOL  SZ EP       1117  4.39                             108    0.52 7  345 224 
 TOL  SZ I        1117 48.15         9.5 2.95            105            345 224 
 SDV  BZ IP     C 1117  4.59                             107   -0.74 6  359  51 
 ORTC HZ EP       1117  9.43                             105   -0.19 6  397 216 
 ORTC HN ES       1117 51.60                             105   -0.14 6  397 216 
 ORTC SZ I        1117 58.39         6.1 0.40            102            397 216 
                                                                                
