 2016  820 1852 55.4 L   6.806 -73.075136.6  RSN  4 0.1 1.4LRSN                1
 GAP=249        0.36       4.2     3.4  5.6  0.4308E+00  0.6837E+01 -0.1331E+02E
 Epicentro: LOS SANTOS - SANTANDER                                             3
 ACTION:UPD 16-10-29 15:37 OP:rebc STATUS:               ID:20160820185255 L   I
 OLDACT:REG 16-08-20 20:49 OP:edw  STATUS:               ID:20160820184743     3
 2016-08-20-1847-43M.COL___346                                                 6
 STAT SP IPHASW D HRMM SECON CODA AMPLIT PERI AZIMU VELO AIN AR TRES W  DIS CAZ7
 RUS  HZ EP   2   1853 18.20                             142   -0.05 5  101 181 
 RUS  HE ES       1853 36.18                             142    0.0710  101 181 
 RUS  HZ I        1853 37.83         1.3 0.16                           101 181 
 SPBC HZ EP       1853 23.71                             126   -0.00 9  169 221 
 SPBC HN ES       1853 45.61                             126   -0.22 9  169 221 
 SPBC HZ I        1853 51.27         6.7 0.11                           169 221 
 ZAR  HZ EP   2   1853 28.01                             119    0.04 4  211 291 
 ZAR  HN ES   2   1853 53.38                             119   -0.03 4  211 291 
 ZAR  HZ I        1853 58.93         3.0 0.14                           211 291 
 NOR  HZ EP       1853 31.28                             116   -0.04 8  241 235 
 NOR  HE ES       1853 59.59                             116    0.23 8  241 235 
 NOR  HZ I        1854  2.74         2.7 0.16                           241 235 
                                                                                
