 2014  920 1621 42.1 L   6.815 -73.150142.9  RSN  5 0.5 1.5LRSN                1
 GAP=142        1.25       7.0     7.2  9.6 -0.2228E+02  0.2025E+02 -0.3261E+01E
 Epicentro: LOS SANTOS - SANTANDER                                             3
 ACTION:UPD 14-10-03 23:06 OP:nd   STATUS:               ID:20140920162142 L   I
 OLDACT:DUP 14-09-21 00:49 OP:carl STATUS:               ID:20140920161820d    3
 2014-09-20-1618-19M.COL___293                                                 6
 STAT SP IPHASW D HRMM SECON CODA AMPLIT PERI AZIMU VELO AIN AR TRES W  DIS CAZ7
 BAR2 SZ EP       1622  1.54                             170    0.0910 24.9 188 
 BAR2 SZ ES       1622 17.47                             170    0.9610 24.9 188 
 BAR2 SZ I        1622 19.12         5.9 0.26            169           24.9 188 
 PAM  SZ EP       1622  4.45                             151    0.4710 76.5  41 
 PAM  SN ES       1622 20.16                             151   -0.8710 76.5  41 
 PAM  SZ I        1622 23.68         6.2 0.20            155           76.5  41 
 RUS  HZ EP       1622  5.74                             143    0.0210  102 176 
 RUS  HN ES       1622 23.89                             143   -0.2310  102 176 
 RUS  HZ I        1622 24.93         2.0 0.38            147            102 176 
 PTB  HZ EP       1622  8.90                             131    0.05 9  148 258 
 PTB  HN ES       1622 29.63                             131   -0.06 9  148 258 
 PTB  HZ I        1622 37.13         4.5 0.36            132            148 258 
 SPBC HZ EP       1622 10.50                             128    0.00 9  164 218 
 SPBC HN ES       1622 32.10                             128   -0.53 9  164 218 
 SPBC HZ I        1622 37.60         7.3 0.22            130            164 218 
                                                                                
