 2016 1220 1141 46.6 L   6.645 -73.311150.1  RSN  4 0.4 1.3LRSN                1
 GAP=156        1.00       5.8     8.9  9.1  0.8330E+01  0.1131E+02  0.7670E+01E
 Epicentro: GALAN - SANTANDER                                                  3
 ACTION:UPD 17-01-11 20:17 OP:rebc STATUS:               ID:20161220114146 L   I
 OLDACT:REG 16-12-20 20:00 OP:edw  STATUS:               ID:20161220113744     3
 2016-12-20-1138-00M.COL___363                                                 6
 STAT SP IPHASW D HRMM SECON CODA AMPLIT PERI AZIMU VELO AIN AR TRES W  DIS CAZ7
 BAR2 EZ EP       1142  6.13                             174   -0.5110 15.3 112 
 BAR2 EZ ES       1142 21.67                             174   -0.5910 15.3 112 
 BAR2 EZ I        1142 23.87         5.0 0.30            172           15.3 112 
 BRR  HZ EP       1142  7.92                             154   -0.1310 67.6 319 
 BRR  HN ES       1142 25.12                             154    0.3610 67.6 319 
 RUS  HZ EP       1142 10.20                             149    0.3210 87.0 163 
 RUS  HN ES       1142 28.33                             149    0.3010 87.0 163 
 RUS  HZ I        1142 29.94         3.6 0.34            149           87.0 163 
 PAM  EZ EP   4   1142  9.03                             144   -1.88 0  102  41 
 PAM  EN ES       1142 30.11                             144    0.2510  102  41 
 PAM  EZ I        1142 31.02         2.0 0.26            145            102  41 
                                                                                
