 2015 1120 1404  9.7 L   6.741 -73.129135.0  RSN  6 0.4 1.7LRSN                1
 GAP=141        0.82       3.9     4.6  7.1 -0.4653E+01  0.1807E+02 -0.4387E+01E
 Epicentro: LOS SANTOS - SANTANDER                                             3
 ACTION:UPD 15-12-28 16:12 OP:cam  STATUS:               ID:20151120140409 L   I
 OLDACT:DUP 15-11-20 20:45 OP:dnl  STATUS:               ID:20151120135749d    3
 OLDACT:REG 15-11-20 19:00 OP:dnl  STATUS:               ID:20151120135748     3
 2015-11-20-1357-48M.COL___310                                                 6
 STAT SP IPHASW D HRMM SECON CODA AMPLIT PERI AZIMU VELO AIN AR TRES W  DIS CAZ7
 BAR2 EZ EP       14 4 28.03                             172    0.0710 17.5 200 
 BAR2 EZ ES       14 4 41.64                             172   -0.5310 17.5 200 
 BAR2 EZ I        14 4 44.16        11.6 0.11            170           17.5 200 
 PAM  EZ EP     C 14 4 30.98                             147   -0.1010 81.4  36 
 PAM  EE ES       14 4 47.73                             147    0.0110 81.4  36 
 PAM  EZ I        14 4 48.61         6.2 0.19            150           81.4  36 
 RUS  HZ EP   2   14 4 32.00                             143    0.05 5 93.9 177 
 RUS  HE ES       14 4 49.85                             143    0.5810 93.9 177 
 ZAR  HZ EP   1   14 4 42.27                             119    0.31 6  208 294 
 ZAR  HE ES       14 5  7.34                             119    0.26 8  208 294 
 ZAR  HZ I        14 5 13.54         4.3 0.15            118            208 294 
 NOR  HZ EP   1   14 4 44.47                             116   -0.15 6  232 236 
 NOR  HN ES       14 5 11.60                             116   -0.23 8  232 236 
 NOR  HZ I        14 5 15.16         5.2 0.21            116            232 236 
 PRA  HN ES   2   14 5 41.79                             105   -1.59 3  387 210 
 PRA  HZ I        14 5 49.65         2.3 0.32            105            387 210 
                                                                                
