 2011  720 1433 37.8 L   6.677 -73.310142.7  RSN  4 0.3 1.6LRSN                1
 GAP=153        0.62       3.4     7.6  7.9 -0.2744E+01 -0.1686E+02 -0.2264E+01E
 Epicentro: GALAN - SANTANDER                                                  3
 ACTION:UPD 12-07-25 14:02 OP:epov STATUS:               ID:20110720143337 L   I
 2011-07-20-1431-40S.COL___143                                                 6
 STAT SP IPHASW D HRMM SECON CODA AMPLIT PERI AZIMU VELO AIN AR TRES W  DIS CAZ7
 BAR2 SZ EP   1   1433 56.85                             173   -0.09 8 17.0 124 
 BAR2 SZ I        1434 11.97         8.8 0.14                          17.0 124 
 BRR  HZ EP   1   1433 58.21                             154   -0.07 8 65.1 317 
 BRR  HE ES   1   1434 14.29                             154    0.04 8 65.1 317 
 BRR  HZ I        1434 17.25        15.1 0.43                          65.1 317 
 RUS  HZ EP   1   1434  0.11                             146   -0.41 8 90.3 164 
 RUS  HN ES   1   1434 18.50                             146    0.25 8 90.3 164 
 RUS  HZ I        1434 19.80         4.2 0.21                          90.3 164 
 GRA  SZ EP       1434  4.85                             132    0.4210  145  23 
 GRA  SZ ES       1434 24.97                             132   -0.2410  145  23 
                                                                                
