 2010  820 1107  1.4 L   6.843 -73.051142.7  RSN  5 0.4 1.6LRSN                1
 GAP=175        0.88       8.3    17.9 12.6  0.6561E+02 -0.9961E+02 -0.5350E+02E
 Epicentro: LOS SANTOS - SANTANDER                                             3
 ACTION:UP  10-09-07 10:56 OP:vdl  STATUS:               ID:20100820110701 L   I
 2010-08-20-1103-36S.COL___120                                                 6
 STAT SP IPHASW D HRMM SECON CODA AMPLIT PERI AZIMU VELO SNR AR TRES W  DIS CAZ7
 BTL  SZ EP   1   11 7 19.94                             169    -0.8 7   25 289 
 BAR2 SZ EP   1   11 7 20.68                             167    -0.2 7   31 208 
 BAR2 SZ ES   1   11 7 35.87                             167    -0.2 7   31 208 
 BAR2 SZ I        11 7 42.76         8.1 0.54                            31 208 
 BRR  HZ EP   1   11 7 22.62                             149     0.0 7   79 292 
 BRR  HZ I        11 7 25.91        20.4 0.40                            79 292 
 BRR  HN ES   2   11 7 39.84                             149     0.6 5   79 292 
 RUS  HZ EP   1   11 7 25.47                             142     0.3 7  105 182 
 RUS  HE ES   1   11 7 43.93                             142     0.2 7  105 182 
 RUS  HZ I        11 7 45.17         2.7 0.45                           105 182 
 GUE  SZ EP   1   11 7 25.77                             140     0.5 7  110   7 
                                                                                
