 2012  220 1045 59.9 L   6.758 -73.131145.8  RSN 12 0.4 2.1LRSN                1
 GAP=140        0.60       3.6     4.0  4.6 -0.4250E+01  0.4410E+01  0.3912E+01E
 ACTION:UP  12-03-07 16:32 OP:epov STATUS:               ID:20120220104559 L   I
 2012-02-20-1040-00M.COL___191                                                 6
 STAT SP IPHASW D HRMM SECON CODA AMPLIT PERI AZIMU VELO AIN AR TRES W  DIS CAZ7
 BAR2 SZ EP       1046 19.32                             172   -0.1210 19.2 197 
 BAR2 SZ I        1046 19.67        27.3 0.11                          19.2 197 
 BAR2 SZ ES   1   1046 34.76                             172    0.07 7 19.2 197 
 GIR2 SZ EP   1   1046 19.45                             165   -0.24 7 36.1 349 
 GIR2 SZ ES   2   1046 34.85                             165   -0.30 5 36.1 349 
 BRR  HZ EP   1   1046 21.24                             151    0.00 7 74.9 301 
 BRR  HZ I        1046 21.72        24.6 0.12                          74.9 301 
 BRR  HN ES   1   1046 38.37                             151    0.46 7 74.9 301 
 PAM  SZ EP   1   1046 22.30                             150    0.04 7 80.0  37 
 PAM  SN ES   2   1046 39.53                             150   -0.18 5 80.0  37 
 RUS  HZ EP   1   1046 23.28                             145   -0.02 7 95.8 177 
 RUS  HZ I        1046 24.45         9.5 0.11                          95.8 177 
 RUS  HN ES   2   1046 41.75                             145    0.19 5 95.8 177 
 PTB  HZ EP   1   1046 25.99                             132   -0.93 7  149 261 
 PTB  HE ES   2   1046 47.77                             132   -0.24 5  149 261 
 OCA  SZ EP   2   1046 29.23                             129    0.59 5  165 353 
 OCA  SZ ES   2   1046 51.33                             129    0.25 5  165 353 
 NOR  SZ EP   1   1046 36.01                             119    0.54 6  233 236 
 NOR  SN ES   2   1047  3.84                             119    0.61 4  233 236 
 HEL  HZ EP   1   1046 40.34                             115    0.19 6  273 257 
 HEL  HN ES   2   1047 10.78                             115   -0.78 4  273 257 
 HEL  HZ I        1047 18.64         5.5 0.80                           273 257 
 GUY  SZ EP   2   1046 44.11                             112    0.50 4  302 236 
 GUY  SN ES   2   1047 17.48                             112   -0.23 4  302 236 
 GUY  SZ I        1047 26.74         9.5 0.41                           302 236 
 RREF HZ EP   2   1046 45.87                             111    0.05 3  320 230 
 RREF HN ES   2   1047 21.39                             111   -0.27 3  320 230 
 RREF HZ I        1047 28.09         6.5 0.31                           320 230 
 PRA  HZ EP   1   1046 53.22                             107    0.20 4  389 210 
 PRA  HE ES   2   1047 35.03                             107    0.55 3  389 210 
                                                                                
