 2015  220 1412 45.9 L   6.819 -73.201140.9  RSN  6 0.6 1.6LRSN                1
 GAP=131        1.35       7.1     6.5 10.1 -0.1726E+02  0.2557E+02 -0.1250E+00E
 Epicentro: ZAPATOCA - SANTANDER                                               3
 ACTION:UPD 15-04-30 21:27 OP:nd   STATUS:               ID:20150220141245 L   I
 OLDACT:REG 15-02-20 22:12 OP:fm   STATUS:               ID:20150220140747     3
 2015-02-20-1407-47M.COL___289                                                 6
 STAT SP IPHASW D HRMM SECON CODA AMPLIT PERI AZIMU VELO AIN AR TRES W  DIS CAZ7
 BAR2 EZ EP       1413  5.49                             169    0.4710 25.1 175 
 BAR2 EZ ES       1413 20.65                             169    0.7410 25.1 175 
 BAR2 EZ I        1413 22.04        10.6 0.16            172           25.1 175 
 PAM  SZ EP       1413  7.98                             149    0.1810 79.9  44 
 PAM  SE ES       1413 23.97                             149   -0.8810 79.9  44 
 PAM  SZ I        1413 27.35         3.1 0.30            153           79.9  44 
 PTB  HN ES       1413 32.38                             132    0.05 9  142 258 
 PTB  HZ I        1413 39.08         5.0 0.36            133            142 258 
 SPBC HZ EP       1413 14.19                             128    0.33 9  161 217 
 SPBC HN ES       1413 34.82                             128   -0.82 9  161 217 
 SPBC HZ I        1413 38.50         8.7 0.12            131            161 217 
 ZAR  HZ EP       1413 16.87                             122   -0.53 9  198 292 
 ZAR  HN ES       1413 42.38                             122    0.45 9  198 292 
 ZAR  HZ I        1413 49.94         4.1 0.28            123            198 292 
 GUY2CHZ EP       1413 29.27                             112    0.38 7  297 234 
 GUY2CHE ES       1414  1.84                             112   -0.56 7  297 234 
 GUY2CHZ I        1414 11.81         1.7 0.26                           297 234 
                                                                                
