 2015 1220 1931 27.2 L   6.793 -73.145149.6  RSN  8 0.4 1.9LRSN                1
 GAP=201        1.13       4.1     5.8  6.8  0.3741E+01  0.6440E+01 -0.4327E+01E
 Epicentro: LOS SANTOS - SANTANDER                                             3
 ACTION:UPD 16-02-04 15:06 OP:cam  STATUS:               ID:20151220193127 L   I
 OLDACT:REG 15-12-20 22:00 OP:ar   STATUS:               ID:20151220192751     3
 2015-12-20-1927-51M.COL___325                                                 6
 STAT SP IPHASW D HRMM SECON CODA AMPLIT PERI AZIMU VELO AIN AR TRES W  DIS CAZ7
 BAR2 EZ EP       1931 47.36                             171    0.0610 22.6 191 
 BAR2 EZ ES       1932  2.25                             171   -0.7110 22.6 191 
 BAR2 EZ I        1932  3.94         9.3 0.36            172           22.6 191 
 BRR  HZ EP       1931 49.17                             153    0.3610 71.6 299 
 BRR  HZ I        1932  6.04         8.7 0.60            150           71.6 299 
 BRR  HN ES       1932  6.65                             153    1.0010 71.6 299 
 RUS  HZ EP       1931 51.12                             145   -0.1810 99.8 176 
 RUS  HN ES       1932 10.16                             145    0.0810 99.8 176 
 RUS  HZ I        1932 12.39         7.7 0.52            146           99.8 176 
 PTB  HZ EP       1931 54.24                             133   -0.26 9  148 259 
 PTB  HE ES       1932 15.42                             133   -0.35 9  148 259 
 PTB  HZ I        1932 22.64        10.6 0.40            132            148 259 
 SPBC HZ EP       1931 56.28                             130    0.32 9  163 219 
 SPBC HN ES       1932 18.47                             130    0.08 9  163 219 
 SPBC HZ I        1932 23.19        14.2 0.22            130            163 219 
 ZAR  HZ EP       1932  0.69                             123    0.74 9  204 292 
 ZAR  HN ES       1932 25.14                             123   -0.35 9  204 292 
 ZAR  HZ I        1932 31.65         9.1 0.52            122            204 292 
 NOR  HZ EP       1932  3.25                             119    0.12 8  234 235 
 NOR  HN ES       1932 30.86                             119   -0.29 8  234 235 
 NOR  HZ I        1932 33.51         5.1 0.26            119            234 235 
 SML  HZ EP       1932  3.63                             118   -0.51 8  244 335 
 SML  HE ES       1932 32.53                             118   -0.41 8  244 335 
 SML  HZ I        1932 35.20        13.8 0.10            117            244 335 
                                                                                
