 2012  520 1550 55.7 L   7.363 -73.199130.6  RSN  6 0.2 1.9LRSN                1
 GAP=178        0.61       4.5     3.2  5.9  0.9514E-01  0.4471E+01 -0.5151E+00E
 Epicentro: RIONEGRO - SANTANDER                                               3
 ACTION:UP  12-07-05 12:06 OP:pat  STATUS:               ID:20120520155055 L   I
 2012-05-20-1550-00M.COL___200                                                 6
 STAT SP IPHASW D HRMM SECON CODA AMPLIT PERI AZIMU VELO SNR AR TRES W  DIS CAZ7
 PAM  SZ EP       1551 15.07                             156     0.010   55  93 
 PAM  SN ES   1   1551 29.68                             156    -0.4 7   55  93 
 BRR  HZ EP       1551 14.75                             152     0.010   63 243 
 BRR  HN ES   1   1551 29.89                             152     0.3 7   63 243 
 BRR  HZ I        1551 31.40        34.9 0.14                            63 243 
 BAR2 SZ EP       1551 16.69                             145     0.210   85 179 
 BAR2 SZ ES   1   1551 33.00                             145     0.3 7   85 179 
 BAR2 SZ I        1551 34.05        45.9 0.32                            85 179 
 RUS  HZ EP   2   1551 23.48                             126    -0.1 5  163 175 
 RUS  HE ES   1   1551 45.17                             126    -0.2 7  163 175 
 RUS  HZ I        1551 49.10         4.1 0.48                           163 175 
 PTB  HZ EP       1551 23.20                             125    -0.1 9  166 237 
 PTB  HZ I        1551 23.95         5.2 0.14                           166 237 
 PTB  HE ES   1   1551 44.32                             125    -0.4 7  166 237 
 ZAR  HN ES   1   1551 47.92                             122     0.0 7  184 275 
 ZAR  HZ I        1551 52.30        12.0 0.32                           184 275 
                                                                                
