 2014  420 1850 51.8 L   5.966 -73.818105.4  RSN  9 0.5 1.6LRSN                1
 GAP=123        1.25       4.2     3.7  7.8 -0.5196E+01  0.5186E+01 -0.8622E+01E
 Epicentro: SUCRE - SANTANDER                                                  3
 ACTION:UPD 14-05-13 23:10 OP:nd   STATUS:               ID:20140420185051 L   I
 OLDACT:REG 14-04-20 22:00 OP:stll STATUS:               ID:20140420184819     3
 2014-04-20-1848-19M.COL___239                                                 6
 STAT SP IPHASW D HRMM SECON CODA AMPLIT PERI AZIMU VELO AIN AR TRES W  DIS CAZ7
 SPBC HZ IP     C 1851  7.26                             155    0.0710 44.6 219 
 SPBC HN ES       1851 19.49                             155    0.2610 44.6 219 
 SPBC HZ I        1851 20.67        24.0 0.42             95           44.6 219 
 RUS  HZ EP       1851  9.80                             140   -0.4210 81.8  96 
 RUS  HN ES       1851 24.42                             140   -0.2110 81.8  96 
 PTB  HZ EP       1851  9.60                             134   -1.0610 94.9 312 
 PTB  HN ES       1851 25.61                             134    0.2210 94.9 312 
 PTB  HZ I        1851 27.30         8.8 0.14             92           94.9 312 
 NOR  HZ EP       1851 13.63                             126    0.1510  125 249 
 NOR  HN ES       1851 30.12                             126   -0.3010  125 249 
 NOR  HZ I        1851 34.32        13.0 0.12             91            125 249 
 BRR  HZ EP       1851 13.56                             125   -0.0610  127   5 
 BRR  HE ES       1851 31.50                             125    0.8310  127   5 
 BRR  HZ I        1851 34.40         7.1 0.12             92            127   5 
 GUY2CHZ EP       1851 21.35                             114    0.40 9  190 244 
 GUY2CHE ES       1851 43.70                             114   -0.03 9  190 244 
 GUY2CHZ I        1851 55.38         4.8 2.14                           190 244 
 HEL  HZ EP       1851 21.70                             114    0.77 9  191 278 
 HEL  HZ I        1853 48.18         4.0 4.48             81            191 278 
 PAM  SZ EP       1851 22.35                             113    0.72 9  196  39 
 PAM  SN ES       1851 44.68                             113   -0.26 9  196  39 
 PAM  HZ I        1851 50.40         3.2 1.32             91            196  39 
 ZAR  HZ EP       1851 21.78                             112   -0.18 9  204 326 
 ZAR  HN ES       1851 44.81                             112   -0.71 9  204 326 
 ZAR  HZ I        1851 48.14         4.2 0.26             81            204 326 
                                                                                
