 2017  620 1700 58.3 L   6.838 -73.179153.0  RSN  9 0.5 2.0LRSN                1
 GAP=214        1.08       4.9     6.4  8.7  0.1046E+02 -0.1454E+02  0.5594E+01E
 Epicentro: ZAPATOCA - SANTANDER                                               3
 ACTION:UPD 17-09-14 16:53 OP:jn   STATUS:               ID:20170620170058 L   I
 OLDACT:UP  17-06-21 01:05 OP:ar   STATUS:               ID:20170620165740     3
 OLDACT:REG 17-06-20 23:16 OP:ar   STATUS:               ID:20170620165740     3
 2017-06-20-1658-00M.COL___349                                                 6
 STAT SP IPHASW D HRMM SECON CODA AMPLIT PERI AZIMU VELO AIN AR TRES W  DIS CAZ7
 BRR  HZ EP       17 1 20.28                             155    0.3110 66.0 297 
 BRR  HN ES       17 1 37.10                             155    0.2310 66.0 297 
 BRR  HZ I        17 1 38.06        26.9 0.30            147           66.0 297 
 PTB  HZ EP       17 1 25.42                             134   -0.21 9  145 257 
 PTB  HE ES       17 1 46.85                             134   -0.10 9  145 257 
 PTB  HZ I        17 1 52.45         5.4 0.36            128            145 257 
 SPBC HZ EP       17 1 27.58                             131    0.11 9  164 217 
 SPBC HE ES       17 1 49.96                             131   -0.25 9  164 217 
 SPBC HZ I        17 1 54.14        18.5 0.22            126            164 217 
 YPLC HZ EP       17 1 28.59                             127   -0.57 9  182 151 
 ZAR  HZ EP   4   17 1 32.63                             125    1.90 0  199 291 
 ZAR  HN ES       17 1 56.23                             125    0.21 9  199 291 
 ZAR  HZ I        17 2  1.60        12.4 0.40            121            199 291 
 NOR  HZ EP       17 1 35.23                             120    0.82 8  234 233 
 NOR  HN ES       17 2  3.01                             120    0.43 8  234 233 
 NOR  HZ I        17 2 10.02         6.0 0.26            117            234 233 
 CHI  HZ EP       17 1 37.48                             118    0.73 8  252 194 
 CHI  HN ES       17 2  6.10                             118   -0.64 8  252 194 
 CHI  HZ I        17 2  9.32         8.2 0.66            116            252 194 
 URE  HZ EP       17 1 38.79                             115   -0.40 7  279 291 
 URE  HN ES       17 2 10.16                             115   -0.92 7  279 291 
 URE  HZ I        17 2 22.11         6.7 0.18            113            279 291 
 GUY2CHZ EP   4   17 1 44.00                             114    1.80 0  301 234 
 GUY2CHN ES   4   17 2 19.44                             114    3.01 0  301 234 
 GUY2CHZ I        17 2 24.54         4.6 0.34                           301 234 
                                                                                
