 2010 1020 1725 18.3 L   6.742 -73.112148.7  RSN 10 0.4 2.5LRSN                1
 GAP=163        0.78       4.7     6.6  6.6 -0.1303E+02  0.7631E+01 -0.2354E+01E
 Epicentro: JORDAN - SANTANDER                                                 3
 ACTION:UP  11-02-18 11:10 OP:tino STATUS:               ID:20101020172518 L   I
 2010-10-20-1721-54S.COL___126                                                 6
 STAT SP IPHASW D HRMM SECON CODA AMPLIT PERI AZIMU VELO SNR AR TRES W  DIS CAZ7
 BAR2 SZ EP   1   1725 38.03                             173    -0.1 7   18 205 
 BAR2 SZ ES   2   1725 53.31                             173    -0.4 5   18 205 
 BAR2 SZ I        1725 54.85        61.1 0.29                            18 205 
 BTL  SZ EP   1   1725 38.34                             170     0.0 7   26 319 
 BTL  SZ ES   2   1725 54.41                             170     0.5 5   26 319 
 GIR2 SZ EP   1   1725 38.13                             165    -0.4 7   38 346 
 GIR2 SZ ES   2   1725 54.24                             165     0.0 5   38 346 
 BRR  HZ IP     C 1725 39.93                             151    -0.210   78 301 
 BRR  HZ I        1725 40.24       126.3 0.16                            78 301 
 BRR  HE ES   2   1725 57.45                             151     0.3 5   78 301 
 RUS  HZ EP   1   1725 41.85                             146     0.0 7   94 178 
 RUS  HE ES   2   1726  0.48                             146     0.2 5   94 178 
 RUS  HZ I        1726  1.94        22.0 0.59                            94 178 
 GUE  SZ EP   1   1725 43.57                             139    -0.1 7  122  10 
 GRA  SZ IP     C 1725 44.85                             136     0.610  131  15 
 GRA  SZ ES   2   1726  4.30                             136    -0.1 5  131  15 
 GRA  SZ I        1726  6.81        40.7 0.30                           131  15 
 OCA  SZ EP   1   1725 46.77                             129    -0.7 7  167 352 
 OCA  SZ ES   2   1726 10.10                             129    -0.1 5  167 352 
 OCA  SZ I        1726 14.33        49.4 0.28                           167 352 
 NOR  SZ EP   1   1725 53.95                             119    -0.2 6  234 236 
 NOR  SN ES   2   1726 21.60                             119    -0.5 4  234 236 
 HEL  HZ EP   1   1725 59.70                             115     0.8 6  274 257 
 HEL  HN ES   2   1726 30.62                             115     0.1 4  274 257 
 HEL  HZ I        1726 36.78        19.3 0.21                           274 257 
                                                                                
