 2012  720 1622 15.0 L   6.772 -73.141145.3  RSN 12 0.5 2.7LRSN                1
 GAP= 72        0.91       4.4     4.1  6.7 -0.6712E-01  0.6135E+01 -0.4443E+01E
 Epicentro: LOS SANTOS - SANTANDER                                             3
 ACTION:UPD 12-08-14 11:46 OP:ep   STATUS:               ID:20120720162215 L   I
 2012-07-20-1620-00M.COL___215                                                 6
 STAT SP IPHASW D HRMM SECON CODA AMPLIT PERI AZIMU VELO AIN AR TRES W  DIS CAZ7
 BAR2 SZ IP       1622 34.57                             172     0.010   20 193 
 BAR2 SZ ES   1   1622 49.44                             172    -0.3 7   20 193 
 BAR2 SZ I        1622 50.86       105.5 0.20            159             20 193 
 BRR  HZ IP     D 1622 36.50                             152     0.310   73 300 
 BRR  HZ I        1622 36.92       206.2 0.09            144             73 300 
 BRR  HN ES   2   1622 53.68                             152     0.9 5   73 300 
 PAM  SZ EP   1   1622 37.44                             150     0.1 7   79  38 
 PAM  SN ES   2   1622 55.48                             150     0.8 5   79  38 
 RUS  HZ EP   1   1622 38.54                             144     0.0 7   97 176 
 RUS  HN ES       1622 56.54                             144    -0.310   97 176 
 RUS  HZ I        1622 57.94        44.3 0.42            130             97 176 
 PTB  HZ EP   1   1622 41.39                             132    -0.6 7  148 260 
 PTB  HN ES   1   1623  2.44                             132    -0.5 7  148 260 
 PTB  HZ I        1623  9.34        22.1 0.23            120            148 260 
 TAM  HZ EP   1   1622 42.86                             130     0.3 7  154 104 
 TAM  HN ES   2   1623  4.34                             130     0.3 5  154 104 
 OCA  HZ EP   1   1622 42.91                             129    -0.7 7  163 353 
 OCA  HE ES   2   1623  4.96                             129    -0.9 5  163 353 
 OCA  HZ I        1623  9.36       128.1 0.20            122            163 353 
 ZAR  HZ EP   1   1622 47.53                             122    -0.1 6  206 293 
 ZAR  HN ES   2   1623 13.71                             122     0.7 4  206 293 
 ZAR  HZ I        1623 19.27        48.9 0.31            113            206 293 
 NOR  SZ EP   1   1622 50.96                             118     0.4 6  233 235 
 NOR  SN ES   2   1623 18.10                             118    -0.2 4  233 235 
 CHI  HZ EP   1   1622 52.66                             117     0.3 6  246 195 
 CHI  HZ I        1623 27.95        15.5 0.24            107            246 195 
 HEL  HN ES   1   1623 27.23                             114     0.7 6  272 256 
 HEL  HZ I        1623 33.42        31.8 0.27            105            272 256 
 DBB  SZ EP   1   1623  2.55                             109     0.0 5  340 275 
