 2011  120 1316 45.8 L   6.525 -73.546109.7  RSN  7 0.3 1.8LRSN                1
 GAP=107        0.68       4.7     5.3  9.4 -0.1655E+02  0.3242E+02 -0.2282E+02E
 Epicentro: EL CARMEN DE CHUCURI - SANTANDER                                   3
 ACTION:UP  11-02-08 08:41 OP:pat  STATUS:               ID:20110120131645 L   I
 2011-01-20-1300-00M.COL___138                                                 6
 STAT SP IPHASW D HRMM SECON CODA AMPLIT PERI AZIMU VELO SNR AR TRES W  DIS CAZ7
 BAR2 SZ IP       1317  2.08                             158     0.310   41  80 
 BAR2 SZ ES   1   1317 14.20                             158     0.0 7   41  80 
 GIR2 SZ EP   1   1317  2.82                             144    -0.7 7   73  32 
 RUS  HZ EP   1   1317  4.97                             139    -0.1 7   87 144 
 RUS  HN ES   1   1317 20.28                             139     0.2 7   87 144 
 RUS  HZ I        1317 21.05         7.4 0.21                            87 144 
 GRA  SZ EP   2   1317 12.64                             118    -0.2 4  171  29 
 GRA  SZ ES   1   1317 33.91                             118     0.1 7  171  29 
 GRA  SZ I        1317 35.91        10.2 0.27                           171  29 
 NOR  SZ EP   2   1317 13.61                             116    -0.1 4  181 234 
 NOR  SN ES       1317 35.36                             116    -0.1 9  181 234 
 OCA  SZ EP   2   1317 15.32                             115     0.4 4  191   8 
 HEL  HZ EP   2   1317 19.43                             111     0.7 4  222 261 
 HEL  HZ I        1317 53.10         6.6 0.36                           222 261 
                                                                                
