 2012  120 1844 20.2 L   6.794 -73.185135.5  RSN  4 0.3 1.2LRSN                1
 GAP=132        0.83       5.7     6.7 10.3  0.2169E+01  0.1949E+02 -0.5080E+01E
 Epicentro: LOS SANTOS - SANTANDER                                             3
 ACTION:UP  12-02-03 08:19 OP:REBC STATUS:               ID:20120120184420 L   I
 2012-01-20-1840-00M.COL___187                                                 6
 STAT SP IPHASW D HRMM SECON CODA AMPLIT PERI AZIMU VELO SNR AR TRES W  DIS CAZ7
 BAR2 SZ EP   1   1844 38.35                             170    -0.2 7   22 179 
 BAR2 SZ ES   1   1844 52.33                             170    -0.6 7   22 179 
 BAR2 SZ I        1844 57.20         5.1 0.22                            22 179 
 PAM  SZ EP   1   1844 41.25                             148    -0.3 7   81  42 
 PAM  SN ES   1   1844 58.59                             148     0.4 7   81  42 
 PAM  SZ I        1845  1.31         3.0 0.21                            81  42 
 RUS  HZ EP   1   1844 42.92                             142     0.0 7  100 174 
 RUS  HN ES   1   1845  1.09                             142     0.4 7  100 174 
 RUS  HZ I        1845  2.96         2.5 0.37                           100 174 
 ZAR  HN ES   1   1845 16.27                             120     0.2 6  200 293 
                                                                                
