 2016  920 1036 34.7 L   6.740 -73.122145.4  RSN  6 0.2 1.3LRSN                1
 GAP=235        0.44       2.6     3.0  3.0  0.1883E+01  0.5211E+00 -0.4368E+00E
 Epicentro: LOS SANTOS - SANTANDER                                             3
 ACTION:UPD 17-08-17 21:14 OP:lp   STATUS:               ID:20160920103634 L   I
 OLDACT:UP  16-09-20 21:38 OP:edw  STATUS:               ID:20160920102739     3
 OLDACT:REG 16-09-20 20:10 OP:edw  STATUS:               ID:20160920102739     3
 2016-09-20-1028-00M.COL___360                                                 6
 STAT SP IPHASW D HRMM SECON CODA AMPLIT PERI AZIMU VELO AIN AR TRES W  DIS CAZ7
 BAR2 EZ EP       1036 54.19                             173    0.0410 17.6 202 
 BAR2 EZ ES       1037  9.49                             173    0.1510 17.6 202 
 BAR2 EZ I        1037 11.30         4.1 0.28            165           17.6 202 
 BRR  HZ EP       1036 56.06                             151   -0.0310 76.8 302 
 BRR  HN ES       1037 12.82                             151    0.0110 76.8 302 
 RUS  HN ES   2   1037 15.33                             146   -0.69 5 93.8 177 
 PTB  HZ EP   9   1037  1.21                             132   -0.52 0  149 262 
 PTB  HE ES       1037 22.15                             132   -0.17 9  149 262 
 PTB  HZ I        1037 25.29         1.3 0.15            128            149 262 
 SPBC HZ EP       1037  2.91                             130    0.10 9  160 221 
 SPBC HN ES       1037 24.84                             130    0.08 9  160 221 
 SPBC HZ I        1037 32.00         2.8 0.20            127            160 221 
 ZAR  HZ EP       1037  7.50                             122   -0.09 8  209 294 
 ZAR  HN ES       1037 33.17                             122   -0.11 8  209 294 
 ZAR  HZ I        1037 39.05         3.1 0.12            120            209 294 
                                                                                
