 2010  220 1241  9.6 L   6.828 -72.986142.0  RSN  8 0.5 2.0LRSN                1
 GAP=199        0.79       6.0    12.6  8.8  0.1674E+02  0.1957E+01  0.9876E+01E
 Epicentro: CEPITA - SANTANDER                                                 3
 ACTION:UP  10-08-24 09:49 OP:vdl  STATUS:               ID:20100220124109 L   I
 2010-02-20-1238-29S.COL___094                                                 6
 STAT SP IPHASW D HRMM SECON CODA AMPLIT PERI AZIMU VELO SNR AR TRES W  DIS CAZ7
 BAR2 SZ EP       1241 29.40                             166     0.310   34 220 
 BAR2 SZ ES   2   1241 44.55                             166     0.3 5   34 220 
 GIR2 SZ EP       1241 28.60                             165    -0.410   36 320 
 GIR2 SZ ES   3   1241 43.95                             165    -0.2 2   36 320 
 BRR  HZ EP       1241 31.28                             147     0.010   86 291 
 BRR  HE ES   2   1241 48.52                             147     0.3 5   86 291 
 BRR  HZ I        1241 51.04        17.9 0.13                            86 291 
 RUS  BZ EP       1241 33.22                             142    -0.110  104 186 
 RUS  BN ES   2   1241 51.57                             142    -0.1 5  104 186 
 OCA  SZ EP   2   1241 37.99                             129     0.3 5  160 347 
 OCA  SZ I        1242  4.06        15.3 0.60                           160 347 
 CHI  HZ EP   2   1241 49.61                             116     1.6 4  257 199 
 CHI  HE ES   3   1242 17.31                             116    -0.7 2  257 199 
 CHI  HZ I        1242 25.52         3.9 0.54                           257 199 
 RREF BN ES   3   1242 34.40                             109    -0.3 2  337 231 
 RREF BZ I        1242 37.91         3.6 0.24                           337 231 
 PRA  HZ EP       1242  3.90                             105    -0.5 6  404 212 
 PRA  HN ES   3   1242 45.76                             105    -1.4 1  404 212 
 PRA  HZ I        1242 50.72         3.4 0.29                           404 212 
                                                                                
