 2017  720 1457  5.7 L   6.803 -73.202143.6  RSN  4 0.2 1.2LRSN                1
 GAP=145        0.56       3.4     3.2  4.7 -0.3387E+01  0.4151E+01 -0.1616E+01E
 Epicentro: ZAPATOCA - SANTANDER                                               3
 ACTION:UPD 17-08-30 15:35 OP:rebc STATUS:               ID:20170720145705 L   I
 OLDACT:REG 17-07-20 20:03 OP:lv   STATUS:               ID:20170720144746     3
 2017-07-20-1448-00M.COL___398                                                 6
 STAT SP IPHASW D HRMM SECON CODA AMPLIT PERI AZIMU VELO AIN AR TRES W  DIS CAZ7
 BAR2 EZ EP       1457 25.16                             170    0.0610 23.4 175 
 BAR2 EZ ES       1457 39.97                             170   -0.2410 23.4 175 
 BAR2 EZ I        1457 44.51         3.9 0.09            171           23.4 175 
 PAM  EZ EP       1457 27.77                             149   -0.1910 81.3  43 
 PAM  EN ES       1457 45.49                             149    0.2010 81.3  43 
 PAM  EZ I        1457 45.87         3.4 0.12            155           81.3  43 
 RUS  HZ EP       1457 29.60                             143    0.2610  102 173 
 RUS  HN ES       1457 47.71                             143   -0.0410  102 173 
 RUS  HZ I        1457 49.10                             147            102 173 
 PTB  HZ EP       1457 31.72                             133   -0.26 9  142 258 
 PTB  HN ES       1457 52.64                             133    0.20 9  142 258 
 PTB  HZ I        1457 58.19         2.1 0.22            134            142 258 
                                                                                
