 2016 1220 1658 32.1 L   6.787 -73.172140.3  RSN  4 0.3 1.1LRSN                1
 GAP=141        0.84       5.0     4.8  7.0 -0.7508E+01  0.9532E+01 -0.3444E+01E
 Epicentro: LOS SANTOS - SANTANDER                                             3
 ACTION:UPD 17-01-11 20:17 OP:rebc STATUS:               ID:20161220165832 L   I
 OLDACT:REG 16-12-20 20:58 OP:edw  STATUS:               ID:20161220165748     3
 2016-12-20-1658-00M.COL___375                                                 6
 STAT SP IPHASW D HRMM SECON CODA AMPLIT PERI AZIMU VELO AIN AR TRES W  DIS CAZ7
 BAR2 EZ EP       1658 50.50                             171   -0.5510 21.5 183 
 BAR2 EZ ES       1659  6.20                             171    0.3810 21.5 183 
 BAR2 EZ I        1659  6.64         3.9 0.14            172           21.5 183 
 PAM  EZ EP       1658 54.03                             149    0.0910 80.4  40 
 PAM  EN ES       1659 10.88                             149   -0.0810 80.4  40 
 PAM  EZ I        1659 12.33         2.0 0.22            150           80.4  40 
 RUS  HZ EP       1658 55.30                             143    0.0610 99.4 174 
 RUS  HN ES       1659 13.21                             143   -0.0710 99.4 174 
 PTB  HZ EP       1658 58.85                             131    0.50 9  145 259 
 PTB  HN ES       1659 18.52                             131   -0.30 9  145 259 
 PTB  HZ I        1659 21.58         1.3 0.15            132            145 259 
                                                                                
