 2015  220 1300 28.2 L   6.914 -73.233130.7  RSN  4 0.3 1.5LRSN                1
 GAP=158        0.73       9.0     6.2  8.9 -0.4440E+02  0.1219E+02  0.5984E+00E
 Epicentro: BETULIA - SANTANDER                                                3
 ACTION:UPD 15-04-30 21:27 OP:nd   STATUS:               ID:20150220130028 L   I
 OLDACT:REG 15-02-20 22:09 OP:fm   STATUS:               ID:20150220125748     3
 2015-02-20-1257-48M.COL___289                                                 6
 STAT SP IPHASW D HRMM SECON CODA AMPLIT PERI AZIMU VELO AIN AR TRES W  DIS CAZ7
 BAR2 EZ EP       13 0 46.14                             164   -0.2110 36.0 171 
 BAR2 EZ ES   1   13 1  0.91                             164    0.37 7 36.0 171 
 BAR2 EZ I        13 1  2.34        10.1 0.18            171           36.0 171 
 PAM  SZ EP       13 0 49.07                             148    0.3910 75.4  51 
 PAM  SE ES       13 1  4.32                             148   -0.3610 75.4  51 
 PAM  SZ I        13 1  7.90         5.7 0.48            151           75.4  51 
 PTB  HN ES       13 1 13.10                             129    0.11 9  141 253 
 PTB  HZ I        13 1 17.10         3.9 0.18            132            141 253 
 NOR  HN ES       13 1 30.11                             115   -0.18 8  235 231 
                                                                                
