 2013  920 1422 39.2 L   6.801 -73.148144.0  RSN  6 0.4 1.6LRSN                1
 GAP=201        0.69       4.2     6.4 10.3  0.5905E+01  0.7420E+01 -0.1423E+02E
 Epicentro: LOS SANTOS - SANTANDER                                             3
 ACTION:UPD 13-10-22 09:23 OP:ep   STATUS:               ID:20130920142239 L   I
 OLDACT:REG 13-09-20 16:16 OP:jn   STATUS:               ID:20130920141959     3
 2013-09-20-1419-59M.COL___269                                                 6
 STAT SP IPHASW D HRMM SECON CODA AMPLIT PERI AZIMU VELO AIN AR TRES W  DIS CAZ7
 RUS  HN ES   1   1423 21.49                             144    0.28 8  101 176 
 RUS  HZ I        1423 24.44         4.6 0.32            147            101 176 
 PTB  HZ EP       1423  5.72                             132   -0.3110  148 259 
 PTB  HN ES       1423 26.85                             132   -0.0910  148 259 
 PTB  HZ I        1423 29.11         7.5 0.36            136            148 259 
 SPBC HN ES   1   1423 29.31                             129   -0.39 7  163 219 
 ZAR  HE ES   1   1423 37.38                             122    0.66 7  204 292 
 NOR  HZ EP   1   1423 15.33                             118    0.49 7  235 234 
 NOR  HN ES   1   1423 42.67                             118    0.05 7  235 234 
 SML  HE ES   1   1423 43.93                             117   -0.27 6  243 335 
                                                                                
