 2014  820 1333 20.2 L   6.812 -73.183142.9  RSN 16 0.4 2.4LRSN                1
 GAP=131        0.85       2.3     3.3  4.1 -0.4101E+00  0.4505E+01  0.1477E+01E
 Epicentro: ZAPATOCA - SANTANDER                                               3
 ACTION:UPD 14-09-15 21:51 OP:nd   STATUS:               ID:20140820133320 L   I
 OLDACT:UP  14-08-20 21:21 OP:cam  STATUS:               ID:20140820133000     3
 OLDACT:UP  14-08-20 21:20 OP:cam  STATUS:               ID:20140820133000     3
 OLDACT:REG 14-08-20 20:08 OP:cam  STATUS:               ID:20140820133000     3
 2014-08-20-1330-00M.COL___285                                                 6
 STAT SP IPHASW D HRMM SECON CODA AMPLIT PERI AZIMU VELO AIN AR TRES W  DIS CAZ7
 BAR2 SZ EP     C 1333 39.44                             170   -0.0410 24.2 180 
 BAR2 SZ ES       1333 54.23                             170   -0.3110 24.2 180 
 BAR2 SZ I        1333 57.25       113.0 0.30            167           24.2 180 
 BRR  HZ EP     C 1333 41.29                             153    0.5110 67.0 299 
 BRR  HE ES       1333 57.61                             153    0.7610 67.0 299 
 BRR  HZ I        1334  2.25        52.8 0.24            148           67.0 299 
 PAM  SZ IP     D 1333 42.50                             150    0.3110 79.1  42 
 PAM  SN ES       1333 59.45                             150    0.0810 79.1  42 
 PAM  SZ I        1334  1.64        42.6 0.52            153           79.1  42 
 RUS  HZ EP       1333 43.71                             143   -0.0610  102 174 
 RUS  HN ES       1334  1.86                             143   -0.3110  102 174 
 RUS  HZ I        1334  3.52        32.6 0.28            141            102 174 
 PTB  HZ EP     C 1333 46.35                             132   -0.22 9  144 258 
 PTB  HN ES       1334  6.96                             132   -0.20 9  144 258 
 PTB  HZ I        1334  9.79        28.2 0.12            128            144 258 
 SPBC HZ EP       1333 48.41                             129    0.10 9  162 218 
 SPBC HN ES       1334  9.75                             129   -0.50 9  162 218 
 SPBC HZ I        1334 16.61        46.8 0.24            125            162 218 
 ZAR  HZ EP       1333 52.04                             122    0.05 9  200 292 
 ZAR  HE ES       1334 16.98                             122    0.17 9  200 292 
 ZAR  HZ I        1334 22.65        23.6 0.28            119            200 292 
 NOR  HZ EP       1333 55.65                             118    0.19 8  232 234 
 NOR  HN ES   4   1334 21.55                             118   -1.44 0  232 234 
 NOR  HZ I        1334 30.23        19.2 0.16            116            232 234 
 SML  HZ EP       1333 55.69                             117   -0.64 8  241 336 
 SML  HN ES       1334 23.84                             117   -0.69 8  241 336 
 SML  HZ I        1334 26.47        44.8 0.10            116            241 336 
 CHI  HZ EP     C 1333 57.83                             116    0.09 8  249 194 
 CHI  HN ES       1334 27.03                             116   -0.01 8  249 194 
 CHI  HZ I        1334 33.26        14.1 0.34            115            249 194 
 HEL  HZ EP       1333 59.81                             114   -0.03 8  268 255 
 HEL  HZ I        1334 38.09        12.0 0.28            112            268 255 
 GUY2CHZ EP       1334  3.62                             112    0.26 7  299 234 
 GUY2CHN ES       1334 36.71                             112   -0.33 7  299 234 
 GUY2CHZ I        1334 46.14        14.1 0.26                           299 234 
 CBOC HZ EP   4   1334  7.76                             110    1.19 0  330 252 
 CBOC HN ES   4   1334 43.87                             110    1.11 0  330 252 
 CBOC HZ I        1334 50.28         3.8 0.24            108            330 252 
 PRA  HZ EP       1334 13.08                             106   -0.41 6  391 209 
 PRA  HN ES       1334 55.78                             106    0.70 6  391 209 
 PRA  HZ I        1335  1.98        16.3 0.26            105            391 209 
 ORTC HZ EP       1334 14.08                             106    0.24 6  394 216 
 ORTC HN ES       1334 56.14                             106    0.45 6  394 216 
 ORTC HZ I        1335  3.40         7.4 0.30            105            394 216 
 SJC  HZ EP   4   1334 12.81                             105   -2.45 0  406 327 
 SJC  HE ES   4   1334 54.48                             105   -3.74 0  406 327 
 SJC  HZ I        1334 58.94         4.4 0.50            104            406 327 
                                                                                
