 2014  120 1117 30.7 L   6.783 -73.140148.7  RSN  5 0.5 1.7LRSN                1
 GAP=139        1.27       6.4     7.6 10.3 -0.1484E+02  0.1929E+02  0.3609E+01E
 Epicentro: LOS SANTOS - SANTANDER                                             3
 ACTION:UPD 14-03-13 09:56 OP:ep   STATUS:               ID:20140120111730 L   I
 OLDACT:DUP 14-01-20 15:49 OP:stll STATUS:               ID:20140120110811d    3
 2014-01-20-1108-10M.COL___223                                                 6
 STAT SP IPHASW D HRMM SECON CODA AMPLIT PERI AZIMU VELO AIN AR TRES W  DIS CAZ7
 BAR2 SZ EP       1117 50.71                             171    0.1010 21.6 193 
 BAR2 SZ ES       1118  6.68                             171    0.5110 21.6 193 
 BAR2 SZ I        1118  7.67        17.4 0.26            171           21.6 193 
 PAM  SZ EP       1117 53.04                             151   -0.2110 78.5  38 
 PAM  SN ES       1118 11.15                             151    0.2810 78.5  38 
 PAM  SZ I        1118 13.26        10.8 0.64            154           78.5  38 
 RUS  HZ EP       1117 54.58                             145    0.0210 98.6 176 
 RUS  HN ES       1118 12.18                             145   -1.0210 98.6 176 
 RUS  HZ I        1118 14.92         3.3 0.18            149           98.6 176 
 PTB  HZ EP       1117 57.80                             133   -0.09 9  148 260 
 PTB  HN ES       1118 18.90                             133   -0.23 9  148 260 
 PTB  HZ I        1118 25.96        10.4 0.36            133            148 260 
 CHI  HN ES       1118 38.69                             118    0.96 8  247 195 
                                                                                
