 2016 1020 1425 59.7 L   6.792 -73.125142.0  RSN  7 0.4 1.7LRSN                1
 GAP=140        1.00       5.7     5.6  8.2 -0.2272E+01  0.1377E+02  0.9873E+00E
 Epicentro: LOS SANTOS - SANTANDER                                             3
 ACTION:UPD 16-11-09 19:21 OP:rebc STATUS:               ID:20161020142559 L   I
 OLDACT:UP  16-10-21 03:42 OP:dnl  STATUS:               ID:20161020141748     3
 OLDACT:UP  16-10-21 03:42 OP:dnl  STATUS:               ID:20161020141748     3
 OLDACT:REG 16-10-21 02:16 OP:ar   STATUS:               ID:20161020141748     3
 2016-10-20-1418-00M.COL___349                                                 6
 STAT SP IPHASW D HRMM SECON CODA AMPLIT PERI AZIMU VELO AIN AR TRES W  DIS CAZ7
 BAR2 EZ EP       1426 19.02                             170    0.1710 23.0 196 
 BAR2 EZ ES       1426 33.90                             170    0.1010 23.0 196 
 BAR2 EZ I        1426 36.52        10.4 0.22            169           23.0 196 
 BRR  HZ EP       1426 21.06                             151    0.5010 73.7 298 
 BRR  HE ES       1426 37.28                             151    0.4210 73.7 298 
 PAM  EZ EP   2   1426 22.01                             151    0.56 5 76.6  38 
 PAM  EN ES       1426 37.81                             151   -0.6210 76.6  38 
 PAM  EZ I        1426 41.26        10.8 0.60            155           76.6  38 
 RUS  HZ EP   2   1426 23.34                             143    0.36 5 99.5 177 
 RUS  HN ES       1426 41.13                             143   -0.0310 99.5 177 
 RUS  HZ I        1426 43.27         3.4 0.20            146           99.5 177 
 PTB  HZ EP       1426 25.90                             131   -0.63 9  150 259 
 PTB  HN ES       1426 47.21                             131   -0.27 9  150 259 
 PTB  HZ I        1426 54.53         9.3 0.38            132            150 259 
 GUY2CHZ EP   4   1426 45.37                             111    2.10 0  303 235 
 GUY2CHN ES   4   1427 15.97                             111   -1.30 0  303 235 
 GUY2CHZ I        1427 23.90         2.7 0.26                           303 235 
 SJC  HZ EP   4   1426 53.26                             105   -2.10 0  411 327 
 SJC  HN ES   4   1427 34.95                             105   -3.84 0  411 327 
 SJC  HZ I        1427 37.85         1.7 0.44            107            411 327 
                                                                                
