 2011  220 1245 52.8 L   6.649 -73.523101.1  RSN  4 0.2 1.0LRSN                1
 GAP=248        0.37       6.7    42.6 19.5  0.2027E+03  0.7985E+03  0.8979E+02E
 Epicentro: EL CARMEN DE CHUCURI - SANTANDER                                   3
 ACTION:UP  11-03-28 15:09 OP:jfem STATUS:               ID:20110220124552 L   I
 2011-02-20-1241-29S.COL___137                                                 6
 STAT SP IPHASW D HRMM SECON CODA AMPLIT PERI AZIMU VELO SNR AR TRES W  DIS CAZ7
 BAR2 SZ ES   1   1246 19.22                             158     0.0 7   38 100 
 BAR2 SZ I        1246 20.86         6.2 0.24                            38 100 
 BTL  SZ EP       1246  7.85                             156     0.010   41  43 
 GIR2 SZ EP   2   1246  8.95                             146     0.2 5   60  37 
 GIR2 SZ ES   2   1246 21.18                             146     0.0 5   60  37 
 RUS  HZ EP   2   1246 11.95                             133    -0.2 5   97 150 
 RUS  HN ES   3   1246 27.80                             133     0.5 2   97 150 
 RUS  HZ I        1246 29.68         1.6 0.45                            97 150 
                                                                                
