 2011  520 1157 55.1 L   6.775 -73.107144.6  RSN  9 0.4 1.9LRSN                1
 GAP=143        0.85       4.6     7.9  6.6 -0.2000E+01 -0.1011E+02 -0.2901E+01E
 Epicentro: LOS SANTOS - SANTANDER                                             3
 ACTION:UP  11-06-29 08:54 OP:tino STATUS:               ID:20110520115755 L   I
 2011-05-20-1153-36S.COL___140                                                 6
 STAT SP IPHASW D HRMM SECON CODA AMPLIT PERI AZIMU VELO SNR AR TRES W  DIS CAZ7
 BAR2 SZ EP       1158 14.43                             171    -0.210   22 202 
 BAR2 SZ ES   1   1158 29.25                             171    -0.5 7   22 202 
 BAR2 SZ I        1158 32.08        25.8 0.39                            22 202 
 BTL  SZ EP       1158 14.89                             170     0.310   24 312 
 BTL  SZ ES   1   1158 30.22                             170     0.4 7   24 312 
 GIR2 SZ EP       1158 14.82                             166     0.010   35 344 
 BRR  HZ EP       1158 16.26                             151    -0.210   76 299 
 BRR  HN ES   1   1158 33.39                             151     0.3 7   76 299 
 BRR  HZ I        1158 35.91        21.1 0.15                            76 299 
 PAM  SZ EP       1158 17.22                             151     0.010   77  36 
 PAM  SN ES   1   1158 34.34                             151    -0.1 7   77  36 
 RUS  HZ EP       1158 18.38                             144    -0.210   98 178 
 RUS  HN ES   1   1158 37.02                             144     0.2 7   98 178 
 RUS  HZ I        1158 38.07         8.3 0.29                            98 178 
 BRI  SZ EP   3   1158 20.02                             141     1.0 2  110  18 
 GRA  SZ EP       1158 20.70                             136     0.310  127  15 
 GRA  SZ I        1158 48.99         5.4 0.40                           127  15 
 OCA  SZ ES   2   1158 44.60                             129    -1.3 5  164 352 
 OCA  SZ I        1158 48.16        12.7 0.55                           164 352 
                                                                                
