 2013  420 1037 44.4 L   6.803 -73.145143.5  RSN  7 0.5 1.9LRSN                1
 GAP=136        1.28       6.7     6.7  8.6 -0.1062E+02  0.2965E+01  0.1214E+02E
 Epicentro: LOS SANTOS - SANTANDER                                             3
 ACTION:UPD 13-05-22 14:39 OP:EP   STATUS:               ID:20130420103744 L   I
 2013-04-20-1028-50M.COL___215                                                 6
 STAT SP IPHASW D HRMM SECON CODA AMPLIT PERI AZIMU VELO AIN AR TRES W  DIS CAZ7
 BAR2 SZ EP       1038  3.89                             170    0.1110 23.6 190 
 BAR2 SZ ES       1038 18.54                             170   -0.3410 23.6 190 
 BAR2 SZ I        1038 19.86         5.9 0.16            172           23.6 190 
 GIR2 SZ EP       1038  4.00                             167    0.1910 31.0 350 
 GIR2 SZ ES       1038 18.88                             167   -0.0610 31.0 350 
 BRR  HZ EP       1038  5.92                             152    0.6110 71.1 298 
 BRR  HN ES       1038 22.59                             152    0.9710 71.1 298 
 BRR  HN I        1038 26.95        19.7 0.16            150           71.1 298 
 PAM  SZ EP       1038  6.84                             150    0.4710 77.1  40 
 PAM  SZ I        1038  7.06         8.4 0.26            151           77.1  40 
 PAM  SN ES       1038 23.24                             150   -0.2610 77.1  40 
 RUS  HZ EP       1038  7.76                             143   -0.2010  101 176 
 PTB  HZ EP       1038 10.73                             131   -0.48 9  148 259 
 PTB  HN ES       1038 31.63                             131   -0.48 9  148 259 
 OCA  HN ES       1038 33.65                             129   -0.79 9  160 353 
 OCA  HN I        1038 37.38        25.4 0.46            129            160 353 
                                                                                
