 2010  820 1626 39.3 L   6.899 -72.927142.0  RSN  4 0.2 1.6LRSN                1
 GAP=264        0.46       5.8    11.0  5.6  0.4594E+02 -0.3260E+02 -0.1083E+02E
 Epicentro: GUACA - SANTANDER                                                  3
 ACTION:UP  10-09-07 10:56 OP:vdl  STATUS:               ID:20100820162639 L   I
 2010-08-20-1624-14S.COL___120                                                 6
 STAT SP IPHASW D HRMM SECON CODA AMPLIT PERI AZIMU VELO SNR AR TRES W  DIS CAZ7
 BTL  SZ IP       1626 58.69                             165    -0.210   38 273 
 BTL  SZ ES       1627 14.19                             165     0.010   38 273 
 BAR2 SZ EP   1   1626 59.48                             162     0.3 7   44 220 
 BAR2 SZ I        1627  0.12         6.9 0.10                            44 220 
 BAR2 SZ ES   2   1627 14.62                             162     0.0 5   44 220 
 BRR  HZ EP   1   1627  1.23                             146     0.0 7   90 285 
 BRR  HZ I        1627 12.76        19.5 0.55                            90 285 
 BRR  HE ES   1   1627 18.38                             146     0.0 7   90 285 
 RUS  HZ EP   1   1627  3.73                             140     0.1 7  113 189 
 RUS  HN ES   1   1627 22.46                             140    -0.1 7  113 189 
 RUS  HZ I        1627 24.40         2.9 0.38                           113 189 
                                                                                
