 2015  120 1142 32.4 L   7.582 -73.082159.7  RSN  7 0.4 1.7LRSN                1
 GAP=206        0.82       4.5     7.0  8.0  0.8013E+00  0.7813E+01 -0.1122E+02E
 Epicentro: EL PLAYON - SANTANDER                                              3
 ACTION:UPD 15-03-02 15:41 OP:nd   STATUS:               ID:20150120114232 L   I
 OLDACT:DUP 15-01-20 22:20 OP:spq  STATUS:               ID:20150120113751d    3
 OLDACT:REG 15-01-20 19:35 OP:spq  STATUS:               ID:20150120113750     3
 2015-01-20-1137-50M.COL___253                                                 6
 STAT SP IPHASW D HRMM SECON CODA AMPLIT PERI AZIMU VELO AIN AR TRES W  DIS CAZ7
 OCA  HZ EP       1142 55.90                             153    0.3010 77.2 340 
 OCA  HN ES       1143 13.79                             153    0.0810 77.2 340 
 OCA  HZ I        1143 15.29        11.4 0.20            153           77.2 340 
 BRR  HZ EP   1   1142 56.29                             150    0.34 7 87.2 233 
 BRR  HN ES       1143 14.52                             150    0.1810 87.2 233 
 BRR  HZ I        1143 16.90        10.7 0.58            150           87.2 233 
 BAR2 EZ ES   1   1143 16.89                             144   -0.77 7  110 186 
 BAR2 EZ I        1143 18.38         4.8 0.20            147            110 186 
 SML  HZ EP   1   1143  2.41                             130   -0.38 7  173 321 
 SML  HN ES   1   1143 26.11                             130   -0.41 7  173 321 
 SML  HZ I        1143 32.15         8.2 0.22            131            173 321 
 ZAR  HE ES   1   1143 30.97                             126    0.52 6  196 267 
 ZAR  HZ I        1143 32.92         3.4 0.14            128            196 267 
 MON  HN ES   1   1143 51.93                             114   -0.70 5  314 295 
 MON  HZ I        1143 54.66         1.1 0.48            115            314 295 
 SJC  HZ EP   1   1143 21.03                             111    0.02 5  345 318 
 SJC  HE ES   4   1143 57.14                             111   -1.81 0  345 318 
 SJC  HZ I        1143 57.23         1.7 0.46            113            345 318 
                                                                                
