 2011  220 1136 21.5 L   6.632 -73.439113.6  RSN  6 0.2 1.8LRSN                1
 GAP=129        0.52       3.8     6.5  6.2 -0.1245E+02  0.2053E+02 -0.7595E+01E
 Epicentro: EL CARMEN DE CHUCURI - SANTANDER                                   3
 ACTION:UP  11-03-28 15:09 OP:jfem STATUS:               ID:20110220113621 L   I
 2011-02-20-1132-30S.COL___137                                                 6
 STAT SP IPHASW D HRMM SECON CODA AMPLIT PERI AZIMU VELO SNR AR TRES W  DIS CAZ7
 BAR2 SZ IP       1136 37.62                             166     0.210   29  99 
 BAR2 SZ ES   1   1136 49.77                             166    -0.1 7   29  99 
 BAR2 SZ I        1136 51.28        83.9 0.29                            29  99 
 BTL  SZ IP       1136 37.79                             161     0.110   37  31 
 RUS  HZ EP       1136 41.18                             139    -0.210   91 154 
 RUS  HZ I        1136 58.15         5.1 0.31                            91 154 
 GRA  SZ EP       1136 47.05                             122     0.1 9  155  27 
 GRA  SZ ES   1   1137  6.63                             122    -0.3 7  155  27 
 GRA  SZ I        1137  8.69         7.0 0.40                           155  27 
 NOR  SN ES   3   1137 14.18                             115    -0.6 2  198 233 
 HEL  HZ EP   1   1136 56.26                             111     0.1 6  236 258 
 HEL  HZ I        1137 24.93         3.0 0.45                           236 258 
                                                                                
