 2012  320 1622 57.0 L   6.768 -73.155141.6  RSN  5 0.4 1.5LRSN                1
 GAP=137        0.86       5.6     5.2  9.4 -0.1136E+01  0.5520E+01 -0.4396E+01E
 ACTION:UP  12-03-31 23:21 OP:EP   STATUS:               ID:20120320162257 L   I
 2012-03-20-1620-00M.COL___202                                                 6
 STAT SP IPHASW D HRMM SECON CODA AMPLIT PERI AZIMU VELO SNR AR TRES W  DIS CAZ7
 BAR2 SZ EP   1   1623 16.08                             172     0.1 7   20 189 
 BAR2 SZ ES   1   1623 31.22                             172     0.3 7   20 189 
 BAR2 SZ I        1623 32.30        12.9 0.23                            20 189 
 PAM  SZ EP       1623 18.96                             149     0.010   81  39 
 PAM  SN ES   1   1623 35.76                             149    -0.3 7   81  39 
 RUS  HZ EP       1623 20.02                             144     0.010   97 175 
 RUS  HN ES   1   1623 38.19                             144     0.1 7   97 175 
 RUS  HZ I        1623 39.88         3.0 0.28                            97 175 
 PTB  HE ES   1   1623 43.36                             131    -0.7 7  146 260 
 PTB  HZ I        1623 46.10         3.5 0.19                           146 260 
 ZAR  HN ES   1   1623 54.91                             121     0.6 6  204 293 
 ZAR  HZ I        1623 58.49         3.5 0.09                           204 293 
                                                                                
