 2017  220 1537 49.3 L   6.118 -73.819 99.7  RSN  8 0.4 1.3LRSN                1
 GAP= 70        0.81       2.9     2.8  8.8  0.1588E+01  0.1005E+02  0.6671E+01E
 Epicentro: EL PENON - SANTANDER                                               3
 ACTION:UPD 17-05-24 15:38 OP:jn   STATUS:               ID:20170220153749 L   I
 OLDACT:UP  17-02-20 23:51 OP:cog  STATUS:               ID:20170220152746     3
 OLDACT:UP  17-02-20 23:50 OP:cog  STATUS:               ID:20170220152746     3
 OLDACT:REG 17-02-20 21:56 OP:cog  STATUS:               ID:20170220152746     3
 2017-02-20-1528-00M.COL___373                                                 6
 STAT SP IPHASW D HRMM SECON CODA AMPLIT PERI AZIMU VELO AIN AR TRES W  DIS CAZ7
 PTB  HZ EP       1538  6.14                             137   -0.6410 84.6 303 
 PTB  HN ES       1538 20.48                             137    0.0410 84.6 303 
 PTB  HZ I        1538 23.69         6.4 0.12             47           84.6 303 
 RUS  HZ EP       1538  7.22                             138   -0.2610 85.1 107 
 RUS  HE ES       1538 21.66                             138   -0.0310 85.1 107 
 RUS  HZ I        1538 22.44         3.9 0.22             47           85.1 107 
 BAR2 EZ ES       1538 21.44                             137   -0.0310 87.8  53 
 BRR  HE ES   2   1538 25.31                             129    0.79 5  110   6 
 NOR  HZ EP       1538 11.23                             123   -0.0610  131 242 
 NOR  HN ES       1538 28.94                             123    0.4810  131 242 
 NOR  HZ I        1538 31.63         4.2 0.16             47            131 242 
 CHI  HN ES       1538 35.85                             117    0.23 9  165 177 
 PAM  EZ EP   3   1538 18.60                             115    1.16 2  183  42 
 PAM  EZ I        1538 47.44         1.8 0.68             37            183  42 
 ZAR  HE ES       1538 39.94                             113    0.13 9  191 323 
                                                                                
