 2012  520 1710  9.5 L   6.793 -73.158141.5  RSN  6 0.2 1.7LRSN                1
 GAP=135        0.69       5.9     5.7  7.8 -0.3712E+01  0.1793E+02  0.6400E+01E
 Epicentro: LOS SANTOS - SANTANDER                                             3
 ACTION:UP  12-07-05 12:06 OP:pat  STATUS:               ID:20120520171009 L   I
 2012-05-20-1710-00M.COL___200                                                 6
 STAT SP IPHASW D HRMM SECON CODA AMPLIT PERI AZIMU VELO SNR AR TRES W  DIS CAZ7
 BAR2 SZ EP   2   1710 28.86                             171     0.3 5   22 187 
 BAR2 SZ ES   1   1710 43.50                             171     0.0 7   22 187 
 BRR  HZ EP       1710 30.51                             152     0.410   70 300 
 BRR  HZ I        1710 51.89        15.1 0.14                            70 300 
 PAM  SZ EP       1710 31.31                             150     0.010   79  40 
 PAM  SE ES   1   1710 48.15                             150    -0.2 7   79  40 
 RUS  HZ EP       1710 32.81                             143     0.010  100 175 
 RUS  HZ I        1710 52.75         3.8 0.44                           100 175 
 PTB  HZ EP       1710 35.59                             131    -0.4 9  146 259 
 PTB  HZ I        1711  2.01         3.7 0.36                           146 259 
 ZAR  HN ES   2   1711  6.60                             122     0.0 4  203 292 
 ZAR  HZ I        1711 12.39         9.0 0.48                           203 292 
                                                                                
