 2017  120 1213 37.6 L   6.813 -73.173140.0  RSN  4 0.1 1.3LRSN                1
 GAP=144        0.45       2.7     2.6  3.8 -0.2232E+01  0.2861E+01 -0.9635E+00E
 Epicentro: LOS SANTOS - SANTANDER                                             3
 ACTION:UPD 17-05-22 16:01 OP:jn   STATUS:               ID:20170120121337 L   I
 OLDACT:DUP 17-01-20 21:50 OP:cog  STATUS:               ID:20170120120743d    3
 2017-01-20-1208-00M.COL___310                                                 6
 STAT SP IPHASW D HRMM SECON CODA AMPLIT PERI AZIMU VELO AIN AR TRES W  DIS CAZ7
 BAR2 EZ EP       1213 56.39                             170   -0.1510 24.4 182 
 BAR2 EZ ES       1214 11.41                             170    0.0810 24.4 182 
 BAR2 EZ I        1214 12.45         6.0 0.34            168           24.4 182 
 PAM  EZ EP       1213 59.26                             149    0.0110 78.3  42 
 PAM  EE ES       1214 16.14                             149   -0.0010 78.3  42 
 RUS  HZ EP       1214  1.18                             142    0.2910  102 174 
 RUS  HN ES       1214 18.92                             142   -0.1610  102 174 
 RUS  HZ I        1214 19.77         2.3 0.24            145            102 174 
 PTB  HZ EP       1214  3.67                             131   -0.17 9  145 258 
 PTB  HE ES       1214 24.41                             131    0.10 9  145 258 
 PTB  HZ I        1214 32.98         2.3 0.26            129            145 258 
                                                                                
