 2013  720 1231 45.2 L   7.055 -73.179127.8  RSN  6 0.5 1.9LRSN                1
 GAP=207        1.23       6.4     6.8  8.2  0.4552E+01  0.1527E+02 -0.1753E+02E
 Epicentro: GIRON - SANTANDER                                                  3
 ACTION:UPD 13-08-12 10:39 OP:ep   STATUS:               ID:20130720123145 L   I
 OLDACT:REG 13-07-20 15:34 OP:nd   STATUS:               ID:20130720122959     3
 2013-07-20-1229-59M.COL___266                                                 6
 STAT SP IPHASW D HRMM SECON CODA AMPLIT PERI AZIMU VELO AIN AR TRES W  DIS CAZ7
 GIR2 SZ IP     C 1232  2.76                             179    0.4910 3.15 328 
 GIR2 SZ ES       1232 15.11                             179   -0.4610 3.15 328 
 GIR2 SZ I        1232 16.86        13.5 0.58            172           3.15 328 
 BAR2 SZ EP     C 1232  3.80                             157    0.1310 51.1 180 
 BAR2 SZ ES       1232 18.16                             157    0.0810 51.1 180 
 BAR2 SZ I        1232 19.88        17.5 0.18            163           51.1 180 
 BRR  HZ IP     C 1232  4.06                             154    0.3210 59.2 276 
 BRR  HN ES       1232 18.46                             154    0.2710 59.2 276 
 BRR  HZ I        1232 20.23        12.3 0.14            151           59.2 276 
 PTB  HZ EP       1232 10.66                             127   -0.55 9  152 248 
 PTB  HN ES       1232 30.77                             127   -0.73 9  152 248 
 PTB  HZ I        1232 32.73        16.6 0.30            128            152 248 
 ZAR  HZ EP       1232 15.14                             120   -0.09 9  192 285 
 ZAR  HE ES       1232 39.68                             120    1.04 9  192 285 
 ZAR  HZ I        1232 44.70        10.9 0.40            120            192 285 
 SML  HZ EP       1232 17.96                             116    0.05 8  217 333 
 SML  HN ES       1232 42.73                             116   -0.69 8  217 333 
 SML  HZ I        1232 51.08        14.0 0.10            117            217 333 
                                                                                
