 2014  320 1809 18.3 L   6.822 -73.162136.9  RSN  5 0.2 1.5LRSN                1
 GAP=133        0.52       2.3     4.0  7.3  0.1121E+01  0.1396E+02 -0.2614E+01E
 Epicentro: LOS SANTOS - SANTANDER                                             3
 ACTION:UPD 14-04-09 23:19 OP:nd   STATUS:               ID:20140320180918 L   I
 OLDACT:UP  14-03-20 17:35 OP:mh   STATUS:               ID:20140320180819     3
 OLDACT:REG 14-03-20 15:37 OP:mh   STATUS:               ID:20140320180819     3
 2014-03-20-1808-19M.COL___237                                                 6
 STAT SP IPHASW D HRMM SECON CODA AMPLIT PERI AZIMU VELO AIN AR TRES W  DIS CAZ7
 BAR2 SZ EP       18 9 36.84                             169   -0.0410 25.6 185 
 BAR2 SZ I        18 9 53.32        14.4 0.15            165           25.6 185 
 PAM  SZ EP       18 9 39.71                             149    0.2110 76.7  42 
 PAM  SN ES       18 9 56.12                             149    0.0610 76.7  42 
 PAM  SZ I        18 9 57.38         4.5 0.11            146           76.7  42 
 RUS  HZ EP   1   18 9 41.31                             141   -0.05 7  103 175 
 RUS  HN ES       18 9 59.25                             141   -0.1110  103 175 
 RUS  HZ I        1810  0.37         2.0 0.38            135            103 175 
 ZAR  HN ES   1   1810 14.91                             121    0.38 6  201 292 
 SML  HN ES       1810 21.64                             116   -0.38 8  241 335 
 SML  HZ I        1810 25.30         6.3 0.10            112            241 335 
                                                                                
