 2017  820 1634 11.1 L   6.763 -73.111139.6  RSN  4 0.2 1.0LRSN                1
 GAP=143        0.58       3.0     4.5  4.7 -0.2357E+00 -0.1447E+01  0.4427E+00E
 Epicentro: LOS SANTOS - SANTANDER                                             3
 ACTION:UPD 17-09-04 20:22 OP:rebc STATUS:               ID:20170820163411 L   I
 OLDACT:REG 17-08-20 20:10 OP:lv   STATUS:               ID:20170820162742     3
 2017-08-20-1628-00M.COL___411                                                 6
 STAT SP IPHASW D HRMM SECON CODA AMPLIT PERI AZIMU VELO AIN AR TRES W  DIS CAZ7
 BAR2 EZ EP       1634 29.81                             171   -0.1210 20.4 203 
 BAR2 EZ ES       1634 44.20                             171   -0.4110 20.4 203 
 BAR2 EZ I        1634 45.77         4.9 0.05            171           20.4 203 
 BRR  HZ EP       1634 31.82                             150   -0.0810 76.6 300 
 BRR  HN ES       1634 48.34                             150    0.2110 76.6 300 
 PAM  EZ EP       1634 32.67                             149   -0.0410 78.3  35 
 PAM  EN ES       1634 49.73                             149    0.1510 78.3  35 
 PAM  EZ I        1634 50.61         1.1 0.20            151           78.3  35 
 RUS  HZ EP       1634 33.97                             144    0.0410 96.3 178 
 RUS  HN ES       1634 51.99                             144    0.2510 96.3 178 
 RUS  HZ I        1634 53.97         1.6 0.38            144           96.3 178 
                                                                                
