 2014  520 1052 21.8 L   6.815 -73.132152.1  RSN 16 0.4 2.6LRSN                1
 GAP=103        0.84       3.9     2.7  6.2 -0.1709E+01  0.3944E+01  0.1293E+02E
 Epicentro: LOS SANTOS - SANTANDER                                             3
 ACTION:UPD 15-03-16 16:59 OP:nd   STATUS:               ID:20140520105221 L   I
 OLDACT:UP  14-05-20 20:13 OP:cam  STATUS:               ID:20140520105000     3
 OLDACT:REG 14-05-20 19:28 OP:cam  STATUS:               ID:20140520105000     3
 2014-05-20-1050-00M.COL___252                                                 6
 STAT SP IPHASW D HRMM SECON CODA AMPLIT PERI AZIMU VELO AIN AR TRES W  DIS CAZ7
 BRR  HZ EP     C 1052 43.77                             153    0.1310 71.7 297 
 BRR  HN ES       1053  1.05                             153    0.3510 71.7 297 
 BRR  HZ I        1053  4.58        36.3 0.52            157           71.7 297 
 PAM  SZ EP       1052 44.68                             153    0.1410 75.1  39 
 PAM  SN ES       1053  2.07                             153   -0.2310 75.1  39 
 PAM  SZ I        1053  4.06        56.9 0.48            156           75.1  39 
 PTB  HZ EP       1052 48.52                             133   -0.91 9  150 258 
 PTB  HE ES   4   1053  9.09                             133   -1.91 0  150 258 
 PTB  HZ I        1053 15.72        41.4 0.24            134            150 258 
 TAM  HZ EP       1052 50.06                             132    0.19 9  154 106 
 TAM  HZ I        1053 10.81        23.3 0.42            131            154 106 
 TAM  HE ES       1053 11.82                             132    0.03 9  154 106 
 NOR  HZ EP       1052 57.81                             120   -0.30 8  237 234 
 NOR  HN ES       1053 26.27                             120   -0.19 8  237 234 
 NOR  HZ I        1053 32.98        24.3 0.24            119            237 234 
 CHI  HZ EP       1052 59.91                             118   -0.14 8  251 195 
 CHI  HN ES       1053 29.57                             118   -0.34 8  251 195 
 CHI  HZ I        1053 35.24        12.7 0.38            117            251 195 
 ROSC BZ EP   4   1053  1.91                             118    1.42 0  255 211 
 ROSC BN ES   4   1053 33.25                             118    2.56 0  255 211 
 ROSC BZ I        1053 39.62        34.9 0.45            117            255 211 
 HEL  HZ EP   1   1053  3.48                             116    0.96 6  274 256 
 HEL  HN ES       1053 34.66                             116    0.36 8  274 256 
 HEL  HZ I        1053 40.52        15.1 0.38            116            274 256 
 GUY2CHZ EP   4   1053  7.10                             113    1.17 0  303 235 
 GUY2CHE ES   4   1053 42.84                             113    2.47 0  303 235 
 GUY2CHZ I        1053 48.43        25.4 0.74                           303 235 
 RREF HZ EP   4   1053 10.00                             112    1.55 0  324 229 
 RREF HE ES       1053 45.12                             112    0.26 7  324 229 
 RREF HZ I        1053 53.59        18.9 0.48            112            324 229 
 CBOC HZ EP   1   1053  9.32                             111    0.14 5  336 252 
 CBOC HN ES       1053 45.68                             111   -0.47 7  336 252 
 CBOC HZ I        1053 54.97         5.6 0.40            111            336 252 
 DBB  SZ EP   1   1053  9.66                             110   -0.01 5  341 274 
 DBB  SZ ES   1   1053 46.63                             110   -0.40 5  341 274 
 DBB  SZ I        1053 48.38        43.4 0.46            111            341 274 
 TOL  SZ EP       1053 11.38                             110    0.83 6  346 225 
 TOL  SZ ES   4   1053 50.31                             110    1.71 0  346 225 
 TOL  SZ I        1053 55.78        10.1 0.35            110            346 225 
 ANIL HZ EP   4   1053 14.08                             109    1.99 0  360 224 
 ANIL HN ES   4   1053 52.49                             109    1.16 0  360 224 
 ANIL HZ I        1053 55.98        40.9 0.42            109            360 224 
 PRA  HZ EP       1053 15.36                             107   -0.42 6  394 210 
 PRA  HE ES       1053 58.11                             107    0.21 6  394 210 
 PRA  HZ I        1054  3.68        18.4 0.34            107            394 210 
 ORTC HZ EP       1053 16.26                             107    0.08 6  398 216 
 ORTC HE ES       1053 59.12                             107    0.50 6  398 216 
 ORTC HZ I        1054  6.38        11.8 0.22            107            398 216 
                                                                                
