 2011  820 1806 33.7 L   6.765 -73.098148.6  RSN  8 0.4 2.4LRSN                1
 GAP=187        0.84       3.7     7.2  6.3 -0.2513E+01  0.8048E+01  0.3311E+01E
 Epicentro: LOS SANTOS - SANTANDER                                             3
 ACTION:UPD 12-07-13 15:52 OP:ep   STATUS:               ID:20110820180633 L   I
 2011-08-20-1805-48S.COL___151                                                 6
 STAT SP IPHASW D HRMM SECON CODA AMPLIT PERI AZIMU VELO AIN AR TRES W  DIS CAZ7
 BAR2 SZ IP       18 6 53.78                             171    0.1910 21.3 206 
 BAR2 SZ I        18 6 54.06        41.4 0.19                          21.3 206 
 BAR2 SZ ES   1   18 7  8.55                             171   -0.59 7 21.3 206 
 BRR  HZ EP       18 6 55.66                             151    0.1710 77.6 299 
 BRR  HN ES   1   18 7 13.01                             151    0.50 7 77.6 299 
 BRR  HZ I        18 7 15.27        81.8 0.15                          77.6 299 
 RUS  HZ EP       18 6 57.64                             146    0.2310 96.5 179 
 RUS  HZ I        18 7 12.34        43.8 0.68                          96.5 179 
 RUS  HN ES   1   18 7 16.27                             146    0.34 7 96.5 179 
 OCA  SZ EP       18 7  2.47                             130   -0.14 9  165 352 
 OCA  SZ ES   1   18 7 24.94                             130   -0.26 7  165 352 
 OCA  SZ I        18 7 29.12        26.7 0.25                           165 352 
 NOR  SZ EP       18 7  9.36                             119   -0.42 8  237 236 
 NOR  SN ES   1   18 7 37.56                             119   -0.39 6  237 236 
 CHI  HZ EP       18 7 10.57                             118   -0.70 8  246 197 
 HEL  HZ EP   2   18 7 14.89                             115    0.41 4  276 257 
 PRA  HZ EP   1   18 7 28.16                             107    0.96 4  391 211 
 PRA  HN ES   1   18 8  9.57                             107    0.61 4  391 211 
                                                                                
