 2011  520 1110 36.2 L   6.777 -73.053142.9  RSN  7 0.3 1.6LRSN                1
 GAP=150        0.90       5.3     9.6  8.1 -0.8354E+01 -0.3007E+02  0.3655E+00E
 Epicentro: LOS SANTOS - SANTANDER                                             3
 ACTION:UP  11-06-29 08:54 OP:tino STATUS:               ID:20110520111036 L   I
 2011-05-20-1107-14S.COL___140                                                 6
 STAT SP IPHASW D HRMM SECON CODA AMPLIT PERI AZIMU VELO SNR AR TRES W  DIS CAZ7
 BAR2 SZ EP       1110 55.49                             170     0.010   25 215 
 BAR2 SZ ES   1   1111 10.42                             170    -0.2 7   25 215 
 BAR2 SZ I        1111 12.04        11.4 0.13                            25 215 
 BTL  SZ EP       1110 55.90                             168     0.310   28 303 
 BTL  SZ ES   1   1111 11.28                             168     0.5 7   28 303 
 GIR2 SZ EP       1110 55.55                             165    -0.210   37 335 
 PAM  SZ EP       1110 58.37                             151     0.510   73  32 
 BRR  HZ EP       1110 57.34                             149    -0.310   82 297 
 BRR  HZ I        1110 57.47        12.8 0.13                            82 297 
 BRR  HN ES   1   1111 14.49                             149     0.1 7   82 297 
 RUS  HZ EP       1110 59.48                             144     0.010   98 182 
 RUS  HN ES   2   1111 17.06                             144    -0.6 5   98 182 
 RUS  HZ I        1111 19.14         5.0 0.56                            98 182 
 GRA  SZ EP       1111  1.26                             136     0.110  126  13 
 GRA  SZ ES   1   1111 19.94                             136    -0.7 7  126  13 
 GRA  SZ I        1111 21.90         3.9 0.77                           126  13 
                                                                                
