 2011 1220 1036 10.5 L   6.778 -73.203136.3  RSN  8 0.2 2.0LRSN                1
 GAP=130        0.45       2.5     3.1  3.8 -0.1905E+01  0.2988E+01  0.2084E+01E
 Epicentro: ZAPATOCA - SANTANDER                                               3
 ACTION:UPD 12-07-13 16:17 OP:ep   STATUS:               ID:20111220103610 L   I
 2011-12-20-1030-00M.COL___192                                                 6
 STAT SP IPHASW D HRMM SECON CODA AMPLIT PERI AZIMU VELO AIN AR TRES W  DIS CAZ7
 BAR2 SZ EP       1036 28.93                             171    0.0410 20.7 174 
 BAR2 SZ ES   1   1036 43.47                             171    0.20 7 20.7 174 
 BAR2 SZ I        1036 44.94        40.1 0.24                          20.7 174 
 GIR2 SZ EP   1   1036 29.03                             166   -0.03 7 33.2   2 
 GIR2 SZ ES   1   1036 43.71                             166    0.14 7 33.2   2 
 BRR  HZ EP   1   1036 30.85                             152    0.51 7 66.9 303 
 BRR  HZ I        1036 50.81        21.6 0.18                          66.9 303 
 PAM  SZ EP   1   1036 31.95                             147   -0.10 7 83.4  42 
 PAM  SZ I        1036 32.21        23.5 0.18                          83.4  42 
 PAM  SN ES   1   1036 48.60                             147   -0.30 7 83.4  42 
 RUS  HZ EP   1   1036 33.19                             142    0.04 7 98.8 172 
 RUS  HN ES   1   1036 50.73                             142   -0.13 7 98.8 172 
 RUS  HZ I        1036 52.57        18.7 0.41                          98.8 172 
 PTB  HZ EP   1   1036 35.80                             131   -0.24 7  141 259 
 PTB  HN ES   1   1036 55.74                             131   -0.26 7  141 259 
 CHI  HZ EP   1   1036 47.25                             115    0.04 6  245 194 
 CHI  HZ I        1036 49.28         4.2 0.23                           245 194 
 CHI  HN ES   1   1037 15.88                             115    0.00 6  245 194 
 RREF HN ES   2   1037 30.65                             109    0.08 3  315 229 
 RREF HZ I        1037 41.58         6.2 0.44                           315 229 
                                                                                
