 2011  920 1927 50.3 L   6.767 -73.118147.2  RSN 10 0.4 2.3LRSN                1
 GAP=142        0.65       3.2     4.5  4.9 -0.2427E+01  0.3471E+01  0.2777E+01E
 Epicentro: LOS SANTOS - SANTANDER                                             3
 ACTION:UPD 12-07-13 15:58 OP:ep   STATUS:               ID:20110920192750 L   I
 2011-09-20-1925-03S.COL___165                                                 6
 STAT SP IPHASW D HRMM SECON CODA AMPLIT PERI AZIMU VELO AIN AR TRES W  DIS CAZ7
 BAR2 SZ EP       1928 10.07                             172   -0.0310 20.6 200 
 BAR2 SZ ES   1   1928 24.97                             172   -0.54 7 20.6 200 
 BAR2 SZ I        1928 26.76        36.8 0.34                          20.6 200 
 BTL  SZ EP   3   1928 10.31                             170    0.15 2 23.6 315 
 BRR  HZ IP     C 1928 12.02                             151    0.1110 75.7 300 
 BRR  HN ES   1   1928 29.44                             151    0.71 7 75.7 300 
 BRR  HZ I        1928 33.87        35.9 0.18                          75.7 300 
 PAM  SZ EP       1928 13.00                             151    0.2210 78.4  36 
 PAM  SN ES   1   1928 30.16                             151   -0.11 7 78.4  36 
 RUS  HZ EP       1928 14.01                             145    0.0410 96.8 178 
 RUS  HN ES   2   1928 32.24                             145   -0.16 5 96.8 178 
 OCA  SZ EP       1928 18.97                             129   -0.18 9  164 352 
 OCA  SZ I        1928 48.98        27.1 0.33                           164 352 
 ZAR  HE ES   2   1928 48.09                             122   -0.96 4  208 293 
 ZAR  HZ I        1928 55.55        17.5 0.32                           208 293 
 NOR  SZ EP       1928 26.31                             119    0.10 8  235 236 
 NOR  SN ES   2   1928 53.73                             119   -0.45 4  235 236 
 CHI  HZ EP       1928 27.79                             118   -0.05 8  246 196 
 CHI  HN ES   2   1928 57.50                             118    0.42 4  246 196 
 CHI  HZ I        1929  6.01         8.7 0.62                           246 196 
 COD  HE ES   3   1929 15.84                             109   -1.53 2  352 354 
 COD  HZ I        1929 20.84         9.9 0.32                           352 354 
                                                                                
