 2011  220 1430 15.1 L   6.791 -73.077137.2  RSN  5 0.4 1.3LRSN                1
 GAP=237        0.73       5.6    10.7  7.4 -0.9726E+01  0.1445E+02  0.7548E+01E
 Epicentro: LOS SANTOS - SANTANDER                                             3
 ACTION:UP  11-03-28 15:09 OP:jfem STATUS:               ID:20110220143015 L   I
 2011-02-20-1428-23S.COL___137                                                 6
 STAT SP IPHASW D HRMM SECON CODA AMPLIT PERI AZIMU VELO SNR AR TRES W  DIS CAZ7
 BAR2 SZ EP       1430 33.59                             169    -0.110   25 208 
 BAR2 SZ ES   1   1430 48.22                             169     0.0 7   25 208 
 BAR2 SZ I        1430 49.66         6.3 0.18                            25 208 
 BTL  SZ EP       1430 33.99                             169     0.310   25 304 
 BTL  SZ ES   2   1430 48.40                             169     0.1 5   25 304 
 RUS  HZ EP       1430 37.68                             142    -0.210   99 180 
 RUS  HZ I        1430 38.31         2.8 0.44                            99 180 
 RUS  HN ES   1   1430 55.61                             142    -0.1 7   99 180 
 NOR  SZ EP   2   1430 51.52                             116     0.5 4  240 236 
 NOR  SE ES   2   1431 18.28                             116    -0.7 4  240 236 
 CHI  HZ EP   2   1430 51.90                             115    -0.6 4  250 197 
 CHI  HZ I        1431 13.24         1.3 0.30                           250 197 
 CHI  HN ES   1   1431 22.39                             115     0.8 6  250 197 
                                                                                
