 2011  420 1509 18.7 L   6.745 -73.106143.2  RSN 10 0.4 1.9LRSN                1
 GAP=172        0.77       6.9     7.6  7.1 -0.3805E+02  0.1735E+02 -0.7717E+01E
 Epicentro: JORDAN - SANTANDER                                                 3
 ACTION:UP  11-06-22 15:32 OP:REBC STATUS:               ID:20110420150918 L   I
 2011-04-20-1500-00M.COL___141                                                 6
 STAT SP IPHASW D HRMM SECON CODA AMPLIT PERI AZIMU VELO SNR AR TRES W  DIS CAZ7
 BAR2 SZ EP   1   15 9 38.00                             172     0.1 7   19 206 
 BAR2 SZ ES   1   15 9 53.09                             172     0.2 7   19 206 
 BAR2 SZ I        15 9 55.85        32.4 0.35                            19 206 
 BTL  SZ EP       15 9 37.95                             169    -0.110   26 317 
 GIR2 SZ EP   1   15 9 38.16                             164    -0.1 7   38 345 
 BRR  HZ IP       15 9 39.87                             150    -0.110   78 301 
 BRR  HZ I        15 9 41.39        32.8 0.12                            78 301 
 BRR  HN ES   2   15 9 56.91                             150     0.4 5   78 301 
 PAM  SZ EP   1   15 9 40.91                             150     0.2 7   80  34 
 PAM  SN ES   1   15 9 58.16                             150     0.2 7   80  34 
 BRI  SZ EP   2   15 9 42.66                             140     0.0 5  113  18 
 GRA  SZ EP   1   15 9 43.87                             135    -0.2 7  130  15 
 GRA  SZ ES   1   1510  3.08                             135    -0.8 7  130  15 
 GRA  SZ I        1510  8.04         9.9 0.31                           130  15 
 OCA  SZ EP   1   15 9 48.31                             128     0.9 7  167 352 
 NOR  SZ EP   1   15 9 54.17                             118    -0.1 6  235 236 
 NOR  SN ES   1   1510 21.65                             118    -0.4 6  235 236 
 NOR  SZ I        1510 28.31         1.9 0.17                           235 236 
 HEL  HN ES   2   1510 30.73                             114     0.2 4  275 257 
                                                                                
