 2017  920 1032  7.8 L   6.817 -73.303119.8  RSN  6 0.2 1.9LRSN                1
 GAP=127        0.68       3.0     3.1  4.4  0.3314E+01  0.2335E+01  0.1389E+01E
 Epicentro: ZAPATOCA - SANTANDER                                               3
 ACTION:UPD 17-10-05 19:14 OP:rebc STATUS:               ID:20170920103207 L   I
 OLDACT:REG 17-09-20 19:57 OP:edw  STATUS:               ID:20170920102743     3
 2017-09-20-1028-00M.COL___440                                                 6
 STAT SP IPHASW D HRMM SECON CODA AMPLIT PERI AZIMU VELO AIN AR TRES W  DIS CAZ7
 BAR2 EZ EP       1032 24.35                             166   -0.0710 28.2 152 
 BAR2 EZ ES       1032 37.18                             166   -0.2310 28.2 152 
 BAR2 EZ I        1032 38.59        53.2 0.40            168           28.2 152 
 BRR  HZ EP       1032 24.72                             153   -0.5110 55.4 305 
 BRR  HE ES       1032 39.05                             153    0.2110 55.4 305 
 BRR  HZ I        1032 39.80       260.6 0.03            140           55.4 305 
 PAM  EZ EP       1032 27.87                             142   -0.2210 88.3  49 
 PAM  EN ES       1032 44.21                             142    0.2710 88.3  49 
 PAM  EZ I        1032 47.51         6.3 0.56            133           88.3  49 
 RUS  HZ EP       1032 29.35                             136   -0.1010  105 167 
 RUS  HN ES       1032 46.49                             136    0.1410  105 167 
 RUS  HZ I        1032 47.94         4.1 0.28            130            105 167 
 YPLC HZ EP       1032 37.30                             118    0.35 9  187 147 
 ZAR  HZ EP       1032 36.98                             118    0.12 9  187 294 
 ZAR  HE ES       1032 59.71                             118    0.18 9  187 294 
 ZAR  HZ I        1033  4.77         5.0 0.30            109            187 294 
                                                                                
