 2017  820 1721 25.4 L   6.766 -73.132141.5  RSN  5 0.2 1.4LRSN                1
 GAP=140        0.56       2.9     3.1  4.5  0.1866E+01  0.1721E+01 -0.2308E+00E
 Epicentro: LOS SANTOS - SANTANDER                                             3
 ACTION:UPD 17-09-04 20:22 OP:rebc STATUS:               ID:20170820172125 L   I
 OLDACT:REG 17-08-20 20:26 OP:lv   STATUS:               ID:20170820171736     3
 2017-08-20-1718-00M.COL___408                                                 6
 STAT SP IPHASW D HRMM SECON CODA AMPLIT PERI AZIMU VELO AIN AR TRES W  DIS CAZ7
 BAR2 EZ EP       1721 44.31                             172   -0.1210 20.0 196 
 BAR2 EZ ES       1721 59.14                             172   -0.1510 20.0 196 
 BAR2 EZ I        1722  0.45         9.3 0.11            172           20.0 196 
 BRR  HZ EP       1721 46.39                             151    0.1410 74.4 300 
 BRR  HE ES       1722  2.92                             151    0.3910 74.4 300 
 BRR  HZ I        1722  3.80         8.6 0.13            153           74.4 300 
 PAM  EZ EP       1721 47.29                             149    0.0310 79.3  37 
 PAM  EN ES       1722  4.22                             149   -0.1110 79.3  37 
 PAM  EZ I        1722  6.43         3.5 0.49            150           79.3  37 
 RUS  HZ EP       1721 48.57                             144    0.1410 96.8 177 
 RUS  HE ES       1722  6.37                             144   -0.0510 96.8 177 
 RUS  HZ I        1722  8.40         3.1 0.26            145           96.8 177 
 ZAR  HE ES       1722 22.79                             121   -0.38 8  207 293 
                                                                                
