 2010 1220 1435 44.5 L   6.791 -73.143144.2  RSN  7 0.2 1.8LRSN                1
 GAP=159        0.47       2.9     5.0  4.4 -0.8524E+01  0.6762E+01 -0.1409E+01E
 Epicentro: LOS SANTOS - SANTANDER                                             3
 ACTION:UP  11-01-14 15:26 OP:pat  STATUS:               ID:20101220143544 L   I
 2010-12-20-1434-02S.COL___132                                                 6
 STAT SP IPHASW D HRMM SECON CODA AMPLIT PERI AZIMU VELO SNR AR TRES W  DIS CAZ7
 BAR2 SZ EP       1436  3.91                             171    -0.110   23 192 
 BAR2 SZ ES   1   1436 19.05                             171    -0.1 7   23 192 
 BAR2 SZ I        1436 21.73        23.0 0.37                            23 192 
 RUS  HZ EP       1436  7.86                             144    -0.210  100 176 
 RUS  HN ES   1   1436 26.64                             144     0.2 7  100 176 
 RUS  HZ I        1436 27.82         8.1 0.37                           100 176 
 GRA  SZ EP       1436  9.67                             136     0.010  127  17 
 GRA  SZ ES   1   1436 29.58                             136     0.2 7  127  17 
 GRA  SZ I        1436 30.59         7.6 0.29                           127  17 
 NOR  SZ EP   2   1436 20.06                             118    -0.1 4  235 235 
 NOR  SN ES   1   1436 47.75                             118    -0.2 6  235 235 
 CHI  HZ EP   1   1436 22.21                             117     0.2 6  248 195 
 CHI  HZ I        1436 56.80         3.2 0.21                           248 195 
 RREF HE ES   2   1437  7.00                             111     0.5 3  321 230 
 RREF HZ I        1437 15.78         4.1 0.36                           321 230 
 PRA  HZ EP   1   1436 38.28                             106     0.4 4  391 210 
                                                                                
