 2017  620 1746 57.8 L   6.808 -73.154149.1  RSN  7 0.4 1.8LRSN                1
 GAP=257        0.96       5.3     8.1  9.5 -0.6769E+01 -0.2522E+02  0.1591E+02E
 Epicentro: LOS SANTOS - SANTANDER                                             3
 ACTION:UPD 17-09-14 16:53 OP:jn   STATUS:               ID:20170620174657 L   I
 OLDACT:UP  17-07-06 15:36 OP:nlst STATUS:               ID:20170620174657 L   3
 OLDACT:UP  17-06-21 01:33 OP:ar   STATUS:               ID:20170620173739     3
 OLDACT:REG 17-06-20 23:18 OP:ar   STATUS:               ID:20170620173739     3
 2017-06-20-1738-00M.COL___349                                                 6
 STAT SP IPHASW D HRMM SECON CODA AMPLIT PERI AZIMU VELO AIN AR TRES W  DIS CAZ7
 BRR  HZ EP       1747 19.12                             153   -0.1210 70.0 298 
 BRR  HN ES       1747 36.27                             153    0.3110 70.0 298 
 PTB  HZ EP       1747 24.80                             133   -0.17 9  147 258 
 PTB  HN ES       1747 45.47                             133   -0.70 9  147 258 
 PTB  HZ I        1747 47.53         5.2 0.20            128            147 258 
 SPBC HZ EP       1747 26.61                             130    0.05 9  163 219 
 SPBC HN ES       1747 48.74                             130   -0.26 9  163 219 
 ZAR  HN ES       1747 56.11                             123    0.39 9  203 292 
 ZAR  HZ I        1748  0.55         8.4 0.44            119            203 292 
 NOR  HZ EP       1747 33.75                             119    0.05 8  234 234 
 NOR  HN ES       1748  2.29                             119    0.60 8  234 234 
 NOR  HZ I        1748  3.46         4.6 0.18            116            234 234 
 CHI  HE ES   2   1748  5.56                             117    0.21 4  249 195 
 GUY2CHZ EP   9   1747 43.11                             113    1.58 0  301 235 
 GUY2CHN ES       1748 16.32                             112   -0.90 7  301 235 
 GUY2CHZ I        1748 25.05         2.7 0.66                           301 235 
                                                                                
