 2011  720 1409 23.4 L   6.756 -73.120144.3  RSN  8 0.3 2.1LRSN                1
 GAP=159        0.54       2.4     4.6  4.1 -0.2139E+01  0.1888E+01  0.1227E+01E
 Epicentro: LOS SANTOS - SANTANDER                                             3
 ACTION:UPD 12-07-25 14:02 OP:epov STATUS:               ID:20110720140923 L   I
 2011-07-20-1406-18S.COL___143                                                 6
 STAT SP IPHASW D HRMM SECON CODA AMPLIT PERI AZIMU VELO AIN AR TRES W  DIS CAZ7
 BAR2 SZ EP   1   14 9 42.75                             172    0.00 7 19.4 201 
 BAR2 SZ ES   1   14 9 57.48                             172   -0.39 7 19.4 201 
 BRR  HZ IP       14 9 44.50                             151   -0.1510 76.1 301 
 BRR  HZ I        14 9 44.72        61.8 0.13                          76.1 301 
 BRR  HE ES   1   1410  1.85                             151    0.61 7 76.1 301 
 RUS  HZ EP   1   14 9 46.66                             145    0.04 7 95.6 178 
 RUS  HN ES   1   1410  4.77                             145    0.01 7 95.6 178 
 RUS  HZ I        1410  6.39        19.0 0.45                          95.6 178 
 BRI  SZ EP   1   14 9 47.35                             140   -0.05 7  112  19 
 BRI  SZ ES   2   1410  6.48                             140    0.34 5  112  19 
 BRI  SZ I        1410 10.49         6.5 0.30                           112  19 
 OCA  SZ EP   1   14 9 52.06                             128    0.00 7  165 352 
 OCA  SZ ES   1   1410 14.12                             128   -0.32 7  165 352 
 OCA  SZ I        1410 16.89        19.0 0.17                           165 352 
 NOR  SZ EP   1   14 9 58.74                             118   -0.23 6  234 236 
 NOR  SN ES   1   1410 26.58                             118   -0.16 6  234 236 
 CHI  HZ EP       1410  0.90                             117    0.34 8  245 196 
 CHI  HZ I        1410 36.37         6.7 0.57                           245 196 
 PRA  HZ EP   1   1410 16.61                             106    0.10 4  389 210 
                                                                                
