 2016  320 1936 57.8 L   6.788 -73.189137.1  RSN  6 0.3 1.7LRSN                1
 GAP=132        0.66       2.6     3.0  4.9 -0.8693E+00  0.5289E+01 -0.3228E+01E
 Epicentro: ZAPATOCA - SANTANDER                                               3
 ACTION:UPD 16-05-13 21:25 OP:cam  STATUS:               ID:20160320193657 L   I
 OLDACT:REG 16-03-20 21:33 OP:cara STATUS:               ID:20160320192747     3
 2016-03-20-1927-47M.COL___286                                                 6
 STAT SP IPHASW D HRMM SECON CODA AMPLIT PERI AZIMU VELO AIN AR TRES W  DIS CAZ7
 BAR2 EZ ES       1937 31.13                             171    0.3210 21.7 178 
 BAR2 EZ I        1937 32.05         6.7 0.20            173           21.7 178 
 PAM  EZ EP       1937 19.42                             148    0.0710 81.5  42 
 PAM  EN ES       1937 36.24                             148    0.0710 81.5  42 
 PAM  EZ I        1937 38.56         6.0 0.62            150           81.5  42 
 RUS  HZ EP       1937 20.71                             142    0.0810 99.7 173 
 RUS  HN ES       1937 38.22                             142   -0.2310 99.7 173 
 PTB  HZ EP       1937 23.65                             131    0.06 9  143 259 
 PTB  HN ES       1937 43.32                             131   -0.41 9  143 259 
 OCA  HZ EP       1937 25.48                             127   -0.03 9  161 355 
 OCA  HE ES       1937 46.73                             127   -0.41 9  161 355 
 OCA  HZ I        1937 49.89        15.1 0.36            128            161 355 
 ZAR  HZ EP       1937 29.31                             121    0.05 9  200 293 
 ZAR  HE ES       1937 54.27                             121    0.45 9  200 293 
 ZAR  HZ I        1938  3.02         4.9 0.22            121            200 293 
                                                                                
