 2014 1220 1044 39.9 L   6.787 -73.171146.2  RSN 14 0.3 2.2LRSN                1
 GAP=134        0.79       2.0     2.8  4.0 -0.5830E+00  0.3827E+01  0.6845E+00E
 Epicentro: LOS SANTOS - SANTANDER                                             3
 ACTION:UPD 15-02-10 17:05 OP:nd   STATUS:               ID:20141220104439 L   I
 OLDACT:REG 14-12-20 20:22 OP:fm   STATUS:               ID:20141220103748     3
 2014-12-20-1037-48M.COL___302                                                 6
 STAT SP IPHASW D HRMM SECON CODA AMPLIT PERI AZIMU VELO AIN AR TRES W  DIS CAZ7
 BAR2 EZ EP       1044 59.76                             171    0.2410 21.6 183 
 BAR2 EZ ES       1045 14.86                             171    0.0210 21.6 183 
 BAR2 EZ I        1045 16.56        35.6 0.22            171           21.6 183 
 BRR  HZ EP     C 1045  1.74                             153    0.7710 69.4 301 
 BRR  HE ES       1045 17.82                             153    0.4010 69.4 301 
 BRR  HZ I        1045 21.45        21.7 0.14            150           69.4 301 
 PAM  SZ EP     D 1045  2.71                             150    0.4010 80.3  40 
 PAM  SN ES       1045 19.42                             150   -0.3810 80.3  40 
 PAM  SZ I        1045 22.19        14.1 0.64            153           80.3  40 
 RUS  HZ EP       1045  3.55                             144   -0.0310 99.4 174 
 RUS  HE ES       1045 21.77                             144   -0.3110 99.4 174 
 RUS  HZ I        1045 23.62        20.3 0.24            147           99.4 174 
 PTB  HZ EP       1045  6.33                             133   -0.27 9  145 259 
 PTB  HE ES       1045 27.45                             133    0.00 9  145 259 
 PTB  HZ I        1045 28.91        18.2 0.22            132            145 259 
 SPBC HZ EP       1045  8.52                             130    0.38 9  160 219 
 SPBC HN ES       1045 30.15                             130   -0.03 9  160 219 
 SPBC HZ I        1045 34.33        20.2 0.22            131            160 219 
 OCA  HE ES       1045 30.25                             129   -0.25 9  161 354 
 OCA  HZ I        1045 35.54         9.4 0.50            130            161 354 
 ZAR  HZ EP       1045 12.39                             123    0.26 9  202 293 
 ZAR  HN ES       1045 37.17                             123   -0.13 9  202 293 
 ZAR  HZ I        1045 46.01        13.5 0.56            123            202 293 
 NOR  HZ EP       1045 14.91                             119   -0.39 8  232 234 
 NOR  HE ES       1045 43.01                             119    0.09 8  232 234 
 NOR  HZ I        1045 48.96        12.1 0.22            120            232 234 
 SML  HZ EP       1045 16.01                             117   -0.52 8  244 336 
 SML  HE ES       1045 44.73                             117   -0.40 8  244 336 
 SML  HZ I        1045 54.04        15.7 0.10            118            244 336 
 CHI  HZ EP       1045 17.52                             117    0.15 8  247 195 
 CHI  HN ES       1045 46.25                             117   -0.37 8  247 195 
 CHI  HZ I        1045 49.88         4.5 0.32            119            247 195 
 HEL  HZ EP       1045 19.71                             115   -0.06 8  269 256 
 HEL  HN ES       1045 50.51                             115   -0.37 8  269 256 
 HEL  HZ I        1045 59.02         8.3 0.30            116            269 256 
 DBB  SZ ES       1046  4.20                             110    0.34 7  337 275 
 DBB  SZ I        1046  7.80        21.3 0.68            110            337 275 
 TOL  SZ EP       1045 27.84                             109    0.04 7  341 224 
 TOL  SE ES       1046  5.08                             109   -0.11 7  341 224 
 TOL  SZ I        1046 10.33         9.8 0.20            111            341 224 
                                                                                
