 2014 1220 1129 37.1 L   6.804 -73.155144.9  RSN 18 0.5 2.1LRSN                1
 GAP=135        1.12       2.7     3.8  5.8 -0.1491E+01  0.7010E+01  0.9555E+00E
 Epicentro: LOS SANTOS - SANTANDER                                             3
 ACTION:UPD 15-02-10 17:05 OP:nd   STATUS:               ID:20141220112937 L   I
 OLDACT:REG 14-12-20 20:24 OP:fm   STATUS:               ID:20141220112746     3
 2014-12-20-1127-46M.COL___305                                                 6
 STAT SP IPHASW D HRMM SECON CODA AMPLIT PERI AZIMU VELO AIN AR TRES W  DIS CAZ7
 BAR2 EZ IP     D 1129 56.93                             170    0.3210 23.6 187 
 BAR2 EZ ES   1   1130 12.01                             170    0.17 7 23.6 187 
 BAR2 EZ I        1130 14.63        13.4 0.14            168           23.6 187 
 BRR  HZ EP       1129 58.77                             153    0.7010 70.1 299 
 BRR  HN ES       1130 14.71                             153    0.2710 70.1 299 
 BRR  HZ I        1130 19.80        26.1 0.42            148           70.1 299 
 PAM  SZ IP     D 1129 59.68                             150    0.4610 77.7  40 
 PAM  SE ES       1130 16.49                             150    0.0010 77.7  40 
 PAM  SZ I        1130 19.00        16.3 0.18            155           77.7  40 
 RUS  HZ EP       1130  0.82                             143    0.0410  101 175 
 RUS  HE ES       1130 18.48                             143   -0.7910  101 175 
 RUS  HZ I        1130 20.68        12.9 0.42            146            101 175 
 PTB  HZ EP       1130  3.68                             132   -0.21 9  147 259 
 PTB  HE ES       1130 25.31                             132    0.51 9  147 259 
 PTB  HZ I        1130 30.74        19.0 0.20            130            147 259 
 OCA  HZ EP       1130  5.74                             129    0.47 9  160 354 
 OCA  HE ES       1130 26.29                             129   -0.96 9  160 354 
 OCA  HZ I        1130 32.82        14.9 0.16            130            160 354 
 SPBC HZ EP       1130  5.88                             129    0.40 9  163 219 
 SPBC HN ES       1130 27.48                             129   -0.15 9  163 219 
 SPBC HZ I        1130 31.32        28.2 0.16            129            163 219 
 ZAR  HZ EP       1130  9.08                             122   -0.27 9  203 292 
 ZAR  HN ES       1130 34.47                             122   -0.05 9  203 292 
 ZAR  HZ I        1130 41.04        30.8 0.36            121            203 292 
 NOR  HZ EP       1130 12.85                             118    0.16 8  234 234 
 NOR  HE ES       1130 39.74                             118   -0.73 8  234 234 
 NOR  HZ I        1130 49.07        10.7 0.54            119            234 234 
 SML  HZ EP       1130 13.73                             117    0.17 8  243 335 
 SML  HN ES       1130 41.66                             117   -0.36 8  243 335 
 SML  HZ I        1130 56.48        20.2 0.10            118            243 335 
 CHI  HZ EP       1130 14.67                             117   -0.08 8  249 195 
 CHI  HN ES       1130 43.85                             117   -0.27 8  249 195 
 CHI  HZ I        1130 50.53         3.9 0.28            119            249 195 
 ROSC BZ I        1130 54.61        15.9 0.55            118            253 211 
 HEL  HZ EP       1130 16.95                             115   -0.20 8  271 256 
 HEL  HN ES       1130 49.17                             115    0.78 8  271 256 
 HEL  HZ I        1130 57.09         5.9 0.28            115            271 256 
 CBOC HE ES       1131  0.14                             110   -0.20 7  333 252 
 CBOC HZ I        1131 11.91         3.5 0.50            110            333 252 
 TOL  SZ EP       1130 24.16                             109   -1.09 7  343 224 
 TOL  SE ES       1131  3.02                             109    0.20 7  343 224 
 TOL  SZ I        1131  8.19        16.6 0.34            110            343 224 
 MON  HZ EP   4   1130 22.91                             108   -3.01 0  353 308 
 MON  HE ES       1131  3.24                             108   -0.77 6  353 308 
 MON  HZ I        1131 17.89         6.0 0.66            109            353 308 
 ORTC HE ES       1131 13.63                             106    0.68 6  395 216 
 ORTC HZ I        1131 21.41         3.2 0.54            107            395 216 
 SJC  HZ EP   4   1130 30.75                             106   -1.75 0  408 327 
 SJC  HE ES   4   1131 12.62                             106   -3.11 0  408 327 
 SJC  HZ I        1131 18.93         2.9 0.58            106            408 327 
                                                                                
