 2013  220 1453 47.9 L   6.811 -73.174149.3  RSN  7 0.4 1.7LRSN                1
 GAP=198        0.71       4.0     5.5  7.9  0.1151E+02 -0.4423E+01  0.5830E+00E
 Epicentro: LOS SANTOS - SANTANDER                                             3
 ACTION:UPD 13-03-12 09:34 OP:ep   STATUS:               ID:20130220145347 L   I
 2013-02-20-1450-00M.COL___238                                                 6
 STAT SP IPHASW D HRMM SECON CODA AMPLIT PERI AZIMU VELO AIN AR TRES W  DIS CAZ7
 BAR2 SZ EP   1   1454  7.74                             170   -0.19 7 24.2 182 
 BRR  HZ EP       1454  9.45                             154    0.2410 67.8 299 
 BRR  HN ES   1   1454 26.34                             154    0.48 7 67.8 299 
 BRR  HZ I        1454 29.73        10.7 0.32            154           67.8 299 
 RUS  HZ EP       1454 11.90                             144   -0.1710  102 174 
 RUS  HN ES   1   1454 30.68                             144   -0.27 7  102 174 
 RUS  HZ I        1454 32.77         3.3 0.28            145            102 174 
 PTB  HZ EP   1   1454 14.38                             133   -0.49 7  145 258 
 PTB  HN ES   1   1454 35.48                             133   -0.45 7  145 258 
 PTB  HZ I        1454 41.16         7.3 0.48            134            145 258 
 ZAR  HN ES       1454 45.54                             124    0.13 9  201 292 
 SML  HN ES   1   1454 52.74                             118   -0.21 6  241 336 
 CHI  HZ EP   1   1454 26.45                             118    0.65 6  249 194 
 CHI  HN ES   1   1454 55.78                             118    0.39 6  249 194 
 CHI  HZ I        1454 59.80         4.0 0.80            120            249 194 
                                                                                
