 2016  820 1003 43.3 L   6.833 -73.043151.2  RSN 10 0.4 1.6LRSN                1
 GAP=250        0.92       3.9     4.9  4.9  0.5079E+01  0.4293E+01  0.3187E+01E
 Epicentro: LOS SANTOS - SANTANDER                                             3
 ACTION:UPD 16-10-29 15:37 OP:rebc STATUS:               ID:20160820100343 L   I
 OLDACT:UP  16-08-20 21:02 OP:edw  STATUS:               ID:20160820095745     3
 OLDACT:REG 16-08-20 20:18 OP:edw  STATUS:               ID:20160820095745     3
 2016-08-20-0957-45M.COL___353                                                 6
 STAT SP IPHASW D HRMM SECON CODA AMPLIT PERI AZIMU VELO AIN AR TRES W  DIS CAZ7
 BAR2 EZ EP       10 4  4.00                             168    0.2310 30.7 210 
 BAR2 EZ ES       10 4 19.85                             168    0.1310 30.7 210 
 BAR2 EZ I        10 4 21.70         8.1 0.20                          30.7 210 
 BRR  HZ EP       10 4  5.62                             151    0.0610 79.9 292 
 BRR  HN ES       10 4 22.92                             151    0.0210 79.9 292 
 BRR  HZ I        10 4 25.21         5.5 0.36                          79.9 292 
 RUS  HZ EP       10 4  7.96                             144    0.1010  104 182 
 RUS  HE ES       10 4 26.88                             144   -0.1110  104 182 
 RUS  HZ I        10 4 27.88         4.8 0.28                           104 182 
 PTB  HZ EP   9   10 4 10.68                             131   -1.13 0  160 258 
 PTB  HN ES       10 4 33.02                                    0.12 9  160 258 
 PTB  HZ I        10 4 34.99         2.7 0.06                           160 258 
 SPBC HZ EP       10 4 13.14                             128   -0.05 9  173 221 
 SPBC HE ES       10 4 35.42                             128   -1.07 9  173 221 
 SPBC HZ I        10 4 38.28         5.9 0.20                           173 221 
 ZAR  HZ EP       10 4 17.00                             122   -0.07 8  213 290 
 ZAR  HN ES       10 4 43.39                             122   -0.01 8  213 290 
 CHI  HZ EP       10 4 21.32                             118   -0.72 8  255 197 
 CHI  HN ES       10 4 53.29                             118    1.05 8  255 197 
 GUY2CHZ EP       10 4 28.60                             112    0.14 7  313 235 
 GUY2CHN ES   2   10 5  4.20                             112    0.53 3  313 235 
 GUY2CHZ I        10 5 10.16         1.9 0.34                           313 235 
 CBOC HZ EP       10 4 31.99                             110    0.17 6  345 252 
 CBOC HN ES       10 5  9.94                             110    0.29 6  345 252 
 CBOC HZ I        10 5 15.95         0.7 0.58                           345 252 
 PRA  HZ EP       10 4 37.94                             107   -0.12 6  401 211 
 PRA  HN ES       10 5 20.84                             107    0.08 6  401 211 
 PRA  HZ I        10 5 26.19         1.9 0.52                           401 211 
                                                                                
