 2012  920 1614  1.3 L   6.736 -73.115145.6  RSN  4 0.1 1.6LRSN                1
 GAP=143        0.36       3.6     5.3  6.9  0.6031E+01 -0.2121E+02 -0.5199E+01E
 Epicentro: JORDAN - SANTANDER                                                 3
 ACTION:UPD 12-10-22 14:19 OP:ep   STATUS:               ID:20120920161401 L   I
 2012-09-20-1610-00M.COL___224                                                 6
 STAT SP IPHASW D HRMM SECON CODA AMPLIT PERI AZIMU VELO AIN AR TRES W  DIS CAZ7
 BAR2 SZ EP   2   1614 20.74                             173   -0.05 5 17.5 205 
 BRR  HZ EP       1614 22.70                             150   -0.1010 77.7 302 
 BRR  HZ I        1614 23.25        11.1 0.27                          77.7 302 
 BRR  HE ES   1   1614 39.67                             150    0.10 7 77.7 302 
 PAM  SZ EP       1614 23.71                             150    0.0110 81.0  35 
 RUS  HZ EP   1   1614 24.69                             146    0.18 7 93.3 178 
 RUS  HN ES   2   1614 42.42                             146   -0.21 5 93.3 178 
 RUS  HZ I        1614 44.65         4.0 0.48                          93.3 178 
                                                                                
