 2010 1220 1839 57.3 L   6.789 -73.144144.0  RSN  9 0.2 2.1LRSN                1
 GAP=159        0.52       3.3     5.6  5.0 -0.8150E+01  0.1085E+02 -0.4741E+01E
 Epicentro: LOS SANTOS - SANTANDER                                             3
 ACTION:UP  11-01-14 15:26 OP:pat  STATUS:               ID:20101220183957 L   I
 2010-12-20-1834-20S.COL___133                                                 6
 STAT SP IPHASW D HRMM SECON CODA AMPLIT PERI AZIMU VELO SNR AR TRES W  DIS CAZ7
 BTL  SZ EP   1   1840 17.07                             172     0.4 7   20 316 
 BAR2 SZ EP   1   1840 16.71                             171     0.0 7   22 191 
 BAR2 SZ ES   1   1840 31.70                             171    -0.1 7   22 191 
 BAR2 SZ I        1840 34.35        56.5 0.43                            22 191 
 RUS  HZ EP       1840 20.62                             144    -0.210   99 176 
 RUS  HE ES   1   1840 39.33                             144     0.2 7   99 176 
 RUS  HZ I        1840 40.37        16.9 0.34                            99 176 
 GRA  SZ EP   1   1840 22.55                             136     0.1 7  127  17 
 GRA  SZ I        1840 43.30        16.2 0.27                           127  17 
 OCA  SZ EP   1   1840 25.28                             129    -0.3 7  161 353 
 NOR  SZ EP   1   1840 33.03                             118     0.1 6  234 235 
 NOR  SN ES   1   1841  0.51                             118    -0.1 6  234 235 
 CHI  HZ EP   1   1840 34.65                             117    -0.1 6  248 195 
 CHI  HZ I        1840 36.60         6.6 0.59                           248 195 
 CHI  HN ES   2   1841  3.70                             117    -0.3 4  248 195 
 RREF HZ EP   2   1840 43.86                             111     0.6 3  321 230 
 RREF HZ I        1840 47.39         4.2 0.22                           321 230 
 PRA  HZ EP   2   1840 51.03                             106     0.4 3  391 210 
                                                                                
