 2016  820 1642 12.5 L   6.334 -73.668107.1  RSN  6 0.3 1.7LRSN                1
 GAP=115        0.72       3.1     2.5  5.5 -0.1269E+00  0.5649E+01 -0.3268E+01E
 Epicentro: SANTA HELENA DEL OPON - SANTANDER                                  3
 ACTION:UPD 16-10-29 15:37 OP:rebc STATUS:               ID:20160820164212 L   I
 OLDACT:DUP 16-08-20 21:41 OP:lv   STATUS:               ID:20160820163746d    3
 2016-08-20-1637-45M.COL___346                                                 6
 STAT SP IPHASW D HRMM SECON CODA AMPLIT PERI AZIMU VELO AIN AR TRES W  DIS CAZ7
 BAR2 EZ EP       1642 29.70                             148    0.4610 60.8  62 
 BAR2 EZ ES       1642 42.52                             148    0.2010 60.8  62 
 RUS  HZ EP       1642 30.66                             140   -0.3910 81.1 127 
 RUS  HE ES       1642 45.41                             140   -0.1210 81.1 127 
 RUS  HZ I        1642 46.54         6.8 0.22                          81.1 127 
 SPBC HZ EP       1642 30.79                             138   -0.2310 87.7 211 
 SPBC HE ES       1642 45.60                             138    0.1210 87.7 211 
 SPBC HZ I        1642 52.51        12.4 0.08                          87.7 211 
 PTB  HZ EP       1642 30.86                             137   -0.2510 90.1 285 
 PTB  HN ES       1642 45.33                             137   -0.3210 90.1 285 
 PTB  HZ I        1642 48.59         8.1 0.08                          90.1 285 
 NOR  HZ EP       1642 37.99                             119    0.25 9  158 237 
 NOR  HE ES       1642 57.79                             119    0.35 9  158 237 
 NOR  HZ I        1643  3.48         9.9 0.15                           158 237 
 URE  HZ EP       1642 49.00                             107   -0.05 8  259 307 
 URE  HN ES       1643 17.69                             107    0.11 8  259 307 
 URE  HE ES       1643 18.80                                            259 307 
 URE  HZ I        1643 26.33         5.0 0.22                           259 307 
                                                                                
