 2017  720 1052  7.8 L   6.781 -73.144143.0  RSN  7 0.4 1.4LRSN                1
 GAP=138        0.96       4.0     4.1  6.1 -0.5097E+00  0.6498E+01  0.2624E+00E
 Epicentro: LOS SANTOS - SANTANDER                                             3
 ACTION:UPD 17-08-30 15:35 OP:rebc STATUS:               ID:20170720105207 L   I
 OLDACT:REG 17-07-20 19:48 OP:lv   STATUS:               ID:20170720104742     3
 2017-07-20-1048-00M.COL___377                                                 6
 STAT SP IPHASW D HRMM SECON CODA AMPLIT PERI AZIMU VELO AIN AR TRES W  DIS CAZ7
 BAR2 EZ EP       1052 27.05                             171   -0.0310 21.3 192 
 BAR2 EZ ES       1052 42.34                             171    0.2410 21.3 192 
 BAR2 EZ I        1052 44.91         4.6 0.30            170           21.3 192 
 BRR  HZ EP       1052 29.09                             152    0.3410 72.4 300 
 BRR  HE ES       1052 45.53                             152    0.4610 72.4 300 
 PAM  EZ EP       1052 29.92                             150    0.0810 78.9  38 
 PAM  EN ES       1052 46.57                             150   -0.4410 78.9  38 
 PAM  EZ I        1052 49.38         3.4 0.14            153           78.9  38 
 RUS  HZ EP       1052 31.17                             144    0.0210 98.4 176 
 RUS  HN ES       1052 49.17                             144   -0.1710 98.4 176 
 PTB  HZ EP       1052 33.93                             131   -0.62 9  148 260 
 PTB  HN ES       1052 54.67                             131   -0.73 9  148 260 
 PTB  HZ I        1052 57.93         2.3 0.21            133            148 260 
 SPBC HZ EP       1052 36.03                             129    0.06 9  162 220 
 SPBC HN ES       1052 58.33                             129    0.41 9  162 220 
 SPBC HZ I        1053  2.74         4.6 0.18            130            162 220 
 ZAR  HZ EP       1052 40.66                             122    0.46 9  205 293 
 ZAR  HE ES       1053  5.36                             122   -0.09 9  205 293 
                                                                                
