 2016  720 1429  0.0 L   6.749 -73.115137.7  RSN  5 0.4 1.6LRSN                1
 GAP=143        0.91       5.4     6.0  7.6  0.1425E+02 -0.2937E+01 -0.8110E+01E
 Epicentro: LOS SANTOS - SANTANDER                                             3
 ACTION:UPD 17-03-29 16:53 OP:lp   STATUS:               ID:20160720142900 L   I
 OLDACT:DUP 16-07-20 22:54 OP:lv   STATUS:               ID:20160720142701d    3
 2016-07-20-1427-59S.COL___340                                                 6
 STAT SP IPHASW D HRMM SECON CODA AMPLIT PERI AZIMU VELO AIN AR TRES W  DIS CAZ7
 BAR2 EZ EP       1429 18.39                             172   -0.2010 18.9 203 
 BAR2 EZ ES       1429 33.09                             172    0.0110 18.9 203 
 BRR  HZ EP       1429 20.44                             149   -0.2110 76.9 301 
 BRR  HN ES       1429 37.25                             149    0.5210 76.9 301 
 BRR  HZ I        1429 43.50         8.6 0.29            146           76.9 301 
 PAM  EZ EP       1429 21.51                             148   -0.0210 79.8  35 
 PAM  EN ES   2   1429 38.06                             148   -0.25 5 79.8  35 
 PAM  EZ I        1429 40.42         6.0 0.14            151           79.8  35 
 RUS  HZ EP       1429 23.19                             144    0.6310 94.8 178 
 RUS  HN ES       1429 39.74                             144   -0.4010 94.8 178 
 RUS  HZ I        1429 41.81         3.3 0.25            148           94.8 178 
 ZAR  HN ES       1429 57.47                             120   -0.37 8  209 293 
 ZAR  HZ I        1430  5.61         6.9 0.22            120            209 293 
                                                                                
