 2016  920 1340 11.6 L   6.745 -73.168144.3  RSN  6 0.1 1.6LRSN                1
 GAP=231        0.40       2.7     2.7  3.1  0.1784E+01  0.7954E+00 -0.1481E+01E
 Epicentro: LOS SANTOS - SANTANDER                                             3
 ACTION:UPD 17-08-17 21:14 OP:lp   STATUS:               ID:20160920134011 L   I
 OLDACT:UP  16-09-20 23:48 OP:edw  STATUS:               ID:20160920133736     3
 OLDACT:REG 16-09-20 20:49 OP:edw  STATUS:               ID:20160920133736     3
 2016-09-20-1338-00M.COL___363                                                 6
 STAT SP IPHASW D HRMM SECON CODA AMPLIT PERI AZIMU VELO AIN AR TRES W  DIS CAZ7
 BAR2 EZ EP       1340 30.86                             173   -0.0810 16.9 186 
 BAR2 EZ ES       1340 45.99                             173   -0.0410 16.9 186 
 BAR2 EZ I        1340 47.04        10.0 0.22            169           16.9 186 
 BRR  HZ EP   3   1340 32.58                             152   -0.07 2 72.3 304 
 BRR  HN ES   3   1340 49.14                             152    0.07 2 72.3 304 
 RUS  HZ EP   2   1340 34.66                             145   -0.13 5 94.7 174 
 RUS  HN ES   2   1340 53.14                             145    0.27 5 94.7 174 
 RUS  HZ I        1340 54.68         6.4 0.34            145           94.7 174 
 PTB  HZ EP   9   1340 37.83                             132   -0.30 0  144 261 
 PTB  HE ES       1340 58.77                             132    0.24 9  144 261 
 PTB  HZ I        1341  3.60         3.2 0.22            131            144 261 
 SPBC HZ EP       1340 39.64                             130    0.25 9  157 220 
 SPBC HN ES       1341  0.88                             130   -0.19 9  157 220 
 SPBC HZ I        1341  3.63         7.7 0.18            129            157 220 
 ZAR  HZ EP       1340 43.95                             122   -0.02 9  204 294 
 ZAR  HE ES       1341  9.28                             122    0.07 9  204 294 
                                                                                
