 2015  720 1357  1.8 L   7.267 -73.261128.0  RSN  9 0.5 2.0LRSN                1
 GAP= 91        1.02       3.1     4.5  7.5 -0.1627E+01  0.2018E+02  0.2566E+01E
 Epicentro: RIONEGRO - SANTANDER                                               3
 ACTION:UPD 15-09-08 21:49 OP:cam  STATUS:               ID:20150720135701 L   I
 OLDACT:UP  15-07-20 23:43 OP:ak   STATUS:               ID:20150720134750     3
 OLDACT:REG 15-07-20 22:27 OP:ak   STATUS:               ID:20150720134750     3
 2015-07-20-1347-50M.COL___331                                                 6
 STAT SP IPHASW D HRMM SECON CODA AMPLIT PERI AZIMU VELO AIN AR TRES W  DIS CAZ7
 PAM  EZ EP       1357 21.44                             153    0.1910 62.5  83 
 PAM  EN ES       1357 36.62                             153    0.2110 62.5  83 
 PAM  EZ I        1357 38.12        20.8 0.28            161           62.5  83 
 BAR2 EZ EP       1357 21.54                             148   -0.1110 75.1 173 
 BAR2 EZ ES       1357 36.76                             148   -0.3710 75.1 173 
 BAR2 EZ I        1357 37.99        29.8 0.30            151           75.1 173 
 OCA  HZ EP       1357 23.54                             137   -0.4110  108 357 
 OCA  HE ES       1357 41.80                             137    0.5710  108 357 
 OCA  HZ I        1357 44.41        27.1 0.12            141            108 357 
 ZAR  HZ EP       1357 30.63                             122    0.22 9  178 278 
 ZAR  HN ES       1357 53.20                             122    0.47 9  178 278 
 ZAR  HZ I        1357 58.25        10.8 0.19            124            178 278 
 SML  HZ EP       1357 31.13                             120   -0.69 9  192 332 
 SML  HN ES       1357 54.80                             120   -0.44 9  192 332 
 SML  HZ I        1357 56.89        22.0 0.08            123            192 332 
 NOR  HZ EP       1357 39.85                             112    0.55 8  259 223 
 NOR  HN ES       1358  7.87                             112   -0.69 8  259 223 
 NOR  HZ I        1358 14.43         6.5 0.22            115            259 223 
 HEL  HZ EP       1357 42.01                             110    0.21 7  278 245 
 HEL  HN ES       1358 12.46                             110   -0.54 7  278 245 
 HEL  HZ I        1358 21.14         3.6 0.34            113            278 245 
 GUY2CHZ EP   1   1357 47.96                             107    0.61 5  324 226 
 GUY2CHE ES       1358 23.69                             107    0.82 7  324 226 
 GUY2CHZ I        1358 31.93         3.8 0.36                           324 226 
 TOL  SZ EP       1357 52.98                             104   -0.02 6  374 218 
 TOL  SN ES       1358 32.89                             104   -0.05 6  374 218 
                                                                                
