 2012  420 1518 56.5 L   5.766 -73.950 95.3  RSN  4 0.3 2.0LRSN                1
 GAP=215        0.64       5.9     5.0 11.8 -0.2064E+02 -0.2878E+02  0.2579E+02E
 Epicentro: ALBANIA - SANTANDER                                                3
 ACTION:UPD 12-07-05 11:54 OP:tino STATUS:               ID:20120420151856 L   I
 2012-04-20-1514-46M.COL___184                                                 6
 STAT SP IPHASW D HRMM SECON CODA AMPLIT PERI AZIMU VELO AIN AR TRES W  DIS CAZ7
 PTB  HZ EP   1   1519 15.31                             129     0.1 7  102 327 
 PTB  HN ES   1   1519 29.47                             129    -0.4 7  102 327 
 NOR  SZ EP   1   1519 15.47                             129     0.0 7  104 258 
 NOR  SE ES   1   1519 30.49                             129     0.2 7  104 258 
 BAR2 SZ EP   1   1519 17.82                             124     0.1 7  125  43 
 BAR2 SZ ES   1   1519 34.21                             124    -0.1 7  125  43 
 BAR2 SZ I        1519 35.81        18.2 0.46                           125  43 
 BRR  HZ EP   1   1519 19.91                             118    -0.3 7  151  10 
 BRR  HZ I        1519 20.95        16.0 0.17                           151  10 
 BRR  HE ES   1   1519 39.28                             118     0.6 7  151  10 
                                                                                
