 2014  220 1145 42.2 L   6.805 -73.238141.0  RSN  6 0.4 1.7LRSN                1
 GAP=188        0.98       3.7     5.5  7.2  0.2273E+01  0.9027E+01 -0.4211E+01E
 Epicentro: ZAPATOCA - SANTANDER                                               3
 ACTION:UPD 14-03-10 08:11 OP:ep   STATUS:               ID:20140220114542 L   I
 OLDACT:REG 14-02-20 16:20 OP:carl STATUS:               ID:20140220114000     3
 2014-02-20-1140-00M.COL___210                                                 6
 STAT SP IPHASW D HRMM SECON CODA AMPLIT PERI AZIMU VELO AIN AR TRES W  DIS CAZ7
 BAR2 SZ EP       1146  1.34                             170    0.0310 24.3 165 
 BAR2 SZ ES       1146 16.34                             170    0.1510 24.3 165 
 BAR2 SZ I        1146 17.74        23.4 0.22            170           24.3 165 
 RUS  HZ EP       1146  5.37                             142   -0.2810  102 170 
 RUS  HE ES       1146 23.62                             142   -0.3010  102 170 
 RUS  HZ I        1146 25.32         6.5 0.26            144            102 170 
 PTB  HZ EP       1146  8.60                             133    0.68 9  138 258 
 PTB  HN ES       1146 28.20                             133    0.25 9  138 258 
 PTB  HZ I        1146 36.36         4.5 0.32            131            138 258 
 NOR  HE ES       1146 42.93                             118   -0.91 8  227 233 
 SML  HZ EP       1146 17.74                             117   -0.36 8  239 337 
 SML  HE ES       1146 46.03                             117   -0.03 8  239 337 
 SML  HZ I        1146 52.90         7.4 0.24            117            239 337 
 CHI  HZ EP       1146 19.71                             116    0.25 8  247 193 
 CHI  HN ES       1146 48.95                             116    0.45 8  247 193 
 CHI  HZ I        1146 55.82         2.6 0.52            117            247 193 
                                                                                
