 2014  720 1354  6.2 L   6.800 -73.165141.8  RSN 12 0.5 2.1LRSN                1
 GAP=199        1.24       3.6     5.3  6.4  0.2355E+01  0.7973E+01  0.1658E+01E
 Epicentro: LOS SANTOS - SANTANDER                                             3
 ACTION:UPD 15-03-16 20:45 OP:nd   STATUS:               ID:20140720135406 L   I
 OLDACT:DUP 14-07-20 23:34 OP:stll STATUS:               ID:20140720134819d    3
 2014-07-20-1348-17M.COL___269                                                 6
 STAT SP IPHASW D HRMM SECON CODA AMPLIT PERI AZIMU VELO AIN AR TRES W  DIS CAZ7
 BAR2 SZ IP     C 1354 25.52                             170    0.2010 23.0 185 
 BAR2 SZ ES       1354 40.08                             170   -0.1710 23.0 185 
 BAR2 SZ I        1354 42.14        38.9 0.26            169           23.0 185 
 BRR  HZ IP     D 1354 27.35                             152    0.5610 69.3 299 
 BRR  HN ES       1354 43.82                             152    0.9510 69.3 299 
 BRR  HZ I        1354 47.94        14.1 0.42            150           69.3 299 
 RUS  HZ EP       1354 29.62                             143    0.0710  101 175 
 RUS  HN ES       1354 47.34                             143   -0.4410  101 175 
 RUS  HZ I        1354 50.94        11.9 0.36            146            101 175 
 PTB  HZ EP       1354 31.43                             132   -1.20 9  146 259 
 PTB  HN ES       1354 52.97                             132   -0.28 9  146 259 
 PTB  HZ I        1354 59.49        13.8 0.30            131            146 259 
 SPBC HZ EP       1354 34.53                             128    0.29 9  162 218 
 SPBC HN ES       1354 56.33                             128    0.20 9  162 218 
 SPBC HZ I        1354 58.98        22.2 0.22            129            162 218 
 ZAR  HZ EP       1354 38.04                             122   -0.12 9  202 292 
 ZAR  HN ES       1355  2.58                             122   -0.52 9  202 292 
 ZAR  HZ I        1355  9.91         9.9 0.18            122            202 292 
 NOR  HZ IP     D 1354 41.76                             118    0.28 8  233 234 
 NOR  HN ES       1355  9.30                             118    0.28 8  233 234 
 NOR  HZ I        1355 16.82         9.6 0.36            119            233 234 
 SML  HZ EP       1354 42.39                             117   -0.10 8  243 336 
 SML  HN ES       1355 10.36                             117   -0.45 8  243 336 
 SML  HZ I        1355 15.09        15.7 0.10            119            243 336 
 CHI  HZ EP       1354 43.61                             116    0.02 8  248 195 
 CHI  HZ I        1354 45.22         5.6 0.20            118            248 195 
 CHI  HN ES       1355 11.95                             116   -0.82 8  248 195 
 HEL  HZ EP       1354 46.62                             114    0.67 8  270 256 
 HEL  HE ES       1355 16.18                             114   -0.80 8  270 256 
 HEL  HZ I        1355 23.96         7.0 0.52            115            270 256 
 GUY2CHZ EP     C 1354 49.94                             112    0.54 7  299 235 
 GUY2CHN ES       1355 23.92                             112    0.81 7  299 235 
 GUY2CHZ I        1355 32.14        10.9 0.80                           299 235 
 PRA  HZ EP       1354 59.39                             106   -0.04 6  391 209 
 PRA  HN ES       1355 41.17                             106    0.20 6  391 209 
 PRA  HZ I        1355 45.52         5.4 0.30            108            391 209 
                                                                                
