 2013  520 1126 25.0 L   6.798 -73.193147.5  RSN  6 0.3 1.4LRSN                1
 GAP=177        0.67       5.3     4.6  7.0 -0.5643E+00  0.1905E+01  0.4144E+01E
 Epicentro: ZAPATOCA - SANTANDER                                               3
 ACTION:UPD 13-06-20 09:52 OP:ep   STATUS:               ID:20130520112625 L   I
 2013-05-20-1120-00M.COL___256                                                 6
 STAT SP IPHASW D HRMM SECON CODA AMPLIT PERI AZIMU VELO AIN AR TRES W  DIS CAZ7
 BAR2 SZ EP       1126 44.66                             171   -0.1610 22.7 177 
 GIR2 SZ EP   1   1126 44.74                             167   -0.12 7 31.1 360 
 GIR2 SZ ES   1   1127  0.42                             167    0.05 7 31.1 360 
 BRR  HZ EP       1126 46.54                             154    0.4510 66.8 301 
 BRR  HN ES   1   1127  2.77                             154    0.22 7 66.8 301 
 BRR  HZ I        1127  5.78         6.6 0.44            155           66.8 301 
 PTB  HZ EP       1126 51.62                             134   -0.02 9  143 259 
 PTB  HN ES       1127 12.05                             134   -0.38 9  143 259 
 PTB  HZ I        1127 15.82         2.3 0.12            135            143 259 
 ZAR  HN ES   1   1127 22.41                             123    0.32 6  199 293 
 SML  HE ES   1   1127 29.54                             118   -0.45 6  242 336 
                                                                                
