 2012  720 1924 14.4 L   6.777 -73.105149.1  RSN  6 0.4 2.0LRSN                1
 GAP=143        0.88       5.5     6.4  7.8 -0.3132E+01  0.1373E+02 -0.2926E+01E
 Epicentro: LOS SANTOS - SANTANDER                                             3
 ACTION:UPD 12-08-14 11:46 OP:ep   STATUS:               ID:20120720192414 L   I
 2012-07-20-1920-00M.COL___215                                                 6
 STAT SP IPHASW D HRMM SECON CODA AMPLIT PERI AZIMU VELO AIN AR TRES W  DIS CAZ7
 BAR2 SZ EP   1   1924 34.30                             171    -0.1 7   22 203 
 BAR2 SZ ES   1   1924 49.75                             171    -0.2 7   22 203 
 BAR2 SZ I        1924 51.03        17.9 0.14            171             22 203 
 BRR  HZ IP     C 1924 36.21                             151     0.010   76 299 
 BRR  HZ I        1924 36.67        34.1 0.12            152             76 299 
 BRR  HN ES   1   1924 53.71                             151     0.5 7   76 299 
 PAM  SZ EP   1   1924 37.24                             152     0.3 7   77  36 
 PAM  SN ES   2   1924 53.98                             152    -0.5 5   77  36 
 RUS  HZ EP   1   1924 38.59                             145     0.3 7   98 179 
 RUS  HN ES       1924 56.76                             145    -0.110   98 179 
 RUS  HZ I        1924 58.10         8.7 0.26            146             98 179 
 PTB  HZ EP   1   1924 41.22                             132    -0.7 7  152 260 
 PTB  HN ES   2   1925  2.72                             132    -0.8 5  152 260 
 NOR  SZ EP   1   1924 50.32                             119    -0.2 6  237 236 
 NOR  SN ES   1   1925 19.47                             119     0.7 6  237 236 
