 2016 1220 1809  0.1 L   6.807 -73.177150.0  RSN  5 0.3 1.4LRSN                1
 GAP=144        0.75       4.6     4.5  6.0 -0.6131E+01  0.6606E+01 -0.1090E+01E
 Epicentro: LOS SANTOS - SANTANDER                                             3
 ACTION:UPD 17-01-11 20:17 OP:rebc STATUS:               ID:20161220180900 L   I
 OLDACT:UP  16-12-21 01:03 OP:edw  STATUS:               ID:20161220180745     3
 OLDACT:UP  16-12-21 01:02 OP:edw  STATUS:               ID:20161220180745     3
 OLDACT:REG 16-12-20 21:08 OP:edw  STATUS:               ID:20161220180745     3
 2016-12-20-1808-00M.COL___387                                                 6
 STAT SP IPHASW D HRMM SECON CODA AMPLIT PERI AZIMU VELO AIN AR TRES W  DIS CAZ7
 BAR2 EZ EP       18 9 20.29                             171    0.0110 23.8 182 
 BAR2 EZ ES       18 9 36.13                             171    0.1310 23.8 182 
 BAR2 EZ I        18 9 38.13         6.3 0.28            171           23.8 182 
 PAM  EZ EP       18 9 23.12                             151    0.2210 79.0  42 
 PAM  EN ES       18 9 40.52                             151   -0.1310 79.0  42 
 PAM  EZ I        18 9 42.57         3.7 0.22            155           79.0  42 
 RUS  HZ EP       18 9 24.54                             144    0.1610  102 174 
 RUS  HE ES       18 9 43.09                             144   -0.2010  102 174 
 RUS  HZ I        18 9 44.25         2.9 0.30            149            102 174 
 PTB  HZ EP       18 9 26.52                             134   -0.65 9  145 258 
 PTB  HE ES       18 9 48.58                             134    0.33 9  145 258 
 PTB  HZ I        18 9 55.81         4.3 0.48            133            145 258 
 ZAR  HE ES   4   18 9 59.22                             124    1.46 0  201 292 
 CHI  HZ EP   2   18 9 38.64                             118    0.58 4  249 194 
 CHI  HN ES   4   1810  8.92                             118    1.28 0  249 194 
                                                                                
