 2011 1220 1144 42.2 L   6.327 -73.606108.9  RSN  4 0.2 1.4LRSN                1
 GAP=154        0.41       3.1     2.3  5.0  0.6192E+00  0.3710E+01  0.7993E+00E
 Epicentro: SANTA HELENA DEL OPON - SANTANDER                                  3
 ACTION:UPD 12-07-13 16:17 OP:ep   STATUS:               ID:20111220114442 L   I
 2011-12-20-1140-00M.COL___192                                                 6
 STAT SP IPHASW D HRMM SECON CODA AMPLIT PERI AZIMU VELO AIN AR TRES W  DIS CAZ7
 BAR2 SZ EP       1144 59.00                             151    0.1610 55.3  58 
 BAR2 SZ ES   1   1145 11.49                             151   -0.31 7 55.3  58 
 BAR2 SZ I        1145 13.21        13.3 0.34                          55.3  58 
 RUS  HZ EP   1   1145  0.35                             143   -0.18 7 75.2 130 
 RUS  HN ES   1   1145 14.96                             143    0.17 7 75.2 130 
 RUS  HZ I        1145 16.43         3.8 0.25                          75.2 130 
 GIR2 SZ EP   1   1145  1.56                             136   -0.03 7 94.8  29 
 GIR2 SZ ES   1   1145 16.82                             136    0.13 7 94.8  29 
 PTB  HZ EP       1145  1.54                             135   -0.0610 96.9 284 
 PTB  HN ES   1   1145 16.76                             135    0.05 7 96.9 284 
                                                                                
