 2015  220 1102  0.5 L   6.428 -73.815 27.2  RSN  6 0.4 1.5LRSN                1
 GAP= 89        1.16       5.6     2.5 10.8 -0.2768E+01 -0.4070E+01  0.5335E+02E
 Epicentro: CIMITARRA - SANTANDER                                              3
 ACTION:UP  15-04-30 21:27 OP:nd   STATUS:               ID:20150220110200 L   I
 OLDACT:UPD 15-03-10 18:56 OP:nd   STATUS:               ID:20150220110200 L   3
 OLDACT:REG 15-02-20 21:49 OP:fm   STATUS:               ID:20150220105745     3
 2015-02-20-1057-45M.COL___280                                                 6
 STAT SP IPHASW D HRMM SECON CODA AMPLIT PERI AZIMU VELO AIN AR TRES W  DIS CAZ7
 PTB  HZ EP       11 2 12.44                              99   -0.1310 72.0 280 
 PTB  HE ES       11 2 21.16                              99   -0.7910 72.0 280 
 PTB  HZ I        11 2 23.38        18.1 0.14             99           72.0 280 
 BAR2 EZ EP       11 2 12.96                              99    0.1110 72.2  75 
 BAR2 EZ ES       11 2 21.96                              99   -0.4810 72.2  75 
 BAR2 EZ I        11 2 24.92        11.0 0.24             99           72.2  75 
 BRR  HZ EP       11 2 13.35                              98    0.2410 76.0   9 
 BRR  HN ES       11 2 23.48                              98    0.5710 76.0   9 
 BRR  HZ I        11 2 24.72        22.0 0.12             98           76.0   9 
 SPBC HZ EP       11 2 15.68                              61    0.4210 90.4 198 
 SPBC HN ES       11 2 27.36                              61    0.6210 90.4 198 
 SPBC HZ I        11 2 28.47        23.1 0.66             95           90.4 198 
 RUS  HZ EP       11 2 17.11                              61    0.1310  100 126 
 RUS  HN ES       11 2 29.19                              61   -0.6110  100 126 
 RUS  HZ I        11 2 31.91         6.9 0.50             61            100 126 
 GUY2CHZ EP       11 2 31.56                              61   -0.02 8  217 232 
 GUY2CHN ES       11 2 55.68                              61   -0.11 8  217 232 
                                                                                
