 2014  920 1948 18.2 L   6.791 -73.154147.1  RSN 10 0.4 2.4LRSN                1
 GAP=136        1.07       3.1     4.3  5.8 -0.4973E+00  0.6801E+01  0.7296E+00E
 Epicentro: LOS SANTOS - SANTANDER                                             3
 ACTION:UPD 14-10-03 23:06 OP:nd   STATUS:               ID:20140920194818 L   I
 OLDACT:REG 14-09-20 22:32 OP:y    STATUS:               ID:20140920193818     3
 2014-09-20-1938-18M.COL___293                                                 6
 STAT SP IPHASW D HRMM SECON CODA AMPLIT PERI AZIMU VELO AIN AR TRES W  DIS CAZ7
 BAR2 SZ IP     D 1948 38.02                             171   -0.0010 22.2 188 
 BAR2 SZ ES       1948 52.75                             171   -0.6910 22.2 188 
 BAR2 SZ I        1948 54.89        46.0 0.18            171           22.2 188 
 BRR  HZ IP     C 1948 40.02                             153    0.4910 70.9 300 
 BRR  HN ES       1948 57.04                             153    0.9210 70.9 300 
 BRR  HZ I        1949  1.05        53.7 0.14            151           70.9 300 
 PAM  SZ EP       1948 41.02                             151    0.3310 78.7  40 
 PAM  SN ES       1948 58.41                             151    0.2210 78.7  40 
 PAM  SZ I        1949  1.30        23.9 0.18            154           78.7  40 
 RUS  HZ IP     C 1948 41.77                             144   -0.3010 99.7 175 
 RUS  HN ES       1949  0.65                             144    0.0010 99.7 175 
 RUS  HZ I        1949  1.40        15.4 0.22            147           99.7 175 
 PTB  HZ EP       1948 45.00                             133   -0.23 9  147 259 
 PTB  HN ES       1949  5.52                             133   -0.76 9  147 259 
 PTB  HZ I        1949 11.73        44.9 0.12            132            147 259 
 SPBC HZ EP       1948 46.89                             130    0.16 9  162 219 
 SPBC HN ES       1949  8.96                             130    0.02 9  162 219 
 SPBC HZ I        1949 15.73        59.8 0.34            131            162 219 
 ZAR  HZ EP       1948 50.70                             123   -0.03 9  204 292 
 ZAR  HN ES       1949 16.10                             123    0.03 9  204 292 
 ZAR  HZ I        1949 21.97        37.7 0.32            123            204 292 
 SML  HZ EP       1948 54.38                             118   -0.62 8  244 336 
 SML  HN ES       1949 23.17                             118   -0.51 8  244 336 
 SML  HZ I        1949 32.27        26.2 0.26            119            244 336 
 CHI  HZ EP       1948 55.86                             118   -0.03 8  247 195 
 CHI  HN ES       1949 25.18                             118   -0.08 8  247 195 
 CHI  HZ I        1949 31.86        10.3 0.28            120            247 195 
 GUY2CHZ EP       1949  2.30                             113    0.53 7  300 235 
 GUY2CHN ES       1949 36.22                             113    0.50 7  300 235 
 GUY2CHZ I        1949 44.10        20.6 0.26                           300 235 
 CBOC HZ EP   4   1949  5.60                             110    0.52 0  332 252 
 CBOC HN ES   4   1949 40.26                             110   -1.36 0  332 252 
                                                                                
