 2010  920 1633 49.2 L   6.799 -73.092148.8  RSN  6 0.4 1.9LRSN                1
 GAP=235        0.67       4.9     8.1  7.2  0.1026E+02  0.2402E+01  0.5783E+01E
 Epicentro: LOS SANTOS - SANTANDER                                             3
 ACTION:UP  11-02-18 11:04 OP:tino STATUS:               ID:20100920163349 L   I
 2010-09-20-1631-42S.COL___121                                                 6
 STAT SP IPHASW D HRMM SECON CODA AMPLIT PERI AZIMU VELO SNR AR TRES W  DIS CAZ7
 BTL  SZ EP       1634  9.55                             171     0.310   23 304 
 BAR2 SZ EP   1   1634  9.12                             170    -0.2 7   25 204 
 BAR2 SZ ES   2   1634 24.25                             170    -0.6 5   25 204 
 BAR2 SZ I        1634 25.58        27.9 0.18                            25 204 
 BRR  HZ EP       1634 10.96                             151    -0.110   77 297 
 BRR  HE ES   1   1634 28.20                             151     0.2 7   77 297 
 BRR  HZ I        1634 30.41        13.8 0.24                            77 297 
 RUS  HZ EP   1   1634 13.14                             145    -0.1 7  100 179 
 RUS  HN ES   1   1634 31.98                             145     0.0 7  100 179 
 RUS  HZ I        1634 33.42        10.0 0.40                           100 179 
 NOR  SZ EP   2   1634 25.12                             119    -0.5 4  240 235 
 NOR  SN ES   2   1634 53.67                             119    -0.4 4  240 235 
 CHI  HZ EP   1   1634 27.21                             118    -0.1 6  250 196 
 CHI  HN ES   2   1634 57.91                             118     1.0 4  250 196 
 CHI  HZ I        1635  4.51         3.9 0.55                           250 196 
                                                                                
