 2013  420 1502 26.9 L   6.816 -73.154148.4  RSN 21 0.6 3.1LRSN 3.3WRSN        1
 SPEC AVERAGE  MO 14.1 ST 12.7 OM  2.6 f0 3.27 R0.5033 AL 2.31 WI 30.2 MW  3.3 3
 SPEC SD       MO  0.3 ST 20.5 OM  0.5 f0 1.11 R0.1713 AL      WI      MW  0.2 3
 GAP= 48        1.36       3.3     3.2  5.7 -0.9701E+00  0.3067E+01  0.6120E-01E
 Epicentro: LOS SANTOS - SANTANDER                                             3
 SPEC ROSCBH Z MO 14.3 ST  2.9 OM  2.4 f0 2.25 R0.6533 AL 2.40 WI 42.2 MW  3.5 3
 SPEC ROSCBH Z T15 333 K 0.000 GD  294 VS 4.20 DE 3.20 Q0300.0 QA 0.60 VS 4.20 3
 SPEC RUS HH N MO 13.7 ST  1.2 OM  2.0 f0 2.67 R0.5506 AL 1.75 WI 19.1 MW  3.0 3
 SPEC RUS HH N T15 3 9 K 0.000 GD  180 VS 4.20 DE 3.20 Q0300.0 QA 0.60 VS 4.20 3
 SPEC PRA HH E MO 14.0 ST  3.7 OM  2.0 f0 2.95 R0.4983 AL 1.43 WI 29.2 MW  3.3 3
 SPEC PRA HH E T15 4 2 K 0.000 GD  420 VS 4.20 DE 3.20 Q0300.0 QA 0.60 VS 4.20 3
 SPEC PRA HH N MO 13.7 ST  3.0 OM  1.7 f0 3.46 R0.4249 AL 2.15 WI 26.6 MW  3.1 3
 SPEC PRA HH N T15 4 1 K 0.000 GD  420 VS 4.20 DE 3.20 Q0300.0 QA 0.60 VS 4.20 3
 SPEC GUY HH N MO 14.4 ST  1.7 OM  2.5 f0 1.65 R0.8909 AL 2.34 WI 38.1 MW  3.6 3
 SPEC GUY HH N T15 344 K 0.000 GD  338 VS 4.20 DE 3.20 Q0300.0 QA 0.60 VS 4.20 3
 SPEC HEL HH N MO 14.1 ST  2.2 OM  2.2 f0 2.35 R0.6255 AL 1.67 WI 41.1 MW  3.3 3
 SPEC HEL HH N T15 336 K 0.000 GD  309 VS 4.20 DE 3.20 Q0300.0 QA 0.60 VS 4.20 3
 SPEC NOR HH N MO 14.5 ST 74.2 OM  2.7 f0 5.37 R0.2737 AL 2.99 WI 33.1 MW  3.6 3
 SPEC NOR HH N T15 329 K 0.000 GD  277 VS 4.20 DE 3.20 Q0300.0 QA 0.60 VS 4.20 3
 SPEC OCA HH N MO 14.5 ST 17.1 OM  2.8 f0 3.31 R0.4441 AL 2.26 WI 28.9 MW  3.6 3
 SPEC OCA HH N T15 316 K 0.000 GD  216 VS 4.20 DE 3.20 Q0300.0 QA 0.60 VS 4.20 3
 SPEC PAM SH N MO 14.0 ST 13.0 OM  2.4 f0 4.48 R0.3281 AL 3.38 WI 22.5 MW  3.3 3
 SPEC PAM SH N T15 3 6 K 0.000 GD  167 VS 4.20 DE 3.20 Q0300.0 QA 0.60 VS 4.20 3
 SPEC BRR HH N MO 14.1 ST 19.6 OM  2.5 f0 4.79 R0.3069 AL 3.52 WI 25.7 MW  3.4 3
 SPEC BRR HH N T15 3 5 K 0.000 GD  163 VS 4.20 DE 3.20 Q0300.0 QA 0.60 VS 4.20 3
 SPEC BAR2SH Z MO 13.6 ST  1.0 OM  2.0 f0 2.72 R0.5404 AL 1.47 WI 25.2 MW  3.0 3
 SPEC BAR2SH Z T15 3 1 K 0.000 GD  150 VS 4.20 DE 3.20 Q0300.0 QA 0.60 VS 4.20 3
 ACTION:UPD 13-05-22 14:39 OP:EP   STATUS:               ID:20130420150226 L   I
 2013-04-20-1458-49M.COL___209                                                 6
 STAT SP IPHASW D HRMM SECON CODA AMPLIT PERI AZIMU VELO AIN AR TRES W  DIS CAZ7
 BAR2 SZ IP     C 15 2 47.19                             170    0.2810 24.9 187 
 BAR2 SZ I        15 2 47.33       145.4 0.40            168           24.9 187 
 BAR2 SZ ES       15 3  2.10                             170   -0.3910 24.9 187 
 GIR2 SZ EP       15 2 47.26                             168    0.3910 29.4 351 
 GIR2 SZ ES       15 3  2.09                             168   -0.3210 29.4 351 
 GIR2 SZ I        15 3  4.29        89.5 0.32            168           29.4 351 
 BRR  HZ IP     D 15 2 49.06                             153    0.7910 69.6 298 
 BRR  HN ES       15 3  6.00                             153    1.0810 69.6 298 
 BRR  HN I        15 3  9.88       411.7 0.16            151           69.6 298 
 PAM  SZ IP     D 15 2 49.96                             151    0.5810 76.6  41 
 PAM  SN ES       15 3  7.18                             151    0.2910 76.6  41 
 PAM  SN I        15 3  8.11       242.9 0.22            155           76.6  41 
 RUS  HZ IP     D 15 2 51.06                             144   -0.0110  102 176 
 RUS  HN ES       15 3  9.34                             144   -0.5510  102 176 
 RUS  HE I        15 3 10.89       149.6 0.50            144            102 176 
 PTB  HZ EP       15 2 53.72                             133   -0.34 9  147 258 
 PTB  HN ES       15 3 15.19                             133   -0.04 9  147 258 
 PTB  HN I        15 3 19.77       143.3 0.12            131            147 258 
 CAPV BZ IP     C 15 2 55.02                             133    0.55 9  148  39 
 CAPV BZ ES       15 3 15.46                             133   -0.48 9  148  39 
 TAM  HZ IP     D 15 2 55.38                             131    0.44 9  156 106 
 TAM  HZ I        15 2 55.51        49.6 0.18            134            156 106 
 TAM  HE ES       15 3 16.43                             131   -0.35 9  156 106 
 OCA  HZ EP       15 2 55.11                             131   -0.17 9  158 353 
 OCA  HN ES       15 3 16.75                             131   -0.64 9  158 353 
 OCA  HN I        15 3 21.25       478.9 0.42            131            158 353 
 YOP  SN ES       15 3 21.18                             126    0.10 9  181 153 
 YOP  SN I        15 3 25.02       115.1 0.22            128            181 153 
 ZAR  HZ EP       15 3  0.05                             123    0.65 9  203 292 
 ZAR  HN ES       15 3 25.46                             123    0.74 9  203 292 
 ZAR  HN I        15 3 31.62       155.4 0.22            122            203 292 
 NOR  HZ EP       15 3  2.99                             119    0.15 8  235 234 
 NOR  HN ES       15 3 30.15                             119   -0.70 8  235 234 
 SML  HZ EP       15 3  3.51                             118    0.01 8  242 335 
 SML  HN ES       15 3 31.13                             118   -0.89 8  242 335 
 ROSC BZ EP   4   15 3  6.98                             117    1.68 0  254 211 
 ROSC BN ES   4   15 3 34.41                             117   -0.83 0  254 211 
 ROSC BZ I        15 3 41.22        73.2 0.50            117            254 211 
 HEL  HZ EP   4   15 3  8.94                             115    1.71 0  272 255 
 HEL  HN ES       15 3 38.21                             115   -0.45 8  272 255 
 HEL  HN I        15 3 47.72        40.9 0.26            115            272 255 
 URE  HN ES       15 3 38.44                             114   -1.53 7  282 292 
 URE  HN I        15 3 51.20       119.2 0.24            114            282 292 
 SOCV BZ EP       15 3  9.26                             113   -0.82 7  301  57 
 SOCV BZ ES   4   15 3 40.10                             113   -3.63 0  301  57 
 GUY  HZ EP   4   15 3 12.44                             113    1.49 0  304 235 
 GUY  HN ES       15 3 45.89                             113    0.60 7  304 235 
 GUY  HN I        15 3 56.44        72.8 0.66            112            304 235 
 DBB  SZ EP       15 3 15.00                             110    0.60 7  338 274 
 SDV  BZ EP       15 3 16.50                             109   -0.52 6  360  50 
 PRA  HZ EP       15 3 20.46                             107   -0.21 6  393 209 
 PRA  HN ES       15 4  1.89                             107   -0.69 6  393 209 
 PRA  HE I        15 4 10.30        26.8 0.22            107            393 209 
 SJC  HZ EP   4   15 3 20.99                             106   -1.37 0  407 327 
                                                                                
