 2013 1020 2005 39.8 L   6.750 -73.148143.1  RSN  9 0.4 1.7LRSN                1
 GAP=138        0.96       4.4     5.1  6.2 -0.4105E+01  0.8220E+01  0.5137E+00E
 Epicentro: LOS SANTOS - SANTANDER                                             3
 ACTION:UPD 13-11-25 09:22 OP:ep   STATUS:               ID:20131020200539 L   I
 OLDACT:REG 13-10-21 02:37 OP:nd   STATUS:               ID:20131020195839     3
 2013-10-20-1958-39M.COL___217                                                 6
 STAT SP IPHASW D HRMM SECON CODA AMPLIT PERI AZIMU VELO AIN AR TRES W  DIS CAZ7
 BAR2 SZ EP       20 5 59.28                             173    0.2510 17.9 192 
 BAR2 SZ ES       20 6 13.94                             173   -0.0810 17.9 192 
 BAR2 SZ I        20 6 15.97        21.2 0.24            170           17.9 192 
 BRR  HZ EP       20 6  1.31                             151    0.4710 73.8 302 
 BRR  HN ES       20 6 17.29                             151    0.0610 73.8 302 
 BRR  HZ I        20 6 20.10         8.2 0.34            149           73.8 302 
 PAM  SZ IP     C 20 6  2.46                             149    0.4310 81.8  37 
 PAM  SN ES   2   20 6 18.65                             149   -0.70 5 81.8  37 
 PAM  SZ I        20 6 22.44         7.9 0.42            154           81.8  37 
 RUS  HZ EP       20 6  2.83                             145   -0.0910 95.1 176 
 RUS  HN ES       20 6 20.43                             145   -0.5110 95.1 176 
 RUS  HZ I        20 6 23.01         8.6 0.34            147           95.1 176 
 PTB  HZ EP       20 6  6.04                             132   -0.43 9  147 261 
 PTB  HN ES   4   20 6 25.84                             132   -1.41 0  147 261 
 PTB  HZ I        20 6 29.12         5.7 0.16            131            147 261 
 SPBC HZ EP       20 6  7.32                             129   -0.38 9  159 220 
 SPBC HN ES       20 6 30.16                             129    0.71 9  159 220 
 SPBC HZ I        20 6 37.08         4.4 0.30            130            159 220 
 ZAR  HZ EP   2   20 6 11.44                             121   -0.86 4  206 294 
 ZAR  HN ES   2   20 6 36.85                             121   -0.78 4  206 294 
 ZAR  HZ I        20 6 45.04         5.7 0.26            122            206 294 
 NOR  HZ EP       20 6 14.96                             118   -0.08 8  231 236 
 NOR  HN ES       20 6 42.64                             118    0.13 8  231 236 
 NOR  HZ I        20 6 50.02         4.0 0.18            119            231 236 
 GUY2CHZ EP   4   20 6 23.75                             112    0.82 0  298 236 
 GUY2CHN ES   4   20 6 56.41                             112   -0.15 0  298 236 
 GUY2CHZ I        20 7  5.41         2.5 0.36                           298 236 
                                                                                
