 2016  120 2339 41.2 L   6.816 -73.127147.6  RSN 20 0.4 2.5LRSN                1
 GAP= 71        0.93       2.2     2.6  4.6 -0.8006E+00  0.3934E+01  0.7266E+00E
 Epicentro: LOS SANTOS - SANTANDER                                             3
 ACTION:UPD 16-03-09 23:27 OP:cam  STATUS:               ID:20160120233941 L   I
 OLDACT:UP  16-01-21 04:26 OP:drio STATUS:               ID:20160120233748     3
 OLDACT:UP  16-01-21 04:26 OP:drio STATUS:               ID:20160120233748     3
 OLDACT:REG 16-01-21 02:55 OP:drio STATUS:               ID:20160120233748     3
 2016-01-20-2337-48M.COL___319                                                 6
 STAT SP IPHASW D HRMM SECON CODA AMPLIT PERI AZIMU VELO AIN AR TRES W  DIS CAZ7
 BAR2 EZ EP       2340  1.11                             170    0.0210 25.5 194 
 BAR2 EZ ES       2340 16.54                             170   -0.0710 25.5 194 
 BAR2 EZ I        2340 17.83        37.2 0.20            167           25.5 194 
 PAM  EZ EP       2340  4.02                             152    0.5710 74.7  39 
 PAM  EE ES       2340 21.16                             152    0.3510 74.7  39 
 PAM  EZ I        2340 23.30        27.8 0.48            156           74.7  39 
 RUS  HZ IP     C 2340  4.99                             144   -0.2510  102 177 
 RUS  HE ES       2340 23.92                             144   -0.0810  102 177 
 RUS  HZ I        2340 25.15        15.0 0.40            145            102 177 
 PTB  HZ EP       2340  7.84                             132   -0.68 9  150 258 
 PTB  HN ES       2340 29.37                             132   -0.47 9  150 258 
 PTB  HZ I        2340 34.96        30.0 0.22            130            150 258 
 TAM  HZ EP       2340  9.35                             131    0.47 9  154 106 
 TAM  HE ES       2340 30.02                             131   -0.45 9  154 106 
 TAM  HZ I        2340 30.21        20.3 0.34            135            154 106 
 OCA  HZ EP       2340  9.68                             130    0.17 9  159 352 
 OCA  HN ES       2340 31.61                             130    0.02 9  159 352 
 OCA  HZ I        2340 36.05        62.3 0.32            131            159 352 
 SPBC HZ EP       2340 10.13                             129    0.05 9  166 219 
 SPBC HE ES       2340 33.02                             129    0.40 9  166 219 
 SPBC HZ I        2340 39.27        55.6 0.22            128            166 219 
 ZAR  HZ EP       2340 13.61                             123   -0.28 8  205 291 
 ZAR  HE ES       2340 39.62                             123    0.23 8  205 291 
 ZAR  HZ I        2340 45.63        31.0 0.42            122            205 291 
 NOR  HZ EP       2340 17.25                             119   -0.07 8  237 234 
 NOR  HE ES       2340 45.14                             119   -0.35 8  237 234 
 NOR  HZ I        2340 52.29        19.2 0.24            118            237 234 
 SML  HZ EP       2340 17.66                             118   -0.18 8  243 335 
 SML  HE ES       2340 46.01                             118   -0.42 8  243 335 
 SML  HZ I        2340 49.25        34.9 0.10            118            243 335 
 CHI  HZ EP       2340 19.01                             117   -0.23 8  251 196 
 CHI  HN ES       2340 48.30                             117   -0.61 8  251 196 
 CHI  HZ I        2340 57.22         6.3 0.46            118            251 196 
 ROSC BZ EP   4   2340 20.89                             117    1.20 0  255 211 
 ROSC BE ES   4   2340 51.75                             117    2.03 0  255 211 
 ROSC BZ I        2340 59.09        24.7 0.35            117            255 211 
 HEL  HZ EP   4   2340 23.40                             115    1.63 0  274 256 
 HEL  HN ES       2340 53.87                             115    0.46 8  274 256 
 HEL  HZ I        2341  1.74        13.9 0.36            115            274 256 
 GUY2CHZ EP       2340 25.32                             112    0.13 7  304 235 
 GUY2CHN ES       2341  0.54                             112    1.03 7  304 235 
 GUY2CHZ I        2341  7.79        20.6 0.76                           304 235 
 PTGC HZ EP   4   2340 24.03                             112   -1.20 0  310 159 
 PTGC HE ES   4   2340 57.39                             112   -2.20 0  310 159 
 ELA  HZ EP   4   2340 31.07                             110    2.64 0  332 229 
 ELA  HN ES   4   2341  9.33                             110    4.06 0  332 229 
 ELA  HZ I        2341 13.05         8.7 0.34            111            332 229 
 DBB  SZ EP       2340 28.52                             110   -0.44 7  341 274 
 DBB  SZ ES   4   2341  5.73                             110   -0.49 0  341 274 
 DBB  SZ I        2341  9.32        21.3 0.34            110            341 274 
 ANIL HZ EP       2340 32.23                             109    0.85 6  360 225 
 ANIL HN ES   4   2341 12.02                             109    1.50 0  360 225 
 ANIL HZ I        2341 17.29        27.8 0.46            109            360 225 
 PRA  HZ EP       2340 34.66                             107   -0.41 6  395 210 
 PRA  HN ES       2341 17.25                             107    0.15 6  395 210 
 PRA  HZ I        2341 22.64        12.6 0.62            107            395 210 
 ORTC HZ EP       2340 35.38                             106   -0.10 6  398 216 
 ORTC HE ES       2341 18.52                             106    0.69 6  398 216 
 ORTC HZ I        2341 24.10         8.7 0.40            107            398 216 
 SJC  HZ EP   4   2340 34.93                             106   -1.84 0  409 327 
 SJC  HE ES   4   2341 16.42                             106   -3.71 0  409 327 
 SJC  HZ I        2341 41.72         3.4 0.36            106            409 327 
                                                                                
