 2011  520 2318 57.7 L   6.765 -73.120145.6  RSN 19 0.3 3.5LRSN                1
 GAP=141        0.59       2.4     3.7  3.7 -0.3808E+01  0.1906E+01  0.2414E+01E
 Epicentro: LOS SANTOS - SANTANDER                                             3
 ACTION:UP  11-06-29 08:55 OP:tino STATUS:               ID:20110520231857 L   I
 2011-05-20-2317-23S.COL___141                                                 6
 STAT SP IPHASW D HRMM SECON CODA AMPLIT PERI AZIMU VELO SNR AR TRES W  DIS CAZ7
 BAR2 SZ IP   1   2319 17.32                             172     0.1 7   20 200 
 BAR2 SZ ES   1   2319 31.86                             172    -0.7 7   20 200 
 BAR2 SZ I        2319 33.42      1130.4 0.28                            20 200 
 BTL  SZ IP       2319 17.52                             171     0.210   24 316 
 BTL  SZ ES   2   2319 33.14                             171     0.5 5   24 316 
 GIR2 SZ EP   1   2319 17.32                             166    -0.2 7   36 347 
 GIR2 SZ ES   2   2319 32.26                             166    -0.7 5   36 347 
 BRR  HZ IP     C 2319 19.10                             151     0.010   76 300 
 BRR  HZ I        2319 19.38      1648.2 0.21                            76 300 
 BRR  HN ES   1   2319 36.24                             151     0.5 7   76 300 
 PAM  SZ IP       2319 20.14                             150     0.110   79  36 
 PAM  SN ES   2   2319 37.16                             150    -0.2 5   79  36 
 RUS  HZ IP     D 2319 21.24                             145     0.110   97 178 
 RUS  HN ES   2   2319 39.77                             145     0.3 5   97 178 
 RUS  HZ I        2319 41.19       322.2 0.34                            97 178 
 BRI  SZ EP   1   2319 21.87                             141     0.1 7  111  19 
 BRI  SZ ES   1   2319 40.63                             141     0.1 7  111  19 
 BRI  SZ I        2319 47.04       173.7 0.27                           111  19 
 GUE  SZ EP   2   2319 22.30                             138    -0.4 5  120  10 
 GRA  SZ IP       2319 23.12                             136    -0.110  129  16 
 GRA  SZ ES   1   2319 43.21                             136     0.2 7  129  16 
 GRA  SZ I        2319 44.16       237.7 0.41                           129  16 
 OCA  SZ EP   2   2319 26.07                             129    -0.3 5  164 352 
 OCA  SZ ES   2   2319 48.59                             129    -0.2 5  164 352 
 OCA  SZ I        2319 56.00       365.4 0.22                           164 352 
 NOR  SZ EP   1   2319 33.13                             118    -0.3 6  235 236 
 NOR  SN ES   2   2320  0.93                             118    -0.4 4  235 236 
 HEL  HZ EP   2   2319 38.59                             114     0.5 4  274 257 
 HEL  HN ES   2   2320  9.61                             114     0.0 4  274 257 
 HEL  HZ I        2320 15.83       199.6 0.36                           274 257 
 VIL  SZ EP   1   2319 40.74                             112     0.0 5  300 192 
 VIL  SN ES   1   2320 14.97                             112     0.6 5  300 192 
 VIL  SZ I        2320 24.00       111.2 0.42                           300 192 
 GUY  SZ EP   2   2319 41.96                             112     0.4 4  304 236 
 GUY  SZ I        2320 25.04       204.0 0.56                           304 236 
 RREF HZ EP   1   2319 43.89                             111     0.1 5  321 230 
 RREF HN ES   2   2320 19.78                             111     0.0 3  321 230 
 RREF HZ I        2320 26.90       182.2 0.35                           321 230 
 DBB  SZ EP   1   2319 45.17                             109    -0.4 5  343 275 
 TOL  SZ EP   2   2319 46.20                             109     0.3 3  343 225 
 PRA  HZ EP   2   2319 51.27                             106     0.3 3  390 210 
 PRA  HN ES   2   2320 32.48                             106    -0.1 3  390 210 
 SJA  SZ EP   2   2319 51.54                             106    -0.4 3  397 193 
 SJA  SZ ES   1   2320 33.31                             106    -0.9 4  397 193 
                                                                                
