 2011  620 2130  8.5 L   6.815 -73.148142.6  RSN  5 0.2 1.7LRSN                1
 GAP=155        0.46       2.8     5.2  4.9 -0.4141E-01 -0.4866E+01 -0.2167E+01E
 Epicentro: LOS SANTOS - SANTANDER                                             3
 ACTION:UP  11-07-14 19:06 OP:ep   STATUS:               ID:20110620213008 L   I
 2011-06-20-2128-03S.COL___140                                                 6
 STAT SP IPHASW D HRMM SECON CODA AMPLIT PERI AZIMU VELO SNR AR TRES W  DIS CAZ7
 BAR2 SZ EP   1   2130 27.65                             170    -0.1 7   25 189 
 BAR2 SZ ES   1   2130 42.75                             170    -0.1 7   25 189 
 BAR2 SZ I        2130 43.59         9.6 0.31                            25 189 
 BRR  HZ EP       2130 29.45                             152     0.210   70 297 
 BRR  HZ I        2130 31.01        16.4 0.13                            70 297 
 BRR  HN ES   1   2130 45.27                             152    -0.1 7   70 297 
 RUS  HZ EP   1   2130 31.75                             143    -0.3 7  102 176 
 RUS  HE ES   1   2130 50.64                             143     0.2 7  102 176 
 RUS  HZ I        2130 52.21         3.8 0.32                           102 176 
 BRI  SZ EP   1   2130 32.01                             141     0.0 7  107  21 
 BRI  SZ ES   2   2130 50.39                             141     0.1 5  107  21 
 BRI  SZ I        2130 55.32         7.2 0.41                           107  21 
 GRA  SZ EP   2   2130 33.28                             137     0.0 5  124  18 
 GRA  SZ ES   2   2130 52.52                             137    -0.2 5  124  18 
 GRA  SZ I        2130 53.75         8.1 0.39                           124  18 
                                                                                
