 2012  820 2211 21.9 L   6.747 -73.107150.9  RSN  4 0.1 1.7LRSN                1
 GAP=144        0.38       2.7     3.5  4.3  0.4407E+00 -0.3113E+01  0.1060E+01E
 Epicentro: LOS SANTOS - SANTANDER                                             3
 ACTION:UPD 12-09-10 11:57 OP:ep   STATUS:               ID:20120820221121 L   I
 2012-08-20-2210-00M.COL___217                                                 6
 STAT SP IPHASW D HRMM SECON CODA AMPLIT PERI AZIMU VELO AIN AR TRES W  DIS CAZ7
 BAR2 SZ EP   1   2211 42.06                             173    0.04 7 19.0 206 
 BAR2 SZ I        2211 42.33        20.4 0.08                          19.0 206 
 BRR  HZ EP       2211 43.87                             151   -0.0610 77.8 301 
 BRR  HZ I        2211 44.14        12.9 0.17                          77.8 301 
 BRR  HN ES       2212  1.17                             151    0.0210 77.8 301 
 PAM  SZ EP       2211 44.91                             151    0.1710 79.5  34 
 PAM  SZ I        2211 45.06         8.2 0.21                          79.5  34 
 PAM  SE ES   1   2212  2.43                             151   -0.16 7 79.5  34 
 RUS  HZ EP   1   2211 45.49                             147   -0.20 7 94.5 178 
 RUS  HN ES   1   2212  4.39                             147    0.11 7 94.5 178 
 RUS  HZ I        2212  5.95         4.3 0.33                          94.5 178 
                                                                                
