 2010  720 2004 11.8 L   6.742 -73.033144.0  RSN  6 0.3 1.9LRSN                1
 GAP=172        0.77       7.8    12.4 11.7  0.3557E+02 -0.9264E+02 -0.5183E+02E
 Epicentro: ARATOCA - SANTANDER                                                3
 ACTION:UPD 10-12-01 15:19 OP:pat  STATUS:               ID:20100720200411 L   I
 2010-07-20-2000-10S.COL___123                                                 6
 STAT SP IPHASW D HRMM SECON CODA AMPLIT PERI AZIMU VELO AIN AR TRES W  DIS CAZ7
 BAR2 SZ ES   2   20 4 45.96                             171    -0.5 5   24 225 
 BAR2 SZ I        20 4 47.73        23.5 0.71                            24 225 
 GIR2 SZ EP   1   20 4 31.79                             163     0.2 7   41 335 
 BRR  HZ EP       20 4 33.58                             148    -0.110   85 298 
 BRR  HZ I        20 4 34.00        19.2 0.21                            85 298 
 BRR  HN ES       20 4 50.86                             148     0.210   85 298 
 RUS  HN ES   2   20 4 53.02                             146     0.0 5   94 183 
 RUS  HZ I        20 4 55.17         9.3 0.98                            94 183 
 GRA  SZ EP   1   20 4 37.74                             136     0.5 7  129  11 
 GRA  SZ I        20 4 39.00         9.7 0.05                           129  11 
 OCA  SZ EP       20 4 40.40                             128    -0.4 9  169 349 
 OCA  SZ ES   2   20 5  3.31                             128    -0.1 5  169 349 
 OCA  SZ I        20 5 13.43        12.5 0.63                           169 349 
                                                                                
