 2013  120 2232  1.2 L   6.801 -73.199140.3  RSN  6 0.3 1.8LRSN                1
 GAP=130        0.71       2.5     3.5  5.6 -0.1103E+01  0.1074E+01  0.4504E+01E
 Epicentro: ZAPATOCA - SANTANDER                                               3
 ACTION:UPD 13-02-15 09:15 OP:ep   STATUS:               ID:20130120223201 L   I
 2013-01-20-2230-00M.COL___241                                                 6
 STAT SP IPHASW D HRMM SECON CODA AMPLIT PERI AZIMU VELO AIN AR TRES W  DIS CAZ7
 BRR  HZ EP       2232 22.11                             153    0.6610 66.1 301 
 BRR  HN ES       2232 37.32                             153    0.0610 66.1 301 
 BRR  HN I        2232 41.96        12.7 0.20            152           66.1 301 
 PAM  SZ EP       2232 23.04                             149   -0.0110 81.2  43 
 PAM  SN ES       2232 39.88                             149   -0.2310 81.2  43 
 PAM  SN I        2232 41.56         5.0 0.22            153           81.2  43 
 RUS  HZ EP       2232 24.55                             142    0.1010  101 173 
 RUS  HN ES       2232 42.70                             142    0.1110  101 173 
 RUS  HN I        2232 44.49         6.3 0.24            145            101 173 
 PTB  HZ EP       2232 26.80                             132   -0.38 9  142 258 
 PTB  HN ES       2232 47.39                             132   -0.07 9  142 258 
 PTB  HN I        2232 53.36        11.6 0.80            132            142 258 
 OCA  HN ES       2232 50.56                             128   -0.15 9  160 355 
 OCA  HN I        2232 54.57        26.8 0.32            131            160 355 
 CHI  HZ EP       2232 38.43                             116    0.00 8  247 194 
 CHI  HN ES       2233  7.22                             116   -0.26 8  247 194 
 CHI  HN I        2233 12.88         2.9 0.28            118            247 194 
                                                                                
