 2017  320 2358 23.4 L   6.584 -73.414120.7  RSN  4 0.3 1.6LRSN                1
 GAP=180        0.65       7.3     3.9  4.8  0.1291E+02  0.6236E+01  0.3093E+01E
 Epicentro: HATO - SANTANDER                                                   3
 OLDACT:UP  17-03-21 03:00 OP:edw  STATUS:               ID:20170320234744     3
 OLDACT:REG 17-03-21 02:44 OP:cara STATUS:               ID:20170320234744     3
 ACTION:UPD 17-05-25 18:43 OP:jn   STATUS:               ID:20170320235823 L   I
 OLDACT:UP  17-03-21 03:07 OP:edw  STATUS:               ID:20170320234745d    3
 OLDACT:DUP 17-03-21 03:03 OP:edw  STATUS:               ID:20170320234745d    3
 OLDACT:UP  17-03-21 03:03 OP:edw  STATUS:               ID:20170320234744     3
 2017-03-20-2348-00M.COL___382                                                 6
 STAT SP IPHASW D HRMM SECON CODA AMPLIT PERI AZIMU VELO AIN AR TRES W  DIS CAZ7
 BAR2 EZ EP       2358 39.96                             167   -0.1510 25.7  88 
 BAR2 EZ ES       2358 53.23                             167    0.1110 25.7  88 
 BAR2 EZ I        2358 54.08        10.7 0.26            167           25.7  88 
 BRR  HZ EP   9   2358 40.18                             149   -1.45 0 66.6 330 
 BRR  HN ES       2358 54.26                             149   -0.1210 66.6 330 
 PTB  HZ EP       2358 45.13                             133   -0.2810  115 268 
 PTB  HN ES       2359  2.73                             133    0.1710  115 268 
 ZAR  HZ EP       2358 53.15                             118    0.47 9  189 302 
 ZAR  HN ES       2359 15.24                             118   -0.27 9  189 302 
                                                                                
