 2015  920 2054 17.0 L   6.775 -73.159142.5  RSN  7 0.5 1.5LRSN                1
 GAP=136        1.16       6.9     5.1  7.9  0.1283E+00  0.9000E+01  0.1374E+02E
 Epicentro: LOS SANTOS - SANTANDER                                             3
 ACTION:UPD 15-10-28 16:27 OP:cam  STATUS:               ID:20150920205417 L   I
 OLDACT:REG 15-09-21 03:51 OP:stll STATUS:               ID:20150920204747     3
 2015-09-20-2047-47M.COL___352                                                 6
 STAT SP IPHASW D HRMM SECON CODA AMPLIT PERI AZIMU VELO AIN AR TRES W  DIS CAZ7
 BAR2 EZ EP       2054 36.39                             171    0.2610 20.4 187 
 BAR2 EZ I        2054 36.49         8.5 0.40            169           20.4 187 
 BAR2 EZ ES       2054 50.88                             171   -0.2110 20.4 187 
 BRR  HZ EP       2054 38.31                             152    0.5610 71.3 301 
 BRR  HN ES       2054 54.48                             152    0.5110 71.3 301 
 BRR  HZ I        2054 58.73         9.0 0.52            150           71.3 301 
 PAM  EZ EP       2054 39.27                             149    0.2710 80.4  39 
 PAM  EZ I        2054 40.04         7.3 0.22            153           80.4  39 
 PAM  EN ES       2054 55.63                             149   -0.5710 80.4  39 
 RUS  HZ EP       2054 40.27                             144    0.0810 98.0 175 
 RUS  HZ I        2054 46.38         2.4 0.40            144           98.0 175 
 PTB  HZ EP       2054 42.78                             132   -0.69 9  146 260 
 PTB  HN ES       2055  3.72                             132   -0.44 9  146 260 
 PTB  HZ I        2055  9.94         3.3 0.22            131            146 260 
 SPBC HZ EP       2054 45.28                             129    0.37 9  160 219 
 ZAR  HZ EP       2054 48.47                             122   -0.68 9  204 293 
 ZAR  HN ES       2055 14.63                             122    0.36 9  204 293 
 ZAR  HZ I        2055 20.56         5.0 0.28            122            204 293 
                                                                                
