 2017  220 2336 46.1 L   6.780 -73.157145.8  RSN 11 0.3 2.1LRSN                1
 GAP=119        0.78       2.9     2.8  4.2  0.3912E+00  0.3088E+01  0.3107E+01E
 Epicentro: LOS SANTOS - SANTANDER                                             3
 ACTION:UPD 17-05-24 15:38 OP:jn   STATUS:               ID:20170220233646 L   I
 OLDACT:UP  17-02-21 04:38 OP:cara STATUS:               ID:20170220232747     3
 OLDACT:REG 17-02-21 02:56 OP:dnl  STATUS:               ID:20170220232747     3
 2017-02-20-2328-00M.COL___379                                                 6
 STAT SP IPHASW D HRMM SECON CODA AMPLIT PERI AZIMU VELO AIN AR TRES W  DIS CAZ7
 BAR2 EZ EP       2337  5.51                             171   -0.2110 20.9 188 
 BAR2 EZ ES       2337 20.94                             171   -0.0510 20.9 188 
 BAR2 EZ I        2337 23.43        44.0 0.32            168           20.9 188 
 BRR  HZ EP       2337  7.50                             153    0.2210 71.2 301 
 BRR  HN ES       2337 24.06                             153    0.2910 71.2 301 
 BRR  HZ I        2337 28.35        23.0 0.50            152           71.2 301 
 PAM  EZ EP     C 2337  8.39                             150   -0.1110 79.9  39 
 PAM  EN ES       2337 25.95                             150    0.0010 79.9  39 
 PAM  EZ I        2337 28.06        16.6 0.60            156           79.9  39 
 RUS  HZ EP       2337  9.68                             144   -0.0510 98.5 175 
 RUS  HN ES       2337 28.42                             144    0.2810 98.5 175 
 RUS  HZ I        2337 29.52        19.4 0.28            145           98.5 175 
 PTB  HZ EP       2337 12.86                             132   -0.09 9  146 260 
 PTB  HN ES       2337 33.43                             132   -0.43 9  146 260 
 PTB  HZ I        2337 38.55         8.1 0.12            132            146 260 
 ZAR  HZ EP       2337 18.94                             122    0.40 9  204 293 
 ZAR  HN ES       2337 43.30                             122   -0.52 9  204 293 
 ZAR  HZ I        2337 49.47        13.6 0.34            124            204 293 
 NOR  HZ EP       2337 21.90                             119    0.29 8  232 235 
 NOR  HN ES       2337 49.74                             119    0.46 8  232 235 
 NOR  HZ I        2337 52.48         9.2 0.28            120            232 235 
 CHI  HZ EP       2337 23.91                             117    0.35 8  246 195 
 CHI  HN ES       2337 52.48                             117   -0.28 8  246 195 
 CHI  HZ I        2337 59.29         5.5 0.32            119            246 195 
 ROSC BZ EP   4   2337 25.97                             117    2.00 0  250 211 
 ROSC BN ES   4   2337 56.08                             117    2.59 0  250 211 
 ROSC BZ I        2338  0.30        15.6 0.40            118            250 211 
 HEL  HZ EP       2337 26.51                             115    0.36 8  270 256 
 HEL  HE ES       2337 57.00                             115   -0.36 8  270 256 
 HEL  HZ I        2338  6.12         5.4 0.50            116            270 256 
 PTGC HZ EP       2337 29.07                             112   -0.74 7  307 158 
 PTGC HN ES   4   2338  2.44                             112   -1.44 0  307 158 
                                                                                
