 2011  120 2117 46.1 L   6.772 -73.069146.2  RSN  5 0.3 1.9LRSN                1
 GAP=168        0.55       5.0    18.6  6.5 -0.6324E+02 -0.2613E+02  0.8287E+01E
 Epicentro: LOS SANTOS - SANTANDER                                             3
 ACTION:UP  11-02-08 08:41 OP:pat  STATUS:               ID:20110120211746 L   I
 2011-01-20-2115-16S.COL___138                                                 6
 STAT SP IPHASW D HRMM SECON CODA AMPLIT PERI AZIMU VELO SNR AR TRES W  DIS CAZ7
 BAR2 SZ EP   1   2118  5.62                             170    -0.2 7   24 212 
 BAR2 SZ ES   2   2118 20.67                             170    -0.5 5   24 212 
 BAR2 SZ I        2118 22.40        19.0 0.36                            24 212 
 BTL  SZ EP   1   2118  6.07                             169     0.2 7   27 306 
 BTL  SZ ES   2   2118 21.60                             169     0.3 5   27 306 
 RUS  HZ EP   1   2118  9.73                             145     0.1 7   97 181 
 RUS  HN ES   2   2118 28.33                             145     0.3 5   97 181 
 RUS  HZ I        2118 29.13        10.1 0.39                            97 181 
 GRA  SZ EP   1   2118 11.65                             137     0.2 7  126  13 
 GRA  SZ ES   2   2118 30.80                             137    -0.4 5  126  13 
 GRA  SZ I        2118 32.10        13.9 0.32                           126  13 
 CHI  HZ EP   1   2118 23.39                             117    -0.4 6  248 197 
 CHI  HN ES   2   2118 53.33                             117     0.2 4  248 197 
 CHI  HZ I        2118 58.92         5.8 0.43                           248 197 
                                                                                
