 2011  920 2258 44.6 L   6.748 -73.122139.3  RSN  6 0.3 1.8LRSN                1
 GAP=142        0.41       3.9     4.4  5.6  0.4773E+01  0.5149E+01  0.1166E+01E
 Epicentro: LOS SANTOS - SANTANDER                                             3
 ACTION:UPD 12-07-13 15:58 OP:ep   STATUS:               ID:20110920225844 L   I
 2011-09-20-2256-01S.COL___165                                                 6
 STAT SP IPHASW D HRMM SECON CODA AMPLIT PERI AZIMU VELO AIN AR TRES W  DIS CAZ7
 BAR2 SZ EP   2   2259  3.26                             172   -0.13 5 18.5 201 
 BAR2 SZ I        2259  3.69        13.8 0.11                          18.5 201 
 BAR2 SZ ES   2   2259 18.55                             172    0.53 5 18.5 201 
 BTL  SZ EP   2   2259  3.61                             169    0.09 5 24.8 319 
 BRR  HZ EP   2   2259  5.37                             150   -0.02 5 76.3 301 
 BRR  HZ I        2259  8.43        28.8 0.23                          76.3 301 
 BRR  HE ES   2   2259 21.65                             150    0.06 5 76.3 301 
 PAM  SZ EP   2   2259  6.64                             149    0.29 5 80.3  35 
 PAM  SN ES   2   2259 22.89                             149   -0.39 5 80.3  35 
 RUS  HZ EP   1   2259  7.31                             144   -0.01 7 94.7 177 
 RUS  HN ES   2   2259 24.72                             144   -0.30 5 94.7 177 
 RUS  HZ I        2259 28.79         4.0 0.54                          94.7 177 
 ZAR  HZ EP   2   2259 17.38                             120    0.23 4  209 293 
 ZAR  HN ES   2   2259 42.16                             120   -0.35 4  209 293 
 ZAR  HZ I        2259 45.70         6.0 0.37                           209 293 
                                                                                
