 2013  420 2248 22.4 L   6.747 -73.157149.1  RSN  7 0.4 1.9LRSN                1
 GAP=137        0.88       5.0     4.9  6.9  0.2571E+00  0.4736E+01 -0.8002E+00E
 Epicentro: LOS SANTOS - SANTANDER                                             3
 ACTION:UPD 13-05-22 14:39 OP:EP   STATUS:               ID:20130420224822 L   I
 2013-04-20-2246-48M.COL___210                                                 6
 STAT SP IPHASW D HRMM SECON CODA AMPLIT PERI AZIMU VELO AIN AR TRES W  DIS CAZ7
 GIR2 SZ EP       2248 42.47                             165   -0.1410 36.9 354 
 GIR2 SZ ES   1   2248 58.52                             165    0.13 7 36.9 354 
 GIR2 SZ I        2248 59.36        16.4 0.30            167           36.9 354 
 BRR  HZ EP       2248 44.25                             153    0.2510 73.1 303 
 BRR  HN ES   1   2249  1.22                             153    0.36 7 73.1 303 
 BRR  HZ I        2249  4.54        14.5 0.24            152           73.1 303 
 PAM  SZ EP       2248 45.35                             150    0.0810 82.8  38 
 PAM  SN ES   1   2249  2.63                             150   -0.50 7 82.8  38 
 PAM  SZ I        2249  4.17         7.3 0.16            155           82.8  38 
 RUS  HZ EP       2248 46.43                             146    0.3710 94.8 175 
 RUS  HE ES   1   2249  4.59                             146    0.06 7 94.8 175 
 RUS  HZ I        2249  6.48        12.7 0.26            148           94.8 175 
 PTB  HZ EP       2248 48.98                             133   -0.44 9  145 261 
 PTB  HN ES   1   2249  9.63                             133   -0.88 7  145 261 
 PTB  HZ I        2249 17.30        15.6 0.50            133            145 261 
 ZAR  HN ES   1   2249 21.50                             123    0.78 6  205 294 
 SML  HZ EP       2248 59.57                             118   -0.14 8  249 336 
 SML  HN ES   4   2249 26.95                             118   -1.88 0  249 336 
                                                                                
