 2010 1020 2245 17.7 L   6.786 -73.078140.0  RSN  5 0.3 1.5LRSN                1
 GAP=166        0.72       6.2    13.4 14.9  0.1552E+02 -0.1446E+03 -0.1023E+02E
 Epicentro: LOS SANTOS - SANTANDER                                             3
 ACTION:UP  11-02-18 11:11 OP:tino STATUS:               ID:20101020224517 L   I
 2010-10-20-2243-18S.COL___128                                                 6
 STAT SP IPHASW D HRMM SECON CODA AMPLIT PERI AZIMU VELO SNR AR TRES W  DIS CAZ7
 BAR2 SZ ES   3   2245 50.39                             170    -1.0 2   24 209 
 BAR2 SZ I        2245 52.86        10.8 0.34                            24 209 
 BTL  SZ EP       2245 37.01                             170     0.310   26 305 
 BRR  HZ EP       2245 38.36                             150    -0.310   79 297 
 BRR  HE ES   1   2245 55.22                             150     0.2 7   79 297 
 BRR  HZ I        2245 56.01        17.3 0.51                            79 297 
 RUS  HZ EP       2245 40.69                             144     0.010   99 180 
 RUS  HZ I        2245 41.76         2.6 0.18                            99 180 
 RUS  HN ES   3   2245 59.09                             144     0.4 2   99 180 
 GRA  SZ EP       2245 42.32                             137    -0.110  125  14 
 GRA  SZ I        2245 43.63         3.7 0.16                           125  14 
                                                                                
