 2015  620 2218 16.7 L   6.826 -73.128146.0  RSN 14 0.4 2.0LRSN                1
 GAP=137        0.89       2.6     3.7  4.7 -0.1297E+01  0.7477E+01  0.1833E+01E
 Epicentro: LOS SANTOS - SANTANDER                                             3
 ACTION:UPD 15-09-10 22:14 OP:cam  STATUS:               ID:20150620221816 L   I
 OLDACT:REG 15-06-21 06:22 OP:ak   STATUS:               ID:20150620220748     3
 2015-06-20-2207-48M.COL___310                                                 6
 STAT SP IPHASW D HRMM SECON CODA AMPLIT PERI AZIMU VELO AIN AR TRES W  DIS CAZ7
 BAR2 EZ EP       2218 36.45                             169    0.0110 26.5 193 
 BAR2 EZ ES       2218 51.55                             169   -0.2810 26.5 193 
 BAR2 EZ I        2218 52.97        21.6 0.15            166           26.5 193 
 BRR  HZ EP       2218 37.37                             152   -0.5410 71.7 296 
 BRR  HN ES       2218 54.88                             152    0.4310 71.7 296 
 BRR  HZ I        2218 57.85        13.0 0.18            149           71.7 296 
 PAM  SZ EP       2218 39.20                             152    0.4510 73.9  40 
 PAM  SN ES       2218 56.34                             152    0.4010 73.9  40 
 PAM  SZ I        2218 58.64        19.4 0.61            157           73.9  40 
 RUS  HZ EP       2218 40.55                             143   -0.1410  103 177 
 RUS  HN ES       2218 59.33                             143   -0.0610  103 177 
 RUS  HZ I        2219  1.08        11.1 0.36            144            103 177 
 NOR  HZ EP       2218 53.12                             118    0.31 8  238 234 
 NOR  HN ES       2219 20.43                             118   -0.53 8  238 234 
 NOR  HZ I        2219 26.24         9.7 0.29            118            238 234 
 SML  HZ EP       2218 52.93                             118   -0.23 8  242 335 
 SML  HN ES       2219 20.84                             118   -0.75 8  242 335 
 CHI  HZ EP       2218 54.28                             117   -0.50 8  252 195 
 CHI  HN ES       2219 23.87                             117   -0.61 8  252 195 
 CHI  HZ I        2219 30.41         5.7 0.36            118            252 195 
 ROSC BZ EP   1   2218 55.81                             116    0.58 6  256 211 
 ROSC BN ES       2219 25.61                             116    0.34 8  256 211 
 ROSC BZ I        2219 34.71         9.3 0.17            117            256 211 
 HEL  HZ EP       2218 57.17                             115   -0.06 8  275 255 
 HEL  HN ES       2219 29.65                             115    0.82 8  275 255 
 HEL  HZ I        2219 37.49         7.6 0.36            115            275 255 
 GUY2CHZ EP   1   2219  1.11                             112    0.41 5  304 235 
 GUY2CHN ES       2219 35.22                             112    0.20 7  304 235 
 GUY2CHZ I        2219 43.13         6.5 0.18                           304 235 
 DBB  SZ EP   1   2219  4.54                             109    0.13 5  341 274 
 DBB  SZ ES       2219 41.40                             109   -0.20 7  341 274 
 DBB  SZ I        2219 45.84                             110            341 274 
 MON  HZ EP   4   2219  2.87                             109   -2.83 0  353 308 
 MON  HN ES   4   2219 40.52                             109   -3.39 0  353 308 
 MON  HZ I        2219 56.72         2.3 0.62            109            353 308 
 PRA  HZ EP       2219 10.62                             106   -0.03 6  395 210 
 PRA  HN ES       2219 52.76                             106    0.04 6  395 210 
 PRA  HZ I        2219 59.40         6.6 0.38            107            395 210 
 ORTC HZ EP       2219 11.61                             106    0.56 6  399 216 
 ORTC HN ES   1   2219 53.47                             106    0.04 4  399 216 
 ORTC HZ I        2219 60.00         3.4 0.40            107            399 216 
                                                                                
