 2012 1120 2213 16.9 L   6.767 -73.020135.9  RSN  4 0.3 1.6LRSN                1
 GAP=155        0.92       4.7     7.0  7.8 -0.1423E+01 -0.3957E+01  0.7584E+00E
 Epicentro: CEPITA - SANTANDER                                                 3
 ACTION:UPD 12-12-05 15:34 OP:}ep  STATUS:               ID:20121120221316 L   I
 2012-11-20-2210-00M.COL___233                                                 6
 STAT SP IPHASW D HRMM SECON CODA AMPLIT PERI AZIMU VELO AIN AR TRES W  DIS CAZ7
 BAR2 SZ ES       2213 49.55                             168   -0.2810 26.4 223 
 BAR2 SZ I        2213 52.31        10.4 0.26                          26.4 223 
 PAM  SZ EP       2213 37.96                             151    0.2010 72.5  29 
 PAM  SN ES       2213 54.00                             151   -0.0410 72.5  29 
 PAM  SN I        2213 56.16         4.8 0.32                          72.5  29 
 BRR  HZ EP       2213 38.16                             146    0.2910 85.2 296 
 BRR  HN ES       2213 54.18                             146   -0.0610 85.2 296 
 BRR  HN I        2213 54.69        11.3 0.26                          85.2 296 
 RUS  HZ EP       2213 38.79                             143   -0.6110 96.9 184 
 RUS  HN ES       2213 57.47                             143    0.5110 96.9 184 
                                                                                
