 2015  320 2009 36.1 L   6.783 -73.187150.0  RSN  6 0.4 1.6LRSN                1
 GAP=177        0.90       5.7     5.1  8.2 -0.7150E+01  0.4714E+01  0.8767E+00E
 Epicentro: ZAPATOCA - SANTANDER                                               3
 ACTION:UPD 15-04-30 16:27 OP:nd   STATUS:               ID:20150320200936 L   I
 OLDACT:REG 15-03-21 03:19 OP:spq  STATUS:               ID:20150320200747     3
 2015-03-20-2007-47M.COL___272                                                 6
 STAT SP IPHASW D HRMM SECON CODA AMPLIT PERI AZIMU VELO AIN AR TRES W  DIS CAZ7
 BRR  HZ EP   1   20 9 57.80                             154    0.23 7 68.2 302 
 BRR  HN ES       2010 14.53                             154    0.2310 68.2 302 
 BRR  HZ I        2010 17.73        11.5 0.50            156           68.2 302 
 PAM  SZ EP       20 9 59.42                             150    0.3610 81.8  41 
 PAM  SN ES   1   2010 16.40                             150   -0.54 7 81.8  41 
 PAM  SZ I        2010 18.68         5.1 0.52            156           81.8  41 
 PTB  HZ EP       2010  2.36                             134   -0.65 9  143 259 
 PTB  HE ES   1   2010 23.43                             134   -0.55 7  143 259 
 PTB  HZ I        2010 25.20         5.2 0.15            136            143 259 
 SPBC HE ES   1   2010 27.17                             131    0.45 7  159 218 
 SPBC HZ I        2010 33.01         5.6 0.22            132            159 218 
 ZAR  HZ EP       2010  8.62                             124    0.12 9  201 293 
 ZAR  HE ES       2010 34.05                             124    0.31 9  201 293 
 ZAR  HZ I        2010 38.79         4.1 0.50            127            201 293 
 SML  HE ES   1   2010 41.46                             118   -0.26 6  244 336 
                                                                                
