 2010  620 2241 10.1 L   6.807 -73.081137.1  RSN 14 0.5 2.4LRSN                1
 GAP=131        0.97       3.8     6.0  6.5 -0.9854E+01 -0.1397E+00 -0.1890E+00E
 Epicentro: LOS SANTOS - SANTANDER                                             3
 ACTION:UP  10-08-24 10:11 OP:vdl  STATUS:               ID:20100620224110 L   I
 2010-06-20-2238-49S.COL___118                                                 6
 STAT SP IPHASW D HRMM SECON CODA AMPLIT PERI AZIMU VELO SNR AR TRES W  DIS CAZ7
 BAR2 SZ IP       2241 28.61                             169    -0.210   26 205 
 BAR2 SZ ES   1   2241 43.51                             169     0.2 7   26 205 
 BRR  HZ IP     C 2241 30.48                             149    -0.210   77 296 
 BRR  HZ I        2241 30.84        96.2 0.08                            77 296 
 BRR  HE ES   1   2241 46.93                             149     0.2 7   77 296 
 RUS  HZ IP     C 2241 32.68                             142    -0.410  101 180 
 RUS  HE ES   1   2241 50.90                             142    -0.1 7  101 180 
 RUS  HZ I        2241 53.38        32.6 0.29                           101 180 
 BRI  SZ IP       2241 33.23                             140     0.310  105  17 
 GUE  SZ IP       2241 34.73                             138     0.810  114   9 
 GRA  SZ IP       2241 34.50                             135     0.110  123  14 
 OCA  SZ EP   1   2241 37.36                             127    -0.4 7  161 351 
 OCA  SZ ES   1   2241 58.97                             127    -0.4 7  161 351 
 OCA  SZ I        2242  2.03        39.2 0.46                           161 351 
 CHI  HE ES   3   2242 16.93                             115     0.0 2  251 197 
 ROSC BZ IP     C 2241 48.61                             114     0.3 8  257 212 
 ROSC BN ES   2   2242 17.87                             114    -0.2 4  257 212 
 ROSC BZ I        2242 25.25        20.9 0.60                           257 212 
 HEL  HZ EP   2   2241 50.86                             112     0.1 4  279 256 
 HEL  HN ES   2   2242 21.39                             112    -1.0 4  279 256 
 HEL  HZ I        2242 27.76        12.2 0.37                           279 256 
 GUY  HZ EP   2   2241 54.01                             110    -0.1 4  308 236 
 GUY  HE ES   2   2242 28.04                             110    -0.3 4  308 236 
 RREF HZ IP     D 2241 57.10                             109     0.5 7  328 230 
 RREF HE ES   1   2242 32.41                             109    -0.4 5  328 230 
 RREF HZ I        2242 38.73        13.3 0.41                           328 230 
 TOL  SZ EP   2   2241 59.87                             107     1.2 3  349 225 
 SDV  BZ IP     C 2241 58.27                             107    -0.9 6  354  50 
 SDV  BZ I        2242 40.75         7.5 0.52                           354  50 
                                                                                
