 2010  720 2331 33.1 L   6.813 -72.985143.7  RSN  7 0.5 1.8LRSN                1
 GAP=176        1.04       5.5     9.3  9.7  0.7366E+01 -0.8492E+01  0.3396E+01E
 Epicentro: CEPITA - SANTANDER                                                 3
 ACTION:UPD 10-12-01 15:19 OP:pat  STATUS:               ID:20100720233133 L   I
 2010-07-20-2327-39S.COL___123                                                 6
 STAT SP IPHASW D HRMM SECON CODA AMPLIT PERI AZIMU VELO AIN AR TRES W  DIS CAZ7
 BAR2 SZ EP   1   2331 52.63                             167    -0.1 7   33 222 
 BAR2 SZ I        2332 10.51        17.3 0.13                            33 222 
 BRR  HZ EP       2331 54.53                             148    -0.510   87 292 
 BRR  HN ES       2332 12.09                             148     0.010   87 292 
 BRR  HZ I        2332 14.36        15.5 0.29                            87 292 
 RUS  HZ EP   1   2331 56.60                             143    -0.2 7  102 186 
 RUS  HN ES       2332 15.60                             143     0.310  102 186 
 RUS  HZ I        2332 17.00         6.0 0.33                           102 186 
 GRA  SZ EP   1   2331 58.29                             138     0.6 7  120  10 
 GRA  SZ I        2332 19.01         7.3 0.19                           120  10 
 CHI  HZ EP   1   2332 10.88                             116    -0.5 6  255 199 
 CHI  HN ES   1   2332 40.82                             116    -0.5 6  255 199 
 CHI  HZ I        2332 45.28         3.4 0.25                           255 199 
 HEL  HN ES   2   2332 48.14                             113     0.1 4  290 256 
 HEL  HZ I        2332 50.72         4.8 0.06                           290 256 
 RREF HZ EP   1   2332 21.22                             110     0.4 5  336 231 
 RREF HE ES   2   2332 59.55                             110     1.5 3  336 231 
 RREF HZ I        2333  4.99         4.8 0.76                           336 231 
                                                                                
