 2016 1220 2046 58.8 L   6.798 -73.169147.4  RSN 10 0.4 2.2LRSN                1
 GAP=101        0.98       3.8     3.5  5.6 -0.9220E+00  0.1321E+01  0.4640E+01E
 Epicentro: LOS SANTOS - SANTANDER                                             3
 ACTION:UPD 17-01-11 20:17 OP:rebc STATUS:               ID:20161220204658 L   I
 OLDACT:DUP 16-12-21 04:22 OP:ar   STATUS:               ID:20161220203747d    3
 OLDACT:UP  16-12-21 04:15 OP:ar   STATUS:               ID:20161220203746     3
 OLDACT:UP  16-12-21 04:11 OP:ar   STATUS:               ID:20161220203746     3
 OLDACT:REG 16-12-21 03:02 OP:ar   STATUS:               ID:20161220203746     3
 2016-12-20-2038-00M.COL___381                                                 6
 STAT SP IPHASW D HRMM SECON CODA AMPLIT PERI AZIMU VELO AIN AR TRES W  DIS CAZ7
 BAR2 EZ EP       2047 18.90                             171    0.2410 22.8 184 
 BAR2 EZ ES       2047 34.04                             171   -0.0810 22.8 184 
 BAR2 EZ I        2047 34.80        41.3 0.22            171           22.8 184 
 BRR  HZ EP       2047 20.29                             154    0.2310 69.1 300 
 BRR  HN ES       2047 37.59                             154    0.9910 69.1 300 
 BRR  HZ I        2047 40.46        19.5 0.16            152           69.1 300 
 PAM  EZ EP       2047 21.53                             151    0.1810 79.2  41 
 PAM  EN ES       2047 38.38                             151   -0.5210 79.2  41 
 PAM  EZ I        2047 40.63        41.8 0.48            153           79.2  41 
 RUS  HZ EP       2047 22.73                             144   -0.0310  101 175 
 RUS  HE ES       2047 41.28                             144   -0.1310  101 175 
 RUS  HZ I        2047 42.22        24.9 0.24            146            101 175 
 PTB  HZ EP       2047 25.27                             133   -0.45 9  145 259 
 PTB  HN ES       2047 46.13                             133   -0.55 9  145 259 
 PTB  HZ I        2047 53.17        25.2 0.80            132            145 259 
 TAM  HZ EP       2047 26.85                             130   -0.03 9  158 105 
 ZAR  HZ EP   2   2047 31.48                             123    0.32 4  202 292 
 ZAR  HN ES       2047 55.78                             123   -0.59 9  202 292 
 ZAR  HZ I        2048  1.89         8.7 0.16            123            202 292 
 NOR  HZ EP       2047 34.59                             119    0.16 8  232 234 
 NOR  HN ES       2048  2.42                             119    0.23 8  232 234 
 CHI  HZ EP       2047 36.75                             118    0.21 8  248 195 
 CHI  HN ES       2048  5.94                             118   -0.00 8  248 195 
 CHI  HZ I        2048  9.58         9.0 0.52            119            248 195 
 GUY2CHZ EP   9   2047 44.08                             113    1.80 0  299 235 
 GUY2CHN ES       2048 18.33                                    0.37 7  299 235 
 GUY2CHZ I        2048 24.71         8.5 0.26                           299 235 
                                                                                
