 2015  120 2036 13.2 L   7.205 -73.839 98.8  RSN 11 0.4 2.0LRSN                1
 GAP= 66        0.97       2.5     2.9  5.9 -0.6168E+00  0.2793E+01  0.8210E+00E
 Epicentro: BARRANCABERMEJA - SANTANDER                                        3
 ACTION:UPD 15-03-02 15:41 OP:nd   STATUS:               ID:20150120203613 L   I
 OLDACT:UP  15-01-21 06:13 OP:mh   STATUS:               ID:20150120202745d    3
 OLDACT:UP  15-01-21 06:10 OP:mh   STATUS:               ID:20150120202745d    3
 OLDACT:DUP 15-01-21 06:10 OP:mh   STATUS:               ID:20150120202745d    3
 2015-01-20-2027-44M.COL___259                                                 6
 STAT SP IPHASW D HRMM SECON CODA AMPLIT PERI AZIMU VELO AIN AR TRES W  DIS CAZ7
 BRR  HZ IP     D 2036 26.74                             169    0.0510 17.7 128 
 BRR  HN ES       2036 37.18                             169   -0.0410 17.7 128 
 BRR  HZ I        2036 37.69        37.7 0.10            168           17.7 128 
 BAR2 EZ EP   1   2036 32.78                             132    0.56 7 99.3 133 
 BAR2 EZ ES       2036 47.41                             132    0.3410 99.3 133 
 BAR2 EZ I        2036 48.67        32.8 0.24            131           99.3 133 
 PTB  HZ EP       2036 31.32                             131   -0.7010  100 223 
 PTB  HE ES   1   2036 46.30                             131   -0.42 7  100 223 
 PTB  HZ I        2036 46.48        19.8 0.16            130            100 223 
 ZAR  HZ EP       2036 34.01                             127    0.4110  117 286 
 ZAR  HN ES       2036 50.05                             127    0.5210  117 286 
 ZAR  HZ I        2036 52.54        22.3 0.36            126            117 286 
 PAM  SZ EP       2036 35.50                             125    0.2810  127  83 
 PAM  SN ES   1   2036 51.83                             125   -0.58 7  127  83 
 PAM  SZ I        2036 54.09        13.6 0.16            124            127  83 
 OCA  HZ EP   1   2036 34.39                             124   -0.51 7  128  27 
 OCA  HN ES       2036 52.00                             124    0.1610  128  27 
 OCA  HZ I        2036 53.62        23.5 0.26            124            128  27 
 RUS  HZ EP   1   2036 39.29                             117   -0.27 7  168 150 
 RUS  HE ES   1   2037  0.31                             117    0.17 7  168 150 
 RUS  HZ I        2037  8.10         5.8 0.38            116            168 150 
 SPBC HZ EP       2036 40.05                             115    0.32 9  174 189 
 SPBC HN ES       2036 59.93                             115   -0.52 9  174 189 
 SPBC HZ I        2037  2.17        27.3 0.24            115            174 189 
 SML  HZ EP   1   2036 39.97                             115   -0.16 7  178 352 
 SML  HN ES   1   2037  0.34                             115   -0.82 7  178 352 
 SML  HZ I        2037  1.87        41.2 0.10            114            178 352 
 URE  HZ EP   4   2036 43.92                             112    1.71 0  196 288 
 URE  HN ES   4   2037  7.00                             112    2.14 0  196 288 
 URE  HZ I        2037  8.98        10.8 0.18            112            196 288 
 NOR  HZ EP       2036 44.72                             110    0.41 8  214 212 
 NOR  HN ES       2037  8.45                             110   -0.15 8  214 212 
 NOR  HZ I        2037 11.48         8.2 0.16            110            214 212 
 MON  HZ EP   4   2036 48.52                             106   -1.79 0  266 311 
 MON  HN ES   4   2037 15.95                             106   -3.32 0  266 311 
                                                                                
