 2011  220 2152 18.7 L   6.821 -73.104141.3  RSN 13 0.4 3.0LRSN                1
 GAP=139        0.93       3.1     5.2  7.2 -0.2546E+01  0.1045E+02  0.2248E+01E
 Epicentro: LOS SANTOS - SANTANDER                                             3
 ACTION:UP  11-03-28 15:09 OP:jfem STATUS:               ID:20110220215218 L   I
 2011-02-20-2150-45S.COL___137                                                 6
 STAT SP IPHASW D HRMM SECON CODA AMPLIT PERI AZIMU VELO SNR AR TRES W  DIS CAZ7
 BTL  SZ EP       2152 38.25                             171     0.510   21 301 
 BAR2 SZ EP       2152 38.10                             169     0.210   27 199 
 BAR2 SZ ES   1   2152 52.51                             169    -0.3 7   27 199 
 BAR2 SZ I        2152 55.93       333.5 0.40                            27 199 
 GIR2 SZ EP       2152 38.10                             167     0.310   30 341 
 RUS  HZ EP   1   2152 41.99                             142    -0.2 7  103 179 
 RUS  HN ES   1   2153  0.35                             142    -0.1 7  103 179 
 RUS  HZ I        2153  2.68       138.6 0.36                           103 179 
 GRA  SZ EP       2152 42.85                             137    -0.410  122  16 
 GRA  SZ ES   1   2153  1.66                             137    -0.7 7  122  16 
 GRA  SZ I        2153  4.03       107.6 0.33                           122  16 
 OCA  SZ EP   1   2152 46.79                             129     0.3 7  159 351 
 OCA  SZ ES   1   2153  8.43                             129     0.2 7  159 351 
 OCA  SZ I        2153 14.05       126.6 0.30                           159 351 
 YOP  SZ EP       2152 48.75                             125     0.3 9  179 155 
 YOP  SN ES   1   2153 11.62                             125     0.0 7  179 155 
 YOP  SZ I        2153 13.42        90.5 0.27                           179 155 
 NOR  SZ EP   1   2152 54.07                             117    -0.7 6  240 235 
 NOR  SE ES   1   2153 22.38                             117    -0.5 6  240 235 
 CHI  HZ EP   1   2152 56.12                             116    -0.4 6  252 196 
 CHI  HN ES   2   2153 25.48                             116    -0.6 4  252 196 
 CHI  HZ I        2153 29.70        59.0 0.39                           252 196 
 ROSC BZ EP   1   2152 57.61                             115     0.5 6  257 212 
 ROSC BE ES   1   2153 27.14                             115     0.2 6  257 212 
 ROSC BZ I        2153 34.08       106.5 0.51                           257 212 
 HEL  HZ EP   2   2152 58.69                             113    -0.6 4  277 256 
 HEL  HN ES   1   2153 31.55                             113     0.7 6  277 256 
 HEL  HZ I        2153 37.78        83.4 0.40                           277 256 
 VIL  SZ EP   2   2153  1.50                             111    -0.6 4  305 191 
 VIL  SZ I        2153 42.27        43.1 0.49                           305 191 
 DBB  SZ EP   1   2153  6.17                             108    -0.3 5  344 274 
                                                                                
