 2016  520 2339 41.9 L   6.808 -73.137150.0  RSN 10 0.4 1.7LRSN                1
 GAP=137        0.94       3.5     3.9  6.2 -0.1435E+01  0.3369E+01  0.7202E+01E
 Epicentro: LOS SANTOS - SANTANDER                                             3
 ACTION:UPD 16-08-18 17:47 OP:cam  STATUS:               ID:20160520233941 L   I
 OLDACT:UP  16-05-21 06:58 OP:dani STATUS:               ID:20160520233742     3
 OLDACT:UP  16-05-21 06:51 OP:dani STATUS:               ID:20160520233742     3
 OLDACT:REG 16-05-21 04:40 OP:dani STATUS:               ID:20160520233742     3
 2016-05-20-2337-42M.COL___294                                                 6
 STAT SP IPHASW D HRMM SECON CODA AMPLIT PERI AZIMU VELO AIN AR TRES W  DIS CAZ7
 BAR2 EZ EP       2340  1.77                             170   -0.3010 24.4 192 
 BAR2 EZ I        2340 19.42        11.1 0.42            169           24.4 192 
 BRR  HZ EP       2340  3.75                             153    0.2110 71.6 298 
 BRR  HN ES       2340 20.99                             153    0.5710 71.6 298 
 BRR  HZ I        2340 34.17        10.5 0.44            155           71.6 298 
 PAM  EZ EP       2340  4.64                             152    0.1410 76.0  39 
 PAM  EE ES       2340 22.04                             152   -0.0810 76.0  39 
 PAM  EZ I        2340 22.87         6.1 0.14            158           76.0  39 
 RUS  HZ EP       2340  5.72                             144   -0.4210  101 177 
 RUS  HE ES       2340 25.08                             144    0.0410  101 177 
 RUS  HZ I        2340 27.54         3.4 0.23            147            101 177 
 PTB  HZ EP       2340  8.80                             133   -0.53 9  149 259 
 PTB  HE ES       2340 30.23                             133   -0.49 9  149 259 
 PTB  HZ I        2340 37.12         9.9 0.50            135            149 259 
 SPBC HZ EP       2340 10.80                             130   -0.06 9  165 219 
 SPBC HE ES       2340 33.96                             130    0.51 9  165 219 
 SPBC HZ I        2340 39.22        11.1 0.26            132            165 219 
 ZAR  HZ EP   2   2340 14.83                             123    0.14 4  205 292 
 ZAR  HE ES       2340 40.31                             123    0.05 9  205 292 
 NOR  HZ EP       2340 18.12                             119    0.09 8  236 234 
 NOR  HN ES       2340 45.69                             119   -0.52 8  236 234 
 NOR  HZ I        2340 51.30         4.8 0.32            122            236 234 
 CHI  HZ EP       2340 19.99                             118    0.02 8  250 195 
 CHI  HN ES       2340 49.54                             118   -0.12 8  250 195 
 CHI  HZ I        2340 58.86         2.3 0.29            121            250 195 
 PRA  HZ EP       2340 37.03                             107    1.30 6  393 210 
 PRA  HE ES       2341 18.31                             107    0.60 6  393 210 
 PRA  HZ I        2341 26.37         1.9 0.36            110            393 210 
                                                                                
