 2013  720 2106 26.1 L   6.756 -73.199150.3  RSN  5 0.1 2.0LRSN                1
 GAP=228        0.31       2.7     2.3  2.6  0.4223E+01  0.1414E+01  0.1032E+01E
 Epicentro: VILLANUEVA - SANTANDER                                             3
 ACTION:UPD 13-08-12 10:39 OP:ep   STATUS:               ID:20130720210626 L   I
 OLDACT:REG 13-07-20 22:51 OP:stll STATUS:               ID:20130720205850     3
 2013-07-20-2058-50M.COL___227                                                 6
 STAT SP IPHASW D HRMM SECON CODA AMPLIT PERI AZIMU VELO AIN AR TRES W  DIS CAZ7
 BAR2 SZ EP       21 6 46.16                             173    0.0010 18.2 174 
 BAR2 SZ ES       21 7  1.81                             173   -0.0210 18.2 174 
 BAR2 SZ I        21 7  4.14        21.8 0.92            174           18.2 174 
 BRR  HN ES       21 7  4.37                             154    0.0210 68.7 304 
 RUS  HZ EP       21 6 49.86                             146   -0.1110 96.3 172 
 RUS  HN ES       21 7  8.69                             146    0.0710 96.3 172 
 PTB  HZ EP       21 6 52.95                             134    0.13 9  141 260 
 PTB  HN ES       21 7 13.62                             134   -0.07 9  141 260 
 ZAR  HE ES       21 7 23.70                             124   -0.02 9  201 294 
                                                                                
