 2010  220 2355  1.6 L   6.824 -73.065148.0  RSN  5 0.4 1.4LRSN                1
 GAP=191        0.66      10.6    16.4  9.6  0.1384E+03 -0.1001E+03 -0.5552E+02E
 Epicentro: LOS SANTOS - SANTANDER                                             3
 ACTION:UP  10-08-24 09:49 OP:vdl  STATUS:               ID:20100220235501 L   I
 2010-02-20-2340-00S.COL___095                                                 6
 STAT SP IPHASW D HRMM SECON CODA AMPLIT PERI AZIMU VELO SNR AR TRES W  DIS CAZ7
 BAR2 SZ EP       2355 21.12                             169    -0.510   29 207 
 BAR2 SZ ES       2355 37.35                             169     0.110   29 207 
 GIR2 SZ EP   3   2355 22.17                             167     0.7 2   32 333 
 BRR  HZ EP   3   2355 23.86                             151     0.5 2   78 294 
 BRR  HN ES       2355 40.33                             151     0.010   78 294 
 RUS  BZ EP   2   2355 26.07                             144     0.4 5  103 181 
 RUS  BE ES   2   2355 44.82                             144     0.3 5  103 181 
 RUS  BZ I        2355 46.43         4.0 0.45                           103 181 
 OCA  SZ EP   2   2355 30.46                             131     0.5 5  159 350 
                                                                                
