 2016  220 2058 17.3 L   6.802 -73.174142.2  RSN  9 0.4 1.7LRSN                1
 GAP=133        0.66       3.9     4.4  6.5 -0.7899E+01  0.7189E+01  0.3026E+01E
 Epicentro: LOS SANTOS - SANTANDER                                             3
 ACTION:UPD 16-03-04 21:27 OP:rebc STATUS:               ID:20160220205817 L   I
 OLDACT:REG 16-02-21 03:02 OP:dnl  STATUS:               ID:20160220204747     3
 2016-02-20-2047-47M.COL___334                                                 6
 STAT SP IPHASW D HRMM SECON CODA AMPLIT PERI AZIMU VELO AIN AR TRES W  DIS CAZ7
 BAR2 EZ EP   2   2058 36.34                             170   -0.18 5 23.3 182 
 BAR2 EZ ES   2   2058 51.17                             170   -0.32 5 23.3 182 
 BAR2 EZ I        2058 54.31         9.1 0.19            169           23.3 182 
 BRR  HZ EP   2   2058 38.04                             153    0.12 5 68.3 300 
 BRR  HE ES   2   2058 54.78                             153    0.79 5 68.3 300 
 BRR  HZ I        2058 58.16         7.5 0.14            153           68.3 300 
 PAM  EZ EP       2058 39.34                             150    0.0710 79.2  41 
 PAM  EN ES       2058 56.27                             150   -0.1210 79.2  41 
 PAM  EZ I        2058 59.47         9.2 0.30            156           79.2  41 
 RUS  HZ EP   2   2058 40.52                             143   -0.24 5  101 174 
 RUS  HE ES   2   2058 58.43                             143   -0.61 5  101 174 
 RUS  HZ I        2059  1.61         4.1 0.26            145            101 174 
 PTB  HZ EP   2   2058 42.94                             132   -0.78 5  145 258 
 PTB  HN ES   2   2059  3.50                             132   -0.81 5  145 258 
 PTB  HZ I        2059  6.70         6.8 0.18            133            145 258 
 SPBC HZ EP   2   2058 45.55                             128    0.18 5  161 218 
 SPBC HN ES       2059  7.84                             128    0.58 9  161 218 
 SPBC HZ I        2059 12.81         7.6 0.08            130            161 218 
 ZAR  HZ EP   2   2058 49.52                             122    0.30 4  201 292 
 ZAR  HN ES   2   2059 13.62                             122   -0.48 4  201 292 
 ZAR  HZ I        2059 19.16         6.3 0.15            125            201 292 
 CHI  HZ EP   2   2058 54.69                             116   -0.07 4  248 194 
 CHI  HN ES   2   2059 23.71                             116   -0.25 4  248 194 
 CHI  HZ I        2059 30.16         2.3 0.34            119            248 194 
 GUY2CHZ EP   2   2059  1.12                             112    0.63 4  299 234 
 GUY2CHN ES   2   2059 33.99                             112   -0.17 4  299 234 
 GUY2CHZ I        2059 42.58         3.0 0.37                           299 234 
                                                                                
