 2010  220 2350 13.4 L   6.758 -73.118150.0  RSN  5 0.2 1.8LRSN                1
 GAP=185        0.31       3.7    15.6  7.1  0.3218E+02 -0.3408E+02 -0.1183E+02E
 Epicentro: LOS SANTOS - SANTANDER                                             3
 ACTION:UP  10-08-24 09:49 OP:vdl  STATUS:               ID:20100220235013 L   I
 2010-02-20-2340-00S.COL___095                                                 6
 STAT SP IPHASW D HRMM SECON CODA AMPLIT PERI AZIMU VELO SNR AR TRES W  DIS CAZ7
 BAR2 SZ EP   1   2350 33.43                             173    -0.1 7   20 202 
 BAR2 SZ ES   3   2350 48.66                             173    -0.5 2   20 202 
 GIR2 SZ EP   2   2350 33.58                             166    -0.1 5   36 347 
 GIR2 SZ ES   3   2350 49.66                             166     0.1 2   36 347 
 BRR  HZ EP   3   2350 35.31                             152     0.0 2   76 301 
 BRR  HE ES   3   2350 52.38                             152     0.0 2   76 301 
 BRR  HZ I        2350 56.94        20.6 0.19                            76 301 
 RUS  BZ EP   3   2350 37.30                             146     0.1 2   96 178 
 RUS  BE ES   2   2350 56.06                             146     0.2 5   96 178 
 RUS  BZ I        2350 57.31         4.7 0.33                            96 178 
 OCA  SZ EP   2   2350 42.40                             130    -0.1 5  165 352 
 OCA  SZ ES   2   2351  5.48                             130     0.3 5  165 352 
                                                                                
