 2014 1120 2356 28.8 L   6.446 -73.636105.1  RSN  4 0.1 1.4LRSN                1
 GAP=142        0.41       2.8     2.2  5.0  0.3241E+01  0.5035E+01  0.7259E+01E
 Epicentro: SANTA HELENA DEL OPON - SANTANDER                                  3
 ACTION:UPD 14-12-19 15:45 OP:nd   STATUS:               ID:20141120235628 L   I
 OLDACT:REG 14-11-21 09:36 OP:cam  STATUS:               ID:20141120234815     3
 2014-11-20-2348-15M.COL___301                                                 6
 STAT SP IPHASW D HRMM SECON CODA AMPLIT PERI AZIMU VELO AIN AR TRES W  DIS CAZ7
 BAR2 SZ ES       2356 57.23                             151   -0.1810 52.7  72 
 BAR2 SZ I        2356 58.20        21.4 0.18            160           52.7  72 
 BRR  HN ES       2356 59.44                             142    0.1410 73.6 353 
 RUS  HZ EP       2356 47.62                             138   -0.0310 86.5 135 
 RUS  HE ES       2357  2.47                             138    0.1410 86.5 135 
 RUS  HZ I        2357  6.24         2.9 0.22            141           86.5 135 
 PTB  HZ IP     D 2356 47.38                             136   -0.0210 91.3 277 
 PTB  HN ES       2357  1.83                             136   -0.0410 91.3 277 
 PTB  HZ I        2357  5.26         3.5 0.42            139           91.3 277 
                                                                                
