 2012 1120 2332 53.0 L   6.797 -73.168141.8  RSN  4 0.6 1.4LRSN                1
 GAP=134        1.57       8.5     8.4 15.9 -0.8660E+01 -0.8847E+01  0.2060E+02E
 Epicentro: LOS SANTOS - SANTANDER                                             3
 ACTION:UPD 12-12-05 15:34 OP:}ep  STATUS:               ID:20121120233253 L   I
 2012-11-20-2330-00M.COL___233                                                 6
 STAT SP IPHASW D HRMM SECON CODA AMPLIT PERI AZIMU VELO AIN AR TRES W  DIS CAZ7
 BRR  HZ EP       2333 14.42                             152    0.8110 69.2 300 
 BRR  HN ES       2333 30.37                             152    0.6810 69.2 300 
 PAM  SZ EP       2333 14.81                             149   -0.1010 79.2  41 
 PAM  SZ I        2333 15.13         4.6 0.16                          79.2  41 
 PAM  SN ES       2333 31.38                             149   -0.6210 79.2  41 
 RUS  HZ EP       2333 16.16                             143   -0.1910  100 175 
 RUS  HN ES       2333 34.90                             143    0.3310  100 175 
 PTB  HN ES       2333 39.00                             132   -1.03 9  145 259 
                                                                                
