 2017  120 2204 21.7 L   6.794 -73.111148.3  RSN 10 0.3 2.0LRSN                1
 GAP=122        0.69       2.8     3.0  3.9  0.5957E+00  0.1108E+01  0.2319E+01E
 Epicentro: LOS SANTOS - SANTANDER                                             3
 ACTION:UPD 17-05-22 16:01 OP:jn   STATUS:               ID:20170120220421 L   I
 OLDACT:UP  17-01-21 04:35 OP:and  STATUS:               ID:20170120215751d    3
 OLDACT:UP  17-01-21 04:33 OP:and  STATUS:               ID:20170120215751d    3
 OLDACT:DUP 17-01-21 04:28 OP:and  STATUS:               ID:20170120215751d    3
 2017-01-20-2158-00M.COL___327                                                 6
 STAT SP IPHASW D HRMM SECON CODA AMPLIT PERI AZIMU VELO AIN AR TRES W  DIS CAZ7
 BAR2 EZ EP   2   22 4 41.67                             171    0.04 5 23.6 200 
 BAR2 EZ ES       22 4 56.81                             171   -0.3710 23.6 200 
 BAR2 EZ I        22 4 59.44        31.4 0.28            167           23.6 200 
 BRR  HZ EP       22 4 43.38                             151    0.0610 74.9 298 
 BRR  HN ES       22 5  0.54                             151    0.3410 74.9 298 
 BRR  HZ I        22 5  3.39        14.8 0.17            152           74.9 298 
 PAM  EZ EP     C 22 4 44.31                             151    0.2410 75.6  37 
 PAM  EN ES       22 5  1.44                             151   -0.0810 75.6  37 
 PAM  EZ I        22 5  3.79        24.9 0.48            157           75.6  37 
 RUS  HZ EP       22 4 45.76                             144    0.1310 99.7 178 
 RUS  HN ES       22 5  4.26                             144   -0.0410 99.7 178 
 RUS  HZ I        22 5  5.50        17.4 0.34            143           99.7 178 
 PTB  HZ EP   9   22 4 48.36                             132   -0.83 0  151 259 
 PTB  HN ES       22 5  9.31                                   -0.50 9  151 259 
 PTB  HZ I        22 5 14.50        10.2 0.12            131            151 259 
 ZAR  HZ EP       22 4 54.71                             122    0.02 8  208 292 
 ZAR  HN ES       22 5 20.04                             122   -0.40 8  208 292 
 NOR  HZ EP   2   22 4 58.05                             118    0.19 4  237 235 
 NOR  HE ES       22 5 26.21                             118    0.14 8  237 235 
 NOR  HZ I        22 5 31.23         7.8 0.26            119            237 235 
 CHI  HZ EP       22 4 59.85                             117    0.28 8  249 196 
 CHI  HN ES   2   22 5 29.54                             117    0.43 4  249 196 
 CHI  HZ I        22 5 39.06         4.9 0.34            118            249 196 
 PTGC HZ EP       22 5  4.75                             112   -0.68 7  307 159 
 PTGC HN ES   3   22 5 38.23                             112   -1.32 2  307 159 
 SJC  HZ EP   4   22 5 15.90                             106   -1.75 0  412 327 
 SJC  HN ES   4   22 5 57.07                             106   -4.23 0  412 327 
 SJC  HZ I        22 5 59.98         2.4 0.36            107            412 327 
                                                                                
