 2015  520 2332 27.8 L   6.694 -73.152138.7  RSN  5 0.3 1.5LRSN                1
 GAP=229        0.84       5.4     7.6  7.8  0.8291E+01  0.7921E+01  0.2369E+02E
 Epicentro: VILLANUEVA - SANTANDER                                             3
 ACTION:UPD 15-09-10 22:05 OP:cam  STATUS:               ID:20150520233227 L   I
 OLDACT:UP  15-05-21 04:33 OP:drio STATUS:               ID:20150520232750d    3
 OLDACT:DUP 15-05-21 04:29 OP:drio STATUS:               ID:20150520232750d    3
 2015-05-20-2327-49M.COL___289                                                 6
 STAT SP IPHASW D HRMM SECON CODA AMPLIT PERI AZIMU VELO AIN AR TRES W  DIS CAZ7
 BAR2 EZ ES       2333  0.51                             175   -0.4310 11.8 196 
 BAR2 EZ I        2333  1.81         5.6 0.20            166           11.8 196 
 BRR  HN ES       2333  4.77                             149    0.0210 76.9 306 
 RUS  HZ EP       2332 50.31                             146    0.2310 89.0 175 
 RUS  HN ES       2333  7.80                             146    0.3810 89.0 175 
 RUS  HZ I        2333  9.35         4.3 0.26            143           89.0 175 
 SPBC HN ES       2333 16.31                             129    0.29 9  154 222 
 SPBC HZ I        2333 22.63         6.7 0.22            126            154 222 
 CHI  HZ EP       2333  3.79                             117   -0.12 8  237 196 
 CHI  HN ES       2333 31.46                             117   -0.58 8  237 196 
 CHI  HZ I        2333 36.87         3.6 0.48            116            237 196 
                                                                                
