 2012 1020 2222 33.3 L   6.807 -73.107147.9  RSN  4 0.2 1.6LRSN                1
 GAP=141        0.42       3.1     4.3  5.3  0.2078E+01  0.2601E+01  0.4091E+01E
 Epicentro: LOS SANTOS - SANTANDER                                             3
 ACTION:UPD 12-11-22 17:05 OP:ep   STATUS:               ID:20121020222233 L   I
 2012-10-20-2220-00M.COL___233                                                 6
 STAT SP IPHASW D HRMM SECON CODA AMPLIT PERI AZIMU VELO AIN AR TRES W  DIS CAZ7
 PAM  SZ EP   2   2222 55.40                             152   -0.11 5 74.1  37 
 PAM  SN ES   1   2223 12.83                             152   -0.04 7 74.1  37 
 PAM  SN I        2223 14.34         5.5 0.48                          74.1  37 
 BRR  HZ EP       2222 54.71                             152   -0.1210 74.6 296 
 BRR  HN ES   1   2223 11.83                             152    0.18 7 74.6 296 
 RUS  HZ EP       2222 57.47                             144    0.2110  101 178 
 RUS  HN ES   1   2223 15.78                             144   -0.21 7  101 178 
 RUS  HN I        2223 17.40         8.0 0.44                           101 178 
 ZAR  HN ES   3   2223 31.48                             122   -0.44 2  208 292 
                                                                                
