 2017  920 2253 25.2 L   6.700 -73.758 16.1  RSN 10 0.4 2.0LRSN                1
 GAP= 84        0.93       2.1     2.4  3.9  0.8496E+00  0.5155E+01  0.9778E+00E
 Epicentro: EL CARMEN - SANTANDER                                              3
 ACTION:UPD 17-10-05 19:14 OP:rebc STATUS:               ID:20170920225325 L   I
 OLDACT:UP  17-09-21 07:50 OP:mg   STATUS:               ID:20170920224749d    3
 OLDACT:UP  17-09-21 07:50 OP:mg   STATUS:               ID:20170920224749d    3
 OLDACT:DUP 17-09-21 07:39 OP:mg   STATUS:               ID:20170920224749d    3
 2017-09-20-2248-00M.COL___450                                                 6
 STAT SP IPHASW D HRMM SECON CODA AMPLIT PERI AZIMU VELO AIN AR TRES W  DIS CAZ7
 BRR  HZ EP     C 2253 32.61                             106   -0.2810 45.3   6 
 BRR  HN ES       2253 39.06                             106    0.1510 45.3   6 
 BRR  HZ I        2253 39.47       111.0 0.12             47           45.3   6 
 BAR2 EZ EP       2253 35.96                             102   -0.0310 64.7 101 
 BAR2 EZ ES       2253 44.33                             102   -0.1110 64.7 101 
 BAR2 EZ I        2253 44.87        96.9 0.31             47           64.7 101 
 RUS  HZ EP       2253 44.39                              96    0.4010  116 140 
 RUS  HN ES       2253 58.02                              96   -0.6610  116 140 
 RUS  HZ I        2253 58.62        12.6 0.28             47            116 140 
 PAM  EZ EP       2253 47.59                              56    0.54 9  137  59 
 PAM  EN ES       2254  4.15                              56    0.02 9  137  59 
 PAM  EZ I        2254  9.61        17.6 0.16             47            137  59 
 ZAR  HZ EP       2253 47.77                              56   -0.35 9  150 306 
 ZAR  HN ES       2254  5.58                              56   -0.46 9  150 306 
 ZAR  HZ I        2254  6.43        62.9 0.30             47            150 306 
 NOR  HZ EP       2253 52.05                              56    0.62 9  176 224 
 NOR  HN ES       2254 11.98                              56    0.07 9  176 224 
 NOR  HZ I        2254 13.74         7.6 0.29             47            176 224 
 HEL  HZ IP     D 2253 55.58                              56    0.27 9  204 254 
 HEL  HN ES   3   2254 18.16                              56   -0.66 2  204 254 
 HEL  HZ I        2254 20.18        29.1 0.24             37            204 254 
 YPLC HZ EP   4   2253 59.81                              56    4.11 0  210 133 
 YPLC HN ES   4   2254 26.45                              56    6.93 0  210 133 
 YPLC HZ I        2254 31.09        16.2 0.37             37            210 133 
 CHI  HZ EP   4   2254  2.75                              56    4.25 0  229 179 
 CHI  HN ES   4   2254 31.77                              56    7.27 0  229 179 
 CHI  HZ I        2254 36.72         5.3 0.34             37            229 179 
 GUY2CHZ EP   9   2254  1.51                              56    1.38 0  241 228 
 GUY2CHE ES   4   2254 29.23                              56    0.44 0  241 228 
 GUY2CHZ I        2254 33.65         7.6 0.35                           241 228 
                                                                                
