 2016  820 2128  8.0 L   6.813 -73.157142.9  RSN  8 0.4 1.7LRSN                1
 GAP=134        0.82       4.0     4.3  5.7 -0.7631E+01  0.8755E+01 -0.8296E+00E
 Epicentro: LOS SANTOS - SANTANDER                                             3
 ACTION:UPD 16-10-29 15:37 OP:rebc STATUS:               ID:20160820212808 L   I
 OLDACT:UP  16-08-21 05:03 OP:dani STATUS:               ID:20160820211744     3
 OLDACT:REG 16-08-21 03:23 OP:dani STATUS:               ID:20160820211744     3
 2016-08-20-2117-44M.COL___347                                                 6
 STAT SP IPHASW D HRMM SECON CODA AMPLIT PERI AZIMU VELO AIN AR TRES W  DIS CAZ7
 BAR2 EZ EP       2128 27.16                             170   -0.1010 24.5 186 
 BAR2 EZ ES       2128 42.23                             170   -0.1010 24.5 186 
 BAR2 EZ I        2128 44.85        11.8 0.34                          24.5 186 
 BRR  HZ EP       2128 29.09                             152    0.4010 69.4 298 
 BRR  HN ES   4   2128 42.55                             152   -2.31 0 69.4 298 
 BRR  HZ I        2128 49.75        22.9 0.38                          69.4 298 
 PAM  EZ EP       2128 30.00                             150    0.1510 77.1  41 
 PAM  EN ES       2128 47.11                             150    0.1810 77.1  41 
 PAM  EZ I        2128 47.73         8.8 0.34                          77.1  41 
 RUS  HZ EP       2128 31.15                             143   -0.3810  102 175 
 RUS  HN ES       2128 49.80                             143   -0.1310  102 175 
 RUS  HZ I        2128 50.57         3.3 0.24                           102 175 
 PTB  HZ EP       2128 33.89                             131   -0.71 9  147 258 
 PTB  HN ES       2128 55.25                             131   -0.13 9  147 258 
 PTB  HZ I        2129  0.76         5.7 0.16                           147 258 
 SPBC HZ EP       2128 36.18                             128   -0.08 9  163 218 
 SPBC HN ES       2128 58.38                             128    0.04 9  163 218 
 SPBC HZ I        2129  4.87        10.8 0.24                           163 218 
 ZAR  HN ES   4   2129  6.24                             122    1.19 0  202 292 
 NOR  HZ EP       2128 43.60                             118    0.11 8  234 234 
 NOR  HN ES       2129 11.92                             118    0.71 8  234 234 
 NOR  HZ I        2129 17.46         7.8 0.18                           234 234 
 CHI  HZ EP   2   2128 46.53                             116    0.93 4  250 195 
 CHI  HN ES   2   2129 15.28                             116    0.31 4  250 195 
 CHI  HZ I        2129 20.15         2.1 0.20                           250 195 
                                                                                
