 2017  420 2225 19.2 L   7.108 -73.310120.0  RSN  9 0.7 1.6LRSN                1
 GAP=145        1.24       5.6     4.7  7.9  0.3380E+01  0.1141E+02  0.5610E+01E
 Epicentro: LEBRIJA - SANTANDER                                                3
 ACTION:UPD 17-05-30 21:14 OP:jn   STATUS:               ID:20170420222519 L   I
 OLDACT:UP  17-04-21 03:45 OP:edw  STATUS:               ID:20170420221743     3
 OLDACT:UP  17-04-21 03:45 OP:edw  STATUS:               ID:20170420221743     3
 OLDACT:REG 17-04-21 02:53 OP:cara STATUS:               ID:20170420221743     3
 2017-04-20-2218-00M.COL___377                                                 6
 STAT SP IPHASW D HRMM SECON CODA AMPLIT PERI AZIMU VELO AIN AR TRES W  DIS CAZ7
 BRR  HZ IP     C 2225 35.96                             159   -0.1610 44.4 270 
 BRR  HN ES       2225 49.29                             159   -0.0310 44.4 270 
 BRR  HZ I        2225 49.97        17.2 0.14            158           44.4 270 
 BAR2 EZ EP       2225 37.43                             153    0.2310 58.8 166 
 BAR2 EZ ES       2225 51.60                             153    0.3510 58.8 166 
 PAM  EZ EP       2225 38.04                             148   -0.3410 72.1  69 
 PAM  EN ES       2225 53.74                             148    0.3910 72.1  69 
 PAM  EZ I        2225 54.93         5.4 0.42            150           72.1  69 
 RUS  HZ EP       2225 43.56                             129   -0.19 9  137 169 
 RUS  HN ES       2226  2.47                             129   -0.44 9  137 169 
 RUS  HZ I        2226  3.55         4.2 0.20            130            137 169 
 PTB  HZ EP       2225 42.67                             127   -0.90 9  141 244 
 PTB  HN ES       2226  2.54                             127   -0.05 9  141 244 
 PTB  HZ I        2226  5.17         8.6 0.16            128            141 244 
 ZAR  HZ EP       2225 47.33                             121    0.23 9  176 284 
 ZAR  HN ES       2226  9.31                             121    0.45 9  176 284 
 ZAR  HZ I        2226 11.92         9.1 0.18            121            176 284 
 NOR  HZ EP       2225 54.26                             112   -0.22 8  243 225 
 CHI  HE ES   2   2226 32.81                             109    2.80 4  278 190 
 PRA  HE ES   2   2227  0.18                             101    2.41 3  414 205 
                                                                                
