 2011  920 2002 53.0 L   7.063 -73.455106.6  RSN  9 0.2 2.1LRSN                1
 GAP= 79        0.38       2.3     2.4  5.0  0.8768E-02  0.3690E+01  0.3872E+00E
 Epicentro: SAN VICENTE DE CHUCURI - SANTANDER                                 3
 ACTION:UPD 12-07-13 15:58 OP:ep   STATUS:               ID:20110920200253 L   I
 2011-09-20-1958-19S.COL___165                                                 6
 STAT SP IPHASW D HRMM SECON CODA AMPLIT PERI AZIMU VELO AIN AR TRES W  DIS CAZ7
 BTL  SZ EP   1   20 3  8.06                             165    0.04 7 26.2 128 
 BRR  HZ EP       20 3  7.51                             164   -0.2310 28.8 280 
 BRR  HZ I        20 3  7.77       105.0 0.19                          28.8 280 
 BRR  HE ES   2   20 3 19.19                             164   -0.07 5 28.8 280 
 BAR2 SZ EP   1   20 3  9.90                             148    0.24 7 60.2 150 
 BAR2 SZ ES   2   20 3 22.63                             148   -0.03 5 60.2 150 
 BAR2 SZ I        20 3 24.00        54.1 0.47                          60.2 150 
 PAM  SZ EP   2   20 3 11.99                             137   -0.14 5 88.9  70 
 PAM  SE ES   2   20 3 27.48                             137    0.42 5 88.9  70 
 OCA  SZ EP   2   20 3 15.76                             125    0.22 5  131   7 
 OCA  SZ ES   2   20 3 33.06                             125   -0.08 5  131   7 
 OCA  SZ I        20 3 35.97        20.8 0.41                           131   7 
 RUS  HZ EP   2   20 3 16.28                             124   -0.21 5  136 162 
 RUS  HN ES   2   20 3 34.58                             124   -0.24 5  136 162 
 RUS  HZ I        20 3 35.64         9.1 0.36                           136 162 
 ZAR  HZ EP   2   20 3 18.34                             118   -0.25 5  162 287 
 ZAR  HN ES   2   20 3 38.74                             118    0.18 5  162 287 
 ZAR  HZ I        20 3 41.61        38.0 0.60                           162 287 
 NOR  SN ES   2   20 3 52.03                             109    0.26 4  228 223 
 HEL  HN ES   2   20 3 57.16                             107    0.41 4  249 247 
 HEL  HZ I        20 4  2.22         5.1 0.45                           249 247 
                                                                                
