 2016  220 2340 11.6 L   6.766 -73.124147.1  RSN 12 0.5 2.1LRSN                1
 GAP=141        0.96       3.7     3.9  6.5 -0.3533E+01  0.6252E+01 -0.2329E+01E
 Epicentro: LOS SANTOS - SANTANDER                                             3
 ACTION:UPD 16-03-04 21:27 OP:rebc STATUS:               ID:20160220234011 L   I
 OLDACT:REG 16-02-21 03:16 OP:dnl  STATUS:               ID:20160220233749     3
 2016-02-20-2337-49M.COL___334                                                 6
 STAT SP IPHASW D HRMM SECON CODA AMPLIT PERI AZIMU VELO AIN AR TRES W  DIS CAZ7
 BAR2 EZ EP   2   2340 31.47                             172    0.13 5 20.3 198 
 BAR2 EZ ES   2   2340 46.11                             172   -0.62 5 20.3 198 
 BAR2 EZ I        2340 47.55        20.0 0.18            169           20.3 198 
 BRR  HZ EP       2340 33.47                             151    0.3510 75.1 300 
 BRR  HN ES       2340 50.42                             151    0.5110 75.1 300 
 BRR  HZ I        2340 53.48        23.0 0.22            149           75.1 300 
 PAM  EZ EP       2340 34.34                             151    0.2910 78.9  36 
 PAM  EN ES       2340 51.33                             151   -0.2310 78.9  36 
 PAM  EZ I        2340 53.57        37.1 0.60            155           78.9  36 
 RUS  HZ EP       2340 35.40                             145    0.1810 96.7 177 
 RUS  HE ES       2340 53.63                             145   -0.0010 96.7 177 
 RUS  HZ I        2340 55.52        13.8 0.24            147           96.7 177 
 PTB  HZ EP       2340 38.39                             132   -0.44 9  149 260 
 PTB  HN ES       2340 59.38                             132   -0.69 9  149 260 
 PTB  HZ I        2341  2.11        11.4 0.16            131            149 260 
 SPBC HZ EP   2   2340 40.39                             130    0.31 5  162 220 
 SPBC HE IS       2341  2.20                             130   -0.09 9  162 220 
 SPBC HZ I        2341  7.31        22.6 0.12            130            162 220 
 OCA  HZ EP       2340 39.70                             129   -0.70 9  164 352 
 OCA  HN ES   4   2341  1.46                             129   -1.40 0  164 352 
 OCA  HZ I        2341  6.06        27.5 0.22            131            164 352 
 ZAR  HZ EP       2340 44.35                             122   -0.16 8  208 293 
 ZAR  HE ES       2341 10.87                             122    0.69 8  208 293 
 ZAR  HZ I        2341 16.47        23.4 0.30            122            208 293 
 NOR  HZ EP   2   2340 48.18                             119    0.79 4  234 236 
 NOR  HN ES       2341 15.74                             119    0.43 8  234 236 
 NOR  HZ I        2341 22.11         9.0 0.18            119            234 236 
 HEL  HZ EP   3   2340 52.71                             115    0.66 2  273 257 
 HEL  HE ES   2   2341 22.83                             115   -0.76 4  273 257 
 HEL  HZ I        2341 34.00         5.8 0.23            116            273 257 
 GUY2CHZ EP   4   2340 56.68                             113    1.42 0  301 236 
 GUY2CHN ES   2   2341 28.47                             113   -0.83 4  301 236 
 GUY2CHZ I        2341 36.10         6.2 0.30                           301 236 
 MON  HZ EP   4   2341  6.16                             109    5.02 0  358 309 
 MON  HN ES   4   2341 37.86                             109   -1.92 0  358 309 
 MON  HZ I        2341 38.59         4.1 0.22            110            358 309 
                                                                                
