 2013  220 2015 39.2 L   6.774 -73.134144.7  RSN  6 0.4 1.9LRSN                1
 GAP=139        0.70       3.9     3.9  7.4  0.7044E+00  0.2901E+01  0.8608E+01E
 Epicentro: LOS SANTOS - SANTANDER                                             3
 ACTION:UPD 13-03-12 09:34 OP:ep   STATUS:               ID:20130220201539 L   I
 2013-02-20-2010-00M.COL___238                                                 6
 STAT SP IPHASW D HRMM SECON CODA AMPLIT PERI AZIMU VELO AIN AR TRES W  DIS CAZ7
 BRR  HZ EP   1   2016  0.50                             151    0.13 8 73.8 300 
 BRR  HN ES   1   2016 17.12                             151    0.23 8 73.8 300 
 BRR  HN I        2016 17.72        31.6 0.38            151           73.8 300 
 PAM  SZ EP   1   2016  1.47                             150    0.10 8 78.8  37 
 PAM  SN ES   1   2016 18.39                             150   -0.29 8 78.8  37 
 PAM  SN I        2016 20.01         7.0 0.46            155           78.8  37 
 RUS  HZ EP   1   2016  2.74                             144    0.12 8 97.6 177 
 RUS  HN ES   1   2016 21.02                             144    0.12 8 97.6 177 
 RUS  HN I        2016 24.03         5.7 0.20            143           97.6 177 
 PTB  HZ EP   1   2016  5.27                             132   -0.86 7  149 260 
 PTB  HE ES       2016 27.02                             132   -0.1310  149 260 
 PTB  HE I        2016 31.80        11.3 0.28            131            149 260 
 ZAR  HN ES   1   2016 37.67                             122    0.43 7  206 293 
 ZAR  HE I        2016 43.27        18.4 0.24            122            206 293 
 CHI  HZ EP   1   2016 17.15                             117    0.59 6  246 196 
 CHI  HN ES   1   2016 45.48                             117   -0.23 6  246 196 
 CHI  HN I        2016 52.56         3.7 0.42            117            246 196 
                                                                                
