 2014  820 2213 43.0 L   6.767 -73.135144.9  RSN  6 0.3 1.5LRSN                1
 GAP=139        0.65       3.7     3.9  5.7 -0.1389E+01 -0.3544E+01  0.7584E+00E
 Epicentro: LOS SANTOS - SANTANDER                                             3
 ACTION:UPD 14-09-15 21:51 OP:nd   STATUS:               ID:20140820221343 L   I
 OLDACT:DUP 14-08-21 08:37 OP:spq  STATUS:               ID:20140820220819d    3
 2014-08-20-2208-18M.COL___268                                                 6
 STAT SP IPHASW D HRMM SECON CODA AMPLIT PERI AZIMU VELO AIN AR TRES W  DIS CAZ7
 BAR2 SZ ES   1   2214 17.40                             172   -0.20 7 20.0 195 
 BAR2 SZ I        2214 18.19        10.5 0.19            171           20.0 195 
 BRR  HZ EP       2214  3.90                             151   -0.2710 74.0 301 
 BRR  HN ES       2214 20.90                             151    0.1810 74.0 301 
 BRR  HZ I        2214 25.48        13.8 0.38            150           74.0 301 
 PAM  SZ IP     D 2214  5.14                             150   -0.0710 79.5  37 
 RUS  HZ EP       2214  6.75                             145    0.3910 96.8 177 
 RUS  HE ES   1   2214 24.67                             145    0.06 7 96.8 177 
 RUS  HZ I        2214 26.32         2.7 0.24            147           96.8 177 
 PTB  HZ EP   1   2214 10.31                             132    0.41 7  148 260 
 PTB  HE ES       2214 30.96                             132    0.05 9  148 260 
 PTB  HZ I        2214 35.43         2.9 0.32            132            148 260 
 SPBC HZ EP   1   2214 10.63                             129   -0.56 7  161 220 
 SPBC HN ES       2214 33.06                             129   -0.15 9  161 220 
 SPBC HZ I        2214 35.89         3.4 0.30            130            161 220 
                                                                                
