 2014  120 2323 55.2 L   6.791 -73.210142.4  RSN  6 0.5 1.5LRSN                1
 GAP=129        1.25       6.2     5.4  9.3  0.2795E+01  0.1087E+02  0.2941E+00E
 Epicentro: ZAPATOCA - SANTANDER                                               3
 ACTION:UPD 14-03-13 09:57 OP:ep   STATUS:               ID:20140120232355 L   I
 OLDACT:DUP 14-01-21 05:11 OP:carl STATUS:               ID:20140120232001d    3
 2014-01-20-2320-00M.COL___279                                                 6
 STAT SP IPHASW D HRMM SECON CODA AMPLIT PERI AZIMU VELO AIN AR TRES W  DIS CAZ7
 BAR2 SZ ES       2324 29.07                             171   -0.3210 22.2 172 
 BAR2 SZ I        2324 30.27        14.2 0.20            170           22.2 172 
 BRR  HZ EP       2324 16.23                             154    0.5510 65.6 302 
 BRR  HN ES       2324 32.54                             154    0.8910 65.6 302 
 PAM  SZ EP       2324 17.33                             148   -0.0710 82.8  43 
 PAM  SN ES       2324 34.36                             148   -0.3610 82.8  43 
 PAM  SZ I        2324 36.28         6.2 0.44            152           82.8  43 
 RUS  HZ EP       2324 18.97                             143    0.3610  100 172 
 RUS  HN ES       2324 36.60                             143   -0.2610  100 172 
 RUS  HZ I        2324 38.51         2.7 0.24            144            100 172 
 PTB  HZ EP       2324 21.12                             133   -0.13 9  141 259 
 PTB  HN ES       2324 41.59                             133    0.02 9  141 259 
 PTB  HZ I        2324 49.16         3.7 0.54            133            141 259 
 ZAR  HE ES       2324 50.50                             122   -0.94 9  198 293 
                                                                                
