 2012  420 2332 39.3 L   6.738 -73.155142.2  RSN  8 0.4 1.9LRSN                1
 GAP=138        0.91       5.5     5.2  8.1  0.1375E+01  0.8511E+01  0.7869E+01E
 Epicentro: JORDAN - SANTANDER                                                 3
 ACTION:UPD 12-07-05 11:55 OP:tino STATUS:               ID:20120420233239 L   I
 2012-04-20-2332-00S.MAN___175                                                 6
 STAT SP IPHASW D HRMM SECON CODA AMPLIT PERI AZIMU VELO AIN AR TRES W  DIS CAZ7
 BAR2 SZ EP   1   2332 58.50                             173     0.1 7   16 191 
 BAR2 SZ I        2332 58.83        26.5 0.13                            16 191 
 BAR2 SZ ES   1   2333 13.22                             173     0.0 7   16 191 
 BRR  HZ EP   1   2333  0.36                             151     0.1 7   74 304 
 BRR  HN ES   1   2333 16.83                             151     0.3 7   74 304 
 BRR  HZ I        2333 19.08        20.7 0.28                            74 304 
 PAM  SZ EP   1   2333  1.51                             148     0.0 7   83  37 
 PAM  SN ES   1   2333 18.26                             148    -0.6 7   83  37 
 RUS  HZ EP   1   2333  2.42                             145     0.2 7   94 175 
 RUS  HN ES   1   2333 20.51                             145     0.4 7   94 175 
 RUS  HZ I        2333 22.23         8.3 0.26                            94 175 
 PTB  HZ EP   1   2333  5.58                             132    -0.2 7  146 261 
 PTB  HN ES   1   2333 25.52                             132    -0.9 7  146 261 
 PTB  HZ I        2333 27.14         7.6 0.26                           146 261 
 ZAR  HN ES   1   2333 37.70                             121     0.7 6  206 294 
 ZAR  HZ I        2333 43.57        13.5 0.42                           206 294 
 NOR  SN ES   2   2333 41.42                             118    -0.2 4  230 236 
 CHI  HZ EP   1   2333 15.80                             117    -0.2 6  242 195 
                                                                                
