 2013  620 2152 19.8 L   6.800 -73.119144.8  RSN 10 0.5 2.4LRSN                1
 GAP=193        0.96       3.9     5.8  8.5  0.2074E+01  0.3158E+01 -0.2312E+01E
 Epicentro: LOS SANTOS - SANTANDER                                             3
 ACTION:UPD 14-01-08 09:56 OP:ep   STATUS:               ID:20130620215219 L   I
 OLDACT:UP  13-06-20 22:41 OP:mh   STATUS:               ID:20130620214959     3
 OLDACT:UP  13-06-20 22:31 OP:mh   STATUS:               ID:20130620214959     3
 OLDACT:REG 13-06-20 21:15 OP:mh   STATUS:               ID:20130620214959     3
 2013-06-20-2149-59M.COL___261                                                 6
 STAT SP IPHASW D HRMM SECON CODA AMPLIT PERI AZIMU VELO AIN AR TRES W  DIS CAZ7
 BAR2 SZ EP       2152 39.58                             170    0.2710 24.0 197 
 BAR2 SZ I        2153  3.53        14.4 0.48            173           24.0 197 
 GIR2 SZ EP   1   2152 39.71                             167    0.35 7 32.0 345 
 BRR  HZ EP       2152 41.43                             152    0.4510 73.9 297 
 BRR  HN ES   1   2152 57.74                             152    0.23 7 73.9 297 
 BRR  HN I        2153  1.90       114.7 0.16            153           73.9 297 
 RUS  HZ EP   1   2152 43.62                             144    0.20 7  100 178 
 RUS  HN ES       2153  1.59                             144   -0.2710  100 178 
 PTB  HZ EP       2152 46.26                             131   -0.68 9  151 259 
 PTB  HN ES       2153  7.88                             131   -0.24 9  151 259 
 PTB  HZ I        2153 14.60        24.0 0.42            133            151 259 
 NOR  HN ES       2153 24.28                             118    0.54 8  237 235 
 NOR  HN I        2153 31.00        27.8 0.14            119            237 235 
 SML  HZ EP   1   2152 55.80                             117   -0.70 6  245 335 
 SML  HN ES   1   2153 24.68                             117   -0.45 6  245 335 
 SML  HN I        2153 32.81        38.1 0.30            117            245 335 
 CHI  HZ EP   1   2152 57.51                             117   -0.00 6  249 196 
 CHI  HN ES       2153 26.45                             117   -0.49 8  249 196 
 CHI  HN I        2153 29.56        15.8 0.36            118            249 196 
 GUY2CHZ EP   1   2153  4.57                             112    0.95 5  304 235 
 GUY2CHN ES   4   2153 39.43                             112    1.61 0  304 235 
 GUY2CHN I        2153 43.65         8.7 0.42                           304 235 
 RREF HZ EP   4   2153  7.77                             111    1.63 0  324 230 
 RREF HN ES   4   2153 44.90                             111    2.60 0  324 230 
 RREF HZ I        2153 51.11        11.5 0.30            111            324 230 
                                                                                
