 2016  620 2223 16.8 L   6.840 -73.155138.0  RSN  8 0.4 1.8LRSN                1
 GAP=240        0.95       4.9     5.0  6.7  0.5237E+01  0.1020E+02 -0.4105E+01E
 Epicentro: LOS SANTOS - SANTANDER                                             3
 ACTION:UPD 16-07-21 22:20 OP:rebc STATUS:               ID:20160620222316 L   I
 OLDACT:UP  16-06-21 03:03 OP:drio STATUS:               ID:20160620221740     3
 OLDACT:UP  16-06-21 02:59 OP:drio STATUS:               ID:20160620221740     3
 OLDACT:REG 16-06-21 02:39 OP:drio STATUS:               ID:20160620221740     3
 2016-06-20-2217-40M.COL___337                                                 6
 STAT SP IPHASW D HRMM SECON CODA AMPLIT PERI AZIMU VELO AIN AR TRES W  DIS CAZ7
 BAR2 EZ EP       2223 35.74                             168    0.1810 27.5 186 
 BAR2 EZ ES       2223 50.16                             168   -0.0610 27.5 186 
 BAR2 EZ I        2223 52.27        16.5 0.20                          27.5 186 
 BRR  HZ EP       2223 37.37                             152    0.4610 68.2 296 
 BRR  HN ES   4   2223 54.67                             152    2.05 0 68.2 296 
 RUS  HZ EP       2223 39.57                             141   -0.5310  105 176 
 RUS  HE ES       2223 58.39                             141    0.0910  105 176 
 RUS  HZ I        2223 59.20         6.3 0.30                           105 176 
 PTB  HZ EP       2223 42.39                             130   -0.71 9  148 257 
 PTB  HN ES       2224  3.59                             130   -0.05 9  148 257 
 PTB  HZ I        2224  5.29         8.5 0.42                           148 257 
 SPBC HZ EP       2223 44.71                             127   -0.24 9  166 218 
 SPBC HE ES       2224  7.55                             127    0.61 9  166 218 
 SPBC HZ I        2224  8.53        13.8 0.28                           166 218 
 ZAR  HZ EP       2223 48.68                             121    0.24 9  201 291 
 ZAR  HN ES       2224 13.00                             121   -0.15 9  201 291 
 ZAR  HZ I        2224 20.85         6.5 0.28                           201 291 
 NOR  HZ EP       2223 52.40                             117    0.15 8  236 233 
 NOR  HN ES       2224 19.53                             117   -0.39 8  236 233 
 NOR  HZ I        2224 24.58         5.7 0.22                           236 233 
 GUY2CHZ EP       2224  0.85                             111    0.63 7  303 234 
 GUY2CHE ES   4   2224 36.88                             111    2.76 0  303 234 
 GUY2CHZ I        2224 41.79         3.6 0.32                           303 234 
                                                                                
