 2014  420 2122 50.3 L   6.737 -73.135151.4  RSN  7 0.5 1.8LRSN                1
 GAP=141        1.18       4.7     5.2  8.2 -0.4522E+00  0.1034E+02 -0.3896E+01E
 Epicentro: JORDAN - SANTANDER                                                 3
 ACTION:UPD 14-05-13 23:10 OP:nd   STATUS:               ID:20140420212250 L   I
 OLDACT:UP  14-04-21 02:45 OP:cam  STATUS:               ID:20140420211815     3
 OLDACT:REG 14-04-21 02:27 OP:cam  STATUS:               ID:20140420211815     3
 2014-04-20-2118-15M.COL___239                                                 6
 STAT SP IPHASW D HRMM SECON CODA AMPLIT PERI AZIMU VELO AIN AR TRES W  DIS CAZ7
 BRR  HZ IP     C 2123 12.44                             152    0.0910 75.7 303 
 BRR  HN ES       2123 29.79                             152    0.2710 75.7 303 
 BRR  HZ I        2123 31.37        13.4 0.66            151           75.7 303 
 PAM  SZ IP     C 2123 13.47                             150    0.0310 82.2  36 
 PAM  SE ES       2123 31.00                             150   -0.4510 82.2  36 
 PAM  SZ I        2123 33.45         5.2 0.50            154           82.2  36 
 RUS  HZ EP       2123 14.38                             147    0.2110 93.6 176 
 RUS  HN ES       2123 33.13                             147    0.3810 93.6 176 
 RUS  HZ I        2123 34.01         5.3 0.24            149           93.6 176 
 PTB  HZ EP       2123 17.41                             133   -0.36 9  148 262 
 PTB  HN ES       2123 38.24                             133   -0.92 9  148 262 
 PTB  HZ I        2123 44.00         7.1 0.20            134            148 262 
 ZAR  HZ EP       2123 23.71                             123    0.17 8  208 294 
 ZAR  HN ES       2123 50.04                             123    0.60 8  208 294 
 ZAR  HZ I        2123 55.13         7.4 0.46            124            208 294 
 NOR  HZ EP   1   2123 26.87                             120    0.79 6  232 236 
 NOR  HN ES   1   2123 53.62                             120   -0.34 6  232 236 
 NOR  HZ I        2123 57.49         3.5 0.18            121            232 236 
 SML  HZ EP       2123 27.12                             118   -0.90 8  251 336 
 SML  HN ES       2123 58.09                             118    0.68 8  251 336 
 SML  HZ I        2123 58.40        10.1 0.10            120            251 336 
                                                                                
