 2012  120 2139  5.7 L   6.779 -73.143141.5  RSN  6 0.4 2.0LRSN                1
 GAP=138        0.88       5.5     5.8  7.9  0.1014E+01  0.5016E+01  0.1425E+01E
 Epicentro: LOS SANTOS - SANTANDER                                             3
 ACTION:UP  12-02-03 08:19 OP:REBC STATUS:               ID:20120120213905 L   I
 2012-01-20-2137-00S.MAN___181                                                 6
 STAT SP IPHASW D HRMM SECON CODA AMPLIT PERI AZIMU VELO SNR AR TRES W  DIS CAZ7
 BAR2 SZ EP       2139 24.73                             171     0.010   21 192 
 BAR2 SZ ES   1   2139 39.06                             171    -0.5 7   21 192 
 BAR2 SZ I        2139 41.00        25.1 0.22                            21 192 
 BRR  HZ EP       2139 26.57                             151     0.110   73 300 
 BRR  HN ES   1   2139 43.31                             151     0.7 7   73 300 
 BRR  HZ I        2139 48.03        24.7 0.19                            73 300 
 PAM  SZ EP       2139 27.63                             149     0.110   79  38 
 PAM  SN ES   1   2139 44.23                             149    -0.3 7   79  38 
 RUS  HZ EP       2139 28.82                             144     0.010   98 176 
 RUS  HN ES   1   2139 47.28                             144     0.4 7   98 176 
 RUS  HZ I        2139 48.99         8.6 0.34                            98 176 
 PTB  HZ EP   1   2139 31.76                             131    -0.5 7  148 260 
 PTB  HN ES   2   2139 52.35                             131    -0.7 5  148 260 
 ZAR  HN ES   2   2140  3.24                             121     0.1 4  205 293 
 ZAR  HZ I        2140  9.10        12.1 0.31                           205 293 
                                                                                
