 2010  620 2219  9.6 L   6.775 -73.087142.7  RSN  9 0.3 1.9LRSN                1
 GAP=163        0.70       3.5     5.7  6.1 -0.6855E+01  0.1529E+01 -0.1995E+01E
 Epicentro: LOS SANTOS - SANTANDER                                             3
 ACTION:UP  10-08-24 10:11 OP:vdl  STATUS:               ID:20100620221909 L   I
 2010-06-20-2216-26S.COL___118                                                 6
 STAT SP IPHASW D HRMM SECON CODA AMPLIT PERI AZIMU VELO SNR AR TRES W  DIS CAZ7
 BAR2 SZ IP       2219 28.63                             171    -0.210   23 208 
 BAR2 SZ ES   2   2219 43.77                             171    -0.1 5   23 208 
 BRR  HZ IP     C 2219 30.45                             150    -0.410   78 298 
 BRR  HZ I        2219 31.50        30.5 0.11                            78 298 
 BRR  HN ES   1   2219 47.19                             150    -0.2 7   78 298 
 RUS  HZ EP   1   2219 32.69                             144    -0.1 7   98 180 
 RUS  HN ES   1   2219 51.19                             144     0.3 7   98 180 
 RUS  HZ I        2219 53.02         7.5 0.24                            98 180 
 BRI  SZ EP   1   2219 33.19                             141     0.0 7  109  17 
 BRI  SZ ES   1   2219 52.11                             141     0.5 7  109  17 
 GUE  SZ IP       2219 34.58                             138     0.510  118   9 
 GUE  SZ ES   2   2219 53.65                             138     0.4 5  118   9 
 GRA  SZ IP       2219 34.41                             136    -0.210  127  14 
 GRA  SZ ES   2   2219 53.59                             136    -0.6 5  127  14 
 OCA  SZ EP   2   2219 37.77                             128    -0.2 5  164 351 
 OCA  SZ I        2220  1.98         7.8 0.36                           164 351 
 HEL  HZ EP   2   2219 50.78                             114     0.5 4  278 257 
 HEL  HN ES   2   2220 21.93                             114    -0.1 4  278 257 
 HEL  HZ I        2220 27.04         3.9 0.45                           278 257 
 GUY  HZ EP   2   2219 54.17                             111     0.7 4  305 236 
                                                                                
