 2014  620 2133 37.8 L   6.120 -73.856 94.1  RSN 11 0.5 1.7LRSN                1
 GAP= 97        1.09       3.8     3.2  7.3 -0.1658E+01  0.6736E+01  0.1767E+01E
 Epicentro: EL PEON - SANTANDER                                                3
 ACTION:UPD 14-07-01 22:55 OP:nd   STATUS:               ID:20140620213337 L   I
 OLDACT:DUP 14-06-21 06:25 OP:fm   STATUS:               ID:20140620212819d    3
 2014-06-20-2128-18M.COL___265                                                 6
 STAT SP IPHASW D HRMM SECON CODA AMPLIT PERI AZIMU VELO AIN AR TRES W  DIS CAZ7
 SPBC HZ EP       2133 52.78                             146    0.0310 57.0 205 
 SPBC HN ES       2134  4.96                             146    0.5510 57.0 205 
 SPBC HZ I        2134  6.44        24.4 0.16            144           57.0 205 
 PTB  HZ EP       2133 53.61                             136   -0.8910 81.0 305 
 PTB  HN ES       2134  7.01                             136   -0.5210 81.0 305 
 PTB  HZ I        2134 11.40         7.2 0.34            137           81.0 305 
 RUS  HZ EP       2133 55.57                             134   -0.2910 89.2 106 
 RUS  HE ES       2134  9.74                             134   -0.2210 89.2 106 
 RUS  HZ I        2134 11.77         5.3 0.26            135           89.2 106 
 BAR2 SZ EP   1   2133 55.73                             133    0.05 7 91.0  55 
 BAR2 SZ ES   1   2134 10.41                             133    0.78 7 91.0  55 
 BAR2 SZ I        2134 11.93        21.2 0.26            136           91.0  55 
 NOR  HZ EP       2133 59.13                             122    0.0610  128 241 
 NOR  HN ES       2134 15.17                             122   -0.5010  128 241 
 NOR  HZ I        2134 17.90        14.7 0.20            122            128 241 
 ZAR  HE ES       2134 28.14                             112    0.83 9  188 324 
 ZAR  HZ I        2134 29.40         9.3 0.28            113            188 324 
 GUY2CHZ EP       2134  7.07                             112    0.13 9  194 239 
 GUY2CHN ES       2134 30.24                             112    0.56 9  194 239 
 GUY2CHZ I        2134 34.67         4.9 0.30                           194 239 
 RREF HZ EP   1   2134  9.24                             110   -0.09 6  213 231 
 RREF HN ES       2134 33.97                             110    0.04 8  213 231 
 RREF HZ I        2134 39.50         5.4 0.26            110            213 231 
 TOL  SZ EP   2   2134 11.84                             107    0.36 4  235 224 
 TOL  SE ES   4   2134 38.42                             107    0.66 0  235 224 
 TOL  SZ I        2134 44.60         7.1 0.22            108            235 224 
 CBOC HZ EP   1   2134 12.05                             107    0.12 6  240 263 
 PRA  HZ EP   1   2134 17.68                             104    0.05 5  290 203 
 PRA  HE ES   4   2134 45.63                             104   -3.08 0  290 203 
 PRA  HZ I        2134 57.62         2.7 0.44            104            290 203 
                                                                                
