 2016  820 2111 42.7 L   6.798 -73.175148.4  RSN 10 0.4 1.9LRSN                1
 GAP=133        0.98       3.6     4.2  5.9 -0.7129E+00  0.5054E+01  0.6121E+01E
 Epicentro: LOS SANTOS - SANTANDER                                             3
 ACTION:UPD 16-10-29 15:37 OP:rebc STATUS:               ID:20160820211142 L   I
 OLDACT:UP  16-08-21 04:48 OP:dani STATUS:               ID:20160820210744     3
 OLDACT:UP  16-08-21 04:48 OP:dani STATUS:               ID:20160820210744     3
 OLDACT:UP  16-08-21 04:47 OP:dani STATUS:               ID:20160820210744     3
 OLDACT:REG 16-08-21 03:22 OP:dani STATUS:               ID:20160820210744     3
 2016-08-20-2107-44M.COL___347                                                 6
 STAT SP IPHASW D HRMM SECON CODA AMPLIT PERI AZIMU VELO AIN AR TRES W  DIS CAZ7
 BAR2 EZ EP       2112  2.72                             171    0.0410 22.7 182 
 BAR2 EZ ES       2112 17.84                             171   -0.3910 22.7 182 
 BAR2 EZ I        2112 19.18        23.3 0.14                          22.7 182 
 BRR  HZ EP       2112  4.38                             154    0.3510 68.5 300 
 BRR  HN ES       2112 21.47                             154    0.8310 68.5 300 
 BRR  HZ I        2112 22.46        15.3 0.50                          68.5 300 
 PAM  EZ EP       2112  5.50                             151    0.1310 79.6  41 
 PAM  EN ES       2112 22.76                             151   -0.2610 79.6  41 
 PAM  EZ I        2112 24.70        20.4 0.52                          79.6  41 
 RUS  HZ EP       2112  6.48                             144   -0.2710  101 174 
 RUS  HN ES       2112 25.54                             144    0.0610  101 174 
 RUS  HZ I        2112 26.34         6.7 0.28                           101 174 
 PTB  HZ EP       2112  9.52                             133   -0.12 9  145 259 
 PTB  HN ES       2112 30.64                             133    0.02 9  145 259 
 PTB  HZ I        2112 36.96         7.2 0.38                           145 259 
 SPBC HZ EP       2112 11.63                             130    0.39 9  161 218 
 SPBC HE ES       2112 33.14                             130   -0.32 9  161 218 
 SPBC HZ I        2112 41.45        13.7 0.22                           161 218 
 ZAR  HE ES       2112 39.68                             123   -0.60 9  201 293 
 NOR  HZ EP       2112 17.61                             119   -0.72 8  232 234 
 NOR  HZ I        2112 51.99         5.7 0.20                           232 234 
 CHI  HZ EP       2112 20.76                             118    0.29 8  248 194 
 CHI  HN ES       2112 49.95                             118    0.05 8  248 194 
 CHI  HZ I        2112 53.59         6.1 0.50                           248 194 
 PRA  HN ES       2113 18.49                             107    0.69 6  390 209 
                                                                                
