 2012  320 2316  7.7 L   6.820 -73.162141.9  RSN  9 0.4 2.1LRSN                1
 GAP=133        0.93       4.6     5.0  7.1  0.4831E+00  0.1086E+02  0.7141E+01E
 ACTION:UP  12-03-31 23:21 OP:EP   STATUS:               ID:20120320231607 L   I
 2012-03-20-2310-00M.COL___202                                                 6
 STAT SP IPHASW D HRMM SECON CODA AMPLIT PERI AZIMU VELO SNR AR TRES W  DIS CAZ7
 BAR2 SZ EP   1   2316 26.90                             169     0.0 7   25 185 
 BAR2 SZ ES   1   2316 41.85                             169     0.0 7   25 185 
 BAR2 SZ I        2316 43.06        23.7 0.15                            25 185 
 BRR  HZ EP       2316 28.66                             153     0.410   69 298 
 BRR  HN ES   1   2316 44.76                             153     0.4 7   69 298 
 BRR  HZ I        2316 47.65        48.6 0.10                            69 298 
 PAM  SZ EP   1   2316 29.69                             150     0.2 7   77  42 
 PAM  SN ES   1   2316 45.92                             150    -0.5 7   77  42 
 PAM  SZ I        2316 48.52        29.5 0.33                            77  42 
 RUS  HZ EP   1   2316 31.18                             142     0.0 7  103 175 
 RUS  HN ES   1   2316 49.88                             142     0.3 7  103 175 
 RUS  HZ I        2316 51.27        10.2 0.11                           103 175 
 PTB  HZ EP   1   2316 33.72                             131    -0.5 7  146 258 
 PTB  HN ES   1   2316 54.75                             131    -0.2 7  146 258 
 PTB  HZ I        2316 57.42        20.9 0.17                           146 258 
 ZAR  HZ EP   1   2316 39.67                             122     0.0 6  202 292 
 ZAR  HN ES   1   2317  3.84                             122    -0.7 6  202 292 
 ZAR  HZ I        2317 10.53        38.5 0.37                           202 292 
 NOR  SZ EP   1   2316 43.08                             118    -0.1 6  234 234 
 NOR  SN ES   1   2317 11.38                             118     0.5 6  234 234 
 NOR  SZ I        2317 14.40         1.7 0.14                           234 234 
 CHI  HZ EP   1   2316 45.32                             116     0.0 6  250 195 
 CHI  HN ES   1   2317 13.85                             116    -0.9 6  250 195 
 CHI  HZ I        2317 19.03         8.7 0.30                           250 195 
 RREF HZ EP   1   2316 54.22                             110     0.6 5  322 229 
 RREF HZ I        2317 40.73        14.0 0.27                           322 229 
                                                                                
