 2010 1120 2152 48.5 L   6.763 -73.087146.6  RSN  8 0.2 1.8LRSN                1
 GAP=166        0.56       3.0     5.6  5.1 -0.1128E+01 -0.7516E+01 -0.2675E+01E
 Epicentro: LOS SANTOS - SANTANDER                                             3
 ACTION:UP  10-12-17 16:53 OP:REBC STATUS:               ID:20101120215248 L   I
 2010-11-20-2151-14S.COL___132                                                 6
 STAT SP IPHASW D HRMM SECON CODA AMPLIT PERI AZIMU VELO SNR AR TRES W  DIS CAZ7
 BAR2 SZ EP       2153  7.98                             171    -0.210   22 210 
 BAR2 SZ ES   1   2153 23.41                             171    -0.2 7   22 210 
 BAR2 SZ I        2153 24.93        26.6 0.34                            22 210 
 BTL  SZ EP       2153  8.64                             169     0.310   26 311 
 BRR  HZ EP       2153  9.98                             150    -0.210   79 299 
 BRR  HZ I        2153 10.26        35.6 0.15                            79 299 
 BRR  HN ES   1   2153 27.39                             150     0.3 7   79 299 
 RUS  HZ EP       2153 12.12                             145     0.110   96 180 
 RUS  HN ES   1   2153 30.41                             145     0.0 7   96 180 
 RUS  HZ I        2153 31.61         5.8 0.40                            96 180 
 GUE  SZ EP       2153 13.48                             139     0.010  119   9 
 GRA  SZ EP       2153 13.98                             137     0.010  128  14 
 GRA  SZ I        2153 15.08         6.7 0.30                           128  14 
 NOR  SE ES   2   2153 52.64                             118    -0.2 4  238 236 
 CHI  HZ EP   1   2153 26.25                             117     0.2 6  246 197 
 CHI  HZ I        2153 28.77         2.4 0.35                           246 197 
 CHI  HE ES   3   2153 54.64                             117    -0.6 2  246 197 
                                                                                
