 2016  920 2033 36.4 L   6.065 -74.177  9.3  RSN  9 0.7 1.7LRSN                1
 GAP= 88        1.93       3.6     3.3  9.6  0.9119E+00 -0.7881E-01 -0.1648E+01E
 Epicentro: LA BELLEZA - SANTANDER                                             3
 ACTION:UPD 17-08-17 21:14 OP:lp   STATUS:               ID:20160920203336 L   I
 OLDACT:UP  16-09-21 03:20 OP:dnl  STATUS:               ID:20160920202739     3
 OLDACT:REG 16-09-21 03:02 OP:dnl  STATUS:               ID:20160920202739     3
 2016-09-20-2028-00M.COL___360                                                 6
 STAT SP IPHASW D HRMM SECON CODA AMPLIT PERI AZIMU VELO AIN AR TRES W  DIS CAZ7
 SPBC HZ EP     D 2033 44.60                              97    0.3110 47.1 166 
 SPBC HN ES       2033 50.61                              97    0.1710 47.1 166 
 SPBC HZ I        2033 51.83        39.1 0.14             47           47.1 166 
 PTB  HZ EP       2033 46.90                              95    0.6210 60.8 330 
 PTB  HN ES       2033 55.05                              95    1.0710 60.8 330 
 PTB  HZ I        2033 55.15        81.5 0.18             47           60.8 330 
 NOR  HZ EP       2033 51.49                              93    0.0710 94.6 234 
 NOR  HE ES       2034  2.38                              93   -0.7410 94.6 234 
 NOR  HZ I        2034  3.03        45.9 0.32             47           94.6 234 
 RUS  HZ EP       2033 56.38                              93    0.2710  123  99 
 RUS  HE ES       2034 10.70                              93   -0.7810  123  99 
 RUS  HZ I        2034 12.80         3.7 0.20             47            123  99 
 BAR2 HZ EP    4  2033 57.20                              93    1.0610  125  62 
 BAR2 HZ ES    4  2034 10.19                              93   -1.3410  125  62 
 BAR2 HZ I        2034 21.26        17.8 0.52             47            125  62 
 HEL  HZ IP       2033 59.87                              92   -0.29 9  150 275 
 HEL  HN ES    4  2034 17.54                              92   -1.15 9  150 275 
 HEL  HZ I        2034 18.37        14.8 0.18             47            150 275 
 GUY2CHZ EP       2034  2.46                              92    0.54 9  161 235 
 GUY2CHN ES   4   2034 20.57                              92   -1.25 0  161 235 
 GUY2CHZ I        2034 26.74         9.3 0.50                           161 235 
 CHI  HZ EP   4   2034  3.97                              56    1.48 0  166 163 
 CHI  HN ES       2034 23.50                              56    0.67 9  166 163 
 CHI  HZ I        2034 31.65         4.7 0.46             47            166 163 
 ZAR  HN ES       2034 23.21                              56   -0.66 9  175 335 
 ZAR  HZ I        2034 24.47         8.4 0.14             47            175 335 
                                                                                
