 2016  320 2026 55.0 L   6.823 -73.521  5.2  RSN  7 0.4 1.8LRSN                1
 GAP=121        1.09       3.5     2.1  7.2  0.7059E+00  0.6208E+01  0.6888E+01E
 Epicentro: SAN VICENTE DE CHUCURI - SANTANDER                                 3
 ACTION:UPD 16-05-13 21:25 OP:cam  STATUS:               ID:20160320202655 L   I
 OLDACT:UP  16-03-21 05:25 OP:drio STATUS:               ID:20160320201743     3
 OLDACT:UP  16-03-21 05:25 OP:drio STATUS:               ID:20160320201743     3
 OLDACT:REG 16-03-21 04:10 OP:drio STATUS:               ID:20160320201743     3
 2016-03-20-2017-43M.COL___286                                                 6
 STAT SP IPHASW D HRMM SECON CODA AMPLIT PERI AZIMU VELO AIN AR TRES W  DIS CAZ7
 BAR2 EZ EP       2027  2.55                              92   -0.1110 45.3 124 
 BAR2 EZ ES       2027  7.91                              92   -0.7710 45.3 124 
 BAR2 EZ I        2027  9.80        29.7 0.42            102           45.3 124 
 PAM  EZ EP       2027 12.76                              91    0.4610  107  58 
 PAM  EE ES       2027 25.99                              91    0.1710  107  58 
 PAM  EZ I        2027 26.87        14.2 0.20             95            107  58 
 PTB  HZ EP     D 2027 11.81                              91   -0.1310  108 253 
 PTB  HZ ES       2027 25.65                              91    0.4710  108 253 
 PTB  HZ I        2027 27.74        36.7 0.30             94            108 253 
 RUS  HZ EP       2027 13.86                              91    0.5710  114 155 
 RUS  HE ES   4   2027 25.90                              91   -1.70 0  114 155 
 ZAR  HZ EP       2027 20.49                              90   -0.09 9  165 297 
 ZAR  HE ES       2027 39.96                              90   -0.61 9  165 297 
 ZAR  HZ I        2027 41.91        21.6 0.18             56            165 297 
 HEL  HZ EP       2027 29.72                              56    0.06 8  233 253 
 HEL  HE ES       2027 56.23                              56   -0.50 8  233 253 
 GUY2CHZ EP   4   2027 35.58                              56    1.14 0  270 229 
 GUY2CHN ES       2028  5.67                              56    0.43 8  270 229 
                                                                                
