 2015  720 2150 32.5 L   7.496 -73.394121.2  RSN 15 0.4 2.3LRSN                1
 GAP= 97        0.87       2.9     3.5  7.0  0.2402E+01  0.1463E+02  0.4992E+01E
 Epicentro: SABANA DE TORRES - SANTANDER                                       3
 ACTION:UPD 15-09-08 21:49 OP:cam  STATUS:               ID:20150720215032 L   I
 OLDACT:UP  15-07-21 10:13 OP:spq  STATUS:               ID:20150720214748     3
 OLDACT:REG 15-07-21 03:48 OP:spq  STATUS:               ID:20150720214748     3
 2015-07-20-2147-48M.COL___340                                                 6
 STAT SP IPHASW D HRMM SECON CODA AMPLIT PERI AZIMU VELO AIN AR TRES W  DIS CAZ7
 PAM  EZ EP     D 2150 52.68                             145    0.3910 78.6 103 
 PAM  EN ES       2151  7.60                             145   -0.1010 78.6 103 
 PAM  EZ I        2151 10.74        33.1 0.24            149           78.6 103 
 OCA  HZ EP       2150 52.62                             143    0.5210 82.5   6 
 OCA  HN ES       2151  7.32                             143   -0.0310 82.5   6 
 BAR2 EZ EP     D 2150 53.30                             137   -0.4810  103 167 
 BAR2 EZ ES   4   2151  8.19                             137   -2.17 0  103 167 
 BAR2 EZ I        2151 10.50        92.3 0.28            137            103 167 
 SML  HZ EP       2150 59.22                             123    0.14 9  162 333 
 SML  HE ES   1   2151 19.43                             123   -0.35 7  162 333 
 SML  HZ I        2151 21.27        58.6 0.10            124            162 333 
 ZAR  HZ EP       2150 59.37                             123    0.36 9  162 270 
 ZAR  HN ES       2151 19.65                             123   -0.00 9  162 270 
 ZAR  HZ I        2151 22.31        51.4 0.30            123            162 270 
 RUS  HZ EP   1   2151  0.82                             120   -0.80 7  181 169 
 RUS  HE ES   4   2151 22.01                             120   -2.29 0  181 169 
 RUS  HZ I        2151 23.93        14.6 0.36            121            181 169 
 URE  HZ EP   1   2151  6.55                             112   -0.70 6  238 277 
 NOR  HZ EP   1   2151 11.28                             109    0.42 6  269 217 
 NOR  HN ES       2151 41.10                             109    0.35 8  269 217 
 NOR  HZ I        2151 44.60        12.1 0.18            110            269 217 
 HEL  HZ EP   4   2151 13.65                             109    1.50 0  277 239 
 HEL  HE ES   4   2151 45.37                             109    2.33 0  277 239 
 HEL  HZ I        2151 49.00         8.8 0.32            109            277 239 
 MON  HZ EP       2151 12.49                             108   -0.46 7  288 300 
 MON  HN ES       2151 44.62                             108    0.14 7  288 300 
 MON  HZ I        2151 53.74         5.0 0.24            109            288 300 
 DBB  SZ EP   1   2151 16.73                             106    0.43 5  315 261 
 DBB  SZ ES   4   2151 49.28                             106   -1.16 0  315 261 
 DBB  SZ I        2151 51.44        41.4 0.40            106            315 261 
 CHI  HN ES   4   2151 53.99                             106    2.03 0  319 187 
 CHI  HZ I        2151 56.93         6.1 0.60            106            319 187 
 SJC  HZ EP       2151 18.35                             105    0.33 7  330 324 
 SJC  HN ES       2151 52.82                             105   -0.68 7  330 324 
 SJC  HZ I        2151 55.76         3.9 0.27            106            330 324 
 GUY2CHZ EP   4   2151 20.61                             105    1.79 0  333 221 
 GUY2CHN ES   1   2151 54.65                             105   -0.27 5  333 221 
 GUY2CHZ I        2152  3.25         6.5 0.32                           333 221 
 ORTC HZ EP   4   2151 33.97                             100    2.12 0  447 207 
 ORTC HN ES   4   2152 22.81                             100    4.70 0  447 207 
 ORTC HZ I        2152 32.71         5.6 0.30            100            447 207 
                                                                                
