 2017  320 2335 23.3 L   6.778 -73.150150.0  RSN 14 0.5 2.0LRSN                1
 GAP=120        1.06       4.1     4.2  6.6 -0.6003E+00  0.5562E+01  0.7380E+01E
 Epicentro: LOS SANTOS - SANTANDER                                             3
 ACTION:UPD 17-05-25 18:43 OP:jn   STATUS:               ID:20170320233523 L   I
 OLDACT:UP  17-03-21 03:18 OP:edw  STATUS:               ID:20170320232745     3
 OLDACT:UP  17-03-21 03:17 OP:edw  STATUS:               ID:20170320232745     3
 OLDACT:REG 17-03-21 02:42 OP:cara STATUS:               ID:20170320232745     3
 2017-03-20-2328-00M.COL___382                                                 6
 STAT SP IPHASW D HRMM SECON CODA AMPLIT PERI AZIMU VELO AIN AR TRES W  DIS CAZ7
 BAR2 EZ IP     C 2335 43.46                             172    0.0710 20.9 190 
 BAR2 EZ ES       2335 58.69                             172   -0.3710 20.9 190 
 BAR2 EZ I        2335 59.91        32.3 0.24            168           20.9 190 
 BRR  HZ IP     C 2335 45.32                             153    0.3710 72.0 300 
 BRR  HN ES       2336  2.38                             153    0.5410 72.0 300 
 BRR  HZ I        2336  6.37        13.9 0.30            151           72.0 300 
 PAM  EZ EP     C 2335 46.22                             151    0.1310 79.5  39 
 PAM  EN ES       2336  3.66                             151   -0.2110 79.5  39 
 PAM  EZ I        2336  5.33         5.0 0.38            155           79.5  39 
 PTB  HZ EP       2335 50.33                             133   -0.20 9  147 260 
 PTB  HN ES       2336 11.38                             133   -0.40 9  147 260 
 PTB  HZ I        2336 14.99         9.7 0.42            131            147 260 
 SPBC HZ EP       2335 52.45                             130    0.53 9  161 219 
 SPBC HN ES       2336 13.85                             130   -0.40 9  161 219 
 SPBC HZ I        2336 15.83        19.4 0.14            129            161 219 
 ZAR  HZ EP       2335 56.21                             123    0.14 9  205 293 
 ZAR  HN ES       2336 21.88                             123    0.24 9  205 293 
 ZAR  HZ I        2336 27.46        17.5 0.30            123            205 293 
 NOR  HZ EP   4   2335 55.47                             119   -3.62 0  233 235 
 NOR  HN ES   4   2336 25.48                             119   -1.52 0  233 235 
 NOR  HZ I        2336 32.58         5.9 0.20            119            233 235 
 CHI  HZ EP   4   2336  1.71                             118    0.74 0  246 195 
 CHI  HN ES       2336 31.03                             118    0.68 8  246 195 
 CHI  HZ I        2336 37.97         2.5 0.38            118            246 195 
 ROSC BZ EP   4   2335 58.17                             118   -3.23 0  250 211 
 ROSC BN ES   4   2336 34.26                             118    3.14 0  250 211 
 ROSC BZ I        2336 39.86         6.3 0.40            117            250 211 
 URE  HZ EP   4   2335 59.19                             114   -5.44 0  284 292 
 URE  HN ES   2   2336 35.87                             114   -1.00 4  284 292 
 URE  HZ I        2336 46.15         8.3 0.20            114            284 292 
 GUY2CHZ EP   4   2336 10.02                             113    3.11 0  299 235 
 GUY2CHN ES   4   2336 43.88                             113    2.96 0  299 235 
 GUY2CHZ  IAML    2336 49.98         3.2 0.56                           299 235 
 PTGC HZ EP       2336  6.07                             112   -1.04 7  307 158 
 PTGC HN ES   4   2336 40.16                             112   -1.12 0  307 158 
 DBB  EZ EP   4   2336 11.21                             110    0.29 0  339 275 
 DBB  EN ES       2336 47.28                             110   -0.78 7  339 275 
 DBB  EZ I        2336 48.51         2.7 0.44            110            339 275 
 ARGC HZ EP   4   2336  3.28                             109   -10.1 0  361 341 
 PRA  HZ EP   4   2336 17.36                             107    0.66 0  390 210 
 PRA  HN ES       2336 58.93                             107    0.58 6  390 210 
 PRA  HZ I        2337  4.11         3.5 0.48            107            390 210 
                                                                                
