 2010  220 2224 52.4 L   6.829 -73.049143.6  RSN 10 0.4 2.7LRSN                1
 GAP=193        0.73       3.7     6.4  6.3  0.5475E+00  0.1286E+02  0.4717E+01E
 Epicentro: LOS SANTOS - SANTANDER                                             3
 ACTION:UP  10-08-24 09:49 OP:vdl  STATUS:               ID:20100220222452 L   I
 2010-02-20-2223-11S.COL___094                                                 6
 STAT SP IPHASW D HRMM SECON CODA AMPLIT PERI AZIMU VELO SNR AR TRES W  DIS CAZ7
 BAR2 SZ EP       2225 12.09                             168     0.110   30 210 
 GIR2 SZ IP       2225 12.09                             167     0.210   32 330 
 GIR2 SZ ES   2   2225 26.93                             167    -0.1 5   32 330 
 BRR  HZ IP       2225 13.88                             149     0.110   80 293 
 BRR  HN ES   1   2225 30.32                             149    -0.2 7   80 293 
 BRR  HZ I        2225 34.14        82.3 0.20                            80 293 
 RUS  BZ IP       2225 16.11                             142    -0.110  104 182 
 RUS  BN ES   1   2225 34.39                             142    -0.3 7  104 182 
 OCA  SZ EP   1   2225 20.58                             129     0.2 7  159 349 
 OCA  SZ ES   2   2225 41.88                             129    -0.4 5  159 349 
 CHI  HZ EP   2   2225 30.99                             116     0.3 4  255 197 
 HEL  HZ EP   1   2225 34.15                             113     0.4 6  283 256 
 HEL  HZ I        2226 10.46        21.3 0.30                           283 256 
 RREF BZ EP   1   2225 39.77                             110     0.1 5  332 230 
 RREF BE ES   1   2226 17.46                             110     1.0 5  332 230 
 RREF BZ I        2226 20.99        18.4 0.25                           332 230 
 DBB  SZ EP       2225 40.25                             108    -0.8 6  350 274 
 PRA  HZ EP   1   2225 46.28                             106    -0.5 4  400 211 
 PRA  HN ES   1   2226 28.63                             106    -0.6 4  400 211 
 PRA  HZ I        2226 34.58        19.4 0.28                           400 211 
                                                                                
