 2011 1020 2330 59.7 L   5.945 -73.799107.1  RSN  7 0.3 1.7LRSN                1
 GAP=156        0.44       2.9     2.8  6.1 -0.1665E+01  0.5455E+01 -0.1101E+01E
 Epicentro: GUAVATA - SANTANDER                                                3
 ACTION:UPD 12-07-13 16:05 OP:ep   STATUS:               ID:20111020233059 L   I
 2011-10-20-2328-49S.COL___170                                                 6
 STAT SP IPHASW D HRMM SECON CODA AMPLIT PERI AZIMU VELO AIN AR TRES W  DIS CAZ7
 RUS  HZ EP   1   2331 17.95                             141   -0.16 7 79.5  94 
 RUS  HZ I        2331 18.43        11.4 0.27                          79.5  94 
 RUS  HN ES   2   2331 32.34                             141   -0.15 5 79.5  94 
 BAR2 SZ EP   1   2331 19.49                             134    0.13 7 98.9  44 
 BAR2 SZ ES   1   2331 34.82                             134    0.10 7 98.9  44 
 NOR  SZ EP   2   2331 22.17                             126    0.55 5  126 250 
 NOR  SN ES   2   2331 38.42                             126   -0.33 5  126 250 
 BRR  HZ EP   1   2331 21.71                             125   -0.15 7  129   4 
 BRR  HZ I        2331 23.33        21.9 0.11                           129   4 
 BRR  HN ES   1   2331 39.27                             125    0.10 7  129   4 
 GIR2 SZ EP   1   2331 23.67                             123    0.28 7  142  28 
 GIR2 SZ ES   2   2331 42.11                             123    0.22 5  142  28 
 PAM  SZ EP   2   2331 29.59                             114   -0.09 4  196  38 
 PAM  SN ES   2   2331 52.43                             114   -0.66 4  196  38 
 PAM  SZ I        2331 57.27         3.3 0.40                           196  38 
 ZAR  HZ EP   2   2331 30.02                             112   -0.28 4  207 326 
 ZAR  HZ I        2331 30.55         5.1 0.10                           207 326 
 ZAR  HN ES   2   2331 54.05                             112   -0.15 4  207 326 
                                                                                
