 2013  320 2227 16.8 L   6.811 -73.217143.7  RSN  5 0.3 1.6LRSN                1
 GAP=127        0.66       3.6     4.3  8.3 -0.1493E+01  0.1133E+02 -0.4637E+01E
 Epicentro: ZAPATOCA - SANTANDER                                               3
 ACTION:UPD 13-04-09 14:03 OP:ep   STATUS:               ID:20130320222716 L   I
 2013-03-20-2220-00M.COL___245                                                 6
 STAT SP IPHASW D HRMM SECON CODA AMPLIT PERI AZIMU VELO AIN AR TRES W  DIS CAZ7
 BAR2 SZ EP       2227 35.77                             170   -0.4510 24.5 171 
 BAR2 SZ I        2227 53.22         9.8 0.26            172           24.5 171 
 PAM  SZ EP       2227 39.35                             149    0.2810 81.7  44 
 PAM  SN ES   1   2227 56.48                             149    0.04 7 81.7  44 
 PAM  SZ I        2227 58.68        10.0 0.58            148           81.7  44 
 RUS  HZ EP       2227 40.41                             143   -0.1010  103 172 
 RUS  HN ES   1   2227 59.00                             143    0.00 7  103 172 
 RUS  HZ I        2228  1.71         3.6 0.52            144            103 172 
 PTB  HZ EP       2227 43.38                             133    0.44 9  140 258 
 PTB  HN ES   1   2228  3.28                             133   -0.04 7  140 258 
 PTB  HZ I        2228  6.75         5.8 0.16            132            140 258 
 SML  HZ EP   2   2227 52.49                             117   -0.36 4  239 337 
 SML  HN ES   1   2228 20.77                             117   -0.19 6  239 337 
 SML  HZ I        2228 29.36         5.4 0.10            116            239 337 
                                                                                
