 2013  920 2202 18.9 L   6.772 -73.133149.2  RSN  6 0.4 1.4LRSN                1
 GAP=139        0.93       5.1     5.0  7.3 -0.1147E+01  0.9348E+01  0.3980E+00E
 Epicentro: LOS SANTOS - SANTANDER                                             3
 ACTION:UPD 13-10-22 09:23 OP:ep   STATUS:               ID:20130920220218 L   I
 OLDACT:UP  13-09-20 22:42 OP:cam  STATUS:               ID:20130920215959     3
 OLDACT:REG 13-09-20 22:09 OP:cam  STATUS:               ID:20130920215959     3
 2013-09-20-2159-59M.COL___269                                                 6
 STAT SP IPHASW D HRMM SECON CODA AMPLIT PERI AZIMU VELO AIN AR TRES W  DIS CAZ7
 BAR2 SZ EP   1   22 2 38.95                             172    0.06 7 20.6 195 
 BAR2 SZ ES       22 2 54.67                             172    0.1810 20.6 195 
 BAR2 SZ I        22 2 56.25         6.3 0.20            170           20.6 195 
 BRR  HZ EP       22 2 40.82                             152    0.2510 73.9 300 
 BRR  HN ES   1   22 2 58.34                             152    0.87 7 73.9 300 
 PAM  SZ EP   1   22 2 41.41                             151   -0.16 7 78.9  37 
 PAM  SN ES       22 2 58.82                             151   -0.4410 78.9  37 
 RUS  HZ EP       22 2 43.25                             145    0.4810 97.4 177 
 RUS  HE ES       22 3  1.01                             145   -0.3810 97.4 177 
 RUS  HZ I        22 3  3.12         2.3 0.28            145           97.4 177 
 PTB  HZ EP       22 2 46.07                             132   -0.15 9  149 260 
 PTB  HE ES       22 3  7.16                             132   -0.36 9  149 260 
 PTB  HZ I        22 3  9.35         4.0 0.22            133            149 260 
 ZAR  HN ES   2   22 3 16.97                             123   -0.52 4  206 293 
                                                                                
