 2012  720 2056 25.1 L   6.639 -73.545105.7  RSN  5 0.3 2.0LRSN                1
 GAP=117        0.71       5.1     4.4  7.2  0.1326E+02  0.1290E+02  0.1098E+02E
 Epicentro: EL CARMEN DE CHUCURI - SANTANDER                                   3
 ACTION:UPD 12-08-14 11:46 OP:ep   STATUS:               ID:20120720205625 L   I
 2012-07-20-2050-00M.COL___215                                                 6
 STAT SP IPHASW D HRMM SECON CODA AMPLIT PERI AZIMU VELO AIN AR TRES W  DIS CAZ7
 BAR2 SZ EP   1   2056 40.37                             158    -0.2 7   40  97 
 BAR2 SZ ES       2056 52.44                             158    -0.210   40  97 
 BAR2 SZ I        2056 53.89        61.8 0.44            161             40  97 
 BRR  HZ EP       2056 40.82                             150    -0.210   55 340 
 BRR  HZ I        2056 41.04        30.4 0.10            149             55 340 
 BRR  HE ES   1   2056 53.91                             150     0.5 7   55 340 
 RUS  HZ EP       2056 44.94                             134     0.110   97 148 
 RUS  HN ES   1   2057  0.70                             134     0.4 7   97 148 
 PTB  HZ EP   1   2056 44.76                             132     0.1 7  101 264 
 PTB  HN ES   1   2056 59.50                             132    -0.3 7  101 264 
 ZAR  HN ES   1   2057 12.99                             116     0.3 7  173 303 
 ZAR  HZ I        2057 17.69         6.5 0.33            116            173 303 
