 2014  420 2124 12.5 L   6.788 -73.150153.5  RSN  7 0.4 1.7LRSN                1
 GAP=137        1.08       4.4     4.9  8.3 -0.2079E+01  0.4005E+01  0.2333E+01E
 Epicentro: LOS SANTOS - SANTANDER                                             3
 ACTION:UPD 14-05-13 23:10 OP:nd   STATUS:               ID:20140420212412 L   I
 OLDACT:UP  14-04-21 02:47 OP:cam  STATUS:               ID:20140420211816d    3
 OLDACT:UP  14-04-21 02:47 OP:cam  STATUS:               ID:20140420211816d    3
 OLDACT:DUP 14-04-21 02:45 OP:cam  STATUS:               ID:20140420211816d    3
 OLDACT:UP  14-04-21 02:45 OP:cam  STATUS:               ID:20140420211815     3
 OLDACT:REG 14-04-21 02:27 OP:cam  STATUS:               ID:20140420211815     3
 2014-04-20-2118-15M.COL___239                                                 6
 STAT SP IPHASW D HRMM SECON CODA AMPLIT PERI AZIMU VELO AIN AR TRES W  DIS CAZ7
 BRR  HZ EP       2124 34.95                             154    0.4210 71.4 300 
 BRR  HN ES       2124 52.45                             154    0.7610 71.4 300 
 BRR  HZ I        2124 54.79         9.6 0.16            150           71.4 300 
 PAM  SZ EP       2124 35.94                             152    0.2910 78.7  39 
 PAM  SN ES       2124 53.18                             152   -0.5010 78.7  39 
 PAM  SZ I        2124 55.20        11.0 0.60            154           78.7  39 
 RUS  HZ EP       2124 36.92                             146   -0.0310 99.3 176 
 RUS  HE ES   1   2124 55.80                             146   -0.21 7 99.3 176 
 RUS  HZ I        2124 56.74         2.8 0.30            149           99.3 176 
 PTB  HZ EP       2124 39.68                             134   -0.39 9  147 259 
 PTB  HN ES       2125  0.79                             134   -0.77 9  147 259 
 PTB  HZ I        2125  6.93         6.7 0.20            133            147 259 
 SPBC HZ EP       2124 41.95                             131    0.45 9  162 219 
 SPBC HN ES       2125  4.12                             131    0.01 9  162 219 
 SPBC HZ I        2125  7.60         6.9 0.24            132            162 219 
 ZAR  HE ES       2125 11.37                             124    0.16 9  204 293 
 ZAR  HZ I        2125 19.57         6.1 0.52            123            204 293 
 SML  HZ EP   1   2124 49.24                             119   -0.46 6  245 336 
 SML  HN ES   1   2125 18.28                             119   -0.42 6  245 336 
 SML  HZ I        2125 25.82         6.0 0.26            119            245 336 
                                                                                
