 2012  220 2328 43.3 L   5.851 -73.738118.1  RSN 12 0.4 2.2LRSN                1
 GAP= 93        0.83       2.7     3.1  6.8 -0.2372E+01  0.5720E+01  0.1208E+01E
 ACTION:UP  12-03-07 16:32 OP:epov STATUS:               ID:20120220232843 L   I
 2012-02-20-2326-00S.MAN___184                                                 6
 STAT SP IPHASW D HRMM SECON CODA AMPLIT PERI AZIMU VELO AIN AR TRES W  DIS CAZ7
 RUS  HZ EP       2329  2.41                             146    0.0710 72.6  86 
 RUS  HE ES   1   2329 17.14                             146   -0.04 7 72.6  86 
 RUS  HZ I        2329 21.54        20.3 0.40                          72.6  86 
 BAR2 SZ EP       2329  4.67                             136    0.4110  102  37 
 BAR2 SZ ES   1   2329 20.87                             136    0.27 7  102  37 
 PTB  HZ EP   1   2329  3.85                             134   -0.76 7  110 314 
 PTB  HN ES   1   2329 20.93                             134   -0.30 7  110 314 
 NOR  SZ EP   1   2329  6.22                             129   -0.20 7  129 256 
 NOR  SE ES   1   2329 24.73                             129    0.28 7  129 256 
 CHI  HZ EP   1   2329  7.35                             128   -0.10 7  135 180 
 CHI  HN ES   1   2329 25.78                             128   -0.50 7  135 180 
 CHI  HZ I        2329 30.00        19.9 0.33                           135 180 
 BRR  HZ EP       2329  7.26                             127   -0.02 9  139   1 
 BRR  HZ I        2329  8.87        48.3 0.10                           139   1 
 BRR  HN ES   1   2329 26.53                             127    0.55 7  139   1 
 PAM  SZ EP   1   2329 14.28                             116   -0.08 6  201  35 
 PAM  SN ES   1   2329 38.13                             116   -0.45 6  201  35 
 HEL  HZ EP   1   2329 15.32                             116    0.99 6  202 281 
 HEL  HZ I        2329 42.26        15.9 0.36                           202 281 
 RREF HZ EP   1   2329 15.63                             115    0.39 6  207 240 
 RREF HN ES   1   2329 40.59                             115    0.44 6  207 240 
 RREF HZ I        2329 45.33        17.0 0.22                           207 240 
 ZAR  HZ EP   1   2329 15.89                             114    0.03 6  220 326 
 ZAR  HN ES   1   2329 40.29                             114   -0.96 6  220 326 
 ZAR  HZ I        2329 42.97        17.6 0.21                           220 326 
 TOL  SZ EP   1   2329 16.75                             113   -0.04 6  224 232 
 PRA  HZ EP   1   2329 21.12                             109   -0.32 6  268 208 
 PRA  HN ES   1   2329 51.00                             109   -0.18 6  268 208 
                                                                                
