 2017  420 2216 17.8 L   6.825 -73.121148.4  RSN 21 0.4 2.4LRSN                1
 GAP=113        0.96       3.2     3.2  4.5  0.1092E+01  0.3998E+01  0.3000E+01E
 Epicentro: LOS SANTOS - SANTANDER                                             3
 ACTION:UPD 17-05-30 21:14 OP:jn   STATUS:               ID:20170420221617 L   I
 OLDACT:UP  17-04-21 03:40 OP:edw  STATUS:               ID:20170420220733     3
 OLDACT:REG 17-04-21 02:52 OP:cara STATUS:               ID:20170420220733     3
 2017-04-20-2208-00M.COL___377                                                 6
 STAT SP IPHASW D HRMM SECON CODA AMPLIT PERI AZIMU VELO AIN AR TRES W  DIS CAZ7
 BAR2 EZ EP       2216 37.82                             170   -0.0310 26.6 195 
 BAR2 EZ ES       2216 52.97                             170   -0.4910 26.6 195 
 BAR2 EZ I        2216 54.49       156.8 0.30            166           26.6 195 
 BRR  HZ IP     C 2216 39.68                             153    0.3510 72.4 296 
 BRR  HN ES       2216 56.78                             153    0.6710 72.4 296 
 BRR  HZ I        2217  0.80        47.5 0.34            151           72.4 296 
 PAM  EZ EP     C 2216 40.64                             152    0.5310 73.5  39 
 PAM  EN ES       2216 57.23                             152   -0.2610 73.5  39 
 PAM  EZ I        2217  0.14        32.3 0.32            157           73.5  39 
 RUS  HZ EP     D 2216 41.68                             144   -0.3510  103 178 
 RUS  HN ES       2217  0.39                             144   -0.5110  103 178 
 RUS  HZ I        2217  1.73        27.4 0.20            143            103 178 
 PTB  HZ EP   9   2216 44.67                             132   -0.63 0  151 258 
 PTB  HN ES       2217  5.86                             132   -0.24 9  151 258 
 PTB  HZ I        2217  8.65        26.3 0.32            131            151 258 
 SPBC HZ EP       2216 46.84                             129   -0.05 9  167 219 
 SPBC HN ES       2217  9.47                             129   -0.10 9  167 219 
 SPBC HZ I        2217 13.42        55.3 0.40            128            167 219 
 YPLC HZ EP     D 2216 48.10                             127    0.17 9  178 153 
 YPLC HN ES       2217 12.13                             127    0.73 9  178 153 
 YPLC HZ I        2217 14.94        13.7 0.26            128            178 153 
 ZAR  HZ EP       2216 50.87                             123    0.27 8  206 291 
 ZAR  HN ES       2217 16.10                             123   -0.07 8  206 291 
 ZAR  HZ I        2217 22.15        24.6 0.22            123            206 291 
 NOR  HZ EP       2216 53.87                             119   -0.25 8  238 234 
 NOR  HN ES   4   2217 21.34                             119   -1.09 0  238 234 
 NOR  HZ I        2217 26.15        23.2 0.44            119            238 234 
 CHI  HZ EP       2216 55.94                             117   -0.10 8  252 196 
 CHI  HN ES   4   2217 25.20                             117   -0.64 0  252 196 
 CHI  HZ I        2217 28.68        14.9 0.52            118            252 196 
 ROSC BZ EP   4   2216 57.77                             117    1.27 0  257 211 
 ROSC BN ES   4   2217 28.06                             117    1.39 0  257 211 
 ROSC BZ I        2217 35.52        42.9 0.40            117            257 211 
 HEL  HZ EP   4   2216 59.93                             115    1.39 0  275 255 
 HEL  HN ES       2217 29.91                             115   -0.39 7  275 255 
 HEL  HZ I        2217 35.82        12.4 0.32            115            275 255 
 LL6C HN EP   9   2216 42.96                             111   -20.4 0  322 357 
 LL6C HN ES       2217 18.56                                    0.10 7  322 357 
 ELA  HZ EP   4   2217  8.18                             110    2.95 0  333 229 
 ELA  HN ES   4   2217 45.91                             110    3.71 0  333 229 
 ELA  HZ I        2217 51.12        13.7 0.44            111            333 229 
 CBOC HZ EP       2217  5.46                             110    0.21 7  337 252 
 CBOC HN ES       2217 42.15                             110   -0.08 7  337 252 
 CBOC HZ I        2217 42.74         5.3 0.40            110            337 252 
 DBB  EZ EP   2   2217  5.25                             110   -0.45 3  342 274 
 DBB  EN ES   4   2217 41.13                             110   -1.91 0  342 274 
 DBB  EZ I        2217 42.53         6.8 0.46            110            342 274 
 ANIL HN ES       2217 48.24                             109    0.78 6  361 225 
 PRA  HZ EP       2217 11.46                             107   -0.41 6  396 210 
 PRA  HN ES   4   2217 53.06                             107   -0.97 0  396 210 
 PRA  HZ I        2217 58.59        13.2 0.26            107            396 210 
 ORTC HZ EP       2217 11.97                             106   -0.31 6  399 216 
 ORTC HN ES   4   2217 53.89                             106   -0.87 0  399 216 
 ORTC HZ I        2218  1.51         7.5 0.44            107            399 216 
 SJC  HZ EP       2217 12.04                             106   -1.34 6  408 326 
 SJC  HN ES   4   2217 52.63                             106   -4.09 0  408 326 
 SJC  HZ I        2218  0.33         6.1 0.26            107            408 326 
 PAL  HZ EP       2217 13.95                             106    0.44 6  409 239 
 PAL  HN ES   4   2217 53.95                             106   -3.00 0  409 239 
 PAL  HZ I        2218  4.45         4.1 0.34            107            409 239 
                                                                                
