 2010 1120 2203 32.6 L   6.838 -73.054148.6  RSN  7 0.5 1.6LRSN                1
 GAP=168        1.30       8.2    17.8 14.2 -0.1305E+02 -0.1349E+03  0.7519E+01E
 Epicentro: LOS SANTOS - SANTANDER                                             3
 ACTION:UP  10-12-17 16:53 OP:REBC STATUS:               ID:20101120220332 L   I
 2010-11-20-2201-45S.COL___132                                                 6
 STAT SP IPHASW D HRMM SECON CODA AMPLIT PERI AZIMU VELO SNR AR TRES W  DIS CAZ7
 BTL  SZ EP       22 3 53.10                             170     0.410   25 291 
 BTL  SZ ES   1   22 4  8.15                             170    -0.1 7   25 291 
 BAR2 SZ EP   2   22 3 52.84                             168     0.1 5   31 208 
 BAR2 SZ I        22 4 10.30        12.8 0.17                            31 208 
 BRR  HZ EP       22 3 54.47                             151    -0.110   79 292 
 BRR  HZ I        22 3 54.64        11.6 0.23                            79 292 
 BRR  HN ES   1   22 4 11.45                             151    -0.2 7   79 292 
 RUS  HZ EP       22 3 57.02                             143     0.110  105 182 
 RUS  HN ES   2   22 4 15.78                             143    -0.2 5  105 182 
 RUS  HZ I        22 4 17.52         3.7 0.35                           105 182 
 GUE  SZ EP       22 3 57.91                             141     0.710  111   7 
 GRA  SZ EP       22 3 56.69                             139    -0.910  119  13 
 GRA  SZ I        22 4 11.50         5.7 0.08                           119  13 
 CHI  HZ EP   1   22 4 10.87                             117    -0.4 6  256 197 
 CHI  HZ I        22 4 46.31         2.8 0.43                           256 197 
                                                                                
