 2012  420 2138 12.1 L   6.788 -73.150143.5  RSN 11 0.4 2.4LRSN                1
 GAP=136        0.94       4.6     5.1  7.1 -0.2430E+01  0.1303E+02  0.2004E+01E
 Epicentro: LOS SANTOS - SANTANDER                                             3
 ACTION:UPD 12-07-05 11:55 OP:tino STATUS:               ID:20120420213812 L   I
 2012-04-20-2138-00S.MAN___175                                                 6
 STAT SP IPHASW D HRMM SECON CODA AMPLIT PERI AZIMU VELO AIN AR TRES W  DIS CAZ7
 BAR2 SZ EP   1   2138 31.58                             171     0.1 7   22 189 
 BAR2 SZ I        2138 31.69        60.1 0.14                            22 189 
 BAR2 SZ ES   1   2138 46.53                             171     0.0 7   22 189 
 BRR  HZ EP       2138 33.47                             152     0.510   71 300 
 BRR  HZ I        2138 33.63        71.3 0.30                            71 300 
 PAM  SZ EP   1   2138 34.31                             150     0.2 7   79  39 
 PAM  SZ I        2138 34.68        58.1 0.17                            79  39 
 PAM  SN ES   1   2138 51.05                             150    -0.3 7   79  39 
 RUS  HZ EP       2138 35.51                             144     0.010   99 176 
 RUS  HN ES   1   2138 53.89                             144     0.1 7   99 176 
 RUS  HZ I        2138 55.26        26.5 0.46                            99 176 
 PTB  HZ EP       2138 38.16                             132    -0.7 9  147 259 
 PTB  HN ES   1   2138 59.37                             132    -0.3 7  147 259 
 PTB  HZ I        2139  4.31        25.5 0.15                           147 259 
 ZAR  HZ EP   1   2138 43.52                             122    -0.9 6  204 293 
 ZAR  HN ES   1   2139 10.44                             122     0.8 6  204 293 
 ZAR  HZ I        2139 15.55        49.7 0.32                           204 293 
 NOR  SZ EP   1   2138 47.62                             118     0.0 6  234 235 
 NOR  SN ES   1   2139 15.16                             118    -0.1 6  234 235 
 CHI  HZ EP   1   2138 49.43                             117    -0.1 6  247 195 
 RREF HZ EP   1   2138 58.16                             110     0.2 5  321 229 
 RREF HZ I        2139 43.10        18.3 0.48                           321 229 
 COD  HZ EP   1   2139  0.78                             108     0.2 5  350 355 
 COD  HZ I        2139  5.13         6.0 0.48                           350 355 
 PRA  HZ EP   1   2139  6.03                             106     0.6 4  391 210 
 PRA  HE ES   1   2139 47.41                             106     0.5 4  391 210 
                                                                                
