 2016 1020 2356 33.6 L   7.141 -73.357117.7  RSN 10 0.5 1.8LRSN                1
 GAP= 89        1.11       3.3     4.5  6.3 -0.2998E+01  0.7420E+01  0.1699E+01E
 Epicentro: LEBRIJA - SANTANDER                                                3
 ACTION:UPD 16-11-09 19:21 OP:rebc STATUS:               ID:20161020235633 L   I
 OLDACT:REG 16-10-21 03:33 OP:dnl  STATUS:               ID:20161020234747     3
 2016-10-20-2348-00M.COL___341                                                 6
 STAT SP IPHASW D HRMM SECON CODA AMPLIT PERI AZIMU VELO AIN AR TRES W  DIS CAZ7
 BRR  HZ EP       2356 50.33                             160    0.3210 39.4 265 
 BRR  HE ES       2357  3.25                             160    0.4110 39.4 265 
 BRR  HZ I        2357  3.98        41.6 0.12            158           39.4 265 
 BAR2 EZ IP     D 2356 51.93                             150    0.3210 63.6 162 
 BAR2 EZ ES       2357  5.67                             150   -0.0310 63.6 162 
 BAR2 EZ I        2357  7.16        45.5 0.16            148           63.6 162 
 PAM  EZ EP       2356 53.12                             145    0.3510 75.9  73 
 PAM  EN ES       2357  8.03                             145    0.2710 75.9  73 
 PAM  EZ I        2357  9.76         8.4 0.16            146           75.9  73 
 OCA  HZ EP       2356 55.90                             131   -0.1510  122   2 
 OCA  HN ES       2357 13.07                             131   -0.5310  122   2 
 OCA  HZ I        2357 17.16        20.7 0.25            131            122   2 
 PTB  HZ EP       2356 57.67                             127    0.19 9  139 241 
 PTB  HN ES       2357 15.52                             127   -0.63 9  139 241 
 PTB  HZ I        2357 18.05         6.8 0.10            125            139 241 
 RUS  HZ EP       2356 58.11                             126   -0.28 9  141 168 
 RUS  HN ES       2357 17.02                             126   -0.74 9  141 168 
 RUS  HZ I        2357 19.90         4.3 0.26            125            141 168 
 NOR  HZ EP       2357  9.10                             111    0.48 8  242 224 
 NOR  HE ES       2357 36.49                             111    0.52 8  242 224 
 NOR  HZ I        2357 42.75         6.6 0.14            110            242 224 
 CHI  HZ EP   4   2357 14.82                             108    1.25 0  281 189 
 CHI  HN ES       2357 44.23                             108   -0.55 7  281 189 
 CHI  HZ I        2357 51.17         1.5 0.44            107            281 189 
 SJC  HZ EP       2357 22.21                             102   -0.83 6  365 327 
 SJC  HE ES   4   2357 59.25                             102   -2.39 0  365 327 
 PRA  HZ EP       2357 29.98                             100    0.96 6  415 204 
 PRA  HN ES   4   2358 14.62                             100    2.34 0  415 204 
 PRA  HZ I        2358 23.45         2.7 0.32            100            415 204 
                                                                                
