 2012 1120 2319 25.0 L   6.781 -73.157143.3  RSN  5 0.4 1.9LRSN                1
 GAP=136        1.01       5.1     4.5  8.9  0.1574E+01  0.7105E+01  0.4591E+01E
 Epicentro: LOS SANTOS - SANTANDER                                             3
 ACTION:UPD 12-12-05 15:34 OP:}ep  STATUS:               ID:20121120231925 L   I
 2012-11-20-2318-17M.COL___204                                                 6
 STAT SP IPHASW D HRMM SECON CODA AMPLIT PERI AZIMU VELO AIN AR TRES W  DIS CAZ7
 BRR  HZ EP       2319 46.17                             152    0.2910 71.1 301 
 BRR  HN ES       2320  2.92                             152    0.7510 71.1 301 
 PAM  SZ EP       2319 47.21                             150    0.1010 79.9  39 
 PAM  SZ I        2319 47.35        12.0 0.18                          79.9  39 
 PAM  SN ES       2320  3.80                             150   -0.5510 79.9  39 
 RUS  HZ EP       2319 48.46                             144    0.0910 98.5 175 
 RUS  HN ES       2320  6.59                             144    0.0010 98.5 175 
 RUS  HN I        2320 10.39         5.7 0.30                          98.5 175 
 PTB  HZ EP       2319 51.54                             132   -0.08 9  146 260 
 PTB  HN ES       2320 11.81                             132   -0.57 9  146 260 
 PTB  HN I        2320 17.32        17.2 0.48                           146 260 
 ZAR  HN ES       2320 22.24                             122   -0.16 9  204 293 
 ZAR  HN I        2320 27.86        16.2 0.14                           204 293 
                                                                                
