 2010  920 2004 25.0 L   6.808 -73.153137.5  RSN 13 0.4 3.0LRSN                1
 GAP=170        0.81       4.6     7.6  6.9 -0.2019E+02  0.5913E+01  0.8303E+01E
 Epicentro: LOS SANTOS - SANTANDER                                             3
 ACTION:UP  11-02-18 11:04 OP:tino STATUS:               ID:20100920200425 L   I
 2010-09-20-1959-11S.COL___121                                                 6
 STAT SP IPHASW D HRMM SECON CODA AMPLIT PERI AZIMU VELO SNR AR TRES W  DIS CAZ7
 BAR2 SZ IP     C 20 4 43.64                             170     0.010   24 188 
 BAR2 SZ ES   2   20 4 57.99                             170    -0.2 5   24 188 
 BAR2 SZ I        20 4 59.94       317.6 0.23                            24 188 
 GIR2 SZ IP     C 20 4 43.68                             167     0.010   30 352 
 GIR2 SZ ES   2   20 4 58.55                             167     0.3 5   30 352 
 BRR  HZ IP     D 20 4 45.49                             151     0.310   70 298 
 BRR  HE ES   2   20 5  1.23                             151     0.3 5   70 298 
 BRR  HZ I        20 5  6.57       257.2 0.18                            70 298 
 GUE  SZ EP   1   20 4 49.59                             138     0.7 7  116  13 
 GRA  SZ IP     D 20 4 49.49                             135     0.010  125  18 
 GRA  SZ ES   2   20 5  8.06                             135    -0.5 5  125  18 
 GRA  SZ I        20 5 10.05       102.7 0.33                           125  18 
 OCA  SZ EP   1   20 4 52.15                             128    -0.5 7  159 353 
 OCA  SZ ES   2   20 5 13.62                             128    -0.5 5  159 353 
 OCA  SZ I        20 5 18.55       174.0 0.20                           159 353 
 NOR  SZ EP   1   20 5  0.10                             117    -0.2 6  235 234 
 NOR  SE ES   2   20 5 27.12                             117    -0.7 4  235 234 
 CHI  HZ EP   1   20 5  1.82                             115    -0.5 6  249 195 
 CHI  HE ES   2   20 5 30.85                             115    -0.6 4  249 195 
 CHI  HZ I        20 5 38.38        41.3 0.55                           249 195 
 ROSC BZ EP   1   20 5  3.67                             115     0.9 6  253 211 
 ROSC BZ I        20 5 39.89        44.3 0.35                           253 211 
 HEL  HZ EP   1   20 5  4.61                             113    -0.2 6  271 256 
 HEL  HZ I        20 5 41.91        45.3 0.34                           271 256 
 CVER SZ EP   1   20 5  5.21                             113     0.2 6  273 202 
 CVER SZ I        20 5 47.44        65.7 0.36                           273 202 
 RREF HZ EP   1   20 5 10.12                             109    -0.7 5  322 229 
 RREF HN ES   2   20 5 46.86                             109     0.3 3  322 229 
 RREF HZ I        20 5 53.50        36.8 0.33                           322 229 
 TOL  SZ EP   1   20 5 13.32                             108     0.3 5  344 224 
 TOL  SZ ES   2   20 5 50.97                             108     0.6 3  344 224 
                                                                                
