 2017  720 2019 12.6 L   6.773 -73.126138.9  RSN 14 0.4 2.2LRSN                1
 GAP=115        1.04       3.6     3.2  5.5  0.9544E+00  0.5069E+01  0.3687E+01E
 Epicentro: LOS SANTOS - SANTANDER                                             3
 ACTION:UPD 17-08-30 15:35 OP:rebc STATUS:               ID:20170720201912 L   I
 OLDACT:REG 17-07-21 02:25 OP:dhb  STATUS:               ID:20170720201739     3
 2017-07-20-2018-00M.COL___398                                                 6
 STAT SP IPHASW D HRMM SECON CODA AMPLIT PERI AZIMU VELO AIN AR TRES W  DIS CAZ7
 BAR2 EZ IP     C 2019 31.26                             171   -0.1010 20.9 197 
 BAR2 EZ ES       2019 46.20                             171    0.2210 20.9 197 
 BAR2 EZ I        2019 48.13        24.4 0.18            170           20.9 197 
 BRR  HZ IP     C 2019 33.17                             150   -0.0410 74.6 300 
 BRR  HN ES       2019 50.08                             150    0.7910 74.6 300 
 BRR  HZ I        2019 55.17        45.0 0.12            149           74.6 300 
 PAM  EZ IP     D 2019 34.26                             149    0.1110 78.4  37 
 PAM  EE ES       2019 50.87                             149   -0.0910 78.4  37 
 PAM  EZ I        2019 51.85        17.1 0.14            152           78.4  37 
 RUS  HZ IP     C 2019 35.27                             143   -0.1810 97.4 177 
 RUS  HN ES       2019 52.86                             143   -0.4110 97.4 177 
 RUS  HZ I        2019 54.83        32.7 0.32            145           97.4 177 
 PTB  HZ EP   1   2019 38.30                             130   -0.87 7  149 260 
 PTB  HN ES       2019 59.03                             130   -0.86 9  149 260 
 PTB  HZ I        2020  1.40        20.2 0.22            130            149 260 
 SPBC HZ EP       2019 40.49                             128   -0.00 9  162 220 
 SPBC HE ES       2020  2.51                             128    0.27 9  162 220 
 SPBC HZ I        2020  4.83        23.2 0.23            129            162 220 
 YPLC HZ EP       2019 41.65                             126    0.11 9  173 151 
 YPLC HN ES       2020  4.19                             126    0.09 9  173 151 
 YPLC HZ I        2020  7.88        15.4 0.32            129            173 151 
 ZAR  HZ EP       2019 44.25                             120   -0.69 8  207 293 
 ZAR  HN ES       2020 10.26                             120    0.09 8  207 293 
 ZAR  HZ I        2020 18.32        23.2 0.20            121            207 293 
 NOR  HZ IP     C 2019 47.96                             117    0.01 8  235 235 
 NOR  HN ES       2020 15.19                             117   -0.33 8  235 235 
 NOR  HZ I        2020 19.69        10.5 0.16            118            235 235 
 HEL  HZ EP       2019 53.23                             113    0.60 8  273 257 
 HEL  HN ES       2020 24.10                             113    0.25 8  273 257 
 HEL  HZ I        2020 31.94        10.1 0.22            114            273 257 
 URE  HZ EP   9   2019 52.26                             112   -1.44 0  287 292 
 URE  HN ES       2020 23.59                                   -0.73 7  287 292 
 URE  HZ I        2020 35.79        17.0 0.20            113            287 292 
 GUY2CHZ EP   4   2019 57.14                             111    1.23 0  301 235 
 GUY2CHN ES       2020 30.30                             111    0.61 7  301 235 
 GUY2CHZ I        2020 38.74         8.5 0.34                           301 235 
 CBOC HZ EP       2020  0.20                             108    0.82 7  335 253 
 CBOC HN ES   3   2020 34.66                             108   -1.20 2  335 253 
 SJC  HZ IP   4 C 2020  6.19                             104   -2.20 0  413 327 
 SJC  HN ES   4   2020 47.54                             104   -4.36 0  413 327 
 SJC  HZ I        2020 49.40         3.2 0.52            106            413 327 
                                                                                
