 2014 1120 2200 18.8 L   6.661 -73.140140.4  RSN  4 0.3 1.8LRSN                1
 GAP=179        0.89      10.1     6.0  7.3 -0.3601E+02  0.5725E+01  0.1666E+01E
 Epicentro: VILLANUEVA - SANTANDER                                             3
 ACTION:UPD 14-12-19 15:45 OP:nd   STATUS:               ID:20141120220018 L   I
 OLDACT:DUP 14-11-21 09:41 OP:cam  STATUS:               ID:20141120215818d    3
 OLDACT:REG 14-11-21 09:35 OP:cam  STATUS:               ID:20141120215817     3
 2014-11-20-2158-17M.COL___307                                                 6
 STAT SP IPHASW D HRMM SECON CODA AMPLIT PERI AZIMU VELO AIN AR TRES W  DIS CAZ7
 BAR2 SZ ES       22 0 52.24                             176    0.0510 9.00 212 
 BRR  HZ EP       22 0 40.33                             148    0.4410 80.2 308 
 BRR  HN ES       22 0 56.27                             148   -0.0910 80.2 308 
 PAM  SZ EP       22 0 41.46                             146    0.2710 89.4  33 
 PAM  SN ES       22 0 58.41                             146   -0.2710 89.4  33 
 PAM  SZ I        22 1  0.65        12.2 0.58            146           89.4  33 
 PTB  HZ EP       22 0 44.50                             131   -0.66 9  146 265 
 PTB  HN ES       22 1  5.96                             131    0.21 9  146 265 
 PTB  HZ I        22 1  8.64         8.7 0.20            131            146 265 
                                                                                
