 2014 1020 2350 23.8 L   6.788 -73.204140.5  RSN  5 0.4 1.6LRSN                1
 GAP=130        0.99       4.6     6.3 11.2 -0.7469E+01  0.2951E+02 -0.1214E+02E
 Epicentro: ZAPATOCA - SANTANDER                                               3
 ACTION:UPD 14-11-29 23:52 OP:nd   STATUS:               ID:20141020235023 L   I
 OLDACT:DUP 14-10-22 05:15 OP:fm   STATUS:               ID:20141020234742d    3
 2014-10-20-2347-41M.COL___271                                                 6
 STAT SP IPHASW D HRMM SECON CODA AMPLIT PERI AZIMU VELO AIN AR TRES W  DIS CAZ7
 PAM  SZ EP       2350 45.70                             148   -0.0610 82.6  42 
 PAM  SN ES       2351  3.26                             148    0.3510 82.6  42 
 PAM  SZ I        2351  5.20         7.0 0.58            150           82.6  42 
 RUS  HZ EP       2350 47.52                             143    0.5610100.0 172 
 RUS  HN ES       2351  4.37                             143   -0.6810100.0 172 
 RUS  HZ I        2351  8.55         3.1 0.38            146          100.0 172 
 PTB  HN ES   1   2351 10.25                             132    0.30 7  141 259 
 SML  HZ EP   1   2350 59.50                             116   -0.45 6  242 337 
 SML  HN ES   1   2351 27.67                             116   -0.50 6  242 337 
 SML  HZ I        2351 32.36         5.4 0.10            119            242 337 
 GUY2CHE ES   1   2351 39.82                             112    0.06 5  295 234 
 GUY2CHZ I        2351 48.47         1.7 0.30                           295 234 
                                                                                
