 2017  220 2248  7.0 L   6.402 -73.629103.0  RSN  6 0.4 1.6LRSN                1
 GAP=103        0.82       4.6     4.3  8.9  0.9654E+01  0.2219E+02  0.1012E+02E
 Epicentro: SANTA HELENA DEL OPON - SANTANDER                                  3
 ACTION:UPD 17-05-24 15:38 OP:jn   STATUS:               ID:20170220224807 L   I
 OLDACT:DUP 17-02-21 04:26 OP:dnl  STATUS:               ID:20170220223745d    3
 2017-02-20-2238-00M.COL___379                                                 6
 STAT SP IPHASW D HRMM SECON CODA AMPLIT PERI AZIMU VELO AIN AR TRES W  DIS CAZ7
 BAR2 EZ EP   2   2248 22.84                             150   -0.09 5 53.7  67 
 BAR2 EZ ES       2248 35.18                             150   -0.1510 53.7  67 
 BAR2 EZ I        2248 36.54        34.8 0.56            153           53.7  67 
 BRR  HZ EP   2   2248 23.65                             139   -0.68 5 78.5 353 
 BRR  HE ES       2248 37.78                             139   -0.0510 78.5 353 
 BRR  HZ I        2248 51.64        13.9 0.30            139           78.5 353 
 RUS  HZ EP   2   2248 25.60                             138    0.25 5 82.6 133 
 RUS  HN ES       2248 39.98                             138    0.3510 82.6 133 
 RUS  HZ I        2248 40.93         3.3 0.10            147           82.6 133 
 PTB  HZ IP     D 2248 25.06                             134   -0.4810 92.8 279 
 PTB  HE ES       2248 39.81                             134   -0.1710 92.8 279 
 PTB  HZ I        2248 40.58         7.1 0.12            137           92.8 279 
 NOR  HZ EP   2   2248 33.01                             117    0.12 5  166 236 
 NOR  HE ES   4   2248 55.10                             117    2.05 0  166 236 
 NOR  HZ I        2248 57.31         3.3 0.24            122            166 236 
 ZAR  HZ EP   2   2248 34.65                             114    0.06 4  182 312 
 ZAR  HE ES       2248 56.83                             114    0.75 9  182 312 
 ZAR  HZ I        2249  0.30         5.6 0.28            117            182 312 
                                                                                
