 2017  820 2316  8.6 L   6.749 -73.074147.6  RSN  9 0.4 1.7LRSN                1
 GAP=148        0.80       3.7     3.8  5.2 -0.4683E+01  0.4678E+01  0.2089E+01E
 Epicentro: JORDAN - SANTANDER                                                 3
 ACTION:UPD 17-09-04 20:22 OP:rebc STATUS:               ID:20170820231608 L   I
 OLDACT:REG 17-08-21 01:48 OP:dhb  STATUS:               ID:20170820230743     3
 2017-08-20-2308-00M.COL___411                                                 6
 STAT SP IPHASW D HRMM SECON CODA AMPLIT PERI AZIMU VELO AIN AR TRES W  DIS CAZ7
 BAR2 EZ IP     D 2316 28.23                             171   -0.1810 21.1 215 
 BAR2 EZ ES       2316 43.83                             171   -0.0310 21.1 215 
 BAR2 EZ I        2316 45.04         8.5 0.20            170           21.1 215 
 PAM  EZ IP     C 2316 31.45                             151    0.4410 77.3  32 
 PAM  EE ES       2316 48.57                             151    0.0910 77.3  32 
 PAM  EZ I        2316 51.64         5.7 0.34            151           77.3  32 
 BRR  HZ EP       2316 30.39                             150   -0.1310 80.8 299 
 BRR  HN ES       2316 47.42                             150   -0.1910 80.8 299 
 BRR  HZ I        2316 51.02        10.7 0.26            146           80.8 299 
 RUS  HZ EP       2316 32.01                             146   -0.1110 94.7 181 
 RUS  HN ES       2316 50.56                             146    0.0910 94.7 181 
 SPBC HZ IP     C 2316 37.09                             129   -0.24 9  164 222 
 SPBC HE ES       2316 59.83                             129    0.10 9  164 222 
 SPBC HZ I        2317  1.18         7.2 0.13            130            164 222 
 ZAR  HE ES   2   2317  7.36                             121   -0.95 4  214 293 
 ZAR  HZ I        2317 13.50         5.9 0.08            121            214 293 
 NOR  HZ EP       2316 44.52                             118   -0.28 8  238 237 
 NOR  HE ES       2317 12.82                             118   -0.21 8  238 237 
 NOR  HZ I        2317 17.31         5.1 0.15            119            238 237 
 HEL  HE ES       2317 22.70                             115    1.09 7  278 257 
 HEL  HZ I        2317 26.93         2.7 0.48            115            278 257 
 GUY2CHZ EP   9   2316 56.69                             112    4.02 0  305 237 
 GUY2CHN ES       2317 31.16                                    0.10 7  305 237 
 GUY2CHZ I        2317 34.96         3.6 0.64                           305 237 
                                                                                
