 2010 1220 2354  5.5 L   6.805 -73.333134.0  RSN  5 0.2 1.6LRSN                1
 GAP=196        0.63       4.5    21.2  7.6  0.1630E+02 -0.4198E+01 -0.1461E+02E
 Epicentro: ZAPATOCA - SANTANDER                                               3
 ACTION:UP  11-01-14 15:26 OP:pat  STATUS:               ID:20101220235405 L   I
 2010-12-20-2352-04S.COL___133                                                 6
 STAT SP IPHASW D HRMM SECON CODA AMPLIT PERI AZIMU VELO SNR AR TRES W  DIS CAZ7
 BTL  SZ EP       2354 23.89                             173     0.410   14  30 
 BTL  SZ ES   2   2354 37.16                             173    -0.4 5   14  30 
 BAR2 SZ EP       2354 23.72                             167    -0.110   29 145 
 BAR2 SZ I        2354 24.17         7.6 0.32                            29 145 
 BAR2 SZ ES   2   2354 38.44                             167     0.3 5   29 145 
 RUS  HZ EP       2354 28.27                             140    -0.110  105 165 
 RUS  HN ES   2   2354 46.18                             140    -0.1 5  105 165 
 RUS  HZ I        2354 47.95         4.7 0.38                           105 165 
 GRA  SZ EP       2354 30.34                             133     0.010  133  26 
 GRA  SZ I        2354 52.86         9.0 0.23                           133  26 
 OCA  SZ EP       2354 32.53                             127    -0.2 9  159   1 
 OCA  SZ I        2354 55.19         5.6 0.23                           159   1 
                                                                                
