 2011 1120 2022 23.9 L   6.808 -73.061138.0  RSN  4 0.3 1.4LRSN                1
 GAP=147        0.58       4.0     5.1  6.5  0.1738E+01 -0.3181E+01  0.2491E+01E
 Epicentro: LOS SANTOS - SANTANDER                                             3
 ACTION:UPD 12-07-13 16:11 OP:ep   STATUS:               ID:20111120202223 L   I
 2011-11-20-2018-37S.COL___178                                                 6
 STAT SP IPHASW D HRMM SECON CODA AMPLIT PERI AZIMU VELO AIN AR TRES W  DIS CAZ7
 BAR2 SZ ES   2   2022 56.97                             168   -0.35 5 27.3 209 
 BAR2 SZ I        2022 58.60         6.0 0.21                          27.3 209 
 PAM  SZ EP   1   2022 45.33                             152    0.44 7 71.1  34 
 PAM  SN ES   1   2023  1.09                             152   -0.19 7 71.1  34 
 BRR  HZ EP       2022 44.46                             148   -0.2210 79.2 295 
 BRR  HZ I        2022 59.55        10.1 0.34                          79.2 295 
 BRR  HE ES       2023  1.07                             148    0.1610 79.2 295 
 RUS  HZ EP   1   2022 46.71                             142   -0.21 7  101 181 
 RUS  HE ES   1   2023  5.11                             142    0.22 7  101 181 
 RUS  HZ I        2023  6.24         1.8 0.42                           101 181 
                                                                                
