 2011  220 2201  0.5 L   6.820 -73.099144.5  RSN 14 0.4 3.3LRSN                1
 GAP=105        0.98       3.4     5.1  6.5 -0.5409E+01  0.5493E+01  0.8370E+00E
 Epicentro: LOS SANTOS - SANTANDER                                             3
 ACTION:UP  11-03-28 15:09 OP:jfem STATUS:               ID:20110220220100 L   I
 2011-02-20-2200-30S.COL___137                                                 6
 STAT SP IPHASW D HRMM SECON CODA AMPLIT PERI AZIMU VELO SNR AR TRES W  DIS CAZ7
 BTL  SZ EP   1   22 1 20.33                             171     0.4 7   22 300 
 BAR2 SZ EP       22 1 20.16                             169     0.110   27 200 
 BAR2 SZ ES   1   22 1 35.00                             169    -0.3 7   27 200 
 BAR2 SZ I        22 1 38.82       605.3 0.43                            27 200 
 GIR2 SZ EP       22 1 20.27                             167     0.310   30 340 
 GIR2 SZ ES   1   22 1 35.86                             167     0.6 7   30 340 
 RUS  HZ EP       22 1 24.08                             143    -0.210  103 179 
 RUS  HN ES   1   22 1 42.59                             143    -0.2 7  103 179 
 RUS  HZ I        22 1 44.83       179.8 0.46                           103 179 
 GRA  SZ EP       22 1 24.86                             137    -0.510  122  15 
 GRA  SZ ES   1   22 1 43.90                             137    -0.8 7  122  15 
 GRA  SZ I        22 1 46.15       220.2 0.40                           122  15 
 OCA  SZ EP       22 1 29.09                             130     0.5 9  159 351 
 OCA  SZ I        22 1 56.20       275.0 0.40                           159 351 
 YOP  SZ IP       22 1 30.82                             126     0.4 9  179 155 
 YOP  SN ES   1   22 1 54.19                             126     0.4 7  179 155 
 YOP  SZ I        22 1 59.54       187.2 0.33                           179 155 
 NOR  SZ EP   1   22 1 36.78                             117     0.0 6  240 235 
 NOR  SE ES   1   22 2  4.41                             117    -0.6 6  240 235 
 CHI  HZ EP   1   22 1 38.15                             116    -0.4 6  252 196 
 CHI  HN ES   1   22 2  7.75                             116    -0.4 6  252 196 
 CHI  HZ I        22 2 14.81       133.9 0.50                           252 196 
 ROSC BE ES       22 2  9.18                             116     0.1 8  257 212 
 ROSC BZ I        22 2 16.27       246.2 0.46                           257 212 
 HEL  HN ES   1   22 2 13.56                             114     0.5 6  278 256 
 HEL  HZ I        22 2 19.95       138.0 0.42                           278 256 
 RREF HN ES   1   22 2 23.58                             110    -0.1 5  327 230 
 RREF HZ I        22 2 32.60       115.3 0.46                           327 230 
 DBB  SZ EP   1   22 1 48.47                             109     0.0 5  344 274 
 SDV  BZ EP   1   22 1 49.71                             108    -0.2 5  355  50 
 SDV  BZ I        22 2 28.96        37.8 0.27                           355  50 
                                                                                
