 2012  520 2115 16.0 L   6.740 -73.153159.6  RSN  5 0.2 1.4LRSN                1
 GAP=232        0.41       3.9     4.3  5.2  0.8742E+01 -0.8892E+00 -0.6687E+00E
 Epicentro: JORDAN - SANTANDER                                                 3
 ACTION:UP  12-07-05 12:06 OP:pat  STATUS:               ID:20120520211516 L   I
 2012-05-20-2109-47M.COL___190                                                 6
 STAT SP IPHASW D HRMM SECON CODA AMPLIT PERI AZIMU VELO SNR AR TRES W  DIS CAZ7
 BRR  HZ EP       2115 38.84                             154     0.110   74 303 
 BRR  HZ I        2115 40.48         9.3 0.11                            74 303 
 BRR  HE ES   1   2115 56.68                             154     0.1 7   74 303 
 RUS  HZ EP       2115 40.61                             148    -0.110   94 175 
 RUS  HZ I        2115 59.35         2.0 0.63                            94 175 
 RUS  HN ES   1   2115 59.86                             148    -0.1 7   94 175 
 PTB  HZ EP   1   2115 44.15                             135     0.2 7  146 261 
 PTB  HN ES   2   2116  5.54                             135    -0.2 5  146 261 
 ZAR  HN ES   2   2116 15.28                             125    -0.5 4  206 294 
 NOR  SN ES   2   2116 20.52                             122     0.3 4  230 236 
                                                                                
