 2011 1020 2237 16.0 L   6.767 -73.108144.9  RSN  5 0.3 1.5LRSN                1
 GAP=143        0.59       5.0     6.3  7.2 -0.2344E+01 -0.4056E+01  0.7548E+01E
 Epicentro: LOS SANTOS - SANTANDER                                             3
 ACTION:UPD 12-07-13 16:05 OP:ep   STATUS:               ID:20111020223716 L   I
 2011-10-20-2234-42S.COL___171                                                 6
 STAT SP IPHASW D HRMM SECON CODA AMPLIT PERI AZIMU VELO AIN AR TRES W  DIS CAZ7
 BAR2 SZ EP   1   2237 35.33                             171   -0.12 7 21.1 203 
 BAR2 SZ ES   2   2237 50.18                             171   -0.46 5 21.1 203 
 BAR2 SZ I        2237 52.12         8.8 0.21                          21.1 203 
 GIR2 SZ EP   1   2237 35.16                             166   -0.50 7 35.7 345 
 BRR  HZ EP   1   2237 37.14                             151   -0.20 7 76.6 299 
 BRR  HZ I        2237 38.27         9.2 0.26                          76.6 299 
 BRR  HE ES   1   2237 54.34                             151    0.33 7 76.6 299 
 PAM  SZ EP   1   2237 38.40                             151    0.29 7 77.7  35 
 PAM  SZ I        2237 38.60         4.6 0.18                          77.7  35 
 PAM  SN ES   1   2237 55.43                             151    0.05 7 77.7  35 
 RUS  HZ EP   1   2237 39.66                             145    0.30 7 96.8 178 
 RUS  HN ES   2   2237 57.72                             145    0.11 5 96.8 178 
 RUS  HZ I        2237 59.44         3.8 0.20                          96.8 178 
                                                                                
