 2010  120 2253  1.0 L   6.779 -73.051149.8  RSN  7 0.4 2.4LRSN                1
 GAP=192        0.67       4.1    11.5  7.3 -0.1481E+02  0.3260E+02  0.2848E+01E
 Epicentro: LOS SANTOS - SANTANDER                                             3
 ACTION:UP  10-08-24 09:45 OP:vdl  STATUS:               ID:20100120225301 L   I
 2010-01-20-2251-00S.COL___095                                                 6
 STAT SP IPHASW D HRMM SECON CODA AMPLIT PERI AZIMU VELO SNR AR TRES W  DIS CAZ7
 BAR2 SZ IP       2253 21.27                             170     0.110   25 215 
 BAR2 SZ ES   2   2253 36.21                             170    -0.7 5   25 215 
 GIR2 SZ EP   1   2253 21.32                             166     0.0 7   37 335 
 GIR2 SZ ES   2   2253 37.46                             166     0.3 5   37 335 
 RUS  BZ EP   1   2253 25.42                             145     0.4 7   98 182 
 RUS  BE ES   2   2253 43.73                             145     0.0 5   98 182 
 RUS  BZ I        2253 45.17        29.4 0.27                            98 182 
 OCA  SZ EP   1   2253 29.86                             130    -0.1 7  164 350 
 OCA  SZ ES   2   2253 52.62                             130     0.0 5  164 350 
 CHI  HZ EP   1   2253 39.22                             118     0.2 6  249 198 
 CHI  HZ I        2253 41.93        10.6 0.41                           249 198 
 CHI  HE ES   2   2254  8.42                             118    -0.3 4  249 198 
 RREF BZ EP   1   2253 47.28                             111    -0.8 5  328 231 
 RREF BE ES   2   2254 25.89                             111     1.1 3  328 231 
 RREF BZ I        2254 28.38        12.8 0.72                           328 231 
 PRA  HZ EP   1   2253 54.76                             107    -0.3 4  395 211 
 PRA  HN ES   2   2254 36.60                             107    -0.6 3  395 211 
 PRA  HZ I        2254 42.44         9.4 0.31                           395 211 
                                                                                
