 2011 1020 2120 37.7 L   6.813 -73.035143.2  RSN  4 0.2 1.4LRSN                1
 GAP=214        0.44       5.8     9.9  7.2  0.3536E+02 -0.2787E+02 -0.1591E+01E
 Epicentro: CEPITA - SANTANDER                                                 3
 ACTION:UPD 12-07-13 16:05 OP:ep   STATUS:               ID:20111020212037 L   I
 2011-10-20-2116-31S.COL___171                                                 6
 STAT SP IPHASW D HRMM SECON CODA AMPLIT PERI AZIMU VELO AIN AR TRES W  DIS CAZ7
 BAR2 SZ EP   2   2120 56.87                             168   -0.30 5 29.3 214 
 BAR2 SZ I        2120 59.55         8.2 0.74                          29.3 214 
 GIR2 SZ EP   1   2120 57.31                             166    0.15 7 34.2 329 
 GIR2 SZ ES   2   2121 12.25                             166   -0.08 5 34.2 329 
 BRR  HZ EP   1   2120 58.95                             149   -0.26 7 81.6 294 
 BRR  HZ I        2120 59.77         5.4 0.30                          81.6 294 
 BRR  HN ES   1   2121 16.12                             149    0.14 7 81.6 294 
 RUS  HZ EP   1   2121  1.54                             143    0.23 7  102 183 
 RUS  HZ I        2121  1.83         3.1 0.47                           102 183 
 RUS  HN ES   2   2121 19.50                             143   -0.21 5  102 183 
                                                                                
