 2011  220 2200 13.2 L   6.830 -73.119144.0  RSN 15 0.4 2.8LRSN                1
 GAP=104        0.86       3.2     4.7  5.8 -0.2610E+01  0.9056E+01  0.7939E+00E
 Epicentro: LOS SANTOS - SANTANDER                                             3
 ACTION:UP  11-03-28 15:09 OP:jfem STATUS:               ID:20110220220013 L   I
 2011-02-20-2158-40S.COL___137                                                 6
 STAT SP IPHASW D HRMM SECON CODA AMPLIT PERI AZIMU VELO SNR AR TRES W  DIS CAZ7
 BTL  SZ EP   1   22 0 33.17                                     0.6 7   19 301 
 BAR2 SZ EP       22 0 32.85                             169     0.210   27 195 
 BAR2 SZ ES   1   22 0 47.65                             169    -0.3 7   27 195 
 BAR2 SZ I        22 0 50.72       190.5 0.44                            27 195 
 GIR2 SZ EP       22 0 32.81                             168     0.210   29 343 
 RUS  HZ IP       22 0 36.83                             142    -0.210  104 178 
 RUS  HN ES   1   22 0 55.41                             142    -0.2 7  104 178 
 RUS  HZ I        22 0 57.08        74.1 0.43                           104 178 
 GRA  SZ EP       22 0 37.60                             137    -0.310  122  17 
 GRA  SZ ES   1   22 0 57.41                             137     0.2 7  122  17 
 GRA  SZ I        22 0 58.87        57.5 0.38                           122  17 
 YOP  SZ IP       22 0 43.50                             125     0.2 9  181 155 
 YOP  SN ES       22 1  6.87                             125     0.1 9  181 155 
 YOP  SZ I        22 1 12.19        77.4 0.38                           181 155 
 NOR  SZ EP       22 0 48.89                             118    -0.4 8  239 234 
 NOR  SN ES   1   22 1 16.97                             118    -0.5 6  239 234 
 CHI  HZ EP       22 0 51.01                             116    -0.2 8  253 196 
 CHI  HN ES   1   22 1 20.81                             116    -0.1 6  253 196 
 CHI  HZ I        22 1 24.98        47.9 0.68                           253 196 
 ROSC BZ EP   1   22 0 52.74                                     1.0 6  257 211 
 ROSC BZ I        22 0 54.68        83.1 0.20                           257 211 
 HEL  HZ EP       22 0 53.84                             114     0.1 7  276 255 
 VIL  SZ EP       22 0 56.29                             111    -0.5 7  305 190 
 VIL  SZ I        22 1 34.74        37.4 0.17                           305 190 
 RREF HZ EP   1   22 1  0.10                             110     0.3 5  326 229 
 RREF HZ I        22 1  3.33        18.8 0.24                           326 229 
 DBB  SZ EP   1   22 1  0.82                             109    -0.1 5  342 274 
 TOL  SZ EP       22 1  2.34                             109     0.5 6  348 225 
 SDV  BZ EP       22 1  2.19                             108    -0.5 6  356  50 
                                                                                
