 2013  221 0235 35.4 L   6.799 -73.159148.0  RSN  7 0.4 1.5LRSN                1
 GAP=135        0.81       4.4     5.6  8.1 -0.1694E+01  0.6881E+01  0.5193E+01E
 Epicentro: LOS SANTOS - SANTANDER                                             3
 ACTION:UPD 13-03-12 09:34 OP:ep   STATUS:               ID:20130221023535 L   I
 2013-02-21-0230-00M.COL___238                                                 6
 STAT SP IPHASW D HRMM SECON CODA AMPLIT PERI AZIMU VELO AIN AR TRES W  DIS CAZ7
 BAR2 SZ ES   1    236 10.39                             171   -0.40 7 23.0 186 
 BAR2 SZ I         236 11.87        10.3 0.26            167           23.0 186 
 BRR  HN ES   1    236 14.16                             153    0.82 7 70.0 299 
 PAM  SZ EP   1    235 58.32                             151    0.41 7 78.5  40 
 PAM  SN ES   1    236 15.09                             151   -0.37 7 78.5  40 
 PAM  SZ I         236 17.45         6.1 0.50            152           78.5  40 
 RUS  HZ EP   1    235 59.52                             144    0.16 7  101 175 
 RUS  HN ES   1    236 18.05                             144    0.00 7  101 175 
 RUS  HZ I         236 20.09         3.7 0.38            142            101 175 
 PTB  HZ EP   1    236  1.87                             133   -0.54 7  146 259 
 PTB  HN ES   1    236 23.18                             133   -0.29 7  146 259 
 PTB  HZ I         236 24.86         3.5 0.20            132            146 259 
 SML  HE ES   2    236 40.47                             118   -0.24 4  243 336 
 CHI  HN ES   1    236 42.89                             118    0.28 6  248 195 
 CHI  HZ I         236 49.08         1.3 0.26            116            248 195 
                                                                                
