 2013  121 0551 53.7 L   6.793 -73.137151.3  RSN  7 0.4 1.9LRSN                1
 GAP=138        1.10       4.5     5.0  6.9  0.2630E+01  0.8031E+01  0.5115E+01E
 Epicentro: LOS SANTOS - SANTANDER                                             3
 ACTION:UPD 13-02-15 09:15 OP:ep   STATUS:               ID:20130121055153 L   I
 2013-01-21-0550-00M.COL___241                                                 6
 STAT SP IPHASW D HRMM SECON CODA AMPLIT PERI AZIMU VELO AIN AR TRES W  DIS CAZ7
 BAR2 SZ EP        552 13.94                             171   -0.0610 22.8 193 
 BAR2 SZ I         552 14.04        13.0 0.22            170           22.8 193 
 BAR2 SZ ES        552 29.73                             171   -0.0910 22.8 193 
 BRR  HZ EP        552 15.90                             153    0.3710 72.4 299 
 BRR  HN ES        552 33.45                             153    0.9110 72.4 299 
 BRR  HE I         552 34.13        29.6 0.24            153           72.4 299 
 PAM  SZ EP        552 16.80                             152    0.2810 77.3  39 
 PAM  SN ES        552 33.88                             152   -0.4210 77.3  39 
 PAM  SN I         552 35.12        12.4 0.48            155           77.3  39 
 RUS  HZ EP        552 17.81                             145   -0.1410 99.8 177 
 RUS  HZ I         552 18.82         2.4 0.22            145           99.8 177 
 RUS  HN ES        552 36.62                             145   -0.2410 99.8 177 
 PTB  HZ EP        552 20.81                             133   -0.40 9  149 259 
 PTB  HN ES        552 41.98                             133   -0.68 9  149 259 
 PTB  HN I         552 47.54        29.6 0.34            133            149 259 
 ZAR  HZ EP        552 26.67                             123    0.03 8  205 292 
 ZAR  HE ES        552 52.15                             123   -0.18 8  205 292 
 CHI  HZ EP        552 31.53                             118   -0.14 8  248 195 
 CHI  HN ES        553  2.12                             118    0.84 8  248 195 
 CHI  HN I         553  3.76         5.1 0.28            119            248 195 
                                                                                
