 2014 1121 0647 16.7 L   6.767 -73.152156.0  RSN  6 0.4 1.1LRSN                1
 GAP=234        0.91       5.3     5.5  6.7  0.1152E+02  0.4087E+01 -0.5089E+01E
 Epicentro: LOS SANTOS - SANTANDER                                             3
 ACTION:UPD 14-12-19 15:45 OP:nd   STATUS:               ID:20141121064716 L   I
 OLDACT:DUP 14-11-21 18:15 OP:fm   STATUS:               ID:20141121063744d    3
 2014-11-21-0637-43M.COL___301                                                 6
 STAT SP IPHASW D HRMM SECON CODA AMPLIT PERI AZIMU VELO AIN AR TRES W  DIS CAZ7
 BAR2 SZ EP        647 36.80                             173   -0.6710 19.6 190 
 BAR2 SZ ES        647 53.79                             173    0.1010 19.6 190 
 BAR2 SZ I         647 54.68         1.9 0.18            170           19.6 190 
 BRR  HZ EP        647 39.31                             154    0.3110 72.4 301 
 BRR  HN ES        647 56.78                             154    0.3710 72.4 301 
 BRR  HZ I         647 58.19         3.1 0.26            153           72.4 301 
 RUS  HZ EP        647 41.43                             147    0.2410 97.0 175 
 RUS  HE ES        648  0.07                             147   -0.2510 97.0 175 
 RUS  HZ I         648  1.83         1.1 0.38            147           97.0 175 
 PTB  HZ EP        647 44.32                             135   -0.05 9  146 260 
 PTB  HN ES        648  5.85                             135   -0.12 9  146 260 
 PTB  HZ I         648  7.62         1.6 0.16            134            146 260 
 SPBC HE ES        648  8.59                             132    0.30 9  160 220 
 SPBC HZ I         648 12.81         3.2 0.28            131            160 220 
 ZAR  HZ EP        647 50.20                             124    0.32 9  205 293 
 ZAR  HN ES        648 15.18                             124   -0.60 9  205 293 
 ZAR  HZ I         648 19.97         0.9 0.36            125            205 293 
                                                                                
