 2012  221 0657 27.0 L   6.740 -73.133149.1  RSN  5 0.2 1.1LRSN                1
 GAP=187        0.41       3.7     4.2  7.1  0.2809E+01  0.5772E+01  0.1944E+01E
 ACTION:UP  12-03-07 16:32 OP:epov STATUS:               ID:20120221065727 L   I
 2012-02-21-0650-00M.COL___191                                                 6
 STAT SP IPHASW D HRMM SECON CODA AMPLIT PERI AZIMU VELO AIN AR TRES W  DIS CAZ7
 BAR2 SZ ES   2    658  2.70                             173    0.25 5 17.2 199 
 BAR2 SZ I         658  3.32         2.5 0.16                          17.2 199 
 GIR2 SZ EP   1    657 47.30                             165    0.05 7 38.1 350 
 GIR2 SZ ES   1    658  2.79                             165   -0.27 7 38.1 350 
 BRR  HE ES   1    658  5.93                             151    0.19 7 75.8 302 
 BRR  HZ I         658 11.26         4.0 0.14                          75.8 302 
 RUS  HN ES   1    658  9.00                             146   -0.01 7 93.8 177 
 RUS  HZ I         658 11.05         1.4 0.43                          93.8 177 
 PTB  HE ES   1    658 15.42                             133   -0.09 7  148 261 
                                                                                
