 2016  621 0045  0.2 L   6.800 -73.143145.0  RSN 15 0.5 1.9LRSN                1
 GAP=137        1.12       3.8     3.9  5.7 -0.1438E+01  0.6743E+01  0.6821E+01E
 Epicentro: LOS SANTOS - SANTANDER                                             3
 ACTION:UPD 16-07-21 22:21 OP:rebc STATUS:               ID:20160621004500 L   I
 OLDACT:REG 16-06-21 14:13 OP:ak   STATUS:               ID:20160621003742     3
 2016-06-21-0037-42M.COL___337                                                 6
 STAT SP IPHASW D HRMM SECON CODA AMPLIT PERI AZIMU VELO AIN AR TRES W  DIS CAZ7
 BAR2 EZ EP        045 19.58                             170   -0.1410 23.4 191 
 BAR2 EZ ES        045 34.73                             170   -0.2310 23.4 191 
 BAR2 EZ I         045 36.01        16.5 0.08                          23.4 191 
 BRR  HZ EP        045 21.38                             152    0.1210 71.4 298 
 BRR  HN ES        045 37.60                             152   -0.1010 71.4 298 
 BRR  HZ I         045 42.37        15.5 0.36                          71.4 298 
 PAM  EZ EP        045 22.64                             151    0.3410 77.2  39 
 PAM  EN ES        045 40.45                             151    0.9010 77.2  39 
 PAM  EZ I         045 41.49         8.8 0.17                          77.2  39 
 RUS  HZ EP        045 23.08                             144   -0.7810  101 176 
 RUS  HN ES        045 42.13                             144   -0.1910  101 176 
 RUS  HZ I         045 43.40        11.7 0.20                           101 176 
 PTB  HZ EP   1    045 26.42                             132   -0.69 7  148 259 
 PTB  HN ES        045 47.74                             132   -0.37 9  148 259 
 PTB  HZ I         045 48.45         9.9 0.16                           148 259 
 SPBC HZ EP        045 28.20                             129   -0.44 9  163 219 
 SPBC HN ES        045 50.55                             129   -0.28 9  163 219 
 SPBC HZ I         045 56.60        13.0 0.24                           163 219 
 ZAR  HZ EP   2    045 32.38                             122   -0.22 4  204 292 
 ZAR  HE ES        045 57.26                             122   -0.62 9  204 292 
 ZAR  HZ I         046  3.14         6.8 0.29                           204 292 
 NOR  HZ EP        045 35.50                             118   -0.39 8  235 234 
 NOR  HN ES        046  4.72                             118    0.98 8  235 234 
 NOR  HZ I         046 11.45         7.9 0.20                           235 234 
 CHI  HZ EP        045 37.91                             117    0.06 8  249 195 
 CHI  HN ES        046  7.44                             117    0.22 8  249 195 
 CHI  HZ I         046 10.15         4.4 0.44                           249 195 
 ROSC BZ EP        045 38.39                             116    0.11 8  253 211 
 ROSC BN ES   4    046 10.90                             116    2.91 0  253 211 
 ROSC BZ I         046 15.91         6.4 0.55                           253 211 
 HEL  HZ EP        045 40.46                             114    0.08 8  272 256 
 HEL  HN ES        046 11.75                             114    0.01 8  272 256 
 HEL  HZ I         046 19.89         4.9 0.40                           272 256 
 GUY2CHZ EP   2    045 42.88                             112   -0.90 4  301 235 
 GUY2CHN ES        046 18.69                             112    0.90 7  301 235 
 GUY2CHZ I         046 24.81         4.1 0.58                           301 235 
 CBOC HZ EP        045 47.76                             110    0.67 7  334 252 
 CBOC HN ES        046 23.99                             110    0.31 7  334 252 
 CBOC HZ I         046 27.62         1.6 0.43                           334 252 
 PRA  HZ EP        045 53.88                             106    0.19 6  392 210 
 PRA  HN ES        046 34.98                             106   -0.45 6  392 210 
 PRA  HZ I         046 39.62         3.2 0.32                           392 210 
 ORTC HZ EP        045 54.05                             106   -0.04 6  396 216 
 ORTC HN ES        046 37.52                             106    1.37 6  396 216 
 ORTC HZ I         046 43.47         2.6 0.46                           396 216 
                                                                                
