 2017  821 0819 50.3 L   6.788 -73.067146.0  RSN 18 0.6 2.1LRSN                1
 GAP= 72        1.26       3.9     3.8  5.9 -0.2884E+01  0.4307E+01  0.5164E+01E
 Epicentro: LOS SANTOS - SANTANDER                                             3
 ACTION:UPD 17-09-04 20:22 OP:rebc STATUS:               ID:20170821081950 L   I
 OLDACT:UP  17-08-21 17:37 OP:osc  STATUS:               ID:20170821080959     3
 OLDACT:REG 17-08-21 13:27 OP:osc  STATUS:               ID:20170821080959     3
 2017-08-21-0818-00M.COL___411                                                 6
 STAT SP IPHASW D HRMM SECON CODA AMPLIT PERI AZIMU VELO AIN AR TRES W  DIS CAZ7
 BAR2 EZ EP        820  9.72                             170   -0.3010 25.1 210 
 BAR2 EZ ES        820 24.97                             170   -0.4110 25.1 210 
 BAR2 EZ I         820 25.96        38.6 0.28            168           25.1 210 
 PAM  EZ EP        820 12.78                             152    0.4510 73.3  34 
 PAM  EN ES        820 29.84                             152    0.3510 73.3  34 
 PAM  EZ I         820 31.88        17.4 0.46            156           73.3  34 
 BRR  HZ EP     D  820 11.52                             150   -0.4610 79.5 296 
 BRR  HE ES        820 28.75                             150   -0.1310 79.5 296 
 BRR  HZ I         820 33.48        21.1 0.16            150           79.5 296 
 RUS  HZ EP        820 14.09                             144    0.1110 99.0 181 
 RUS  HN ES        820 32.74                             144    0.3010 99.0 181 
 RUS  HZ I         820 33.51        13.7 0.22            144           99.0 181 
 TAM  HZ IP     C  820 18.13                             132    0.91 9  146 105 
 TAM  HE ES        820 37.47                             132   -0.73 9  146 105 
 SPBC HZ EP        820 18.86                             128   -0.41 9  168 222 
 SPBC HE ES        820 41.87                             128    0.02 9  168 222 
 SPBC HZ I         820 44.89        17.2 0.21            129            168 222 
 YPLC HZ IP     C  820 20.21                             127    0.58 9  172 154 
 YPLC HE ES   4    820 44.47                             127    1.99 0  172 154 
 YPLC HZ I         820 46.89         8.1 0.30            129            172 154 
 ZAR  HZ EP        820 23.90                             121    0.23 8  213 292 
 ZAR  HE ES   4    820 47.75                             121   -1.93 0  213 292 
 ZAR  HZ I         820 53.01        11.9 0.17            123            213 292 
 NOR  HZ EP        820 25.91                             118   -0.84 8  241 236 
 NOR  HE ES        820 54.30                             118   -0.85 8  241 236 
 NOR  HZ I         820 58.46         6.5 0.20            119            241 236 
 CHI  HZ EP        820 28.03                             117   -0.12 8  250 197 
 CHI  HN ES        820 57.60                             117   -0.06 8  250 197 
 CHI  HZ I         821  2.31         7.6 0.52            118            250 197 
 ROSC BZ EP   4    820 29.99                             116    1.16 0  256 213 
 ROSC BN ES   4    821  1.11                             116    2.25 0  256 213 
 ROSC BZ I         821  4.46        19.4 0.40            117            256 213 
 HEL  HZ EP        820 31.96                             114    0.52 7  280 257 
 HEL  HE ES        821  3.99                             114    0.47 7  280 257 
 HEL  HZ I         821  6.08         6.9 0.38            115            280 257 
 URE  HE ES   4    821  1.08                             113   -4.07 0  292 292 
 VIL  EE ES        821  8.46                             112    0.73 7  304 193 
 PTGC HZ IP     D  820 33.02                             112   -0.68 7  304 160 
 PTGC HN ES   4    821  6.91                             112   -0.62 0  304 160 
 PTGC HZ I         821 10.79         7.5 0.24            113            304 160 
 GUY2CHZ EP        820 35.05                             112    0.39 7  308 236 
 GUY2CHE ES        821 10.92                             112    1.68 7  308 236 
 GUY2CHZ I         821 16.16         5.0 0.56                           308 236 
 LL6C HZ EP        820 35.82                             110   -0.42 7  327 356 
 LL6C HE ES   4    821  9.96                             110   -2.10 0  327 356 
 PRA  HZ EP        820 43.76                             106   -0.46 6  395 211 
 PRA  HE ES        821 25.70                             106   -0.56 6  395 211 
 PRA  HZ I         821 34.51         5.3 0.32            107            395 211 
 ORTC HZ EP        820 44.10                             106   -0.63 6  400 217 
 ORTC HN ES        821 27.00                             106   -0.16 6  400 217 
 ORTC HZ I         821 31.19         3.8 0.24            107            400 217 
                                                                                
