 2016  421 0635  0.1 L   6.820 -73.166142.9  RSN 10 0.3 1.7LRSN                1
 GAP=133        0.66       2.0     2.7  4.0 -0.1342E+01  0.3423E+01  0.5569E+00E
 Epicentro: LOS SANTOS - SANTANDER                                             3
 ACTION:UPD 16-05-05 14:23 OP:rebc STATUS:               ID:20160421063500 L   I
 OLDACT:ARG 16-04-21 12:49 OP:cara STATUS:               ID:20160421062749     3
 2016-04-21-0627-49M.COL___297                                                 6
 STAT SP IPHASW D HRMM SECON CODA AMPLIT PERI AZIMU VELO AIN AR TRES W  DIS CAZ7
 BAR2 EZ IP        635 19.38                             169   -0.0310 25.2 184 
 BAR2 EZ ES        635 34.32                             169   -0.1610 25.2 184 
 BAR2 EZ I         635 36.04        16.0 0.36            170           25.2 184 
 PAM  EZ IP     D  635 22.27                             150    0.2910 77.2  42 
 PAM  EN ES        635 39.35                             150    0.2910 77.2  42 
 PAM  EZ I         635 41.52         9.1 0.48            154           77.2  42 
 RUS  HZ EP        635 23.39                             142   -0.3410  103 175 
 RUS  HN ES        635 42.13                             142   -0.0410  103 175 
 RUS  HZ I         635 42.99         3.9 0.18            147            103 175 
 PTB  HZ EP        635 26.61                             132   -0.05 9  146 258 
 PTB  HN ES        635 47.00                             132   -0.39 9  146 258 
 PTB  HZ I         635 53.23         4.1 0.30            132            146 258 
 OCA  HZ EP        635 27.83                             129   -0.11 9  158 354 
 OCA  HN ES        635 49.49                             129   -0.18 9  158 354 
 OCA  HZ I         635 55.76        10.0 0.46            131            158 354 
 SPBC HZ EP        635 28.52                             128    0.12 9  164 218 
 SPBC HN ES        635 51.06                             128    0.58 9  164 218 
 SPBC HZ I         635 55.15        10.6 0.22            130            164 218 
 ZAR  HN ES        635 57.04                             122    0.07 9  201 292 
 ZAR  HZ I         636  4.02         5.2 0.40            123            201 292 
 NOR  HZ EP        635 35.45                             118   -0.14 8  234 234 
 NOR  HE ES        636  3.22                             118   -0.07 8  234 234 
 NOR  HZ I         636  9.24         3.3 0.34            119            234 234 
 CHI  HZ EP        635 37.57                             116   -0.23 8  250 195 
 CHI  HN ES        636  6.93                             116   -0.28 8  250 195 
 CHI  HZ I         636 10.26         3.8 0.62            119            250 195 
 GUY2CHZ EP        635 44.03                             112    0.53 7  301 234 
 GUY2CHE ES        636 17.67                             112    0.30 7  301 234 
 GUY2CHZ I         636 26.74         2.4 0.58                           301 234 
                                                                                
