 2016  621 0212  8.5 L   6.781 -73.110145.6  RSN  6 0.4 1.6LRSN                1
 GAP=262        0.87       4.9     5.5  6.4  0.6476E+00  0.8901E+01  0.2803E+01E
 Epicentro: LOS SANTOS - SANTANDER                                             3
 ACTION:UPD 16-07-21 22:21 OP:rebc STATUS:               ID:20160621021208 L   I
 OLDACT:REG 16-06-21 14:26 OP:ak   STATUS:               ID:20160621020749     3
 2016-06-21-0207-49M.COL___334                                                 6
 STAT SP IPHASW D HRMM SECON CODA AMPLIT PERI AZIMU VELO AIN AR TRES W  DIS CAZ7
 BAR2 EZ EP        212 28.08                             171   -0.0310 22.4 201 
 BAR2 EZ ES        212 43.37                             171   -0.0310 22.4 201 
 BAR2 EZ I         212 45.92         5.8 0.32                          22.4 201 
 BRR  HZ EP        212 29.79                             151   -0.1210 75.6 298 
 BRR  HN ES        212 46.93                             151    0.3410 75.6 298 
 PTB  HZ EP   1    212 35.01                             131   -0.78 7  151 260 
 PTB  HN ES        212 56.33                             131   -0.73 9  151 260 
 PTB  HZ I         213  3.51         5.0 0.46                           151 260 
 SPBC HZ EP        212 37.23                             129    0.14 9  164 220 
 SPBC HN ES        212 59.59                             129    0.21 9  164 220 
 SPBC HZ I         213  1.05         4.9 0.11                           164 220 
 ZAR  HZ EP        212 41.71                             122    0.30 8  208 292 
 ZAR  HN ES        213  7.24                             122    0.18 8  208 292 
 ZAR  HZ I         213 12.66         2.7 0.24                           208 292 
 GUY2CHE ES        213 26.96                             112    0.42 7  303 236 
 GUY2CHZ I         213 35.04         2.4 0.68                           303 236 
                                                                                
