 2014  921 0124 57.3 L   6.788 -73.094142.3  RSN  7 0.4 1.2LRSN                1
 GAP=144        0.79       3.9     3.8  5.8  0.1895E+01  0.2719E+01 -0.2896E+01E
 Epicentro: LOS SANTOS - SANTANDER                                             3
 ACTION:UPD 14-10-03 23:06 OP:nd   STATUS:               ID:20140921012457 L   I
 OLDACT:DUP 14-09-21 14:31 OP:spq  STATUS:               ID:20140921011807d    3
 2014-09-21-0118-06M.COL___290                                                 6
 STAT SP IPHASW D HRMM SECON CODA AMPLIT PERI AZIMU VELO AIN AR TRES W  DIS CAZ7
 BAR2 SZ EP   1    125 17.00                             170    0.51 7 23.7 204 
 BAR2 SZ ES   1    125 31.05                             170   -0.43 7 23.7 204 
 BAR2 SZ I         125 32.75         5.1 0.22            172           23.7 204 
 PAM  SZ EP        125 19.31                             151    0.3410 75.0  36 
 PAM  SN ES   1    125 35.49                             151   -0.41 7 75.0  36 
 PAM  SZ I         125 38.31         2.9 0.54            152           75.0  36 
 BRR  HZ EP        125 18.50                             150    0.1210 76.8 297 
 BRR  HN ES        125 35.28                             150    0.4410 76.8 297 
 BRR  HZ I         125 38.06         2.5 0.24            150           76.8 297 
 RUS  HZ EP        125 20.76                             144    0.2010 99.0 179 
 RUS  HN ES   1    125 38.45                             144   -0.28 7 99.0 179 
 RUS  HZ I         125 39.91         1.3 0.48            147           99.0 179 
 PTB  HZ EP        125 24.06                             130   -0.39 9  153 260 
 PTB  HE ES        125 45.39                             130   -0.25 9  153 260 
 PTB  HZ I         125 46.98         2.0 0.30            132            153 260 
 ZAR  HZ EP   1    125 29.87                             121   -0.22 6  210 292 
 ZAR  HN ES        125 55.96                             121    0.27 8  210 292 
 ZAR  HZ I         125 59.76         2.3 0.10            122            210 292 
 SML  HZ EP   1    125 33.65                             116   -0.45 6  247 334 
 SML  HN ES   1    126  2.35                             116   -0.47 6  247 334 
 SML  HZ I         126  5.08         2.1 0.08            118            247 334 
                                                                                
