 2015 1021 0741 47.1 L   6.793 -73.095131.4  RSN  9 0.5 1.6LRSN                1
 GAP=188        1.08       3.7     6.5  9.2 -0.5587E+01  0.3522E+02 -0.1074E+02E
 Epicentro: LOS SANTOS - SANTANDER                                             3
 ACTION:UPD 15-12-22 20:41 OP:cam  STATUS:               ID:20151021074147 L   I
 OLDACT:DUP 15-10-21 17:51 OP:mh   STATUS:               ID:20151021073750d    3
 OLDACT:UP  15-10-21 17:50 OP:mh   STATUS:               ID:20151021073749     3
 OLDACT:UP  15-10-21 17:45 OP:mh   STATUS:               ID:20151021073749     3
 OLDACT:REG 15-10-21 12:24 OP:mh   STATUS:               ID:20151021073749     3
 2015-10-21-0737-49M.COL___322                                                 6
 STAT SP IPHASW D HRMM SECON CODA AMPLIT PERI AZIMU VELO AIN AR TRES W  DIS CAZ7
 BAR2 EZ EP        742  5.14                             169    0.1610 24.2 204 
 BAR2 EZ ES        742 19.37                             169    0.4110 24.2 204 
 BAR2 EZ I         742 21.39         5.6 0.16            168           24.2 204 
 RUS  HN ES        742 26.69                             141   -0.0310 99.6 179 
 RUS  HZ I         742 28.72                             146           99.6 179 
 OCA  HZ EP   1    742 14.60                             126    0.16 7  162 351 
 OCA  HN ES   1    742 35.87                             126    0.07 7  162 351 
 SPBC HZ EP   1    742 14.00                             125   -0.79 7  166 221 
 SPBC HN ES        742 35.64                             125   -0.79 9  166 221 
 SPBC HZ I         742 37.99         6.3 0.22            127            166 221 
 ZAR  HZ EP        742 19.73                             118    0.53 8  210 292 
 ZAR  HE ES        742 44.13                             118   -0.14 8  210 292 
 ZAR  HZ I         742 49.81         4.7 0.18            119            210 292 
 NOR  HN ES        742 49.63                             115   -0.43 8  239 235 
 NOR  HZ I         742 53.98         3.2 0.26            117            239 235 
 SML  HZ EP   4    742 22.15                             114   -1.11 0  247 334 
 SML  HE ES        742 50.69                             114   -0.81 8  247 334 
 SML  HZ I         742 59.08         4.0 0.30            116            247 334 
 HEL  HZ EP   1    742 27.83                             111    0.65 6  277 256 
 HEL  HN ES        742 59.04                             111    0.57 7  277 256 
 HEL  HZ I         743  4.90         1.9 0.34            113            277 256 
 GUY2CHZ EP   1    742 30.44                             109   -0.08 5  305 236 
 GUY2CHN ES        743  5.16                             109    0.74 7  305 236 
 GUY2CHZ I         743 11.37         1.6 0.42                           305 236 
                                                                                
