 2012  221 0644 10.8 L   6.782 -73.165136.6  RSN 14 0.4 2.4LRSN                1
 GAP=135        0.64       2.5     3.9  4.3 -0.2665E+01  0.5965E+01  0.2215E+01E
 ACTION:UP  12-03-07 16:32 OP:epov STATUS:               ID:20120221064410 L   I
 2012-02-21-0640-00M.COL___191                                                 6
 STAT SP IPHASW D HRMM SECON CODA AMPLIT PERI AZIMU VELO AIN AR TRES W  DIS CAZ7
 BAR2 SZ EP        644 29.32                             171   -0.0110 21.1 185 
 BAR2 SZ ES   1    644 43.79                             171    0.05 7 21.1 185 
 BAR2 SZ I         644 45.40       120.1 0.27                          21.1 185 
 GIR2 SZ EP   1    644 29.33                             166   -0.15 7 33.0 354 
 GIR2 SZ ES   1    644 43.97                             166   -0.04 7 33.0 354 
 BRR  HZ IP     D  644 31.10                             151    0.1410 70.3 301 
 BRR  HZ I         644 48.78        96.9 0.11                          70.3 301 
 PAM  SZ EP   1    644 32.21                             148   -0.07 7 80.3  40 
 PAM  SN ES   1    644 49.21                             148    0.22 7 80.3  40 
 PAM  SZ I         644 51.36        39.2 0.55                          80.3  40 
 RUS  HZ EP   1    644 33.35                             142   -0.22 7 98.8 175 
 RUS  HN ES   1    644 51.29                             142    0.00 7 98.8 175 
 RUS  HZ I         644 53.85        29.2 0.30                          98.8 175 
 PTB  HZ EP   1    644 36.10                             130   -0.75 7  145 259 
 PTB  HN ES   1    644 56.88                             130   -0.26 7  145 259 
 OCA  SZ EP   1    644 38.30                             127   -0.33 7  162 354 
 OCA  SZ ES   1    645  0.60                             127    0.30 7  162 354 
 NOR  SZ EP   1    644 45.32                             117   -0.43 6  232 235 
 NOR  SN ES   1    645 13.17                             117    0.20 6  232 235 
 CHI  HZ EP   1    644 47.62                             115   -0.16 6  246 195 
 CHI  HN ES   1    645 16.56                             115   -0.03 6  246 195 
 CHI  HZ I         645 28.08        11.9 0.49                           246 195 
 ROSC BZ EP   1    644 49.18                             115    1.01 6  250 211 
 HEL  HZ EP   1    644 51.02                             113    0.70 6  270 256 
 HEL  HZ I         645 27.71        21.9 0.40                           270 256 
 VIL  SZ EP   1    644 53.33                             110   -0.26 5  301 191 
 VIL  SZ I         645 31.40         8.9 0.66                           301 191 
 RREF HZ EP   1    644 56.72                             109    0.45 5  319 229 
 RREF HZ I         645 37.25        12.8 0.30                           319 229 
 PRA  HZ EP   1    645  3.50                             105   -0.24 4  389 209 
 PRA  HE ES   1    645 45.32                             105    0.33 4  389 209 
                                                                                
