 2014  921 0619 34.1 L   6.644 -73.525113.4  RSN  4 0.3 0.9LRSN                1
 GAP=120        0.71       5.0     3.9  7.0  0.6537E+01  0.5202E+01  0.9989E+01E
 Epicentro: EL CARMEN - SANTANDER                                              3
 ACTION:UPD 14-10-03 23:07 OP:nd   STATUS:               ID:20140921061934 L   I
 OLDACT:REG 14-09-21 13:17 OP:spq  STATUS:               ID:20140921061816     3
 2014-09-21-0618-16M.COL___287                                                 6
 STAT SP IPHASW D HRMM SECON CODA AMPLIT PERI AZIMU VELO AIN AR TRES W  DIS CAZ7
 BAR2 SZ EP        619 50.36                             160   -0.0610 38.3  98 
 BAR2 SZ ES   1    620  2.60                             160   -0.50 7 38.3  98 
 BAR2 SZ I         620  4.43         2.3 0.38            161           38.3  98 
 BRR  HZ EP        619 50.88                             152   -0.0210 55.3 338 
 BRR  HE ES        620  4.24                             152    0.2710 55.3 338 
 BRR  HZ I         620  5.16         3.8 0.12            155           55.3 338 
 RUS  HZ EP   1    619 54.21                             137   -0.32 7 96.4 149 
 RUS  HE ES   1    620 10.95                             137    0.53 7 96.4 149 
 RUS  HZ I         620 12.13         1.1 0.52            139           96.4 149 
 PTB  HZ EP        619 54.71                             134    0.2210  104 264 
 PTB  HN ES        620 10.12                             134   -0.2410  104 264 
 PTB  HZ I         620 11.52         1.0 0.11            137            104 264 
                                                                                
