 2012  321 0611 49.2 L   6.770 -73.127150.0  RSN  7 0.4 2.0LRSN                1
 GAP=140        0.76       5.9     5.3  8.1  0.1327E+01  0.2897E+01  0.1073E+02E
 ACTION:UP  12-03-31 23:21 OP:EP   STATUS:               ID:20120321061149 L   I
 2012-03-21-0610-00M.COL___202                                                 6
 STAT SP IPHASW D HRMM SECON CODA AMPLIT PERI AZIMU VELO SNR AR TRES W  DIS CAZ7
 BAR2 SZ EP        612  9.14                             172    -0.110   21 197 
 BAR2 SZ ES   2    612 24.54                             172    -0.4 5   21 197 
 BAR2 SZ I         612 26.29        19.8 0.50                            21 197 
 BRR  HZ EP        612 11.04                             152     0.010   75 300 
 BRR  HZ I         612 11.35        24.8 0.17                            75 300 
 BRR  HE ES   1    612 28.60                             152     0.6 7   75 300 
 PAM  SZ EP   1    612 11.82                             151    -0.1 7   79  37 
 PAM  SN ES   2    612 29.60                             151    -0.1 5   79  37 
 RUS  HZ EP        612 13.49                             146     0.410   97 177 
 RUS  HE ES   2    612 31.37                             146    -0.4 5   97 177 
 RUS  HZ I         612 33.56        10.2 0.67                            97 177 
 PTB  HZ EP   1    612 16.18                             133    -0.5 7  149 260 
 PTB  HN ES   2    612 37.45                             133    -0.6 5  149 260 
 PTB  HZ I         612 39.19         8.4 0.12                           149 260 
 ZAR  HN ES   2    612 47.77                             123    -0.3 4  207 293 
 ZAR  HZ I         612 54.27        16.2 0.26                           207 293 
 NOR  SZ EP   2    612 25.13                             119     0.0 4  234 235 
 NOR  SE ES   2    612 53.80                             119     0.6 4  234 235 
                                                                                
