 2015  821 0632  7.1 L   6.741 -73.134153.8  RSN  5 0.5 1.2LRSN                1
 GAP=201        1.21       5.6    12.2 10.3  0.1499E+02  0.2982E+02 -0.6443E+01E
 Epicentro: LOS SANTOS - SANTANDER                                             3
 ACTION:UPD 15-09-15 23:03 OP:cam  STATUS:               ID:20150821063207 L   I
 OLDACT:UP  15-08-21 16:00 OP:drio STATUS:               ID:20150821062746     3
 OLDACT:UP  15-08-21 15:59 OP:drio STATUS:               ID:20150821062746     3
 OLDACT:REG 15-08-21 13:27 OP:spq  STATUS:               ID:20150821062746     3
 2015-08-21-0627-46M.COL___337                                                 6
 STAT SP IPHASW D HRMM SECON CODA AMPLIT PERI AZIMU VELO AIN AR TRES W  DIS CAZ7
 BAR2 EZ EP        632 27.24                             173   -0.3910 17.3 198 
 BAR2 EZ ES        632 43.88                             173    0.2610 17.3 198 
 BRR  HZ EP        632 29.75                             152    0.3410 75.6 302 
 BRR  HN ES        632 47.21                             152    0.4410 75.6 302 
 BRR  HZ I         632 53.07         2.9 0.26            148           75.6 302 
 RUS  HN ES        632 49.76                             147   -0.2810 94.0 177 
 RUS  HZ I         632 53.78         1.5 0.38            147           94.0 177 
 SPBC HZ EP        632 36.60                             132    0.72 9  159 221 
 SPBC HE ES        632 57.67                             132   -0.63 9  159 221 
 SPBC HZ I         633  5.78         3.5 0.26            130            159 221 
 SML  HN ES        633 13.66                             118   -0.73 8  250 336 
                                                                                
