 2011  921 0211  2.7 L   6.809 -73.095141.0  RSN  5 0.4 1.5LRSN                1
 GAP=143        0.63       4.4     4.8  6.1  0.3742E+01  0.2305E+01 -0.1854E+01E
 Epicentro: LOS SANTOS - SANTANDER                                             3
 ACTION:UPD 12-07-13 15:58 OP:ep   STATUS:               ID:20110921021102 L   I
 2011-09-21-0206-39S.COL___165                                                 6
 STAT SP IPHASW D HRMM SECON CODA AMPLIT PERI AZIMU VELO AIN AR TRES W  DIS CAZ7
 BAR2 SZ EP   1    211 21.40                             169   -0.39 7 25.8 202 
 BAR2 SZ ES   1    211 36.41                             169   -0.29 7 25.8 202 
 BAR2 SZ I         211 39.47         6.6 0.35                          25.8 202 
 PAM  SZ EP   1    211 24.16                             151    0.02 7 73.2  37 
 PAM  SZ I         211 24.84         5.0 0.15                          73.2  37 
 PAM  SE ES   1    211 41.01                             151    0.14 7 73.2  37 
 BRR  HZ EP        211 23.51                             150   -0.0710 75.7 296 
 BRR  HE ES        211 40.10                             150    0.2210 75.7 296 
 BRR  HZ I         211 44.10         8.1 0.16                          75.7 296 
 RUS  HZ EP   2    211 25.86                             143   -0.17 5  101 179 
 RUS  HE ES   1    211 44.52                             143    0.29 7  101 179 
 RUS  HZ I         211 46.03         3.6 0.40                           101 179 
 ZAR  HZ EP   2    211 36.24                             121    0.92 4  209 291 
 ZAR  HN ES   2    212  0.04                             121   -0.74 4  209 291 
                                                                                
