 2012  121 0646 42.4 L   6.790 -73.409120.7  RSN  4 0.2 1.4LRSN                1
 GAP=175        0.62       5.3     4.6  6.3  0.1073E+02  0.6774E+01  0.5288E+01E
 Epicentro: SAN VICENTE DE CHUCURI - SANTANDER                                 3
 ACTION:UP  12-02-03 08:19 OP:REBC STATUS:               ID:20120121064642 L   I
 2012-01-21-0640-00M.COL___186                                                 6
 STAT SP IPHASW D HRMM SECON CODA AMPLIT PERI AZIMU VELO SNR AR TRES W  DIS CAZ7
 BAR2 SZ EP        646 59.30                             164     0.010   33 131 
 BAR2 SZ I         646 59.50         9.0 0.09                            33 131 
 BAR2 SZ ES   1    647 12.09                             164    -0.4 7   33 131 
 BRR  HZ EP        646 59.61                             157     0.010   48 316 
 BRR  HE ES   1    647 13.42                             157     0.4 7   48 316 
 BRR  HZ I         647 14.62         6.4 0.10                            48 316 
 RUS  HZ EP   1    647  4.53                             136     0.3 7  106 160 
 RUS  HN ES   1    647 21.40                             136     0.2 7  106 160 
 PTB  HZ EP        647  4.55                             132    -0.210  119 257 
 PTB  HE ES   1    647 22.18                             132     0.0 7  119 257 
                                                                                
