 2011  521 0738 11.3 L   6.788 -73.143146.2  RSN 17 0.3 2.9LRSN                1
 GAP=137        0.70       2.6     4.1  4.5 -0.4505E+01  0.5916E+01  0.1159E+01E
 Epicentro: LOS SANTOS - SANTANDER                                             3
 ACTION:UP  11-06-29 08:55 OP:tino STATUS:               ID:20110521073811 L   I
 2011-05-21-0736-37S.COL___141                                                 6
 STAT SP IPHASW D HRMM SECON CODA AMPLIT PERI AZIMU VELO SNR AR TRES W  DIS CAZ7
 BTL  SZ EP        738 31.14                             172     0.310   20 316 
 BAR2 SZ IP        738 30.91                             171     0.010   22 191 
 BAR2 SZ ES   1    738 46.22                             171     0.0 7   22 191 
 BAR2 SZ I         738 47.64       220.0 0.24                            22 191 
 GIR2 SZ EP        738 31.02                             167     0.010   33 350 
 BRR  HZ IP     D  738 32.78                             152     0.310   72 299 
 BRR  HN ES   1    738 49.49                             152     0.4 7   72 299 
 BRR  HZ I         738 51.88       164.5 0.10                            72 299 
 PAM  SE ES   1    738 50.79                             151    -0.2 7   78  39 
 RUS  HZ EP        738 34.86                             144    -0.110   99 176 
 RUS  HZ I         738 35.72        54.1 0.16                            99 176 
 RUS  HN ES   1    738 53.27                             144    -0.2 7   99 176 
 BRI  SZ EP   1    738 35.39                             141     0.1 7  110  20 
 GRA  SZ IP        738 36.74                             137     0.110  127  17 
 GRA  SZ ES   1    738 56.21                             137    -0.2 7  127  17 
 GRA  SZ I         738 59.55        78.0 0.39                           127  17 
 OCA  SZ EP        738 39.34                             129    -0.4 9  162 353 
 OCA  SZ ES   2    739  1.28                             129    -0.7 5  162 353 
 OCA  SZ I         739  4.92        73.7 0.22                           162 353 
 NOR  SZ EP   1    738 46.95                             118     0.0 6  234 235 
 NOR  SE ES   1    739 14.56                             118    -0.2 6  234 235 
 ROSC BZ EP   1    738 50.58                             117     1.3 6  252 211 
 ROSC BZ I         739 24.91        95.5 0.55                           252 211 
 HEL  HZ EP   1    738 51.40                             115    -0.1 6  272 256 
 HEL  HE ES   2    739 22.68                             115    -0.2 4  272 256 
 HEL  HZ I         739 30.02        47.9 0.46                           272 256 
 VIL  SZ EP   1    738 54.48                             112    -0.1 5  302 192 
 VIL  SE ES   1    739 28.26                             112    -0.1 5  302 192 
 VIL  SZ I         739 33.85        31.9 0.91                           302 192 
 GUY  SZ EP   1    738 55.31                             112     0.2 5  303 235 
 GUY  SE ES   1    739 28.98                             112    -0.3 5  303 235 
 GUY  SZ I         739 38.66        84.7 0.36                           303 235 
 DBB  SZ EP   1    738 58.76                             109     0.0 5  340 274 
 TOL  SZ EP   1    738 59.19                             109    -0.3 5  343 225 
 PRA  HZ EP   1    739  4.20                             107    -0.5 4  391 210 
 PRA  HN ES   1    739 46.04                             107    -0.3 4  391 210 
                                                                                
