 2013  921 0715 49.0 L   6.765 -73.125140.6  RSN  4 0.4 1.0LRSN                1
 GAP=237        0.84       6.3     9.7  9.3  0.1766E+02 -0.1170E+02 -0.2175E+01E
 Epicentro: LOS SANTOS - SANTANDER                                             3
 ACTION:UPD 13-10-22 09:24 OP:ep   STATUS:               ID:20130921071549 L   I
 OLDACT:REG 13-09-21 08:21 OP:jn   STATUS:               ID:20130921070960d    3
 2013-09-21-0709-59M.COL___269                                                 6
 STAT SP IPHASW D HRMM SECON CODA AMPLIT PERI AZIMU VELO AIN AR TRES W  DIS CAZ7
 BAR2 SZ EP        716  7.91                             171   -0.0110 20.1 198 
 BAR2 SZ ES   1    716 22.00                             171   -0.69 7 20.1 198 
 BAR2 SZ I         716 26.26         2.1 0.30            174           20.1 198 
 BRR  HZ EP        716  9.82                             150    0.0310 75.1 300 
 BRR  HN ES   1    716 26.42                             150    0.39 7 75.1 300 
 BRR  HZ I         716 29.88         2.7 0.59            154           75.1 300 
 RUS  HZ EP        716 11.82                             144   -0.1110 96.6 177 
 RUS  HN ES   1    716 30.54                             144    0.71 7 96.6 177 
 RUS  HZ I         716 32.24         1.2 0.42            149           96.6 177 
 SPBC HN ES   1    716 38.44                             128   -0.30 7  162 220 
                                                                                
