 2011 1221 0533  4.5 L   6.718 -73.155157.5  RSN  5 0.1 1.5LRSN                1
 GAP=181        0.38       4.3     6.4  4.5  0.1864E+02 -0.5329E+01 -0.1781E+01E
 Epicentro: VILLANUEVA - SANTANDER                                             3
 ACTION:UPD 12-07-13 16:17 OP:ep   STATUS:               ID:20111221053304 L   I
 2011-12-21-0530-00M.COL___189                                                 6
 STAT SP IPHASW D HRMM SECON CODA AMPLIT PERI AZIMU VELO AIN AR TRES W  DIS CAZ7
 BAR2 SZ EP   1    533 25.17                             175   -0.27 7 14.2 192 
 GIR2 SZ EP   1    533 25.93                             165    0.07 7 40.1 354 
 BRR  HZ EP        533 27.18                             153    0.0010 75.1 305 
 BRR  HN ES        533 44.87                             153    0.0410 75.1 305 
 BRR  HZ I         533 47.55         6.8 0.17                          75.1 305 
 RUS  HZ EP   1    533 29.09                             149    0.22 7 91.6 175 
 RUS  HN ES   1    533 47.81                             149   -0.04 7 91.6 175 
 RUS  HZ I         533 49.72         3.3 0.37                          91.6 175 
 PTB  HZ EP   1    533 32.21                             135   -0.06 7  145 262 
                                                                                
