 2012  321 0806 14.2 L   6.505 -73.493133.5  RSN  4 0.3 1.1LRSN                1
 GAP=126        0.56       7.8     7.1 11.2  0.2624E+02 -0.5978E+00  0.3472E+01E
 ACTION:UP  12-03-31 23:21 OP:EP   STATUS:               ID:20120321080614 L   I
 2012-03-21-0800-00M.COL___202                                                 6
 STAT SP IPHASW D HRMM SECON CODA AMPLIT PERI AZIMU VELO SNR AR TRES W  DIS CAZ7
 BAR2 SZ EP   2    8 6 32.91                             164     0.2 5   36  74 
 BAR2 SZ I         8 6 33.68         4.4 0.37                            36  74 
 BRR  HZ EP   2    8 6 34.48                             150     0.5 5   71 340 
 BRR  HE ES   2    8 6 49.10                             150    -0.4 5   71 340 
 BRR  HZ I         8 6 50.57         3.0 0.17                            71 340 
 RUS  HZ EP   2    8 6 34.93                             147    -0.5 5   82 146 
 RUS  HE ES   2    8 6 52.11                             147     0.2 5   82 146 
 RUS  HZ I         8 6 53.01         1.3 0.32                            82 146 
 PTB  HZ EP   2    8 6 36.35                             139    -0.2 5  107 272 
 PTB  HN ES   2    8 6 54.17                             139     0.2 5  107 272 
                                                                                
