 2010  221 0729 37.8 L   6.846 -72.940136.2  RSN  5 0.2 1.7LRSN                1
 GAP=204        0.61       3.9     8.1  6.9  0.6354E+01  0.3356E+01 -0.4550E+01E
 Epicentro: CEPITA - SANTANDER                                                 3
 ACTION:UP  10-08-24 09:50 OP:vdl  STATUS:               ID:20100221072937 L   I
 2010-02-21-0728-27S.COL___094                                                 6
 STAT SP IPHASW D HRMM SECON CODA AMPLIT PERI AZIMU VELO SNR AR TRES W  DIS CAZ7
 BAR2 SZ EP        729 57.01                             163     0.210   39 224 
 BAR2 SZ ES   2    730 11.65                             163     0.1 5   39 224 
 BRR  HZ EP        729 58.86                             144    -0.410   90 289 
 BRR  HN ES   2    730 15.79                             144    -0.1 5   90 289 
 BRR  HZ I         730 19.81        15.9 0.10                            90 289 
 RUS  BZ EP        730  0.92                             140    -0.210  107 189 
 RUS  BN ES   2    730 19.45                             140     0.2 5  107 189 
 RUS  BZ I         730 21.02         2.6 0.31                           107 189 
 OCA  SZ EP        730  5.51                             127     0.1 9  160 345 
 OCA  SZ ES   2    730 26.93                             127     0.1 5  160 345 
 OCA  SZ I         730 31.26        10.5 0.19                           160 345 
 HEL  HZ EP        730 20.51                             111     0.3 7  295 256 
 HEL  HZ I         730 56.12         2.0 0.51                           295 256 
                                                                                
