 2011  521 0054 48.3 L   6.804 -73.133135.4  RSN 16 0.4 2.5LRSN                1
 GAP=138        0.78       3.1     4.3  4.7 -0.6668E+01  0.6389E+01  0.1089E+01E
 Epicentro: LOS SANTOS - SANTANDER                                             3
 ACTION:UP  11-06-29 08:55 OP:tino STATUS:               ID:20110521005448 L   I
 2011-05-21-0050-20S.COL___141                                                 6
 STAT SP IPHASW D HRMM SECON CODA AMPLIT PERI AZIMU VELO SNR AR TRES W  DIS CAZ7
 BTL  SZ EP        055  7.03                             171     0.410   20 310 
 BAR2 SZ EP   1    055  6.63                             169    -0.1 7   24 193 
 BAR2 SZ ES   1    055 20.90                             169    -0.2 7   24 193 
 BAR2 SZ I         055 24.14       101.1 0.22                            24 193 
 GIR2 SZ EP   1    055  7.00                             166     0.2 7   31 348 
 GIR2 SZ ES   1    055 21.32                             166     0.2 7   31 348 
 BRR  HZ IP     C  055  8.74                             150     0.310   72 298 
 BRR  HE ES   1    055 24.57                             150     0.5 7   72 298 
 BRR  HZ I         055 27.78        82.5 0.04                            72 298 
 PAM  SZ EP        055  9.67                             149     0.310   76  39 
 PAM  SE ES   1    055 25.63                             149    -0.1 7   76  39 
 RUS  HZ EP   1    055 10.93                             141    -0.2 7  101 177 
 RUS  HE ES   1    055 28.78                             141    -0.1 7  101 177 
 RUS  HZ I         055 31.05        63.2 0.31                           101 177 
 BRI  SZ EP   1    055 11.37                             139     0.2 7  108  20 
 BRI  SZ ES   2    055 28.31                             139    -0.7 5  108  20 
 GRA  SZ EP        055 12.66                             135     0.110  125  17 
 GRA  SZ ES   1    055 30.62                             135    -0.9 7  125  17 
 GRA  SZ I         055 33.47        44.9 0.32                           125  17 
 OCA  SZ EP   1    055 15.78                             127     0.0 7  160 353 
 OCA  SZ ES   1    055 36.72                             127    -0.5 7  160 353 
 OCA  SZ I         055 43.63        26.0 0.14                           160 353 
 NOR  SZ EP   1    055 22.94                             116    -0.7 6  236 235 
 NOR  SN ES   1    055 50.75                             116    -0.4 6  236 235 
 HEL  HZ EP   1    055 28.82                             112     0.6 6  274 256 
 HEL  HN ES   1    055 59.05                             112    -0.2 6  274 256 
 HEL  HZ I         056  6.04        19.0 0.51                           274 256 
 GUY  SZ EP   1    055 31.65                             110    -0.2 5  305 235 
 GUY  SN ES   2    056  5.54                             110    -0.3 4  305 235 
 GUY  SZ I         056 16.10        20.1 0.37                           305 235 
 RREF HZ EP   1    055 34.22                             109     0.0 5  323 229 
 RREF HN ES   1    056  9.87                             109    -0.1 5  323 229 
 RREF HZ I         056 18.39        13.5 0.13                           323 229 
 DBB  SZ EP   1    055 35.65                             107     0.1 5  341 274 
 TOL  SZ EP   1    055 36.64                             107     0.3 5  345 225 
 PRA  HZ EP   1    055 41.02                             105    -0.6 4  393 210 
 PRA  HN ES   1    056 23.03                             105    -0.2 4  393 210 
                                                                                
