 2010  821 0850 40.9 L   6.835 -73.088152.0  RSN  4 0.1 1.2LRSN                1
 GAP=245        0.32       9.2     9.5  4.7  0.6932E+02 -0.2149E+02 -0.8149E+01E
 Epicentro: LOS SANTOS - SANTANDER                                             3
 ACTION:UP  10-09-07 10:57 OP:vdl  STATUS:               ID:20100821085040 L   I
 2010-08-21-0845-56S.COL___120                                                 6
 STAT SP IPHASW D HRMM SECON CODA AMPLIT PERI AZIMU VELO SNR AR TRES W  DIS CAZ7
 BTL  SZ EP        851  1.28                             171     0.110   22 295 
 BTL  SZ ES   2    851 17.09                             171     0.0 5   22 295 
 BAR2 SZ EP   1    851  1.25                             169    -0.1 7   29 201 
 BAR2 SZ I         851 10.14         4.3 0.64                            29 201 
 BAR2 SZ ES   2    851 17.28                             169    -0.1 5   29 201 
 BRR  HZ EP   1    851  2.83                             152    -0.1 7   75 294 
 BRR  HN ES        851 20.13                             152     0.010   75 294 
 BRR  HZ I         851 22.87         3.5 0.15                            75 294 
 RUS  HZ EP   2    851  5.61                             144     0.1 5  104 180 
 RUS  HZ I         851 25.58         1.6 0.33                           104 180 
                                                                                
