 2012  621 0726 56.8 L   6.780 -73.174146.0  RSN 10 0.5 2.6LRSN                1
 GAP=134        0.96       4.3     5.7  6.7 -0.3629E+01  0.8552E+01  0.1539E+01E
 Epicentro: LOS SANTOS - SANTANDER                                             3
 ACTION:UPD 12-08-06 17:51 OP:ep   STATUS:               ID:20120621072656 L   I
 2012-06-21-0720-00M.COL___199                                                 6
 STAT SP IPHASW D HRMM SECON CODA AMPLIT PERI AZIMU VELO AIN AR TRES W  DIS CAZ7
 BAR2 SZ IP        727 16.49                             172    0.0510 20.8 183 
 BAR2 SZ I         727 16.60        78.1 0.20                          20.8 183 
 BAR2 SZ ES   1    727 31.93                             172    0.19 7 20.8 183 
 BRR  HZ IP     C  727 18.50                             153    0.5910 69.6 301 
 BRR  HZ I         727 18.90       197.1 0.12                          69.6 301 
 BRR  HN ES   1    727 35.26                             153    0.90 7 69.6 301 
 PAM  SZ EP        727 19.50                             150    0.2110 81.1  40 
 PAM  SN ES   1    727 36.48                             150   -0.33 7 81.1  40 
 RUS  HZ IP     C  727 20.28                             144   -0.1910 98.7 174 
 RUS  HE ES   1    727 38.75                             144   -0.16 7 98.7 174 
 RUS  HZ I         727 39.80        35.6 0.54                          98.7 174 
 PTB  HZ EP        727 22.99                             133   -0.51 9  144 259 
 PTB  HN ES   1    727 43.46                             133   -0.85 7  144 259 
 PTB  HZ I         727 50.16        44.5 0.12                           144 259 
 OCA  HZ EP        727 25.15                             129   -0.18 9  162 354 
 OCA  HE ES   1    727 46.90                             129   -0.66 7  162 354 
 OCA  HZ I         727 52.48        63.9 0.32                           162 354 
 ZAR  HZ EP   2    727 29.39                             123    0.31 4  202 293 
 ZAR  HZ I         728  0.39        74.3 0.34                           202 293 
 NOR  SZ EP        727 32.50                             119    0.33 8  231 234 
 CHI  HZ EP   1    727 34.13                             118   -0.10 6  246 195 
 CHI  HZ I         728 10.34         9.0 0.24                           246 195 
 HEL  HZ EP   2    727 37.33                             115    0.67 4  269 256 
 HEL  HZ I         728 15.52        19.8 0.32                           269 256 
                                                                                
