 2013  221 0145 27.1 L   6.783 -73.164145.7  RSN  7 0.4 1.7LRSN                1
 GAP=135        0.77       3.5     5.0  6.5  0.1145E+01  0.4301E+01 -0.2342E+01E
 Epicentro: LOS SANTOS - SANTANDER                                             3
 ACTION:UPD 13-03-12 09:34 OP:ep   STATUS:               ID:20130221014527 L   I
 2013-02-21-0140-00M.COL___238                                                 6
 STAT SP IPHASW D HRMM SECON CODA AMPLIT PERI AZIMU VELO AIN AR TRES W  DIS CAZ7
 BAR2 SZ EP        145 46.73                             171    0.0710 21.2 186 
 BAR2 SZ ES   1    146  1.39                             171   -0.54 7 21.2 186 
 BAR2 SZ I         146  3.43        25.4 0.18            175           21.2 186 
 BRR  HZ EP   1    145 48.53                             153    0.35 7 70.4 301 
 BRR  HN ES   1    146  5.52                             153    0.89 7 70.4 301 
 BRR  HZ I         146  8.96        10.4 0.42            151           70.4 301 
 PAM  SZ EP   1    145 49.86                             150    0.41 7 80.1  40 
 PAM  SN ES   1    146  6.79                             150   -0.11 7 80.1  40 
 PAM  SZ I         146  7.55         4.4 0.20            151           80.1  40 
 RUS  HZ EP        145 50.76                             144    0.0610 98.9 175 
 RUS  HN ES   1    146  8.98                             144   -0.15 7 98.9 175 
 RUS  HZ I         146 10.46         4.9 0.24            150           98.9 175 
 PTB  HZ EP   1    145 53.50                             132   -0.33 7  145 259 
 PTB  HN ES   1    146 14.50                             132   -0.20 7  145 259 
 PTB  HZ I         146 16.60         6.2 0.16            134            145 259 
 OCA  HN ES   1    146 17.45                             129   -0.29 7  162 354 
 OCA  HZ I         146 25.73         5.3 0.60            130            162 354 
 SML  HZ EP   1    146  3.67                             117   -0.13 6  245 336 
 SML  HE ES   1    146 31.97                             117   -0.47 6  245 336 
 SML  HZ I         146 35.89         6.7 0.12            118            245 336 
                                                                                
