 2016 1221 0232 20.8 L   6.822 -73.121151.3  RSN  9 0.6 1.7LRSN                1
 GAP=139        1.27       5.4     5.6  8.2  0.2498E+01  0.6503E+01  0.8010E+01E
 Epicentro: LOS SANTOS - SANTANDER                                             3
 ACTION:UPD 17-01-11 20:17 OP:rebc STATUS:               ID:20161221023220 L   I
 OLDACT:UP  16-12-21 14:58 OP:cog  STATUS:               ID:20161221022740     3
 OLDACT:REG 16-12-21 13:01 OP:cog  STATUS:               ID:20161221022740     3
 2016-12-21-0228-00M.COL___381                                                 6
 STAT SP IPHASW D HRMM SECON CODA AMPLIT PERI AZIMU VELO AIN AR TRES W  DIS CAZ7
 BAR2 EZ EP        232 41.40                             170    0.2810 26.3 195 
 BAR2 EZ ES        232 57.33                             170    0.3410 26.3 195 
 BAR2 EZ I         232 57.79        16.7 0.20            167           26.3 195 
 BRR  HZ EP        232 42.49                             153   -0.1010 72.6 296 
 BRR  HN ES        233  0.19                             153    0.5810 72.6 296 
 BRR  HZ I         233  3.81         9.4 0.32            153           72.6 296 
 PAM  EZ EP        232 42.77                             153   -0.5910 73.7  39 
 RUS  HZ EP        232 45.26                             144    0.0410  103 178 
 RUS  HE ES        233  4.27                             144   -0.0310  103 178 
 RUS  HZ I         233  5.92         3.0 0.28            144            103 178 
 PTB  HZ EP        232 48.00                             133   -0.47 9  151 258 
 PTB  HN ES        233  9.39                             133   -0.70 9  151 258 
 PTB  HZ I         233 12.26         7.7 0.12            133            151 258 
 ZAR  HZ EP   3    232 55.62                             123    1.87 2  206 291 
 ZAR  HN ES        233 19.33                             123   -0.14 8  206 291 
 NOR  HZ EP        232 57.69                             119    0.48 8  238 234 
 NOR  HE ES        233 24.91                             119   -0.73 8  238 234 
 NOR  HZ I         233 30.59         6.1 0.28            120            238 234 
 CHI  HZ EP        232 59.58                             118    0.47 8  252 196 
 CHI  HN ES        233 28.46                             118   -0.55 8  252 196 
 CHI  HZ I         233 35.79         2.0 0.28            119            252 196 
 ROSC BZ EP   4    232 57.05                             117   -2.52 0  256 211 
 GUY2CHZ EP   4    233  6.80                             113    1.75 0  305 235 
 GUY2CHE ES        233 41.01                             113    1.43 7  305 235 
                                                                                
