 2010  621 0634 31.2 L   6.785 -73.044138.2  RSN  8 0.4 1.8LRSN                1
 GAP=170        0.72       4.3     7.5  7.6 -0.1024E+02  0.7846E+01 -0.2446E+00E
 Epicentro: LOS SANTOS - SANTANDER                                             3
 ACTION:UP  10-08-24 10:12 OP:vdl  STATUS:               ID:20100621063431 L   I
 2010-06-21-0630-40S.COL___118                                                 6
 STAT SP IPHASW D HRMM SECON CODA AMPLIT PERI AZIMU VELO SNR AR TRES W  DIS CAZ7
 BAR2 SZ EP        634 49.98                             168     0.010   26 216 
 BAR2 SZ ES   2    635  4.25                             168    -0.4 5   26 216 
 BRR  HZ EP        634 51.88                             147    -0.310   82 296 
 BRR  HN ES   2    635  9.35                             147     0.8 5   82 296 
 BRR  HZ I         635 11.82         8.3 0.22                            82 296 
 RUS  HZ EP        634 54.01                             143    -0.110   99 183 
 RUS  HN ES   2    635 12.15                             143     0.2 5   99 183 
 RUS  HZ I         635 14.06         7.0 0.53                            99 183 
 GRA  SZ EP        634 55.76                             135     0.110  125  12 
 GRA  SZ ES   2    635 14.74                             135     0.0 5  125  12 
 OCA  SZ EP   2    634 59.11                             127    -0.2 5  164 349 
 OCA  SZ I         635 24.36         9.3 0.22                           164 349 
 ROSC BN ES   3    635 37.76                             114    -1.5 2  257 213 
 ROSC BZ I         635 43.14         6.5 0.59                           257 213 
 HEL  HZ EP   3    635 11.84                             112    -0.4 2  283 257 
 HEL  HZ I         635 48.77         3.4 0.36                           283 257 
 RREF HZ EP        635 18.53                             109     0.6 7  329 231 
 RREF HE ES   2    635 54.17                             109    -0.1 3  329 231 
 RREF HZ I         635 59.98         3.0 0.55                           329 231 
                                                                                
