 2012 1021 0242 36.9 L   6.530 -73.515113.0  RSN  4 0.2 1.2LRSN                1
 GAP=195        0.41       4.1     8.0  9.7 -0.1368E+02  0.4124E+02 -0.1181E+02E
 Epicentro: EL CARMEN DE CHUCURI - SANTANDER                                   3
 ACTION:UPD 12-11-22 17:05 OP:ep   STATUS:               ID:20121021024236 L   I
 2012-10-21-0240-00M.COL___231                                                 6
 STAT SP IPHASW D HRMM SECON CODA AMPLIT PERI AZIMU VELO AIN AR TRES W  DIS CAZ7
 BAR2 SZ EP        242 53.22                             161    0.1510 37.4  79 
 BAR2 SZ ES   2    243  5.84                             161    0.15 5 37.4  79 
 BAR2 SZ I         243  6.74        15.1 0.29                          37.4  79 
 BRR  HZ EP   2    242 54.09                             147   -0.26 5 67.4 341 
 RUS  HZ EP   2    242 56.38                             141    0.05 5 85.2 146 
 RUS  HE ES   2    243 11.16                             141   -0.33 5 85.2 146 
 RUS  HE I         243 12.90         2.0 0.31                          85.2 146 
 PAM  SE ES   1    243 17.89                             128   -0.10 7  127  45 
 PAM  SZ I         243 18.61         2.1 0.20                           127  45 
                                                                                
