 2013 1121 0332 43.6 L   6.710 -73.206148.4  RSN  4 0.2 1.2LRSN                1
 GAP=223        0.49       4.0     4.2  4.9  0.9504E+01 -0.8969E+00 -0.6423E+00E
 Epicentro: VILLANUEVA - SANTANDER                                             3
 ACTION:UPD 14-01-09 16:29 OP:ep   STATUS:               ID:20131121033243 L   I
 OLDACT:DUP 13-11-21 12:06 OP:mh   STATUS:               ID:20131121033001d    3
 2013-11-21-0330-00M.COL___282                                                 6
 STAT SP IPHASW D HRMM SECON CODA AMPLIT PERI AZIMU VELO AIN AR TRES W  DIS CAZ7
 BAR2 SZ EP   4    333  0.15                             175   -3.20 0 13.2 169 
 BAR2 SZ I         333 19.64         9.7 0.21            162           13.2 169 
 BRR  HZ EP        333  5.00                             153    0.0110 71.1 308 
 BRR  HZ I         333 21.57         3.3 0.25            162           71.1 308 
 BRR  HN ES        333 21.70                             153   -0.0110 71.1 308 
 RUS  HZ EP        333  7.16                             147    0.2310 91.4 171 
 RUS  HN ES        333 25.04                             147   -0.1310 91.4 171 
 RUS  HZ I         333 45.38         0.8 0.14            144           91.4 171 
 PTB  HZ EP        333  9.75                             134   -0.26 9  140 262 
 PTB  HN ES        333 30.79                             134    0.14 9  140 262 
 PTB  HZ I         333 36.87         1.4 0.13            146            140 262 
                                                                                
