 2014 1221 0554 37.2 L   6.753 -73.122147.3  RSN  5 0.4 0.9LRSN                1
 GAP=142        0.85       5.7     5.5  7.6 -0.2592E+01 -0.1184E+01  0.2579E+01E
 Epicentro: LOS SANTOS - SANTANDER                                             3
 ACTION:UPD 15-02-10 17:06 OP:nd   STATUS:               ID:20141221055437 L   I
 OLDACT:DUP 14-12-21 16:56 OP:spq  STATUS:               ID:20141221054745d    3
 2014-12-21-0547-44M.COL___299                                                 6
 STAT SP IPHASW D HRMM SECON CODA AMPLIT PERI AZIMU VELO AIN AR TRES W  DIS CAZ7
 BAR2 EZ EP   1    554 57.13                             172    0.24 7 18.9 201 
 BAR2 EZ ES   1    555 11.98                             172   -0.30 7 18.9 201 
 BAR2 EZ I         555 12.99         2.8 0.20            178           18.9 201 
 BRR  HZ EP   1    554 59.14                             151    0.40 7 76.0 301 
 BRR  HE ES        555 15.96                             151    0.3710 76.0 301 
 BRR  HZ I         555 21.46         1.5 0.40            152           76.0 301 
 PAM  SZ EP        554 59.88                             150    0.2010 80.0  36 
 PAM  SN ES   1    555 16.65                             150   -0.61 7 80.0  36 
 PAM  SZ I         555 24.44         1.6 0.34            150           80.0  36 
 RUS  HZ EP   1    555  0.30                             146   -0.38 7 95.2 177 
 RUS  HE ES   1    555 19.47                             146    0.45 7 95.2 177 
 RUS  HZ I         555 20.56         0.9 0.24            153           95.2 177 
 PTB  HZ EP   1    555  3.93                             132   -0.46 7  149 261 
 PTB  HE ES   1    555 25.16                             132   -0.48 7  149 261 
 PTB  HZ I         555 27.49         0.7 0.12            137            149 261 
                                                                                
