 2013  521 0344 38.6 L   6.772 -73.186149.3  RSN  6 0.3 2.0LRSN                1
 GAP=133        0.73       4.3     4.3  5.7  0.1187E+01 -0.2036E+01  0.2119E+01E
 Epicentro: LOS SANTOS - SANTANDER                                             3
 ACTION:UPD 13-06-20 09:52 OP:ep   STATUS:               ID:20130521034438 L   I
 2013-05-21-0338-50M.COL___222                                                 6
 STAT SP IPHASW D HRMM SECON CODA AMPLIT PERI AZIMU VELO AIN AR TRES W  DIS CAZ7
 BAR2 SZ EP        344 58.54                             172   -0.0810 19.9 179 
 GIR2 SZ EP        344 58.55                             167   -0.2410 34.0 359 
 GIR2 SZ ES        345 14.21                             167   -0.3210 34.0 359 
 GIR2 SZ I         345 15.00         8.0 0.30            168           34.0 359 
 BRR  HZ EP        345  0.37                             154    0.3310 69.0 303 
 BRR  HN ES        345 17.24                             154    0.5010 69.0 303 
 BRR  HN I         345 17.95        39.5 0.44            152           69.0 303 
 PAM  SZ EP        345  1.47                             150   -0.0610 82.6  41 
 RUS  HZ EP        345  2.79                             145    0.2510 97.9 173 
 RUS  HN ES        345 21.22                             145    0.0310 97.9 173 
 RUS  HN I         345 23.05         7.9 0.48            145           97.9 173 
 PTB  HZ EP        345  5.29                             134   -0.16 9  143 260 
 PTB  HN ES        345 26.05                             134   -0.32 9  143 260 
 PTB  HN I         345 31.58        20.1 0.38            132            143 260 
                                                                                
