 2017  221 0235  7.5 L   6.829 -73.200149.1  RSN  4 0.3 1.1LRSN                1
 GAP=234        0.83       7.0     6.9  8.4  0.3215E+02 -0.2536E+01 -0.3102E+01E
 Epicentro: ZAPATOCA - SANTANDER                                               3
 ACTION:UPD 17-05-24 15:38 OP:jn   STATUS:               ID:20170221023507 L   I
 OLDACT:REG 17-02-21 13:46 OP:dani STATUS:               ID:20170221022749     3
 2017-02-21-0228-00M.COL___379                                                 6
 STAT SP IPHASW D HRMM SECON CODA AMPLIT PERI AZIMU VELO AIN AR TRES W  DIS CAZ7
 BRR  HZ EP        235 28.61                             155    0.0110 64.4 299 
 BRR  HN ES        235 44.81                             155   -0.2810 64.4 299 
 BRR  HZ I         235 49.43         2.9 0.16            158           64.4 299 
 RUS  HZ EP        235 31.86                             143    0.0610  104 173 
 RUS  HN ES        235 51.04                             143    0.2510  104 173 
 RUS  HZ I         235 52.21         1.3 0.19            148            104 173 
 PTB  HZ EP        235 33.81                             134   -0.41 9  143 257 
 PTB  HN ES        235 54.90                             134   -0.21 9  143 257 
 PTB  HZ I         235 56.65         2.0 0.60            138            143 257 
 ZAR  HE ES        236  5.04                             124    0.68 9  197 292 
                                                                                
