 2012  421 0338 43.0 L   6.789 -73.152141.2  RSN  6 0.4 1.7LRSN                1
 GAP=136        0.95       5.7     5.9  9.1  0.1873E+01  0.1016E+02 -0.2603E+01E
 Epicentro: LOS SANTOS - SANTANDER                                             3
 ACTION:UPD 12-07-05 11:55 OP:tino STATUS:               ID:20120421033843 L   I
 2012-04-21-0330-00M.COL___186                                                 6
 STAT SP IPHASW D HRMM SECON CODA AMPLIT PERI AZIMU VELO AIN AR TRES W  DIS CAZ7
 BAR2 SZ EP   1    339  2.14                             171     0.1 7   22 189 
 BAR2 SZ ES   1    339 16.50                             171    -0.4 7   22 189 
 BAR2 SZ I         339 18.85        12.8 0.34                            22 189 
 BRR  HZ EP   1    339  4.09                             152     0.5 7   71 300 
 BRR  HZ I         339  5.66        11.8 0.12                            71 300 
 BRR  HN ES   1    339 20.29                             152     0.6 7   71 300 
 PAM  SZ EP   1    339  5.02                             149     0.3 7   79  39 
 PAM  SN ES   1    339 21.24                             149    -0.5 7   79  39 
 RUS  HZ EP   1    339  6.01                             143    -0.2 7   99 176 
 RUS  HN ES        339 24.57                             143     0.310   99 176 
 RUS  HZ I         339 26.18         6.0 0.29                            99 176 
 PTB  HZ EP   1    339  8.95                             131    -0.5 7  147 259 
 PTB  HN ES   1    339 29.61                             131    -0.5 7  147 259 
 PTB  HZ I         339 34.65         5.4 0.11                           147 259 
 ZAR  HN ES   2    339 40.40                             121     0.3 4  204 293 
                                                                                
