 2016 1121 0632 13.0 L   6.632 -73.202148.9  RSN  4 0.3 1.0LRSN                1
 GAP=200        0.72       8.2     5.2  6.6  0.1524E+02  0.9391E+01  0.5956E+01E
 Epicentro: BARICHARA - SANTANDER                                              3
 ACTION:UPD 17-10-26 21:10 OP:lp   STATUS:               ID:20161121063213 L   I
 OLDACT:REG 16-11-21 14:44 OP:edw  STATUS:               ID:20161121062744     3
 2016-11-21-0628-00M.COL___343                                                 6
 STAT SP IPHASW D HRMM SECON CODA AMPLIT PERI AZIMU VELO AIN AR TRES W  DIS CAZ7
 BAR2 EZ EP        632 32.65                             178   -0.0910 4.88 153 
 BAR2 EZ ES        632 47.91                             178   -0.2610 4.88 153 
 BAR2 EZ I         632 48.95         3.2 0.23            171           4.88 153 
 BRR  HZ EP        632 34.83                             151    0.0510 77.1 313 
 BRR  HN ES        632 52.22                             151    0.4210 77.1 313 
 PTB  HZ EP        632 39.65                             134    0.23 9  139 266 
 PTB  HN ES        633  0.09                             134    0.04 9  139 266 
 PTB  HZ I         633  4.62         1.0 0.12            133            139 266 
 ZAR  HN ES        633 10.98                             123   -0.49 8  206 298 
                                                                                
