 2013 1021 0021 34.7 L   6.822 -73.141144.0  RSN 12 0.5 2.2LRSN                1
 GAP=136        1.09       3.1     4.9  6.1 -0.1682E+01  0.4290E+01  0.2143E+01E
 Epicentro: LOS SANTOS - SANTANDER                                             3
 ACTION:UPD 13-11-25 09:22 OP:ep   STATUS:               ID:20131021002134 L   I
 OLDACT:REG 13-10-21 07:55 OP:carl STATUS:               ID:20131021001839     3
 2013-10-21-0018-39M.COL___217                                                 6
 STAT SP IPHASW D HRMM SECON CODA AMPLIT PERI AZIMU VELO AIN AR TRES W  DIS CAZ7
 BAR2 SZ EP        021 54.31                             169    0.0910 25.9 190 
 BAR2 SZ ES        022  9.08                             169   -0.3310 25.9 190 
 BAR2 SZ I         022 11.67        39.1 0.20            169           25.9 190 
 BRR  HZ IP        021 56.15                             152    0.4810 70.6 297 
 BRR  HN ES        022 13.13                             152    1.1410 70.6 297 
 BRR  HZ I         022 17.45        17.0 0.14            149           70.6 297 
 PAM  SZ EP        021 56.91                             151    0.2710 75.1  40 
 PAM  SE ES   1    022 13.42                             151   -0.30 7 75.1  40 
 PAM  SZ I         022 16.09        23.0 0.52            154           75.1  40 
 RUS  HZ EP        021 58.35                             143   -0.1510  103 176 
 RUS  HN ES   1    022 17.28                             143    0.25 7  103 176 
 RUS  HZ I         022 17.83        13.5 0.32            145            103 176 
 PTB  HZ EP        022  1.33                             131   -0.34 9  149 258 
 PTB  HN ES        022 21.90                             131   -0.77 9  149 258 
 PTB  HZ I         022 28.02        14.6 0.42            130            149 258 
 OCA  HN ES        022 23.95                             130   -0.55 9  158 353 
 OCA  HN I         022 27.81        59.4 0.18            130            158 353 
 SPBC HN ES        022 25.41                             128   -0.21 9  165 219 
 SPBC HZ I         022 27.86        15.3 0.14            129            165 219 
 ZAR  HN ES   1    022 32.96                             122    0.74 6  204 291 
 ZAR  HZ I         022 38.00        16.2 0.56            122            204 291 
 NOR  HZ EP        022 10.71                             118    0.13 8  237 234 
 NOR  HN ES   1    022 38.09                             118   -0.44 6  237 234 
 NOR  HZ I         022 43.58        11.7 0.20            118            237 234 
 SML  HZ EP        022 10.93                             117   -0.13 8  242 335 
 SML  HE ES        022 38.97                             117   -0.41 8  242 335 
 SML  HZ I         022 49.18        17.0 0.10            118            242 335 
 CHI  HZ EP        022 12.77                             116    0.15 8  251 195 
 CHI  HN ES   1    022 41.83                             116   -0.34 6  251 195 
 CHI  HN I         022 48.11        12.6 0.28            118            251 195 
 PRA  HZ EP        022 29.03                             106    0.54 6  394 209 
 PRA  HN ES   1    023 10.87                             106    0.46 4  394 209 
 PRA  HZ I         023 15.45         6.5 0.28            107            394 209 
                                                                                
