 2013  321 0259 22.8 L   6.781 -73.142150.0  RSN  8 0.4 2.3LRSN                1
 GAP=138        1.09       3.9     4.8  6.7  0.7529E+00  0.6591E+01 -0.5488E+01E
 Epicentro: LOS SANTOS - SANTANDER                                             3
 ACTION:UPD 13-04-09 14:03 OP:ep   STATUS:               ID:20130321025922 L   I
 2013-03-21-0257-48M.COL___206                                                 6
 STAT SP IPHASW D HRMM SECON CODA AMPLIT PERI AZIMU VELO AIN AR TRES W  DIS CAZ7
 BAR2 SZ EP        259 43.09                             172    0.2210 21.3 192 
 BAR2 SZ ES        259 58.54                             172   -0.0110 21.3 192 
 BAR2 SZ I         259 59.19        18.5 0.52            171           21.3 192 
 BRR  HZ EP        259 45.02                             153    0.5710 72.5 300 
 BRR  HN ES        3 0  2.20                             153    0.8310 72.5 300 
 BRR  HN I         3 0  5.71        48.0 0.20            150           72.5 300 
 PAM  SZ EP        259 46.02                             151    0.5010 78.8  38 
 PAM  SN ES        3 0  2.94                             151   -0.3210 78.8  38 
 PAM  SN I         3 0  4.51        13.1 0.48            154           78.8  38 
 RUS  HZ EP        259 46.98                             145    0.1910 98.5 176 
 RUS  HN ES        3 0  4.80                             145   -0.7310 98.5 176 
 RUS  HN I         3 0  7.34         9.0 0.60            148           98.5 176 
 PTB  HZ EP        259 49.74                             133   -0.35 9  148 260 
 PTB  HN ES        3 0 11.24                             133   -0.15 9  148 260 
 PTB  HN I         3 0 16.42        42.7 0.52            133            148 260 
 OCA  HZ EP        259 51.40                             130   -0.21 9  162 353 
 OCA  HN ES        3 0 13.93                             130   -0.18 9  162 353 
 OCA  HN I         3 0 17.21        56.6 0.22            131            162 353 
 ZAR  HZ EP        259 55.78                             123    0.17 9  205 293 
 ZAR  HN ES        3 0 21.02                             123   -0.21 9  205 293 
 ZAR  HN I         3 0 27.76        18.6 0.20            123            205 293 
 SML  HZ EP   1    259 59.88                             118    0.02 6  246 335 
 SML  HN ES        3 0 28.04                             118   -0.75 8  246 335 
 SML  HN I         3 0 33.03        32.6 0.10            119            246 335 
                                                                                
