 2016  321 0925 59.3 L   6.813 -73.148145.4  RSN 18 0.5 2.0LRSN                1
 GAP= 55        1.06       2.9     2.7  5.0 -0.1493E+01  0.3316E+01 -0.2357E+00E
 Epicentro: LOS SANTOS - SANTANDER                                             3
 ACTION:UPD 16-05-13 21:25 OP:cam  STATUS:               ID:20160321092558 L   I
 OLDACT:UP  16-03-30 14:45 OP:cam  STATUS:               ID:20160321092558 L   3
 OLDACT:UP  16-03-29 11:52 OP:dnl  STATUS:               ID:20160321092558 L   3
 OLDACT:REG 16-03-21 12:54 OP:ak   STATUS:               ID:20160321091743     3
 2016-03-21-0917-43M.COL___282                                                 6
 STAT SP IPHASW D HRMM SECON CODA AMPLIT PERI AZIMU VELO AIN AR TRES W  DIS CAZ7
 BAR2 EZ EP        926 19.00                             170    0.0810 24.7 189 
 BAR2 EZ ES        926 34.10                             170   -0.1210 24.7 189 
 BAR2 EZ I         926 35.43        21.5 0.20            168           24.7 189 
 PAM  EZ EP        926 21.90                             151    0.4710 76.5  40 
 PAM  EN ES        926 38.72                             151    0.0410 76.5  40 
 PAM  EZ I         926 41.28        11.8 0.38            155           76.5  40 
 RUS  HZ EP        926 23.01                             143   -0.1210  102 176 
 RUS  HE ES        926 41.41                             143   -0.2910  102 176 
 RUS  HZ I         926 43.08         7.2 0.32            144            102 176 
 PTB  HZ EP        926 25.65                             132   -0.60 9  148 258 
 PTB  HN ES        926 46.58                             132   -0.68 9  148 258 
 PTB  HZ I         926 50.37        10.0 0.16            131            148 258 
 TAM  HZ EP        926 27.41                             130    0.40 9  156 105 
 TAM  HN ES        926 48.73                             130    0.11 9  156 105 
 TAM  HZ I         926 49.63         8.5 0.32            134            156 105 
 OCA  HZ EP        926 27.91                             130    0.45 9  159 353 
 OCA  HN ES        926 49.73                             130    0.32 9  159 353 
 OCA  HZ I         926 51.97        35.7 0.26            132            159 353 
 SPBC HZ EP        926 28.15                             129    0.28 9  164 219 
 SPBC HN ES        926 49.85                             129   -0.30 9  164 219 
 SPBC HZ I         926 57.58        15.9 0.22            129            164 219 
 ZAR  HZ EP        926 31.47                             122   -0.19 9  203 292 
 ZAR  HN ES        926 56.84                             122   -0.04 9  203 292 
 ZAR  HZ I         927  2.68        13.0 0.30            123            203 292 
 NOR  HZ EP        926 35.28                             118    0.19 8  235 234 
 NOR  HN ES        927  2.76                             118   -0.23 8  235 234 
 NOR  HZ I         927  9.04         9.7 0.18            119            235 234 
 CHI  HZ EP        926 36.86                             117   -0.27 8  250 195 
 CHI  HN ES        927  6.93                             117    0.30 8  250 195 
 CHI  HZ I         927 17.91         6.0 0.44            118            250 195 
 ROSC BZ EP   9    926 39.15                             116    1.62 0  254 211 
 ROSC BN ES        927  9.52                                    0.56 8  254 211 
 ROSC BZ I         927 12.24        10.4 0.50            117            254 211 
 HEL  HZ EP        926 40.15                             115    0.63 8  272 256 
 HEL  HN ES        927 11.25                             115    0.37 8  272 256 
 HEL  HZ I         927 17.24         5.5 0.40            115            272 256 
 URE  HZ EP   2    926 39.23                             113   -1.05 4  283 292 
 URE  HN ES   4    927  9.74                             113   -2.49 0  283 292 
 URE  HZ I         927 21.70         8.1 0.22            114            283 292 
 SOCV BZ EP   4    926 40.37                             112   -1.91 0  301  57 
 SOCV BN ES   4    927 12.82                             112   -2.97 0  301  57 
 GUY2CHZ EP        926 43.86                             112    0.89 7  302 235 
 GUY2CHN ES        927 17.92                             112    0.89 7  302 235 
 GUY2CHZ I         927 25.73         6.0 0.34                           302 235 
 PTGC HZ EP        926 42.33                             111   -0.98 7  310 159 
 PTGC HN ES   4    927 15.63                             111   -2.00 0  310 159 
 CBOC HZ EP   2    926 46.65                             110    0.42 3  334 252 
 CBOC HN ES        927 22.89                             110    0.06 7  334 252 
 CBOC HZ I         927 32.59         2.4 0.50            110            334 252 
 MON  HZ EP        926 46.90                             108   -1.28 6  353 308 
 MON  HN ES   4    927 24.30                             108   -1.99 0  353 308 
 MON  HZ I         927 27.03         1.9 0.31            109            353 308 
 ANIL HN ES   4    927 30.05                             108    1.94 0  358 224 
 SDV  BZ EP        926 48.67                             108   -0.59 6  360  50 
 SDV  BN ES   4    927 25.47                             108   -2.74 0  360  50 
 SJC  HZ EP   4    926 53.19                             106   -1.52 0  408 327 
 SJC  HN ES   4    927 34.07                             106   -3.85 0  408 327 
                                                                                
