 2015  921 0539 24.4 L   6.533 -73.537107.7  RSN 16 0.7 2.2LRSN                1
 GAP= 64        1.71       3.3     4.1  7.8 -0.2316E+00  0.7962E+01  0.1997E+01E
 Epicentro: EL CARMEN - SANTANDER                                              3
 ACTION:UPD 15-10-28 16:27 OP:cam  STATUS:               ID:20150921053924 L   I
 OLDACT:DUP 15-09-21 15:44 OP:mh   STATUS:               ID:20150921052746d    3
 OLDACT:UP  15-09-21 15:38 OP:mh   STATUS:               ID:20150921052745     3
 OLDACT:REG 15-09-21 12:41 OP:mh   STATUS:               ID:20150921052745     3
 2015-09-21-0527-45M.COL___355                                                 6
 STAT SP IPHASW D HRMM SECON CODA AMPLIT PERI AZIMU VELO AIN AR TRES W  DIS CAZ7
 BAR2 EZ IP     D  539 40.53                             158    0.4510 39.7  81 
 BAR2 EZ ES        539 52.74                             158    0.4410 39.7  81 
 BRR  HZ IP     C  539 40.56                             146   -0.7010 66.3 343 
 BRR  HZ EP        539 41.34                             146    0.0810 66.3 343 
 BRR  HN ES        539 54.45                             146    0.0510 66.3 343 
 BRR  HZ I         540  4.47        18.9 0.23            145           66.3 343 
 RUS  HZ EP        539 43.56                             138    0.0710 86.8 145 
 RUS  HN ES        539 58.72                             138    0.3510 86.8 145 
 RUS  HZ I         539 59.96        19.2 0.58            142           86.8 145 
 PTB  HZ IP     D  539 43.34                             133   -0.7610  102 270 
 PTB  HN ES        539 58.06                             133   -1.3910  102 270 
 PTB  HZ I         539 59.22        50.3 0.44            134            102 270 
 SPBC HZ EP        539 45.32                             130   -0.0110  114 211 
 SPBC HN ES        540  1.44                             130   -0.2110  114 211 
 SPBC HZ I         540  3.30        45.3 0.38            132            114 211 
 PAM  EZ EP        539 47.38                             126    0.1310  129  46 
 PAM  EN ES        540  4.94                             126   -0.1310  129  46 
 PAM  EZ I         540  6.61        23.8 0.26            128            129  46 
 ZAR  HZ EP        539 52.54                             116    0.47 9  180 306 
 ZAR  HN ES        540 15.43                             116    1.78 9  180 306 
 ZAR  HZ I         540 17.13        18.5 0.50            117            180 306 
 NOR  HZ EP        539 52.05                             116   -0.29 9  182 234 
 NOR  HE ES        540 13.37                             116   -0.76 9  182 234 
 NOR  HZ I         540 16.94        15.3 0.52            117            182 234 
 OCA  HZ EP        539 52.88                             114   -0.45 9  190   7 
 OCA  HE ES        540 15.81                             114   -0.08 9  190   7 
 OCA  HZ I         540 21.79        41.4 0.21            116            190   7 
 CHI  HZ EP        539 56.31                             112    0.24 8  212 186 
 CHI  HN ES        540 21.97                             112    1.21 8  212 186 
 HEL  HZ EP        539 58.07                             110    0.69 8  224 260 
 HEL  HN ES        540 23.20                             110    0.11 8  224 260 
 HEL  HZ I         540 26.54         9.7 0.28            112            224 260 
 GUY2CHZ EP        540  1.22                             108    0.80 8  249 235 
 GUY2CHN ES   4    540 29.63                             108    1.12 0  249 235 
 GUY2CHZ I         540 33.69        12.2 0.66                           249 235 
 URE  HZ EP        540  0.55                             107   -0.40 8  258 302 
 URE  HN ES        540 28.41                             107   -1.04 8  258 302 
 URE  HZ I         540 39.79         8.5 0.20            108            258 302 
 SML  HZ EP        540  0.52                             107   -0.32 8  258 347 
 SML  HN ES        540 30.33                             107    1.07 8  258 347 
 SML  HZ I         540 34.99        31.7 0.26            108            258 347 
 PTGC HZ EP        540  4.91                             104   -1.08 7  301 149 
 PTGC HN ES        540 37.33                             104   -1.10 7  301 149 
 PTGC HZ I         540 43.48        10.6 0.64            106            301 149 
 PRA  HZ EP        540 11.08                             101   -0.26 6  346 206 
 PRA  HN ES        540 49.47                             101    1.53 6  346 206 
 PRA  HZ I         540 51.84         5.9 0.26            103            346 206 
                                                                                
