 2012  321 0937 33.5 L   6.767 -73.118153.7  RSN  5 0.3 1.5LRSN                1
 GAP=142        0.51       5.7     5.5  7.5 -0.3066E+01  0.4617E+01  0.1560E+01E
 ACTION:UP  12-03-31 23:21 OP:EP   STATUS:               ID:20120321093733 L   I
 2012-03-21-0930-00M.COL___202                                                 6
 STAT SP IPHASW D HRMM SECON CODA AMPLIT PERI AZIMU VELO SNR AR TRES W  DIS CAZ7
 BAR2 SZ EP   2    937 53.96                             172     0.0 5   21 200 
 BAR2 SZ ES   2    938 10.02                             172     0.0 5   21 200 
 BAR2 SZ I         938 11.96         7.9 0.34                            21 200 
 BRR  HZ EP   2    937 55.89                             152     0.2 5   76 300 
 BRR  HZ I         937 56.39         6.1 0.33                            76 300 
 BRR  HN ES   2    938 13.56                             152     0.5 5   76 300 
 PAM  SZ EP   2    937 56.93                             152     0.3 5   78  36 
 PAM  SN ES   2    938 14.12                             152    -0.5 5   78  36 
 RUS  HZ EP   2    937 57.93                             146     0.2 5   97 178 
 RUS  HN ES   2    938 16.69                             146     0.0 5   97 178 
 RUS  HZ I         938 17.83         3.2 0.36                            97 178 
 PTB  HZ EP   2    938  0.87                             133    -0.4 5  150 260 
 PTB  HE ES   2    938 22.79                             133    -0.2 5  150 260 
 PTB  HZ I         938 24.91         2.9 0.16                           150 260 
                                                                                
