 2012 1221 0355 11.3 L   6.754 -73.158139.4  RSN  7 0.3 1.6LRSN                1
 GAP=137        0.81       5.0     4.7  6.4  0.5647E+01  0.7043E+01  0.4180E+01E
 Epicentro: LOS SANTOS - SANTANDER                                             3
 ACTION:UPD 13-01-04 14:29 OP:ep   STATUS:               ID:20121221035511 L   I
 2012-12-21-0350-00M.COL___243                                                 6
 STAT SP IPHASW D HRMM SECON CODA AMPLIT PERI AZIMU VELO AIN AR TRES W  DIS CAZ7
 BAR2 SZ EP        355 30.07                             172   -0.0110 18.1 189 
 BAR2 SZ ES        355 44.41                             172   -0.3110 18.1 189 
 BAR2 SZ I         355 45.76        19.0 0.25                          18.1 189 
 GIR2 SZ EP        355 30.25                             165   -0.1310 36.1 354 
 BRR  HZ EP     C  355 32.01                             151    0.1510 72.6 303 
 BRR  HZ I         355 32.36         7.7 0.15                          72.6 303 
 BRR  HE ES        355 48.31                             151    0.4210 72.6 303 
 PAM  SN ES   1    355 49.96                             148   -0.24 7 82.2  38 
 PAM  SZ I         355 52.26         5.4 0.30                          82.2  38 
 RUS  HZ EP        355 34.51                             144    0.4310 95.6 175 
 RUS  HN ES   1    355 52.06                             144    0.22 7 95.6 175 
 RUS  HN I         355 54.02         6.2 0.42                          95.6 175 
 PTB  HZ EP        355 36.99                             131   -0.57 9  146 261 
 PTB  HE ES   1    355 57.65                             131   -0.39 7  146 261 
 PTB  HZ I         356  0.63         3.7 0.15                           146 261 
 ZAR  HN ES   1    356  8.86                             121    0.38 6  205 294 
 ZAR  HZ I         356 11.03         3.7 0.11                           205 294 
                                                                                
