 2014 1021 0542 52.8 L   6.724 -73.173144.1  RSN  4 0.3 0.9LRSN                1
 GAP=228        0.81       7.4     7.6  7.3  0.3058E+02  0.6343E+01  0.7932E+01E
 Epicentro: VILLANUEVA - SANTANDER                                             3
 ACTION:UPD 14-11-29 23:52 OP:nd   STATUS:               ID:20141021053702dL   I
 OLDACT:DUP 14-10-22 21:31 OP:spq  STATUS:               ID:20141021053702dL   3
 2014-10-21-0537-50M.COL___268                                                 6
 STAT SP IPHASW D HRMM SECON CODA AMPLIT PERI AZIMU VELO AIN AR TRES W  DIS CAZ7
 BAR2 SZ EP   1    543 11.96                             174   -0.13 7 14.6 184 
 BAR2 SZ ES   1    543 26.75                             174   -0.38 7 14.6 184 
 BAR2 SZ I         543 28.23         2.6 0.27            167           14.6 184 
 BRR  HZ EP        543 13.79                             152   -0.0910 73.1 305 
 BRR  HN ES        543 30.58                             152    0.2610 73.1 305 
 BRR  HZ I         543 30.91         1.7 0.50            152           73.1 305 
 RUS  HZ EP        543 16.37                             146    0.5510 92.4 174 
 RUS  HN ES   1    543 33.58                             146   -0.19 7 92.4 174 
 RUS  HZ I         543 37.38         0.7 0.24            143           92.4 174 
 PTB  HZ EP        543 18.76                             133   -0.48 9  143 262 
 PTB  HE ES   1    543 40.04                             133    0.19 7  143 262 
 PTB  HZ I         543 43.06         1.3 0.30            132            143 262 
                                                                                
