 2013 1021 0640 45.7 L   6.128 -73.780105.5  RSN  6 0.5 1.3LRSN                1
 GAP=103        1.26       4.9     4.6  9.7  0.3054E+01  0.6929E+01 -0.1293E+02E
 Epicentro: LANDAZURI - SANTANDER                                              3
 ACTION:UPD 13-11-25 09:22 OP:ep   STATUS:               ID:20131021064045 L   I
 OLDACT:REG 13-10-21 08:00 OP:carl STATUS:               ID:20131021063842     3
 2013-10-21-0638-42M.COL___211                                                 6
 STAT SP IPHASW D HRMM SECON CODA AMPLIT PERI AZIMU VELO AIN AR TRES W  DIS CAZ7
 SPBC HZ EP        641  2.65                             147    0.4710 61.8 212 
 SPBC HN ES        641 15.57                             147    0.5610 61.8 212 
 SPBC HZ I         641 17.04         4.4 0.36            152           61.8 212 
 RUS  HZ EP        641  4.03                             140   -0.1410 81.4 109 
 RUS  HN ES        641 18.15                             140   -0.4010 81.4 109 
 RUS  HZ I         641 19.13         1.6 0.40            147           81.4 109 
 BAR2 SZ EP        641  4.03                             139    0.0310 83.7  52 
 BAR2 SZ ES        641 18.03                             139   -0.2210 83.7  52 
 BAR2 SZ I         641 19.84        20.8 0.20            144           83.7  52 
 PTB  HZ EP        641  3.41                             137   -0.6010 87.6 301 
 PTB  HN ES        641 17.53                             137   -0.7410 87.6 301 
 PTB  HZ I         641 23.93         2.8 0.14            140           87.6 301 
 BRR  HZ EP        641  5.77                             130   -0.0610  109   4 
 BRR  HN ES        641 22.48                             130    0.9610  109   4 
 BRR  HZ I         641 24.90         3.6 0.10            134            109   4 
 ZAR  HZ EP        641 14.84                             113    0.25 9  192 322 
 ZAR  HE ES        641 37.06                             113   -0.04 9  192 322 
 ZAR  HZ I         641 38.77         2.5 0.10            117            192 322 
                                                                                
