 2015  221 0206  0.5 L   6.787 -73.181134.2  RSN 12 0.5 1.9LRSN                1
 GAP=133        1.19       2.9     4.3  6.0 -0.2108E+01  0.7557E+01  0.2631E+00E
 Epicentro: LOS SANTOS - SANTANDER                                             3
 ACTION:UPD 15-04-30 21:28 OP:nd   STATUS:               ID:20150221020600 L   I
 OLDACT:REG 15-02-21 12:34 OP:fm   STATUS:               ID:20150221015741     3
 2015-02-21-0157-41M.COL___287                                                 6
 STAT SP IPHASW D HRMM SECON CODA AMPLIT PERI AZIMU VELO AIN AR TRES W  DIS CAZ7
 BAR2 EZ EP        2 6 19.21                             170    0.4810 21.5 180 
 BAR2 EZ ES        2 6 33.46                             170    0.5310 21.5 180 
 BAR2 EZ I         2 6 35.89        18.4 0.42            170           21.5 180 
 BRR  HZ EP     C  2 6 20.95                             151    0.6810 68.5 301 
 BRR  HN ES        2 6 36.06                             151    0.3810 68.5 301 
 BRR  HZ I         2 6 41.85        15.5 0.12            151           68.5 301 
 PAM  SZ EP        2 6 22.08                             147    0.3210 81.0  41 
 PAM  SE ES        2 6 37.57                             147   -0.7510 81.0  41 
 PAM  SZ I         2 6 41.25         9.9 0.52            153           81.0  41 
 RUS  HZ EP        2 6 23.67                             142    0.6010 99.5 174 
 RUS  HE ES        2 6 40.19                             142   -0.4710 99.5 174 
 RUS  HZ I         2 6 42.89        11.6 0.24            146           99.5 174 
 PTB  HZ EP        2 6 25.91                             130   -0.27 9  144 259 
 PTB  HN ES        2 6 46.19                             130   -0.01 9  144 259 
 PTB  HZ I         2 6 49.91         9.3 0.16            131            144 259 
 SPBC HZ EP        2 6 28.20                             127    0.39 9  160 218 
 SPBC HE ES        2 6 48.61                             127   -0.48 9  160 218 
 SPBC HZ I         2 6 56.48        16.0 0.28            129            160 218 
 OCA  HZ EP        2 6 28.13                             127    0.07 9  161 355 
 OCA  HN ES        2 6 48.93                             127   -0.61 9  161 355 
 OCA  HZ I         2 6 55.72        10.3 0.30            130            161 355 
 ZAR  HZ EP        2 6 32.12                             120    0.21 9  201 293 
 ZAR  HN ES        2 6 56.42                             120    0.02 9  201 293 
 ZAR  HZ I         2 7  2.87        14.7 0.54            122            201 293 
 NOR  HZ EP        2 6 35.53                             116    0.37 8  231 234 
 NOR  HE ES        2 7  2.19                             116    0.00 8  231 234 
 NOR  HZ I         2 7 11.48         5.8 0.16            119            231 234 
 SML  HZ EP        2 6 35.84                             115   -0.65 8  243 336 
 SML  HE ES        2 7  4.28                             115   -0.27 8  243 336 
 SML  HZ I         2 7  6.92        12.1 0.10            118            243 336 
 CHI  HZ EP        2 6 36.79                             115   -0.55 8  246 194 
 CHI  HN ES        2 7  5.34                             115   -0.72 8  246 194 
 CHI  HZ I         2 7 10.39         3.2 0.36            118            246 194 
 GUY2CHZ EP        2 6 43.82                             110    0.66 7  297 235 
 GUY2CHE ES        2 7 15.68                             110   -0.73 7  297 235 
 GUY2CHZ I         2 7 27.72         5.8 0.48                           297 235 
                                                                                
