 2014 1221 0848 46.0 L   6.816 -73.144149.1  RSN 20 0.4 2.1LRSN                1
 GAP= 65        0.85       2.2     2.4  4.3 -0.1127E+00  0.1752E+01  0.1477E+01E
 Epicentro: LOS SANTOS - SANTANDER                                             3
 ACTION:UPD 15-02-10 17:06 OP:nd   STATUS:               ID:20141221084846 L   I
 OLDACT:REG 14-12-21 12:56 OP:spq  STATUS:               ID:20141221084744     3
 2014-12-21-0847-44M.COL___299                                                 6
 STAT SP IPHASW D HRMM SECON CODA AMPLIT PERI AZIMU VELO AIN AR TRES W  DIS CAZ7
 BAR2 EZ EP        849  6.01                             170   -0.0610 25.1 190 
 BAR2 EZ ES   1    849 21.28                             170   -0.44 7 25.1 190 
 BAR2 EZ I         849 22.26        23.3 0.24            170           25.1 190 
 BRR  HZ EP        849  7.77                             153    0.3010 70.5 297 
 BRR  HE ES        849 24.83                             153    0.6110 70.5 297 
 BRR  HZ I         849 28.01        18.8 0.30            150           70.5 297 
 PAM  SZ EP        849  8.82                             152    0.3310 75.9  40 
 PAM  SN ES        849 25.91                             152   -0.1210 75.9  40 
 PAM  SZ I         849 28.18        18.4 0.48            149           75.9  40 
 RUS  HZ EP        849  9.99                             144   -0.2110  102 176 
 RUS  HN ES        849 29.07                             144   -0.0210  102 176 
 RUS  HZ I         849 30.30        10.6 0.44            142            102 176 
 PTB  HZ EP        849 13.07                             133   -0.21 9  148 258 
 PTB  HE ES   1    849 34.56                             133   -0.01 7  148 258 
 PTB  HZ I         849 40.72        16.4 0.74            130            148 258 
 TAM  HZ EP        849 14.48                             131    0.51 9  155 106 
 TAM  HZ I         849 35.35         9.4 0.38            129            155 106 
 TAM  HN ES        849 36.07                             131    0.28 9  155 106 
 OCA  HZ EP   1    849 13.95                             131   -0.46 7  159 353 
 OCA  HN ES        849 35.98                             131   -0.59 9  159 353 
 OCA  HZ I         849 44.46        13.4 0.22            127            159 353 
 SPBC HZ EP        849 15.25                             129    0.36 9  165 219 
 SPBC HN ES        849 36.88                             129   -0.55 9  165 219 
 SPBC HZ I         849 41.64        21.7 0.10            127            165 219 
 ZAR  HZ EP        849 18.64                             123    0.03 9  204 292 
 ZAR  HN ES        849 43.88                             123   -0.17 9  204 292 
 ZAR  HZ I         849 49.17        13.4 0.40            120            204 292 
 NOR  HZ EP        849 21.97                             119   -0.08 8  236 234 
 NOR  HN ES        849 50.32                             119    0.16 8  236 234 
 NOR  HZ I         849 58.05         7.9 0.14            116            236 234 
 SML  HZ EP        849 22.30                             118   -0.35 8  242 335 
 SML  HN ES   1    849 51.56                             118    0.32 6  242 335 
 SML  HZ I         850  0.65        13.8 0.10            115            242 335 
 CHI  HZ EP        849 24.20                             118    0.13 8  250 195 
 CHI  HN ES        849 53.55                             118   -0.22 8  250 195 
 CHI  HZ I         849 57.41         9.3 0.58            115            250 195 
 ROSC BN ES   4    849 56.56                             117    2.08 0  254 211 
 ROSC BZ I         850  0.55        19.8 0.40            115            254 211 
 HEL  HZ EP   4    849 27.63                             115    1.18 0  273 255 
 HEL  HN ES        849 58.38                             115    0.38 8  273 255 
 HEL  HZ I         850  4.11         7.8 0.28            113            273 255 
 PTGC HZ EP        849 29.33                             112   -0.85 7  310 159 
 PTGC HE ES   4    850  2.96                             112   -1.69 0  310 159 
 PTGC HZ I         850  5.30         8.6 0.40            110            310 159 
 TOL  SZ EP   1    849 35.35                             110    0.81 5  345 224 
 TOL  SN ES   4    850 13.26                             110    0.85 0  345 224 
 TOL  SZ I         850 19.93        12.4 0.68            108            345 224 
 MON  HZ EP   4    849 32.59                             109   -2.43 0  353 308 
 MON  HN ES   4    850 11.68                             109   -1.57 0  353 308 
 MON  HZ I         850 13.96         2.9 0.68            107            353 308 
 ANIL HE ES   4    850 17.35                             109    2.19 0  359 224 
 ANIL HZ I         850 20.66         2.2 0.34            107            359 224 
 ORTC HZ EP        849 40.34                             107    0.13 6  397 216 
 ORTC HN ES   4    850 23.79                             107    1.30 0  397 216 
 ORTC HZ I         850 27.46         4.1 0.30            105            397 216 
 SJC  HZ EP   4    849 40.24                             106   -1.27 0  408 327 
 SJC  HE ES   4    850 23.24                             106   -1.57 0  408 327 
 SJC  HZ I         850 33.31         1.9 0.34            104            408 327 
                                                                                
