 2013 1121 0107 17.2 L   6.723 -73.204152.2  RSN  4 0.1 1.2LRSN                1
 GAP=224        0.40       3.8     3.4  4.5  0.7163E+01 -0.1844E+01 -0.3248E+01E
 Epicentro: VILLANUEVA - SANTANDER                                             3
 ACTION:UPD 14-01-09 16:29 OP:ep   STATUS:               ID:20131121010717 L   I
 OLDACT:REG 13-11-21 08:58 OP:mh   STATUS:               ID:20131121010000     3
 2013-11-21-0100-00M.COL___282                                                 6
 STAT SP IPHASW D HRMM SECON CODA AMPLIT PERI AZIMU VELO AIN AR TRES W  DIS CAZ7
 BAR2 SZ EP   1    1 7 37.24                             174   -0.21 7 14.7 171 
 BRR  HZ EP   1    1 7 38.84                             154   -0.15 7 70.4 307 
 BRR  HN ES   1    1 7 56.18                             154    0.18 7 70.4 307 
 BRR  HZ I         1 7 57.74         5.3 0.33            151           70.4 307 
 RUS  HZ EP        1 7 41.16                             147    0.1110 92.8 172 
 RUS  HN ES        1 7 59.64                             147   -0.0210 92.8 172 
 RUS  HZ I         1 8  1.68         1.0 0.17            145           92.8 172 
 PTB  HZ EP        1 7 44.13                             135    0.12 9  140 262 
 PTB  HN ES        1 8  4.83                             135   -0.10 9  140 262 
 PTB  HZ I         1 8 12.58         3.1 0.29            132            140 262 
                                                                                
