 2011  821 0801  8.7 L   6.813 -72.997147.0  RSN  5 0.1 1.8LRSN                1
 GAP=198        0.36       2.1     6.1  3.6  0.5693E+01 -0.7360E+01 -0.1564E+01E
 Epicentro: CEPITA - SANTANDER                                                 3
 ACTION:UPD 12-07-13 15:53 OP:ep   STATUS:               ID:20110821080108 L   I
 2011-08-21-0756-07S.COL___151                                                 6
 STAT SP IPHASW D HRMM SECON CODA AMPLIT PERI AZIMU VELO AIN AR TRES W  DIS CAZ7
 BAR2 SZ EP   1    8 1 28.73                             167    0.04 8 31.9 220 
 BAR2 SZ ES   1    8 1 44.13                             167   -0.14 8 31.9 220 
 BAR2 SZ I         8 1 46.97        19.6 0.34                          31.9 220 
 BRR  HZ EP   1    8 1 30.77                             148   -0.08 8 85.4 292 
 BRR  HN ES   1    8 1 48.29                             148    0.17 8 85.4 292 
 BRR  HZ I         8 1 50.80        12.7 0.11                          85.4 292 
 RUS  HZ EP        8 1 32.81                             143    0.1110  102 185 
 RUS  HN ES   1    8 1 51.38                             143   -0.04 7  102 185 
 RUS  HZ I         8 1 52.84         6.8 0.23                           102 185 
 OCA  SZ EP   1    8 1 37.37                             130    0.13 7  162 347 
 OCA  SZ ES   1    8 1 59.31                             130   -0.18 7  162 347 
 OCA  SZ I         8 2  6.59         8.1 0.25                           162 347 
 PRA  HZ EP   1    8 2  3.04                             106   -0.35 4  402 212 
                                                                                
