 2017  221 0530 46.2 L   6.726 -73.174142.0  RSN  5 0.5 1.1LRSN                1
 GAP=228        1.21       9.8     9.8  9.8  0.6567E+02  0.1927E+02  0.5303E+01E
 Epicentro: VILLANUEVA - SANTANDER                                             3
 ACTION:UPD 17-05-24 15:38 OP:jn   STATUS:               ID:20170221053046 L   I
 OLDACT:UP  17-02-21 16:59 OP:dani STATUS:               ID:20170221052743     3
 OLDACT:UP  17-02-21 16:59 OP:dani STATUS:               ID:20170221052743     3
 OLDACT:UP  17-02-21 16:58 OP:dani STATUS:               ID:20170221052743     3
 OLDACT:UP  17-02-21 16:58 OP:dani STATUS:               ID:20170221052743     3
 OLDACT:UP  17-02-21 16:58 OP:dani STATUS:               ID:20170221052743     3
 OLDACT:UP  17-02-21 16:58 OP:dani STATUS:               ID:20170221052743     3
 OLDACT:REG 17-02-21 14:27 OP:dani STATUS:               ID:20170221052743     3
 2017-02-21-0528-00M.COL___379                                                 6
 STAT SP IPHASW D HRMM SECON CODA AMPLIT PERI AZIMU VELO AIN AR TRES W  DIS CAZ7
 BAR2 EZ EP        531  4.43                             173   -0.8010 14.8 184 
 BAR2 EZ ES        531 19.79                             173   -0.2810 14.8 184 
 BAR2 EZ I         531 21.09         4.8 0.24            171           14.8 184 
 BRR  HZ EP        531  6.95                             151   -0.0910 72.9 305 
 BRR  HN ES        531 23.67                             151    0.3810 72.9 305 
 BRR  HZ I         531 25.01         2.3 0.14            152           72.9 305 
 RUS  HZ EP        531  9.29                             145    0.2810 92.7 174 
 RUS  HN ES        531 27.29                             145    0.4810 92.7 174 
 RUS  HZ I         531 28.85         1.1 0.26            145           92.7 174 
 PTB  HZ EP        531 12.66                             132    0.21 9  143 262 
 PTB  HE ES   1    531 31.91                             132   -1.02 7  143 262 
 PTB  HZ I         531 35.42         1.7 0.12            132            143 262 
 ZAR  HN ES        531 44.06                             121    0.47 9  204 295 
                                                                                
