 2013  621 0549 50.7 L   6.749 -73.169149.5  RSN  5 0.3 1.4LRSN                1
 GAP=179        0.60       4.2     4.9  4.9  0.6392E+01  0.3585E+01  0.5734E+00E
 Epicentro: VILLANUEVA - SANTANDER                                             3
 ACTION:UPD 14-01-08 09:56 OP:ep   STATUS:               ID:20130621054950 L   I
 OLDACT:REG 13-06-21 09:03 OP:carl STATUS:               ID:20130621054959     3
 2013-06-21-0549-59M.COL___262                                                 6
 STAT SP IPHASW D HRMM SECON CODA AMPLIT PERI AZIMU VELO AIN AR TRES W  DIS CAZ7
 BAR2 SZ EP        550 10.76                             173    0.1110 17.4 185 
 BAR2 SZ ES   1    550 26.03                             173   -0.21 7 17.4 185 
 BAR2 SZ I         550 27.34         6.6 0.16            170           17.4 185 
 GIR2 SZ EP        550 10.77                             166   -0.1710 36.6 356 
 GIR2 SZ ES   1    550 26.39                             166   -0.36 7 36.6 356 
 BRR  HZ IP     C  550 12.44                             153    0.1710 71.9 303 
 BRR  HN ES   1    550 29.70                             153    0.59 7 71.9 303 
 BRR  HZ I         550 32.67         4.2 0.28            149           71.9 303 
 RUS  HZ EP        550 14.33                             146   -0.0910 95.1 174 
 RUS  HN ES        550 33.11                             146    0.1710 95.1 174 
 PTB  HZ EP        550 17.58                             134   -0.05 9  144 261 
 PTB  HN ES   1    550 38.34                             134   -0.33 7  144 261 
 PTB  HZ I         550 43.57         2.2 0.46            132            144 261 
                                                                                
