 2016 1121 0720 14.5 L   6.761 -73.147147.9  RSN 10 0.7 1.8LRSN                1
 GAP=121        1.58       6.0     5.7  9.5  0.1733E+01  0.1058E+02  0.2575E+02E
 Epicentro: LOS SANTOS - SANTANDER                                             3
 ACTION:UPD 17-10-26 21:10 OP:lp   STATUS:               ID:20161121072014 L   I
 OLDACT:UP  16-11-21 16:19 OP:cog  STATUS:               ID:20161121071749d    3
 OLDACT:DUP 16-11-21 16:00 OP:cog  STATUS:               ID:20161121071749d    3
 2016-11-21-0718-00M.COL___343                                                 6
 STAT SP IPHASW D HRMM SECON CODA AMPLIT PERI AZIMU VELO AIN AR TRES W  DIS CAZ7
 BAR2 EZ EP        720 33.98                             172   -0.3610 19.1 192 
 BAR2 EZ ES        720 49.52                             172   -0.2710 19.1 192 
 BAR2 EZ I         720 52.34        16.7 0.34            171           19.1 192 
 BRR  HZ EP        720 36.26                             152    0.2310 73.2 302 
 BRR  HN ES        720 53.75                             152    0.9610 73.2 302 
 BRR  HZ I         720 58.05         6.1 0.24            152           73.2 302 
 PAM  EZ EP        720 37.25                             150    0.0710 80.8  38 
 PAM  EN ES        720 54.71                             150   -0.1310 80.8  38 
 PAM  EZ I         720 56.91         7.1 0.48            154           80.8  38 
 PTB  HZ EP        720 41.40                             133   -0.19 9  147 260 
 PTB  HN ES        721  1.40                             133   -1.30 9  147 260 
 PTB  HZ I         721  4.67         6.0 0.14            134            147 260 
 ZAR  HZ EP        720 47.05                             123   -0.23 8  206 293 
 ZAR  HE ES        721 13.01                             123    0.20 8  206 293 
 ZAR  HZ I         721 18.74         5.8 0.28            124            206 293 
 NOR  HZ EP        720 50.63                             119    0.52 8  232 235 
 NOR  HN ES        721 17.27                             119   -0.59 8  232 235 
 NOR  HZ I         721 22.08         6.9 0.32            121            232 235 
 CHI  HZ EP        720 52.74                             118    0.84 8  244 195 
 CHI  HE ES        721 22.97                             118    1.93 8  244 195 
 ROSC BZ EP   4    720 54.74                             117    2.38 0  249 212 
 ROSC BE ES   4    721 17.24                             117   -4.63 0  249 212 
 URE  HN ES   4    721 26.83                             114   -1.29 0  285 293 
 PTGC HZ EP        720 57.29                             112   -0.75 7  305 158 
 PTGC HN ES        721 31.30                             112   -0.67 7  305 158 
 CBOC HZ EP        721  1.66                             110    0.28 7  332 253 
 CBOC HN ES        721 37.95                             110    0.04 7  332 253 
 PRA  HZ EP   3    721  6.56                             107   -1.13 1  388 210 
 PRA  HE ES        721 48.30                             107   -0.84 6  388 210 
 PRA  HZ I         721 55.84         2.6 0.58            109            388 210 
 SJC  HZ EP   4    721  8.73                             106   -1.85 0  413 327 
 SJC  HE ES   4    721 50.36                             106   -3.94 0  413 327 
                                                                                
