 2013  121 0754  0.9 L   6.857 -73.280123.3  RSN 10 0.5 2.4LRSN 2.9WRSN        1
 SPEC AVERAGE  MO 13.4 ST 13.9 OM  1.8 f0 6.04 R0.2589 AL 2.62 WI 20.8 MW  2.9 3
 SPEC SD       MO  0.3 ST 17.6 OM  0.5 f0 1.60 R0.0603 AL      WI      MW  0.2 3
 GAP= 62        1.17       3.6     3.9  6.5  0.1333E+01  0.5667E+00  0.2788E+00E
 Epicentro: ZAPATOCA - SANTANDER                                               3
 SPEC URE HH N MO 13.5 ST  9.8 OM  1.7 f0 5.90 R0.2492 AL 2.56 WI 33.0 MW  3.0 3
 SPEC URE HH N T 755 5 K 0.000 GD  295 VS 4.20 DE 3.00 Q0230.0 QA 0.60 VS 4.20 3
 SPEC ZAR HH N MO 13.8 ST 27.7 OM  2.1 f0 6.72 R0.2188 AL 3.40 WI 23.6 MW  3.2 3
 SPEC ZAR HH N T 75452 K 0.000 GD  224 VS 4.20 DE 3.00 Q0230.0 QA 0.60 VS 4.20 3
 SPEC TAM HH Z MO 13.2 ST 11.4 OM  0.7 f0 8.27 R0.1778 AL 2.32 WI  7.6 MW  2.7 3
 SPEC TAM HH Z T 75428 K 0.000 GD  210 VP 7.60 DE 3.00 Q0230.0 QA 0.60 VS 4.20 3
 SPEC RUS HH N MO 13.0 ST  2.1 OM  1.4 f0 5.36 R0.2743 AL 1.86 WI  8.0 MW  2.6 3
 SPEC RUS HH N T 75439 K 0.000 GD  164 VS 4.20 DE 3.00 Q0230.0 QA 0.60 VS 4.20 3
 SPEC OCA HH E MO 13.8 ST  6.1 OM  2.1 f0 4.25 R0.3459 AL 1.79 WI 29.9 MW  3.1 3
 SPEC OCA HH E T 75445 K 0.000 GD  196 VS 4.20 DE 3.00 Q0230.0 QA 0.60 VS 4.20 3
 SPEC PAM SH N MO 12.9 ST  1.3 OM  1.4 f0 4.80 R0.3062 AL 2.60 WI 19.5 MW  2.6 3
 SPEC PAM SH N T 75437 K 0.000 GD  148 VS 4.20 DE 3.00 Q0230.0 QA 0.60 VS 4.20 3
 SPEC CHI HH N MO 13.0 ST  1.3 OM  1.2 f0 4.50 R0.3267 AL 1.81 WI 24.6 MW  2.6 3
 SPEC CHI HH N T 755 3 K 0.000 GD  279 VS 4.20 DE 3.00 Q0230.0 QA 0.60 VS 4.20 3
 SPEC BRR HH N MO 13.5 ST  7.0 OM  2.0 f0 5.43 R0.2707 AL 3.30 WI 28.6 MW  2.9 3
 SPEC BRR HH N T 75432 K 0.000 GD  135 VS 4.20 DE 3.00 Q0230.0 QA 0.60 VS 4.20 3
 SPEC BAR2SH Z MO 13.7 ST 58.7 OM  1.5 f0 9.14 R0.1608 AL 3.96 WI 12.1 MW  3.1 3
 SPEC BAR2SH Z T 75418 K 0.000 GD  127 VP 7.60 DE 3.00 Q0230.0 QA 0.60 VS 4.20 3
 ACTION:UPD 13-02-15 09:15 OP:ep   STATUS:               ID:20130121075400 L   I
 2013-01-21-0750-00M.COL___241                                                 6
 STAT SP IPHASW D HRMM SECON CODA AMPLIT PERI AZIMU VELO AIN AR TRES W  DIS CAZ7
 BAR2 SZ IP     C  754 18.20                             165    0.1710 31.2 160 
 BAR2 SZ ES        754 31.26                             165   -0.1510 31.2 160 
 BAR2 SZ I         754 32.69       215.2 0.38            164           31.2 160 
 BRR  HZ IP     D  754 18.80                             154    0.1010 55.2 300 
 BRR  HN ES        754 33.02                             154    0.4210 55.2 300 
 BRR  HN I         754 33.71       113.7 0.24            146           55.2 300 
 PAM  SZ EP        754 21.49                             144    0.3110 83.5  50 
 PAM  SN I         754 38.98        26.3 0.18            137           83.5  50 
 RUS  HZ EP        754 23.11                             136   -0.0610  109 168 
 RUS  HE ES        754 40.27                             136   -0.3010  109 168 
 RUS  HN I         754 42.11        44.6 0.24            130            109 168 
 PTB  HZ IP     C  754 23.56                             129   -1.2910  135 255 
 PTB  HE ES        754 44.10                             129    0.5510  135 255 
 PTB  HN I         754 45.73        58.5 0.32            122            135 255 
 OCA  HZ EP        754 26.77                             125   -0.04 9  153 358 
 OCA  HN ES        754 46.29                             125   -0.74 9  153 358 
 OCA  HN I         754 47.81       112.1 0.16            118            153 358 
 TAM  HZ IP     D  754 28.98                             122    0.47 9  171 106 
 TAM  HN ES        754 50.13                             122    0.07 9  171 106 
 ZAR  HZ EP        754 30.73                             119    0.50 9  188 292 
 CHI  HZ IP     D  754 37.90                             112    0.16 8  251 192 
 CHI  HZ I         754 38.32         5.1 0.38            108            251 192 
 CHI  HN ES        755  6.21                             112   -0.28 8  251 192 
 HEL  HZ EP        754 38.78                             111    0.18 8  259 254 
 HEL  HN I         755 11.71         6.7 0.64            107            259 254 
 URE  HN ES   4    755  6.49                             110   -2.42 0  268 292 
                                                                                
