 2011 1221 0847 36.6 L   6.729 -73.129134.7  RSN  9 0.4 2.1LRSN                1
 GAP=142        0.95       4.2     5.1  5.5 -0.5851E+01  0.5903E+01  0.2154E+00E
 Epicentro: JORDAN - SANTANDER                                                 3
 ACTION:UPD 12-07-13 16:17 OP:ep   STATUS:               ID:20111221084736 L   I
 2011-12-21-0840-00M.COL___189                                                 6
 STAT SP IPHASW D HRMM SECON CODA AMPLIT PERI AZIMU VELO AIN AR TRES W  DIS CAZ7
 BAR2 SZ EP        847 54.87                             173    0.1210 16.2 201 
 BAR2 SZ ES        848  9.13                             173    0.2110 16.2 201 
 BAR2 SZ I         848 12.14        36.2 0.16                          16.2 201 
 GIR2 SZ EP        847 54.94                             163   -0.2610 39.3 350 
 GIR2 SZ ES        848  9.34                             163   -0.3810 39.3 350 
 BRR  HZ EP        847 56.96                             148    0.0710 76.8 303 
 BRR  HN ES        848 13.54                             148    0.8110 76.8 303 
 BRR  HZ I         848 18.08        36.6 0.13                          76.8 303 
 PAM  SZ EP        847 57.85                             147   -0.1210 82.5  35 
 PAM  SN ES   1    848 14.38                             147   -0.26 7 82.5  35 
 RUS  HZ EP   1    847 59.05                             144    0.38 7 92.6 177 
 RUS  HN ES   1    848 15.80                             144   -0.10 7 92.6 177 
 RUS  HZ I         848 19.25        21.1 0.40                          92.6 177 
 PTB  HZ EP        848  2.00                             129   -0.72 9  148 262 
 PTB  HN ES   1    848 22.46                             129   -0.64 7  148 262 
 OCA  SZ EP        848  5.35                             126    0.50 9  168 353 
 OCA  SZ ES   1    848 26.56                             126   -0.33 7  168 353 
 OCA  SZ I         848 29.74        11.4 0.42                           168 353 
 NOR  SZ EP   1    848 11.57                             116    0.20 6  232 236 
 NOR  SE ES   1    848 38.65                             116    0.15 6  232 236 
 HEL  HZ EP   1    848 16.54                             112    0.29 6  272 258 
 HEL  HZ I         848 54.19         6.5 0.36                           272 258 
                                                                                
