 2012  321 0142 27.9 L   6.794 -73.163148.0  RSN  5 0.3 1.3LRSN                1
 GAP=135        0.61       4.9     5.3  8.4 -0.3741E+01  0.3116E+01 -0.5209E+01E
 ACTION:UP  12-03-31 23:21 OP:EP   STATUS:               ID:20120321014227 L   I
 2012-03-21-0140-00M.COL___202                                                 6
 STAT SP IPHASW D HRMM SECON CODA AMPLIT PERI AZIMU VELO SNR AR TRES W  DIS CAZ7
 BAR2 SZ EP   1    142 47.57                             171    -0.2 7   22 185 
 BRR  HZ EP   2    142 49.82                             153     0.6 5   70 300 
 BRR  HN ES   2    143  6.38                             153     0.6 5   70 300 
 BRR  HZ I         143  9.66         5.2 0.13                            70 300 
 PAM  SZ EP        142 50.41                             151     0.010   79  40 
 PAM  SE ES   2    143  7.60                             151    -0.4 5   79  40 
 RUS  HZ EP   1    142 52.00                             144     0.2 7  100 175 
 RUS  HN ES   1    143 10.49                             144     0.0 7  100 175 
 RUS  HZ I         143 11.60         2.8 0.65                           100 175 
 PTB  HZ EP   1    142 54.63                             133    -0.2 7  146 259 
 PTB  HN ES   2    143 15.35                             133    -0.5 5  146 259 
                                                                                
