 2017  121 0738 10.4 L   6.773 -73.175150.3  RSN  5 0.3 1.0LRSN                1
 GAP=134        0.74       4.9     5.1  5.8  0.6646E+01 -0.2367E+01 -0.4630E+01E
 Epicentro: LOS SANTOS - SANTANDER                                             3
 ACTION:UPD 17-05-22 16:01 OP:jn   STATUS:               ID:20170121073810 L   I
 OLDACT:UP  17-01-21 19:14 OP:dani STATUS:               ID:20170121073746     3
 OLDACT:REG 17-01-21 12:51 OP:dani STATUS:               ID:20170121073746     3
 2017-01-21-0738-00M.COL___337                                                 6
 STAT SP IPHASW D HRMM SECON CODA AMPLIT PERI AZIMU VELO AIN AR TRES W  DIS CAZ7
 BAR2 EZ EP        738 30.42                             172   -0.0910 19.9 182 
 BAR2 EZ ES        738 45.81                             172   -0.3910 19.9 182 
 BAR2 EZ I         738 47.36         3.3 0.34            173           19.9 182 
 BRR  HZ EP        738 32.11                             154    0.1410 70.0 302 
 BRR  HN ES        738 49.24                             154    0.4410 70.0 302 
 BRR  HZ I         738 51.90         2.1 0.38            153           70.0 302 
 PAM  EZ EP        738 33.14                             150   -0.2210 81.8  40 
 RUS  HZ EP        738 34.75                             145    0.3410 97.8 174 
 RUS  HE ES        738 53.26                             145    0.1310 97.8 174 
 RUS  HZ I         738 54.33         1.7 0.40            148           97.8 174 
 PTB  HZ EP        738 37.18                             134   -0.23 9  144 260 
 PTB  HN ES   1    738 58.17                             134   -0.31 7  144 260 
 PTB  HZ I         739  0.26         0.9 0.17            135            144 260 
                                                                                
