 2011  921 0733 12.7 L   6.811 -73.310115.7  RSN  9 0.2 1.8LRSN                1
 GAP=128        0.47       1.9     2.9  3.7  0.6468E+00  0.3969E+01  0.9904E+00E
 Epicentro: ZAPATOCA - SANTANDER                                               3
 ACTION:UPD 12-07-13 15:58 OP:ep   STATUS:               ID:20110921073312 L   I
 2011-09-21-0728-57S.COL___165                                                 6
 STAT SP IPHASW D HRMM SECON CODA AMPLIT PERI AZIMU VELO AIN AR TRES W  DIS CAZ7
 BTL  SZ EP        733 28.62                             173    0.0610 12.7  21 
 BAR2 SZ EP        733 28.78                             166   -0.1210 28.0 150 
 BAR2 SZ I         733 29.12        18.9 0.09                          28.0 150 
 BAR2 SZ ES   1    733 41.73                             166    0.23 7 28.0 150 
 BRR  HZ EP        733 29.56                             153   -0.1810 55.2 306 
 BRR  HE ES   1    733 43.28                             153    0.29 7 55.2 306 
 BRR  HZ I         733 44.87        23.6 0.15                          55.2 306 
 RUS  HZ EP   2    733 33.47                             135   -0.55 5  105 166 
 RUS  HE ES   1    733 50.43                             135   -0.19 7  105 166 
 RUS  HZ I         733 52.97         5.3 0.25                           105 166 
 OCA  SZ EP   1    733 39.00                             122    0.34 7  158 360 
 OCA  SZ ES   1    733 58.77                             122   -0.11 7  158 360 
 OCA  SZ I         734  2.25        12.5 0.28                           158 360 
 ZAR  HZ EP   1    733 41.39                             117   -0.16 7  187 294 
 ZAR  HE ES   1    734  3.78                             117   -0.23 7  187 294 
 ZAR  HZ I         734  7.91         6.1 0.19                           187 294 
 NOR  SZ EP   1    733 45.49                             113    0.11 6  221 231 
 NOR  SN ES   1    734 10.88                             113    0.05 6  221 231 
 CHI  HZ EP   1    733 48.92                             110    0.28 6  246 191 
 CHI  HZ I         734 22.71         2.1 0.46                           246 191 
 PRA  HZ EP   1    734  5.07                             101    0.57 4  385 207 
 PRA  HE ES   1    734 44.78                             101   -0.09 4  385 207 
 PRA  HZ I         734 54.18         7.8 0.23                           385 207 
                                                                                
