 2012 1021 0310 50.7 L   6.825 -73.102132.5  RSN  4 0.1 1.3LRSN                1
 GAP=141        0.34       3.4     4.1  5.2  0.5106E+01 -0.1263E+02 -0.5151E+01E
 Epicentro: LOS SANTOS - SANTANDER                                             3
 ACTION:UPD 12-11-22 17:05 OP:ep   STATUS:               ID:20121021031050 L   I
 2012-10-21-0310-00M.COL___231                                                 6
 STAT SP IPHASW D HRMM SECON CODA AMPLIT PERI AZIMU VELO AIN AR TRES W  DIS CAZ7
 BAR2 SZ EP   2    311  8.73                             168   -0.12 5 27.3 199 
 BAR2 SZ I         311  9.80         9.8 0.56                          27.3 199 
 BAR2 SZ ES   2    311 22.83                             168   -0.17 5 27.3 199 
 PAM  SZ EP        311 11.25                             150    0.0310 72.2  38 
 PAM  SZ I         311 12.42         3.2 0.20                          72.2  38 
 BRR  HZ EP        311 10.69                             149    0.0510 74.2 295 
 BRR  HN ES        311 26.16                             149   -0.0210 74.2 295 
 BRR  HZ I         311 28.36         3.5 0.11                          74.2 295 
 RUS  HZ EP   2    311 13.16                             140   -0.23 5  103 179 
 RUS  HE ES   2    311 31.33                             140    0.25 5  103 179 
 RUS  HE I         311 33.53         2.8 0.16                           103 179 
                                                                                
