 2011 1221 0040 33.5 L   6.785 -73.113141.8  RSN  5 0.1 1.6LRSN                1
 GAP=186        0.32       1.5     4.2  2.9  0.1957E+01 -0.2883E+01  0.5478E-03E
 Epicentro: LOS SANTOS - SANTANDER                                             3
 ACTION:UPD 12-07-13 16:17 OP:ep   STATUS:               ID:20111221004033 L   I
 2011-12-21-0040-00M.COL___189                                                 6
 STAT SP IPHASW D HRMM SECON CODA AMPLIT PERI AZIMU VELO AIN AR TRES W  DIS CAZ7
 BAR2 SZ EP        040 52.55                             170   -0.0910 22.6 200 
 BAR2 SZ ES   1    041  7.48                             170   -0.09 7 22.6 200 
 BAR2 SZ I         041  9.86         9.7 0.24                          22.6 200 
 BRR  HZ EP        040 54.50                             150    0.0410 75.2 298 
 BRR  HE ES        041 10.85                             150    0.0410 75.2 298 
 RUS  HZ EP   1    040 57.01                             143    0.28 7 98.7 178 
 RUS  HE ES   1    041 14.85                             143    0.01 7 98.7 178 
 RUS  HZ I         041 17.43         6.0 0.31                          98.7 178 
 OCA  SZ EP   1    041  1.63                             128   -0.08 7  162 352 
 OCA  SZ ES   1    041 23.70                             128   -0.01 7  162 352 
 OCA  SZ I         041 26.64         8.2 0.28                           162 352 
 CHI  HZ EP   1    041 10.83                             116   -0.08 6  248 196 
 CHI  HE ES   1    041 39.97                             116   -0.12 6  248 196 
 CHI  HZ I         041 45.96         2.3 0.23                           248 196 
                                                                                
