 2015  921 0408 50.0 L   6.811 -73.176153.7  RSN  8 0.4 1.7LRSN                1
 GAP=187        1.05       4.1     6.2  9.1 -0.7800E+01 -0.8097E+01  0.3231E+01E
 Epicentro: LOS SANTOS - SANTANDER                                             3
 ACTION:UPD 15-10-28 16:27 OP:cam  STATUS:               ID:20150921040850 L   I
 OLDACT:REG 15-09-21 12:27 OP:mh   STATUS:               ID:20150921040748     3
 2015-09-21-0407-48M.COL___355                                                 6
 STAT SP IPHASW D HRMM SECON CODA AMPLIT PERI AZIMU VELO AIN AR TRES W  DIS CAZ7
 BAR2 EZ EP        4 9 10.25                             171   -0.3610 24.2 182 
 BRR  HZ EP        4 9 11.85                             155    0.0210 67.6 299 
 BRR  HN ES        4 9 29.47                             155    0.6210 67.6 299 
 PTB  HZ EP        4 9 17.49                             134    0.13 9  145 258 
 PTB  HN ES        4 9 38.19                             134   -0.51 9  145 258 
 PTB  HZ I         4 9 39.78         3.2 0.14            131            145 258 
 OCA  HZ EP        4 9 19.01                             132    0.22 9  159 354 
 OCA  HN ES        4 9 41.05                             132   -0.20 9  159 354 
 OCA  HZ I         4 9 44.78         7.3 0.30            129            159 354 
 SPBC HZ EP        4 9 19.57                             131    0.55 9  162 218 
 SPBC HN ES        4 9 41.29                             131   -0.36 9  162 218 
 SPBC HZ I         4 9 43.52         8.8 0.22            129            162 218 
 ZAR  HZ EP        4 9 22.74                             125    0.13 9  200 292 
 ZAR  HN ES        4 9 48.70                             125    0.65 9  200 292 
 ZAR  HZ I         4 9 54.35         2.0 0.22            121            200 292 
 SML  HN ES        4 9 54.74                             119   -0.79 8  241 336 
 SML  HZ I         4 9 59.51         6.5 0.26            117            241 336 
 HEL  HN ES        410  1.43                             117   -0.32 8  269 255 
 HEL  HZ I         410  9.15         2.0 0.24            115            269 255 
                                                                                
