 2017  821 0950 36.4 L   6.803 -73.112143.2  RSN 22 0.5 2.1LRSN                1
 GAP= 68        0.89       2.3     2.8  4.3 -0.4869E+00  0.2696E+01  0.1962E+01E
 Epicentro: LOS SANTOS - SANTANDER                                             3
 ACTION:UPD 17-09-04 20:22 OP:rebc STATUS:               ID:20170821095036 L   I
 OLDACT:UP  17-08-21 17:49 OP:and  STATUS:               ID:20170821094740     3
 OLDACT:UP  17-08-21 17:47 OP:and  STATUS:               ID:20170821094740     3
 OLDACT:UP  17-08-21 17:46 OP:and  STATUS:               ID:20170821094740     3
 OLDACT:UP  17-08-21 17:44 OP:and  STATUS:               ID:20170821094740     3
 OLDACT:UP  17-08-21 17:43 OP:and  STATUS:               ID:20170821094740     3
 OLDACT:UP  17-08-21 17:43 OP:and  STATUS:               ID:20170821094740     3
 OLDACT:UP  17-08-21 17:43 OP:and  STATUS:               ID:20170821094740     3
 OLDACT:UP  17-08-21 17:43 OP:and  STATUS:               ID:20170821094740     3
 OLDACT:UP  17-08-21 17:42 OP:and  STATUS:               ID:20170821094740     3
 OLDACT:UP  17-08-21 17:35 OP:and  STATUS:               ID:20170821094740     3
 OLDACT:UP  17-08-21 17:34 OP:and  STATUS:               ID:20170821094740     3
 OLDACT:UP  17-08-21 17:32 OP:and  STATUS:               ID:20170821094740     3
 OLDACT:REG 17-08-21 13:32 OP:osc  STATUS:               ID:20170821094740     3
 2017-08-21-0948-00M.COL___411                                                 6
 STAT SP IPHASW D HRMM SECON CODA AMPLIT PERI AZIMU VELO AIN AR TRES W  DIS CAZ7
 BAR2 EZ EP        950 55.54                             170   -0.2310 24.6 199 
 BAR2 EZ ES        951 10.68                             170   -0.1810 24.6 199 
 BAR2 EZ I         951 11.66        56.8 0.28            167           24.6 199 
 BRR  HZ IP     D  950 57.37                             151   -0.1110 74.4 297 
 BRR  HN ES        951 14.45                             151    0.5510 74.4 297 
 BRR  HZ I         951 18.21        28.5 0.32            141           74.4 297 
 PAM  EZ IP     D  950 58.38                             151    0.1710 74.8  37 
 PAM  EN ES        951 15.45                             151    0.2510 74.8  37 
 PAM  EZ I         951 17.72        29.8 0.56            147           74.8  37 
 RUS  HZ EP        950 59.55                             143   -0.3810  101 178 
 RUS  HN ES        951 18.23                             143   -0.0410  101 178 
 RUS  HZ I         951 19.69        12.3 0.22            139            101 178 
 TAM  HZ IP   1 C  951  3.99                             131    0.42 7  152 105 
 SPBC HZ EP        951  4.61                             128   -0.37 9  166 220 
 SPBC HN ES        951 26.60                             128   -0.65 9  166 220 
 SPBC HZ I         951 32.84        15.6 0.10            121            166 220 
 YPLC HZ IP     C  951  6.02                             126    0.14 9  175 152 
 YPLC HN ES        951 28.92                             126    0.06 9  175 152 
 YPLC HZ I         951 32.72        10.5 0.28            122            175 152 
 ZAR  HZ EP   2    951  9.88                             121    0.83 4  207 292 
 ZAR  HN ES        951 33.83                             121   -0.67 8  207 292 
 ZAR  HZ I         951 40.20        22.4 0.26            114            207 292 
 NOR  HZ EP   3    951 10.33                             118   -2.02 2  238 235 
 NOR  HN ES        951 40.33                             118   -0.05 8  238 235 
 NOR  HZ I         951 45.10         5.6 0.16            111            238 235 
 CHI  HZ IP     D  951 13.96                             116   -0.16 8  250 196 
 CHI  HN ES        951 43.31                             116   -0.22 8  250 196 
 CHI  HZ I         951 46.65         7.3 0.56            111            250 196 
 ROSC BZ EP   2    951 15.00                             116    0.35 4  255 212 
 ROSC BN ES        951 45.67                             116    1.21 8  255 212 
 ROSC BZ I         951 51.85        11.8 0.35            110            255 212 
 HEL  HZ EP        951 17.40                             114    0.48 7  276 256 
 HEL  HN ES        951 48.37                             114   -0.14 7  276 256 
 HEL  HZ I         951 54.76         7.0 0.28            108            276 256 
 URE  HZ EP   3    951 16.22                             113   -1.53 2  287 292 
 URE  HZ I         951 56.94         9.6 0.24            106            287 292 
 GUY2CHZ EP   3    951 22.17                             112    1.89 2  304 235 
 GUY2CHN ES        951 54.82                             112    0.33 7  304 235 
 GUY2CHZ I         951 59.83         3.9 0.32                           304 235 
 VIL  EN ES        951 53.50                             111   -0.22 7  304 192 
 VIL  EZ I         951 56.32        13.0 0.40            106            304 192 
 PTGC HZ IP   9 D  951 18.83                             111   -1.21 0  308 159 
 PTGC HE ES        951 52.33                             111   -0.53 7  308 159 
 PTGC HZ I         951 53.64         6.2 0.34            107            308 159 
 LL6C HZ IP   3 C  951 20.87                             110   -1.13 2  325 357 
 LL6C HN ES        951 57.45                             110   -0.10 7  325 357 
 LL6C HZ I         951 58.50         3.4 0.36            105            325 357 
 ELA  HZ EP   9    951 24.93                             110    1.41 0  332 230 
 ELA  HE ES        952  2.23                             110    0.57 7  332 230 
 ELA  HZ I         952  8.32         4.7 0.52            104            332 230 
 PRA  HZ EP        951 30.08                             106   -0.02 6  394 210 
 PRA  HN ES        952 11.55                             106   -0.43 6  394 210 
 PRA  HZ I         952 16.85         7.8 0.30            101            394 210 
 ORTC HZ EP        951 30.89                             106    0.34 6  398 217 
 ORTC HN ES        952 13.27                             106    0.51 6  398 217 
 ORTC HZ I         952 19.00         3.3 0.52            101            398 217 
 PAL  HZ EP        951 31.93                             105    0.03 6  409 239 
 PAL  HZ I         952 15.60         3.6 0.10            100            409 239 
 SJC  HZ IP   4 D  951 29.77                             105   -2.34 0  411 326 
 SJC  HN ES   4    952 10.89                             105   -4.66 0  411 326 
 SJC  HZ I         952 17.58         3.8 0.72            100            411 326 
                                                                                
