 2012 1221 0351 51.3 L   6.780 -73.142144.7  RSN 11 0.3 2.0LRSN                1
 GAP= 72        0.78       2.9     3.2  4.9 -0.2158E+00  0.1199E+01  0.1290E+01E
 Epicentro: LOS SANTOS - SANTANDER                                             3
 ACTION:UPD 13-01-04 14:29 OP:ep   STATUS:               ID:20121221035151 L   I
 2012-12-21-0350-00M.COL___243                                                 6
 STAT SP IPHASW D HRMM SECON CODA AMPLIT PERI AZIMU VELO AIN AR TRES W  DIS CAZ7
 BAR2 SZ EP        352 10.80                             171    0.0910 21.2 192 
 BAR2 SZ ES   1    352 26.37                             171    0.48 7 21.2 192 
 BAR2 SZ I         352 27.63        32.7 0.31                          21.2 192 
 GIR2 SZ EP        352 10.93                             166    0.0710 33.6 350 
 GIR2 SZ I         352 28.21         9.1 0.10                          33.6 350 
 BRR  HZ IP     C  352 12.73                             152    0.3710 72.6 300 
 BRR  HZ I         352 13.04        34.9 0.22                          72.6 300 
 BRR  HN ES   1    352 29.31                             152    0.48 7 72.6 300 
 PAM  SZ EP        352 13.67                             150    0.2310 78.9  38 
 PAM  SZ I         352 14.10        23.2 0.25                          78.9  38 
 PAM  SN ES        352 30.19                             150   -0.5610 78.9  38 
 RUS  HZ EP        352 14.72                             144   -0.0110 98.3 176 
 RUS  HN ES        352 32.97                             144   -0.0810 98.3 176 
 RUS  HN I         352 35.25        13.3 0.27                          98.3 176 
 PTB  HZ EP        352 17.58                             132   -0.55 9  148 260 
 PTB  HE ES        352 38.74                             132   -0.35 9  148 260 
 PTB  HZ I         352 44.80        14.0 0.33                           148 260 
 TAM  HZ EP        352 18.84                             130    0.09 9  154 104 
 OCA  HZ EP   1    352 19.30                             129   -0.39 7  163 353 
 OCA  HN ES   1    352 41.93                             129    0.05 7  163 353 
 ZAR  HZ EP   1    352 24.51                             122    0.76 6  205 293 
 ZAR  HN ES   1    352 48.89                             122   -0.21 6  205 293 
 ZAR  HZ I         352 55.97        14.5 0.31                           205 293 
 CHI  HZ EP   1    352 28.52                             117   -0.14 6  247 195 
 CHI  HN ES   1    352 57.90                             117    0.05 6  247 195 
 MON  HZ EP   4    352 37.96                             108   -2.45 0  355 309 
 MON  HN ES   4    353 16.23                             108   -2.52 0  355 309 
 PRA  HZ EP   1    352 44.62                             106    0.09 4  390 210 
 PRA  HZ I         353 32.56         3.1 0.32                           390 210 
                                                                                
