 2012  321 0851  7.4 L   6.743 -73.130152.0  RSN  5 0.4 1.5LRSN                1
 GAP=141        0.78       8.0     7.5  9.5  0.1542E+01  0.6753E+01  0.1014E+02E
 ACTION:UP  12-03-31 23:21 OP:EP   STATUS:               ID:20120321085107 L   I
 2012-03-21-0850-00M.COL___202                                                 6
 STAT SP IPHASW D HRMM SECON CODA AMPLIT PERI AZIMU VELO SNR AR TRES W  DIS CAZ7
 BAR2 SZ EP   1    851 27.63                             173    -0.1 7   18 199 
 BAR2 SZ ES   2    851 42.73                             173    -0.8 5   18 199 
 BAR2 SZ I         851 43.89         7.1 0.36                            18 199 
 BRR  HZ EP   1    851 29.57                             152     0.1 7   76 302 
 BRR  HZ I         851 29.79        11.8 0.16                            76 302 
 BRR  HN ES   1    851 47.30                             152     0.6 7   76 302 
 PAM  SZ EP   2    851 30.51                             151     0.0 5   81  36 
 PAM  SN ES   2    851 48.28                             151    -0.3 5   81  36 
 RUS  HZ EP   2    851 31.90                             147     0.5 5   94 177 
 RUS  HZ I         851 49.18         4.1 0.53                            94 177 
 RUS  HE ES   2    851 50.45                             147     0.4 5   94 177 
 PTB  HZ EP   1    851 34.63                             133    -0.3 7  148 261 
 PTB  HN ES   2    851 55.99                             133    -0.5 5  148 261 
 PTB  HZ I         852  2.94         2.2 0.35                           148 261 
                                                                                
