 2016  321 0350 55.6 L   6.842 -73.007156.0  RSN  8 0.4 1.3LRSN                1
 GAP=220        0.92       4.8     6.2  7.2  0.5169E+01  0.1297E+02 -0.4336E+01E
 Epicentro: CEPITA - SANTANDER                                                 3
 ACTION:UPD 16-05-13 21:25 OP:cam  STATUS:               ID:20160321035055 L   I
 OLDACT:REG 16-03-21 12:39 OP:ak   STATUS:               ID:20160321034742     3
 2016-03-21-0347-42M.COL___283                                                 6
 STAT SP IPHASW D HRMM SECON CODA AMPLIT PERI AZIMU VELO AIN AR TRES W  DIS CAZ7
 BAR2 EZ EP        351 16.31                             167   -0.3610 33.7 215 
 BAR2 EZ ES        351 33.15                             167    0.0210 33.7 215 
 BAR2 EZ I         351 34.02         2.5 0.25            164           33.7 215 
 RUS  HZ EP        351 21.41                             144    0.7410  105 185 
 RUS  HE ES        351 40.13                             144   -0.1210  105 185 
 RUS  HZ I         351 42.53         1.4 0.30            144            105 185 
 PTB  HZ EP        351 24.05                             131   -0.77 9  164 258 
 PTB  HN ES   4    351 45.30                             131   -2.34 0  164 258 
 PTB  HZ I         351 50.41         3.5 0.42            131            164 258 
 SPBC HZ EP        351 26.28                             129    0.15 9  177 222 
 SPBC HN ES        351 49.86                             129   -0.11 9  177 222 
 SPBC HZ I         351 55.57         3.3 0.38            129            177 222 
 ZAR  HE ES        351 57.32                             123    0.48 8  217 289 
 CHI  HZ EP   2    351 34.93                             118    0.13 4  257 198 
 CHI  HN ES        352  5.39                             118   -0.01 8  257 198 
 GUY2CHN ES        352 17.14                             113    0.04 7  316 236 
 SJC  HZ EP        351 51.96                             107   -0.08 6  414 325 
 SJC  HN ES   4    352 33.62                             107   -2.47 0  414 325 
                                                                                
