 2012  221 0908 34.3 L   6.734 -73.155144.9  RSN  6 0.3 1.6LRSN                1
 GAP=138        0.61       4.1     4.1  5.3 -0.1913E+01  0.2527E+01  0.2388E+01E
 ACTION:UP  12-03-07 16:32 OP:epov STATUS:               ID:20120221090834 L   I
 2012-02-21-0906-59S.COL___191                                                 6
 STAT SP IPHASW D HRMM SECON CODA AMPLIT PERI AZIMU VELO AIN AR TRES W  DIS CAZ7
 BAR2 SZ EP   1    9 8 53.84                             173    0.10 7 16.0 191 
 BAR2 SZ ES   1    9 9  8.52                             173   -0.35 7 16.0 191 
 BAR2 SZ I         9 9  9.66        12.2 0.23                          16.0 191 
 GIR2 SZ EP   1    9 8 54.01                             164   -0.11 7 38.3 354 
 GIR2 SZ ES   1    9 9  9.70                             164    0.16 7 38.3 354 
 BRR  HZ EP   1    9 8 55.79                             151    0.23 7 74.1 304 
 BRR  HE ES   1    9 9 12.67                             151    0.56 7 74.1 304 
 BRR  HZ I         9 9 17.81        12.8 0.18                          74.1 304 
 PAM  SZ EP   1    9 8 56.90                             149    0.05 7 83.7  37 
 PAM  SN ES   1    9 9 14.00                             149   -0.41 7 83.7  37 
 PAM  SZ I         9 9 16.47         5.8 0.49                          83.7  37 
 RUS  HZ EP   1    9 8 57.72                             146    0.23 7 93.4 175 
 RUS  HN ES   1    9 9 15.69                             146    0.13 7 93.4 175 
 RUS  HZ I         9 9 16.92         3.0 0.26                          93.4 175 
 PTB  HZ EP   1    9 9  0.70                             132   -0.33 7  145 262 
 PTB  HN ES   1    9 9 21.48                             132   -0.36 7  145 262 
                                                                                
