 2014  121 0911  2.8 L   6.835 -73.210140.6  RSN  9 0.5 1.8LRSN                1
 GAP=127        1.33       4.8     6.4  9.4 -0.9640E+01  0.2026E+02 -0.1617E+02E
 Epicentro: ZAPATOCA - SANTANDER                                               3
 ACTION:UPD 14-03-13 09:57 OP:ep   STATUS:               ID:20140121091102 L   I
 OLDACT:REG 14-01-21 06:56 OP:nd   STATUS:               ID:20140121091000     3
 2014-01-21-0910-00M.COL___279                                                 6
 STAT SP IPHASW D HRMM SECON CODA AMPLIT PERI AZIMU VELO AIN AR TRES W  DIS CAZ7
 BAR2 SZ EP        911 22.22                             168    0.2910 27.1 174 
 BAR2 SZ ES        911 36.77                             168   -0.0510 27.1 174 
 BAR2 SZ I         911 38.05        18.3 0.36            170           27.1 174 
 PAM  SZ IP     C  911 25.26                             149    0.6410 79.3  45 
 PAM  SN EP        911 25.28                             149    0.6610 79.3  45 
 PAM  SZ ES        911 41.39                             149   -0.2210 79.3  45 
 PAM  SE ES        911 41.71                             149           79.3  45 
 PAM  SN I         911 42.95        13.3 0.24            154           79.3  45 
 PAM  SZ I         911 44.06        11.9 0.56                          79.3  45 
 RUS  HZ EP        911 26.24                             141   -0.1910  105 172 
 RUS  HN ES        911 44.52                             141   -0.3110  105 172 
 RUS  HZ I         911 46.42         4.1 0.32            147            105 172 
 PTB  HZ EP        911 28.86                             132    0.03 9  142 257 
 PTB  HN ES        911 49.11                             132    0.01 9  142 257 
 PTB  HZ I         911 56.87         5.2 0.16            131            142 257 
 OCA  HZ EP        911 28.75                             129   -1.57 9  156 356 
 OCA  HN ES   4    911 51.52                             129   -0.23 0  156 356 
 OCA  HZ I         911 57.65         6.4 0.26            131            156 356 
 SPBC HZ EP        911 31.05                             128    0.22 9  162 216 
 SPBC HN ES        911 52.70                             128    0.04 9  162 216 
 SPBC HZ I         912  0.12         4.5 0.20            130            162 216 
 SML  HZ EP        911 38.38                             117   -0.10 8  237 336 
 SML  HN ES        912  6.79                             117    0.52 8  237 336 
 SML  HZ I         912 14.63         7.5 0.10            119            237 336 
 GUY2CHZ EP   4    911 48.15                             111    2.33 0  298 233 
 GUY2CHN ES   4    912 21.04                             111    1.69 0  298 233 
 GUY2CHZ I         912 27.46         2.5 0.36                           298 233 
 SJC  HZ EP   4    911 56.72                             105   -0.68 0  402 327 
 SJC  HN ES   4    912 37.77                             105   -2.18 0  402 327 
 SJC  HZ I         912 42.21         2.7 0.46            107            402 327 
                                                                                
