 2014  921 0200 12.9 L   6.793 -73.146147.6  RSN  6 0.4 1.3LRSN                1
 GAP=137        0.89       4.5     4.7  6.6 -0.1706E+01  0.4497E+01 -0.1585E+01E
 Epicentro: LOS SANTOS - SANTANDER                                             3
 ACTION:UPD 14-10-03 23:06 OP:nd   STATUS:               ID:20140921020012 L   I
 OLDACT:REG 14-09-21 12:47 OP:spq  STATUS:               ID:20140921015819     3
 2014-09-21-0158-19M.COL___284                                                 6
 STAT SP IPHASW D HRMM SECON CODA AMPLIT PERI AZIMU VELO AIN AR TRES W  DIS CAZ7
 BAR2 SZ ES   1    2 0 47.58                             171   -0.59 7 22.6 190 
 BAR2 SZ I         2 0 49.43         4.1 0.23            173           22.6 190 
 BRR  HZ IP     D  2 0 34.50                             153    0.2710 71.6 299 
 BRR  HE ES        2 0 51.57                             153    0.6710 71.6 299 
 BRR  HZ I         2 0 55.02         4.6 0.46            153           71.6 299 
 PAM  SZ EP        2 0 35.59                             151    0.2810 78.0  39 
 PAM  SN ES        2 0 52.53                             151   -0.2910 78.0  39 
 PAM  SZ I         2 0 55.19         3.7 0.40            152           78.0  39 
 RUS  HZ EP        2 0 36.94                             144    0.2010 99.8 176 
 RUS  HE ES   1    2 0 55.32                             144   -0.04 7 99.8 176 
 RUS  HZ I         2 0 57.69         1.4 0.36            148           99.8 176 
 PTB  HZ EP        2 0 39.62                             132   -0.34 9  148 259 
 PTB  HN ES        2 1  0.86                             132   -0.24 9  148 259 
 PTB  HZ I         2 1  1.89         1.6 0.28            135            148 259 
 SML  HZ EP   1    2 0 49.33                             118   -0.33 6  244 335 
 SML  HE ES   1    2 1 17.93                             118   -0.44 6  244 335 
 SML  HZ I         2 1 22.14         2.3 0.08            119            244 335 
                                                                                
