 2012  821 0048 35.5 L   6.760 -73.173147.5  RSN  5 0.3 1.5LRSN                1
 GAP=231        0.58       6.0     5.5  6.9  0.2116E+02  0.1139E+01 -0.2995E+01E
 Epicentro: LOS SANTOS - SANTANDER                                             3
 ACTION:UPD 12-09-10 11:57 OP:ep   STATUS:               ID:20120821004835 L   I
 2012-08-21-0040-00M.COL___217                                                 6
 STAT SP IPHASW D HRMM SECON CODA AMPLIT PERI AZIMU VELO AIN AR TRES W  DIS CAZ7
 BAR2 SZ EP   1    048 54.90                             172   -0.37 7 18.5 183 
 BAR2 SZ ES   1    049 10.45                             172   -0.23 7 18.5 183 
 BAR2 SZ I         049 11.80         8.8 0.21                          18.5 183 
 BRR  HZ EP   1    048 56.94                             153    0.10 7 70.9 303 
 BRR  HN ES   1    049 13.63                             153    0.16 7 70.9 303 
 BRR  HZ I         049 17.74         6.4 0.15                          70.9 303 
 RUS  HZ EP   1    048 59.19                             145    0.05 7 96.4 174 
 RUS  HN ES   1    049 17.95                             145    0.38 7 96.4 174 
 RUS  HZ I         049 20.58         4.0 0.49                          96.4 174 
 PTB  HN ES   1    049 22.80                             133   -0.38 7  144 260 
 ZAR  HN ES   1    049 33.61                             123    0.32 6  203 294 
                                                                                
