 2012  321 0856 25.8 L   6.752 -73.172151.9  RSN  4 0.1 1.0LRSN                1
 GAP=231        0.31       5.0     4.7  6.3  0.1110E+02 -0.5365E+01 -0.3535E+01E
 ACTION:UP  12-03-31 23:21 OP:EP   STATUS:               ID:20120321085625 L   I
 2012-03-21-0850-00M.COL___202                                                 6
 STAT SP IPHASW D HRMM SECON CODA AMPLIT PERI AZIMU VELO SNR AR TRES W  DIS CAZ7
 BAR2 SZ EP   1    856 46.01                             173     0.0 7   18 184 
 BRR  HZ EP   2    856 47.46                             153    -0.1 5   71 303 
 BRR  HN ES   2    857  4.74                             153     0.1 5   71 303 
 BRR  HZ I         857  7.19         3.6 0.32                            71 303 
 RUS  HZ EP   2    856 49.96                             146     0.2 5   96 174 
 RUS  HZ I         856 50.78         0.9 0.16                            96 174 
 RUS  HN ES   2    857  8.45                             146    -0.1 5   96 174 
 PTB  HZ EP   2    856 52.96                             134     0.0 5  144 261 
 PTB  HE ES   2    857 14.04                             134     0.0 5  144 261 
 PTB  HZ I         857 20.79         0.8 0.30                           144 261 
                                                                                
