 2010  721 0054 53.4 L   6.816 -73.057135.6  RSN  4 0.3 1.6LRSN                1
 GAP=168        0.73       5.9    12.0 13.9  0.7711E+01 -0.1061E+03 -0.2628E+02E
 Epicentro: LOS SANTOS - SANTANDER                                             3
 ACTION:UPD 10-12-01 15:19 OP:pat  STATUS:               ID:20100721005453 L   I
 2010-07-21-0053-20S.COL___123                                                 6
 STAT SP IPHASW D HRMM SECON CODA AMPLIT PERI AZIMU VELO AIN AR TRES W  DIS CAZ7
 BRR  HZ EP        055 13.74                             148    -0.210   79 294 
 BRR  HE ES   1    055 30.27                             148     0.3 7   79 294 
 BRR  HZ I         055 34.44         8.3 0.08                            79 294 
 RUS  HN ES   2    055 33.80                             141    -0.3 5  102 182 
 GRA  SZ EP        055 17.65                             136     0.310  121  13 
 GRA  SZ I         055 18.95         5.3 0.22                           121  13 
 OCA  SZ EP   1    055 20.79                             127    -0.1 7  160 350 
 OCA  SZ ES   1    055 41.91                             127    -0.4 7  160 350 
 OCA  SZ I         055 45.33         6.6 0.39                           160 350 
                                                                                
