 2011  921 0859  1.5 L   6.726 -73.084144.0  RSN  6 0.3 1.7LRSN                1
 GAP=189        0.67       4.1     6.1  5.9  0.1124E+02 -0.5865E+01 -0.8161E+01E
 Epicentro: JORDAN - SANTANDER                                                 3
 ACTION:UPD 12-07-13 15:58 OP:ep   STATUS:               ID:20110921085901 L   I
 2011-09-21-0856-11S.COL___165                                                 6
 STAT SP IPHASW D HRMM SECON CODA AMPLIT PERI AZIMU VELO AIN AR TRES W  DIS CAZ7
 BAR2 SZ EP        859 21.05                             172    0.2110 18.4 216 
 BAR2 SZ ES   1    859 35.59                             172   -0.33 7 18.4 216 
 BAR2 SZ I         859 37.86        10.4 0.18                          18.4 216 
 BTL  SZ EP   1    859 20.96                             168   -0.12 7 29.4 316 
 BRR  HZ EP        859 23.23                             149    0.1610 81.2 301 
 BRR  HZ I         859 25.30        12.3 0.16                          81.2 301 
 BRR  HN ES        859 40.33                             149    0.4410 81.2 301 
 RUS  HZ EP   1    859 24.53                             146    0.03 7 92.2 180 
 RUS  HN ES   1    859 42.17                             146   -0.26 7 92.2 180 
 RUS  HZ I         859 44.94         3.8 0.32                          92.2 180 
 OCA  SZ EP        859 30.49                             128   -0.06 9  169 351 
 OCA  SZ ES   1    859 52.89                             128   -0.31 7  169 351 
 OCA  SZ I         859 54.36         5.2 0.26                           169 351 
 ZAR  HZ EP   1    859 34.95                             121    0.12 6  213 293 
 ZAR  HE ES   1    9 0  0.10                             121   -0.71 6  213 293 
 ZAR  HZ I         9 0  2.30         5.1 0.16                           213 293 
                                                                                
