 2010  421 0755 21.6 L   6.785 -73.042143.0  RSN 12 0.5 2.3LRSN                1
 GAP=162        0.94       5.4     8.0  6.4 -0.2216E+02 -0.6807E+01  0.6905E+01E
 Epicentro: LOS SANTOS - SANTANDER                                             3
 ACTION:UPD 10-08-24 10:00 OP:vdl  STATUS:               ID:20100421075521 L   I
 2010-04-21-0754-41S.COL___104                                                 6
 STAT SP IPHASW D HRMM SECON CODA AMPLIT PERI AZIMU VELO AIN AR TRES W  DIS CAZ7
 BAR2 SZ IP        755 41.12                             169     0.210   26 216 
 BAR2 SZ ES   1    755 55.55                             169    -0.5 7   26 216 
 GIR2 SZ ES   1    755 56.04                             165    -0.2 7   37 333 
 BRR  HZ IP     D  755 43.40                             148     0.310   82 296 
 BRR  HE ES   1    756  0.27                             148     0.4 7   82 296 
 BRR  HZ I         756  1.95        31.1 0.32                            82 296 
 GUE  SZ IP        755 46.07                             139     0.110  116   6 
 GRA  SZ ES   1    756  6.59                             137     0.7 7  124  12 
 OCA  SZ EP   1    755 49.07                             128    -0.9 7  164 349 
 OCA  SZ ES   1    756 11.51                             128    -0.6 7  164 349 
 OCA  SZ I         756 15.16        27.3 0.34                           164 349 
 HEL  HZ EP   2    756  3.25                             113     0.4 4  283 257 
 HEL  HZ I         756 38.99         5.6 0.51                           283 257 
 RREF BE ES   2    756 45.73                             110     0.7 3  329 231 
 RREF BZ I         756 52.72         8.5 0.32                           329 231 
 TOL  SZ EP   2    756 10.94                             108     0.4 3  350 226 
 DBB  SZ EP   1    756  9.96                             108    -0.3 5  351 274 
 SDV  BZ IP     D  756 10.73                             108     0.1 6  353  49 
 PRA  HZ EP   1    756 15.39                             106    -0.1 4  396 211 
 PRA  HE ES   1    756 56.96                             106    -0.6 4  396 211 
 PRA  HZ I         757  5.96         6.7 0.46                           396 211 
                                                                                
