 2017  121 0527 20.2 L   6.665 -73.232 23.9  RSN  6 0.3 1.3LRSN                1
 GAP=107        0.86       2.0     2.7  3.0  0.3525E+00  0.4995E+01 -0.5532E+00E
 Epicentro: BARICHARA - SANTANDER                                              3
 ACTION:UPD 17-05-22 16:01 OP:jn   STATUS:               ID:20170121052720 L   I
 OLDACT:UP  17-01-21 16:45 OP:dani STATUS:               ID:20170121050858     3
 OLDACT:REG 17-01-21 12:42 OP:dani STATUS:               ID:20170121050858     3
 2017-01-21-0518-00M.COL___343                                                 6
 STAT SP IPHASW D HRMM SECON CODA AMPLIT PERI AZIMU VELO AIN AR TRES W  DIS CAZ7
 BAR2 EZ EP     C  527 25.18                             158    0.4510 9.76 146 
 BAR2 EZ ES        527 28.60                             158    0.3510 9.76 146 
 BAR2 EZ I         527 30.28        58.6 0.40            161           9.76 146 
 BRR  HZ EP        527 31.99                             106   -0.1710 72.1 313 
 BRR  HN ES        527 41.04                             106   -0.4410 72.1 313 
 BRR  HZ I         527 42.51         8.5 0.10             97           72.1 313 
 RUS  HZ EP        527 34.86                             104   -0.0010 87.0 169 
 RUS  HN ES        527 45.72                             104   -0.5710 87.0 169 
 RUS  HZ I         527 46.41         7.6 0.22             95           87.0 169 
 PAM  EZ EP        527 36.19                             103    0.1510 95.0  38 
 PAM  EN ES        527 48.15                             103   -0.2410 95.0  38 
 PAM  EZ I         527 48.50        11.0 0.23             94           95.0  38 
 PTB  HZ EP        527 40.96                              56    0.17 9  136 264 
 PTB  HN ES        527 56.88                              56    0.03 9  136 264 
 PTB  HZ I         527 58.24         6.6 0.58             61            136 264 
 ZAR  HN ES        528 11.80                              56    0.40 9  202 297 
                                                                                
