 2016 1121 0825 55.9 L   6.732 -73.192152.1  RSN  5 0.3 1.2LRSN                1
 GAP=230        0.77       7.6     6.9  8.3 -0.2521E+02 -0.1255E+02  0.1882E+02E
 Epicentro: VILLANUEVA - SANTANDER                                             3
 ACTION:UPD 17-10-26 21:10 OP:lp   STATUS:               ID:20161121082555 L   I
 OLDACT:REG 16-11-21 14:57 OP:edw  STATUS:               ID:20161121081743     3
 2016-11-21-0818-00M.COL___343                                                 6
 STAT SP IPHASW D HRMM SECON CODA AMPLIT PERI AZIMU VELO AIN AR TRES W  DIS CAZ7
 BAR2 EZ EP        826 16.13                             174   -0.0510 15.4 176 
 BAR2 EZ I         826 32.59         4.8 0.22            167           15.4 176 
 BRR  HZ EP        826 17.57                             154   -0.1710 70.9 306 
 BRR  HN ES        826 34.76                             154    0.0010 70.9 306 
 BRR  HZ I         826 38.06         3.1 0.32            163           70.9 306 
 PTB  HZ EP        826 23.52                             135    0.66 9  141 261 
 PTB  HE ES        826 43.94                             135    0.08 9  141 261 
 PTB  HZ I         826 48.90         1.8 0.14            142            141 261 
 ZAR  HZ EP        826 28.30                             124   -0.32 9  202 295 
 ZAR  HE ES   4    826 54.85                             124    0.73 0  202 295 
 ZAR  HZ I         826 58.90         1.3 0.24            130            202 295 
 NOR  HN ES        826 58.28                             121   -0.31 8  226 235 
 ROSC BZ EP   4    826 13.35                             119   -20.1 0  244 211 
 ROSC BE ES   4    826 36.31                             119   -26.4 0  244 211 
                                                                                
