 2012  421 0751 29.1 L   7.036 -73.149142.6  RSN  6 0.4 1.4LRSN                1
 GAP=131        0.89       7.0     5.7  9.2  0.5718E+01  0.1115E+02 -0.1488E+02E
 Epicentro: GIRON - SANTANDER                                                  3
 ACTION:UPD 12-07-05 11:55 OP:tino STATUS:               ID:20120421075129 L   I
 2012-04-21-0750-00M.COL___186                                                 6
 STAT SP IPHASW D HRMM SECON CODA AMPLIT PERI AZIMU VELO AIN AR TRES W  DIS CAZ7
 BAR2 SZ EP   1    751 48.57                             160    -0.5 7   49 184 
 BAR2 SZ ES   1    752  4.59                             160    -0.2 7   49 184 
 PAM  SZ EP   1    751 49.85                             156    -0.1 7   60  56 
 PAM  SN ES   2    752  6.05                             156    -0.2 5   60  56 
 BRR  HZ EP   1    751 49.82                             155     0.4 7   63 277 
 BRR  HN ES   1    752  5.93                             155     0.7 7   63 277 
 BRR  HZ I         752  6.37         8.5 0.12                            63 277 
 RUS  HN ES   1    752 14.61                             136     0.2 7  127 177 
 PTB  HZ EP   1    751 56.84                             130     0.4 7  155 249 
 PTB  HN ES   1    752 17.28                             130    -0.4 7  155 249 
 PTB  HZ I         752 20.50         1.8 0.18                           155 249 
 ZAR  HZ EP   1    752  0.62                             123     0.2 6  195 285 
 ZAR  HN ES   1    752 24.25                             123    -0.6 6  195 285 
 ZAR  HZ I         752 24.76         2.6 0.24                           195 285 
                                                                                
