 2015 1221 0622  2.9 L   6.561 -73.589105.9  RSN  8 0.4 1.5LRSN                1
 GAP=122        1.07       3.5     4.1  6.9 -0.4880E+01  0.9794E+01 -0.3243E+01E
 Epicentro: EL CARMEN - SANTANDER                                              3
 ACTION:UPD 16-02-04 15:06 OP:cam  STATUS:               ID:20151221062202 L   I
 OLDACT:REG 15-12-21 14:40 OP:cara STATUS:               ID:20151221061750     3
 2015-12-21-0617-50M.COL___330                                                 6
 STAT SP IPHASW D HRMM SECON CODA AMPLIT PERI AZIMU VELO AIN AR TRES W  DIS CAZ7
 BAR2 EZ IP        622 18.26                             155   -0.3810 45.1  86 
 BAR2 EZ ES        622 30.98                             155    0.0810 45.1  86 
 BAR2 EZ I         622 31.83        18.1 0.34            157           45.1  86 
 BRR  HE ES        622 32.56                             147    0.5210 61.9 347 
 PTB  HZ IP        622 21.11                             134   -0.8410 96.0 269 
 PTB  HN ES        622 36.05                             134   -0.7410 96.0 269 
 PTB  HZ I         622 37.41         6.3 0.20            132           96.0 269 
 SPBC HZ EP        622 23.99                             129    0.3110  114 208 
 SPBC HN ES        622 40.17                             129    0.2910  114 208 
 SPBC HZ I         622 43.67         6.8 0.22            129            114 208 
 ZAR  HZ EP        622 30.17                             116    0.40 9  174 306 
 ZAR  HN ES        622 51.09                             116    0.37 9  174 306 
 ZAR  HZ I         622 56.48         3.8 0.30            115            174 306 
 NOR  HN ES        622 52.10                             115    0.17 9  180 232 
 NOR  HZ I         622 55.46         5.0 0.16            114            180 232 
 OCA  HZ EP        622 31.44                             114   -0.05 9  188   9 
 OCA  HN ES        622 53.61                             114   -0.17 9  188   9 
 OCA  HZ I         623  1.10         3.8 0.16            113            188   9 
 HEL  HZ EP        622 35.44                             110    0.22 8  219 259 
 HEL  HN ES        623  0.49                             110    0.07 8  219 259 
 HEL  HZ I         623  6.48         1.3 0.20            109            219 259 
                                                                                
