 2014 1221 0824 21.0 L   6.783 -73.187148.3  RSN  5 0.4 0.8LRSN                1
 GAP=132        0.80       6.1     5.9  7.6  0.6106E+01 -0.8087E+01 -0.6675E+01E
 Epicentro: ZAPATOCA - SANTANDER                                               3
 ACTION:UPD 15-02-10 17:06 OP:nd   STATUS:               ID:20141221082421 L   I
 OLDACT:DUP 14-12-21 18:38 OP:spq  STATUS:               ID:20141221081737d    3
 2014-12-21-0817-36M.COL___299                                                 6
 STAT SP IPHASW D HRMM SECON CODA AMPLIT PERI AZIMU VELO AIN AR TRES W  DIS CAZ7
 BAR2 EZ ES   1    824 55.95                             172   -0.44 7 21.1 179 
 BAR2 EZ I         824 57.62         2.7 0.22            171           21.1 179 
 BRR  HZ EP        824 42.60                             154    0.3610 68.2 302 
 BRR  HN ES        824 59.10                             154    0.2810 68.2 302 
 BRR  HZ I         825  0.89         1.1 0.28            155           68.2 302 
 PAM  SZ EP        824 43.42                             150   -0.3110 81.8  41 
 RUS  HZ EP   1    824 45.31                             145    0.43 7 99.1 173 
 RUS  HN ES   1    825  3.66                             145    0.14 7 99.1 173 
 RUS  HZ I         825  5.23         0.6 0.28            146           99.1 173 
 PTB  HZ EP   1    824 47.31                             134   -0.42 7  143 259 
 PTB  HN ES   1    825  8.19                             134   -0.40 7  143 259 
 PTB  HZ I         825 10.13         0.7 0.34            135            143 259 
                                                                                
