 2014  121 0648 30.3 L   6.059 -73.611119.2  RSN  8 0.4 1.6LRSN                1
 GAP= 80        1.09       3.8     4.5  7.7  0.2862E+01  0.9488E+01 -0.5699E+00E
 Epicentro: CHIPATA - SANTANDER                                                3
 ACTION:UPD 14-03-13 09:57 OP:ep   STATUS:               ID:20140121064830 L   I
 OLDACT:REG 14-01-21 06:47 OP:nd   STATUS:               ID:20140121064000     3
 2014-01-21-0640-00M.COL___279                                                 6
 STAT SP IPHASW D HRMM SECON CODA AMPLIT PERI AZIMU VELO AIN AR TRES W  DIS CAZ7
 RUS  HZ IP     D  648 48.82                             151    0.1010 61.3 107 
 RUS  HN ES        649  2.82                             151   -0.2710 61.3 107 
 RUS  HZ I         649  4.94         7.3 0.28            158           61.3 107 
 SPBC HZ EP        648 48.89                             148    0.3410 68.1 229 
 SPBC HN ES        649  2.59                             148   -0.2110 68.1 229 
 SPBC HZ I         649  7.07         9.9 0.20            147           68.1 229 
 BAR2 SZ IP     D  648 49.67                             145    0.4010 75.7  39 
 BAR2 SZ ES        649  4.02                             145   -0.0610 75.7  39 
 BAR2 SZ I         649  5.70        16.9 0.54            150           75.7  39 
 PTB  HZ EP        648 50.76                             135   -0.7010  108 300 
 PTB  HN ES        649  8.75                             135    0.7810  108 300 
 PTB  HZ I         649  9.95         8.6 0.11            135            108 300 
 CHI  HZ IP     D  648 57.34                             123    0.49 9  159 185 
 CHI  HN ES        649 17.23                             123   -0.34 9  159 185 
 CHI  HZ I         649 20.88         4.1 0.40            125            159 185 
 ZAR  HZ EP        649  1.53                             115   -0.28 8  210 319 
 ZAR  HN ES        649 25.98                             115   -0.41 8  210 319 
 ZAR  HZ I         649 32.86         5.2 0.40            117            210 319 
 HEL  HZ EP   4    649  4.64                             115    2.07 0  213 274 
 HEL  HN ES   4    649 26.01                             115   -1.74 0  213 274 
 HEL  HZ I         649 34.54         2.9 0.20            116            213 274 
 GUY2CHZ EP   4    649  4.81                             115    1.84 0  215 245 
 GUY2CHN ES   4    649 30.21                             115    1.75 0  215 245 
 GUY2CHZ I         649 34.59         2.1 0.30                           215 245 
                                                                                
