 2015  221 0100 14.6 L   6.790 -73.175144.0  RSN  9 0.5 1.7LRSN                1
 GAP=133        1.22       4.2     5.3  7.0 -0.6416E+01  0.1221E+02 -0.1754E+01E
 Epicentro: LOS SANTOS - SANTANDER                                             3
 ACTION:UPD 15-04-30 21:28 OP:nd   STATUS:               ID:20150221010014 L   I
 OLDACT:REG 15-02-21 12:32 OP:fm   STATUS:               ID:20150221005739     3
 2015-02-21-0057-39M.COL___284                                                 6
 STAT SP IPHASW D HRMM SECON CODA AMPLIT PERI AZIMU VELO AIN AR TRES W  DIS CAZ7
 BAR2 EZ EP     D  1 0 34.13                             171    0.1410 21.9 182 
 BAR2 EZ ES        1 0 49.54                             171    0.4310 21.9 182 
 BAR2 EZ I         1 0 50.99         8.9 0.48            171           21.9 182 
 BRR  HZ EP        1 0 36.09                             153    0.6610 68.9 301 
 BRR  HN ES        1 0 52.67                             153    0.9910 68.9 301 
 BRR  HZ I         1 0 53.47         6.4 0.44            153           68.9 301 
 PAM  SZ EP        1 0 36.85                             150    0.0410 80.3  41 
 PAM  SE ES        1 0 53.44                             150   -0.6910 80.3  41 
 PAM  SZ I         1 0 56.37         9.9 0.56            153           80.3  41 
 RUS  HZ EP        1 0 38.37                             144    0.2610 99.7 174 
 RUS  HE ES        1 0 55.97                             144   -0.4910 99.7 174 
 RUS  HZ I         1 0 59.42         6.5 0.44            145           99.7 174 
 PTB  HZ EP        1 0 41.04                             132   -0.07 9  144 259 
 PTB  HE ES        1 1  1.38                             132   -0.41 9  144 259 
 PTB  HZ I         1 1  5.60         7.8 0.12            133            144 259 
 SPBC HZ EP   1    1 0 42.57                             129   -0.11 7  160 218 
 SPBC HN ES        1 1  4.28                             129   -0.31 9  160 218 
 SPBC HZ I         1 1 10.59         9.2 0.12            131            160 218 
 NOR  HZ EP        1 0 50.28                             119    0.41 8  231 234 
 NOR  HE ES        1 1 16.79                             119   -0.59 8  231 234 
 NOR  HZ I         1 1 20.32         4.5 0.30            120            231 234 
 SML  HZ EP        1 0 51.14                             117    0.05 8  243 336 
 SML  HE ES        1 1 18.58                             117   -0.97 8  243 336 
 SML  HZ I         1 1 22.14         7.4 0.30            119            243 336 
 GUY2CHZ EP        1 0 57.92                             112    0.17 7  298 235 
 GUY2CHN ES        1 1 31.42                             112    0.01 7  298 235 
 GUY2CHZ I         1 1 39.66         2.1 0.56                           298 235 
 PTGC HN ES   4    1 1 29.35                             111   -3.20 0  309 158 
                                                                                
