 2016  121 0446 38.7 L   6.820 -73.134141.4  RSN 13 0.4 2.4LRSN                1
 GAP=137        0.96       2.4     3.5  5.2 -0.1912E+01  0.7595E+01 -0.6662E+00E
 Epicentro: LOS SANTOS - SANTANDER                                             3
 ACTION:UPD 16-03-09 23:27 OP:cam  STATUS:               ID:20160121044638 L   I
 OLDACT:DUP 16-01-21 16:43 OP:ar   STATUS:               ID:20160121043743d    3
 OLDACT:REG 16-01-21 13:35 OP:ar   STATUS:               ID:20160121043742     3
 2016-01-21-0437-42M.COL___321                                                 6
 STAT SP IPHASW D HRMM SECON CODA AMPLIT PERI AZIMU VELO AIN AR TRES W  DIS CAZ7
 BAR2 EZ IP     C  446 57.94                             169    0.0510 25.7 192 
 BAR2 EZ ES        447 12.82                             169   -0.0010 25.7 192 
 BAR2 EZ I         447 14.22        38.9 0.18            168           25.7 192 
 PAM  EZ EP     C  447  0.84                             151    0.5110 74.9  40 
 PAM  EN ES        447 17.77                             151    0.5910 74.9  40 
 PAM  EZ I         447 18.44        33.2 0.32            154           74.9  40 
 RUS  HZ EP        447  1.97                             142   -0.2410  103 177 
 RUS  HN ES        447 20.45                             142   -0.0710  103 177 
 RUS  HZ I         447 21.52        18.9 0.22            145            103 177 
 PTB  HZ EP        447  4.82                             131   -0.68 9  149 258 
 PTB  HN ES        447 25.61                             131   -0.76 9  149 258 
 PTB  HZ I         447 30.16        31.1 0.14            130            149 258 
 OCA  HZ EP        447  6.39                             129   -0.12 9  158 353 
 OCA  HN ES        447 28.02                             129   -0.16 9  158 353 
 OCA  HZ I         447 32.85        57.1 0.26            130            158 353 
 SPBC HZ EP        447  6.96                             128   -0.18 9  166 219 
 SPBC HN ES        447 29.11                             128   -0.18 9  166 219 
 SPBC HZ I         447 30.40        49.1 0.16            128            166 219 
 ZAR  HZ EP        447 11.36                             121    0.43 9  204 291 
 ZAR  HN ES        447 35.93                             121   -0.11 9  204 291 
 ZAR  HZ I         447 43.01        31.7 0.34            121            204 291 
 NOR  HZ EP        447 14.43                             117   -0.03 8  237 234 
 NOR  HN ES        447 42.01                             117   -0.31 8  237 234 
 NOR  HZ I         447 46.16        19.3 0.24            118            237 234 
 SML  HZ EP        447 14.43                             117   -0.53 8  242 335 
 SML  HN ES        447 43.07                             117   -0.14 8  242 335 
 SML  HZ I         447 47.15        30.6 0.10            118            242 335 
 CHI  HZ EP        447 16.05                             116   -0.41 8  251 195 
 CHI  HN ES        447 46.12                             116    0.24 8  251 195 
 CHI  HZ I         447 51.46         9.7 0.28            118            251 195 
 HEL  HZ EP        447 19.51                             114    0.59 8  274 255 
 HEL  HN ES        447 50.97                             114    0.71 8  274 255 
 HEL  HZ I         447 56.25        14.8 0.34            114            274 255 
 GUY2CHZ EP        447 22.36                             111   -0.04 7  303 235 
 GUY2CHN ES        447 57.15                             111    0.69 7  303 235 
 GUY2CHZ I         448  4.54        14.4 0.44                           303 235 
 CBOC HZ EP        447 25.91                             109    0.23 7  335 252 
 CBOC HN ES        448  2.99                             109    0.69 7  335 252 
 CBOC HZ I         448 14.96         4.9 0.36            110            335 252 
                                                                                
