 2015 1221 0254 47.4 L   6.757 -73.160147.2  RSN  6 0.3 1.4LRSN                1
 GAP=232        0.76       4.1     4.5  5.2  0.7407E+01  0.4026E+01 -0.6129E+00E
 Epicentro: LOS SANTOS - SANTANDER                                             3
 ACTION:UPD 16-02-04 15:06 OP:cam  STATUS:               ID:20151221025447 L   I
 OLDACT:REG 15-12-21 14:13 OP:cara STATUS:               ID:20151221024746     3
 2015-12-21-0247-46M.COL___331                                                 6
 STAT SP IPHASW D HRMM SECON CODA AMPLIT PERI AZIMU VELO AIN AR TRES W  DIS CAZ7
 BAR2 EZ IP        255  6.92                             173   -0.1710 18.4 188 
 BAR2 EZ ES        255 22.08                             173   -0.3810 18.4 188 
 BAR2 EZ I         255 23.20         5.3 0.12            167           18.4 188 
 BRR  HZ EP        255  8.46                             152   -0.2810 72.2 302 
 BRR  HE ES        255 25.81                             152    0.4210 72.2 302 
 BRR  HZ I         255 26.56         7.9 0.40            150           72.2 302 
 RUS  HZ EP        255 11.09                             145    0.1410 96.0 175 
 RUS  HN ES        255 29.68                             145    0.3510 96.0 175 
 RUS  HZ I         255 30.49         2.5 0.16            144           96.0 175 
 PTB  HZ EP        255 13.96                             133   -0.28 9  145 261 
 PTB  HE ES        255 35.10                             133   -0.09 9  145 261 
 PTB  HZ I         255 37.51         2.7 0.42            130            145 261 
 SPBC HZ IP        255 15.97                             130    0.42 9  158 220 
 SPBC HN ES        255 37.20                             130   -0.32 9  158 220 
 SPBC HZ I         255 44.73         3.7 0.10            128            158 220 
 ZAR  HZ EP        255 19.97                             123    0.02 9  204 294 
 ZAR  HN ES        255 45.56                             123    0.20 9  204 294 
 ZAR  HZ I         255 50.59         3.3 0.38            122            204 294 
                                                                                
