 2013 1221 0929  4.9 L   6.799 -73.150151.6  RSN  8 0.4 1.7LRSN                1
 GAP=136        0.94       3.3     4.1  5.8 -0.1454E+00  0.4657E+01 -0.2374E+01E
 Epicentro: LOS SANTOS - SANTANDER                                             3
 ACTION:UPD 14-01-13 10:19 OP:ep   STATUS:               ID:20131221092904 L   I
 OLDACT:REG 13-12-21 09:09 OP:jn   STATUS:               ID:20131221092736     3
 2013-12-21-0927-36M.COL___235                                                 6
 STAT SP IPHASW D HRMM SECON CODA AMPLIT PERI AZIMU VELO AIN AR TRES W  DIS CAZ7
 BAR2 SZ EP        929 25.31                             171    0.0810 23.1 189 
 BAR2 SZ ES        929 40.56                             171   -0.5310 23.1 189 
 BAR2 SZ I         929 42.12        12.2 0.48            170           23.1 189 
 BRR  HZ EP        929 26.77                             154    0.1010 70.9 299 
 BRR  HN ES        929 44.55                             154    0.9010 70.9 299 
 BRR  HZ I         929 47.76         6.9 0.26            152           70.9 299 
 PAM  SZ EP        929 28.20                             152    0.4310 77.8  40 
 PAM  SN ES        929 45.41                             152   -0.1910 77.8  40 
 PAM  SZ I         929 47.47        13.9 0.58            155           77.8  40 
 RUS  HZ EP        929 29.23                             145    0.0010  100 176 
 RUS  HN ES        929 47.97                             145   -0.2310  100 176 
 RUS  HZ I         929 50.54         5.2 0.48            147            100 176 
 PTB  HZ EP        929 31.96                             133   -0.35 9  147 259 
 PTB  HN ES        929 53.44                             133   -0.25 9  147 259 
 PTB  HZ I         929 55.59         5.5 0.12            134            147 259 
 SPBC HZ EP        929 34.10                             130    0.28 9  163 219 
 SPBC HN ES        929 56.58                             130    0.21 9  163 219 
 SPBC HZ I         930  1.33        10.1 0.20            131            163 219 
 ZAR  HN ES        930  3.11                             124   -0.17 9  204 292 
 ZAR  HZ I         930 10.75         4.5 0.32            125            204 292 
 SML  HZ EP        929 41.67                             119   -0.19 8  244 335 
 SML  HE ES        930 10.35                             119   -0.33 8  244 335 
                                                                                
