 2015  821 0512 41.3 L   6.806 -73.106144.4  RSN  7 0.4 1.8LRSN                1
 GAP=208        1.06       4.0     8.9  7.0 -0.1391E+02  0.1213E+02 -0.3082E+01E
 Epicentro: LOS SANTOS - SANTANDER                                             3
 ACTION:UPD 15-09-15 23:03 OP:cam  STATUS:               ID:20150821051241 L   I
 OLDACT:REG 15-08-21 13:01 OP:spq  STATUS:               ID:20150821050749     3
 2015-08-21-0507-49M.COL___337                                                 6
 STAT SP IPHASW D HRMM SECON CODA AMPLIT PERI AZIMU VELO AIN AR TRES W  DIS CAZ7
 BAR2 EZ EP        513  0.84                             170    0.0110 25.1 200 
 BAR2 EZ ES        513 15.72                             170   -0.3210 25.1 200 
 BAR2 EZ I         513 16.94         8.2 0.18            171           25.1 200 
 BRR  HZ EP        513  3.06                             151    0.5210 74.7 297 
 BRR  HN ES        513 19.64                             151    0.5610 74.7 297 
 BRR  HZ I         513 20.87         7.6 0.44            149           74.7 297 
 OCA  HZ EP        513  9.82                             129    0.29 9  160 352 
 OCA  HN ES        513 31.58                             129    0.06 9  160 352 
 OCA  HZ I         513 34.64         8.3 0.54            129            160 352 
 SPBC HZ EP        513  9.70                             128   -0.34 9  166 220 
 SPBC HE ES        513 31.92                             128   -0.51 9  166 220 
 SPBC HZ I         513 33.96         5.0 0.22            129            166 220 
 ZAR  HN ES   4    513 37.29                             121   -2.33 0  208 292 
 ZAR  HZ I         513 39.03        14.4 0.10            121            208 292 
 SML  HZ EP        513 17.76                             117   -0.26 8  245 334 
 SML  HN ES        513 45.69                             117   -0.94 8  245 334 
 SML  HZ I         513 54.16         4.9 0.10            117            245 334 
 GUY2CHZ EP        513 25.89                             112    0.57 7  305 235 
 GUY2CHN ES        513 59.85                             112    0.22 7  305 235 
 GUY2CHZ I         514 10.19         1.7 0.48                           305 235 
                                                                                
