 2017  421 0720 50.2 L   6.851 -73.155148.0  RSN  6 0.3 1.8LRSN                1
 GAP=143        0.67       4.0     3.2  5.9 -0.3730E+01  0.3640E+01 -0.6638E+00E
 Epicentro: LOS SANTOS - SANTANDER                                             3
 ACTION:UPD 17-05-30 21:14 OP:jn   STATUS:               ID:20170421072050 L   I
 OLDACT:UP  17-04-21 16:48 OP:cog  STATUS:               ID:20170421071737     3
 OLDACT:UP  17-04-21 16:47 OP:cog  STATUS:               ID:20170421071737     3
 OLDACT:REG 17-04-21 13:51 OP:cog  STATUS:               ID:20170421071737     3
 2017-04-21-0718-00M.COL___359                                                 6
 STAT SP IPHASW D HRMM SECON CODA AMPLIT PERI AZIMU VELO AIN AR TRES W  DIS CAZ7
 BAR2 EZ EP        721  9.80                             168   -0.4710 28.8 186 
 BAR2 EZ ES        721 25.82                             168   -0.0610 28.8 186 
 BAR2 EZ I         721 26.55        15.9 0.38            171           28.8 186 
 BRR  HZ EP        721 11.85                             154    0.4010 67.7 295 
 BRR  HE ES        721 27.76                             154   -0.2310 67.7 295 
 BRR  HZ I         721 39.74        10.6 0.18            148           67.7 295 
 PAM  EZ EP        721 12.60                             152    0.1010 73.8  43 
 PAM  EE ES        721 29.96                             152    0.1110 73.8  43 
 PAM  EZ I         721 31.11         4.3 0.18            153           73.8  43 
 PTB  HZ EP   3    721 16.61                             132   -0.80 2  148 257 
 PTB  HZ ES        721 38.50                             132   -0.10 9  148 257 
 SPBC HE ES        721 42.22                             129    0.30 9  167 217 
 ZAR  HZ EP   4    721 24.26                             123    1.73 0  201 291 
 ZAR  HN ES        721 47.75                             123    0.05 9  201 291 
 ZAR  HZ I         721 54.96        11.3 0.28            124            201 291 
                                                                                
