 2017  721 0652 38.0 L   6.779 -73.166147.8  RSN  7 0.3 1.5LRSN                1
 GAP=135        0.78       3.8     3.9  5.8 -0.3535E+01  0.4641E+01 -0.8942E+00E
 Epicentro: LOS SANTOS - SANTANDER                                             3
 ACTION:UPD 17-08-30 15:35 OP:rebc STATUS:               ID:20170721065238 L   I
 OLDACT:REG 17-07-21 12:36 OP:dnl  STATUS:               ID:20170721064744     3
 2017-07-21-0648-00M.COL___380                                                 6
 STAT SP IPHASW D HRMM SECON CODA AMPLIT PERI AZIMU VELO AIN AR TRES W  DIS CAZ7
 BAR2 EZ EP        652 57.76                             172   -0.0910 20.8 185 
 BAR2 EZ ES        653 13.00                             172   -0.3210 20.8 185 
 BAR2 EZ I         653 13.74        14.8 0.34            170           20.8 185 
 BRR  HZ IP     C  652 59.47                             153    0.1210 70.4 301 
 BRR  HN ES        653 16.58                             153    0.5910 70.4 301 
 BRR  HZ I         653 17.86         4.6 0.16            149           70.4 301 
 PAM  EZ EP        653  0.57                             150   -0.0810 80.6  40 
 PAM  EN ES        653 18.30                             150    0.0110 80.6  40 
 PAM  EZ I         653 19.84         5.8 0.60            153           80.6  40 
 RUS  HZ EP   2    653  1.96                             145    0.13 5 98.5 175 
 RUS  HN ES        653 20.33                             145   -0.0610 98.5 175 
 RUS  HZ I         653 21.27         3.3 0.30            147           98.5 175 
 PTB  HZ EP        653  4.64                             133   -0.28 9  145 260 
 PTB  HN ES        653 25.40                             133   -0.51 9  145 260 
 PTB  HZ I         653 32.60         2.6 0.42            131            145 260 
 SPBC HZ EP   2    653  6.96                             130    0.58 5  160 219 
 SPBC HE ES        653 28.96                             130    0.46 9  160 219 
 SPBC HZ I         653 33.39         4.2 0.22            129            160 219 
 ZAR  HZ EP   4    653 12.81                             123    2.33 0  203 293 
 ZAR  HN ES   2    653 35.69                             123   -0.11 4  203 293 
 ZAR  HZ I         653 42.32         4.2 0.30            122            203 293 
                                                                                
