 2015  121 0909  0.8 L   6.771 -73.134148.4  RSN  6 0.4 1.4LRSN                1
 GAP=237        0.99       5.9     6.1  7.8  0.9412E+01  0.1653E+02 -0.5247E+01E
 Epicentro: LOS SANTOS - SANTANDER                                             3
 ACTION:UPD 15-03-02 15:41 OP:nd   STATUS:               ID:20150121090900 L   I
 OLDACT:REG 15-01-21 12:32 OP:carl STATUS:               ID:20150121090746     3
 2015-01-21-0907-46M.COL___265                                                 6
 STAT SP IPHASW D HRMM SECON CODA AMPLIT PERI AZIMU VELO AIN AR TRES W  DIS CAZ7
 BAR2 EZ EP        9 9 20.52                             172   -0.2210 20.5 195 
 BAR2 EZ ES        9 9 35.96                             172   -0.3010 20.5 195 
 BAR2 EZ I         9 9 38.29         4.6 0.22            169           20.5 195 
 BRR  HZ EP        9 9 22.53                             152    0.1010 73.9 300 
 BRR  HN ES        9 9 39.84                             152    0.5710 73.9 300 
 RUS  HN ES        9 9 43.40                             145    0.2210 97.3 177 
 RUS  HZ I         9 9 44.03         2.5 0.26            147           97.3 177 
 PTB  HZ EP        9 9 27.62                             132   -0.47 9  148 260 
 PTB  HN ES        9 9 48.76                             132   -0.59 9  148 260 
 PTB  HZ I         9 9 55.59         2.9 0.40            132            148 260 
 ZAR  HZ EP        9 9 34.16                             123    0.45 8  206 293 
 ZAR  HN ES        9 9 59.19                             123   -0.16 8  206 293 
 ZAR  HZ I         910  4.61         4.2 0.28            123            206 293 
 NOR  HN ES        910  5.10                             119    0.52 8  234 235 
                                                                                
