 2014 1221 0408 20.0 L   6.785 -73.150145.7  RSN  6 0.4 1.3LRSN                1
 GAP=137        0.92       4.6     4.7  7.2 -0.4145E+01  0.3241E+01  0.2380E+01E
 Epicentro: LOS SANTOS - SANTANDER                                             3
 ACTION:UPD 15-02-10 17:06 OP:nd   STATUS:               ID:20141221040820 L   I
 OLDACT:DUP 14-12-21 15:35 OP:spq  STATUS:               ID:20141221035749d    3
 OLDACT:DUP 14-12-21 15:26 OP:spq  STATUS:               ID:20141221035748d    3
 2014-12-21-0357-46M.COL___302                                                 6
 STAT SP IPHASW D HRMM SECON CODA AMPLIT PERI AZIMU VELO AIN AR TRES W  DIS CAZ7
 BAR2 EZ EP        4 8 39.55                             171   -0.0810 21.6 189 
 BAR2 EZ ES   1    4 8 55.25                             171    0.34 7 21.6 189 
 BAR2 EZ I         4 8 58.38         3.8 0.32            171           21.6 189 
 BRR  HZ EP        4 8 41.47                             152    0.2710 71.5 300 
 BRR  HE ES        4 8 58.27                             152    0.5610 71.5 300 
 BRR  HZ I         4 9  2.39         5.4 0.16            152           71.5 300 
 PAM  SZ EP        4 8 42.59                             150    0.2510 79.0  39 
 PAM  SN ES        4 8 59.06                             150   -0.6810 79.0  39 
 PAM  SZ I         4 9  1.18         3.2 0.20            155           79.0  39 
 RUS  HZ EP        4 8 43.73                             144    0.0610 99.0 176 
 RUS  HE ES        4 9  2.16                             144    0.0610 99.0 176 
 RUS  HZ I         4 9  4.08         2.2 0.34            148           99.0 176 
 PTB  HZ EP        4 8 46.81                             132   -0.11 9  147 259 
 PTB  HN ES        4 9  7.35                             132   -0.55 9  147 259 
 PTB  HZ I         4 9 13.30         2.2 0.30            134            147 259 
 SPBC HN ES   1    4 9 10.36                             129   -0.13 7  162 219 
 SPBC HZ I         4 9 13.26         3.8 0.12            132            162 219 
                                                                                
