 2016 1221 0540 19.7 L   6.499 -73.431134.3  RSN  4 0.1 1.2LRSN                1
 GAP=175        0.43       3.1     3.0  3.8  0.5790E+01  0.1608E+01 -0.5082E+00E
 Epicentro: SIMACOTA - SANTANDER                                               3
 ACTION:UPD 17-01-11 20:17 OP:rebc STATUS:               ID:20161221053747 L   I
 OLDACT:UP  16-12-21 16:09 OP:cog  STATUS:               ID:20161221053747 L   3
 OLDACT:UPD 16-12-21 15:44 OP:CARA STATUS:               ID:20161221053747 L   3
 2016-12-21-0538-00M.COL___381                                                 6
 STAT SP IPHASW D HRMM SECON CODA AMPLIT PERI AZIMU VELO AIN AR TRES W  DIS CAZ7
 BRR  HZ EP        540 39.56                             149   -0.2610 74.1 335 
 BRR  HE ES        540 55.53                             149    0.0410 74.1 335 
 BRR  HZ I         540 58.56         5.8 0.40            152           74.1 335 
 RUS  HZ EP        540 40.83                             149    0.1010 77.3 150 
 RUS  HN ES        540 57.16                             149    0.0510 77.3 150 
 RUS  HZ I         540 59.83         1.3 0.16            152           77.3 150 
 PTB  HZ EP        540 42.73                             137    0.0010  113 272 
 PTB  HN ES        541  0.53                             137   -0.1410  113 272 
 PTB  HZ I         541  3.81         3.3 0.64            140            113 272 
 ZAR  HN EP        540 50.24                             121    0.04 9  192 305 
 ZAR  HE ES        541 14.21                             121    0.24 9  192 305 
 ELA  HZ EP   4    540 48.69                             111   -12.2 0  284 230 
 ELA  HE ES   4    541 11.23                             111   -21.8 0  284 230 
                                                                                
