 2014 1021 0512 18.8 L   6.800 -73.156146.6  RSN  5 0.4 1.1LRSN                1
 GAP=236        0.76       5.5     6.9  6.7  0.1167E+02  0.7340E+01  0.5861E+01E
 Epicentro: LOS SANTOS - SANTANDER                                             3
 ACTION:UPD 14-11-29 23:52 OP:nd   STATUS:               ID:20141021051218 L   I
 OLDACT:DUP 14-10-22 00:54 OP:spq  STATUS:               ID:20141021050755d    3
 OLDACT:DUP 14-10-21 23:34 OP:spq  STATUS:               ID:20141021050754d    3
 2014-10-21-0507-49M.COL___268                                                 6
 STAT SP IPHASW D HRMM SECON CODA AMPLIT PERI AZIMU VELO AIN AR TRES W  DIS CAZ7
 BAR2 SZ ES   1    512 53.69                             171   -0.27 7 23.1 187 
 BAR2 SZ I         512 54.82         2.6 0.26            164           23.1 187 
 BRR  HZ EP        512 40.27                             153    0.2410 70.2 299 
 BRR  HN ES        512 56.79                             153    0.2410 70.2 299 
 BRR  HZ I         512 58.01         1.8 0.64            152           70.2 299 
 RUS  HZ EP   1    512 42.65                             144   -0.03 7  101 175 
 RUS  HN ES   1    513  1.08                             144   -0.20 7  101 175 
 RUS  HZ I         513  2.95         1.7 0.30            141            101 175 
 PTB  HZ EP        512 45.45                             132   -0.33 9  147 259 
 PTB  HN ES   1    513  6.15                             132   -0.63 7  147 259 
 PTB  HZ I         513  7.95         1.9 0.26            131            147 259 
 SPBC HZ EP   1    512 47.51                             129    0.17 7  162 219 
 SPBC HN ES   1    513 10.24                             129    0.68 7  162 219 
 SPBC HZ I         513 16.82         2.5 0.24            127            162 219 
                                                                                
