 2017  421 0236 24.9 L   6.807 -73.132138.8  RSN  5 0.4 1.5LRSN                1
 GAP=138        1.04       5.2     5.5  7.4  0.6559E+01  0.1005E+02 -0.1554E+01E
 Epicentro: LOS SANTOS - SANTANDER                                             3
 ACTION:UPD 17-05-30 21:14 OP:jn   STATUS:               ID:20170421023624 L   I
 OLDACT:REG 17-04-21 13:20 OP:cog  STATUS:               ID:20170421022629     3
 2017-04-21-0228-00M.COL___371                                                 6
 STAT SP IPHASW D HRMM SECON CODA AMPLIT PERI AZIMU VELO AIN AR TRES W  DIS CAZ7
 BAR2 EZ EP        236 43.24                             170   -0.4910 24.4 193 
 BAR2 EZ ES        236 57.67                             170   -0.7410 24.4 193 
 BRR  HZ EP        236 45.39                             151    0.0210 72.1 297 
 BRR  HE ES        237  1.96                             151    0.6310 72.1 297 
 BRR  HZ I         237  3.47         7.8 0.46            152           72.1 297 
 PAM  EZ EP        236 46.52                             150    0.2210 75.8  39 
 PAM  EE ES        237  3.01                             150    0.0310 75.8  39 
 PAM  EZ I         237  5.54         4.3 0.28            150           75.8  39 
 RUS  HZ EP        236 48.21                             142    0.1710  101 177 
 RUS  HN ES        237  6.49                             142    0.4110  101 177 
 ZAR  HZ EP        236 56.88                             121   -0.15 9  205 292 
 ZAR  HN ES        237 21.87                             121   -0.21 9  205 292 
                                                                                
