 2013  521 0801 50.0 L   6.806 -73.151138.3  RSN 14 0.5 2.2LRSN                1
 GAP= 71        1.27       4.2     4.2  6.2 -0.2903E+01  0.3304E+01  0.3709E+01E
 Epicentro: LOS SANTOS - SANTANDER                                             3
 ACTION:UPD 13-06-20 09:52 OP:ep   STATUS:               ID:20130521080150 L   I
 OLDACT:UP  13-05-27 02:14 OP:CF   STATUS:               ID:20130521080150 L   3
 2013-05-21-0758-51M.COL___218                                                 6
 STAT SP IPHASW D HRMM SECON CODA AMPLIT PERI AZIMU VELO AIN AR TRES W  DIS CAZ7
 BAR2 SZ EP        8 2  8.77                             170   -0.0210 23.9 188 
 BAR2 SZ ES        8 2 23.15                             170   -0.2710 23.9 188 
 BAR2 SZ I         8 2 24.83        20.2 0.26            158           23.9 188 
 GIR2 SZ EP        8 2  8.84                             167    0.0310 30.5 351 
 GIR2 SZ ES        8 2 23.55                             167    0.1010 30.5 351 
 BRR  HZ IP     D  8 2 10.59                             151    0.2510 70.4 298 
 BRR  HN ES        8 2 27.17                             151    0.9910 70.4 298 
 BRR  HN I         8 2 27.79        89.0 0.34            140           70.4 298 
 PAM  SZ IP     D  8 2 11.72                             149    0.2610 77.2  40 
 PAM  SZ I         8 2 11.89        49.1 0.18            147           77.2  40 
 PAM  SN ES        8 2 28.38                             149    0.2110 77.2  40 
 RUS  HZ EP        8 2 12.94                             142   -0.1910  101 176 
 RUS  HN ES        8 2 31.02                             142   -0.1110  101 176 
 RUS  HN I         8 2 32.98         9.0 0.32            128            101 176 
 PTB  HZ EP        8 2 15.44                             130   -0.93 9  147 259 
 PTB  HN ES        8 2 36.27                             130   -0.64 9  147 259 
 PTB  HN I         8 2 40.18        24.8 0.26            117            147 259 
 CAPV BZ IP     C  8 2 16.81                             130   -0.01 9  149  38 
 TAM  HZ IP     C  8 2 17.23                             129    0.02 9  156 105 
 TAM  HZ I         8 2 17.37        12.0 0.20            119            156 105 
 OCA  HN ES        8 2 38.20                             128   -1.09 9  159 353 
 ZAR  HZ EP        8 2 23.04                             121    1.11 9  203 292 
 ZAR  HN ES        8 2 46.65                             121   -0.15 9  203 292 
 NOR  HZ EP        8 2 25.55                             117    0.20 8  235 234 
 NOR  HN ES        8 2 52.79                             117   -0.09 8  235 234 
 NOR  HN I         8 2 58.94        28.3 0.14            106            235 234 
 HEL  HZ EP   4    8 2 31.39                             113    1.55 0  272 256 
 HEL  HN I         8 3  8.70         6.5 0.26            103            272 256 
 GUY2CHZ EP   4    8 2 35.10                             111    1.79 0  301 235 
 GUY2CHN ES   1    8 3  7.76                             111    0.70 5  301 235 
 GUY2CHN I         8 3 16.61        11.0 0.66                           301 235 
 PRA  HZ EP        8 2 43.47                             105    0.12 6  392 209 
 PRA  HN I         8 3 29.20         5.6 0.56             96            392 209 
                                                                                
