 2017  921 0058 51.7 L   6.815 -73.108143.1  RSN  4 0.3 1.1LRSN                1
 GAP=141        0.85       4.6     7.1  7.5 -0.3484E+01 -0.1044E+02  0.4442E+01E
 Epicentro: LOS SANTOS - SANTANDER                                             3
 ACTION:UPD 17-10-05 19:14 OP:rebc STATUS:               ID:20170921005851 L   I
 OLDACT:UP  17-09-21 16:47 OP:and  STATUS:               ID:20170921005744     3
 OLDACT:UP  17-09-21 16:47 OP:and  STATUS:               ID:20170921005744     3
 OLDACT:UP  17-09-21 16:47 OP:and  STATUS:               ID:20170921005744     3
 OLDACT:REG 17-09-21 12:51 OP:leo  STATUS:               ID:20170921005744     3
 2017-09-21-0058-00M.COL___450                                                 6
 STAT SP IPHASW D HRMM SECON CODA AMPLIT PERI AZIMU VELO AIN AR TRES W  DIS CAZ7
 BAR2 EZ EP        059 10.72                             169   -0.3310 26.0 198 
 BAR2 EZ ES        059 25.57                             169   -0.5910 26.0 198 
 BAR2 EZ I         059 25.71         3.2 0.46            164           26.0 198 
 PAM  EZ EP        059 13.54                             152    0.1610 73.5  38 
 PAM  EN ES        059 30.42                             152    0.1110 73.5  38 
 PAM  EZ I         059 32.45         4.2 0.44            145           73.5  38 
 BRR  HZ EP   2    059 12.31                             151   -0.40 5 74.1 296 
 BRR  HN ES        059 29.43                             151    0.3110 74.1 296 
 RUS  HZ EP        059 15.32                             143    0.0410  102 178 
 RUS  HZ I         059 27.11         1.5 0.46            133            102 178 
 RUS  HN ES        059 34.10                             143    0.4110  102 178 
                                                                                
