 2013  921 0307 37.1 L   6.769 -73.141149.1  RSN 10 0.5 1.9LRSN                1
 GAP=138        1.09       4.4     5.1  6.6 -0.2125E+01  0.9274E+01  0.5082E+01E
 Epicentro: LOS SANTOS - SANTANDER                                             3
 ACTION:UPD 13-10-22 09:23 OP:ep   STATUS:               ID:20130921030737 L   I
 OLDACT:REG 13-09-21 08:04 OP:jn   STATUS:               ID:20130921025959     3
 2013-09-21-0259-59M.COL___269                                                 6
 STAT SP IPHASW D HRMM SECON CODA AMPLIT PERI AZIMU VELO AIN AR TRES W  DIS CAZ7
 BAR2 SZ EP        3 7 57.06                             172   -0.0110 20.1 193 
 BAR2 SZ ES        3 8 12.89                             172    0.2410 20.1 193 
 BAR2 SZ I         3 8 13.17        10.8 0.28            168           20.1 193 
 BRR  HZ EP        3 7 58.99                             152    0.2710 73.3 301 
 BRR  HN ES        3 8 16.21                             152    0.6210 73.3 301 
 BRR  HZ I         3 8 18.80        12.3 0.56            150           73.3 301 
 PAM  SZ EP        3 7 59.87                             151    0.0610 79.7  38 
 PAM  SN ES        3 8 17.22                             151   -0.3010 79.7  38 
 PAM  SZ I         3 8 18.27         9.3 0.18            156           79.7  38 
 RUS  HZ EP        3 8  0.83                             145   -0.1010 97.2 176 
 RUS  HN ES        3 8 19.16                             145   -0.3710 97.2 176 
 RUS  HZ I         3 8 20.77         6.3 0.34            146           97.2 176 
 PTB  HZ EP        3 8  3.67                             133   -0.65 9  148 260 
 PTB  HN ES   1    3 8 24.44                             133   -1.12 7  148 260 
 PTB  HZ I         3 8 30.93        11.9 0.32            131            148 260 
 SPBC HZ EP        3 8  5.95                             130    0.32 9  161 220 
 SPBC HN ES   1    3 8 28.47                             130    0.58 7  161 220 
 SPBC HZ I         3 8 34.31        15.6 0.28            130            161 220 
 ZAR  HZ EP   1    3 8  9.43                             123   -0.51 6  206 293 
 ZAR  HE ES   1    3 8 35.31                             123   -0.24 6  206 293 
 ZAR  HZ I         3 8 40.56         9.2 0.38            123            206 293 
 NOR  HN ES   1    3 8 40.69                             119   -0.05 6  233 235 
 NOR  HZ I         3 8 45.82         8.6 0.26            119            233 235 
 CHI  HZ EP   1    3 8 14.55                             118   -0.09 6  245 195 
 CHI  HN ES   1    3 8 43.67                             118   -0.25 6  245 195 
 CHI  HZ I         3 8 48.33         4.3 0.42            119            245 195 
 GUY2CHZ EP        3 8 21.88                             113    1.20 7  300 235 
 GUY2CHE ES   4    3 8 56.66                             113    1.98 0  300 235 
 GUY2CHZ I         3 9  3.77         5.8 0.74                           300 235 
                                                                                
