 2011  521 0745 31.4 L   6.780 -73.116144.4  RSN  4 0.2 1.4LRSN                1
 GAP=226        0.56       9.2    16.3  7.6  0.1254E+03 -0.5802E+02 -0.2995E+02E
 Epicentro: LOS SANTOS - SANTANDER                                             3
 ACTION:UP  11-06-29 08:55 OP:tino STATUS:               ID:20110521074531 L   I
 2011-05-21-0740-00M.COL___142                                                 6
 STAT SP IPHASW D HRMM SECON CODA AMPLIT PERI AZIMU VELO SNR AR TRES W  DIS CAZ7
 BAR2 SZ EP   1    745 50.65                             171    -0.2 7   22 199 
 BAR2 SZ ES   1    746  5.85                             171    -0.2 7   22 199 
 BAR2 SZ I         746  9.29         6.5 0.10                            22 199 
 BTL  SZ EP   1    745 51.26                             171     0.4 7   23 312 
 BRR  HZ EP   1    745 52.37                             151    -0.3 7   75 299 
 BRR  HZ I         745 57.19         7.5 0.36                            75 299 
 BRR  HE ES   1    746  9.34                             151     0.1 7   75 299 
 RUS  HZ EP   1    745 54.93                             144     0.1 7   98 178 
 RUS  HN ES   1    746 13.22                             144     0.1 7   98 178 
 RUS  HZ I         746 15.09         2.6 0.22                            98 178 
                                                                                
