 2013 1021 0905 27.7 L   6.770 -74.160 74.1  RSN  5 0.2 1.3LRSN                1
 GAP= 97        0.66       2.2     2.1  5.1  0.5254E+00 -0.8058E+00  0.6656E+00E
 Epicentro: PUERTO PARRA - SANTANDER                                           3
 ACTION:UPD 13-11-25 09:22 OP:ep   STATUS:               ID:20131021090527 L   I
 OLDACT:REG 13-10-21 08:03 OP:carl STATUS:               ID:20131021085843     3
 2013-10-21-0858-43M.COL___208                                                 6
 STAT SP IPHASW D HRMM SECON CODA AMPLIT PERI AZIMU VELO AIN AR TRES W  DIS CAZ7
 PTB  HZ EP        9 5 39.03                             148   -0.3910 41.5 232 
 PTB  HN ES        9 5 48.44                             148   -0.1410 41.5 232 
 PTB  HZ I         9 5 49.49         6.0 0.24            149           41.5 232 
 BRR  HZ EP        9 5 40.81                             136   -0.1510 62.0  53 
 BRR  HN ES        9 5 51.62                             136    0.3010 62.0  53 
 BRR  HZ I         9 5 52.53         8.6 0.12            138           62.0  53 
 BAR2 SZ EP        9 5 46.07                             119    0.0510  110 100 
 BAR2 SZ ES        9 6  0.08                             119   -0.2510  110 100 
 BAR2 SZ I         9 6  0.89         8.9 0.18            120            110 100 
 ZAR  HZ EP        9 5 45.70                             118   -0.1510  111 316 
 ZAR  HN ES        9 6  0.29                             118    0.2610  111 316 
 ZAR  HZ I         9 6  2.51         5.7 0.30            119            111 316 
 SPBC HZ EP        9 5 47.59                             115    0.2110  124 176 
 SPBC HN ES        9 6  3.05                             115    0.2910  124 176 
 SPBC HZ I         9 6  4.10         5.3 0.16            117            124 176 
                                                                                
