 2013  621 0512 52.9 L   6.853 -73.456123.8  RSN  7 0.5 1.7LRSN                1
 GAP= 94        1.01       4.6     6.7  9.0  0.6519E+01  0.2604E+01 -0.1159E+02E
 Epicentro: SAN VICENTE DE CHUCURI - SANTANDER                                 3
 ACTION:UPD 14-01-08 09:56 OP:ep   STATUS:               ID:20130621051252 L   I
 OLDACT:REG 13-06-21 09:02 OP:carl STATUS:               ID:20130621050959     3
 2013-06-21-0509-59M.COL___263                                                 6
 STAT SP IPHASW D HRMM SECON CODA AMPLIT PERI AZIMU VELO AIN AR TRES W  DIS CAZ7
 GIR2 SZ IP     D  513 10.54                             162    0.3110 38.2  49 
 GIR2 SZ I         513 20.79         7.2 0.18            161           38.2  49 
 BRR  HZ EP        513 10.47                             161    0.3910 39.9 315 
 BRR  HN ES   1    513 24.39                             161    0.92 7 39.9 315 
 BAR2 SZ IP     C  513 10.52                             160    0.0110 41.8 134 
 BAR2 SZ ES   1    513 23.85                             160   -0.38 7 41.8 134 
 BAR2 SZ I         513 24.51        28.9 0.42            162           41.8 134 
 RUS  HZ EP   1    513 15.74                             135    0.05 7  114 159 
 RUS  HN ES   1    513 33.11                             135   -0.34 7  114 159 
 RUS  HZ I         513 34.13         3.4 0.38            135            114 159 
 PTB  HZ EP   1    513 15.23                             134    0.02 7  116 253 
 PTB  HN ES   1    513 31.89                             134   -0.71 7  116 253 
 PTB  HZ I         513 37.09         6.0 0.14            131            116 253 
 OCA  HZ EP   4    513 18.97                             125   -0.01 0  154   6 
 OCA  HN ES   1    513 38.30                             125   -1.02 7  154   6 
 OCA  HZ I         513 40.01         7.5 0.18            123            154   6 
 SML  HZ EP        513 26.55                             114    0.14 8  226 343 
 SML  HN ES   1    513 52.29                             114   -0.24 6  226 343 
 SML  HZ I         514  0.56         9.2 0.52            112            226 343 
                                                                                
