 2015  121 0121  3.0 L   6.810 -73.142147.2  RSN 10 0.5 1.7LRSN                1
 GAP=136        1.18       3.5     4.8  6.5 -0.9920E+00  0.6981E+01  0.1525E+01E
 Epicentro: LOS SANTOS - SANTANDER                                             3
 ACTION:UPD 15-03-02 15:41 OP:nd   STATUS:               ID:20150121012103 L   I
 OLDACT:REG 15-01-21 12:19 OP:carl STATUS:               ID:20150121011748     3
 2015-01-21-0117-48M.COL___256                                                 6
 STAT SP IPHASW D HRMM SECON CODA AMPLIT PERI AZIMU VELO AIN AR TRES W  DIS CAZ7
 BAR2 EZ EP        121 22.92                             170    0.0610 24.5 190 
 BAR2 EZ ES        121 37.80                             170   -0.5210 24.5 190 
 BAR2 EZ I         121 39.35         8.0 0.52            167           24.5 190 
 BRR  HZ EP        121 24.74                             153    0.4110 71.0 298 
 BRR  HN ES        121 42.04                             153    1.1010 71.0 298 
 PAM  SZ EP        121 25.65                             151    0.3110 76.3  40 
 PAM  SN ES        121 42.58                             151   -0.1610 76.3  40 
 PAM  SZ I         121 45.01         6.9 0.56            154           76.3  40 
 RUS  HZ EP        121 26.86                             144   -0.1410  102 176 
 RUS  HE ES        121 45.33                             144   -0.3710  102 176 
 RUS  HZ I         121 48.12         5.7 0.42            142            102 176 
 PTB  HZ EP        121 29.87                             132   -0.30 9  148 258 
 PTB  HN ES        121 50.88                             132   -0.46 9  148 258 
 PTB  HZ I         121 52.95         8.7 0.12            132            148 258 
 SPBC HZ EP        121 32.69                             129    0.95 9  164 219 
 SPBC HN ES        121 54.30                             129    0.16 9  164 219 
 SPBC HZ I         121 59.66         8.5 0.28            128            164 219 
 ZAR  HE ES        122  0.99                             123    0.05 9  204 292 
 NOR  HZ EP        121 38.90                             119   -0.04 8  236 234 
 NOR  HN ES        122  6.54                             119   -0.42 8  236 234 
 NOR  HZ I         122 14.07         3.5 0.38            118            236 234 
 SML  HZ EP        121 39.23                             118   -0.42 8  243 335 
 SML  HN ES        122  7.46                             118   -0.75 8  243 335 
 SML  HZ I         122 10.75         5.2 0.10            119            243 335 
 CHI  HZ EP        121 40.89                             117   -0.04 8  250 195 
 CHI  HN ES        122 10.59                             117    0.09 8  250 195 
 CHI  HZ I         122 20.02         1.9 0.74            117            250 195 
                                                                                
