 2014  421 0149 20.8 L   6.816 -73.151144.8  RSN  6 0.6 1.4LRSN                1
 GAP=183        1.12       5.8     8.9 12.1  0.1294E+02 -0.1231E+01 -0.1529E+02E
 Epicentro: LOS SANTOS - SANTANDER                                             3
 ACTION:UPD 14-05-13 23:10 OP:nd   STATUS:               ID:20140421014920 L   I
 OLDACT:REG 14-04-21 13:42 OP:spq  STATUS:               ID:20140421014818     3
 2014-04-21-0148-18M.COL___236                                                 6
 STAT SP IPHASW D HRMM SECON CODA AMPLIT PERI AZIMU VELO AIN AR TRES W  DIS CAZ7
 BRR  HZ EP   1    149 42.19                             153    0.40 7 69.9 297 
 BRR  HN ES   1    149 58.47                             153    0.32 7 69.9 297 
 BRR  HZ I         150  2.51         5.5 0.19            155           69.9 297 
 RUS  HZ EP   1    149 44.60                             143   -0.00 7  102 176 
 RUS  HE ES   1    150  3.09                             143   -0.07 7  102 176 
 RUS  HZ I         150  5.02         3.2 0.18            147            102 176 
 PTB  HZ EP   1    149 47.03                             132   -0.66 7  148 258 
 PTB  HN ES   1    150  7.96                             132   -0.69 7  148 258 
 PTB  HZ I         150 10.99         4.7 0.35            135            148 258 
 OCA  HN ES   1    150 10.86                             130    0.09 7  158 353 
 ZAR  HZ EP   1    149 54.60                             122    1.52 6  203 292 
 ZAR  HN ES   1    150 18.50                             122    0.26 6  203 292 
 SML  HZ EP   1    149 56.48                             117   -0.71 6  242 335 
 SML  HN ES   1    150 24.92                             117   -0.64 6  242 335 
                                                                                
