 2013  821 0654  9.6 L   6.826 -73.232139.4  RSN  5 0.3 1.3LRSN                1
 GAP=228        0.69       4.4     4.2  5.3  0.4953E+01  0.3804E+01  0.5074E+01E
 Epicentro: ZAPATOCA - SANTANDER                                               3
 ACTION:UPD 14-01-14 09:05 OP:ep   STATUS:               ID:20130821065409 L   I
 OLDACT:REG 13-08-21 10:04 OP:nd   STATUS:               ID:20130821064959     3
 2013-08-21-0649-59M.COL___269                                                 6
 STAT SP IPHASW D HRMM SECON CODA AMPLIT PERI AZIMU VELO AIN AR TRES W  DIS CAZ7
 BAR2 SZ EP        654 28.58                             169    0.0910 26.5 168 
 BAR2 SZ ES        654 43.08                             169   -0.1810 26.5 168 
 BAR2 SZ I         654 44.31         4.0 0.28            176           26.5 168 
 BRR  HZ EP   2    654 30.15                             155    0.68 5 61.4 300 
 BRR  HN ES        654 45.20                             155    0.1810 61.4 300 
 BRR  HZ I         655  0.24         9.6 0.50            152           61.4 300 
 RUS  HZ EP        654 33.11                             141    0.1310  105 171 
 RUS  HN ES        654 51.06                             141   -0.2010  105 171 
 RUS  HZ I         654 52.80         2.1 0.30            152            105 171 
 PTB  HZ EP        654 34.88                             132   -0.33 9  139 257 
 PTB  HN ES        654 54.97                             132   -0.25 9  139 257 
 PTB  HZ I         654 57.72         1.8 0.18            136            139 257 
 SPBC HZ EP        654 37.10                             128   -0.13 9  160 216 
 SPBC HN ES        654 59.33                             128    0.51 9  160 216 
 SPBC HZ I         655  2.11         1.8 0.18            135            160 216 
                                                                                
