 2014 1221 0615 55.5 L   6.716 -73.496114.2  RSN  5 0.5 0.9LRSN                1
 GAP=106        1.10       6.0     4.8  9.1 -0.1693E+01 -0.2912E+01  0.8427E+01E
 Epicentro: EL CARMEN - SANTANDER                                              3
 ACTION:UPD 15-02-10 17:06 OP:nd   STATUS:               ID:20141221061555 L   I
 OLDACT:REG 14-12-21 12:45 OP:spq  STATUS:               ID:20141221060748     3
 2014-12-21-0607-48M.COL___299                                                 6
 STAT SP IPHASW D HRMM SECON CODA AMPLIT PERI AZIMU VELO AIN AR TRES W  DIS CAZ7
 BAR2 EZ EP   1    616 11.58                             161   -0.20 7 37.3 112 
 BAR2 EZ ES   1    616 24.70                             161    0.20 7 37.3 112 
 BRR  HZ EP        616 12.53                             155    0.5510 49.4 331 
 BRR  HE ES        616 25.38                             155    0.5110 49.4 331 
 BRR  HZ I         616 26.45         4.6 0.14            160           49.4 331 
 RUS  HZ EP        616 16.81                             136    0.4310  102 153 
 RUS  HN ES   1    616 32.47                             136   -0.22 7  102 153 
 RUS  HZ I         616 36.50         0.8 0.54            136            102 153 
 PTB  HZ EP        616 16.29                             133    0.0310  108 260 
 PTB  HN ES        616 31.80                             133   -0.6810  108 260 
 PTB  HZ I         616 33.44         2.2 0.44            136            108 260 
 PAM  SZ EP        616 16.92                             133   -0.3210  112  52 
 PAM  SE ES   1    616 33.45                             133   -0.77 7  112  52 
 PAM  SZ I         616 34.33         1.1 0.14            137            112  52 
                                                                                
