 2016  421 0610 28.6 L   6.765 -73.143146.3  RSN  8 0.2 1.6LRSN                1
 GAP=138        0.59       2.6     2.5  3.9 -0.1629E+01  0.3523E+01 -0.1013E+01E
 Epicentro: LOS SANTOS - SANTANDER                                             3
 ACTION:UPD 16-05-05 14:23 OP:rebc STATUS:               ID:20160421061028 L   I
 OLDACT:ARG 16-04-21 12:49 OP:cara STATUS:               ID:20160421060747     3
 2016-04-21-0607-47M.COL___297                                                 6
 STAT SP IPHASW D HRMM SECON CODA AMPLIT PERI AZIMU VELO AIN AR TRES W  DIS CAZ7
 BAR2 EZ IP        610 48.34                             172    0.1210 19.6 193 
 BAR2 EZ ES        611  3.64                             172    0.1110 19.6 193 
 BAR2 EZ I         611  4.87         6.3 0.24            170           19.6 193 
 PAM  EZ EP        610 51.13                             150    0.0910 80.3  38 
 PAM  EN ES        611  8.62                             150    0.0710 80.3  38 
 PAM  EZ I         611 10.38         5.3 0.56            155           80.3  38 
 RUS  HZ EP        610 52.05                             145   -0.0710 96.7 176 
 RUS  HN ES        611 10.00                             145   -0.4710 96.7 176 
 RUS  HZ I         611 11.81         4.8 0.28            147           96.7 176 
 PTB  HZ EP        610 55.22                             132   -0.34 9  147 260 
 PTB  HN ES        611 16.51                             132   -0.09 9  147 260 
 PTB  HZ I         611 23.69         5.4 0.32            133            147 260 
 SPBC HZ EP        610 57.24                             130    0.38 9  160 220 
 SPBC HN ES        611 19.32                             130    0.40 9  160 220 
 SPBC HZ I         611 25.27        10.0 0.80            131            160 220 
 ZAR  HZ EP        611  1.17                             122   -0.08 8  206 293 
 ZAR  HN ES        611 26.67                             122   -0.06 8  206 293 
 ZAR  HZ I         611 28.33         4.6 0.10            124            206 293 
 NOR  HZ EP        611  4.07                             119   -0.06 8  233 235 
 NOR  HE ES        611 31.87                             119    0.01 8  233 235 
 NOR  HZ I         611 35.68         3.2 0.12            120            233 235 
 GUY2CHZ EP   9    611 13.77                             113    1.77 0  299 235 
 GUY2CHE ES        611 47.79                                    0.16 7  299 235 
 GUY2CHZ I         611 54.89         3.4 0.82                           299 235 
                                                                                
