 2015  121 0816 13.4 L   6.777 -73.101145.5  RSN  5 0.2 1.3LRSN                1
 GAP=143        0.54       2.6     3.6  4.0 -0.3077E+01  0.8513E+00  0.1470E+01E
 Epicentro: LOS SANTOS - SANTANDER                                             3
 ACTION:UPD 15-03-02 15:41 OP:nd   STATUS:               ID:20150121081613 L   I
 OLDACT:REG 15-01-21 12:30 OP:carl STATUS:               ID:20150121080749     3
 2015-01-21-0807-49M.COL___265                                                 6
 STAT SP IPHASW D HRMM SECON CODA AMPLIT PERI AZIMU VELO AIN AR TRES W  DIS CAZ7
 BAR2 EZ EP        816 32.89                             171   -0.0410 22.4 204 
 BAR2 EZ ES        816 48.48                             171    0.2910 22.4 204 
 BAR2 EZ I         816 49.91         4.1 0.20            171           22.4 204 
 PAM  SZ EP        816 35.76                             151    0.2910 76.4  35 
 PAM  SE ES        816 52.41                             151   -0.3210 76.4  35 
 PAM  SZ I         816 55.11         3.3 0.36            152           76.4  35 
 BRR  HZ EP        816 34.72                             151   -0.0710 76.8 298 
 BRR  HN ES        816 51.54                             151    0.0310 76.8 298 
 BRR  HZ I         816 52.42         2.9 0.28            152           76.8 298 
 RUS  HZ EP        816 36.73                             144   -0.1510 97.8 179 
 RUS  HN ES        816 55.25                             144    0.0210 97.8 179 
 SPBC HZ EP        816 42.09                             129    0.14 9  164 221 
 SPBC HN ES        817  4.04                             129   -0.21 9  164 221 
 SPBC HZ I         817  6.47         2.4 0.20            130            164 221 
                                                                                
