 2013  321 0310 17.4 L   6.670 -73.195144.0  RSN  6 0.4 1.7LRSN                1
 GAP=221        1.02       7.7     7.1  8.2  0.3311E+02  0.1134E+02  0.2041E+01E
 Epicentro: VILLANUEVA - SANTANDER                                             3
 ACTION:UPD 13-04-09 14:03 OP:ep   STATUS:               ID:20130321031017 L   I
 2013-03-21-0310-00M.COL___245                                                 6
 STAT SP IPHASW D HRMM SECON CODA AMPLIT PERI AZIMU VELO AIN AR TRES W  DIS CAZ7
 BAR2 SZ EP        310 36.13                             176   -0.4510 8.70 171 
 BAR2 SZ ES        310 51.38                             176   -0.1910 8.70 171 
 BAR2 SZ I         310 52.77         9.2 0.28            178           8.70 171 
 BRR  HZ EP        310 38.58                             151    0.0410 74.9 310 
 BRR  HN ES        310 55.44                             151    0.3810 74.9 310 
 BRR  HN I         311  0.29         8.8 0.20            150           74.9 310 
 RUS  HZ EP        310 39.72                             148   -0.2810 86.8 172 
 RUS  HN ES        310 58.05                             148    0.4010 86.8 172 
 RUS  HN I         310 59.71         7.0 0.28            152           86.8 172 
 PTB  HZ EP        310 44.23                             133    0.71 9  140 264 
 PTB  HN ES        311  3.40                             133   -0.51 9  140 264 
 PTB  HN I         311  5.08         5.1 0.38            134            140 264 
 OCA  HN ES   4    311  6.92                             127   -2.96 0  174 355 
 OCA  HN I         311 11.52        10.7 0.18            128            174 355 
 ZAR  HN ES        311 14.99                             122   -0.11 9  205 296 
 ZAR  HN I         311 21.18         5.5 0.20            123            205 296 
                                                                                
