 2014 1121 0717  8.3 L   6.731 -73.546108.2  RSN 16 0.5 1.9LRSN                1
 GAP= 57        1.19       2.5     3.1  5.7 -0.6802E+00  0.6610E+01  0.1843E+01E
 Epicentro: EL CARMEN - SANTANDER                                              3
 ACTION:UPD 14-12-19 15:45 OP:nd   STATUS:               ID:20141121071708 L   I
 OLDACT:DUP 14-11-21 14:28 OP:fm   STATUS:               ID:20141121070746d    3
 2014-11-21-0707-45M.COL___301                                                 6
 STAT SP IPHASW D HRMM SECON CODA AMPLIT PERI AZIMU VELO AIN AR TRES W  DIS CAZ7
 BAR2 SZ EP     C  717 24.45                             157    0.2910 43.1 111 
 BAR2 SZ ES        717 36.80                             157    0.2510 43.1 111 
 BAR2 SZ I         717 37.61        84.7 0.26            159           43.1 111 
 BRR  HZ EP     D  717 24.19                             155    0.2610 45.4 336 
 BRR  HN ES        717 36.96                             155    0.8210 45.4 336 
 BRR  HZ I         717 37.60        26.5 0.12            156           45.4 336 
 PTB  HZ IP     C  717 27.45                             133   -0.6610  103 258 
 PTB  HE ES        717 42.64                             133   -0.9410  103 258 
 PTB  HZ I         717 45.16        16.1 0.18            132            103 258 
 RUS  HZ EP     C  717 28.98                             133   -0.0610  106 151 
 RUS  HN ES        717 45.05                             133   -0.1810  106 151 
 RUS  HZ I         717 46.05        21.6 0.16            133            106 151 
 PAM  SZ EP     D  717 29.73                             130   -0.1610  115  54 
 PAM  SN ES        717 46.55                             130   -0.1910  115  54 
 PAM  SZ I         717 50.09        10.9 0.18            132            115  54 
 SPBC HZ EP     C  717 30.89                             125   -0.1710  133 206 
 SPBC HE ES        717 48.50                             125   -0.3210  133 206 
 SPBC HZ I         717 54.92        24.3 0.30            124            133 206 
 ZAR  HZ EP        717 35.46                             118    0.89 9  168 300 
 ZAR  HE ES        717 55.47                             118    0.39 9  168 300 
 ZAR  HZ I         717 59.57        12.3 0.32            118            168 300 
 OCA  HZ EP        717 34.61                             118   -0.26 9  169   9 
 OCA  HN ES        717 55.47                             118   -0.14 9  169   9 
 OCA  HZ I         718  2.55        16.2 0.24            119            169   9 
 ROSC BZ EP        717 41.30                             110   -0.27 8  226 202 
 ROSC BN ES        718  7.48                             110   -0.06 8  226 202 
 ROSC BZ I         718 14.88         7.2 0.40            110            226 202 
 HEL  HZ EP        717 41.59                             110   -0.10 8  227 255 
 HEL  HN ES        718  7.30                             110   -0.45 8  227 255 
 HEL  HZ I         718 14.11         4.0 0.22            110            227 255 
 CHI  HZ EP        717 42.19                             110   -0.25 8  233 185 
 CHI  HN ES        718  9.10                             110    0.02 8  233 185 
 CHI  HZ I         718 16.49         4.1 0.28            110            233 185 
 URE  HZ EP   4    717 36.33                             108   -7.15 0  247 297 
 URE  HN ES   4    718  9.42                             108   -1.52 0  247 297 
 URE  HZ I         718 13.40         6.5 0.14            108            247 297 
 CBOC HZ EP        717 48.88                             105    0.23 7  289 251 
 CBOC HE ES        718 20.45                             105    0.30 7  289 251 
 CBOC HZ I         718 25.15         2.6 0.20            105            289 251 
 TOL  SZ EP        717 52.74                             103    1.65 7  308 220 
 TOL  SE ES        718 24.90                             103    0.41 7  308 220 
 TOL  SZ I         718 34.23         9.8 0.32            103            308 220 
 MON  HZ EP        717 51.79                             102   -0.93 7  325 314 
 MON  HN ES        718 27.03                             102   -0.36 7  325 314 
 MON  HZ I         718 29.50         1.3 0.18            102            325 314 
 ORTC HZ EP        717 57.64                             100    0.18 6  365 211 
 ORTC HN ES        718 36.41                             100    0.58 6  365 211 
 ORTC HZ I         718 43.89         2.5 0.28            100            365 211 
                                                                                
