 2011  721 0541  2.4 L   6.760 -73.093147.5  RSN  9 0.3 2.1LRSN                1
 GAP=162        0.53       2.4     4.2  4.0 -0.2755E+01  0.3506E+01  0.9770E+00E
 Epicentro: LOS SANTOS - SANTANDER                                             3
 ACTION:UPD 12-07-25 14:02 OP:epov STATUS:               ID:20110721054102 L   I
 2011-07-21-0538-54S.COL___141                                                 6
 STAT SP IPHASW D HRMM SECON CODA AMPLIT PERI AZIMU VELO AIN AR TRES W  DIS CAZ7
 BAR2 SZ IP        541 22.06                             171   -0.1510 21.0 208 
 BAR2 SZ ES   1    541 37.20                             171   -0.44 7 21.0 208 
 BAR2 SZ I         541 38.86        33.0 0.32                          21.0 208 
 BRR  HZ EP   1    541 24.03                             150   -0.14 7 78.4 299 
 BRR  HN ES   1    541 41.46                             150    0.33 7 78.4 299 
 BRR  HZ I         541 45.94        33.0 0.16                          78.4 299 
 RUS  HZ EP   1    541 25.95                             145   -0.06 7 95.9 179 
 RUS  HE ES   1    541 44.81                             145    0.40 7 95.9 179 
 RUS  HZ I         541 45.91        16.5 0.31                          95.9 179 
 BRI  SZ EP   1    541 26.63                             141   -0.01 7  111  17 
 BRI  SZ ES   1    541 45.69                             141    0.15 7  111  17 
 BRI  SZ I         541 47.35        16.2 0.24                           111  17 
 OCA  SZ EP   1    541 31.14                             129   -0.20 7  165 351 
 OCA  SZ ES   1    541 53.98                             129    0.07 7  165 351 
 OCA  SZ I         542  4.08        19.3 0.24                           165 351 
 NOR  SZ EP   1    541 38.23                             119   -0.25 6  237 236 
 NOR  SN ES   1    542  6.35                             119   -0.27 6  237 236 
 CHI  HZ EP   1    541 40.28                             118    0.36 6  246 197 
 CHI  HZ I         542 15.43         9.9 0.60                           246 197 
 HEL  HZ EP   1    541 43.71                             115    0.49 6  277 257 
 PRA  HZ EP   1    541 55.84                             107   -0.05 4  391 211 
                                                                                
