 2011  621 0825 58.2 L   6.838 -73.152143.2  RSN  9 0.3 1.5LRSN                1
 GAP=154        0.63       3.9     7.2  6.8 -0.1043E+02 -0.5863E+01  0.3696E+01E
 Epicentro: LOS SANTOS - SANTANDER                                             3
 ACTION:UP  11-07-14 19:06 OP:ep   STATUS:               ID:20110621082558 L   I
 2011-06-21-0821-20S.COL___140                                                 6
 STAT SP IPHASW D HRMM SECON CODA AMPLIT PERI AZIMU VELO SNR AR TRES W  DIS CAZ7
 BTL  SZ EP   1    826 17.60                             174     0.2 7   16 305 
 BAR2 SZ EP   1    826 16.91                             169    -0.7 7   27 187 
 BAR2 SZ I         826 34.24         7.7 0.21                            27 187 
 GIR2 SZ EP   1    826 17.73                             169     0.3 7   27 350 
 GIR2 SZ ES   1    826 32.48                             169     0.0 7   27 350 
 BRR  HZ EP   1    826 18.80                             153    -0.1 7   69 296 
 BRR  HZ I         826 34.27         7.9 0.35                            69 296 
 BRR  HE ES   2    826 34.78                             153    -0.3 5   69 296 
 BRI  SZ EP   1    826 21.68                             142     0.2 7  105  22 
 RUS  HZ EP   1    826 22.10                             142     0.1 7  105 176 
 RUS  HE ES   2    826 40.83                             142     0.3 5  105 176 
 RUS  HZ I         826 41.69         5.5 0.37                           105 176 
 GRA  SZ EP   1    826 22.48                             137    -0.4 7  122  18 
 GRA  SZ ES   1    826 42.08                             137     0.0 7  122  18 
 GRA  SZ I         826 45.57         3.3 0.26                           122  18 
 OCA  SZ EP   2    826 26.23                             130     0.4 5  156 353 
 OCA  SZ ES   2    826 47.76                             130     0.3 5  156 353 
 OCA  SZ I         826 51.63         4.7 0.64                           156 353 
 NOR  SE ES   2    827  1.96                             118     0.1 4  237 234 
                                                                                
