 2011 1121 0245 55.7 L   6.751 -73.063146.8  RSN  4 0.2 1.4LRSN                1
 GAP=150        0.46       3.4     5.0  6.1 -0.3660E+00 -0.1459E+01  0.2661E+01E
 Epicentro: LOS SANTOS - SANTANDER                                             3
 ACTION:UPD 12-07-13 16:11 OP:ep   STATUS:               ID:20111121024555 L   I
 2011-11-21-0240-00M.COL___179                                                 6
 STAT SP IPHASW D HRMM SECON CODA AMPLIT PERI AZIMU VELO AIN AR TRES W  DIS CAZ7
 BAR2 SZ EP   1    246 15.59                             171    0.12 7 21.9 217 
 BAR2 SZ I         246 22.51         7.9 0.76                          21.9 217 
 PAM  SZ EP   1    246 17.71                             151   -0.30 7 76.5  32 
 PAM  SN ES   1    246 35.54                             151    0.15 7 76.5  32 
 BRR  HZ EP   1    246 17.54                             149   -0.09 7 81.8 299 
 BRR  HE ES   1    246 34.73                             149    0.03 7 81.8 299 
 BRR  HZ I         246 37.20         7.5 0.13                          81.8 299 
 RUS  HZ EP   1    246 19.49                             146    0.30 7 94.9 181 
 RUS  HZ I         246 20.07         1.8 0.12                          94.9 181 
 RUS  HN ES   1    246 37.28                             146   -0.21 7 94.9 181 
                                                                                
