 2011  521 0437 11.3 L   6.806 -73.101135.7  RSN  8 0.3 1.6LRSN                1
 GAP=142        0.70       3.2     6.1  6.2 -0.2581E+01  0.6672E+00 -0.2775E+01E
 Epicentro: LOS SANTOS - SANTANDER                                             3
 ACTION:UP  11-06-29 08:55 OP:tino STATUS:               ID:20110521043711 L   I
 2011-05-21-0436-33S.COL___141                                                 6
 STAT SP IPHASW D HRMM SECON CODA AMPLIT PERI AZIMU VELO SNR AR TRES W  DIS CAZ7
 BTL  SZ EP        437 30.05                             170     0.310   22 304 
 BAR2 SZ EP   1    437 29.57                             169    -0.2 7   25 201 
 BAR2 SZ ES   1    437 43.78                             169    -0.4 7   25 201 
 BAR2 SZ I         437 45.58        14.8 0.25                            25 201 
 GIR2 SZ EP   1    437 29.84                             166     0.0 7   32 341 
 PAM  SZ EP   1    437 32.37                             150     0.1 7   74  37 
 PAM  SN ES   1    437 49.14                             150     0.6 7   74  37 
 BRR  HZ EP        437 31.61                             149     0.010   75 296 
 BRR  HZ I         437 32.09        17.4 0.11                            75 296 
 BRR  HE ES   1    437 47.79                             149     0.3 7   75 296 
 RUS  HZ EP   1    437 34.39                             141     0.2 7  101 179 
 RUS  HE ES   1    437 51.70                             141    -0.2 7  101 179 
 RUS  HZ I         437 52.99         3.7 0.26                           101 179 
 GRA  SZ EP   1    437 35.31                             135    -0.2 7  124  15 
 GRA  SZ ES   1    437 54.01                             135    -0.4 7  124  15 
 GRA  SZ I         437 56.34         4.7 0.39                           124  15 
 OCA  SZ EP   1    437 38.72                             127    -0.2 7  160 351 
 OCA  SZ ES   1    438  0.17                             127    -0.2 7  160 351 
 OCA  SZ I         438  6.34         5.1 0.17                           160 351 
                                                                                
