 2014 1121 0349 38.8 L   6.818 -73.160148.4  RSN 20 0.5 2.4LRSN                1
 GAP= 70        1.10       2.7     2.8  4.9 -0.3542E+00  0.4569E+01  0.1309E+01E
 Epicentro: LOS SANTOS - SANTANDER                                             3
 ACTION:UPD 14-12-19 15:45 OP:nd   STATUS:               ID:20141121034938 L   I
 OLDACT:REG 14-11-21 12:53 OP:fm   STATUS:               ID:20141121034743     3
 2014-11-21-0347-43M.COL___304                                                 6
 STAT SP IPHASW D HRMM SECON CODA AMPLIT PERI AZIMU VELO AIN AR TRES W  DIS CAZ7
 BAR2 SZ EP        349 58.79                             170   -0.0410 25.1 186 
 BAR2 SZ ES        350 14.76                             170    0.3510 25.1 186 
 BAR2 SZ I         350 15.66        49.6 0.46            169           25.1 186 
 BRR  HZ EP     C  350  0.67                             154    0.5210 68.9 298 
 BRR  HE ES        350 17.19                             154    0.4210 68.9 298 
 BRR  HZ I         350 22.97        33.8 0.12            153           68.9 298 
 PAM  SZ EP        350  1.63                             151    0.3210 76.9  41 
 PAM  SE ES        350 18.79                             151   -0.0410 76.9  41 
 PAM  SZ I         350 23.29        27.2 0.80            156           76.9  41 
 RUS  HZ EP        350  2.44                             144   -0.5710  103 175 
 RUS  HN ES        350 21.43                             144   -0.4210  103 175 
 RUS  HZ I         350 24.04        32.7 0.48            146            103 175 
 PTB  HZ EP        350  5.61                             133   -0.32 9  147 258 
 PTB  HN ES        350 26.50                             133   -0.55 9  147 258 
 PTB  HZ I         350 31.38        36.3 0.28            134            147 258 
 TAM  HZ EP        350  6.79                             131   -0.13 9  157 106 
 TAM  HE ES        350 28.53                             131   -0.28 9  157 106 
 TAM  HZ I         350 31.70         8.6 0.60            136            157 106 
 OCA  HZ EP        350  7.45                             131    0.29 9  158 354 
 OCA  HN ES        350 29.37                             131    0.13 9  158 354 
 OCA  HZ I         350 34.71        30.7 0.22            134            158 354 
 SPBC HZ EP        350  7.64                             130    0.04 9  164 218 
 SPBC HN ES        350 29.38                             130   -0.65 9  164 218 
 SPBC HZ I         350 36.58        42.2 0.38            131            164 218 
 ZAR  HZ EP        350 11.34                             123    0.10 9  202 292 
 ZAR  HN ES        350 37.34                             123    0.84 9  202 292 
 ZAR  HZ I         350 42.55        41.4 0.64            125            202 292 
 NOR  HZ EP        350 14.66                             119   -0.06 8  235 234 
 NOR  HE ES        350 42.85                             119    0.15 8  235 234 
 NOR  HZ I         350 50.10        22.9 0.20            121            235 234 
 CHI  HZ EP        350 16.84                             117   -0.02 8  250 195 
 CHI  HN ES        350 46.83                             117    0.33 8  250 195 
 CHI  HZ I         350 52.05        15.1 0.26            120            250 195 
 ROSC BZ EP        350 17.22                             117    0.01 8  254 210 
 ROSC BE ES        350 47.78                             117    0.65 8  254 210 
 ROSC BZ I         350 52.18        28.3 0.40            119            254 210 
 HEL  HZ EP        350 20.10                             115    1.02 8  271 255 
 HEL  HE ES        350 50.10                             115   -0.36 8  271 255 
 HEL  HZ I         350 57.03        11.5 0.30            117            271 255 
 URE  HZ EP        350 19.30                             114   -0.50 7  282 292 
 URE  HN ES        350 50.13                             114   -1.61 7  282 292 
 URE  HZ I         351  2.89        23.8 0.28            116            282 292 
 PTGC HZ EP   4    350 21.72                             112   -1.38 0  311 159 
 PTGC HN ES   4    350 55.23                             112   -2.38 0  311 159 
 PTGC HZ I         350 59.80        10.8 0.40            115            311 159 
 CBOC HZ EP        350 26.43                             110    0.66 7  333 252 
 CBOC HN ES        351  2.49                             110    0.12 7  333 252 
 CBOC HZ I         351  9.30         4.5 0.36            112            333 252 
 TOL  SZ EP        350 27.11                             110   -0.14 7  344 224 
 TOL  SN ES        351  5.15                             110    0.15 7  344 224 
 TOL  SZ I         351 12.27        26.1 0.34            112            344 224 
 MON  HZ EP        350 27.28                             109   -0.39 6  351 308 
 MON  HN ES        351  5.07                             109   -0.68 6  351 308 
 MON  HZ I         351  7.20         5.5 0.30            111            351 308 
 PAL  HZ EP        350 34.42                             106    0.36 6  405 239 
 PAL  HN ES        351 17.49                             106    0.37 6  405 239 
 PAL  HZ I         351 22.77         4.6 0.70            108            405 239 
 SJC  HZ EP   4    350 32.41                             106   -1.79 0  407 327 
 SJC  HN ES   4    351 15.24                             106   -2.13 0  407 327 
 SJC  HZ I         351 20.65         2.9 0.48            108            407 327 
                                                                                
