 2016  421 0153 23.6 L   6.804 -73.153139.9  RSN  9 0.3 1.7LRSN                1
 GAP=135        0.76       2.5     3.2  4.9 -0.2019E+01  0.6926E+01 -0.6349E-01E
 Epicentro: LOS SANTOS - SANTANDER                                             3
 ACTION:UPD 16-05-05 14:23 OP:rebc STATUS:               ID:20160421015323 L   I
 OLDACT:ARG 16-04-21 12:49 OP:cara STATUS:               ID:20160421014747     3
 2016-04-21-0147-47M.COL___304                                                 6
 STAT SP IPHASW D HRMM SECON CODA AMPLIT PERI AZIMU VELO AIN AR TRES W  DIS CAZ7
 BAR2 EZ IP        153 42.68                             170    0.1010 23.6 188 
 BAR2 EZ ES        153 57.35                             170    0.0110 23.6 188 
 BAR2 EZ I         153 59.46         8.7 0.34            169           23.6 188 
 PAM  EZ EP     C  153 45.48                             150    0.2310 77.6  40 
 PAM  EN ES        154  2.07                             150   -0.0310 77.6  40 
 PAM  EZ I         154  4.55        10.5 0.44            155           77.6  40 
 RUS  HZ IP        153 47.29                             142    0.4310  101 176 
 RUS  HE ES        154  4.61                             142   -0.3510  101 176 
 RUS  HZ I         154  5.80         3.7 0.28            146            101 176 
 PTB  HZ EP        153 49.58                             131   -0.49 9  147 259 
 PTB  HN ES        154 10.36                             131   -0.33 9  147 259 
 PTB  HZ I         154 13.50         8.0 0.10            131            147 259 
 OCA  HE ES        154 13.20                             128    0.05 9  160 353 
 SPBC HZ EP        153 51.18                             128   -0.50 9  163 219 
 SPBC HE ES        154 13.90                             128    0.35 9  163 219 
 SPBC HZ I         154 20.55         5.6 0.22            129            163 219 
 ZAR  HZ EP        153 55.77                             121    0.15 9  203 292 
 ZAR  HN ES        154 20.64                             121    0.08 9  203 292 
 ZAR  HZ I         154 29.40         6.7 0.30            122            203 292 
 NOR  HZ EP        153 58.91                             117   -0.08 8  234 234 
 NOR  HE ES        154 26.90                             117    0.33 8  234 234 
 NOR  HZ I         154 33.79         3.6 0.18            119            234 234 
 GUY2CHZ EP        154  6.62                             111   -0.32 7  301 235 
 GUY2CHN ES        154 41.19                             111    0.48 7  301 235 
 GUY2CHZ I         154 50.19         1.9 0.66                           301 235 
                                                                                
