 2013  621 0926 38.2 L   6.822 -73.152144.9  RSN 12 0.4 2.4LRSN                1
 GAP=113        0.85       2.9     3.3  4.9  0.4373E-01  0.2505E+01  0.2024E+01E
 Epicentro: LOS SANTOS - SANTANDER                                             3
 ACTION:UPD 14-01-08 09:56 OP:ep   STATUS:               ID:20130621092638 L   I
 OLDACT:REG 13-06-21 09:13 OP:carl STATUS:               ID:20130621091959     3
 2013-06-21-0919-59M.COL___263                                                 6
 STAT SP IPHASW D HRMM SECON CODA AMPLIT PERI AZIMU VELO AIN AR TRES W  DIS CAZ7
 BAR2 SZ IP     C  926 57.83                             170    0.0410 25.7 188 
 BAR2 SZ ES   1    927 13.07                             170    0.01 7 25.7 188 
 BAR2 SZ I         927 14.43        70.4 0.22            167           25.7 188 
 GIR2 SZ EP        926 57.97                             168    0.2510 28.7 351 
 GIR2 SZ ES   1    927 13.01                             168    0.08 7 28.7 351 
 BRR  HZ IP     D  926 59.63                             153    0.4610 69.5 297 
 BRR  HN ES   1    927 16.22                             153    0.70 7 69.5 297 
 BRR  HZ I         927 20.72        46.5 0.22            151           69.5 297 
 RUS  HZ EP        927  1.78                             143   -0.2810  103 176 
 RUS  HN ES   1    927 20.18                             143   -0.49 7  103 176 
 RUS  HZ I         927 22.06        17.0 0.38            144            103 176 
 PTB  HZ EP        927  4.42                             132   -0.67 9  148 258 
 PTB  HN ES   1    927 25.51                             132   -0.55 7  148 258 
 PTB  HZ I         927 28.20        37.5 0.16            131            148 258 
 TAM  HZ IP     C  927  6.25                             130    0.31 9  156 106 
 TAM  HN ES   1    927 27.59                             130    0.02 7  156 106 
 TAM  HZ I         927 28.52        17.0 0.34            134            156 106 
 OCA  HZ EP   1    927  6.07                             130   -0.15 7  158 353 
 OCA  HN ES   1    927 27.78                             130   -0.28 7  158 353 
 OCA  HZ I         927 31.34        21.3 0.34            132            158 353 
 NOR  HZ EP        927 14.18                             118    0.19 8  236 234 
 NOR  HN ES   1    927 41.83                             118   -0.06 6  236 234 
 NOR  HZ I         927 51.42        21.3 0.16            118            236 234 
 SML  HZ EP        927 14.22                             118   -0.30 8  241 335 
 SML  HN ES   1    927 42.19                             118   -0.64 6  241 335 
 SML  HZ I         927 45.02        28.7 0.10            119            241 335 
 CHI  HZ EP        927 16.15                             117    0.05 8  251 195 
 CHI  HN ES   1    927 45.65                             117   -0.01 6  251 195 
 CHI  HZ I         927 50.71        12.9 0.24            118            251 195 
 ROSC BZ EP   4    927 17.57                             116    1.09 0  255 211 
 ROSC BN ES   4    927 48.54                             116    2.22 0  255 211 
 HEL  HZ EP   1    927 19.47                             115    1.09 6  272 255 
 HEL  HE ES   1    927 50.40                             115    0.70 6  272 255 
 HEL  HZ I         927 56.52        16.0 0.24            115            272 255 
 PRA  HZ EP        927 31.65                             106   -0.26 6  394 209 
 PRA  HN ES   1    928 13.56                             106   -0.24 4  394 209 
 PRA  HZ I         928 20.11        16.8 0.40            107            394 209 
                                                                                
