 2012 1121 0307 26.6 L   6.714 -73.233148.3  RSN  4 0.2 1.3LRSN                1
 GAP=208        0.46       4.3     4.6  5.0  0.1050E+02 -0.6545E+00  0.2886E+01E
 Epicentro: VILLANUEVA - SANTANDER                                             3
 ACTION:UPD 12-12-05 15:34 OP:}ep  STATUS:               ID:20121121030726 L   I
 2012-11-21-0300-00M.COL___233                                                 6
 STAT SP IPHASW D HRMM SECON CODA AMPLIT PERI AZIMU VELO AIN AR TRES W  DIS CAZ7
 BAR2 SZ EP   2    3 7 45.92                             174   -0.48 5 14.6 158 
 BRR  HZ EP        3 7 47.96                             154    0.0810 68.5 309 
 BRR  HN ES        3 8  4.48                             154    0.0010 68.5 309 
 BRR  HZ I         3 8  9.18         4.6 0.28                          68.5 309 
 RUS  HZ EP        3 7 50.27                             147    0.2310 92.4 170 
 RUS  HN ES   1    3 8  8.22                             147   -0.10 7 92.4 170 
 RUS  HN I         3 8 10.22         2.5 0.26                          92.4 170 
 PTB  HZ EP        3 7 52.63                             135   -0.18 9  137 262 
 PTB  HN ES   1    3 8 13.28                             135    0.04 7  137 262 
 PTB  HZ I         3 8 16.89         2.7 0.14                           137 262 
                                                                                
