 2010  721 0840 49.0 L   6.907 -72.918144.3  RSN  4 0.1 1.6LRSN                1
 GAP=190        0.43       3.3     7.8  9.2  0.1216E+02 -0.5817E+02 -0.1310E+02E
 Epicentro: GUACA - SANTANDER                                                  3
 ACTION:UPD 10-12-01 15:19 OP:pat  STATUS:               ID:20100721084049 L   I
 2010-07-21-0835-32S.COL___123                                                 6
 STAT SP IPHASW D HRMM SECON CODA AMPLIT PERI AZIMU VELO AIN AR TRES W  DIS CAZ7
 BAR2 SZ EP   1    841  9.43                             162     0.3 7   46 220 
 BAR2 SZ I         841 26.14         7.4 0.18                            46 220 
 BRR  HZ EP   1    841 11.09                             146    -0.1 7   91 284 
 BRR  HE ES        841 28.57                             146     0.010   91 284 
 BRR  HZ I         841 51.20         6.4 0.81                            91 284 
 GUE  SZ EP        841 12.44                             143    -0.110  102 360 
 RUS  HZ EP        841 13.62                             140     0.010  114 189 
 RUS  HN ES   1    841 32.68                             140    -0.1 7  114 189 
                                                                                
