 2015  321 0200  7.7 L   7.334 -73.428105.2  RSN  9 0.4 1.4LRSN                1
 GAP= 83        1.01       2.7     3.6  6.6 -0.3986E+00  0.7576E+01 -0.1316E+01E
 Epicentro: SABANA DE TORRES - SANTANDER                                       3
 ACTION:UPD 15-04-30 16:27 OP:nd   STATUS:               ID:20150321020007 L   I
 OLDACT:REG 15-03-21 12:39 OP:stll STATUS:               ID:20150321015735     3
 2015-03-21-0157-35M.COL___272                                                 6
 STAT SP IPHASW D HRMM SECON CODA AMPLIT PERI AZIMU VELO AIN AR TRES W  DIS CAZ7
 BRR  HZ EP     D  2 0 22.74                             157   -0.0010 40.2 231 
 BRR  HN ES        2 0 34.67                             157    0.1810 40.2 231 
 PAM  SN ES        2 0 40.43                             140    0.1210 80.4  90 
 BAR2 EZ IP     D  2 0 26.29                             138    0.1410 86.4 162 
 BAR2 EZ ES        2 0 40.24                             138   -0.3110 86.4 162 
 BAR2 EZ I         2 0 41.40         9.0 0.30            138           86.4 162 
 OCA  HZ EP     D  2 0 27.63                             133    0.3610  101   7 
 OCA  HN ES        2 0 42.42                             133   -0.1310  101   7 
 PTB  HZ EP        2 0 30.28                             122   -0.99 9  144 232 
 PTB  HN ES        2 0 49.65                             122   -0.02 9  144 232 
 PTB  HZ I         2 0 53.29         4.1 0.60            120            144 232 
 ZAR  HZ EP        2 0 33.68                             119    0.81 9  159 276 
 ZAR  HN ES        2 0 52.77                             119    0.26 9  159 276 
 ZAR  HZ I         2 0 56.95         3.4 0.10            117            159 276 
 RUS  HZ EP        2 0 34.28                             118    0.25 9  164 167 
 RUS  HZ I         2 0 34.92         1.4 0.10            118            164 167 
 SML  HZ EP        2 0 34.59                             116   -0.24 9  177 336 
 SML  HN ES        2 0 55.53                             116   -0.47 9  177 336 
 SML  HZ I         2 1  1.32         5.9 0.30            115            177 336 
 SPBC HN ES        2 1  0.58                             112   -0.02 9  199 201 
 SPBC HZ I         2 1  5.64         4.9 0.22            112            199 201 
                                                                                
