 2011  921 0814 41.4 L   6.673 -73.170143.5  RSN  4 0.4 1.4LRSN                1
 GAP=179        0.79       5.7    12.8  8.3  0.4400E+02 -0.4241E+02 -0.1846E+02E
 Epicentro: VILLANUEVA - SANTANDER                                             3
 ACTION:UPD 12-07-13 15:58 OP:ep   STATUS:               ID:20110921081441 L   I
 2011-09-21-0811-50S.COL___165                                                 6
 STAT SP IPHASW D HRMM SECON CODA AMPLIT PERI AZIMU VELO AIN AR TRES W  DIS CAZ7
 BAR2 SZ EP        815  0.76                             176    0.1810 9.06 189 
 BAR2 SZ ES   1    815 15.77                             176    0.26 7 9.06 189 
 BAR2 SZ I         815 17.47         6.8 0.26                          9.06 189 
 BRR  HZ EP        815  2.49                             150   -0.1710 76.7 309 
 BRR  HZ I         815  3.05         5.3 0.07                          76.7 309 
 BRR  HE ES        815 19.29                             150    0.0810 76.7 309 
 RUS  HZ EP   1    815  3.65                             147   -0.35 7 86.8 174 
 RUS  HE ES   1    815 21.45                             147   -0.16 7 86.8 174 
 RUS  HZ I         815 24.74         2.5 0.41                          86.8 174 
 OCA  SZ EP   1    815 11.66                             127    0.78 7  174 355 
 OCA  SZ ES   1    815 33.17                             127   -0.68 7  174 355 
 OCA  SZ I         815 35.48         4.3 0.26                           174 355 
                                                                                
