 2017  921 0444  7.9 L   6.779 -73.114139.8  RSN  9 0.5 1.8LRSN                1
 GAP=142        0.89       3.8     4.8  6.4  0.2717E+01  0.6303E+01  0.3975E+01E
 Epicentro: LOS SANTOS - SANTANDER                                             3
 ACTION:UPD 17-10-05 19:14 OP:rebc STATUS:               ID:20170921044407 L   I
 OLDACT:UP  17-09-21 18:38 OP:and  STATUS:               ID:20170921043740     3
 OLDACT:REG 17-09-21 13:42 OP:leo  STATUS:               ID:20170921043740     3
 2017-09-21-0438-00M.COL___450                                                 6
 STAT SP IPHASW D HRMM SECON CODA AMPLIT PERI AZIMU VELO AIN AR TRES W  DIS CAZ7
 BAR2 EZ EP        444 26.56                             170   -0.2310 22.0 200 
 BAR2 EZ ES        444 41.42                             170   -0.1010 22.0 200 
 BAR2 EZ I         444 42.51        21.3 0.14            168           22.0 200 
 BRR  HZ EP        444 28.47                             150   -0.1910 75.4 299 
 BRR  HN ES        444 45.30                             150    0.4510 75.4 299 
 BRR  HZ I         444 49.38        16.9 0.12            149           75.4 299 
 PAM  EZ EP        444 29.44                             150   -0.0310 77.1  36 
 PAM  EN ES        444 46.25                             150   -0.0410 77.1  36 
 RUS  HZ EP        444 30.63                             143   -0.2610 98.1 178 
 RUS  HN ES        444 48.97                             143    0.1510 98.1 178 
 RUS  HZ I         444 49.73        12.3 0.24            143           98.1 178 
 YPLC HZ IP   4 C  444 36.91                             126    0.01 0  173 152 
 YPLC HN ES   4    445  2.41                             126    2.89 0  173 152 
 YPLC HZ I         445  3.17         7.1 0.32            127            173 152 
 ZAR  HZ EP   2    444 39.77                             121   -0.63 4  208 292 
 ZAR  HN ES        445  5.71                             121   -0.03 8  208 292 
 ZAR  HZ I         445 11.43         8.6 0.40            121            208 292 
 NOR  HZ EP   4    444 44.70                             117    1.24 0  236 235 
 NOR  HE ES   3    445 10.07                             117   -1.12 2  236 235 
 NOR  HZ I         445 13.35         3.4 0.74            117            236 235 
 CHI  HZ EP   1    444 46.68                             116    1.55 6  247 196 
 CHI  HN ES   1    445 13.86                             116   -0.31 6  247 196 
 CHI  HZ I         445 17.12         2.1 0.28            116            247 196 
 URE  HZ EP   4    444 47.15                             112   -2.00 0  288 292 
 URE  HN ES   4    445 19.54                             112   -1.79 0  288 292 
 URE  HZ I         445 21.49         6.5 0.38            112            288 292 
                                                                                
