 2013  621 0607  4.0 L   6.546 -73.636108.9  RSN  5 0.4 1.5LRSN                1
 GAP=130        0.86       6.6     4.8  9.2  0.4405E+01  0.3692E+01  0.9886E+01E
 Epicentro: EL CARMEN DE CHUCURI - SANTANDER                                   3
 ACTION:UPD 14-01-08 09:56 OP:ep   STATUS:               ID:20130621060704 L   I
 OLDACT:REG 13-06-21 09:04 OP:carl STATUS:               ID:20130621055960d    3
 2013-06-21-0559-59M.COL___262                                                 6
 STAT SP IPHASW D HRMM SECON CODA AMPLIT PERI AZIMU VELO AIN AR TRES W  DIS CAZ7
 BAR2 SZ EP        6 7 20.17                             153   -0.1910 50.4  84 
 BAR2 SZ ES   1    6 7 32.84                             153   -0.27 7 50.4  84 
 BAR2 SZ I         6 7 34.08        21.3 0.48            157           50.4  84 
 BRR  HZ EP        6 7 21.10                             148    0.3510 62.6 352 
 BRR  HN ES   1    6 7 33.95                             148    0.16 7 62.6 352 
 BRR  HN I         6 7 35.56         7.9 0.14            149           62.6 352 
 GIR2 SZ EP        6 7 21.78                             142   -0.1510 76.5  40 
 PTB  HZ EP        6 7 22.35                             137   -0.5210 90.7 270 
 PTB  HN ES   1    6 7 37.88                             137    0.31 7 90.7 270 
 PTB  HZ I         6 7 39.15         4.4 0.30            139           90.7 270 
 RUS  HZ EP   1    6 7 24.64                             136    0.78 7 94.7 140 
 RUS  HN ES   2    6 7 39.17                             136   -0.17 5 94.7 140 
                                                                                
