 2013 1121 0624 36.1 L   6.796 -73.062151.1  RSN  4 0.3 1.0LRSN                1
 GAP=246        0.85       8.1     7.5 10.9  0.2431E+02 -0.5498E+01 -0.3374E+02E
 Epicentro: LOS SANTOS - SANTANDER                                             3
 ACTION:UPD 14-01-09 16:29 OP:ep   STATUS:               ID:20131121062436 L   I
 OLDACT:UP  13-11-21 13:30 OP:mh   STATUS:               ID:20131121062000     3
 OLDACT:REG 13-11-21 09:45 OP:mh   STATUS:               ID:20131121062000     3
 2013-11-21-0620-00M.COL___282                                                 6
 STAT SP IPHASW D HRMM SECON CODA AMPLIT PERI AZIMU VELO AIN AR TRES W  DIS CAZ7
 BAR2 SZ EP        624 55.87                             170   -0.5410 26.1 211 
 BRR  HZ EP        624 58.80                             151    0.5110 79.6 296 
 BRR  HN ES   1    625 15.54                             151   -0.07 7 79.6 296 
 BRR  HZ I         625 26.25         2.0 0.27            167           79.6 296 
 RUS  HZ EP   4    625  1.95                             145    1.64 0 99.9 181 
 RUS  HN ES        625 19.41                             145    0.2010 99.9 181 
 RUS  HZ I         625 35.80         0.8 0.42            154           99.9 181 
 PTB  HZ EP        625  4.27                             131   -0.03 9  157 260 
 PTB  HN ES        625 26.19                             131   -0.12 9  157 260 
 PTB  HZ I         625 28.27         1.7 0.14            150            157 260 
                                                                                
