 2016  221 0623 14.9 L   6.765 -73.143145.7  RSN  6 0.4 1.5LRSN                1
 GAP=138        1.11       5.2     5.6  7.6 -0.7284E+01  0.5692E+01  0.4066E+01E
 Epicentro: LOS SANTOS - SANTANDER                                             3
 ACTION:UPD 16-03-04 21:28 OP:rebc STATUS:               ID:20160221062314 L   I
 OLDACT:DUP 16-02-21 14:56 OP:drio STATUS:               ID:20160221061746d    3
 2016-02-21-0617-45M.COL___321                                                 6
 STAT SP IPHASW D HRMM SECON CODA AMPLIT PERI AZIMU VELO AIN AR TRES W  DIS CAZ7
 BAR2 EZ EP        623 34.42                             172   -0.0210 19.6 193 
 BAR2 EZ ES        623 49.47                             172   -0.2310 19.6 193 
 BAR2 EZ I         623 51.49         4.2 0.38            171           19.6 193 
 BRR  HZ EP     C  623 36.18                             152    0.0310 73.3 301 
 BRR  HE ES        623 53.55                             152    0.8110 73.3 301 
 BRR  HZ I         623 57.27         6.7 0.30            150           73.3 301 
 PAM  EZ EP        623 37.30                             150    0.0410 80.2  38 
 PAM  EE ES        623 54.55                             150   -0.1710 80.2  38 
 PAM  EZ I         623 56.56         7.5 0.48            154           80.2  38 
 RUS  HZ EP        623 38.29                             145   -0.0710 96.7 176 
 RUS  HE ES        623 56.50                             145   -0.1710 96.7 176 
 RUS  HZ I         623 58.27         3.8 0.32            148           96.7 176 
 PTB  HZ EP        623 41.43                             132   -0.38 9  147 260 
 PTB  HN ES        624  1.93                             132   -0.88 9  147 260 
 PTB  HZ I         624  9.47         2.7 0.40            132            147 260 
 SPBC HZ EP        623 43.64                             129    0.52 9  160 220 
 SPBC HE ES        624  5.67                             129    0.53 9  160 220 
 SPBC HZ I         624  7.82         5.8 0.26            131            160 220 
                                                                                
