 2013  221 0536 31.4 L   6.776 -73.149143.6  RSN  6 0.4 1.5LRSN                1
 GAP=137        0.97       5.2     5.0  6.5 -0.3438E+01  0.4657E+01 -0.2891E+01E
 Epicentro: LOS SANTOS - SANTANDER                                             3
 ACTION:UPD 13-03-12 09:34 OP:ep   STATUS:               ID:20130221053631 L   I
 2013-02-21-0530-00M.COL___238                                                 6
 STAT SP IPHASW D HRMM SECON CODA AMPLIT PERI AZIMU VELO AIN AR TRES W  DIS CAZ7
 BAR2 SZ IP        536 50.79                             171    0.0410 20.7 190 
 BAR2 SZ ES        537  5.30                             171   -0.5210 20.7 190 
 BAR2 SZ I         537  6.94        12.6 0.23            171           20.7 190 
 BRR  HZ IP     C  536 52.66                             152    0.2610 72.2 301 
 BRR  HE ES        537  9.42                             152    0.6610 72.2 301 
 BRR  HZ I         537 10.83                             153           72.2 301 
 PAM  SZ EP        536 53.50                             150   -0.0510 79.7  39 
 PAM  SZ I         536 53.90         4.9 0.23            152           79.7  39 
 PAM  SE ES        537 10.65                             150   -0.1610 79.7  39 
 RUS  HZ EP        536 55.32                             144    0.5410 98.0 176 
 RUS  HE ES   1    537 13.00                             144    0.01 7 98.0 176 
 RUS  HE I         537 15.17         3.5 0.29            145           98.0 176 
 PTB  HZ EP        536 57.60                             132   -0.54 9  147 260 
 PTB  HN ES        537 18.77                             132   -0.21 9  147 260 
 PTB  HZ I         537 20.19         3.5 0.35            133            147 260 
 SML  HZ EP        537  7.97                             117   -0.21 8  246 336 
                                                                                
