 2010  621 0152  3.7 L   6.777 -73.063145.7  RSN  6 0.3 1.6LRSN                1
 GAP=168        0.72       3.7     8.3  6.8  0.5384E+00 -0.1391E+02 -0.6653E+01E
 Epicentro: LOS SANTOS - SANTANDER                                             3
 ACTION:UP  10-08-24 10:12 OP:vdl  STATUS:               ID:20100621015203 L   I
 2010-06-21-0148-57S.COL___118                                                 6
 STAT SP IPHASW D HRMM SECON CODA AMPLIT PERI AZIMU VELO SNR AR TRES W  DIS CAZ7
 BAR2 SZ EP        152 23.20                             170    -0.210   24 213 
 BAR2 SZ ES   1    152 38.27                             170    -0.4 7   24 213 
 BRR  HZ EP        152 25.26                             150    -0.210   81 297 
 BRR  HZ I         152 25.52        12.7 0.10                            81 297 
 BRR  HN ES   1    152 42.69                             150     0.3 7   81 297 
 RUS  HZ EP        152 27.38                             145     0.110   98 181 
 RUS  HN ES   1    152 45.83                             145     0.2 7   98 181 
 RUS  HZ I         152 47.74         4.7 0.45                            98 181 
 GUE  SZ EP   3    152 27.37                             139    -1.1 2  117   7 
 GRA  SZ EP        152 29.41                             137     0.410  126  13 
 GRA  SZ ES   1    152 48.74                             137     0.1 7  126  13 
 OCA  SZ EP        152 32.18                             129    -0.2 9  164 350 
 OCA  SZ ES   3    152 54.10                             129    -0.7 2  164 350 
 OCA  SZ I         152 59.11         4.4 0.60                           164 350 
                                                                                
