 2016  321 0934 14.6 L   6.831 -73.134136.0  RSN  4 0.4 1.2LRSN                1
 GAP=260        0.90       6.7     6.4  8.8  0.5314E+01  0.1878E+02 -0.1632E+02E
 Epicentro: LOS SANTOS - SANTANDER                                             3
 ACTION:UPD 16-05-13 21:25 OP:cam  STATUS:               ID:20160321093414 L   I
 OLDACT:UP  16-03-21 18:26 OP:ak   STATUS:               ID:20160321092750     3
 OLDACT:UP  16-03-21 18:26 OP:ak   STATUS:               ID:20160321092750     3
 OLDACT:REG 16-03-21 12:54 OP:ak   STATUS:               ID:20160321092750     3
 2016-03-21-0927-50M.COL___282                                                 6
 STAT SP IPHASW D HRMM SECON CODA AMPLIT PERI AZIMU VELO AIN AR TRES W  DIS CAZ7
 BAR2 EZ EP        934 32.96                             168   -0.2010 27.0 191 
 BAR2 EZ ES        934 47.71                             168    0.0910 27.0 191 
 PTB  HZ EP        934 40.55                             129   -0.44 9  150 258 
 PTB  HN ES        935  1.23                             129   -0.33 9  150 258 
 PTB  HZ I         935  8.35         1.3 0.17            127            150 258 
 SPBC HZ EP   2    934 42.27                             126   -0.46 5  167 219 
 SPBC HN ES        935  5.06                             126    0.41 9  167 219 
 SPBC HZ I         935  8.21         1.5 0.17            126            167 219 
 ZAR  HZ EP        934 47.19                             120    0.76 9  204 291 
 ZAR  HN ES        935 11.23                             120   -0.02 9  204 291 
 ZAR  HZ I         935 17.88         2.1 0.40            120            204 291 
                                                                                
