 2012  521 0622 29.9 L   6.918 -73.091160.1  RSN  4 0.2 1.3LRSN                1
 GAP=251        0.45      12.6     8.7 13.6  0.8877E+02 -0.5981E+02 -0.1034E+03E
 Epicentro: PIEDECUESTA - SANTANDER                                            3
 ACTION:UP  12-07-05 12:06 OP:pat  STATUS:               ID:20120521062229 L   I
 2012-05-21-0620-39M.COL___187                                                 6
 STAT SP IPHASW D HRMM SECON CODA AMPLIT PERI AZIMU VELO SNR AR TRES W  DIS CAZ7
 BAR2 SZ EP   2    622 51.31                             166    -0.3 5   37 196 
 BAR2 SZ I         622 52.00         2.1 0.12                            37 196 
 RUS  HZ EP   1    622 56.24                             143     0.3 7  113 180 
 RUS  HN ES   2    623 16.22                             143    -0.1 5  113 180 
 PTB  HZ EP   1    622 58.64                             133    -0.2 7  157 255 
 PTB  HE ES   2    623 21.39                             133     0.0 5  157 255 
 ZAR  HN ES   2    623 29.79                             125     0.2 4  205 288 
 ZAR  HZ I         623 32.02         3.2 0.22                           205 288 
                                                                                
