 2015  321 0618 21.2 L   6.628 -73.274137.9  RSN  4 0.5 0.9LRSN                1
 GAP=208        1.33       7.6    10.2 15.2  0.1480E+02  0.3498E+02 -0.1057E+02E
 Epicentro: GALAN - SANTANDER                                                  3
 ACTION:UPD 15-04-30 16:27 OP:nd   STATUS:               ID:20150321061821 L   I
 OLDACT:REG 15-03-21 12:49 OP:stll STATUS:               ID:20150321061742     3
 2015-03-21-0617-42M.COL___272                                                 6
 STAT SP IPHASW D HRMM SECON CODA AMPLIT PERI AZIMU VELO AIN AR TRES W  DIS CAZ7
 BRR  HZ EP        618 42.22                             151    0.6510 71.8 318 
 BRR  HN ES        618 57.50                             151    0.0610 71.8 318 
 RUS  HN ES        618 59.67                             147   -0.3910 84.0 165 
 RUS  HZ I         619  2.46         0.9 0.50            143           84.0 165 
 PTB  HZ EP        618 45.39                             134   -0.6710  131 266 
 PTB  HN ES        619  5.04                             134   -0.3910  131 266 
 PTB  HZ I         619  9.16         1.2 0.18            131            131 266 
 SPBC HN ES        619  7.67                             132    0.74 9  139 219 
 SPBC HZ I         619 15.09         2.0 0.28            128            139 219 
                                                                                
