 2011  721 0020 43.9 L   6.749 -73.479117.2  RSN  5 0.2 1.4LRSN                1
 GAP=172        0.40       4.0     7.8  4.3  0.2106E+02  0.2938E+01  0.4555E+01E
 Epicentro: EL CARMEN DE CHUCURI - SANTANDER                                   3
 ACTION:UPD 12-07-25 14:02 OP:epov STATUS:               ID:20110721002043 L   I
 2011-07-21-0020-00M.COL___138                                                 6
 STAT SP IPHASW D HRMM SECON CODA AMPLIT PERI AZIMU VELO AIN AR TRES W  DIS CAZ7
 BTL  SZ EP   1    021  0.37                             165    0.04 7 29.9  51 
 BTL  SZ ES   1    021 13.35                             165    0.23 7 29.9  51 
 BAR2 SZ EP   1    021  0.61                             161    0.03 7 37.1 118 
 BAR2 SZ ES   1    021 13.25                             161   -0.32 7 37.1 118 
 BAR2 SZ I         021 13.71        10.8 0.12                          37.1 118 
 BRR  HN ES   1    021 13.71                             156   -0.02 7 47.2 327 
 BRR  HZ I         021 15.65        11.9 0.38                          47.2 327 
 GIR2 SZ EP   1    021  0.90                             156   -0.03 7 48.2  41 
 RUS  HZ EP   1    021  5.23                             136   -0.09 7  104 155 
 RUS  HN ES   1    021 22.16                             136    0.17 7  104 155 
 RUS  HZ I         021 22.98         2.0 0.28                           104 155 
                                                                                
