 2011  621 0849 15.0 L   6.817 -73.067142.6  RSN  5 0.1 1.2LRSN                1
 GAP=207        0.35       5.8     9.3  4.9  0.4192E+02 -0.2348E+02 -0.1170E+02E
 Epicentro: LOS SANTOS - SANTANDER                                             3
 ACTION:UP  11-07-14 19:06 OP:ep   STATUS:               ID:20110621084915 L   I
 2011-06-21-0846-06S.COL___140                                                 6
 STAT SP IPHASW D HRMM SECON CODA AMPLIT PERI AZIMU VELO SNR AR TRES W  DIS CAZ7
 BTL  SZ EP   1    849 34.45                             170     0.2 7   25 297 
 BAR2 SZ EP   1    849 34.21                             168    -0.1 7   28 207 
 BAR2 SZ I         849 34.78         3.6 0.45                            28 207 
 BAR2 SZ ES   1    849 49.32                             168    -0.1 7   28 207 
 GIR2 SZ EP   2    849 34.27                             167     0.0 5   32 334 
 BRR  HZ EP   1    849 36.05                             150    -0.1 7   78 294 
 BRR  HE ES   1    849 52.78                             150     0.1 7   78 294 
 BRR  HZ I         849 55.07         4.6 0.36                            78 294 
 RUS  HZ EP   1    849 38.54                             143     0.0 7  102 181 
 RUS  HE ES   2    849 56.98                             143     0.1 5  102 181 
 RUS  HZ I         849 58.57         1.4 0.27                           102 181 
                                                                                
