 2015 1221 0611  4.8 L   7.296 -73.204121.5  RSN  5 0.3 1.5LRSN                1
 GAP=185        0.81       3.6     5.0  6.8 -0.5027E+01  0.1112E+02 -0.5844E+01E
 Epicentro: RIONEGRO - SANTANDER                                               3
 ACTION:UPD 16-02-04 15:06 OP:cam  STATUS:               ID:20151221061104 L   I
 OLDACT:REG 15-12-21 14:39 OP:cara STATUS:               ID:20151221060747     3
 2015-12-21-0607-47M.COL___330                                                 6
 STAT SP IPHASW D HRMM SECON CODA AMPLIT PERI AZIMU VELO AIN AR TRES W  DIS CAZ7
 BRR  HZ EP        611 22.84                             152    0.1310 59.9 250 
 BRR  HN ES        611 36.79                             152    0.1310 59.9 250 
 BRR  HZ I         611 39.99         9.9 0.30            152           59.9 250 
 BAR2 EZ ES        611 39.49                             145    0.1810 77.9 178 
 BAR2 EZ I         611 40.93        13.4 0.10            149           77.9 178 
 OCA  HZ EP        611 26.40                             136    0.2210  105 353 
 OCA  HE ES        611 42.43                             136   -0.4010  105 353 
 OCA  HZ I         611 45.09         6.3 0.28            139            105 353 
 PTB  HZ EP        611 30.89                             123   -0.45 9  162 239 
 PTB  HE ES        611 51.55                             123   -0.47 9  162 239 
 PTB  HZ I         611 55.08         2.1 0.24            125            162 239 
 ZAR  HZ IP        611 33.92                             119    0.28 9  184 277 
 ZAR  HN ES        611 56.50                             119    0.38 9  184 277 
 ZAR  HZ I         611 59.63         2.9 0.26            121            184 277 
                                                                                
