 2012  221 0047 52.1 L   6.726 -73.144140.0  RSN  7 0.4 1.9LRSN                1
 GAP=140        0.87       5.4     5.1  7.2  0.1333E+01  0.1073E+02  0.5403E+00E
 *DBB                                                                          3
 ACTION:UP  12-03-07 16:32 OP:epov STATUS:               ID:20120221004752 L   I
 2012-02-21-0040-00M.COL___191                                                 6
 STAT SP IPHASW D HRMM SECON CODA AMPLIT PERI AZIMU VELO AIN AR TRES W  DIS CAZ7
 BAR2 SZ ES   1    048 25.93                             173    0.37 7 15.4 196 
 BAR2 SZ I         048 27.15        18.9 0.21                          15.4 196 
 GIR2 SZ EP   1    048 11.14                             163   -0.21 7 39.4 352 
 GIR2 SZ ES   1    048 26.40                             163    0.05 7 39.4 352 
 BRR  HZ EP   1    048 12.94                             150    0.04 7 75.6 304 
 BRR  HZ I         048 15.14        20.7 0.12                          75.6 304 
 BRR  HE ES   1    048 29.65                             150    0.54 7 75.6 304 
 PAM  SZ EP   1    048 14.03                             148   -0.08 7 83.7  36 
 PAM  SZ I         048 14.15        17.0 0.18                          83.7  36 
 PAM  SE ES   1    048 30.76                             148   -0.52 7 83.7  36 
 RUS  HZ EP   1    048 15.00                             145    0.29 7 92.4 176 
 RUS  HN ES   1    048 32.34                             145    0.01 7 92.4 176 
 RUS  HZ I         048 34.53         9.1 0.39                          92.4 176 
 PTB  HZ EP   1    048 17.94                             131   -0.56 7  147 262 
 PTB  HN ES   1    048 38.28                             131   -0.81 7  147 262 
 ZAR  HZ EP   1    048 25.51                             121    0.97 6  207 294 
 ZAR  HN ES   1    048 49.82                             121   -0.01 6  207 294 
 ZAR  HZ I         048 55.94         7.9 0.30                           207 294 
                                                                                
