 2010 1121 0535 27.7 L   6.852 -73.135142.9  RSN  7 0.4 1.6LRSN                1
 GAP=159        0.84       5.2     9.2  8.2 -0.8501E+01  0.9519E+01 -0.5417E+01E
 Epicentro: LOS SANTOS - SANTANDER                                             3
 ACTION:UP  10-12-17 16:54 OP:REBC STATUS:               ID:20101121053527 L   I
 2010-11-21-0530-18S.COL___132                                                 6
 STAT SP IPHASW D HRMM SECON CODA AMPLIT PERI AZIMU VELO SNR AR TRES W  DIS CAZ7
 BTL  SZ IP        535 47.09                             173     0.210   16 297 
 BTL  SZ ES   1    536  2.53                             173     0.7 7   16 297 
 BAR2 SZ EP   2    535 47.02                             168    -0.1 5   29 191 
 BAR2 SZ ES   2    536  1.56                             168    -0.7 5   29 191 
 BAR2 SZ I         536  4.30         8.6 0.32                            29 191 
 BRR  HZ EP   2    535 48.49                             153     0.0 5   70 294 
 BRR  HZ I         535 50.11        14.8 0.08                            70 294 
 BRR  HE ES   2    536  4.85                             153     0.2 5   70 294 
 RUS  HZ EP   2    535 51.50                             142    -0.1 5  106 177 
 RUS  HN ES   2    536  9.80                             142    -0.5 5  106 177 
 RUS  HZ I         536 11.95         3.3 0.28                           106 177 
 GRA  SZ EP   2    535 52.18                             138     0.0 5  120  18 
 GRA  SZ ES   2    536 11.60                             138     0.3 5  120  18 
 GRA  SZ I         536 12.92        10.7 0.28                           120  18 
 OCA  SZ EP   1    535 55.22                             130    -0.1 7  155 352 
 OCA  SZ ES   1    536 16.10                             130    -0.7 7  155 352 
 OCA  SZ I         536 20.46         4.8 0.20                           155 352 
 HEL  HZ EP   2    536  8.92                             114     0.8 4  275 255 
 HEL  HN ES   2    536 38.96                             114    -0.6 4  275 255 
 HEL  HZ I         536 46.80         2.6 0.36                           275 255 
                                                                                
