 2010  221 0333 24.1 L   6.815 -73.089138.5  RSN  7 0.4 1.8LRSN                1
 GAP=189        0.70       4.4     9.9  8.5  0.7464E+01  0.3071E+02 -0.5942E+01E
 Epicentro: LOS SANTOS - SANTANDER                                             3
 ACTION:UP  10-08-24 09:49 OP:vdl  STATUS:               ID:20100221033324 L   I
 2010-02-21-0320-00S.COL___094                                                 6
 STAT SP IPHASW D HRMM SECON CODA AMPLIT PERI AZIMU VELO SNR AR TRES W  DIS CAZ7
 BAR2 SZ EP        333 43.06                             169     0.110   27 203 
 BAR2 SZ ES   2    333 57.64                             169     0.0 5   27 203 
 GIR2 SZ EP        333 43.23                             167     0.310   31 338 
 GIR2 SZ ES   3    333 57.95                             167     0.3 2   31 338 
 BRR  HZ EP        333 45.08                             150     0.310   76 295 
 BRR  HZ I         333 45.42        14.6 0.12                            76 295 
 BRR  HN ES   3    334  1.11                             150     0.2 2   76 295 
 RUS  BZ EP        333 47.20                             142    -0.110  102 180 
 RUS  BN ES   2    334  4.59                             142    -0.8 5  102 180 
 RUS  BZ I         334  7.04         5.0 0.25                           102 180 
 OCA  SZ EP        333 51.80                             128     0.0 9  159 351 
 OCA  SZ ES   2    334 12.31                             128    -1.1 5  159 351 
 OCA  SZ I         334 16.72        12.2 0.41                           159 351 
 CHI  HE ES   3    334 31.30                             115     0.1 2  252 196 
 DBB  SZ EP        334 11.74                             108    -0.3 6  346 274 
                                                                                
