 2012 1021 0340 50.1 L   6.543 -73.467115.3  RSN  7 0.3 2.0LRSN                1
 GAP=111        0.70       3.2     3.2  5.1  0.8871E+00  0.6729E+01 -0.5143E+00E
 Epicentro: EL CARMEN DE CHUCURI - SANTANDER                                   3
 ACTION:UPD 12-11-22 17:05 OP:ep   STATUS:               ID:20121021034050 L   I
 2012-10-21-0340-00M.COL___231                                                 6
 STAT SP IPHASW D HRMM SECON CODA AMPLIT PERI AZIMU VELO AIN AR TRES W  DIS CAZ7
 BAR2 SZ EP        341  6.68                             164    0.3510 31.9  80 
 BAR2 SZ ES        341 18.96                             164   -0.0410 31.9  80 
 BRR  HZ EP        341  7.49                             147   -0.3410 68.0 337 
 BRR  HZ I         341 15.67        32.8 0.17                          68.0 337 
 BRR  HE ES   1    341 21.20                             147   -0.47 7 68.0 337 
 RUS  HZ EP        341  9.57                             142   -0.0610 83.5 149 
 RUS  HN ES   2    341 24.76                             142   -0.10 5 83.5 149 
 PAM  SZ EP        341 13.02                             130    0.1110  122  44 
 PAM  SN ES        341 31.00                             130    0.2810  122  44 
 PAM  SZ I         341 32.73        14.7 0.18                           122  44 
 ZAR  HZ EP        341 18.66                             117   -0.13 9  186 304 
 ZAR  HN ES        341 41.76                             117    0.58 9  186 304 
 ZAR  HZ I         341 43.21        17.8 0.39                           186 304 
 OCA  HZ EP        341 18.90                             117   -0.31 9  188   5 
 OCA  HN ES   1    341 41.74                             117   -0.18 7  188   5 
 OCA  HZ I         341 47.83        14.9 0.28                           188   5 
 HEL  HZ EP        341 24.27                             112   -0.02 8  231 260 
 HEL  HZ I         341 53.34         4.4 0.24                           231 260 
                                                                                
