 2012 1221 0829 47.3 L   6.782 -73.095148.7  RSN  5 0.3 1.5LRSN                1
 GAP=144        0.74       5.2     6.0  7.6  0.2869E+00 -0.1007E+01  0.6534E+01E
 Epicentro: LOS SANTOS - SANTANDER                                             3
 ACTION:UPD 13-01-04 14:29 OP:ep   STATUS:               ID:20121221082947 L   I
 2012-12-21-0830-00M.COL___243                                                 6
 STAT SP IPHASW D HRMM SECON CODA AMPLIT PERI AZIMU VELO AIN AR TRES W  DIS CAZ7
 BAR2 SZ EP        830  7.21                             171   -0.0410 23.1 205 
 BAR2 SZ I         830 25.09         7.2 0.28                          23.1 205 
 PAM  SZ EP        830  9.96                             152    0.2610 75.6  35 
 PAM  SZ I         830 10.16         7.0 0.20                          75.6  35 
 PAM  SN ES   1    830 26.69                             152   -0.50 7 75.6  35 
 BRR  HZ EP     D  830  9.08                             151    0.0110 77.1 298 
 BRR  HN ES        830 26.33                             151    0.2510 77.1 298 
 BRR  HZ I         830 30.45         4.0 0.21                          77.1 298 
 RUS  HZ EP   1    830 11.50                             145    0.35 7 98.3 179 
 RUS  HN ES   1    830 29.69                             145   -0.09 7 98.3 179 
 RUS  HN I         830 31.66         7.2 0.45                          98.3 179 
 PTB  HZ EP   1    830 14.24                             132   -0.70 7  153 260 
 PTB  HZ I         830 41.04         3.7 0.43                           153 260 
                                                                                
