 2017  321 0257 33.6 L   6.757 -73.140150.2  RSN  5 0.3 1.4LRSN                1
 GAP=157        0.82       5.6     5.0  6.2 -0.1526E+02  0.9399E+00  0.7142E+01E
 Epicentro: LOS SANTOS - SANTANDER                                             3
 ACTION:UPD 17-05-25 18:43 OP:jn   STATUS:               ID:20170321025733 L   I
 OLDACT:REG 17-03-21 13:50 OP:dnl  STATUS:               ID:20170321024740     3
 2017-03-21-0248-00M.COL___388                                                 6
 STAT SP IPHASW D HRMM SECON CODA AMPLIT PERI AZIMU VELO AIN AR TRES W  DIS CAZ7
 BAR2 EZ IP     D  257 53.55                             173   -0.1210 18.8 194 
 BAR2 EZ ES        258  9.33                             173   -0.0110 18.8 194 
 BAR2 EZ I         258 10.51         6.5 0.82            173           18.8 194 
 BRR  HZ EP     D  257 55.53                             152    0.1510 74.1 302 
 BRR  HE ES        258 12.93                             152    0.5610 74.1 302 
 BRR  HZ I         258 15.99         5.3 0.28            151           74.1 302 
 PAM  EZ EP     C  257 56.59                             151    0.1210 80.7  37 
 PAM  EN ES        258 13.99                             151   -0.3310 80.7  37 
 PAM  EZ I         258 15.28         1.9 0.18            152           80.7  37 
 PTB  HZ EP        258  0.58                             133   -0.32 9  147 261 
 PTB  HE ES        258 21.67                             133   -0.53 9  147 261 
 PTB  HZ I         258 25.03         3.0 0.14            133            147 261 
 SPBC HZ EP        258  2.48                             131    0.36 9  160 220 
 SPBC HN ES        258 24.46                             131    0.07 9  160 220 
 SPBC HZ I         258 25.79         3.9 0.18            132            160 220 
                                                                                
