 2010 1121 0125 41.0 L   6.777 -73.119145.4  RSN  6 0.2 1.8LRSN                1
 GAP=185        0.50       2.5     5.7  4.7  0.1467E+01  0.4270E+00 -0.2357E+00E
 Epicentro: LOS SANTOS - SANTANDER                                             3
 ACTION:UP  10-12-17 16:54 OP:REBC STATUS:               ID:20101121012541 L   I
 2010-11-21-0123-56S.COL___131                                                 6
 STAT SP IPHASW D HRMM SECON CODA AMPLIT PERI AZIMU VELO SNR AR TRES W  DIS CAZ7
 BAR2 SZ IP        126  0.64                             171     0.110   22 199 
 BAR2 SZ ES   1    126 15.48                             171    -0.3 7   22 199 
 BAR2 SZ I         126 17.96        12.7 0.29                            22 199 
 BRR  HZ EP   1    126  2.14                             151    -0.2 7   75 299 
 BRR  HZ I         126  2.60        21.0 0.14                            75 299 
 BRR  HN ES   1    126 19.17                             151     0.2 7   75 299 
 RUS  HZ EP   1    126  4.69                             144     0.2 7   98 178 
 RUS  HE ES   1    126 22.90                             144     0.0 7   98 178 
 RUS  HZ I         126 25.58         6.4 0.36                            98 178 
 OCA  SZ EP   1    126  9.45                             129    -0.1 7  163 352 
 OCA  SZ ES   1    126 31.88                             129     0.1 7  163 352 
 OCA  SZ I         126 36.62         7.0 0.39                           163 352 
 NOR  SZ EP   2    126 17.20                             118     0.4 4  236 235 
 NOR  SN ES   2    126 44.45                             118    -0.3 4  236 235 
 CHI  HZ EP   2    126 17.86                             117    -0.6 4  247 196 
 CHI  HN ES   2    126 48.05                             117     0.3 4  247 196 
 CHI  HZ I         126 50.85         4.2 0.26                           247 196 
                                                                                
