 2013  321 0019 55.2 L   6.841 -73.152144.1  RSN 16 0.5 2.9LRSN 3.1WRSN        1
 SPEC AVERAGE  MO 13.7 ST  2.3 OM  2.2 f0 3.14 R0.4858 AL 1.76 WI 32.5 MW  3.1 3
 SPEC SD       MO  0.2 ST  1.1 OM  0.4 f00.585 R0.0913 AL      WI      MW  0.1 3
 GAP= 69        1.12       3.0     3.4  5.3  0.1027E+01  0.3619E+01 -0.3601E+00E
 Epicentro: LOS SANTOS - SANTANDER                                             3
 SPEC URE HH N MO 13.9 ST  5.3 OM  2.0 f0 3.66 R0.4016 AL 2.36 WI 37.0 MW  3.2 3
 SPEC URE HH N T 021 5 K 0.000 GD  316 VS 4.20 DE 3.20 Q0300.0 QA 0.60 VS 4.20 3
 SPEC ZAR HH N MO 13.8 ST  1.2 OM  2.0 f0 2.44 R0.6025 AL 0.67 WI 35.6 MW  3.1 3
 SPEC ZAR HH N T 02049 K 0.000 GD  248 VS 4.20 DE 3.20 Q0300.0 QA 0.60 VS 4.20 3
 SPEC SJC HH N MO 14.0 ST  1.9 OM  2.0 f0 2.35 R0.6255 AL 1.32 WI 36.9 MW  3.3 3
 SPEC SJC HH N T 02127 K 0.000 GD  429 VS 4.20 DE 3.20 Q0300.0 QA 0.60 VS 4.20 3
 SPEC TAM HH N MO 13.7 ST  1.3 OM  2.0 f0 2.59 R0.5676 AL 2.44 WI 26.5 MW  3.1 3
 SPEC TAM HH N T 02042 K 0.000 GD  213 VS 4.20 DE 3.20 Q0300.0 QA 0.60 VS 4.20 3
 SPEC PTB HH E MO 13.6 ST  2.8 OM  1.9 f0 3.66 R0.4016 AL 1.62 WI 30.2 MW  3.0 3
 SPEC PTB HH E T 02039 K 0.000 GD  206 VS 4.20 DE 3.20 Q0300.0 QA 0.60 VS 4.20 3
 SPEC PRA HH N MO 13.7 ST  1.9 OM  1.7 f0 2.95 R0.4983 AL 1.06 WI 26.8 MW  3.1 3
 SPEC PRA HH N T 02129 K 0.000 GD  421 VS 4.20 DE 3.20 Q0300.0 QA 0.60 VS 4.20 3
 SPEC HEL HH N MO 13.8 ST  1.6 OM  1.9 f0 2.65 R0.5547 AL 2.30 WI 29.6 MW  3.1 3
 SPEC HEL HH N T 021 3 K 0.000 GD  308 VS 4.20 DE 3.20 Q0300.0 QA 0.60 VS 4.20 3
 SPEC COD HH N MO 13.6 ST  1.9 OM  1.6 f0 3.36 R0.4375 AL 2.02 WI 69.3 MW  3.0 3
 SPEC COD HH N T 02115 K 0.000 GD  372 VS 4.20 DE 3.20 Q0300.0 QA 0.60 VS 4.20 3
 SPEC CHI HH N MO 13.6 ST  2.3 OM  1.7 f0 3.57 R0.4118 AL 2.68 WI 15.9 MW  3.0 3
 SPEC CHI HH N T 021 1 K 0.000 GD  291 VS 4.20 DE 3.20 Q0300.0 QA 0.60 VS 4.20 3
 SPEC BRR HH Z MO 13.4 ST  2.4 OM  1.8 f0 4.12 R0.3568 AL 1.14 WI 16.9 MW  2.9 3
 SPEC BRR HH Z T 02032 K 0.000 GD  159 VS 4.20 DE 3.20 Q0300.0 QA 0.60 VS 4.20 3
 ACTION:UPD 13-04-09 14:03 OP:ep   STATUS:               ID:20130321001955 L   I
 2013-03-21-0020-00M.COL___245                                                 6
 STAT SP IPHASW D HRMM SECON CODA AMPLIT PERI AZIMU VELO AIN AR TRES W  DIS CAZ7
 BAR2 SZ EP        020 14.71                             169    0.0310 27.7 187 
 BAR2 SZ ES        020 29.22                             169   -0.6910 27.7 187 
 BAR2 SZ I         020 32.09       129.7 0.38            166           27.7 187 
 BRR  HZ EP        020 16.55                             153    0.5710 68.5 295 
 BRR  HN ES        020 32.89                             153    0.6810 68.5 295 
 BRR  HN I         020 33.86       249.9 0.46            146           68.5 295 
 PAM  SZ EP        020 17.47                             151    0.4510 74.4  42 
 PAM  SN ES   1    020 34.28                             151    0.21 7 74.4  42 
 RUS  HZ EP        020 18.76                             142   -0.3210  105 176 
 RUS  HN ES        020 37.50                             142   -0.2410  105 176 
 PTB  HZ EP        020 21.32                             132   -0.69 9  148 257 
 PTB  HN ES        020 42.39                             132   -0.57 9  148 257 
 PTB  HN I         020 47.42        81.6 0.26            125            148 257 
 OCA  HZ EP        020 22.85                             130   -0.06 9  156 353 
 OCA  HN ES        020 44.40                             130   -0.16 9  156 353 
 OCA  HN I         020 47.66       257.5 0.32            126            156 353 
 TAM  HZ EP        020 23.06                             130    0.18 9  157 107 
 TAM  HN ES        020 44.44                             130   -0.06 9  157 107 
 TAM  HN I         020 45.19        61.2 0.68            128            157 107 
 ZAR  HZ EP        020 27.65                             122    0.39 9  202 291 
 ZAR  HE ES        020 53.25                             122    0.96 9  202 291 
 ZAR  HN I         020 58.23        66.4 0.36            117            202 291 
 SML  HZ EP        020 31.08                             117   -0.14 8  239 335 
 SML  HN ES        020 59.15                             117   -0.19 8  239 335 
 SML  HN I         021  2.86        86.8 0.10            113            239 335 
 CHI  HZ EP        020 33.89                             116    0.67 8  253 195 
 CHI  HN ES        021  3.23                             116    0.32 8  253 195 
 CHI  HN I         021  8.89        35.8 0.38            112            253 195 
 HEL  HZ EP        020 35.13                             114   -0.21 8  273 255 
 HEL  HN ES   1    021  6.38                             114   -0.30 6  273 255 
 HEL  HN I         021 12.94        29.7 0.40            110            273 255 
 URE  HZ EP        020 34.84                             113   -1.05 7  282 291 
 URE  HN I         021 19.18        55.6 0.26            109            282 291 
 DBB  SZ EP        020 42.71                             109    0.26 7  338 273 
 COD  HZ EP        020 42.31                             109   -0.63 7  344 355 
 COD  HN ES   4    021 20.89                             109    0.68 0  344 355 
 PRA  HZ EP        020 49.45                             106    0.41 6  396 209 
 PRA  HN ES   1    021 31.06                             106   -0.01 4  396 209 
 PRA  HN I         021 35.23         9.9 0.40            103            396 209 
 SJC  HN ES   4    021 30.46                             106   -2.63 0  405 327 
 SJC  HN I         021 33.65        19.1 0.46            102            405 327 
                                                                                
