 2015  121 0427 32.9 L   6.799 -73.110151.7  RSN  8 0.5 1.7LRSN                1
 GAP=141        1.22       3.8     6.7  7.8  0.5658E+00  0.1238E+02 -0.4249E+01E
 Epicentro: LOS SANTOS - SANTANDER                                             3
 ACTION:UPD 15-03-02 15:41 OP:nd   STATUS:               ID:20150121042732 L   I
 OLDACT:DUP 15-01-21 14:30 OP:carl STATUS:               ID:20150121041745d    3
 2015-01-21-0417-44M.COL___265                                                 6
 STAT SP IPHASW D HRMM SECON CODA AMPLIT PERI AZIMU VELO AIN AR TRES W  DIS CAZ7
 BAR2 EZ EP        427 53.56                             171    0.3510 24.2 199 
 BAR2 EZ ES        428  8.56                             171   -0.5310 24.2 199 
 BAR2 EZ I         428 11.18         5.3 0.20            172           24.2 199 
 BRR  HZ EP        427 55.51                             152    0.6710 74.7 297 
 BRR  HN ES        428 12.86                             152    0.8710 74.7 297 
 BRR  HZ I         428 15.78        10.2 0.32            152           74.7 297 
 PAM  SN ES        428 13.52                             153    0.2410 75.0  37 
 RUS  HZ EP        427 57.40                             145    0.2310  100 178 
 RUS  HN ES        428 15.73                             145   -0.4110  100 178 
 RUS  HZ I         428 16.89         2.1 0.38            149            100 178 
 OCA  HZ EP        428  1.15                             131   -0.54 9  161 352 
 OCA  HN ES        428 23.88                             131   -0.29 9  161 352 
 OCA  HZ I         428 33.31        37.2 0.26            132            161 352 
 SPBC HZ EP        428  2.44                             130    0.40 9  166 220 
 SPBC HN ES        428 24.21                             130   -0.59 9  166 220 
 SPBC HZ I         428 29.05         5.7 0.10            132            166 220 
 ZAR  HN ES        428 31.82                             123   -0.15 8  208 292 
 SML  HZ EP        428  9.79                             118   -0.21 8  245 334 
 SML  HE ES        428 38.46                             118   -0.52 8  245 334 
                                                                                
