 2014  221 0846 43.5 L   6.752 -73.175144.8  RSN  9 0.4 1.6LRSN                1
 GAP=135        0.99       3.2     4.3  6.3 -0.4740E+00  0.8692E+01 -0.1646E+01E
 Epicentro: VILLANUEVA - SANTANDER                                             3
 ACTION:UPD 14-03-10 08:11 OP:ep   STATUS:               ID:20140221084643 L   I
 OLDACT:DUP 14-02-21 12:37 OP:cam  STATUS:               ID:20140221084001d    3
 2014-02-21-0840-00M.COL___213                                                 6
 STAT SP IPHASW D HRMM SECON CODA AMPLIT PERI AZIMU VELO AIN AR TRES W  DIS CAZ7
 BAR2 SZ EP        847  2.86                             173   -0.0610 17.6 183 
 BAR2 SZ ES        847 18.38                             173    0.3210 17.6 183 
 BAR2 SZ I         847 19.60        15.4 0.24            171           17.6 183 
 PAM  SZ EP        847  6.24                             149    0.2410 83.5  39 
 PAM  SN ES        847 23.37                             149   -0.1710 83.5  39 
 RUS  HZ EP        847  6.61                             145   -0.1910 95.5 174 
 RUS  HE ES        847 25.04                             145    0.0710 95.5 174 
 RUS  HZ I         847 26.45         5.0 0.70            147           95.5 174 
 PTB  HZ EP        847  9.67                             133   -0.36 9  144 261 
 PTB  HN ES        847 29.93                             133   -0.78 9  144 261 
 PTB  HZ I         847 34.67         5.8 0.16            130            144 261 
 SPBC HZ EP        847 11.70                             130    0.35 9  157 219 
 SPBC HN ES        847 32.85                             130   -0.22 9  157 219 
 SPBC HZ I         847 40.67         4.1 0.28            129            157 219 
 ZAR  HZ EP        847 15.94                             122    0.14 9  203 294 
 ZAR  HE ES        847 42.09                             122    1.10 9  203 294 
 ZAR  HZ I         847 47.83         6.1 0.26            121            203 294 
 CHI  HZ EP        847 20.71                             117    0.21 8  243 195 
 CHI  HN ES   1    847 49.46                             117    0.10 6  243 195 
 CHI  HZ I         847 55.89         1.4 0.34            118            243 195 
 SML  HZ EP   1    847 20.08                             117   -0.39 6  247 336 
 SML  HN ES        847 48.88                             117   -0.41 8  247 336 
 SML  HZ I         848  1.49         3.8 0.10            117            247 336 
 GUY2CHZ EP   4    847 27.65                             113    1.22 0  295 235 
 GUY2CHZ I         848  9.02         2.8 0.50                           295 235 
                                                                                
