 2012  121 0452  7.2 L   6.765 -73.130140.4  RSN  6 0.3 1.5LRSN                1
 GAP=140        0.68       4.1     4.4  5.4 -0.8590E+00 -0.1843E+01  0.2814E+01E
 Epicentro: LOS SANTOS - SANTANDER                                             3
 ACTION:UP  12-02-03 08:19 OP:REBC STATUS:               ID:20120121045207 L   I
 2012-01-21-0450-00M.COL___186                                                 6
 STAT SP IPHASW D HRMM SECON CODA AMPLIT PERI AZIMU VELO SNR AR TRES W  DIS CAZ7
 BAR2 SZ EP        452 26.21                             172     0.110   20 197 
 BAR2 SZ ES        452 40.89                             172     0.010   20 197 
 BAR2 SZ I         452 43.51         8.3 0.18                            20 197 
 BRR  HZ EP        452 27.98                             150     0.010   75 301 
 BRR  HN ES        452 44.58                             150     0.410   75 301 
 BRR  HZ I         452 48.16         7.1 0.15                            75 301 
 PAM  SZ EP        452 29.07                             149     0.110   79  37 
 PAM  SN ES   1    452 45.56                             149    -0.4 7   79  37 
 RUS  HZ EP   1    452 30.16                             144     0.0 7   97 177 
 RUS  HN ES   1    452 48.13                             144     0.1 7   97 177 
 RUS  HZ I         452 50.03         5.9 0.22                            97 177 
 PTB  HE ES   1    452 54.03                             131    -0.6 7  149 260 
 CHI  HZ EP   1    452 44.41                             116     0.1 6  245 196 
 CHI  HZ I         452 47.12         2.1 0.23                           245 196 
                                                                                
