 2013  721 0611 12.1 L   6.767 -73.144141.2  RSN 10 0.4 2.0LRSN                1
 GAP=138        0.81       3.6     3.9  5.6 -0.3424E+01  0.5091E+01  0.4432E+01E
 Epicentro: LOS SANTOS - SANTANDER                                             3
 ACTION:UPD 13-08-12 10:39 OP:ep   STATUS:               ID:20130721061112 L   I
 OLDACT:UP  13-07-21 11:50 OP:mh   STATUS:               ID:20130721060959     3
 OLDACT:REG 13-07-21 08:10 OP:mh   STATUS:               ID:20130721060959     3
 2013-07-21-0609-59M.COL___265                                                 6
 STAT SP IPHASW D HRMM SECON CODA AMPLIT PERI AZIMU VELO AIN AR TRES W  DIS CAZ7
 BAR2 SZ EP        611 31.32                             172    0.1910 19.8 192 
 BAR2 SZ I         611 47.28        10.8 0.16            177           19.8 192 
 GIR2 SZ EP   1    611 31.48                             165    0.13 7 34.9 351 
 GIR2 SZ ES   1    611 45.96                             165   -0.39 7 34.9 351 
 GIR2 SZ I         611 47.33         9.9 0.46            150           34.9 351 
 BRR  HZ IP     C  611 33.28                             151    0.4010 73.2 301 
 BRR  HN ES        611 49.69                             151    0.6110 73.2 301 
 BRR  HN I         611 54.07        28.3 0.12            136           73.2 301 
 PAM  SZ EP   1    611 33.72                             149   -0.29 7 80.1  38 
 PAM  SN ES        611 50.74                             149   -0.3510 80.1  38 
 PAM  SN I         611 51.97        31.2 0.24            132           80.1  38 
 RUS  HZ EP   1    611 35.34                             144    0.19 7 97.0 176 
 RUS  HN ES   1    611 53.26                             144    0.14 7 97.0 176 
 RUS  HN I         611 54.47         6.7 0.20            136           97.0 176 
 PTB  HN ES   1    611 59.05                             131   -0.33 7  147 260 
 PTB  HN I         612  1.18        29.5 0.24            118            147 260 
 SPBC HZ EP        611 40.32                             128    0.31 9  161 220 
 SPBC HN ES   1    612  1.12                             128   -0.65 7  161 220 
 SPBC HN I         612  8.23        16.6 0.12            118            161 220 
 ZAR  HZ EP   1    611 44.46                             121    0.03 6  206 293 
 ZAR  HE ES   1    612  9.57                             121   -0.06 6  206 293 
 ZAR  HZ I         612 18.16         6.6 0.30            109            206 293 
 NOR  HZ EP        611 47.34                             118   -0.03 8  233 235 
 NOR  HE ES        612 14.51                             118   -0.36 8  233 235 
 NOR  HE I         612 20.18        12.5 0.42            108            233 235 
 SML  HZ EP   1    611 48.16                             116   -0.69 6  247 336 
 SML  HN I         612 27.40        12.7 0.10            105            247 336 
                                                                                
