 2016 1021 0103 19.7 L   6.788 -73.108142.3  RSN  4 0.1 1.0LRSN                1
 GAP=142        0.49       3.7     3.6  5.0 -0.3178E+01 -0.6409E+01  0.7229E+01E
 Epicentro: LOS SANTOS - SANTANDER                                             3
 ACTION:UPD 16-11-09 19:21 OP:rebc STATUS:               ID:20161021010319 L   I
 OLDACT:UP  16-10-21 13:56 OP:and  STATUS:               ID:20161021005744     3
 OLDACT:REG 16-10-21 12:57 OP:and  STATUS:               ID:20161021005744     3
 2016-10-21-0058-00M.COL___341                                                 6
 STAT SP IPHASW D HRMM SECON CODA AMPLIT PERI AZIMU VELO AIN AR TRES W  DIS CAZ7
 BRR  HZ EP        1 3 40.60                             150   -0.1710 75.5 298 
 BRR  HE ES        1 3 57.34                             150    0.1710 75.5 298 
 PAM  EZ IP     C  1 3 41.53                             150    0.0310 75.8  36 
 PAM  EN ES        1 3 58.41                             150   -0.0610 75.8  36 
 RUS  HZ EP        1 3 43.08                             143    0.0310 99.1 178 
 RUS  HE ES   2    1 4  1.21                             143   -0.01 5 99.1 178 
 RUS  HZ I         1 4  2.98         1.4 0.28            143           99.1 178 
 PTB  HZ EP   9    1 3 45.77                             130   -1.02 0  152 260 
 PTB  HN ES        1 4  6.50                             131   -0.36 9  152 260 
 PTB  HZ I         1 4  8.42         1.8 0.16            131            152 260 
                                                                                
