 2013  221 0811  0.9 L   6.810 -73.182142.5  RSN  9 0.4 1.5LRSN                1
 GAP=132        0.76       3.3     4.4  6.2  0.1402E+01  0.7835E+01 -0.1359E+01E
 Epicentro: LOS SANTOS - SANTANDER                                             3
 ACTION:UPD 13-03-12 09:34 OP:ep   STATUS:               ID:20130221081100 L   I
 2013-02-21-0810-00M.COL___238                                                 6
 STAT SP IPHASW D HRMM SECON CODA AMPLIT PERI AZIMU VELO AIN AR TRES W  DIS CAZ7
 BAR2 SZ EP        811 20.19                             170    0.0610 24.0 180 
 BAR2 SZ ES   1    811 35.04                             170   -0.10 7 24.0 180 
 BAR2 SZ I         811 36.46        12.2 0.20            158           24.0 180 
 BRR  HZ EP   1    811 22.05                             153    0.61 7 67.1 299 
 BRR  HN ES   2    811 36.76                             153   -0.72 5 67.1 299 
 BRR  HZ I         811 37.65         6.8 0.30            144           67.1 299 
 PAM  SZ EP   1    811 23.10                             150    0.25 7 79.2  42 
 PAM  SN ES   1    811 39.90                             150   -0.10 7 79.2  42 
 PAM  SZ I         811 42.30         4.5 0.52            142           79.2  42 
 RUS  HZ EP   1    811 23.98                             143   -0.43 7  102 174 
 RUS  HN ES   1    811 42.89                             143    0.12 7  102 174 
 RUS  HZ I         811 43.96         2.3 0.30            127            102 174 
 PTB  HZ EP   1    811 26.82                             132   -0.42 7  144 258 
 PTB  HN ES   1    811 47.77                             132   -0.03 7  144 258 
 PTB  HZ I         811 53.99         2.9 0.38            118            144 258 
 OCA  HN ES   1    811 51.07                             129    0.51 7  159 355 
 ZAR  HZ EP   1    811 32.97                             122    0.29 6  200 292 
 ZAR  HE ES   1    811 58.01                             122    0.52 6  200 292 
 ZAR  HZ I         812  4.31         3.8 0.52            111            200 292 
 SML  HZ EP   1    811 36.63                             117   -0.40 6  241 336 
 SML  HN ES   1    812  4.33                             117   -0.90 6  241 336 
 SML  HZ I         812 15.06         3.5 0.10            108            241 336 
 CHI  HZ EP   1    811 38.48                             116    0.09 6  249 194 
 CHI  HZ I         812 11.00         1.5 0.70            106            249 194 
                                                                                
