 2011  821 0326 50.7 L   6.774 -73.095145.5  RSN  5 0.4 1.5LRSN                1
 GAP=188        0.74       5.1     7.2  6.9  0.6406E+00  0.7247E+01 -0.3492E+01E
 Epicentro: LOS SANTOS - SANTANDER                                             3
 ACTION:UPD 12-07-13 15:53 OP:ep   STATUS:               ID:20110821032650 L   I
 2011-08-21-0325-11S.COL___151                                                 6
 STAT SP IPHASW D HRMM SECON CODA AMPLIT PERI AZIMU VELO AIN AR TRES W  DIS CAZ7
 BAR2 SZ EP   1    327 10.50                             171    0.23 7 22.3 206 
 BAR2 SZ ES   1    327 24.76                             171   -0.78 7 22.3 206 
 BAR2 SZ I         327 26.66         9.4 0.17                          22.3 206 
 BRR  HZ EP   1    327 12.45                             150    0.27 7 77.5 298 
 BRR  HN ES   1    327 29.29                             150    0.34 7 77.5 298 
 BRR  HZ I         327 33.84        14.1 0.12                          77.5 298 
 RUS  HZ EP   1    327 14.13                             145   -0.07 7 97.5 179 
 RUS  HZ I         327 31.06         6.0 0.69                          97.5 179 
 RUS  HN ES   1    327 32.97                             145    0.44 7 97.5 179 
 OCA  SZ EP   1    327 19.12                             129   -0.20 7  164 351 
 OCA  SZ I         327 44.37         5.4 0.41                           164 351 
 NOR  SZ EP   1    327 26.45                             118   -0.28 6  238 236 
 NOR  SN ES   1    327 54.73                             118   -0.11 6  238 236 
 NOR  SZ I         327 58.49         0.4 0.27                           238 236 
                                                                                
