 2014 1121 0943 15.4 L   6.265 -73.571111.2  RSN  9 0.4 1.7LRSN                1
 GAP=136        1.06       3.4     4.2  7.8 -0.6505E+01  0.7316E+01  0.3902E+01E
 Epicentro: EL GUACAMAYO - SANTANDER                                           3
 ACTION:UPD 14-12-19 15:45 OP:nd   STATUS:               ID:20141121094315 L   I
 OLDACT:REG 14-11-21 13:13 OP:fm   STATUS:               ID:20141121093744     3
 2014-11-21-0937-44M.COL___301                                                 6
 STAT SP IPHASW D HRMM SECON CODA AMPLIT PERI AZIMU VELO AIN AR TRES W  DIS CAZ7
 BAR2 SZ EP        943 32.47                             151    0.1910 56.2  50 
 BAR2 SZ ES        943 45.49                             151    0.0210 56.2  50 
 BAR2 SZ I         943 47.04        17.7 0.30            155           56.2  50 
 BRR  HZ EP        943 34.65                             136   -0.0510 94.4 351 
 BRR  HN ES        943 49.97                             136    0.1910 94.4 351 
 BRR  HZ I         943 51.56         5.1 0.12            138           94.4 351 
 PAM  SZ EP        943 40.51                             122   -0.41 9  153  39 
 PAM  SN ES        944  0.17                             122   -0.68 9  153  39 
 PAM  SZ I         944  2.26         8.7 0.38            124            153  39 
 NOR  HZ EP        943 41.59                             120    0.15 9  163 242 
 NOR  HN ES        944  0.91                             120   -0.87 9  163 242 
 NOR  HZ I         944  5.52        16.3 0.20            119            163 242 
 CHI  HZ EP        943 43.70                             117   -0.18 9  182 186 
 CHI  HN ES        944  6.93                             117    0.81 9  182 186 
 CHI  HZ I         944 12.00         3.5 0.32            117            182 186 
 HEL  HZ EP        943 47.67                             112   -0.05 8  217 268 
 HEL  HN ES        944 13.24                             112    0.29 8  217 268 
 HEL  HZ I         944 17.96         2.1 0.20            112            217 268 
 OCA  HZ EP        943 48.33                             112    0.52 8  220   7 
 OCA  HN ES        944 13.61                             112    0.49 8  220   7 
 OCA  HZ I         944 18.47         7.5 0.34            113            220   7 
 CBOC HZ EP   4    943 54.73                             107    0.69 0  274 261 
 CBOC HE ES   4    944 19.58                             107   -4.62 0  274 261 
 CBOC HZ I         944 30.08         2.0 0.22            107            274 261 
 ORTC HZ EP   1    943 58.75                             103   -0.56 5  320 216 
 ORTC HN ES   4    944 37.36                             103    3.78 0  320 216 
 ORTC HZ I         944 40.66         2.3 0.54            104            320 216 
                                                                                
