 2010  221 0708 27.4 L   6.825 -73.002132.8  RSN  4 0.2 1.9LRSN                1
 GAP=198        0.47       3.6    10.1  7.3  0.1936E+02 -0.3783E+02 -0.1254E+02E
 Epicentro: CEPITA - SANTANDER                                                 3
 ACTION:UP  10-08-24 09:50 OP:vdl  STATUS:               ID:20100221070827 L   I
 2010-02-21-0700-00S.COL___093                                                 6
 STAT SP IPHASW D HRMM SECON CODA AMPLIT PERI AZIMU VELO SNR AR TRES W  DIS CAZ7
 BAR2 SZ ES   2    7 9  0.45                             166     0.4 5   33 218 
 BRR  HZ EP        7 8 48.05                             146     0.010   84 292 
 BRR  HZ I         7 8 48.41        14.0 0.15                            84 292 
 BRR  HE ES   2    7 9  4.00                             146    -0.1 5   84 292 
 RUS  BZ EP        7 8 50.12                             140     0.010  104 185 
 RUS  BN ES   2    7 9  7.51                             140    -0.4 5  104 185 
 OCA  SZ EP        7 8 54.85                             126     0.1 9  160 347 
 OCA  SZ ES   2    7 9 15.67                             126    -0.4 5  160 347 
 OCA  SZ I         7 9 20.36        10.6 0.26                           160 347 
                                                                                
