 2015 1221 0512 33.1 L   6.804 -73.150137.5  RSN 14 0.5 2.1LRSN                1
 GAP=136        1.13       2.8     3.9  5.5 -0.2034E+01  0.7364E+01  0.4024E+00E
 Epicentro: LOS SANTOS - SANTANDER                                             3
 ACTION:UPD 16-02-04 15:06 OP:cam  STATUS:               ID:20151221051233 L   I
 OLDACT:REG 15-12-21 14:36 OP:cara STATUS:               ID:20151221050749     3
 2015-12-21-0507-49M.COL___327                                                 6
 STAT SP IPHASW D HRMM SECON CODA AMPLIT PERI AZIMU VELO AIN AR TRES W  DIS CAZ7
 BAR2 EZ IP        512 51.90                             170    0.1910 23.7 189 
 BAR2 EZ ES        513  5.56                             170   -0.6910 23.7 189 
 BAR2 EZ I         513  7.63        23.1 0.10            167           23.7 189 
 BRR  HZ IP        512 53.79                             151    0.5010 70.6 298 
 BRR  HN ES        513  9.51                             151    0.4510 70.6 298 
 BRR  HZ I         513 12.22        17.0 0.14            148           70.6 298 
 PAM  EZ EP        512 54.68                             149    0.2810 77.3  40 
 PAM  EN ES        513 11.72                             149    0.6810 77.3  40 
 PAM  EZ I         513 13.31        17.6 0.20            155           77.3  40 
 RUS  HZ EP        512 55.54                             142   -0.5110  101 176 
 RUS  HN ES        513 14.23                             142    0.2510  101 176 
 RUS  HZ I         513 15.93        18.8 0.28            144            101 176 
 PTB  HZ EP        512 58.66                             130   -0.68 9  147 259 
 PTB  HN ES        513 19.30                             130   -0.53 9  147 259 
 PTB  HZ I         513 24.05        16.4 0.12            129            147 259 
 OCA  HZ EP        513  0.08                             128   -0.61 9  160 353 
 OCA  HN ES        513 21.76                             128   -0.48 9  160 353 
 OCA  HZ I         513 23.88        28.0 0.60            130            160 353 
 SPBC HZ EP        513  1.34                             127    0.39 9  163 219 
 SPBC HE ES        513 22.52                             127   -0.18 9  163 219 
 SPBC HZ I         513 28.82        22.5 0.32            128            163 219 
 ZAR  HZ EP        513  5.36                             121    0.44 9  203 292 
 ZAR  HN ES        513 30.19                             121    0.42 9  203 292 
 ZAR  HZ I         513 40.13        14.0 0.44            121            203 292 
 NOR  HZ EP        513  7.60                             117   -0.72 8  235 234 
 NOR  HE ES        513 35.64                             117   -0.18 8  235 234 
 NOR  HZ I         513 40.17        10.3 0.18            118            235 234 
 SML  HZ EP        513  8.72                             116   -0.45 8  243 335 
 SML  HE ES        513 37.07                             116   -0.26 8  243 335 
 SML  HZ I         513 40.64        14.2 0.24            117            243 335 
 CHI  HZ EP        513 10.68                             115    0.32 8  249 195 
 CHI  HN ES        513 39.08                             115   -0.37 8  249 195 
 CHI  HZ I         513 42.71         4.3 0.48            117            249 195 
 HEL  HZ EP        513 13.14                             113    0.30 8  272 256 
 HEL  HN ES        513 43.93                             113    0.07 8  272 256 
 HEL  HZ I         513 51.21         8.3 0.32            114            272 256 
 GUY2CHZ EP        513 16.94                             111    0.64 7  301 235 
 GUY2CHE ES        513 50.65                             111    0.63 7  301 235 
 GUY2CHZ I         513 59.19         4.5 0.52                           301 235 
 CBOC HZ EP        513 20.26                             108    0.64 7  333 252 
 CBOC HN ES        513 55.81                             108   -0.12 7  333 252 
 CBOC HZ I         514 11.15         1.8 0.68            109            333 252 
                                                                                
