 2017  321 0438 30.8 L   6.724 -73.140141.4  RSN  4 0.4 1.1LRSN                1
 GAP=162        0.87       8.7     5.3  7.6 -0.2192E+02  0.1321E+01  0.2636E+01E
 Epicentro: JORDAN - SANTANDER                                                 3
 ACTION:UPD 17-05-25 18:43 OP:jn   STATUS:               ID:20170321043830 L   I
 OLDACT:DUP 17-03-21 16:19 OP:dnl  STATUS:               ID:20170321043749d    3
 OLDACT:DUP 17-03-21 16:16 OP:dnl  STATUS:               ID:20170321043748d    3
 2017-03-21-0438-00M.COL___388                                                 6
 STAT SP IPHASW D HRMM SECON CODA AMPLIT PERI AZIMU VELO AIN AR TRES W  DIS CAZ7
 BAR2 EZ EP        438 49.94                             174    0.1410 15.3 198 
 BAR2 EZ ES        439  4.70                             174    0.1110 15.3 198 
 BAR2 EZ I         439  5.51         5.4 0.82            174           15.3 198 
 BRR  HZ EP        438 51.85                             150    0.0510 76.1 304 
 BRR  HN ES        439  8.66                             150    0.5110 76.1 304 
 BRR  HZ I         439  9.11         2.4 0.48            150           76.1 304 
 PAM  EZ EP        438 52.94                             148   -0.0410 83.6  36 
 PAM  EN ES        439  9.88                             148   -0.3610 83.6  36 
 PAM  EZ I         439 11.95         3.0 0.52            149           83.6  36 
 PTB  HZ EP   2    438 57.93                             131    0.55 5  147 262 
 PTB  HE ES        439 17.46                             131   -0.62 9  147 262 
 PTB  HZ I         439 19.99         1.0 0.18            132            147 262 
                                                                                
