 2013  321 0951 13.1 L   6.259 -73.772 97.7  RSN  5 0.3 1.6LRSN                1
 GAP=174        0.57       5.1     3.2  6.9  0.9782E+01  0.5353E+01 -0.4014E+01E
 Epicentro: LANDAZURI - SANTANDER                                              3
 ACTION:UPD 13-04-09 14:04 OP:ep   STATUS:               ID:20130321095000 L   I
 2013-03-21-0950-00M.COL___245                                                 6
 STAT SP IPHASW D HRMM SECON CODA AMPLIT PERI AZIMU VELO AIN AR TRES W  DIS CAZ7
 BAR2 SZ EP        951 29.97                             140   -0.0210 74.9  60 
 BAR2 SZ ES   1    951 43.15                             140    0.02 7 74.9  60 
 BAR2 SZ I         951 44.20        31.2 0.44            150           74.9  60 
 PTB  HZ EP        951 30.10                             137   -0.1410 81.8 292 
 PTB  HN ES   1    951 43.73                             137    0.14 7 81.8 292 
 PTB  HN I         951 49.81         6.4 0.50            140           81.8 292 
 RUS  HZ EP   1    951 31.06                             136   -0.22 7 86.3 118 
 RUS  HN ES        951 45.50                             136    0.0710 86.3 118 
 RUS  HN I         951 46.64         5.8 0.58            148           86.3 118 
 ZAR  HZ EP   1    951 41.08                             114    0.65 7  182 319 
 ZAR  HN ES   1    952  1.36                             114   -0.37 7  182 319 
 ZAR  HN I         952  8.03         4.8 0.18            119            182 319 
 URE  HN ES   4    952 14.17                             107   -2.73 0  255 310 
 URE  HN I         952 17.45         3.3 0.30            110            255 310 
                                                                                
