 2013 1221 0831 26.8 L   6.663 -73.236148.0  RSN  4 0.5 1.2LRSN                1
 GAP=190        0.93       9.3     8.5  9.7  0.5028E+02  0.1871E+02  0.2312E+02E
 Epicentro: BARICHARA - SANTANDER                                              3
 ACTION:UPD 14-01-13 10:19 OP:ep   STATUS:               ID:20131221083126 L   I
 OLDACT:REG 13-12-21 08:53 OP:jn   STATUS:               ID:20131221083000     3
 2013-12-21-0830-00M.COL___285                                                 6
 STAT SP IPHASW D HRMM SECON CODA AMPLIT PERI AZIMU VELO AIN AR TRES W  DIS CAZ7
 BAR2 SZ ES   2    832  0.59                             176   -1.25 5 9.83 143 
 BAR2 SZ I         832  9.58         4.0 0.38            172           9.83 143 
 BRR  HE ES        832  5.25                             153    0.3410 72.0 313 
 RUS  HZ EP        831 49.54                             149   -0.2610 86.9 169 
 RUS  HN ES        832  8.18                             149    0.4110 86.9 169 
 RUS  HZ I         832 10.69         2.3 0.50            153           86.9 169 
 PTB  HZ EP        831 52.78                             135   -0.07 9  136 264 
 PTB  HN ES        832 13.07                             135   -0.12 9  136 264 
                                                                                
