 2014  921 0824 15.2 L   7.353 -73.153124.0  RSN  4 0.4 1.1LRSN                1
 GAP=205        0.97      11.7     6.5  9.7 -0.3519E+02  0.1548E+02 -0.1087E+02E
 Epicentro: RIONEGRO - SANTANDER                                               3
 ACTION:UPD 14-10-03 23:07 OP:nd   STATUS:               ID:20140921082415 L   I
 OLDACT:DUP 14-09-21 16:41 OP:spq  STATUS:               ID:20140921081819d    3
 OLDACT:REG 14-09-21 13:30 OP:spq  STATUS:               ID:20140921081816     3
 2014-09-21-0818-16M.COL___272                                                 6
 STAT SP IPHASW D HRMM SECON CODA AMPLIT PERI AZIMU VELO AIN AR TRES W  DIS CAZ7
 PAM  SZ EP   1    824 33.49                             157   -0.05 7 50.1  92 
 PAM  SN ES   1    824 48.29                             157    0.43 7 50.1  92 
 PAM  SZ I         824 50.79         5.3 0.82            161           50.1  92 
 BRR  HZ EP        824 33.14                             150   -0.6510 67.4 246 
 BRR  HE ES        824 48.42                             150    0.1210 67.4 246 
 BRR  HZ I         824 51.40         2.0 0.33            152           67.4 246 
 BAR2 SZ EP   1    824 35.88                             144    0.63 7 84.1 182 
 BAR2 SZ ES   1    824 50.31                             144   -0.59 7 84.1 182 
 BAR2 SZ I         824 52.55         2.7 0.12            148           84.1 182 
 PTB  HZ EP   1    824 42.74                             123    0.05 7  170 238 
 PTB  HE ES        825  4.47                             123    0.33 9  170 238 
 PTB  HZ I         825  6.96         0.9 0.28            126            170 238 
                                                                                
