 2016  721 0656  0.5 L   6.764 -73.147141.2  RSN  5 0.3 1.4LRSN                1
 GAP=234        0.85       4.7     6.1  6.2  0.1385E+02  0.8875E+01  0.8440E+00E
 Epicentro: LOS SANTOS - SANTANDER                                             3
 ACTION:UPD 17-03-29 16:53 OP:lp   STATUS:               ID:20160721065600 L   I
 OLDACT:REG 16-07-21 14:16 OP:ar   STATUS:               ID:20160721064759     3
 2016-07-21-0647-59S.COL___307                                                 6
 STAT SP IPHASW D HRMM SECON CODA AMPLIT PERI AZIMU VELO AIN AR TRES W  DIS CAZ7
 BAR2 EZ EP        656 18.97                             172   -0.5210 19.4 192 
 BAR2 HN ES        656 34.41                             172    0.1010 19.4 192 
 BRR  HZ EP        656 20.93                             151   -0.3210 73.1 301 
 BRR  HN ES        656 37.63                             151    0.1910 73.1 301 
 BRR  HZ I         656 40.79         6.5 0.36            150           73.1 301 
 RUS  HZ EP        656 23.54                             144    0.0410 96.6 176 
 RUS  HN ES        656 41.71                             144    0.2610 96.6 176 
 RUS  HZ I         656 43.26         2.7 0.34            144           96.6 176 
 SPBC HZ EP        656 28.54                             129    0.21 9  160 220 
 SPBC HN ES        656 49.74                             129   -0.31 9  160 220 
 SPBC HZ I         656 54.80         3.5 0.58            128            160 220 
 ZAR  HZ EP        656 33.47                             121    0.69 8  205 293 
 ZAR  HN ES        656 57.75                             121   -0.22 8  205 293 
                                                                                
