 2017  321 0453 48.8 L   6.838 -73.147146.0  RSN 11 0.5 2.0LRSN                1
 GAP=117        1.08       5.0     4.9  6.8 -0.6440E+01  0.7530E+01  0.9325E+01E
 Epicentro: LOS SANTOS - SANTANDER                                             3
 ACTION:UPD 17-05-25 18:43 OP:jn   STATUS:               ID:20170321045348 L   I
 OLDACT:UP  17-03-21 16:29 OP:dnl  STATUS:               ID:20170321044639     3
 OLDACT:REG 17-03-21 13:55 OP:dnl  STATUS:               ID:20170321044639     3
 2017-03-21-0448-00M.COL___382                                                 6
 STAT SP IPHASW D HRMM SECON CODA AMPLIT PERI AZIMU VELO AIN AR TRES W  DIS CAZ7
 BAR2 EZ IP     C  454  8.32                             169   -0.2510 27.4 188 
 BAR2 EZ ES        454 23.80                             169   -0.1810 27.4 188 
 BAR2 EZ I         454 24.27        19.5 0.26            166           27.4 188 
 BRR  HZ EP        454 10.05                             153    0.1610 69.2 296 
 BRR  HE ES        454 27.14                             153    0.8310 69.2 296 
 BRR  HZ I         454 28.85        10.6 0.12            154           69.2 296 
 PAM  EZ EP        454 11.12                             152    0.2410 74.3  42 
 PAM  EN ES        454 27.94                             152   -0.1510 74.3  42 
 PAM  EZ I         454 30.13        14.9 0.52            154           74.3  42 
 PTB  HZ EP        454 15.10                             132   -0.78 9  149 257 
 PTB  HN ES        454 36.28                             132   -0.70 9  149 257 
 PTB  HZ I         454 38.69        10.6 0.18            132            149 257 
 SPBC HZ EP        454 17.41                             129   -0.23 9  166 218 
 SPBC HN ES        454 40.10                             129   -0.02 9  166 218 
 SPBC HZ I         454 46.32        13.9 0.36            127            166 218 
 ZAR  HZ EP   4    454 21.95                             123    0.84 0  202 291 
 ZAR  HN ES        454 46.47                             123    0.17 9  202 291 
 ZAR  HZ I         454 51.78        10.6 0.54            123            202 291 
 URE  HZ EP   2    454 28.97                             114   -0.75 4  282 291 
 URE  HN ES   4    454 59.10                             114   -2.52 0  282 291 
 URE  HZ I         455  2.49         6.7 0.12            114            282 291 
 GUY2CHZ EP        454 33.52                             112    0.81 7  304 234 
 GUY2CHN ES        455  7.38                             112    0.45 7  304 234 
 GUY2CHZ  IAML     455 16.37         3.2 0.62                           304 234 
 PTGC HZ EP   9    454 31.72                             111   -1.42 0  313 159 
 PTGC HN ES        455  6.96                             111    0.68 7  313 159 
 PTGC HZ I         455 18.27         8.9 0.40            111            313 159 
 PRA  HZ EP        454 43.06                             106    0.29 6  396 209 
 PRA  HN ES        455 25.12                             106    0.27 6  396 209 
 PRA  HZ I         455 29.80         3.4 0.34            106            396 209 
 SJC  HZ EP   4    454 42.54                             106   -1.43 0  406 327 
 SJC  HN ES   4    455 22.55                             106   -4.44 0  406 327 
 SJC  HZ I         455 27.73         2.8 0.52            106            406 327 
                                                                                
