 2011  221 0312 57.1 L   6.761 -73.175141.3  RSN 12 0.3 3.3LRSN                1
 GAP=134        0.72       2.8     4.9  5.9 -0.2482E+01  0.1177E+02 -0.4832E+00E
 Epicentro: LOS SANTOS - SANTANDER                                             3
 ACTION:UP  11-03-28 15:09 OP:jfem STATUS:               ID:20110221031257 L   I
 2011-02-21-0312-38S.COL___137                                                 6
 STAT SP IPHASW D HRMM SECON CODA AMPLIT PERI AZIMU VELO SNR AR TRES W  DIS CAZ7
 BAR2 SZ EP        313 15.98                             172    -0.110   19 183 
 BAR2 SZ ES   1    313 30.73                             172    -0.2 7   19 183 
 BAR2 SZ I         313 33.84       618.0 0.24                            19 183 
 BTL  SZ EP        313 16.20                             171     0.110   20 329 
 GIR2 SZ EP   1    313 17.08                             165     0.7 7   35 357 
 RUS  HZ EP        313 19.85                             144    -0.310   97 174 
 RUS  HE ES   1    313 38.21                             144     0.1 7   97 174 
 RUS  HZ I         313 40.64       198.1 0.42                            97 174 
 GRA  SZ EP        313 22.75                             135     0.410  131  18 
 GRA  SZ ES   1    313 41.83                             135    -0.3 7  131  18 
 GRA  SZ I         313 43.99       258.8 0.47                           131  18 
 OCA  SZ EP   2    313 25.05                             128    -0.4 5  164 354 
 OCA  SZ I         313 52.02       277.0 0.35                           164 354 
 YOP  SZ EP   1    313 26.56                             126     0.0 7  177 152 
 YOP  SN ES   1    313 49.64                             126     0.0 7  177 152 
 YOP  SZ I         313 55.30       158.1 0.41                           177 152 
 NOR  SZ EP   1    313 31.55                             118    -0.5 6  230 235 
 NOR  SE ES   1    313 59.39                             118     0.1 6  230 235 
 CHI  HZ EP        313 33.72                             117    -0.3 8  244 195 
 CHI  HN ES   1    314  2.93                             117     0.1 6  244 195 
 CHI  HZ I         314  7.67        88.8 0.23                           244 195 
 HEL  HZ EP   2    313 37.36                             114     0.7 4  268 257 
 HEL  HZ I         314 15.74       148.1 0.40                           268 257 
 DBB  SZ EP        313 43.88                             109    -0.2 7  337 275 
 TOL  SZ EP   2    313 44.94                             109     0.4 3  338 225 
                                                                                
