 2015  121 0800 13.8 L   6.314 -73.576115.0  RSN  7 0.4 1.5LRSN                1
 GAP= 86        0.91       2.9     3.9  6.5 -0.1660E+01  0.1185E+02 -0.5071E+01E
 Epicentro: SANTA HELENA DEL OPON - SANTANDER                                  3
 ACTION:UPD 15-03-02 15:41 OP:nd   STATUS:               ID:20150121080013 L   I
 OLDACT:REG 15-01-21 12:29 OP:carl STATUS:               ID:20150121075741     3
 2015-01-21-0757-41M.COL___265                                                 6
 STAT SP IPHASW D HRMM SECON CODA AMPLIT PERI AZIMU VELO AIN AR TRES W  DIS CAZ7
 BAR2 EZ EP        8 0 30.85                             153   -0.1410 53.3  55 
 BAR2 EZ ES        8 0 44.73                             153    0.3510 53.3  55 
 BAR2 EZ I         8 0 45.81        21.3 0.40            156           53.3  55 
 RUS  HZ EP        8 0 32.75                             146    0.2610 71.7 130 
 RUS  HN ES        8 0 47.27                             146    0.2310 71.7 130 
 RUS  HZ I         8 0 48.42         2.1 0.60            151           71.7 130 
 BRR  HZ EP        8 0 33.17                             139    0.1010 89.0 350 
 BRR  HN ES        8 0 47.66                             139   -0.4210 89.0 350 
 SPBC HZ EP        8 0 32.73                             139   -0.6710 91.5 217 
 SPBC HN ES        8 0 48.21                             139   -0.4510 91.5 217 
 SPBC HZ I         8 0 51.54         6.8 0.18            141           91.5 217 
 NOR  HZ EP        8 0 40.57                             120    0.20 9  165 240 
 NOR  HN ES        8 1  1.47                             120    0.41 9  165 240 
 NOR  HZ I         8 1  3.07         4.2 0.16            122            165 240 
 ZAR  HZ EP        8 0 43.48                             116    0.27 9  193 313 
 ZAR  HN ES        8 1  6.57                             116    0.45 9  193 313 
 ZAR  HZ I         8 1 10.31         4.8 0.50            118            193 313 
 SML  HZ EP        8 0 53.01                             107   -0.17 7  280 349 
 SML  HE ES        8 1 23.51                             107   -0.36 7  280 349 
 SML  HZ I         8 1 28.88         3.5 0.28            109            280 349 
                                                                                
