 2014  821 0222 56.3 L   7.180 -73.362123.6  RSN  4 0.2 1.6LRSN                1
 GAP=187        0.50       2.7     3.7  6.0  0.1039E-01  0.5872E+01 -0.9502E+01E
 Epicentro: LEBRIJA - SANTANDER                                                3
 ACTION:UPD 14-09-15 21:51 OP:nd   STATUS:               ID:20140821022256 L   I
 OLDACT:UP  14-08-21 14:14 OP:cam  STATUS:               ID:20140821022000     3
 OLDACT:UP  14-08-21 14:14 OP:cam  STATUS:               ID:20140821022000     3
 OLDACT:REG 14-08-21 12:49 OP:cam  STATUS:               ID:20140821022000     3
 2014-08-21-0220-00M.COL___285                                                 6
 STAT SP IPHASW D HRMM SECON CODA AMPLIT PERI AZIMU VELO AIN AR TRES W  DIS CAZ7
 BAR2 SZ EP     D  223 15.27                             149    0.0310 67.9 163 
 BAR2 SZ ES        223 29.96                             149   -0.0610 67.9 163 
 BAR2 SZ I         223 30.91        17.0 0.40            156           67.9 163 
 PTB  HZ EP        223 21.15                             128    0.32 9  140 240 
 PTB  HN ES        223 39.78                             128   -0.18 9  140 240 
 PTB  HZ I         223 45.92         2.4 0.16            130            140 240 
 SML  HZ EP        223 26.30                             118   -0.18 9  196 336 
 SML  HE ES        223 50.20                             118    0.18 9  196 336 
 SML  HZ I         223 54.12         7.1 0.26            121            196 336 
 SJC  HZ EP        223 45.26                             104   -0.23 6  361 326 
                                                                                
