 2012 1021 0651 31.5 L   6.764 -73.100137.2  RSN  9 0.3 2.6LRSN                1
 GAP= 95        0.73       3.1     2.9  4.2 -0.1144E+01  0.1733E+01  0.3661E+01E
 Epicentro: LOS SANTOS - SANTANDER                                             3
 ACTION:UPD 12-11-22 17:05 OP:ep   STATUS:               ID:20121021065131 L   I
 2012-10-21-0650-00M.COL___231                                                 6
 STAT SP IPHASW D HRMM SECON CODA AMPLIT PERI AZIMU VELO AIN AR TRES W  DIS CAZ7
 BAR2 SZ EP        651 49.92                             171   -0.1810 21.0 206 
 BAR2 SZ ES        652  4.43                             171   -0.1510 21.0 206 
 BAR2 SZ I         652  6.50       163.9 0.19                          21.0 206 
 BRR  HZ IP     C  651 51.76                             149   -0.4110 77.5 299 
 BRR  HE ES        652  8.69                             149    0.4410 77.5 299 
 BRR  HZ I         652 12.88        94.1 0.15                          77.5 299 
 PAM  SZ EP        651 52.83                             149   -0.0410 77.6  35 
 PAM  SN ES   1    652  9.25                             149   -0.26 7 77.6  35 
 PAM  SZ I         652 11.91        68.2 0.52                          77.6  35 
 RUS  HZ EP        651 53.94                             143   -0.2110 96.3 179 
 RUS  HE ES        652 11.88                             143    0.1010 96.3 179 
 RUS  HZ I         652 14.43        38.9 0.30                          96.3 179 
 TAM  HZ EP        651 58.31                             130    0.30 9  149 104 
 TAM  HZ I         651 58.63        39.9 0.40                           149 104 
 TAM  HN ES   1    652 18.94                             130    0.29 7  149 104 
 CHI  HZ EP        652  8.27                             115   -0.24 8  246 197 
 CHI  HN ES   1    652 36.99                             115   -0.35 6  246 197 
 CHI  HZ I         652 44.64        22.3 0.55                           246 197 
 ROSC BZ EP        652  9.88                             115    0.75 8  252 212 
 ROSC BN ES   1    652 38.66                             115    0.22 6  252 212 
 ROSC BZ I         652 44.91        42.7 0.64                           252 212 
 HEL  HZ EP        652 11.81                             113    0.03 7  276 257 
 HEL  HE ES   1    652 43.56                             113    0.40 6  276 257 
 HEL  HZ I         652 49.42        24.9 0.50                           276 257 
 RREF HZ EP   1    652 17.26                             109   -0.22 5  323 230 
 RREF HN ES   1    652 52.70                             109   -0.60 5  323 230 
 RREF HZ I         653  3.98        19.4 0.40                           323 230 
                                                                                
