 2014  821 0429 44.6 L   6.722 -73.203146.8  RSN  5 0.4 1.4LRSN                1
 GAP=224        1.00       6.0     6.8  9.0  0.4811E+01  0.1634E+02 -0.3379E+01E
 Epicentro: VILLANUEVA - SANTANDER                                             3
 ACTION:UPD 14-09-15 21:51 OP:nd   STATUS:               ID:20140821042944 L   I
 OLDACT:UP  14-08-21 16:49 OP:cma  STATUS:               ID:20140821042848     3
 OLDACT:REG 14-08-21 16:45 OP:cam  STATUS:               ID:20140821042848     3
 2014-08-21-0428-48M.COL___272                                                 6
 STAT SP IPHASW D HRMM SECON CODA AMPLIT PERI AZIMU VELO AIN AR TRES W  DIS CAZ7
 BAR2 SZ EP     D  430  4.15                             174   -0.0610 14.5 171 
 BAR2 SZ ES        430 18.88                             174   -0.6310 14.5 171 
 BAR2 SZ I         430 20.19         5.5 0.18            173           14.5 171 
 BRR  HZ IP     C  430  5.89                             153    0.0610 70.6 307 
 BRR  HE ES        430 23.01                             153    0.6210 70.6 307 
 BRR  HZ I         430 23.86         6.9 0.60            150           70.6 307 
 RUS  HE ES        430 26.37                             146    0.3010 92.6 172 
 PTB  HZ EP        430 10.84                             134   -0.13 9  140 262 
 PTB  HN ES        430 31.09                             134   -0.45 9  140 262 
 PTB  HZ I         430 36.90         2.4 0.38            133            140 262 
 SPBC HN ES        430 33.96                             131    0.26 9  152 219 
                                                                                
