 2016  321 0602 37.5 L   6.780 -73.172134.9  RSN  5 0.3 1.3LRSN                1
 GAP=180        0.73       2.7     5.3  8.7 -0.1495E+01  0.9266E+01 -0.2541E+01E
 Epicentro: LOS SANTOS - SANTANDER                                             3
 ACTION:UPD 16-05-13 21:25 OP:cam  STATUS:               ID:20160321060237 L   I
 OLDACT:DUP 16-03-21 16:54 OP:ak   STATUS:               ID:20160321055747d    3
 2016-03-21-0557-45M.COL___283                                                 6
 STAT SP IPHASW D HRMM SECON CODA AMPLIT PERI AZIMU VELO AIN AR TRES W  DIS CAZ7
 RUS  HN ES        6 3 17.39                             142   -0.2610 98.6 174 
 PTB  HZ EP        6 3  2.80                             130   -0.52 9  144 259 
 PTB  HE ES        6 3 23.36                             130   -0.08 9  144 259 
 PTB  HZ I         6 3 26.28         2.0 0.16            131            144 259 
 SPBC HZ EP        6 3  5.13                             127    0.27 9  160 219 
 SPBC HE ES        6 3 26.46                             127    0.28 9  160 219 
 SPBC HZ I         6 3 31.28         2.3 0.12            129            160 219 
 OCA  HZ EP   2    6 3  4.94                             127   -0.26 5  162 354 
 OCA  HN ES        6 3 27.07                             127    0.28 9  162 354 
 OCA  HZ I         6 3 29.19         3.0 0.21            129            162 354 
 CHI  HZ ES        6 3 43.27                             115    0.25 8  246 195 
                                                                                
