 2016  721 0300  3.2 L   6.338 -73.414133.0  RSN 17 0.5 2.1LRSN                1
 GAP= 57        1.25       3.3     3.2  5.9 -0.3823E+01  0.3581E+01  0.7556E+00E
 Epicentro: CHIMA - SANTANDER                                                  3
 ACTION:UPD 17-03-29 16:53 OP:lp   STATUS:               ID:20160721030003 L   I
 OLDACT:UP  16-07-21 16:19 OP:ar   STATUS:               ID:20160721025759     3
 OLDACT:REG 16-07-21 13:33 OP:ar   STATUS:               ID:20160721025759     3
 2016-07-21-0257-59S.COL___334                                                 6
 STAT SP IPHASW D HRMM SECON CODA AMPLIT PERI AZIMU VELO AIN AR TRES W  DIS CAZ7
 BAR2 EZ EP        3 0 21.47                             163   -0.2510 38.0  42 
 BAR2 EZ ES        3 0 36.19                             163    0.0310 38.0  42 
 RUS  HZ EP        3 0 22.69                             154   -0.4410 61.4 143 
 RUS  HN ES        3 0 38.74                             154    0.0610 61.4 143 
 RUS  HZ I         3 0 40.50        23.2 0.22            156           61.4 143 
 BRR  HZ EP        3 0 24.07                             143   -0.2510 91.2 339 
 BRR  HN ES        3 0 40.88                             143    0.0910 91.2 339 
 BRR  HZ I         3 0 42.13        21.1 0.12            145           91.2 339 
 SPBC HZ EP        3 0 25.08                             139   -0.4410  105 224 
 SPBC HN ES        3 0 41.99                             139   -0.9410  105 224 
 SPBC HZ I         3 0 46.98        31.9 0.16            138            105 224 
 PAM  HZ EP        3 0 29.24                             132    0.54 9  136  35 
 PAM  EN ES        3 0 49.40                             132    0.82 9  136  35 
 PAM  HZ I         3 0 52.25        12.3 0.20            135            136  35 
 TAM  HZ IP     C  3 0 32.50                             123    0.14 9  180  86 
 TAM  HN ES        3 0 55.29                             123    0.18 9  180  86 
 NOR  HZ EP        3 0 31.68                             122   -0.97 9  182 242 
 NOR  HN ES        3 0 55.89                             122    0.27 9  182 242 
 NOR  HZ I         3 0 58.71        23.8 0.15            123            182 242 
 CHI  HZ EP        3 0 34.05                             121   -0.08 9  192 191 
 CHI  HE ES        3 0 57.89                             121   -0.36 9  192 191 
 CHI  HZ I         3 1  2.34         9.4 0.28            122            192 191 
 ROSC BZ EP   2    3 0 35.12                             121    0.86 4  194 211 
 ROSC BN ES        3 0 59.27                             121    0.79 9  194 211 
 ROSC BZ I         3 1  7.03        17.5 0.55            121            194 211 
 ZAR  HZ EP        3 0 35.64                             119    0.77 9  204 309 
 ZAR  HN ES        3 0 58.98                             119   -0.60 9  204 309 
 ZAR  HZ I         3 1  6.17        22.5 0.32            120            204 309 
 HEL  HZ EP        3 0 38.93                             116    0.32 8  235 266 
 HEL  HN ES   4    3 1  8.90                             116    2.66 0  235 266 
 HEL  HZ I         3 1 13.49        10.1 0.24            116            235 266 
 GUY2CHZ EP        3 0 40.93                             114    0.62 8  249 240 
 GUY2CHN ES        3 1 10.16                             114    0.90 8  249 240 
 GUY2CHZ I         3 1 16.60        12.3 0.46                           249 240 
 ELA  HZ EP   4    3 0 44.54                             112    1.31 0  274 234 
 ELA  HN ES   4    3 1 11.48                             112   -2.97 0  274 234 
 ELA  HZ I         3 1 21.87        10.5 0.64            113            274 234 
 URE  HZ EP   4    3 0 41.39                             111   -2.02 0  281 304 
 URE  HN ES   4    3 1 11.31                             111   -3.46 0  281 304 
 URE  HZ I         3 1 12.84         7.6 0.12            112            281 304 
 CBOC HZ EP        3 0 44.49                             110   -0.36 7  292 260 
 CBOC HN ES        3 1 17.05                             110   -0.29 7  292 260 
 CBOC HZ I         3 1 25.35         3.5 0.50            111            292 260 
 PRA  HZ EP        3 0 49.12                             107   -0.26 7  333 209 
 PRA  HN ES        3 1 26.24                             107    0.84 7  333 209 
 PRA  HZ I         3 1 33.82         6.5 0.36            108            333 209 
 SOCV BZ EP        3 0 51.56                             106   -0.37 6  355  53 
 SOCV BN ES        3 1 29.26                             106   -0.69 6  355  53 
 MACC HZ EP   4    3 1  3.01                             101   -2.09 0  466 186 
                                                                                
