 2016  821 0058 33.3 L   6.726 -73.563112.5  RSN 11 0.3 2.2LRSN                1
 GAP= 80        0.80       2.2     3.1  5.0 -0.2652E+01  0.5275E+01  0.2260E+00E
 Epicentro: EL CARMEN - SANTANDER                                              3
 ACTION:UPD 16-10-29 15:37 OP:rebc STATUS:               ID:20160821005833 L   I
 OLDACT:REG 16-08-21 12:46 OP:dnl  STATUS:               ID:20160821005728     3
 2016-08-21-0058-00M.COL___374                                                 6
 STAT SP IPHASW D HRMM SECON CODA AMPLIT PERI AZIMU VELO AIN AR TRES W  DIS CAZ7
 BAR2 EZ EP        058 49.81                             157    0.1010 44.6 109 
 BAR2 EZ ES        059  2.14                             157   -0.3810 44.6 109 
 BAR2 EZ I         059  3.38       157.4 0.34                          44.6 109 
 BRR  HZ EP        058 49.75                             156    0.3610 45.3 339 
 BRR  HE ES        059  2.68                             156    0.7210 45.3 339 
 BRR  HZ I         059 14.29        23.5 0.10                          45.3 339 
 PTB  HZ IP     D  058 52.96                             135   -0.3410  101 258 
 PTB  HN ES   4    059  7.44                             135   -1.48 0  101 258 
 PTB  HZ I         059  8.59        40.5 0.24                           101 258 
 RUS  HZ EP        058 54.51                             134    0.0910  106 150 
 RUS  HN ES        059 10.80                             134   -0.1110  106 150 
 RUS  HZ I         059 11.57        28.1 0.26                           106 150 
 PAM  EZ EP        058 55.38                             131   -0.0010  117  55 
 PAM  EN ES        059 12.43                             131   -0.2010  117  55 
 PAM  EZ I         059 13.76        18.4 0.14                           117  55 
 SPBC HZ EP        058 56.34                             127    0.1210  131 205 
 SPBC HE ES        059 13.97                             127   -0.1510  131 205 
 SPBC HZ I         059 19.19        30.8 0.26                           131 205 
 ZAR  HZ EP   4    059  1.23                             120    1.55 0  166 301 
 ZAR  HE ES   4    059 22.67                             120    2.39 0  166 301 
 ZAR  HZ I         059 27.12        21.0 0.30                           166 301 
 OCA  HZ EP        059  0.34                             119    0.13 9  169   9 
 OCA  HN ES        059 20.76                             119   -0.45 9  169   9 
 OCA  HZ I         059 32.59        37.7 0.16                           169   9 
 NOR  HZ EP        059  2.85                             115    0.17 9  193 228 
 NOR  HE ES        059 25.22                             115   -0.39 9  193 228 
 NOR  HZ I         059 29.55        12.3 0.20                           193 228 
 CHI  HZ EP   2    059  7.85                             111    0.33 4  233 185 
 CHI  HE ES        059 34.68                             111    0.45 8  233 185 
 CHI  HZ I         059 41.96         7.3 0.24                           233 185 
 GUY2CHZ EP   4    059 12.81                             108    2.10 0  260 230 
 GUY2CHN ES        059 39.68                             108   -0.23 8  260 230 
 GUY2CHZ I         059 49.58         6.7 0.30                           260 230 
                                                                                
