 2016  321 0806 58.9 L   6.812 -73.155141.2  RSN 15 0.4 1.8LRSN                1
 GAP= 70        0.87       2.5     2.5  4.7 -0.9211E+00  0.3708E+01  0.6190E+00E
 Epicentro: LOS SANTOS - SANTANDER                                             3
 ACTION:UPD 16-05-13 21:25 OP:cam  STATUS:               ID:20160321080658 L   I
 OLDACT:REG 16-03-21 12:50 OP:ak   STATUS:               ID:20160321075743     3
 2016-03-21-0757-43M.COL___282                                                 6
 STAT SP IPHASW D HRMM SECON CODA AMPLIT PERI AZIMU VELO AIN AR TRES W  DIS CAZ7
 BAR2 EZ EP        8 7 17.84                             170   -0.1210 24.5 187 
 BAR2 EZ ES        8 7 33.47                             170    0.6110 24.5 187 
 BAR2 EZ I         8 7 34.67        11.6 0.20            169           24.5 187 
 PAM  EZ EP        8 7 20.54                             150   -0.0210 77.1  41 
 PAM  EN ES        8 7 37.53                             150    0.0410 77.1  41 
 PAM  EZ I         8 7 39.46        14.6 0.48            154           77.1  41 
 RUS  HZ EP        8 7 21.92                             142   -0.3410  102 176 
 RUS  HN ES        8 7 40.42                             142   -0.1010  102 176 
 RUS  HZ I         8 7 42.44         4.2 0.38            144            102 176 
 PTB  HZ EP        8 7 24.61                             131   -0.77 9  147 258 
 PTB  HN ES        8 7 45.47                             131   -0.60 9  147 258 
 PTB  HZ I         8 7 49.71         8.6 0.18            132            147 258 
 TAM  HZ IP     D  8 7 26.26                             129   -0.04 9  156 105 
 TAM  HN ES        8 7 47.75                             129    0.04 9  156 105 
 TAM  HZ I         8 7 48.33         4.6 0.52            133            156 105 
 OCA  HZ EP        8 7 26.68                             129    0.01 9  159 353 
 OCA  HN ES        8 7 48.38                             129    0.01 9  159 353 
 OCA  HZ I         8 7 52.99        16.0 0.24            131            159 353 
 SPBC HZ EP        8 7 27.18                             128    0.14 9  164 218 
 SPBC HN ES        8 7 48.94                             128   -0.08 9  164 218 
 SPBC HZ I         8 7 57.37        10.5 0.30            129            164 218 
 ZAR  HZ EP        8 7 31.32                             122    0.47 9  203 292 
 ZAR  HN ES        8 7 56.10                             122    0.30 9  203 292 
 ZAR  HZ I         8 8  2.08         9.1 0.12            123            203 292 
 NOR  HZ EP        8 7 34.25                             117   -0.06 8  235 234 
 NOR  HN ES        8 8  2.04                             117    0.08 8  235 234 
 NOR  HZ I         8 8  4.11         6.2 0.40            119            235 234 
 CHI  HZ EP   2    8 7 36.22                             116   -0.19 4  250 195 
 CHI  HN ES        8 8  5.68                             116   -0.02 8  250 195 
 CHI  HZ I         8 8 13.58         3.3 0.48            118            250 195 
 HEL  HZ EP   2    8 7 38.98                             114    0.22 4  271 255 
 GUY2CHZ EP        8 7 43.09                             111    0.85 7  301 234 
 GUY2CHN ES        8 8 16.56                             111    0.48 7  301 234 
 GUY2CHZ I         8 8 25.48         3.9 0.36                           301 234 
 CBOC HZ EP        8 7 45.73                             109    0.22 7  333 252 
 CBOC HN ES        8 8 21.24                             109   -0.66 7  333 252 
 CBOC HZ I         8 8 33.49         1.6 0.52            110            333 252 
 MON  HZ IP   9    8 7 44.80                             108   -2.69 0  352 308 
 MON  HN ES        8 8 22.35                                   -0.38 6  352 308 
 MON  HZ I         8 8 25.68         1.6 0.64            109            352 308 
 SJC  HZ EP   9    8 7 52.01                             105   -2.06 0  408 327 
 SJC  HN ES        8 8 34.09                                   -0.99 6  408 327 
 SJC  HZ I         8 8 37.43         1.1 0.32            107            408 327 
                                                                                
