 2012  821 0502 50.1 L   6.752 -73.133146.0  RSN  6 0.3 1.4LRSN                1
 GAP=140        0.60       4.1     3.9  6.1  0.4776E+00  0.1429E+01 -0.7443E+00E
 Epicentro: LOS SANTOS - SANTANDER                                             3
 ACTION:UPD 12-09-10 11:57 OP:ep   STATUS:               ID:20120821050250 L   I
 2012-08-21-0500-00M.COL___217                                                 6
 STAT SP IPHASW D HRMM SECON CODA AMPLIT PERI AZIMU VELO AIN AR TRES W  DIS CAZ7
 BAR2 SZ EP        5 3  9.67                             172    0.0310 18.5 197 
 BAR2 SZ ES   1    5 3 24.73                             172   -0.17 7 18.5 197 
 BAR2 SZ I         5 3 27.35        11.3 0.30                          18.5 197 
 BRR  HZ EP        5 3 11.64                             151    0.1810 75.0 302 
 BRR  HN ES   1    5 3 28.72                             151    0.57 7 75.0 302 
 BRR  HZ I         5 3 31.26         5.2 0.31                          75.0 302 
 PAM  SZ EP   1    5 3 12.39                             150   -0.12 7 80.7  36 
 PAM  SZ I         5 3 12.82         4.0 0.21                          80.7  36 
 PAM  SN ES   1    5 3 29.72                             150   -0.29 7 80.7  36 
 RUS  HZ EP   1    5 3 13.59                             145    0.13 7 95.2 177 
 RUS  HN ES   1    5 3 31.74                             145    0.04 7 95.2 177 
 RUS  HZ I         5 3 35.75         2.0 0.23                          95.2 177 
 PTB  HN ES   1    5 3 37.70                             132   -0.47 7  148 261 
 ZAR  HN ES   2    5 3 48.02                             122   -0.43 4  207 293 
                                                                                
