 2011 1121 0447 58.7 L   6.782 -73.083143.0  RSN  4 0.1 1.3LRSN                1
 GAP=189        0.30       6.3    12.5  9.2  0.6844E+02 -0.9635E+02 -0.4359E+02E
 Epicentro: LOS SANTOS - SANTANDER                                             3
 ACTION:UPD 12-07-13 16:11 OP:ep   STATUS:               ID:20111121044758 L   I
 2011-11-21-0445-59S.COL___178                                                 6
 STAT SP IPHASW D HRMM SECON CODA AMPLIT PERI AZIMU VELO AIN AR TRES W  DIS CAZ7
 BAR2 SZ EP   1    448 18.02                             170   -0.02 7 23.7 208 
 BAR2 SZ I         448 20.94         8.9 0.67                          23.7 208 
 BRR  HZ EP   1    448 19.95                             150   -0.06 7 78.3 297 
 BRR  HE ES   1    448 36.63                             150    0.03 7 78.3 297 
 RUS  HZ EP   2    448 22.18                             144    0.13 5 98.3 180 
 RUS  HE ES   2    448 40.18                             144   -0.05 5 98.3 180 
 RUS  HZ I         448 41.60         1.4 0.32                          98.3 180 
 OCA  SZ EP   2    448 27.14                             128    0.02 5  163 351 
 OCA  SZ I         448 53.29         3.3 0.12                           163 351 
                                                                                
