 2015 1121 0204 44.1 L   6.802 -73.125126.1  RSN 10 0.5 1.7LRSN                1
 GAP=139        1.33       4.7     5.3  9.3 -0.5666E+01  0.1361E+02  0.1724E+01E
 Epicentro: LOS SANTOS - SANTANDER                                             3
 ACTION:UPD 15-12-28 16:12 OP:cam  STATUS:               ID:20151121020444 L   I
 OLDACT:UP  15-11-23 14:49 OP:Mher STATUS:               ID:20151121020444 L   3
 OLDACT:UP  15-11-21 17:53 OP:dnl  STATUS:               ID:20151121015745     3
 OLDACT:REG 15-11-21 12:33 OP:dnl  STATUS:               ID:20151121015745     3
 2015-11-21-0157-45M.COL___319                                                 6
 STAT SP IPHASW D HRMM SECON CODA AMPLIT PERI AZIMU VELO AIN AR TRES W  DIS CAZ7
 BAR2 EZ EP        2 5  1.07                             169   -0.3110 24.0 195 
 BAR2 EZ ES        2 5 14.03                             169   -0.8410 24.0 195 
 BAR2 EZ I         2 5 17.60        11.6 0.26            168           24.0 195 
 BRR  HZ EP        2 5  3.33                             148    0.0510 73.1 298 
 BRR  HN ES        2 5 19.35                             148    1.1110 73.1 298 
 BRR  HZ I         2 5 24.43        13.0 0.09            149           73.1 298 
 PAM  EZ EP        2 5  4.17                             147    0.0210 75.8  38 
 PAM  EN ES        2 5 20.17                             147    0.3710 75.8  38 
 PAM  EZ I         2 5 23.73        12.9 0.60            153           75.8  38 
 RUS  HZ EP        2 5  6.07                             139    0.1010  101 177 
 RUS  HE ES   2    2 5 23.93                             139    0.89 5  101 177 
 RUS  HZ I         2 5 25.35         2.8 0.43            143            101 177 
 PTB  HZ EP   4    2 5  8.56                             127   -1.19 0  150 259 
 PTB  HN ES        2 5 29.08                             127   -0.69 9  150 259 
 PTB  HZ I         2 5 31.94        11.3 0.09            129            150 259 
 OCA  HZ EP   4    2 5  9.75                             125   -1.21 0  160 352 
 OCA  HN ES        2 5 31.17                             125   -0.75 9  160 352 
 OCA  HZ I         2 5 32.61        20.3 0.52            129            160 352 
 SPBC HZ EP   2    2 5 11.30                             124   -0.02 5  165 220 
 SPBC HN ES        2 5 32.94                             124    0.38 9  165 220 
 SPBC HZ I         2 5 37.15         6.4 0.14            127            165 220 
 ZAR  HZ EP        2 5 16.05                             117    0.49 8  206 292 
 ZAR  HN ES        2 5 40.12                             117    0.02 8  206 292 
 ZAR  HZ I         2 5 45.17         3.7 0.14            121            206 292 
 NOR  HE ES        2 5 45.92                             114   -0.27 8  237 235 
 NOR  HZ I         2 5 51.23         8.3 0.16            117            237 235 
 SML  HZ EP   4    2 5 17.74                             113   -2.04 0  244 335 
 SML  HN ES   4    2 5 45.31                             113   -2.31 0  244 335 
 MON  HZ EP   4    2 5 28.95                             105   -3.65 0  355 308 
 MON  HN ES   4    2 6  7.35                             105   -3.08 0  355 308 
 MON  HZ I         2 6 10.55         1.0 0.07            108            355 308 
                                                                                
