 2010  221 0952 10.3 L   7.399 -73.335134.0  RSN  5 0.5 2.0LRSN                1
 GAP=155        1.08       7.7    12.0 12.5  0.2685E+02  0.4562E+02 -0.2197E+02E
 Epicentro: EL PLAYON - SANTANDER                                              3
 ACTION:UP  10-08-24 09:50 OP:vdl  STATUS:               ID:20100221095210 L   I
 2010-02-21-0940-00S.COL___094                                                 6
 STAT SP IPHASW D HRMM SECON CODA AMPLIT PERI AZIMU VELO SNR AR TRES W  DIS CAZ7
 GIR2 SZ EP        952 29.40                             163     0.510   39 156 
 GIR2 SZ ES   2    952 43.05                             163    -0.3 5   39 156 
 BRR  HZ IP        952 29.64                             157     0.410   53 232 
 BRR  HN ES   2    952 44.44                             157     0.5 5   53 232 
 BRR  HZ I         952 46.03        19.4 0.08                            53 232 
 BAR2 SZ EP        952 31.45                             144    -0.410   91 169 
 BAR2 SZ ES   2    952 47.72                             144    -0.9 5   91 169 
 OCA  SZ EP        952 32.04                             143     0.110   93   1 
 OCA  SZ ES   2    952 48.10                             143    -0.6 5   93   1 
 OCA  SZ I         952 52.37        25.5 0.33                            93   1 
 MON  HZ EP        952 51.78                             110    -0.7 7  298 301 
 MON  HE ES   2    953 25.77                             110     0.4 4  298 301 
                                                                                
