 2014  921 0635 16.7 L   6.802 -73.119145.6  RSN 12 0.4 1.7LRSN                1
 GAP=140        0.80       2.7     3.5  4.7 -0.1629E+01  0.3409E+01 -0.3535E+00E
 Epicentro: LOS SANTOS - SANTANDER                                             3
 ACTION:UPD 14-10-03 23:07 OP:nd   STATUS:               ID:20140921063516 L   I
 OLDACT:REG 14-09-21 13:18 OP:spq  STATUS:               ID:20140921062818     3
 2014-09-21-0628-18M.COL___284                                                 6
 STAT SP IPHASW D HRMM SECON CODA AMPLIT PERI AZIMU VELO AIN AR TRES W  DIS CAZ7
 BAR2 SZ EP        635 36.30                             170   -0.0210 24.2 197 
 BAR2 SZ ES   1    635 51.16                             170   -0.47 7 24.2 197 
 BAR2 SZ I         635 52.93         7.9 0.22            170           24.2 197 
 BRR  HZ IP     C  635 38.18                             152    0.2110 73.7 297 
 BRR  HE ES        635 54.96                             152    0.4010 73.7 297 
 BRR  HZ I         635 56.04         9.7 0.12            151           73.7 297 
 PAM  SZ EP     C  635 39.14                             151    0.3710 75.4  38 
 PAM  SN ES        635 55.97                             151   -0.0210 75.4  38 
 PAM  SZ I         635 58.13        10.3 0.52            154           75.4  38 
 RUS  HZ EP   1    635 40.93                             144    0.50 7  101 178 
 RUS  HN ES   1    635 58.72                             144   -0.23 7  101 178 
 PTB  HZ EP        635 43.37                             131   -0.54 9  151 259 
 PTB  HE ES        636  4.74                             131   -0.40 9  151 259 
 PTB  HZ I         636  9.43         6.1 0.28            132            151 259 
 OCA  HZ EP        635 45.00                             130   -0.00 9  160 352 
 OCA  HN ES   1    636  6.73                             130   -0.35 7  160 352 
 OCA  HZ I         636 11.28         8.0 0.28            131            160 352 
 SPBC HZ EP        635 45.18                             129   -0.19 9  165 220 
 SPBC HN ES        636  8.15                             129    0.41 9  165 220 
 SPBC HZ I         636 12.58         4.0 0.19            130            165 220 
 ZAR  HZ EP        635 49.29                             122   -0.11 8  207 292 
 ZAR  HN ES        636 15.09                             122    0.18 8  207 292 
 ZAR  HZ I         636 17.42         5.1 0.11            123            207 292 
 SML  HZ EP        635 52.75                             117   -0.67 8  245 335 
 SML  HE ES   1    636 22.67                             117    0.60 6  245 335 
 SML  HZ I         636 24.60         7.2 0.26            119            245 335 
 GUY2CHZ EP   1    636  0.56                             112   -0.02 5  304 235 
 GUY2CHE ES   4    636 37.08                             112    2.27 0  304 235 
 GUY2CHZ I         636 43.63         2.0 0.54                           304 235 
 MON  HZ EP   4    636  4.11                             108   -1.83 0  356 308 
 MON  HN ES   4    636 42.79                             108   -1.56 0  356 308 
 MON  HZ I         636 43.47         2.0 0.20            110            356 308 
 PRA  HZ EP   1    636 10.91                             106    0.51 4  394 210 
 PRA  HN ES   1    636 52.55                             106    0.25 4  394 210 
 PRA  HZ I         636 54.99         2.0 0.32            108            394 210 
                                                                                
