 2014 1221 0638 49.2 L   6.782 -73.135150.7  RSN  8 0.4 1.3LRSN                1
 GAP=139        0.91       3.8     4.1  6.3 -0.4616E+00  0.4146E+01  0.9397E+00E
 Epicentro: LOS SANTOS - SANTANDER                                             3
 ACTION:UPD 15-02-10 17:06 OP:nd   STATUS:               ID:20141221063849 L   I
 OLDACT:REG 14-12-21 12:47 OP:spq  STATUS:               ID:20141221063745     3
 2014-12-21-0637-45M.COL___299                                                 6
 STAT SP IPHASW D HRMM SECON CODA AMPLIT PERI AZIMU VELO AIN AR TRES W  DIS CAZ7
 BAR2 EZ EP   1    639  9.44                             171    0.09 7 21.7 194 
 BAR2 EZ ES   1    639 24.60                             171   -0.50 7 21.7 194 
 BAR2 EZ I         639 26.75         3.8 0.43            170           21.7 194 
 BRR  HZ EP        639 11.17                             153    0.2210 73.2 299 
 BRR  HE ES        639 28.65                             153    0.7010 73.2 299 
 BRR  HZ I         639 31.09         3.5 0.60            152           73.2 299 
 PAM  SZ EP        639 12.11                             151    0.1610 78.2  38 
 PAM  SE ES        639 29.60                             151   -0.1210 78.2  38 
 PAM  SZ I         639 31.33         3.0 0.56            156           78.2  38 
 RUS  HZ EP        639 13.20                             145   -0.0610 98.5 177 
 RUS  HE ES   1    639 31.91                             145   -0.14 7 98.5 177 
 RUS  HZ I         639 33.54         1.0 0.42            147           98.5 177 
 PTB  HZ EP        639 16.26                             133   -0.35 9  149 260 
 PTB  HN ES        639 37.52                             133   -0.49 9  149 260 
 PTB  HZ I         639 41.88         2.4 0.18            133            149 260 
 SPBC HZ EP        639 18.54                             130    0.57 9  162 220 
 SPBC HE ES   1    639 40.29                             130   -0.15 7  162 220 
 SPBC HZ I         639 45.85         3.1 0.32            131            162 220 
 ZAR  HE ES        639 48.06                             123    0.23 8  206 293 
 ZAR  HZ I         639 53.80         2.6 0.29            124            206 293 
 SML  HZ EP   1    639 25.85                             118   -0.46 6  246 335 
 SML  HE ES   1    639 54.54                             118   -0.75 6  246 335 
 SML  HZ I         639 55.84         2.6 0.20            120            246 335 
                                                                                
