 2016 1221 0351  0.5 L   6.778 -73.151145.9  RSN 13 0.5 3.1LRSN 3.6WRSN        1
 SPEC AVERAGE  MO 14.4 ST0.425 OM  2.6 f0 1.34 R1.6957 AL 0.00 WI 30.0 MW  3.6 3
 SPEC SD       MO  0.3 ST0.351 OM  0.5 f00.601 R0.5992 AL      WI      MW  0.2 3
 GAP=151        0.96       4.6     5.0  5.8 -0.9622E+01  0.2808E+01  0.1184E+02E
 Epicentro: LOS SANTOS - SANTANDER                                             3
 SPEC BRR HH Z MO 14.3 ST  1.0 OM  2.4 f0 1.99 R0.9668 AL-0.00 WI 30.0 MW  3.5 3
 SPEC BRR HH Z T 35137 K 0.000 GD  162 VS 5.20 DE 3.50 Q0750.0 QA 1.50 Q1 0.00 3
 SPEC NOR HH Z MO 14.0 ST0.905 OM  1.8 f0 2.54 R0.7575 AL-0.00 WI 30.0 MW  3.2 3
 SPEC NOR HH Z T 352 1 K 0.000 GD  274 VS 5.20 DE 3.50 Q0750.0 QA 1.50 Q1 0.00 3
 SPEC ROSCBH Z MO 14.9 ST0.197 OM  2.7 f00.753 R2.5551 AL-0.00 WI 30.0 MW  3.9 3
 SPEC ROSCBH Z T 352 6 K 0.000 GD  289 VS 5.20 DE 3.50 Q0750.0 QA 1.50 Q1 0.00 3
 SPECGUY2CHH Z MO 14.6 ST0.199 OM  2.4 f00.908 R2.1189 AL-0.00 WI 30.0 MW  3.7 3
 SPECGUY2CHH Z T 35217 K 0.000 GD  332 VS 5.20 DE 3.50 Q0750.0 QA 1.50 Q1 0.00 3
 SPEC ELA HH Z MO 14.6 ST0.170 OM  2.3 f00.908 R2.1189 AL-0.00 WI 30.0 MW  3.7 3
 SPEC ELA HH Z T 35224 K 0.000 GD  358 VS 5.20 DE 3.50 Q0750.0 QA 1.50 Q1 0.00 3
 SPEC ANILHH Z MO 14.4 ST0.642 OM  2.1 f0 1.61 R1.1950 AL-0.00 WI 30.0 MW  3.5 3
 SPEC ANILHH Z T 35229 K 0.000 GD  383 VS 5.20 DE 3.50 Q0750.0 QA 1.50 Q1 0.00 3
 SPEC ORTCHH Z MO 14.4 ST0.184 OM  2.1 f0 1.03 R1.8680 AL-0.00 WI 30.0 MW  3.6 3
 SPEC ORTCHH Z T 35235 K 0.000 GD  419 VS 5.20 DE 3.50 Q0750.0 QA 1.50 Q1 0.00 3
 SPEC PAL HH Z MO 14.1 ST0.079 OM  1.8 f00.969 R1.9856 AL-0.00 WI 30.0 MW  3.4 3
 SPEC PAL HH Z T 35236 K 0.000 GD  429 VS 5.20 DE 3.50 Q0750.0 QA 1.50 Q1 0.00 3
 OLDACT:UP  16-12-21 15:15 OP:cog  STATUS:               ID:20161221034746     3
 OLDACT:UP  16-12-21 15:14 OP:cog  STATUS:               ID:20161221034746     3
 OLDACT:UP  16-12-21 15:13 OP:cog  STATUS:               ID:20161221034746     3
 OLDACT:REG 16-12-21 13:13 OP:cog  STATUS:               ID:20161221034746     3
 ACTION:UPD 17-01-11 20:17 OP:rebc STATUS:               ID:20161221035100 L   I
 OLDACT:UP  16-12-21 15:15 OP:cog  STATUS:               ID:20161221034746     3
 2016-12-21-0348-00M.COL___381                                                 6
 STAT SP IPHASW D HRMM SECON CODA AMPLIT PERI AZIMU VELO AIN AR TRES W  DIS CAZ7
 BAR2 EZ EP        351 20.06                             171   -0.0610 20.8 190 
 BAR2 HE ES        351 35.51                             171    0.1010 20.8 190 
 BAR2 EZ I         351 36.69       454.3 0.26            166           20.8 190 
 BRR  HZ EP        351 21.87                             152    0.1410 71.9 300 
 BRR  HE ES        351 39.16                             152    0.8910 71.9 300 
 BRR  HZ I         351 42.97       215.1 0.28            150           71.9 300 
 PAM  EZ EP        351 22.85                             150   -0.0410 79.6  39 
 PAM  EN ES        351 39.93                             150   -0.4010 79.6  39 
 PAM  EZ I         351 42.28       147.4 0.50            158           79.6  39 
 PTB  HZ EP        351 26.70                             132   -0.71 9  147 260 
 PTB  HN ES        351 47.83                             132   -0.55 9  147 260 
 PTB  HZ I         351 54.22        96.9 0.18            131            147 260 
 NOR  HZ EP        351 36.05                             119   -0.01 8  233 235 
 NOR  HN ES        352  3.29                             119   -0.49 8  233 235 
 NOR  HZ I         352  9.97        71.0 0.38            119            233 235 
 CHI  HZ EP        351 38.06                             117    0.10 8  246 195 
 CHI  HE ES        352  7.28                             117    0.12 8  246 195 
 CHI  HZ I         352 11.05        75.5 0.66            119            246 195 
 ROSC BZ EP   3    351 39.92                             117    1.53 2  250 211 
 ROSC BN ES        352  7.63                             117   -0.30 8  250 211 
 ROSC BZ I         352 14.73       188.0 0.40            118            250 211 
 GUY2CHZ EP        351 44.66                             112    0.74 7  299 235 
 GUY2CHN ES   4    352 18.71                             112    0.93 0  299 235 
 GUY2CHZ I         352 26.31        66.3 0.32                           299 235 
 ELA  HZ EP   4    351 48.72                             110    1.57 0  327 230 
 ELA  HN ES   4    352 25.70                             110    2.18 0  327 230 
 ELA  HZ I         352 36.71        54.1 0.42            111            327 230 
 ANIL HZ EP        351 50.34                             109    0.26 6  355 225 
 ANIL HN ES   4    352 31.12                             109    2.38 0  355 225 
 ANIL HZ I         352 34.21       148.8 0.30            110            355 225 
 ORTC HZ EP        351 54.29                             106    0.11 6  393 216 
 ORTC HN ES        352 36.64                             106    0.61 6  393 216 
 ORTC HZ I         352 41.42        29.8 0.24            108            393 216 
 PAL  HZ EP        351 55.66                             106    0.18 6  404 239 
 PAL  HN ES   4    352 38.17                             106   -0.18 0  404 239 
 PAL  HZ I         352 49.22        14.3 0.72            107            404 239 
 YOT  HZ EP        352  3.26                             103   -0.07 5  470 229 
 YOT  HE ES   4    352 54.62                             103    2.30 0  470 229 
                                                                                
