 2014  821 0358  9.6 L   6.860 -73.177154.4  RSN  4 0.5 1.4LRSN                1
 GAP=211        1.32       9.8     9.8 11.7 -0.4396E+02  0.3829E+02 -0.2474E+02E
 Epicentro: ZAPATOCA - SANTANDER                                               3
 ACTION:UPD 14-09-15 21:51 OP:nd   STATUS:               ID:20140821035809 L   I
 OLDACT:UP  14-08-21 15:28 OP:cam  STATUS:               ID:20140821035001d    3
 OLDACT:DUP 14-08-21 15:22 OP:cam  STATUS:               ID:20140821035001d    3
 2014-08-21-0350-00M.COL___285                                                 6
 STAT SP IPHASW D HRMM SECON CODA AMPLIT PERI AZIMU VELO AIN AR TRES W  DIS CAZ7
 BRR  HZ EP        358 31.81                             156    0.4310 65.1 295 
 BRR  HN ES        358 49.21                             156    0.8510 65.1 295 
 BRR  HN I         358 53.19         5.6 0.18            151           65.1 295 
 PAM  SN ES        358 50.04                             153   -0.5010 74.8  45 
 PTB  HZ EP        358 37.07                             134   -0.05 9  146 256 
 PTB  HN ES        358 57.83                             134   -0.74 9  146 256 
 PTB  HZ I         359  3.67         1.7 0.50            134            146 256 
 SML  HZ EP        358 46.20                             120    0.26 8  236 335 
 SML  HN ES        359 13.86                             120   -0.41 8  236 335 
 SML  HZ I         359 19.38         3.4 0.10            121            236 335 
                                                                                
