 2010  921 0339 57.5 L   6.806 -73.125153.4  RSN  5 0.1 1.5LRSN                1
 GAP=161        0.38       3.9     8.3  7.6  0.1998E+02 -0.4526E+02 -0.1737E+02E
 Epicentro: LOS SANTOS - SANTANDER                                             3
 ACTION:UP  11-02-18 11:04 OP:tino STATUS:               ID:20100921033957 L   I
 2010-09-21-0335-38S.COL___121                                                 6
 STAT SP IPHASW D HRMM SECON CODA AMPLIT PERI AZIMU VELO SNR AR TRES W  DIS CAZ7
 BTL  SZ EP        340 18.13                             172     0.210   20 308 
 BAR2 SZ EP   1    340 17.88                             171    -0.2 7   25 195 
 BAR2 SZ I         340 18.39         4.7 0.03                            25 195 
 BRR  HZ EP   1    340 19.60                             153     0.0 7   73 297 
 BRR  HZ I         340 20.05         6.8 0.06                            73 297 
 BRR  HN ES   1    340 36.70                             153    -0.1 7   73 297 
 RUS  HZ EP   1    340 21.95                             145    -0.1 7  101 177 
 RUS  HE ES   1    340 41.21                             145     0.0 7  101 177 
 RUS  HZ I         340 42.43         4.2 0.29                           101 177 
 GRA  SZ EP   1    340 23.26                             139     0.0 7  124  17 
                                                                                
