 2015  821 0041 24.5 L   6.795 -73.133146.8  RSN  8 0.3 1.7LRSN                1
 GAP=138        0.69       2.7     3.3  5.0 -0.3729E+00  0.4722E+01  0.1030E+01E
 Epicentro: LOS SANTOS - SANTANDER                                             3
 ACTION:UPD 15-09-15 23:03 OP:cam  STATUS:               ID:20150821004124 L   I
 OLDACT:REG 15-08-21 12:40 OP:spq  STATUS:               ID:20150821003747     3
 2015-08-21-0037-47M.COL___343                                                 6
 STAT SP IPHASW D HRMM SECON CODA AMPLIT PERI AZIMU VELO AIN AR TRES W  DIS CAZ7
 BAR2 EZ EP        041 43.86                             171   -0.4110 23.1 194 
 BAR2 EZ ES   1    041 59.52                             171   -0.16 7 23.1 194 
 BAR2 EZ I         042  0.41         7.7 0.26            170           23.1 194 
 BRR  HZ EP        041 45.94                             152    0.0710 72.6 298 
 BRR  HE ES        042  2.88                             152    0.3710 72.6 298 
 BRR  HZ I         042  5.88         7.9 0.17            150           72.6 298 
 PAM  EZ EP        041 47.03                             151    0.2110 76.9  39 
 PAM  EE ES        042  4.13                             151   -0.0810 76.9  39 
 PAM  EZ I         042  5.86        14.5 0.48            154           76.9  39 
 RUS  HZ EP        041 48.60                             144    0.2610  100 177 
 RUS  HN ES   1    042  7.09                             144    0.18 7  100 177 
 RUS  HZ I         042  7.96         4.2 0.28            147            100 177 
 SPBC HZ EP        041 53.09                             129   -0.06 9  164 219 
 SPBC HN ES        042 15.02                             129   -0.45 9  164 219 
 SPBC HZ I         042 20.19         5.9 0.12            130            164 219 
 ZAR  HZ EP        041 57.29                             122    0.11 8  205 292 
 ZAR  HN ES        042 22.67                             122    0.01 8  205 292 
 ZAR  HZ I         042 28.29         6.2 0.48            123            205 292 
 SML  HE ES   1    042 29.36                             118   -0.66 6  245 335 
 SML  HZ I         042 32.67         7.4 0.10            119            245 335 
 GUY2CHN ES   1    042 42.87                             112    0.47 5  302 235 
 GUY2CHZ I         042 50.34         1.1 0.58                           302 235 
                                                                                
