 2011  921 0121 37.5 L   6.795 -73.098139.8  RSN  4 0.2 1.1LRSN                1
 GAP=143        0.44       3.0     4.0  5.2  0.7716E+00 -0.3810E+01  0.2182E+01E
 Epicentro: LOS SANTOS - SANTANDER                                             3
 ACTION:UPD 12-07-13 15:58 OP:ep   STATUS:               ID:20110921012137 L   I
 2011-09-21-0117-25S.COL___165                                                 6
 STAT SP IPHASW D HRMM SECON CODA AMPLIT PERI AZIMU VELO AIN AR TRES W  DIS CAZ7
 BAR2 SZ EP   2    121 56.80                             170    0.38 5 24.3 203 
 BAR2 SZ ES   2    122 10.72                             170   -0.47 5 24.3 203 
 BAR2 SZ I         122 13.40         4.1 0.05                          24.3 203 
 PAM  SZ EP   1    121 58.71                             151   -0.18 7 74.5  36 
 PAM  SZ I         121 59.29         1.9 0.10                          74.5  36 
 PAM  SN ES   1    122 15.73                             151    0.13 7 74.5  36 
 BRR  HZ EP   1    121 58.11                             150   -0.17 7 76.1 297 
 BRR  HZ I         121 58.83         5.2 0.47                          76.1 297 
 BRR  HE ES        122 14.58                             150    0.0710 76.1 297 
 RUS  HZ EP   1    122  0.73                             143    0.13 7 99.9 179 
 RUS  HE ES   1    122 18.62                             143   -0.01 7 99.9 179 
 RUS  HZ I         122 19.78         1.4 0.21                          99.9 179 
                                                                                
