 2016  421 0356 57.6 L   6.849 -73.143136.7  RSN  5 0.3 1.3LRSN                1
 GAP=145        0.85       4.6     4.8  6.6 -0.9899E+01  0.1001E+02 -0.1187E+01E
 Epicentro: LOS SANTOS - SANTANDER                                             3
 ACTION:UPD 16-05-05 14:23 OP:rebc STATUS:               ID:20160421035657 L   I
 OLDACT:ARG 16-04-21 12:49 OP:cara STATUS:               ID:20160421034746     3
 2016-04-21-0347-46M.COL___301                                                 6
 STAT SP IPHASW D HRMM SECON CODA AMPLIT PERI AZIMU VELO AIN AR TRES W  DIS CAZ7
 BAR2 EZ IP        357 15.73                             168   -0.4910 28.7 189 
 BAR2 EZ EP        357 16.24                             168           28.7 189 
 BAR2 EZ ES        357 30.96                             168    0.1810 28.7 189 
 BAR2 EZ I         357 32.51         4.9 0.18            167           28.7 189 
 PAM  EZ EP        357 19.22                             150    0.6810 73.1  42 
 PAM  EE ES        357 34.54                             150   -0.3810 73.1  42 
 PAM  EZ I         357 38.11         4.2 0.44            154           73.1  42 
 RUS  HZ EP        357 20.87                             140    0.0410  106 176 
 RUS  HN ES        357 39.10                             140    0.1110  106 176 
 RUS  HZ I         357 40.67         2.7 0.30            143            106 176 
 PTB  HZ EP        357 23.75                             130   -0.17 9  149 257 
 PTB  HE ES        357 44.70                             130    0.21 9  149 257 
 PTB  HZ I         357 47.19         3.7 0.12            131            149 257 
 SPBC HZ EP        357 25.69                             126   -0.11 9  168 218 
 SPBC HN ES        357 47.74                             126   -0.09 9  168 218 
 SPBC HZ I         357 54.30         3.4 0.24            128            168 218 
                                                                                
