 2014  221 0251 12.6 L   6.809 -73.150147.8  RSN 10 0.4 1.9LRSN                1
 GAP=136        0.82       2.7     3.9  6.0 -0.6503E+00  0.8558E+01 -0.1771E+01E
 Epicentro: LOS SANTOS - SANTANDER                                             3
 ACTION:UPD 14-03-10 08:11 OP:ep   STATUS:               ID:20140221025112 L   I
 OLDACT:REG 14-02-21 09:03 OP:fm   STATUS:               ID:20140221025000     3
 2014-02-21-0250-00M.COL___213                                                 6
 STAT SP IPHASW D HRMM SECON CODA AMPLIT PERI AZIMU VELO AIN AR TRES W  DIS CAZ7
 BAR2 SZ EP        251 32.40                             170   -0.1210 24.3 189 
 BAR2 SZ ES   1    251 48.26                             170    0.23 7 24.3 189 
 BAR2 SZ I         251 49.35        32.9 0.36            169           24.3 189 
 PAM  SZ EP        251 35.23                             151    0.2110 76.9  40 
 PAM  SN ES        251 52.66                             151    0.1610 76.9  40 
 PAM  SZ I         251 54.49         9.1 0.62            154           76.9  40 
 RUS  HZ EP        251 36.34                             144   -0.3110  102 176 
 RUS  HN ES        251 55.20                             144   -0.1910  102 176 
 RUS  HZ I         251 56.15         7.2 0.32            145            102 176 
 PTB  HZ EP        251 39.34                             132   -0.39 9  148 258 
 PTB  HN ES        252  0.61                             132   -0.27 9  148 258 
 PTB  HZ I         252  2.13        10.5 0.26            132            148 258 
 OCA  HN ES   1    252  2.83                             130   -0.29 7  159 353 
 OCA  HZ I         252  8.25        10.1 0.25            131            159 353 
 ZAR  HZ EP        251 45.04                             123   -0.08 9  203 292 
 ZAR  HN ES   1    252 11.27                             123    0.81 6  203 292 
 ZAR  HZ I         252 13.28        10.3 0.27            123            203 292 
 NOR  HE ES   1    252 16.64                             119    0.17 6  235 234 
 NOR  HZ I         252 21.81         8.4 0.25            119            235 234 
 SML  HZ EP        251 49.81                             118    0.57 8  243 335 
 SML  HN ES        252 17.46                             118   -0.34 8  243 335 
 SML  HZ I         252 19.05         9.7 0.08            118            243 335 
 CHI  HZ EP   1    251 50.48                             117   -0.05 6  250 195 
 CHI  HN ES   1    252 21.14                             117    1.05 6  250 195 
 CHI  HZ I         252 25.85         1.9 0.30            118            250 195 
 HEL  HZ EP   4    251 54.71                             115    1.79 0  272 256 
 HEL  HN ES   4    252 25.01                             115    0.66 0  272 256 
 HEL  HZ I         252 31.90         6.6 0.28            115            272 256 
 URE  HZ EP   4    251 52.46                             114   -1.24 0  283 292 
 URE  HN ES   4    252 23.91                             114   -1.83 0  283 292 
                                                                                
