 2011  221 0051 42.5 L   6.809 -73.193144.0  RSN 12 0.5 2.1LRSN                1
 GAP=132        1.00       3.7     7.2  8.8 -0.1908E+01  0.2825E+02 -0.7256E+00E
 Epicentro: ZAPATOCA - SANTANDER                                               3
 ACTION:UP  11-03-28 15:09 OP:jfem STATUS:               ID:20110221005143dL   I
 2011-02-21-0048-41S.COL___137                                                 6
 STAT SP IPHASW D HRMM SECON CODA AMPLIT PERI AZIMU VELO SNR AR TRES W  DIS CAZ7
 BTL  SZ EP        052  2.39                             174     0.610   15 326 
 BAR2 SZ EP   1    052  2.06                             170     0.1 7   24 178 
 BAR2 SZ ES   1    052 17.03                             170    -0.1 7   24 178 
 BAR2 SZ I         052 19.89        28.4 0.33                            24 178 
 RUS  HZ EP        052  6.03                             143    -0.210  102 173 
 RUS  HN ES   1    052 24.27                             143    -0.4 7  102 173 
 RUS  HZ I         052 26.71        10.3 0.28                           102 173 
 GRA  SZ EP        052  6.88                             137    -0.810  127  20 
 GRA  SZ ES   1    052 28.04                             137     0.8 7  127  20 
 GRA  SZ I         052 31.06        11.3 0.36                           127  20 
 OCA  SZ EP   1    052 10.66                             130     0.1 7  159 355 
 OCA  SZ ES   2    052 31.50                             130    -0.9 5  159 355 
 OCA  SZ I         052 37.19        16.7 0.28                           159 355 
 YOP  SZ EP   2    052 12.26                             125    -0.5 4  182 152 
 YOP  SN ES        052 36.58                             125     0.2 9  182 152 
 YOP  SZ I         052 38.99        11.2 0.33                           182 152 
 NOR  SZ EP   1    052 17.93                             119     0.2 6  231 234 
 NOR  SN ES   2    052 44.98                             119    -0.3 4  231 234 
 CHI  HZ EP   1    052 20.24                             117     0.2 6  248 194 
 CHI  HN ES   2    052 49.08                             117    -0.3 4  248 194 
 CHI  HZ I         052 55.89         7.3 0.36                           248 194 
 ROSC BZ EP   2    052 21.01                             117     0.7 4  251 210 
 ROSC BZ I         052 58.96        12.3 0.63                           251 210 
 HEL  HZ EP   2    052 22.16                             115     0.1 4  267 255 
 HEL  HZ I         053  2.30        10.3 0.27                           267 255 
 RREF HZ EP   2    052 28.65                             111     0.4 3  318 229 
 RREF HE ES   2    053  3.16                             111    -0.7 3  318 229 
 RREF HZ I         053 12.77         8.0 0.36                           318 229 
 DBB  SZ EP   1    052 29.55                             110     0.2 5  334 274 
                                                                                
