 2017  221 0541 53.0 L   7.213 -73.461112.1  RSN  5 0.4 1.3LRSN                1
 GAP=234        0.83       6.1     5.0  6.1  0.1671E+02  0.1955E+01 -0.1900E+01E
 Epicentro: SABANA DE TORRES - SANTANDER                                       3
 ACTION:UPD 17-05-24 15:38 OP:jn   STATUS:               ID:20170221054153 L   I
 OLDACT:UP  17-02-21 17:14 OP:dani STATUS:               ID:20170221053741     3
 OLDACT:UP  17-02-21 17:12 OP:dani STATUS:               ID:20170221053741     3
 OLDACT:REG 17-02-21 14:27 OP:dani STATUS:               ID:20170221053741     3
 2017-02-21-0538-00M.COL___379                                                 6
 STAT SP IPHASW D HRMM SECON CODA AMPLIT PERI AZIMU VELO AIN AR TRES W  DIS CAZ7
 BRR  HZ EP        542  8.37                             164   -0.0510 30.1 247 
 BRR  HN ES        542 20.22                             164   -0.2510 30.1 247 
 BRR  HZ I         542 24.28         4.2 0.26            162           30.1 247 
 BAR2 EZ EP        542 11.16                             144   -0.0610 75.2 156 
 BAR2 EZ ES        542 25.75                             144    0.2910 75.2 156 
 BAR2 EZ I         542 26.53        12.8 0.34            148           75.2 156 
 PTB  HZ EP        542 15.31                             126   -0.6210  133 236 
 PTB  HN ES        542 34.10                             126    0.2610  133 236 
 PTB  HZ I         542 35.67         2.8 0.18            128            133 236 
 RUS  HZ EP        542 18.82                             122    0.35 9  152 164 
 RUS  HN ES        542 38.12                             122   -0.24 9  152 164 
 RUS  HZ I         542 40.81         1.6 0.35            126            152 164 
 ZAR  HZ EP        542 18.66                             121    0.25 9  157 281 
 ZAR  HE ES   3    542 39.90                             121    1.65 2  157 281 
 ZAR  HZ I         542 42.80         2.4 0.19            123            157 281 
                                                                                
