 2012  221 0136 38.9 L   6.209 -74.148 28.3  RSN  4 0.1 1.1LRSN                1
 GAP=163        0.38       5.7     2.3  5.5  0.4290E+01 -0.2718E+01  0.2324E+02E
 ACTION:UP  12-03-07 16:32 OP:epov STATUS:               ID:20120221013638 L   I
 2012-02-21-0130-00M.COL___191                                                 6
 STAT SP IPHASW D HRMM SECON CODA AMPLIT PERI AZIMU VELO AIN AR TRES W  DIS CAZ7
 PTB  HZ IP     D  136 47.91                             111   -0.0610 50.0 317 
 PTB  HN ES   1    136 55.02                             111    0.00 7 50.0 317 
 RUS  HZ EP   1    136 58.38                              61    0.25 7  123 106 
 RUS  HZ I         136 58.68         3.0 0.18                           123 106 
 RUS  HN ES   1    137 12.89                              61   -0.20 7  123 106 
 GIR2 SZ EP   1    137  0.25                              61    0.07 7  143  48 
 HEL  HN ES   2    137 19.49                              61    0.00 5  153 269 
 HEL  HZ I         137 34.66         3.2 0.44                           153 269 
                                                                                
