 2012  321 0056 34.5 L   6.773 -73.163143.8  RSN  9 0.4 2.1LRSN                1
 GAP=136        0.78       4.4     4.4  6.1 -0.1668E+01  0.8009E+01  0.3958E+01E
 ACTION:UP  12-03-31 23:21 OP:EP   STATUS:               ID:20120321005634 L   I
 2012-03-21-0050-00M.COL___202                                                 6
 STAT SP IPHASW D HRMM SECON CODA AMPLIT PERI AZIMU VELO SNR AR TRES W  DIS CAZ7
 BAR2 SZ EP        056 53.90                             172     0.110   20 186 
 BAR2 SZ ES   1    057  8.36                             172    -0.5 7   20 186 
 BAR2 SZ I         057 10.03        36.8 0.24                            20 186 
 BRR  HZ EP        056 55.72                             152     0.310   71 301 
 BRR  HE ES   1    057 12.47                             152     0.7 7   71 301 
 BRR  HZ I         057 16.01        31.9 0.15                            71 301 
 PAM  SZ EP        056 56.79                             149     0.110   81  39 
 PAM  SE ES   1    057 13.54                             149    -0.5 7   81  39 
 RUS  HZ EP        056 57.92                             144     0.110   98 175 
 RUS  HZ I         056 59.11        11.3 0.17                            98 175 
 RUS  HN ES   1    057 16.31                             144     0.2 7   98 175 
 PTB  HZ EP   1    057  0.44                             132    -0.6 7  145 260 
 PTB  HN ES   2    057 21.93                             132     0.1 5  145 260 
 PTB  HZ I         057 25.06         9.9 0.21                           145 260 
 ZAR  HZ EP   2    057  6.63                             122    -0.1 4  203 293 
 ZAR  HN ES   2    057 31.41                             122    -0.5 4  203 293 
 ZAR  HZ I         057 38.40        14.7 0.45                           203 293 
 NOR  SZ EP   2    057  9.76                             118     0.0 4  231 235 
 NOR  SE ES   2    057 36.83                             118    -0.4 4  231 235 
 HEL  HZ EP   1    057 14.45                             114     0.1 6  270 256 
 HEL  HN ES   2    057 44.99                             114    -0.4 4  270 256 
 HEL  HZ I         057 52.22        10.3 0.48                           270 256 
 PRA  HZ EP   1    057 27.63                             106     0.1 4  389 210 
 PRA  HN ES   2    058  9.10                             106     0.2 3  389 210 
                                                                                
