 2013  421 0041  4.1 L   6.777 -73.219151.1  RSN  4 0.4 1.5LRSN                1
 GAP=194        0.87       5.6     8.3  9.1  0.2351E+02 -0.1326E+02 -0.2220E+02E
 Epicentro: ZAPATOCA - SANTANDER                                               3
 ACTION:UPD 13-05-22 14:39 OP:EP   STATUS:               ID:20130421004104 L   I
 2013-04-21-0040-00M.COL___250                                                 6
 STAT SP IPHASW D HRMM SECON CODA AMPLIT PERI AZIMU VELO AIN AR TRES W  DIS CAZ7
 BRR  HZ IP     C  041 25.87                             155    0.3410 65.6 304 
 BRR  HN ES   1    041 42.87                             155    0.62 7 65.6 304 
 BRR  HZ I         041 43.31         7.3 0.10            156           65.6 304 
 RUS  HZ EP        041 28.33                             146    0.0710 98.9 171 
 RUS  HN ES        041 46.74                             146   -0.3710 98.9 171 
 RUS  HZ I         041 49.01         3.3 0.24            146           98.9 171 
 PTB  HZ EP        041 30.76                             135    0.00 9  139 259 
 PTB  HN ES   1    041 51.23                             135   -0.34 7  139 259 
 PTB  HZ I         041 53.37         5.2 0.36            136            139 259 
 SML  HZ EP        041 41.07                             119    0.14 8  243 337 
 SML  HN ES   1    042  8.75                             119   -0.91 6  243 337 
                                                                                
