 2010  821 0709  9.5 L   6.850 -73.016136.0  RSN  4 0.3 1.1LRSN                1
 GAP=254        0.60       9.5    13.0  7.3  0.9329E+02 -0.4303E+02 -0.2049E+02E
 Epicentro: CEPITA - SANTANDER                                                 3
 ACTION:UP  10-09-07 10:57 OP:vdl  STATUS:               ID:20100821070909 L   I
 2010-08-21-0707-02S.COL___120                                                 6
 STAT SP IPHASW D HRMM SECON CODA AMPLIT PERI AZIMU VELO SNR AR TRES W  DIS CAZ7
 BTL  SZ EP        7 9 28.26                             168     0.110   29 285 
 BTL  SZ ES   1    7 9 42.88                             168     0.3 7   29 285 
 BAR2 SZ EP   1    7 9 27.91                             166    -0.4 7   34 213 
 BAR2 SZ ES   2    7 9 42.60                             166    -0.3 5   34 213 
 BAR2 SZ I         7 9 45.18         3.9 0.29                            34 213 
 BRR  HZ EP        7 9 30.11                             148    -0.210   82 290 
 BRR  HZ I         7 9 45.34         2.3 0.34                            82 290 
 BRR  HE ES        7 9 46.59                             148     0.110   82 290 
 RUS  HZ EP   2    7 9 33.27                             141     0.5 5  106 184 
 RUS  HN ES   2    7 9 50.87                             141     0.0 5  106 184 
 RUS  HZ I         7 9 51.92         1.5 0.38                           106 184 
                                                                                
