 2012  121 0126 21.6 L   7.228 -73.803 86.8  RSN  7 0.3 1.9LRSN                1
 GAP=211        0.83       5.7     4.0  5.9  0.1016E+02  0.6822E+01  0.8908E+01E
 Epicentro: PUERTO WILCHES - SANTANDER                                         3
 ACTION:UP  12-02-03 08:19 OP:REBC STATUS:               ID:20120121012621 L   I
 2012-01-21-0120-00M.COL___186                                                 6
 STAT SP IPHASW D HRMM SECON CODA AMPLIT PERI AZIMU VELO SNR AR TRES W  DIS CAZ7
 BRR  HZ IP     D  126 33.36                             168    -0.310   17 143 
 BRR  HZ I         126 33.51       127.9 0.13                            17 143 
 BRR  HE ES        126 43.12                             168     0.110   17 143 
 BAR2 SZ ES   1    126 53.55                             128    -0.1 7   98 136 
 BAR2 SZ I         126 56.69        20.0 0.32                            98 136 
 PTB  HZ EP        126 39.56                             125    -0.410  105 224 
 PTB  HE ES        126 54.28                             125     0.010  105 224 
 ZAR  HZ EP   1    126 41.27                             121    -0.3 7  120 284 
 ZAR  HN ES   1    126 57.60                             121     0.5 7  120 284 
 ZAR  HZ I         126 59.89        26.9 0.20                           120 284 
 RUS  HZ EP        126 47.85                             113     0.5 9  168 152 
 RUS  HN ES   1    127  7.62                             113     0.1 7  168 152 
 RUS  HZ I         127 14.31         9.3 0.40                           168 152 
 HEL  HZ EP   1    126 53.92                             107     0.3 6  223 239 
 HEL  HZ I         127 26.71         3.9 0.50                           223 239 
 RREF HZ EP   1    127  4.10                             101    -0.2 5  309 214 
 RREF HZ I         127 48.75         2.7 0.33                           309 214 
                                                                                
