 2017  821 0709 12.8 L   6.806 -73.034141.6  RSN  7 0.3 1.2LRSN                1
 GAP=249        0.82       4.2     5.3  5.6 -0.7274E-01  0.9607E+01  0.1268E+01E
 Epicentro: CEPITA - SANTANDER                                                 3
 ACTION:UPD 17-09-04 20:22 OP:rebc STATUS:               ID:20170821070912 L   I
 OLDACT:REG 17-08-21 13:15 OP:osc  STATUS:               ID:20170821070641     3
 2017-08-21-0707-00M.COL___411                                                 6
 STAT SP IPHASW D HRMM SECON CODA AMPLIT PERI AZIMU VELO AIN AR TRES W  DIS CAZ7
 BAR2 EZ EP        7 9 32.03                             168   -0.0310 28.8 215 
 BAR2 EZ ES        7 9 47.35                             168    0.2710 28.8 215 
 BAR2 EZ I         7 9 48.30         4.2 0.26            166           28.8 215 
 BRR  HZ EP        7 9 33.83                             148   -0.3310 82.0 294 
 BRR  HE ES        7 9 50.76                             148   -0.0610 82.0 294 
 RUS  HZ EP        7 9 36.40                             143    0.2110  101 183 
 RUS  HN ES        7 9 54.53                             143    0.1010  101 183 
 RUS  HZ I         7 9 55.18         1.2 0.36            142            101 183 
 SPBC HZ EP        7 9 41.37                             126   -0.45 9  172 222 
 SPBC HN ES        710  3.95                             126   -0.50 9  172 222 
 SPBC HZ I         710  7.94         2.4 0.04            127            172 222 
 ZAR  HZ EP        7 9 46.41                             120    0.25 8  215 291 
 ZAR  HE ES   4    710 10.38                             120   -1.80 0  215 291 
 NOR  HE ES        710 17.77                             116   -0.25 8  245 236 
 GUY2CHZ EP        7 9 57.89                             111    0.46 7  312 236 
 GUY2CHE ES        710 33.01                             111    0.78 7  312 236 
 GUY2CHZ I         710 40.37         1.1 0.64                           312 236 
                                                                                
