 2013  221 0840 25.2 L   6.768 -73.155151.4  RSN  6 0.4 1.2LRSN                1
 GAP=137        0.86       4.9     6.1  8.4 -0.2721E+01  0.5888E+01  0.2097E+00E
 Epicentro: LOS SANTOS - SANTANDER                                             3
 ACTION:UPD 13-03-12 09:34 OP:ep   STATUS:               ID:20130221084025 L   I
 2013-02-21-0840-00M.COL___238                                                 6
 STAT SP IPHASW D HRMM SECON CODA AMPLIT PERI AZIMU VELO AIN AR TRES W  DIS CAZ7
 BAR2 SZ EP   1    840 45.30                             172   -0.11 7 19.6 189 
 BAR2 SZ ES   1    841  1.33                             172    0.13 7 19.6 189 
 BAR2 SZ I         841  5.99         6.0 0.26            171           19.6 189 
 BRR  HZ EP   1    840 47.14                             153    0.16 7 72.1 301 
 BRR  HN ES   1    841  4.41                             153    0.42 7 72.1 301 
 BRR  HZ I         841  9.45         3.2 0.14            152           72.1 301 
 PAM  SZ EP   1    840 48.71                             151    0.52 7 80.8  38 
 PAM  SN ES   1    841  5.18                             151   -0.96 7 80.8  38 
 PAM  SZ I         841  7.43         2.3 0.18            157           80.8  38 
 RUS  HZ EP   1    840 49.07                             146   -0.17 7 97.1 175 
 RUS  HE ES   1    841  8.39                             146    0.38 7 97.1 175 
 RUS  HZ I         841  9.28         1.0 0.42            150           97.1 175 
 PTB  HZ EP   1    840 52.13                             134   -0.33 7  146 260 
 PTB  HN ES   1    841 13.30                             134   -0.44 7  146 260 
 PTB  HZ I         841 19.13         3.8 0.22            135            146 260 
 OCA  HN ES   1    841 17.28                             130    0.36 7  164 354 
                                                                                
