 2014 1221 0804 40.2 L   6.776 -73.148148.5  RSN  6 0.4 1.1LRSN                1
 GAP=137        1.03       6.3     5.5  7.7  0.5309E+01  0.7135E+01  0.9488E+00E
 Epicentro: LOS SANTOS - SANTANDER                                             3
 ACTION:UPD 15-02-10 17:06 OP:nd   STATUS:               ID:20141221080440 L   I
 OLDACT:DUP 14-12-21 18:25 OP:spq  STATUS:               ID:20141221075745d    3
 2014-12-21-0757-44M.COL___299                                                 6
 STAT SP IPHASW D HRMM SECON CODA AMPLIT PERI AZIMU VELO AIN AR TRES W  DIS CAZ7
 BAR2 EZ EP        8 5  0.16                             172    0.0210 20.7 190 
 BAR2 EZ ES   1    8 5 15.19                             172   -0.48 7 20.7 190 
 BAR2 EZ I         8 5 17.98         4.1 0.34            178           20.7 190 
 BRR  HZ EP        8 5  2.02                             153    0.2910 72.2 300 
 BRR  HN ES        8 5 19.37                             153    0.8710 72.2 300 
 BRR  HZ I         8 5 21.37         3.5 0.72            153           72.2 300 
 PAM  SZ EP        8 5  2.86                             151   -0.0110 79.6  38 
 PAM  SN ES   1    8 5 19.86                             151   -0.67 7 79.6  38 
 PAM  SZ I         8 5 28.42         1.0 0.50            150           79.6  38 
 RUS  HZ EP        8 5  4.40                             145    0.3410 97.9 176 
 RUS  HE ES   1    8 5 22.75                             145    0.10 7 97.9 176 
 RUS  HZ I         8 5 23.72         1.1 0.28            153           97.9 176 
 PTB  HZ EP        8 5  7.04                             133   -0.31 9  147 260 
 PTB  HN ES   1    8 5 27.82                             133   -0.68 7  147 260 
 PTB  HZ I         8 5 30.51         2.3 0.16            137            147 260 
 ZAR  HZ EP        8 5 12.55                             123   -0.38 9  205 293 
 ZAR  HE ES   1    8 5 38.31                             123   -0.12 6  205 293 
 ZAR  HZ I         8 5 44.94         1.8 0.28            126            205 293 
                                                                                
