 2014  321 0108  9.6 L   6.791 -73.141144.3  RSN  9 0.3 1.9LRSN                1
 GAP=138        0.80       2.9     3.5  6.2 -0.9270E+00  0.8471E+01 -0.1531E+01E
 Epicentro: LOS SANTOS - SANTANDER                                             3
 ACTION:UPD 14-04-09 23:19 OP:nd   STATUS:               ID:20140321010809 L   I
 OLDACT:UP  14-03-21 09:49 OP:mh   STATUS:               ID:20140321005813     3
 OLDACT:UP  14-03-21 09:45 OP:mh   STATUS:               ID:20140321005813     3
 OLDACT:REG 14-03-21 07:54 OP:mh   STATUS:               ID:20140321005813     3
 2014-03-21-0058-13M.COL___247                                                 6
 STAT SP IPHASW D HRMM SECON CODA AMPLIT PERI AZIMU VELO AIN AR TRES W  DIS CAZ7
 PAM  SZ IP     C  1 8 31.97                             150    0.3110 77.8  39 
 PAM  SN ES        1 8 48.62                             150   -0.2610 77.8  39 
 PAM  SZ I         1 8 51.15        17.4 0.38            156           77.8  39 
 RUS  HZ EP        1 8 33.08                             144   -0.0210 99.5 176 
 RUS  HN ES        1 8 51.68                             144    0.2310 99.5 176 
 RUS  HZ I         1 8 53.48        12.2 0.34            144           99.5 176 
 PTB  HZ EP        1 8 35.69                             132   -0.76 9  148 259 
 PTB  HN ES        1 8 57.39                             132   -0.03 9  148 259 
 PTB  HZ I         1 8 59.45        12.6 0.14            131            148 259 
 ZAR  HZ EP        1 8 41.69                             122   -0.33 9  205 292 
 ZAR  HN ES        1 9  7.34                             122    0.02 9  205 292 
 ZAR  HZ I         1 9 13.84        10.1 0.22            123            205 292 
 NOR  HZ EP        1 8 45.45                             118    0.25 8  235 235 
 NOR  HN ES        1 9 13.22                             118    0.23 8  235 235 
 NOR  HZ I         1 9 18.82         9.5 0.19            119            235 235 
 SML  HZ EP        1 8 46.60                             117    0.36 8  245 335 
 SML  HE ES        1 9 15.03                             117    0.18 8  245 335 
 CHI  HZ EP   1    1 8 46.58                             117   -0.52 6  248 195 
 CHI  HE ES   4    1 9 19.69                             117    3.33 0  248 195 
 CHI  HZ I         1 9 21.92         2.8 0.29            118            248 195 
 HEL  HZ EP   1    1 8 50.32                             114    0.58 6  272 256 
 HEL  HE ES   4    1 9 19.48                             114   -1.59 0  272 256 
 HEL  HZ I         1 9 28.04         5.9 0.25            115            272 256 
 URE  HZ EP   4    1 8 48.33                             113   -2.34 0  285 292 
 URE  HN ES   4    1 9 20.62                             113   -2.11 0  285 292 
 RREF HZ EP   4    1 8 57.16                             110    1.54 0  322 230 
 RREF HN ES   4    1 9 29.93                             110   -1.61 0  322 230 
 RREF HZ I         1 9 38.70         3.5 0.27            112            322 230 
                                                                                
