 2014 1221 0306 14.6 L   6.797 -73.136146.6  RSN  8 0.3 1.5LRSN                1
 GAP=138        0.74       3.3     3.3  5.4 -0.2044E+00  0.1918E+01  0.5116E+01E
 Epicentro: LOS SANTOS - SANTANDER                                             3
 ACTION:UPD 15-02-10 17:06 OP:nd   STATUS:               ID:20141221030614 L   I
 OLDACT:DUP 14-12-21 14:40 OP:spq  STATUS:               ID:20141221025747d    3
 2014-12-21-0257-46M.COL___302                                                 6
 STAT SP IPHASW D HRMM SECON CODA AMPLIT PERI AZIMU VELO AIN AR TRES W  DIS CAZ7
 BAR2 EZ EP        3 6 34.24                             171   -0.0710 23.2 193 
 BAR2 EZ ES   1    3 6 49.38                             171   -0.32 7 23.2 193 
 BAR2 EZ I         3 6 52.02         5.0 0.24            168           23.2 193 
 BRR  HZ EP        3 6 36.33                             152    0.4410 72.3 298 
 BRR  HN ES        3 6 52.80                             152    0.3010 72.3 298 
 BRR  HZ I         3 6 57.81         6.0 0.44            151           72.3 298 
 PAM  SZ EP        3 6 37.10                             151    0.2410 77.0  39 
 PAM  SN ES        3 6 54.03                             151   -0.2110 77.0  39 
 PAM  SZ I         3 6 56.45         4.9 0.20            157           77.0  39 
 RUS  HZ EP        3 6 38.16                             144   -0.2310  100 177 
 RUS  HN ES   1    3 6 57.07                             144    0.12 7  100 177 
 RUS  HZ I         3 6 57.91         1.9 0.36            146            100 177 
 PTB  HZ EP        3 6 41.10                             132   -0.61 9  149 259 
 PTB  HN ES        3 7  2.62                             132   -0.24 9  149 259 
 PTB  HZ I         3 7  8.26         4.4 0.40            132            149 259 
 SPBC HN ES   1    3 7  5.93                             129    0.44 7  164 219 
 SPBC HZ I         3 7 12.30         8.7 0.30            130            164 219 
 ZAR  HN ES        3 7 12.63                             122   -0.01 9  205 292 
 ZAR  HZ I         3 7 18.66         3.9 0.28            124            205 292 
 CHI  HZ EP        3 6 52.51                             117    0.19 8  249 195 
 CHI  HN ES   1    3 7 21.93                             117    0.17 6  249 195 
 CHI  HZ I         3 7 25.70         1.2 0.48            119            249 195 
                                                                                
