 2011  321 0648 19.3 L   6.172 -73.655108.4  RSN 13 0.4 2.4LRSN                1
 GAP= 81        0.83       2.9     2.9  6.6 -0.2315E+01  0.8569E+01 -0.1698E+01E
 Epicentro: LA PAZ - SANTANDER                                                 3
 ACTION:UP  11-06-16 14:34 OP:jfem STATUS:               ID:20110321064819 L   I
 2011-03-21-0647-03S.COL___136                                                 6
 STAT SP IPHASW D HRMM SECON CODA AMPLIT PERI AZIMU VELO SNR AR TRES W  DIS CAZ7
 BAR2 SZ IP        648 37.06                             145     0.210   70  48 
 BAR2 SZ ES   1    648 50.70                             145     0.2 7   70  48 
 BAR2 SZ I         648 52.56       387.0 0.26                            70  48 
 RUS  HZ IP     D  648 37.10                             145    -0.110   71 116 
 RUS  HZ I         648 37.34        49.3 0.22                            71 116 
 RUS  HN ES   1    648 50.91                             145    -0.3 7   71 116 
 NOR  SZ EP   1    648 43.51                             121    -0.4 7  151 244 
 NOR  SN ES   1    649  2.38                             121    -0.6 7  151 244 
 YOP  SZ EP        648 45.55                             119     0.2 9  164 123 
 YOP  SZ I         648 46.14        47.9 0.38                           164 123 
 YOP  SN ES   2    649  5.01                             119    -0.7 5  164 123 
 CHI  HZ EP   2    648 46.06                             118    -0.4 4  171 183 
 CHI  HE ES   1    649  8.23                             118     0.5 7  171 183 
 CHI  HZ I         649 11.43        16.9 0.35                           171 183 
 HEL  HZ EP        648 50.71                             112     0.2 8  207 271 
 HEL  HE ES   1    649 15.11                             112     0.3 6  207 271 
 HEL  HZ I         649 16.42        15.4 0.21                           207 271 
 GRA  SZ EP        648 50.45                             112    -0.2 8  211  26 
 GRA  SZ I         649 18.12        25.1 0.29                           211  26 
 GUY  SZ EP   1    648 52.33                             111     0.7 6  217 241 
 GUY  SN ES   1    649 16.77                             111    -0.1 6  217 241 
 GUY  SZ I         649 24.03        40.6 0.38                           217 241 
 VIL  SN ES   1    649 18.33                             110    -0.1 6  228 181 
 VIL  SZ I         649 21.95        23.9 0.42                           228 181 
 OCA  SZ EP   1    648 52.42                             110    -0.5 6  232   9 
 OCA  SZ ES   2    649 20.00                             110     0.8 4  232   9 
 OCA  SZ I         649 25.36        28.4 0.37                           232   9 
 RREF HZ EP        648 53.79                             110    -0.1 8  234 233 
 RREF HN ES   1    649 20.62                             110    -0.2 6  234 233 
 RREF HZ I         649 27.16        19.1 0.36                           234 233 
 DBB  SZ EP        649  0.26                             104    -0.3 7  298 288 
 DBB  SZ I         649 35.37         5.4 0.34                           298 288 
 PRA  HZ EP        649  1.29                             104     0.0 7  304 207 
 PRA  HN ES   1    649 34.63                             104     0.6 5  304 207 
                                                                                
