 2010 1121 0905 43.5 L   6.784 -73.113141.8  RSN 12 0.4 2.2LRSN                1
 GAP=162        0.74       2.9     6.1  5.4 -0.6577E+01  0.5233E+01  0.6216E+00E
 Epicentro: LOS SANTOS - SANTANDER                                             3
 ACTION:UP  10-12-17 16:54 OP:REBC STATUS:               ID:20101121090543 L   I
 2010-11-21-0903-01S.COL___131                                                 6
 STAT SP IPHASW D HRMM SECON CODA AMPLIT PERI AZIMU VELO SNR AR TRES W  DIS CAZ7
 BTL  SZ EP        9 6  3.00                             171     0.310   23 311 
 BAR2 SZ EP   1    9 6  2.71                             170     0.0 7   23 200 
 BAR2 SZ ES   1    9 6 17.26                             170    -0.3 7   23 200 
 BAR2 SZ I         9 6 18.62        46.8 0.23                            23 200 
 BRR  HZ IP     D  9 6  4.49                             150     0.010   75 298 
 BRR  HE ES   1    9 6 21.18                             150     0.4 7   75 298 
 BRR  HZ I         9 6 25.87        56.6 0.13                            75 298 
 RUS  HZ EP   1    9 6  6.60                             144    -0.1 7   99 178 
 RUS  HN ES   1    9 6 24.77                             144    -0.1 7   99 178 
 RUS  HZ I         9 6 27.08        12.8 0.31                            99 178 
 GRA  SZ IP        9 6  8.58                             136     0.110  126  16 
 GRA  SZ I         9 6  9.85        25.0 0.20                           126  16 
 GRA  SZ ES   1    9 6 28.39                             136     0.5 7  126  16 
 OCA  SZ IP        9 6 11.28                             128    -0.5 9  162 352 
 OCA  SZ ES   1    9 6 33.21                             128    -0.5 7  162 352 
 OCA  SZ I         9 6 36.93        28.4 0.20                           162 352 
 NOR  SZ EP   2    9 6 19.27                             117     0.0 4  237 235 
 NOR  SN ES   2    9 6 46.70                             117    -0.4 4  237 235 
 CHI  HZ EP   2    9 6 20.46                             116    -0.5 4  248 196 
 CHI  HE ES   2    9 6 49.56                             116    -0.5 4  248 196 
 CHI  HZ I         9 6 53.40         4.9 0.48                           248 196 
 ROSC BZ EP   2    9 6 22.44                             116     1.0 4  253 212 
 ROSC BZ I         9 6 58.57         7.5 0.35                           253 212 
 HEL  HZ EP   2    9 6 23.38                             114    -0.5 4  275 256 
 HEL  HZ I         9 6 59.72         5.6 0.27                           275 256 
 RREF HZ EP   2    9 6 30.08                             110     0.4 3  323 230 
 RREF HN ES   2    9 7  5.93                             110     0.2 3  323 230 
 RREF HZ I         9 7 14.60         6.6 0.42                           323 230 
 PRA  HZ EP   1    9 6 37.13                             106     0.2 4  392 210 
 PRA  HE ES   1    9 7 18.92                             106     0.3 4  392 210 
                                                                                
