 2017  521 0754  5.2 L   5.826 -73.731116.4  RSN  9 0.4 1.4LRSN                1
 GAP=108        1.08       4.2     3.2  6.7  0.3160E+01 -0.1799E+01  0.2504E+01E
 Epicentro: JESUS MARIA - SANTANDER                                            3
 ACTION:UPD 17-06-16 13:37 OP:jn   STATUS:               ID:20170521075405 L   I
 OLDACT:UP  17-05-21 16:20 OP:edw  STATUS:               ID:20170521074743     3
 OLDACT:REG 17-05-21 14:57 OP:edw  STATUS:               ID:20170521074743     3
 2017-05-21-0748-00M.COL___356                                                 6
 STAT SP IPHASW D HRMM SECON CODA AMPLIT PERI AZIMU VELO AIN AR TRES W  DIS CAZ7
 SPBC HZ EP     C  754 21.88                             159    0.1410 42.4 243 
 SPBC HN ES        754 34.49                             159   -0.1710 42.4 243 
 SPBC HZ I         754 36.63        11.3 0.36            161           42.4 243 
 RUS  HZ EP     C  754 24.20                             146    0.1910 72.1  84 
 RUS  HN ES        754 39.01                             146    0.3210 72.1  84 
 RUS  HZ I         754 40.39         2.4 0.42            147           72.1  84 
 PTB  HZ EP     C  754 26.14                             133   -0.4210  113 315 
 PTB  HN ES        754 42.90                             133   -0.3410  113 315 
 PTB  HZ I         754 44.38         3.5 0.32            134            113 315 
 NOR  HN ES        754 46.49                             128    0.3810  129 257 
 CHI  HN ES   4    754 44.96                             128   -2.51 0  132 180 
 BRR  HZ EP        754 29.27                             126   -0.03 9  142   1 
 BRR  HN ES        754 47.86                             126   -0.26 9  142   1 
 BRR  HZ I         754 52.58         3.1 0.38            126            142   1 
 YPLC HZ EP        754 31.59                             122    0.64 9  157 108 
 YPLC HN ES   4    754 52.51                             122    1.45 0  157 108 
 YPLC HZ I         754 54.45         7.5 0.28            124            157 108 
 HEL  HZ EP        754 37.16                             115    0.91 9  203 282 
 HEL  HE ES   4    755  2.08                             115    1.59 0  203 282 
 HEL  HZ I         755  4.88         3.7 0.26            117            203 282 
 PTGC HZ EP        754 40.91                             110   -0.45 8  252 135 
 PTGC HN ES        755  8.82                             110   -0.76 8  252 135 
 CBOC HE ES        755  9.51                             110   -0.48 8  253 271 
                                                                                
