 2012  621 0324 16.1 L   6.772 -73.138156.0  RSN  6 0.4 2.0LRSN                1
 GAP=156        0.68       7.9     7.5  8.7 -0.5322E+00  0.8140E+01  0.1917E+02E
 Epicentro: LOS SANTOS - SANTANDER                                             3
 ACTION:UPD 12-08-06 17:51 OP:ep   STATUS:               ID:20120621032416 L   I
 2012-06-21-0320-00M.COL___199                                                 6
 STAT SP IPHASW D HRMM SECON CODA AMPLIT PERI AZIMU VELO AIN AR TRES W  DIS CAZ7
 BAR2 SZ EP        324 36.80                             172   -0.0610 20.4 194 
 BAR2 SZ I         324 59.11        10.4 0.40                          20.4 194 
 BRR  HZ EP        324 38.74                             154    0.3010 73.5 300 
 BRR  HZ I         324 38.92        20.3 0.12                          73.5 300 
 BRR  HN ES   1    324 56.33                             154    0.43 7 73.5 300 
 PAM  SN ES   3    324 56.78                             152   -0.97 2 79.3  38 
 PTB  HZ EP        324 43.67                             134   -0.23 9  148 260 
 PTB  HN ES   2    325  5.01                             134   -0.60 5  148 260 
 OCA  HN ES   2    325  7.71                             131   -0.71 5  163 353 
 OCA  HZ I         325 14.35        16.6 0.34                           163 353 
 ZAR  HZ EP        324 49.53                             124    0.14 8  206 293 
 ZAR  HE ES   3    325 14.39                             124   -0.99 2  206 293 
                                                                                
