 2012 1221 0748  2.8 L   6.781 -73.146142.0  RSN  9 0.5 2.1LRSN                1
 GAP=137        1.13       5.6     6.2  8.5 -0.4229E+01  0.9068E+01  0.7175E+01E
 Epicentro: LOS SANTOS - SANTANDER                                             3
 ACTION:UPD 13-01-04 14:29 OP:ep   STATUS:               ID:20121221074802 L   I
 2012-12-21-0740-00M.COL___243                                                 6
 STAT SP IPHASW D HRMM SECON CODA AMPLIT PERI AZIMU VELO AIN AR TRES W  DIS CAZ7
 BAR2 SZ EP        748 22.11                             171    0.2010 21.2 191 
 BAR2 SZ ES   1    748 36.60                             171   -0.24 7 21.2 191 
 BAR2 SZ I         748 38.57        42.8 0.21                          21.2 191 
 GIR2 SZ EP   1    748 22.35                             166    0.29 7 33.4 351 
 BRR  HZ EP        748 23.90                             152    0.3210 72.2 300 
 BRR  HN ES        748 40.58                             152    0.7810 72.2 300 
 BRR  HZ I         748 43.22         9.1 0.40                          72.2 300 
 PAM  SZ EP        748 24.88                             150    0.1810 79.1  39 
 PAM  SZ I         748 25.32        22.1 0.26                          79.1  39 
 PAM  SE ES        748 41.55                             150   -0.2410 79.1  39 
 RUS  HZ EP        748 26.11                             144    0.1110 98.5 176 
 RUS  HN ES   1    748 43.82                             144   -0.30 7 98.5 176 
 RUS  HZ I         748 46.66        43.4 0.94                          98.5 176 
 PTB  HZ EP        748 28.62                             131   -0.78 9  147 260 
 PTB  HN ES   1    748 49.51                             131   -0.65 7  147 260 
 PTB  HZ I         748 55.08         9.7 0.27                           147 260 
 OCA  HN ES   1    748 52.09                             128   -0.92 7  162 353 
 ROSC BZ EP   4    748 42.07                             116    1.58 0  251 211 
 ROSC BZ I         748 43.90        11.3 0.55                           251 211 
 HEL  HZ EP   1    748 43.39                             114    0.66 6  271 256 
 HEL  HZ I         749 22.07         5.1 0.42                           271 256 
                                                                                
