 2016  421 0403 31.7 L   6.795 -73.213138.0  RSN  4 0.2 1.1LRSN                1
 GAP=145        0.58       3.8     3.5  5.7 -0.5675E+01  0.8175E+01 -0.6625E+01E
 Epicentro: ZAPATOCA - SANTANDER                                               3
 ACTION:UPD 16-05-05 14:23 OP:rebc STATUS:               ID:20160421040331 L   I
 OLDACT:ARG 16-04-21 12:49 OP:cara STATUS:               ID:20160421035743     3
 2016-04-21-0357-43M.COL___301                                                 6
 STAT SP IPHASW D HRMM SECON CODA AMPLIT PERI AZIMU VELO AIN AR TRES W  DIS CAZ7
 BAR2 EZ EP        4 3 50.10                             170   -0.2410 22.6 171 
 BAR2 EZ ES        4 4  5.17                             170    0.2510 22.6 171 
 BAR2 EZ I         4 4  6.16         3.4 0.18            172           22.6 171 
 PAM  EZ IP        4 3 53.40                             148    0.0010 82.8  43 
 PAM  EE ES        4 4 10.30                             148   -0.0510 82.8  43 
 PAM  EZ I         4 4 12.82         3.6 0.62            150           82.8  43 
 RUS  HE ES        4 4 12.56                             142   -0.0610  101 172 
 RUS  HZ I         4 4 13.92         1.4 0.34            146            101 172 
 PTB  HZ EP        4 3 57.67                             132    0.35 9  140 258 
 PTB  HN ES        4 4 17.11                             132   -0.23 9  140 258 
 PTB  HZ I         4 4 20.74         2.4 0.16            133            140 258 
                                                                                
