 2012 1021 0159 41.4 L   6.819 -73.100153.3  RSN  4 0.1 1.4LRSN                1
 GAP=141        0.37       3.0     4.3  5.0  0.1948E+01  0.2097E+01  0.5777E+01E
 Epicentro: LOS SANTOS - SANTANDER                                             3
 ACTION:UPD 12-11-22 17:05 OP:ep   STATUS:               ID:20121021015941 L   I
 2012-10-21-0154-50M.COL___204                                                 6
 STAT SP IPHASW D HRMM SECON CODA AMPLIT PERI AZIMU VELO AIN AR TRES W  DIS CAZ7
 BAR2 SZ EP   2    2 0  2.04                             170    0.07 5 26.7 200 
 BAR2 SZ I         2 0  2.28         6.3 0.20                          26.7 200 
 PAM  SE ES   1    2 0 21.85                             154   -0.02 8 72.6  37 
 PAM  SZ I         2 0 22.43         3.9 0.27                          72.6  37 
 BRR  HZ EP   1    2 0  3.33                             153   -0.20 8 74.8 295 
 BRR  HZ I         2 0  5.69         3.6 0.13                          74.8 295 
 BRR  HN ES   1    2 0 20.92                             153    0.10 8 74.8 295 
 RUS  HZ EP        2 0  6.10                             145    0.1110  102 179 
 RUS  HN ES   1    2 0 25.09                             145   -0.11 7  102 179 
 RUS  HN I         2 0 26.62         2.9 0.26                           102 179 
                                                                                
