 2015 1021 0702 32.5 L   6.792 -73.146153.7  RSN  5 0.3 1.7LRSN                1
 GAP=197        0.79       3.9     6.7 10.0 -0.6016E+01 -0.1820E+02  0.7182E+01E
 Epicentro: LOS SANTOS - SANTANDER                                             3
 ACTION:UPD 15-12-22 20:41 OP:cam  STATUS:               ID:20151021070232 L   I
 OLDACT:REG 15-10-21 12:23 OP:mh   STATUS:               ID:20151021065746     3
 2015-10-21-0657-46M.COL___322                                                 6
 STAT SP IPHASW D HRMM SECON CODA AMPLIT PERI AZIMU VELO AIN AR TRES W  DIS CAZ7
 BAR2 EZ EP        7 2 52.95                             171   -0.1110 22.4 190 
 BAR2 EZ I         7 3 10.40         7.6 0.24            167           22.4 190 
 BRR  HN ES        7 3 11.42                             154   -0.2910 71.6 299 
 OCA  HZ EP   1    7 3  0.88                             131   -0.63 7  161 353 
 OCA  HN ES        7 3 24.68                             131    0.53 9  161 353 
 OCA  HZ I         7 3 28.94         8.0 0.22            127            161 353 
 SPBC HZ EP   1    7 3  1.85                             131    0.31 7  162 219 
 SPBC HN ES        7 3 24.39                             131    0.18 9  162 219 
 SPBC HZ I         7 3 26.38         5.0 0.28            128            162 219 
 ZAR  HE ES        7 3 31.19                             124   -0.05 9  204 292 
 ZAR  HZ I         7 3 37.74         3.8 0.36            123            204 292 
                                                                                
