 2010  821 0643 45.8 L   6.794 -73.031144.8  RSN 13 0.4 2.1LRSN                1
 GAP=172        0.91       3.4     6.3  6.6 -0.8241E+01  0.8805E+01  0.2480E+01E
 Epicentro: CEPITA - SANTANDER                                                 3
 ACTION:UP  10-09-07 10:57 OP:vdl  STATUS:               ID:20100821064345 L   I
 2010-08-21-0642-13S.COL___120                                                 6
 STAT SP IPHASW D HRMM SECON CODA AMPLIT PERI AZIMU VELO SNR AR TRES W  DIS CAZ7
 BAR2 SZ EP        644  5.40                             169    -0.110   28 217 
 BAR2 SZ ES   1    644 20.36                             169    -0.4 7   28 217 
 BAR2 SZ I         644 22.15        23.4 0.35                            28 217 
 BTL  SZ EP        644  5.52                             168     0.010   30 298 
 GIR2 SZ EP   1    644  5.67                             165     0.1 7   36 330 
 BRR  HZ IP     C  644  7.28                             148    -0.310   83 295 
 BRR  HZ I         644  7.58        42.5 0.18                            83 295 
 BRR  HE ES   1    644 24.81                             148     0.3 7   83 295 
 RUS  HZ EP        644  9.58                             144     0.110  100 183 
 RUS  HN ES   1    644 28.10                             144     0.2 7  100 183 
 RUS  HZ I         644 29.26        10.0 0.41                           100 183 
 GUE  SZ EP        644 11.26                             139     0.910  115   6 
 GRA  SZ EP   1    644 10.18                             137    -0.6 7  123  12 
 GRA  SZ ES        644 29.88                             137    -0.410  123  12 
 GRA  SZ I         644 32.80         9.6 0.36                           123  12 
 OCA  SZ EP   1    644 14.13                             129    -0.2 7  163 349 
 OCA  SZ ES   1    644 36.77                             129     0.2 7  163 349 
 OCA  SZ I         644 41.67        20.2 0.24                           163 349 
 CHI  HZ EP   1    644 23.45                             116    -0.4 6  252 198 
 CHI  HN ES   2    644 53.52                             116     0.1 4  252 198 
 CHI  HZ I         644 58.67         5.3 0.40                           252 198 
 HEL  HZ EP        644 27.33                             113     0.0 7  284 257 
 HEL  HE ES   2    644 58.92                             113    -0.8 4  284 257 
 HEL  HZ I         645  4.41         4.4 0.43                           284 257 
 GUY  SZ EP   2    644 30.37                             111    -0.2 3  311 236 
 GUY  SN ES   2    645  5.85                             111     0.4 3  311 236 
 GUY  SZ I         645 10.99        14.8 0.79                           311 236 
 RREF HZ EP   2    644 33.12                             110     0.1 3  331 231 
 RREF HN ES   1    645 10.37                             110     0.6 5  331 231 
 RREF HZ I         645 14.78         6.4 0.49                           331 231 
 PRA  HZ EP   2    644 39.77                             106    -0.2 3  398 211 
 PRA  HN ES   1    645 21.70                             106    -0.6 4  398 211 
 PRA  HZ I         645 25.14         5.5 0.41                           398 211 
                                                                                
