 2013  221 0534 38.8 L   6.853 -73.289124.9  RSN  4 0.4 1.4LRSN                1
 GAP=179        0.80       8.8    17.5  8.0  0.1352E+03 -0.6869E+02 -0.3531E+02E
 Epicentro: ZAPATOCA - SANTANDER                                               3
 ACTION:UPD 13-03-12 09:34 OP:ep   STATUS:               ID:20130221053438 L   I
 2013-02-21-0530-00M.COL___238                                                 6
 STAT SP IPHASW D HRMM SECON CODA AMPLIT PERI AZIMU VELO AIN AR TRES W  DIS CAZ7
 BAR2 SZ IP     C  534 56.25                             165    0.1010 31.1 158 
 BAR2 SZ ES   1    535  9.46                             165   -0.21 7 31.1 158 
 BAR2 SZ I         535 10.82        11.2 0.22             47           31.1 158 
 BRR  HZ EP        534 56.69                             155   -0.0810 54.5 301 
 BRR  HN ES        535 10.70                             155   -0.0810 54.5 301 
 BRR  HZ I         535 11.89         3.4 0.51             47           54.5 301 
 RUS  HZ EP        535  1.45                             137    0.2310  109 168 
 RUS  HN I         535 15.85         5.0 0.91             47            109 168 
 SML  HZ EP   1    535 12.06                             114   -0.99 6  232 338 
 SML  HE ES        535 40.25                             114    0.49 8  232 338 
                                                                                
