 2012 1121 0139  0.5 L   6.771 -73.155147.7  RSN  5 0.4 1.7LRSN                1
 GAP=137        0.90       6.2     5.6  8.8 -0.3717E+01 -0.4378E+00  0.8760E+01E
 Epicentro: LOS SANTOS - SANTANDER                                             3
 ACTION:UPD 12-12-05 15:34 OP:}ep  STATUS:               ID:20121121013900 L   I
 2012-11-21-0130-00M.COL___233                                                 6
 STAT SP IPHASW D HRMM SECON CODA AMPLIT PERI AZIMU VELO AIN AR TRES W  DIS CAZ7
 BAR2 SZ EP   1    139 19.93                             172   -0.33 7 20.0 189 
 BRR  HZ EP        139 22.26                             153    0.4010 71.9 301 
 BRR  HE ES        139 38.96                             153    0.4110 71.9 301 
 BRR  HZ I         139 45.96         9.6 0.51                          71.9 301 
 PAM  SZ EP        139 23.18                             150    0.1110 80.5  39 
 PAM  SZ I         139 23.50        17.7 0.20                          80.5  39 
 PAM  SN ES   1    139 40.02                             150   -0.68 7 80.5  39 
 RUS  HZ EP   1    139 24.48                             145    0.30 7 97.4 175 
 RUS  HE ES   1    139 42.79                             145    0.11 7 97.4 175 
 RUS  HE I         139 45.31         5.6 0.19                          97.4 175 
 PTB  HZ EP        139 27.11                             133   -0.33 9  146 260 
 PTB  HE ES   1    139 47.88                             133   -0.61 7  146 260 
                                                                                
