 2017  221 0557 12.9 L   6.801 -73.152140.5  RSN 12 0.6 1.7LRSN                1
 GAP=101        1.32       4.8     3.7  6.9  0.1128E+01  0.5006E+01  0.8412E+01E
 Epicentro: LOS SANTOS - SANTANDER                                             3
 ACTION:UPD 17-05-24 15:38 OP:jn   STATUS:               ID:20170221055712 L   I
 OLDACT:UP  17-02-21 17:28 OP:dani STATUS:               ID:20170221054743     3
 OLDACT:UP  17-02-21 17:28 OP:dani STATUS:               ID:20170221054743     3
 OLDACT:REG 17-02-21 14:28 OP:dani STATUS:               ID:20170221054743     3
 2017-02-21-0548-00M.COL___379                                                 6
 STAT SP IPHASW D HRMM SECON CODA AMPLIT PERI AZIMU VELO AIN AR TRES W  DIS CAZ7
 BAR2 EZ IP     C  557 31.79                             170   -0.0610 23.3 188 
 BAR2 EZ ES        557 45.80                             170   -0.8610 23.3 188 
 BAR2 EZ I         557 48.56         9.7 0.26            168           23.3 188 
 BRR  HZ EP     C  557 33.53                             152    0.1310 70.5 299 
 BRR  HN ES        557 50.42                             152    1.0010 70.5 299 
 BRR  HZ I         557 53.30         7.1 0.14            151           70.5 299 
 PAM  EZ IP     D  557 34.71                             150    0.1710 77.8  40 
 PAM  EE ES        557 51.39                             150   -0.0610 77.8  40 
 PAM  EZ I         557 52.02        10.3 0.36            154           77.8  40 
 RUS  HZ EP        557 35.97                             143   -0.1310  101 176 
 RUS  HN ES        557 54.34                             143    0.1110  101 176 
 RUS  HZ I         557 55.85         4.8 0.30            143            101 176 
 PTB  HZ EP        557 38.21                             131   -1.13 9  147 259 
 PTB  HN ES        557 59.29                             131   -0.70 9  147 259 
 PTB  HZ I         558  2.78         5.9 0.14            130            147 259 
 TAM  HZ EP        557 40.33                             129    0.14 9  156 105 
 TAM  HE ES        558  1.94                             129    0.43 9  156 105 
 ZAR  HZ EP        557 44.37                             121   -0.52 9  203 292 
 ZAR  HN ES        558  9.92                             121    0.04 9  203 292 
 ZAR  HZ I         558 15.74        11.7 0.36            122            203 292 
 NOR  HZ EP        557 48.04                             117   -0.19 8  234 234 
 NOR  HE ES        558 16.37                             117    0.56 8  234 234 
 NOR  HZ I         558 21.59         4.7 0.38            118            234 234 
 CHI  HZ EP        557 51.14                             116    0.88 8  249 195 
 CHI  HN ES        558 19.59                             116    0.17 8  249 195 
 CHI  HZ I         558 25.89         1.3 0.35            117            249 195 
 HEL  HZ EP   3    557 53.80                             114    1.07 2  271 256 
 HEL  HN ES        558 24.67                             114    0.84 8  271 256 
 HEL  HZ I         558 31.20         3.6 0.36            114            271 256 
 PTGC HZ EP        557 55.76                             110   -0.76 7  309 159 
 PTGC HE ES   3    558 29.02                             110   -1.56 2  309 159 
 PTGC HZ I         558 31.30         3.0 0.43            112            309 159 
 CBOC HZ EP        557 59.82                             109    0.34 7  333 252 
                                                                                
