 2010  621 0703 21.8 L   6.812 -73.092137.3  RSN  7 0.5 1.9LRSN                1
 GAP=161        0.86       4.6    10.8 10.6 -0.1593E+01 -0.3305E+02 -0.1292E+02E
 Epicentro: LOS SANTOS - SANTANDER                                             3
 ACTION:UP  10-08-24 10:12 OP:vdl  STATUS:               ID:20100621070321 L   I
 2010-06-21-0702-30S.COL___118                                                 6
 STAT SP IPHASW D HRMM SECON CODA AMPLIT PERI AZIMU VELO SNR AR TRES W  DIS CAZ7
 BAR2 SZ EP        7 3 40.41                             169    -0.110   26 203 
 BAR2 SZ ES   2    7 3 54.85                             169    -0.2 5   26 203 
 BRR  HZ EP        7 3 42.41                             149     0.110   76 296 
 BRR  HZ I         7 3 42.80        24.7 0.09                            76 296 
 BRR  HE ES   2    7 3 58.96                             149     0.6 5   76 296 
 RUS  HZ EP        7 3 44.70                             142    -0.110  102 179 
 RUS  HN ES   2    7 4  2.36                             142    -0.4 5  102 179 
 BRI  SZ EP        7 3 45.05                             140     0.410  105  18 
 GUE  SZ EP   3    7 3 43.84                             138    -1.7 2  114   9 
 GRA  SZ EP        7 3 46.32                             136     0.310  123  15 
 GRA  SZ ES   2    7 4  4.95                             136     0.0 5  123  15 
 OCA  SZ EP        7 3 49.03                             128    -0.4 9  160 351 
 OCA  SZ ES   2    7 4  9.73                             128    -1.2 5  160 351 
 OCA  SZ I         7 4 14.16         6.2 0.27                           160 351 
                                                                                
