 2011  121 0510 17.1 L   6.846 -73.234142.0  RSN  4 0.2 1.3LRSN                1
 GAP=190        0.45       6.0    22.3  7.8 -0.8700E+02  0.8954E+02 -0.2091E+02E
 Epicentro: ZAPATOCA - SANTANDER                                               3
 ACTION:UP  11-02-08 08:41 OP:pat  STATUS:               ID:20110121051017 L   I
 2011-01-21-0507-18S.COL___137                                                 6
 STAT SP IPHASW D HRMM SECON CODA AMPLIT PERI AZIMU VELO SNR AR TRES W  DIS CAZ7
 BAR2 SZ ES   2    510 51.50                             168     0.0 5   29 169 
 BAR2 SZ I         510 53.26         7.1 0.17                            29 169 
 RUS  HZ EP   1    510 40.71                             142    -0.2 7  107 171 
 RUS  HN ES   1    510 59.71                             142     0.2 7  107 171 
 RUS  HZ I         511  1.02         3.3 0.40                           107 171 
 GRA  SZ EP   2    510 41.96                             137     0.1 5  124  22 
 GRA  SZ I         511  3.50         1.9 0.22                           124  22 
 CHI  HZ EP   2    510 55.22                             116     0.3 4  251 193 
 CHI  HE ES   2    511 24.21                             116    -0.1 4  251 193 
 CHI  HZ I         511 27.80         1.5 0.76                           251 193 
                                                                                
