 2013 1121 0610 45.9 L   6.796 -73.123147.3  RSN  7 0.5 1.5LRSN                1
 GAP=185        1.04       4.6     6.4  8.6  0.1073E+02  0.1619E+01 -0.8717E+01E
 Epicentro: LOS SANTOS - SANTANDER                                             3
 ACTION:UPD 14-01-09 16:29 OP:ep   STATUS:               ID:20131121061045 L   I
 OLDACT:UP  13-11-21 13:26 OP:mh   STATUS:               ID:20131121061000     3
 OLDACT:REG 13-11-21 09:45 OP:mh   STATUS:               ID:20131121061000     3
 2013-11-21-0610-00M.COL___282                                                 6
 STAT SP IPHASW D HRMM SECON CODA AMPLIT PERI AZIMU VELO AIN AR TRES W  DIS CAZ7
 BAR2 SZ EP   1    611  6.32                             171    0.57 7 23.5 196 
 BAR2 SZ ES   1    611 20.60                             171   -0.61 7 23.5 196 
 BAR2 SZ I         611 22.40         9.3 0.23            102           23.5 196 
 BRR  HN ES        611 24.52                             152    0.4110 73.6 298 
 RUS  HZ EP        611 10.14                             144    0.3410  100 177 
 RUS  HN ES        611 28.31                             144   -0.1010  100 177 
 RUS  HZ I         611 30.60         1.6 0.33            102            100 177 
 PTB  HZ EP        611 13.12                             132   -0.12 9  150 259 
 PTB  HN ES        611 33.98                             132   -0.56 9  150 259 
 PTB  HZ I         611 36.45         2.2 0.10             99            150 259 
 OCA  HN ES   1    611 36.59                             130   -0.07 7  161 352 
 ZAR  HZ EP   4    611 20.95                             122    2.22 0  207 292 
 ZAR  HN ES        611 44.70                             122    0.39 8  207 292 
 ZAR  HZ I         617 40.46         5.6 0.07             98            207 292 
 SML  HZ EP   1    611 21.58                             118   -1.22 6  245 335 
 SML  HN ES        611 51.76                             118    0.21 8  245 335 
 SML  HZ I         612  0.50         3.7 0.07             99            245 335 
                                                                                
