 2011  321 0159 58.7 L   6.746 -73.147152.5  RSN  4 0.4 1.4LRSN                1
 GAP=182        0.94       5.3     8.6 10.0 -0.1177E+02  0.3994E+02 -0.1001E+02E
 Epicentro: JORDAN - SANTANDER                                                 3
 ACTION:UP  11-06-16 14:34 OP:jfem STATUS:               ID:20110321015958 L   I
 2011-03-21-0155-24S.COL___132                                                 6
 STAT SP IPHASW D HRMM SECON CODA AMPLIT PERI AZIMU VELO SNR AR TRES W  DIS CAZ7
 BAR2 SZ EP        2 0 18.60                             173    -0.510   18 193 
 BAR2 SZ ES   1    2 0 34.99                             173     0.1 7   18 193 
 BAR2 SZ I         2 0 35.45         4.4 0.28                            18 193 
 RUS  HZ EP        2 0 22.78                             147     0.010   95 176 
 RUS  HN ES        2 0 41.62                             147     0.210   95 176 
 RUS  HZ I         2 0 42.86         2.0 0.15                            95 176 
 OCA  SZ EP   2    2 0 27.55                             130    -0.6 5  166 353 
 OCA  SZ ES   1    2 0 51.38                             130     0.4 7  166 353 
 OCA  SZ I         2 0 54.15         5.6 0.33                           166 353 
 NOR  SZ EP        2 0 35.14                             120     0.6 8  231 236 
 NOR  SN ES        2 1  2.03                             120    -0.4 8  231 236 
                                                                                
