 2012  321 0800 34.5 L   6.793 -73.165152.2  RSN  5 0.3 1.1LRSN                1
 GAP=134        0.54       6.0     5.7  9.1 -0.2928E+01  0.4521E+01  0.4802E+01E
 ACTION:UP  12-03-31 23:21 OP:EP   STATUS:               ID:20120321080034 L   I
 2012-03-21-0800-00M.COL___202                                                 6
 STAT SP IPHASW D HRMM SECON CODA AMPLIT PERI AZIMU VELO SNR AR TRES W  DIS CAZ7
 BAR2 SZ EP   2    8 0 54.62                             171    -0.2 5   22 185 
 BRR  HZ EP   1    8 0 56.61                             154     0.4 7   70 300 
 BRR  HZ I         8 0 56.79         4.3 0.17                            70 300 
 BRR  HN ES   2    8 1 13.60                             154     0.4 5   70 300 
 PAM  SZ EP   2    8 0 57.38                             151    -0.1 5   79  40 
 PAM  SE ES   2    8 1 15.09                             151    -0.4 5   79  40 
 RUS  HZ EP   2    8 0 58.90                             145     0.1 5  100 175 
 RUS  HZ I         8 1 17.58         1.3 0.81                           100 175 
 RUS  HN ES   2    8 1 17.96                             145     0.1 5  100 175 
 PTB  HZ EP   2    8 1  1.49                             134    -0.3 5  146 259 
 PTB  HN ES   2    8 1 22.59                             134    -0.5 5  146 259 
 PTB  HZ I         8 1 27.96         1.6 0.72                           146 259 
                                                                                
