 2017  821 0837  8.5 L   6.785 -73.139146.0  RSN 14 0.6 1.7LRSN                1
 GAP= 99        1.13       3.7     3.8  5.8 -0.4773E+00  0.3751E+01  0.6323E+01E
 Epicentro: LOS SANTOS - SANTANDER                                             3
 ACTION:UPD 17-09-04 20:22 OP:rebc STATUS:               ID:20170821083708 L   I
 OLDACT:UP  17-08-21 17:59 OP:osc  STATUS:               ID:20170821082744d    3
 OLDACT:UP  17-08-21 17:55 OP:osc  STATUS:               ID:20170821082744d    3
 OLDACT:DUP 17-08-21 17:50 OP:osc  STATUS:               ID:20170821082744d    3
 OLDACT:UP  17-08-21 17:48 OP:osc  STATUS:               ID:20170821082743     3
 OLDACT:UP  17-08-21 17:44 OP:osc  STATUS:               ID:20170821082743     3
 OLDACT:REG 17-08-21 13:28 OP:osc  STATUS:               ID:20170821082743     3
 2017-08-21-0828-00M.COL___411                                                 6
 STAT SP IPHASW D HRMM SECON CODA AMPLIT PERI AZIMU VELO AIN AR TRES W  DIS CAZ7
 BAR2 EZ EP        837 27.88                             171   -0.2910 21.9 193 
 BAR2 EZ ES        837 42.84                             171   -0.6410 21.9 193 
 BAR2 EZ I         837 46.41         9.2 0.21            170           21.9 193 
 BRR  HZ EP        837 29.76                             152   -0.0310 72.6 299 
 BRR  HE ES        837 47.03                             152    0.6610 72.6 299 
 BRR  HZ I         837 49.91         8.7 0.40            152           72.6 299 
 PAM  EZ EP        837 30.87                             150    0.0410 78.2  38 
 PAM  EN ES        837 48.10                             150   -0.1110 78.2  38 
 PAM  EZ I         837 50.10        15.9 0.46            154           78.2  38 
 RUS  HZ EP        837 32.82                             144    0.6310 98.9 176 
 RUS  HN ES        837 50.65                             144    0.0110 98.9 176 
 RUS  HZ I         837 51.76         7.6 0.34            146           98.9 176 
 TAM  HZ EP        837 36.33                             130    0.20 9  154 104 
 SPBC HZ EP        837 37.15                             129    0.17 9  162 220 
 SPBC HE ES        837 58.77                             129   -0.39 9  162 220 
 SPBC HZ I         838  1.47        10.1 0.32            130            162 220 
 ZAR  HZ EP        837 41.99                             122    0.86 8  205 292 
 ZAR  HN ES        838  5.76                             122   -0.79 8  205 292 
 ZAR  HZ I         838 11.71         5.4 0.20            123            205 292 
 NOR  HZ EP        837 44.58                             118    0.34 8  234 235 
 NOR  HE ES        838 12.48                             118    0.39 8  234 235 
 NOR  HZ I         838 17.47         3.3 0.26            120            234 235 
 CHI  HZ EP        837 46.16                             117    0.06 8  247 195 
 CHI  HN ES        838 15.88                             117    0.48 8  247 195 
 CHI  HZ I         838 18.91         3.2 0.40            119            247 195 
 HEL  HN ES        838 20.01                             114   -0.19 8  272 256 
 URE  HE ES   2    838 19.87                             113   -2.05 4  285 292 
 GUY2CHZ EP        837 52.21                             112    0.09 7  301 235 
 GUY2CHE ES   4    838 28.27                             112    2.16 0  301 235 
 GUY2CHZ I         838 38.11         2.7 0.36                           301 235 
 PTGC HZ EP        837 51.34                             111   -0.86 7  307 159 
 PTGC HN ES   2    838 24.80                             111   -1.46 4  307 159 
 PRA  HZ EP        838  1.71                             106   -0.23 6  391 210 
 PRA  HE ES        838 43.35                             106   -0.25 6  391 210 
 SJC  HZ EP   4    838  1.88                             105   -2.43 0  411 327 
 SJC  HN ES   4    838 45.68                             105   -2.14 0  411 327 
                                                                                
