 2017  121 0328 44.4 L   6.711 -73.456124.8  RSN  4 0.1 1.2LRSN                1
 GAP=146        0.46       3.1     2.7  3.8  0.3855E+01  0.2321E+01  0.2673E+01E
 Epicentro: EL CARMEN - SANTANDER                                              3
 ACTION:UPD 17-05-22 16:01 OP:jn   STATUS:               ID:20170121032844 L   I
 OLDACT:UP  17-01-21 15:56 OP:dani STATUS:               ID:20170121032741     3
 OLDACT:UP  17-01-21 15:56 OP:dani STATUS:               ID:20170121032741     3
 OLDACT:UP  17-01-21 15:55 OP:dani STATUS:               ID:20170121032741     3
 OLDACT:REG 17-01-21 12:28 OP:dani STATUS:               ID:20170121032741     3
 2017-01-21-0328-00M.COL___342                                                 6
 STAT SP IPHASW D HRMM SECON CODA AMPLIT PERI AZIMU VELO AIN AR TRES W  DIS CAZ7
 BAR2 EZ EP        329  1.53                             164   -0.2210 33.0 113 
 BAR2 EZ ES        329 15.26                             164   -0.0610 33.0 113 
 BAR2 EZ I         329 16.07         9.0 0.48            171           33.0 113 
 BRR  HZ EP        329  2.33                             156    0.1310 52.1 327 
 BRR  HE ES        329 16.17                             156    0.0610 52.1 327 
 BRR  HZ I         329 20.47         4.4 0.25            156           52.1 327 
 RUS  HZ EP        329  5.92                             139   -0.1110 99.5 155 
 RUS  HE ES        329 23.12                             139    0.1910 99.5 155 
 RUS  HZ I         329 23.89         1.4 0.24            144           99.5 155 
 PTB  HZ EP        329  6.59                             135    0.1610  112 260 
 PTB  HN ES        329 23.48                             135   -0.1610  112 260 
 PTB  HZ I         329 29.53         3.7 0.25            135            112 260 
 ZAR  HN ES   4    329 37.10                             121    2.32 0  177 299 
                                                                                
