 2012  221 0633 40.2 L   6.744 -73.161150.6  RSN  7 0.4 1.6LRSN                1
 GAP=137        0.75       5.4     5.9  6.2  0.2794E+01  0.4147E+00  0.5672E+01E
 ACTION:UP  12-03-07 16:32 OP:epov STATUS:               ID:20120221063340 L   I
 2012-02-21-0630-00M.COL___191                                                 6
 STAT SP IPHASW D HRMM SECON CODA AMPLIT PERI AZIMU VELO AIN AR TRES W  DIS CAZ7
 BAR2 SZ EP   1    633 59.96                             173   -0.36 7 17.0 188 
 BAR2 SZ ES   1    634 15.46                             173   -0.53 7 17.0 188 
 BAR2 SZ I         634 16.99        11.0 0.35                          17.0 188 
 GIR2 SZ EP   1    634  0.63                             166    0.00 7 37.2 355 
 GIR2 SZ ES   1    634 16.89                             166    0.34 7 37.2 355 
 BRR  HZ EP   1    634  2.02                             153    0.04 7 72.9 303 
 BRR  HZ I         634  2.31        22.5 0.13                          72.9 303 
 BRR  HE ES   1    634 19.55                             153    0.60 7 72.9 303 
 PAM  SZ EP   1    634  3.06                             150   -0.24 7 83.3  38 
 RUS  HZ EP   1    634  3.92                             146   -0.11 7 94.6 175 
 RUS  HN ES   1    634 22.86                             146    0.26 7 94.6 175 
 RUS  HZ I         634 24.03         3.6 0.30                          94.6 175 
 PTB  HZ EP   1    634  7.24                             134   -0.09 7  145 261 
 PTB  HN ES   1    634 28.01                             134   -0.47 7  145 261 
 CHI  HZ EP   1    634 18.25                             119    0.76 6  242 195 
 CHI  HZ I         634 20.83         1.5 0.40                           242 195 
                                                                                
