 2011 1121 0156 51.5 L   6.777 -73.147148.3  RSN  7 0.4 2.1LRSN                1
 GAP=137        0.82       3.9     5.3  7.2  0.4626E+00  0.7997E+01  0.2686E+00E
 Epicentro: LOS SANTOS - SANTANDER                                             3
 ACTION:UPD 12-07-13 16:11 OP:ep   STATUS:               ID:20111121015651 L   I
 2011-11-21-0154-14S.COL___178                                                 6
 STAT SP IPHASW D HRMM SECON CODA AMPLIT PERI AZIMU VELO AIN AR TRES W  DIS CAZ7
 BAR2 SZ EP        157 11.46                             172    0.0310 20.7 191 
 BAR2 SZ ES   1    157 26.32                             172   -0.62 7 20.7 191 
 BAR2 SZ I         157 28.30        22.8 0.24                          20.7 191 
 BRR  HZ EP   1    157 13.37                             153    0.34 7 72.3 300 
 BRR  HE ES   1    157 30.79                             153    1.00 7 72.3 300 
 BRR  HZ I         157 33.12        28.9 0.09                          72.3 300 
 PAM  SZ EP   1    157 14.42                             151    0.26 7 79.5  38 
 PAM  SE ES   1    157 31.63                             151   -0.16 7 79.5  38 
 RUS  HZ EP        157 15.34                             145   -0.0310 98.0 176 
 RUS  HE ES   1    157 34.08                             145    0.14 7 98.0 176 
 RUS  HZ I         157 37.10        13.3 0.50                          98.0 176 
 OCA  SZ EP   1    157 20.12                             130   -0.17 7  163 353 
 OCA  SZ ES   1    157 42.27                             130   -0.44 7  163 353 
 OCA  SZ I         157 46.79        24.6 0.37                           163 353 
 ZAR  HZ EP   2    157 24.49                             123    0.25 4  205 293 
 ZAR  HN ES   1    157 49.30                             123   -0.44 6  205 293 
 ZAR  HZ I         157 56.21         9.9 0.24                           205 293 
 RREF HN ES   1    158 13.06                             111   -0.45 5  320 230 
                                                                                
