 2016  421 0114  5.9 L   6.839 -73.267141.6  RSN  5 0.3 1.2LRSN                1
 GAP=153        0.75       4.2     4.1  6.4 -0.7506E+01  0.7134E+01 -0.3424E+01E
 Epicentro: ZAPATOCA - SANTANDER                                               3
 ACTION:UPD 16-05-05 14:23 OP:rebc STATUS:               ID:20160421011405 L   I
 OLDACT:DUP 16-04-21 14:05 OP:cara STATUS:               ID:20160421010746d    3
 OLDACT:ARG 16-04-21 12:49 OP:cara STATUS:               ID:20160421010745     3
 2016-04-21-0107-45M.COL___304                                                 6
 STAT SP IPHASW D HRMM SECON CODA AMPLIT PERI AZIMU VELO AIN AR TRES W  DIS CAZ7
 BAR2 EZ IP        114 25.40                             168    0.2910 28.9 161 
 BAR2 EZ ES        114 40.48                             168    0.3410 28.9 161 
 BAR2 EZ I         114 41.06         3.9 0.32            169           28.9 161 
 PAM  EZ EP        114 28.03                             148    0.0110 83.6  49 
 PAM  EZ I         114 28.30         4.1 0.22            152           83.6  49 
 PAM  EE ES        114 45.17                             148   -0.1410 83.6  49 
 RUS  HZ EP        114 29.38                             141   -0.2810  107 169 
 RUS  HN ES        114 47.92                             141   -0.3010  107 169 
 RUS  HZ I         114 49.60         1.8 0.38            142            107 169 
 PTB  HZ EP        114 31.60                             134    0.21 9  136 256 
 PTB  HE ES        114 50.88                             134   -0.42 9  136 256 
 PTB  HZ I         114 55.81         1.5 0.42            133            136 256 
 SPBC HN ES        114 55.56                             129    0.31 9  159 214 
 SPBC HZ I         114 58.85         4.0 0.32            129            159 214 
                                                                                
