 2010  921 0524 46.1 L   6.734 -73.134153.0  RSN  4 0.1 1.4LRSN                1
 GAP=212        0.39       7.6    11.2  4.4  0.6920E+02 -0.1391E+02 -0.1258E+02E
 Epicentro: JORDAN - SANTANDER                                                 3
 ACTION:UP  11-02-18 11:04 OP:tino STATUS:               ID:20100921052446 L   I
 2010-09-21-0522-47S.COL___121                                                 6
 STAT SP IPHASW D HRMM SECON CODA AMPLIT PERI AZIMU VELO SNR AR TRES W  DIS CAZ7
 BAR2 SZ EP   3    525  6.44                             174    -0.1 2   17 199 
 BAR2 SZ ES        525 22.38                             174    -0.110   17 199 
 BAR2 SZ I         525 22.89         7.1 0.29                            17 199 
 BTL  SZ EP        525  6.79                             170     0.110   25 324 
 BRR  HZ EP        525  8.20                             152    -0.210   76 303 
 BRR  HZ I         525  8.48         6.9 0.12                            76 303 
 BRR  HN ES   1    525 25.80                             152     0.1 7   76 303 
 RUS  HZ EP   2    525 10.30                             147     0.2 5   93 177 
 RUS  HN ES   2    525 28.75                             147    -0.1 5   93 177 
 RUS  HZ I         525 30.29         1.5 0.41                            93 177 
                                                                                
