 2014 1221 0646 43.9 L   6.342 -73.565114.4  RSN  8 0.4 1.2LRSN                1
 GAP= 83        0.93       3.2     3.1  6.8 -0.2198E+01  0.2023E+01 -0.1585E+00E
 Epicentro: SANTA HELENA DEL OPON - SANTANDER                                  3
 ACTION:UPD 15-02-10 17:06 OP:nd   STATUS:               ID:20141221064643 L   I
 OLDACT:DUP 14-12-21 17:46 OP:spq  STATUS:               ID:20141221063746d    3
 2014-12-21-0637-45M.COL___299                                                 6
 STAT SP IPHASW D HRMM SECON CODA AMPLIT PERI AZIMU VELO AIN AR TRES W  DIS CAZ7
 BAR2 EZ EP        647  1.07                             155    0.2010 50.6  57 
 BAR2 EZ ES   1    647 14.30                             155    0.21 7 50.6  57 
 BAR2 EZ I         647 15.25         5.4 0.44            156           50.6  57 
 RUS  HZ EP        647  2.54                             145   -0.0510 72.9 133 
 RUS  HE ES   1    647 16.80                             145   -0.36 7 72.9 133 
 RUS  HZ I         647 20.47         2.0 0.28            147           72.9 133 
 BRR  HZ EP        647  2.86                             140   -0.0210 86.2 349 
 BRR  HN ES        647 18.08                             140    0.4110 86.2 349 
 BRR  HZ I         647 18.35         4.1 0.60            142           86.2 349 
 SPBC HZ EP        647  4.16                             137    0.4710 94.7 216 
 SPBC HN ES        647 19.37                             137    0.2510 94.7 216 
 SPBC HZ I         647 20.68         5.4 0.22            138           94.7 216 
 PTB  HZ EP        647  3.67                             135   -0.4510  101 283 
 PTB  HN ES        647 19.04                             135   -0.8410  101 283 
 PTB  HZ I         647 20.04         4.3 0.16            136            101 283 
 PAM  SZ EP        647  8.77                             124   -0.21 9  146  41 
 PAM  SE ES        647 28.36                             124   -0.17 9  146  41 
 PAM  SZ I         647 29.75         2.1 0.18            126            146  41 
 NOR  HZ EP        647 10.72                             120    0.02 9  168 239 
 NOR  HE ES   1    647 31.72                             120    0.14 7  168 239 
 NOR  HZ I         647 35.05         1.7 0.25            121            168 239 
 ZAR  HN ES        647 36.40                             116    0.47 9  191 312 
 ZAR  HZ I         647 40.61         2.7 0.30            118            191 312 
                                                                                
