 2012  721 0420 16.0 L   6.803 -73.144146.7  RSN 14 0.5 2.4LRSN                1
 GAP=137        1.01       3.7     4.7  6.8 -0.2142E+01  0.8106E+01  0.4407E+01E
 Epicentro: LOS SANTOS - SANTANDER                                             3
 ACTION:UPD 12-08-14 11:46 OP:ep   STATUS:               ID:20120721042016 L   I
 2012-07-21-0420-00M.COL___215                                                 6
 STAT SP IPHASW D HRMM SECON CODA AMPLIT PERI AZIMU VELO AIN AR TRES W  DIS CAZ7
 BAR2 SZ EP        420 35.75                             170     0.010   24 190 
 BAR2 SZ ES   1    420 50.98                             170    -0.2 7   24 190 
 BAR2 SZ I         420 53.44        48.4 0.45            166             24 190 
 BRR  HZ EP        420 37.64                             153     0.410   71 298 
 BRR  HN ES   1    420 54.47                             153     0.6 7   71 298 
 BRR  HZ I         420 58.64        67.6 0.15            150             71 298 
 PAM  SZ IP        420 38.50                             151     0.210   77  40 
 PAM  SE ES   1    420 55.73                             151     0.0 7   77  40 
 RUS  HZ EP        420 39.66                             144    -0.210  101 176 
 RUS  HN ES   1    420 58.51                             144     0.0 7  101 176 
 PTB  HZ EP        420 42.29                             132    -0.8 9  148 259 
 PTB  HN ES   1    421  3.30                             132    -0.9 7  148 259 
 PTB  HZ I         421 11.15        25.2 0.42            131            148 259 
 OCA  HZ EP   1    420 43.83                             130    -0.5 7  160 353 
 OCA  HN ES   1    421  6.25                             130    -0.2 7  160 353 
 OCA  HZ I         421  9.95        65.7 0.26            134            160 353 
 ZAR  HZ EP   1    420 48.60                             123     0.1 6  204 292 
 ZAR  HN ES   1    421 13.95                             123     0.1 6  204 292 
 ZAR  HZ I         421 19.86        24.9 0.34            123            204 292 
 NOR  SZ EP   1    420 51.64                             119    -0.2 6  235 234 
 NOR  SN ES   1    421 20.09                             119     0.3 6  235 234 
 CHI  HZ EP   1    420 54.08                             117     0.3 6  249 195 
 CHI  HN ES   1    421 22.91                             117    -0.4 6  249 195 
 CHI  HZ I         421 33.21         9.9 0.56            119            249 195 
 ROSC BN ES   1    421 24.46                             117     0.4 6  253 211 
 ROSC BZ I         421 33.57        22.3 0.43            118            253 211 
 HEL  HZ EP   1    420 57.53                             115     1.2 6  272 256 
 HEL  HN ES   1    421 27.60                             115    -0.1 6  272 256 
 HEL  HZ I         421 35.28         8.8 0.50            116            272 256 
 VIL  SZ ES   2    421 33.77                             112     0.3 4  304 192 
 TOL  SZ EP   1    421  4.99                             109     0.7 5  344 225 
 PRA  HZ EP   1    421  9.10                             107    -0.5 4  392 210 
