 2010  521 0329 43.4 L   6.844 -73.209139.2  RSN  5 0.4 1.7LRSN                1
 GAP=181        0.58       5.9    18.0  9.7 -0.4743E+02  0.4386E+02 -0.1515E+02E
 Epicentro: ZAPATOCA - SANTANDER                                               3
 ACTION:UP  10-08-24 10:06 OP:vdl  STATUS:               ID:20100521032943 L   I
 2010-05-21-0326-16S.COL___111                                                 6
 STAT SP IPHASW D HRMM SECON CODA AMPLIT PERI AZIMU VELO SNR AR TRES W  DIS CAZ7
 BAR2 SZ EP   1    330  2.31                             168     0.0 7   28 174 
 BAR2 SZ ES   2    330 17.20                             168     0.1 5   28 174 
 BRI  SZ EP   2    330  5.91                             140    -0.6 5  107  25 
 BRI  SZ ES   2    330 24.37                             140    -0.2 5  107  25 
 GUE  SZ EP   2    330  7.99                             139     0.7 5  113  16 
 GRA  SZ EP   2    330  7.63                             136    -0.2 5  123  21 
 GRA  SZ ES   2    330 27.39                             136     0.4 5  123  21 
 OCA  SZ EP   2    330 10.98                             129     0.3 5  155 355 
 OCA  SZ ES   2    330 31.65                             129    -0.3 5  155 355 
 OCA  SZ I         330 37.82         6.0 0.25                           155 355 
                                                                                
