 2013  221 0842 26.2 L   6.801 -73.156147.2  RSN 15 0.4 2.4LRSN                1
 GAP= 71        0.75       2.6     2.7  4.6  0.2483E+00  0.2601E+01  0.1405E+01E
 Epicentro: LOS SANTOS - SANTANDER                                             3
 ACTION:UPD 13-03-12 09:34 OP:ep   STATUS:               ID:20130221084226 L   I
 2013-02-21-0840-00M.COL___238                                                 6
 STAT SP IPHASW D HRMM SECON CODA AMPLIT PERI AZIMU VELO AIN AR TRES W  DIS CAZ7
 BAR2 SZ EP        842 46.10                             171    0.0610 23.2 187 
 BAR2 SZ ES   1    843  1.22                             171   -0.26 7 23.2 187 
 BAR2 SZ I         843  4.12        92.6 0.38            157           23.2 187 
 BRR  HZ EP     D  842 47.98                             153    0.5010 70.2 299 
 BRR  HE ES   1    843  4.63                             153    0.58 7 70.2 299 
 BRR  HZ I         843  8.52        31.1 0.28            137           70.2 299 
 PAM  SZ EP        842 48.88                             151    0.2410 78.0  40 
 PAM  SN ES   1    843  6.21                             151    0.09 7 78.0  40 
 PAM  SZ I         843  8.44        52.1 0.50            134           78.0  40 
 RUS  HZ EP   1    842 49.95                             144   -0.19 7  101 175 
 RUS  HN ES   1    843  8.58                             144   -0.21 7  101 175 
 RUS  HZ I         843 11.23        25.4 0.26            121            101 175 
 PTB  HZ EP   1    842 52.71                             132   -0.51 7  147 259 
 PTB  HN ES   1    843 13.83                             132   -0.44 7  147 259 
 PTB  HZ I         843 17.08        35.0 0.13            113            147 259 
 TAM  HZ IP     D  842 54.24                             131    0.11 9  156 105 
 TAM  HZ I         843 15.15        15.6 0.32            111            156 105 
 TAM  HN ES   1    843 15.93                             131    0.04 7  156 105 
 OCA  HZ EP   1    842 54.39                             130   -0.25 7  160 354 
 OCA  HN ES   1    843 16.26                             130   -0.53 7  160 354 
 OCA  HZ I         843 22.09        31.3 0.26            112            160 354 
 ZAR  HZ EP   1    842 58.37                             123   -0.30 6  203 292 
 ZAR  HN ES   1    843 24.24                             123    0.28 6  203 292 
 ZAR  HZ I         843 32.68        23.3 0.24            106            203 292 
 SML  HZ EP   1    843  2.56                             118   -0.33 6  243 336 
 SML  HE ES   1    843 30.95                             118   -0.52 6  243 336 
 SML  HZ I         843 36.57        37.3 0.10            103            243 336 
 CHI  HZ EP   1    843  4.08                             117    0.09 6  248 195 
 CHI  HN ES   1    843 32.71                             117   -0.73 6  248 195 
 CHI  HZ I         843 38.88        11.7 0.30            102            248 195 
 ROSC BZ EP   1    843  4.72                             117    0.34 6  252 211 
 ROSC BZ I         843 43.82        27.3 0.45            102            252 211 
 HEL  HZ EP   1    843  7.20                             115    0.79 6  271 256 
 HEL  HN ES   1    843 38.53                             115    0.80 6  271 256 
 HEL  HZ I         843 44.26        11.1 0.24            101            271 256 
 URE  HZ EP   1    843  6.81                             114   -0.45 6  283 292 
 URE  HZ I         843 49.62        17.9 0.20            101            283 292 
 VIL  SZ EP   1    843  9.84                             112    0.13 5  303 191 
 VIL  SZ I         843 53.43        18.0 0.42            100            303 191 
 RREF HZ EP   1    843 12.55                             111    0.20 5  321 229 
 RREF HN ES   1    843 47.86                             111   -0.46 5  321 229 
 RREF HZ I         843 57.01        17.6 0.22             99            321 229 
                                                                                
