 2016  521 0323 11.1 L   6.781 -73.156142.0  RSN 11 0.4 2.1LRSN                1
 GAP=136        0.93       2.9     3.5  4.9 -0.1732E+01  0.5667E+01  0.7217E+00E
 Epicentro: LOS SANTOS - SANTANDER                                             3
 ACTION:UPD 16-08-18 17:47 OP:cam  STATUS:               ID:20160521032311 L   I
 OLDACT:UP  16-05-21 15:51 OP:mh   STATUS:               ID:20160521031747d    3
 OLDACT:DUP 16-05-21 15:27 OP:mh   STATUS:               ID:20160521031747d    3
 2016-05-21-0317-46M.COL___295                                                 6
 STAT SP IPHASW D HRMM SECON CODA AMPLIT PERI AZIMU VELO AIN AR TRES W  DIS CAZ7
 BAR2 EZ EP        323 30.14                             171   -0.1110 21.0 188 
 BAR2 EZ ES        323 45.23                             171    0.0510 21.0 188 
 BRR  HZ EP        323 31.84                             152   -0.0310 71.3 300 
 BRR  HN ES        323 48.58                             152    0.5310 71.3 300 
 BRR  HZ I         323 54.00        20.1 0.63            150           71.3 300 
 PAM  EZ EP        323 33.09                             149    0.0110 79.7  39 
 PAM  EN ES        323 50.24                             149    0.0310 79.7  39 
 PAM  EZ I         323 52.25        14.4 0.46            154           79.7  39 
 RUS  HZ EP        323 34.45                             144    0.1010 98.5 175 
 RUS  HN ES        323 52.42                             144   -0.0610 98.5 175 
 PTB  HZ EP        323 36.91                             131   -0.74 9  146 260 
 PTB  HN ES        323 57.91                             131   -0.43 9  146 260 
 PTB  HZ I         324  0.72        20.7 0.18            132            146 260 
 SPBC HZ EP        323 39.52                             129    0.41 9  161 219 
 SPBC HN ES        324  0.86                             129   -0.08 9  161 219 
 SPBC HZ I         324  8.05        11.5 0.20            130            161 219 
 OCA  HZ EP        323 39.88                             128    0.55 9  162 354 
 OCA  HN ES        324  0.50                             128   -0.84 9  162 354 
 OCA  HZ I         324  3.37        48.4 0.30            131            162 354 
 ZAR  HZ EP        323 43.42                             122    0.12 9  204 293 
 ZAR  HE ES        324  9.09                             122    0.68 9  204 293 
 ZAR  HZ I         324 12.87        14.7 0.32            123            204 293 
 HEL  HZ EP        323 50.85                             114   -0.12 8  271 256 
 HEL  HN ES        324 21.61                             114   -0.44 8  271 256 
 HEL  HZ I         324 30.50         5.3 0.36            116            271 256 
 CBOC HZ EP        323 57.98                             109    0.29 7  332 252 
 CBOC HN ES   1    324 34.35                             109    0.34 5  332 252 
 PRA  HZ EP        324  3.99                             106   -0.24 6  390 210 
 PRA  HN ES        324 45.86                             106    0.20 6  390 210 
 PRA  HZ I         324 50.49         3.4 0.52            108            390 210 
                                                                                
