 2010  221 0431 34.1 L   6.854 -73.006147.5  RSN 13 0.5 2.7LRSN                1
 GAP=197        0.96       4.1     8.6  6.2 -0.7227E+00  0.1973E+02  0.4630E+01E
 Epicentro: CEPITA - SANTANDER                                                 3
 ACTION:UP  10-08-24 09:50 OP:vdl  STATUS:               ID:20100221043134 L   I
 2010-02-21-0429-53S.COL___094                                                 6
 STAT SP IPHASW D HRMM SECON CODA AMPLIT PERI AZIMU VELO SNR AR TRES W  DIS CAZ7
 GIR2 SZ IP        431 54.30                             167     0.310   32 320 
 GIR2 SZ ES   2    432  9.53                             167     0.0 5   32 320 
 BAR2 SZ IP        431 54.33                             166     0.110   35 214 
 BAR2 SZ ES   1    432  8.87                             166    -1.0 7   35 214 
 BRR  HZ IP        431 56.09                             149     0.010   83 290 
 BRR  HN ES   1    432 13.46                             149     0.2 7   83 290 
 BRR  HZ I         432 16.92        77.1 0.12                            83 290 
 RUS  BZ EP        431 58.34                             142    -0.110  107 185 
 RUS  BE ES   1    432 17.34                             142    -0.1 7  107 185 
 RUS  BZ I         432 18.48        43.8 0.38                           107 185 
 OCA  SZ EP        432  2.39                             130     0.2 9  157 347 
 OCA  SZ ES   2    432 24.01                             130    -0.1 5  157 347 
 OCA  SZ I         432 28.67       111.1 0.29                           157 347 
 CHI  HZ EP   2    432 12.28                             116    -0.7 4  259 198 
 CHI  HN ES   1    432 44.13                             116     0.8 6  259 198 
 ROSC BZ EP        432 14.14                             116     0.4 8  266 213 
 ROSC BN ES   2    432 45.73                             116     1.1 4  266 213 
 HEL  HZ EP        432 16.64                             113     0.5 7  288 255 
 HEL  HN ES   3    432 48.82                             113    -0.2 2  288 255 
 HEL  HZ I         432 55.17        24.7 0.43                           288 255 
 RREF BZ EP        432 22.20                             110     0.1 7  337 230 
 RREF BE ES   3    432 59.78                             110     0.3 2  337 230 
 RREF BZ I         433  7.89        18.5 0.39                           337 230 
 DBB  SZ EP        432 22.58                             109    -0.8 6  354 273 
 TOL  SZ EP        432 24.17                             109     0.0 6  359 226 
 ANIL BZ EP        432 24.72                             108    -1.0 6  372 226 
 ANIL BE ES   3    433  4.79                             108    -1.2 2  372 226 
 ANIL BZ I         433  9.31        31.5 0.27                           372 226 
 PRA  HZ EP        432 28.41                             106    -0.7 6  405 211 
 PRA  HE ES   3    433 11.63                             106    -0.5 1  405 211 
 PRA  HZ I         433 17.13         9.5 0.21                           405 211 
                                                                                
