 2016  421 0236  4.1 L   6.803 -73.183140.9  RSN  9 0.2 1.9LRSN                1
 GAP=132        0.63       2.1     2.5  4.1 -0.1423E+01  0.4338E+01 -0.1021E+01E
 Epicentro: ZAPATOCA - SANTANDER                                               3
 ACTION:UPD 16-05-05 14:23 OP:rebc STATUS:               ID:20160421023604 L   I
 OLDACT:ARG 16-04-21 12:49 OP:cara STATUS:               ID:20160421022748     3
 2016-04-21-0227-48M.COL___304                                                 6
 STAT SP IPHASW D HRMM SECON CODA AMPLIT PERI AZIMU VELO AIN AR TRES W  DIS CAZ7
 BAR2 EZ IP        236 23.15                             170   -0.0310 23.3 180 
 BAR2 EZ ES        236 37.84                             170   -0.2010 23.3 180 
 BAR2 EZ I         236 39.32        23.4 0.26            171           23.3 180 
 PAM  EZ EP     D  236 26.14                             149    0.1510 79.9  42 
 PAM  EZ I         236 26.43        23.7 0.26            153           79.9  42 
 PAM  EN ES        236 43.45                             149    0.4110 79.9  42 
 RUS  HZ IP        236 27.03                             143   -0.4310  101 174 
 RUS  HN ES        236 45.84                             143    0.1810  101 174 
 RUS  HZ I         236 47.13         8.5 0.24            146            101 174 
 PTB  HZ EP        236 30.12                             132   -0.22 9  144 258 
 PTB  HN ES        236 50.58                             132   -0.20 9  144 258 
 PTB  HZ I         236 52.22        10.0 0.26            131            144 258 
 OCA  HZ EP        236 32.13                             129    0.13 9  160 355 
 OCA  HE ES        236 53.27                             129   -0.46 9  160 355 
 OCA  HZ I         236 58.63        15.5 0.28            130            160 355 
 SPBC HZ EP        236 31.94                             128   -0.10 9  161 218 
 SPBC HN ES        236 53.87                             128    0.06 9  161 218 
 SPBC HZ I         237  0.69        13.8 0.24            129            161 218 
 ZAR  HZ EP        236 36.13                             122    0.28 9  200 293 
 ZAR  HN ES        237  0.74                             122    0.14 9  200 293 
 ZAR  HZ I         237  8.64         8.1 0.36            122            200 293 
 HEL  HZ EP   4    236 44.97                             114    1.31 0  268 256 
 HEL  HN ES        237 14.65                             114    0.16 8  268 256 
 HEL  HZ I         237 23.32         4.6 0.38            115            268 256 
 GUY2CHZ EP        236 47.25                             112    0.10 7  298 234 
 GUY2CHN ES        237 20.97                             112    0.26 7  298 234 
 GUY2CHZ I         237 28.80         3.0 0.32                           298 234 
                                                                                
