 2013  321 0917  2.0 L   6.798 -73.150144.2  RSN  5 0.3 1.8LRSN                1
 GAP=136        0.79       3.5     4.3  7.3  0.2022E+01  0.7531E+01 -0.4743E+00E
 Epicentro: LOS SANTOS - SANTANDER                                             3
 ACTION:UPD 13-04-09 14:04 OP:ep   STATUS:               ID:20130321091000 L   I
 2013-03-21-0910-00M.COL___245                                                 6
 STAT SP IPHASW D HRMM SECON CODA AMPLIT PERI AZIMU VELO AIN AR TRES W  DIS CAZ7
 BRR  HZ EP        917 23.36                             152    0.4410 70.9 299 
 BRR  HN ES        917 39.60                             152    0.3410 70.9 299 
 BRR  HN I         917 44.20        11.5 0.14            150           70.9 299 
 PAM  SZ EP        917 24.39                             150    0.3510 77.9  40 
 PAM  SN ES        917 40.97                             150   -0.2910 77.9  40 
 PAM  SN I         917 42.26        12.7 0.46            155           77.9  40 
 RUS  HZ EP   1    917 25.37                             143   -0.17 7  100 176 
 RUS  HN ES        917 43.76                             143   -0.1710  100 176 
 RUS  HN I         917 46.05         5.6 0.50            146            100 176 
 OCA  HN ES        917 51.96                             129   -0.21 9  160 353 
 OCA  HN I         917 54.15        16.1 0.20            132            160 353 
 ZAR  HZ EP   1    917 33.80                             122   -0.46 6  204 292 
 ZAR  HN ES        917 59.16                             122   -0.30 9  204 292 
 ZAR  HN I         918  6.60         4.9 0.16            123            204 292 
                                                                                
