 2012  121 0901  7.0 L   6.850 -73.291119.8  RSN 11 0.3 2.3LRSN                1
 GAP=107        0.69       2.3     2.9  4.0 -0.3266E+00  0.3870E+01  0.9617E+00E
 Epicentro: ZAPATOCA - SANTANDER                                               3
 ACTION:UP  12-02-03 08:19 OP:REBC STATUS:               ID:20120121090107 L   I
 2012-01-21-0900-00M.COL___186                                                 6
 STAT SP IPHASW D HRMM SECON CODA AMPLIT PERI AZIMU VELO SNR AR TRES W  DIS CAZ7
 BAR2 SZ IP        9 1 24.03                             165     0.310   31 157 
 BAR2 SZ ES        9 1 36.87                             165     0.010   31 157 
 BAR2 SZ I         9 1 38.32       195.7 0.42                            31 157 
 BRR  HZ IP     D  9 1 24.42                             154     0.010   55 301 
 BRR  HZ I         9 1 24.82        77.9 0.11                            55 301 
 BRR  HE ES        9 1 38.23                             154     0.210   55 301 
 PAM  SZ EP        9 1 27.08                             143     0.010   85  50 
 PAM  SE ES   1    9 1 42.80                             143     0.1 7   85  50 
 RUS  HZ EP        9 1 28.70                             135    -0.310  108 168 
 RUS  HN ES        9 1 46.02                             135    -0.110  108 168 
 RUS  HZ I         9 1 47.53        20.9 0.21                           108 168 
 OCA  SZ EP        9 1 32.76                             124     0.0 9  154 359 
 OCA  SZ ES   1    9 1 52.23                             124    -0.6 7  154 359 
 OCA  SZ I         9 1 53.81        41.6 0.50                           154 359 
 ZAR  HZ EP   1    9 1 36.00                             118    -0.1 7  187 292 
 ZAR  HE ES   1    9 1 59.00                             118     0.2 7  187 292 
 ZAR  HZ I         9 2  4.27        17.4 0.26                           187 292 
 NOR  SZ EP   1    9 1 40.60                             113     0.3 6  225 231 
 NOR  SN ES   1    9 2  5.99                             113    -0.3 6  225 231 
 CHI  HZ EP        9 1 43.83                             111     0.2 8  250 191 
 CHI  HZ I         9 1 45.22         8.3 0.14                           250 191 
 HEL  HZ EP   1    9 1 44.85                             110     0.4 6  258 254 
 HEL  HN ES   1    9 2 13.21                             110    -0.4 6  258 254 
 RREF HZ EP   1    9 1 52.00                             106     0.8 5  314 227 
 RREF HN ES   1    9 2 25.06                             106    -0.6 5  314 227 
 RREF HZ I         9 2 32.19         5.2 0.32                           314 227 
 PRA  HZ EP   1    9 1 59.33                             102    -0.1 4  389 207 
                                                                                
