 2016  421 0715  0.9 L   6.832 -73.227141.6  RSN  4 0.3 1.1LRSN                1
 GAP=149        0.87       7.5     6.6  7.7 -0.3535E+02  0.1632E+02 -0.5738E+01E
 Epicentro: ZAPATOCA - SANTANDER                                               3
 ACTION:UPD 16-05-05 14:23 OP:rebc STATUS:               ID:20160421071500 L   I
 OLDACT:ARG 16-04-21 12:49 OP:cara STATUS:               ID:20160421070749     3
 2016-04-21-0707-49M.COL___297                                                 6
 STAT SP IPHASW D HRMM SECON CODA AMPLIT PERI AZIMU VELO AIN AR TRES W  DIS CAZ7
 BAR2 EZ ES        715 34.62                             169   -0.4610 26.9 169 
 BAR2 EZ I         715 36.08         3.6 0.20            167           26.9 169 
 PAM  EZ IP        715 23.12                             149    0.2410 81.0  46 
 PAM  EN ES        715 40.22                             149    0.1810 81.0  46 
 PAM  EZ I         715 41.78         3.0 0.20            155           81.0  46 
 PTB  HZ EP        715 26.52                             133   -0.26 9  140 257 
 PTB  HN ES        715 47.05                             133    0.07 9  140 257 
 PTB  HZ I         715 53.15         1.8 0.32            133            140 257 
 SPBC HZ EP        715 28.47                             128   -0.34 9  160 216 
 SPBC HN ES        715 51.17                             128    0.58 9  160 216 
 SPBC HZ I         715 59.92         1.2 0.32            129            160 216 
                                                                                
