 2011  421 0129 24.5 L   6.023 -74.074 84.0  RSN  5 0.4 1.6LRSN                1
 GAP=183        0.94       9.0     7.9 17.2 -0.5789E+02 -0.1498E+02  0.3564E+01E
 Epicentro: LA BELLEZA - SANTANDER                                             3
 ACTION:UP  11-06-22 15:32 OP:REBC STATUS:               ID:20110421012924 L   I
 2011-04-21-0120-00M.COL___141                                                 6
 STAT SP IPHASW D HRMM SECON CODA AMPLIT PERI AZIMU VELO SNR AR TRES W  DIS CAZ7
 NOR  SZ EP        129 42.82                             125     0.410  102 240 
 NOR  SN ES   1    129 56.02                             125    -0.4 7  102 240 
 BAR2 SZ EP        129 43.80                             121    -0.510  117  57 
 BAR2 SZ ES   1    130  0.00                             121     0.4 7  117  57 
 BAR2 SZ I         130  1.31        13.4 0.29                           117  57 
 BRR  HZ EP        129 44.72                             119    -0.210  126  18 
 BRR  HN ES   1    130  1.00                             119     0.1 7  126  18 
 BRR  HZ I         130  1.42        11.7 0.12                           126  18 
 BTL  SZ EP   2    129 46.86                             118     0.9 5  133  42 
 HEL  HZ EP   3    129 49.67                             113     0.3 2  162 277 
 HEL  HZ I         130 14.03         4.0 0.48                           162 277 
                                                                                
