 2014  121 0225 42.5 L   6.838 -73.149139.5  RSN 16 0.4 1.8LRSN                1
 GAP= 70        0.88       2.5     3.5  5.4 -0.1433E+01  0.6571E+01 -0.1708E+01E
 Epicentro: LOS SANTOS - SANTANDER                                             3
 ACTION:UPD 14-03-13 09:57 OP:ep   STATUS:               ID:20140121022542 L   I
 OLDACT:DUP 14-01-21 07:39 OP:nd   STATUS:               ID:20140121022001d    3
 2014-01-21-0220-00M.COL___279                                                 6
 STAT SP IPHASW D HRMM SECON CODA AMPLIT PERI AZIMU VELO AIN AR TRES W  DIS CAZ7
 BAR2 SZ EP        226  1.61                             168    0.1710 27.4 188 
 BAR2 SZ ES        226 15.82                             168   -0.4210 27.4 188 
 BAR2 SZ I         226 17.81        31.3 0.20            168           27.4 188 
 BRR  HZ IP     C  226  3.31                             152    0.4910 69.0 296 
 BRR  HN ES   2    226 19.11                             152    0.42 5 69.0 296 
 BRR  HZ I         226 23.92        11.6 0.22            151           69.0 296 
 PAM  SZ EP        226  4.34                             151    0.4910 74.5  42 
 PAM  SE ES        226 21.00                             151    0.4810 74.5  42 
 PAM  SZ I         226 23.36        22.0 0.50            155           74.5  42 
 RUS  HZ EP        226  5.94                             141    0.0110  105 176 
 RUS  HN ES        226 23.83                             141   -0.3910  105 176 
 RUS  HZ I         226 25.83         3.6 0.26            144            105 176 
 PTB  HZ EP        226  8.59                             130   -0.39 9  148 257 
 PTB  HN ES        226 29.95                             130    0.29 9  148 257 
 PTB  HZ I         226 32.08         8.6 0.20            131            148 257 
 OCA  HZ EP        226  9.70                             129   -0.20 9  156 353 
 OCA  HN ES        226 30.79                             129   -0.51 9  156 353 
 OCA  HZ I         226 37.74         5.8 0.42            131            156 353 
 TAM  HZ IP   3 D  226 10.04                             129    0.24 2  157 106 
 TAM  HN ES   3    226 30.88                             129   -0.24 2  157 106 
 TAM  HZ I         226 32.03         5.2 0.34            133            157 106 
 SPBC HZ EP   2    226 10.92                             127    0.13 5  166 218 
 SPBC HN ES   2    226 32.80                             127   -0.08 5  166 218 
 SPBC HZ I         226 38.67         6.0 0.20            128            166 218 
 ZAR  HZ EP   3    226 14.61                             121    0.29 2  202 291 
 ZAR  HN ES        226 39.82                             121    0.66 9  202 291 
 ZAR  HZ I         226 46.52        11.4 0.22            122            202 291 
 NOR  HZ EP        226 18.32                             117    0.25 8  237 234 
 NOR  HN ES        226 45.33                             117   -0.52 8  237 234 
 NOR  HZ I         226 50.26         3.9 0.16            118            237 234 
 SML  HZ EP        226 17.80                             116   -0.52 8  240 335 
 SML  HN ES        226 45.69                             116   -0.60 8  240 335 
 SML  HZ I         226 52.11         7.9 0.30            118            240 335 
 CHI  HZ EP   3    226 20.78                             115    0.52 2  253 195 
 CHI  HN ES   2    226 49.66                             115   -0.08 4  253 195 
 CHI  HZ I         226 58.80         1.9 0.32            117            253 195 
 HEL  HZ EP   4    226 22.64                             113    0.19 0  273 255 
 HEL  HN ES   4    226 53.10                             113   -0.53 0  273 255 
 HEL  HZ I         227  0.15         2.9 0.56            114            273 255 
 URE  HZ EP   4    226 26.12                             112    3.09 0  282 291 
 URE  HN ES   4    226 51.25                             112   -3.42 0  282 291 
 URE  HZ I         226 56.71         6.8 0.14            114            282 291 
 GUY2CHZ EP   2    226 26.55                             111    0.52 4  303 234 
 GUY2CHN ES   2    227  0.52                             111    0.50 4  303 234 
 GUY2CHZ I         227  9.24         1.9 0.56                           303 234 
 SJC  HZ EP   4    226 36.33                             105   -1.06 0  406 327 
 SJC  HN ES   4    227 14.55                             105   -5.69 0  406 327 
 SJC  HZ I         227 21.00         2.0 0.40            106            406 327 
                                                                                
