 2010  821 0831 39.8 L   6.810 -73.114147.0  RSN  4 0.1 1.2LRSN                1
 GAP=162        0.38       3.0     5.6  4.7 -0.6421E-02 -0.1143E+02  0.7197E+00E
 Epicentro: LOS SANTOS - SANTANDER                                             3
 ACTION:UP  10-09-07 10:57 OP:vdl  STATUS:               ID:20100821083139 L   I
 2010-08-21-0828-38S.COL___120                                                 6
 STAT SP IPHASW D HRMM SECON CODA AMPLIT PERI AZIMU VELO SNR AR TRES W  DIS CAZ7
 BTL  SZ EP        831 59.54                             172     0.010   21 305 
 BTL  SZ ES   1    832 14.74                             172    -0.2 7   21 305 
 BRR  HZ EP   1    832  1.07                             152    -0.1 7   74 296 
 BRR  HZ I         832  1.36         7.5 0.13                            74 296 
 BRR  HE ES   1    832 18.08                             152     0.1 7   74 296 
 RUS  HZ EP   1    832  3.65                             144    -0.1 7  102 178 
 RUS  HN ES   2    832 22.63                             144     0.2 5  102 178 
 RUS  HZ I         832 23.95         1.5 0.38                           102 178 
 GRA  SZ EP   1    832  5.12                             138     0.2 7  124  16 
 GRA  SZ ES   2    832 24.54                             138    -0.1 5  124  16 
 GRA  SZ I         832 26.13         1.6 0.40                           124  16 
                                                                                
