 2011  821 0248 49.2 L   6.795 -73.135138.6  RSN  4 0.3 1.3LRSN                1
 GAP=188        0.57       8.8    17.5 12.7  0.1295E+03 -0.1559E+03 -0.6704E+02E
 Epicentro: LOS SANTOS - SANTANDER                                             3
 ACTION:UPD 12-07-13 15:53 OP:ep   STATUS:               ID:20110821024849 L   I
 2011-08-21-0240-00M.COL___154                                                 6
 STAT SP IPHASW D HRMM SECON CODA AMPLIT PERI AZIMU VELO AIN AR TRES W  DIS CAZ7
 BAR2 SZ EP   1    249  7.79                             170   -0.17 7 23.0 193 
 BAR2 SZ I         249  8.31         5.7 0.10                          23.0 193 
 GIR2 SZ EP   1    249  8.14                             166    0.09 7 32.1 348 
 BRR  HZ EP   1    249 10.05                             151    0.39 7 72.5 298 
 BRR  HZ I         249 10.38        10.2 0.10                          72.5 298 
 BRR  HN ES   1    249 25.40                             151   -0.21 7 72.5 298 
 RUS  HZ EP   1    249 11.87                             142   -0.34 7 99.9 177 
 RUS  HZ I         249 12.87         1.1 0.12                          99.9 177 
 RUS  HE ES   1    249 30.39                             142    0.24 7 99.9 177 
                                                                                
