 2016  621 0644  6.8 L   6.674 -73.183145.8  RSN  4 0.3 1.3LRSN                1
 GAP=230        0.67       7.9     4.9  6.4  0.1461E+02  0.6112E+01 -0.4387E+01E
 Epicentro: VILLANUEVA - SANTANDER                                             3
 ACTION:UPD 16-07-21 22:21 OP:rebc STATUS:               ID:20160621064406 L   I
 OLDACT:REG 16-06-21 14:47 OP:ak   STATUS:               ID:20160621063746     3
 2016-06-21-0637-46M.COL___316                                                 6
 STAT SP IPHASW D HRMM SECON CODA AMPLIT PERI AZIMU VELO AIN AR TRES W  DIS CAZ7
 BAR2 EZ EP        644 26.27                             176   -0.0110 9.05 179 
 BAR2 EZ ES        644 41.29                             176   -0.1410 9.05 179 
 BAR2 EZ I         644 43.67         2.3 0.18                          9.05 179 
 BRR  HZ EP        644 28.12                             151   -0.1310 75.5 309 
 BRR  HN ES        644 45.22                             151    0.2810 75.5 309 
 BRR  HZ I         644 45.83         3.8 0.32                          75.5 309 
 PTB  HZ EP   2    644 33.03                             133   -0.23 5  142 264 
 PTB  HN ES        644 54.04                             133    0.18 9  142 264 
 PTB  HZ I         644 56.63         3.0 0.12                           142 264 
 ZAR  HZ EP   2    644 40.47                             122    0.98 4  206 296 
 ZAR  HN ES        645  4.53                             122   -0.42 8  206 296 
 ZAR  HZ I         645 10.03         2.1 0.24                           206 296 
                                                                                
