 2016  421 0040 56.2 L   6.805 -73.222142.8  RSN  4 0.3 1.4LRSN                1
 GAP=146        0.71       4.3     4.1  6.0 -0.5390E+01  0.6650E+01 -0.2721E+01E
 Epicentro: ZAPATOCA - SANTANDER                                               3
 ACTION:UPD 16-05-05 14:22 OP:rebc STATUS:               ID:20160421004056 L   I
 OLDACT:ARG 16-04-21 12:49 OP:cara STATUS:               ID:20160421003748     3
 2016-04-21-0037-48M.COL___304                                                 6
 STAT SP IPHASW D HRMM SECON CODA AMPLIT PERI AZIMU VELO AIN AR TRES W  DIS CAZ7
 BAR2 EZ EP        041 15.18                             170   -0.2610 23.9 169 
 BAR2 EZ ES        041 30.92                             170    0.4410 23.9 169 
 BAR2 EZ I         041 33.44         4.5 0.26            172           23.9 169 
 PAM  EZ IP        041 18.36                             149   -0.0210 82.6  44 
 PAM  EN ES        041 35.59                             149   -0.1310 82.6  44 
 PAM  EZ I         041 37.75         7.0 0.74            151           82.6  44 
 RUS  HZ EP        041 19.84                             143    0.1210  102 171 
 RUS  HN ES        041 37.89                             143   -0.2210  102 171 
 RUS  HZ I         041 39.22         2.9 0.30            146            102 171 
 PTB  HZ EP        041 22.51                             133    0.37 9  140 258 
 PTB  HN ES        041 42.12                             133   -0.29 9  140 258 
 PTB  HZ I         041 45.10         2.8 0.38            135            140 258 
                                                                                
