 2011  221 0451 59.4 L   6.101 -73.845 98.6  RSN  7 0.3 1.3LRSN                1
 GAP=122        0.55       4.0     3.3  8.0 -0.4475E+01  0.1296E+02 -0.8492E+00E
 Epicentro: EL PEON - SANTANDER                                                3
 ACTION:UP  11-03-28 15:09 OP:jfem STATUS:               ID:20110221045159 L   I
 2011-02-21-0449-23S.COL___137                                                 6
 STAT SP IPHASW D HRMM SECON CODA AMPLIT PERI AZIMU VELO SNR AR TRES W  DIS CAZ7
 RUS  HZ EP   1    452 17.46                             136    -0.3 7   87 105 
 RUS  HZ I         452 18.55         3.8 0.16                            87 105 
 RUS  HN ES   1    452 32.01                             136     0.0 7   87 105 
 BAR2 SZ EP        452 17.91                             134     0.210   91  53 
 BAR2 SZ I         452 18.04         6.4 0.10                            91  53 
 BAR2 SZ ES   1    452 31.93                             134    -0.1 7   91  53 
 BTL  SZ EP        452 19.55                             128     0.010  111  35 
 NOR  SZ EP   2    452 20.48                             124    -0.6 5  128 243 
 NOR  SE ES   2    452 38.40                             124     0.5 5  128 243 
 CHI  HZ EP   1    452 25.27                             117     0.0 7  163 176 
 CHI  HZ I         452 54.98         2.3 0.21                           163 176 
 HEL  HZ EP   2    452 27.96                             114     0.2 4  187 273 
 HEL  HE ES   2    452 49.49                             114    -0.4 4  187 273 
 HEL  HZ I         452 55.21         2.4 0.12                           187 273 
 RREF HZ EP   2    452 31.50                             111     0.4 4  213 232 
 RREF HZ I         453  1.30         3.9 0.62                           213 232 
                                                                                
