 2014 1021 0134 17.0 L   6.823 -73.165148.8  RSN 11 0.5 2.1LRSN                1
 GAP=133        1.19       3.8     5.4  7.2 -0.2916E+01  0.5987E+01 -0.3179E+01E
 Epicentro: LOS SANTOS - SANTANDER                                             3
 ACTION:UPD 14-11-29 23:52 OP:nd   STATUS:               ID:20141021013417 L   I
 OLDACT:UP  14-10-21 20:35 OP:mh   STATUS:               ID:20141021012745d    3
 OLDACT:DUP 14-10-21 20:29 OP:mh   STATUS:               ID:20141021012745d    3
 2014-10-21-0127-41M.COL___268                                                 6
 STAT SP IPHASW D HRMM SECON CODA AMPLIT PERI AZIMU VELO AIN AR TRES W  DIS CAZ7
 BAR2 SZ EP        134 37.18                             170    0.1910 25.6 184 
 BAR2 SZ ES        134 52.76                             170    0.1410 25.6 184 
 BAR2 SZ I         134 54.04        26.4 0.28            169           25.6 184 
 BRR  HZ EP        134 39.00                             154    0.7410 68.1 298 
 BRR  HN ES        134 55.67                             154    0.7910 68.1 298 
 BRR  HZ I         134 56.37        19.8 0.34            151           68.1 298 
 PAM  SZ EP        134 39.99                             152    0.5310 76.9  42 
 PAM  SN ES        134 56.82                             152   -0.1910 76.9  42 
 PAM  SZ I         134 59.27        22.9 0.52            155           76.9  42 
 RUS  HZ EP        134 41.16                             144   -0.0310  103 175 
 RUS  HN ES   1    134 59.23                             144   -0.87 7  103 175 
 RUS  HZ I         135  0.89         8.3 0.28            146            103 175 
 PTB  HZ EP        134 44.01                             133   -0.02 9  146 258 
 PTB  HN ES        135  4.70                             133   -0.45 9  146 258 
 PTB  HZ I         135 11.51        11.6 0.20            132            146 258 
 OCA  HZ EP        134 44.53                             131   -0.71 9  158 354 
 OCA  HN ES        135  6.65                             131   -0.66 9  158 354 
 OCA  HZ I         135 12.34         9.1 0.14            132            158 354 
 SPBC HZ EP        134 45.48                             130   -0.26 9  164 218 
 SPBC HN ES        135  8.21                             130    0.01 9  164 218 
 SPBC HZ I         135 12.36        19.4 0.70            130            164 218 
 ZAR  HZ EP   4    134 51.80                             123    2.50 0  201 292 
 ZAR  HN ES   1    135 14.27                             123   -0.26 6  201 292 
 ZAR  HZ I         135 20.05        12.2 0.24            123            201 292 
 SML  HZ EP        134 53.98                             118    0.57 8  241 336 
 SML  HN ES        135 21.59                             118   -0.25 8  241 336 
 SML  HZ I         135 24.15        16.7 0.26            119            241 336 
 GUY2CHZ EP   4    135  1.54                             113    0.87 0  301 234 
 GUY2CHN ES   4    135 38.52                             113    3.75 0  301 234 
 GUY2CHZ I         135 43.05         5.8 0.34                           301 234 
 RREF HZ EP   4    134 58.23                             111   -5.00 0  322 229 
 RREF HN ES   4    135 38.96                             111   -0.37 0  322 229 
 RREF HZ I         135 44.85         7.7 0.38            112            322 229 
                                                                                
