 2011 1121 0451 10.7 L   6.793 -73.108141.1  RSN  7 0.5 1.8LRSN                1
 GAP=142        0.83       4.6     6.3  7.8 -0.9584E+00  0.6547E+01 -0.4911E+01E
 Epicentro: LOS SANTOS - SANTANDER                                             3
 ACTION:UPD 12-07-13 16:11 OP:ep   STATUS:               ID:20111121045110 L   I
 2011-11-21-0448-26S.COL___178                                                 6
 STAT SP IPHASW D HRMM SECON CODA AMPLIT PERI AZIMU VELO AIN AR TRES W  DIS CAZ7
 BAR2 SZ EP   1    451 29.72                             170   -0.10 7 23.7 200 
 BAR2 SZ ES   1    451 44.11                             170   -0.58 7 23.7 200 
 BAR2 SZ I         451 45.89        17.1 0.29                          23.7 200 
 BRR  HZ EP        451 31.79                             150    0.1610 75.2 298 
 BRR  HE ES   1    451 48.72                             150    0.81 7 75.2 298 
 BRR  HZ I         451 50.02        18.4 0.15                          75.2 298 
 PAM  SZ EP   1    451 32.70                             151    0.36 7 75.4  37 
 PAM  SN ES   1    451 49.17                             151   -0.01 7 75.4  37 
 RUS  HZ EP   1    451 33.56                             143   -0.41 7 99.6 178 
 RUS  HN ES   1    451 52.30                             143    0.22 7 99.6 178 
 RUS  HZ I         451 53.25         5.6 0.21                          99.6 178 
 OCA  SZ EP   1    451 38.92                             128    0.10 7  162 352 
 OCA  SZ ES   2    451 59.72                             128   -0.99 5  162 352 
 OCA  SZ I         452  1.74         6.4 0.35                           162 352 
 ZAR  HE ES   2    452  8.42                             121   -0.31 4  208 292 
 NOR  SN ES   2    452 13.71                             117   -0.73 4  238 235 
                                                                                
