 2015  221 0922 27.2 L   6.792 -73.169150.1  RSN  8 0.4 1.4LRSN                1
 GAP=199        1.07       3.9     5.8  6.6  0.2846E+01  0.9083E+01 -0.3493E+01E
 Epicentro: LOS SANTOS - SANTANDER                                             3
 ACTION:UPD 15-04-30 21:28 OP:nd   STATUS:               ID:20150221092227 L   I
 OLDACT:REG 15-02-21 12:49 OP:fm   STATUS:               ID:20150221091741     3
 2015-02-21-0917-41M.COL___284                                                 6
 STAT SP IPHASW D HRMM SECON CODA AMPLIT PERI AZIMU VELO AIN AR TRES W  DIS CAZ7
 BAR2 EZ EP        922 47.99                             171    0.6410 22.1 184 
 BAR2 EZ ES        923  3.15                             171    0.1010 22.1 184 
 BAR2 EZ I         923  5.79         6.5 0.28            169           22.1 184 
 BRR  HZ EP        922 49.02                             154    0.2810 69.4 300 
 BRR  HN ES        923  5.49                             154   -0.0410 69.4 300 
 BRR  HZ I         923  8.67         4.0 0.36            152           69.4 300 
 RUS  HZ EP        922 51.05                             145   -0.3010 99.9 175 
 RUS  HE ES        923  9.60                             145   -0.5710 99.9 175 
 RUS  HZ I         923 12.76         1.4 0.28            147           99.9 175 
 PTB  HZ EP        922 53.54                             133   -0.77 9  145 259 
 PTB  HN ES        923 15.63                             133    0.20 9  145 259 
 PTB  HZ I         923 23.45         4.4 0.50            133            145 259 
 SPBC HZ EP        922 56.10                             130    0.26 9  161 218 
 SPBC HN ES        923 18.33                             130    0.17 9  161 218 
 SPBC HZ I         923 25.56         4.8 0.24            131            161 218 
 SML  HZ EP        923  4.76                             118    0.69 8  243 336 
 SML  HN ES        923 32.45                             118   -0.36 8  243 336 
 SML  HZ I         923 36.33         3.6 0.10            121            243 336 
 GUY2CHZ EP        923 10.35                             113   -0.39 7  299 235 
 GUY2CHE ES        923 45.22                             113    0.54 7  299 235 
 GUY2CHZ I         923 54.70         1.8 0.56                           299 235 
 MON  HN ES        923 53.86                             109   -0.59 6  352 309 
 MON  HZ I         923 55.65         0.6 0.34            111            352 309 
                                                                                
