 2014  221 0550  4.8 L   6.807 -73.134149.6  RSN 10 0.4 1.8LRSN                1
 GAP=138        0.93       3.1     4.0  7.3 -0.1116E+01  0.8946E+01 -0.1129E+01E
 Epicentro: LOS SANTOS - SANTANDER                                             3
 ACTION:UPD 14-03-10 08:11 OP:ep   STATUS:               ID:20140221055004 L   I
 OLDACT:REG 14-02-21 09:25 OP:fm   STATUS:               ID:20140221055000     3
 2014-02-21-0550-00M.COL___213                                                 6
 STAT SP IPHASW D HRMM SECON CODA AMPLIT PERI AZIMU VELO AIN AR TRES W  DIS CAZ7
 PAM  SZ EP        550 27.52                             152    0.2210 76.0  39 
 PAM  SN ES        550 44.88                             152   -0.0010 76.0  39 
 PAM  SZ I         550 47.15        11.0 0.50            155           76.0  39 
 RUS  HZ EP        550 29.01                             144    0.0710  101 177 
 RUS  HN ES        550 47.54                             144   -0.2510  101 177 
 RUS  HZ I         550 48.54         3.8 0.29            146            101 177 
 PTB  HZ EP        550 31.63                             132   -0.54 9  149 259 
 PTB  HN ES        550 52.89                             132   -0.66 9  149 259 
 PTB  HZ I         550 56.13         7.4 0.18            133            149 259 
 OCA  HN ES   4    550 57.61                             130    2.02 0  160 353 
 OCA  HZ I         550 59.63        11.0 0.34            133            160 353 
 SPBC HE ES   1    550 56.41                             129    0.17 7  165 219 
 SPBC HZ I         551  0.90        10.5 0.24            131            165 219 
 ZAR  HZ EP        550 37.43                             123   -0.13 9  205 292 
 ZAR  HN ES        551  3.56                             123    0.43 9  205 292 
 ZAR  HZ I         551  7.54         7.5 0.31            124            205 292 
 NOR  HN ES        551  9.37                             119    0.33 8  236 235 
 NOR  HZ I         551 12.34         5.2 0.39            120            236 235 
 SML  HZ EP   1    550 41.07                             118   -0.52 6  244 335 
 SML  HE ES   1    551 11.35                             118    1.03 6  244 335 
 CHI  HZ EP        550 42.87                             118    0.08 8  250 195 
 CHI  HN ES        551 12.99                             118    0.54 8  250 195 
 CHI  HZ I         551 19.90         2.1 0.20            119            250 195 
 SJC  HZ EP   2    550 59.43                             106   -1.04 3  409 327 
 SJC  HN ES   4    551 42.54                             106   -1.37 0  409 327 
                                                                                
