 2012 1021 0548 39.9 L   7.250 -74.191  4.0  RSN  4 0.3 1.0LRSN                1
 GAP=156        0.59       8.1     3.4  5.3  0.2423E+02  0.4987E+01  0.1043E+02E
 Epicentro: PUERTO WILCHES - SANTANDER                                         3
 ACTION:UPD 12-11-22 17:05 OP:ep   STATUS:               ID:20121021054839 L   I
 2012-10-21-0540-00M.COL___231                                                 6
 STAT SP IPHASW D HRMM SECON CODA AMPLIT PERI AZIMU VELO AIN AR TRES W  DIS CAZ7
 BRR  HZ EP        548 48.82                              47   -0.0110 55.2 107 
 BRR  HZ I         548 49.04         4.1 0.16                          55.2 107 
 BRR  HN ES   1    548 55.48                              47   -0.34 7 55.2 107 
 ZAR  HZ IP     C  548 52.57                              47    0.2210 78.4 290 
 ZAR  HZ I         548 52.87         6.0 0.15                          78.4 290 
 ZAR  HN ES        549  1.85                              47   -0.2310 78.4 290 
 PAM  SZ EP   2    549  6.45                              47    0.48 5  165  86 
 PAM  SZ I         549 28.35         2.3 0.52                           165  86 
 RUS  HZ EP   1    549 10.34                              37    0.40 6  194 141 
 RUS  HN ES   2    549 33.07                              37   -0.32 4  194 141 
 RUS  HZ I         549 35.02         1.5 0.55                           194 141 
                                                                                
