 2012  721 0344 56.8 L   6.683 -73.172143.9  RSN  6 0.5 1.5LRSN                1
 GAP=138        1.23      10.0     8.5 11.5  0.3346E+02  0.1454E+01 -0.2896E+02E
 Epicentro: VILLANUEVA - SANTANDER                                             3
 ACTION:UPD 12-08-14 11:46 OP:ep   STATUS:               ID:20120721034456 L   I
 2012-07-21-0340-00M.COL___215                                                 6
 STAT SP IPHASW D HRMM SECON CODA AMPLIT PERI AZIMU VELO AIN AR TRES W  DIS CAZ7
 BAR2 SZ EP        345 15.98                             176     0.010   10 186 
 BAR2 SZ ES   1    345 30.32                             176    -0.7 7   10 186 
 BAR2 SZ I         345 31.90         5.9 0.23            175             10 186 
 BRR  HZ EP        345 18.09                             151     0.110   76 308 
 BRR  HZ I         345 18.52        11.1 0.18            150             76 308 
 BRR  HN ES   1    345 35.25                             151     0.7 7   76 308 
 RUS  HZ EP   1    345 19.77                             147     0.3 7   88 174 
 RUS  HN ES   1    345 37.78                             147     0.6 7   88 174 
 RUS  HZ I         345 39.64         4.6 0.38            148             88 174 
 PAM  SZ EP   1    345 19.08                             147    -0.5 7   89  36 
 PTB  HZ EP   1    345 22.47                             133    -0.7 7  143 264 
 PTB  HN ES   1    345 43.05                             133    -0.7 7  143 264 
 PTB  HZ I         345 44.14         2.0 0.16            132            143 264 
 ZAR  HZ EP   1    345 30.08                             122     0.7 6  207 296 
 ZAR  HN ES   1    345 55.04                             122     0.2 6  207 296 
 ZAR  HZ I         346  0.29         5.8 0.31            122            207 296 
