 2012  221 0818 23.9 L   6.778 -73.135141.4  RSN  6 0.3 1.1LRSN                1
 GAP=139        0.57       3.8     3.9  5.1 -0.1857E+01  0.2797E+01  0.2018E+01E
 ACTION:UP  12-03-07 16:32 OP:epov STATUS:               ID:20120221081823 L   I
 2012-02-21-0810-00M.COL___191                                                 6
 STAT SP IPHASW D HRMM SECON CODA AMPLIT PERI AZIMU VELO AIN AR TRES W  DIS CAZ7
 BAR2 SZ ES   1    818 57.37                             171   -0.51 7 21.2 194 
 GIR2 SZ EP   1    818 43.01                             166   -0.16 7 33.9 349 
 GIR2 SZ ES   1    818 58.35                             166    0.18 7 33.9 349 
 BRR  HZ EP   1    818 44.66                             151   -0.09 7 73.4 300 
 BRR  HZ I         818 45.26         6.3 0.12                          73.4 300 
 BRR  HN ES   1    819  1.48                             151    0.50 7 73.4 300 
 PAM  SZ EP   1    818 45.77                             150    0.00 7 78.5  38 
 PAM  SN ES   1    819  2.69                             150   -0.10 7 78.5  38 
 PAM  SZ I         819  4.60         2.7 0.55                          78.5  38 
 RUS  HZ EP   1    818 47.21                             144    0.13 7 98.1 177 
 RUS  HZ I         818 48.00         0.6 0.30                          98.1 177 
 RUS  HN ES   1    819  5.41                             144    0.27 7 98.1 177 
 PTB  HZ EP   1    818 50.71                             131    0.09 7  148 260 
 PTB  HN ES   1    819 11.08                             131   -0.35 7  148 260 
                                                                                
