 2014  121 0023 57.2 L   6.783 -73.155136.8  RSN 10 0.3 1.8LRSN                1
 GAP=136        0.88       3.4     3.8  5.5  0.1567E+01  0.5447E+01  0.3276E+01E
 Epicentro: LOS SANTOS - SANTANDER                                             3
 ACTION:UPD 14-03-13 09:57 OP:ep   STATUS:               ID:20140121002357 L   I
 OLDACT:REG 14-01-21 06:34 OP:nd   STATUS:               ID:20140121002000     3
 2014-01-21-0020-00M.COL___279                                                 6
 STAT SP IPHASW D HRMM SECON CODA AMPLIT PERI AZIMU VELO AIN AR TRES W  DIS CAZ7
 BAR2 SZ EP        024 15.70                             171    0.0110 21.4 188 
 BAR2 SZ ES        024 29.59                             171   -0.5410 21.4 188 
 BAR2 SZ I         024 31.62        22.1 0.28            171           21.4 188 
 BRR  HZ IP     C  024 17.68                             151    0.3210 71.2 300 
 BRR  HN ES        024 33.63                             151    0.5210 71.2 300 
 BRR  HZ I         024 37.74        11.7 0.38            149           71.2 300 
 PAM  SZ EP        024 18.65                             148    0.0810 79.4  39 
 PAM  SN ES        024 35.02                             148   -0.2410 79.4  39 
 PAM  SZ I         024 37.64        14.0 0.46            151           79.4  39 
 RUS  HZ EP        024 19.90                             142   -0.0210 98.8 175 
 RUS  HN ES        024 38.15                             142    0.4810 98.8 175 
 RUS  HZ I         024 40.25         9.2 0.32            145           98.8 175 
 PTB  HZ EP        024 22.70                             130   -0.60 9  146 259 
 PTB  HN ES        024 43.31                             130   -0.37 9  146 259 
 PTB  HZ I         024 48.89         6.0 0.38            130            146 259 
 ZAR  HZ EP        024 28.96                             120   -0.06 9  204 293 
 ZAR  HN ES        024 54.13                             120    0.26 9  204 293 
 ZAR  HZ I         024 59.98         7.4 0.38            121            204 293 
 SML  HZ EP   4    024 31.48                             115   -1.97 0  245 336 
 SML  HN ES   4    024 59.81                             115   -1.93 0  245 336 
 SML  HZ I         025  8.67         7.0 0.10            116            245 336 
 CHI  HZ EP        024 34.31                             115    0.15 8  247 195 
 CHI  HN ES        025  3.00                             115   -0.02 8  247 195 
 CHI  HZ I         025  6.81         2.5 0.30            117            247 195 
 GUY2CHZ EP   4    024 40.60                             111    0.43 0  299 235 
 GUY2CHN ES   4    025 13.64                             111   -0.06 0  299 235 
 GUY2CHZ I         025 22.84         2.8 0.44                           299 235 
 SJC  HZ EP   4    024 50.36                             104   -2.21 0  410 327 
 SJC  HN ES   4    025 31.77                             104   -4.01 0  410 327 
 SJC  HZ I         025 35.19         1.7 0.42            105            410 327 
                                                                                
