 2015  821 0321 21.1 L   6.805 -73.098145.1  RSN 22 0.4 2.6LRSN                1
 GAP=168        0.81       2.1     3.0  4.1 -0.1013E+00  0.2047E+01  0.1218E+01E
 Epicentro: LOS SANTOS - SANTANDER                                             3
 ACTION:UPD 15-09-15 23:03 OP:cam  STATUS:               ID:20150821032121 L   I
 OLDACT:REG 15-08-21 12:51 OP:spq  STATUS:               ID:20150821031750     3
 2015-08-21-0317-50M.COL___337                                                 6
 STAT SP IPHASW D HRMM SECON CODA AMPLIT PERI AZIMU VELO AIN AR TRES W  DIS CAZ7
 BAR2 EZ EP     C  321 40.80                             170    0.1610 25.3 201 
 BAR2 EZ ES   1    321 55.68                             170   -0.24 7 25.3 201 
 BAR2 EZ I         321 56.94       106.0 0.18            166           25.3 201 
 BRR  HZ EP     C  321 42.69                             151    0.3110 75.6 296 
 BRR  HE ES        321 59.69                             151    0.6810 75.6 296 
 BRR  HZ I         322  3.27        48.4 0.12            148           75.6 296 
 RUS  HZ EP        321 44.70                             144   -0.0610  101 179 
 RUS  HN ES        322  3.64                             144    0.3910  101 179 
 RUS  HZ I         322  4.29        44.3 0.20            143            101 179 
 OCA  HZ EP        321 49.29                             130   -0.03 9  160 351 
 OCA  HN ES        322 10.73                             130   -0.64 9  160 351 
 OCA  HZ I         322 15.27        60.2 0.28            131            160 351 
 SPBC HZ EP        321 49.75                             128   -0.11 9  167 220 
 SPBC HE ES        322 11.57                             128   -0.76 9  167 220 
 SPBC HZ I         322 14.47        57.9 0.02            127            167 220 
 ZAR  HZ EP        321 54.05                             122    0.12 8  209 291 
 ZAR  HN ES        322 19.59                             122    0.01 8  209 291 
 ZAR  HZ I         322 25.50        45.9 0.38            121            209 291 
 NOR  HZ EP        321 57.27                             118    0.03 8  239 235 
 NOR  HE ES        322 24.96                             118   -0.50 8  239 235 
 NOR  HZ I         322 31.67        33.8 0.26            117            239 235 
 SML  HZ EP        321 57.77                             117   -0.05 8  245 334 
 SML  HN ES   1    322 26.23                             117   -0.27 6  245 334 
 SML  HZ I         322 32.37        51.5 0.10            118            245 334 
 CHI  HZ EP        321 59.01                             117    0.08 8  251 196 
 CHI  HN ES   1    322 28.27                             117   -0.20 6  251 196 
 CHI  HZ I         322 30.71         9.5 0.36            117            251 196 
 ROSC BZ EP   4    322  1.02                             116    1.53 0  256 212 
 ROSC BE ES   4    322 32.52                             116    3.06 0  256 212 
 ROSC BZ I         322 36.92        24.8 0.40            116            256 212 
 HEL  HZ EP   4    322  2.91                             114    1.10 0  277 256 
 HEL  HE ES        322 33.24                             114   -0.36 7  277 256 
 HEL  HZ I         322 41.04        23.3 0.24            114            277 256 
 URE  HZ EP   4    322  1.00                             113   -1.61 0  288 291 
 URE  HE ES   4    322 32.79                             113   -2.23 0  288 291 
 URE  HZ I         322 40.95        18.2 0.28            113            288 291 
 VIL  SZ EP        322  4.89                             112    0.26 7  305 193 
 VIL  SE ES   1    322 38.00                             112   -0.61 5  305 193 
 VIL  SZ I         322 50.32        15.7 0.34            112            305 193 
 GUY2CHZ EP        322  5.72                             112    0.57 7  306 235 
 GUY2CHN ES        322 39.91                             112    0.36 7  306 235 
 GUY2CHZ I         322 48.21        13.4 0.22                           306 235 
 PTGC HZ EP        322  4.06                             112   -0.67 7  307 160 
 PTGC HN ES   4    322 37.29                             112   -1.50 0  307 160 
 PTGC HZ I         322 41.54        19.8 0.58            113            307 160 
 ELA  HZ EP   4    322 10.18                             110    1.81 0  333 230 
 ELA  HE ES   1    322 45.77                             110    0.49 5  333 230 
 ELA  HZ I         322 51.10        11.0 0.38            110            333 230 
 CBOC HZ EP        322  8.97                             109    0.44 7  339 252 
 CBOC HN ES        322 45.20                             109   -0.36 7  339 252 
 CBOC HZ I         322 52.03         6.7 0.48            109            339 252 
 DBB  SZ EP   1    322  8.87                             109   -0.22 5  345 274 
 DBB  SZ ES   1    322 46.31                             109   -0.26 5  345 274 
 DBB  SZ I         322 49.20        48.0 0.36            109            345 274 
 TOL  SZ EP        322  9.97                             109    0.22 6  348 225 
 TOL  SN ES        322 48.18                             109    0.44 6  348 225 
 TOL  SZ I         322 54.58        12.5 0.26            109            348 225 
 ORTC HZ EP        322 15.48                             106    0.11 6  399 217 
 ORTC HN ES   4    322 59.38                             106    1.65 0  399 217 
 ORTC HZ I         323  3.34         9.5 0.44            106            399 217 
 SJC  HZ EP   4    322 15.02                             105   -1.85 0  412 326 
 SJC  HE ES   4    322 56.69                             105   -3.72 0  412 326 
 SJC  HZ I         323  0.03         6.7 0.60            106            412 326 
 BBAC HZ EP        322 52.20                              98    0.48 1  701 221 
                                                                                
