 2012  121 0556 44.0 L   6.788 -73.108138.0  RSN  4 0.2 1.2LRSN                1
 GAP=142        0.45       3.4     5.2  5.8  0.2997E+01 -0.6760E+01 -0.9802E+00E
 Epicentro: LOS SANTOS - SANTANDER                                             3
 ACTION:UP  12-02-03 08:19 OP:REBC STATUS:               ID:20120121055644 L   I
 2012-01-21-0550-00M.COL___186                                                 6
 STAT SP IPHASW D HRMM SECON CODA AMPLIT PERI AZIMU VELO SNR AR TRES W  DIS CAZ7
 BAR2 SZ EP   1    557  2.48                             170    -0.2 7   23 201 
 BAR2 SZ ES   2    557 16.78                             170    -0.5 5   23 201 
 BAR2 SZ I         557 18.55         2.9 0.15                            23 201 
 BRR  HZ EP   1    557  4.52                             150     0.0 7   76 298 
 BRR  HE ES   1    557 20.76                             150     0.1 7   76 298 
 BRR  HZ I         557 22.40         4.6 0.17                            76 298 
 PAM  SZ EP   1    557  5.25                             150     0.0 7   76  36 
 PAM  SE ES   2    557 22.17                             150     0.3 5   76  36 
 RUS  HZ EP   1    557  6.99                             143     0.1 7   99 178 
 RUS  HE ES   1    557 24.85                             143     0.1 7   99 178 
                                                                                
