 2013 1121 0225 28.2 L   6.788 -73.148150.6  RSN  6 0.4 1.3LRSN                1
 GAP=137        0.99       4.5     6.7  8.2  0.6817E+00  0.2220E+02 -0.7957E+01E
 Epicentro: LOS SANTOS - SANTANDER                                             3
 ACTION:UPD 14-01-09 16:29 OP:ep   STATUS:               ID:20131121022528 L   I
 OLDACT:DUP 13-11-21 10:46 OP:mh   STATUS:               ID:20131121022002d    3
 2013-11-21-0220-00M.COL___282                                                 6
 STAT SP IPHASW D HRMM SECON CODA AMPLIT PERI AZIMU VELO AIN AR TRES W  DIS CAZ7
 BAR2 SZ EP   1    225 48.61                             171    0.21 7 21.9 190 
 BAR2 SZ ES   1    226  4.22                             171    0.08 7 21.9 190 
 BAR2 SZ I         226  5.33         4.2 0.05            169           21.9 190 
 BRR  HZ EP        225 50.55                             153    0.6410 71.6 300 
 BRR  HZ I         226  0.10         3.2 0.57            148           71.6 300 
 BRR  HN ES   1    226  7.28                             153    0.44 7 71.6 300 
 PAM  SN ES        226  8.46                             151   -0.3510 78.6  39 
 RUS  HZ EP   1    225 51.80                             145   -0.55 7 99.2 176 
 RUS  HN ES        226 11.30                             145    0.1310 99.2 176 
 RUS  HZ I         226 12.35         1.6 0.28            144           99.2 176 
 PTB  HZ EP        225 55.07                             133   -0.47 9  147 259 
 PTB  HN ES   1    226 16.47                             133   -0.37 7  147 259 
 PTB  HZ I         226 22.60         1.5 0.16            129            147 259 
 SML  HZ EP        226  5.83                             118    0.59 8  245 335 
 SML  HN ES        226 33.64                             118   -0.48 8  245 335 
 SML  HZ I         226 38.27         4.4 0.08            117            245 335 
                                                                                
