 2017  821 0833 56.6 L   6.782 -73.108143.3  RSN 14 0.5 1.8LRSN                1
 GAP= 98        1.00       3.5     2.9  5.1 -0.6813E+00  0.3104E+01  0.5545E+01E
 Epicentro: LOS SANTOS - SANTANDER                                             3
 ACTION:UPD 17-09-04 20:22 OP:rebc STATUS:               ID:20170821083356 L   I
 OLDACT:UP  17-08-21 17:48 OP:osc  STATUS:               ID:20170821082743     3
 OLDACT:UP  17-08-21 17:44 OP:osc  STATUS:               ID:20170821082743     3
 OLDACT:REG 17-08-21 13:28 OP:osc  STATUS:               ID:20170821082743     3
 2017-08-21-0828-00M.COL___411                                                 6
 STAT SP IPHASW D HRMM SECON CODA AMPLIT PERI AZIMU VELO AIN AR TRES W  DIS CAZ7
 BAR2 EZ EP        834 15.65                             171   -0.2910 22.5 202 
 BAR2 EZ ES        834 31.18                             171    0.1710 22.5 202 
 BAR2 EZ I         834 31.73        18.8 0.16            171           22.5 202 
 BRR  HZ EP        834 17.66                             151   -0.1210 75.9 298 
 BRR  HN ES        834 34.40                             151    0.1210 75.9 298 
 BRR  HZ I         834 38.45        12.6 0.14            149           75.9 298 
 PAM  EZ EP        834 18.63                             151    0.1210 76.4  36 
 PAM  EN ES        834 35.56                             151   -0.0310 76.4  36 
 PAM  EZ I         834 37.75        18.2 0.70            152           76.4  36 
 RUS  HZ EP        834 19.64                             144   -0.3310 98.4 178 
 RUS  HN ES        834 37.73                             144   -0.4510 98.4 178 
 RUS  HZ I         834 39.16         7.2 0.32            146           98.4 178 
 TAM  HZ EP        834 23.96                             131    0.28 9  151 105 
 TAM  HE ES        834 45.02                             131    0.24 9  151 105 
 SPBC HZ EP        834 24.81                             128   -0.23 9  164 221 
 SPBC HE ES        834 47.40                             128    0.19 9  164 221 
 SPBC HZ I         834 50.36         7.5 0.20            129            164 221 
 ZAR  HZ EP   2    834 30.38                             121    0.99 4  209 292 
 ZAR  HE ES        834 55.09                             121    0.14 8  209 292 
 ZAR  HZ I         835  0.21         7.3 0.27            122            209 292 
 NOR  HZ EP        834 32.36                             118   -0.09 8  237 235 
 NOR  HE ES        834 59.97                             118   -0.43 8  237 235 
 NOR  HZ I         835  3.77         4.2 0.16            119            237 235 
 CHI  HZ EP        834 34.06                             117   -0.03 8  248 196 
 CHI  HN ES        835  4.53                             117    1.21 8  248 196 
 HEL  HZ EP        834 37.72                             114    0.61 7  276 256 
 HEL  HE ES        835  7.91                             114   -0.78 7  276 256 
 URE  HZ EP   4    834 40.46                             113    2.37 0  288 292 
 URE  HE ES   4    835  7.72                             113   -2.72 0  288 292 
 GUY2CHZ EP        834 40.44                             112    0.06 7  303 236 
 GUY2CHE ES   2    835 15.79                             112    1.29 4  303 236 
 GUY2CHZ I         835 21.04         3.0 0.28                           303 236 
 PTGC HZ EP        834 38.91                             111   -1.07 7  305 159 
 PTGC HE ES   4    835 12.04                             111   -1.76 0  305 159 
 PRA  HZ EP        834 50.23                             106    0.13 6  392 210 
 PRA  HE ES        835 32.16                             106    0.35 6  392 210 
 SJC  HZ EP   4    834 50.50                             105   -2.07 0  413 327 
 SJC  HE ES   4    835 32.72                             105   -3.49 0  413 327 
 SJC  HZ I         835 39.62         1.0 0.28            106            413 327 
                                                                                
