 2016  521 0038 36.6 L   6.823 -73.142145.8  RSN 10 0.3 1.7LRSN                1
 GAP=136        0.85       2.6     3.6  5.1 -0.1290E+01  0.6179E+01  0.2194E+01E
 Epicentro: LOS SANTOS - SANTANDER                                             3
 ACTION:UPD 16-08-18 17:47 OP:cam  STATUS:               ID:20160521003836 L   I
 OLDACT:UP  16-05-21 13:33 OP:mh   STATUS:               ID:20160521003743     3
 OLDACT:UP  16-05-21 13:32 OP:mh   STATUS:               ID:20160521003743     3
 OLDACT:REG 16-05-21 12:49 OP:mh   STATUS:               ID:20160521003743     3
 2016-05-21-0037-43M.COL___298                                                 6
 STAT SP IPHASW D HRMM SECON CODA AMPLIT PERI AZIMU VELO AIN AR TRES W  DIS CAZ7
 BAR2 EZ EP        038 56.55                             169    0.2210 25.9 190 
 BAR2 EZ ES        039 11.58                             169   -0.1110 25.9 190 
 BAR2 EZ I         039 14.70         9.7 0.12            166           25.9 190 
 PAM  EZ EP        038 59.25                             151    0.5210 75.1  41 
 PAM  EN ES        039 16.15                             151    0.1910 75.1  41 
 PAM  EZ I         039 18.50         7.0 0.22            159           75.1  41 
 RUS  HZ EP        039  0.42                             143   -0.1610  103 176 
 RUS  HN ES        039 19.27                             143    0.0110  103 176 
 RUS  HZ I         039 20.61         4.3 0.38            145            103 176 
 PTB  HZ EP        039  3.22                             132   -0.48 9  149 258 
 PTB  HN ES        039 24.79                             132   -0.01 9  149 258 
 PTB  HZ I         039 31.95         7.6 0.44            132            149 258 
 OCA  HE ES        039 25.78                             130   -0.84 9  158 353 
 SPBC HZ EP        039  5.45                             129    0.09 9  165 219 
 SPBC HN ES        039 27.48                             129   -0.28 9  165 219 
 SPBC HZ I         039 34.50        12.0 0.24            129            165 219 
 ZAR  HZ EP        039  9.24                             122    0.21 9  203 291 
 ZAR  HN ES        039 35.04                             122    0.75 9  203 291 
 ZAR  HZ I         039 43.31         6.7 0.10            124            203 291 
 NOR  HZ EP        039 12.31                             118   -0.26 8  237 234 
 NOR  HN ES        039 40.59                             118   -0.01 8  237 234 
 NOR  HZ I         039 44.29         5.5 0.36            119            237 234 
 CHI  HZ EP        039 14.63                             117    0.01 8  251 195 
 CHI  HE ES        039 44.48                             117    0.23 8  251 195 
 CHI  HZ I         039 54.36         2.6 0.32            119            251 195 
 PRA  HZ EP        039 30.27                             106   -0.18 6  394 209 
 PRA  HN ES        040 12.45                             106    0.03 6  394 209 
 PRA  HZ I         040 20.73         2.3 0.38            108            394 209 
                                                                                
