 2014  521 0006 17.3 L   6.819 -73.131149.8  RSN  5 0.3 1.7LRSN                1
 GAP=195        0.72      13.7     8.4 11.1 -0.9806E+02 -0.5107E+02  0.1167E+03E
 Epicentro: LOS SANTOS - SANTANDER                                             3
 ACTION:UPD 15-03-16 16:59 OP:nd   STATUS:               ID:20140521000617 L   I
 OLDACT:UP  14-05-21 13:22 OP:cam  STATUS:               ID:20140521000000     3
 OLDACT:REG 14-05-21 12:18 OP:cam  STATUS:               ID:20140521000000     3
 2014-05-21-0000-00M.COL___252                                                 6
 STAT SP IPHASW D HRMM SECON CODA AMPLIT PERI AZIMU VELO AIN AR TRES W  DIS CAZ7
 BRR  HE ES        0 6 55.90                             153    0.1610 71.6 296 
 BRR  HE I         0 7  1.25        18.5 0.18            149           71.6 296 
 PAM  SZ IP     C  0 6 40.10                             152    0.3310 74.7  40 
 PAM  SN ES        0 6 57.04                             152   -0.2710 74.7  40 
 PAM  SZ I         0 6 58.88         8.0 0.50            153           74.7  40 
 PTB  HZ EP   1    0 6 44.12                             132   -0.63 7  150 258 
 PTB  HN ES   4    0 7  4.44                             132   -1.74 0  150 258 
 PTB  HZ I         0 7  7.86         7.3 0.10            132            150 258 
 NOR  HZ EP   1    0 6 53.65                             119    0.14 6  237 234 
 NOR  HN ES        0 7 21.83                             119    0.05 8  237 234 
 NOR  HZ I         0 7 23.23         3.8 0.52            120            237 234 
 GUY2CHZ EP   4    0 7  2.76                             113    1.40 0  304 235 
 GUY2CHZ I         0 7 42.45         1.5 0.32                           304 235 
                                                                                
