 2013 1021 0709  4.4 L   6.788 -73.170145.1  RSN  7 0.3 1.6LRSN                1
 GAP=134        0.72       3.0     3.6  4.8 -0.2929E+01 -0.2282E-01  0.4482E+01E
 Epicentro: LOS SANTOS - SANTANDER                                             3
 ACTION:UPD 13-11-25 09:22 OP:ep   STATUS:               ID:20131021070904 L   I
 OLDACT:REG 13-10-21 08:01 OP:carl STATUS:               ID:20131021070838     3
 2013-10-21-0708-38M.COL___211                                                 6
 STAT SP IPHASW D HRMM SECON CODA AMPLIT PERI AZIMU VELO AIN AR TRES W  DIS CAZ7
 BAR2 SZ EP        7 9 23.73                             171   -0.2310 21.7 184 
 BAR2 SZ ES        7 9 38.84                             171   -0.3410 21.7 184 
 BAR2 SZ I         7 9 39.93        10.4 0.20            170           21.7 184 
 BRR  HZ EP        7 9 25.58                             153    0.1610 69.5 301 
 BRR  HN ES        7 9 42.31                             153    0.5210 69.5 301 
 BRR  HZ I         7 9 46.53         5.2 0.32            151           69.5 301 
 PAM  SZ EP        7 9 26.84                             150    0.1010 80.1  40 
 PAM  SN ES        7 9 43.89                             150   -0.2510 80.1  40 
 PAM  SZ I         7 9 45.88         5.2 0.40            154           80.1  40 
 RUS  HZ EP        7 9 28.14                             144    0.0910 99.5 174 
 RUS  HN ES        7 9 46.82                             144    0.3610 99.5 174 
 RUS  HZ I         7 9 47.59         4.4 0.28            146           99.5 174 
 PTB  HN ES        7 9 51.48                             132   -0.40 9  145 259 
 PTB  HN I         7 9 56.85        10.3 0.50            132            145 259 
 SPBC HZ EP        7 9 32.77                             129    0.14 9  161 219 
 SPBC HN ES        7 9 54.56                             129   -0.06 9  161 219 
 SPBC HZ I         710  0.91         5.9 0.26            130            161 219 
 CHI  HZ EP        7 9 41.65                             117   -0.24 8  247 195 
 CHI  HN ES        710 11.13                             117    0.03 8  247 195 
 CHI  HZ I         710 14.48         1.6 0.34            118            247 195 
                                                                                
