 2013  421 0622 54.7 L   6.823 -73.104142.0  RSN  8 0.5 1.5LRSN                1
 GAP=187        0.91       4.6     9.2  8.0  0.1591E+02 -0.1279E+01 -0.3995E+01E
 Epicentro: LOS SANTOS - SANTANDER                                             3
 ACTION:UPD 13-05-22 14:39 OP:EP   STATUS:               ID:20130421062254 L   I
 2013-04-21-0620-00M.COL___250                                                 6
 STAT SP IPHASW D HRMM SECON CODA AMPLIT PERI AZIMU VELO AIN AR TRES W  DIS CAZ7
 BAR2 SZ EP        623 13.92                             169   -0.0810 27.0 199 
 BAR2 SZ ES   2    623 28.20                             169   -0.82 5 27.0 199 
 BAR2 SZ I         623 30.40         9.0 0.22            167           27.0 199 
 GIR2 SZ EP        623 14.08                             167    0.1510 30.0 341 
 GIR2 SZ I         623 30.80         5.1 0.14            167           30.0 341 
 BRR  HZ IP     C  623 15.74                             151    0.0810 74.2 295 
 BRR  HN ES   1    623 32.72                             151    0.74 7 74.2 295 
 BRR  HZ I         623 34.10         6.1 0.34            149           74.2 295 
 RUS  HZ EP        623 17.96                             142   -0.3410  103 179 
 RUS  HN ES   1    623 36.76                             142    0.09 7  103 179 
 RUS  HZ I         623 38.01         2.1 0.34            141            103 179 
 PTB  HZ EP   2    623 20.98                             130   -0.90 5  153 258 
 PTB  HN ES   2    623 42.11                             130   -0.93 5  153 258 
 PTB  HZ I         623 46.88         4.1 0.12            128            153 258 
 OCA  HN ES   2    623 44.24                             129   -0.06 5  158 351 
 SML  HZ EP        623 30.90                             117   -0.23 8  243 334 
 SML  HN ES   1    623 59.46                             117   -0.04 6  243 334 
 SML  HZ I         624  2.35         6.8 0.10            115            243 334 
 ROSC BZ EP        623 34.00                             115    0.83 8  257 212 
 ROSC BN ES   4    624  5.22                             115    2.08 0  257 212 
 ROSC BZ I         624 12.02         3.8 0.40            114            257 212 
 SJC  HZ EP   4    623 48.22                             105   -2.01 0  410 326 
 SJC  HN ES   4    624 28.92                             105   -4.60 0  410 326 
                                                                                
