 2016  221 0256 21.0 L   6.805 -73.221140.8  RSN  5 0.2 1.6LRSN                1
 GAP=188        0.59       3.9     6.5  4.5 -0.1849E+02  0.8696E+01 -0.7253E+00E
 Epicentro: ZAPATOCA - SANTANDER                                               3
 ACTION:UPD 16-03-04 21:27 OP:rebc STATUS:               ID:20160221025621 L   I
 OLDACT:REG 16-02-21 12:26 OP:drio STATUS:               ID:20160221024746     3
 2016-02-21-0247-46M.COL___325                                                 6
 STAT SP IPHASW D HRMM SECON CODA AMPLIT PERI AZIMU VELO AIN AR TRES W  DIS CAZ7
 BAR2 EZ EP        256 40.09                             170    0.0410 24.0 170 
 BAR2 EZ ES        256 54.80                             170   -0.1010 24.0 170 
 BAR2 EZ I         256 57.66         9.0 0.50            165           24.0 170 
 PAM  EZ EP        256 43.03                             148    0.0110 82.5  44 
 PAM  EE ES        257  0.30                             148    0.1110 82.5  44 
 PAM  EZ I         257  2.09        11.0 0.54            149           82.5  44 
 RUS  HZ EP        256 44.01                             142   -0.3710  102 171 
 RUS  HE ES        257  2.69                             142    0.0810  102 171 
 RUS  HZ I         257  4.17         5.6 0.44            140            102 171 
 SPBC HZ EP        256 49.04                             129    0.36 9  159 216 
 SPBC HE ES        257 10.08                             129   -0.18 9  159 216 
 CHI  HZ EP        256 58.02                             116   -0.25 8  247 193 
 CHI  HE ES        257 27.70                             116    0.37 8  247 193 
 CHI  HZ I         257 35.64         1.8 0.50            116            247 193 
                                                                                
