 2016  521 0748 12.8 L   6.782 -73.327126.2  RSN  7 0.4 1.6LRSN                1
 GAP=142        1.07       3.7     5.6  7.4  0.3486E+01  0.9878E+01 -0.4527E+01E
 Epicentro: ZAPATOCA - SANTANDER                                               3
 ACTION:UPD 16-08-18 17:48 OP:cam  STATUS:               ID:20160521074812 L   I
 OLDACT:REG 16-05-21 13:06 OP:mh   STATUS:               ID:20160521074742     3
 2016-05-21-0747-42M.COL___286                                                 6
 STAT SP IPHASW D HRMM SECON CODA AMPLIT PERI AZIMU VELO AIN AR TRES W  DIS CAZ7
 BAR2 EZ EP        748 30.36                             167    0.2210 26.4 143 
 BAR2 EZ ES        748 43.42                             167   -0.2610 26.4 143 
 BAR2 EZ I         748 44.93        13.7 0.20            169           26.4 143 
 BRR  HZ EP     D  748 31.16                             155    0.2010 55.7 310 
 BRR  HN ES        748 45.49                             155    0.3610 55.7 310 
 BRR  HZ I         748 46.03         9.3 0.30            153           55.7 310 
 RUS  HZ EP        748 34.93                             139    0.1510  102 165 
 RUS  HN ES        748 52.09                             139    0.1610  102 165 
 RUS  HZ I         748 53.61         4.2 0.34            140            102 165 
 PTB  HZ EP        748 35.44                             132   -0.9010  128 258 
 PTB  HN ES   4    748 52.95                             132   -1.76 0  128 258 
 PTB  HZ I         748 58.44         5.5 0.16            130            128 258 
 SPBC HZ EP   4    748 39.77                             127    1.25 0  150 213 
 SPBC HN ES        748 58.37                             127   -0.22 9  150 213 
 SPBC HZ I         749  3.91         3.4 0.18            127            150 213 
 OCA  HZ EP        748 40.16                             125    0.42 9  161   0 
 OCA  HN ES        749  0.02                             125   -0.74 9  161   0 
 OCA  HZ I         749  4.07        11.6 0.22            126            161   0 
 ZAR  HZ EP        748 42.45                             120    0.29 9  187 295 
 ZAR  HE ES        749  5.38                             120    0.30 9  187 295 
 ZAR  HZ I         749  9.71         5.2 0.22            120            187 295 
                                                                                
