 2010  121 0809 28.7 L   6.813 -73.078139.2  RSN  8 0.4 2.5LRSN                1
 GAP=190        0.78       3.5     6.8  5.5 -0.2980E+01  0.1703E+02  0.6459E+00E
 Epicentro: LOS SANTOS - SANTANDER                                             3
 ACTION:UP  10-08-24 09:45 OP:vdl  STATUS:               ID:20100121080928 L   I
 2010-01-21-0806-44S.COL___095                                                 6
 STAT SP IPHASW D HRMM SECON CODA AMPLIT PERI AZIMU VELO SNR AR TRES W  DIS CAZ7
 BAR2 SZ EP        8 9 47.69                             168     0.010   27 205 
 BAR2 SZ ES   1    810  2.14                             168    -0.3 7   27 205 
 GIR2 SZ EP        8 9 47.79                             166     0.210   32 337 
 GIR2 SZ ES   1    810  2.59                             166     0.2 7   32 337 
 RUS  BZ EP        8 9 51.71                             142    -0.210  102 180 
 RUS  BN ES        810  9.91                             142    -0.110  102 180 
 RUS  BZ I         810 11.90        42.5 0.10                           102 180 
 OCA  SZ EP        8 9 56.48                             128     0.0 9  160 350 
 OCA  SZ I         810 21.04        94.4 0.25                           160 350 
 CHI  HZ EP        810  6.09                             115    -0.3 8  252 197 
 CHI  HN ES   1    810 36.70                             115     0.8 6  252 197 
 CHI  HZ I         810 38.80        13.2 0.29                           252 197 
 HEL  HZ EP        810 10.03                             113     0.6 7  280 256 
 HEL  HN ES   1    810 40.58                             113    -0.6 6  280 256 
 HEL  HZ I         810 46.80        14.3 0.45                           280 256 
 ANIL BZ EP        810 19.01                             107     0.0 6  364 225 
 PRA  HZ EP        810 22.20                             105    -0.4 6  397 210 
 PRA  HN ES   1    811  5.07                             105     0.4 4  397 210 
                                                                                
