 2016  621 0741 57.7 L   6.851 -73.150151.3  RSN 25 0.6 2.7LRSN                1
 GAP= 69        1.35       3.4     3.4  6.1 -0.1778E+01  0.5209E+01 -0.2291E+00E
 Epicentro: LOS SANTOS - SANTANDER                                             3
 ACTION:UPD 16-07-21 22:21 OP:rebc STATUS:               ID:20160621074157 L   I
 OLDACT:REG 16-06-21 14:50 OP:ak   STATUS:               ID:20160621073745     3
 2016-06-21-0737-45M.COL___316                                                 6
 STAT SP IPHASW D HRMM SECON CODA AMPLIT PERI AZIMU VELO AIN AR TRES W  DIS CAZ7
 BAR2 EZ IP     C  742 18.31                             169    0.2410 28.9 187 
 BAR2 EZ I         742 34.85       254.6 0.08                          28.9 187 
 BRR  HZ IP     D  742 20.08                             154    0.8310 68.2 295 
 BRR  HN ES        742 36.78                             154    0.7010 68.2 295 
 BRR  HZ I         742 40.81        84.9 0.27                          68.2 295 
 PAM  EZ EP        742 21.23                             153    0.9910 73.4  43 
 PAM  EN ES        742 38.18                             153    0.3210 73.4  43 
 PAM  EZ I         742 40.50        82.8 0.48                          73.4  43 
 RUS  HZ EP        742 22.21                             144   -0.1610  106 176 
 RUS  HE ES        742 40.89                             144   -0.7410  106 176 
 RUS  HZ I         742 42.06        52.3 0.40                           106 176 
 PTB  HZ EP        742 24.76                             133   -0.39 9  148 257 
 PTB  HN ES        742 46.56                             133   -0.02 9  148 257 
 PTB  HZ I         742 53.60        79.2 0.30                           148 257 
 TAM  HZ IP     C  742 26.47                             131    0.50 9  157 107 
 TAM  HN ES        742 47.38                             131   -0.67 9  157 107 
 TAM  HZ I         742 54.59        25.8 0.48                           157 107 
 SPBC HZ EP        742 27.18                             130    0.20 9  167 218 
 SPBC HN ES        742 49.03                             130   -0.81 9  167 218 
 SPBC HZ I         742 54.39        92.0 0.14                           167 218 
 ZAR  HZ EP        742 30.75                             124    0.54 9  202 291 
 ZAR  HN ES        742 55.67                             124    0.07 9  202 291 
 ZAR  HZ I         743  3.76        54.1 0.28                           202 291 
 NOR  HZ EP        742 34.10                             119    0.07 8  238 233 
 NOR  HN ES        743  1.59                             119   -0.80 8  238 233 
 NOR  HZ I         743  8.62        31.8 0.18                           238 233 
 CHI  HZ EP        742 35.70                             118   -0.55 8  254 195 
 CHI  HN ES        743  5.81                             118   -0.53 8  254 195 
 CHI  HZ I         743  9.19        14.9 0.44                           254 195 
 ROSC BZ EP   9    742 37.88                             117    1.29 0  257 210 
 ROSC BN ES        743  8.81                                    0.57 8  257 210 
 ROSC BZ I         743 13.12        38.6 0.45                           257 210 
 HEL  HZ EP   1    742 39.41                             116    1.14 6  273 255 
 HEL  HE ES        743 10.80                             116    0.86 8  273 255 
 HEL  HZ I         743 17.74        24.8 0.28                           273 255 
 URE  HZ EP        742 38.28                             115   -0.44 7  281 291 
 URE  HN ES        743  9.26                             115   -1.49 7  281 291 
 URE  HZ I         743 19.99        30.5 0.16                           281 291 
 GUY2CHZ EP        742 42.70                             113    0.85 7  304 234 
 GUY2CHE ES        743 16.09                             113   -0.23 7  304 234 
 GUY2CHZ I         743 24.34        20.4 0.30                           304 234 
 PTGC HZ IP   4 C  742 41.17                             112   -1.22 0  314 159 
 PTGC HN ES   4    743 14.98                             112   -2.29 0  314 159 
 PTGC HZ I         743 17.20        15.5 0.38                           314 159 
 LL6C HZ EP        742 41.89                             112   -1.07 7  319 358 
 CBOC HZ EP        742 45.80                             111    0.84 7  335 251 
 CBOC HN ES        743 21.11                             111   -0.74 7  335 251 
 CBOC HZ I         743 28.00         7.3 0.38                           335 251 
 DBB  SZ EP        742 45.44                             111    0.17 7  339 273 
 DBB  SZ ES        743 21.89                             111   -0.51 7  339 273 
 DBB  SZ I         743 24.82        58.6 0.40                           339 273 
 ANIL HZ EP        742 48.86                             109    0.75 6  361 224 
 ANIL HN ES        743 27.92                             109    0.46 6  361 224 
 ANIL HZ I         743 35.18        46.2 0.34                           361 224 
 PRA  HZ EP        742 51.66                             107   -0.26 6  397 209 
 PRA  HN ES        743 33.90                             107   -0.35 6  397 209 
 PRA  HZ I         743 39.14        16.1 0.50                           397 209 
 ORTC HZ EP        742 52.53                             107    0.25 6  400 216 
 ORTC HN ES        743 35.69                             107    0.82 6  400 216 
 ORTC HZ I         743 41.33        16.2 0.48                           400 216 
 SJC  HZ EP        742 52.19                             107   -0.63 6  404 327 
 SJC  HN ES   4    743 33.43                             107   -2.42 0  404 327 
 SJC  HZ I         743 42.43         9.2 0.24                           404 327 
 PAL  HZ EP        742 53.29                             107   -0.01 6  408 238 
 PAL  HE ES        743 36.68                             107   -0.02 6  408 238 
 PAL  HZ I         743 43.96         5.7 0.64                           408 238 
 CRJC HZ EP        742 58.73                             104   -0.93 5  462   4 
 CRJC HE ES        743 47.04                             104   -0.97 5  462   4 
 CRJC HZ I         743 55.82        10.4 0.18                           462   4 
 SMAR HZ EP        743  3.16                             103    0.15 4  491 346 
 SMAR HN ES   4    743 51.55                             103   -2.44 0  491 346 
 SMAR HZ I         743 56.73         7.5 0.52                           491 346 
                                                                                
