 2011  821 0140 39.2 L   6.805 -73.123140.5  RSN 13 0.4 2.8LRSN                1
 GAP=158        0.62       2.2     4.1  4.2 -0.2751E+01  0.3625E+01  0.2152E+01E
 Epicentro: LOS SANTOS - SANTANDER                                             3
 ACTION:UPD 12-07-13 15:53 OP:ep   STATUS:               ID:20110821014039 L   I
 2011-08-21-0138-35S.COL___151                                                 6
 STAT SP IPHASW D HRMM SECON CODA AMPLIT PERI AZIMU VELO AIN AR TRES W  DIS CAZ7
 BAR2 SZ IP        140 58.21                             170    0.0010 24.4 196 
 BAR2 SZ ES   1    141 12.87                             170   -0.17 7 24.4 196 
 BAR2 SZ I         141 14.09       162.5 0.33                          24.4 196 
 BRR  HZ EP        140 59.98                             151    0.0910 73.2 297 
 BRR  HN ES   1    141 16.30                             151    0.27 7 73.2 297 
 BRR  HZ I         141 17.48       128.6 0.12                          73.2 297 
 RUS  HZ EP        141  2.31                             143   -0.1410  101 178 
 RUS  HN ES   1    141 20.89                             143    0.29 7  101 178 
 RUS  HZ I         141 22.67        83.8 0.28                           101 178 
 BRI  SZ EP        141  2.72                             141    0.2510  107  20 
 BRI  SZ ES   1    141 20.55                             141   -0.08 7  107  20 
 OCA  SZ EP   1    141  6.63                             128   -0.44 7  160 352 
 OCA  SZ ES   1    141 28.50                             128   -0.32 7  160 352 
 OCA  SZ I         141 33.45        87.2 0.38                           160 352 
 NOR  SZ EP   1    141 14.66                             117   -0.22 6  237 235 
 NOR  SE ES   1    141 42.20                             117   -0.51 6  237 235 
 NOR  SZ I         141 44.48         9.3 0.19                           237 235 
 CHI  HZ EP   1    141 16.59                             116   -0.14 6  250 196 
 CHI  HN ES   1    141 45.87                             116   -0.14 6  250 196 
 CHI  HZ I         141 49.34        25.0 0.39                           250 196 
 ROSC BZ EP   1    141 18.00                             115    0.78 6  255 211 
 ROSC BN ES   1    141 47.28                             115    0.39 6  255 211 
 ROSC BZ I         141 53.23        47.9 0.32                           255 211 
 HEL  HZ EP   1    141 19.89                             113    0.46 6  275 256 
 HEL  HN ES   2    141 50.71                             113   -0.10 4  275 256 
 VIL  SZ EP   1    141 22.74                             111    0.25 5  304 192 
 VIL  SN ES   1    141 55.60                             111   -0.66 5  304 192 
 VIL  SZ I         142  0.31        17.7 0.34                           304 192 
 RREF HZ EP   1    141 25.17                             110   -0.20 5  324 230 
 TOL  SZ EP   1    141 28.21                             108    0.72 5  346 225 
 PRA  HZ EP   1    141 32.02                             105   -0.72 4  394 210 
 PRA  HN ES   1    142 14.27                             105   -0.23 4  394 210 
 PRA  HZ I         142 20.11        75.2 0.23                           394 210 
                                                                                
