 2012  621 0012 43.0 L   6.742 -73.206140.9  RSN  4 0.1 1.4LRSN                1
 GAP=225        0.30       3.2     3.8  3.3  0.8029E+01  0.2034E+01  0.1103E+01E
 Epicentro: VILLANUEVA - SANTANDER                                             3
 ACTION:UPD 12-08-06 17:51 OP:ep   STATUS:               ID:20120621001243 L   I
 2012-06-21-0010-00M.COL___199                                                 6
 STAT SP IPHASW D HRMM SECON CODA AMPLIT PERI AZIMU VELO AIN AR TRES W  DIS CAZ7
 BAR2 SZ ES   2    013 16.41                             173   -0.23 5 16.8 171 
 BAR2 SZ I         013 18.20         9.6 0.16                          16.8 171 
 BRR  HZ EP        013  3.46                             152    0.0110 68.9 306 
 BRR  HN ES   1    013 19.51                             152    0.08 7 68.9 306 
 RUS  HZ EP        013  5.84                             144    0.0210 94.9 172 
 RUS  HE ES   1    013 23.69                             144    0.04 7 94.9 172 
 RUS  HZ I         013 25.32         5.0 0.28                          94.9 172 
 PTB  HZ EP        013  8.77                             132   -0.05 9  140 261 
 PTB  HN ES   2    013 29.00                             132    0.00 5  140 261 
 PTB  HZ I         013 31.22         1.9 0.38                           140 261 
                                                                                
