 2012 1021 0639  0.6 L   7.061 -73.086144.0  RSN  4 0.2 1.8LRSN                1
 GAP=140        0.42       3.3     4.1  4.8 -0.6994E+00  0.1730E+01 -0.7421E+00E
 Epicentro: FLORIDABLANCA - SANTANDER                                          3
 ACTION:UPD 12-11-22 17:05 OP:ep   STATUS:               ID:20121021063901 L   I
 2012-10-21-0630-00M.COL___231                                                 6
 STAT SP IPHASW D HRMM SECON CODA AMPLIT PERI AZIMU VELO AIN AR TRES W  DIS CAZ7
 PAM  SZ EP   1    639 21.46                             159    0.08 7 52.6  54 
 PAM  SZ I         639 21.59         6.2 0.09                          52.6  54 
 PAM  SN ES   1    639 37.57                             159    0.01 7 52.6  54 
 BAR2 SZ ES   1    639 36.73                             159   -0.19 7 52.9 192 
 BAR2 SZ I         639 38.55        33.6 0.35                          52.9 192 
 BRR  HZ EP        639 21.32                             153   -0.1810 69.4 274 
 BRR  HZ I         639 21.49         9.2 0.15                          69.4 274 
 BRR  HE ES   1    639 38.01                             153    0.25 7 69.4 274 
 RUS  HZ EP   2    639 26.75                             136    0.27 5  129 180 
 RUS  HN ES   1    639 46.69                             136    0.06 7  129 180 
                                                                                
