 2011  321 0529 21.9 L   6.809 -73.114146.1  RSN  5 0.2 1.8LRSN                1
 GAP=186        0.49       2.2     3.4  5.1 -0.1684E+01  0.8479E+01 -0.2350E+01E
 Epicentro: LOS SANTOS - SANTANDER                                             3
 ACTION:UP  11-06-16 14:34 OP:jfem STATUS:               ID:20110321052921 L   I
 2011-03-21-0523-55S.COL___130                                                 6
 STAT SP IPHASW D HRMM SECON CODA AMPLIT PERI AZIMU VELO SNR AR TRES W  DIS CAZ7
 BAR2 SZ EP        529 41.73                             170     0.110   25 198 
 BAR2 SZ ES   1    529 56.90                             170    -0.1 7   25 198 
 BAR2 SZ I         529 58.14        20.6 0.21                            25 198 
 RUS  HZ EP        529 45.70                             144     0.010  101 178 
 RUS  HZ I         529 46.43         6.7 0.28                           101 178 
 RUS  HN ES        530  4.40                             144     0.110  101 178 
 OCA  SZ EP   1    529 50.38                             130     0.2 7  160 352 
 OCA  SZ ES        530 12.15                             130    -0.1 9  160 352 
 OCA  SZ I         530 15.03         7.2 0.20                           160 352 
 NOR  SN ES        530 26.00                             118    -0.2 8  238 235 
 HEL  HZ EP        530  2.31                             114    -0.2 7  276 256 
 HEL  HN ES        530 34.56                             114     0.3 7  276 256 
 HEL  HZ I         530 40.61         3.0 0.41                           276 256 
                                                                                
