 2011  921 0925 52.2 L   6.708 -73.161146.0  RSN  9 0.3 2.1LRSN                1
 GAP=201        0.63       3.4     4.1  4.9  0.4230E+01  0.6847E+01  0.5030E+01E
 Epicentro: VILLANUEVA - SANTANDER                                             3
 ACTION:UPD 12-07-13 15:58 OP:ep   STATUS:               ID:20110921092552 L   I
 2011-09-21-0923-21S.COL___165                                                 6
 STAT SP IPHASW D HRMM SECON CODA AMPLIT PERI AZIMU VELO AIN AR TRES W  DIS CAZ7
 BAR2 SZ EP        926 11.64                             175   -0.0410 13.1 190 
 BAR2 SZ ES   1    926 26.80                             175   -0.09 7 13.1 190 
 BAR2 SZ I         926 28.19        47.2 0.19                          13.1 190 
 BTL  SZ EP   1    926 11.79                             169   -0.12 7 26.0 333 
 BRR  HZ EP        926 13.47                             151   -0.1210 75.2 306 
 BRR  HZ I         926 13.77        42.6 0.11                          75.2 306 
 BRR  HN ES        926 30.61                             151    0.3310 75.2 306 
 RUS  HZ EP   1    926 15.16                             147   -0.11 7 90.6 175 
 RUS  HN ES   1    926 33.28                             147    0.01 7 90.6 175 
 RUS  HZ I         926 35.48        17.5 0.32                          90.6 175 
 ZAR  HZ EP   1    926 25.07                             122    0.16 6  207 295 
 ZAR  HE ES   1    926 49.85                             122   -0.58 6  207 295 
 ZAR  HZ I         926 55.91        15.6 0.29                           207 295 
 NOR  SZ EP   1    926 27.06                             119   -0.11 6  228 236 
 NOR  SE ES   1    926 53.63                             119   -0.82 6  228 236 
 CHI  HZ EP   1    926 28.93                             118    0.13 6  238 195 
 CHI  HE ES   1    926 57.55                             118    0.20 6  238 195 
 CHI  HZ I         927  1.39         4.9 0.47                           238 195 
 HEL  HZ EP   1    926 32.21                             115    0.23 6  268 258 
 HEL  HN ES   1    927  3.71                             115    0.70 6  268 258 
 HEL  HZ I         927 12.25         4.9 0.20                           268 258 
 PRA  HZ EP   1    926 45.11                             107    0.52 4  382 210 
                                                                                
