 2013  421 0048 21.1 L   6.776 -73.201155.2  RSN  4 0.3 1.4LRSN                1
 GAP=196        0.68       4.3     6.8  6.5  0.1337E+02 -0.1133E+02 -0.7999E+01E
 Epicentro: ZAPATOCA - SANTANDER                                               3
 ACTION:UPD 13-05-22 14:39 OP:EP   STATUS:               ID:20130421004821 L   I
 2013-04-21-0040-00M.COL___250                                                 6
 STAT SP IPHASW D HRMM SECON CODA AMPLIT PERI AZIMU VELO AIN AR TRES W  DIS CAZ7
 BRR  HZ EP        048 43.14                             155    0.1110 67.3 303 
 BRR  HZ I         048 57.56         7.2 0.38            154           67.3 303 
 BRR  HN ES        049  0.07                             155   -0.1010 67.3 303 
 RUS  HZ EP        048 45.50                             146   -0.1110 98.5 172 
 RUS  HN ES   1    049  4.90                             146    0.15 7 98.5 172 
 RUS  HZ I         049  5.15         2.2 0.54            147           98.5 172 
 PTB  HZ EP        048 48.63                             135    0.38 9  141 259 
 PTB  HN ES   1    049  9.12                             135   -0.33 7  141 259 
 PTB  HZ I         049 10.32         4.4 0.12            135            141 259 
 SML  HZ EP        048 57.71                             119   -0.52 8  244 337 
 SML  HN ES   1    049 27.67                             119    0.45 6  244 337 
                                                                                
