 2011  821 0945 37.3 L   6.789 -73.098147.5  RSN 13 0.4 2.9LRSN                1
 GAP=161        0.74       2.8     4.8  5.1 -0.3065E+01  0.5889E+01  0.1302E+01E
 Epicentro: LOS SANTOS - SANTANDER                                             3
 ACTION:UPD 12-07-13 15:53 OP:ep   STATUS:               ID:20110821094537 L   I
 2011-08-21-0944-03S.COL___151                                                 6
 STAT SP IPHASW D HRMM SECON CODA AMPLIT PERI AZIMU VELO AIN AR TRES W  DIS CAZ7
 BAR2 SZ IP     C  945 57.08                             170   -0.0510 23.7 203 
 BAR2 SZ ES   1    946 12.56                             170   -0.05 7 23.7 203 
 BAR2 SZ I         946 13.27       100.2 0.25                          23.7 203 
 BRR  HZ IP     C  945 58.95                             151    0.0310 76.4 297 
 BRR  HZ I         945 59.33       141.6 0.13                          76.4 297 
 BRR  HE ES   1    946 16.28                             151    0.49 7 76.4 297 
 RUS  HZ EP        946  0.90                             145   -0.2110 99.2 179 
 RUS  HZ I         946  2.17        32.5 0.11                          99.2 179 
 RUS  HN ES   1    946 19.34                             145   -0.35 7 99.2 179 
 BRI  SZ EP   1    946  1.56                             142    0.26 7  108  18 
 OCA  SZ EP        946  5.66                             130   -0.25 9  162 351 
 OCA  SZ ES   1    946 28.33                             130    0.10 7  162 351 
 OCA  SZ I         946 32.58       112.7 0.37                           162 351 
 NOR  SZ EP   1    946 12.66                             118   -0.84 6  238 235 
 NOR  SE ES   1    946 41.30                             118   -0.45 6  238 235 
 CHI  HZ EP   1    946 15.01                             117   -0.10 6  249 196 
 CHI  HZ I         946 15.72        18.8 0.20                           249 196 
 CHI  HN ES   1    946 45.29                             117    0.68 6  249 196 
 ROSC BZ EP   1    946 16.63                             117    0.94 6  254 212 
 ROSC BN ES   1    946 46.06                             117    0.42 6  254 212 
 ROSC BZ I         946 55.03        57.8 0.43                           254 212 
 HEL  HZ EP   1    946 18.39                             115    0.27 6  277 256 
 HEL  HN ES   1    946 49.61                             115   -0.36 6  277 256 
 HEL  HZ I         946 56.37        60.0 0.44                           277 256 
 RREF HZ EP   1    946 24.17                             111    0.30 5  325 230 
 RREF HZ I         947  9.13        38.4 0.23                           325 230 
 DBB  SZ EP   1    946 25.15                             109   -0.30 5  345 274 
 TOL  SZ EP   1    946 26.72                             109    0.78 5  346 225 
 PRA  HZ EP   1    946 30.30                             107   -0.75 4  394 210 
 PRA  HZ I         946 32.90       109.6 0.14                           394 210 
 PRA  HN ES   1    947 12.87                             107   -0.12 4  394 210 
                                                                                
