 2011  721 0643 35.1 L   6.825 -73.100144.0  RSN  5 0.2 1.5LRSN                1
 GAP=181        0.50       4.5     8.2  6.8  0.8062E+01 -0.2728E+02 -0.1335E+02E
 Epicentro: LOS SANTOS - SANTANDER                                             3
 ACTION:UPD 12-07-25 14:02 OP:epov STATUS:               ID:20110721064335 L   I
 2011-07-21-0640-00M.COL___137                                                 6
 STAT SP IPHASW D HRMM SECON CODA AMPLIT PERI AZIMU VELO AIN AR TRES W  DIS CAZ7
 BAR2 SZ EP   1    643 54.40                             169   -0.22 7 27.3 200 
 BAR2 SZ ES   1    644  9.97                             169    0.14 7 27.3 200 
 BAR2 SZ I         644 10.47         4.6 0.22                          27.3 200 
 GIR2 SZ EP   1    643 54.33                             168   -0.21 7 29.9 340 
 BRR  HZ EP   1    643 56.14                             151   -0.12 7 74.5 295 
 BRR  HZ I         643 56.30        11.1 0.13                          74.5 295 
 BRR  HN ES   1    644 12.91                             151    0.15 7 74.5 295 
 BRI  SZ EP   1    643 58.70                             142    0.19 7  104  19 
 OCA  SZ EP   1    644  3.49                             130    0.39 7  158 351 
 OCA  SZ ES   1    644 24.62                             130   -0.30 7  158 351 
 OCA  SZ I         644 28.83         3.7 0.23                           158 351 
                                                                                
