 2014 1121 0752 34.7 L   6.749 -73.527105.7  RSN 18 0.6 2.1LRSN                1
 GAP= 47        1.44       3.1     3.0  6.4 -0.5229E+00  0.6239E+01  0.1498E+01E
 Epicentro: EL CARMEN - SANTANDER                                              3
 ACTION:UPD 14-12-19 15:45 OP:nd   STATUS:               ID:20141121075234 L   I
 OLDACT:REG 14-11-21 13:07 OP:fm   STATUS:               ID:20141121074744     3
 2014-11-21-0747-44M.COL___301                                                 6
 STAT SP IPHASW D HRMM SECON CODA AMPLIT PERI AZIMU VELO AIN AR TRES W  DIS CAZ7
 BAR2 SZ EP        752 50.74                             157    0.5410 41.9 115 
 BAR2 SZ ES        753  3.03                             157    0.7110 41.9 115 
 BAR2 SZ I         753  4.91       129.7 0.20            159           41.9 115 
 BRR  HZ IP     D  752 50.55                             155    0.5710 44.5 333 
 BRR  HE ES        753  2.32                             155    0.3810 44.5 333 
 BRR  HZ I         753  4.03        34.5 0.36            156           44.5 333 
 PTB  HZ IP     D  752 53.78                             131   -0.7310  105 257 
 PTB  HE ES        753  8.89                             131   -1.1110  105 257 
 PTB  HZ I         753  9.82        37.0 0.36            132            105 257 
 RUS  HZ EP        752 55.34                             131    0.0610  107 153 
 RUS  HN ES        753 11.32                             131   -0.0510  107 153 
 RUS  HZ I         753 12.91        37.2 0.40            133            107 153 
 PAM  SZ EP        752 56.21                             130    0.4210  112  54 
 PAM  SE ES        753 11.70                             130   -0.5810  112  54 
 PAM  SZ I         753 13.98        18.2 0.22            132            112  54 
 SPBC HZ EP     D  752 57.19                             124   -0.35 9  136 206 
 SPBC HE ES        753 14.56                             124   -0.82 9  136 206 
 SPBC HZ I         753 21.60        33.5 0.50            125            136 206 
 OCA  HZ EP        753  0.97                             118    0.12 9  166   8 
 OCA  HN ES        753 21.43                             118    0.14 9  166   8 
 OCA  HZ I         753 27.45        16.2 0.28            120            166   8 
 ZAR  HZ EP        753  1.87                             117    0.97 9  168 299 
 ZAR  HN ES        753 21.77                             117    0.40 9  168 299 
 ZAR  HZ I         753 25.37        22.8 0.38            118            168 299 
 TAM  HZ EP     C  753  4.27                             113    0.39 9  195 100 
 TAM  HN ES        753 25.53                             113   -1.15 9  195 100 
 TAM  HZ I         753 27.36         5.6 0.24            115            195 100 
 NOR  HZ EP        753  3.19                             113   -1.06 9  198 229 
 NOR  HE ES        753 27.90                             113    0.57 9  198 229 
 NOR  HZ I         753 29.89        16.5 0.14            114            198 229 
 HEL  HZ EP        753  8.22                             109   -0.04 8  230 255 
 HEL  HN ES        753 34.88                             109    0.41 8  230 255 
 HEL  HZ I         753 38.66         8.0 0.66            110            230 255 
 CHI  HZ EP        753  9.40                             109    0.43 8  236 186 
 URE  HZ EP        753  9.41                             107   -0.47 8  248 297 
 URE  HN ES        753 36.62                             107   -0.73 8  248 297 
 URE  HZ I         753 38.96        21.3 0.12            109            248 297 
 CBOC HZ EP        753 16.03                             104    0.76 7  292 251 
 CBOC HN ES        753 47.45                             104    0.50 7  292 251 
 CBOC HZ I         753 51.38         4.5 0.22            105            292 251 
 DBB  SZ ES   1    753 48.06                             103    0.02 5  298 276 
 TOL  SZ EP        753 17.65                             103   -0.09 7  311 220 
 TOL  SN ES        753 51.88                             103    0.53 7  311 220 
 TOL  SZ I         753 56.85        15.3 0.74            104            311 220 
 MON  HZ EP        753 18.22                             102   -0.84 7  326 314 
 MON  HN ES        753 53.09                             102   -0.60 7  326 314 
 MON  HZ I         753 55.77         4.8 0.26            103            326 314 
 ORTC HZ EP        753 24.65                              99    0.52 6  367 211 
 ORTC HN ES        754  3.24                              99    0.52 6  367 211 
 ORTC HZ I         754  9.80         3.5 0.54            101            367 211 
                                                                                
