 2016  421 0113 10.3 L   6.798 -73.170143.7  RSN  6 0.2 1.3LRSN                1
 GAP=142        0.49       2.7     2.7  3.5 -0.3555E+01  0.3520E+01 -0.4597E+00E
 Epicentro: LOS SANTOS - SANTANDER                                             3
 ACTION:UPD 16-05-05 14:23 OP:rebc STATUS:               ID:20160421011310 L   I
 OLDACT:ARG 16-04-21 12:49 OP:cara STATUS:               ID:20160421010745     3
 2016-04-21-0107-45M.COL___304                                                 6
 STAT SP IPHASW D HRMM SECON CODA AMPLIT PERI AZIMU VELO AIN AR TRES W  DIS CAZ7
 BAR2 EZ IP        113 29.72                             171    0.0110 22.8 183 
 BAR2 EZ ES        113 45.06                             171    0.2310 22.8 183 
 BAR2 EZ I         113 46.21         4.8 0.20            170           22.8 183 
 PAM  EZ EP        113 32.44                             150   -0.0110 79.3  41 
 PAM  EN ES        113 49.75                             150    0.0510 79.3  41 
 PAM  EZ I         113 51.63         2.8 0.50            154           79.3  41 
 RUS  HZ EP        113 33.76                             143   -0.1310  101 174 
 RUS  HN ES        113 52.02                             143   -0.2510  101 174 
 RUS  HZ I         113 53.38         1.3 0.48            148            101 174 
 PTB  HZ EP        113 36.65                             132   -0.24 9  145 259 
 PTB  HN ES        113 57.40                             132   -0.21 9  145 259 
 PTB  HZ I         114  4.88         2.7 0.36            132            145 259 
 SPBC HZ EP        113 38.68                             129    0.17 9  161 218 
 SPBC HE ES        114  0.64                             129    0.16 9  161 218 
 SPBC HZ I         114  5.61         4.0 0.58            131            161 218 
 GUY2CHZ EP     D  113 53.91                             112    0.32 7  299 234 
 GUY2CHN ES        114 27.43                             112    0.10 7  299 234 
 GUY2CHZ I         114 36.09         1.8 0.42                           299 234 
                                                                                
