 2011  621 0617 29.9 L   6.793 -73.083152.9  RSN  7 0.3 1.5LRSN                1
 GAP=166        0.60       3.6     5.1  5.9 -0.3689E+01 -0.4134E+00  0.4011E+01E
 Epicentro: LOS SANTOS - SANTANDER                                             3
 ACTION:UP  11-07-14 19:06 OP:ep   STATUS:               ID:20110621061729 L   I
 2011-06-21-0600-00M.COL___126                                                 6
 STAT SP IPHASW D HRMM SECON CODA AMPLIT PERI AZIMU VELO SNR AR TRES W  DIS CAZ7
 BAR2 SZ EP        617 50.28                             170    -0.110   25 206 
 BAR2 SZ I         617 50.72         7.7 0.35                            25 206 
 BAR2 SZ ES   2    618  6.69                             170     0.3 5   25 206 
 BRR  HZ EP        617 52.22                             152     0.010   78 297 
 BRR  HN ES        618  9.38                             152    -0.210   78 297 
 BRR  HZ I         618 11.97         7.6 0.03                            78 297 
 RUS  HZ EP   1    617 54.35                             145     0.1 7  100 180 
 RUS  HE ES   2    618 13.51                             145     0.2 5  100 180 
 RUS  HZ I         618 14.28         2.6 0.29                           100 180 
 GRA  SZ ES   1    618 16.04                             139     0.2 7  125  14 
 GRA  SZ I         618 16.95         4.2 0.13                           125  14 
 OCA  SZ EP   1    617 58.53                             131    -0.4 7  162 351 
 OCA  SZ ES   2    618 21.83                             131     0.3 5  162 351 
 OCA  SZ I         618 27.43         3.7 0.20                           162 351 
 NOR  SZ EP   2    618  6.66                             119     0.1 4  240 236 
 NOR  SN ES   2    618 34.65                             119    -0.6 4  240 236 
 HEL  HZ EP   2    618 12.02                             116     0.8 4  279 256 
 HEL  HN ES   2    618 44.02                             116     0.6 4  279 256 
 HEL  HZ I         618 49.26         1.3 0.32                           279 256 
                                                                                
