 2012  721 0415 47.5 L   6.803 -73.150139.6  RSN  8 0.5 1.6LRSN                1
 GAP=136        1.14       5.6     6.0 10.5 -0.4341E+01  0.1323E+02 -0.5354E+00E
 Epicentro: LOS SANTOS - SANTANDER                                             3
 ACTION:UPD 12-08-14 11:46 OP:ep   STATUS:               ID:20120721041547 L   I
 2012-07-21-0410-00M.COL___215                                                 6
 STAT SP IPHASW D HRMM SECON CODA AMPLIT PERI AZIMU VELO AIN AR TRES W  DIS CAZ7
 BAR2 SZ EP   1    416  6.56                             170     0.1 7   24 189 
 BAR2 SZ ES   1    416 21.30                             170     0.1 7   24 189 
 BAR2 SZ I         416 22.69         9.2 0.22            170             24 189 
 BRR  HZ EP        416  8.31                             152     0.310   71 298 
 BRR  HN ES   1    416 24.92                             152     1.0 7   71 298 
 BRR  HZ I         416 28.87        16.1 0.16            152             71 298 
 PAM  SZ EP        416  9.38                             150     0.310   77  40 
 PAM  SN ES   1    416 25.26                             150    -0.7 7   77  40 
 RUS  HZ EP   1    416 10.85                             142     0.1 7  101 176 
 RUS  HN ES   1    416 28.40                             142    -0.4 7  101 176 
 RUS  HZ I         416 30.72         2.5 0.18            146            101 176 
 PTB  HZ EP   1    416 13.44                             131    -0.5 7  147 259 
 PTB  HN ES   1    416 33.78                             131    -0.8 7  147 259 
 PTB  HZ I         416 37.71         3.9 0.17            133            147 259 
 OCA  HN ES   1    416 36.57                             128    -0.4 7  160 353 
 ZAR  HN ES   1    416 44.32                             121    -0.1 6  203 292 
 ZAR  HZ I         416 46.42         5.2 0.26            123            203 292 
 NOR  SN ES   1    416 50.76                             117     0.3 6  234 234 
