 2011 1021 0754 40.5 L   6.791 -73.145141.0  RSN 18 0.3 2.9LRSN                1
 GAP=103        0.42       1.8     2.3  3.4 -0.1663E+00  0.2042E+01  0.1745E+01E
 Epicentro: LOS SANTOS - SANTANDER                                             3
 ACTION:UPD 12-07-13 16:05 OP:ep   STATUS:               ID:20111021075440 L   I
 2011-10-21-0752-17S.COL___171                                                 6
 STAT SP IPHASW D HRMM SECON CODA AMPLIT PERI AZIMU VELO AIN AR TRES W  DIS CAZ7
 BAR2 SZ IP        754 59.62                             171    0.0910 22.4 191 
 BAR2 SZ I         754 59.82       259.6 0.38                          22.4 191 
 BAR2 SZ ES   2    755 13.77                             171   -0.61 5 22.4 191 
 GIR2 SZ IP        754 59.69                             166    0.0610 32.3 350 
 GIR2 SZ ES   2    755 14.33                             166   -0.22 5 32.3 350 
 BRR  HZ IP     C  755  1.50                             151    0.3410 71.7 299 
 BRR  HZ I         755  1.86       284.1 0.07                          71.7 299 
 BRR  HE ES   2    755 17.94                             151    0.66 5 71.7 299 
 PAM  SZ EP   1    755  2.45                             150    0.20 7 78.1  39 
 PAM  SN ES   2    755 19.09                             150   -0.13 5 78.1  39 
 RUS  HZ IP     C  755  3.59                             143   -0.1210 99.6 176 
 RUS  HZ I         755  4.83        76.1 0.14                          99.6 176 
 RUS  HN ES   2    755 21.55                             143   -0.26 5 99.6 176 
 OCA  SZ EP   1    755  8.34                             128   -0.20 7  161 353 
 OCA  SZ ES   2    755 29.84                             128   -0.56 5  161 353 
 OCA  SZ I         755 33.25       108.6 0.38                           161 353 
 YOP  SZ EP   1    755 10.47                             125    0.36 7  178 153 
 YOP  SZ I         755 11.33        32.0 0.23                           178 153 
 YOP  SE ES   2    755 33.38                             125    0.18 4  178 153 
 ZAR  HZ EP   2    755 12.40                             121   -0.28 4  205 292 
 ZAR  HE ES   2    755 37.87                             121    0.09 4  205 292 
 ZAR  HZ I         755 44.28       104.4 0.53                           205 292 
 NOR  SZ EP   2    755 15.75                             117   -0.15 4  234 235 
 NOR  SN ES   2    755 43.44                             117   -0.07 4  234 235 
 ROSC BZ EP   2    755 18.25                             116   -0.02 4  252 211 
 ROSC BE ES   2    755 47.46                             116   -0.27 4  252 211 
 ROSC BZ I         755 54.63        63.1 0.48                           252 211 
 HEL  HZ EP   2    755 20.20                             114   -0.25 4  272 256 
 HEL  HE ES   2    755 51.47                             114   -0.14 4  272 256 
 HEL  HZ I         755 58.10        55.0 0.59                           272 256 
 VIL  SZ EP   2    755 23.76                             111    0.17 4  302 192 
 VIL  SE ES   2    755 57.25                             111    0.05 4  302 192 
 VIL  SZ I         756  7.41        22.5 0.46                           302 192 
 GUY  SZ EP   2    755 24.53                             111    0.44 4  303 235 
 GUY  SN ES   2    755 58.29                             111    0.19 4  303 235 
 GUY  SZ I         756  6.90        68.6 0.22                           303 235 
 RREF HZ EP   2    755 26.31                             110   -0.06 3  321 230 
 RREF HN ES   2    756  2.15                             110    0.00 3  321 230 
 RREF HZ I         756 10.20        50.4 0.56                           321 230 
 DBB  SZ EP   2    755 27.49                             109   -0.31 3  340 274 
 DBB  SZ ES   2    756  4.49                             109   -0.21 3  340 274 
 TOL  SZ EP   2    755 28.51                             108    0.02 3  343 225 
 SDV  BZ EP   2    755 29.67                             107   -0.76 3  361  50 
 SDV  BZ I         755 30.17        32.1 0.51                           361  50 
 PRA  HZ EP        755 33.43                             106   -0.33 6  391 210 
 PRA  HN ES   2    756 15.01                             106   -0.29 3  391 210 
                                                                                
