 2011  421 0833 17.2 L   6.794 -73.106146.0  RSN 11 0.4 1.9LRSN                1
 GAP=118        0.87       3.7     5.6  6.9 -0.3640E+01  0.6255E+01  0.5201E+01E
 Epicentro: LOS SANTOS - SANTANDER                                             3
 ACTION:UP  11-06-22 15:32 OP:REBC STATUS:               ID:20110421083317 L   I
 2011-04-21-0830-09S.COL___139                                                 6
 STAT SP IPHASW D HRMM SECON CODA AMPLIT PERI AZIMU VELO SNR AR TRES W  DIS CAZ7
 BAR2 SZ EP        833 36.72                             170    -0.210   24 201 
 BAR2 SZ I         833 36.97        16.6 0.19                            24 201 
 BRR  HZ EP        833 38.62                             151     0.010   75 297 
 BRR  HZ I         833 40.24        17.2 0.21                            75 297 
 BRR  HN ES   1    833 55.79                             151     0.5 7   75 297 
 PAM  SZ EP        833 39.59                             152     0.310   75  37 
 PAM  SN ES   1    833 56.67                             152     0.1 7   75  37 
 RUS  HZ EP        833 40.62                             144    -0.310  100 179 
 RUS  HZ I         833 41.40         5.0 0.15                           100 179 
 RUS  HN ES   1    833 59.56                             144     0.1 7  100 179 
 BRI  SZ ES   2    833 59.99                             142     0.3 5  108  18 
 GRA  SZ EP        833 42.54                             138     0.110  125  15 
 GRA  SZ ES   2    834  1.84                             138    -0.3 5  125  15 
 GRA  SZ I         834  3.32        11.3 0.60                           125  15 
 OCA  SZ EP        833 45.30                             130    -0.4 9  161 352 
 OCA  SZ ES   2    834  7.11                             130    -0.7 5  161 352 
 OCA  SZ I         834 11.78         7.2 0.39                           161 352 
 YOP  SZ EP        833 47.17                             127     0.1 9  176 154 
 NOR  SZ EP        833 52.81                             118    -0.5 8  238 235 
 NOR  SN ES   2    834 21.04                             118    -0.4 4  238 235 
 HEL  HZ EP   1    833 58.83                             115     0.9 6  276 256 
 RREF HZ EP   2    834  4.92                             111     1.2 3  325 230 
 RREF HZ I         834 48.76         5.6 0.41                           325 230 
                                                                                
