 2014  321 0843 23.3 L   6.827 -73.159143.0  RSN 11 0.4 2.3LRSN                1
 GAP=134        0.91       3.0     4.1  6.9 -0.2028E+00  0.8350E+01 -0.1015E+01E
 Epicentro: LOS SANTOS - SANTANDER                                             3
 ACTION:UPD 14-04-09 23:19 OP:nd   STATUS:               ID:20140321084323 L   I
 OLDACT:UP  14-03-21 15:27 OP:mh   STATUS:               ID:20140321083810d    3
 OLDACT:UP  14-03-21 15:27 OP:mh   STATUS:               ID:20140321083810d    3
 OLDACT:DUP 14-03-21 15:27 OP:mh   STATUS:               ID:20140321083810d    3
 2014-03-21-0838-09M.COL___238                                                 6
 STAT SP IPHASW D HRMM SECON CODA AMPLIT PERI AZIMU VELO AIN AR TRES W  DIS CAZ7
 BAR2 SZ EP        843 42.79                             169    0.1610 26.1 186 
 BAR2 SZ I         843 59.15        74.0 0.22            169           26.1 186 
 PAM  SZ EP   1    843 45.68                             151    0.57 7 76.1  42 
 PAM  SN ES   1    844  2.54                             151    0.39 7 76.1  42 
 RUS  HZ EP        843 46.71                             142   -0.2710  104 175 
 RUS  HN ES        844  5.42                             142   -0.0510  104 175 
 RUS  HZ I         844  6.58        22.8 0.24            144            104 175 
 PTB  HZ EP        843 49.26                             132   -0.67 9  147 258 
 PTB  HN ES        844 10.23                             132   -0.50 9  147 258 
 PTB  HZ I         844 12.43        22.4 0.09            132            147 258 
 SPBC HZ EP        843 51.59                             128   -0.10 9  165 218 
 SPBC HN ES   1    844 14.29                             128    0.43 7  165 218 
 SPBC HZ I         844 18.03        21.3 0.14            129            165 218 
 ZAR  HZ EP   1    843 55.32                             122    0.04 6  202 292 
 ZAR  HN ES   1    844 20.39                             122    0.15 6  202 292 
 ZAR  HZ I         844 26.35        14.1 0.11            123            202 292 
 NOR  HZ EP   1    843 58.68                             118   -0.22 6  235 234 
 NOR  HN ES   1    844 27.07                             118    0.38 6  235 234 
 NOR  HZ I         844 31.57        14.0 0.24            119            235 234 
 SML  HZ EP        843 59.14                             117   -0.24 8  240 335 
 SML  HN ES        844 27.32                             117   -0.22 8  240 335 
 SML  HZ I         844 31.84        23.8 0.08            118            240 335 
 CHI  HZ EP        844  0.75                             116   -0.34 8  251 195 
 CHI  HN ES        844 30.43                             116   -0.16 8  251 195 
 CHI  HZ I         844 34.45        10.7 0.59            117            251 195 
 HEL  HZ EP   1    844  4.42                             114    1.16 6  271 255 
 HEL  HN ES   1    844 35.02                             114    0.56 6  271 255 
 HEL  HZ I         844 40.93         9.1 0.20            115            271 255 
 URE  HZ EP   4    844  2.76                             113   -1.16 0  281 291 
 URE  HN ES   4    844 33.98                             113   -1.66 0  281 291 
 RREF HZ EP        844 10.27                             110    0.88 7  323 229 
 RREF HE ES   4    844 48.15                             110    2.79 0  323 229 
 RREF HZ I         844 55.29        10.7 0.37            111            323 229 
                                                                                
