 2016  521 0946 26.0 L   7.440 -73.188130.8  RSN 15 0.4 2.2LRSN                1
 GAP=111        0.86       2.7     2.5  4.5  0.6074E+00  0.3053E+01  0.2681E+01E
 Epicentro: EL PLAYON - SANTANDER                                              3
 ACTION:UPD 16-08-18 17:48 OP:cam  STATUS:               ID:20160521094626 L   I
 OLDACT:UP  16-05-24 15:33 OP:dnl  STATUS:               ID:20160521094626 L   3
 OLDACT:UP  16-05-21 16:26 OP:mh   STATUS:               ID:20160521093740     3
 OLDACT:UP  16-05-21 16:23 OP:mh   STATUS:               ID:20160521093740     3
 OLDACT:REG 16-05-21 13:10 OP:mh   STATUS:               ID:20160521093740     3
 2016-05-21-0937-40M.COL___286                                                 6
 STAT SP IPHASW D HRMM SECON CODA AMPLIT PERI AZIMU VELO AIN AR TRES W  DIS CAZ7
 PAM  EZ EP        946 45.63                             156    0.2410 55.0 102 
 PAM  EN ES        947  0.74                             156    0.2510 55.0 102 
 PAM  EZ I         947  3.47        45.0 0.34            159           55.0 102 
 BRR  HZ EP        946 45.48                             151    0.0610 68.6 238 
 BRR  HN ES        947  0.71                             151    0.1610 68.6 238 
 BRR  HZ I         947  1.07        32.9 0.22            147           68.6 238 
 OCA  HZ EP        946 46.70                             143   -0.3410 89.5 351 
 OCA  HN ES        947  3.60                             143    0.1810 89.5 351 
 OCA  HZ I         947  5.77        71.3 0.42            143           89.5 351 
 BAR2 EZ EP        946 47.39                             142   -0.0710 93.7 180 
 BAR2 EZ ES        947  3.72                             142   -0.4610 93.7 180 
 BAR2 EZ I         947  4.63        42.7 0.38            141           93.7 180 
 RUS  HZ EP        946 54.47                             124   -0.32 9  171 176 
 RUS  HN ES        947 16.53                             124   -0.69 9  171 176 
 RUS  HZ I         947 20.39         8.9 0.23            123            171 176 
 PTB  HZ EP        946 53.95                             124   -0.26 9  172 235 
 PTB  HN ES        947 15.87                             124   -0.31 9  172 235 
 PTB  HZ I         947 17.84        17.5 0.14            122            172 235 
 ZAR  HZ EP        946 55.33                             122   -0.15 9  184 272 
 ZAR  HN ES        947 18.65                             122    0.20 9  184 272 
 ZAR  HZ I         947 21.01        30.8 0.24            120            184 272 
 TAM  HZ EP        946 56.31                             121    0.19 9  190 126 
 TAM  HN ES        947 19.80                             121    0.21 9  190 126 
 TAM  HZ I         947 20.86        20.7 0.28            121            190 126 
 URE  HZ EP        947  3.90                             112    0.07 8  261 278 
 URE  HN ES   4    947 30.32                             112   -2.99 0  261 278 
 URE  HZ I         947 40.21        16.5 0.18            111            261 278 
 NOR  HZ EP        947  5.95                             111    0.08 7  279 222 
 NOR  HN ES        947 37.07                             111    0.12 7  279 222 
 NOR  HZ I         947 41.88         9.8 0.26            110            279 222 
 HEL  HZ EP        947  7.76                             110   -0.19 7  293 242 
 HEL  HE ES        947 40.97                             110    0.32 7  293 242 
 HEL  HZ I         947 48.24         6.0 0.34            109            293 242 
 CHI  HZ EP   1    947 10.72                             108    0.04 5  317 191 
 CHI  HE ES        947 46.98                             108    1.47 7  317 191 
 CBOC HZ EP   4    947 15.66                             106    0.48 0  358 241 
 CBOC HN ES   4    947 50.23                             106   -3.28 0  358 241 
 CBOC HZ I         948 14.09         2.5 0.50            105            358 241 
 CRJC HZ EP   4    947 17.80                             104   -1.97 0  397   5 
 CRJC HN ES   4    947 58.15                             104   -3.54 0  397   5 
 CRJC HZ I         948  2.10         5.6 0.21            103            397   5 
 ORTC HZ EP        947 26.11                             101   -0.11 5  452 210 
 ORTC HN ES   4    948 15.11                             101    1.93 0  452 210 
 ORTC HZ I         948 24.45         4.0 0.44            101            452 210 
                                                                                
