 2010  621 0504 27.4 L   6.794 -73.051135.7  RSN 10 0.4 1.8LRSN                1
 GAP=167        0.69       3.9     6.0  7.4 -0.6917E+01 -0.4197E+01  0.3107E+01E
 Epicentro: LOS SANTOS - SANTANDER                                             3
 ACTION:UP  10-08-24 10:12 OP:vdl  STATUS:               ID:20100621050427 L   I
 2010-06-21-0502-59S.COL___118                                                 6
 STAT SP IPHASW D HRMM SECON CODA AMPLIT PERI AZIMU VELO SNR AR TRES W  DIS CAZ7
 BAR2 SZ EP        5 4 45.79                             168    -0.210   27 213 
 BAR2 SZ ES   2    5 5  0.44                             168     0.1 5   27 213 
 BRR  HZ EP        5 4 48.06                             147    -0.110   81 295 
 BRR  HN ES   1    5 5  4.42                             147     0.2 7   81 295 
 BRR  HZ I         5 5  8.91        10.9 0.09                            81 295 
 RUS  HZ EP   1    5 4 49.98                             142    -0.2 7  100 182 
 RUS  HN ES   2    5 5  7.36                             142    -0.5 5  100 182 
 RUS  HZ I         5 5  9.93         5.8 0.46                           100 182 
 BRI  SZ EP        5 4 50.56                             140     0.410  106  15 
 GRA  SZ EP   2    5 4 51.48                             135    -0.1 5  124  13 
 OCA  SZ ES   2    5 5 16.54                             127    -0.3 5  163 350 
 OCA  SZ I         5 5 22.78         8.1 0.35                           163 350 
 ROSC BZ EP   2    5 5  5.45                             114    -0.1 4  258 213 
 ROSC BE ES   2    5 5 36.67                             114     1.3 4  258 213 
 ROSC BZ I         5 5 44.05         7.4 0.32                           258 213 
 HEL  HZ EP   3    5 5  7.66                             112    -0.6 2  282 256 
 HEL  HE ES   3    5 5 39.88                             112    -0.3 2  282 256 
 HEL  HZ I         5 5 45.62         3.8 0.48                           282 256 
 GUY  HN ES   2    5 5 45.50                             110    -0.5 4  310 236 
 RREF HZ EP   2    5 5 13.21                             108    -0.8 3  329 231 
 RREF HN ES   2    5 5 50.83                             108     0.4 3  329 231 
 RREF HZ I         5 5 57.85         3.5 0.13                           329 231 
                                                                                
