 2011 1121 0844 25.9 L   6.767 -73.131146.3  RSN  6 0.4 1.5LRSN                1
 GAP=140        0.68       4.6     5.3  7.4 -0.9639E+00  0.3259E+01  0.2755E+01E
 Epicentro: LOS SANTOS - SANTANDER                                             3
 ACTION:UPD 12-07-13 16:11 OP:ep   STATUS:               ID:20111121084425 L   I
 2011-11-21-0840-00M.COL___179                                                 6
 STAT SP IPHASW D HRMM SECON CODA AMPLIT PERI AZIMU VELO AIN AR TRES W  DIS CAZ7
 BAR2 SZ EP   1    844 45.57                             172    0.00 7 20.2 196 
 BAR2 SZ ES   1    845  0.61                             172   -0.27 7 20.2 196 
 BAR2 SZ I         845  2.37        14.7 0.10                          20.2 196 
 BRR  HZ EP   2    844 47.59                             151    0.27 5 74.4 300 
 BRR  HN ES   1    845  4.64                             151    0.63 7 74.4 300 
 BRR  HZ I         845  8.00         6.3 0.22                          74.4 300 
 PAM  SZ EP   1    844 48.43                             150    0.12 7 79.2  37 
 PAM  SN ES   1    845  5.39                             150   -0.38 7 79.2  37 
 PAM  SZ I         845  8.10         2.8 0.62                          79.2  37 
 RUS  HZ EP   1    844 49.60                             145    0.13 7 96.9 177 
 RUS  HN ES   1    845  7.96                             145    0.12 7 96.9 177 
 RUS  HZ I         845 10.15         4.6 0.35                          96.9 177 
 ZAR  HN ES   2    845 23.48                             122   -0.80 4  207 293 
 NOR  SN ES   2    845 28.71                             119   -0.74 4  234 235 
                                                                                
