 2015  421 0801  6.7 L   6.812 -73.245138.3  RSN  4 0.4 1.7LRSN                1
 GAP=173        0.88       3.5     5.8 10.2  0.2154E+01 -0.1514E+01 -0.1532E+02E
 Epicentro: ZAPATOCA - SANTANDER                                               3
 ACTION:UPD 15-06-03 16:56 OP:cam  STATUS:               ID:20150421080106 L   I
 OLDACT:REG 15-04-21 15:03 OP:cam  STATUS:               ID:20150421075739     3
 2015-04-21-0757-39M.COL___271                                                 6
 STAT SP IPHASW D HRMM SECON CODA AMPLIT PERI AZIMU VELO AIN AR TRES W  DIS CAZ7
 RUS  HZ EP        8 1 29.61                             141   -0.3210  103 170 
 RUS  HE ES        8 1 48.05                             141    0.0010  103 170 
 RUS  HZ I         8 1 49.19         7.9 0.31            147            103 170 
 PTB  HZ EP        8 1 32.14                             132    0.0210  137 257 
 PTB  HN ES        8 1 52.08                             132    0.1410  137 257 
 PTB  HZ I         8 1 55.22         3.8 0.11            134            137 257 
 OCA  HZ EP        8 1 35.05                             128    0.82 9  158 357 
 OCA  HE ES        8 1 55.63                             128   -0.07 9  158 357 
 SML  HZ EP        8 1 42.02                             116   -0.29 8  238 338 
 SML  HN ES        8 2  9.67                             116   -0.42 8  238 338 
 SML  HZ I         8 2 18.22         6.4 0.10            118            238 338 
                                                                                
