 2015  721 0619 57.6 L   5.951 -73.792108.7  RSN  5 0.4 1.5LRSN                1
 GAP=151        1.04       5.1     4.1 10.9 -0.8557E+01  0.2549E+02 -0.1305E+02E
 Epicentro: SUCRE - SANTANDER                                                  3
 ACTION:UPD 15-09-08 21:49 OP:cam  STATUS:               ID:20150721061957 L   I
 OLDACT:REG 15-07-21 13:10 OP:stll STATUS:               ID:20150721061749     3
 2015-07-21-0617-49M.COL___340                                                 6
 STAT SP IPHASW D HRMM SECON CODA AMPLIT PERI AZIMU VELO AIN AR TRES W  DIS CAZ7
 RUS  HZ EP        620 15.78                             142   -0.3210 78.7  95 
 RUS  HZ I         620 16.74         3.1 0.34            146           78.7  95 
 RUS  HN ES        620 30.15                             142   -0.4110 78.7  95 
 BAR2 EZ EP        620 17.56                             135    0.2610 97.8  44 
 BAR2 EZ ES        620 33.13                             135    0.4310 97.8  44 
 NOR  HZ EP        620 19.84                             127    0.1010  127 250 
 NOR  HN ES        620 37.56                             127    0.5310  127 250 
 NOR  HZ I         620 40.43        10.8 0.34            128            127 250 
 GUY2CHZ EP        620 27.63                             115    0.49 9  192 245 
 GUY2CHE ES        620 49.55                             115   -0.67 9  192 245 
 GUY2CHZ I         620 54.09         1.9 0.40                           192 245 
 ZAR  HZ EP        620 28.20                             112   -0.06 8  207 325 
 ZAR  HN ES        620 51.70                             112   -0.50 8  207 325 
 ZAR  HZ I         620 53.38         5.3 0.20            115            207 325 
                                                                                
