 2017  821 0334 27.3 L   6.311 -73.592114.2  RSN  5 0.2 1.1LRSN                1
 GAP= 97        0.63       2.7     3.2  5.5  0.1689E+01  0.6837E+01 -0.2874E+01E
 Epicentro: SANTA HELENA DEL OPON - SANTANDER                                  3
 ACTION:UPD 17-09-04 20:22 OP:rebc STATUS:               ID:20170821033427 L   I
 OLDACT:REG 17-08-21 12:49 OP:osc  STATUS:               ID:20170821032739     3
 2017-08-21-0328-00M.COL___411                                                 6
 STAT SP IPHASW D HRMM SECON CODA AMPLIT PERI AZIMU VELO AIN AR TRES W  DIS CAZ7
 BAR2 EZ EP        334 44.62                             153    0.1010 55.0  56 
 BAR2 EZ ES        334 58.04                             153    0.1310 55.0  56 
 BAR2 EZ I         334 58.70         2.7 0.11            154           55.0  56 
 RUS  HZ EP        334 45.91                             145   -0.1010 72.9 129 
 RUS  HE ES        335  0.79                             145    0.2310 72.9 129 
 BRR  HZ EP        334 46.27                             139   -0.2510 89.0 351 
 BRR  HE ES        335  1.14                             139   -0.3310 89.0 351 
 SPBC HE ES        335  1.70                             139   -0.1610 90.2 216 
 ZAR  HZ EP        334 56.58                             116    0.02 9  191 313 
 ZAR  HE ES        335 19.81                             116    0.46 9  191 313 
 ZAR  HZ I         335 23.78         2.0 0.38            116            191 313 
                                                                                
