 2014  421 0844 19.9 L   6.825 -73.146141.4  RSN 11 0.5 2.0LRSN                1
 GAP=135        1.13       3.6     4.6  7.7 -0.3437E+01  0.1435E+02 -0.1158E+01E
 Epicentro: LOS SANTOS - SANTANDER                                             3
 ACTION:UPD 14-05-13 23:10 OP:nd   STATUS:               ID:20140421084419 L   I
 OLDACT:DUP 14-04-21 17:42 OP:nd   STATUS:               ID:20140421083813d    3
 2014-04-21-0838-12M.COL___230                                                 6
 STAT SP IPHASW D HRMM SECON CODA AMPLIT PERI AZIMU VELO AIN AR TRES W  DIS CAZ7
 PAM  SZ EP        844 41.62                             151    0.1410 75.3  41 
 PAM  SN ES        844 58.45                             151    0.1110 75.3  41 
 PAM  SZ I         845  0.62        17.2 0.48            154           75.3  41 
 RUS  HZ EP        844 43.29                             142   -0.0810  103 176 
 RUS  HN ES        845  1.89                             142    0.1710  103 176 
 RUS  HZ I         845  3.36        14.5 0.32            145            103 176 
 PTB  HZ EP        844 45.82                             131   -0.69 9  148 258 
 PTB  HN ES        845  6.58                             131   -0.72 9  148 258 
 PTB  HZ I         845  9.03        11.2 0.14            132            148 258 
 SPBC HZ EP        844 47.78                             128   -0.44 9  165 218 
 SPBC HN ES        845 10.37                             128    0.03 9  165 218 
 SPBC HZ I         845 16.22        12.9 0.22            130            165 218 
 ZAR  HZ EP        844 52.04                             121    0.14 9  203 291 
 ZAR  HN ES        845 16.86                             121   -0.04 9  203 291 
 ZAR  HZ I         845 22.02         7.7 0.26            124            203 291 
 NOR  HZ EP        844 55.40                             117   -0.09 8  236 234 
 NOR  HN ES        845 23.65                             117    0.35 8  236 234 
 NOR  HZ I         845 25.49         6.1 0.14            119            236 234 
 SML  HZ EP        844 55.10                             117   -0.86 8  241 335 
 SML  HN ES        845 24.96                             117    0.83 8  241 335 
 SML  HZ I         845 27.19        11.4 0.10            119            241 335 
 GUY2CHZ EP        845  4.46                             111    1.03 7  303 234 
 GUY2CHN ES        845 38.24                             111    0.82 7  303 234 
 GUY2CHZ I         845 45.08         3.9 0.58                           303 234 
 CBOC HZ EP     D  845  7.49                             109    0.81 7  334 252 
 CBOC HN ES        845 42.91                             109   -0.29 7  334 252 
 PRA  HZ EP        845 12.92                             106   -0.58 6  394 209 
 PRA  HN ES   1    845 55.47                             106    0.13 4  394 209 
 PRA  HZ I         846  1.23         3.2 0.26            108            394 209 
 SJC  HZ EP   4    845 13.18                             105   -1.82 0  407 327 
 SJC  HN ES   4    845 51.62                             105   -6.39 0  407 327 
 SJC  HZ I         845 57.50         2.0 0.38            107            407 327 
                                                                                
