 2011 1121 0201 18.1 L   6.328 -73.562113.0  RSN 11 0.4 2.2LRSN                1
 GAP= 75        0.84       3.2     3.3  6.9  0.1005E+01  0.9793E+01  0.7994E+01E
 Epicentro: SANTA HELENA DEL OPON - SANTANDER                                  3
 ACTION:UPD 12-07-13 16:11 OP:ep   STATUS:               ID:20111121020118 L   I
 2011-11-21-0158-54S.COL___171                                                 6
 STAT SP IPHASW D HRMM SECON CODA AMPLIT PERI AZIMU VELO AIN AR TRES W  DIS CAZ7
 BAR2 SZ IP        2 1 35.28                             154    0.3310 51.1  55 
 BAR2 SZ I         2 1 35.42        99.2 0.09                          51.1  55 
 BAR2 SZ ES   1    2 1 48.16                             154    0.09 7 51.1  55 
 RUS  HZ EP        2 1 36.49                             146   -0.0810 71.7 132 
 RUS  HN ES   1    2 1 50.41                             146   -0.55 7 71.7 132 
 RUS  HZ I         2 1 53.76        16.8 0.43                          71.7 132 
 BRR  HZ EP        2 1 36.94                             139   -0.1310 87.7 349 
 BRR  HN ES        2 1 51.82                             139   -0.0310 87.7 349 
 BRR  HZ I         2 1 52.18        28.4 0.14                          87.7 349 
 PAM  SZ EP   1    2 1 42.78                             124   -0.40 7  147  40 
 PAM  SE ES   1    2 2  2.62                             124   -0.10 7  147  40 
 YOP  SZ EP   1    2 1 44.56                             120   -0.11 7  166 130 
 YOP  SN ES   1    2 2  6.35                             120    0.97 7  166 130 
 YOP  SZ I         2 2 11.52        11.2 0.26                           166 130 
 NOR  SZ EP   1    2 1 44.06                             119   -0.70 7  168 240 
 NOR  SE ES   1    2 2  5.21                             119   -0.32 7  168 240 
 ZAR  HZ EP   2    2 1 47.32                             116   -0.08 4  193 312 
 ZAR  HN ES   1    2 2 10.82                             116    0.59 7  193 312 
 ZAR  HZ I         2 2 14.29        19.6 0.36                           193 312 
 HEL  HZ EP   1    2 1 51.18                             113    0.47 6  218 266 
 HEL  HZ I         2 2 18.97         8.7 0.21                           218 266 
 GUY  SZ EP   1    2 1 53.44                             111    0.52 6  236 239 
 GUY  SZ I         2 2 25.11        20.5 0.45                           236 239 
 RREF HZ EP   1    2 1 54.29                             109   -0.73 6  253 231 
 RREF HN ES   1    2 2 24.39                             109    0.59 6  253 231 
 RREF HZ I         2 2 30.83        12.7 0.17                           253 231 
 PRA  HZ EP   1    2 2  2.34                             104   -0.28 5  324 207 
                                                                                
