 2012  421 0219 36.3 L   6.753 -73.158139.0  RSN  9 0.4 2.5LRSN                1
 GAP=137        0.97       4.8     4.9  7.4  0.2796E+01  0.1142E+02  0.8145E+01E
 Epicentro: LOS SANTOS - SANTANDER                                             3
 ACTION:UP  12-07-05 11:55 OP:tino STATUS:               ID:20120421021936 L   I
 2012-04-21-0218-00S.MAN___186                                                 6
 STAT SP IPHASW D HRMM SECON CODA AMPLIT PERI AZIMU VELO AIN AR TRES W  DIS CAZ7
 BAR2 SZ EP        219 55.15                             172     0.210   18 188 
 BAR2 SZ ES   1    220  9.58                             172     0.0 7   18 188 
 BAR2 SZ I         220 11.00       107.8 0.26                            18 188 
 BRR  HZ EP        219 57.01                             151     0.210   73 303 
 BRR  HZ I         219 57.46       161.5 0.09                            73 303 
 BRR  HN ES   1    220 13.68                             151     0.9 7   73 303 
 PAM  SZ EP   1    219 57.95                             148    -0.1 7   82  38 
 PAM  SN ES   1    220 14.49                             148    -0.6 7   82  38 
 RUS  HZ EP        219 59.12                             144     0.110   96 175 
 RUS  HN ES   1    220 16.66                             144    -0.1 7   96 175 
 RUS  HZ I         220 18.46        32.8 0.24                            96 175 
 PTB  HZ EP   1    220  1.73                             131    -0.8 7  145 261 
 PTB  HN ES   1    220 22.66                             131    -0.3 7  145 261 
 PTB  HZ I         220 24.84        26.9 0.10                           145 261 
 ZAR  HZ EP   1    220  8.50                             121     0.1 6  205 294 
 ZAR  HN ES   1    220 32.88                             121    -0.5 6  205 294 
 ZAR  HZ I         220 39.80        48.1 0.36                           205 294 
 CHI  HZ EP   1    220 12.78                             116    -0.2 6  243 195 
 CHI  HN ES   1    220 41.54                             116    -0.1 6  243 195 
 HEL  HZ EP   1    220 16.72                             114     0.9 6  269 257 
 HEL  HN ES   1    220 46.26                             114    -0.5 6  269 257 
 HEL  HZ I         220 53.50        15.7 0.26                           269 257 
 PRA  HZ EP   1    220 29.43                             106     0.5 4  387 210 
                                                                                
