 2014  921 0851 42.5 L   6.783 -73.124146.4  RSN  6 0.3 1.3LRSN                1
 GAP=140        0.69       3.5     3.7  5.0 -0.1344E+01  0.3062E+01 -0.2582E+01E
 Epicentro: LOS SANTOS - SANTANDER                                             3
 ACTION:UPD 14-10-03 23:07 OP:nd   STATUS:               ID:20140921085142 L   I
 OLDACT:REG 14-09-21 13:32 OP:spq  STATUS:               ID:20140921084817     3
 2014-09-21-0848-17M.COL___281                                                 6
 STAT SP IPHASW D HRMM SECON CODA AMPLIT PERI AZIMU VELO AIN AR TRES W  DIS CAZ7
 BAR2 SZ EP        852  2.24                             171    0.0110 22.1 197 
 BAR2 SZ ES   1    852 17.07                             171   -0.51 7 22.1 197 
 BAR2 SZ I         852 19.31         4.7 0.30            173           22.1 197 
 BRR  HZ IP     D  852  4.01                             152    0.0810 74.2 299 
 BRR  HN ES        852 21.10                             152    0.4810 74.2 299 
 BRR  HZ I         852 22.77         2.4 0.18            151           74.2 299 
 PAM  SZ EP     D  852  5.17                             151    0.3510 77.3  37 
 PAM  SE ES        852 22.16                             151   -0.0410 77.3  37 
 PAM  SZ I         852 24.50         3.2 0.58            151           77.3  37 
 RUS  HZ EP   1    852  6.35                             145    0.13 7 98.6 177 
 RUS  HZ E         852  6.35                                           98.6 177 
 RUS  HE ES   1    852 24.36                             145   -0.32 7 98.6 177 
 RUS  HZ I         852 25.92         2.3 0.20            148           98.6 177 
 PTB  HZ EP        852  9.75                             132    0.00 9  150 260 
 PTB  HE ES        852 30.88                             132   -0.09 9  150 260 
 PTB  HZ I         852 32.84         2.5 0.17            133            150 260 
 SML  HZ EP        852 19.12                             117   -0.38 8  246 335 
 SML  HN ES   1    852 47.86                             117   -0.46 6  246 335 
 SML  HZ I         852 54.07         1.6 0.10            118            246 335 
                                                                                
