 2017  921 0933  3.4 L   6.786 -73.091157.6  RSN  7 0.3 1.2LRSN                1
 GAP=144        0.68       3.4     3.8  5.7 -0.3656E+01  0.6801E+01  0.1385E+01E
 Epicentro: LOS SANTOS - SANTANDER                                             3
 ACTION:UPD 17-10-05 19:14 OP:rebc STATUS:               ID:20170921093303 L   I
 OLDACT:UP  17-09-21 17:03 OP:osc  STATUS:               ID:20170921092739     3
 OLDACT:REG 17-09-21 14:30 OP:leo  STATUS:               ID:20170921092739     3
 2017-09-21-0928-00M.COL___404                                                 6
 STAT SP IPHASW D HRMM SECON CODA AMPLIT PERI AZIMU VELO AIN AR TRES W  DIS CAZ7
 BAR2 EZ EP        933 24.25                             171   -0.1710 23.7 205 
 BAR2 EZ I         933 42.17         5.6 0.36            169           23.7 205 
 PAM  EZ EP        933 27.13                             153    0.4210 74.9  35 
 PAM  EE ES        933 44.50                             153   -0.4210 74.9  35 
 PAM  EZ I         933 46.40         1.8 0.25            149           74.9  35 
 BRR  HZ EP        933 26.42                             152    0.2910 77.3 297 
 BRR  HN ES        933 44.12                             152    0.2310 77.3 297 
 RUS  HZ EP        933 28.19                             146    0.0110 98.8 180 
 RUS  HN ES        933 47.44                             146   -0.0910 98.8 180 
 RUS  HZ I         933 49.74         1.8 0.44            142           98.8 180 
 ZAR  HZ EP        933 37.01                             124   -0.22 8  210 292 
 ZAR  HN ES   3    934  2.34                             124   -1.30 2  210 292 
 NOR  HE ES        934  9.03                             120    0.03 8  239 236 
 GUY2CHZ EP   4    933 49.46                             114    1.46 0  305 236 
 GUY2CHE ES        934 22.66                             114   -0.16 7  305 236 
 GUY2CHZ I         934 29.50         1.2 0.44                           305 236 
                                                                                
