 2015  921 0049 24.2 L   6.775 -73.118153.4  RSN  6 0.3 1.4LRSN                1
 GAP=141        0.90       5.0     4.7  6.7  0.5261E+01  0.1057E+02  0.3003E+01E
 Epicentro: LOS SANTOS - SANTANDER                                             3
 ACTION:UPD 15-10-28 16:27 OP:cam  STATUS:               ID:20150921004924 L   I
 OLDACT:REG 15-09-21 12:14 OP:mh   STATUS:               ID:20150921004749     3
 2015-09-21-0047-49M.COL___355                                                 6
 STAT SP IPHASW D HRMM SECON CODA AMPLIT PERI AZIMU VELO AIN AR TRES W  DIS CAZ7
 BAR2 EZ EP        049 44.18                             172   -0.5810 21.4 199 
 BAR2 EZ ES        050  0.89                             172    0.1210 21.4 199 
 BAR2 EZ I         050  2.04         3.7 0.23            170           21.4 199 
 BRR  HZ EP        049 46.95                             152    0.5010 75.2 299 
 BRR  HN ES        050  4.18                             152    0.4210 75.2 299 
 BRR  HZ I         050 14.94         4.9 0.36            150           75.2 299 
 PAM  EN ES        050  4.97                             152   -0.3110 77.7  37 
 PAM  EZ I         050  7.38         3.1 0.40            155           77.7  37 
 RUS  HZ EP        049 48.93                             146    0.3710 97.7 178 
 RUS  HN ES        050  7.52                             146   -0.0010 97.7 178 
 PTB  HZ EP        049 51.86                             133   -0.21 9  150 260 
 PTB  HN ES        050 13.37                             133   -0.40 9  150 260 
 PTB  HZ I         050 20.17         3.8 0.40            134            150 260 
 ZAR  HZ EP   1    049 57.77                             123    0.18 6  208 293 
 ZAR  HN ES        050 23.49                             123   -0.11 8  208 293 
 ZAR  HZ I         050 28.60         2.2 0.22            125            208 293 
                                                                                
