 2015  421 0645 55.3 L   6.835 -73.257158.4  RSN  4 0.3 1.5LRSN                1
 GAP=259        0.54       5.7    11.8 14.2 -0.4338E+02 -0.6138E+02 -0.7890E+01E
 Epicentro: ZAPATOCA - SANTANDER                                               3
 ACTION:UPD 15-06-03 16:56 OP:cam  STATUS:               ID:20150421064555 L   I
 OLDACT:REG 15-04-21 14:55 OP:cam  STATUS:               ID:20150421063737     3
 2015-04-21-0637-37M.COL___268                                                 6
 STAT SP IPHASW D HRMM SECON CODA AMPLIT PERI AZIMU VELO AIN AR TRES W  DIS CAZ7
 PTB  HZ EP   2    646 22.70                             137    0.36 5  137 256 
 PTB  HN ES        646 43.29                             137   -0.1710  137 256 
 PTB  HZ I         646 51.14         2.0 0.36            139            137 256 
 OCA  HN ES   2    646 47.09                             133    0.40 5  155 357 
 ZAR  HN ES   2    646 52.95                             127    0.67 5  191 292 
 SML  HZ EP   2    646 31.54                             121   -0.20 4  235 338 
 SML  HE ES        647  0.02                             121   -0.17 9  235 338 
 SML  HZ I         647  4.04         3.4 0.10            125            235 338 
                                                                                
