 2010 1221 0210 43.0 L   6.770 -73.111141.3  RSN  4 0.3 1.5LRSN                1
 GAP=186        0.65       3.8    10.7  8.2 -0.1246E+01  0.1523E+02 -0.9987E+01E
 Epicentro: LOS SANTOS - SANTANDER                                             3
 ACTION:UP  11-01-14 15:26 OP:pat  STATUS:               ID:20101221021043 L   I
 2010-12-21-0207-00S.COL___129                                                 6
 STAT SP IPHASW D HRMM SECON CODA AMPLIT PERI AZIMU VELO SNR AR TRES W  DIS CAZ7
 BAR2 SZ EP   1    211  2.06                             171     0.0 7   21 202 
 BAR2 SZ ES   1    211 16.93                             171     0.0 7   21 202 
 BAR2 SZ I         211 18.17        12.2 0.36                            21 202 
 RUS  HZ EP   1    211  5.65                             144    -0.4 7   97 178 
 RUS  HN ES   1    211 24.22                             144     0.2 7   97 178 
 RUS  HZ I         211 26.17         3.3 0.32                            97 178 
 OCA  SZ EP   1    211 11.81                             128     0.5 7  164 352 
 OCA  SZ ES   1    211 33.11                             128    -0.3 7  164 352 
 OCA  SZ I         211 35.95         4.8 0.28                           164 352 
 NOR  SE ES   2    211 46.39                             117     0.0 4  236 236 
                                                                                
