 2014  421 0631 23.5 L   6.717 -73.257141.7  RSN  4 0.5 1.0LRSN                1
 GAP=189        1.14       7.5     8.1 14.9  0.3048E+02 -0.2794E+02 -0.7244E+02E
 Epicentro: BARICHARA - SANTANDER                                              3
 ACTION:UPD 14-05-13 23:10 OP:nd   STATUS:               ID:20140421063123 L   I
 OLDACT:REG 14-04-21 14:50 OP:spq  STATUS:               ID:20140421062817     3
 2014-04-21-0628-17M.COL___230                                                 6
 STAT SP IPHASW D HRMM SECON CODA AMPLIT PERI AZIMU VELO AIN AR TRES W  DIS CAZ7
 RUS  HZ EP        631 46.56                             145    0.2410 93.2 168 
 RUS  HN ES        632  4.01                             145   -0.1110 93.2 168 
 RUS  HZ I         632  5.61         1.3 0.34            149           93.2 168 
 PTB  HZ EP        631 48.41                             134   -0.5010  134 262 
 PTB  HN ES        632  8.85                             134    0.1210  134 262 
 PTB  HZ I         632 13.67         1.3 0.14            134            134 262 
 ZAR  HZ EP        631 55.84                             122    0.93 9  197 296 
 ZAR  HN ES   1    632 18.89                             122   -0.51 6  197 296 
 ZAR  HZ I         632 25.74         1.1 0.30            124            197 296 
 SML  HZ EP        631 59.54                             116   -0.76 8  247 339 
 SML  HN ES        632 29.33                             116    0.33 8  247 339 
 SML  HZ I         632 29.72         1.3 0.30            119            247 339 
                                                                                
