 2015  821 0036 58.0 L   6.810 -73.139146.3  RSN  7 0.2 1.6LRSN                1
 GAP=137        0.51       2.2     2.9  4.9 -0.2172E+00  0.4064E+01 -0.8816E+00E
 Epicentro: LOS SANTOS - SANTANDER                                             3
 ACTION:UPD 15-09-15 23:03 OP:cam  STATUS:               ID:20150821003658 L   I
 OLDACT:DUP 15-08-21 15:52 OP:spq  STATUS:               ID:20150821002751d    3
 OLDACT:REG 15-08-21 12:39 OP:spq  STATUS:               ID:20150821002750     3
 2015-08-21-0027-50M.COL___340                                                 6
 STAT SP IPHASW D HRMM SECON CODA AMPLIT PERI AZIMU VELO AIN AR TRES W  DIS CAZ7
 BAR2 EZ EP        037 17.53                             170   -0.2210 24.6 191 
 BAR2 EZ ES   1    037 33.10                             170   -0.02 7 24.6 191 
 BAR2 EZ I         037 35.03         4.6 0.16            170           24.6 191 
 BRR  HZ EP        037 18.84                             153   -0.4010 71.3 297 
 BRR  HZ I         037 41.02         7.8 0.28            146           71.3 297 
 PAM  EZ EP        037 20.50                             151    0.2810 76.0  40 
 PAM  EN ES   1    037 37.46                             151   -0.06 7 76.0  40 
 PAM  EZ I         037 39.42         5.2 0.48            149           76.0  40 
 RUS  HZ EP        037 21.96                             144    0.0510  102 177 
 RUS  HE ES   1    037 40.70                             144    0.16 7  102 177 
 RUS  HZ I         037 41.96         3.4 0.36            144            102 177 
 SPBC HZ EP        037 26.73                             129    0.03 9  165 219 
 SPBC HN ES        037 49.11                             129    0.05 9  165 219 
 SPBC HZ I         037 53.68         6.3 0.36            126            165 219 
 ZAR  HN ES        037 56.03                             122    0.14 9  204 292 
 ZAR  HZ I         038  1.53         5.7 0.28            118            204 292 
 SML  HE ES   1    038  3.32                             118    0.19 6  243 335 
 SML  HZ I         038  7.92         4.9 0.24            114            243 335 
                                                                                
