 2013  121 0021 28.9 L   6.783 -73.159146.0  RSN  7 0.3 2.0LRSN                1
 GAP=136        0.76       3.8     3.5  6.0  0.1230E+01  0.3458E+01  0.3934E+01E
 Epicentro: LOS SANTOS - SANTANDER                                             3
 ACTION:UPD 13-02-15 09:15 OP:ep   STATUS:               ID:20130121002128 L   I
 2013-01-21-0020-00M.COL___241                                                 6
 STAT SP IPHASW D HRMM SECON CODA AMPLIT PERI AZIMU VELO AIN AR TRES W  DIS CAZ7
 BAR2 SZ ES   2    022  3.52                             171   -0.26 5 21.3 187 
 BRR  HZ EP        021 50.25                             153    0.2410 70.8 300 
 BRR  HN ES        022  7.14                             153    0.6310 70.8 300 
 BRR  HN I         022  7.70        28.0 0.22            149           70.8 300 
 PAM  SZ EP        021 51.29                             150    0.0510 79.8  39 
 PAM  SZ I         021 51.43         6.8 0.20            152           79.8  39 
 PAM  SN ES        022  8.34                             150   -0.3610 79.8  39 
 RUS  HZ EP        021 52.48                             144   -0.0210 98.8 175 
 RUS  HN ES        022 11.06                             144    0.1110 98.8 175 
 PTB  HZ EP        021 55.39                             133   -0.29 9  146 259 
 PTB  HN ES        022 16.22                             133   -0.38 9  146 259 
 PTB  HN I         022 21.25         8.7 0.36            130            146 259 
 ZAR  HE ES        022 26.40                             123   -0.12 9  203 293 
 ZAR  HE I         022 32.50        15.9 0.18            121            203 293 
 CHI  HZ EP   1    022  6.57                             118    0.24 6  246 195 
                                                                                
