 2013  121 0936 56.9 L   6.780 -73.097142.0  RSN  5 0.3 1.2LRSN                1
 GAP=144        0.53       4.0     4.7  6.3 -0.4171E+01 -0.6064E+01  0.1126E+02E
 Epicentro: LOS SANTOS - SANTANDER                                             3
 ACTION:UPD 13-02-15 09:15 OP:ep   STATUS:               ID:20130121093656 L   I
 2013-01-21-0930-00M.COL___241                                                 6
 STAT SP IPHASW D HRMM SECON CODA AMPLIT PERI AZIMU VELO AIN AR TRES W  DIS CAZ7
 BAR2 SZ EP   2    937 15.92                             170   -0.14 5 22.8 204 
 BAR2 SZ I         937 39.16         2.9 0.40            162           22.8 204 
 PAM  SZ EP        937 18.75                             151    0.1310 75.9  35 
 PAM  SZ I         937 18.86         3.8 0.20            152           75.9  35 
 PAM  SN I         937 19.09         2.7 0.48                          75.9  35 
 PAM  SN ES   1    937 35.61                             151    0.04 7 75.9  35 
 BRR  HZ EP        937 17.72                             150   -0.2610 77.0 298 
 BRR  HN ES        937 34.57                             150    0.1410 77.0 298 
 RUS  HN ES   2    937 37.73                             144   -0.46 5 98.1 179 
 CHI  HZ EP   1    937 34.33                             116    0.02 6  248 197 
 CHI  HN ES   2    938  4.27                             116    0.78 4  248 197 
                                                                                
