 2010  321 0742 56.8 L   6.384 -73.623106.9  RSN  9 0.3 2.0LRSN                1
 GAP= 89        0.65       2.6     4.8  5.8  0.7171E+00  0.1535E+02  0.2108E+01E
 Epicentro: SANTA HELENA DEL OPON - SANTANDER                                  3
 ACTION:UP  10-08-24 09:55 OP:vdl  STATUS:               ID:20100321074256 L   I
 2010-03-21-0741-26S.COL___098                                                 6
 STAT SP IPHASW D HRMM SECON CODA AMPLIT PERI AZIMU VELO SNR AR TRES W  DIS CAZ7
 BAR2 SZ IP        743 13.27                             151     0.110   54  65 
 BAR2 SZ ES   1    743 25.96                             151     0.1 7   54  65 
 RUS  HZ EP        743 15.12                             140    -0.210   81 132 
 RUS  HN ES   1    743 30.09                             140     0.3 7   81 132 
 RUS  HZ I         743 31.94        12.3 0.28                            81 132 
 BRR  HZ IP        743 14.39                             140    -0.310   81 353 
 BRR  HE ES   1    743 28.24                             140    -0.3 7   81 353 
 BRR  HZ I         743 35.59        28.7 0.06                            81 353 
 CHI  HZ EP   1    743 26.24                             114    -0.3 6  194 184 
 CHI  HN ES   3    743 49.54                             114    -0.1 2  194 184 
 CHI  HZ I         743 53.09         5.5 0.36                           194 184 
 OCA  SZ EP        743 27.64                             112    -0.1 8  208   9 
 OCA  SZ ES   1    743 52.38                             112     0.6 6  208   9 
 HEL  HZ EP   1    743 28.83                             112     0.4 6  212 264 
 HEL  HN ES   3    743 52.49                             112    -0.6 2  212 264 
 HEL  HZ I         743 56.28        10.7 0.31                           212 264 
 RREF BZ EP   1    743 33.72                             107     0.4 6  252 229 
 RREF BZ I         744  8.47        10.3 0.52                           252 229 
 PRA  HZ EP   1    743 41.57                             102     0.1 5  327 205 
 PRA  HN ES   3    744 15.82                             102    -0.5 2  327 205 
 PRA  HZ I         744 23.31         8.0 0.31                           327 205 
 SDV  B2 EP   1    743 53.68                              97    -0.5 4  430  50 
 SDV  BZ I         743 54.47         5.0 0.09                           430  50 
                                                                                
