 2016 1021 0837 58.4 L   6.820 -73.136150.0  RSN 13 0.6 1.7LRSN                1
 GAP=119        1.07       3.4     5.5  5.9 -0.6940E+01 -0.4043E+00  0.2735E+01E
 Epicentro: LOS SANTOS - SANTANDER                                             3
 ACTION:UPD 16-11-09 19:21 OP:rebc STATUS:               ID:20161021083758 L   I
 OLDACT:UP  16-10-21 18:53 OP:and  STATUS:               ID:20161021082745d    3
 OLDACT:UP  16-10-21 18:46 OP:and  STATUS:               ID:20161021082745d    3
 OLDACT:DUP 16-10-21 18:15 OP:and  STATUS:               ID:20161021082745d    3
 OLDACT:UP  16-10-21 18:11 OP:and  STATUS:               ID:20161021082744     3
 OLDACT:UP  16-10-21 18:08 OP:and  STATUS:               ID:20161021082744     3
 OLDACT:UP  16-10-21 18:03 OP:and  STATUS:               ID:20161021082744     3
 OLDACT:REG 16-10-21 14:08 OP:cog  STATUS:               ID:20161021082744     3
 2016-10-21-0828-00M.COL___333                                                 6
 STAT SP IPHASW D HRMM SECON CODA AMPLIT PERI AZIMU VELO AIN AR TRES W  DIS CAZ7
 BAR2 EZ IP        838 18.37                             170   -0.2310 25.7 192 
 BAR2 EZ ES        838 33.88                             170   -0.4610 25.7 192 
 BAR2 EZ I         838 36.08        11.4 0.32            170           25.7 192 
 BRR  HZ IP     D  838 20.17                             153    0.1510 71.2 297 
 BRR  HN ES        838 37.43                             153    0.5610 71.2 297 
 BRR  HZ I         838 40.43        11.0 0.12            151           71.2 297 
 PAM  EZ IP     C  838 21.32                             152    0.3810 75.0  40 
 PAM  EE ES        838 38.42                             152   -0.1010 75.0  40 
 PAM  EZ I         838 40.29        11.3 0.46            153           75.0  40 
 RUS  HZ EP   2    838 22.91                             143    0.18 5  103 177 
 RUS  HN ES        838 41.41                             143   -0.2910  103 177 
 RUS  HZ I         838 42.47        10.0 0.24            145            103 177 
 PTB  HZ EP   9    838 25.15                             132   -0.71 0  149 258 
 PTB  HN ES        838 46.21                                   -0.35 9  149 258 
 PTB  HZ I         838 48.20         3.9 0.12            131            149 258 
 OCA  HZ EP        838 27.55                             130    0.68 9  158 353 
 OCA  HN ES        838 48.14                             130   -0.92 9  158 353 
 OCA  HZ I         838 55.85        12.9 0.24            130            158 353 
 SPBC HZ EP        838 27.93                             129    0.47 9  166 219 
 SPBC HE ES        838 49.76                             129   -0.36 9  166 219 
 SPBC HZ I         838 51.88         7.7 0.30            129            166 219 
 NOR  HN ES        839  2.66                             118   -0.20 8  237 234 
 NOR  HZ I         839  6.42         3.4 0.20            119            237 234 
 CHI  HZ EP        838 37.24                             117    0.64 8  251 195 
 CHI  HN ES        839  6.69                             117    0.30 8  251 195 
 CHI  HZ I         839  9.60         2.3 0.44            118            251 195 
 ROSC BZ EP   4    838 39.16                             117    2.13 0  255 211 
 HEL  HZ EP   4    838 41.65                             115    2.63 0  274 255 
 GUY2CHZ EP   9    838 46.42                             112    3.96 0  303 235 
 GUY2CHN ES        839 20.76                             110   -0.02 7  303 235 
 GUY2CHZ I         839 24.75         2.2 0.36                           303 235 
 PTGC HZ EP   2    838 41.87                             112   -0.77 4  310 159 
 PTGC HN ES   3    839 15.65                             112   -1.49 2  310 159 
 PRA  HZ EP   2    838 50.05                             107   -2.31 3  394 210 
 PRA  HN ES   2    839 34.65                             107    0.21 3  394 210 
 PRA  HZ I         839 39.10         1.8 0.30            107            394 210 
 SJC  HZ EP   2    838 52.88                             106   -1.09 3  408 327 
 SJC  HN ES   4    839 34.07                             106   -3.24 0  408 327 
                                                                                
