 2010  221 0241 44.9 L   6.779 -73.109142.0  RSN 17 0.5 4.6LRSN                1
 GAP=186        0.80       3.3     6.3  5.2 -0.2583E+00  0.1524E+02  0.3546E+01E
 Epicentro: LOS SANTOS - SANTANDER                                             3
 ACTION:UP  10-08-24 09:49 OP:vdl  STATUS:               ID:20100221024144 L   I
 2010-02-21-0240-03S.COL___094                                                 6
 STAT SP IPHASW D HRMM SECON CODA AMPLIT PERI AZIMU VELO SNR AR TRES W  DIS CAZ7
 BAR2 SZ IP        242  4.25                             171     0.210   22 202 
 BAR2 SZ ES   1    242 18.42                             171    -0.6 7   22 202 
 GIR2 SZ IP        242  4.36                             166     0.210   34 344 
 GIR2 SZ ES   2    242 18.92                             166    -0.3 5   34 344 
 BRR  HZ IP        242  6.17                             150     0.310   76 299 
 BRR  HN ES   1    242 23.09                             150     0.8 7   76 299 
 BRR  HZ I         242 27.55      6973.4 0.17                            76 299 
 RUS  BZ IP        242  8.13                             144     0.110   98 178 
 RUS  BE ES   1    242 26.37                             144     0.2 7   98 178 
 OCA  SZ IP        242 12.85                             129    -0.3 9  163 352 
 OCA  SZ ES   2    242 34.41                             129    -0.8 5  163 352 
 OCA  SZ I         242 37.87      8412.3 0.32                           163 352 
 NOR  SZ EP   2    242 20.61                             118     0.0 4  237 236 
 NOR  SZ ES   3    242 48.55                             118     0.1 2  237 236 
 CHI  HZ IP        242 22.28                             117     0.0 8  247 196 
 CHI  HE ES   1    242 51.22                             117    -0.2 6  247 196 
 ROSC BZ IP   2    242 24.15                             116     1.3 4  253 212 
 HEL  HZ EP        242 24.72                             114    -0.5 7  275 256 
 HEL  HN ES   3    242 55.57                             114    -1.2 2  275 256 
 GUY  HZ EP   2    242 28.90                             112     0.4 4  303 236 
 GUY  HE ES   3    243  2.25                             112    -0.4 2  303 236 
 RREF BZ EP        242 31.05                             110     0.0 7  323 230 
 RREF BZ I         243 16.40       809.1 0.31                           323 230 
 DBB  SZ IP        242 32.60                             109    -0.1 7  344 275 
 TOL  SZ EP        242 32.39                             109    -0.7 7  345 225 
 TOL  SZ ES   3    243 10.62                             109    -0.1 2  345 225 
 ANIL BZ EP        242 35.03                             108     0.4 6  359 225 
 ANIL BN ES   2    243 13.87                             108     0.4 3  359 225 
 ANIL BZ I         243 18.10      1327.5 0.28                           359 225 
 PRA  HZ EP        242 37.55                             106    -0.7 6  392 210 
 PRA  HE ES   2    243 19.31                             106    -0.6 3  392 210 
 PRA  HZ I         243 26.29       986.2 0.46                           392 210 
 SOL  SZ EP        242 49.01                             102     0.5 5  479 263 
 MAL  SZ EP   2    242 59.14                             100     1.0 2  559 237 
                                                                                
