 2010 1021 1944 54.4 L   6.788 -73.111140.1  RSN  8 0.3 1.9LRSN                1
 GAP=163        0.63       4.2     7.0  7.1 -0.1207E+02 -0.1921E+01  0.7703E+01E
 Epicentro: LOS SANTOS - SANTANDER                                             3
 ACTION:UP  11-02-18 11:11 OP:tino STATUS:               ID:20101021194454 L   I
 2010-10-21-1942-06S.COL___128                                                 6
 STAT SP IPHASW D HRMM SECON CODA AMPLIT PERI AZIMU VELO SNR AR TRES W  DIS CAZ7
 BTL  SZ EP   1   1945 13.76                             170     0.5 7   23 310 
 GIR2 SZ EP   1   1945 13.36                             166    -0.1 7   33 344 
 GIR2 SZ ES   2   1945 28.42                             166     0.1 5   33 344 
 BRR  HZ EP   1   1945 15.15                             150     0.0 7   75 298 
 BRR  HE ES   2   1945 31.76                             150     0.4 5   75 298 
 BRR  HZ I        1945 34.48        33.0 0.31                            75 298 
 RUS  HZ EP   1   1945 17.26                             143    -0.2 7   99 178 
 RUS  HN ES   2   1945 35.30                             143    -0.2 5   99 178 
 RUS  HZ I        1945 36.89        10.3 0.18                            99 178 
 GUE  SZ EP   1   1945 18.76                             138     0.1 7  117  10 
 GRA  SZ EP   1   1945 19.13                             136     0.0 7  126  16 
 GRA  SZ ES   2   1945 37.58                             136    -0.9 5  126  16 
 GRA  SZ I        1945 39.94        10.1 0.30                           126  16 
 NOR  SZ EP   1   1945 29.80                             117    -0.2 6  237 235 
 NOR  SN ES   2   1945 57.26                             117    -0.6 4  237 235 
 CHI  HZ EP   1   1945 32.08                             116     0.3 6  248 196 
 CHI  HZ I        1946  9.14         3.7 0.71                           248 196 
                                                                                
