 2012  821 1051 47.8 L   6.782 -73.137147.4  RSN 12 0.4 2.4LRSN                1
 GAP= 66        0.73       2.9     2.7  4.5  0.5800E+00  0.2303E+01  0.2033E+01E
 Epicentro: LOS SANTOS - SANTANDER                                             3
 ACTION:UPD 12-09-10 11:57 OP:ep   STATUS:               ID:20120821105147 L   I
 2012-08-21-1050-00M.COL___217                                                 6
 STAT SP IPHASW D HRMM SECON CODA AMPLIT PERI AZIMU VELO AIN AR TRES W  DIS CAZ7
 BAR2 SZ EP   1   1052  7.36                             171   -0.18 7 21.6 194 
 BAR2 SZ ES   1   1052 22.61                             171   -0.37 7 21.6 194 
 BAR2 SZ I        1052 25.61        78.0 0.19                          21.6 194 
 BRR  HZ EP   1   1052  9.22                             152    0.04 7 73.0 300 
 BRR  HN ES       1052 26.47                             152    0.5810 73.0 300 
 BRR  HZ I        1052 30.08        44.4 0.13                          73.0 300 
 PAM  SZ EP       1052 10.11                             151   -0.0910 78.3  38 
 PAM  SZ I        1052 10.37        55.4 0.20                          78.3  38 
 PAM  SE ES       1052 27.49                             151   -0.2110 78.3  38 
 RUS  HZ EP   1   1052 11.18                             145   -0.34 7 98.5 177 
 RUS  HN ES       1052 30.26                             145    0.2110 98.5 177 
 RUS  HZ I        1052 32.68        19.0 0.31                          98.5 177 
 PTB  HZ EP   1   1052 14.88                             132   -0.03 7  148 260 
 PTB  HN ES   2   1052 35.52                             132   -0.57 5  148 260 
 TAM  HZ EP   1   1052 15.51                             131    0.09 7  154 104 
 TAM  HZ I        1052 15.61        31.9 0.09                           154 104 
 TAM  HN ES   1   1052 37.00                             131   -0.01 7  154 104 
 OCA  HZ EP   1   1052 16.13                             130   -0.26 7  162 353 
 OCA  HN ES   2   1052 39.56                             130    0.84 5  162 353 
 OCA  HZ I        1052 42.82        48.8 0.14                           162 353 
 YOP  SZ EP   1   1052 17.90                             127    0.20 7  177 153 
 YOP  SZ I        1052 42.40        29.0 0.30                           177 153 
 ZAR  HZ EP   1   1052 20.01                             123   -0.47 6  206 293 
 ZAR  HN ES       1052 45.87                             123   -0.13 8  206 293 
 ZAR  HZ I        1052 52.38        19.5 0.13                           206 293 
 NOR  SZ EP   1   1052 23.18                             119   -0.36 6  234 235 
 NOR  SN ES   1   1052 50.93                             119   -0.52 6  234 235 
 NOR  SZ I        1052 55.60        24.8 0.18                           234 235 
 CHI  HZ EP   1   1052 25.60                             118    0.24 6  247 196 
 CHI  HN ES   2   1052 55.64                             118    0.94 4  247 196 
 HEL  HZ EP   1   1052 29.06                             115    0.96 6  273 256 
 HEL  HN ES   2   1052 59.70                             115    0.13 4  273 256 
 HEL  HZ I        1053  5.66        11.1 0.27                           273 256 
                                                                                
