 2010  221 1011 30.9 L   6.741 -73.079149.8  RSN  4 0.1 1.3LRSN                1
 GAP=240        0.32       5.0     8.7  4.4  0.2836E+02  0.5603E+01  0.4867E+01E
 Epicentro: JORDAN - SANTANDER                                                 3
 ACTION:UP  10-08-24 09:50 OP:vdl  STATUS:               ID:20100221101130 L   I
 2010-02-21-1000-00S.COL___093                                                 6
 STAT SP IPHASW D HRMM SECON CODA AMPLIT PERI AZIMU VELO SNR AR TRES W  DIS CAZ7
 BAR2 SZ EP   1   1011 50.87                             172    -0.1 7   20 215 
 BAR2 SZ ES   2   1012  6.50                             172    -0.1 5   20 215 
 BRR  HZ EP   1   1011 52.97                             150    -0.1 7   81 300 
 BRR  HZ I        1011 54.10         5.7 0.39                            81 300 
 BRR  HN ES   2   1012 10.43                             150     0.1 5   81 300 
 RUS  BZ EP   1   1011 54.72                             146     0.2 7   94 180 
 RUS  BN ES   2   1012 12.97                             146    -0.1 5   94 180 
 RUS  BZ I        1012 14.01         2.5 0.47                            94 180 
 PRA  HZ EP   1   1012 24.24                             107    -0.1 4  390 211 
                                                                                
