 2013  421 1813 53.9 L   6.763 -73.184144.3  RSN  5 0.4 1.8LRSN                1
 GAP=175        1.09       7.2     7.5  8.2  0.2024E+02  0.1668E+02  0.1587E+02E
 Epicentro: VILLANUEVA - SANTANDER                                             3
 ACTION:UPD 13-05-22 14:39 OP:EP   STATUS:               ID:20130421181353 L   I
 2013-04-21-1808-50M.COL___212                                                 6
 STAT SP IPHASW D HRMM SECON CODA AMPLIT PERI AZIMU VELO AIN AR TRES W  DIS CAZ7
 BAR2 SZ EP       1814 13.21                             172   -0.1010 18.8 179 
 BAR2 SZ ES       1814 28.15                             172   -0.2610 18.8 179 
 BAR2 SZ I        1814 29.21        11.0 0.42            170           18.8 179 
 GIR2 SZ ES       1814 28.27                             166   -0.5610 35.0 358 
 BRR  HZ EP       1814 15.13                             153    0.2910 69.7 303 
 BRR  HN ES       1814 31.96                             153    0.8210 69.7 303 
 BRR  HN I        1814 32.41        15.4 0.24            153           69.7 303 
 RUS  HZ EP       1814 17.22                             145   -0.0510 96.8 173 
 RUS  HN ES       1814 35.87                             145    0.3910 96.8 173 
 RUS  HN I        1814 37.38         8.2 0.26            144           96.8 173 
 PTB  HZ EP       1814 20.18                             133   -0.16 9  143 260 
 PTB  HN ES       1814 40.48                             133   -0.45 9  143 260 
 PTB  HN I        1814 43.18        11.3 0.22            132            143 260 
                                                                                
