 2017  221 1358 59.3 L   6.489 -73.730 22.6  RSN  4 0.2 1.2LRSN                1
 GAP=141        0.56       1.6     1.6  3.2  0.8002E+00 -0.2643E+01 -0.1643E+01E
 Epicentro: SANTA HELENA DEL OPON - SANTANDER                                  3
 ACTION:UPD 17-05-24 15:39 OP:jn   STATUS:               ID:20170221135859 L   I
 OLDACT:UP  17-02-21 23:11 OP:cog  STATUS:               ID:20170221134743d    3
 OLDACT:DUP 17-02-21 23:04 OP:cog  STATUS:               ID:20170221134743d    3
 2017-02-21-1348-00M.COL___376                                                 6
 STAT SP IPHASW D HRMM SECON CODA AMPLIT PERI AZIMU VELO AIN AR TRES W  DIS CAZ7
 BRR  HZ EP       1359 10.44                             106   -0.1610 68.4   2 
 BRR  HN ES       1359 19.55                             106    0.0910 68.4   2 
 BRR  HZ I        1359 19.71        14.5 0.34            106           68.4   2 
 PTB  HZ EP       1359 12.16                             104   -0.2510 80.5 274 
 PTB  HN IS       1359 22.79                             104    0.1210 80.5 274 
 PTB  HZ I        1359 23.46         5.3 0.12            104           80.5 274 
 RUS  HZ EP       1359 15.68                             102    0.2910 97.3 133 
 RUS  HN ES       1359 27.81                             102   -0.1710 97.3 133 
 PAM  EZ EP       1359 22.21                              56    0.25 9  148  50 
 PAM  EN ES       1359 39.53                              56   -0.15 9  148  50 
                                                                                
