 2017  221 1115  8.8 L   6.890 -73.145153.2  RSN  4 0.1 1.1LRSN                1
 GAP=150        0.37       2.6     2.4  3.4 -0.9930E+00  0.2952E+01  0.8050E+00E
 Epicentro: PIEDECUESTA - SANTANDER                                            3
 ACTION:UPD 17-05-24 15:38 OP:jn   STATUS:               ID:20170221111508 L   I
 OLDACT:DUP 17-02-21 22:18 OP:cog  STATUS:               ID:20170221110742d    3
 2017-02-21-1108-00M.COL___373                                                 6
 STAT SP IPHASW D HRMM SECON CODA AMPLIT PERI AZIMU VELO AIN AR TRES W  DIS CAZ7
 BAR2 EZ EP       1115 29.64                             167    0.0510 33.2 187 
 BAR2 EZ ES       1115 45.83                             167    0.0610 33.2 187 
 BAR2 EZ I        1115 46.76         3.1 0.42            166           33.2 187 
 PAM  EZ ES       1115 49.03                             154   -0.0410 70.0  45 
 RUS  HZ EP       1115 34.17                             143    0.1310  111 176 
 RUS  HN ES       1115 53.57                             143   -0.1210  111 176 
 RUS  HZ I        1115 55.08         1.3 0.60            143            111 176 
 PTB  HZ EP       1115 36.46                             133   -0.16 9  150 255 
 PTB  HE ES       1115 58.36                             133    0.06 9  150 255 
 PTB  HZ I        1115 59.67         2.3 0.18            134            150 255 
                                                                                
