 2012  321 1357 51.2 L   6.764 -73.121151.6  RSN  6 0.3 2.2LRSN                1
 GAP=141        0.84       5.8     5.9  7.1  0.9317E+01  0.9352E+01  0.2117E+01E
 ACTION:UP  12-03-31 23:21 OP:EP   STATUS:               ID:20120321135751 L   I
 2012-03-21-1350-00M.COL___202                                                 6
 STAT SP IPHASW D HRMM SECON CODA AMPLIT PERI AZIMU VELO SNR AR TRES W  DIS CAZ7
 BAR2 SZ EP       1358 11.58                             172     0.110   20 200 
 BAR2 SZ ES   1   1358 27.02                             172    -0.3 7   20 200 
 BAR2 SZ I        1358 28.39        28.3 0.31                            20 200 
 BRR  HZ EP       1358 13.48                             152     0.210   76 300 
 BRR  HZ I        1358 13.85        49.4 0.06                            76 300 
 BRR  HE ES       1358 30.88                             152     0.410   76 300 
 PAM  SZ EP   1   1358 14.38                             151     0.2 7   79  36 
 PAM  SN ES   1   1358 31.56                             151    -0.5 7   79  36 
 RUS  HZ EP   1   1358 15.54                             146     0.3 7   96 178 
 RUS  HN ES   1   1358 33.92                             146    -0.1 7   96 178 
 RUS  HZ I        1358 35.48        15.1 0.40                            96 178 
 PTB  HZ EP   1   1358 18.39                             133    -0.5 7  150 261 
 PTB  HZ I        1358 44.77        11.8 0.25                           150 261 
 ZAR  HZ EP   1   1358 24.21                             123    -0.3 6  208 293 
 ZAR  HN ES   1   1358 49.96                             123    -0.4 6  208 293 
 ZAR  HZ I        1358 56.74        19.8 0.36                           208 293 
                                                                                
