 2017  721 1350 11.1 L   6.850 -73.183146.4  RSN  4 0.1 1.9LRSN                1
 GAP=249        0.31       2.4     2.2  3.0  0.1317E+01  0.1694E+01  0.3876E-01E
 Epicentro: ZAPATOCA - SANTANDER                                               3
 ACTION:UPD 17-08-30 15:35 OP:rebc STATUS:               ID:20170721135011 L   I
 OLDACT:DUP 17-07-21 22:11 OP:lv   STATUS:               ID:20170721134744d    3
 2017-07-21-1348-00M.COL___392                                                 6
 STAT SP IPHASW D HRMM SECON CODA AMPLIT PERI AZIMU VELO AIN AR TRES W  DIS CAZ7
 BAR2 EZ EP       1350 31.00                             168    0.0910 28.5 180 
 BAR2 EZ ES       1350 46.32                             168   -0.0510 28.5 180 
 BAR2 EZ I        1350 47.11         6.2 0.14            168           28.5 180 
 PTB  HZ EP       1350 37.81                             133   -0.04 9  145 256 
 PTB  HN ES       1350 58.83                             133    0.11 9  145 256 
 PTB  HZ I        1351  2.25        34.1 0.04            133            145 256 
 SPBC HZ EP       1350 39.79                             129   -0.02 9  165 217 
 SPBC HN ES       1351  2.18                             129   -0.03 9  165 217 
 ZAR  HE ES       1351  7.78                             123   -0.06 9  198 291 
                                                                                
