 2015  821 1345 33.7 L   6.874 -73.307120.0  RSN  8 0.4 2.0LRSN                1
 GAP=104        0.92       4.4     5.7  9.4 -0.6380E+01  0.3634E+02 -0.1327E+02E
 Epicentro: BETULIA - SANTANDER                                                3
 ACTION:UPD 15-09-15 23:03 OP:cam  STATUS:               ID:20150821134533 L   I
 OLDACT:REG 15-08-21 21:45 OP:ar   STATUS:               ID:20150821133748     3
 2015-08-21-1337-48M.COL___346                                                 6
 STAT SP IPHASW D HRMM SECON CODA AMPLIT PERI AZIMU VELO AIN AR TRES W  DIS CAZ7
 BAR2 EZ EP     D 1345 50.36                             164   -0.1910 34.1 156 
 BAR2 EZ ES       1346  3.51                             164   -0.1910 34.1 156 
 BAR2 EZ I        1346  4.76        49.3 0.24            168           34.1 156 
 PAM  EN ES       1346 10.01                             143    0.6210 84.6  52 
 PAM  EZ I        1346 12.06        20.2 0.24            147           84.6  52 
 OCA  HN ES       1346 18.46                             125   -0.62 9  151 359 
 OCA  HZ I        1346 21.04        36.0 0.30            126            151 359 
 ZAR  HZ EP       1346  2.41                             119   -0.06 9  184 292 
 ZAR  HN ES       1346 25.53                             119    0.61 9  184 292 
 ZAR  HZ I        1346 30.53        12.8 0.36            119            184 292 
 NOR  HE ES   2   1346 32.47                             114   -0.57 4  226 230 
 NOR  HZ I        1346 39.52         6.1 0.58            115            226 230 
 SML  HZ EP       1346  7.36                             113   -0.00 8  229 338 
 SML  HN ES   2   1346 33.13                             113   -0.50 4  229 338 
 SML  HZ I        1346 41.98        11.8 0.24            114            229 338 
 URE  HN ES   4   1346 38.96                             110   -1.80 0  264 292 
 URE  HZ I        1346 42.51         5.5 0.14            111            264 292 
 GUY2CHZ EP   2   1346 15.86                             108    0.72 4  292 231 
 GUY2CHN ES   2   1346 47.06                             108   -0.42 4  292 231 
 GUY2CHZ I        1346 54.01         3.1 0.38                           292 231 
                                                                                
