 2012  421 1606 36.3 L   6.791 -73.127143.3  RSN  6 0.4 1.7LRSN                1
 GAP=139        0.82       5.4     4.9  7.8  0.2189E+01  0.7857E+01 -0.3532E+00E
 Epicentro: LOS SANTOS - SANTANDER                                             3
 ACTION:UPD 12-07-05 11:55 OP:tino STATUS:               ID:20120421160636 L   I
 2012-04-21-1600-00M.COL___186                                                 6
 STAT SP IPHASW D HRMM SECON CODA AMPLIT PERI AZIMU VELO AIN AR TRES W  DIS CAZ7
 BAR2 SZ EP   1   16 6 55.59                             171     0.0 7   23 196 
 BAR2 SZ ES   1   16 7 10.84                             171     0.1 7   23 196 
 BAR2 SZ I        16 7 12.44         7.3 0.24                            23 196 
 BRR  HZ EP       16 6 57.40                             151     0.110   73 298 
 BRR  HZ I        16 7 13.43        10.4 0.39                            73 298 
 BRR  HN ES   1   16 7 14.09                             151     0.4 7   73 298 
 PAM  SZ EP   1   16 6 57.98                             150    -0.2 7   77  38 
 PAM  SN ES   1   16 7 15.17                             150    -0.2 7   77  38 
 RUS  HZ EP   1   16 7  0.55                             144     0.8 7   99 177 
 RUS  HE ES   1   16 7 17.47                             144    -0.5 7   99 177 
 PTB  HZ EP   1   16 7  2.87                             131    -0.4 7  150 259 
 PTB  HE ES   1   16 7 24.20                             131     0.0 7  150 259 
 ZAR  HE ES   1   16 7 34.01                             121    -0.2 6  206 292 
 ZAR  HZ I        16 7 39.47         4.7 0.25                           206 292 
                                                                                
