 2016 1121 1141 57.1 L   6.857 -73.291121.8  RSN  6 0.1 2.0LRSN                1
 GAP=110        0.40       2.4     1.7  2.8 -0.8748E+00  0.1189E+01 -0.4987E+00E
 Epicentro: BETULIA - SANTANDER                                                3
 ACTION:UPD 17-10-26 21:10 OP:lp   STATUS:               ID:20161121114157 L   I
 OLDACT:UP  16-11-21 22:35 OP:dani STATUS:               ID:20161121113740     3
 OLDACT:UP  16-11-21 22:35 OP:dani STATUS:               ID:20161121113740     3
 OLDACT:REG 16-11-21 20:29 OP:dani STATUS:               ID:20161121113740     3
 2016-11-21-1138-00M.COL___331                                                 6
 STAT SP IPHASW D HRMM SECON CODA AMPLIT PERI AZIMU VELO AIN AR TRES W  DIS CAZ7
 BAR2 EZ EP     D 1142 13.93                             164   -0.1310 31.6 158 
 BAR2 HN ES       1142 27.35                             164    0.0310 31.6 158 
 BAR2 EZ I        1142 28.16        43.7 0.28            167           31.6 158 
 BRR  HZ EP       1142 14.44                             154   -0.2310 54.1 301 
 BRR  HN ES       1142 28.45                             154    0.0510 54.1 301 
 BRR  HZ I        1142 29.27        28.2 0.12            154           54.1 301 
 PAM  EZ EP       1142 17.50                             143    0.2210 84.3  51 
 PAM  EN ES       1142 33.02                             143   -0.0410 84.3  51 
 PAM  EZ I        1142 35.86        14.0 0.28            144           84.3  51 
 PTB  HZ EP   9   1142 19.19                             129   -1.63 0  134 255 
 PTB  HN ES       1142 37.56                             130   -0.1610  134 255 
 PTB  HZ I        1142 41.00        11.4 0.30            130            134 255 
 ZAR  HZ EP       1142 26.18                             119   -0.03 9  187 292 
 ZAR  HN ES       1142 49.00                             119    0.06 9  187 292 
 ZAR  HZ I        1142 50.63        11.8 0.10            120            187 292 
 NOR  HN ES       1142 56.75                             114    0.12 8  226 231 
                                                                                
