 2013  521 1053 42.6 L   6.804 -73.120146.9  RSN  6 0.5 1.4LRSN                1
 GAP=203        0.96       7.0     8.1  9.8  0.3206E+02 -0.7449E+00 -0.8268E+01E
 Epicentro: LOS SANTOS - SANTANDER                                             3
 ACTION:UPD 13-06-20 09:52 OP:ep   STATUS:               ID:20130521105342 L   I
 2013-05-21-1050-00M.COL___259                                                 6
 STAT SP IPHASW D HRMM SECON CODA AMPLIT PERI AZIMU VELO AIN AR TRES W  DIS CAZ7
 BAR2 SZ EP       1054  2.55                             170    0.1310 24.4 196 
 BAR2 SZ ES   1   1054 17.15                             170   -0.70 7 24.4 196 
 BAR2 SZ I        1054 20.58         3.7 0.26            171           24.4 196 
 BRR  HE ES   1   1054 21.48                             152    0.75 7 73.5 297 
 RUS  HZ EP       1054  6.58                             144    0.0610  101 178 
 RUS  HN ES   1   1054 25.44                             144    0.30 7  101 178 
 RUS  HZ I        1054 28.13         1.6 0.40            147            101 178 
 PTB  HZ EP   1   1054  9.79                             132   -0.17 7  151 259 
 PTB  HN ES   1   1054 30.54                             132   -0.72 7  151 259 
 PTB  HZ I        1054 36.54         4.4 0.38            133            151 259 
 ZAR  HE ES   1   1054 41.53                             122    0.56 6  207 292 
 SML  HN ES   1   1054 47.59                             118   -0.50 6  244 335 
 SML  HZ I        1054 54.87         3.6 0.10            119            244 335 
                                                                                
