 2013 1221 1045 33.1 L   6.846 -73.150139.2  RSN 19 0.5 2.5LRSN                1
 GAP=134        1.17       2.9     4.4  6.3 -0.3314E+01  0.1149E+02 -0.3286E+00E
 Epicentro: LOS SANTOS - SANTANDER                                             3
 ACTION:UPD 14-01-13 10:19 OP:ep   STATUS:               ID:20131221104533 L   I
 OLDACT:REG 13-12-21 15:50 OP:nd   STATUS:               ID:20131221104000     3
 2013-12-21-1040-00M.COL___285                                                 6
 STAT SP IPHASW D HRMM SECON CODA AMPLIT PERI AZIMU VELO AIN AR TRES W  DIS CAZ7
 BAR2 SZ IP     D 1045 52.31                             168    0.2510 28.3 187 
 BAR2 SZ ES       1046  6.79                             168   -0.0610 28.3 187 
 BAR2 SZ I        1046  8.66        85.9 0.22            168           28.3 187 
 PAM  SZ IP     C 1045 55.16                             151    0.7510 73.9  42 
 PAM  SN ES       1046 11.65                             151    0.6210 73.9  42 
 PAM  SZ I        1046 14.29        64.7 0.42            154           73.9  42 
 RUS  HZ IP     C 1045 56.27                             141   -0.3310  106 176 
 RUS  HN ES       1046 14.88                             141   -0.0510  106 176 
 RUS  HZ I        1046 16.88        25.7 0.18            145            106 176 
 PTB  HZ EP       1045 58.87                             130   -0.72 9  148 257 
 PTB  HN ES       1046 19.87                             130   -0.39 9  148 257 
 PTB  HZ I        1046 24.98        46.3 0.12            130            148 257 
 OCA  HZ EP       1046  0.28                             129   -0.14 9  155 353 
 OCA  HN ES       1046 21.28                             129   -0.45 9  155 353 
 OCA  HZ I        1046 28.12        36.1 0.40            130            155 353 
 SPBC HZ EP       1046  1.20                             127   -0.26 9  167 218 
 SPBC HN ES       1046 23.14                             127   -0.44 9  167 218 
 SPBC HZ I        1046 29.46        64.4 0.24            128            167 218 
 ZAR  HZ EP   2   1046  5.11                             121    0.23 4  202 291 
 ZAR  HN ES       1046 30.42                             121    0.75 9  202 291 
 ZAR  HZ I        1046 36.05        49.4 0.30            121            202 291 
 NOR  HZ EP       1046  8.23                             117   -0.51 8  237 233 
 NOR  HN ES       1046 35.77                             117   -0.76 8  237 233 
 NOR  HZ I        1046 43.30        33.8 0.16            118            237 233 
 SML  HZ EP       1046  8.52                             117   -0.32 8  239 335 
 SML  HN ES       1046 36.41                             117   -0.30 8  239 335 
 SML  HZ I        1046 45.23        36.8 0.10            117            239 335 
 CHI  HZ EP       1046 10.67                             115   -0.30 8  253 195 
 CHI  HN ES   2   1046 40.47                             115   -0.04 4  253 195 
 CHI  HZ I        1046 48.82        15.4 0.58            117            253 195 
 ROSC BZ EP   2   1046 11.54                             115    0.22 4  257 210 
 ROSC BN ES       1046 40.69                             115   -0.45 8  257 210 
 HEL  HZ EP       1046 13.82                             113    0.75 8  273 255 
 HEL  HN ES   2   1046 44.40                             113    0.14 4  273 255 
 HEL  HZ I        1046 48.74        14.5 0.22            114            273 255 
 URE  HZ EP       1046 13.25                             112   -0.34 7  281 291 
 URE  HN ES   4   1046 49.70                             112    4.52 0  281 291 
 URE  HZ I        1046 52.52        34.4 0.22            113            281 291 
 GUY2CHZ EP       1046 17.15                             111    0.45 7  304 234 
 GUY2CHN ES       1046 51.37                             111    0.66 7  304 234 
 GUY2CHZ I        1046 58.61        18.6 0.30                           304 234 
 RREF HZ EP   4   1046 19.39                             109    0.09 0  325 229 
 RREF HZ E        1046 19.39                                            325 229 
 RREF HN IS   4   1046 56.76                             109    1.42 0  325 229 
 RREF HN ES       1046 56.76                             109    1.42 7  325 229 
 RREF HZ I        1047  4.09        23.7 0.28            111            325 229 
 CBOC HZ EP   4   1046 13.27                             109   -6.61 0  335 251 
 CBOC HN ES   4   1046 56.02                             109   -0.35 0  335 251 
 CBOC HZ I        1047  4.50         4.2 0.22            109            335 251 
 COD  HZ EP   4   1046 19.53                             108   -1.10 0  343 355 
 COD  HN ES   4   1046 59.34                             108    1.64 0  343 355 
 COD  HZ I        1047  8.89         5.3 0.44            109            343 355 
 ORTC HZ EP       1046 27.55                             105    0.30 6  399 216 
 ORTC HN ES       1047 10.51                             105    1.02 6  399 216 
 ORTC HZ I        1047 14.86        13.6 0.44            106            399 216 
 SJC  HZ EP   4   1046 26.66                             105   -1.25 0  405 327 
 SJC  HN ES   4   1047  7.01                             105   -3.66 0  405 327 
 SJC  HZ I        1047 11.76         6.2 0.34            106            405 327 
                                                                                
