 2013  521 1416 43.7 L   6.745 -73.136147.7  RSN  5 0.4 1.5LRSN                1
 GAP=140        1.09       6.1     5.9 10.1 -0.5451E+01  0.9315E+01  0.3001E+01E
 Epicentro: JORDAN - SANTANDER                                                 3
 ACTION:UPD 13-06-20 09:52 OP:ep   STATUS:               ID:20130521141643 L   I
 2013-05-21-1410-00M.COL___259                                                 6
 STAT SP IPHASW D HRMM SECON CODA AMPLIT PERI AZIMU VELO AIN AR TRES W  DIS CAZ7
 BAR2 SZ EP       1417  3.61                             173    0.1410 17.6 197 
 BAR2 SZ I        1417 20.69         5.4 0.30            170           17.6 197 
 BRR  HZ EP       1417  5.35                             151    0.0510 75.2 302 
 BRR  HN ES   1   1417 23.09                             151    0.96 7 75.2 302 
 BRR  HZ I        1417 25.10        14.5 0.30            152           75.2 302 
 PAM  SZ EP       1417  6.46                             150    0.0810 81.6  36 
 PAM  SN ES       1417 23.59                             150   -0.4810 81.6  36 
 PAM  SZ I        1417 25.83         5.9 0.62            151           81.6  36 
 RUS  HZ EP       1417  7.82                             146    0.6010 94.4 176 
 RUS  HN ES       1417 25.30                             146   -0.2610 94.4 176 
 RUS  HZ I        1417 29.11         3.2 0.40            144           94.4 176 
 PTB  HZ EP       1417 10.29                             132   -0.54 9  148 261 
 PTB  HN ES       1417 31.75                             132   -0.24 9  148 261 
 PTB  HZ I        1417 37.31         4.6 0.62            131            148 261 
                                                                                
