 2014  421 1013 17.0 L   6.729 -73.385118.8  RSN  4 0.4 1.2LRSN                1
 GAP=178        0.63       5.8     7.7 18.9  0.2623E+02 -0.9977E+02 -0.6902E+02E
 Epicentro: EL CARMEN DE CHUCURI - SANTANDER                                   3
 OLDACT:REG 14-04-21 21:06 OP:fm   STATUS:               ID:20140421100813     3
 ACTION:UPD 14-05-13 23:10 OP:nd   STATUS:               ID:20140421101316 L   I
 OLDACT:UP  14-05-12 21:07 OP:nd   STATUS:               ID:20140421101316 L   3
 OLDACT:UP  14-04-21 22:42 OP:fm   STATUS:               ID:20140421100813     3
 2014-04-21-1008-13M.COL___233                                                 6
 STAT SP IPHASW D HRMM SECON CODA AMPLIT PERI AZIMU VELO AIN AR TRES W  DIS CAZ7
 RUS  HZ EP   1   1013 38.16                             138    0.16 7 98.3 160 
 RUS  HZ I        1014  9.81         2.9 1.78            136           98.3 160 
 PTB  HZ EP   2   1013 39.36                             131    0.10 5  120 260 
 PTB  HN ES   1   1013 56.33                             131   -0.30 7  120 260 
 PTB  HZ I        1014 12.91         2.9 1.82            166            120 260 
 ZAR  HZ EP   1   1013 45.15                             119   -0.42 7  183 298 
 ZAR  HN ES   1   1014  8.50                             119    0.63 7  183 298 
 ZAR  HZ I        1014 14.11         1.1 0.62            162            183 298 
 SML  HZ EP   2   1013 52.24                             111    0.26 4  241 342 
 SML  HE ES   1   1014 19.04                             111   -0.23 6  241 342 
 SML  HZ I        1014 26.99         2.9 1.62            135            241 342 
                                                                                
