 2010  221 1110 49.1 L   6.760 -73.161151.5  RSN  5 0.4 1.5LRSN                1
 GAP=181        0.81       6.8    17.3  9.7  0.5186E+02 -0.2310E+02 -0.1289E+02E
 Epicentro: LOS SANTOS - SANTANDER                                             3
 ACTION:UP  10-08-24 09:50 OP:vdl  STATUS:               ID:20100221111049 L   I
 2010-02-21-1107-54S.COL___094                                                 6
 STAT SP IPHASW D HRMM SECON CODA AMPLIT PERI AZIMU VELO SNR AR TRES W  DIS CAZ7
 BAR2 SZ EP   1   1111  9.16                             173    -0.2 7   19 188 
 BAR2 SZ ES   2   1111 24.21                             173    -0.9 5   19 188 
 GIR2 SZ EP   1   1111  9.98                             166     0.4 7   35 354 
 GIR2 SZ ES   2   1111 25.90                             166     0.4 5   35 354 
 BRR  HZ IP       1111 10.92                             153     0.010   72 302 
 BRR  HZ I        1111 11.20        11.9 0.16                            72 302 
 BRR  HE ES   2   1111 28.05                             153     0.1 5   72 302 
 RUS  BZ EP   1   1111 13.48                             146     0.4 7   96 175 
 RUS  BE ES   2   1111 31.83                             146     0.0 5   96 175 
 RUS  BZ I        1111 33.35         2.9 0.34                            96 175 
 OCA  SZ EP   1   1111 17.56                             130    -0.7 7  164 354 
 OCA  SZ ES   2   1111 41.62                             130     0.6 5  164 354 
                                                                                
