 2012  421 1454 14.3 L   6.793 -73.097143.2  RSN  5 0.2 1.5LRSN                1
 GAP=143        0.58       3.9     4.8  6.0 -0.1076E+01  0.6049E+01  0.5584E+01E
 Epicentro: LOS SANTOS - SANTANDER                                             3
 ACTION:UPD 12-07-05 11:55 OP:tino STATUS:               ID:20120421145414 L   I
 2012-04-21-1450-00M.COL___186                                                 6
 STAT SP IPHASW D HRMM SECON CODA AMPLIT PERI AZIMU VELO AIN AR TRES W  DIS CAZ7
 BAR2 SZ EP       1454 33.80                             170     0.110   24 203 
 BAR2 SZ ES   1   1454 49.02                             170     0.2 7   24 203 
 BAR2 SZ I        1454 50.07         7.9 0.47                            24 203 
 PAM  SE ES   1   1454 52.74                             151    -0.4 7   75  36 
 BRR  HZ EP       1454 35.49                             150     0.010   76 297 
 BRR  HZ I        1454 35.97        10.1 0.16                            76 297 
 BRR  HE ES   1   1454 52.18                             150     0.1 7   76 297 
 RUS  HZ EP       1454 37.94                             143     0.210  100 179 
 RUS  HE ES   1   1454 55.84                             143    -0.2 7  100 179 
 RUS  HZ I        1454 58.92         3.0 0.35                           100 179 
 NOR  SN ES   1   1455 18.10                             117    -0.3 6  239 235 
                                                                                
