 2013  521 1446  1.6 L   6.778 -73.158143.9  RSN  8 0.5 2.0LRSN                1
 GAP=136        1.06       5.7     5.2  7.2 -0.4010E+01  0.8643E+01  0.7339E+01E
 Epicentro: LOS SANTOS - SANTANDER                                             3
 ACTION:UPD 13-06-20 09:52 OP:ep   STATUS:               ID:20130521144601 L   I
 2013-05-21-1440-00M.COL___259                                                 6
 STAT SP IPHASW D HRMM SECON CODA AMPLIT PERI AZIMU VELO AIN AR TRES W  DIS CAZ7
 BAR2 SZ EP       1446 21.03                             171    0.0610 20.7 188 
 BAR2 SZ ES       1446 35.53                             171   -0.5310 20.7 188 
 BAR2 SZ I        1446 37.29        22.4 0.22            164           20.7 188 
 BRR  HZ EP       1446 22.84                             152    0.2810 71.3 301 
 BRR  HN ES       1446 39.77                             152    0.8710 71.3 301 
 BRR  HZ I        1446 41.56        22.5 0.32            145           71.3 301 
 PAM  SZ EP       1446 24.00                             150    0.2010 80.1  39 
 PAM  SE ES   1   1446 40.34                             150   -0.76 7 80.1  39 
 PAM  SZ I        1446 43.23        11.8 0.46            141           80.1  39 
 RUS  HZ EP   1   1446 25.21                             144    0.20 7 98.2 175 
 RUS  HN ES   1   1446 43.73                             144    0.47 7 98.2 175 
 RUS  HZ I        1446 44.82        11.8 0.26            131           98.2 175 
 PTB  HZ EP       1446 27.65                             132   -0.62 9  146 260 
 PTB  HN ES   1   1446 48.73                             132   -0.33 7  146 260 
 PTB  HZ I        1446 50.79        12.8 0.40            121            146 260 
 ZAR  HN ES   1   1446 58.73                             122   -0.37 6  204 293 
 ZAR  HZ I        1447  5.37         9.9 0.48            112            204 293 
 NOR  HZ EP       1446 36.94                             118   -0.03 8  232 235 
 NOR  HE ES       1447  4.44                             118   -0.10 8  232 235 
 NOR  HZ I        1447 10.53         5.2 0.28            108            232 235 
 PRA  HZ EP   1   1446 55.29                             106    0.55 4  389 210 
 PRA  HZ I        1447 45.85         4.3 0.30             97            389 210 
                                                                                
