 2013  121 1933 34.8 L   6.819 -73.143148.0  RSN 23 0.5 3.7LRSN 3.9WRSN        1
 SPEC AVERAGE  MO 14.9 ST 16.7 OM  3.6 f0 2.17 R0.7105 AL 2.05 WI 15.8 MW  3.9 3
 SPEC SD       MO  0.1 ST 16.4 OM  0.4 f00.483 R0.1557 AL      WI      MW  0.1 3
 GAP= 71        0.97       3.4     3.6  5.4 -0.9466E+00  0.5680E+01  0.3492E+01E
 Epicentro: LOS SANTOS - SANTANDER                                             3
 SPEC ZAR HH E MO 15.1 ST 57.2 OM  3.3 f0 3.21 R0.4579 AL 1.96 WI 16.5 MW  4.0 3
 SPEC ZAR HH E T193431 K 0.000 GD  252 VS 4.20 DE 3.20 Q0300.0 QA 0.60 VS 4.20 3
 SPEC NOR HH E MO 15.1 ST 24.8 OM  3.3 f0 2.35 R0.6255 AL 1.68 WI 16.7 MW  4.0 3
 SPEC NOR HH E T193437 K 0.000 GD  278 VS 4.20 DE 3.20 Q0300.0 QA 0.60 VS 4.20 3
 SPEC HEL HH N MO 14.9 ST  3.1 OM  3.0 f0 1.42 R1.0352 AL 1.74 WI 24.0 MW  3.9 3
 SPEC HEL HH N T193446 K 0.000 GD  310 VS 4.20 DE 3.20 Q0300.0 QA 0.60 VS 4.20 3
 SPEC TAM HH N MO 15.1 ST 12.5 OM  3.4 f0 1.89 R0.7778 AL 2.70 WI 14.0 MW  4.0 3
 SPEC TAM HH N T193424 K 0.000 GD  214 VS 4.20 DE 3.20 Q0300.0 QA 0.60 VS 4.20 3
 SPEC PTB HH N MO 14.8 ST 11.3 OM  3.1 f0 2.32 R0.6336 AL 1.63 WI  9.9 MW  3.8 3
 SPEC PTB HH N T193422 K 0.000 GD  209 VS 4.20 DE 3.20 Q0300.0 QA 0.60 VS 4.20 3
 SPEC RUS HH N MO 14.8 ST  7.7 OM  3.1 f0 2.14 R0.6869 AL 2.47 WI  8.4 MW  3.8 3
 SPEC RUS HH N T193416 K 0.000 GD  180 VS 4.20 DE 3.20 Q0300.0 QA 0.60 VS 4.20 3
 SPEC CHI HH N MO 15.0 ST  8.2 OM  3.1 f0 1.87 R0.7861 AL 2.55 WI 19.2 MW  3.9 3
 SPEC CHI HH N T193441 K 0.000 GD  291 VS 4.20 DE 3.20 Q0300.0 QA 0.60 VS 4.20 3
 SPEC BRR HH N MO 14.8 ST  9.0 OM  3.2 f0 2.16 R0.6806 AL 1.63 WI 17.4 MW  3.8 3
 SPEC BRR HH N T193413 K 0.000 GD  163 VS 4.20 DE 3.20 Q0300.0 QA 0.60 VS 4.20 3
 ACTION:UPD 13-02-15 09:15 OP:ep   STATUS:               ID:20130121193334 L   I
 2013-01-21-1930-00M.COL___241                                                 6
 STAT SP IPHASW D HRMM SECON CODA AMPLIT PERI AZIMU VELO AIN AR TRES W  DIS CAZ7
 BAR2 SZ IP       1933 54.79                             170    0.0810 25.5 190 
 BAR2 SZ ES   1   1934 10.06                             170   -0.21 7 25.5 190 
 BAR2 SZ I        1934 11.33      1932.3 0.56            160           25.5 190 
 BRR  HZ EP     C 1933 56.59                             153    0.4710 70.5 297 
 BRR  HN ES   1   1934 13.48                             153    0.70 7 70.5 297 
 BRR  HZ I        1934 15.99       419.6 0.38            143           70.5 297 
 PAM  SZ EP     D 1933 57.51                             152    0.3910 75.6  40 
 PAM  SN ES   1   1934 14.58                             152    0.03 7 75.6  40 
 PAM  SZ I        1934 16.84       789.6 0.52            146           75.6  40 
 RUS  HZ EP     D 1933 58.68                             144   -0.2110  103 176 
 RUS  HN ES   1   1934 16.96                             144   -0.75 7  103 176 
 RUS  HZ I        1934 19.17       567.6 0.40            130            103 176 
 PTB  HZ EP       1934  1.28                             132   -0.71 9  148 258 
 PTB  HN ES   1   1934 22.48                             132   -0.73 7  148 258 
 PTB  HZ I        1934 24.64       673.4 0.32            119            148 258 
 TAM  HN ES   1   1934 24.65                             131    0.25 7  155 106 
 OCA  HZ EP   1   1934  2.85                             130   -0.21 7  158 353 
 OCA  HE ES   1   1934 24.73                             130   -0.40 7  158 353 
 OCA  HZ I        1934 30.44       575.6 0.24            120            158 353 
 ZAR  HZ EP   1   1934  7.11                             123   -0.20 6  204 292 
 ZAR  HE ES   1   1934 32.94                             123    0.25 6  204 292 
 ZAR  HZ I        1934 39.48       476.6 0.44            112            204 292 
 NOR  HZ EP     C 1934 10.78                             119   -0.01 8  236 234 
 NOR  HE ES   1   1934 38.73                             119   -0.15 6  236 234 
 NOR  HZ I        1934 44.11       524.6 0.24            107            236 234 
 CHI  HZ EP     D 1934 12.59                             117   -0.23 8  251 195 
 CHI  HN ES   1   1934 42.29                             117   -0.22 6  251 195 
 CHI  HZ I        1934 49.36       255.6 0.33            106            251 195 
 ROSC BZ EP     D 1934 14.46                             117    1.23 8  255 211 
 ROSC BZ I        1934 51.04       555.0 0.40            106            255 211 
 HEL  HZ EP   1   1934 15.39                             115    0.20 6  273 255 
 HEL  HN ES   1   1934 47.31                             115    0.59 6  273 255 
 HEL  HZ I        1934 54.90       337.7 0.52            105            273 255 
 URE  HZ EP   1   1934 14.83                             114   -1.06 6  283 291 
 VIL  SZ EP   1   1934 18.16                             112   -0.37 5  306 192 
 RREF HZ EP   1   1934 22.03                             111    0.84 5  323 229 
 RREF HZ I        1935  6.39       318.2 0.30            101            323 229 
 DBB  SZ EP     C 1934 22.34                             110   -0.02 7  340 274 
 TOL  SZ EP   1   1934 24.05                             109    0.73 5  345 224 
 TOL  SZ I        1935 11.59       199.4 0.35            100            345 224 
 ANIL HZ EP   1   1934 25.60                             109    0.74 5  359 224 
 ANIL HE ES   1   1935  3.62                             109   -0.31 5  359 224 
 ANIL HZ I        1935 10.19       203.1 0.30             99            359 224 
 SDV  BZ EP   1   1934 24.05                             109   -0.66 5  359  50 
 PAL  HZ EP   1   1934 30.67                             106    0.51 4  407 239 
 YOT  HZ EP   1   1934 37.89                             103   -0.18 4  474 229 
 SMAR HZ EP   1   1934 39.48                             103   -0.98 3  495 346 
 MARA HZ EP   1   1934 45.20                             101   -0.88 3  539 215 
                                                                                
