 2017  821 1723 16.7 L   7.229 -73.254106.6  RSN 11 0.5 1.9LRSN                1
 GAP=231        0.80       4.2     3.9  5.6  0.5162E+01  0.2222E+01  0.2184E+01E
 Epicentro: RIONEGRO - SANTANDER                                               3
 ACTION:UPD 17-09-04 20:23 OP:rebc STATUS:               ID:20170821172316 L   I
 OLDACT:UP  17-08-21 22:32 OP:mg   STATUS:               ID:20170821171744     3
 OLDACT:UP  17-08-21 22:32 OP:mg   STATUS:               ID:20170821171744     3
 OLDACT:UP  17-08-21 22:31 OP:mg   STATUS:               ID:20170821171744     3
 OLDACT:REG 17-08-21 20:54 OP:mg   STATUS:               ID:20170821171744     3
 2017-08-21-1718-00M.COL___405                                                 6
 STAT SP IPHASW D HRMM SECON CODA AMPLIT PERI AZIMU VELO AIN AR TRES W  DIS CAZ7
 BRR  HZ IP     D 1723 32.42                             152   -0.1010 52.4 255 
 BRR  HN ES       1723 44.90                             152    0.0110 52.4 255 
 BRR  HZ I        1723 46.03        12.6 0.12            155           52.4 255 
 PAM  EN ES   4   1723 51.10                             148    3.85 0 62.4  79 
 PAM  EZ I        1723 52.96         8.3 0.20            149           62.4  79 
 BAR2 EZ EP       1723 34.48                             144    0.4110 70.8 174 
 BAR2 EZ ES   2   1723 48.32                             144    0.68 5 70.8 174 
 BAR2 EZ I        1723 49.75        51.8 0.14            148           70.8 174 
 RUS  HZ EP   1   1723 40.67                             122   -0.85 7  149 173 
 RUS  HN ES   2   1723 59.80                             122   -1.10 5  149 173 
 RUS  HZ I        1724  1.36         7.1 0.22            125            149 173 
 ZAR  HZ EP       1723 43.85                             116   -0.32 9  179 279 
 ZAR  HN ES   1   1724  5.46                             116   -0.16 7  179 279 
 ZAR  HZ I        1724  8.72        14.6 0.10            118            179 279 
 SPBC HZ EP   1   1723 46.52                             113    0.36 6  196 207 
 SPBC HN ES       1724  9.17                             113    0.01 9  196 207 
 SPBC HZ I        1724 12.11         9.6 0.16            116            196 207 
 YPLC HZ EP       1723 49.69                             110    0.37 8  224 154 
 NOR  HN ES       1724 21.05                             107   -0.31 8  257 224 
 NOR  HZ I        1724 24.23         4.6 0.19            109            257 224 
 URE  HZ EP       1723 53.32                             107    0.18 8  258 283 
 URE  HN ES   2   1724 22.32                             107    0.74 4  258 283 
 URE  HZ I        1724 26.70        12.0 0.22            109            258 283 
 HEL  HZ EP   1   1723 55.19                             105   -0.55 6  276 246 
 HEL  HN ES       1724 26.36                             105    0.15 7  276 246 
 HEL  HZ I        1724 27.93         4.0 0.20            108            276 246 
 GUY2CHZ EP   2   1724  1.82                             102    0.55 3  322 227 
 GUY2CHN ES   2   1724 36.75                             102    0.69 3  322 227 
 GUY2CHZ I        1724 40.74         3.3 0.34                           322 227 
                                                                                
