 2012  821 1509  1.3 L   7.566 -73.214130.4  RSN  5 0.1 1.7LRSN                1
 GAP=206        0.27       3.0     1.7  3.2 -0.1536E+01  0.2459E+01 -0.3613E+01E
 Epicentro: EL PLAYON - SANTANDER                                              3
 ACTION:UPD 12-09-10 11:57 OP:ep   STATUS:               ID:20120821150901 L   I
 2012-08-21-1507-35M.COL___210                                                 6
 STAT SP IPHASW D HRMM SECON CODA AMPLIT PERI AZIMU VELO AIN AR TRES W  DIS CAZ7
 PAM  SZ EP   1   15 9 21.05                             153    0.06 8 62.1 114 
 PAM  SN ES   1   15 9 36.35                             153    0.01 8 62.1 114 
 PAM  SZ I        15 9 37.62         9.0 0.19                          62.1 114 
 BRR  HZ EP   1   15 9 20.92                             148   -0.12 8 74.8 227 
 BRR  HN ES   1   15 9 36.50                             148    0.07 8 74.8 227 
 BRR  HZ I        15 9 37.29        19.5 0.17                          74.8 227 
 BAR2 SZ EP   1   15 9 23.79                             138    0.00 8  108 178 
 BAR2 SZ ES   1   15 9 41.22                             138   -0.11 8  108 178 
 BAR2 SZ I        15 9 42.03        13.5 0.12                           108 178 
 PTB  HZ EP   1   15 9 30.08                             123    0.00 7  178 230 
 PTB  HN ES       15 9 52.59                             123    0.0710  178 230 
 PTB  HZ I        15 9 54.47         3.9 0.33                           178 230 
 ZAR  HZ EP   1   15 9 30.49                             122    0.06 7  182 268 
 ZAR  HN ES   2   15 9 53.00                             122   -0.16 5  182 268 
 ZAR  HZ I        15 9 56.00         4.6 0.11                           182 268 
                                                                                
