 2011  921 1132 35.2 L   6.782 -73.242135.1  RSN  4 0.3 1.3LRSN                1
 GAP=173        0.62       8.9    15.6  7.9  0.1015E+03 -0.3005E+02  0.5007E+01E
 Epicentro: ZAPATOCA - SANTANDER                                               3
 ACTION:UPD 12-07-13 15:58 OP:ep   STATUS:               ID:20110921113235 L   I
 2011-09-21-1131-15S.COL___164                                                 6
 STAT SP IPHASW D HRMM SECON CODA AMPLIT PERI AZIMU VELO AIN AR TRES W  DIS CAZ7
 BTL  SZ EP       1132 53.63                             173    0.2510 15.3 349 
 BTL  SZ ES   2   1133  7.49                             173   -0.09 5 15.3 349 
 BAR2 SZ EP       1132 53.42                             170   -0.0710 22.0 163 
 BAR2 SZ ES   2   1133  7.58                             170   -0.20 5 22.0 163 
 BAR2 SZ I        1133  9.69        10.5 0.26                          22.0 163 
 BRR  HZ EP   2   1132 55.38                             154    0.67 5 63.2 305 
 BRR  HN ES   1   1133  9.67                             154   -0.29 7 63.2 305 
 RUS  HZ EP       1132 57.58                             142   -0.2610 99.9 170 
 RUS  HZ I        1132 58.47         2.1 0.18                          99.9 170 
 RUS  HN ES   2   1133 16.09                             142    0.57 5 99.9 170 
                                                                                
