 2017  121 1301 10.2 L   6.846 -73.055137.5  RSN  4 0.3 1.2LRSN                1
 GAP=146        0.64       4.2     4.5  7.6 -0.5900E+01  0.1043E+02  0.6524E+00E
 Epicentro: LOS SANTOS - SANTANDER                                             3
 ACTION:UPD 17-05-22 16:01 OP:jn   STATUS:               ID:20170121130110 L   I
 OLDACT:UP  17-01-21 23:05 OP:cog  STATUS:               ID:20170121125743     3
 OLDACT:REG 17-01-21 21:04 OP:cog  STATUS:               ID:20170121125743     3
 2017-01-21-1258-00M.COL___343                                                 6
 STAT SP IPHASW D HRMM SECON CODA AMPLIT PERI AZIMU VELO AIN AR TRES W  DIS CAZ7
 BAR2 EZ EP       13 1 28.88                             166   -0.1610 31.4 207 
 BAR2 EZ ES       13 1 43.76                             166    0.0310 31.4 207 
 BAR2 EZ I        13 1 46.69         5.5 0.32            169           31.4 207 
 PAM  EZ EP   2   13 1 31.87                             153    0.93 5 67.2  36 
 PAM  EN ES       13 1 46.97                             153   -0.1410 67.2  36 
 PAM  EZ I        13 1 51.93         3.0 0.34            154           67.2  36 
 RUS  HZ EP   2   13 1 32.97                             141   -0.56 5  106 182 
 RUS  HN ES       13 1 51.83                             141    0.1110  106 182 
 RUS  HZ I        13 1 52.95         2.5 0.28            146            106 182 
 PTB  HZ EP   4   13 1 34.99                             128   -2.55 0  159 258 
 PTB  HN ES       13 1 58.95                             128    0.09 9  159 258 
 PTB  HZ I        13 2  2.66         1.9 0.28            131            159 258 
                                                                                
