 2011 1221 1939 49.4 L   6.041 -73.802105.5  RSN  6 0.2 1.8LRSN                1
 GAP=132        0.42       3.4     2.2  5.2 -0.3613E+01  0.4092E+01  0.1847E+01E
 Epicentro: EL PEON - SANTANDER                                                3
 ACTION:UPD 12-07-13 16:17 OP:ep   STATUS:               ID:20111221193949 L   I
 2011-12-21-1937-00S.MAN___179                                                 6
 STAT SP IPHASW D HRMM SECON CODA AMPLIT PERI AZIMU VELO AIN AR TRES W  DIS CAZ7
 RUS  HZ EP   1   1940  7.89                             140    0.08 7 81.3 102 
 RUS  HE ES   1   1940 22.15                             140   -0.04 7 81.3 102 
 PTB  HE ES   2   1940 22.22                             136   -0.20 5 90.9 307 
 BAR2 SZ EP       1940  8.27                             136   -0.0410 91.7  48 
 BAR2 SZ ES   1   1940 23.19                             136    0.10 7 91.7  48 
 BAR2 SZ I        1940 24.29        17.4 0.20                          91.7  48 
 NOR  SZ EP   1   1940 11.18                             125   -0.40 7  129 246 
 NOR  SE ES   1   1940 29.04                             125    0.14 7  129 246 
 HEL  HZ EP   1   1940 18.98                             114    0.34 7  192 275 
 HEL  HZ I        1940 44.38         7.6 0.30                           192 275 
 RREF HZ EP   1   1940 21.21                             111   -0.12 6  213 234 
 RREF HN ES   1   1940 46.39                             111    0.14 6  213 234 
 RREF HZ I        1940 51.34         5.6 0.41                           213 234 
                                                                                
