 2010 1021 1851 45.5 L   6.478 -73.093146.1  RSN  9 0.2 2.3LRSN                1
 GAP=167        0.45       2.6     4.6  4.9 -0.4732E+01  0.3297E+01  0.1244E+01E
 Epicentro: VALLE DE SAN JOSE - SANTANDER                                      3
 ACTION:UP  11-02-18 11:11 OP:tino STATUS:               ID:20101021185145 L   I
 2010-10-21-1849-52S.COL___128                                                 6
 STAT SP IPHASW D HRMM SECON CODA AMPLIT PERI AZIMU VELO SNR AR TRES W  DIS CAZ7
 BTL  SZ EP   1   1852  6.19                             159     0.1 7   52 338 
 RUS  HZ EP   1   1852  7.33                             155     0.2 7   65 179 
 RUS  HE ES   2   1852 24.02                             155     0.1 5   65 179 
 RUS  HZ I        1852 25.50        79.6 0.34                            65 179 
 GIR2 SZ EP   1   1852  6.60                             154    -0.1 7   67 350 
 GIR2 SZ ES   2   1852 23.20                             154     0.0 5   67 350 
 BRR  HZ EP   1   1852  8.32                             144    -0.1 7   98 315 
 BRR  HN ES   2   1852 26.56                             144     0.3 5   98 315 
 GUE  SZ EP   1   1852 13.06                             132    -0.1 7  151   7 
 GRA  SZ EP   1   1852 13.77                             130     0.0 7  159  12 
 GRA  SZ ES   2   1852 35.40                             130    -0.3 5  159  12 
 GRA  SZ I        1852 38.87        27.3 0.21                           159  12 
 CHI  HZ EP   1   1852 19.87                             121     0.1 6  216 199 
 CHI  HZ I        1852 21.03        13.2 0.45                           216 199 
 CHI  HN ES   2   1852 46.21                             121    -0.3 4  216 199 
 NOR  SZ EP   1   1852 19.73                             120    -0.1 6  221 243 
 NOR  SE ES   2   1852 46.04                             120    -0.6 4  221 243 
 HEL  HZ EP   1   1852 26.18                             115     0.5 6  271 263 
 HEL  HZ I        1853  2.13         7.0 0.29                           271 263 
                                                                                
