 2011 1121 1345 45.7 L   6.773 -73.134144.6  RSN  9 0.3 2.2LRSN                1
 GAP=139        0.58       3.0     3.9  4.9  0.1120E+01  0.4205E+01  0.1605E+01E
 Epicentro: LOS SANTOS - SANTANDER                                             3
 ACTION:UPD 12-07-13 16:11 OP:ep   STATUS:               ID:20111121134545 L   I
 2011-11-21-1344-13S.COL___178                                                 6
 STAT SP IPHASW D HRMM SECON CODA AMPLIT PERI AZIMU VELO AIN AR TRES W  DIS CAZ7
 BAR2 SZ EP       1346  5.06                             171   -0.0410 20.7 195 
 BAR2 SZ ES   1   1346 19.83                             171   -0.43 7 20.7 195 
 BAR2 SZ I        1346 22.77        36.4 0.23                          20.7 195 
 BRR  HZ IP     C 1346  6.94                             151    0.1110 73.8 300 
 BRR  HZ I        1346  7.22        85.6 0.16                          73.8 300 
 BRR  HN ES   1   1346 23.80                             151    0.46 7 73.8 300 
 PAM  SZ EP   1   1346  7.81                             150   -0.04 7 78.9  37 
 PAM  SZ I        1346  8.11        22.6 0.18                          78.9  37 
 PAM  SE ES   1   1346 25.22                             150    0.07 7 78.9  37 
 RUS  HZ EP   1   1346  9.22                             144    0.14 7 97.5 177 
 RUS  HN ES   1   1346 27.46                             144    0.12 7 97.5 177 
 RUS  HZ I        1346 28.93        15.4 0.31                          97.5 177 
 OCA  SZ EP   2   1346 13.35                             129   -0.83 5  163 353 
 OCA  SZ ES   2   1346 36.40                             129   -0.02 5  163 353 
 OCA  SZ I        1346 42.02        16.5 0.25                           163 353 
 ZAR  HZ EP   2   1346 19.05                             122    0.78 4  206 293 
 ZAR  HE ES   1   1346 43.35                             122   -0.36 6  206 293 
 ZAR  HZ I        1346 50.15        17.4 0.19                           206 293 
 NOR  SN ES   2   1346 48.55                             118   -0.46 4  234 235 
 CHI  HZ EP   1   1346 22.88                             117   -0.14 6  246 196 
 CHI  HZ I        1346 23.35         3.6 0.12                           246 196 
 PRA  HZ EP   2   1346 39.46                             106    0.55 3  390 210 
                                                                                
