 2013  821 1556 52.4 L   6.793 -73.158149.3  RSN 16 0.5 2.1LRSN                1
 GAP= 71        1.28       3.3     4.3  6.1 -0.2628E+01  0.1747E+01  0.3734E+01E
 Epicentro: LOS SANTOS - SANTANDER                                             3
 ACTION:UPD 14-01-14 09:05 OP:ep   STATUS:               ID:20130821155652 L   I
 OLDACT:REG 13-08-21 16:11 OP:stll STATUS:               ID:20130821154841     3
 2013-08-21-1548-41M.COL___202                                                 6
 STAT SP IPHASW D HRMM SECON CODA AMPLIT PERI AZIMU VELO AIN AR TRES W  DIS CAZ7
 BAR2 SZ IP     C 1557 12.52                             171    0.1210 22.4 187 
 BAR2 SZ I        1557 12.87        17.0 0.38            167           22.4 187 
 BAR2 SZ ES       1557 27.59                             171   -0.4410 22.4 187 
 BRR  HZ EP       1557 14.51                             153    0.6610 70.3 300 
 BRR  HN ES       1557 31.65                             153    1.0510 70.3 300 
 BRR  HZ I        1557 32.74        16.1 0.14            149           70.3 300 
 PAM  SN ES       1557 32.63                             151   -0.1010 78.8  40 
 PAM  SZ I        1557 34.63        28.6 0.60            152           78.8  40 
 RUS  HZ EP       1557 16.48                             145    0.0610100.0 175 
 RUS  HN ES       1557 35.31                             145    0.1310100.0 175 
 RUS  HZ I        1557 36.82         9.7 0.24            141          100.0 175 
 PTB  HZ EP       1557 18.34                             133   -1.15 9  146 259 
 PTB  HN ES       1557 40.24                             133   -0.40 9  146 259 
 PTB  HZ I        1557 46.21         7.0 0.16            128            146 259 
 TAM  HZ EP       1557 20.69                             131    0.26 9  156 105 
 TAM  HZ I        1557 20.78        30.9 0.34            130            156 105 
 OCA  HZ EP       1557 21.06                             130    0.06 9  161 354 
 OCA  HN ES       1557 43.04                             130   -0.30 9  161 354 
 OCA  HZ I        1557 47.33        20.0 0.28            128            161 354 
 SPBC HZ EP       1557 21.45                             130    0.45 9  162 219 
 SPBC HN ES       1557 43.31                             130   -0.03 9  162 219 
 SPBC HZ I        1557 51.72        18.7 0.28            125            162 219 
 ZAR  HN ES       1557 50.43                             123    0.08 9  203 292 
 ZAR  HZ I        1557 57.92        11.3 0.32            119            203 292 
 NOR  HZ EP       1557 28.60                             119    0.47 8  233 234 
 NOR  HN ES       1557 55.26                             119   -0.78 8  233 234 
 NOR  HZ I        1557 58.81         5.6 0.20            116            233 234 
 SML  HN ES       1557 57.54                             118   -0.39 8  244 336 
 CHI  HZ EP       1557 30.49                             118    0.35 8  248 195 
 CHI  HN ES       1557 59.14                             118   -0.47 8  248 195 
 CHI  HZ I        1558  8.33         5.2 0.62            115            248 195 
 GUY2CHZ EP       1557 37.27                             113    1.31 7  300 235 
 GUY2CHN ES       1558  9.78                             113   -0.19 7  300 235 
 GUY2CHZ I        1558 19.09         6.6 0.74                           300 235 
 SOCV BZ EP       1557 34.72                             113   -1.03 7  303  57 
 PRA  HZ EP       1557 45.73                             107   -0.12 6  391 209 
 PRA  HN ES       1558 27.28                             107   -0.30 6  391 209 
 PRA  HZ I        1558 33.71         5.2 0.26            105            391 209 
 ORTC HZ EP       1557 46.40                             107    0.16 6  394 216 
 ORTC HZ I        1558 37.16         3.8 0.22            104            394 216 
                                                                                
