 2015 1221 1919 25.2 L   6.662 -73.526 99.6  RSN  8 0.5 2.0LRSN                1
 GAP=124        1.23       4.8     5.3  9.1  0.8005E+01  0.1378E+02  0.8673E+01E
 Epicentro: EL CARMEN - SANTANDER                                              3
 ACTION:UPD 16-02-04 15:06 OP:cam  STATUS:               ID:20151221190749 L   I
 OLDACT:UPD 15-12-21 21:32 OP:AK   STATUS:               ID:20151221190749 L   3
 2015-12-21-1907-49M.COL___331                                                 6
 STAT SP IPHASW D HRMM SECON CODA AMPLIT PERI AZIMU VELO AIN AR TRES W  DIS CAZ7
 BAR2 EZ EP       1919 39.94                             157    0.0310 38.7 102 
 BAR2 EZ ES   2   1919 51.77                             157    0.39 5 38.7 102 
 BAR2 EZ I        1919 53.00        51.3 0.09            164           38.7 102 
 BRR  HZ EP       1919 39.90                             150   -0.4610 53.3 337 
 BRR  HN ES       1919 52.79                             150    0.6010 53.3 337 
 BRR  HZ I        1919 53.54        51.5 0.14            154           53.3 337 
 RUS  HZ EP       1919 44.29                             133   -0.2610 98.2 150 
 RUS  HN ES       1919 59.36                             133   -0.2810 98.2 150 
 RUS  HZ I        1920  2.30        11.4 0.18            136           98.2 150 
 PTB  HZ EP     C 1919 43.71                             130   -0.7110  104 263 
 PTB  HN ES       1919 58.89                             130   -0.5310  104 263 
 PTB  HZ I        1920  3.28        15.6 0.05            130            104 263 
 SPBC HZ EP       1919 47.08                             124    0.2810  127 208 
 SPBC HN ES       1920  3.90                             124    0.2510  127 208 
 SPBC HZ I        1920  8.98        12.2 0.18            125            127 208 
 ZAR  HZ EP       1919 51.88                             116    0.21 9  173 302 
 ZAR  HE ES   2   1920 13.02                             116    0.70 4  173 302 
 ZAR  HZ I        1920 15.79         9.1 0.09            118            173 302 
 NOR  HZ EP       1919 54.94                             113    1.13 9  192 231 
 NOR  HE ES   4   1920 18.02                             113    1.89 0  192 231 
 NOR  HZ I        1920 22.96         7.9 0.17            114            192 231 
 URE  HZ EP   4   1919 59.27                             107   -1.48 0  252 299 
 URE  HN ES   2   1920 27.57                             107   -0.91 4  252 299 
 URE  HZ I        1920 29.27        15.6 0.13            109            252 299 
                                                                                
