 2012  921 1226 25.0 L   6.619 -73.199140.8  RSN  4 0.2 1.8LRSN                1
 GAP=195        0.37       6.2     3.7  4.8  0.6028E+01  0.3298E+01 -0.3046E+01E
 Epicentro: BARICHARA - SANTANDER                                              3
 ACTION:UPD 12-10-22 14:20 OP:ep   STATUS:               ID:20120921122625 L   I
 2012-09-21-1220-00S.MAN___224                                                 6
 STAT SP IPHASW D HRMM SECON CODA AMPLIT PERI AZIMU VELO AIN AR TRES W  DIS CAZ7
 BAR2 SZ EP   1   1226 43.90                             179    0.15 7 3.48 149 
 BAR2 SZ ES   1   1226 58.32                             179   -0.09 7 3.48 149 
 BAR2 SZ I        1226 59.99        12.2 0.25                          3.48 149 
 BRR  HZ EP   1   1226 45.78                             149   -0.22 7 78.3 314 
 BRR  HZ I        1226 46.10        13.2 0.23                          78.3 314 
 BRR  HN ES   1   1227  2.55                             149    0.14 7 78.3 314 
 PTB  HN ES   1   1227 10.89                             133    0.00 7  139 266 
 ZAR  HZ EP   2   1226 57.65                             121    0.24 4  207 298 
 ZAR  HN ES   2   1227 22.56                             121   -0.17 4  207 298 
 ZAR  HZ I        1227 46.54         6.3 0.59                           207 298 
                                                                                
