 2012  921 1423  2.0 L   6.716 -73.083135.6  RSN  4 0.5 2.1LRSN                1
 GAP=187        0.98      10.9     7.0  9.8  0.6042E+01  0.8326E+01 -0.2325E+02E
 Epicentro: JORDAN - SANTANDER                                                 3
 ACTION:UPD 12-10-22 14:20 OP:ep   STATUS:               ID:20120921142302 L   I
 2012-09-21-1419-49M.COL___212                                                 6
 STAT SP IPHASW D HRMM SECON CODA AMPLIT PERI AZIMU VELO AIN AR TRES W  DIS CAZ7
 BAR2 SZ EP   1   1423 20.81                             173    0.50 7 17.5 219 
 BAR2 SZ ES       1423 34.14                             173   -0.4410 17.5 219 
 BAR2 SZ I        1423 37.32        31.7 0.20                          17.5 219 
 PAM  SZ EP   1   1423 23.25                             147   -0.13 7 80.9  32 
 PAM  SE ES   1   1423 39.97                             147   -0.08 7 80.9  32 
 PAM  SZ I        1423 43.23        16.1 0.63                          80.9  32 
 BRR  HZ EP       1423 22.81                             147    0.0610 81.9 302 
 BRR  HZ I        1423 23.40        26.9 0.13                          81.9 302 
 BRR  HN ES       1423 39.49                             147    0.5710 81.9 302 
 ZAR  HN ES   1   1423 59.66                             119   -0.87 6  214 294 
                                                                                
