 2012  421 1015  1.9 L   6.720 -73.185150.9  RSN  5 0.2 1.7LRSN                1
 GAP=227        0.65       6.6     5.7  6.5  0.2242E+02  0.5757E+01  0.6016E+00E
 Epicentro: VILLANUEVA - SANTANDER                                             3
 ACTION:UPD 12-07-05 11:55 OP:tino STATUS:               ID:20120421101501 L   I
 2012-04-21-1010-00M.COL___186                                                 6
 STAT SP IPHASW D HRMM SECON CODA AMPLIT PERI AZIMU VELO AIN AR TRES W  DIS CAZ7
 BAR2 SZ EP       1015 21.81                             174    -0.210   14 179 
 BAR2 SZ ES   1   1015 37.43                             174    -0.3 7   14 179 
 BAR2 SZ I        1015 39.02        12.8 0.39                            14 179 
 BRR  HZ EP   1   1015 23.70                             153     0.0 7   72 306 
 BRR  HN ES   1   1015 41.03                             153     0.4 7   72 306 
 BRR  HZ I        1015 43.07        12.9 0.08                            72 306 
 RUS  HZ EP   1   1015 26.12                             147     0.5 7   92 173 
 RUS  HE ES   1   1015 44.08                             147     0.0 7   92 173 
 RUS  HZ I        1015 45.76         5.9 0.34                            92 173 
 PTB  HZ EP       1015 28.65                             134    -0.1 9  142 262 
 PTB  HE ES   1   1015 49.77                             134     0.0 7  142 262 
 ZAR  HN ES   1   1016  0.13                             124    -0.1 6  204 295 
 ZAR  HZ I        1016  7.47         4.5 0.37                           204 295 
                                                                                
