 2014  621 1130  0.4 L   6.838 -73.161142.4  RSN 20 0.4 3.0LRSN                1
 GAP= 69        0.98       2.8     3.0  5.1 -0.2107E+01  0.5550E+01  0.9318E+00E
 Epicentro: LOS SANTOS - SANTANDER                                             3
 ACTION:UPD 14-07-01 22:55 OP:nd   STATUS:               ID:20140621113000 L   I
 OLDACT:UP  14-06-21 23:14 OP:mh   STATUS:               ID:20140621112817     3
 OLDACT:UP  14-06-21 23:14 OP:mh   STATUS:               ID:20140621112817     3
 OLDACT:UP  14-06-21 23:11 OP:mh   STATUS:               ID:20140621112817     3
 OLDACT:REG 14-06-21 20:30 OP:mh   STATUS:               ID:20140621112817     3
 2014-06-21-1128-17M.COL___256                                                 6
 STAT SP IPHASW D HRMM SECON CODA AMPLIT PERI AZIMU VELO AIN AR TRES W  DIS CAZ7
 BAR2 SZ IP     D 1130 19.91                             169    0.1810 27.2 185 
 BAR2 SZ ES   1   1130 34.58                             169   -0.22 7 27.2 185 
 BAR2 SZ I        1130 36.73       157.0 0.24            169           27.2 185 
 PAM  SZ EP     C 1130 22.68                             151    0.5210 75.4  43 
 PAM  SN ES       1130 39.77                             151    0.6610 75.4  43 
 PAM  SZ I        1130 41.89       189.6 0.48            150           75.4  43 
 RUS  HZ EP     C 1130 23.76                             142   -0.4010  105 175 
 RUS  HN ES       1130 42.17                             142   -0.5110  105 175 
 RUS  HZ I        1130 45.14       124.1 0.40            142            105 175 
 PTB  HZ EP       1130 26.51                             131   -0.53 9  147 257 
 PTB  HN ES       1130 47.54                             131   -0.26 9  147 257 
 PTB  HZ I        1130 53.49       209.5 0.52            131            147 257 
 OCA  HZ EP       1130 28.07                             130    0.01 9  156 354 
 OCA  HN ES       1130 49.24                             130   -0.38 9  156 354 
 OCA  HZ I        1130 53.40        93.3 0.18            129            156 354 
 TAM  HZ IP     C 1130 28.08                             129   -0.01 9  158 106 
 TAM  HZ I        1130 48.82        88.7 0.30            129            158 106 
 TAM  HN ES       1130 49.86                             129    0.18 9  158 106 
 SPBC HZ EP       1130 28.83                             128   -0.04 9  165 218 
 SPBC HN ES       1130 50.69                             128   -0.37 9  165 218 
 SPBC HZ I        1130 57.49       209.9 0.26            128            165 218 
 NOR  HZ EP       1130 35.75                             118   -0.32 8  236 233 
 NOR  HN ES       1131  4.11                             118    0.24 8  236 233 
 NOR  HZ I        1131  6.47       103.8 0.26            117            236 233 
 SML  HZ EP       1130 35.97                             117   -0.40 8  239 335 
 SML  HN ES   4   1131  3.82                             117   -0.59 0  239 335 
 SML  HZ I        1131 17.28        98.4 0.26            117            239 335 
 CHI  HZ EP       1130 37.85                             116   -0.47 8  252 195 
 CHI  HN ES   1   1131  8.86                             116    0.97 6  252 195 
 CHI  HZ I        1131 11.06        38.1 0.50            116            252 195 
 ROSC BZ EP       1130 39.46                             116    0.81 8  255 210 
 ROSC BN ES   4   1131  6.38                             116   -2.09 0  255 210 
 ROSC BZ I        1131 18.00        87.5 0.15            115            255 210 
 HEL  HZ EP       1130 40.62                             114    0.23 8  271 255 
 HEL  HN ES       1131 12.03                             114    0.46 8  271 255 
 HEL  HZ I        1131 18.15        88.8 0.44            114            271 255 
 GUY2CHZ EP       1130 44.00                             112    0.01 7  302 234 
 GUY2CHN ES   4   1131 19.88                             112    1.91 0  302 234 
 GUY2CHZ I        1131 26.30        80.7 0.72                           302 234 
 PTGC HZ EP   4   1130 42.73                             110   -1.91 0  313 159 
 PTGC HN ES   4   1131 15.68                             110   -3.45 0  313 159 
 PTGC HZ I        1131 17.94        31.7 0.22            110            313 159 
 RREF HZ EP       1130 47.27                             110    0.69 7  323 229 
 RREF HN ES   4   1131 24.45                             110    1.87 0  323 229 
 CBOC HZ EP       1130 47.64                             109    0.48 7  333 251 
 CBOC HN ES       1131 24.22                             109    0.61 7  333 251 
 DBB  SZ EP       1130 47.09                             109   -0.44 7  337 274 
 ANIL HZ EP   4   1130 51.17                             108    0.87 0  359 224 
 ANIL HN ES   4   1131 28.92                             108   -0.29 0  359 224 
 PRA  HZ EP       1130 53.16                             106   -0.99 6  395 209 
 PRA  HN ES       1131 36.10                             106    0.04 6  395 209 
 PRA  HZ I        1131 43.97        57.2 0.38            106            395 209 
 ORTC HZ EP       1130 54.16                             106   -0.34 6  398 216 
 ORTC HN ES       1131 36.88                             106    0.20 6  398 216 
 ORTC HZ I        1131 43.61        22.9 0.28            105            398 216 
 SJC  HZ EP   4   1130 54.21                             105   -1.14 0  405 327 
 SJC  HN ES   4   1131 34.52                             105   -3.68 0  405 327 
 SJC  HZ I        1131 39.15        11.6 0.24            105            405 327 
 SMAR HN ES   4   1131 50.98                             102   -5.59 0  493 346 
                                                                                
