 2012  521 1836 45.7 L   6.769 -73.129146.1  RSN  8 0.4 1.7LRSN                1
 GAP=140        0.79       4.0     4.4  7.6 -0.1761E+01  0.8435E+01  0.7379E+00E
 Epicentro: LOS SANTOS - SANTANDER                                             3
 ACTION:UP  12-07-05 12:07 OP:pat  STATUS:               ID:20120521183645 L   I
 2012-05-21-1830-00M.COL___200                                                 6
 STAT SP IPHASW D HRMM SECON CODA AMPLIT PERI AZIMU VELO SNR AR TRES W  DIS CAZ7
 BAR2 SZ EP   1   1837  5.39                             172     0.0 7   20 197 
 BAR2 SZ ES   1   1837 20.33                             172    -0.3 7   20 197 
 BAR2 SZ I        1837 23.11        14.3 0.32                            20 197 
 BRR  HZ EP   1   1837  7.31                             151     0.2 7   75 300 
 BRR  HN ES   1   1837 23.98                             151     0.2 7   75 300 
 BRR  HZ I        1837 28.33        12.8 0.17                            75 300 
 PAM  SZ EP   1   1837  8.19                             150     0.1 7   79  37 
 PAM  SE ES   1   1837 25.29                             150    -0.2 7   79  37 
 RUS  HZ EP   1   1837  9.06                             145    -0.2 7   97 177 
 RUS  HN ES   1   1837 28.00                             145     0.4 7   97 177 
 RUS  HZ I        1837 29.06         5.6 0.32                            97 177 
 PTB  HZ EP   1   1837 12.26                             132    -0.6 7  149 260 
 PTB  HN ES   1   1837 33.70                             132    -0.3 7  149 260 
 PTB  HZ I        1837 39.42         6.8 0.42                           149 260 
 OCA  HN ES   1   1837 37.33                             129     0.5 7  164 353 
 ZAR  HN ES   1   1837 43.85                             122    -0.3 6  207 293 
 NOR  SE ES   1   1837 50.04                             119     0.7 6  234 235 
                                                                                
