 2015  921 1918 13.8 L   6.784 -73.127153.9  RSN 12 0.4 2.2LRSN                1
 GAP=140        0.90       3.6     4.4  5.5 -0.3609E+01  0.1803E+01  0.4098E+01E
 Epicentro: LOS SANTOS - SANTANDER                                             3
 ACTION:UPD 15-10-28 16:27 OP:cam  STATUS:               ID:20150921191813 L   I
 OLDACT:REG 15-09-21 21:48 OP:ar   STATUS:               ID:20150921190747     3
 2015-09-21-1907-47M.COL___340                                                 6
 STAT SP IPHASW D HRMM SECON CODA AMPLIT PERI AZIMU VELO AIN AR TRES W  DIS CAZ7
 BAR2 EZ EP       1918 34.40                             171   -0.0010 22.1 196 
 BAR2 EZ ES       1918 50.21                             171   -0.2510 22.1 196 
 BAR2 EZ I        1918 52.28        22.0 0.24            169           22.1 196 
 BRR  HZ EP     D 1918 36.43                             153    0.4410 73.8 299 
 BRR  HN ES       1918 54.10                             153    0.8010 73.8 299 
 BRR  HZ I        1918 56.64        17.8 0.14            151           73.8 299 
 PAM  EZ EP       1918 37.24                             152    0.3310 77.5  38 
 PAM  EN ES       1918 54.53                             152   -0.4010 77.5  38 
 PAM  EZ I        1918 56.57        25.2 0.56            156           77.5  38 
 RUS  HZ EP       1918 38.21                             146   -0.0410 98.7 177 
 RUS  HN ES   2   1918 56.92                             146   -0.38 5 98.7 177 
 PTB  HZ EP       1918 41.35                             133   -0.26 9  149 260 
 PTB  HN ES       1919  2.62                             133   -0.66 9  149 260 
 PTB  HZ I        1919  9.60        27.5 0.42            132            149 260 
 OCA  HZ EP   2   1918 42.20                             131   -0.75 5  162 353 
 OCA  HE ES   2   1919  6.08                             131    0.40 5  162 353 
 OCA  HZ I        1919  9.21        34.6 0.32            132            162 353 
 SPBC HZ EP       1918 42.69                             131   -0.25 9  163 220 
 SPBC HN ES       1919  5.75                             131    0.08 9  163 220 
 SPBC HZ I        1919  8.64        21.7 0.12            130            163 220 
 ZAR  HZ EP   2   1918 47.00                             124   -0.06 4  207 292 
 ZAR  HN ES   2   1919 13.32                             124    0.33 4  207 292 
 ZAR  HZ I        1919 18.07        19.4 0.62            124            207 292 
 SML  HZ EP   2   1918 50.58                             119   -0.59 4  246 335 
 SML  HE ES   2   1919 19.50                             119   -0.81 4  246 335 
 CHI  HZ EP       1918 52.35                             119    0.50 8  247 196 
 CHI  HN ES   2   1919 21.93                             119    0.41 4  247 196 
 CHI  HZ I        1919 29.41         7.1 0.48            120            247 196 
 URE  HZ EP   4   1918 57.87                             115    2.30 0  286 292 
 URE  HN ES   4   1919 26.28                             115   -1.87 0  286 292 
 GUY2CHZ EP   4   1919  0.41                             114    2.53 0  302 235 
 GUY2CHN ES   4   1919 34.60                             114    2.34 0  302 235 
 GUY2CHZ I        1919 39.14         7.3 0.38                           302 235 
 PRA  HE ES   2   1919 49.79                             108    0.30 3  391 210 
 PRA  HZ I        1919 54.06         6.2 0.52            108            391 210 
                                                                                
