 2017  721 1044 32.0 L   6.780 -73.153145.8  RSN 10 0.3 1.8LRSN                1
 GAP=112        0.81       3.2     3.0  4.8 -0.3314E+00  0.2360E+01  0.1768E+01E
 Epicentro: LOS SANTOS - SANTANDER                                             3
 ACTION:UPD 17-08-30 15:35 OP:rebc STATUS:               ID:20170721104432 L   I
 OLDACT:REG 17-07-21 20:34 OP:lv   STATUS:               ID:20170721103738     3
 2017-07-21-1038-00M.COL___377                                                 6
 STAT SP IPHASW D HRMM SECON CODA AMPLIT PERI AZIMU VELO AIN AR TRES W  DIS CAZ7
 BAR2 EZ EP       1044 51.28                             171   -0.2610 21.0 189 
 BAR2 EZ ES       1045  6.52                             171   -0.2910 21.0 189 
 BAR2 EZ I        1045  9.09        13.3 0.26            167           21.0 189 
 BRR  HZ EP       1044 53.17                             152    0.0410 71.6 300 
 BRR  HN ES       1045 10.24                             152    0.6010 71.6 300 
 BRR  HZ I        1045 11.65        11.6 0.04            152           71.6 300 
 PAM  EZ EP       1044 54.29                             150   -0.0110 79.6  39 
 PAM  EN ES       1045 11.79                             150    0.0610 79.6  39 
 RUS  HZ EP       1044 55.57                             144    0.0210 98.4 176 
 RUS  HN ES       1045 14.19                             144    0.2310 98.4 176 
 RUS  HZ I        1045 15.33         8.1 0.31            137           98.4 176 
 PTB  HZ EP       1044 58.38                             132   -0.44 9  147 260 
 PTB  HN EP       1044 58.91                             132            147 260 
 PTB  HN ES       1045 19.13                             132   -0.64 9  147 260 
 PTB  HZ I        1045 24.13         3.3 0.14            128            147 260 
 SPBC HZ EP       1045  0.29                             130    0.04 9  161 219 
 SPBC HN ES       1045 22.18                             130   -0.13 9  161 219 
 SPBC HZ I        1045 24.89        15.3 0.24            124            161 219 
 YPLC HZ EP       1045  1.73                             127    0.13 9  175 151 
 YPLC HZ I        1045 26.76        11.7 0.13            119            175 151 
 ZAR  HZ EP       1045  4.46                             122    0.04 9  204 293 
 ZAR  HN ES       1045 29.75                             122    0.02 9  204 293 
 ZAR  HZ I        1045 35.12         6.6 0.15            118            204 293 
 NOR  HZ EP   3   1045  8.63                             119    1.15 2  233 235 
 NOR  HN ES       1045 35.83                             119    0.64 8  233 235 
 NOR  HZ I        1045 38.27         4.2 0.18            114            233 235 
 GUY2CHN ES   4   1045 51.90                             112    2.70 0  299 235 
 GUY2CHZ I        1045 57.29         2.4 0.37                           299 235 
 PTGC HZ EP   4   1045 14.37                             112   -1.24 0  307 158 
 PTGC HN ES   4   1045 48.12                             112   -1.54 0  307 158 
 SJC  HZ EP   4   1045 25.57                             106   -2.12 0  411 327 
 SJC  HN ES   4   1046  5.75                             106   -5.41 0  411 327 
                                                                                
