 2017  521 1925 23.7 L   6.779 -73.159148.7  RSN  5 0.4 1.6LRSN                1
 GAP=234        0.91       5.5     6.7  8.2  0.1356E+02 -0.2768E+01 -0.9297E+01E
 Epicentro: LOS SANTOS - SANTANDER                                             3
 ACTION:UPD 17-06-16 13:37 OP:jn   STATUS:               ID:20170521192523 L   I
 OLDACT:REG 17-05-21 22:17 OP:cog  STATUS:               ID:20170521190552     3
 2017-05-21-1918-00M.COL___318                                                 6
 STAT SP IPHASW D HRMM SECON CODA AMPLIT PERI AZIMU VELO AIN AR TRES W  DIS CAZ7
 BRR  HZ EP       1925 45.47                             153    0.2810 71.0 301 
 BRR  HE ES       1926  2.08                             153    0.1510 71.0 301 
 BRR  HZ I        1926  3.40        12.2 0.16            151           71.0 301 
 RUS  HZ EP       1925 47.55                             145   -0.0710 98.4 175 
 RUS  HN ES       1926  5.95                             145   -0.3010 98.4 175 
 RUS  HZ I        1926  6.85         3.9 0.22            146           98.4 175 
 PTB  HZ EP       1925 50.35                             133   -0.42 9  146 260 
 PTB  HN ES       1926 11.39                             133   -0.47 9  146 260 
 PTB  HZ I        1926 16.80         3.9 0.20            132            146 260 
 SPBC HN ES       1926 15.04                             130    0.63 9  160 219 
 ZAR  HZ EP       1925 56.66                             123    0.34 9  204 293 
 ZAR  HN ES   3   1926 20.46                             123   -1.27 2  204 293 
                                                                                
