 2013 1021 1042 40.5 L   6.471 -73.212164.2  RSN  5 0.4 1.8LRSN                1
 GAP=154        0.87       9.2     8.7  9.4  0.5369E+02  0.2396E+02  0.2572E+02E
 Epicentro: SOCORRO - SANTANDER                                                3
 ACTION:UPD 13-11-25 09:22 OP:ep   STATUS:               ID:20131021104239 L   I
 OLDACT:UP  13-11-19 17:05 OP:ep   STATUS:               ID:20131021104239 L   3
 OLDACT:UP  13-10-21 16:10 OP:cam  STATUS:               ID:20131021103848     3
 OLDACT:REG 13-10-21 15:33 OP:cam  STATUS:               ID:20131021103848     3
 2013-10-21-1038-48M.COL___212                                                 6
 STAT SP IPHASW D HRMM SECON CODA AMPLIT PERI AZIMU VELO AIN AR TRES W  DIS CAZ7
 BAR2 SZ EP   1   1043  1.72                             175   -0.46 7 13.8  14 
 BAR2 SZ ES   1   1043 18.33                             175   -0.79 7 13.8  14 
 BAR2 SZ I        1043 19.39        14.2 0.50            176           13.8  14 
 RUS  HZ EP       1043  4.34                             158    0.2610 65.5 167 
 RUS  HN ES   1   1043 22.85                             158    0.36 7 65.5 167 
 BRR  HN ES       1043 23.99                             150    0.4610 89.5 322 
 BRR  HN I        1043 24.98        18.7 0.29            150           89.5 322 
 PTB  HZ EP   1   1043  8.05                             138   -0.12 7  138 273 
 PTB  HN ES   1   1043 29.35                             138   -0.43 7  138 273 
 PTB  HZ I        1043 32.28         2.8 0.24            137            138 273 
 ZAR  HZ EP   3   1043 14.82                             125   -0.36 2  214 302 
 ZAR  HN ES   1   1043 42.45                             125    0.20 6  214 302 
                                                                                
