 2011  221 1347  5.9 L   6.799 -73.171139.7  RSN  9 0.3 1.9LRSN                1
 GAP=134        0.77       3.8     6.6  6.6 -0.1023E+02  0.1216E+02  0.7540E+00E
 Epicentro: LOS SANTOS - SANTANDER                                             3
 ACTION:UP  11-03-28 15:10 OP:jfem STATUS:               ID:20110221134705 L   I
 2011-02-21-1344-11S.COL___137                                                 6
 STAT SP IPHASW D HRMM SECON CODA AMPLIT PERI AZIMU VELO SNR AR TRES W  DIS CAZ7
 BTL  SZ IP       1347 25.32                             173     0.610   17 321 
 BAR2 SZ EP       1347 24.81                             170     0.010   23 184 
 BAR2 SZ ES   1   1347 39.29                             170    -0.2 7   23 184 
 BAR2 SZ I        1347 40.85        27.1 0.25                            23 184 
 RUS  HZ EP       1347 29.21                             143     0.210  101 174 
 RUS  HN ES   1   1347 47.25                             143     0.1 7  101 174 
 RUS  HZ I        1347 48.92        10.7 0.26                           101 174 
 GRA  SZ EP       1347 30.60                             135    -0.110  127  19 
 GRA  SZ ES   1   1347 49.58                             135    -0.4 7  127  19 
 GRA  SZ I        1347 52.57        17.8 0.31                           127  19 
 OCA  SZ ES   3   1347 55.07                             128    -0.3 2  160 354 
 YOP  SZ EP   1   1347 35.17                             125    -0.5 7  180 153 
 YOP  SZ I        1347 38.83         6.1 0.33                           180 153 
 NOR  SZ EP       1347 40.86                             117    -0.2 8  233 234 
 NOR  SN ES   1   1348  8.16                             117    -0.3 6  233 234 
 CHI  HZ EP       1347 43.11                             116    -0.1 8  248 195 
 CHI  HZ I        1347 44.76         4.0 0.16                           248 195 
 CHI  HN ES   2   1348 11.86                             116    -0.4 4  248 195 
 HEL  HZ EP   2   1347 45.78                             114     0.3 4  269 256 
 HEL  HZ I        1348 24.08         8.7 0.39                           269 256 
                                                                                
