 2010  921 1450 22.9 L   6.804 -73.131137.2  RSN 10 0.4 2.1LRSN                1
 GAP=160        1.01       4.6     8.5  8.8 -0.2080E+02  0.1943E+02  0.3239E+01E
 Epicentro: LOS SANTOS - SANTANDER                                             3
 ACTION:UP  11-02-18 11:04 OP:tino STATUS:               ID:20100921145022 L   I
 2010-09-21-1447-51S.COL___122                                                 6
 STAT SP IPHASW D HRMM SECON CODA AMPLIT PERI AZIMU VELO SNR AR TRES W  DIS CAZ7
 BAR2 SZ EP       1450 41.56                             170     0.110   24 194 
 BAR2 SZ ES   1   1450 56.23                             170     0.2 7   24 194 
 BAR2 SZ I        1450 57.54        42.5 0.24                            24 194 
 BRR  HZ EP       1450 43.47                             151     0.310   72 298 
 BRR  HZ I        1451  5.00        35.5 0.12                            72 298 
 RUS  HZ EP       1450 45.63                             142    -0.210  101 177 
 RUS  HZ I        1451  6.18         9.1 0.30                           101 177 
 GUE  SZ EP       1450 46.98                             138     0.210  116  11 
 GRA  SZ EP       1450 47.48                             135     0.210  125  17 
 GRA  SZ ES   1   1451  6.37                             135     0.0 7  125  17 
 GRA  SZ I        1451  8.15        20.2 0.55                           125  17 
 OCA  SZ EP       1450 50.14                             128    -0.4 9  160 353 
 OCA  SZ ES   1   1451 11.54                             128    -0.5 7  160 353 
 OCA  SZ I        1451 15.19        20.5 0.16                           160 353 
 NOR  SZ EP       1450 58.09                             116    -0.2 8  236 235 
 NOR  SN ES   1   1451 25.32                             116    -0.6 6  236 235 
 CHI  HZ EP       1450 59.67                             115    -0.5 8  249 196 
 CHI  HZ I        1451 36.48         5.7 0.88                           249 196 
 GUY  SZ EP   2   1451  6.83                             110     0.5 4  303 235 
 GUY  SE ES   2   1451 40.63                             110     0.5 4  303 235 
 RREF HZ EP       1451  9.89                             109     1.1 7  323 230 
 RREF HZ I        1451 53.67         5.2 0.39                           323 230 
                                                                                
