 2014 1221 1412 25.8 L   6.764 -73.174129.8  RSN  9 0.4 1.7LRSN                1
 GAP=135        1.08       3.8     4.0  6.5 -0.2483E+00  0.9603E+01  0.2982E+01E
 Epicentro: LOS SANTOS - SANTANDER                                             3
 ACTION:UPD 15-02-10 17:06 OP:nd   STATUS:               ID:20141221141225 L   I
 OLDACT:DUP 14-12-21 23:26 OP:fm   STATUS:               ID:20141221140751d    3
 2014-12-21-1407-50M.COL___296                                                 6
 STAT SP IPHASW D HRMM SECON CODA AMPLIT PERI AZIMU VELO AIN AR TRES W  DIS CAZ7
 BAR2 EZ EP       1412 43.70                             171    0.2810 19.0 183 
 BAR2 EZ ES       1412 57.39                             171    0.2210 19.0 183 
 BAR2 EZ I        1412 59.89        12.7 0.18            169           19.0 183 
 BRR  HN ES       1413  1.30                             150    0.9610 70.6 303 
 BRR  HZ I        1413  6.46        21.2 0.46            149           70.6 303 
 PAM  SZ EP       1412 46.58                             146   -0.1010 82.4  39 
 PAM  SE ES       1413  2.36                             146   -0.6110 82.4  39 
 PAM  SZ I        1413  5.47        14.4 0.46            152           82.4  39 
 RUS  HZ EP       1412 47.78                             141    0.0510 96.9 174 
 RUS  HE ES       1413  4.74                             141   -0.0910 96.9 174 
 RUS  HZ I        1413  7.44         4.5 0.30            144           96.9 174 
 PTB  HZ EP       1412 50.95                             129   -0.20 9  144 260 
 PTB  HN ES       1413 10.16                             129   -0.77 9  144 260 
 PTB  HZ I        1413 13.60        10.3 0.12            130            144 260 
 SPBC HZ EP       1412 53.06                             126    0.44 9  158 219 
 SPBC HN ES       1413 13.01                             126   -0.53 9  158 219 
 SPBC HZ I        1413 21.54         8.7 0.38            128            158 219 
 ZAR  HZ EP       1412 57.04                             119   -0.08 9  203 294 
 ZAR  HE ES       1413 21.44                             119   -0.10 9  203 294 
 ZAR  HZ I        1413 27.52         9.7 0.50            121            203 294 
 CHI  HN ES       1413 30.73                             114    0.24 8  244 195 
 CHI  HZ I        1413 33.87         1.3 0.34            117            244 195 
 HEL  HZ EP       1413  5.11                             112    0.31 8  268 256 
 HEL  HN ES       1413 35.25                             112    0.03 8  268 256 
 HEL  HZ I        1413 44.25         4.3 0.30            114            268 256 
                                                                                
