 2011  121 1228 26.2 L   6.799 -72.984143.3  RSN  9 0.4 2.0LRSN                1
 GAP=177        0.81       5.3    11.5  8.6 -0.3577E+02  0.6046E+02 -0.1522E+02E
 Epicentro: CEPITA - SANTANDER                                                 3
 ACTION:UP  11-02-08 08:41 OP:pat  STATUS:               ID:20110121122826 L   I
 2011-01-21-1226-10S.COL___138                                                 6
 STAT SP IPHASW D HRMM SECON CODA AMPLIT PERI AZIMU VELO SNR AR TRES W  DIS CAZ7
 BAR2 SZ EP       1228 45.73                             167    -0.110   32 224 
 BAR2 SZ ES   1   1229  0.47                             167    -0.6 7   32 224 
 BAR2 SZ I        1229  4.11        19.5 0.17                            32 224 
 BTL  SZ EP       1228 46.01                             166     0.210   34 293 
 RUS  HZ EP   1   1228 49.44                             143    -0.3 7  101 186 
 RUS  HN ES   1   1229  8.58                             143     0.5 7  101 186 
 RUS  HZ I        1229  9.38        11.2 0.22                           101 186 
 GRA  SZ EP   2   1228 51.08                             137     0.1 5  122   9 
 GRA  SZ ES   1   1229 10.35                             137     0.2 7  122   9 
 GRA  SZ I        1229 14.02         9.7 0.37                           122   9 
 OCA  SZ EP   1   1228 54.82                             128     0.1 7  163 347 
 OCA  SZ I        1229 20.06        12.7 0.18                           163 347 
 HEL  HZ EP   1   1229  7.56                             113    -0.7 5  289 257 
 HEL  HZ I        1229 44.70         7.3 0.29                           289 257 
 GUY  SZ EP   1   1229 11.91                             111     0.5 5  316 237 
 RREF HZ EP   1   1229 13.63                             109    -0.2 5  335 231 
 RREF HE ES   1   1229 51.66                             109     0.7 5  335 231 
 RREF HZ I        1229 55.72         7.3 0.35                           335 231 
 TOL  SZ EP   2   1229 15.31                             108    -0.6 3  356 227 
                                                                                
