 2017  321 1230 47.0 L   6.800 -73.142140.0  RSN 16 0.7 2.7LRSN                1
 GAP=152        1.22       4.1     5.2  6.1 -0.3954E+01  0.4864E+01  0.8523E+01E
 Epicentro: LOS SANTOS - SANTANDER                                             3
 ACTION:UPD 17-05-25 18:43 OP:jn   STATUS:               ID:20170321123047 L   I
 OLDACT:UP  17-03-21 22:02 OP:cog  STATUS:               ID:20170321122746     3
 OLDACT:UP  17-03-21 21:57 OP:cog  STATUS:               ID:20170321122746     3
 OLDACT:UP  17-03-21 21:57 OP:cog  STATUS:               ID:20170321122746     3
 OLDACT:UP  17-03-21 21:55 OP:cog  STATUS:               ID:20170321122746     3
 OLDACT:REG 17-03-21 20:22 OP:cog  STATUS:               ID:20170321122746     3
 2017-03-21-1228-00M.COL___388                                                 6
 STAT SP IPHASW D HRMM SECON CODA AMPLIT PERI AZIMU VELO AIN AR TRES W  DIS CAZ7
 BAR2 EZ EP     C 1231  5.82                             170   -0.1310 23.4 191 
 BAR2 EZ ES       1231 20.27                             170   -0.4510 23.4 191 
 BAR2 EZ I        1231 23.64       160.2 0.30            168           23.4 191 
 BRR  HZ EP       1231  7.68                             151    0.1210 71.5 298 
 BRR  HN ES       1231 24.23                             151    0.6510 71.5 298 
 BRR  HZ I        1231 28.63        93.7 0.30            153           71.5 298 
 PAM  EZ EP       1231  8.60                             150    0.0010 77.1  39 
 PAM  EN ES       1231 25.62                             150    0.1910 77.1  39 
 PAM  EZ I        1231 29.04        44.6 0.52            156           77.1  39 
 PTB  HZ EP   9   1231 12.36                             131   -1.19 0  148 259 
 PTB  HN ES       1231 33.21                             131    0.15 9  148 259 
 PTB  HZ I        1231 40.84        32.9 0.14            133            148 259 
 SPBC HZ EP       1231 14.82                             128   -0.28 9  163 219 
 SPBC HN ES       1231 37.15                             128    0.14 9  163 219 
 SPBC HZ I        1231 43.17        73.5 0.21            130            163 219 
 ZAR  HZ EP       1231 18.08                             121   -1.04 9  204 292 
 ZAR  HN ES       1231 44.07                             121   -0.10 9  204 292 
 CHI  HZ EP       1231 24.18                             116   -0.23 8  249 195 
 CHI  HN ES       1231 53.47                             116   -0.11 8  249 195 
 CHI  HZ I        1231 57.01        23.6 0.38            119            249 195 
 ROSC BZ EP   9   1231 26.38                             115    1.53 0  253 211 
 ROSC BE ES       1231 55.84                             116   -0.05 8  253 211 
 ROSC BZ I        1232  0.55        60.0 0.45            118            253 211 
 GUY2CHZ EP       1231 31.23                             111    0.83 7  302 235 
 GUY2CHN ES       1232  3.23                             111   -1.01 7  302 235 
 VIL  EZ EP       1231 29.74                             111   -0.44 7  303 192 
 VIL  EN ES       1232  4.49                             111    0.63 7  303 192 
 ELA  HZ EP       1231 35.99                             109    2.33 7  329 230 
 ELA  HN ES   3   1232 11.47                             109    1.42 2  329 230 
 CBOC HZ EP   3   1231 33.76                             109    0.02 2  334 252 
 DBB  EZ EP       1231 34.12                             108   -0.18 7  340 274 
 DBB  EN ES   4   1232  9.14                             108   -2.05 0  340 274 
 ANIL HZ EP   3   1231 37.67                             107    1.04 2  358 225 
 ANIL HN ES   3   1232 15.60                             107    0.26 2  358 225 
 PRA  HZ EP       1231 39.82                             106   -0.54 6  392 210 
 PRA  HN ES       1232 21.92                             106   -0.06 6  392 210 
 PRA  HZ I        1232 28.15        27.3 0.40            108            392 210 
 ORTC HZ EP       1231 40.51                             105   -0.26 6  396 216 
 ORTC HN ES   3   1232 23.77                             105    1.07 1  396 216 
                                                                                
