 2014  821 1912 59.2 L   6.801 -73.188145.0  RSN  6 0.4 1.8LRSN                1
 GAP=131        1.09       4.7     5.9  8.5 -0.2631E+01  0.1737E+02 -0.1294E+02E
 Epicentro: ZAPATOCA - SANTANDER                                               3
 ACTION:UPD 14-09-15 21:51 OP:nd   STATUS:               ID:20140821191259 L   I
 OLDACT:REG 14-08-21 21:12 OP:stll STATUS:               ID:20140821190818     3
 2014-08-21-1908-18M.COL___268                                                 6
 STAT SP IPHASW D HRMM SECON CODA AMPLIT PERI AZIMU VELO AIN AR TRES W  DIS CAZ7
 BAR2 SZ EP       1913 18.66                             171   -0.1110 23.0 179 
 BAR2 SZ ES       1913 34.14                             171    0.1410 23.0 179 
 BAR2 SZ I        1913 36.70        22.4 0.30            172           23.0 179 
 BRR  HZ EP       1913 20.52                             154    0.4410 67.1 300 
 PAM  SZ EP       1913 21.94                             150    0.3910 80.4  42 
 PAM  SN ES       1913 39.15                             150    0.2010 80.4  42 
 RUS  HZ EP       1913 23.14                             144    0.1910  101 173 
 RUS  HN ES       1913 40.55                             144   -0.8910  101 173 
 RUS  HZ I        1913 42.84         6.8 0.30            147            101 173 
 PTB  HZ EP       1913 26.00                             133    0.27 9  143 258 
 PTB  HN ES       1913 46.59                             133    0.19 9  143 258 
 PTB  HZ I        1913 49.28         5.0 0.16            134            143 258 
 SML  HZ EP       1913 35.02                             117   -0.59 8  242 336 
 SML  HN ES       1914  3.36                             117   -0.62 8  242 336 
 SML  HZ I        1914  7.23         8.0 0.10            119            242 336 
                                                                                
