 2011  321 1127 43.3 L   6.332 -73.585109.2  RSN 11 0.5 2.0LRSN                1
 GAP= 83        1.01       4.1     4.2  9.6 -0.3880E+01  0.2078E+02 -0.3139E+01E
 Epicentro: SANTA HELENA DEL OPON - SANTANDER                                  3
 ACTION:UP  11-06-16 14:35 OP:jfem STATUS:               ID:20110321112743 L   I
 2011-03-21-1123-58S.COL___131                                                 6
 STAT SP IPHASW D HRMM SECON CODA AMPLIT PERI AZIMU VELO SNR AR TRES W  DIS CAZ7
 BAR2 SZ EP       1127 59.92                             152     0.110   53  57 
 BAR2 SZ ES   1   1128 13.00                             152     0.3 7   53  57 
 BAR2 SZ I        1128 14.21        57.7 0.25                            53  57 
 RUS  HZ EP       1128  1.22                             144    -0.310   74 131 
 RUS  HN ES   1   1128 15.58                             144    -0.1 7   74 131 
 RUS  HZ I        1128 17.14         7.6 0.25                            74 131 
 NOR  SZ EP   1   1128  9.19                             119    -0.3 7  166 239 
 NOR  SN ES   1   1128 28.89                             119    -1.1 7  166 239 
 YOP  SZ EP   1   1128  9.75                             118    -0.1 7  168 130 
 YOP  SE ES   1   1128 31.19                             118     0.6 7  168 130 
 YOP  SZ I        1128 32.54        25.5 0.27                           168 130 
 CHI  HN ES   1   1128 34.82                             115    -0.4 7  189 185 
 CHI  HZ I        1128 39.34         6.3 0.17                           189 185 
 GRA  SZ ES   1   1128 35.27                             115     0.0 7  192  27 
 GRA  SZ I        1128 40.01         9.4 0.38                           192  27 
 OCA  SZ EP   1   1128 14.64                             112    -0.2 6  213   8 
 OCA  SZ I        1128 45.43        15.9 0.40                           213   8 
 HEL  HZ EP   1   1128 15.56                             112     0.2 6  216 266 
 HEL  HN ES   1   1128 41.03                             112     0.6 6  216 266 
 HEL  HZ I        1128 45.08        10.8 0.39                           216 266 
 RREF HZ EP   1   1128 20.14                             108     0.3 6  251 231 
 RREF HE ES   1   1128 49.16                             108     0.8 6  251 231 
 RREF HZ I        1128 54.22         6.9 0.12                           251 231 
 DBB  SZ EP   1   1128 24.54                             104    -0.3 5  300 285 
 PRA  HN ES   2   1129  3.22                             103     1.1 3  323 207 
                                                                                
