 2014  921 1149 30.6 L   6.832 -73.170146.0  RSN 11 0.5 2.2LRSN                1
 GAP=132        1.26       3.3     5.2  6.8 -0.5891E+00  0.6921E+01 -0.6248E+00E
 Epicentro: ZAPATOCA - SANTANDER                                               3
 ACTION:UPD 14-10-03 23:07 OP:nd   STATUS:               ID:20140921114930 L   I
 OLDACT:REG 14-09-21 23:07 OP:carl STATUS:               ID:20140921114818     3
 2014-09-21-1148-18M.COL___284                                                 6
 STAT SP IPHASW D HRMM SECON CODA AMPLIT PERI AZIMU VELO AIN AR TRES W  DIS CAZ7
 BAR2 SZ IP     D 1149 50.32                             169    0.0510 26.5 183 
 BAR2 SZ ES       1150  5.55                             169   -0.1110 26.5 183 
 BAR2 SZ I        1150  7.02        28.8 0.26            169           26.5 183 
 BRR  HZ EP       1149 51.97                             154    0.4710 67.2 297 
 BRR  HN ES       1150  8.72                             154    0.8810 67.2 297 
 BRR  HZ I        1150 12.71        39.7 0.20            152           67.2 297 
 PAM  SZ IP     D 1149 53.13                             151    0.3910 76.5  43 
 PAM  SN ES       1150  9.88                             151   -0.1610 76.5  43 
 PAM  SZ I        1150 12.20        31.3 0.54            155           76.5  43 
 RUS  HZ EP       1149 54.44                             143   -0.1510  104 175 
 RUS  HN ES       1150 13.05                             143   -0.3010  104 175 
 RUS  HZ I        1150 14.44         7.5 0.20            145            104 175 
 PTB  HZ EP       1149 56.92                             132   -0.44 9  146 257 
 PTB  HN ES       1150 17.82                             132   -0.46 9  146 257 
 PTB  HZ I        1150 20.90        17.2 0.34            132            146 257 
 OCA  HZ EP       1149 59.19                             130    0.67 9  156 354 
 OCA  HE ES       1150 19.78                             130   -0.56 9  156 354 
 OCA  HZ I        1150 23.16        21.1 0.24            132            156 354 
 SPBC HZ EP       1149 59.39                             129    0.22 9  164 217 
 SPBC HN ES       1150 21.04                             129   -0.45 9  164 217 
 SPBC HZ I        1150 26.75        15.1 0.28            130            164 217 
 ZAR  HZ EP       1150  2.68                             123    0.06 9  200 291 
 ZAR  HN ES       1150 28.29                             123    0.66 9  200 291 
 ZAR  HZ I        1150 35.20        18.1 0.34            123            200 291 
 SML  HZ EP       1150  6.87                             118    0.15 8  239 336 
 SML  HN ES       1150 33.61                             118   -1.32 8  239 336 
 SML  HZ I        1150 38.57        29.7 0.26            119            239 336 
 CHI  HZ EP       1150  8.09                             117   -0.47 8  251 194 
 CHI  HN ES       1150 38.73                             117    0.53 8  251 194 
 CHI  HZ I        1150 43.43         3.6 0.36            119            251 194 
 GUY2CHZ EP   4   1150 15.63                             112    1.47 0  301 234 
 GUY2CHN ES   4   1150 50.02                             112    1.85 0  301 234 
 GUY2CHZ I        1150 57.81         6.9 0.44                           301 234 
                                                                                
