 2012  421 1453  0.1 L   6.744 -73.107140.7  RSN  7 0.4 2.0LRSN                1
 GAP=144        0.86       4.8     6.7  7.2 -0.7309E+01  0.6778E+01  0.1146E+01E
 Epicentro: JORDAN - SANTANDER                                                 3
 ACTION:UPD 12-07-05 11:55 OP:tino STATUS:               ID:20120421145300 L   I
 2012-04-21-1450-00M.COL___186                                                 6
 STAT SP IPHASW D HRMM SECON CODA AMPLIT PERI AZIMU VELO AIN AR TRES W  DIS CAZ7
 BAR2 SZ EP       1453 19.26                             172     0.210   19 206 
 BAR2 SZ ES   1   1453 33.12                             172    -0.7 7   19 206 
 BAR2 SZ I        1453 35.91        35.0 0.20                            19 206 
 BRR  HZ EP       1453 20.90                             149    -0.310   78 301 
 BRR  HZ I        1453 21.09        38.7 0.11                            78 301 
 BRR  HN ES   1   1453 38.23                             149     0.7 7   78 301 
 PAM  SZ EP   1   1453 21.86                             149    -0.1 7   80  34 
 PAM  SN ES   1   1453 39.13                             149     0.1 7   80  34 
 RUS  HZ EP   1   1453 23.14                             145     0.2 7   94 178 
 RUS  HN ES   1   1453 40.87                             145     0.1 7   94 178 
 RUS  HZ I        1453 42.75         8.0 0.22                            94 178 
 OCA  SZ EP   1   1453 28.46                             127    -0.2 7  167 352 
 NOR  SE ES   1   1454  2.94                             117    -0.3 6  235 236 
 CHI  HZ EP   1   1453 37.29                             117     0.2 6  244 197 
 CHI  HZ I        1453 37.72         4.9 0.10                           244 197 
                                                                                
