 2012  721 1125 41.2 L   6.786 -73.133149.4  RSN  9 0.3 2.0LRSN                1
 GAP=139        0.58       2.5     3.1  4.3 -0.1142E+01  0.3000E+01  0.1032E+01E
 Epicentro: LOS SANTOS - SANTANDER                                             3
 ACTION:UP  12-08-14 11:46 OP:ep   STATUS:               ID:20120721112541 L   I
 2012-07-21-1120-00M.COL___215                                                 6
 STAT SP IPHASW D HRMM SECON CODA AMPLIT PERI AZIMU VELO AIN AR TRES W  DIS CAZ7
 BAR2 SZ EP   1   1126  1.09                             171    -0.2 7   22 194 
 BAR2 SZ ES   1   1126 17.05                             171     0.2 7   22 194 
 BAR2 SZ I        1126 17.59        50.4 0.11            169             22 194 
 BRR  HZ EP   1   1126  2.99                             152     0.1 7   73 299 
 BRR  HN ES   1   1126 20.01                             152     0.3 7   73 299 
 BRR  HZ I        1126 21.59        19.3 0.14            152             73 299 
 PAM  SZ EP   1   1126  3.94                             151     0.1 7   78  38 
 PAM  SN ES       1126 21.35                             151    -0.110   78  38 
 RUS  HZ EP   1   1126  5.02                             145    -0.2 7   99 177 
 RUS  HE ES       1126 23.80                             145    -0.110   99 177 
 RUS  HZ I        1126 25.03        10.2 0.22            145             99 177 
 PTB  HZ EP   1   1126  8.03                             133    -0.5 7  149 260 
 PTB  HN ES       1126 29.72                             133    -0.2 9  149 260 
 PTB  HZ I        1126 33.36         7.7 0.15            132            149 260 
 OCA  HZ EP   1   1126 10.01                             130     0.1 7  162 353 
 OCA  HN ES   2   1126 32.96                             130     0.6 5  162 353 
 ZAR  HE ES   2   1126 39.35                             123    -0.4 4  206 292 
 NOR  SZ EP   1   1126 17.35                             119     0.2 6  235 235 
 NOR  SN ES   2   1126 45.97                             119     0.7 4  235 235 
 CHI  HZ EP   1   1126 19.25                             118     0.3 6  247 196 
 CHI  HN ES   1   1126 48.72                             118     0.3 6  247 196 
 CHI  HZ I        1126 52.04         5.5 0.42            118            247 196 
