 2014 1121 1438 29.0 L   6.800 -73.152148.0  RSN  9 0.4 1.7LRSN                1
 GAP=136        1.00       4.7     4.4  6.6 -0.2688E+01  0.7563E+01  0.4612E+01E
 Epicentro: LOS SANTOS - SANTANDER                                             3
 ACTION:UPD 14-12-19 15:45 OP:nd   STATUS:               ID:20141121143829 L   I
 OLDACT:DUP 14-11-22 00:39 OP:spq  STATUS:               ID:20141121142748d    3
 2014-11-21-1427-47M.COL___300                                                 6
 STAT SP IPHASW D HRMM SECON CODA AMPLIT PERI AZIMU VELO AIN AR TRES W  DIS CAZ7
 BAR2 SZ EP   1   1438 48.62                             171   -0.32 7 23.2 188 
 BAR2 SZ ES   1   1439  4.38                             171   -0.08 7 23.2 188 
 BAR2 SZ I        1439  6.51        11.3 0.20            167           23.2 188 
 BRR  HZ EP       1438 50.80                             153    0.4010 70.6 299 
 BRR  HN ES       1439  7.89                             153    0.8310 70.6 299 
 BRR  HZ I        1439 11.76        12.4 0.26            151           70.6 299 
 PAM  SZ EP     C 1438 51.41                             151   -0.1110 77.8  40 
 PAM  SN ES       1439  8.64                             151   -0.4210 77.8  40 
 PAM  SZ I        1439 10.68         3.0 0.42            158           77.8  40 
 RUS  HZ EP   1   1438 53.47                             144    0.45 7  101 176 
 RUS  HN ES   1   1439 11.81                             144    0.09 7  101 176 
 RUS  HZ I        1439 13.40         3.4 0.44            145            101 176 
 PTB  HZ EP       1438 55.72                             133   -0.41 9  147 259 
 PTB  HE ES       1439 17.25                             133   -0.01 9  147 259 
 PTB  HZ I        1439 20.59         4.6 0.12            132            147 259 
 SPBC HZ EP       1438 57.87                             130    0.20 9  163 219 
 SPBC HN ES   1   1439 19.17                             130   -0.84 7  163 219 
 SPBC HZ I        1439 26.00        14.8 0.22            130            163 219 
 ZAR  HZ EP       1439  1.61                             123    0.04 9  203 292 
 ZAR  HN ES       1439 26.36                             123   -0.58 9  203 292 
 ZAR  HZ I        1439 34.48         8.5 0.30            124            203 292 
 NOR  HZ EP       1439  5.34                             119    0.50 8  234 234 
 NOR  HN ES   1   1439 32.51                             119   -0.26 6  234 234 
 NOR  HZ I        1439 38.63         3.4 0.32            120            234 234 
 TOL  SN ES   4   1439 57.01                             110    2.01 0  343 225 
 TOL  SZ I        1440  3.87         4.9 0.38            111            343 225 
                                                                                
