 2014 1121 1733  8.2 L   6.739 -73.122141.5  RSN  6 0.4 1.4LRSN                1
 GAP=142        0.82       4.8     4.0  7.0 -0.1581E+01  0.3956E+01  0.1766E+01E
 Epicentro: LOS SANTOS - SANTANDER                                             3
 ACTION:UPD 14-12-19 15:45 OP:nd   STATUS:               ID:20141121173308 L   I
 OLDACT:REG 14-11-21 21:58 OP:spq  STATUS:               ID:20141121172746     3
 2014-11-21-1727-46M.COL___300                                                 6
 STAT SP IPHASW D HRMM SECON CODA AMPLIT PERI AZIMU VELO AIN AR TRES W  DIS CAZ7
 BAR2 SZ EP   1   1733 27.59                             173    0.32 7 17.6 202 
 BAR2 SZ ES   1   1733 41.59                             173   -0.51 7 17.6 202 
 BAR2 SZ I        1733 43.54         7.5 0.32            173           17.6 202 
 BRR  HZ EP       1733 29.06                             150   -0.2210 76.8 302 
 BRR  HE ES       1733 46.18                             150    0.5010 76.8 302 
 BRR  HZ I        1733 54.23         9.6 0.36            150           76.8 302 
 PAM  SZ EP     C 1733 30.38                             149    0.1310 81.1  35 
 PAM  SN ES       1733 47.16                             149   -0.2510 81.1  35 
 PAM  SZ I        1733 50.12         3.4 0.46            152           81.1  35 
 RUS  HZ EP   1   1733 31.42                             145    0.32 7 93.7 177 
 RUS  HE ES   1   1733 49.19                             145    0.27 7 93.7 177 
 RUS  HZ I        1733 50.98         1.6 0.40            151           93.7 177 
 PTB  HZ EP   1   1733 34.44                             131   -0.57 7  149 262 
 PTB  HE ES       1733 55.57                             131   -0.31 9  149 262 
 PTB  HZ I        1733 57.22         2.8 0.48            134            149 262 
 ZAR  HE ES   1   1734  6.82                             121    0.37 6  209 294 
 ZAR  HZ I        1734 10.93         3.5 0.28            123            209 294 
                                                                                
