 2012 1121 1708 54.3 L   6.787 -73.153152.0  RSN  5 0.4 1.5LRSN                1
 GAP=136        0.74       5.5     4.7  8.2 -0.3201E+00  0.1105E+02 -0.3359E+01E
 Epicentro: LOS SANTOS - SANTANDER                                             3
 ACTION:UPD 12-12-05 15:35 OP:}ep  STATUS:               ID:20121121170854 L   I
 2012-11-21-1704-48M.COL___211                                                 6
 STAT SP IPHASW D HRMM SECON CODA AMPLIT PERI AZIMU VELO AIN AR TRES W  DIS CAZ7
 BAR2 SZ EP   1   17 9 14.59                             171   -0.04 7 21.8 189 
 BAR2 SZ ES   1   17 9 30.69                             171    0.19 7 21.8 189 
 BAR2 SZ I        17 9 31.98         8.1 0.30                          21.8 189 
 PAM  SZ EP   1   17 9 17.35                             151    0.10 7 79.0  39 
 PAM  SN ES   1   17 9 34.85                             151   -0.33 7 79.0  39 
 PAM  SZ I        17 9 36.93         7.4 0.58                          79.0  39 
 RUS  HN EP   1   17 9 18.77                             145    0.22 7 99.2 176 
 RUS  HE ES   1   17 9 37.67                             145    0.19 7 99.2 176 
 RUS  HN I        17 9 38.89         1.9 0.22                          99.2 176 
 PTB  HZ EP   1   17 9 21.22                             134   -0.44 7  147 259 
 PTB  HN ES   1   17 9 42.43                             134   -0.59 7  147 259 
 PTB  HZ I        17 9 48.57         4.4 0.24                           147 259 
 ZAR  HE ES   1   17 9 53.51                             124    0.78 6  204 293 
                                                                                
