 2017  521 1904  5.8 L   6.774 -73.147147.1  RSN  6 0.4 1.8LRSN                1
 GAP=235        0.92       4.4     6.2  8.0  0.1299E+02  0.3062E-01 -0.2732E+01E
 Epicentro: LOS SANTOS - SANTANDER                                             3
 ACTION:UPD 17-06-16 13:37 OP:jn   STATUS:               ID:20170521190405 L   I
 OLDACT:UP  17-05-21 23:32 OP:cog  STATUS:               ID:20170521185743     3
 OLDACT:REG 17-05-21 22:15 OP:cog  STATUS:               ID:20170521185743     3
 2017-05-21-1858-00M.COL___318                                                 6
 STAT SP IPHASW D HRMM SECON CODA AMPLIT PERI AZIMU VELO AIN AR TRES W  DIS CAZ7
 BRR  HZ EP       19 4 27.20                             152    0.0610 72.5 301 
 BRR  HN ES       19 4 44.15                             152    0.3510 72.5 301 
 BRR  HZ I        19 4 45.23        21.1 0.24            152           72.5 301 
 RUS  HZ EP       19 4 29.34                             145   -0.1110 97.7 176 
 RUS  HN ES       19 4 47.62                             145   -0.2910 97.7 176 
 RUS  HZ I        19 4 49.05         5.5 0.36            146           97.7 176 
 PTB  HZ EP       19 4 32.39                             132   -0.40 9  147 260 
 PTB  HN ES       19 4 53.22                             132   -0.64 9  147 260 
 PTB  HZ I        19 4 57.41         7.9 0.32            133            147 260 
 SPBC HE ES       19 4 56.88                             130    0.59 9  161 220 
 ZAR  HZ EP       19 4 38.79                             122    0.38 9  205 293 
 ZAR  HN ES       19 5  3.84                             122   -0.02 9  205 293 
 CHI  HE ES       19 5 12.70                             118    0.24 8  246 195 
                                                                                
