 2015 1221 1648 45.2 L   5.873 -73.639122.3  RSN  5 0.2 1.7LRSN                1
 GAP=155        0.58       4.6     2.9  5.0 -0.7644E+01  0.3579E+01 -0.3761E+01E
 Epicentro: PUENTE NACIONAL - SANTANDER                                        3
 ACTION:UPD 16-02-04 15:06 OP:cam  STATUS:               ID:20151221164749 L   I
 OLDACT:UPD 15-12-21 21:32 OP:AK   STATUS:               ID:20151221164749 L   3
 2015-12-21-1647-49M.COL___332                                                 6
 STAT SP IPHASW D HRMM SECON CODA AMPLIT PERI AZIMU VELO AIN AR TRES W  DIS CAZ7
 SPBC HZ EP   2   1649  2.78                             155   -0.20 5 53.8 243 
 SPBC HN ES       1649 17.09                             155    0.2510 53.8 243 
 SPBC HZ I        1649 21.48        14.8 0.14            156           53.8 243 
 RUS  HZ EP       1649  4.02                             152    0.0310 61.6  88 
 RUS  HN ES       1649 18.22                             152   -0.4210 61.6  88 
 RUS  HZ I        1649 21.38         3.5 0.23            157           61.6  88 
 BAR2 EZ EP       1649  5.96                             140    0.0910 94.2  32 
 BAR2 EZ ES       1649 22.25                             140    0.2610 94.2  32 
 BAR2 EZ I        1649 23.27        13.8 0.15            145           94.2  32 
 PTB  HZ EP   2   1649  7.04                             133   -0.40 5  117 309 
 PTB  HN ES   2   1649 24.37                             133   -0.42 5  117 309 
 PTB  HZ I        1649 27.09         8.5 0.11            137            117 309 
 NOR  HZ EP       1649  9.76                             128    0.05 9  140 256 
 NOR  HN ES       1649 28.80                             128   -0.02 9  140 256 
 NOR  HZ I        1649 31.72        12.6 0.12            131            140 256 
                                                                                
