 2013  521 1903 44.8 L   6.797 -73.153140.1  RSN  8 0.5 1.7LRSN                1
 GAP=136        1.36       6.3     5.9  8.8 -0.3453E+01  0.1098E+02  0.7285E+01E
 Epicentro: LOS SANTOS - SANTANDER                                             3
 ACTION:UPD 13-06-20 09:52 OP:ep   STATUS:               ID:20130521190344 L   I
 2013-05-21-1900-00M.COL___259                                                 6
 STAT SP IPHASW D HRMM SECON CODA AMPLIT PERI AZIMU VELO AIN AR TRES W  DIS CAZ7
 BAR2 SZ EP       19 4  3.80                             170    0.0210 22.9 188 
 BAR2 SZ ES       19 4 18.41                             170   -0.1410 22.9 188 
 BAR2 SZ I        19 4 19.97        12.8 0.16            169           22.9 188 
 GIR2 SZ EP       19 4  3.88                             167    0.0310 31.5 352 
 GIR2 SZ ES       19 4 17.81                             167   -0.8610 31.5 352 
 GIR2 SZ I        19 4 21.94        10.4 0.46            167           31.5 352 
 BRR  HZ EP       19 4  5.66                             152    0.3110 70.7 299 
 BRR  HN ES       19 4 22.35                             152    1.0010 70.7 299 
 BRR  HZ I        19 4 22.96        16.4 0.30            151           70.7 299 
 PAM  SZ EP       19 4  6.74                             150    0.2410 78.1  40 
 PAM  SN ES       19 4 23.31                             150   -0.0910 78.1  40 
 PAM  SZ I        19 4 25.03         9.8 0.18            153           78.1  40 
 RUS  HZ EP       19 4  7.86                             143   -0.1610  100 176 
 RUS  HE ES       19 4 26.69                             143    0.5910  100 176 
 RUS  HZ I        19 4 29.58         2.7 0.19            144            100 176 
 PTB  HZ EP       19 4 10.48                             131   -0.80 9  147 259 
 PTB  HN ES       19 4 31.16                             131   -0.74 9  147 259 
 PTB  HZ I        19 4 34.19        10.2 0.18            131            147 259 
 ZAR  HN ES   1   19 4 42.51                             121    0.67 6  203 292 
 ZAR  HZ I        19 4 48.16         7.2 0.48            122            203 292 
 NOR  HE ES   1   19 4 48.07                             117    0.36 6  234 234 
 NOR  HZ I        19 4 53.26         6.8 0.56            118            234 234 
                                                                                
