 2013  421 1539 58.2 L   6.787 -73.097144.3  RSN  5 0.2 1.7LRSN                1
 GAP=143        0.65       3.3     5.1  4.7 -0.2898E+00 -0.1984E+01  0.1658E+01E
 Epicentro: LOS SANTOS - SANTANDER                                             3
 ACTION:UPD 13-05-22 14:39 OP:EP   STATUS:               ID:20130421153958 L   I
 2013-04-21-1538-50M.COL___214                                                 6
 STAT SP IPHASW D HRMM SECON CODA AMPLIT PERI AZIMU VELO AIN AR TRES W  DIS CAZ7
 BAR2 SZ EP       1540 17.69                             170    0.0310 23.5 204 
 BAR2 SZ ES       1540 32.68                             170   -0.1610 23.5 204 
 BAR2 SZ I        1540 33.64         7.1 0.18            170           23.5 204 
 GIR2 SZ EP       1540 17.44                             166   -0.3410 33.9 342 
 GIR2 SZ ES       1540 32.87                             166   -0.1810 33.9 342 
 PAM  SZ EP       1540 20.55                             151    0.4210 75.2  36 
 PAM  SZ I        1540 20.73         4.2 0.24            152           75.2  36 
 PAM  SN ES       1540 37.23                             151   -0.0110 75.2  36 
 BRR  HZ EP       1540 19.49                             150   -0.0210 76.6 298 
 BRR  HN ES       1540 36.37                             150    0.2410 76.6 298 
 BRR  HN I        1540 37.02        25.2 0.20            150           76.6 298 
 RUS  HZ EP       1540 21.45                             144   -0.2410 99.0 179 
 RUS  HN ES       1540 40.29                             144    0.2710 99.0 179 
                                                                                
