 2011  321 1436 33.4 L   6.814 -73.158139.4  RSN 14 0.5 3.6LRSN                1
 GAP=103        0.98       3.4     4.3  6.8 -0.1158E+01  0.7331E+01 -0.6962E+00E
 Epicentro: LOS SANTOS - SANTANDER                                             3
 ACTION:UP  11-06-16 14:35 OP:jfem STATUS:               ID:20110321143633 L   I
 2011-03-21-1434-51S.COL___131                                                 6
 STAT SP IPHASW D HRMM SECON CODA AMPLIT PERI AZIMU VELO SNR AR TRES W  DIS CAZ7
 BAR2 SZ IP       1436 52.62                             169     0.410   25 187 
 BAR2 SZ ES   1   1437  6.96                             169     0.0 7   25 187 
 BAR2 SZ I        1437 10.64       994.6 0.51                            25 187 
 RUS  HZ IP     D 1436 56.52                             142    -0.110  102 175 
 RUS  HN ES   1   1437 14.46                             142    -0.3 7  102 175 
 RUS  HZ I        1437 16.32       544.5 0.27                           102 175 
 OCA  SZ IP       1437  1.14                             128     0.1 9  159 354 
 OCA  SZ ES   1   1437 22.52                             128    -0.1 7  159 354 
 OCA  SZ I        1437 26.34      1901.9 0.36                           159 354 
 YOP  SZ IP       1437  3.30                             124     0.1 9  181 153 
 YOP  SE ES   1   1437 27.22                             124     0.8 7  181 153 
 YOP  SZ I        1437 29.03       329.5 0.53                           181 153 
 NOR  SZ EP   1   1437  8.57                             117    -0.2 6  235 234 
 NOR  SN ES   1   1437 35.67                             117    -0.7 6  235 234 
 CHI  HZ EP   1   1437 10.85                             116     0.0 6  250 195 
 CHI  HE ES   1   1437 39.58                             116    -0.5 6  250 195 
 CHI  HZ I        1437 45.63       111.1 0.62                           250 195 
 HEL  HZ EP   2   1437 14.21                             113     1.0 4  271 255 
 HEL  HN ES   1   1437 44.37                             113     0.2 6  271 255 
 HEL  HZ I        1437 52.28       194.3 0.27                           271 255 
 GUY  SZ EP   1   1437 17.31                             111     0.6 5  301 234 
 GUY  SN ES   1   1437 50.85                             111     0.4 5  301 234 
 GUY  SZ I        1437 56.84       267.4 0.39                           301 234 
 VIL  SZ EP       1437 16.33                             111    -0.3 7  305 191 
 VIL  SN ES   1   1437 49.84                             111    -0.6 5  305 191 
 RREF HN ES   1   1437 55.00                             110     0.0 5  322 229 
 RREF HZ I        1438  4.82       142.6 0.44                           322 229 
 DBB  SZ EP       1437 20.77                             108     0.3 7  338 274 
 DBB  SZ ES   1   1437 56.38                             108    -0.8 5  338 274 
 DBB  SZ I        1438  1.57        99.1 0.32                           338 274 
 TOL  SZ EP   1   1437 22.57                             108     1.2 5  344 224 
 SDV  BZ IP     D 1437 22.28                             107    -0.9 6  360  51 
 SDV  BZ I        1437 23.28       152.8 0.41                           360  51 
 PRA  HZ EP   1   1437 26.07                             105    -0.7 4  393 209 
                                                                                
