 2011 1121 1240 34.2 L   6.854 -73.303121.2  RSN  7 0.3 2.0LRSN                1
 GAP=104        0.58       2.9     3.4  5.5  0.8416E+00  0.2672E+01 -0.1535E+01E
 Epicentro: ZAPATOCA - SANTANDER                                               3
 ACTION:UPD 12-07-13 16:11 OP:ep   STATUS:               ID:20111121124034 L   I
 2011-11-21-1238-56S.COL___178                                                 6
 STAT SP IPHASW D HRMM SECON CODA AMPLIT PERI AZIMU VELO AIN AR TRES W  DIS CAZ7
 BAR2 SZ EP       1240 51.24                             164    0.1610 31.8 155 
 BAR2 SZ ES   1   1241  3.98                             164   -0.30 7 31.8 155 
 BAR2 SZ I        1241  5.52        75.2 0.48                          31.8 155 
 BRR  HZ EP   1   1240 51.65                             155    0.01 7 53.2 302 
 BRR  HE ES   1   1241  5.85                             155    0.57 7 53.2 302 
 BRR  HZ I        1241  6.77        36.5 0.17                          53.2 302 
 PAM  SZ EP   1   1240 54.71                             143    0.31 7 85.6  51 
 PAM  SN ES   1   1241  9.88                             143   -0.32 7 85.6  51 
 PAM  SZ I        1241 13.28         7.6 0.42                          85.6  51 
 RUS  HZ EP   1   1240 56.26                             135   -0.02 7  109 167 
 RUS  HE ES   1   1241 13.54                             135    0.00 7  109 167 
 RUS  HZ I        1241 14.77        12.2 0.23                           109 167 
 OCA  SZ EP   1   1240 59.98                             125    0.02 7  153 359 
 OCA  SZ ES   2   1241 19.61                             125   -0.48 5  153 359 
 OCA  SZ I        1241 21.20        23.4 0.28                           153 359 
 ZAR  HN ES   1   1241 25.52                             119   -0.24 7  186 292 
 ZAR  HZ I        1241 31.88         9.0 0.15                           186 292 
 NOR  SE ES   2   1241 32.84                             114   -0.57 4  225 231 
                                                                                
