 2013  621 1143 34.8 L   6.775 -73.148152.0  RSN  7 0.3 1.8LRSN                1
 GAP=182        0.76       3.8     5.0  5.3  0.2379E+01  0.2030E+01 -0.3390E+01E
 Epicentro: LOS SANTOS - SANTANDER                                             3
 ACTION:UPD 14-01-08 09:56 OP:ep   STATUS:               ID:20130621114334 L   I
 OLDACT:REG 13-06-21 17:59 OP:cam  STATUS:               ID:20130621113959     3
 2013-06-21-1139-59M.COL___264                                                 6
 STAT SP IPHASW D HRMM SECON CODA AMPLIT PERI AZIMU VELO AIN AR TRES W  DIS CAZ7
 BAR2 SZ EP     D 1143 55.18                             172    0.0410 20.6 191 
 BAR2 SZ I        1143 55.54        24.0 0.09            171           20.6 191 
 BAR2 SZ ES       1144 10.40                             172   -0.6010 20.6 191 
 GIR2 SZ EP       1143 55.32                             167    0.0210 34.0 351 
 GIR2 SZ ES   1   1144 11.34                             167    0.07 7 34.0 351 
 BRR  HZ EP       1143 56.88                             153    0.1810 72.4 301 
 BRR  HZ I        1143 57.30        15.8 0.26            150           72.4 301 
 BRR  HN ES       1144 14.38                             153    0.6110 72.4 301 
 RUS  HZ EP   1   1143 59.24                             146    0.25 7 97.8 176 
 RUS  HN ES       1144 17.99                             146    0.1410 97.8 176 
 RUS  HZ I        1144 18.70         5.4 0.26            147           97.8 176 
 PTB  HZ EP       1144  2.19                             133   -0.04 9  147 260 
 PTB  HN ES       1144 23.29                             133   -0.32 9  147 260 
 PTB  HZ I        1144 28.89         9.7 0.14            132            147 260 
 OCA  HZ EP   2   1144  3.78                             130   -0.09 5  163 353 
 OCA  HN ES   1   1144 26.36                             130   -0.17 7  163 353 
 OCA  HZ I        1144 29.28         6.8 0.18            131            163 353 
 SML  HZ EP   1   1144 11.65                             118   -0.41 6  246 336 
 HEL  HZ EP   4   1144 18.39                             116    3.13 0  271 256 
                                                                                
