 2013  221 1808 42.7 L   6.771 -73.125148.2  RSN  6 0.4 1.8LRSN                1
 GAP=141        0.94       5.0     4.9  8.2 -0.1819E+01  0.6700E+01  0.6474E+01E
 Epicentro: LOS SANTOS - SANTANDER                                             3
 ACTION:UPD 13-03-12 09:34 OP:ep   STATUS:               ID:20130221180842 L   I
 2013-02-21-1800-00M.COL___238                                                 6
 STAT SP IPHASW D HRMM SECON CODA AMPLIT PERI AZIMU VELO AIN AR TRES W  DIS CAZ7
 BRR  HZ EP       18 9  4.49                             152    0.1710 74.8 300 
 BRR  HE ES   1   18 9 21.88                             152    0.70 7 74.8 300 
 BRR  HE I        18 9 25.13        18.5 0.31            151           74.8 300 
 PAM  SZ EP       18 9  5.26                             151    0.0210 78.5  37 
 PAM  SN ES       18 9 22.68                             151   -0.1410 78.5  37 
 PAM  SN I        18 9 23.85         7.5 0.44            154           78.5  37 
 RUS  HZ EP       18 9  6.61                             145    0.1510 97.2 177 
 RUS  HN ES       18 9 24.76                             145   -0.2310 97.2 177 
 RUS  HN I        18 9 25.72         8.0 0.34            148           97.2 177 
 PTB  HZ EP       18 9  9.29                             132   -0.73 9  149 260 
 PTB  HN ES       18 9 31.24                             132   -0.09 9  149 260 
 PTB  HN I        18 9 36.03        10.8 0.41            133            149 260 
 ZAR  HN ES   2   18 9 41.37                             122    0.02 4  207 293 
 CHI  HZ EP   1   18 9 21.25                             118    0.98 6  246 196 
                                                                                
