 2010  321 1028 48.7 L   6.811 -73.053144.0  RSN 13 0.4 3.2LRSN                1
 GAP=133        0.93       4.1     6.6  6.0 -0.1551E+01  0.2188E+01  0.7455E+00E
 Epicentro: LOS SANTOS - SANTANDER                                             3
 ACTION:UP  10-08-24 09:55 OP:vdl  STATUS:               ID:20100321102848 L   I
 2010-03-21-1025-21S.COL___098                                                 6
 STAT SP IPHASW D HRMM SECON CODA AMPLIT PERI AZIMU VELO SNR AR TRES W  DIS CAZ7
 BAR2 SZ IP       1029  8.39                             168     0.210   28 211 
 BAR2 SZ ES   1   1029 22.88                             168    -0.5 7   28 211 
 BRR  HZ IP       1029 10.27                             149     0.110   80 294 
 BRR  HE ES   1   1029 27.26                             149     0.4 7   80 294 
 BRR  HZ I        1029 31.59       246.3 0.44                            80 294 
 RUS  HZ IP       1029 12.32                             143     0.010  102 182 
 RUS  HN ES   1   1029 30.73                             143     0.0 7  102 182 
 RUS  HZ I        1029 33.27       190.7 0.34                           102 182 
 OCA  SZ IP       1029 16.72                             129    -0.1 9  161 349 
 OCA  SZ ES   1   1029 38.77                             129    -0.1 7  161 349 
 OCA  SZ I        1029 44.38       436.1 0.18                           161 349 
 CHI  HZ EP   1   1029 26.35                             116    -0.4 6  253 197 
 CHI  HZ I        1029 53.96        67.1 0.49                           253 197 
 ROSC BZ IP       1029 28.17                             116     0.8 8  259 213 
 ROSC BZ I        1029 55.91        94.4 0.06                           259 213 
 HEL  HZ EP   1   1029 29.97                             113     0.0 6  282 256 
 HEL  HN ES   2   1030  2.30                             113     0.2 4  282 256 
 HEL  HZ I        1030  8.06       132.3 0.51                           282 256 
 RREF BZ EP   2   1029 36.10                             110     0.4 3  330 230 
 RREF BZ I        1030 19.29        78.0 0.46                           330 230 
 DBB  SZ IP       1029 36.29                             108    -0.9 6  350 274 
 TOL  SZ EP   2   1029 37.71                             108    -0.1 3  352 226 
 SDV  BZ IP       1029 37.82                             108     0.2 6  352  49 
 SDV  BZ I        1030  4.36        44.4 0.21                           352  49 
 ANIL BZ EP   2   1029 39.82                             108     0.5 3  365 226 
 ANIL BZ I        1030  7.99        69.4 0.24                           365 226 
 PRA  HZ EP   1   1029 41.88                             106    -1.0 4  398 211 
 PRA  HZ I        1030  9.88        46.8 0.24                           398 211 
                                                                                
