 2015  121 1758 36.3 L   6.784 -73.153145.3  RSN 10 0.4 1.8LRSN                1
 GAP= 71        0.93       3.4     3.3  5.9 -0.1804E+01  0.1377E+01  0.3623E+01E
 Epicentro: LOS SANTOS - SANTANDER                                             3
 ACTION:UPD 15-03-02 15:41 OP:nd   STATUS:               ID:20150121175836 L   I
 OLDACT:REG 15-01-21 21:48 OP:spq  STATUS:               ID:20150121175748     3
 2015-01-21-1757-48M.COL___250                                                 6
 STAT SP IPHASW D HRMM SECON CODA AMPLIT PERI AZIMU VELO AIN AR TRES W  DIS CAZ7
 BAR2 EZ EP       1758 55.70                             171   -0.1210 21.5 189 
 BAR2 EZ ES   1   1759 10.51                             171   -0.55 7 21.5 189 
 BAR2 EZ I        1759 11.90        21.6 0.18            171           21.5 189 
 BRR  HZ EP       1758 57.59                             152    0.2010 71.3 300 
 BRR  HN ES       1759 14.60                             152    0.7510 71.3 300 
 BRR  HZ I        1759 16.66        14.1 0.40            149           71.3 300 
 PAM  SZ EP       1758 58.60                             150    0.0410 79.3  39 
 PAM  SE ES       1759 15.70                             150   -0.2410 79.3  39 
 PAM  SZ I        1759 17.70        10.9 0.50            151           79.3  39 
 RUS  HZ EP       1758 59.76                             144   -0.1110 98.9 175 
 RUS  HN ES       1759 18.54                             144    0.2710 98.9 175 
 RUS  HZ I        1759 19.33        10.4 0.30            146           98.9 175 
 PTB  HZ EP       1759  2.81                             132   -0.30 9  147 259 
 PTB  HN ES       1759 23.37                             132   -0.66 9  147 259 
 PTB  HZ I        1759 25.42         8.4 0.18            131            147 259 
 TAM  HZ EP       1759  4.08                             130    0.12 9  155 104 
 SPBC HZ EP       1759  4.66                             129    0.09 9  161 219 
 SPBC HE ES       1759 26.92                             129    0.29 9  161 219 
 SPBC HZ I        1759 29.19        13.0 0.24            129            161 219 
 OCA  HE ES   1   1759 26.45                             129   -0.44 7  162 354 
 OCA  HZ I        1759 30.82         5.8 0.38            129            162 354 
 ZAR  HE ES       1759 34.32                             122    0.36 9  204 293 
 ZAR  HZ I        1759 42.91         6.1 0.60            121            204 293 
 NOR  HZ EP       1759 12.19                             119    0.39 8  233 235 
 NOR  HE ES       1759 38.97                             119   -0.54 8  233 235 
 NOR  HZ I        1759 47.35         3.5 0.12            118            233 235 
                                                                                
