 2010  621 1143 11.2 L   6.727 -73.079142.8  RSN  7 0.4 2.0LRSN                1
 GAP=164        0.78       5.3     8.4  8.3 -0.1990E+02  0.1778E+02 -0.1642E+00E
 Epicentro: JORDAN - SANTANDER                                                 3
 ACTION:UP  10-08-24 10:12 OP:vdl  STATUS:               ID:20100621114311 L   I
 2010-06-21-1140-30S.COL___118                                                 6
 STAT SP IPHASW D HRMM SECON CODA AMPLIT PERI AZIMU VELO SNR AR TRES W  DIS CAZ7
 BAR2 SZ EP   1   1143 30.12                             172    -0.3 7   19 218 
 BAR2 SZ ES   2   1143 45.45                             172     0.1 5   19 218 
 BRR  HZ EP   1   1143 32.18                             149    -0.5 7   82 301 
 BRR  HN ES   2   1143 49.48                             149     0.1 5   82 301 
 BRR  HZ I        1143 51.48        25.3 0.21                            82 301 
 RUS  HZ EP   1   1143 33.80                             146    -0.3 7   92 180 
 RUS  HE ES   2   1143 52.57                             146     0.6 5   92 180 
 RUS  HZ I        1143 53.35         8.1 0.39                            92 180 
 BRI  SZ EP   1   1143 34.98                             139    -0.3 7  114  16 
 BRI  SZ ES   2   1143 53.54                             139    -0.4 5  114  16 
 GRA  SZ EP   1   1143 37.25                             135     0.6 7  132  13 
 GRA  SZ ES   2   1143 57.33                             135     0.8 5  132  13 
 HEL  HZ EP   1   1143 52.17                             114     0.3 6  277 258 
 HEL  HZ I        1144 29.98         5.2 0.51                           277 258 
 RREF HZ EP   1   1143 57.73                             110     0.4 5  322 231 
 RREF HN ES   2   1144 33.19                             110     0.0 3  322 231 
 RREF HZ I        1144 42.33         4.9 0.28                           322 231 
                                                                                
