 2014  421 1928 33.3 L   6.584 -73.286137.8  RSN  4 0.3 1.8LRSN                1
 GAP=203        0.72       5.2     8.6  8.1  0.3141E+02  0.1854E+02  0.1066E+02E
 Epicentro: CABRERA - SANTANDER                                                3
 OLDACT:REG 14-04-21 22:13 OP:fm   STATUS:               ID:20140421191817     3
 OLDACT:DUP 14-04-22 00:39 OP:fm   STATUS:               ID:20140421191818d    3
 OLDACT:UP  14-04-22 00:39 OP:fm   STATUS:               ID:20140421191817     3
 ACTION:UPD 14-05-13 23:10 OP:nd   STATUS:               ID:20140421192833 L   I
 OLDACT:UP  14-04-22 00:42 OP:fm   STATUS:               ID:20140421191818d    3
 2014-04-21-1918-17M.COL___245                                                 6
 STAT SP IPHASW D HRMM SECON CODA AMPLIT PERI AZIMU VELO AIN AR TRES W  DIS CAZ7
 BRR  HZ EP       1928 53.94                             150    0.1110 74.6 321 
 BRR  HE ES       1929  9.62                             150   -0.1910 74.6 321 
 BRR  HZ I        1929 10.45        12.6 0.30            147           74.6 321 
 RUS  HZ EP       1928 55.13                             148    0.2810 79.7 164 
 RUS  HE ES   1   1929 11.52                             148   -0.12 7 79.7 164 
 ZAR  HZ EP   1   1929  4.21                             121   -0.70 6  201 300 
 ZAR  HE ES   1   1929 30.09                             121    0.55 6  201 300 
 ZAR  HZ I        1929 33.15         7.2 0.38            119            201 300 
 CHI  HN ES   1   1929 34.26                             118   -0.18 6  222 193 
                                                                                
