 2016 1221 1327 33.0 L   6.846 -73.278142.7  RSN  4 0.1 1.6LRSN                1
 GAP=218        0.42       3.9    10.0  4.0 -0.3024E+02  0.1909E+02 -0.4770E+01E
 Epicentro: ZAPATOCA - SANTANDER                                               3
 ACTION:UPD 17-01-11 20:17 OP:rebc STATUS:               ID:20161221132733 L   I
 OLDACT:REG 16-12-21 20:17 OP:dani STATUS:               ID:20161221131745     3
 2016-12-21-1318-00M.COL___372                                                 6
 STAT SP IPHASW D HRMM SECON CODA AMPLIT PERI AZIMU VELO AIN AR TRES W  DIS CAZ7
 BAR2 EZ EP       1327 52.58                             168    0.1310 30.0 159 
 BAR2 EZ ES       1328  7.52                             168   -0.0710 30.0 159 
 BAR2 EZ I        1328  8.85         8.4 0.23            168           30.0 159 
 PAM  EZ EP       1327 55.45                             148    0.1110 84.0  49 
 PAM  EN ES       1328 12.67                             148   -0.0610 84.0  49 
 PAM  EZ I        1328 14.93        10.8 0.51            150           84.0  49 
 RUS  HZ EP       1327 56.74                             141   -0.2710  108 168 
 RUS  HN ES       1328 15.86                             141    0.1510  108 168 
 RUS  HZ I        1328 16.24         4.0 0.24            142            108 168 
 CHI  HZ EP   1   1328 10.81                             116    0.07 6  250 192 
 CHI  HE ES   3   1328 39.96                             116   -0.19 2  250 192 
 CHI  HZ I        1328 45.03         2.6 0.46            116            250 192 
                                                                                
