 2017  321 1440 29.2 L   6.791 -73.133141.3  RSN  6 0.3 1.4LRSN                1
 GAP=156        0.89       5.2     4.2  7.9 -0.6863E+01  0.6853E+01 -0.1593E+01E
 Epicentro: LOS SANTOS - SANTANDER                                             3
 ACTION:UPD 17-05-25 18:43 OP:jn   STATUS:               ID:20170321144029 L   I
 OLDACT:REG 17-03-21 20:30 OP:cog  STATUS:               ID:20170321143300     3
 2017-03-21-1438-00M.COL___394                                                 6
 STAT SP IPHASW D HRMM SECON CODA AMPLIT PERI AZIMU VELO AIN AR TRES W  DIS CAZ7
 BAR2 EZ EP       1440 48.29                             170   -0.0010 22.6 194 
 BAR2 EZ ES       1441  3.21                             170    0.0410 22.6 194 
 BAR2 EZ I        1441  4.55         8.3 0.34            171           22.6 194 
 BRR  HZ EP       1440 50.40                             151    0.4210 72.9 299 
 BRR  HE ES       1441  6.65                             151    0.4710 72.9 299 
 PAM  EZ EP       1440 50.85                             150   -0.1010 77.3  38 
 PAM  EE ES       1441  7.58                             150   -0.3210 77.3  38 
 PAM  EZ I        1441  9.15         3.1 0.20            151           77.3  38 
 PTB  HN ES       1441 16.06                             131   -0.70 9  149 259 
 SPBC HN ES       1441 19.52                             128    0.17 9  163 220 
 ZAR  HE ES       1441 26.71                             121   -0.05 8  206 292 
                                                                                
