 2013  121 1922  9.5 L   6.812 -73.135145.4  RSN 16 0.6 3.1LRSN 3.6WRSN        1
 SPEC AVERAGE  MO 14.5 ST  5.1 OM  2.9 f0 2.14 R0.7317 AL 1.82 WI 19.3 MW  3.6 3
 SPEC SD       MO  0.2 ST  3.1 OM  0.4 f00.501 R0.1961 AL      WI      MW  0.1 3
 GAP= 71        1.12       4.1     3.7  6.5 -0.1282E+01  0.2750E+01  0.4854E+01E
 Epicentro: LOS SANTOS - SANTANDER                                             3
 SPEC ROSCBH Z MO 14.7 ST  8.1 OM  2.1 f0 2.21 R0.6652 AL 1.75 WI 27.2 MW  3.8 3
 SPEC ROSCBH Z T192247 K 0.000 GD  293 VP 7.60 DE 3.20 Q0300.0 QA 0.60 VS 4.20 3
 SPEC ZAR HH E MO 14.6 ST  8.2 OM  2.8 f0 2.47 R0.5951 AL 1.28 WI 17.9 MW  3.7 3
 SPEC ZAR HH E T1923 6 K 0.000 GD  251 VS 4.20 DE 3.20 Q0300.0 QA 0.60 VS 4.20 3
 SPEC TAM HH N MO 14.4 ST  2.1 OM  2.7 f0 1.78 R0.8258 AL 2.29 WI 16.1 MW  3.6 3
 SPEC TAM HH N T192258 K 0.000 GD  211 VS 4.20 DE 3.20 Q0300.0 QA 0.60 VS 4.20 3
 SPEC PTB HH N MO 14.4 ST  5.8 OM  2.7 f0 2.53 R0.5810 AL 1.39 WI 18.7 MW  3.6 3
 SPEC PTB HH N T192255 K 0.000 GD  208 VS 4.20 DE 3.20 Q0300.0 QA 0.60 VS 4.20 3
 SPEC OCA HH E MO 14.7 ST  8.7 OM  3.0 f0 2.27 R0.6476 AL 1.56 WI 17.0 MW  3.8 3
 SPEC OCA HH E T192258 K 0.000 GD  215 VS 4.20 DE 3.20 Q0300.0 QA 0.60 VS 4.20 3
 SPEC RUS HH N MO 14.2 ST0.475 OM  2.6 f0 1.25 R1.1760 AL 1.70 WI 10.2 MW  3.4 3
 SPEC RUS HH N T192249 K 0.000 GD  177 VS 4.20 DE 3.20 Q0300.0 QA 0.60 VS 4.20 3
 SPEC NOR HH E MO 14.5 ST  8.3 OM  2.7 f0 2.59 R0.5676 AL 1.95 WI 17.0 MW  3.6 3
 SPEC NOR HH E T192312 K 0.000 GD  277 VS 4.20 DE 3.20 Q0300.0 QA 0.60 VS 4.20 3
 SPEC HEL HH N MO 14.5 ST  2.0 OM  2.6 f0 1.68 R0.8750 AL 1.80 WI 26.2 MW  3.6 3
 SPEC HEL HH N T192319 K 0.000 GD  310 VS 4.20 DE 3.20 Q0300.0 QA 0.60 VS 4.20 3
 SPEC CHI HH N MO 14.5 ST  1.8 OM  2.6 f0 1.66 R0.8855 AL 2.42 WI 22.9 MW  3.6 3
 SPEC CHI HH N T192315 K 0.000 GD  289 VS 4.20 DE 3.20 Q0300.0 QA 0.60 VS 4.20 3
 SPEC BRR HH E MO 14.2 ST  5.7 OM  2.6 f0 2.95 R0.4983 AL 2.03 WI 20.3 MW  3.4 3
 SPEC BRR HH E T192247 K 0.000 GD  162 VS 4.20 DE 3.20 Q0300.0 QA 0.60 VS 4.20 3
 ACTION:UPD 13-02-15 09:15 OP:ep   STATUS:               ID:20130121192209 L   I
 2013-01-21-1920-00M.COL___241                                                 6
 STAT SP IPHASW D HRMM SECON CODA AMPLIT PERI AZIMU VELO AIN AR TRES W  DIS CAZ7
 BAR2 SZ EP       1922 29.16                             170    0.0610 24.9 192 
 BAR2 SZ ES   1   1922 43.89                             170   -0.50 7 24.9 192 
 BRR  HZ EP     D 1922 31.02                             152    0.4110 71.6 297 
 BRR  HE ES   1   1922 47.93                             152    0.84 7 71.6 297 
 BRR  HZ I        1922 50.34       152.3 0.38            147           71.6 297 
 PAM  SZ EP       1922 31.89                             151    0.3410 75.6  40 
 PAM  SN ES   1   1922 48.87                             151    0.11 7 75.6  40 
 PAM  SZ I        1922 51.18       258.7 0.48            143           75.6  40 
 RUS  HZ EP     D 1922 33.03                             143   -0.2610  102 177 
 RUS  HN ES   1   1922 51.44                             143   -0.41 7  102 177 
 RUS  HZ I        1922 53.52       168.0 0.42            133            102 177 
 PTB  HZ EP   1   1922 35.62                             132   -0.93 7  149 258 
 PTB  HN ES   1   1922 56.59                             132   -1.06 7  149 258 
 PTB  HZ I   L1   1922 59.00       199.4 0.32            132    1.35 7  149 258 
 TAM  HZ IP     C 1922 37.41                             131    0.36 9  154 106 
 TAM  HZ I        1922 58.30        85.1 0.42            120            154 106 
 TAM  HN ES   1   1922 58.69                             131    0.13 7  154 106 
 OCA  HZ E        1922 37.11                                            159 353 
 OCA  HZ EP   1   1922 37.11                             130   -0.54 7  159 353 
 OCA  HE ES   1   1922 59.00                             130   -0.61 7  159 353 
 OCA  HZ I        1923  4.79       174.3 0.20            121            159 353 
 ZAR  HZ EP   1   1922 41.84                             122   -0.12 6  205 292 
 ZAR  HE ES   1   1923  7.26                             122   -0.03 6  205 292 
 ZAR  HZ I        1923 13.84       140.8 0.22            114            205 292 
 NOR  HZ EP     C 1922 45.11                             118   -0.26 8  236 234 
 NOR  HE ES   1   1923 13.01                             118   -0.36 6  236 234 
 NOR  HZ I        1923 18.47       149.7 0.50            110            236 234 
 CHI  HZ EP     D 1922 46.98                             117   -0.35 8  250 195 
 CHI  HN ES   1   1923 16.67                             117   -0.19 6  250 195 
 CHI  HZ I        1923 20.64        61.5 0.56            108            250 195 
 ROSC BZ EP   1   1922 48.89                             116    1.12 6  255 211 
 ROSC BZ I        1923 25.99       120.5 0.40            108            255 211 
 HEL  HZ EP   1   1922 50.26                             115    0.42 6  274 256 
 HEL  HN ES   1   1923 21.05                             115   -0.26 6  274 256 
 HEL  HZ I        1923 29.19        88.7 0.46            107            274 256 
 DBB  SZ EP   1   1922 56.68                             109   -0.38 5  341 274 
 TOL  SZ EP   1   1922 58.76                             109    0.83 5  345 225 
 ANIL HZ EP   1   1923  0.49                             108    1.01 5  359 224 
 SDV  BZ EP   1   1922 58.37                             108   -0.93 5  359  50 
                                                                                
