 2016 1121 1932 49.6 L   6.777 -73.121149.9  RSN  5 0.4 1.8LRSN                1
 GAP=162        0.59      10.3     5.1  8.8 -0.2965E+02 -0.1566E+02  0.6552E+02E
 Epicentro: LOS SANTOS - SANTANDER                                             3
 ACTION:UPD 17-10-26 21:10 OP:lp   STATUS:               ID:20161121193249 L   I
 OLDACT:UP  16-11-22 00:38 OP:dani STATUS:               ID:20161121192745     3
 OLDACT:UP  16-11-22 00:37 OP:dani STATUS:               ID:20161121192745     3
 OLDACT:UP  16-11-22 00:37 OP:dani STATUS:               ID:20161121192745     3
 OLDACT:UP  16-11-22 00:37 OP:dani STATUS:               ID:20161121192745     3
 OLDACT:UP  16-11-22 00:36 OP:dani STATUS:               ID:20161121192745     3
 OLDACT:UP  16-11-22 00:32 OP:dani STATUS:               ID:20161121192745     3
 OLDACT:REG 16-11-21 21:42 OP:dani STATUS:               ID:20161121192745     3
 2016-11-21-1928-00M.COL___343                                                 6
 STAT SP IPHASW D HRMM SECON CODA AMPLIT PERI AZIMU VELO AIN AR TRES W  DIS CAZ7
 BAR2 EZ EP       1933  9.61                             172   -0.1310 21.6 198 
 BRR  HZ EP       1933 11.46                             151    0.0110 74.8 299 
 BRR  HN ES       1933 28.54                             151    0.0910 74.8 299 
 BRR  HZ I        1933 32.46        20.8 0.29            155           74.8 299 
 PAM  EZ EP       1933 12.57                             151    0.2510 77.7  37 
 PAM  EN ES       1933 29.84                             151   -0.1610 77.7  37 
 PAM  EZ I        1933 31.84        12.6 0.54            163           77.7  37 
 PTB  HZ EP   2   1933 16.43                             132   -0.72 5  150 260 
 PTB  HN ES   3   1933 37.68                             132   -0.93 2  150 260 
 PTB  HZ I        1933 44.77         5.4 0.26            135            150 260 
 NOR  HZ EP   2   1933 26.35                             119    0.65 4  235 235 
 NOR  HN ES   3   1933 54.76                             119    0.93 2  235 235 
 NOR  HZ I        1933 58.49         2.3 0.20            122            235 235 
                                                                                
