 2013  521 1313 47.1 L   6.786 -73.124151.9  RSN  9 0.4 1.9LRSN                1
 GAP=140        0.87       4.5     4.7  6.4  0.2609E+01  0.8784E+01  0.2751E+01E
 Epicentro: LOS SANTOS - SANTANDER                                             3
 ACTION:UPD 13-06-20 09:52 OP:ep   STATUS:               ID:20130521131347 L   I
 2013-05-21-1310-00M.COL___259                                                 6
 STAT SP IPHASW D HRMM SECON CODA AMPLIT PERI AZIMU VELO AIN AR TRES W  DIS CAZ7
 BAR2 SZ EP       1314  7.59                             171    0.1610 22.4 197 
 BAR2 SZ ES       1314 22.99                             171   -0.3210 22.4 197 
 BAR2 SZ I        1314 25.23        14.3 0.20            167           22.4 197 
 BRR  HZ EP       1314  9.55                             153    0.5010 74.0 299 
 BRR  HE ES       1314 26.76                             153    0.5710 74.0 299 
 BRR  HZ I        1314 31.36        12.7 0.28            140           74.0 299 
 PAM  SN ES   1   1314 27.71                             152   -0.06 7 77.1  37 
 PAM  SZ I        1314 29.84         9.9 0.18            143           77.1  37 
 RUS  HZ EP       1314 11.45                             145    0.1310 98.9 177 
 RUS  HN ES   1   1314 29.87                             145   -0.37 7 98.9 177 
 RUS  HZ I        1314 31.40         7.4 0.38            135           98.9 177 
 PTB  HZ EP       1314 14.40                             133   -0.34 9  150 260 
 PTB  HE ES       1314 35.97                             133   -0.34 9  150 260 
 PTB  HZ I        1314 41.66        10.9 0.58            120            150 260 
 ZAR  HN ES   1   1314 46.04                             123   -0.02 6  207 292 
 ZAR  HZ I        1314 52.03        12.7 0.18            112            207 292 
 NOR  HE ES   1   1314 51.88                             120    0.36 6  236 235 
 NOR  HZ I        1314 56.56         7.0 0.16            109            236 235 
 SML  HE ES   1   1314 52.47                             118   -0.89 6  246 335 
 HEL  HZ EP   1   1314 27.81                             116   -0.02 6  274 256 
 HEL  HZ I        1315  8.28         4.1 0.32            106            274 256 
 SJC  HZ EP   4   1314 41.57                             106   -1.58 0  412 327 
                                                                                
