 2013  821 1250 36.1 L   6.775 -73.179141.1  RSN 12 0.5 2.1LRSN 2.6WRSN        1
 SPEC AVERAGE  MO 12.9 ST  5.1 OM  1.6 f0 6.62 R0.3471 AL 0.00 WI 20.0 MW  2.6 3
 SPEC SD       MO  0.2 ST  8.4 OM  0.4 f0 4.95 R0.1815 AL      WI      MW  0.1 3
 GAP= 96        1.34       4.3     4.4  6.8 -0.3762E+01  0.2145E+01  0.5000E+01E
 Epicentro: LOS SANTOS - SANTANDER                                             3
 SPEC BAR2SH Z MO 12.8 ST0.887 OM  1.3 f0 4.75 R0.3272 AL-0.00 WI 20.0 MW  2.5 3
 SPEC BAR2SH Z T1251 7 K 0.000 GD  142 VS 4.20 DE 3.20 Q0300.0 QA 0.60 VS 4.20 3
 SPEC BRR HH Z MO 12.8 ST  1.8 OM  1.2 f0 6.32 R0.2459 AL-0.00 WI 20.0 MW  2.5 3
 SPEC BRR HH Z T125112 K 0.000 GD  157 VS 4.20 DE 3.20 Q0300.0 QA 0.60 VS 4.20 3
 SPEC PAM SH Z MO 13.1 ST0.333 OM  1.5 f0 2.81 R0.5530 AL-0.00 WI 20.0 MW  2.7 3
 SPEC PAM SH Z T125113 K 0.000 GD  163 VS 4.20 DE 3.20 Q0300.0 QA 0.60 VS 4.20 3
 SPEC RUS HH Z MO 13.0 ST0.206 OM  1.4 f0 2.54 R0.6118 AL-0.00 WI 20.0 MW  2.6 3
 SPEC RUS HH Z T125116 K 0.000 GD  171 VS 4.20 DE 3.20 Q0300.0 QA 0.60 VS 4.20 3
 SPEC PTB HH Z MO 12.6 ST 23.7 OM  0.9 f0 17.2 R0.0903 AL-0.00 WI 20.0 MW  2.3 3
 SPEC PTB HH Z T125120 K 0.000 GD  201 VS 4.20 DE 3.20 Q0300.0 QA 0.60 VS 4.20 3
 SPEC NOR HH Z MO 13.1 ST  3.6 OM  1.3 f0 6.11 R0.2543 AL-0.00 WI 20.0 MW  2.7 3
 SPEC NOR HH Z T125136 K 0.000 GD  269 VS 4.20 DE 3.20 Q0300.0 QA 0.60 VS 4.20 3
 OLDACT:DUP 13-08-21 17:20 OP:stll STATUS:               ID:20130821124853d    3
 ACTION:UPD 14-01-14 09:05 OP:ep   STATUS:               ID:20130821125036 L   I
 OLDACT:UP  13-08-21 17:26 OP:stll STATUS:               ID:20130821124853d    3
 2013-08-21-1248-52M.COL___204                                                 6
 STAT SP IPHASW D HRMM SECON CODA AMPLIT PERI AZIMU VELO AIN AR TRES W  DIS CAZ7
 BAR2 SZ EP       1250 55.12                             171    0.0610 20.2 181 
 BAR2 SZ ES       1251  9.43                             171   -0.4610 20.2 181 
 BAR2 SZ I        1251 12.55        22.7 0.40            171           20.2 181 
 BRR  HZ EP       1250 56.88                             152    0.2810 69.4 302 
 BRR  HN ES       1251 13.95                             152    1.3310 69.4 302 
 BRR  SZ I        1251 18.20        19.4 1.34            153           69.4 302 
 PAM  SZ EP       1250 57.98                             148   -0.0810 81.9  40 
 PAM  SN ES       1251 14.66                             148   -0.5510 81.9  40 
 PAM  SZ I        1251 16.59        28.6 0.58            145           81.9  40 
 RUS  HZ EP       1250 59.41                             143    0.2410 98.1 174 
 RUS  HN ES       1251 17.80                             143    0.6010 98.1 174 
 RUS  SZ I        1251 18.74        20.3 0.80            141           98.1 174 
 PTB  HZ EP       1251  2.41                             132    0.14 9  144 260 
 PTB  HN ES       1251 21.56                             132   -1.15 9  144 260 
 PTB  SZ I        1251 22.66        10.4 2.26            131            144 260 
 CAPV BZ EP       1251  3.03                             130   -0.46 9  154  38 
 TAM  HZ IP     D 1251  3.46                             129   -0.18 9  158 104 
 TAM  SZ I        1251 26.38        17.1 0.72            125            158 104 
 SPBC HZ EP       1251  4.03                             129    0.25 9  159 219 
 SPBC HN ES       1251 25.30                             129   -0.09 9  159 219 
 SPBC SZ I        1251 28.86        12.8 1.60            128            159 219 
 ZAR  HZ EP       1251  8.72                             122    0.76 9  202 293 
 ZAR  HN ES       1251 32.46                             122   -0.39 9  202 293 
 ZAR  SZ I        1251 38.79        15.9 0.30            120            202 293 
 NOR  HZ EP       1251 11.35                             118    0.33 8  230 234 
 NOR  HN ES       1251 37.63                             118   -0.67 8  230 234 
 NOR  SZ I        1251 44.22        10.8 0.16            117            230 234 
 CHI  HZ EP       1251 13.14                             116    0.03 8  245 195 
 CHI  HE ES       1251 41.81                             116   -0.19 8  245 195 
 CHI  SZ I        1251 43.33        23.2 3.16            115            245 195 
 PRA  HZ EP       1251 28.39                             106   -0.54 6  388 209 
 PRA  HN ES       1252 10.54                             106    0.38 6  388 209 
 PRA  HZ I        1252 15.50         4.5 0.62            105            388 209 
                                                                                
