 2011  621 1623  8.1 L   7.444 -73.216122.7  RSN  5 0.5 1.6LRSN                1
 GAP=167        1.21      15.9    17.6 30.9 -0.1641E+03 -0.2301E+02 -0.1982E+03E
 Epicentro: EL PLAYON - SANTANDER                                              3
 ACTION:UP  11-07-14 19:07 OP:ep   STATUS:               ID:20110621162308 L   I
 2011-06-21-1620-55S.COL___140                                                 6
 STAT SP IPHASW D HRMM SECON CODA AMPLIT PERI AZIMU VELO SNR AR TRES W  DIS CAZ7
 BRI  SZ EP       1623 26.10                             154    -0.110   55  57 
 BTL  SZ EP       1623 27.15                             152     0.710   58 186 
 BRR  HZ EP       1623 26.12                             149    -0.410   66 236 
 BRR  HZ I        1623 27.07        14.2 0.33                            66 236 
 BRR  HN ES   2   1623 41.44                             149     0.6 5   66 236 
 GRA  SZ EP       1623 26.60                             150    -0.210   67  43 
 GRA  SZ I        1623 27.51         5.7 0.16                            67  43 
 BAR2 SZ ES   2   1623 44.15                             139    -0.8 5   94 178 
                                                                                
