 2010  721 1609 42.3 L   6.373 -73.599108.3  RSN  9 0.4 2.4LRSN                1
 GAP= 86        0.77       3.8     6.1  8.4 -0.5008E+01  0.2718E+02  0.1437E+01E
 Epicentro: SANTA HELENA DEL OPON - SANTANDER                                  3
 ACTION:UPD 10-12-01 15:19 OP:pat  STATUS:               ID:20100721160942 L   I
 2010-07-21-1606-26S.COL___123                                                 6
 STAT SP IPHASW D HRMM SECON CODA AMPLIT PERI AZIMU VELO AIN AR TRES W  DIS CAZ7
 BAR2 SZ IP       16 9 58.92                             152     0.310   52  62 
 BAR2 SZ ES   1   1610 11.71                             152     0.4 7   52  62 
 BAR2 SZ I        1610 12.82       235.8 0.15                            52  62 
 RUS  HZ IP     D 1610  0.75                             142     0.110   78 133 
 RUS  HZ I        1610  1.27        33.0 0.32                            78 133 
 RUS  HN ES   2   1610 14.00                             142    -1.1 5   78 133 
 BRR  HZ IP     C 16 9 59.93                             140    -0.410   82 351 
 BRR  HZ I        1610  0.26        64.3 0.15                            82 351 
 BRR  HE ES   2   1610 14.40                             140     0.0 5   82 351 
 GIR2 SZ EP   1   1610  1.34                             137     0.2 7   90  30 
 GUE  SZ IP       1610  9.94                             117    -0.1 9  178  25 
 GUE  SZ I        1610 10.56        34.4 0.14                           178  25 
 CHI  HZ EP   2   1610 11.42                             114    -0.5 4  193 184 
 CHI  HE ES   2   1610 35.21                             114     0.2 4  193 184 
 CHI  HZ I        1610 38.84         9.9 0.17                           193 184 
 HEL  HZ EP   2   1610 14.11                             112    -0.1 4  215 265 
 HEL  HZ I        1610 40.84        12.9 0.39                           215 265 
 GUY  SZ EP   1   1610 16.89                             110     0.4 6  233 237 
 GUY  SN ES   2   1610 43.13                             110    -0.1 4  233 237 
 GUY  SZ I        1610 48.73        32.7 0.35                           233 237 
 PRA  HZ EP   2   1610 27.03                             102     0.1 3  327 206 
 PRA  HE ES   2   1611  1.57                             102    -0.2 3  327 206 
 PRA  HZ I        1611 11.51         9.2 0.52                           327 206 
                                                                                
