 2015  321 1248 56.9 L   6.796 -73.124140.5  RSN  6 0.6 1.8LRSN                1
 GAP=139        1.35       5.1     7.5 13.3 -0.5300E+01  0.5191E+02 -0.2089E+02E
 Epicentro: LOS SANTOS - SANTANDER                                             3
 ACTION:UPD 15-04-30 16:28 OP:nd   STATUS:               ID:20150321124856 L   I
 OLDACT:REG 15-03-21 19:50 OP:cam  STATUS:               ID:20150321124749     3
 2015-03-21-1247-49M.COL___266                                                 6
 STAT SP IPHASW D HRMM SECON CODA AMPLIT PERI AZIMU VELO AIN AR TRES W  DIS CAZ7
 PAM  SZ EP       1249 18.94                             150    0.4710 76.2  38 
 PAM  SN ES       1249 35.48                             150    0.1710 76.2  38 
 PAM  SZ I        1249 37.97         9.1 0.52            150           76.2  38 
 RUS  HZ EP       1249 20.75                             143    0.6710  100 177 
 RUS  HN ES       1249 37.39                             143   -0.7910  100 177 
 RUS  HZ I        1249 39.91         5.3 0.30            139            100 177 
 PTB  HZ EP       1249 23.31                             130   -0.33 9  150 259 
 PTB  HZ I        1249 46.61         4.9 0.10            124            150 259 
 SPBC HN ES       1249 47.09                             127   -0.02 9  164 220 
 SPBC HN I        1249 51.42        10.1 0.42            122            164 220 
 ZAR  HZ EP       1249 29.18                             121   -0.06 8  206 292 
 ZAR  HN ES       1249 55.39                             121    0.91 8  206 292 
 ZAR  HZ I        1249 59.96         7.9 0.30            116            206 292 
 SML  HZ EP       1249 32.85                             116   -0.52 8  245 335 
 SML  HN ES       1250  1.04                             116   -0.79 8  245 335 
 SML  HN I        1250  7.08        12.0 0.10            112            245 335 
                                                                                
