 2014  121 1638 10.6 L   6.759 -73.132149.2  RSN  5 0.4 1.7LRSN                1
 GAP=140        0.98       5.3     5.1  7.1 -0.2595E+01  0.4340E+01  0.1373E+01E
 Epicentro: LOS SANTOS - SANTANDER                                             3
 ACTION:UPD 14-03-13 09:57 OP:ep   STATUS:               ID:20140121163810 L   I
 OLDACT:DUP 14-01-21 19:39 OP:stll STATUS:               ID:20140121162816d    3
 2014-01-21-1628-15M.COL___240                                                 6
 STAT SP IPHASW D HRMM SECON CODA AMPLIT PERI AZIMU VELO AIN AR TRES W  DIS CAZ7
 BAR2 SZ EP       1638 30.58                             172   -0.0410 19.3 197 
 BAR2 SZ ES       1638 46.10                             172   -0.1010 19.3 197 
 BAR2 SZ I        1638 48.50        17.0 0.38            172           19.3 197 
 BRR  HZ EP       1638 32.67                             152    0.3110 74.7 301 
 BRR  HN ES       1638 50.01                             152    0.7010 74.7 301 
 BRR  HZ I        1638 58.23        22.0 0.36            150           74.7 301 
 PAM  SZ EP       1638 33.51                             151    0.1310 80.0  37 
 PAM  SN ES       1638 50.59                             151   -0.5310 80.0  37 
 PAM  SZ I        1638 53.10         7.5 0.64            154           80.0  37 
 RUS  HZ EP       1638 34.58                             146    0.1610 96.0 177 
 RUS  HN ES       1638 53.09                             146    0.1310 96.0 177 
 RUS  HZ I        1638 54.49         4.8 0.34            151           96.0 177 
 PTB  HZ EP       1638 37.65                             133   -0.30 9  148 261 
 PTB  HE ES       1638 58.67                             133   -0.58 9  148 261 
 PTB  HZ I        1639  3.10         5.7 0.36            134            148 261 
                                                                                
