 2017  221 1127 33.9 L   6.747 -73.133143.2  RSN  6 0.4 1.7LRSN                1
 GAP=140        1.03       5.1     4.6  7.0  0.2225E+01  0.8337E+01 -0.1796E+01E
 Epicentro: LOS SANTOS - SANTANDER                                             3
 ACTION:UPD 17-05-24 15:38 OP:jn   STATUS:               ID:20170221112733 L   I
 OLDACT:DUP 17-02-21 22:23 OP:cog  STATUS:               ID:20170221111740d    3
 2017-02-21-1118-00M.COL___373                                                 6
 STAT SP IPHASW D HRMM SECON CODA AMPLIT PERI AZIMU VELO AIN AR TRES W  DIS CAZ7
 BAR2 EZ EP       1127 53.15                             172    0.0310 18.0 198 
 BAR2 EZ ES       1128  7.81                             172   -0.3010 18.0 198 
 BAR2 EZ I        1128  8.91        12.2 0.18            174           18.0 198 
 BRR  HZ EP       1127 55.33                             151    0.3210 75.3 302 
 BRR  HN ES       1128 11.84                             151    0.3710 75.3 302 
 BRR  HZ I        1128 19.89        11.6 0.46            151           75.3 302 
 PAM  EZ EP       1127 56.24                             149    0.1710 81.2  36 
 PAM  EE ES       1128 12.94                             149   -0.4210 81.2  36 
 PAM  EZ I        1128 15.55         7.7 0.54            152           81.2  36 
 RUS  HZ EP       1127 57.14                             145    0.1710 94.7 177 
 RUS  HN ES       1128 15.37                             145    0.4010 94.7 177 
 RUS  HZ I        1128 17.70         4.8 0.34            150           94.7 177 
 PTB  HZ EP       1127 59.87                             131   -0.81 9  148 261 
 PTB  HN ES       1128 21.06                             131   -0.52 9  148 261 
 PTB  HZ I        1128 23.20         9.2 0.14            134            148 261 
 ZAR  HZ EP       1128  6.55                             121    0.01 8  208 293 
 ZAR  HE ES       1128 32.55                             121    0.55 8  208 293 
                                                                                
