 2013  421 1823 22.6 L   6.820 -73.137143.0  RSN  9 0.4 3.0LRSN                1
 GAP=151        1.02       4.7     5.8  5.4 -0.1654E+02  0.3369E+01  0.5185E+01E
 Epicentro: LOS SANTOS - SANTANDER                                             3
 ACTION:UPD 13-05-22 14:39 OP:EP   STATUS:               ID:20130421182322 L   I
 2013-04-21-1818-50M.COL___215                                                 6
 STAT SP IPHASW D HRMM SECON CODA AMPLIT PERI AZIMU VELO AIN AR TRES W  DIS CAZ7
 BAR2 SZ EP       1823 41.87                             169   -0.0410 25.7 191 
 BAR2 SZ ES       1823 56.71                             169   -0.2910 25.7 191 
 BAR2 SZ I        1823 58.22        70.2 0.20            171           25.7 191 
 GIR2 SZ EP       1823 41.91                             168    0.0610 29.3 348 
 GIR2 SZ ES       1823 56.99                             168    0.0910 29.3 348 
 BRR  HZ EP       1823 43.67                             152    0.2710 71.0 297 
 BRR  HN ES       1824  0.41                             152    0.7510 71.0 297 
 BRR  HN I        1824  0.94       410.2 0.30            150           71.0 297 
 PAM  SZ EP       1823 44.66                             151    0.3210 75.0  40 
 PAM  SZ I        1823 45.03       174.9 0.18            151           75.0  40 
 PAM  SN ES       1824  1.13                             151   -0.2110 75.0  40 
 CAPV BZ EP       1823 49.81                             132    0.29 9  147  38 
 OCA  HZ EP       1823 49.95                             129   -0.51 9  158 353 
 OCA  HN ES       1824 11.62                             129   -0.60 9  158 353 
 OCA  HN I        1824 16.74       276.9 0.24            128            158 353 
 NOR  HZ EP       1823 58.31                             118   -0.04 8  237 234 
 NOR  HE ES       1824 25.43                             118   -0.85 8  237 234 
 NOR  HN I        1824 26.75        62.1 0.14            118            237 234 
 HEL  HZ EP   4   1824  4.07                             114    1.27 0  274 255 
 HEL  HN ES   4   1824 32.13                             114   -2.06 0  274 255 
 GUY  HZ EP       1824  7.40                             111    0.86 7  306 235 
 GUY  HN ES       1824 40.95                             111    0.10 7  306 235 
 PRA  HN EP       1824 15.90                             106   -0.37 6  394 210 
 PRA  HN ES       1824 58.04                             106   -0.12 6  394 210 
                                                                                
