 2010  421 1102 23.1 L   6.797 -72.992136.4  RSN  6 0.6 2.0LRSN                1
 GAP=163        1.09      27.9    29.2 31.9 -0.7888E+03 -0.8745E+03  0.8482E+03E
 Epicentro: CEPITA - SANTANDER                                                 3
 ACTION:UPD 10-08-24 10:00 OP:vdl  STATUS:               ID:20100421110223 L   I
 2010-04-21-1059-58S.COL___104                                                 6
 STAT SP IPHASW D HRMM SECON CODA AMPLIT PERI AZIMU VELO AIN AR TRES W  DIS CAZ7
 BRR  HZ EP       11 2 43.68                             143    -0.610   87 293 
 BRR  HN ES       11 3  0.66                             143    -0.110   87 293 
 BRR  HZ I        11 3  4.36        21.3 0.24                            87 293 
 GRA  SZ EP       11 2 47.24                             134     0.010  122  10 
 GRA  SZ ES   1   11 3  6.63                             134     0.6 7  122  10 
 RREF BZ EP       11 3 11.27                             107     0.9 7  335 231 
 RREF BN ES   1   11 3 47.98                             107     0.8 5  335 231 
 RREF BZ I        11 3 55.35         3.1 0.73                           335 231 
 SDV  BZ EP       11 3 11.32                             106     0.0 6  348  48 
 TOL  SZ ES   2   11 3 50.47                             106    -0.4 3  355 227 
 PRA  HZ EP   1   11 3 16.26                             104    -1.1 4  400 212 
 PRA  HN ES   2   11 3 59.98                             104     0.4 3  400 212 
 PRA  HZ I        11 4  5.07         4.4 0.41                           400 212 
                                                                                
