 2015 1121 1725 10.7 L   6.723 -73.130147.8  RSN  4 0.2 1.9LRSN                1
 GAP=167        0.62       6.5     3.9  5.0 -0.1262E+02  0.1347E+01  0.3689E+01E
 Epicentro: JORDAN - SANTANDER                                                 3
 ACTION:UPD 15-12-28 16:12 OP:cam  STATUS:               ID:20151121172510 L   I
 OLDACT:REG 15-11-21 21:58 OP:ak   STATUS:               ID:20151121171745     3
 2015-11-21-1717-45M.COL___316                                                 6
 STAT SP IPHASW D HRMM SECON CODA AMPLIT PERI AZIMU VELO AIN AR TRES W  DIS CAZ7
 BAR2 EZ EP       1725 30.69                             174    0.2710 15.6 202 
 BAR2 EZ ES       1725 45.80                             174   -0.0310 15.6 202 
 BAR2 EZ I        1725 46.93        28.8 0.22            172           15.6 202 
 BRR  HZ EP       1725 32.50                             151    0.1210 77.1 303 
 BRR  HE ES       1725 49.60                             151    0.2910 77.1 303 
 PAM  EZ EP       1725 33.55                             149    0.1010 83.1  35 
 PAM  EN ES       1725 50.89                             149   -0.3310 83.1  35 
 PAM  EZ I        1725 52.90         8.1 0.38            152           83.1  35 
 PTB  HZ EP       1725 37.54                             132   -0.30 9  148 262 
 PTB  HN ES       1725 58.85                             132   -0.17 9  148 262 
 PTB  HZ I        1726  5.88         9.4 0.40            132            148 262 
 ZAR  HZ EP   4   1725 45.16                             122    1.40 0  209 294 
 ZAR  HE ES   4   1726  7.79                             122   -1.78 0  209 294 
                                                                                
