 2014  121 1123 59.3 L   6.801 -73.202143.2  RSN  4 0.1 1.5LRSN                1
 GAP=145        0.33       2.3     2.1  3.5 -0.9636E+00  0.2464E+01 -0.1468E+01E
 Epicentro: ZAPATOCA - SANTANDER                                               3
 ACTION:UPD 14-03-13 09:57 OP:ep   STATUS:               ID:20140121112359 L   I
 OLDACT:UP  14-01-22 02:33 OP:CF   STATUS:               ID:20140121112359 L   3
 OLDACT:DUP 14-01-21 18:23 OP:stll STATUS:               ID:20140121111818d    3
 2014-01-21-1118-17M.COL___222                                                 6
 STAT SP IPHASW D HRMM SECON CODA AMPLIT PERI AZIMU VELO AIN AR TRES W  DIS CAZ7
 BAR2 SZ ES   1   1124 33.80        17.2 0.22            170    0.14 8 23.2 175 
 BAR2 SZ I        1124 34.86        17.2 0.22            172           23.2 175 
 PAM  SZ EP   1   1124 21.54                             149    0.07 8 81.4  43 
 PAM  SN ES   1   1124 38.67                             149   -0.10 8 81.4  43 
 PAM  SZ I        1124 40.88         3.7 0.30            150           81.4  43 
 RUS  HZ EP   1   1124 22.71                             143   -0.12 7  101 173 
 RUS  HN ES       1124 41.20                             143   -0.0010  101 173 
 RUS  HZ I        1124 42.35         2.3 0.42            146            101 173 
 PTB  HZ EP       1124 25.58                             133    0.09 9  142 258 
 PTB  HN ES       1124 45.86                             133   -0.07 9  142 258 
 PTB  HZ I        1124 48.04         2.1 0.22            134            142 258 
                                                                                
