 2010  221 1021 52.1 L   6.876 -73.116148.6  RSN  6 0.5 1.7LRSN                1
 GAP=187        0.86       5.7    15.2  9.1  0.7955E+01  0.4721E+01  0.4745E+01E
 Epicentro: LOS SANTOS - SANTANDER                                             3
 ACTION:UP  10-08-24 09:50 OP:vdl  STATUS:               ID:20100221102152 L   I
 2010-02-21-1017-03S.COL___094                                                 6
 STAT SP IPHASW D HRMM SECON CODA AMPLIT PERI AZIMU VELO SNR AR TRES W  DIS CAZ7
 GIR2 SZ EP   1   1022 12.65                             170     0.7 7   24 339 
 GIR2 SZ ES   2   1022 28.12                             170     0.7 5   24 339 
 BAR2 SZ EP   1   1022 12.17                             167    -0.1 7   32 193 
 BAR2 SZ ES   2   1022 27.47                             167    -0.5 5   32 193 
 BRR  HZ EP   1   1022 13.44                             153     0.0 7   71 291 
 BRR  HN ES   2   1022 30.42                             153     0.2 5   71 291 
 BRR  HZ I        1022 32.00        14.0 0.17                            71 291 
 RUS  BZ EP   1   1022 16.67                             142     0.0 7  109 178 
 RUS  BN ES   2   1022 35.37                             142    -0.5 5  109 178 
 RUS  BZ I        1022 37.27         2.9 0.35                           109 178 
 OCA  SZ EP   1   1022 19.64                             132    -0.2 7  152 352 
 OCA  SZ ES   2   1022 40.53                             132    -1.0 5  152 352 
 OCA  SZ I        1022 44.92         9.5 0.50                           152 352 
 PRA  HZ EP   1   1022 46.98                             107     0.3 4  401 209 
 PRA  HN ES   2   1023 28.86                             107    -0.5 3  401 209 
 PRA  HZ I        1023 36.47         1.3 0.99                           401 209 
                                                                                
