 2017  121 1057 22.5 L   6.804 -73.162147.9  RSN  7 0.5 1.8LRSN                1
 GAP=134        1.15       4.6     5.1  7.2  0.2888E+01  0.8771E+01  0.5675E+01E
 Epicentro: LOS SANTOS - SANTANDER                                             3
 ACTION:UPD 17-05-22 16:01 OP:jn   STATUS:               ID:20170121105722 L   I
 OLDACT:UP  17-01-21 22:29 OP:cog  STATUS:               ID:20170121104741     3
 OLDACT:REG 17-01-21 20:53 OP:cog  STATUS:               ID:20170121104741     3
 2017-01-21-1048-00M.COL___343                                                 6
 STAT SP IPHASW D HRMM SECON CODA AMPLIT PERI AZIMU VELO AIN AR TRES W  DIS CAZ7
 BAR2 EZ EP       1057 42.36                             171   -0.0110 23.5 186 
 BAR2 EZ ES       1057 57.36                             171   -0.5210 23.5 186 
 BAR2 EZ I        1057 58.65        18.3 0.26            168           23.5 186 
 BRR  HZ EP       1057 44.17                             153    0.4110 69.4 299 
 BRR  HN ES       1058  1.02                             153    0.6610 69.4 299 
 BRR  HZ I        1058  1.67        13.3 0.08            153           69.4 299 
 PAM  EZ EP       1057 45.21                             151    0.2410 78.2  41 
 PAM  EN ES       1058  2.21                             151   -0.3010 78.2  41 
 PAM  EZ I        1058  3.58         8.0 0.16            154           78.2  41 
 RUS  HZ EP       1057 46.48                             144   -0.0010  101 175 
 RUS  HN ES       1058  5.42                             144    0.2210  101 175 
 RUS  HZ I        1058  6.97         7.7 0.32            143            101 175 
 PTB  HZ EP       1057 48.58                             133   -0.89 9  146 259 
 PTB  HN ES       1058 10.06                             133   -0.46 9  146 259 
 PTB  HZ I        1058 11.61         7.6 0.32            132            146 259 
 ZAR  HZ EP       1057 54.38                             123   -0.50 9  202 292 
 ZAR  HE ES       1058 20.70                             123    0.55 9  202 292 
 ZAR  HZ I        1058 26.17        10.5 0.30            123            202 292 
 CHI  HZ EP       1058  0.76                             118    0.47 8  249 195 
 CHI  HE ES       1058 30.03                             118    0.25 8  249 195 
 CHI  HZ I        1058 37.27         3.3 0.50            117            249 195 
                                                                                
