 2017  421 1401 30.5 L   6.539 -73.722 90.3  RSN  6 0.3 1.2LRSN                1
 GAP=145        0.80       3.9     2.8  8.8 -0.3646E+01  0.1308E+01  0.5028E+01E
 Epicentro: SANTA HELENA DEL OPON - SANTANDER                                  3
 ACTION:UPD 17-05-30 21:14 OP:jn   STATUS:               ID:20170421140131 L   I
 OLDACT:UP  17-05-10 16:48 OP:nlst STATUS:               ID:20170421140131 L   3
 OLDACT:UP  17-04-21 21:19 OP:dani STATUS:               ID:20170421135207     3
 OLDACT:UP  17-04-21 21:17 OP:dani STATUS:               ID:20170421135207     3
 OLDACT:REG 17-04-21 20:08 OP:dani STATUS:               ID:20170421135207     3
 2017-04-21-1358-00M.COL___374                                                 6
 STAT SP IPHASW D HRMM SECON CODA AMPLIT PERI AZIMU VELO AIN AR TRES W  DIS CAZ7
 BAR2 EZ EP       14 1 45.63                             144    0.1210 60.0  84 
 BAR2 EZ ES   1   14 1 57.36                             144    0.15 7 60.0  84 
 BAR2 EZ I        14 2  0.70         6.9 0.18            147           60.0  84 
 BRR  HZ EP       14 1 44.87                             142   -0.5110 62.8   1 
 BRR  HE ES       14 1 57.25                             142    0.2710 62.8   1 
 BRR  HZ I        14 1 59.18         4.3 0.16            151           62.8   1 
 PTB  HZ EP   4   14 1 45.82                             135   -1.09 0 81.2 270 
 PTB  HN ES       14 1 59.28                             135   -0.4210 81.2 270 
 PTB  HZ I        14 2  1.18         3.8 0.12            138           81.2 270 
 PAM  EN ES       14 2 11.90                             118   -0.05 9  144  52 
 ZAR  HN ES       14 2 15.20                             114    0.33 9  164 310 
 NOR  HN ES       14 2 15.80                             114    0.28 9  167 230 
 NOR  HZ I        14 2 21.55         2.4 0.15            115            167 230 
                                                                                
