 2010 1021 1103 37.4 L   6.757 -73.104143.8  RSN  7 0.4 1.9LRSN                1
 GAP=169        0.83       7.0     8.9  9.7 -0.1125E+02  0.2397E+02 -0.5408E+01E
 Epicentro: LOS SANTOS - SANTANDER                                             3
 ACTION:UP  11-02-18 11:11 OP:tino STATUS:               ID:20101021110337 L   I
 2010-10-21-1059-38S.COL___128                                                 6
 STAT SP IPHASW D HRMM SECON CODA AMPLIT PERI AZIMU VELO SNR AR TRES W  DIS CAZ7
 BAR2 SZ IP     D 11 3 56.60                             172    -0.110   20 206 
 BAR2 SZ I        11 3 56.79        20.6 0.20                            20 206 
 BAR2 SZ ES   2   11 4 11.45                             172    -0.3 5   20 206 
 BTL  SZ EP   1   11 3 57.82                             169     1.0 7   25 315 
 BRR  HZ EP   1   11 3 58.49                             150    -0.2 7   78 300 
 BRR  HZ I        11 3 58.83        32.5 0.11                            78 300 
 BRR  HN ES   2   11 4 15.44                             150     0.1 5   78 300 
 RUS  HZ EP   1   11 4  0.62                             145     0.0 7   96 179 
 RUS  HN ES   2   11 4 18.54                             145    -0.1 5   96 179 
 RUS  HZ I        11 4 19.92         7.4 0.23                            96 179 
 GUE  SZ EP   1   11 4  1.80                             138    -0.4 7  120   9 
 NOR  SZ EP   1   11 4 13.17                             118     0.0 6  236 236 
 NOR  SE ES   2   11 4 40.76                             118    -0.3 4  236 236 
 HEL  HZ EP   1   11 4 17.83                             114     0.0 6  275 257 
 HEL  HZ I        11 4 54.99         4.9 0.23                           275 257 
                                                                                
