 2011  621 1141  3.2 L   6.771 -73.069140.6  RSN  8 0.2 1.9LRSN                1
 GAP=148        0.51       2.9     5.2  4.5 -0.3510E+01 -0.5725E+01 -0.2821E+00E
 Epicentro: LOS SANTOS - SANTANDER                                             3
 ACTION:UP  11-07-14 19:06 OP:ep   STATUS:               ID:20110621114103 L   I
 2011-06-21-1138-21S.COL___140                                                 6
 STAT SP IPHASW D HRMM SECON CODA AMPLIT PERI AZIMU VELO SNR AR TRES W  DIS CAZ7
 BAR2 SZ ES   1   1141 37.10                             170     0.0 7   23 212 
 BAR2 SZ I        1141 38.75        23.5 0.37                            23 212 
 GIR2 SZ EP       1141 22.52                             165     0.110   37 338 
 GIR2 SZ ES   2   1141 37.32                             165    -0.1 5   37 338 
 PAM  SN ES   2   1141 41.69                             151     0.1 5   75  33 
 BRR  HZ EP       1141 24.14                             149    -0.210   80 298 
 BRR  HN ES   1   1141 41.13                             149     0.3 7   80 298 
 BRR  HZ I        1141 45.81        17.8 0.26                            80 298 
 RUS  HZ EP       1141 26.22                             144     0.010   97 181 
 RUS  HN ES   2   1141 44.02                             144    -0.2 5   97 181 
 BRI  SZ EP       1141 26.94                             140     0.310  109  16 
 GRA  SZ EP       1141 28.21                             135     0.110  127  13 
 GRA  SZ ES   1   1141 47.09                             135    -0.4 7  127  13 
 GRA  SZ I        1141 48.81         5.6 0.49                           127  13 
 OCA  SZ EP   3   1141 31.02                             127    -0.6 2  165 350 
                                                                                
