 2015 1121 1408 50.6 L   6.805 -73.159147.1  RSN 10 0.4 2.0LRSN                1
 GAP=135        0.88       3.1     3.6  5.4 -0.2214E+01  0.4732E+01 -0.7737E+00E
 Epicentro: LOS SANTOS - SANTANDER                                             3
 ACTION:UPD 15-12-28 16:12 OP:cam  STATUS:               ID:20151121140850 L   I
 OLDACT:UP  15-12-01 10:57 OP:ak   STATUS:               ID:20151121140850 L   3
 OLDACT:UP  15-11-22 00:34 OP:ak   STATUS:               ID:20151121135751d    3
 OLDACT:DUP 15-11-22 00:29 OP:ak   STATUS:               ID:20151121135751d    3
 OLDACT:REG 15-11-21 21:41 OP:al   STATUS:               ID:20151121135750     3
 2015-11-21-1357-50M.COL___316                                                 6
 STAT SP IPHASW D HRMM SECON CODA AMPLIT PERI AZIMU VELO AIN AR TRES W  DIS CAZ7
 BAR2 EZ EP       14 9 10.38                             170   -0.0310 23.6 186 
 BAR2 EZ ES       14 9 25.65                             170   -0.1910 23.6 186 
 BAR2 EZ I        14 9 27.05        39.0 0.32            170           23.6 186 
 BRR  HZ EP     C 14 9 12.20                             153    0.3810 69.7 299 
 BRR  HN ES       14 9 28.97                             153    0.6210 69.7 299 
 BRR  HZ I        14 9 33.20        30.9 0.44            152           69.7 299 
 PAM  EZ EP       14 9 13.22                             151    0.2210 77.9  41 
 PAM  EN ES       14 9 30.32                             151   -0.1410 77.9  41 
 PAM  EZ I        14 9 32.56        29.4 0.52            156           77.9  41 
 RUS  HZ EP       14 9 14.45                             144   -0.0910  101 175 
 RUS  HN ES       14 9 33.07                             144   -0.1310  101 175 
 RUS  HZ I        14 9 34.63         7.3 0.50            147            101 175 
 PTB  HZ EP       14 9 17.68                             133    0.11 9  146 259 
 PTB  HN ES       14 9 37.84                             133   -0.75 9  146 259 
 PTB  HZ I        14 9 43.82        13.7 0.40            133            146 259 
 SPBC HZ EP       14 9 19.44                             129    0.28 9  163 218 
 SPBC HN ES       14 9 41.59                             129    0.16 9  163 218 
 SPBC HZ I        14 9 45.90        13.9 0.12            131            163 218 
 ZAR  HZ EP   2   14 9 23.38                             123    0.40 4  202 292 
 ZAR  HE ES       14 9 48.41                             123    0.18 9  202 292 
 ZAR  HZ I        14 9 55.15        15.6 0.36            124            202 292 
 NOR  HZ EP   1   14 9 26.22                             119   -0.10 6  234 234 
 NOR  HN ES       14 9 53.87                             119   -0.31 8  234 234 
 NOR  HZ I        14 9 59.18         5.2 0.18            120            234 234 
 LL6C HZ EP   4   14 9 35.09                             111   -1.21 0  324 358 
 LL6C HN ES       1410 11.03                             111   -0.91 7  324 358 
 MON  HZ EP   4   14 9 37.54                             109   -1.95 0  352 308 
 MON  HN ES   4   1410 15.60                             109   -2.02 0  352 308 
 MON  HZ I        1410 16.80         2.4 0.18            111            352 308 
                                                                                
