 2012 1121 1646 23.9 L   6.808 -73.137147.4  RSN 14 0.5 2.6LRSN                1
 GAP=111        0.85       2.6     4.4  6.0  0.3726E+00  0.3834E+01 -0.2232E+00E
 Epicentro: LOS SANTOS - SANTANDER                                             3
 ACTION:UPD 12-12-05 15:35 OP:}ep  STATUS:               ID:20121121164623 L   I
 2012-11-21-1640-00M.COL___234                                                 6
 STAT SP IPHASW D HRMM SECON CODA AMPLIT PERI AZIMU VELO AIN AR TRES W  DIS CAZ7
 BAR2 SZ EP       1646 44.04                             170    0.2610 24.4 192 
 BAR2 SZ ES   1   1646 59.32                             170    0.05 7 24.4 192 
 RUS  HZ EP     D 1646 47.80                             144   -0.1110  101 177 
 RUS  HE ES   1   1647  6.44                             144   -0.17 7  101 177 
 RUS  HZ I        1647  7.85        52.0 0.32                           101 177 
 PTB  HZ EP   1   1646 50.57                             132   -0.57 7  149 259 
 PTB  HN ES   1   1647 11.71                             132   -0.65 7  149 259 
 PTB  HZ I        1647 14.58        44.3 0.18                           149 259 
 TAM  HZ EP   1   1646 52.22                             131    0.54 7  154 105 
 OCA  HZ EP   1   1646 51.98                             130   -0.32 7  159 353 
 OCA  HE ES   1   1647 14.60                             130    0.17 7  159 353 
 OCA  HZ I        1647 21.14        50.6 0.52                           159 353 
 ZAR  HZ EP   1   1646 56.65                             123    0.10 6  205 292 
 ZAR  HE ES   1   1647 21.89                             123   -0.09 6  205 292 
 ZAR  HZ I        1647 28.10        35.5 0.20                           205 292 
 SML  HZ EP   1   1647  0.26                             118   -0.35 6  243 335 
 SML  HE ES   1   1647 30.53                             118    1.32 6  243 335 
 CHI  HZ EP   1   1647  1.99                             117    0.14 6  250 195 
 CHI  HN ES   1   1647 30.92                             117   -0.50 6  250 195 
 CHI  HZ I        1647 34.89        20.0 0.46                           250 195 
 HEL  HZ EP   1   1647  4.28                             115   -0.08 6  273 256 
 HEL  HE ES   4   1647 37.65                             115    1.76 0  273 256 
 HEL  HZ I        1647 42.28        13.2 0.31                           273 256 
 VIL  SZ EP   1   1647  7.27                             112   -0.28 5  304 192 
 VIL  SN ES   1   1647 41.88                             112    0.31 5  304 192 
 VIL  SZ I        1647 51.83        31.6 0.30                           304 192 
 GUY  SZ EP   1   1647  9.00                             112    0.97 5  305 235 
 GUY  SN ES   1   1647 42.99                             112    0.57 5  305 235 
 TOL  SZ EP   1   1647 13.12                             109    0.71 5  345 225 
 TOL  SZ ES   4   1647 52.63                             109    2.41 0  345 225 
 TOL  SZ I        1647 56.06        12.9 0.35                           345 225 
 COD  HZ EP   1   1647 11.32                             109   -0.96 5  347 354 
 COD  HN ES   1   1647 49.06                             109   -0.93 5  347 354 
 COD  HZ I        1648  0.65        10.6 0.48                           347 354 
 MON  HZ EP   4   1647  9.60                             109   -3.42 0  354 308 
 MON  HN ES   4   1647 49.91                             109   -1.40 0  354 308 
 PRA  HZ EP   1   1647 17.58                             107   -0.08 4  393 210 
 PRA  HN ES   1   1647 59.36                             107   -0.20 4  393 210 
 PRA  HZ I        1648  5.66        30.7 0.30                           393 210 
                                                                                
