 2016  621 1613 10.3 L   6.774 -73.154140.1  RSN  9 0.5 2.1LRSN                1
 GAP=137        1.14       4.4     5.0  6.8  0.2512E+01  0.9849E+01  0.6860E+01E
 Epicentro: LOS SANTOS - SANTANDER                                             3
 ACTION:UPD 16-07-21 22:21 OP:rebc STATUS:               ID:20160621161310 L   I
 OLDACT:UP  16-06-21 22:06 OP:mh   STATUS:               ID:20160621160746     3
 OLDACT:UP  16-06-21 22:06 OP:mh   STATUS:               ID:20160621160746     3
 OLDACT:UP  16-06-21 22:06 OP:mh   STATUS:               ID:20160621160746     3
 OLDACT:REG 16-06-21 20:52 OP:edw  STATUS:               ID:20160621160746     3
 2016-06-21-1607-46M.COL___325                                                 6
 STAT SP IPHASW D HRMM SECON CODA AMPLIT PERI AZIMU VELO AIN AR TRES W  DIS CAZ7
 BAR2 EZ EP   1   1613 29.19                             171    0.03 7 20.4 189 
 BAR2 EZ ES       1613 43.18                             171   -0.7210 20.4 189 
 BAR2 EZ I        1613 44.81        22.2 0.18                          20.4 189 
 BRR  HZ EP       1613 31.16                             151    0.3210 71.8 301 
 BRR  HE ES       1613 47.66                             151    0.7710 71.8 301 
 BRR  HZ I        1613 51.47        21.4 0.30                          71.8 301 
 PAM  EZ EP   1   1613 31.77                             149   -0.29 7 80.2  39 
 PAM  EN ES       1613 48.99                             149   -0.0710 80.2  39 
 PAM  EZ I        1613 50.74        33.2 0.56                          80.2  39 
 RUS  HZ EP       1613 33.05                             143   -0.2210 97.8 175 
 RUS  HN ES       1613 51.65                             143    0.4510 97.8 175 
 RUS  HZ I        1613 52.59        12.0 0.26                          97.8 175 
 PTB  HZ EP       1613 37.41                             131    0.77 9  146 260 
 PTB  HN ES       1613 56.35                             131   -0.87 9  146 260 
 PTB  HZ I        1613 59.83        15.2 0.14                           146 260 
 SPBC HZ EP       1613 37.87                             128   -0.20 9  160 219 
 SPBC HN ES   1   1613 59.89                             128    0.14 7  160 219 
 SPBC HZ I        1614  3.63        24.3 0.20                           160 219 
 ZAR  HZ EP       1613 42.22                             121   -0.15 9  204 293 
 ZAR  HN ES       1614  7.32                             121   -0.09 9  204 293 
 ZAR  HZ I        1614 12.95        14.6 0.38                           204 293 
 CHI  HZ EP       1613 47.31                             116   -0.02 8  246 195 
 CHI  HE ES   1   1614 16.81                             116    0.57 6  246 195 
 CHI  HZ I        1614 20.92         5.4 0.54                           246 195 
 ROSC BZ EP   1   1613 47.21                             116   -0.55 6  250 211 
 ROSC BZ I        1614 11.10         5.7 0.45                           250 211 
 ROSC BE ES   4   1614 15.51                             116   -1.50 0  250 211 
                                                                                
