 2017  521 1951  0.4 L   6.793 -73.174149.5  RSN  8 0.4 2.2LRSN                1
 GAP=210        0.96       4.9     4.5  6.7  0.6899E+01 -0.3351E+01  0.1441E+01E
 Epicentro: LOS SANTOS - SANTANDER                                             3
 ACTION:UPD 17-06-16 13:37 OP:jn   STATUS:               ID:20170521195100 L   I
 OLDACT:UP  17-05-21 23:43 OP:cog  STATUS:               ID:20170521194739     3
 OLDACT:REG 17-05-21 22:24 OP:cog  STATUS:               ID:20170521194739     3
 2017-05-21-1948-00M.COL___318                                                 6
 STAT SP IPHASW D HRMM SECON CODA AMPLIT PERI AZIMU VELO AIN AR TRES W  DIS CAZ7
 BRR  HZ EP       1951 21.89                             154    0.0510 68.8 300 
 BRR  HE ES       1951 39.04                             154    0.4910 68.8 300 
 BRR  HZ I        1951 41.90        22.7 0.12            153           68.8 300 
 RUS  HZ EP       1951 24.03                             145   -0.4610  100 174 
 RUS  HN ES       1951 42.92                             145   -0.3610  100 174 
 RUS  HZ I        1951 44.65        13.6 0.28            142            100 174 
 PTB  HZ EP       1951 26.97                             134   -0.42 9  144 259 
 PTB  HN ES       1951 48.21                             134   -0.23 9  144 259 
 PTB  HZ I        1951 53.93        28.9 0.58            131            144 259 
 SPBC HZ EP       1951 29.20                             131    0.24 9  161 218 
 SPBC HN ES       1951 51.19                             131   -0.03 9  161 218 
 SPBC HZ I        1951 53.54        31.1 0.42            128            161 218 
 YPLC HZ EP       1951 30.45                             128   -0.11 9  178 150 
 YPLC HN ES       1951 54.75                             128    0.67 9  178 150 
 NOR  HZ EP       1951 36.38                             120    0.34 8  232 234 
 NOR  HE ES       1952  3.78                             120   -0.04 8  232 234 
 NOR  HZ I        1952  7.17        11.7 0.26            119            232 234 
 CHI  HZ EP       1951 38.26                             118    0.11 8  247 195 
 CHI  HE ES   3   1952  6.48                             118   -1.10 2  247 195 
 CHI  HZ I        1952 17.27         5.9 0.34            117            247 195 
 ROSC BZ EP   9   1951 40.91                             118    2.42 0  250 210 
 ROSC BN ES       1952 11.52                             117    0.91 8  250 210 
 ROSC BZ I        1952 17.89        22.7 0.35            117            250 210 
                                                                                
