 2016  921 1759 26.7 L   6.748 -73.192151.5  RSN  8 0.3 2.1LRSN                1
 GAP=158        0.79       6.1     4.7  5.9  0.1115E+02 -0.5703E+01 -0.3905E+01E
 Epicentro: VILLANUEVA - SANTANDER                                             3
 ACTION:UPD 17-08-17 21:14 OP:lp   STATUS:               ID:20160921175926 L   I
 OLDACT:UP  16-09-22 00:36 OP:ar   STATUS:               ID:20160921175745     3
 OLDACT:UP  16-09-22 00:35 OP:ar   STATUS:               ID:20160921175745     3
 OLDACT:REG 16-09-21 21:20 OP:edw  STATUS:               ID:20160921175745     3
 2016-09-21-1758-00M.COL___354                                                 6
 STAT SP IPHASW D HRMM SECON CODA AMPLIT PERI AZIMU VELO AIN AR TRES W  DIS CAZ7
 BAR2 EZ EP       1759 46.77                             173   -0.1510 17.2 177 
 BAR2 EZ ES       18 0  2.15                             173   -0.5410 17.2 177 
 BAR2 EZ I        18 0  4.43        33.4 0.32            171           17.2 177 
 BRR  HZ EP       1759 48.56                             154    0.1610 69.9 305 
 BRR  HN ES       18 0  5.74                             154    0.4110 69.9 305 
 RUS  HZ EP       1759 50.93                             146    0.2710 95.3 173 
 RUS  HN ES       18 0  9.61                             146    0.2610 95.3 173 
 RUS  HZ I        18 0 10.65        14.3 0.36            146           95.3 173 
 PTB  HZ EP       1759 53.26                             134   -0.35 9  142 261 
 PTB  HN ES       18 0 14.53                             134   -0.07 9  142 261 
 PTB  HZ I        18 0 19.65         7.9 0.10            130            142 261 
 TAM  HZ EP       1759 55.13                             131   -0.04 9  159 102 
 OCA  HZ EP   4   1759 56.41                             130    0.46 0  166 355 
 OCA  HN ES   4   18 0 17.48                             130   -1.28 0  166 355 
 OCA  HZ I        18 0 23.86        42.7 0.18            128            166 355 
 NOR  HZ EP   4   18 0  2.93                             121    0.95 0  227 235 
 NOR  HN ES   4   18 0 30.96                             121    1.46 0  227 235 
 NOR  HZ I        18 0 38.51         9.0 0.16            118            227 235 
 GUY2CHZ EP   4   18 0 11.66                             114    1.91 0  294 235 
 GUY2CHE ES   4   18 0 46.91                             114    3.59 0  294 235 
 GUY2CHZ I        18 0 51.91         6.4 0.42                           294 235 
                                                                                
