 2013  221 1806 53.3 L   6.783 -73.149147.9  RSN  6 0.4 1.6LRSN                1
 GAP=137        1.02       4.5     4.7  9.1  0.1069E+01  0.2807E+01  0.1552E+02E
 Epicentro: LOS SANTOS - SANTANDER                                             3
 ACTION:UPD 13-03-12 09:34 OP:ep   STATUS:               ID:20130221180653 L   I
 2013-02-21-1800-00M.COL___238                                                 6
 STAT SP IPHASW D HRMM SECON CODA AMPLIT PERI AZIMU VELO AIN AR TRES W  DIS CAZ7
 BRR  HE ES       18 7 32.07                             153    0.6510 71.8 300 
 PAM  SZ EP       18 7 15.56                             151   -0.2810 79.1  39 
 PAM  SN ES       18 7 33.16                             151   -0.2610 79.1  39 
 PAM  SN I        18 7 34.15         6.2 0.44            152           79.1  39 
 RUS  HZ EP       18 7 17.75                             145    0.6210 98.7 176 
 RUS  HN ES       18 7 35.57                             145   -0.1510 98.7 176 
 RUS  HN I        18 7 37.08         5.5 0.28            144           98.7 176 
 PTB  HN ES       18 7 40.88                             133   -0.62 9  147 260 
 ZAR  HN ES       18 7 51.42                             123    0.04 9  204 293 
 ZAR  HN I        18 7 58.74         5.3 0.18            121            204 293 
 CHI  HZ EP       18 7 30.86                             118   -0.05 8  247 195 
 CHI  HN ES       18 8  0.20                             118   -0.05 8  247 195 
 CHI  HN I        18 8  6.02         2.2 0.44            116            247 195 
                                                                                
