 2012  421 1439 52.2 L   6.788 -73.156142.5  RSN  6 0.2 1.8LRSN                1
 GAP=136        0.57       3.7     3.7  4.9 -0.1935E+01  0.1748E+01  0.1287E+01E
 Epicentro: LOS SANTOS - SANTANDER                                             3
 ACTION:UPD 12-07-05 11:55 OP:tino STATUS:               ID:20120421143952 L   I
 2012-04-21-1440-00M.COL___186                                                 6
 STAT SP IPHASW D HRMM SECON CODA AMPLIT PERI AZIMU VELO AIN AR TRES W  DIS CAZ7
 BAR2 SZ EP       1440 11.41                             171     0.010   22 188 
 BAR2 SZ ES   1   1440 26.32                             171     0.0 7   22 188 
 BAR2 SZ I        1440 29.80        15.5 0.48                            22 188 
 BRR  HZ EP       1440 13.10                             152     0.210   71 300 
 BRR  HN ES   1   1440 29.52                             152     0.4 7   71 300 
 BRR  HZ I        1440 35.04        16.9 0.20                            71 300 
 PAM  SZ EP       1440 14.26                             150     0.110   79  40 
 PAM  SN ES   1   1440 30.85                             150    -0.4 7   79  40 
 RUS  HZ EP   1   1440 15.62                             143     0.1 7   99 175 
 RUS  HN ES   1   1440 33.74                             143     0.0 7   99 175 
 RUS  HZ I        1440 35.26         8.2 0.24                            99 175 
 PTB  HZ EP   1   1440 18.34                             131    -0.4 7  146 259 
 PTB  HN ES   1   1440 39.25                             131    -0.2 7  146 259 
 PRA  HZ EP   1   1440 45.31                             106    -0.1 4  390 210 
                                                                                
