 2017  321 1137 52.7 L   6.745 -73.149142.3  RSN  5 0.4 1.4LRSN                1
 GAP=155        0.81       7.4     4.3  8.7 -0.1004E+02  0.1164E+02 -0.1461E+02E
 Epicentro: LOS SANTOS - SANTANDER                                             3
 ACTION:UPD 17-05-25 18:43 OP:jn   STATUS:               ID:20170321113752 L   I
 OLDACT:UP  17-03-21 21:44 OP:cog  STATUS:               ID:20170321112742     3
 OLDACT:UP  17-03-21 21:44 OP:cog  STATUS:               ID:20170321112742     3
 OLDACT:REG 17-03-21 20:15 OP:cog  STATUS:               ID:20170321112742     3
 2017-03-21-1128-00M.COL___382                                                 6
 STAT SP IPHASW D HRMM SECON CODA AMPLIT PERI AZIMU VELO AIN AR TRES W  DIS CAZ7
 BAR2 EZ EP       1138 11.92                             173    0.0810 17.3 192 
 BAR2 EZ ES       1138 27.06                             173    0.3210 17.3 192 
 BAR2 EZ I        1138 29.79        10.6 0.36            163           17.3 192 
 PAM  EZ EP       1138 14.65                             149   -0.2410 82.3  37 
 PAM  EE ES       1138 32.07                             149   -0.1010 82.3  37 
 PAM  EZ I        1138 34.02         4.2 0.18            152           82.3  37 
 PTB  HE ES       1138 39.49                             132   -0.52 9  146 261 
 ZAR  HE ES       1138 51.00                             122    0.53 8  206 294 
 CHI  HZ EP   3   1138 30.36                             117    0.76 2  243 195 
 CHI  HN ES   4   1139  0.93                             117    2.58 0  243 195 
 CHI  HZ I        1139  7.22         1.4 0.50            114            243 195 
                                                                                
