 2013  121 1124 15.7 L   6.787 -73.155142.9  RSN  8 0.4 1.7LRSN                1
 GAP=136        0.77       3.4     4.5  6.7  0.6447E+00  0.5463E+01  0.4666E+01E
 Epicentro: LOS SANTOS - SANTANDER                                             3
 ACTION:UPD 13-02-15 09:15 OP:ep   STATUS:               ID:20130121112415 L   I
 2013-01-21-1120-00M.COL___241                                                 6
 STAT SP IPHASW D HRMM SECON CODA AMPLIT PERI AZIMU VELO AIN AR TRES W  DIS CAZ7
 BAR2 SZ EP   1   1124 35.01                             171    0.08 7 21.8 188 
 BAR2 SZ ES   1   1124 49.85                             171   -0.10 7 21.8 188 
 BAR2 SZ I        1124 51.38        26.5 0.20            169           21.8 188 
 BRR  HZ EP   1   1124 36.71                             152    0.21 7 70.9 300 
 BRR  HN ES   1   1124 53.62                             152    0.87 7 70.9 300 
 BRR  HZ I        1124 57.04         7.8 0.14            150           70.9 300 
 PAM  SZ EP   1   1124 37.81                             150    0.11 7 79.2  39 
 PAM  SN ES   1   1124 54.98                             150    0.11 7 79.2  39 
 PAM  SZ I        1124 56.91         5.3 0.54            154           79.2  39 
 RUS  HZ EP   1   1124 39.23                             144    0.18 7 99.2 175 
 RUS  HN ES   1   1124 56.86                             144   -0.42 7 99.2 175 
 RUS  HZ I        1124 58.98         8.8 0.24            144           99.2 175 
 PTB  HZ EP   1   1124 42.20                             132   -0.09 7  146 259 
 PTB  HN ES   1   1125  2.52                             132   -0.53 7  146 259 
 PTB  HZ I        1125  5.38         5.8 0.14            131            146 259 
 OCA  HN ES   1   1125  5.06                             129   -0.83 7  162 354 
 ZAR  HN ES   1   1125 13.11                             122    0.10 6  204 293 
 ZAR  HZ I        1125 19.51         6.1 0.18            122            204 293 
 CHI  HZ EP   1   1124 53.24                             117    0.21 6  247 195 
 CHI  HN ES   1   1125 22.15                             117   -0.03 6  247 195 
 CHI  HZ I        1125 29.64         2.9 0.46            117            247 195 
                                                                                
