 2010  621 1116  0.5 L   6.782 -73.090142.0  RSN 13 0.4 2.7LRSN                1
 GAP=162        0.87       4.0     6.7  7.6 -0.1432E+02  0.1139E+02  0.3008E+01E
 Epicentro: LOS SANTOS - SANTANDER                                             3
 ACTION:UP  10-08-24 10:12 OP:vdl  STATUS:               ID:20100621111600 L   I
 2010-06-21-1113-32S.COL___118                                                 6
 STAT SP IPHASW D HRMM SECON CODA AMPLIT PERI AZIMU VELO SNR AR TRES W  DIS CAZ7
 BAR2 SZ IP       1116 19.49                             170    -0.210   24 206 
 BAR2 SZ ES   2   1116 34.44                             170    -0.2 5   24 206 
 BRR  HZ IP     C 1116 21.31                             150    -0.310   78 298 
 BRR  HZ I        1116 21.65       100.4 0.21                            78 298 
 BRR  HE ES   2   1116 38.77                             150     0.7 5   78 298 
 RUS  HZ EP   1   1116 23.47                             144    -0.2 7   98 180 
 RUS  HN ES   2   1116 41.87                             144     0.1 5   98 180 
 RUS  HZ I        1116 42.99        56.0 0.31                            98 180 
 BRI  SZ IP       1116 24.00                             140     0.010  108  17 
 BRI  SZ ES   2   1116 41.98                             140    -0.3 5  108  17 
 GUE  SZ EP   1   1116 24.38                             138    -0.5 7  117   9 
 GRA  SZ IP       1116 26.26                             136     0.910  126  14 
 GRA  SZ ES   2   1116 45.49                             136     0.7 5  126  14 
 OCA  SZ EP   1   1116 27.83                             128    -0.9 7  163 351 
 OCA  SZ ES   2   1116 50.54                             128    -0.3 5  163 351 
 OCA  SZ I        1116 55.38        97.2 0.16                           163 351 
 CHI  HZ EP   1   1116 37.76                             116    -0.2 6  248 197 
 CHI  HZ I        1116 39.83        24.8 0.78                           248 197 
 CHI  HN ES   2   1117  7.12                             116     0.0 4  248 197 
 ROSC BZ EP   1   1116 39.20                             116     0.6 6  254 212 
 ROSC BN ES   2   1117  8.04                             116    -0.2 4  254 212 
 ROSC BZ I        1117 15.38        47.2 0.42                           254 212 
 HEL  HZ EP   1   1116 41.24                             113     0.1 6  278 257 
 HEL  HE ES   2   1117 12.63                             113    -0.2 4  278 257 
 HEL  HZ I        1117 18.54        22.3 0.17                           278 257 
 GUY  HZ EP   1   1116 44.90                             111     0.5 5  305 236 
 GUY  HE ES   2   1117 18.76                             111     0.1 4  305 236 
 RREF HZ EP   1   1116 46.70                             110    -0.1 5  325 230 
 RREF HN ES   2   1117 23.31                             110     0.3 3  325 230 
 RREF HZ I        1117 29.42        34.9 0.32                           325 230 
 TOL  SZ EP   1   1116 49.05                             108     0.1 5  347 226 
 TOL  SZ ES   2   1117 26.39                             108    -0.3 3  347 226 
                                                                                
