 2010  321 1735 20.0 L   6.803 -73.059142.9  RSN  8 0.2 2.1LRSN                1
 GAP=192        0.42       2.0     4.1  3.3  0.1109E+01  0.3725E+01  0.5446E+00E
 Epicentro: LOS SANTOS - SANTANDER                                             3
 ACTION:UP  10-08-24 09:55 OP:vdl  STATUS:               ID:20100321173520 L   I
 2010-03-21-1732-27S.COL___098                                                 6
 STAT SP IPHASW D HRMM SECON CODA AMPLIT PERI AZIMU VELO SNR AR TRES W  DIS CAZ7
 BAR2 SZ IP       1735 39.42                             169     0.110   27 210 
 BAR2 SZ ES   1   1735 54.36                             169    -0.1 7   27 210 
 BRR  HZ IP       1735 41.41                             149     0.110   80 295 
 BRR  HZ I        1735 43.46        44.0 0.08                            80 295 
 BRR  HN ES   1   1735 58.23                             149     0.3 7   80 295 
 RUS  HZ EP   1   1735 43.42                             143     0.0 7  101 181 
 RUS  HE ES   1   1736  1.64                             143    -0.1 7  101 181 
 RUS  HZ I        1736  3.75        12.1 0.34                           101 181 
 OCA  SZ EP   1   1735 48.08                             129    -0.1 7  161 350 
 OCA  SZ ES   1   1736 10.13                             129     0.0 7  161 350 
 OCA  SZ I        1736 14.86        39.3 0.14                           161 350 
 CHI  HZ EP   2   1735 58.02                             116     0.2 4  252 197 
 CHI  HN ES   2   1736 27.35                             116     0.0 4  252 197 
 CHI  HZ I        1736 36.34         3.3 0.47                           252 197 
 HEL  HZ EP   2   1736  1.17                             113     0.1 4  281 256 
 HEL  HN ES   2   1736 33.08                             113    -0.1 4  281 256 
 HEL  HZ I        1736 38.96         8.2 0.28                           281 256 
 DBB  SZ IP       1736  7.96                             108    -0.5 6  349 274 
 PRA  HZ IP       1736 14.30                             106     0.3 6  397 211 
 PRA  HE ES   2   1736 56.28                             106     0.1 3  397 211 
 PRA  HZ I        1737  1.90         4.3 0.33                           397 211 
                                                                                
