 2011  921 1217 53.7 L   6.802 -73.087140.0  RSN  5 0.3 1.7LRSN                1
 GAP=144        0.70       6.5     8.8  8.5  0.1491E+02 -0.3228E+02 -0.5141E+01E
 Epicentro: LOS SANTOS - SANTANDER                                             3
 ACTION:UPD 12-07-13 15:58 OP:ep   STATUS:               ID:20110921121753 L   I
 2011-09-21-1215-06S.COL___165                                                 6
 STAT SP IPHASW D HRMM SECON CODA AMPLIT PERI AZIMU VELO AIN AR TRES W  DIS CAZ7
 BTL  SZ EP       1218 13.11                             170    0.4610 23.7 303 
 BAR2 SZ EP       1218 12.40                             169   -0.2910 25.5 204 
 BAR2 SZ ES   1   1218 27.39                             169   -0.11 7 25.5 204 
 BAR2 SZ I        1218 35.93         7.9 0.62                          25.5 204 
 PAM  SZ EP       1218 15.02                             151   -0.0410 73.2  36 
 BRR  HZ EP       1218 14.21                             150   -0.3610 76.8 296 
 BRR  HZ I        1218 18.22        13.7 0.56                          76.8 296 
 BRR  HN ES   1   1218 31.10                             150    0.25 7 76.8 296 
 RUS  HZ EP       1218 17.06                             143    0.1710  101 180 
 RUS  HE ES   3   1218 34.55                             143   -0.43 2  101 180 
                                                                                
