 2011  421 1647 49.3 L   7.046 -73.072143.1  RSN  8 0.4 1.5LRSN                1
 GAP=129        0.81       5.2     7.9  8.3 -0.1486E+02  0.2904E-01 -0.7214E+01E
 Epicentro: FLORIDABLANCA - SANTANDER                                          3
 ACTION:UP  11-06-22 15:32 OP:REBC STATUS:               ID:20110421164749 L   I
 2011-04-21-1647-21S.COL___139                                                 6
 STAT SP IPHASW D HRMM SECON CODA AMPLIT PERI AZIMU VELO SNR AR TRES W  DIS CAZ7
 GIR2 SZ EP   1   1648  8.24                             174    -0.1 7   14 285 
 BTL  SZ EP   1   1648  9.64                             169     0.9 7   26 237 
 PAM  SZ EP   1   1648  9.97                             159     0.0 7   52  52 
 PAM  SN ES   1   1648 26.07                             159     0.0 7   52  52 
 BAR2 SZ ES   1   1648 25.63                             159     0.3 7   52 194 
 BRR  HZ EP   1   1648  9.82                             152    -0.4 7   71 275 
 BRR  HN ES   1   1648 26.36                             152    -0.1 7   71 275 
 BRR  HZ I        1648 28.09         5.1 0.29                            71 275 
 BRI  SZ EP   1   1648 11.07                             149     0.1 7   80  22 
 GRA  SZ EP   1   1648 11.92                             144    -0.2 7   97  18 
 GRA  SZ ES   1   1648 29.66                             144    -0.2 7   97  18 
 GRA  SZ I        1648 30.49         6.4 0.28                            97  18 
 RUS  HE ES   1   1648 34.45                             136    -0.5 7  128 181 
                                                                                
