 2012  521 1935 52.8 L   6.788 -73.130147.2  RSN 10 0.4 2.1LRSN                1
 GAP=139        0.88       3.9     4.9  6.9 -0.4258E+01  0.8917E+01  0.3462E+01E
 Epicentro: LOS SANTOS - SANTANDER                                             3
 ACTION:UP  12-07-05 12:07 OP:pat  STATUS:               ID:20120521193552 L   I
 2012-05-21-1930-00M.COL___200                                                 6
 STAT SP IPHASW D HRMM SECON CODA AMPLIT PERI AZIMU VELO SNR AR TRES W  DIS CAZ7
 BAR2 SZ ES   1   1936 28.04                             171     0.0 7   22 195 
 BAR2 SZ I        1936 29.79        11.5 0.22                            22 195 
 BRR  HZ EP   1   1936 14.54                             152     0.3 7   73 299 
 BRR  HZ I        1936 16.14        29.5 0.08                            73 299 
 BRR  HN ES   1   1936 31.73                             152     0.7 7   73 299 
 PAM  SZ EP   1   1936 15.42                             151     0.2 7   77  38 
 PAM  SE ES   1   1936 32.70                             151     0.0 7   77  38 
 RUS  HZ EP   1   1936 16.66                             144     0.0 7   99 177 
 RUS  HN ES   1   1936 34.83                             144    -0.4 7   99 177 
 RUS  HZ I        1936 35.76        10.2 0.47                            99 177 
 PTB  HZ EP   1   1936 19.33                             132    -0.7 7  149 259 
 PTB  HN ES   1   1936 40.80                             132    -0.5 7  149 259 
 PTB  HZ I        1936 43.80        11.0 0.17                           149 259 
 OCA  HZ EP   1   1936 21.62                             130     0.2 7  162 353 
 OCA  HE ES   1   1936 43.06                             130    -0.6 7  162 353 
 OCA  HZ I        1936 48.26        37.9 0.48                           162 353 
 ZAR  HN ES   1   1936 51.35                             122     0.2 6  206 292 
 ZAR  HZ I        1936 56.51        10.1 0.23                           206 292 
 NOR  SZ EP   1   1936 28.73                             119     0.0 6  235 235 
 NOR  SN ES   1   1936 56.69                             119     0.0 6  235 235 
 RREF HN ES   1   1937 15.10                             111    -0.1 5  322 230 
 RREF HZ I        1937 22.00         6.1 0.29                           322 230 
 PRA  HZ EP   1   1936 46.50                             107     0.1 4  392 210 
 PRA  HN ES   1   1937 29.11                             107     1.0 4  392 210 
                                                                                
