 2011  121 1841 24.9 L   6.800 -73.157134.8  RSN 12 0.3 2.1LRSN                1
 GAP=135        0.71       3.1     5.2  5.0 -0.6847E+01  0.8071E+01 -0.5242E+00E
 Epicentro: LOS SANTOS - SANTANDER                                             3
 ACTION:UP  11-02-08 08:41 OP:pat  STATUS:               ID:20110121184124 L   I
 2011-01-21-1840-05S.COL___138                                                 6
 STAT SP IPHASW D HRMM SECON CODA AMPLIT PERI AZIMU VELO SNR AR TRES W  DIS CAZ7
 BTL  SZ EP       1841 43.37                             172     0.310   18 317 
 BTL  SZ ES   1   1841 57.35                             172     0.1 7   18 317 
 BAR2 SZ EP       1841 43.31                             170     0.110   23 187 
 BAR2 SZ ES   1   1841 57.43                             170     0.0 7   23 187 
 BAR2 SZ I        1841 59.21        63.8 0.27                            23 187 
 RUS  HZ EP   1   1841 47.37                             141    -0.2 7  101 175 
 RUS  HE ES   1   1842  5.41                             141     0.1 7  101 175 
 RUS  HZ I        1842  8.29        15.7 0.31                           101 175 
 GRA  SZ EP       1841 49.01                             134    -0.210  126  18 
 GRA  SZ ES   1   1842  8.28                             134     0.1 7  126  18 
 GRA  SZ I        1842  9.60        34.1 0.36                           126  18 
 OCA  SZ EP   1   1841 51.76                             127    -0.6 7  160 354 
 YOP  SZ EP   1   1841 54.14                             124    -0.1 7  180 153 
 YOP  SZ I        1842 20.30         8.2 0.29                           180 153 
 NOR  SZ EP   1   1841 59.91                             116     0.0 6  234 234 
 NOR  SE ES   1   1842 26.95                             116    -0.3 6  234 234 
 NOR  SZ I        1842 32.26         1.4 0.17                           234 234 
 CHI  HZ EP   1   1842  2.64                             115     0.7 6  248 195 
 CHI  HE ES   1   1842 30.38                             115    -0.5 6  248 195 
 CHI  HZ I        1842 37.81         7.8 0.48                           248 195 
 HEL  HZ EP   2   1842  4.44                             113     0.0 4  271 256 
 HEL  HZ I        1842 44.07        10.7 0.22                           271 256 
 GUY  SZ EP   2   1842  8.93                             110     1.0 4  300 235 
 GUY  SZ I        1842 50.56        14.2 0.30                           300 235 
 RREF HN ES   1   1842 45.98                             109     0.0 5  321 229 
 RREF HZ I        1842 55.65         7.4 0.23                           321 229 
 DBB  SZ EP   1   1842 11.89                             108     0.1 5  338 274 
 DBB  SZ I        1842 51.55         2.9 0.39                           338 274 
                                                                                
