 2011  221 1701 56.0 L   6.767 -73.112141.3  RSN 13 0.5 4.0LRSN                1
 GAP=105        1.12       4.2     5.8  7.7 -0.6994E+00  0.1313E+02  0.4059E+00E
 Epicentro: LOS SANTOS - SANTANDER                                             3
 ACTION:UP  11-03-28 15:10 OP:jfem STATUS:               ID:20110221170156 L   I
 2011-02-21-1659-38S.COL___130                                                 6
 STAT SP IPHASW D HRMM SECON CODA AMPLIT PERI AZIMU VELO SNR AR TRES W  DIS CAZ7
 BAR2 SZ IP       17 2 15.40                             171     0.410   21 202 
 BAR2 SZ ES   1   17 2 29.19                             171    -0.7 7   21 202 
 BAR2 SZ I        17 2 31.77      3244.0 0.38                            21 202 
 GIR2 SZ EP       17 2 15.52                             165     0.310   36 345 
 RUS  HZ IP     D 17 2 19.30                             144     0.310   97 178 
 RUS  HN ES   1   17 2 36.57                             144    -0.4 7   97 178 
 RUS  HZ I        17 2 39.45      1097.3 0.43                            97 178 
 OCA  SZ EP   1   17 2 23.93                             128    -0.4 7  164 352 
 OCA  SZ ES   1   17 2 47.12                             128     0.7 7  164 352 
 OCA  SZ I        17 2 51.96      2788.0 0.41                           164 352 
 YOP  SZ IP       17 2 25.93                             126     0.7 9  174 154 
 YOP  SZ I        17 2 26.83       581.1 0.30                           174 154 
 YOP  SN ES   1   17 2 47.48                             126    -0.5 7  174 154 
 NOR  SZ EP       17 2 31.34                             117    -0.2 8  236 236 
 NOR  SN ES   2   17 2 59.05                             117    -0.3 4  236 236 
 CHI  HZ EP       17 2 33.14                             116     0.0 8  246 196 
 CHI  HZ I        17 2 36.36       494.3 0.37                           246 196 
 CHI  HE ES   1   17 3  2.49                             116     0.3 6  246 196 
 HEL  HZ EP       17 2 35.46                             114    -0.8 8  275 257 
 HEL  HN ES   1   17 3  8.18                             114     0.5 6  275 257 
 HEL  HZ I        17 3 14.76      1087.3 0.46                           275 257 
 VIL  SZ EP   1   17 2 38.33                             111    -0.3 5  299 191 
 VIL  SN ES   2   17 3 12.17                             111     0.2 4  299 191 
 VIL  SZ I        17 3 24.05       374.3 0.55                           299 191 
 RREF HZ EP   2   17 2 42.57                             110     0.6 3  322 230 
 RREF HN ES   2   17 3 17.37                             110    -0.5 3  322 230 
 RREF HZ I        17 3 27.57       752.7 0.27                           322 230 
 DBB  SZ EP       17 2 43.36                             108    -0.4 7  344 275 
 TOL  SZ EP       17 2 44.59                             108     0.5 7  344 226 
 SDV  BZ IP       17 2 44.78                             107    -1.0 6  360  49 
                                                                                
