 2015 1221 1029 31.0 L   6.806 -73.149145.6  RSN 15 0.5 2.2LRSN                1
 GAP=136        1.00       2.6     5.3  5.4 -0.2278E+01  0.7100E+01 -0.1475E-01E
 Epicentro: LOS SANTOS - SANTANDER                                             3
 ACTION:UPD 16-02-04 15:06 OP:cam  STATUS:               ID:20151221102748 L   I
 OLDACT:UPD 15-12-21 21:32 OP:AK   STATUS:               ID:20151221102748 L   3
 2015-12-21-1027-48M.COL___329                                                 6
 STAT SP IPHASW D HRMM SECON CODA AMPLIT PERI AZIMU VELO AIN AR TRES W  DIS CAZ7
 BAR2 EZ EP       1029 50.75                             170    0.1110 23.9 189 
 BAR2 EZ ES       1030  5.43                             170   -0.5110 23.9 189 
 BAR2 EZ I        1030  7.44        41.2 0.14            172           23.9 189 
 BRR  HZ EP       1029 52.46                             152    0.3510 70.5 298 
 BRR  HE ES       1030  9.53                             152    0.9710 70.5 298 
 BRR  HZ I        1030 12.26        26.3 0.30            153           70.5 298 
 PAM  EZ EP   2   1029 53.72                             151    0.52 5 77.1  40 
 PAM  EZ I        1030 12.96        26.5 0.44            149           77.1  40 
 RUS  HZ EP   2   1029 54.52                             144   -0.28 5  101 176 
 RUS  HE ES       1030 12.96                             144   -0.3910  101 176 
 RUS  HZ I        1030 14.25         9.6 0.15            144            101 176 
 PTB  HZ EP     D 1029 57.36                             132   -0.59 9  148 259 
 PTB  HN ES   2   1030 18.54                             132   -0.41 5  148 259 
 PTB  HZ I        1030 24.16        13.5 0.17            132            148 259 
 OCA  HZ EP       1029 58.78                             130   -0.46 9  160 353 
 OCA  HN ES       1030 21.48                             130    0.22 9  160 353 
 OCA  HZ I        1030 24.43        29.7 0.17            128            160 353 
 SPBC HZ EP       1029 59.66                             129    0.13 9  163 219 
 SPBC HN ES       1030 22.04                             129    0.27 9  163 219 
 SPBC HZ I        1030 26.70        17.5 0.16            129            163 219 
 ZAR  HZ EP       1030  3.00                             122   -0.39 9  203 292 
 ZAR  HN ES   2   1030 27.81                             122   -0.82 4  203 292 
 ZAR  HZ I        1030 36.01        11.3 0.21            122            203 292 
 NOR  HZ EP       1030  7.29                             119    0.55 8  235 234 
 NOR  HE ES       1030 34.61                             119   -0.00 8  235 234 
 NOR  HZ I        1030 40.26         8.8 0.16            118            235 234 
 SML  HZ EP       1030  6.76                             118   -0.79 8  243 335 
 SML  HE ES       1030 36.43                             118    0.39 8  243 335 
 SML  HZ I        1030 38.84        26.3 0.09            117            243 335 
 CHI  HZ EP       1030  9.07                             117    0.30 8  249 195 
 CHI  HN ES       1030 38.13                             117   -0.08 8  249 195 
 CHI  HZ I        1030 42.23         6.5 0.32            117            249 195 
 GUY2CHZ EP   4   1030 12.80                             112   -1.83 0  301 235 
 GUY2CHE ES       1030 48.19                             112   -0.45 7  301 235 
 GUY2CHZ I        1030 56.97         4.4 0.42                           301 235 
 PRA  HZ EP       1030 24.80                             107    0.22 6  392 209 
 PRA  HN ES       1031  6.80                             107    0.45 6  392 209 
 PRA  HZ I        1031 11.99         9.9 0.28            106            392 209 
 ORTC HZ EP   2   1030 25.55                             106    0.58 3  396 216 
 ORTC HN ES   2   1031  7.20                             106    0.15 3  396 216 
 ORTC HZ I        1031 12.14         4.8 0.28            106            396 216 
 SJC  HZ EP   4   1030 24.68                             106   -1.80 0  408 327 
 SJC  HN ES   4   1031  5.67                             106   -4.07 0  408 327 
 SJC  HZ I        1031 14.03         3.5 0.27            105            408 327 
                                                                                
