 2013  621 1509 46.3 L   6.772 -73.139151.4  RSN  9 0.4 2.3LRSN                1
 GAP=183        0.91       2.9     6.0  5.2  0.1147E+01  0.7247E+01  0.4930E+00E
 Epicentro: LOS SANTOS - SANTANDER                                             3
 ACTION:UPD 14-01-08 09:56 OP:ep   STATUS:               ID:20130621150946 L   I
 OLDACT:UP  13-06-21 19:44 OP:cam  STATUS:               ID:20130621150849     3
 OLDACT:REG 13-06-21 19:36 OP:cam  STATUS:               ID:20130621150849     3
 2013-06-21-1508-49M.COL___223                                                 6
 STAT SP IPHASW D HRMM SECON CODA AMPLIT PERI AZIMU VELO AIN AR TRES W  DIS CAZ7
 BAR2 SZ IP     C 1510  6.36                             172   -0.1510 20.5 194 
 BAR2 SZ ES       1510 22.35                             172    0.0410 20.5 194 
 GIR2 SZ EP       1510  6.51                             167   -0.1710 34.4 350 
 GIR2 SZ ES       1510 22.68                             167    0.0710 34.4 350 
 BRR  HZ IP     C 1510  8.30                             153    0.1610 73.4 300 
 BRR  HN ES       1510 25.87                             153    0.6710 73.4 300 
 BRR  HZ I        1510 30.51        31.2 0.16            150           73.4 300 
 RUS  HZ EP   1   1510 10.38                             146    0.03 7 97.5 176 
 RUS  HN ES       1510 28.70                             146   -0.4410 97.5 176 
 RUS  HZ I        1510 30.21        17.5 0.36            147           97.5 176 
 PTB  HZ EP       1510 13.09                             133   -0.62 9  148 260 
 PTB  HN ES   1   1510 34.50                             133   -0.61 7  148 260 
 PTB  HZ I        1510 39.65        27.1 0.26            132            148 260 
 OCA  HZ EP       1510 15.88                             130    0.58 9  163 353 
 OCA  HN ES   1   1510 37.58                             130   -0.37 7  163 353 
 OCA  HZ I        1510 42.33        33.7 0.22            132            163 353 
 NOR  HZ EP       1510 22.48                             120    0.28 8  234 235 
 NOR  HE ES   2   1510 50.68                             120    0.45 4  234 235 
 NOR  HZ I        1510 54.50        22.7 0.20            120            234 235 
 CHI  HZ EP   1   1510 24.59                             119    0.61 6  246 196 
 CHI  HN ES       1510 53.63                             119    0.23 8  246 196 
 CHI  HZ I        1510 57.76        10.6 0.38            120            246 196 
 SML  HZ EP   2   1510 22.86                             118   -0.68 4  247 335 
 SML  HN ES       1510 52.33                             118   -0.29 8  247 335 
                                                                                
