 2016  821 1845 12.2 L   6.859 -73.137147.9  RSN 27 0.9 2.9LRSN                1
 GAP= 69        1.77       3.6     4.4  7.0 -0.3160E+01  0.6505E+01  0.5961E+00E
 Epicentro: LOS SANTOS - SANTANDER                                             3
 ACTION:UPD 16-10-29 15:37 OP:rebc STATUS:               ID:20160821184512 L   I
 OLDACT:UP  16-08-22 00:34 OP:ar   STATUS:               ID:20160821183744     3
 OLDACT:UP  16-08-22 00:33 OP:ar   STATUS:               ID:20160821183744     3
 OLDACT:REG 16-08-21 22:15 OP:ar   STATUS:               ID:20160821183744     3
 2016-08-21-1837-44M.COL___346                                                 6
 STAT SP IPHASW D HRMM SECON CODA AMPLIT PERI AZIMU VELO AIN AR TRES W  DIS CAZ7
 BAR2 EZ EP       1845 32.28                             168    0.0310 29.9 190 
 BAR2 EZ ES       1845 47.43                             168   -0.4610 29.9 190 
 BAR2 EZ I        1845 48.55       206.1 0.22                          29.9 190 
 BRR  HZ EP       1845 34.10                             154    0.6110 69.2 293 
 BRR  HE ES       1845 50.97                             154    0.8910 69.2 293 
 BRR  HZ I        1845 54.32        93.8 0.14                          69.2 293 
 PAM  EZ EP       1845 35.25                             153    0.9110 71.8  42 
 PAM  EN ES       1845 52.08                             153    0.4810 71.8  42 
 PAM  EZ I        1845 54.42       228.6 0.50                          71.8  42 
 RUS  HZ EP       1845 36.45                             143   -0.2010  107 177 
 RUS  HN ES       1845 55.14                             143   -0.5710  107 177 
 RUS  HZ I        1845 56.06       106.8 0.26                           107 177 
 PTB  HZ EP       1845 38.89                             132   -0.68 9  150 256 
 PTB  HN ES       1846  0.24                             132   -0.67 9  150 256 
 PTB  HZ I        1846  3.01        69.4 0.16                           150 256 
 OCA  HZ EP       1845 40.28                             131    0.17 9  154 352 
 OCA  HN ES       1846  2.11                             131    0.25 9  154 352 
 OCA  HZ I        1846  5.50       147.0 0.48                           154 352 
 TAM  HZ IP     D 1845 40.69                             131    0.54 9  156 107 
 TAM  HN ES       1846  2.40                             131    0.47 9  156 107 
 SPBC HZ EP       1845 41.07                             129   -0.35 9  169 218 
 SPBC HN ES       1846  3.45                             129   -0.75 9  169 218 
 SPBC HZ I        1846  9.62       137.9 0.38                           169 218 
 ZAR  HZ EP       1845 44.79                             123    0.14 9  203 290 
 ZAR  HN ES       1846 10.19                             123    0.24 9  203 290 
 ZAR  HZ I        1846 12.68        52.4 0.24                           203 290 
 NOR  HZ EP       1845 48.43                             119   -0.13 8  239 233 
 NOR  HN ES       1846 16.62                             119   -0.30 8  239 233 
 NOR  HZ I        1846 18.77        58.3 0.18                           239 233 
 CHI  HZ EP       1845 50.39                             117   -0.35 8  255 195 
 CHI  HN ES       1846 19.61                             117   -1.19 8  255 195 
 CHI  HZ I        1846 23.49        51.1 0.54                           255 195 
 ROSC BZ EP   4   1845 52.84                             117    1.72 0  259 210 
 ROSC BN ES       1846 21.66                             117    0.20 8  259 210 
 ROSC BZ I        1846 24.40        74.1 0.35                           259 210 
 HEL  HZ EP   4   1845 54.48                             115    1.65 0  275 255 
 HEL  HN ES       1846 24.81                             115    0.31 8  275 255 
 HEL  HZ I        1846 31.31        35.2 0.46                           275 255 
 URE  HZ EP   4   1845 52.65                             114   -0.58 0  282 291 
 URE  HN ES   4   1846 24.48                             114   -0.74 0  282 291 
 URE  HZ I        1846 35.03        42.8 0.24                           282 291 
 SOCV BZ EP       1845 55.08                             113    0.20 7  297  58 
 SOCV BN ES   4   1846 27.05                             113   -1.10 0  297  58 
 LL1C HZ EP   4   1845 58.61                             113    3.41 0  300 351 
 LL1C HN ES   4   1846 33.67                             113    4.95 0  300 351 
 GUY2CHZ EP       1845 57.91                             112    1.47 7  306 234 
 GUY2CHN ES   4   1846 33.93                             112    2.99 0  306 234 
 GUY2CHZ I        1846 38.46        41.3 0.28                           306 234 
 VIL  EZ EP       1845 55.98                             112   -0.49 7  310 192 
 VIL  EN ES       1846 30.37                             112   -0.63 7  310 192 
 VIL  EZ I        1846 32.88        73.3 0.42                           310 192 
 PTGC HZ EP   4   1845 55.48                             112   -1.34 0  314 159 
 PTGC HN ES   4   1846 28.67                             112   -2.94 0  314 159 
 PTGC HZ I        1846 31.33        46.9 0.40                           314 159 
 ELA  HZ EP   9   1846  2.19                             110    2.46 0  334 229 
 ELA  HN ES       1846 38.30                             109   -0.95 7  334 229 
 ELA  HZ I        1846 52.98        24.2 0.68                           334 229 
 CBOC HZ EP       1846  0.88                             110    1.32 7  337 251 
 CBOC HN ES       1846 37.29                             110    0.80 7  337 251 
 CBOC HZ I        1846 40.30        12.4 0.46                           337 251 
 ARGC HZ EP       1845 59.93                             109   -1.35 6  353 340 
 ARGC HN ES       1846 40.52                             109    0.96 6  353 340 
 ARGC HZ I        1846 55.01        12.3 0.40                           353 340 
 ANIL HZ EP       1846  3.62                             109    0.90 6  363 224 
 ANIL HN ES       1846 42.22                             109    0.11 6  363 224 
 ANIL HZ I        1846 52.30        93.1 0.46                           363 224 
 PRA  HZ EP       1846  6.19                             107   -0.34 6  398 209 
 PRA  HN ES       1846 47.58                             107   -1.31 6  398 209 
 PRA  HZ I        1846 52.63        27.0 0.22                           398 209 
 SJC  HZ EP       1846  6.43                             106   -0.84 6  404 326 
 SJC  HN ES       1846 47.28                             106   -2.94 6  404 326 
 SJC  HZ I        1846 54.07        10.2 0.32                           404 326 
 PAL  HZ EP       1846  7.84                             106   -0.10 6  410 238 
 PAL  HN ES       1846 51.21                             106   -0.19 6  410 238 
 PAL  HZ I        1846 53.91        15.1 0.22                           410 238 
 CRJC HZ EP       1846 12.57                             104   -1.43 5  461   3 
 CRJC HN ES       1846 59.89                             104   -2.30 5  461   3 
 CRJC HZ I        1847  4.69        25.4 0.16                           461   3 
 YOT  HZ EP       1846 17.47                             103    1.55 5  477 228 
 YOT  HN ES       1847  9.03                             103    3.43 5  477 228 
 YOT  HZ I        1847 11.74         2.3 0.22                           477 228 
                                                                                
