 2011  721 1411 40.7 L   6.852 -72.970144.5  RSN  4 0.1 1.7LRSN                1
 GAP=178        0.31       2.4     3.9  4.9 -0.2514E+01 -0.5826E+01  0.2278E+01E
 Epicentro: CEPITA - SANTANDER                                                 3
 ACTION:UPD 12-07-25 14:02 OP:epov STATUS:               ID:20110721141140 L   I
 2011-07-21-1400-00M.COL___138                                                 6
 STAT SP IPHASW D HRMM SECON CODA AMPLIT PERI AZIMU VELO AIN AR TRES W  DIS CAZ7
 BAR2 SZ EP   1   1412  0.73                             165    0.16 7 37.1 219 
 BRR  HZ EP       1412  2.69                             147   -0.0110 86.6 289 
 BRR  HZ I        1412  7.24        10.9 0.11                          86.6 289 
 BRR  HN ES   1   1412 19.79                             147   -0.04 7 86.6 289 
 RUS  HZ EP   2   1412  4.80                             142   -0.03 5  107 187 
 RUS  HE ES   2   1412 23.53                             142   -0.09 5  107 187 
 RUS  HZ I        1412 25.11         7.6 0.17                           107 187 
 GRA  SZ EP   1   1412  4.93                             139   -0.11 7  116   9 
 GRA  SZ ES   1   1412 24.04                             139    0.04 7  116   9 
 GRA  SZ I        1412 25.64         7.3 0.40                           116   9 
                                                                                
