 2012  721 1736 32.3 L   6.774 -73.088147.7  RSN  5 0.3 1.5LRSN                1
 GAP=145        0.69       6.5     6.8 10.4  0.9545E+01 -0.8906E+01  0.1125E+02E
 Epicentro: LOS SANTOS - SANTANDER                                             3
 ACTION:UPD 12-08-14 11:46 OP:ep   STATUS:               ID:20120721173632 L   I
 2012-07-21-1730-00M.COL___215                                                 6
 STAT SP IPHASW D HRMM SECON CODA AMPLIT PERI AZIMU VELO AIN AR TRES W  DIS CAZ7
 BAR2 SZ EP   1   1736 51.75                             171    -0.4 7   23 207 
 PAM  SZ EP   1   1736 54.69                             152     0.1 7   76  34 
 PAM  SN ES   2   1737 12.40                             152     0.4 5   76  34 
 PAM  SZ I        1737 14.35         3.7 0.27            155             76  34 
 BRR  HZ EP   1   1736 53.77                             151    -0.3 7   78 298 
 BRR  HZ I        1736 54.03        16.4 0.18            156             78 298 
 BRR  HN ES   1   1737 10.72                             151    -0.3 7   78 298 
 RUS  HZ EP   1   1736 56.21                             145     0.2 7   97 180 
 RUS  HN ES   2   1737 14.85                             145     0.4 5   97 180 
 RUS  HZ I        1737 17.57         2.9 0.28            147             97 180 
 ZAR  HE ES   2   1737 32.28                             122     0.8 4  211 292 
