 2012  521 1350 19.7 L   6.716 -73.242151.7  RSN  5 0.3 1.5LRSN                1
 GAP=205        0.80      10.8    11.8  9.0  0.1010E+03  0.3530E+02  0.2148E+02E
 Epicentro: VILLANUEVA - SANTANDER                                             3
 ACTION:UP  12-07-05 12:07 OP:pat  STATUS:               ID:20120521135019 L   I
 2012-05-21-1350-00M.COL___200                                                 6
 STAT SP IPHASW D HRMM SECON CODA AMPLIT PERI AZIMU VELO SNR AR TRES W  DIS CAZ7
 BAR2 SZ EP   1   1350 39.46                             174    -0.4 7   15 154 
 BAR2 SZ ES   1   1350 55.27                             174    -0.4 7   15 154 
 BAR2 SZ I        1350 55.77        10.8 0.39                            15 154 
 BRR  HZ EP   1   1350 41.40                             155     0.1 7   68 310 
 BRR  HN ES   1   1350 58.68                             155     0.6 7   68 310 
 RUS  HZ EP   1   1350 43.88                             147     0.4 7   93 169 
 RUS  HE ES   1   1351  2.08                             147     0.0 7   93 169 
 RUS  HZ I        1351  3.38         4.2 0.35                            93 169 
 PTB  HZ EP   1   1350 46.05                             136     0.0 7  136 262 
 PTB  HZ I        1351 14.85         4.1 0.55                           136 262 
 ZAR  HE ES   1   1351 16.72                             124    -0.3 6  198 296 
                                                                                
