 2010 1221 1630 14.8 L   6.778 -73.120147.7  RSN  5 0.2 1.9LRSN                1
 GAP=185        0.40       2.3     6.0  5.5 -0.2517E+01  0.1417E+02 -0.3083E+01E
 Epicentro: LOS SANTOS - SANTANDER                                             3
 ACTION:UP  11-01-14 15:26 OP:pat  STATUS:               ID:20101221163014 L   I
 2010-12-21-1627-27S.COL___135                                                 6
 STAT SP IPHASW D HRMM SECON CODA AMPLIT PERI AZIMU VELO SNR AR TRES W  DIS CAZ7
 BAR2 SZ EP   1   1630 34.66                             171     0.1 7   22 199 
 BAR2 SZ ES   2   1630 50.13                             171     0.1 5   22 199 
 BAR2 SZ I        1630 51.45        16.4 0.25                            22 199 
 BTL  SZ EP   1   1630 34.88                             171     0.3 7   23 313 
 RUS  HZ EP   1   1630 38.28                             145    -0.2 7   98 178 
 RUS  HN ES   1   1630 56.99                             145    -0.1 7   98 178 
 RUS  HZ I        1630 58.59         6.7 0.26                            98 178 
 OCA  SZ EP   1   1630 43.41                             130    -0.1 7  163 352 
 OCA  SZ ES   1   1631  5.77                             130    -0.1 7  163 352 
 OCA  SZ I        1631  9.99        21.3 0.37                           163 352 
 NOR  SZ EP   1   1630 50.87                             119     0.1 6  236 235 
 NOR  SN ES   2   1631 18.62                             119    -0.1 4  236 235 
                                                                                
