 2017  521 1611 48.6 L   6.783 -73.154150.7  RSN  4 0.3 1.9LRSN                1
 GAP=136        0.64       3.5     3.7  6.2  0.2871E+01  0.3120E+01  0.1737E+01E
 Epicentro: LOS SANTOS - SANTANDER                                             3
 ACTION:UPD 17-06-16 13:37 OP:jn   STATUS:               ID:20170521161148 L   I
 OLDACT:REG 17-05-21 21:42 OP:cog  STATUS:               ID:20170521160329     3
 2017-05-21-1608-00M.COL___365                                                 6
 STAT SP IPHASW D HRMM SECON CODA AMPLIT PERI AZIMU VELO AIN AR TRES W  DIS CAZ7
 BRR  HZ EP       1612 10.30                             153    0.0210 71.3 300 
 BRR  HN ES       1612 27.62                             153    0.4210 71.3 300 
 BRR  HZ I        1612 31.89        14.6 0.26            150           71.3 300 
 PAM  EZ EP       1612 11.60                             151    0.1510 79.4  39 
 PAM  EN ES       1612 29.02                             151   -0.2610 79.4  39 
 PAM  EZ I        1612 30.79        12.7 0.52            154           79.4  39 
 RUS  HZ EP       1612 12.80                             145    0.1010 98.8 175 
 RUS  HN ES       1612 31.35                             145   -0.1610 98.8 175 
 RUS  HZ I        1612 32.21         7.2 0.30            149           98.8 175 
 ZAR  HZ EP   3   1612 21.46                             123    0.12 2  204 293 
 ZAR  HN ES       1612 46.50                             123   -0.40 9  204 293 
 ZAR  HZ I        1612 55.03         8.5 0.24            123            204 293 
                                                                                
