 2011 1021 1249 58.5 L   6.757 -73.113146.8  RSN  5 0.1 1.4LRSN                1
 GAP=143        0.32       3.7     7.0  5.1  0.1508E+02 -0.1402E+02 -0.8584E+01E
 Epicentro: LOS SANTOS - SANTANDER                                             3
 ACTION:UPD 12-07-13 16:05 OP:ep   STATUS:               ID:20111021124958 L   I
 2011-10-21-1246-50S.COL___171                                                 6
 STAT SP IPHASW D HRMM SECON CODA AMPLIT PERI AZIMU VELO AIN AR TRES W  DIS CAZ7
 BAR2 SZ EP   1   1250 18.15                             172   -0.08 7 19.8 203 
 BAR2 SZ ES   2   1250 33.43                             172   -0.16 5 19.8 203 
 BAR2 SZ I        1250 36.45         7.9 0.35                          19.8 203 
 GIR2 SZ EP   2   1250 18.35                             165   -0.14 5 36.7 346 
 BRR  HZ EP   1   1250 20.21                             151    0.10 7 76.7 300 
 BRR  HN ES   2   1250 36.95                             151    0.00 5 76.7 300 
 PAM  SZ EP   2   1250 21.15                             150    0.19 5 79.0  35 
 RUS  HZ EP   1   1250 21.95                             145   -0.09 7 95.7 178 
 RUS  HN ES   1   1250 40.50                             145    0.12 7 95.7 178 
 RUS  HZ I        1250 41.24         2.6 0.35                          95.7 178 
                                                                                
