 2011  421 1418  1.0 L   7.030 -72.968  4.3  RSN  8 0.4 1.0LRSN                1
 GAP=145        0.82       2.6     2.6  6.0 -0.3536E+01  0.3210E+01 -0.5454E+01E
 Epicentro: SANTA BARBARA - SANTANDER                                          3
 ACTION:UP  11-06-22 15:32 OP:REBC STATUS:               ID:20110421141801 L   I
 2011-04-21-1416-11S.COL___139                                                 6
 STAT SP IPHASW D HRMM SECON CODA AMPLIT PERI AZIMU VELO SNR AR TRES W  DIS CAZ7
 GIR2 SZ EP       1418  5.37                              47    -0.310   26 282 
 GIR2 SZ ES   2   1418  8.45                              47    -0.8 5   26 282 
 BTL  SZ EP   1   1418  7.73                              47     0.5 7   35 250 
 BTL  SZ ES   2   1418 11.64                                    -0.4 5   35 250 
 PAM  SZ EP       1418  9.17                              47     0.210   45  41 
 PAM  SN ES   1   1418 15.07                              47    -0.1 7   45  41 
 BAR2 SZ EP       1418  9.78                                    -0.310   54 206 
 BAR2 SZ ES   3   1418 16.42                                    -0.6 2   54 206 
 BAR2 SZ I        1418 17.19         7.8 0.23                            54 206 
 BRI  SZ EP   1   1418 13.97                              47     0.3 7   78  14 
 BRI  SZ ES   1   1418 23.02                              47    -0.5 7   78  14 
 BRR  HZ EP   1   1418 14.61                              47     0.5 7   83 276 
 BRR  HN ES   1   1418 24.76                              47     0.4 7   83 276 
 GRA  SZ ES   3   1418 27.83                                    -0.5 2   96  11 
 GRA  SZ I        1418 30.43         4.2 0.27                            96  11 
 RUS  HZ EP   1   1418 21.73                              47     0.4 7  126 186 
 RUS  HN ES   2   1418 36.56                              47    -0.5 5  126 186 
 RUS  HZ I        1418 37.68         2.8 0.20                           126 186 
                                                                                
