 2011  421 1618 48.3 L   6.778 -73.082145.8  RSN  8 0.4 1.6LRSN                1
 GAP=146        0.81       6.4     5.4  9.2 -0.1301E+02  0.4422E+01  0.6072E+01E
 Epicentro: LOS SANTOS - SANTANDER                                             3
 ACTION:UP  11-06-22 15:32 OP:REBC STATUS:               ID:20110421161848 L   I
 2011-04-21-1614-38S.COL___139                                                 6
 STAT SP IPHASW D HRMM SECON CODA AMPLIT PERI AZIMU VELO SNR AR TRES W  DIS CAZ7
 BAR2 SZ EP   2   1619  8.04                             171     0.1 5   23 208 
 BAR2 SZ I        1619  8.34         6.4 0.13                            23 208 
 BTL  SZ EP   2   1619  8.90                             170     0.9 5   26 307 
 GIR2 SZ EP   2   1619  8.55                             166     0.5 5   36 340 
 PAM  SZ EP   1   1619 10.53                             152     0.1 8   75  34 
 PAM  SN ES   1   1619 27.22                             152    -0.4 8   75  34 
 BRR  HZ EP   1   1619  9.75                             150    -0.1 8   79 298 
 BRR  HN ES   1   1619 27.14                             150     0.4 8   79 298 
 BRR  HZ I        1619 28.92         8.8 0.14                            79 298 
 RUS  HZ EP   1   1619 12.13                             145     0.3 8   98 180 
 RUS  HN ES   2   1619 29.72                             145    -0.5 5   98 180 
 GRA  SZ EP       1619 13.37                             137    -0.210  126  14 
 GRA  SZ I        1619 34.97         4.8 0.38                           126  14 
 HEL  HN ES       1620  0.71                             114    -0.4 8  278 257 
 HEL  HZ I        1620  6.81         3.2 0.34                           278 257 
                                                                                
