 2017  221 1059  7.5 L   6.781 -73.137143.5  RSN 10 0.4 1.9LRSN                1
 GAP=139        0.95       3.6     4.4  5.9  0.2522E+01  0.1251E+02  0.4916E+01E
 Epicentro: LOS SANTOS - SANTANDER                                             3
 ACTION:UPD 17-05-24 15:38 OP:jn   STATUS:               ID:20170221105907 L   I
 OLDACT:UP  17-02-21 22:10 OP:cog  STATUS:               ID:20170221105745     3
 OLDACT:UP  17-02-21 22:10 OP:cog  STATUS:               ID:20170221105745     3
 OLDACT:REG 17-02-21 20:29 OP:cog  STATUS:               ID:20170221105745     3
 2017-02-21-1058-00M.COL___373                                                 6
 STAT SP IPHASW D HRMM SECON CODA AMPLIT PERI AZIMU VELO AIN AR TRES W  DIS CAZ7
 BAR2 EZ EP       1059 26.85                             171    0.0210 21.4 194 
 BAR2 EZ ES       1059 41.65                             171   -0.2410 21.4 194 
 BAR2 EZ I        1059 42.62        31.7 0.18            169           21.4 194 
 BRR  HZ EP       1059 28.78                             151    0.2610 73.1 300 
 BRR  HE ES       1059 45.29                             151    0.3810 73.1 300 
 BRR  HZ I        1059 46.08        12.2 0.30            153           73.1 300 
 PAM  EZ EP   3   1059 29.51                             150   -0.04 2 78.4  38 
 PAM  EE ES       1059 46.53                             150   -0.2010 78.4  38 
 PAM  EZ I        1059 49.37        11.9 0.44            153           78.4  38 
 RUS  HZ EP       1059 30.83                             144   -0.0510 98.4 177 
 RUS  HN ES       1059 49.09                             144   -0.0110 98.4 177 
 RUS  HZ I        1059 50.94         9.5 0.38            144           98.4 177 
 PTB  HZ EP       1059 33.25                             131   -1.09 9  148 260 
 PTB  HN ES   3   1059 54.50                             131   -0.77 2  148 260 
 PTB  HZ I        1059 57.37        11.8 0.25            132            148 260 
 ZAR  HZ EP       1059 40.69                             122    0.70 8  206 293 
 ZAR  HE ES       11 0  5.50                             122    0.18 8  206 293 
 NOR  HZ EP       1059 43.15                             118    0.09 8  234 235 
 NOR  HN ES       11 0 11.05                             118    0.26 8  234 235 
 NOR  HZ I        11 0 12.72         5.2 0.18            119            234 235 
 CHI  HZ EP       1059 44.73                             117   -0.15 8  247 196 
 CHI  HE ES       11 0 14.68                             117    0.65 8  247 196 
 CHI  HZ I        11 0 20.23         2.9 0.26            117            247 196 
 HEL  HZ EP   4   1059 49.17                             114    1.52 0  273 256 
 HEL  HE ES       11 0 18.49                             114   -0.48 8  273 256 
 URE  HZ EP       1059 48.59                             113   -0.07 7  286 292 
 URE  HN ES   3   11 0 19.31                             113   -1.45 2  286 292 
                                                                                
