 2013  121 1943 53.7 L   6.751 -73.129151.3  RSN  7 0.4 1.9LRSN                1
 GAP=141        0.71       3.9     4.3  6.3  0.1352E+01  0.4831E+01  0.5644E+01E
 Epicentro: LOS SANTOS - SANTANDER                                             3
 ACTION:UPD 13-02-15 09:15 OP:ep   STATUS:               ID:20130121194353 L   I
 2013-01-21-1940-00M.COL___241                                                 6
 STAT SP IPHASW D HRMM SECON CODA AMPLIT PERI AZIMU VELO AIN AR TRES W  DIS CAZ7
 BAR2 SZ EP   1   1944 13.98                             173    0.05 7 18.5 199 
 BAR2 SZ ES   1   1944 30.00                             173    0.30 7 18.5 199 
 BRR  HZ EP   1   1944 15.93                             152    0.22 7 75.6 301 
 BRR  HE ES   1   1944 33.36                             152    0.49 7 75.6 301 
 BRR  HZ I        1944 36.29        16.0 0.18            150           75.6 301 
 PAM  SZ EP   1   1944 16.82                             151    0.11 7 80.5  36 
 PAM  SN ES   1   1944 33.98                             151   -0.67 7 80.5  36 
 PAM  SZ I        1944 36.25        17.6 0.54            154           80.5  36 
 RUS  HZ EP   1   1944 17.95                             146    0.31 7 95.0 177 
 RUS  HN ES   1   1944 36.23                             146   -0.06 7 95.0 177 
 RUS  HZ I        1944 37.45         5.9 0.46            146           95.0 177 
 PTB  HZ EP   1   1944 20.70                             133   -0.52 7  149 261 
 PTB  HN ES   1   1944 42.26                             133   -0.42 7  149 261 
 PTB  HZ I        1944 44.04        11.8 0.18            132            149 261 
 ZAR  HN ES   1   1944 52.92                             123    0.10 6  208 293 
 ZAR  HZ I        1944 59.06        13.1 0.34            122            208 293 
 CHI  HZ EP   1   1944 31.60                             119    0.38 6  244 196 
 CHI  HN ES   1   1945  0.10                             119   -0.37 6  244 196 
 CHI  HZ I        1945  7.35         2.9 0.30            119            244 196 
                                                                                
