 2012  521 1015  2.4 L   6.605 -73.186143.0  RSN  4 0.4 1.4LRSN                1
 GAP=224        0.82      17.6     8.6 11.2  0.8461E+02  0.2799E+02  0.4993E+02E
 Epicentro: BARICHARA - SANTANDER                                              3
 ACTION:UP  12-07-05 12:07 OP:pat  STATUS:               ID:20120521101502 L   I
 2012-05-21-1010-00S.COL___200                                                 6
 STAT SP IPHASW D HRMM SECON CODA AMPLIT PERI AZIMU VELO SNR AR TRES W  DIS CAZ7
 BAR2 SZ EP   1   1015 21.05                             178    -0.4 7    1 162 
 BAR2 SZ ES   1   1015 36.40                             178     0.1 7    1 162 
 RUS  HZ EP   1   1015 25.01                             149     0.5 7   80 172 
 PTB  HZ EP   1   1015 28.10                             133    -0.4 7  141 267 
 PTB  HN ES   1   1015 48.90                             133     0.0 7  141 267 
 PTB  HZ I        1015 49.67         3.4 0.57                           141 267 
 ZAR  HN ES   2   1016  1.43                             121     0.6 4  209 298 
 ZAR  HZ I        1016  4.55         2.1 0.37                           209 298 
                                                                                
