 2011  621 1302 20.0 L   6.899 -73.139138.0  RSN  5 0.5 1.6LRSN                1
 GAP=165        0.91      16.6    17.6 17.8 -0.1218E+03 -0.2002E+03  0.1792E+02E
 Epicentro: LOS SANTOS - SANTANDER                                             3
 ACTION:UP  11-07-14 19:06 OP:ep   STATUS:               ID:20110621130220 L   I
 2011-06-21-1301-09S.COL___140                                                 6
 STAT SP IPHASW D HRMM SECON CODA AMPLIT PERI AZIMU VELO SNR AR TRES W  DIS CAZ7
 BTL  SZ EP       13 2 38.95                             176     0.510   14 279 
 BAR2 SZ ES   3   13 2 52.32                             166    -1.4 2   34 188 
 BRR  HZ EP       13 2 39.53                             155    -0.510   67 290 
 BRR  HN ES   1   13 2 56.12                             155     0.4 7   67 290 
 BRR  HZ I        13 2 57.54         9.1 0.27                            67 290 
 BRI  SZ EP   3   13 2 42.10                             144    -0.2 2   98  23 
 GRA  SZ EP       13 2 43.54                             139    -0.110  115  19 
 GRA  SZ ES   3   13 3  2.53                             139     0.4 2  115  19 
                                                                                
