 2014  821 1722 56.1 L   6.812 -73.151149.6  RSN  9 0.2 2.0LRSN                1
 GAP= 70        0.65       2.0     2.7  3.8 -0.4061E+00  0.3955E+00 -0.3949E+00E
 Epicentro: LOS SANTOS - SANTANDER                                             3
 ACTION:UPD 14-09-15 21:51 OP:nd   STATUS:               ID:20140821172256 L   I
 OLDACT:REG 14-08-21 21:09 OP:stll STATUS:               ID:20140821171819     3
 2014-08-21-1718-19M.COL___265                                                 6
 STAT SP IPHASW D HRMM SECON CODA AMPLIT PERI AZIMU VELO AIN AR TRES W  DIS CAZ7
 BAR2 SZ IP     D 1723 16.24                             170    0.0310 24.5 188 
 BAR2 SZ I        1723 16.34        37.9 0.40            171           24.5 188 
 BAR2 SZ ES       1723 31.87                             170   -0.0310 24.5 188 
 BRR  HZ EP       1723 18.12                             154    0.5210 70.0 298 
 BRR  HN ES       1723 34.52                             154    0.1510 70.0 298 
 BRR  HZ I        1723 38.63        18.7 0.30            150           70.0 298 
 PAM  SZ EP       1723 18.20                             152   -0.4910 76.7  41 
 PAM  SN ES       1723 36.24                             152   -0.0610 76.7  41 
 PAM  SZ I        1723 38.38        12.4 0.50            153           76.7  41 
 RUS  HZ EP       1723 20.16                             144   -0.1710  102 176 
 RUS  HZ I        1723 21.21         6.8 0.16            147            102 176 
 RUS  HN ES       1723 39.26                             144    0.0410  102 176 
 PTB  HZ EP       1723 23.00                             133   -0.35 9  147 258 
 PTB  HN ES       1723 44.44                             133   -0.17 9  147 258 
 PTB  HZ I        1723 50.73         9.5 0.50            132            147 258 
 TAM  HZ EP       1723 24.39                             131    0.22 9  156 105 
 OCA  HN ES       1723 46.92                             131    0.13 9  159 353 
 SPBC HZ EP       1723 25.16                             130    0.20 9  164 219 
 SPBC HZ I        1723 25.39        15.1 0.56            130            164 219 
 SPBC HN ES       1723 47.47                             130    0.01 9  164 219 
 SML  HZ EP       1723 33.00                             118    0.21 8  242 335 
 SML  HN ES       1724  1.18                             118   -0.22 8  242 335 
 SML  HZ I        1724 10.40         8.1 0.10            118            242 335 
                                                                                
