 2010  821 1415 19.2 L   6.752 -73.094151.3  RSN  7 0.2 1.9LRSN                1
 GAP=165        0.66       3.6     4.9  5.9  0.1092E-02 -0.4575E+01 -0.7535E+01E
 Epicentro: LOS SANTOS - SANTANDER                                             3
 ACTION:UP  10-09-07 10:57 OP:vdl  STATUS:               ID:20100821141519 L   I
 2010-08-21-1411-19S.COL___120                                                 6
 STAT SP IPHASW D HRMM SECON CODA AMPLIT PERI AZIMU VELO SNR AR TRES W  DIS CAZ7
 BAR2 SZ EP       1415 39.50                             172     0.010   20 209 
 BAR2 SZ ES   1   1415 55.09                             172    -0.2 7   20 209 
 BAR2 SZ I        1415 56.40        29.8 0.63                            20 209 
 GIR2 SZ EP   1   1415 39.92                             165     0.2 7   38 343 
 BRR  HZ EP       1415 41.48                             151     0.110   79 300 
 BRR  HN ES       1415 58.93                             151     0.210   79 300 
 BRR  HZ I        1416  0.52        32.1 0.12                            79 300 
 RUS  HZ EP   1   1415 43.20                             147     0.0 7   95 179 
 RUS  HN ES       1416  1.80                             147     0.010   95 179 
 RUS  HZ I        1416  3.56        19.0 0.46                            95 179 
 GUE  SZ EP       1415 44.46                             140    -0.310  121   9 
 GUE  SZ I        1416  6.45         5.3 0.19                           121   9 
 GRA  SZ EP       1415 45.58                             137     0.310  129  14 
 GRA  SZ ES   2   1416  5.04                             137    -0.5 5  129  14 
 GRA  SZ I        1416  6.81         6.0 1.03                           129  14 
 HEL  HN ES   1   1416 31.74                             116    -0.4 6  276 257 
 HEL  HZ I        1416 38.87         5.1 0.10                           276 257 
                                                                                
