 2010  721 1604 26.2 L   6.874 -73.271123.4  RSN  5 0.1 2.0LRSN                1
 GAP=142        0.40       2.9     5.5  4.8  0.7365E+01 -0.1220E+02 -0.6239E+01E
 Epicentro: BETULIA - SANTANDER                                                3
 ACTION:UPD 10-12-01 15:19 OP:pat  STATUS:               ID:20100721160426 L   I
 2010-07-21-1600-26S.COL___123                                                 6
 STAT SP IPHASW D HRMM SECON CODA AMPLIT PERI AZIMU VELO AIN AR TRES W  DIS CAZ7
 GIR2 SZ IP       16 4 43.09                             168     0.110   24  21 
 BAR2 SZ IP       16 4 43.51                             164     0.110   33 163 
 BAR2 SZ ES   1   16 4 56.62                             164    -0.2 7   33 163 
 BAR2 SZ I        16 4 57.63        62.4 0.39                            33 163 
 BRR  HZ IP     C 16 4 43.88                             154    -0.110   55 298 
 BRR  HZ I        16 4 44.23        26.3 0.15                            55 298 
 BRR  HE ES   1   16 4 58.01                             154     0.1 7   55 298 
 RUS  HZ EP   1   16 4 48.51                             136    -0.1 7  111 169 
 RUS  HE ES   1   16 5  6.21                             136     0.1 7  111 169 
 RUS  HZ I        16 5  7.20         6.3 0.24                           111 169 
 GUE  SZ IP       16 4 48.51                             135     0.010  112  20 
 GUE  SZ I        16 4 48.90        19.2 0.13                           112  20 
                                                                                
