 2014 1121 1904 54.7 L   6.750 -73.463110.9  RSN  6 0.4 1.9LRSN                1
 GAP=102        1.00       4.4     4.2  7.1  0.5456E+01  0.1026E+02  0.1815E+01E
 Epicentro: EL CARMEN - SANTANDER                                              3
 ACTION:UPD 14-12-19 15:45 OP:nd   STATUS:               ID:20141121190454 L   I
 OLDACT:REG 14-11-21 22:09 OP:spq  STATUS:               ID:20141121185747     3
 2014-11-21-1857-47M.COL___300                                                 6
 STAT SP IPHASW D HRMM SECON CODA AMPLIT PERI AZIMU VELO AIN AR TRES W  DIS CAZ7
 BAR2 SZ EP       19 5 10.08                             161   -0.4410 35.6 119 
 BAR2 SZ ES       19 5 23.46                             161    0.5610 35.6 119 
 BAR2 SZ I        19 5 24.06        55.9 0.26            162           35.6 119 
 BRR  HZ EP     C 19 5 10.66                             155   -0.0910 48.2 325 
 BRR  HE ES       19 5 23.32                             155    0.0210 48.2 325 
 BRR  HZ I        19 5 24.30        17.7 0.36            151           48.2 325 
 RUS  HZ IP       19 5 15.47                             134    0.0310  104 156 
 RUS  HE ES       19 5 31.54                             134   -0.1110  104 156 
 RUS  HZ I        19 5 33.62        10.6 0.30            131            104 156 
 PAM  SZ EP       19 5 16.20                             133    0.5110  107  52 
 PAM  SN ES       19 5 31.62                             133   -0.4810  107  52 
 PAM  SZ I        19 5 34.18         9.1 0.28            133            107  52 
 PTB  HZ EP       19 5 15.21                             131   -0.3610  112 258 
 PTB  HZ I        19 5 29.48        19.9 0.16            125            112 258 
 SPBC HE ES   4   19 5 34.43                             125   -2.19 0  139 209 
 ZAR  HZ EP       19 5 22.51                             118    0.65 9  175 298 
 ZAR  HE ES       19 5 42.88                             118   -0.20 9  175 298 
 ZAR  HZ I        19 5 48.33        11.6 0.32            113            175 298 
                                                                                
