 2012 1021 1439 51.4 L   6.776 -73.103145.4  RSN  4 0.1 1.7LRSN                1
 GAP=143        0.36       2.5     3.4  3.6  0.1565E+01 -0.4684E+00  0.9698E+00E
 Epicentro: LOS SANTOS - SANTANDER                                             3
 ACTION:UPD 12-11-22 17:05 OP:ep   STATUS:               ID:20121021143951 L   I
 2012-10-21-1440-00M.COL___231                                                 6
 STAT SP IPHASW D HRMM SECON CODA AMPLIT PERI AZIMU VELO AIN AR TRES W  DIS CAZ7
 BAR2 SZ EP       1440 10.98                             171    0.0510 22.1 203 
 BAR2 SZ ES   1   1440 25.98                             171   -0.21 7 22.1 203 
 BAR2 SZ I        1440 27.30        16.0 0.21                          22.1 203 
 PAM  SZ EP   2   1440 13.72                             151    0.23 5 76.6  36 
 PAM  SE ES   1   1440 30.74                             151   -0.02 7 76.6  36 
 PAM  SZ I        1440 33.34         6.3 0.38                          76.6  36 
 BRR  HZ EP       1440 12.67                             151   -0.1210 76.7 299 
 BRR  HZ I        1440 12.99         8.6 0.15                          76.7 299 
 BRR  HE ES       1440 29.60                             151    0.0910 76.7 299 
 RUS  HZ EP   1   1440 14.82                             145   -0.05 7 97.7 179 
 RUS  HE ES   1   1440 33.33                             145    0.12 7 97.7 179 
 RUS  HE I        1440 35.63        11.7 0.27                          97.7 179 
                                                                                
