 2014  321 1217 50.9 L   6.819 -73.135153.7  RSN  5 0.2 1.7LRSN                1
 GAP=152        0.41       5.0     2.9  5.1 -0.1379E+01  0.5104E+01  0.3379E+00E
 Epicentro: LOS SANTOS - SANTANDER                                             3
 OLDACT:REG 14-03-21 15:05 OP:y    STATUS:               ID:20140321120807     3
 ACTION:UPD 14-04-09 23:19 OP:nd   STATUS:               ID:20140321121750 L   I
 OLDACT:UP  14-03-21 18:42 OP:fm   STATUS:               ID:20140321120807     3
 2014-03-21-1208-07M.COL___241                                                 6
 STAT SP IPHASW D HRMM SECON CODA AMPLIT PERI AZIMU VELO AIN AR TRES W  DIS CAZ7
 BAR2 SZ EP       1218 11.56                             170    0.0310 25.6 192 
 BAR2 SZ ES   1   1218 27.81                             170    0.19 7 25.6 192 
 BAR2 SZ I        1218 40.02        15.4 3.44            165           25.6 192 
 PAM  SN ES   2   1218 31.46                             153   -0.26 5 75.1  40 
 PTB  HZ EP       1218 18.64                             133   -0.01 9  149 258 
 PTB  HN ES       1218 40.10                             133   -0.21 9  149 258 
 PTB  SZ I        1218 45.16         4.6 1.44            141            149 258 
 ZAR  HN ES   1   1218 49.85                             124    0.21 6  204 291 
 NOR  HN ES   2   1218 55.92                             120    0.19 4  237 234 
                                                                                
