 2011  821 1827 46.5 L   6.749 -73.135142.3  RSN  7 0.3 1.5LRSN                1
 GAP=184        0.47       3.3     5.5  4.6  0.3560E+01  0.2007E+01  0.1829E+01E
 Epicentro: LOS SANTOS - SANTANDER                                             3
 ACTION:UPD 12-07-13 15:53 OP:ep   STATUS:               ID:20110821182746 L   I
 2011-08-21-1820-00M.COL___154                                                 6
 STAT SP IPHASW D HRMM SECON CODA AMPLIT PERI AZIMU VELO AIN AR TRES W  DIS CAZ7
 BAR2 SZ EP   1   1828  5.44                             172   -0.21 7 18.1 197 
 BAR2 SZ ES   1   1828 20.26                             172   -0.30 7 18.1 197 
 BAR2 SZ I        1828 23.92         5.7 0.20                          18.1 197 
 GIR2 SZ EP   2   1828  6.07                             165    0.10 5 37.0 350 
 BRR  HZ EP   2   1828  7.08                             151   -0.45 5 75.0 302 
 BRR  HE ES   1   1828 24.17                             151    0.26 7 75.0 302 
 BRR  HZ I        1828 27.72         7.4 0.13                          75.0 302 
 RUS  HZ EP   1   1828  9.50                             145   -0.04 7 94.9 177 
 RUS  HE ES   1   1828 27.79                             145    0.31 7 94.9 177 
 RUS  HZ I        1828 29.81         3.6 0.43                          94.9 177 
 OCA  SZ EP   2   1828 15.61                             128    0.48 5  166 353 
 OCA  SZ I        1828 50.27         5.2 0.60                           166 353 
 NOR  SZ EP   2   1828 21.65                             118   -0.17 4  232 236 
 NOR  SN ES   2   1828 49.20                             118   -0.14 4  232 236 
 CHI  HZ EP   2   1828 23.36                             117   -0.12 4  244 196 
 CHI  HZ I        1828 24.45         1.4 0.07                           244 196 
 CHI  HE ES   2   1828 52.61                             117    0.31 4  244 196 
                                                                                
