 2014 1121 1007 18.9 L   6.753 -73.413121.9  RSN  5 0.3 1.0LRSN                1
 GAP=165        0.81       5.9     4.9  7.3  0.1539E+02  0.7838E+01  0.1091E+02E
 Epicentro: EL CARMEN - SANTANDER                                              3
 ACTION:UPD 14-12-19 15:45 OP:nd   STATUS:               ID:20141121100718 L   I
 OLDACT:REG 14-11-21 21:08 OP:spq  STATUS:               ID:20141121095746     3
 2014-11-21-0957-46M.COL___304                                                 6
 STAT SP IPHASW D HRMM SECON CODA AMPLIT PERI AZIMU VELO AIN AR TRES W  DIS CAZ7
 BAR2 SZ EP   1   10 7 35.63                             165   -0.28 7 31.1 125 
 BAR2 SZ ES   1   10 7 49.33                             165    0.17 7 31.1 125 
 BAR2 SZ I        10 7 50.16         6.8 0.22            165           31.1 125 
 BRR  HZ EP       10 7 36.10                             156   -0.2910 51.2 320 
 BRR  HN ES       10 7 49.98                             156   -0.0310 51.2 320 
 BRR  HZ I        10 7 52.28         4.9 0.40            157           51.2 320 
 RUS  HZ EP       10 7 41.10                             138    0.5810  102 159 
 RUS  HN ES   1   10 7 57.14                             138   -0.23 7  102 159 
 RUS  HZ I        10 8  1.71         0.6 0.36            138            102 159 
 PTB  HZ EP       10 7 40.89                             133   -0.3410  118 258 
 PTB  HN ES       10 7 58.59                             133   -0.0310  118 258 
 PTB  HZ I        10 8  4.12         1.2 0.12            132            118 258 
 ZAR  HN ES   1   10 8 10.03                             120    0.63 7  179 297 
 ZAR  HZ I        10 8 11.90         1.8 0.28            123            179 297 
                                                                                
