 2013 1221 1143 39.9 L   6.842 -73.097141.9  RSN 10 0.5 1.9LRSN                1
 GAP=141        1.07       3.6     6.3  7.1 -0.8432E+01  0.2286E+02 -0.3251E+01E
 Epicentro: LOS SANTOS - SANTANDER                                             3
 ACTION:UPD 14-01-13 10:19 OP:ep   STATUS:               ID:20131221114339 L   I
 OLDACT:REG 13-12-21 15:54 OP:nd   STATUS:               ID:20131221114000     3
 2013-12-21-1140-00M.COL___285                                                 6
 STAT SP IPHASW D HRMM SECON CODA AMPLIT PERI AZIMU VELO AIN AR TRES W  DIS CAZ7
 BAR2 SZ EP       1143 59.87                             168    0.6410 29.2 199 
 BAR2 SZ ES       1144 14.84                             168    0.5510 29.2 199 
 BAR2 SZ I        1144 17.88        13.4 0.38            167           29.2 199 
 PAM  SN EP       1144  1.11                             152   -0.2210 70.4  39 
 PAM  SE ES       1144 17.52                             152   -0.5010 70.4  39 
 PAM  SN I        1144 21.25        18.0 0.68            154           70.4  39 
 RUS  HZ EP       1144  3.78                             142    0.1510  105 179 
 RUS  HN ES       1144 22.06                             142   -0.0610  105 179 
 RUS  HZ I        1144 25.18         6.1 0.48            144            105 179 
 SPBC HZ EP       1144  8.84                             127    0.03 9  170 219 
 SPBC HN ES       1144 31.10                             127   -0.24 9  170 219 
 SPBC HZ I        1144 35.95        10.5 0.24            127            170 219 
 SML  HZ EP       1144 16.39                             117    0.25 8  242 334 
 SML  HN ES       1144 44.30                             117   -0.08 8  242 334 
 SML  HZ I        1144 47.82        14.7 0.10            117            242 334 
 NOR  HZ EP       1144 15.99                             117   -0.21 8  242 234 
 NOR  HN ES       1144 43.42                             117   -1.08 8  242 234 
 NOR  HZ I        1144 51.52         5.6 0.16            117            242 234 
 CHI  HZ EP       1144 17.95                             116   -0.11 8  255 196 
 CHI  HN ES       1144 47.56                             116   -0.25 8  255 196 
 CHI  HZ I        1144 51.89         1.9 0.18            117            255 196 
 GUY2CHZ EP       1144 24.22                             111    0.06 7  308 235 
 GUY2CHN ES       1144 59.72                             111    1.05 7  308 235 
 GUY2CHZ I        1145  7.92         3.3 0.42                           308 235 
 RREF HZ EP   4   1144 28.63                             110    1.91 0  329 229 
 RREF HN ES   4   1145  5.38                             110    2.16 0  329 229 
 RREF HZ I        1145 10.89         4.0 0.26            110            329 229 
 SJC  HZ EP   4   1144 34.12                             105   -1.14 0  408 326 
 SJC  HZ I        1144 56.77         1.4 0.46            105            408 326 
 SJC  HN ES   4   1145 15.41                             105   -3.01 0  408 326 
                                                                                
