 2013  621 1738 34.1 L   6.732 -73.181158.5  RSN  5 0.3 1.3LRSN                1
 GAP=175        0.66       6.4     5.4  8.1  0.1037E+02 -0.7422E+01 -0.7073E+01E
 Epicentro: VILLANUEVA - SANTANDER                                             3
 ACTION:UPD 14-01-08 09:56 OP:ep   STATUS:               ID:20130621173834 L   I
 OLDACT:REG 13-06-21 18:13 OP:cam  STATUS:               ID:20130621172959     3
 2013-06-21-1729-59M.COL___263                                                 6
 STAT SP IPHASW D HRMM SECON CODA AMPLIT PERI AZIMU VELO AIN AR TRES W  DIS CAZ7
 BAR2 SZ EP   1   1738 54.88                             174   -0.24 8 15.4 180 
 GIR2 SZ EP   1   1738 54.99                             166   -0.47 8 38.4 358 
 BRR  HZ EP   1   1738 56.79                             154    0.14 8 71.8 305 
 BRR  HE ES   1   1739 14.64                             154    0.39 8 71.8 305 
 RUS  HZ EP   1   1738 59.15                             148    0.52 8 93.4 173 
 RUS  HE ES   1   1739 17.64                             148   -0.14 8 93.4 173 
 RUS  HZ I        1739 18.53         2.1 0.40            147           93.4 173 
 PTB  HZ EP       1739  1.72                             136    0.0510  143 261 
 PTB  HN ES       1739 23.00                             136   -0.1810  143 261 
 PTB  HZ I        1739 28.60         3.8 0.18            133            143 261 
                                                                                
