 2014  821 1008 51.1 L   6.773 -73.912 21.7  RSN  4 0.1 1.1LRSN                1
 GAP=144        0.35       2.7     1.8  4.2 -0.4122E+01 -0.6318E+01  0.1027E+02E
 Epicentro: PUERTO PARRA - SANTANDER                                           3
 ACTION:UPD 14-09-15 21:51 OP:nd   STATUS:               ID:20140821100851 L   I
 OLDACT:REG 14-08-21 20:56 OP:stll STATUS:               ID:20140821100816     3
 2014-08-21-1008-16M.COL___257                                                 6
 STAT SP IPHASW D HRMM SECON CODA AMPLIT PERI AZIMU VELO AIN AR TRES W  DIS CAZ7
 BRR  HZ EP       10 8 58.74                             114   -0.0210 43.1  31 
 BRR  HN ES       10 9  4.73                             114   -0.0310 43.1  31 
 BRR  HZ I        10 9  5.36        12.2 0.10            135           43.1  31 
 PTB  HZ EP       10 9  2.12                             106    0.1510 65.5 247 
 PTB  HN ES       10 9 10.37                             106   -0.1110 65.5 247 
 PTB  HZ I        10 9 11.91        12.1 0.22            111           65.5 247 
 BAR2 SZ EP       10 9  4.83                             103    0.0210 83.1 104 
 BAR2 SZ I        10 9  5.10         5.0 0.10            103           83.1 104 
 RUS  HZ EP   2   10 9 12.37                              56    0.25 5  134 137 
 RUS  HN ES       10 9 28.47                              56   -0.0810  134 137 
 RUS  HZ I        10 9 30.78         3.2 0.26             95            134 137 
                                                                                
