 2017  721 1618  5.9 L   6.669 -73.213132.3  RSN  4 0.3 1.1LRSN                1
 GAP=221        0.56       6.1     4.1  5.3  0.1155E+02  0.5444E+01 -0.1725E+01E
 Epicentro: BARICHARA - SANTANDER                                              3
 ACTION:UPD 17-08-30 15:35 OP:rebc STATUS:               ID:20170721161805 L   I
 OLDACT:REG 17-07-21 21:01 OP:lv   STATUS:               ID:20170721160728     3
 2017-07-21-1608-00M.COL___395                                                 6
 STAT SP IPHASW D HRMM SECON CODA AMPLIT PERI AZIMU VELO AIN AR TRES W  DIS CAZ7
 BAR2 EZ EP       1618 23.60                             176   -0.0810 9.17 158 
 BAR2 EZ ES       1618 37.57                             176    0.0210 9.17 158 
 BAR2 EZ I        1618 39.45         5.6 0.26            173           9.17 158 
 RUS  HZ EP       1618 27.20                             145   -0.1410 87.1 170 
 RUS  HN ES       1618 44.24                             145    0.1610 87.1 170 
 RUS  HZ I        1618 46.92         1.7 0.12            145           87.1 170 
 PTB  HZ EP       1618 31.13                             131    0.23 9  138 264 
 PTB  HN ES       1618 50.14                             131   -0.26 9  138 264 
 ZAR  HE ES   3   1619  3.46                             119    1.47 2  203 297 
                                                                                
