 2016 1221 1903 59.4 L   6.766 -73.147144.1  RSN 14 0.4 2.4LRSN                1
 GAP= 97        0.90       3.2     2.6  4.5  0.1244E+01  0.2320E+01  0.3476E+01E
 Epicentro: LOS SANTOS - SANTANDER                                             3
 ACTION:UPD 17-01-11 20:17 OP:rebc STATUS:               ID:20161221190359 L   I
 OLDACT:UP  16-12-22 00:29 OP:dani STATUS:               ID:20161221185749     3
 OLDACT:UP  16-12-22 00:24 OP:dani STATUS:               ID:20161221185749     3
 OLDACT:UP  16-12-22 00:24 OP:dani STATUS:               ID:20161221185749     3
 OLDACT:UP  16-12-22 00:23 OP:dani STATUS:               ID:20161221185749     3
 OLDACT:REG 16-12-21 20:55 OP:dani STATUS:               ID:20161221185749     3
 2016-12-21-1858-00M.COL___381                                                 6
 STAT SP IPHASW D HRMM SECON CODA AMPLIT PERI AZIMU VELO AIN AR TRES W  DIS CAZ7
 BAR2 EZ EP       19 4 18.72                             172   -0.0510 19.6 192 
 BAR2 EZ ES       19 4 33.44                             172   -0.4310 19.6 192 
 BAR2 EZ I        19 4 34.72        56.8 0.42            169           19.6 192 
 BRR  HZ EP       19 4 20.63                             152    0.1510 73.0 301 
 BRR  HE ES       19 4 37.69                             152    0.7810 73.0 301 
 BRR  HZ I        19 4 40.96        39.9 0.32            151           73.0 301 
 PAM  EZ EP       19 4 21.59                             150   -0.0410 80.4  38 
 PAM  EE ES       19 4 38.73                             150   -0.2310 80.4  38 
 PAM  EZ I        19 4 40.98        97.7 0.68            154           80.4  38 
 RUS  HZ EP       19 4 22.64                             144   -0.0910 96.9 176 
 RUS  HN ES       19 4 40.89                             144   -0.0310 96.9 176 
 RUS  HZ I        19 4 42.30        37.7 0.34            144           96.9 176 
 PTB  HZ EP       19 4 25.70                             132   -0.47 9  147 260 
 PTB  HN ES       19 4 46.60                             132   -0.44 9  147 260 
 PTB  HZ I        19 4 51.04        29.6 0.42            131            147 260 
 TAM  HZ EP     D 19 4 27.04                             130    0.16 9  154 104 
 TAM  HN ES       19 4 48.61                             130    0.31 9  154 104 
 ZAR  HZ EP       19 4 31.87                             122   -0.01 8  205 293 
 ZAR  HN ES       19 4 57.24                             122    0.03 8  205 293 
 ZAR  HZ I        19 5  3.36        55.0 0.54            122            205 293 
 CHI  HZ EP       19 4 36.84                             117    0.22 8  245 195 
 CHI  HN ES       19 5  5.92                             117    0.28 8  245 195 
 CHI  HZ I        19 5 10.09        10.0 0.31            118            245 195 
 ROSC BZ EP       19 4 37.17                             117    0.09 8  250 211 
 ROSC BE ES   2   19 5  7.71                             117    1.24 4  250 211 
 ROSC BZ I        19 5 15.18        25.1 0.41            117            250 211 
 URE  HZ EP   4   19 4 44.03                             113    3.49 0  285 293 
 GUY2CHZ EP   9   19 4 44.03                             112    1.34 0  299 235 
 GUY2CHN ES       19 5 17.82                             112    0.03 7  299 235 
 GUY2CHZ I        19 5 23.96        15.2 0.35                           299 235 
 PTGC HZ EP       19 4 41.91                             111   -0.89 7  305 158 
 PTGC HE ES   3   19 5 15.43                             111   -1.22 2  305 158 
 PTGC HZ I        19 5 17.93        16.6 0.43            113            305 158 
 DBB  EZ EP       19 4 47.55                             109    0.71 7  340 275 
 DBB  EN ES       19 5 23.25                             109   -0.58 7  340 275 
 ORTC HZ EP       19 4 53.41                             106    0.50 6  392 216 
 ORTC HN ES   4   19 5 37.70                             106    3.06 0  392 216 
 ORTC HZ I        19 5 41.77         6.6 0.26            107            392 216 
 SJC  HZ EP   4   19 4 52.94                             105   -2.34 0  412 327 
 SJC  HN ES   4   19 5 34.66                             105   -4.19 0  412 327 
 SJC  HZ I        19 5 38.47         4.7 0.23            106            412 327 
                                                                                
