 2011  421 1412 33.2 L   6.521 -73.608109.3  RSN  9 0.5 1.4LRSN                1
 GAP= 93        1.14       5.6     7.9 10.7  0.1633E+01  0.2826E+02 -0.4518E+01E
 Epicentro: SANTA HELENA DEL OPON - SANTANDER                                  3
 ACTION:UP  11-06-22 15:32 OP:REBC STATUS:               ID:20110421141233 L   I
 2011-04-21-1410-00S.COL___139                                                 6
 STAT SP IPHASW D HRMM SECON CODA AMPLIT PERI AZIMU VELO SNR AR TRES W  DIS CAZ7
 BAR2 SZ IP       1412 49.29                             155    -0.110   48  80 
 BAR2 SZ ES   1   1413  1.50                             155    -0.6 7   48  80 
 BAR2 SZ I        1413  3.04        39.4 0.21                            48  80 
 BTL  SZ IP       1412 50.83                             150     0.910   58  41 
 BRR  HZ EP   1   1412 50.06                             147    -0.1 7   66 350 
 BRR  HZ I        1412 50.36        12.9 0.10                            66 350 
 BRR  HN ES   1   1413  3.79                             147     0.4 7   66 350 
 GIR2 SZ EP   1   1412 50.92                             142    -0.2 7   77  37 
 RUS  HZ EP   1   1412 53.12                             138     0.4 7   91 140 
 RUS  HN ES   1   1413  7.68                             138    -0.2 7   91 140 
 RUS  HZ I        1413  8.94         5.2 0.18                            91 140 
 PAM  SZ EP   1   1412 56.06                             125    -0.7 7  135  48 
 PAM  SZ I        1413 15.45         3.4 0.20                           135  48 
 NOR  SZ EP   1   1413  0.30                             117    -0.1 7  175 233 
 NOR  SZ I        1413 24.38         0.6 0.15                           175 233 
 OCA  SZ EP   1   1413  2.60                             115     0.2 7  193   9 
 OCA  SZ ES   1   1413 24.70                             115    -0.6 7  193   9 
 HEL  HN ES   2   1413 29.73                             112    -0.6 4  216 260 
                                                                                
