 2011 1121 1453 49.7 L   6.380 -73.614110.6  RSN  4 0.3 1.5LRSN                1
 GAP=220        0.58       4.9     9.7  8.8  0.3588E+01  0.4323E+02 -0.1113E+02E
 Epicentro: SANTA HELENA DEL OPON - SANTANDER                                  3
 ACTION:UPD 12-07-13 16:11 OP:ep   STATUS:               ID:20111121145349 L   I
 2011-11-21-1440-00M.COL___179                                                 6
 STAT SP IPHASW D HRMM SECON CODA AMPLIT PERI AZIMU VELO AIN AR TRES W  DIS CAZ7
 BAR2 SZ EP   1   1454  6.70                             152    0.33 7 53.2  64 
 BAR2 SZ ES   1   1454 19.63                             152    0.24 7 53.2  64 
 BAR2 SZ I        1454 21.03        38.1 0.24                          53.2  64 
 RUS  HZ EP   1   1454  8.52                             142    0.03 7 79.7 133 
 RUS  HN ES   1   1454 22.90                             142   -0.25 7 79.7 133 
 RUS  HZ I        1454 26.10         3.2 0.28                          79.7 133 
 BRR  HZ EP   1   1454  7.62                             141   -0.29 7 81.2 352 
 BRR  HZ I        1454  8.13        12.8 0.15                          81.2 352 
 PAM  SZ EP   1   1454 14.77                             123    0.22 7  147  44 
 PAM  SN ES   2   1454 33.31                             123   -0.63 5  147  44 
 PAM  SZ I        1454 40.33         1.8 0.72                           147  44 
                                                                                
