 2016  221 1203 28.6 L   6.817 -73.150145.4  RSN 14 0.4 2.1LRSN                1
 GAP=135        1.01       2.6     3.6  4.8 -0.2432E+01  0.4960E+01 -0.5402E+00E
 Epicentro: LOS SANTOS - SANTANDER                                             3
 ACTION:UPD 16-03-04 21:28 OP:rebc STATUS:               ID:20160221120328 L   I
 OLDACT:REG 16-02-21 20:38 OP:ak   STATUS:               ID:20160221115750     3
 2016-02-21-1157-50M.COL___312                                                 6
 STAT SP IPHASW D HRMM SECON CODA AMPLIT PERI AZIMU VELO AIN AR TRES W  DIS CAZ7
 BAR2 EZ EP       12 3 48.36                             170    0.1410 25.1 188 
 BAR2 EZ ES       12 4  3.39                             170   -0.1410 25.1 188 
 BAR2 EZ I        12 4  4.42        34.9 0.24            170           25.1 188 
 BRR  HZ EP       12 3 50.00                             153    0.3710 69.9 297 
 BRR  HN ES       12 4  6.85                             153    0.8010 69.9 297 
 BRR  HZ I        12 4 10.97        18.4 0.21            151           69.9 297 
 PAM  EZ EP       12 3 51.10                             151    0.3910 76.3  41 
 PAM  EN ES       12 4  8.06                             151    0.1010 76.3  41 
 PAM  EZ I        12 4 10.88        10.5 0.34            154           76.3  41 
 RUS  HZ EP       12 3 52.25                             143   -0.2010  102 176 
 RUS  HN ES       12 4 10.83                             143   -0.2210  102 176 
 RUS  HZ I        12 4 13.75        10.5 0.32            147            102 176 
 PTB  HZ EP       12 3 54.72                             132   -0.80 9  148 258 
 PTB  HN ES       12 4 15.87                             132   -0.66 9  148 258 
 PTB  HZ I        12 4 17.91        15.2 0.09            132            148 258 
 OCA  HZ EP       12 3 57.22                             130    0.52 9  158 353 
 OCA  HN ES       12 4 18.32                             130   -0.30 9  158 353 
 OCA  HZ I        12 4 27.12        21.6 0.60            131            158 353 
 SPBC HZ EP       12 3 57.07                             129   -0.10 9  164 218 
 SPBC HN ES       12 4 19.36                             129   -0.11 9  164 218 
 SPBC HZ I        12 4 24.24        20.8 0.14            131            164 218 
 ZAR  HZ EP       12 4  0.91                             122    0.01 9  203 292 
 ZAR  HN ES       12 4 25.55                             122   -0.55 9  203 292 
 ZAR  HZ I        12 4 32.48        15.2 0.32            123            203 292 
 NOR  HZ EP       12 4  4.17                             118   -0.21 8  235 234 
 NOR  HE ES       12 4 32.16                             118   -0.13 8  235 234 
 NOR  HZ I        12 4 37.22         8.5 0.16            120            235 234 
 CHI  HZ EP       12 4  6.21                             117   -0.24 8  250 195 
 CHI  HN ES       12 4 35.97                             117   -0.01 8  250 195 
 CHI  HZ I        12 4 40.87         8.2 0.38            119            250 195 
 HEL  HZ EP       12 4  9.67                             115    0.88 8  272 255 
 HEL  HN ES       12 4 40.59                             115    0.45 8  272 255 
 HEL  HZ I        12 4 46.41         6.3 0.36            116            272 255 
 URE  HZ EP       12 4  9.43                             114   -0.09 7  283 292 
 URE  HE ES   4   12 4 39.60                             114   -1.84 0  283 292 
 URE  HZ I        12 4 50.46        13.4 0.18            115            283 292 
 GUY2CHZ EP       12 4 12.60                             112    0.34 7  302 234 
 GUY2CHN ES       12 4 46.93                             112    0.61 7  302 234 
 GUY2CHZ I        12 4 54.64         5.6 0.56                           302 234 
 LL6C HZ EP       12 4 13.69                             110   -0.38 7  323 358 
 LL6C HN ES       12 4 49.00                             110   -0.54 7  323 358 
                                                                                
