 2010  121 1000 58.2 L   6.780 -73.111143.5  RSN 10 0.3 2.4LRSN                1
 GAP=186        0.65       2.5     5.1  4.7 -0.1992E+01  0.1042E+02  0.1100E+01E
 Epicentro: LOS SANTOS - SANTANDER                                             3
 ACTION:UP  10-08-24 09:45 OP:vdl  STATUS:               ID:20100121100058 L   I
 2010-01-21-1000-48S.COL___095                                                 6
 STAT SP IPHASW D HRMM SECON CODA AMPLIT PERI AZIMU VELO SNR AR TRES W  DIS CAZ7
 BAR2 SZ IP       10 1 17.67                             171     0.110   22 201 
 BAR2 SZ ES   1   10 1 32.29                             171    -0.4 7   22 201 
 GIR2 SZ IP       10 1 17.77                             166     0.010   34 345 
 GIR2 SZ ES   1   10 1 33.36                             166     0.4 7   34 345 
 RUS  BZ IP       10 1 21.60                             144     0.010   98 178 
 RUS  BN ES   1   10 1 39.99                             144     0.2 7   98 178 
 RUS  BZ I        10 1 41.44        31.8 0.31                            98 178 
 OCA  SZ IP       10 1 26.29                             129    -0.3 9  163 352 
 OCA  SZ I        10 1 27.78        80.7 0.06                           163 352 
 OCA  SZ ES   1   10 1 48.67                             129    -0.1 7  163 352 
 CHI  HZ IP       10 1 35.85                             117     0.1 8  248 196 
 CHI  HE ES       10 2  4.77                             117    -0.2 8  248 196 
 CHI  HZ I        10 2 11.20         7.8 0.38                           248 196 
 HEL  HZ EP   2   10 1 39.37                             114     0.7 4  275 256 
 HEL  HN ES   1   10 2  9.82                             114    -0.4 6  275 256 
 HEL  HZ I        10 2 16.51        13.3 0.48                           275 256 
 RREF BE ES   1   10 2 20.69                             110     0.2 5  323 230 
 RREF BZ I        10 2 25.68        11.2 0.31                           323 230 
 DBB  SZ IP       10 1 46.66                             109     0.6 7  343 275 
 TOL  SZ EP   1   10 1 46.52                             109     0.0 5  345 225 
 PRA  HZ IP       10 1 51.42                             106    -0.3 6  392 210 
 PRA  HN ES   2   10 2 32.74                             106    -0.6 3  392 210 
 PRA  HZ I        10 2 40.20        12.3 0.37                           392 210 
                                                                                
