 2014  621 1646 57.2 L   7.153 -73.279119.6  RSN  6 0.6 1.9LRSN                1
 GAP=172        1.42       5.8     7.5 12.5  0.7962E+01  0.2603E+02  0.1809E+01E
 Epicentro: LEBRIJA - SANTANDER                                                3
 ACTION:UPD 14-07-01 22:55 OP:nd   STATUS:               ID:20140621164657 L   I
 OLDACT:UP  14-06-24 10:41 OP:MHER STATUS:               ID:20140621164657 L   3
 OLDACT:UP  14-06-21 22:31 OP:mh   STATUS:               ID:20140621163820     3
 OLDACT:REG 14-06-21 20:53 OP:mh   STATUS:               ID:20140621163820     3
 2014-06-21-1638-20M.COL___265                                                 6
 STAT SP IPHASW D HRMM SECON CODA AMPLIT PERI AZIMU VELO AIN AR TRES W  DIS CAZ7
 BRR  HZ EP     C 1647 14.88                             157    0.6010 48.1 264 
 BRR  HN ES   1   1647 27.45                             157   -0.13 7 48.1 264 
 BRR  HZ I        1647 29.14        32.2 0.04            153           48.1 264 
 BAR2 SZ EP   1   1647 16.14                             151    0.71 7 62.9 170 
 BAR2 SZ ES       1647 30.00                             151    0.3710 62.9 170 
 BAR2 SZ I        1647 31.99        33.9 0.27            152           62.9 170 
 OCA  HN ES       1647 36.67                             132   -0.6310  120 358 
 RUS  HZ EP   1   1647 21.48                             127   -0.68 7  141 171 
 RUS  HN ES   1   1647 41.67                             127    0.05 7  141 171 
 PTB  HZ EP       1647 21.51                             126   -0.59 9  147 243 
 PTB  HN ES       1647 40.59                             126   -0.91 9  147 243 
 PTB  HZ I        1647 44.47         8.8 0.12            125            147 243 
 ZAR  HZ EP   1   1647 25.95                             120    0.61 7  178 282 
 ZAR  HN ES       1647 48.08                             120    0.81 9  178 282 
 ZAR  HZ I        1647 54.79         6.9 0.29            120            178 282 
                                                                                
