 2012  621 1029 52.4 L   6.775 -73.139143.2  RSN  9 0.5 2.0LRSN                1
 GAP=139        1.02       5.4     5.8  8.8  0.4821E+01  0.1877E+02  0.1104E+02E
 Epicentro: LOS SANTOS - SANTANDER                                             3
 ACTION:UPD 12-08-06 17:51 OP:ep   STATUS:               ID:20120621102952 L   I
 2012-06-21-1029-35M.COL___179                                                 6
 STAT SP IPHASW D HRMM SECON CODA AMPLIT PERI AZIMU VELO AIN AR TRES W  DIS CAZ7
 BAR2 SZ IP       1030 11.73                             171    0.1010 20.8 193 
 BAR2 SZ I        1030 11.90        25.9 0.24                          20.8 193 
 BAR2 SZ ES   1   1030 26.48                             171   -0.19 7 20.8 193 
 BRR  HZ EP       1030 13.63                             151    0.2810 73.2 300 
 BRR  HZ I        1030 14.25        52.6 0.12                          73.2 300 
 BRR  HN ES   1   1030 30.60                             151    0.88 7 73.2 300 
 PAM  SN ES   1   1030 30.84                             150   -0.77 7 79.1  38 
 RUS  HZ EP   1   1030 15.60                             144   -0.06 7 97.8 176 
 RUS  HE ES   1   1030 34.10                             144    0.27 7 97.8 176 
 RUS  HZ I        1030 34.92        10.5 0.21                          97.8 176 
 PTB  HZ EP   1   1030 18.15                             131   -0.99 7  148 260 
 PTB  HN ES   1   1030 39.50                             131   -0.53 7  148 260 
 PTB  HZ I        1030 43.27         7.6 0.11                           148 260 
 ZAR  HZ EP   1   1030 24.87                             122    0.05 6  206 293 
 ZAR  HN ES   1   1030 50.71                             122    0.57 6  206 293 
 ZAR  HZ I        1030 56.08        11.1 0.59                           206 293 
 NOR  SE ES   2   1030 55.40                             118   -0.11 4  234 235 
 CHI  HZ EP   1   1030 30.55                             117    0.90 6  246 196 
 CHI  HN ES   1   1030 58.65                             117   -0.08 6  246 196 
 CHI  HZ I        1031  2.18         3.1 0.40                           246 196 
 HEL  HN ES   1   1031  3.01                             114   -0.71 6  272 256 
 HEL  HZ I        1031 10.80         5.8 0.46                           272 256 
                                                                                
