 2013  121 1330  7.6 L   6.791 -73.168144.4  RSN  9 0.4 2.0LRSN                1
 GAP=134        0.71       3.1     3.9  5.9 -0.5990E+00  0.5361E+01  0.4457E+01E
 Epicentro: LOS SANTOS - SANTANDER                                             3
 ACTION:UPD 13-02-15 09:15 OP:ep   STATUS:               ID:20130121133007 L   I
 2013-01-21-1330-00M.COL___240                                                 6
 STAT SP IPHASW D HRMM SECON CODA AMPLIT PERI AZIMU VELO AIN AR TRES W  DIS CAZ7
 BAR2 SZ EP   1   1330 26.83                             171   -0.21 7 22.1 184 
 BAR2 SZ ES   1   1330 42.07                             171   -0.14 7 22.1 184 
 BAR2 SZ I        1330 45.70        26.1 0.18            167           22.1 184 
 BRR  HZ EP   1   1330 28.73                             153    0.22 7 69.6 300 
 BRR  HN ES   1   1330 45.49                             153    0.67 7 69.6 300 
 BRR  HZ I        1330 45.99        25.9 0.12            151           69.6 300 
 PAM  SZ EP   1   1330 29.68                             150   -0.13 7 79.7  40 
 PAM  SN ES   1   1330 46.70                             150   -0.43 7 79.7  40 
 PAM  SZ I        1330 48.63        14.9 0.52            156           79.7  40 
 RUS  HZ EP   1   1330 31.19                             144    0.03 7 99.8 175 
 RUS  HN ES   1   1330 49.49                             144   -0.05 7 99.8 175 
 RUS  HZ I        1330 50.84         5.4 0.26            143           99.8 175 
 PTB  HZ EP   1   1330 33.65                             132   -0.58 7  145 259 
 PTB  HN ES   1   1330 54.71                             132   -0.28 7  145 259 
 PTB  HZ I        1330 59.83        16.6 0.44            131            145 259 
 OCA  HE ES   1   1330 58.47                             129    0.55 7  161 354 
 ZAR  HE ES   1   1331  4.60                             122   -0.25 6  202 293 
 ZAR  HZ I        1331 10.93        20.0 0.34            123            202 293 
 NOR  HZ EP   1   1330 42.91                             118   -0.07 6  232 234 
 NOR  HN ES   1   1331 10.39                             118   -0.19 6  232 234 
 NOR  HZ I        1331 17.95        10.4 0.14            118            232 234 
 CHI  HZ EP   1   1330 45.55                             117    0.49 6  247 195 
 CHI  HN ES   1   1331 14.91                             117    0.64 6  247 195 
 CHI  HZ I        1331 22.41         5.6 0.38            117            247 195 
                                                                                
