 2010 1021 1015 30.8 L   7.363 -73.302120.9  RSN  9 0.3 2.3LRSN                1
 GAP=117        0.60       3.3     5.5  6.0 -0.4853E+01  0.1058E+02  0.1885E+01E
 Epicentro: EL PLAYON - SANTANDER                                              3
 ACTION:UP  11-02-18 11:11 OP:tino STATUS:               ID:20101021101530 L   I
 2010-10-21-1011-54S.COL___128                                                 6
 STAT SP IPHASW D HRMM SECON CODA AMPLIT PERI AZIMU VELO SNR AR TRES W  DIS CAZ7
 GIR2 SZ EP   1   1015 47.58                             163    -0.1 7   34 159 
 GIR2 SZ ES   2   1016  0.55                             163    -0.2 5   34 159 
 BTL  SZ EP   1   1015 48.70                             156     0.2 7   49 176 
 BRR  HZ IP       1015 48.31                             155     0.010   53 238 
 BRR  HE ES   2   1016  2.34                             155     0.4 5   53 238 
 BRR  HZ I        1016  2.97       176.5 0.19                            53 238 
 GRA  SZ EP   1   1015 50.62                             144     0.4 7   80  44 
 GRA  SZ ES   2   1016  5.46                             144     0.2 5   80  44 
 GRA  SZ I        1016  6.66        23.0 0.29                            80  44 
 BAR2 SZ EP   1   1015 50.82                             142     0.0 7   86 171 
 BAR2 SZ ES   2   1016  5.96                             142    -0.4 5   86 171 
 BAR2 SZ I        1016  7.47       102.8 0.26                            86 171 
 OCA  SZ EP   1   1015 51.07                             139    -0.4 7   97 359 
 OCA  SZ ES   2   1016  7.30                             139    -0.3 5   97 359 
 OCA  SZ I        1016 13.48        23.8 0.13                            97 359 
 RUS  HZ EP   1   1015 58.10                             123    -0.1 7  164 172 
 RUS  HE ES   2   1016 19.22                             123    -0.4 5  164 172 
 NOR  SZ EP   1   1016  9.06                             110     0.5 6  264 221 
 NOR  SN ES   2   1016 38.42                             110     0.4 4  264 221 
 HEL  HZ EP   1   1016 10.15                             109    -0.5 6  278 242 
 HEL  HZ I        1016 52.85         5.2 0.29                           278 242 
                                                                                
