 2015  421 1242 30.8 L   6.390 -73.658103.8  RSN 12 0.4 1.9LRSN                1
 GAP= 71        0.92       2.5     3.4  6.0 -0.5988E+00  0.7427E+01  0.2508E+00E
 Epicentro: SANTA HELENA DEL OPON - SANTANDER                                  3
 ACTION:UPD 15-06-03 16:56 OP:cam  STATUS:               ID:20150421124230 L   I
 OLDACT:DUP 15-04-22 00:30 OP:spq  STATUS:               ID:20150421123751d    3
 OLDACT:UP  15-04-22 00:26 OP:spq  STATUS:               ID:20150421123750     3
 OLDACT:REG 15-04-21 20:14 OP:spq  STATUS:               ID:20150421123750     3
 2015-04-21-1237-50M.COL___268                                                 6
 STAT SP IPHASW D HRMM SECON CODA AMPLIT PERI AZIMU VELO AIN AR TRES W  DIS CAZ7
 BAR2 EZ EP       1242 47.11                             149    0.0910 57.2  67 
 BAR2 EZ ES   1   1242 59.92                             149    0.27 7 57.2  67 
 BRR  HZ EP       1242 48.09                             139   -0.2010 79.6 356 
 BRR  HE ES       1243  2.40                             139    0.5010 79.6 356 
 BRR  HZ I        1243 10.63        14.6 0.16            142           79.6 356 
 RUS  HZ EP   1   1242 49.11                             138   -0.22 7 84.1 131 
 RUS  HN ES   1   1243  3.57                             138   -0.19 7 84.1 131 
 RUS  HZ I        1243  5.00         8.1 0.50            143           84.1 131 
 PTB  HZ EP       1242 48.12                             136   -1.0410 89.9 281 
 PTB  HE ES   1   1243  2.76                             136   -0.69 7 89.9 281 
 PTB  HZ I        1243  4.86        25.8 0.26            138           89.9 281 
 SPBC HZ EP   1   1242 49.64                             134    0.06 7 93.6 209 
 SPBC HN ES       1243  4.22                             134    0.0210 93.6 209 
 SPBC HZ I        1243  6.30        28.6 0.32            139           93.6 209 
 NOR  HZ EP       1242 56.49                             118    0.13 9  162 236 
 NOR  HE ES       1243 16.33                             118    0.06 9  162 236 
 NOR  HZ I        1243 18.85        19.9 0.12            121            162 236 
 ZAR  HZ EP       1242 58.12                             115   -0.14 9  180 313 
 ZAR  HE ES       1243 19.97                             115    0.31 9  180 313 
 ZAR  HZ I        1243 24.23        25.2 0.34            118            180 313 
 CHI  HZ EP   1   1243  0.09                             113   -0.33 6  195 182 
 CHI  HN ES   1   1243 23.81                             113    0.32 6  195 182 
 CHI  HZ I        1243 30.04         3.5 0.28            117            195 182 
 HEL  HZ EP       1243  2.10                             111    0.22 8  208 264 
 HEL  HN ES   4   1243 26.73                             111    0.64 0  208 264 
 HEL  HZ I        1243 29.00         9.1 0.30            114            208 264 
 GUY2CHZ EP       1243  4.88                             109    0.51 8  229 236 
 GUY2CHE ES   1   1243 31.25                             109    0.72 6  229 236 
 GUY2CHZ I        1243 35.25         6.7 0.40                           229 236 
 SML  HZ EP   1   1243  8.51                             105   -0.14 6  271 350 
 SML  HN ES   1   1243 38.31                             105    0.16 6  271 350 
 SML  HZ I        1243 42.87        11.8 0.10            108            271 350 
 MON  HZ EP   4   1243 16.00                             100   -1.49 0  345 320 
 MON  HN ES   4   1243 52.58                             100   -1.31 0  345 320 
 MON  HZ I        1243 55.45         1.9 0.14            103            345 320 
                                                                                
