 2013 1021 1932 13.4 L   6.780 -73.132149.4  RSN  8 0.4 1.9LRSN                1
 GAP=139        0.87       4.0     3.9  6.0 -0.3003E+01  0.4237E+01  0.3037E+01E
 Epicentro: LOS SANTOS - SANTANDER                                             3
 ACTION:UPD 13-11-25 09:22 OP:ep   STATUS:               ID:20131021193213 L   I
 OLDACT:UP  13-10-21 17:16 OP:cam  STATUS:               ID:20131021192849     3
 OLDACT:REG 13-10-21 16:08 OP:cam  STATUS:               ID:20131021192849     3
 2013-10-21-1928-49M.COL___209                                                 6
 STAT SP IPHASW D HRMM SECON CODA AMPLIT PERI AZIMU VELO AIN AR TRES W  DIS CAZ7
 BAR2 SZ EP       1932 33.24                             171   -0.1610 21.4 195 
 BAR2 SZ ES       1932 48.67                             171   -0.3610 21.4 195 
 BAR2 SZ I        1932 50.10        20.9 0.42            170           21.4 195 
 BRR  HZ EP   1   1932 35.26                             152    0.22 7 73.6 300 
 BRR  HN ES       1932 52.74                             152    0.7910 73.6 300 
 PAM  SZ EP       1932 36.04                             151    0.0210 78.2  38 
 PAM  SN ES       1932 53.40                             151   -0.2910 78.2  38 
 PAM  SZ I        1932 55.35        13.0 0.56            155           78.2  38 
 RUS  HZ EP       1932 37.24                             145   -0.0710 98.2 177 
 RUS  HE ES       1932 56.35                             145    0.3610 98.2 177 
 PTB  HZ EP   1   1932 40.30                             133   -0.42 7  149 260 
 PTB  HN ES       1933  1.54                             133   -0.52 9  149 260 
 PTB  HZ I        1933  8.52         8.4 0.42            132            149 260 
 SPBC HZ EP   1   1932 42.38                             130    0.31 7  162 220 
 SPBC HN ES       1933  4.63                             130    0.17 9  162 220 
 SPBC HZ I        1933  9.29        12.1 0.22            130            162 220 
 ZAR  HN ES   1   1933 11.97                             123    0.02 6  206 293 
 NOR  HZ EP   1   1932 49.62                             119    0.32 6  235 235 
 NOR  HE ES   1   1933 16.91                             119   -0.41 6  235 235 
 NOR  HZ I        1933 19.51         4.7 0.22            120            235 235 
 CHI  HZ EP   4   1932 51.45                             118    0.37 0  247 196 
 GUY2CHZ EP   4   1932 59.14                             113    2.01 0  301 235 
                                                                                
