 2011  321 1041 35.6 L   6.780 -73.124144.9  RSN  8 0.3 2.2LRSN                1
 GAP=185        0.58       2.7     4.5  5.2 -0.2978E+01  0.1081E+02 -0.4060E-01E
 Epicentro: LOS SANTOS - SANTANDER                                             3
 ACTION:UP  11-06-16 14:35 OP:jfem STATUS:               ID:20110321104135 L   I
 2011-03-21-1038-30S.COL___135                                                 6
 STAT SP IPHASW D HRMM SECON CODA AMPLIT PERI AZIMU VELO SNR AR TRES W  DIS CAZ7
 BAR2 SZ EP       1041 55.16                             171     0.010   22 198 
 BAR2 SZ ES   1   1042 10.27                             171    -0.1 7   22 198 
 BAR2 SZ I        1042 12.83        41.3 0.23                            22 198 
 RUS  HZ EP   1   1041 59.04                             144    -0.1 7   98 177 
 RUS  HN ES   1   1042 17.51                             144     0.1 7   98 177 
 RUS  HZ I        1042 18.77        17.2 0.40                            98 177 
 OCA  SZ EP   1   1042  4.14                             129     0.0 7  163 352 
 OCA  SZ ES   1   1042 26.40                             129     0.1 7  163 352 
 OCA  SZ I        1042 29.51        20.6 0.24                           163 352 
 NOR  SZ EP   1   1042 11.09                             118    -0.3 6  236 235 
 NOR  SE ES   1   1042 39.02                             118    -0.3 6  236 235 
 CHI  HZ EP   1   1042 13.06                             117    -0.1 6  247 196 
 CHI  HE ES   1   1042 42.53                             117     0.2 6  247 196 
 CHI  HZ I        1042 48.38         5.2 0.58                           247 196 
 HEL  HZ EP   1   1042 15.93                             114    -0.1 6  274 256 
 HEL  HN ES   1   1042 48.04                             114     0.5 6  274 256 
 HEL  HZ I        1042 54.09        10.6 0.36                           274 256 
 RREF HZ EP   1   1042 22.04                             111     0.3 5  322 230 
 RREF HN ES   1   1042 57.10                             111    -0.7 5  322 230 
 RREF HZ I        1043  4.15         7.7 0.30                           322 230 
 PRA  HZ EP   1   1042 28.79                             106    -0.2 4  391 210 
 PRA  HN ES   1   1043 11.58                             106     0.9 4  391 210 
                                                                                
