 2012 1221 1014 59.3 L   6.799 -73.146141.7  RSN  9 0.5 1.7LRSN                1
 GAP=137        0.92       4.1     5.3  8.0  0.5299E+00  0.7094E+01  0.6139E+01E
 Epicentro: LOS SANTOS - SANTANDER                                             3
 ACTION:UPD 13-01-04 14:29 OP:ep   STATUS:               ID:20121221101459 L   I
 2012-12-21-1010-00M.COL___243                                                 6
 STAT SP IPHASW D HRMM SECON CODA AMPLIT PERI AZIMU VELO AIN AR TRES W  DIS CAZ7
 BAR2 SZ EP   1   1015 18.61                             170    0.12 7 23.2 190 
 BAR2 SZ ES   1   1015 32.59                             170   -0.83 7 23.2 190 
 BAR2 SZ I        1015 34.84        20.8 0.22                          23.2 190 
 GIR2 SZ EP   1   1015 18.55                             167    0.00 7 31.4 350 
 BRR  HZ EP   1   1015 20.44                             152    0.37 7 71.2 299 
 BRR  HN ES   1   1015 37.32                             152    1.10 7 71.2 299 
 BRR  HZ I        1015 38.78         8.0 0.37                          71.2 299 
 PAM  SZ EP   1   1015 21.42                             150    0.27 7 77.5  39 
 PAM  SN ES   1   1015 38.27                             150    0.12 7 77.5  39 
 PAM  SZ I        1015 40.74         8.1 0.66                          77.5  39 
 RUS  HZ EP   1   1015 22.58                             143   -0.12 7  100 176 
 RUS  HN ES   1   1015 40.83                             143   -0.08 7  100 176 
 RUS  HZ I        1015 42.55         6.9 0.28                           100 176 
 PTB  HZ EP   1   1015 25.32                             131   -0.66 7  148 259 
 PTB  HE ES   1   1015 46.56                             131   -0.20 7  148 259 
 PTB  HZ I        1015 49.58         5.5 0.14                           148 259 
 OCA  HN ES   1   1015 48.69                             129   -0.52 7  160 353 
 OCA  HZ I        1015 53.25         6.2 0.32                           160 353 
 ZAR  HN ES   1   1015 56.45                             121   -0.19 6  204 292 
 ZAR  HZ I        1016  3.08         5.4 0.18                           204 292 
 CHI  HZ EP   1   1015 36.91                             116    0.10 6  248 195 
 CHI  HN ES   1   1016  6.53                             116    0.50 6  248 195 
 CHI  HZ I        1016 13.24         1.8 0.46                           248 195 
                                                                                
