 2014  521 1016 22.8 L   6.768 -73.136152.9  RSN 10 0.4 1.5LRSN                1
 GAP=139        0.82       2.8     4.2  5.8 -0.3270E+01  0.6770E+01  0.4944E-01E
 Epicentro: LOS SANTOS - SANTANDER                                             3
 ACTION:UPD 15-03-16 16:59 OP:nd   STATUS:               ID:20140521101622 L   I
 OLDACT:DUP 14-05-21 22:26 OP:spq  STATUS:               ID:20140521100819d    3
 OLDACT:UP  14-05-21 22:21 OP:spq  STATUS:               ID:20140521100818d    3
 OLDACT:DUP 14-05-21 22:07 OP:spq  STATUS:               ID:20140521100818d    3
 2014-05-21-1008-17M.COL___257                                                 6
 STAT SP IPHASW D HRMM SECON CODA AMPLIT PERI AZIMU VELO AIN AR TRES W  DIS CAZ7
 BRR  HZ EP       1016 45.33                             153    0.4310 73.9 300 
 BRR  HN ES       1017  2.72                             153    0.6010 73.9 300 
 PAM  SE ES       1017  3.68                             151   -0.2710 79.4  37 
 PAM  SZ I        1017 30.04         4.2 0.54            154           79.4  37 
 RUS  HZ EP   1   1016 47.13                             146    0.08 7 97.0 177 
 RUS  HN ES   1   1017  5.53                             146   -0.40 7 97.0 177 
 RUS  HZ I        1017 10.53         3.0 0.84            153           97.0 177 
 PTB  HZ EP       1016 50.19                             133   -0.24 9  148 260 
 PTB  HN ES     D 1017 11.36                             133   -0.60 9  148 260 
 PTB  HZ I        1017 17.14         3.3 0.21            145            148 260 
 SPBC HZ EP       1016 51.99                             131    0.29 9  161 220 
 SPBC HN ES       1017 14.37                             131    0.15 9  161 220 
 SPBC HZ I        1017 20.02         3.9 0.14            142            161 220 
 OCA  HE ES   1   1017 14.61                             131   -0.21 7  164 353 
 OCA  HZ I        1017 15.98         4.0 0.50            139            164 353 
 ZAR  HZ EP   1   1016 55.91                             124   -0.08 6  206 293 
 ZAR  HN ES   1   1017 21.73                             124   -0.13 6  206 293 
 ZAR  HZ I        1017 27.64         2.4 0.07            134            206 293 
 NOR  HN ES       1017 27.39                             120    0.41 8  234 235 
 NOR  HZ I        1017 31.04         3.0 0.24            130            234 235 
 SML  HZ EP       1017  0.42                             118    0.16 8  247 335 
 SML  HE ES       1017 29.27                             118   -0.18 8  247 335 
 SML  HZ I        1017 31.66         3.7 0.24            127            247 335 
 GUY2CHZ EP   1   1017  6.10                             114   -0.56 5  300 235 
 GUY2CHN ES   1   1017 40.36                             114   -0.48 5  300 235 
 GUY2CHZ I        1017 49.86         1.8 0.38                           300 235 
                                                                                
