 2016  321 1036  0.2 L   6.798 -73.135142.1  RSN 16 0.4 2.2LRSN                1
 GAP=138        0.87       3.3     3.2  5.4 -0.1809E+01  0.5786E+01  0.2862E+01E
 Epicentro: LOS SANTOS - SANTANDER                                             3
 ACTION:UPD 16-05-13 21:26 OP:cam  STATUS:               ID:20160321103559 L   I
 OLDACT:UP  16-03-29 11:52 OP:dnl  STATUS:               ID:20160321103559 L   3
 OLDACT:REG 16-03-21 20:51 OP:dnl  STATUS:               ID:20160321102743     3
 2016-03-21-1027-43M.COL___283                                                 6
 STAT SP IPHASW D HRMM SECON CODA AMPLIT PERI AZIMU VELO AIN AR TRES W  DIS CAZ7
 BAR2 EZ IP     C 1036 19.38                             170    0.0310 23.3 193 
 BAR2 EZ ES       1036 34.18                             170   -0.1410 23.3 193 
 BAR2 EZ I        1036 35.37        46.6 0.13            170           23.3 193 
 PAM  EZ EP       1036 22.23                             150    0.2710 76.8  39 
 PAM  EN ES       1036 39.15                             150    0.2010 76.8  39 
 PAM  EZ I        1036 41.63        23.1 0.29            145           76.8  39 
 RUS  HZ EP       1036 23.38                             143   -0.1510  100 177 
 RUS  HN ES       1036 42.05                             143    0.2910  100 177 
 RUS  HZ I        1036 42.83        14.0 0.24            140            100 177 
 PTB  HZ EP       1036 26.17                             131   -0.76 9  149 259 
 PTB  HN ES       1036 46.83                             131   -0.98 9  149 259 
 PTB  HZ I        1036 54.48        14.9 0.20            124            149 259 
 OCA  HZ EP   3   1036 27.61                             129   -0.62 2  161 353 
 OCA  HN ES   2   1036 50.12                             129    0.00 5  161 353 
 OCA  HZ I        1036 52.90        49.9 0.16            122            161 353 
 SPBC HZ EP       1036 28.35                             128   -0.08 9  164 219 
 SPBC HE ES       1036 50.52                             128    0.04 9  164 219 
 SPBC HZ I        1036 52.59        24.8 0.10            123            164 219 
 ZAR  HZ EP   3   1036 32.49                             121   -0.00 2  205 292 
 ZAR  HE ES       1036 58.17                             121    0.46 8  205 292 
 ZAR  HZ I        1037  3.17        15.6 0.23            115            205 292 
 NOR  HZ EP   2   1036 35.73                             117   -0.04 4  235 235 
 NOR  HN ES       1037  3.44                             117   -0.10 8  235 235 
 NOR  HZ I        1037  5.07        14.2 0.16            112            235 235 
 CHI  HZ EP       1036 37.65                             116   -0.02 8  249 195 
 CHI  HN ES   2   1037  6.72                             116   -0.20 4  249 195 
 CHI  HZ I        1037 14.23         7.9 0.48            112            249 195 
 HEL  HZ EP   2   1036 40.99                             114    0.68 4  273 256 
 HEL  HN ES       1037 12.01                             114    0.39 8  273 256 
 HEL  HZ I        1037 18.44         7.4 0.30            109            273 256 
 URE  HZ EP   4   1036 39.58                             113   -1.61 0  285 292 
 URE  HZ I        1037 13.66        11.0 0.14            107            285 292 
 GUY2CHZ EP   2   1036 43.71                             111    0.02 4  302 235 
 GUY2CHN ES       1037 18.66                             111    1.01 7  302 235 
 GUY2CHZ I        1037 26.03        10.6 0.36                           302 235 
 MON  HZ EP   9   1036 46.96                             108   -2.19 0  355 308 
 MON  HN ES       1037 25.27                             108    0.10 6  355 308 
 MON  HZ I        1037 27.92         2.0 0.18            103            355 308 
 ORTC HZ EP       1036 54.12                             106    0.10 6  396 216 
 ORTC HN ES   4   1037 37.90                             106    1.88 0  396 216 
 ORTC HZ I        1037 43.86         6.5 0.24            102            396 216 
 PAL  HZ EP   2   1036 55.24                             105   -0.06 3  407 239 
 PAL  HN ES   4   1037 36.98                             105   -1.33 0  407 239 
 PAL  HZ I        1037 46.39         2.0 0.28            101            407 239 
 SJC  HZ EP   4   1036 53.63                             105   -2.08 0  410 327 
 SJC  HE ES   4   1037 34.85                             105   -4.18 0  410 327 
 SJC  HZ I        1037 39.33         6.0 0.48            101            410 327 
                                                                                
