 2010  121 1723 19.3 L   6.878 -73.414  2.9  RSN  8 0.4 2.3LRSN                1
 GAP=112        0.70       1.6     3.3  4.7 -0.1032E+01 -0.1332E+01 -0.1403E+01E
 Epicentro: SAN VICENTE DE CHUCURI - SANTANDER                                 3
 ACTION:UP  10-08-24 09:45 OP:vdl  STATUS:               ID:20100121172319 L   I
 2010-01-21-1719-50S.COL___089                                                 6
 STAT SP IPHASW D HRMM SECON CODA AMPLIT PERI AZIMU VELO SNR AR TRES W  DIS CAZ7
 BAR2 SZ IP       1723 26.39                              47     0.010   41 141 
 BAR2 SZ ES   1   1723 32.02                              47     0.0 7   41 141 
 RUS  HZ EP   1   1723 38.07                              47     0.1 7  115 161 
 RUS  HZ I        1723 57.51        21.6 0.24                           115 161 
 GUE  SZ IP       1723 37.94                              47    -0.310  118  27 
 GUE  SZ ES   1   1723 52.90                              47    -0.2 7  118  27 
 GRA  SZ IP       1723 40.01                              47     0.110  130  31 
 GRA  SZ ES       1723 56.03                              47     0.110  130  31 
 OCA  SZ EP   1   1723 43.25                              47     0.2 7  151   4 
 OCA  SZ ES   1   1724  1.84                              47     0.3 7  151   4 
 OCA  SZ I        1724  5.31        87.2 0.14                           151   4 
 HEL  HZ EP   2   1723 54.54                              37    -1.4 4  246 252 
 HEL  HZ I        1724 25.64        14.5 0.18                           246 252 
 RREF HZ IP       1724  4.07                              36     0.4 7  306 224 
 RREF HN ES   1   1724 38.13                              36    -0.2 5  306 224 
 RREF HZ I        1724 41.58        15.1 0.32                           306 224 
 TOL  SZ EP   2   1724  6.92                              36     0.6 3  330 220 
                                                                                
