 2017  721 1035 39.4 L   6.772 -73.098144.8  RSN  8 0.3 1.6LRSN                1
 GAP=214        0.62       3.7     3.6  4.0  0.6616E+01  0.3928E+01  0.3872E+01E
 Epicentro: LOS SANTOS - SANTANDER                                             3
 ACTION:UPD 17-08-30 15:35 OP:rebc STATUS:               ID:20170721103539 L   I
 OLDACT:REG 17-07-21 20:33 OP:lv   STATUS:               ID:20170721102736     3
 2017-07-21-1028-00M.COL___377                                                 6
 STAT SP IPHASW D HRMM SECON CODA AMPLIT PERI AZIMU VELO AIN AR TRES W  DIS CAZ7
 BAR2 EZ EP       1035 58.78                             171   -0.1110 21.9 205 
 BAR2 EZ ES       1036 14.12                             171    0.0310 21.9 205 
 BAR2 EZ I        1036 15.00        11.2 0.11            169           21.9 205 
 BRR  HZ EP       1036  0.70                             150   -0.1110 77.4 299 
 BRR  HN ES       1036 17.46                             150   -0.0510 77.4 299 
 BRR  HZ I        1036 20.95        10.5 0.06            148           77.4 299 
 RUS  HZ EP       1036  2.94                             145    0.1210 97.2 179 
 RUS  HN ES       1036 21.34                             145    0.2510 97.2 179 
 RUS  HZ I        1036 22.60         4.6 0.16            145           97.2 179 
 PTB  HZ EP       1036  6.82                             131    0.10 9  152 260 
 PTB  HN ES   4   1036 26.18                             131   -1.85 0  152 260 
 PTB  HZ I        1036 29.45         4.7 0.09            130            152 260 
 YPLC HZ EP       1036  8.95                             127    0.33 9  172 152 
 YPLC HN ES       1036 30.93                             127   -0.47 9  172 152 
 YPLC HZ I        1036 34.37         5.9 0.07            129            172 152 
 ZAR  HZ EP   4   1036 13.62                             121    1.20 0  210 292 
 ZAR  HN ES   4   1036 36.23                             121   -1.95 0  210 292 
 NOR  HZ EP       1036 15.74                             118    0.38 8  237 236 
 NOR  HN ES       1036 43.19                             118   -0.21 8  237 236 
 NOR  HZ I        1036 47.59         3.1 0.13            118            237 236 
 URE  HN ES   4   1036 50.92                             113   -2.73 0  290 292 
 URE  HZ I        1037  0.70         2.9 0.16            113            290 292 
 GUY2CHZ EP       1036 22.81                             112   -0.45 7  304 236 
 GUY2CHN ES   3   1036 58.10                             112    0.63 2  304 236 
 GUY2CHZ I        1037  5.01         1.9 0.29                           304 236 
                                                                                
