 2012  921 1256  4.2 L   6.750 -73.129143.1  RSN  7 0.4 1.8LRSN                1
 GAP=141        0.73       4.4     4.9  6.6  0.1488E+01  0.5123E+01  0.3684E+01E
 Epicentro: LOS SANTOS - SANTANDER                                             3
 ACTION:UPD 12-10-22 14:20 OP:ep   STATUS:               ID:20120921125604 L   I
 2012-09-21-1250-00S.MAN___224                                                 6
 STAT SP IPHASW D HRMM SECON CODA AMPLIT PERI AZIMU VELO AIN AR TRES W  DIS CAZ7
 BAR2 SZ EP       1256 23.79                             172    0.4010 18.4 199 
 BAR2 SZ ES       1256 38.67                             172    0.2910 18.4 199 
 BAR2 SZ I        1256 40.19        29.4 0.23                          18.4 199 
 BRR  HZ EP       1256 25.20                             151   -0.0910 75.6 302 
 BRR  HN ES   1   1256 42.16                             151    0.40 7 75.6 302 
 BRR  HZ I        1256 45.29        15.6 0.15                          75.6 302 
 PAM  SZ EP   2   1256 25.88                             149   -0.42 5 80.6  36 
 PAM  SZ I        1256 26.93        16.5 0.29                          80.6  36 
 PAM  SN ES   1   1256 43.19                             149   -0.37 7 80.6  36 
 RUS  HZ EP   1   1256 27.23                             145   -0.03 7 95.0 177 
 RUS  HZ I        1256 28.37         4.7 0.27                          95.0 177 
 RUS  HN ES   1   1256 44.70                             145   -0.57 7 95.0 177 
 PTB  HE ES   1   1256 51.37                             131   -0.56 7  149 261 
 ZAR  HE ES   2   1257  2.26                             121   -0.07 4  208 293 
 ZAR  HZ I        1257  8.36         4.9 0.27                           208 293 
 CHI  HZ EP   2   1256 41.55                             117    0.35 4  244 196 
 CHI  HN ES   2   1257 10.50                             117    0.42 4  244 196 
 CHI  HZ I        1257 14.95         2.6 0.39                           244 196 
                                                                                
