 2013 1021 1147 33.0 L   7.480 -73.138128.2  RSN  4 0.4 1.8LRSN                1
 GAP=270        0.93       5.0     9.1 10.0 -0.6003E+01 -0.1280E+02 -0.1447E+02E
 Epicentro: EL PLAYON - SANTANDER                                              3
 ACTION:UPD 13-11-25 09:22 OP:ep   STATUS:               ID:20131021114733 L   I
 OLDACT:UP  13-10-21 16:21 OP:cam  STATUS:               ID:20131021113849     3
 OLDACT:REG 13-10-21 15:38 OP:cam  STATUS:               ID:20131021113849     3
 2013-10-21-1138-49M.COL___212                                                 6
 STAT SP IPHASW D HRMM SECON CODA AMPLIT PERI AZIMU VELO AIN AR TRES W  DIS CAZ7
 BRR  HZ EP       1147 52.91                             148    0.3110 75.6 237 
 BRR  HN ES       1148  7.95                             148    0.1010 75.6 237 
 PTB  HZ EP   1   1148  1.51                             122   -0.25 7  179 235 
 PTB  HN ES       1148 23.51                             122   -0.66 9  179 235 
 PTB  HZ I        1148 26.74         5.0 0.32            120            179 235 
 SML  HZ EP       1148  1.85                             122    0.15 9  179 325 
 SML  HN ES       1148 23.58                             122   -0.47 9  179 325 
 SML  HZ I        1148 25.60        11.4 0.10            120            179 325 
 ZAR  HZ EP       1148  2.89                             120    0.00 9  190 271 
 ZAR  HN ES       1148 26.79                             120    0.62 9  190 271 
 ZAR  HZ I        1148 29.64         4.3 0.20            118            190 271 
                                                                                
