 2012  821 1553 47.4 L   6.781 -73.128141.7  RSN 11 0.4 2.5LRSN                1
 GAP= 73        0.80       3.4     3.2  5.6 -0.1017E+01  0.2651E+01  0.1979E+01E
 Epicentro: LOS SANTOS - SANTANDER                                             3
 ACTION:UPD 12-09-10 11:57 OP:ep   STATUS:               ID:20120821155347 L   I
 2012-08-21-1550-00M.COL___217                                                 6
 STAT SP IPHASW D HRMM SECON CODA AMPLIT PERI AZIMU VELO AIN AR TRES W  DIS CAZ7
 BAR2 SZ IP       1554  6.52                             171   -0.0310 21.7 196 
 BAR2 SZ I        1554  6.78       119.0 0.21                          21.7 196 
 BAR2 SZ ES   1   1554 21.14                             171   -0.32 7 21.7 196 
 BRR  HZ EP   1   1554  8.45                             151    0.14 7 74.0 299 
 BRR  HN ES   1   1554 25.22                             151    0.63 7 74.0 299 
 BRR  HZ I        1554 26.89        97.0 0.16                          74.0 299 
 PAM  SZ EP   1   1554  9.59                             150    0.34 7 77.8  37 
 PAM  SN ES   1   1554 26.13                             150   -0.13 7 77.8  37 
 PAM  SZ I        1554 28.76        80.6 0.47                          77.8  37 
 RUS  HZ EP   1   1554 10.48                             144   -0.15 7 98.4 177 
 RUS  HE ES   1   1554 28.69                             144   -0.03 7 98.4 177 
 RUS  HZ I        1554 30.16        29.2 0.38                          98.4 177 
 PTB  HZ EP   1   1554 13.40                             131   -0.83 7  149 260 
 PTB  HE ES   1   1554 35.42                             131    0.30 7  149 260 
 PTB  HZ I        1554 39.94        24.8 0.38                           149 260 
 TAM  HZ EP       1554 14.91                             130    0.34 9  153 104 
 TAM  HZ I        1554 15.05        21.4 0.18                           153 104 
 TAM  HE ES   2   1554 36.10                             130    0.37 5  153 104 
 OCA  HZ EP   1   1554 14.96                             128   -0.70 7  163 353 
 OCA  HN ES   2   1554 36.60                             128   -1.07 5  163 353 
 OCA  HZ I        1554 41.87        70.1 0.23                           163 353 
 ZAR  HZ EP   1   1554 20.38                             121    0.48 6  207 292 
 ZAR  HN ES   1   1554 45.50                             121    0.28 6  207 292 
 NOR  SZ EP   1   1554 22.82                             118   -0.16 6  235 235 
 NOR  SN ES   1   1554 50.22                             118   -0.49 6  235 235 
 NOR  SZ I        1554 57.89        16.6 0.19                           235 235 
 CHI  HN ES   1   1554 53.60                             116   -0.26 6  247 196 
 CHI  HZ I        1555  0.74        11.1 0.36                           247 196 
 GUY  SZ EP   1   1554 31.96                             111    0.78 5  304 236 
 GUY  SN ES   1   1555  5.29                             111   -0.01 5  304 236 
                                                                                
