 2010  921 1841 20.3 L   6.772 -73.061146.5  RSN  7 0.2 1.6LRSN                1
 GAP=168        0.67       4.8     9.4  8.2  0.1014E+02 -0.4219E+02 -0.1526E+02E
 Epicentro: LOS SANTOS - SANTANDER                                             3
 ACTION:UP  11-02-18 11:04 OP:tino STATUS:               ID:20100921184120 L   I
 2010-09-21-1839-16S.COL___122                                                 6
 STAT SP IPHASW D HRMM SECON CODA AMPLIT PERI AZIMU VELO SNR AR TRES W  DIS CAZ7
 BAR2 SZ EP       1841 39.92                             170    -0.110   24 214 
 BAR2 SZ ES   1   1841 55.23                             170    -0.2 7   24 214 
 BAR2 SZ I        1841 56.74         8.6 0.40                            24 214 
 BTL  SZ EP       1841 40.59                             169     0.410   28 305 
 GIR2 SZ EP   3   1841 39.71                             165    -0.5 2   37 337 
 BRR  HZ EP       1841 41.78                             150    -0.310   81 297 
 BRR  HZ I        1841 42.07        15.6 0.16                            81 297 
 BRR  HN ES   1   1841 59.32                             150     0.2 7   81 297 
 RUS  HZ EP       1841 43.97                             145     0.110   97 181 
 RUS  HE ES   2   1842  2.32                             145     0.0 5   97 181 
 RUS  HZ I        1842  3.51         3.5 0.32                            97 181 
 GUE  SZ EP       1841 45.16                             139    -0.110  118   7 
 GRA  SZ EP       1841 45.73                             137     0.110  126  13 
 GRA  SZ I        1842 10.24         6.5 0.62                           126  13 
                                                                                
