 2014 1221 1046 28.5 L   6.763 -73.128140.0  RSN 10 0.4 1.6LRSN                1
 GAP=140        1.05       3.4     4.2  6.1 -0.1862E+01  0.7656E+01 -0.1590E+01E
 Epicentro: LOS SANTOS - SANTANDER                                             3
 ACTION:UPD 15-02-10 17:06 OP:nd   STATUS:               ID:20141221104628 L   I
 OLDACT:DUP 14-12-21 22:44 OP:fm   STATUS:               ID:20141221103745d    3
 2014-12-21-1037-44M.COL___299                                                 6
 STAT SP IPHASW D HRMM SECON CODA AMPLIT PERI AZIMU VELO AIN AR TRES W  DIS CAZ7
 BAR2 EZ EP       1046 47.69                             172    0.3710 19.8 198 
 BAR2 EZ ES       1047  2.34                             172    0.3110 19.8 198 
 BAR2 EZ I        1047  3.54        10.9 0.14            170           19.8 198 
 BRR  HZ EP       1046 49.29                             150    0.0910 74.9 301 
 BRR  HE ES       1047  5.82                             150    0.4410 74.9 301 
 BRR  HZ I        1047  9.94         8.3 0.28            149           74.9 301 
 PAM  SZ EP       1046 50.59                             149    0.4110 79.5  37 
 PAM  SE ES       1047  6.79                             149   -0.3510 79.5  37 
 PAM  SZ I        1047  9.76         5.7 0.58            153           79.5  37 
 RUS  HZ EP       1046 51.51                             144    0.1810 96.3 177 
 RUS  HN ES       1047  8.59                             144   -0.5810 96.3 177 
 RUS  HZ I        1047 11.00         3.2 0.38            147           96.3 177 
 PTB  HZ EP       1046 55.24                             130    0.18 9  149 261 
 PTB  HN ES       1047 15.44                             130   -0.37 9  149 261 
 PTB  HZ I        1047 17.95         5.5 0.14            131            149 261 
 SPBC HZ EP       1046 56.61                             128    0.29 9  161 220 
 SPBC HN ES       1047 17.30                             128   -0.76 9  161 220 
 SPBC HZ I        1047 22.30         4.6 0.22            129            161 220 
 ZAR  HN ES       1047 26.63                             121    0.46 8  207 293 
 ZAR  HZ I        1047 34.37         3.9 0.32            122            207 293 
 NOR  HZ EP   1   1047  3.69                             117   -0.07 6  234 236 
 NOR  HE ES       1047 31.74                             117    0.43 8  234 236 
 NOR  HZ I        1047 37.32         2.1 0.22            119            234 236 
 SML  HZ EP       1047  4.70                             116   -0.56 8  248 335 
 SML  HE ES       1047 33.22                             116   -0.75 8  248 335 
 SML  HZ I        1047 35.64         4.9 0.30            117            248 335 
 HEL  HZ EP   1   1047  8.24                             113   -0.23 6  273 257 
                                                                                
