 2017  921 1829 25.7 L   6.778 -73.102140.4  RSN  6 0.3 1.5LRSN                1
 GAP=117        0.68       3.3     3.7  4.8  0.3448E+01  0.2815E+00  0.1965E+01E
 Epicentro: LOS SANTOS - SANTANDER                                             3
 ACTION:UPD 17-10-05 19:14 OP:rebc STATUS:               ID:20170921182925 L   I
 OLDACT:UP  17-09-21 22:23 OP:edw  STATUS:               ID:20170921182737     3
 OLDACT:UP  17-09-21 22:20 OP:edw  STATUS:               ID:20170921182737     3
 OLDACT:REG 17-09-21 20:52 OP:lv   STATUS:               ID:20170921182737     3
 2017-09-21-1828-00M.COL___443                                                 6
 STAT SP IPHASW D HRMM SECON CODA AMPLIT PERI AZIMU VELO AIN AR TRES W  DIS CAZ7
 BAR2 EZ EP       1829 44.34                             170   -0.2910 22.4 203 
 BAR2 EZ ES       1829 59.11                             170   -0.3110 22.4 203 
 BAR2 EZ I        1830  0.34        14.4 0.34            172           22.4 203 
 PAM  EZ EP       1829 47.29                             150    0.0410 76.4  36 
 PAM  EN ES       1830  4.05                             150   -0.0310 76.4  36 
 PAM  EZ I        1830  7.72         4.5 0.22            150           76.4  36 
 BRR  HZ EP       1829 46.55                             150   -0.0110 76.6 298 
 BRR  HN ES       1830  3.35                             150    0.5010 76.6 298 
 RUS  HZ EP       1829 48.55                             143   -0.1410 97.9 179 
 RUS  HN ES       1830  6.77                             143    0.1110 97.9 179 
 RUS  HZ I        1830  8.19         3.4 0.30            146           97.9 179 
 YPLC HZ EP       1829 54.98                             126    0.35 9  172 152 
 ZAR  HE ES       1830 23.58                             120   -0.23 8  209 292 
 ZAR  HZ I        1830 28.02         4.7 0.42            121            209 292 
                                                                                
