 2011  421 1840 59.1 L   6.805 -73.110155.3  RSN  5 0.5 1.4LRSN                1
 GAP=141        1.17       7.5     9.8 13.5 -0.2781E+02  0.2563E+02  0.2526E+02E
 Epicentro: LOS SANTOS - SANTANDER                                             3
 ACTION:UP  11-06-22 15:32 OP:REBC STATUS:               ID:20110421184059 L   I
 2011-04-21-1836-00S.COL___139                                                 6
 STAT SP IPHASW D HRMM SECON CODA AMPLIT PERI AZIMU VELO SNR AR TRES W  DIS CAZ7
 BRR  HZ EP   1   1841 21.01                             153    -0.5 7   74 297 
 PAM  SZ EP   1   1841 22.80                             153     0.6 7   74  37 
 PAM  SZ I        1841 23.29         3.5 0.15                            74  37 
 PAM  SN ES   1   1841 40.25                             153     0.1 7   74  37 
 BRR  HZ I        1841 23.16         9.9 0.46                            74 297 
 BRR  HN ES   1   1841 38.89                             153     0.0 7   74 297 
 RUS  HZ EP   1   1841 24.26                             145     0.4 7  101 178 
 RUS  HN ES   1   1841 42.67                             145    -0.5 7  101 178 
 RUS  HZ I        1841 44.50         5.2 0.35                           101 178 
 GRA  SZ ES   1   1841 45.23                             139    -0.1 7  124  16 
 GRA  SZ I        1841 46.81         5.3 0.26                           124  16 
 NOR  SZ EP   1   1841 34.91                             120    -0.9 6  238 235 
 NOR  SN ES   1   1842  5.29                             120     0.9 6  238 235 
 NOR  SZ I        1842  9.36         0.5 0.21                           238 235 
                                                                                
