 2015  621 1114 17.0 L   5.960 -73.825106.7  RSN  4 0.2 1.6LRSN                1
 GAP=231        0.62       5.5     6.9 10.7  0.2879E+02  0.6069E+02  0.3256E+02E
 Epicentro: SUCRE - SANTANDER                                                  3
 ACTION:UPD 15-09-10 22:14 OP:cam  STATUS:               ID:20150621111417 L   I
 OLDACT:REG 15-06-21 20:18 OP:stll STATUS:               ID:20150621110748     3
 2015-06-21-1107-48M.COL___322                                                 6
 STAT SP IPHASW D HRMM SECON CODA AMPLIT PERI AZIMU VELO AIN AR TRES W  DIS CAZ7
 RUS  HZ EP       1114 35.87                             140    0.2210 82.5  95 
 RUS  HN ES       1114 50.08                             140   -0.1110 82.5  95 
 RUS  HZ I        1114 51.73         4.0 0.26            147           82.5  95 
 BAR2 EZ EP       1114 36.93                             133    0.1810 99.7  45 
 BAR2 EZ ES       1114 51.91                             133   -0.2310 99.7  45 
 BAR2 EZ I        1114 52.98        17.3 0.30            141           99.7  45 
 BRR  HZ EP       1114 39.08                             125    0.0410  127   6 
 BRR  HN ES       1114 56.33                             125    0.1210  127   6 
 ZAR  HZ EP       1114 46.78                             112   -0.51 9  204 326 
 ZAR  HN ES       1115 11.13                             112    0.22 9  204 326 
 ZAR  HZ I        1115 13.25         4.3 0.32            116            204 326 
                                                                                
