 2010  421 1702 14.4 L   6.584 -73.454117.7  RSN  9 0.3 1.8LRSN                1
 GAP=100        0.51       2.8     3.7  4.0 -0.4958E+01  0.2237E+01  0.1926E+01E
 Epicentro: EL CARMEN DE CHUCURI - SANTANDER                                   3
 ACTION:UPD 10-08-24 10:00 OP:vdl  STATUS:               ID:20100421170214 L   I
 2010-04-21-1658-07S.COL___104                                                 6
 STAT SP IPHASW D HRMM SECON CODA AMPLIT PERI AZIMU VELO AIN AR TRES W  DIS CAZ7
 BAR2 SZ EP       17 2 30.84                             165     0.010   30  88 
 BAR2 SZ ES   1   17 2 43.50                             165    -0.2 7   30  88 
 BRR  HZ EP       17 2 32.16                             149     0.010   65 334 
 BRR  HN ES       17 2 46.10                             149     0.110   65 334 
 GUE  SZ EP       17 2 39.76                             125     0.0 9  150  23 
 GUE  SZ ES   1   17 2 59.54                             125    -0.1 7  150  23 
 GRA  SZ EP   1   17 2 40.70                             122     0.0 7  161  27 
 CHI  HN ES   2   17 3 13.87                             114     0.9 4  218 188 
 CHI  HZ I        17 3 15.91         3.8 0.48                           218 188 
 HEL  HZ EP       17 2 49.04                             112     0.1 8  234 259 
 HEL  HZ I        17 3 19.53         5.1 0.46                           234 259 
 RREF BN ES   1   17 3 25.80                             108    -0.2 6  280 228 
 RREF BZ I        17 3 29.11         5.3 0.04                           280 228 
 TOL  SZ EP   2   17 2 56.67                             106    -0.2 4  303 223 
 PRA  HN ES   2   17 3 39.55                             103    -0.8 3  355 207 
 PRA  HZ I        17 3 43.95         3.6 0.58                           355 207 
                                                                                
