 2016  921 1134 48.2 L   6.805 -73.101141.3  RSN 11 0.3 1.7LRSN                1
 GAP=142        0.71       2.5     3.1  4.1 -0.1983E+00  0.3380E+01  0.4613E+00E
 Epicentro: LOS SANTOS - SANTANDER                                             3
 ACTION:UPD 17-08-17 21:14 OP:lp   STATUS:               ID:20160921113448 L   I
 OLDACT:UP  16-09-21 22:32 OP:edw  STATUS:               ID:20160921112735     3
 OLDACT:REG 16-09-21 20:35 OP:edw  STATUS:               ID:20160921112735     3
 2016-09-21-1128-00M.COL___357                                                 6
 STAT SP IPHASW D HRMM SECON CODA AMPLIT PERI AZIMU VELO AIN AR TRES W  DIS CAZ7
 BAR2 EZ EP       1135  7.67                             169    0.3310 25.2 201 
 BAR2 EZ ES       1135 22.26                             169   -0.0010 25.2 201 
 BAR2 EZ I        1135 23.87        11.9 0.24            170           25.2 201 
 PAM  HZ EP   2   1135  9.21                             151   -0.53 5 73.9  37 
 PAM  EN ES   2   1135 26.33                             151   -0.21 5 73.9  37 
 PAM  HZ I        1135 30.87         7.5 0.17            152           73.9  37 
 BRR  HZ EP       1135  9.48                             150    0.3610 75.3 296 
 BRR  HN ES       1135 25.77                             150    0.3410 75.3 296 
 RUS  HZ EP       1135 11.29                             143   -0.2610  101 179 
 RUS  HN ES       1135 29.56                             143   -0.1910  101 179 
 RUS  HZ I        1135 31.80         3.9 0.14            145            101 179 
 PTB  HZ EP   9   1135 14.35                             130   -0.93 0  153 259 
 PTB  HN ES       1135 35.22                             130   -0.24 9  153 259 
 PTB  HZ I        1135 37.96         6.0 0.16            131            153 259 
 OCA  HN ES       1135 37.88                             128   -0.13 9  160 351 
 SPBC HZ EP       1135 16.70                             127   -0.01 9  167 220 
 SPBC HN ES       1135 39.08                             127    0.14 9  167 220 
 ZAR  HZ EP       1135 20.55                             121   -0.28 8  208 292 
 ZAR  HN ES       1135 45.81                             121   -0.45 8  208 292 
 ZAR  HZ I        1135 51.89         7.0 0.37            122            208 292 
 NOR  HZ EP       1135 24.23                             117    0.08 8  239 235 
 NOR  HN ES       1135 51.99                             117   -0.20 8  239 235 
 NOR  HZ I        1135 57.19         4.6 0.12            118            239 235 
 HEL  HZ EP       1135 29.44                             113    0.69 7  277 256 
 HEL  HN ES       1136  0.05                             113   -0.31 7  277 256 
 GUY2CHZ EP   4   1135 34.17                             111    2.06 0  306 235 
 GUY2CHN ES   4   1136  8.00                             111    1.65 0  306 235 
 GUY2CHZ I        1136 13.99         3.7 0.72                           306 235 
                                                                                
