 2011 1021 1737 46.6 L   6.771 -73.110144.6  RSN  4 0.1 1.4LRSN                1
 GAP=142        0.32       2.3     3.4  4.3 -0.1421E+00 -0.8020E+00  0.1341E+01E
 Epicentro: LOS SANTOS - SANTANDER                                             3
 ACTION:UPD 12-07-13 16:05 OP:ep   STATUS:               ID:20111021173746 L   I
 2011-10-21-1735-58S.COL___171                                                 6
 STAT SP IPHASW D HRMM SECON CODA AMPLIT PERI AZIMU VELO AIN AR TRES W  DIS CAZ7
 BAR2 SZ EP   2   1738  6.05                             171   -0.04 5 21.3 202 
 BAR2 SZ I        1738 22.09         5.8 0.24                          21.3 202 
 BRR  HZ EP   1   1738  7.82                             151   -0.13 7 76.2 299 
 BRR  HZ I        1738 18.85         9.3 0.21                          76.2 299 
 BRR  HN ES   1   1738 24.66                             151    0.08 7 76.2 299 
 PAM  SZ EP   1   1738  8.89                             151    0.15 7 77.5  36 
 PAM  SN ES   1   1738 25.90                             151   -0.08 7 77.5  36 
 RUS  HZ EP   1   1738 10.04                             145    0.00 7 97.2 178 
 RUS  HN ES   1   1738 28.29                             145    0.00 7 97.2 178 
 RUS  HZ I        1738 29.99         1.8 0.16                          97.2 178 
                                                                                
