 2017  721 1524 31.2 L   6.675 -73.228149.5  RSN  5 0.4 1.6LRSN                1
 GAP=200        0.81       6.9     6.0  7.1  0.2060E+02  0.9370E+01  0.1083E+02E
 Epicentro: BARICHARA - SANTANDER                                              3
 ACTION:UPD 17-08-30 15:35 OP:rebc STATUS:               ID:20170721152431 L   I
 OLDACT:REG 17-07-21 20:57 OP:lv   STATUS:               ID:20170721151734     3
 2017-07-21-1518-00M.COL___389                                                 6
 STAT SP IPHASW D HRMM SECON CODA AMPLIT PERI AZIMU VELO AIN AR TRES W  DIS CAZ7
 BAR2 EZ EP       1524 50.72                             176   -0.3510 10.5 151 
 BAR2 EZ ES       1525  6.55                             176   -0.0510 10.5 151 
 BAR2 EZ I        1525  6.78        14.6 0.39            168           10.5 151 
 BRR  HE ES       1525  9.86                             153    0.2610 71.7 312 
 RUS  HZ EP       1524 54.91                             148    0.4610 88.0 170 
 RUS  HN ES       1525 12.40                             148   -0.2010 88.0 170 
 RUS  HZ I        1525 14.92         5.3 0.24            144           88.0 170 
 PTB  HZ EP       1524 57.58                             135    0.10 9  137 264 
 PTB  HN ES       1525 17.67                             135   -0.33 9  137 264 
 PTB  HZ I        1525 20.39         1.5 0.12            132            137 264 
 SPBC HE ES   3   1525 21.50                             133    1.75 2  147 220 
 SPBC HN I        1525 25.07         9.8 0.07            129            147 220 
                                                                                
