 2017  821 1736 32.3 L   6.673 -73.317115.3  RSN  4 0.3 1.1LRSN                1
 GAP=163        0.44       5.7     6.4  5.2  0.3031E+02  0.1577E+02  0.6198E+01E
 Epicentro: GALAN - SANTANDER                                                  3
 ACTION:UPD 17-09-04 20:23 OP:rebc STATUS:               ID:20170821173632 L   I
 OLDACT:UP  17-08-21 22:48 OP:mg   STATUS:               ID:20170821172214     3
 OLDACT:UP  17-08-21 22:47 OP:mg   STATUS:               ID:20170821172214     3
 OLDACT:UP  17-08-21 22:47 OP:mg   STATUS:               ID:20170821172214     3
 OLDACT:UP  17-08-21 22:46 OP:mg   STATUS:               ID:20170821172214     3
 OLDACT:UP  17-08-21 22:46 OP:mg   STATUS:               ID:20170821172214     3
 OLDACT:UP  17-08-21 22:46 OP:mg   STATUS:               ID:20170821172214     3
 OLDACT:UP  17-08-21 22:45 OP:mg   STATUS:               ID:20170821172214     3
 OLDACT:UP  17-08-21 22:45 OP:mg   STATUS:               ID:20170821172214     3
 OLDACT:UP  17-08-21 22:44 OP:mg   STATUS:               ID:20170821172214     3
 OLDACT:UP  17-08-21 22:40 OP:mg   STATUS:               ID:20170821172214     3
 OLDACT:REG 17-08-21 20:56 OP:mg   STATUS:               ID:20170821172214     3
 2017-08-21-1728-00M.COL___405                                                 6
 STAT SP IPHASW D HRMM SECON CODA AMPLIT PERI AZIMU VELO AIN AR TRES W  DIS CAZ7
 BAR2 EZ EP       1736 48.23                             170    0.0810 17.4 121 
 BAR2 EZ ES   1   1737  0.39                             170   -0.12 7 17.4 121 
 BAR2 EZ I        1737  1.03         3.1 0.23            173           17.4 121 
 BRR  HZ EP   3   1736 48.74                             148   -1.10 2 64.8 318 
 BRR  HN ES   3   1737  4.26                             148    0.75 2 64.8 318 
 BRR  HZ I        1737  5.23         3.5 0.14            149           64.8 318 
 RUS  HZ EP       1736 52.35                             139    0.0010 90.1 163 
 RUS  HN ES   1   1737  7.95                             139   -0.03 7 90.1 163 
 RUS  HZ I        1737  8.79         2.4 0.24            142           90.1 163 
 ZAR  HZ EP       1737  1.86                             116    0.13 9  193 298 
 ZAR  HN ES   1   1737 24.52                             116   -0.16 7  193 298 
 ZAR  HZ I        1737 25.11         2.4 0.10            118            193 298 
                                                                                
