 2012  521 1720 14.8 L   6.740 -73.198146.0  RSN  6 0.3 1.7LRSN                1
 GAP=227        0.71       5.5     5.2  6.9  0.1040E+02  0.1116E+02  0.6793E+01E
 Epicentro: VILLANUEVA - SANTANDER                                             3
 ACTION:UP  12-07-05 12:07 OP:pat  STATUS:               ID:20120521172014 L   I
 2012-05-21-1720-00M.COL___200                                                 6
 STAT SP IPHASW D HRMM SECON CODA AMPLIT PERI AZIMU VELO SNR AR TRES W  DIS CAZ7
 BAR2 SZ EP   1   1720 34.08                             173    -0.3 7   16 174 
 BAR2 SZ ES   1   1720 49.72                             173     0.1 7   16 174 
 BAR2 SZ I        1720 51.88        11.0 0.18                            16 174 
 BRR  HZ EP   1   1720 35.83                             153    -0.1 7   70 306 
 BRR  HN ES   1   1720 52.60                             153     0.2 7   70 306 
 BRR  HZ I        1720 55.64        11.9 0.17                            70 306 
 RUS  HZ EP   1   1720 38.13                             146     0.0 7   95 172 
 RUS  HZ I        1720 39.39         6.6 0.13                            95 172 
 RUS  HN ES   1   1720 56.38                             146     0.0 7   95 172 
 PTB  HZ EP   1   1720 40.75                             134    -0.4 7  141 261 
 PTB  HN ES   1   1721  1.76                             134     0.0 7  141 261 
 PTB  HZ I        1721  4.48         5.5 0.19                           141 261 
 ZAR  HN ES   1   1721 12.05                             123     0.0 6  201 295 
 NOR  SZ EP   1   1720 50.55                             120     0.9 6  226 235 
 NOR  SE ES   1   1721 16.51                             120    -0.3 6  226 235 
                                                                                
