 2012 1121 1131 43.2 L   6.792 -73.163140.4  RSN  8 0.4 1.9LRSN                1
 GAP=135        0.75       2.9     4.5  6.6  0.7215E+00  0.9931E+01 -0.8361E+00E
 Epicentro: LOS SANTOS - SANTANDER                                             3
 ACTION:UPD 12-12-05 15:34 OP:}ep  STATUS:               ID:20121121113143 L   I
 2012-11-21-1130-00M.COL___234                                                 6
 STAT SP IPHASW D HRMM SECON CODA AMPLIT PERI AZIMU VELO AIN AR TRES W  DIS CAZ7
 BAR2 SZ EP       1132  2.14                             171    0.0210 22.2 185 
 BAR2 SZ ES   1   1132 17.30                             171    0.39 7 22.2 185 
 BAR2 SZ I        1132 18.10        46.2 0.24                          22.2 185 
 PAM  SZ EP   1   1132  5.01                             149    0.09 7 79.3  40 
 PAM  SN ES   1   1132 21.93                             149    0.03 7 79.3  40 
 PAM  SZ I        1132 23.17         8.8 0.20                          79.3  40 
 RUS  HZ EP   1   1132  6.46                             143    0.12 7 99.9 175 
 RUS  HN ES   1   1132 24.18                             143   -0.23 7 99.9 175 
 RUS  HZ I        1132 25.34        11.4 0.48                          99.9 175 
 PTB  HZ EP   2   1132  9.32                             131   -0.18 5  146 259 
 PTB  HN ES   1   1132 29.32                             131   -0.73 7  146 259 
 PTB  HZ I        1132 32.45        12.3 0.16                           146 259 
 OCA  HN ES   1   1132 32.62                             128   -0.30 7  161 354 
 ZAR  HZ EP   1   1132 16.06                             121    0.95 6  203 293 
 ZAR  HN ES   1   1132 40.57                             121    0.55 6  203 293 
 ZAR  HZ I        1132 47.38        13.8 0.48                           203 293 
 SML  HZ EP   1   1132 18.87                             116   -0.62 6  244 336 
 SML  HE ES   1   1132 47.68                             116   -0.14 6  244 336 
 CHI  HZ EP   1   1132 20.15                             116   -0.27 6  247 195 
 CHI  HN ES   1   1132 49.62                             116    0.14 6  247 195 
 CHI  HZ I        1132 55.43         3.4 0.28                           247 195 
                                                                                
