 2017  221 1504  9.0 L   6.712 -73.183143.4  RSN  6 0.4 1.7LRSN                1
 GAP=135        1.14       5.6     5.3  7.7 -0.7479E+01  0.9313E+01  0.5156E+01E
 Epicentro: VILLANUEVA - SANTANDER                                             3
 ACTION:UPD 17-05-24 15:39 OP:jn   STATUS:               ID:20170221150409 L   I
 OLDACT:REG 17-02-21 21:08 OP:cog  STATUS:               ID:20170221145741     3
 2017-02-21-1458-00M.COL___376                                                 6
 STAT SP IPHASW D HRMM SECON CODA AMPLIT PERI AZIMU VELO AIN AR TRES W  DIS CAZ7
 BAR2 EZ EP       15 4 28.52                             174    0.3210 13.3 180 
 BAR2 EZ ES       15 4 43.31                             174    0.1410 13.3 180 
 BAR2 EZ I        15 4 46.27        19.1 0.32            173           13.3 180 
 BRR  HZ EP       15 4 30.45                             151    0.4410 72.9 307 
 BRR  HN ES       15 4 46.80                             151    0.4110 72.9 307 
 PAM  EZ EP       15 4 31.37                             147   -0.2610 87.5  38 
 PAM  EN ES       15 4 48.54                             147   -0.7210 87.5  38 
 PAM  EZ I        15 4 50.63         9.6 0.44            150           87.5  38 
 RUS  HZ EP       15 4 32.70                             146    0.8110 91.3 173 
 RUS  HN ES       15 4 49.44                             146   -0.2810 91.3 173 
 RUS  HZ I        15 4 52.36         9.0 0.34            147           91.3 173 
 PTB  HZ EP       15 4 35.18                             133   -0.10 9  142 262 
 PTB  HN ES       15 4 55.65                             133   -0.12 9  142 262 
 PTB  HZ I        15 4 57.28         5.2 0.16            135            142 262 
 NOR  HZ EP       15 4 43.18                             119   -0.48 8  226 236 
 NOR  HN ES       15 5 10.16                             119   -0.51 8  226 236 
                                                                                
