 2017  221 1031  3.9 L   6.782 -73.155150.8  RSN 13 0.6 2.1LRSN                1
 GAP=119        1.28       4.2     4.4  6.9  0.2654E+01  0.7886E+01  0.8075E+01E
 Epicentro: LOS SANTOS - SANTANDER                                             3
 ACTION:UPD 17-05-24 15:38 OP:jn   STATUS:               ID:20170221103103 L   I
 OLDACT:UP  17-02-21 22:01 OP:cog  STATUS:               ID:20170221102746     3
 OLDACT:UP  17-02-21 21:58 OP:cog  STATUS:               ID:20170221102746     3
 OLDACT:REG 17-02-21 20:25 OP:cog  STATUS:               ID:20170221102746     3
 2017-02-21-1028-00M.COL___379                                                 6
 STAT SP IPHASW D HRMM SECON CODA AMPLIT PERI AZIMU VELO AIN AR TRES W  DIS CAZ7
 BAR2 EZ EP       1031 24.24                             172    0.1410 21.2 188 
 BAR2 EZ ES       1031 39.39                             172   -0.4710 21.2 188 
 BAR2 EZ I        1031 40.41        57.4 0.24            172           21.2 188 
 BRR  HZ EP       1031 26.08                             153    0.4810 71.3 300 
 BRR  HE ES       1031 43.27                             153    0.7410 71.3 300 
 BRR  HZ I        1031 46.76        23.7 0.27            152           71.3 300 
 PAM  EZ EP       1031 27.14                             151    0.3510 79.6  39 
 PAM  EN ES       1031 44.14                             151   -0.5010 79.6  39 
 PAM  EZ I        1031 46.51        27.2 0.42            153           79.6  39 
 RUS  HZ EP       1031 28.20                             145    0.1810 98.6 175 
 RUS  HN ES       1031 47.14                             145    0.3110 98.6 175 
 RUS  HZ I        1031 48.71        11.0 0.38            147           98.6 175 
 PTB  HZ EP       1031 31.17                             133    0.01 9  146 260 
 PTB  HN ES       1031 52.11                             133   -0.32 9  146 260 
 PTB  HZ I        1031 54.01         8.0 0.14            133            146 260 
 ZAR  HZ EP       1031 37.30                             123    0.64 9  204 293 
 ZAR  HN ES       1032  1.84                             123   -0.38 9  204 293 
 NOR  HZ EP   3   1031 38.10                             120   -1.61 2  233 235 
 NOR  HN ES       1032  7.18                             120   -0.47 8  233 235 
 CHI  HZ EP       1031 42.33                             118    0.69 8  246 195 
 CHI  HE ES       1032 10.67                             118   -0.41 8  246 195 
 CHI  HZ I        1032 15.07         5.7 0.46            119            246 195 
 URE  HZ EP       1031 44.24                             114   -0.96 7  284 292 
 URE  HE ES   4   1032 14.02                             114   -3.39 0  284 292 
 URE  HZ I        1032 28.16         6.2 0.16            115            284 292 
 PTGC HZ EP       1031 47.27                             113   -0.55 7  307 158 
 PTGC HE ES       1032 21.25                             113   -0.82 7  307 158 
 ELA  HE ES       1032 28.36                             111    1.10 7  327 230 
 DBB  EN ES       1032 27.56                             110   -1.04 7  339 275 
 PRA  HZ EP   4   1031 58.87                             107    1.54 0  390 210 
 PRA  HE ES       1032 39.60                             107    0.59 6  390 210 
 PRA  HZ I        1032 42.97         4.6 0.34            108            390 210 
                                                                                
