 2012  221 1804 19.3 L   6.800 -73.143144.0  RSN  9 0.4 1.9LRSN                1
 GAP=137        0.55       3.5     4.7  5.2 -0.1940E+01  0.6279E+01  0.5246E+01E
 ACTION:UP  12-03-07 16:32 OP:epov STATUS:               ID:20120221180419 L   I
 2012-02-21-1800-00M.COL___190                                                 6
 STAT SP IPHASW D HRMM SECON CODA AMPLIT PERI AZIMU VELO AIN AR TRES W  DIS CAZ7
 BAR2 SZ EP   2   18 4 38.70                             170   -0.05 5 23.4 191 
 BAR2 SZ ES   2   18 4 53.21                             170   -0.69 5 23.4 191 
 BAR2 SZ I        18 4 54.75        18.3 0.23                          23.4 191 
 GIR2 SZ EP   1   18 4 38.78                             167   -0.02 7 31.3 350 
 GIR2 SZ ES   2   18 4 54.14                             167    0.16 5 31.3 350 
 BRR  HZ EP   1   18 4 40.40                             152    0.10 7 71.4 298 
 BRR  HZ I        18 4 56.31        25.8 0.48                          71.4 298 
 BRR  HN ES   2   18 4 57.20                             152    0.54 5 71.4 298 
 PAM  SZ EP   2   18 4 41.66                             151    0.31 5 77.2  39 
 PAM  SN ES   2   18 4 58.42                             151   -0.10 5 77.2  39 
 RUS  HZ EP   1   18 4 42.70                             144   -0.21 7  101 176 
 RUS  HN ES   1   18 5  1.67                             144    0.36 7  101 176 
 RUS  HZ I        18 5  2.40         6.3 0.19                           101 176 
 PTB  HZ EP   2   18 4 45.85                             132   -0.33 5  148 259 
 PTB  HN ES   2   18 5  6.33                             132   -0.80 5  148 259 
 NOR  SZ EP   1   18 4 55.05                             118    0.06 6  235 234 
 NOR  SN ES   2   18 5 23.71                             118    0.91 4  235 234 
 CHI  HZ EP   1   18 4 56.68                             117   -0.27 6  249 195 
 CHI  HN ES   2   18 5 26.17                             117   -0.12 4  249 195 
 CHI  HZ I        18 5 29.82         5.3 0.66                           249 195 
 PRA  HZ EP   2   18 5 12.83                             106    0.02 3  392 210 
 PRA  HE ES   2   18 5 54.65                             106    0.12 3  392 210 
                                                                                
