 2015  221 1605 10.5 L   6.820 -73.169143.2  RSN  6 0.3 1.7LRSN                1
 GAP=133        0.74       2.8     4.4  7.4 -0.2139E+01  0.7012E+01  0.1208E+01E
 Epicentro: LOS SANTOS - SANTANDER                                             3
 ACTION:UPD 15-04-30 21:28 OP:nd   STATUS:               ID:20150221160510 L   I
 OLDACT:DUP 15-02-22 01:59 OP:mh   STATUS:               ID:20150221155745d    3
 OLDACT:REG 15-02-21 21:05 OP:mher STATUS:               ID:20150221155744     3
 2015-02-21-1557-44M.COL___280                                                 6
 STAT SP IPHASW D HRMM SECON CODA AMPLIT PERI AZIMU VELO AIN AR TRES W  DIS CAZ7
 PAM  SZ EP       16 5 32.73                             150    0.3110 77.4  42 
 PAM  SN ES   1   16 5 49.49                             150   -0.05 7 77.4  42 
 RUS  HZ EP       16 5 34.40                             143    0.2410  103 175 
 RUS  HN ES   1   16 5 52.15                             143   -0.47 7  103 175 
 RUS  HZ I        16 6 16.94         6.8 0.46            151            103 175 
 PTB  HZ EP       16 5 36.93                             132   -0.11 9  146 258 
 PTB  HN ES   1   16 5 57.81                             132    0.05 7  146 258 
 PTB  HZ I        16 6  0.98         6.1 0.16            149            146 258 
 SPBC HZ EP       16 5 38.93                             128    0.14 9  163 218 
 SPBC HN ES       16 6  1.36                             128    0.49 9  163 218 
 SPBC HZ I        16 6  4.88         7.1 0.22            143            163 218 
 SML  HN ES       16 6 14.44                             117   -0.38 8  241 336 
 SML  HZ I        16 6 19.53         5.6 0.07            133            241 336 
 CHI  HZ EP       16 5 48.01                             116   -0.19 8  250 194 
 CHI  HN ES       16 6 17.07                             116   -0.54 8  250 194 
                                                                                
