 2017  721 1427 32.4 L   6.870 -73.380106.0  RSN 12 0.4 2.2LRSN                1
 GAP=110        1.09       3.5     3.5  6.6  0.3603E+00  0.8474E+01  0.1932E+01E
 Epicentro: SAN VICENTE DE CHUCURI - SANTANDER                                 3
 ACTION:UPD 17-08-30 15:35 OP:rebc STATUS:               ID:20170721142732 L   I
 OLDACT:REG 17-07-21 20:52 OP:lv   STATUS:               ID:20170721141745     3
 2017-07-21-1418-00M.COL___392                                                 6
 STAT SP IPHASW D HRMM SECON CODA AMPLIT PERI AZIMU VELO AIN AR TRES W  DIS CAZ7
 BAR2 EZ IP     D 1427 47.82                             160    0.0510 37.7 145 
 BAR2 EZ ES       1428  0.26                             160    0.4910 37.7 145 
 BAR2 EZ I        1428  1.85       108.8 0.22            162           37.7 145 
 BRR  HZ IP     C 1427 47.47                             156   -0.3110 45.1 306 
 BRR  HZ I        1428  1.67        35.2 0.12            148           45.1 306 
 PAM  EZ EP       1427 51.71                             137    0.0310 91.3  55 
 PAM  EN ES       1428  6.58                             137   -0.1510 91.3  55 
 RUS  HZ EP       1427 53.19                             131   -0.4210  113 163 
 RUS  HN ES       1428 10.05                             131   -0.1110  113 163 
 PTB  HZ IP   9 C 1427 52.48                             127   -1.61 0  125 253 
 PTB  HN ES       1428 10.44                                    1.0310  125 253 
 PTB  HZ I        1428 13.66        38.8 0.16            122            125 253 
 SPBC HZ EP       1427 57.41                             120    0.11 9  155 210 
 SPBC HN ES       1428 16.29                             120   -0.45 9  155 210 
 SPBC HZ I        1428 24.07        18.6 0.16            118            155 210 
 ZAR  HZ EP       1427 59.36                             117   -0.24 9  177 293 
 ZAR  HN ES       1428 21.22                             117    0.39 9  177 293 
 ZAR  HZ I        1428 24.70        70.4 0.05            113            177 293 
 YPLC HZ EP       1428  1.72                             114   -0.16 9  197 146 
 YPLC HN ES       1428 25.65                             114    0.77 9  197 146 
 YPLC HZ I        1428 26.41        12.0 0.13            113            197 146 
 NOR  HZ EP       1428  4.74                             111    0.37 8  219 229 
 NOR  HN ES       1428 28.67                             111   -0.66 8  219 229 
 NOR  HZ I        1428 33.53        10.9 0.14            109            219 229 
 HEL  HZ EP       1428  8.77                             108    0.52 8  249 253 
 HEL  HZ I        1428 40.28        11.9 0.38            107            249 253 
 GUY2CHZ EP       1428 12.72                             105    0.11 7  285 230 
 GUY2CHN ES   3   1428 42.06                             105   -1.92 2  285 230 
 GUY2CHZ I        1428 51.92         7.0 0.22                           285 230 
 SJC  HZ EP   4   1428 21.44                              99   -3.06 0  389 329 
 SJC  HN ES   4   1429  0.51                              99   -4.64 0  389 329 
 SJC  HZ I        1429  2.69         2.0 0.11            100            389 329 
                                                                                
