 2017  921 1437 48.1 L   6.756 -73.143136.4  RSN  7 0.4 1.8LRSN                1
 GAP=113        0.90       3.8     3.9  5.8  0.1818E+01  0.4558E+01  0.2642E+01E
 Epicentro: LOS SANTOS - SANTANDER                                             3
 ACTION:UPD 17-10-05 19:14 OP:rebc STATUS:               ID:20170921143748 L   I
 OLDACT:REG 17-09-21 20:22 OP:lv   STATUS:               ID:20170921142742     3
 2017-09-21-1428-00M.COL___441                                                 6
 STAT SP IPHASW D HRMM SECON CODA AMPLIT PERI AZIMU VELO AIN AR TRES W  DIS CAZ7
 BAR2 EZ EP       1438  6.31                             172   -0.1810 18.7 193 
 BAR2 EZ ES       1438 21.10                             172    0.2410 18.7 193 
 BAR2 EZ I        1438 21.98        21.7 0.28            172           18.7 193 
 BRR  HZ EP       1438  8.13                             150   -0.2510 73.9 302 
 BRR  HN ES       1438 23.99                             150   -0.2310 73.9 302 
 PAM  EZ IP     D 1438  9.34                             148   -0.1910 81.0  37 
 PAM  EN ES       1438 26.21                             148   -0.0610 81.0  37 
 PAM  EZ I        1438 28.49        14.3 0.62            149           81.0  37 
 RUS  HZ EP       1438 10.33                             143   -0.2310 95.8 176 
 RUS  HN ES       1438 28.54                             143    0.4410 95.8 176 
 RUS  HZ I        1438 30.18         5.3 0.48            145           95.8 176 
 YPLC HZ EP       1438 16.81                             125    0.04 9  172 151 
 ZAR  HZ EP       1438 21.01                             120    0.86 8  206 293 
 ZAR  HE ES       1438 45.44                             120    0.27 8  206 293 
 ZAR  HZ I        1438 47.86         5.4 0.10            121            206 293 
 NOR  HN ES       1438 49.67                             117   -0.58 8  232 235 
                                                                                
