 2016 1221 1837 56.6 L   6.817 -73.125142.0  RSN  7 0.5 1.6LRSN                1
 GAP=241        0.84       7.4     8.7  6.9  0.4717E+02  0.1996E+02  0.6953E+01E
 Epicentro: LOS SANTOS - SANTANDER                                             3
 ACTION:UPD 17-01-11 20:17 OP:rebc STATUS:               ID:20161221183756 L   I
 OLDACT:UP  16-12-22 00:13 OP:dani STATUS:               ID:20161221182747     3
 OLDACT:UP  16-12-22 00:12 OP:dani STATUS:               ID:20161221182747     3
 OLDACT:UP  16-12-22 00:12 OP:dani STATUS:               ID:20161221182747     3
 OLDACT:REG 16-12-21 20:53 OP:dani STATUS:               ID:20161221182747     3
 2016-12-21-1828-00M.COL___384                                                 6
 STAT SP IPHASW D HRMM SECON CODA AMPLIT PERI AZIMU VELO AIN AR TRES W  DIS CAZ7
 BAR2 EZ EP       1838 15.94                             169    0.0810 25.6 194 
 BAR2 EZ ES       1838 30.19                             169   -0.6710 25.6 194 
 BAR2 EZ I        1838 32.61        11.3 0.16            162           25.6 194 
 BRR  HZ EP       1838 17.85                             151    0.4010 72.4 296 
 BRR  HN ES   3   1838 35.29                             151    1.61 2 72.4 296 
 BRR  HZ I        1838 36.08        18.9 0.30            147           72.4 296 
 RUS  HZ EP       1838 20.21                             143    0.0610  102 177 
 RUS  HN ES       1838 38.88                             143    0.4010  102 177 
 RUS  HZ I        1838 40.30         5.9 0.22            142            102 177 
 PTB  HZ EP       1838 23.40                             131   -0.14 9  150 258 
 PTB  HN ES   3   1838 43.69                             131   -0.84 2  150 258 
 PTB  HZ I        1838 49.70         3.0 0.20            128            150 258 
 ZAR  HZ EP   2   1838 28.18                             121   -0.81 4  206 291 
 ZAR  HE ES       1838 54.32                             121    0.09 8  206 291 
 ZAR  HZ I        1838 59.21         5.6 0.20            121            206 291 
 CHI  HZ EP       1838 34.12                             116   -0.27 8  251 196 
 CHI  HN ES   3   1839  3.80                             116   -0.03 2  251 196 
 CHI  HZ I        1839  5.48         1.6 0.22            117            251 196 
 GUY2CHZ EP   3   1838 41.90                             111    1.49 2  304 235 
 GUY2CHE ES   4   1839 18.81                             111    4.27 0  304 235 
 GUY2CHZ I        1839 23.42         1.8 0.37                           304 235 
                                                                                
