 2016  521 1613 41.0 L   6.736 -73.139144.0  RSN  8 0.3 2.1LRSN                1
 GAP=140        0.84       3.2     4.1  5.1 -0.5452E+00  0.7191E+01  0.2234E+01E
 Epicentro: LOS SANTOS - SANTANDER                                             3
 ACTION:UPD 16-08-18 17:48 OP:cam  STATUS:               ID:20160521161341 L   I
 OLDACT:REG 16-05-21 19:41 OP:drio STATUS:               ID:20160521160747     3
 2016-05-21-1607-47M.COL___291                                                 6
 STAT SP IPHASW D HRMM SECON CODA AMPLIT PERI AZIMU VELO AIN AR TRES W  DIS CAZ7
 BAR2 EZ EP       1613 60.00                             173   -0.2710 16.6 197 
 BAR2 EZ ES       1614 15.59                             173    0.2710 16.6 197 
 BAR2 EZ I        1614 16.23        23.7 0.18            171           16.6 197 
 BRR  HZ EP       1614  2.12                             151   -0.0610 75.5 303 
 BRR  HN ES       1614 18.86                             151    0.1410 75.5 303 
 BRR  HZ I        1614 19.39        30.8 0.26            148           75.5 303 
 PAM  EZ EP       1614  3.29                             149   -0.0310 82.5  36 
 PAM  EE ES       1614 20.64                             149   -0.1010 82.5  36 
 PAM  EZ I        1614 22.60        22.3 0.44            152           82.5  36 
 RUS  HZ EP       1614  3.83                             146   -0.2110 93.5 176 
 RUS  HE ES       1614 22.31                             146    0.2710 93.5 176 
 RUS  HZ I        1614 23.30         7.9 0.20            147           93.5 176 
 PTB  HZ EP       1614  7.21                             132   -0.54 9  147 262 
 PTB  HN ES   4   1614 26.70                             132   -1.94 0  147 262 
 PTB  HZ I        1614 32.84        14.7 0.32            130            147 262 
 SPBC HZ EP       1614  8.71                             130   -0.15 9  158 221 
 SPBC HN ES       1614 30.48                             130   -0.14 9  158 221 
 SPBC HZ I        1614 32.94        17.4 0.32            129            158 221 
 ZAR  HZ EP       1614 14.55                             122    0.89 8  208 294 
 ZAR  HE ES       1614 38.94                             122   -0.22 8  208 294 
 ZAR  HZ I        1614 47.49        18.2 0.54            121            208 294 
 PRA  HZ EP       1614 34.50                             107    0.75 6  386 210 
 PRA  HE ES       1615 14.82                             107   -0.10 6  386 210 
 PRA  HZ I        1615 21.93         3.0 0.40            107            386 210 
                                                                                
