 2014 1121 1209 42.3 L   6.733 -73.130140.7  RSN  6 0.4 1.3LRSN                1
 GAP=142        0.97       5.5     4.6  7.9 -0.1287E+01  0.5830E+01  0.5323E+01E
 Epicentro: JORDAN - SANTANDER                                                 3
 ACTION:UPD 14-12-19 15:45 OP:nd   STATUS:               ID:20141121120942 L   I
 OLDACT:REG 14-11-21 21:16 OP:spq  STATUS:               ID:20141121120746     3
 2014-11-21-1207-46M.COL___304                                                 6
 STAT SP IPHASW D HRMM SECON CODA AMPLIT PERI AZIMU VELO AIN AR TRES W  DIS CAZ7
 BAR2 SZ ES   1   1210 15.79                             173   -0.15 7 16.6 200 
 BAR2 SZ I        1210 17.01         5.8 0.22            173           16.6 200 
 BRR  HZ EP       1210  3.20                             150   -0.0210 76.5 303 
 BRR  HE ES       1210 20.20                             150    0.6710 76.5 303 
 BRR  HZ I        1210 21.94         8.0 0.50            150           76.5 303 
 PAM  SZ EP     D 1210  4.37                             148    0.0910 82.2  35 
 PAM  SN ES       1210 20.97                             148   -0.4510 82.2  35 
 PAM  SZ I        1210 23.15         4.4 0.70            150           82.2  35 
 RUS  HZ EP       1210  5.30                             145    0.2910 93.1 177 
 RUS  HE ES   1   1210 22.96                             145    0.23 7 93.1 177 
 RUS  HZ I        1210 24.47         1.7 0.32            147           93.1 177 
 PTB  HZ EP       1210  8.71                             131   -0.19 9  148 262 
 PTB  HN ES       1210 28.95                             131   -0.70 9  148 262 
 PTB  HZ I        1210 31.63         1.7 0.11            132            148 262 
 ZAR  HE ES   1   1210 40.71                             121    0.40 6  209 294 
 ZAR  HZ I        1210 42.88         3.5 0.28            122            209 294 
                                                                                
