 2010  321 1310 57.1 L   6.838 -73.020141.7  RSN  7 0.4 2.0LRSN                1
 GAP=196        0.75       4.0    10.6  6.9  0.8818E+01 -0.7854E+01  0.1320E+01E
 Epicentro: CEPITA - SANTANDER                                                 3
 ACTION:UP  10-08-24 09:55 OP:vdl  STATUS:               ID:20100321131057 L   I
 2010-03-21-1306-04S.COL___098                                                 6
 STAT SP IPHASW D HRMM SECON CODA AMPLIT PERI AZIMU VELO SNR AR TRES W  DIS CAZ7
 BAR2 SZ IP       1311 16.54                             166     0.010   33 214 
 BAR2 SZ ES   1   1311 31.98                             166     0.4 7   33 214 
 BRR  HZ IP       1311 18.54                             148     0.010   82 291 
 BRR  HZ I        1311 18.88        29.3 0.12                            82 291 
 BRR  HN ES   1   1311 35.32                             148     0.1 7   82 291 
 RUS  HZ EP   1   1311 20.61                             142    -0.2 7  105 184 
 RUS  HE ES   2   1311 38.60                             142    -0.6 5  105 184 
 RUS  HZ I        1311 40.06         8.1 0.27                           105 184 
 OCA  SZ EP   1   1311 25.47                             129     0.5 7  158 348 
 OCA  SZ ES   1   1311 45.99                             129    -0.7 7  158 348 
 OCA  SZ I        1311 48.50        21.5 0.51                           158 348 
 CHI  HZ EP   2   1311 35.62                             115     0.2 4  257 198 
 CHI  HE ES   2   1312  5.15                             115    -0.2 4  257 198 
 CHI  HZ I        1312  7.24         2.9 0.32                           257 198 
 HEL  HZ EP   2   1311 38.26                             113    -0.5 4  287 256 
 HEL  HZ I        1312 15.55         6.8 0.47                           287 256 
 PRA  HZ EP   1   1311 51.83                             105     0.1 4  403 211 
 PRA  HZ I        1312 38.46         3.1 0.39                           403 211 
                                                                                
