 2011  521 1135  7.6 L   6.782 -73.129148.9  RSN 14 0.4 2.3LRSN                1
 GAP=139        0.99       5.2     6.7  5.9 -0.1951E+02  0.7259E+01  0.4946E+01E
 Epicentro: LOS SANTOS - SANTANDER                                             3
 ACTION:UP  11-06-29 08:55 OP:tino STATUS:               ID:20110521113507 L   I
 2011-05-21-1133-46S.COL___141                                                 6
 STAT SP IPHASW D HRMM SECON CODA AMPLIT PERI AZIMU VELO SNR AR TRES W  DIS CAZ7
 BTL  SZ IP       1135 27.72                             171     0.110   22 315 
 BTL  SZ ES   1   1135 43.20                             171     0.0 7   22 315 
 BAR2 SZ EP       1135 27.47                             171    -0.210   22 196 
 BAR2 SZ ES   1   1135 42.94                             171    -0.3 7   22 196 
 BAR2 SZ I        1135 44.45        48.9 0.25                            22 196 
 GIR2 SZ EP       1135 27.73                             167     0.010   34 348 
 BRR  HZ EP       1135 29.43                             152     0.210   74 299 
 BRR  HN ES   1   1135 47.05                             152     0.9 7   74 299 
 BRR  HZ I        1135 49.32        35.8 0.06                            74 299 
 PAM  SZ EP       1135 30.37                             151     0.110   78  38 
 PAM  SN ES   1   1135 47.68                             151    -0.2 7   78  38 
 RUS  HZ EP       1135 31.48                             145    -0.110   98 177 
 RUS  HZ I        1135 52.09        26.2 0.40                            98 177 
 BRI  SZ EP       1135 32.13                             142     0.210  110  20 
 BRI  SZ ES   1   1135 50.32                             142    -0.6 7  110  20 
 GRA  SZ IP       1135 33.37                             137     0.110  127  16 
 GRA  SZ ES   1   1135 53.39                             137     0.1 7  127  16 
 GRA  SZ I        1135 54.12        28.9 0.26                           127  16 
 OCA  SZ EP       1135 36.16                             130    -0.2 9  162 353 
 OCA  SZ I        1136  2.71        28.0 0.22                           162 353 
 NOR  SZ EP       1135 43.14                             119    -0.5 8  235 235 
 NOR  SN ES   1   1136 10.94                             119    -0.7 6  235 235 
 HEL  HZ EP   2   1135 48.62                             115     0.5 4  273 256 
 HEL  HZ I        1136 25.80         8.6 0.22                           273 256 
 DBB  SZ EP       1135 54.62                             110    -0.9 7  341 275 
 TOL  SZ EP       1135 57.13                             110     1.1 7  343 225 
 PRA  HZ EP       1136  1.58                             107     0.4 6  391 210 
                                                                                
