 2013  621 1342  4.6 L   6.753 -73.178149.1  RSN  4 0.2 1.4LRSN                1
 GAP=230        0.52       5.5     5.1  5.7  0.1210E+02  0.2187E+01 -0.1997E+01E
 Epicentro: VILLANUEVA - SANTANDER                                             3
 ACTION:UPD 14-01-08 09:56 OP:ep   STATUS:               ID:20130621134204 L   I
 OLDACT:REG 13-06-21 18:03 OP:cam  STATUS:               ID:20130621133959     3
 2013-06-21-1339-59M.COL___264                                                 6
 STAT SP IPHASW D HRMM SECON CODA AMPLIT PERI AZIMU VELO AIN AR TRES W  DIS CAZ7
 BAR2 SZ EP       1342 24.21                             173   -0.2910 17.8 181 
 BAR2 SZ ES   1   1342 40.36                             173    0.32 7 17.8 181 
 BRR  HZ EP   1   1342 26.28                             153    0.23 7 70.8 304 
 BRR  HN ES   1   1342 42.66                             153   -0.14 7 70.8 304 
 RUS  HZ EP   2   1342 28.73                             146    0.42 5 95.8 174 
 RUS  HN ES   1   1342 46.69                             146   -0.13 7 95.8 174 
 RUS  HZ I        1342 49.64         4.2 0.38            143           95.8 174 
 PTB  HZ EP   1   1342 31.35                             134   -0.06 7  143 261 
 PTB  HN ES   1   1342 52.45                             134    0.11 7  143 261 
 PTB  HZ I        1342 54.44         3.3 0.16            132            143 261 
                                                                                
