 2016  721 1036 51.2 L   6.759 -73.094141.7  RSN  6 0.3 1.6LRSN                1
 GAP=240        0.62       3.5     4.4  4.4  0.5318E+01  0.4968E+01  0.2674E+01E
 Epicentro: LOS SANTOS - SANTANDER                                             3
 ACTION:UPD 17-03-29 16:53 OP:lp   STATUS:               ID:20160721103651 L   I
 OLDACT:DUP 16-07-21 20:19 OP:lv   STATUS:               ID:20160721102760d    3
 2016-07-21-1027-59S.COL___325                                                 6
 STAT SP IPHASW D HRMM SECON CODA AMPLIT PERI AZIMU VELO AIN AR TRES W  DIS CAZ7
 BAR2 EZ EP       1037 10.12                             171   -0.1310 20.8 208 
 BAR2 EZ ES       1037 25.13                             171   -0.0110 20.8 208 
 BRR  HZ EP       1037 12.05                             149   -0.2510 78.4 299 
 BRR  HN ES       1037 29.10                             149    0.3210 78.4 299 
 BRR  HZ I        1037 31.62         8.9 0.19            148           78.4 299 
 RUS  HZ EP       1037 14.16                             144   -0.0010 95.8 179 
 RUS  HE ES   2   1037 31.97                             144   -0.13 5 95.8 179 
 RUS  HZ I        1037 33.63         3.1 0.25            145           95.8 179 
 SPBC HZ EP       1037 19.27                             128   -0.09 9  163 222 
 SPBC HN ES       1037 41.48                             128    0.12 9  163 222 
 SPBC HZ I        1037 44.67         6.3 0.16            128            163 222 
 ZAR  HZ EP       1037 24.61                             120    0.54 8  211 293 
 ZAR  HN ES       1037 49.25                             120   -0.49 8  211 293 
 ZAR  HZ I        1037 54.25         4.6 0.23            121            211 293 
 GUY2CHZ EP       1037 34.94                             111    0.12 7  303 236 
 GUY2CHE ES   2   1038  8.73                             111   -0.14 4  303 236 
 GUY2CHZ I        1038 16.99         2.4 0.40                           303 236 
                                                                                
