 2012  221 1515 11.2 L   6.772 -73.147150.5  RSN  6 0.4 2.2LRSN                1
 GAP=138        0.71       6.6     5.9  7.4 -0.8153E+01  0.3793E+01  0.9256E+01E
 ACTION:UP  12-03-07 16:32 OP:epov STATUS:               ID:20120221151511 L   I
 2012-02-21-1510-00M.COL___191                                                 6
 STAT SP IPHASW D HRMM SECON CODA AMPLIT PERI AZIMU VELO AIN AR TRES W  DIS CAZ7
 BAR2 SZ EP   1   1515 31.40                             172    0.05 7 20.2 191 
 BAR2 SZ ES   2   1515 46.70                             172   -0.37 5 20.2 191 
 BAR2 SZ I        1515 50.43        33.7 0.86                          20.2 191 
 GIR2 SZ EP   1   1515 31.50                             167   -0.03 7 34.3 351 
 GIR2 SZ ES   2   1515 47.26                             167   -0.12 5 34.3 351 
 BRR  HZ EP   1   1515 33.19                             153    0.24 7 72.6 301 
 BRR  HZ I        1515 33.44        28.6 0.13                          72.6 301 
 BRR  HN ES   1   1515 50.50                             153    0.59 7 72.6 301 
 PAM  SZ EP   1   1515 34.45                             151    0.37 7 79.9  38 
 PAM  SN ES   1   1515 51.34                             151   -0.58 7 79.9  38 
 RUS  HZ EP   2   1515 35.39                             146    0.18 5 97.5 176 
 RUS  HN ES   2   1515 54.32                             146    0.38 5 97.5 176 
 PTB  HZ EP   1   1515 37.92                             133   -0.58 7  147 260 
 PTB  HN ES   2   1515 59.37                             133   -0.42 5  147 260 
                                                                                
