 2015 1221 1736 34.9 L   6.776 -73.148146.2  RSN  5 0.4 1.5LRSN                1
 GAP=235        1.02       6.1     7.1  8.0  0.7231E+01  0.1394E+02  0.2469E+01E
 Epicentro: LOS SANTOS - SANTANDER                                             3
 ACTION:UPD 16-02-04 15:06 OP:cam  STATUS:               ID:20151221172749 L   I
 OLDACT:UPD 15-12-21 21:32 OP:AK   STATUS:               ID:20151221172749 L   3
 2015-12-21-1727-49M.COL___335                                                 6
 STAT SP IPHASW D HRMM SECON CODA AMPLIT PERI AZIMU VELO AIN AR TRES W  DIS CAZ7
 BAR2 EZ EP       1736 54.54                             172   -0.0310 20.7 191 
 BAR2 EZ ES       1737  9.50                             172   -0.3810 20.7 191 
 BAR2 EZ I        1737 12.12         6.3 0.19            168           20.7 191 
 BRR  HZ EP       1736 56.39                             152    0.2010 72.3 300 
 BRR  HN ES       1737 13.32                             152    0.5510 72.3 300 
 BRR  HZ I        1737 18.76         7.0 0.19            150           72.3 300 
 RUS  HE ES       1737 16.88                             145   -0.0810 98.0 176 
 RUS  HZ I        1737 18.63         2.4 0.32            147           98.0 176 
 PTB  HZ EP       1737  1.55                             132   -0.33 9  147 260 
 PTB  HN ES       1737 22.22                             132   -0.67 9  147 260 
 PTB  HZ I        1737 28.30         4.5 0.17            132            147 260 
 SPBC HZ EP       1737  3.36                             130    0.09 9  161 220 
 SPBC HN ES       1737 25.99                             130    0.63 9  161 220 
 SPBC HZ I        1737 31.29         7.7 0.11            130            161 220 
                                                                                
