 2012  521 1357 49.3 L   6.667 -73.189145.4  RSN  5 0.3 1.3LRSN                1
 GAP=222        0.67       6.9     6.4  8.0  0.2273E+02  0.1432E+02 -0.3953E+01E
 Epicentro: VILLANUEVA - SANTANDER                                             3
 ACTION:UP  12-07-05 12:07 OP:pat  STATUS:               ID:20120521135749 L   I
 2012-05-21-1350-00M.COL___200                                                 6
 STAT SP IPHASW D HRMM SECON CODA AMPLIT PERI AZIMU VELO SNR AR TRES W  DIS CAZ7
 BAR2 SZ EP   1   1358  8.45                             177    -0.2 7    8 175 
 BAR2 SZ ES   1   1358 23.62                             177    -0.1 7    8 175 
 BAR2 SZ I        1358 24.30         6.3 0.21                             8 175 
 BRR  HZ EP   1   1358 10.63                             151     0.0 7   76 310 
 BRR  HN ES   1   1358 27.19                             151    -0.1 7   76 310 
 RUS  HZ I        1358 29.91         1.8 0.63                            86 172 
 RUS  HN ES   1   1358 30.11                             148     0.4 7   86 172 
 PTB  HZ EP   1   1358 15.43                             133    -0.1 7  141 264 
 PTB  HN ES   1   1358 35.70                             133    -0.4 7  141 264 
 PTB  HZ I        1358 39.54         2.8 0.13                           141 264 
 ZAR  HN ES   1   1358 47.85                             122     0.6 6  206 296 
                                                                                
