 2011  121 1135 44.9 L   6.746 -73.168139.0  RSN 16 0.4 2.8LRSN                1
 GAP=134        0.88       2.9     4.8  5.6 -0.2773E+01  0.1052E+02  0.7880E+00E
 Epicentro: VILLANUEVA - SANTANDER                                             3
 ACTION:UP  11-02-08 08:41 OP:pat  STATUS:               ID:20110121113544 L   I
 2011-01-21-1133-49S.COL___138                                                 6
 STAT SP IPHASW D HRMM SECON CODA AMPLIT PERI AZIMU VELO SNR AR TRES W  DIS CAZ7
 BAR2 SZ IP       1136  3.57                             173    -0.110   17 186 
 BAR2 SZ ES   1   1136 18.01                             173    -0.2 7   17 186 
 BAR2 SZ I        1136 19.75       146.8 0.13                            17 186 
 BTL  SZ IP       1136  3.94                             171     0.210   22 330 
 BTL  SZ ES   1   1136 18.30                             171    -0.1 7   22 330 
 GIR2 SZ EP       1136  3.86                             164    -0.110   37 356 
 RUS  HZ IP     D 1136  7.28                             144    -0.310   95 174 
 RUS  HN ES   1   1136 25.31                             144     0.0 7   95 174 
 RUS  HZ I        1136 26.72       110.8 0.35                            95 174 
 GRA  SZ IP       1136 10.83                             134     0.710  132  18 
 GRA  SZ ES   1   1136 30.15                             134     0.3 7  132  18 
 GRA  SZ I        1136 31.74        83.5 0.37                           132  18 
 OCA  SZ EP       1136 12.57                             127    -0.7 9  166 354 
 OCA  SZ I        1136 42.26        89.6 0.21                           166 354 
 YOP  SZ EP   1   1136 13.93                             125    -0.2 7  175 152 
 YOP  SE ES       1136 37.04                             125     0.2 9  175 152 
 YOP  SZ I        1136 38.19        58.3 0.27                           175 152 
 NOR  SZ EP   1   1136 19.07                             118    -0.6 6  229 235 
 NOR  SN ES   1   1136 47.13                             118     0.3 6  229 235 
 CHI  HZ EP   1   1136 21.27                             116    -0.3 6  242 195 
 CHI  HN ES   1   1136 50.23                             116     0.1 6  242 195 
 CHI  HZ I        1136 53.53        28.1 0.33                           242 195 
 ROSC BZ EP   1   1136 22.83                             116     0.8 6  246 211 
 ROSC BN ES   1   1136 50.82                             116    -0.1 6  246 211 
 ROSC BZ I        1136 58.32        62.8 0.28                           246 211 
 HEL  HZ EP   1   1136 24.50                             114     0.1 6  268 257 
 HEL  HZ I        1137  2.21        60.9 0.41                           268 257 
 VIL  SZ EP   1   1136 26.79                             111    -0.4 5  295 190 
 VIL  SZ I        1137  5.88        22.8 0.44                           295 190 
 GUY  SZ EP   1   1136 27.94                             111     0.3 5  296 236 
 GUY  SZ I        1137  8.92        74.8 0.50                           296 236 
 RREF HZ EP   1   1136 30.45                             110     0.3 5  316 230 
 RREF HN ES   1   1137  5.65                             110     0.2 5  316 230 
 RREF HZ I        1137 13.94        43.6 0.24                           316 230 
 DBB  SZ EP   1   1136 31.68                             108    -0.2 5  338 275 
 TOL  SZ EP   1   1136 32.57                             108     0.3 5  338 225 
                                                                                
