 2017  921 1713 39.8 L   6.357 -73.582115.6  RSN 21 0.6 2.3LRSN                1
 GAP= 69        1.23       2.9     3.3  6.9  0.3584E+00  0.1104E+02  0.6542E+01E
 Epicentro: SANTA HELENA DEL OPON - SANTANDER                                  3
 ACTION:UPD 17-10-05 19:14 OP:rebc STATUS:               ID:20170921171339 L   I
 OLDACT:REG 17-09-21 20:41 OP:lv   STATUS:               ID:20170921170739     3
 2017-09-21-1708-00M.COL___441                                                 6
 STAT SP IPHASW D HRMM SECON CODA AMPLIT PERI AZIMU VELO AIN AR TRES W  DIS CAZ7
 BAR2 EZ EP       1713 57.10                             154    0.2210 51.3  59 
 BAR2 EZ ES       1714 10.18                             154   -0.0610 51.3  59 
 RUS  HZ IP     C 1713 58.34                             145   -0.3910 75.4 133 
 RUS  HN ES       1714 12.83                             145   -0.7010 75.4 133 
 RUS  HZ I        1714 14.04        24.9 0.14            140           75.4 133 
 BRR  HZ IP       1713 58.63                             141   -0.0610 84.2 350 
 BRR  HN ES       1714 13.74                             141    0.2910 84.2 350 
 BRR  HZ I        1714 14.33        39.6 0.12            141           84.2 350 
 PAM  EZ EP       1714  5.32                             125    0.41 9  146  42 
 PAM  EN ES       1714 24.90                             125    0.38 9  146  42 
 PAM  EZ I        1714 29.37        16.5 0.44            123            146  42 
 TABC EZ EP       1714  7.65                             121    0.95 9  164 205 
 TABC EZ ES   4   1714 29.72                             121    2.00 0  164 205 
 TABC EZ I        1714 33.74        16.3 0.38            118            164 205 
 NOR  HZ EP       1714  5.72                             120   -0.81 9  167 238 
 NOR  HN ES   4   1714 26.32                             120   -1.08 0  167 238 
 NOR  HZ I        1714 31.47        38.7 0.18            118            167 238 
 YPLC HZ IP     C 1714  6.93                             120    0.07 9  170 129 
 YPLC HZ I        1714 29.74        29.2 0.30            116            170 129 
 ROSC HE ES   4   1714 34.17                             117    2.33 0  187 206 
 ZAR  HZ EP       1714  8.54                             117   -0.23 9  189 312 
 ZAR  HN ES       1714 31.83                             117    0.43 9  189 312 
 ZAR  HZ I        1714 36.98        52.0 0.11            116            189 312 
 CHI  HZ EP       1714  9.30                             117   -0.30 9  192 185 
 CHI  HN ES       1714 32.59                             117   -0.29 9  192 185 
 CHI  HZ I        1714 36.48        11.5 0.30            114            192 185 
 HEL  HZ EP       1714 12.46                             114    0.21 8  216 265 
 HEL  HN ES       1714 37.44                             114   -0.15 8  216 265 
 HEL  HZ I        1714 40.49        22.2 0.52            112            216 265 
 GUY2CHZ EP       1714 14.09                             112   -0.28 8  234 238 
 GUY2CHN ES   4   1714 43.61                             112    2.24 0  234 238 
 GUY2CHZ I        1714 46.31        16.6 0.30                           234 238 
 VIL  EZ EP       1714 15.13                             110   -0.48 8  248 183 
 VIL  EN ES       1714 44.28                             110    0.70 8  248 183 
 VIL  EZ I        1714 47.87        23.4 0.36            107            248 183 
 ELA  HZ EP   9   1714 19.34                             109    1.83 0  261 231 
 ELA  HN ES       1714 49.27                                    0.49 8  261 231 
 ELA  HZ I        1714 55.19        12.3 0.30            107            261 231 
 URE  HZ EP   9   1714 14.23                             108   -3.14 0  265 306 
 URE  HN ES       1714 43.85                                    0.28 8  265 306 
 URE  HZ I        1714 46.86        34.6 0.14            107            265 306 
 CBOC HZ EP       1714 18.38                             108   -0.28 8  274 259 
 CBOC HN ES       1714 48.31                             108   -0.69 8  274 259 
 CBOC HZ I        1714 51.61         5.8 0.24            106            274 259 
 PTGC HZ EP   4   1714 18.85                             107   -1.12 0  288 146 
 PTGC HN ES   4   1714 48.85                             107   -2.48 0  288 146 
 ANIL HZ EP       1714 21.21                             107    0.76 7  289 224 
 ANIL HN ES       1714 54.17                             107    1.97 7  289 224 
 ANIL HZ I        1714 57.87        22.9 0.22            105            289 224 
 DBB  EZ EP       1714 21.08                             106   -0.40 7  300 284 
 DBB  EN ES       1714 53.45                             106   -0.58 7  300 284 
 DBB  EZ I        1714 57.07         9.5 0.16            104            300 284 
 PRA  HE ES       1715  0.04                             104    0.56 7  326 206 
 PRA  HZ I        1715  5.42        18.6 0.28            102            326 206 
 ORTC HZ EP       1714 24.34                             104   -0.38 7  328 214 
 ORTC HN ES       1714 59.38                             104   -0.41 7  328 214 
 ORTC HZ I        1715  6.60         6.1 0.20            102            328 214 
 PAL  HZ EP       1714 26.43                             103    0.25 7  340 242 
 PAL  HN ES       1715  1.85                             103   -0.54 7  340 242 
 SJC  HZ EP   4   1714 35.54                              99   -1.36 0  429 336 
 SJC  HN ES   4   1715 19.06                              99   -2.42 0  429 336 
 CRJC HZ EP       1714 47.62                              96   -0.47 4  521   8 
 CRJC HN ES   4   1715 40.86                              96   -0.52 0  521   8 
 CRJC HZ I        1715 42.22         6.0 0.08             94            521   8 
                                                                                
