 2015 1221 1115 39.5 L   6.821 -73.155145.3  RSN 18 0.5 2.5LRSN                1
 GAP=134        1.20       3.2     4.6  5.8 -0.4421E+01  0.7217E+01  0.2091E+01E
 Epicentro: LOS SANTOS - SANTANDER                                             3
 ACTION:UPD 16-02-04 15:06 OP:cam  STATUS:               ID:20151221110748 L   I
 OLDACT:UPD 15-12-21 21:32 OP:AK   STATUS:               ID:20151221110748 L   3
 2015-12-21-1107-48M.COL___332                                                 6
 STAT SP IPHASW D HRMM SECON CODA AMPLIT PERI AZIMU VELO AIN AR TRES W  DIS CAZ7
 BAR2 EZ EP       1115 59.09                             170   -0.0410 25.5 187 
 BAR2 EZ ES       1116 14.03                             170   -0.4010 25.5 187 
 BAR2 EZ I        1116 15.03        91.5 0.19            168           25.5 187 
 BRR  HZ EP     C 1116  0.95                             153    0.4510 69.2 297 
 BRR  HE ES       1116 18.12                             153    1.2510 69.2 297 
 BRR  HZ I        1116 19.61        63.5 0.14            151           69.2 297 
 PAM  EZ EP       1116  2.01                             151    0.4010 76.3  41 
 PAM  EN ES       1116 19.15                             151    0.3010 76.3  41 
 PAM  EZ I        1116 21.49        65.9 0.28            155           76.3  41 
 RUS  HZ EP       1116  3.80                             143    0.4110  103 176 
 RUS  HZ E        1116  3.80                                            103 176 
 RUS  HE ES   2   1116 21.47                             143   -0.54 5  103 176 
 RUS  HZ I        1116 22.52        21.1 0.22            144            103 176 
 PTB  HZ EP       1116  5.60                             132   -0.79 9  147 258 
 PTB  HN ES       1116 26.57                             132   -0.79 9  147 258 
 PTB  HZ I        1116 28.89        50.5 0.15            131            147 258 
 OCA  HZ EP       1116  7.16                             130   -0.40 9  158 353 
 OCA  HN ES       1116 29.12                             130   -0.31 9  158 353 
 OCA  HZ I        1116 32.72        83.8 0.25            131            158 353 
 SPBC HZ EP       1116  8.04                             129   -0.04 9  164 218 
 SPBC HN ES       1116 29.57                             129   -0.80 9  164 218 
 SPBC HZ I        1116 33.55        43.3 0.17            129            164 218 
 ZAR  HZ EP       1116 11.76                             123    0.02 9  202 292 
 ZAR  HN ES   2   1116 37.25                             123    0.37 4  202 292 
 ZAR  HZ I        1116 44.01        49.7 0.29            122            202 292 
 NOR  HZ EP       1116 15.44                             118    0.17 8  235 234 
 NOR  HE ES       1116 43.06                             118   -0.10 8  235 234 
 NOR  HZ I        1116 48.33        18.5 0.14            118            235 234 
 SML  HZ EP       1116 15.30                             118   -0.54 8  241 335 
 SML  HN ES       1116 43.43                             118   -0.74 8  241 335 
 SML  HZ I        1116 48.73        42.0 0.09            118            241 335 
 CHI  HZ EP       1116 17.44                             117    0.05 8  251 195 
 CHI  HN ES   2   1116 46.17                             117   -0.77 4  251 195 
 CHI  HZ I        1116 52.64         8.0 0.26            118            251 195 
 HEL  HZ EP       1116 20.65                             115    1.00 8  272 255 
 HEL  HN ES       1116 51.17                             115    0.21 8  272 255 
 HEL  HZ I        1116 59.88        12.7 0.26            115            272 255 
 URE  HZ EP       1116 20.15                             114   -0.21 7  282 292 
 URE  HN ES   4   1116 50.25                             114   -1.97 0  282 292 
 URE  HZ I        1116 54.49        19.1 0.14            114            282 292 
 SOCV BZ EP   4   1116 20.83                             112   -1.66 0  301  57 
 SOCV BN ES   4   1116 51.95                             112   -4.06 0  301  57 
 GUY2CHZ EP   2   1116 23.75                             112    0.60 4  302 234 
 GUY2CHN ES       1116 58.02                             112    0.82 7  302 234 
 GUY2CHZ I        1117  5.67        15.9 0.40                           302 234 
 MON  HZ EP   4   1116 33.19                             109    4.95 0  351 308 
 MON  HE ES   4   1117  4.42                             109   -1.82 0  351 308 
 MON  HZ I        1117  6.00        10.5 0.19            109            351 308 
 PRA  HZ EP       1116 33.17                             106   -0.02 6  394 209 
 PRA  HN ES       1117 14.85                             106   -0.21 6  394 209 
 PRA  HZ I        1117 21.99        11.4 0.35            107            394 209 
 ORTC HZ EP   1   1116 33.91                             106    0.35 4  397 216 
 ORTC HE ES       1117 15.78                             106    0.06 6  397 216 
 ORTC HZ I        1117 22.13         4.9 0.31            107            397 216 
 PAL  HZ EP       1116 35.07                             106    0.38 6  406 239 
 PAL  HE ES   4   1117 15.77                             106   -1.96 0  406 239 
 PAL  HZ I        1117 24.98         4.2 0.18            106            406 239 
                                                                                
