 2014 1221 1656 19.7 L   6.798 -73.134144.0  RSN 18 0.5 2.3LRSN                1
 GAP= 72        1.10       2.6     3.2  5.2 -0.5295E+00  0.6100E+01  0.1921E+01E
 Epicentro: LOS SANTOS - SANTANDER                                             3
 ACTION:UPD 15-02-10 17:06 OP:nd   STATUS:               ID:20141221165619 L   I
 OLDACT:REG 14-12-21 21:55 OP:fm   STATUS:               ID:20141221164749     3
 2014-12-21-1647-49M.COL___296                                                 6
 STAT SP IPHASW D HRMM SECON CODA AMPLIT PERI AZIMU VELO AIN AR TRES W  DIS CAZ7
 BAR2 EZ IP     D 1656 39.44                             170    0.3210 23.4 193 
 BAR2 EZ ES       1656 54.24                             170   -0.0210 23.4 193 
 BAR2 EZ I        1656 56.15        26.7 0.28            168           23.4 193 
 BRR  HZ EP       1656 41.39                             152    0.6610 72.5 298 
 BRR  HE ES       1656 57.60                             152    0.4710 72.5 298 
 BRR  HZ I        1657  3.65        21.0 0.16            150           72.5 298 
 PAM  SZ EP       1656 42.19                             151    0.5010 76.7  39 
 PAM  SE ES       1656 59.03                             151    0.2010 76.7  39 
 PAM  SZ I        1657  1.58        25.1 0.20            157           76.7  39 
 RUS  HZ EP       1656 43.32                             143    0.0710  100 177 
 RUS  HE ES       1657  1.30                             143   -0.3210  100 177 
 RUS  HZ I        1657  3.07        11.8 0.42            146            100 177 
 PTB  HZ EP       1656 46.27                             131   -0.37 9  149 259 
 PTB  HN ES       1657  7.25                             131   -0.40 9  149 259 
 PTB  HZ I        1657 13.43        28.8 0.40            131            149 259 
 TAM  HE ES       1657  7.72                             130   -0.77 9  154 105 
 OCA  HE ES       1657  9.37                             129   -0.54 9  161 353 
 OCA  HZ I        1657 15.47        25.1 0.28            132            161 353 
 SPBC HZ EP       1656 48.38                             128    0.25 9  164 219 
 SPBC HE ES       1657 10.08                             128   -0.21 9  164 219 
 SPBC HZ I        1657 17.61        45.3 0.38            130            164 219 
 ZAR  HZ EP       1656 51.57                             122   -0.60 8  205 292 
 ZAR  HN ES       1657 17.99                             122    0.50 8  205 292 
 ZAR  HZ I        1657 23.80        26.3 0.30            123            205 292 
 NOR  HZ EP       1656 55.60                             118    0.17 8  236 235 
 NOR  HE ES       1657 23.19                             118   -0.11 8  236 235 
 NOR  HZ I        1657 30.62        16.6 0.24            119            236 235 
 SML  HZ EP       1656 56.39                             117    0.08 8  244 335 
 SML  HE ES       1657 24.31                             117   -0.55 8  244 335 
 SML  HZ I        1657 29.11        26.0 0.22            120            244 335 
 CHI  HZ EP       1656 57.63                             117    0.32 8  249 195 
 CHI  HN ES       1657 26.44                             117   -0.21 8  249 195 
 CHI  HZ I        1657 32.78         7.9 0.26            119            249 195 
 ROSC BZ EP       1656 57.95                             116    0.17 8  253 211 
 ROSC BE ES       1657 27.81                             116    0.34 8  253 211 
 ROSC BZ I        1657 37.39        19.7 0.35            118            253 211 
 HEL  HZ EP       1657  0.07                             114    0.11 8  273 256 
 HEL  HN ES       1657 31.93                             114    0.57 8  273 256 
 HEL  HZ I        1657 38.19         9.0 0.32            116            273 256 
 CBOC HZ EP       1657  7.69                             109    1.01 7  335 252 
 CBOC HN ES       1657 41.66                             109   -1.66 7  335 252 
 CBOC HZ I        1657 57.74         3.0 0.26            111            335 252 
 DBB  SZ EP       1657  6.83                             109   -0.43 7  341 274 
 DBB  SZ ES   1   1657 43.77                             109   -0.58 5  341 274 
 DBB  SZ I        1657 45.39        21.1 0.40            111            341 274 
 TOL  SZ EP   1   1657  8.18                             109    0.21 5  344 225 
 TOL  SN ES   1   1657 46.16                             109    0.53 5  344 225 
 TOL  SZ I        1657 51.18        22.4 0.22            111            344 225 
 ORTC HZ EP       1657 12.94                             106   -0.69 6  396 216 
 ORTC HE ES       1657 55.91                             106    0.22 6  396 216 
 ORTC HZ I        1658  1.11         5.6 0.32            108            396 216 
                                                                                
