 2016 1121 1020 37.7 L   6.737 -73.145149.5  RSN  5 0.4 1.4LRSN                1
 GAP=251        1.07       8.0     6.9  8.5  0.6026E-01  0.1720E+02 -0.4428E+00E
 Epicentro: LOS SANTOS - SANTANDER                                             3
 ACTION:UPD 17-10-26 21:10 OP:lp   STATUS:               ID:20161121102037 L   I
 OLDACT:UP  16-11-21 21:58 OP:dani STATUS:               ID:20161121101745     3
 OLDACT:UP  16-11-21 21:58 OP:dani STATUS:               ID:20161121101745     3
 OLDACT:REG 16-11-21 20:22 OP:dani STATUS:               ID:20161121101745     3
 2016-11-21-1018-00M.COL___334                                                 6
 STAT SP IPHASW D HRMM SECON CODA AMPLIT PERI AZIMU VELO AIN AR TRES W  DIS CAZ7
 BAR2 EZ EP       1020 57.64                             173   -0.0510 16.6 195 
 BAR2 EZ ES       1021 12.94                             173   -0.3210 16.6 195 
 BAR2 EZ I        1021 16.19         8.2 0.82            171           16.6 195 
 BRR  HZ EP       1020 59.76                             152    0.2810 74.9 303 
 BRR  HE ES       1021 17.09                             152    0.6410 74.9 303 
 BRR  HZ I        1021 19.82         5.0 0.35            149           74.9 303 
 PTB  HZ EP       1021  4.61                             133   -0.29 9  147 262 
 PTB  HN ES       1021 25.44                             133   -0.66 9  147 262 
 PTB  HZ I        1021 33.10         2.7 0.21            133            147 262 
 ZAR  HZ EP       1021 10.67                             123   -0.03 8  207 294 
 ZAR  HE ES       1021 36.17                             123   -0.26 8  207 294 
 ZAR  HZ I        1021 43.03         1.6 0.20            124            207 294 
 NOR  HE ES       1021 41.72                             120    0.74 8  231 236 
                                                                                
