 2014  121 1038  4.4 L   6.763 -73.163142.3  RSN  5 0.3 1.5LRSN                1
 GAP=138        0.85       4.0     4.9  6.2 -0.5543E+01  0.6603E+01  0.3981E+01E
 Epicentro: LOS SANTOS - SANTANDER                                             3
 ACTION:UPD 14-03-13 09:57 OP:ep   STATUS:               ID:20140121103804 L   I
 OLDACT:DUP 14-01-21 17:53 OP:stll STATUS:               ID:20140121102819d    3
 2014-01-21-1028-18M.COL___228                                                 6
 STAT SP IPHASW D HRMM SECON CODA AMPLIT PERI AZIMU VELO AIN AR TRES W  DIS CAZ7
 BAR2 SZ EP       1038 23.88                             172    0.3010 19.0 186 
 BAR2 SZ ES       1038 38.32                             172   -0.1810 19.0 186 
 BAR2 SZ I        1038 39.92        10.5 0.26            170           19.0 186 
 PAM  SZ EP       1038 26.79                             149    0.2210 81.8  39 
 PAM  SZ I        1038 26.96         5.7 0.18            151           81.8  39 
 PAM  SN ES       1038 43.61                             149   -0.2210 81.8  39 
 RUS  HZ EP       1038 27.87                             144    0.3010 96.6 175 
 RUS  HN ES       1038 45.60                             144   -0.0110 96.6 175 
 RUS  HZ I        1038 47.03         3.3 0.22            144           96.6 175 
 PTB  HZ EP       1038 30.84                             132   -0.05 9  145 260 
 PTB  HN ES       1038 51.58                             132    0.07 9  145 260 
 PTB  HZ I        1038 53.88         4.1 0.26            132            145 260 
 CHI  HZ EP       1038 40.49                             117   -0.97 8  244 195 
 CHI  HE ES       1039 10.64                             117    0.30 8  244 195 
 CHI  HZ I        1039 14.42         1.5 0.32            117            244 195 
                                                                                
