 2016  121 1732 11.9 L   6.822 -73.203144.5  RSN  7 0.2 1.8LRSN                1
 GAP=128        0.58       2.1     4.4  4.5 -0.2917E+01  0.7983E+01 -0.2513E+00E
 Epicentro: ZAPATOCA - SANTANDER                                               3
 ACTION:UPD 16-03-09 23:27 OP:cam  STATUS:               ID:20160121173211 L   I
 OLDACT:DUP 16-01-21 23:48 OP:cara STATUS:               ID:20160121172746d    3
 OLDACT:REG 16-01-21 21:01 OP:cara STATUS:               ID:20160121172745     3
 2016-01-21-1727-45M.COL___316                                                 6
 STAT SP IPHASW D HRMM SECON CODA AMPLIT PERI AZIMU VELO AIN AR TRES W  DIS CAZ7
 BAR2 EZ EP       1732 31.12                             170   -0.3510 25.5 175 
 BAR2 EZ ES       1732 46.60                             170   -0.1010 25.5 175 
 BAR2 EZ I        1732 47.97         9.4 0.14            169           25.5 175 
 PAM  EZ IP     C 1732 34.30                             150    0.1310 79.8  44 
 PAM  EN ES       1732 51.65                             150    0.1410 79.8  44 
 PAM  EZ I        1732 53.52        10.7 0.48            155           79.8  44 
 RUS  HZ EP       1732 35.48                             143   -0.3110  104 173 
 RUS  HN ES       1732 54.57                             143    0.1810  104 173 
 RUS  HZ I        1732 55.17         7.3 0.36            144            104 173 
 SPBC HZ IP       1732 40.57                             129    0.42 9  161 217 
 SPBC HN ES       1733  2.07                             129   -0.09 9  161 217 
 SPBC HZ I        1733  8.49         9.9 0.26            129            161 217 
 SML  HN ES       1733 16.09                             118    0.00 8  239 336 
 SML  HZ I        1733 19.70        12.5 0.28            118            239 336 
 CHI  HZ IP       1732 49.56                             117   -0.09 8  249 194 
 CHI  HN ES       1733 19.22                             117    0.15 8  249 194 
 CHI  HZ I        1733 25.06         2.8 0.32            118            249 194 
 GUY2CHZ EP   4   1732 57.45                             112    2.38 0  297 234 
 GUY2CHN ES   4   1733 30.91                             112    2.20 0  297 234 
 GUY2CHZ I        1733 41.52         2.6 0.46                           297 234 
                                                                                
