 2015 1121 1144 23.7 L   6.795 -73.181143.2  RSN  7 0.3 1.7LRSN                1
 GAP=132        0.76       3.2     3.2  5.1 -0.4114E+00  0.3565E+01  0.1115E+01E
 Epicentro: LOS SANTOS - SANTANDER                                             3
 ACTION:UPD 15-12-28 16:12 OP:cam  STATUS:               ID:20151121114423 L   I
 OLDACT:REG 15-11-21 21:20 OP:al   STATUS:               ID:20151121113746     3
 2015-11-21-1137-46M.COL___318                                                 6
 STAT SP IPHASW D HRMM SECON CODA AMPLIT PERI AZIMU VELO AIN AR TRES W  DIS CAZ7
 BAR2 EZ EP       1144 42.88                             171   -0.1510 22.5 181 
 BAR2 EZ ES       1144 57.86                             171   -0.2210 22.5 181 
 BAR2 EZ I        1145  0.62        10.8 0.36            171           22.5 181 
 BRR  HZ IP       1144 44.85                             153    0.4310 68.1 300 
 BRR  HN ES       1145  0.83                             153    0.2710 68.1 300 
 PAM  EZ EP       1144 45.61                             149   -0.2310 80.3  41 
 PAM  EN ES       1145  2.96                             149   -0.1310 80.3  41 
 PAM  EZ I        1145  4.97         7.9 0.54            153           80.3  41 
 RUS  HZ EP       1144 47.36                             143    0.1510  100 174 
 RUS  HE ES       1145  5.85                             143    0.3210  100 174 
 RUS  HZ I        1145  6.51         6.0 0.30            147            100 174 
 PTB  HZ EP       1144 49.90                             132   -0.23 9  144 259 
 PTB  HN ES       1145 10.09                             132   -0.63 9  144 259 
 PTB  HZ I        1145 17.96         7.7 0.50            132            144 259 
 SPBC HZ EP       1144 51.76                             129    0.00 9  160 218 
 SPBC HE ES       1145 13.67                             129    0.05 9  160 218 
 SPBC HZ I        1145 16.49        15.4 0.28            130            160 218 
 ZAR  HZ EP   2   1144 55.45                             122   -0.20 4  201 293 
 ZAR  HN ES       1145 20.98                             122    0.42 9  201 293 
 ZAR  HZ I        1145 28.08         4.7 0.31            123            201 293 
                                                                                
