 2011  821 1919 27.8 L   6.796 -73.120141.6  RSN  5 0.3 1.8LRSN                1
 GAP=185        0.61       3.2     6.5  5.6  0.5709E+01 -0.6192E+01 -0.1487E+01E
 Epicentro: LOS SANTOS - SANTANDER                                             3
 ACTION:UPD 12-07-13 15:53 OP:ep   STATUS:               ID:20110821191927 L   I
 2011-08-21-1917-40S.COL___152                                                 6
 STAT SP IPHASW D HRMM SECON CODA AMPLIT PERI AZIMU VELO AIN AR TRES W  DIS CAZ7
 BAR2 SZ EP   1   1919 46.52                             170   -0.41 7 23.5 197 
 BAR2 SZ ES   1   1920  1.45                             170   -0.41 7 23.5 197 
 BAR2 SZ I        1920  3.13        16.8 0.31                          23.5 197 
 BRR  HZ EP       1919 48.75                             150    0.0910 73.9 298 
 BRR  HZ I        1919 49.01        17.0 0.16                          73.9 298 
 BRR  HN ES       1920  5.18                             150    0.2510 73.9 298 
 RUS  HZ EP       1919 51.44                             143    0.3510 99.9 178 
 RUS  HE ES   1   1920  9.33                             143    0.07 7 99.9 178 
 RUS  HZ I        1920 11.64         4.8 0.27                          99.9 178 
 OCA  SZ EP   1   1919 55.55                             128   -0.32 7  161 352 
 OCA  SZ ES   1   1920 17.63                             128   -0.13 7  161 352 
 OCA  SZ I        1920 21.55         6.8 0.92                           161 352 
 NOR  SZ EP   2   1920  3.55                             117    0.05 4  237 235 
 NOR  SN ES   2   1920 30.94                             117   -0.42 4  237 235 
                                                                                
