 2016 1221 1021 21.3 L   6.797 -73.197132.0  RSN  8 0.5 1.6LRSN                1
 GAP=130        1.21       4.6     5.0  7.5  0.3006E+01  0.1014E+02  0.6389E+01E
 Epicentro: ZAPATOCA - SANTANDER                                               3
 ACTION:UPD 17-01-11 20:17 OP:rebc STATUS:               ID:20161221102121 L   I
 OLDACT:UP  16-12-21 21:04 OP:dani STATUS:               ID:20161221101741     3
 OLDACT:UP  16-12-21 21:04 OP:dani STATUS:               ID:20161221101741     3
 OLDACT:REG 16-12-21 19:54 OP:dani STATUS:               ID:20161221101741     3
 2016-12-21-1018-00M.COL___369                                                 6
 STAT SP IPHASW D HRMM SECON CODA AMPLIT PERI AZIMU VELO AIN AR TRES W  DIS CAZ7
 BAR2 EZ EP       1021 38.97                             170   -0.2610 22.7 176 
 BAR2 EZ ES       1021 53.82                             170    0.5810 22.7 176 
 BAR2 EZ I        1021 54.64        10.9 0.22            169           22.7 176 
 BRR  HZ EP       1021 40.91                             152    0.2510 66.5 301 
 BRR  HN ES       1021 56.19                             152    0.4010 66.5 301 
 BRR  HZ I        1022  1.96        14.1 0.06            150           66.5 301 
 PAM  EZ EP       1021 42.04                             147   -0.2510 81.3  42 
 PAM  EE ES       1021 58.67                             147   -0.0210 81.3  42 
 PAM  EZ I        1022  0.32         6.8 0.20            152           81.3  42 
 RUS  HZ EP       1021 42.99                             141   -0.7110  101 173 
 RUS  HN ES       1022  1.18                             141   -0.0310  101 173 
 RUS  HZ I        1022  2.80         6.1 0.31            143            101 173 
 PTB  HZ EP       1021 45.83                             130   -0.79 9  142 259 
 PTB  HN ES       1022  5.66                             130   -0.73 9  142 259 
 PTB  HZ I        1022  8.93         8.0 0.13            130            142 259 
 ZAR  HZ EP       1021 52.67                             120    0.36 9  199 293 
 ZAR  HN ES       1022 16.87                             120    0.34 9  199 293 
 ZAR  HZ I        1022 25.94         4.9 0.17            121            199 293 
 CHI  HZ EP       1021 58.81                             114    0.77 8  247 194 
 CHI  HE ES       1022 27.28                             114    0.55 8  247 194 
 CHI  HZ I        1022 35.00         1.5 0.47            116            247 194 
 GUY2CHZ EP   3   1022  4.92                             110    1.20 2  296 234 
 GUY2CHN ES   4   1022 39.85                             110    3.01 0  296 234 
 GUY2CHZ I        1022 44.35         2.7 0.22                           296 234 
                                                                                
