 2010  121 1544 27.9 L   6.530 -73.484115.2  RSN 13 0.4 2.6LRSN                1
 GAP= 85        0.89       2.9     5.6  6.3 -0.7164E+01  0.2346E+02 -0.2953E+01E
 Epicentro: EL CARMEN DE CHUCURI - SANTANDER                                   3
 ACTION:UP  10-08-24 09:45 OP:vdl  STATUS:               ID:20100121154427 L   I
 2010-01-21-1539-51S.COL___089                                                 6
 STAT SP IPHASW D HRMM SECON CODA AMPLIT PERI AZIMU VELO SNR AR TRES W  DIS CAZ7
 BAR2 SZ IP       1544 44.41                             163     0.210   34  78 
 BAR2 SZ ES       1544 56.72                             163    -0.210   34  78 
 GIR2 SZ IP       1544 45.92                             147     0.010   69  28 
 GIR2 SZ ES       1545  0.15                             147     0.210   69  28 
 RUS  HZ IP       1544 47.32                             142    -0.110   83 148 
 RUS  HE ES   1   1545  2.22                             142    -0.4 7   83 148 
 RUS  HZ I        1545  3.99        78.7 0.39                            83 148 
 GUE  SZ IP       1544 53.47                             122    -0.4 9  156  23 
 GUE  SZ ES   1   1545 13.65                             122    -0.5 7  156  23 
 GRA  SZ IP       1544 54.83                             120     0.0 9  168  27 
 OCA  SZ IP       1544 57.54                             117     0.3 9  190   5 
 OCA  SZ ES   1   1545 20.93                             117     0.9 7  190   5 
 CHI  HZ EP   1   1545  0.18                             114     0.2 6  212 187 
 CHI  HZ I        1545  1.84        25.9 0.37                           212 187 
 CHI  HE ES   1   1545 25.88                             114     0.9 6  212 187 
 HEL  HZ IP       1545  1.52                             112    -0.4 8  229 261 
 HEL  HE ES   2   1545 28.18                             112    -0.2 4  229 261 
 HEL  HZ I        1545 29.51        33.6 0.45                           229 261 
 GUY  HZ IP       1545  5.41                             110     0.6 8  254 235 
 RREF HZ EP   1   1545  7.38                             108     0.0 6  274 229 
 RREF HE ES   2   1545 38.21                             108     0.1 4  274 229 
 RREF HZ I        1545 44.38        31.4 0.30                           274 229 
 TOL  SZ EP   1   1545  8.94                             106    -0.6 5  296 224 
 DBB  SZ IP       1545  9.89                             105    -0.5 7  306 280 
 PRA  HZ IP       1545 14.98                             103    -0.3 6  348 207 
 PRA  HE ES   1   1545 52.44                             103     0.2 5  348 207 
 PRA  HZ I        1546  2.67        23.3 0.50                           348 207 
                                                                                
