 2016 1121 1127  9.6 L   6.810 -73.153147.2  RSN  6 0.2 1.6LRSN                1
 GAP=147        0.54       4.2     2.6  5.6 -0.2997E+01 -0.5403E+00  0.1448E+02E
 Epicentro: LOS SANTOS - SANTANDER                                             3
 ACTION:UPD 17-10-26 21:10 OP:lp   STATUS:               ID:20161121112709 L   I
 OLDACT:UP  16-11-21 22:29 OP:dani STATUS:               ID:20161121111746d    3
 OLDACT:DUP 16-11-21 22:27 OP:dani STATUS:               ID:20161121111746d    3
 2016-11-21-1118-00M.COL___331                                                 6
 STAT SP IPHASW D HRMM SECON CODA AMPLIT PERI AZIMU VELO AIN AR TRES W  DIS CAZ7
 BAR2 EZ EP       1127 29.21                             170   -0.2110 24.3 188 
 BAR2 EZ I        1127 46.99        12.5 0.30            165           24.3 188 
 BRR  HZ EP       1127 31.03                             153    0.2010 70.0 298 
 BRR  HE ES       1127 47.33                             153   -0.0610 70.0 298 
 BRR  HZ I        1127 49.26        12.7 0.42            157           70.0 298 
 PAM  EZ EP       1127 32.11                             151    0.1610 77.0  41 
 PAM  EN ES       1127 49.39                             151    0.0210 77.0  41 
 PAM  EZ I        1127 51.34         6.0 0.50            153           77.0  41 
 PTB  HZ EP       1127 36.31                             132   -0.32 9  147 258 
 PTB  HN ES       1127 57.70                             132   -0.02 9  147 258 
 PTB  HZ I        1128  2.06         3.3 0.10            133            147 258 
 ZAR  HE ES       1128  7.43                             123    0.12 9  203 292 
 ZAR  HZ I        1128 13.09         2.6 0.24            124            203 292 
 PRA  HZ EP       1128  2.99                             107   -0.25 6  393 209 
 PRA  HE ES       1128 45.64                             107    0.56 6  393 209 
 PRA  HZ I        1128 51.57         1.5 0.36            106            393 209 
                                                                                
