 2015  221 1603 19.8 L   6.820 -73.176146.1  RSN  6 0.4 2.0LRSN                1
 GAP=132        0.94       3.2     5.0  7.9 -0.2089E+01  0.7172E+01 -0.3538E+01E
 Epicentro: ZAPATOCA - SANTANDER                                               3
 ACTION:UPD 15-04-30 21:28 OP:nd   STATUS:               ID:20150221160319 L   I
 OLDACT:REG 15-02-21 21:05 OP:mher STATUS:               ID:20150221155744     3
 2015-02-21-1557-44M.COL___280                                                 6
 STAT SP IPHASW D HRMM SECON CODA AMPLIT PERI AZIMU VELO AIN AR TRES W  DIS CAZ7
 PAM  SZ EP       16 3 42.59                             151    0.5510 77.9  42 
 PAM  SN ES   1   16 3 59.46                             151    0.03 7 77.9  42 
 PAM  SZ I        16 4  1.39        20.6 0.48            153           77.9  42 
 RUS  HZ EP       16 3 43.53                             143   -0.1910  103 174 
 RUS  HN ES       16 4  2.07                             143   -0.3410  103 174 
 RUS  HZ I        16 4  3.69        12.4 0.24            144            103 174 
 PTB  HZ EP       16 3 46.85                             133    0.35 9  145 258 
 PTB  HN ES       16 4  7.18                             133   -0.17 9  145 258 
 PTB  HZ I        16 4 10.30        17.4 0.22            133            145 258 
 SPBC HZ EP       16 3 48.84                             129    0.59 9  163 218 
 SPBC HN ES       16 4 10.68                             129    0.21 9  163 218 
 SPBC HZ I        16 4 12.68        12.2 0.22            130            163 218 
 SML  HZ EP       16 3 55.71                             118   -0.33 8  240 336 
 SML  HN ES       16 4 24.00                             118   -0.34 8  240 336 
 SML  HZ I        16 4 28.21         8.7 0.22            119            240 336 
 CHI  HZ EP       16 3 56.84                             117   -0.77 8  250 194 
 CHI  HN ES       16 4 27.19                             117    0.06 8  250 194 
 CHI  HZ I        16 4 35.21         2.5 0.62            118            250 194 
                                                                                
