 2013  221 1731  5.3 L   6.872 -73.192148.4  RSN  5 0.4 1.8LRSN                1
 GAP=239        0.92       6.2     7.1  8.1  0.2768E+02  0.5937E+00  0.8698E+01E
 Epicentro: ZAPATOCA - SANTANDER                                               3
 ACTION:UPD 13-03-12 09:34 OP:ep   STATUS:               ID:20130221173105 L   I
 2013-02-21-1730-00M.COL___237                                                 6
 STAT SP IPHASW D HRMM SECON CODA AMPLIT PERI AZIMU VELO AIN AR TRES W  DIS CAZ7
 BRR  HZ EP       1731 26.19                             156   -0.0810 63.0 294 
 BRR  HN ES       1731 42.97                             156    0.3110 63.0 294 
 BRR  HN I        1731 45.41        14.2 0.74            151           63.0 294 
 RUS  HZ EP       1731 30.33                             142    0.4410  109 174 
 RUS  HE ES       1731 48.65                             142   -0.4510  109 174 
 RUS  HE I        1731 49.12         2.7 0.34            140            109 174 
 PTB  HZ EP       1731 31.63                             133   -0.53 9  145 255 
 PTB  HN ES       1731 52.89                             133   -0.25 9  145 255 
 PTB  HN I        1731 59.12         5.7 0.26            130            145 255 
 ZAR  HN ES       1732  2.23                             124    0.29 9  196 291 
 CHI  HZ EP       1731 43.81                             117    0.00 8  255 194 
 CHI  HE ES   1   1732 14.64                             117    0.77 6  255 194 
 CHI  HE I        1732 19.47        13.2 0.60            116            255 194 
                                                                                
