 2017  221 1738 59.0 L   6.056 -73.718108.3  RSN  7 0.5 1.3LRSN                1
 GAP= 77        1.29       4.1     4.2  9.6  0.8335E+00  0.1051E+02  0.9686E+00E
 Epicentro: VELEZ - SANTANDER                                                  3
 ACTION:UPD 17-05-24 15:39 OP:jn   STATUS:               ID:20170221173859 L   I
 OLDACT:REG 17-02-21 21:27 OP:cog  STATUS:               ID:20170221173743     3
 2017-02-21-1738-00M.COL___382                                                 6
 STAT SP IPHASW D HRMM SECON CODA AMPLIT PERI AZIMU VELO AIN AR TRES W  DIS CAZ7
 RUS  HZ EP       1739 16.91                             144   -0.1510 72.6 104 
 RUS  HE ES       1739 31.71                             144    0.5710 72.6 104 
 RUS  HZ I        1739 32.60         2.5 0.24            148           72.6 104 
 BAR2 EZ EP       1739 17.63                             139    0.0710 83.9  45 
 BAR2 EZ ES       1739 32.02                             139   -0.0010 83.9  45 
 PTB  HZ EP       1739 17.56                             135   -0.8410 97.6 303 
 PTB  HN ES       1739 32.83                             135   -0.6910 97.6 303 
 PTB  HZ I        1739 38.73         3.7 0.10            138           97.6 303 
 NOR  HZ EP       1739 22.87                             124    0.53 9  139 247 
 NOR  HE ES       1739 40.97                             124    0.44 9  139 247 
 NOR  HZ I        1739 42.99        10.8 0.22            126            139 247 
 CHI  HZ EP       1739 24.29                             120   -0.50 9  158 181 
 CHI  HE ES       1739 44.73                             120   -0.16 9  158 181 
 CHI  HZ I        1739 52.17         2.5 0.36            123            158 181 
 PAM  EZ EP       1739 27.14                             116   -0.27 9  181  38 
 PAM  EE ES   4   1739 45.80                             116   -3.76 0  181  38 
 PAM  EZ I        1739 52.38         2.8 0.22            120            181  38 
 ZAR  HN EP       1739 30.12                             113    0.93 9  203 322 
 ZAR  HE ES       1739 53.10                             113    0.37 9  203 322 
                                                                                
