 2012  321 1030 52.0 L   5.939 -73.581125.4  RSN  8 0.5 1.4LRSN                1
 GAP= 91        1.09       4.7     5.9 11.8  0.3313E+01  0.2858E+02  0.1650E+02E
 ACTION:UP  12-03-31 23:21 OP:EP   STATUS:               ID:20120321103052 L   I
 2012-03-21-1030-00M.COL___202                                                 6
 STAT SP IPHASW D HRMM SECON CODA AMPLIT PERI AZIMU VELO SNR AR TRES W  DIS CAZ7
 RUS  HZ EP   1   1031 10.68                             155    -0.1 7   55  95 
 RUS  HE ES   1   1031 25.29                             155    -0.2 7   55  95 
 RUS  HZ I        1031 27.24         7.3 0.20                            55  95 
 BAR2 SZ EP   1   1031 12.41                             144     0.1 7   85  31 
 BAR2 SZ ES   1   1031 28.24                             144     0.2 7   85  31 
 BAR2 SZ I        1031 29.22        10.1 0.11                            85  31 
 PTB  HZ EP   1   1031 13.79                             134    -0.8 7  117 304 
 PTB  HN ES   1   1031 31.19                             134    -1.0 7  117 304 
 PTB  HZ I        1031 37.73         3.0 0.16                           117 304 
 BRR  HE ES   1   1031 34.70                             131     0.5 7  130 354 
 CHI  HZ EP   1   1031 17.73                             128     0.0 7  146 187 
 CHI  HN ES   1   1031 38.09                             128     0.3 7  146 187 
 CHI  HZ I        1031 39.09         2.5 0.23                           146 187 
 NOR  SZ EP   1   1031 17.80                             127     0.2 7  149 254 
 NOR  SN ES   1   1031 38.07                             127     0.6 7  149 254 
 ZAR  HN ES   1   1031 51.82                             115     0.7 6  222 321 
 ZAR  HZ I        1031 55.70         1.7 0.33                           222 321 
 PRA  HZ EP   1   1031 32.25                             109    -0.2 6  285 211 
                                                                                
