 2013 1021 1725 16.3 L   6.763 -73.135143.5  RSN  4 0.5 1.8LRSN                1
 GAP=255        1.04       9.7     7.7  9.2 -0.1758E+02  0.1337E+02  0.2346E+02E
 Epicentro: LOS SANTOS - SANTANDER                                             3
 ACTION:UPD 13-11-25 09:22 OP:ep   STATUS:               ID:20131021172516 L   I
 OLDACT:UP  13-10-21 16:58 OP:cam  STATUS:               ID:20131021171847     3
 OLDACT:REG 13-10-21 16:04 OP:cam  STATUS:               ID:20131021171847     3
 2013-10-21-1718-47M.COL___212                                                 6
 STAT SP IPHASW D HRMM SECON CODA AMPLIT PERI AZIMU VELO AIN AR TRES W  DIS CAZ7
 BAR2 SZ EP       1725 35.52                             172   -0.0310 19.6 195 
 BAR2 SZ ES       1725 50.43                             172   -0.1610 19.6 195 
 BAR2 SZ I        1725 51.68        29.7 0.14            169           19.6 195 
 BRR  HZ EP       1725 37.41                             151    0.0610 74.2 301 
 BRR  HN ES       1725 54.28                             151    0.4910 74.2 301 
 BRR  HZ I        1725 58.16         6.1 0.14            149           74.2 301 
 PTB  HZ EP   1   1725 42.50                             131   -0.59 7  148 260 
 PTB  HN ES       1726  3.27                             131   -0.73 9  148 260 
 PTB  HZ I        1726  7.35         7.4 0.12            131            148 260 
 NOR  HZ EP   1   1725 52.06                             118    0.35 6  233 235 
 NOR  HN ES       1726 20.01                             118    0.65 8  233 235 
 NOR  HZ I        1726 24.42         4.1 0.18            119            233 235 
                                                                                
