 2011  421 1349  7.4 L   6.863 -72.982142.7  RSN  5 0.4 1.4LRSN                1
 GAP=230        0.64      12.0    22.8 11.3  0.2240E+03 -0.1395E+03 -0.8066E+02E
 Epicentro: CEPITA - SANTANDER                                                 3
 ACTION:UP  11-06-22 15:32 OP:REBC STATUS:               ID:20110421134908 L   I
 2011-04-21-1347-02S.COL___139                                                 6
 STAT SP IPHASW D HRMM SECON CODA AMPLIT PERI AZIMU VELO SNR AR TRES W  DIS CAZ7
 BTL  SZ EP   3   1349 28.30                             170     1.5 2   32 281 
 GIR2 SZ EP   3   1349 26.76                                     0.0 2   33 316 
 BAR2 SZ EP   1   1349 27.06                             169     0.1 7   37 217 
 BAR2 SZ ES   1   1349 42.05                             169    -0.2 7   37 217 
 BAR2 SZ I        1349 44.71         7.8 0.22                            37 217 
 BRR  HZ EP   1   1349 28.68                             150    -0.3 7   85 289 
 BRR  HZ I        1349 35.35         4.8 0.35                            85 289 
 BRR  HN ES   2   1349 46.40                             150     0.5 5   85 289 
 RUS  HZ EP   2   1349 31.55                             143     0.2 5  108 186 
 RUS  HN ES   1   1349 50.11                             143     0.0 7  108 186 
 RUS  HZ I        1349 51.52         3.3 0.25                           108 186 
                                                                                
