 2011  621 1317 13.6 L   6.792 -73.092141.6  RSN  9 0.4 1.9LRSN                1
 GAP=162        0.99       4.4     8.9  7.3 -0.1517E+02  0.3633E+01 -0.1544E+01E
 Epicentro: LOS SANTOS - SANTANDER                                             3
 ACTION:UP  11-07-14 19:06 OP:ep   STATUS:               ID:20110621131713 L   I
 2011-06-21-1315-09S.COL___140                                                 6
 STAT SP IPHASW D HRMM SECON CODA AMPLIT PERI AZIMU VELO SNR AR TRES W  DIS CAZ7
 BTL  SZ EP       1317 33.70                             170     1.010   24 306 
 BAR2 SZ EP       1317 32.48                             170    -0.210   24 204 
 BAR2 SZ ES   1   1317 47.17                             170    -0.5 7   24 204 
 BAR2 SZ I        1317 48.36        17.9 0.20                            24 204 
 BTL  SZ ES   3   1317 48.39                             170     0.7 2   24 306 
 BRR  HZ EP   2   1317 34.66                             150     0.1 5   77 297 
 BRR  HN ES   1   1317 51.23                             150     0.2 7   77 297 
 RUS  HZ EP       1317 36.65                             143    -0.210  100 179 
 RUS  HN ES   1   1317 55.16                             143     0.2 7  100 179 
 RUS  HZ I        1317 55.98         8.0 0.30                           100 179 
 BRI  SZ EP       1317 37.20                             141     0.210  107  18 
 BRI  SZ ES   1   1317 54.96                             141    -0.3 7  107  18 
 GRA  SZ EP       1317 38.52                             136     0.210  125  15 
 GRA  SZ I        1317 39.84        11.3 0.21                           125  15 
 GRA  SZ ES   1   1317 57.14                             136    -0.6 7  125  15 
 OCA  SZ EP       1317 41.46                             128    -0.2 9  162 351 
 OCA  SZ ES   3   1318  3.70                             128     0.0 2  162 351 
 OCA  SZ I        1318  7.61        14.7 0.36                           162 351 
 NOR  SZ EP       1317 49.04                             117    -0.5 8  239 235 
 NOR  SN ES   3   1318 17.21                             117    -0.4 2  239 235 
 CHI  HZ EP   3   1317 51.49                             116     0.4 2  249 197 
                                                                                
