 2014  821 1557 56.8 L   6.824 -73.180144.1  RSN  8 0.4 1.7LRSN                1
 GAP= 68        0.94       3.6     4.3  6.7 -0.2663E+01  0.2454E+01 -0.2301E+01E
 Epicentro: ZAPATOCA - SANTANDER                                               3
 ACTION:UPD 14-09-15 21:51 OP:nd   STATUS:               ID:20140821155756 L   I
 OLDACT:REG 14-08-21 21:06 OP:stll STATUS:               ID:20140821154818     3
 2014-08-21-1548-18M.COL___263                                                 6
 STAT SP IPHASW D HRMM SECON CODA AMPLIT PERI AZIMU VELO AIN AR TRES W  DIS CAZ7
 BAR2 SZ ES       1558 31.00                             169   -0.5110 25.6 181 
 BAR2 SZ I        1558 33.69        13.2 0.24            169           25.6 181 
 BRR  HZ EP       1558 18.22                             154    0.6710 66.6 298 
 PAM  SZ EP       1558 19.05                             150    0.1410 77.9  43 
 PAM  SN ES       1558 36.53                             150    0.4110 77.9  43 
 PAM  SZ I        1558 38.27         7.3 0.18            153           77.9  43 
 RUS  HZ EP       1558 20.55                             143   -0.1010  104 174 
 RUS  HN ES       1558 39.22                             143    0.0010  104 174 
 RUS  HZ I        1558 41.42         4.3 0.54            144            104 174 
 PTB  HN ES       1558 44.15                             132    0.07 9  145 257 
 TAM  HZ EP       1558 24.41                             129   -0.39 9  159 106 
 SPBC HZ EP       1558 25.28                             129    0.10 9  163 217 
 SPBC HN ES       1558 47.29                             129   -0.00 9  163 217 
 SPBC HZ I        1558 52.24         8.3 0.18            130            163 217 
 SML  HN ES       1559  0.43                             117   -0.66 8  240 336 
                                                                                
