 2014 1121 1650 58.2 L   6.778 -73.147151.8  RSN 10 0.4 2.0LRSN                1
 GAP=137        0.89       3.4     3.7  5.5 -0.7919E+00  0.3950E+01  0.2273E+01E
 Epicentro: LOS SANTOS - SANTANDER                                             3
 ACTION:UPD 14-12-19 15:45 OP:nd   STATUS:               ID:20141121165058 L   I
 OLDACT:REG 14-11-21 21:55 OP:spq  STATUS:               ID:20141121164748     3
 2014-11-21-1647-48M.COL___300                                                 6
 STAT SP IPHASW D HRMM SECON CODA AMPLIT PERI AZIMU VELO AIN AR TRES W  DIS CAZ7
 BAR2 SZ EP       1651 18.37                             172   -0.1110 20.9 191 
 BAR2 SZ ES   1   1651 34.42                             172    0.10 7 20.9 191 
 BAR2 SZ I        1651 35.18        17.9 0.42            167           20.9 191 
 BRR  HZ EP       1651 20.30                             153    0.2710 72.2 300 
 BRR  HN ES       1651 37.86                             153    0.7810 72.2 300 
 BRR  HZ I        1651 38.70        15.9 0.40            151           72.2 300 
 PAM  SZ EP       1651 21.07                             151   -0.0710 79.3  39 
 PAM  SN ES   1   1651 38.75                             151   -0.31 7 79.3  39 
 PAM  SZ I        1651 40.38        11.7 0.33            157           79.3  39 
 RUS  HZ EP       1651 22.17                             146   -0.1810 98.2 176 
 RUS  HE ES       1651 40.98                             146   -0.2310 98.2 176 
 RUS  HZ I        1651 42.58         9.2 0.28            145           98.2 176 
 PTB  HZ EP       1651 25.11                             133   -0.47 9  147 260 
 PTB  HE ES       1651 46.39                             133   -0.57 9  147 260 
 PTB  HZ I        1651 52.44        12.4 0.56            132            147 260 
 SPBC HZ EP       1651 27.38                             131    0.42 9  161 219 
 SPBC HN ES       1651 49.27                             131   -0.14 9  161 219 
 SPBC HZ I        1651 52.47        17.8 0.26            129            161 219 
 ZAR  HZ EP       1651 31.06                             124   -0.03 9  205 293 
 ZAR  HN ES       1651 56.40                             124   -0.37 9  205 293 
 ZAR  HZ I        1652  3.00         8.9 0.18            123            205 293 
 NOR  HZ EP       1651 34.44                             120    0.34 8  233 235 
 NOR  HE ES       1652  2.56                             120    0.44 8  233 235 
 NOR  HZ I        1652  9.59         6.2 0.20            119            233 235 
 CHI  HZ EP   1   1651 36.45                             119    0.49 6  246 195 
 CHI  HN ES   1   1652  5.65                             119    0.22 6  246 195 
 CHI  HZ I        1652 15.14         3.6 0.50            118            246 195 
 TOL  SZ EP   4   1651 48.29                             110    1.82 0  342 225 
 TOL  SN ES   1   1652 23.59                             110   -0.55 5  342 225 
 TOL  SZ I        1652 31.73        11.8 0.48            110            342 225 
                                                                                
