 2014 1021 1008 20.7 L   6.813 -73.108150.2  RSN  8 0.4 1.6LRSN                1
 GAP=141        0.97       4.6     5.1  8.0 -0.1098E+01  0.9521E+01 -0.1103E+02E
 Epicentro: LOS SANTOS - SANTANDER                                             3
 ACTION:UPD 14-11-29 23:53 OP:nd   STATUS:               ID:20141021100820 L   I
 OLDACT:REG 14-10-24 07:19 OP:fm   STATUS:               ID:20141021095747d    3
 2014-10-21-0957-45M.COL___274                                                 6
 STAT SP IPHASW D HRMM SECON CODA AMPLIT PERI AZIMU VELO AIN AR TRES W  DIS CAZ7
 BAR2 SZ EP   1   10 8 41.25                             170    0.33 7 25.8 199 
 BAR2 SZ ES   1   10 8 56.33                             170   -0.35 7 25.8 199 
 BAR2 SZ I        10 8 58.48         5.8 0.16            169           25.8 199 
 PAM  SZ EP   1   10 8 43.42                             153    0.24 7 73.6  38 
 PAM  SN ES   1   10 9  0.20                             153   -0.51 7 73.6  38 
 PAM  SZ I        10 9  3.78         7.8 0.46            155           73.6  38 
 BRR  HZ EP       10 8 42.94                             152    0.4410 74.2 296 
 BRR  HN ES       10 9  0.30                             152    0.7910 74.2 296 
 BRR  HZ I        10 9  1.73         9.3 0.12            151           74.2 296 
 RUS  HN ES   1   10 9  3.86                             144   -0.06 7  102 178 
 RUS  HZ I        10 9  5.88         3.3 0.26            146            102 178 
 PTB  HZ EP   1   10 8 48.15                             132   -0.28 7  152 259 
 PTB  HN ES       10 9  9.55                             132   -0.50 9  152 259 
 PTB  HZ I        10 9 11.34         3.8 0.26            132            152 259 
 SPBC HN ES   1   10 9 12.30                             129   -0.37 7  167 220 
 SPBC HZ I        10 9 18.89         3.6 0.22            130            167 220 
 ZAR  HZ EP   1   10 8 54.04                             123    0.26 6  207 291 
 ZAR  HN ES       10 9 19.72                             123    0.14 8  207 291 
 ZAR  HZ I        10 9 28.49         4.5 0.42            123            207 291 
 SML  HZ EP   1   10 8 57.42                             118   -0.21 6  244 334 
 SML  HE ES       10 9 25.78                             118   -0.66 8  244 334 
 SML  HZ I        10 9 30.44         4.4 0.10            119            244 334 
                                                                                
