 2016 1121 1606 46.7 L   6.690 -73.204150.3  RSN  5 0.2 1.6LRSN                1
 GAP=199        0.49       5.1     3.8  5.1  0.3093E+01 -0.3518E+01  0.3639E+00E
 Epicentro: VILLANUEVA - SANTANDER                                             3
 ACTION:UPD 17-10-26 21:10 OP:lp   STATUS:               ID:20161121160646 L   I
 OLDACT:UP  16-11-21 23:41 OP:dani STATUS:               ID:20161121155748     3
 OLDACT:REG 16-11-21 20:59 OP:dani STATUS:               ID:20161121155748     3
 2016-11-21-1558-00M.COL___340                                                 6
 STAT SP IPHASW D HRMM SECON CODA AMPLIT PERI AZIMU VELO AIN AR TRES W  DIS CAZ7
 BAR2 EZ EP       16 7  6.66                             176    0.0010 11.1 168 
 BRR  HZ EP       16 7  8.57                             153    0.1910 72.6 309 
 BRR  HN ES       16 7 25.21                             153   -0.1110 72.6 309 
 BRR  HZ I        16 7 27.97        10.0 0.46            149           72.6 309 
 PTB  HZ EP       16 7 13.37                             135    0.09 9  140 263 
 PTB  HN ES       16 7 33.85                             135   -0.19 9  140 263 
 PTB  HZ I        16 7 39.51         4.0 0.10            132            140 263 
 ZAR  HN ES       16 7 44.98                             123    0.20 9  203 296 
 ZAR  HZ I        16 7 50.40         3.3 0.06            123            203 296 
 SJC  HZ EP       16 7 42.71                             106   -0.46 5  416 329 
 SJC  HN ES   4   16 8 24.32                             106   -2.93 0  416 329 
                                                                                
