 2010  121 1336 35.6 L   6.381 -73.561115.0  RSN  4 0.1 1.7LRSN                1
 GAP=231        0.38       4.9     8.1  9.8 -0.8418E+01  0.6456E+02 -0.9396E+01E
 Epicentro: SANTA HELENA DEL OPON - SANTANDER                                  3
 ACTION:UP  10-08-24 09:45 OP:vdl  STATUS:               ID:20100121133635 L   I
 2010-01-21-1332-25S.COL___094                                                 6
 STAT SP IPHASW D HRMM SECON CODA AMPLIT PERI AZIMU VELO SNR AR TRES W  DIS CAZ7
 RUS  BZ EP   2   1336 54.48                             145     0.0 6   76 136 
 RUS  BE ES   2   1337  9.36                             145     0.1 6   76 136 
 RUS  BZ I        1337 11.61         7.8 0.46                            76 136 
 CHI  HZ IP       1337  5.56                             116    -0.110  195 186 
 CHI  HE ES   1   1337 29.16                             116     0.0 7  195 186 
 CHI  HZ I        1337 32.74         3.3 0.58                           195 186 
 HEL  HZ EP   2   1337  8.24                             113    -0.1 5  219 265 
 HEL  HZ I        1337 44.18         5.0 0.42                           219 265 
 PRA  HZ IP       1337 21.01                             104     0.3 8  329 207 
 PRA  HE ES   2   1337 55.96                             104     0.0 4  329 207 
 PRA  HZ I        1338  2.70         3.3 0.68                           329 207 
                                                                                
