 2013  421 1021  5.7 L   6.742 -73.157149.5  RSN  5 0.2 1.6LRSN                1
 GAP=181        0.48       3.5     3.6  4.3  0.5071E+01 -0.2626E+01 -0.2438E+01E
 Epicentro: JORDAN - SANTANDER                                                 3
 ACTION:UPD 13-05-22 14:39 OP:EP   STATUS:               ID:20130421102105 L   I
 2013-04-21-1018-39M.COL___211                                                 6
 STAT SP IPHASW D HRMM SECON CODA AMPLIT PERI AZIMU VELO AIN AR TRES W  DIS CAZ7
 BAR2 SZ EP       1021 25.64                             173    0.0210 16.8 190 
 BAR2 SZ ES       1021 41.48                             173    0.2910 16.8 190 
 GIR2 SZ EP       1021 25.81                             165   -0.1410 37.4 354 
 BRR  HZ EP       1021 27.42                             152    0.0910 73.4 303 
 BRR  HN ES       1021 44.06                             152   -0.1810 73.4 303 
 BRR  HN I        1021 44.74        12.0 0.26            152           73.4 303 
 RUS  HZ EP       1021 29.44                             146    0.1010 94.3 175 
 RUS  HN ES       1021 47.59                             146   -0.2210 94.3 175 
 RUS  HN I        1021 48.88         5.1 0.26            146           94.3 175 
 PTB  HN ES       1021 53.89                             133    0.06 9  145 261 
 PTB  HN I        1021 55.06         3.7 0.28            133            145 261 
                                                                                
