 2010  321 1946 21.2 L   6.789 -73.044149.2  RSN  6 0.3 2.0LRSN                1
 GAP=193        0.44       3.1     6.4  5.0  0.6820E+01 -0.2052E+01 -0.8858E+00E
 Epicentro: LOS SANTOS - SANTANDER                                             3
 ACTION:UP  10-08-24 09:55 OP:vdl  STATUS:               ID:20100321194621 L   I
 2010-03-21-1942-00S.COL___098                                                 6
 STAT SP IPHASW D HRMM SECON CODA AMPLIT PERI AZIMU VELO SNR AR TRES W  DIS CAZ7
 BAR2 SZ EP   1   1946 41.18                             169    -0.1 7   27 215 
 BAR2 SZ ES   2   1946 56.81                             169    -0.2 5   27 215 
 BRR  HZ IP       1946 43.24                             150    -0.110   82 296 
 BRR  HE ES   1   1947  0.58                             150     0.0 7   82 296 
 BRR  HZ I        1947  2.40        17.3 0.13                            82 296 
 RUS  HZ EP   1   1946 45.13                             145    -0.1 7   99 183 
 RUS  HN ES   1   1947  4.16                             145     0.2 7   99 183 
 RUS  HZ I        1947  5.29         7.6 0.28                            99 183 
 OCA  SZ EP   2   1946 49.95                             130    -0.1 5  163 349 
 OCA  SZ ES   2   1947 13.16                             130     0.6 5  163 349 
 OCA  SZ I        1947 16.92        23.1 0.22                           163 349 
 HEL  HZ EP   3   1947  3.43                             115     0.7 2  283 257 
 HEL  HE ES   3   1947 35.29                             115     0.1 2  283 257 
 HEL  HZ I        1947 39.58         3.7 0.19                           283 257 
 PRA  HZ EP   2   1947 15.01                             107    -0.4 3  397 211 
 PRA  HE ES   2   1947 57.99                             107     0.3 3  397 211 
 PRA  HZ I        1948  2.80         7.0 0.58                           397 211 
                                                                                
