 2013  121 1746 12.2 L   6.787 -73.131151.5  RSN 21 0.4 3.5LRSN 3.7WRSN        1
 SPEC AVERAGE  MO 14.6 ST119.9 OM  2.9 f0 4.98 R0.3360 AL 2.66 WI 22.3 MW  3.7 3
 SPEC SD       MO  0.2 ST148.0 OM  0.7 f0 1.70 R0.1220 AL      WI      MW  0.1 3
 GAP= 72        0.92       2.9     2.6  4.4 -0.2503E+00  0.2422E+01  0.1986E+01E
 Epicentro: LOS SANTOS - SANTANDER                                             3
 SPEC TAM HH Z MO 14.5 ST 19.8 OM  2.0 f0 3.56 R0.4129 AL 1.55 WI 20.2 MW  3.6 3
 SPEC TAM HH Z T174639 K 0.000 GD  215 VP 7.60 DE 3.20 Q0300.0 QA 0.60 VS 4.20 3
 SPEC PTB HH Z MO 14.5 ST142.2 OM  2.0 f0 6.90 R0.2130 AL 1.93 WI 19.6 MW  3.6 3
 SPEC PTB HH Z T174638 K 0.000 GD  212 VP 7.60 DE 3.20 Q0300.0 QA 0.60 VS 4.20 3
 SPEC RUS HH Z MO 14.4 ST  8.4 OM  2.0 f0 2.83 R0.5194 AL 1.67 WI 17.5 MW  3.6 3
 SPEC RUS HH Z T174635 K 0.000 GD  181 VP 7.60 DE 3.20 Q0300.0 QA 0.60 VS 4.20 3
 SPEC HEL HH Z MO 14.5 ST 86.7 OM  1.8 f0 6.00 R0.2450 AL 2.70 WI 32.2 MW  3.6 3
 SPEC HEL HH Z T174652 K 0.000 GD  312 VP 7.60 DE 3.20 Q0300.0 QA 0.60 VS 4.20 3
 SPEC CHI HH N MO 14.6 ST 14.5 OM  2.7 f0 3.07 R0.4788 AL 3.58 WI 15.4 MW  3.7 3
 SPEC CHI HH N T174720 K 0.000 GD  290 VS 4.20 DE 3.20 Q0300.0 QA 0.60 VS 4.20 3
 SPEC NOR HH N MO 14.9 ST463.2 OM  3.1 f0 7.26 R0.2025 AL 4.49 WI 30.7 MW  3.9 3
 SPEC NOR HH N T174713 K 0.000 GD  279 VS 4.20 DE 3.20 Q0300.0 QA 0.60 VS 4.20 3
 SPEC BRR HH N MO 14.7 ST104.8 OM  3.1 f0 5.24 R0.2805 AL 2.67 WI 20.4 MW  3.8 3
 SPEC BRR HH N T174651 K 0.000 GD  168 VS 4.20 DE 3.20 Q0300.0 QA 0.60 VS 4.20 3
 ACTION:UPD 13-02-15 09:15 OP:ep   STATUS:               ID:20130121174612 L   I
 2013-01-21-1740-00M.COL___241                                                 6
 STAT SP IPHASW D HRMM SECON CODA AMPLIT PERI AZIMU VELO AIN AR TRES W  DIS CAZ7
 BAR2 SZ IP     C 1746 32.48                             171   -0.0110 22.3 195 
 BAR2 SZ ES       1746 47.82                             171   -0.5110 22.3 195 
 BAR2 SZ I        1746 50.17       769.2 0.38            162           22.3 195 
 BRR  HZ IP     C 1746 34.42                             153    0.3410 73.3 299 
 BRR  HN ES       1746 51.94                             153    0.7910 73.3 299 
 BRR  HN I        1746 52.80      1142.3 0.20            145           73.3 299 
 PAM  SZ EP       1746 35.34                             152    0.3110 77.4  38 
 PAM  SE ES       1746 52.50                             152   -0.3310 77.4  38 
 PAM  SE I        1746 53.85       298.3 0.40            151           77.4  38 
 RUS  HZ IP     D 1746 36.33                             145   -0.0810 99.1 177 
 RUS  HN ES       1746 55.03                             145   -0.2710 99.1 177 
 RUS  HN I        1746 56.81       296.7 0.36            135           99.1 177 
 PTB  HZ EP       1746 39.09                             133   -0.66 9  149 259 
 PTB  HE ES       1747  0.67                             133   -0.58 9  149 259 
 PTB  HE I        1747  6.24      1038.3 0.38            123            149 259 
 TAM  HZ IP     D 1746 40.66                             132    0.50 9  153 105 
 TAM  HZ I        1746 40.79       204.6 0.18            125            153 105 
 TAM  HN ES       1747  2.35                             132    0.38 9  153 105 
 OCA  HZ EP   1   1746 40.96                             130   -0.14 7  162 353 
 OCA  HE ES   1   1747  3.49                             130   -0.16 7  162 353 
 OCA  HZ I        1747  7.45       376.0 0.22            124            162 353 
 ZAR  HZ EP       1746 44.93                             123   -0.30 8  206 292 
 ZAR  HE ES       1747 11.35                             123    0.36 8  206 292 
 ZAR  HZ I        1747 16.94       263.7 0.38            115            206 292 
 NOR  HZ EP       1746 48.17                             120   -0.15 8  235 235 
 NOR  HN ES       1747 16.38                             120   -0.11 8  235 235 
 NOR  HZ I        1747 21.95       286.2 0.32            111            235 235 
 CHI  HZ IP     D 1746 50.10                             118   -0.02 8  248 196 
 CHI  HN ES   1   1747 19.98                             118    0.28 6  248 196 
 CHI  HZ I        1747 25.07        70.8 0.34            110            248 196 
 ROSC BZ EP   4   1746 52.07                             118    1.47 0  252 212 
 ROSC BZ I        1747 30.47       327.6 0.40            109            252 212 
 HEL  HZ EP       1746 52.42                             116   -0.42 8  273 256 
 HEL  HN ES       1747 25.28                             116    0.74 8  273 256 
 HEL  HN I        1747 31.37       241.9 0.34            108            273 256 
 URE  HZ EP   4   1746 52.30                             114   -1.47 0  286 292 
 URE  HN ES   4   1747 23.97                             114   -2.23 0  286 292 
 URE  HZ I        1747 37.62       119.5 0.16            107            286 292 
 VIL  SZ EP   1   1746 55.61                             113   -0.15 5  302 192 
 VIL  SN ES   1   1747 29.80                             113    0.05 5  302 192 
 VIL  SZ I        1747 46.18       147.4 0.34            106            302 192 
 DBB  SZ EP   1   1747  0.02                             110   -0.09 5  341 274 
 TOL  SZ EP   1   1747  1.84                             110    1.14 5  344 225 
 TOL  SZ I        1747 44.31        69.0 0.40            103            344 225 
 SDV  BZ EP   1   1747  1.82                             109   -0.60 5  360  50 
 PAL  HZ EP   1   1747  8.11                             107    0.48 4  406 239 
 SJC  HE ES   4   1747 48.07                             106   -3.79 0  411 327 
 YOT  HZ EP   1   1747 15.31                             104   -0.13 4  472 229 
 SMAR HZ EP   1   1747 17.54                             103   -0.88 3  499 346 
 SMAR HE ES   4   1748  5.69                             103   -4.39 0  499 346 
 POP2 HZ EP   1   1747 32.46                             100    0.14 2  613 220 
                                                                                
