 2012 1221 1701 46.0 L   6.860 -73.271120.4  RSN 12 0.5 2.6LRSN                1
 GAP=109        0.85       2.8     4.2  5.8  0.4286E+00  0.4832E+01 -0.3402E+00E
 Epicentro: ZAPATOCA - SANTANDER                                               3
 ACTION:UPD 13-01-04 14:29 OP:ep   STATUS:               ID:20121221170146 L   I
 2012-12-21-1700-00M.COL___243                                                 6
 STAT SP IPHASW D HRMM SECON CODA AMPLIT PERI AZIMU VELO AIN AR TRES W  DIS CAZ7
 BAR2 SZ EP       17 2  3.13                             165    0.3210 31.2 162 
 BAR2 SZ ES   1   17 2 15.76                             165   -0.17 7 31.2 162 
 BRR  HZ IP     C 17 2  3.52                             154   -0.0210 55.8 299 
 BRR  HN ES   1   17 2 17.49                             154    0.27 7 55.8 299 
 BRR  HZ I        17 2 18.43       174.4 0.14                          55.8 299 
 RUS  HZ EP   1   17 2  7.86                             135   -0.20 7  109 169 
 RUS  HN ES   1   17 2 25.50                             135    0.24 7  109 169 
 RUS  HZ I        17 2 26.66        46.2 0.20                           109 169 
 PTB  HZ EP   4   17 2  8.40                             128   -1.45 0  136 255 
 PTB  HN ES   2   17 2 28.41                             128   -0.05 5  136 255 
 PTB  HZ I        17 2 30.54        58.2 0.10                           136 255 
 OCA  HZ EP   1   17 2 11.24                             125   -0.45 7  153 358 
 OCA  HE ES   1   17 2 31.14                             125   -0.58 7  153 358 
 OCA  HZ I        17 2 34.17       104.6 0.46                           153 358 
 ZAR  HZ EP   1   17 2 14.88                             118   -0.38 7  189 292 
 ZAR  HE ES   1   17 2 38.32                             118    0.23 7  189 292 
 ZAR  HZ I        17 2 40.68        67.1 0.33                           189 292 
 NOR  HZ EP   1   17 2 19.78                             113    0.18 6  228 231 
 NOR  HE ES   1   17 2 44.70                             113   -1.12 6  228 231 
 NOR  HZ I        17 2 49.95        18.0 0.19                           228 231 
 SML  HZ EP   1   17 2 19.76                             113   -0.26 6  232 338 
 SML  HN ES   1   17 2 47.56                             113    1.00 6  232 338 
 CHI  HZ EP   1   17 2 22.68                             111   -0.11 6  252 192 
 CHI  HN ES   1   17 2 51.62                             111    0.12 6  252 192 
 CHI  HZ I        17 2 54.96        15.3 0.48                           252 192 
 HEL  HZ EP   1   17 2 24.22                             110    0.51 6  260 254 
 HEL  HE ES   1   17 2 52.66                             110   -0.47 6  260 254 
 HEL  HZ I        17 2 58.29        19.6 0.24                           260 254 
 URE  HZ EP   4   17 2 22.49                             109   -1.70 0  268 292 
 URE  HN ES   4   17 2 51.24                             109   -2.74 0  268 292 
 RREF HZ EP   1   17 2 31.63                             106    1.15 5  316 227 
 MON  HZ EP   4   17 2 30.40                             104   -1.96 0  339 309 
 MON  HN ES   4   17 3  6.32                             104   -2.21 0  339 309 
 SDV  BZ EP   1   17 2 35.73                             103   -0.25 5  367  52 
                                                                                
