 2013  721 1652 49.9 L   6.643 -73.164142.0  RSN  4 0.3 1.7LRSN                1
 GAP=249        0.74       8.2     5.4  5.9  0.1548E+02  0.8775E+01 -0.2850E+00E
 Epicentro: VILLANUEVA - SANTANDER                                             3
 ACTION:UPD 13-08-12 10:39 OP:ep   STATUS:               ID:20130721165249 L   I
 OLDACT:REG 13-07-21 16:27 OP:nd   STATUS:               ID:20130721164959     3
 2013-07-21-1649-59M.COL___267                                                 6
 STAT SP IPHASW D HRMM SECON CODA AMPLIT PERI AZIMU VELO AIN AR TRES W  DIS CAZ7
 BAR2 SZ EP       1653  8.67                             177   -0.1810 6.02 199 
 BAR2 SZ ES       1653 23.94                             177    0.3110 6.02 199 
 BAR2 SZ I        1653 25.90         9.2 0.26            175           6.02 199 
 BRR  HZ IP     C 1653 10.73                             149   -0.4010 79.3 310 
 BRR  HN ES       1653 27.61                             149   -0.0810 79.3 310 
 BRR  HZ I        1653 31.43         8.1 0.46            148           79.3 310 
 PTB  HZ EP       1653 16.15                             132   -0.01 9  143 265 
 PTB  HN ES       1653 36.51                             132   -0.13 9  143 265 
 PTB  HZ I        1653 39.86         6.7 0.14            133            143 265 
 ZAR  HZ EP       1653 23.28                             121    0.63 8  209 297 
 ZAR  HE ES       1653 48.22                             121    0.02 8  209 297 
 ZAR  HZ I        1653 52.88         6.2 0.36            122            209 297 
                                                                                
