 2015  321 1054 17.4 L   6.794 -73.159142.9  RSN 11 0.4 1.9LRSN                1
 GAP=135        0.92       2.6     3.7  5.1 -0.1691E+01  0.5116E+01 -0.8326E+00E
 Epicentro: LOS SANTOS - SANTANDER                                             3
 ACTION:UPD 15-04-30 16:28 OP:nd   STATUS:               ID:20150321105417 L   I
 OLDACT:UP  15-03-21 21:44 OP:cam  STATUS:               ID:20150321104750     3
 OLDACT:REG 15-03-21 19:45 OP:cam  STATUS:               ID:20150321104750     3
 2015-03-21-1047-50M.COL___263                                                 6
 STAT SP IPHASW D HRMM SECON CODA AMPLIT PERI AZIMU VELO AIN AR TRES W  DIS CAZ7
 BAR2 EZ EP       1054 36.34                             171   -0.2910 22.4 187 
 BAR2 EZ ES       1054 51.18                             171   -0.4710 22.4 187 
 BAR2 EZ I        1054 54.52        13.4 0.42            170           22.4 187 
 BRR  HN ES       1054 54.49                             152    0.1410 70.2 300 
 PAM  SZ IP     D 1054 39.48                             150    0.1210 78.9  40 
 PAM  SN ES       1054 56.65                             150    0.1310 78.9  40 
 PAM  SZ I        1054 58.97         8.6 0.48            154           78.9  40 
 RUS  HZ EP       1054 40.63                             143   -0.1610  100 175 
 RUS  HN ES       1054 59.35                             143    0.2910  100 175 
 RUS  HZ I        1055  0.49         5.1 0.34            147            100 175 
 PTB  HZ EP       1054 43.75                             132   -0.20 9  146 259 
 PTB  HN ES       1055  4.30                             132   -0.39 9  146 259 
 PTB  HZ I        1055 12.27        10.1 0.36            132            146 259 
 OCA  HZ EP       1054 46.16                             129    0.66 9  161 354 
 OCA  HN ES       1055  7.52                             129    0.08 9  161 354 
 OCA  HZ I        1055 12.08        17.3 0.16            131            161 354 
 SPBC HZ EP       1054 45.48                             129   -0.02 9  162 219 
 SPBC HN ES       1055  7.89                             129    0.44 9  162 219 
 SPBC HZ I        1055 14.94        15.2 0.30            130            162 219 
 ZAR  HZ EP   4   1054 47.01                             122   -2.50 0  203 292 
 ZAR  HN ES       1055 15.17                             122    0.59 9  203 292 
 ZAR  HZ I        1055 20.82         6.9 0.50            123            203 292 
 NOR  HZ EP   1   1054 52.32                             118   -0.43 6  233 234 
 NOR  HE ES   4   1055 21.69                             118    1.33 0  233 234 
 NOR  HZ I        1055 24.31         8.1 0.18            120            233 234 
 SML  HZ EP       1054 53.10                             117   -0.73 8  244 336 
 SML  HE ES       1055 21.94                             117   -0.33 8  244 336 
 SML  HZ I        1055 29.29        12.8 0.26            119            244 336 
 GUY2CHZ EP       1055  1.30                             112    0.64 7  300 235 
 GUY2CHE ES       1055 34.17                             112   -0.26 7  300 235 
 GUY2CHZ I        1055 41.43         4.3 0.34                           300 235 
                                                                                
