 2017  721 1019 14.7 L   6.773 -73.194135.7  RSN  5 0.4 1.3LRSN                1
 GAP=230        0.96       6.9     6.5  6.9  0.2804E+02  0.7605E+01 -0.2527E+01E
 Epicentro: ZAPATOCA - SANTANDER                                               3
 ACTION:UPD 17-08-30 15:35 OP:rebc STATUS:               ID:20170721101914 L   I
 OLDACT:REG 17-07-21 23:43 OP:lv   STATUS:               ID:20170721101743d    3
 2017-07-21-1018-00M.COL___377                                                 6
 STAT SP IPHASW D HRMM SECON CODA AMPLIT PERI AZIMU VELO AIN AR TRES W  DIS CAZ7
 BAR2 EZ EP       1019 32.85                             171   -0.2310 20.1 176 
 BAR2 EZ ES       1019 47.43                             171    0.0310 20.1 176 
 BAR2 EZ I        1019 48.82         8.0 0.23            171           20.1 176 
 BRR  HZ EP       1019 34.69                             152    0.0810 68.1 303 
 BRR  HE ES       1019 50.02                             152   -0.1010 68.1 303 
 BRR  HZ I        1019 52.52         3.7 0.15            151           68.1 303 
 RUS  HZ EP       1019 37.28                             142   -0.0410 98.2 173 
 RUS  HN ES       1019 55.18                             142    0.2410 98.2 173 
 RUS  HZ I        1019 57.53         2.7 0.39            144           98.2 173 
 PTB  HZ EP       1019 39.58                             131   -0.77 9  142 260 
 PTB  HN ES       1020  0.48                             131    0.14 9  142 260 
 PTB  HZ I        1020  1.85         1.5 0.18            131            142 260 
 ZAR  HZ EP       1019 47.02                             121    0.89 9  200 293 
 ZAR  HN ES       1020 10.53                             121   -0.10 9  200 293 
 ZAR  HZ I        1020 17.31         2.4 0.07            121            200 293 
                                                                                
