 2017  921 2036  0.4 L   5.733 -73.851118.9  RSN 19 0.5 2.4LRSN                1
 GAP= 96        1.26       2.8     3.6  7.7 -0.3116E+01  0.8642E+01 -0.6558E+01E
 Epicentro: ALBANIA - SANTANDER                                                3
 ACTION:UPD 17-10-05 19:14 OP:rebc STATUS:               ID:20170921203600 L   I
 OLDACT:UP  17-09-22 05:00 OP:dnl  STATUS:               ID:20170921202741     3
 OLDACT:UP  17-09-22 04:59 OP:dnl  STATUS:               ID:20170921202741     3
 OLDACT:REG 17-09-22 04:36 OP:ndl  STATUS:               ID:20170921202741     3
 2017-09-21-2028-00M.COL___438                                                 6
 STAT SP IPHASW D HRMM SECON CODA AMPLIT PERI AZIMU VELO AIN AR TRES W  DIS CAZ7
 RUS  HZ IP     C 2036 20.58                             141    0.0510 86.8  78 
 RUS  HN ES       2036 35.81                             141   -0.4210 86.8  78 
 RUS  HZ I        2036 37.45        27.5 0.22            138           86.8  78 
 TABC EZ EP       2036 21.00                             141    0.3510 88.9 206 
 TABC EZ ES       2036 36.47                             141    0.0310 88.9 206 
 TABC EZ I        2036 39.70        55.5 0.32            140           88.9 206 
 ROSC BZ EP       2036 23.04                             134    0.6210  112 208 
 ROSC BN ES       2036 40.49                             134    0.9010  112 208 
 ROSC BZ I        2036 42.55        60.2 0.50            133            112 208 
 NOR  HZ EP       2036 21.40                             133   -0.8110  114 261 
 NOR  HN ES   4   2036 37.97                             133   -1.24 0  114 261 
 NOR  HZ I        2036 38.92        36.1 0.18            131            114 261 
 BAR2 EZ IP     C 2036 23.34                             131    0.3310  120  38 
 BAR2 EZ I        2036 41.94        93.8 0.52            127            120  38 
 CHI  HZ EP       2036 23.19                             131   -0.2610  123 174 
 CHI  HN ES       2036 40.72                             131   -0.7110  123 174 
 CHI  HE ES       2036 41.12                             131            123 174 
 CHI  HZ I        2036 45.27        28.5 0.28            129            123 174 
 BRR  HZ EP       2036 25.76                             124   -0.05 9  153   6 
 BRR  HN ES       2036 46.61                             124    0.99 9  153   6 
 BRR  HZ I        2036 50.98        50.0 0.30            120            153   6 
 GUY2CHZ EP       2036 28.75                             120   -0.18 9  177 252 
 GUY2CHN ES       2036 50.54                             120   -0.65 9  177 252 
 GUY2CHZ I        2036 55.44        13.0 0.30                           177 252 
 VIL  EZ EP       2036 29.00                             119    0.18 9  180 174 
 VIL  EN ES       2036 50.51                             119   -0.47 9  180 174 
 VIL  EZ I        2036 53.97        38.2 0.28            117            180 174 
 HEL  HZ EP       2036 30.79                             117    0.32 9  193 285 
 HEL  HZ I        2036 55.29         9.8 0.34            115            193 285 
 ELA  HZ EP   9   2036 33.03                             117    1.88 0  197 241 
 ELA  HN ES       2036 56.41                             117   -0.60 9  197 241 
 ELA  HZ I        2037  3.57        11.0 0.42            115            197 241 
 PAM  EZ EP       2036 33.74                             114    0.26 8  219  36 
 PAM  EE ES   4   2037  0.32                             114    1.05 0  219  36 
 PAM  EZ I        2037  6.79        12.2 0.26            111            219  36 
 ANIL HZ EP       2036 33.80                             114    0.40 8  220 231 
 ANIL HN ES       2036 59.58                             114    0.44 8  220 231 
 ANIL HZ I        2037  0.72        63.0 0.28            112            220 231 
 ZAR  HZ EP       2036 32.49                             113   -1.00 8  224 330 
 ZAR  HE ES       2036 58.50                             113   -0.80 8  224 330 
 ZAR  HZ I        2037  2.97        36.5 0.36            110            224 330 
 CBOC HZ EP       2036 35.86                             112    0.40 8  240 274 
 CBOC HN ES       2037  2.81                             112    0.01 8  240 274 
 CBOC HZ I        2037  4.18         6.1 0.18            109            240 274 
 PRA  HZ EP   2   2036 36.11                             110   -0.46 4  251 207 
 PRA  HE ES       2037  4.53                             110   -0.25 8  251 207 
 PRA  HZ I        2037  7.75        23.4 0.32            109            251 207 
 ORTC HZ EP       2036 36.63                             110   -0.30 8  254 218 
 ORTC HN ES       2037  5.96                             110    0.54 8  254 218 
 ORTC HZ I        2037  8.35        15.8 0.54            108            254 218 
 URE  HZ EP   4   2036 39.35                             107   -1.75 0  291 320 
 URE  HN ES   4   2037  9.53                             107   -3.30 0  291 320 
 URE  HZ I        2037 11.62        33.8 0.24            105            291 320 
 MACC HZ EP   9   2036 50.05                             101   -3.61 0  397 180 
 MACC HN ES       2037 31.90                             101    0.31 6  397 180 
 MACC HZ I        2037 36.95        11.7 0.68             99            397 180 
                                                                                
