 2012  421 2247 16.3 L   6.805 -73.127142.0  RSN  5 0.5 1.8LRSN                1
 GAP=139        0.99       6.6     6.0 10.5  0.3228E+01  0.1578E+02  0.3159E+01E
 Epicentro: LOS SANTOS - SANTANDER                                             3
 ACTION:UPD 12-07-05 11:55 OP:tino STATUS:               ID:20120421224716 L   I
 2012-04-21-2246-59S.COL___194                                                 6
 STAT SP IPHASW D HRMM SECON CODA AMPLIT PERI AZIMU VELO AIN AR TRES W  DIS CAZ7
 BRR  HZ EP   1   2247 37.01                             151    -0.2 7   73 297 
 BRR  HE ES   1   2247 54.20                             151     0.8 7   73 297 
 BRR  HZ I        2247 58.18        25.7 0.12                            73 297 
 PAM  SZ EP   1   2247 38.23                             151     0.2 7   76  39 
 PAM  SN ES   1   2247 54.39                             151    -0.6 7   76  39 
 RUS  HZ EP   1   2247 39.97                             143     0.2 7  101 177 
 RUS  HN ES   1   2247 58.11                             143     0.1 7  101 177 
 RUS  HZ I        2247 59.74         4.8 0.50                           101 177 
 PTB  HZ EP   1   2247 42.61                             131    -0.6 7  150 259 
 PTB  HN ES   1   2248  3.64                             131    -0.5 7  150 259 
 PTB  HZ I        2248  5.29         7.0 0.20                           150 259 
 ZAR  HZ EP   1   2247 49.32                             121     0.6 6  206 292 
 ZAR  HE ES   1   2248 13.85                             121    -0.1 6  206 292 
                                                                                
