 2015  421 2001 11.5 L   6.798 -73.141148.9  RSN  9 0.4 2.0LRSN                1
 GAP=137        0.90       2.7     4.1  5.1 -0.3802E+00  0.6321E+01  0.4411E+00E
 Epicentro: LOS SANTOS - SANTANDER                                             3
 ACTION:UPD 15-06-03 16:56 OP:cam  STATUS:               ID:20150421200111 L   I
 OLDACT:REG 15-04-22 05:20 OP:carl STATUS:               ID:20150421195748     3
 2015-04-21-1957-48M.COL___277                                                 6
 STAT SP IPHASW D HRMM SECON CODA AMPLIT PERI AZIMU VELO AIN AR TRES W  DIS CAZ7
 BAR2 EZ EP       20 1 31.40                             171   -0.0710 23.2 191 
 BAR2 EZ ES       20 1 46.97                             171   -0.1010 23.2 191 
 BAR2 EZ I        20 1 48.09        31.2 0.14            169           23.2 191 
 BRR  HZ EP       20 1 33.32                             153    0.3410 71.8 298 
 BRR  HN ES       20 1 50.08                             153    0.3110 71.8 298 
 PAM  SZ IP     C 20 1 34.22                             151    0.2210 77.2  39 
 PAM  SN ES       20 1 51.71                             151    0.1310 77.2  39 
 PAM  SZ I        20 1 54.00         9.8 0.54            155           77.2  39 
 RUS  HZ EP       20 1 35.33                             145   -0.1810  100 176 
 RUS  HN ES       20 1 53.95                             145   -0.3110  100 176 
 RUS  HZ I        20 1 55.74         8.4 0.20            146            100 176 
 SPBC HZ EP       20 1 40.50                             130    0.28 9  163 219 
 SPBC HN ES       20 2  2.45                             130   -0.21 9  163 219 
 SPBC HZ I        20 2  7.13        16.0 0.28            129            163 219 
 ZAR  HZ EP       20 1 44.12                             123   -0.06 9  205 292 
 ZAR  HN ES       20 2 10.04                             123    0.35 9  205 292 
 ZAR  HZ I        20 2 18.51         5.3 0.20            122            205 292 
 NOR  HZ EP       20 1 48.09                             119    0.68 8  235 235 
 NOR  HN ES       20 2 14.78                             119   -0.67 8  235 235 
 NOR  HZ I        20 2 19.46         9.2 0.20            119            235 235 
 SML  HZ EP       20 1 47.32                             118   -0.99 8  244 335 
 SML  HN ES       20 2 16.70                             118   -0.35 8  244 335 
 SML  HZ I        20 2 23.84        14.4 0.12            118            244 335 
 CHI  HZ EP       20 1 49.55                             118    0.22 8  249 195 
 CHI  HN ES       20 2 19.03                             118    0.16 8  249 195 
 CHI  HZ I        20 2 26.67         4.6 0.52            119            249 195 
                                                                                
