 2013  821 2238 33.7 L   6.796 -73.117144.9  RSN  7 0.4 1.7LRSN                1
 GAP=140        1.09       5.0     5.6  8.2  0.1548E+01  0.9343E+01  0.7694E+00E
 Epicentro: LOS SANTOS - SANTANDER                                             3
 ACTION:UPD 14-01-14 09:05 OP:ep   STATUS:               ID:20130821223833 L   I
 OLDACT:REG 13-08-21 21:23 OP:jn   STATUS:               ID:20130821222959     3
 2013-08-21-2229-59M.COL___270                                                 6
 STAT SP IPHASW D HRMM SECON CODA AMPLIT PERI AZIMU VELO AIN AR TRES W  DIS CAZ7
 BAR2 SZ EP       2238 53.40                             170    0.1610 23.7 198 
 BAR2 SZ ES       2239  8.53                             170    0.0510 23.7 198 
 BAR2 SZ I        2239  9.69         8.1 0.16            170           23.7 198 
 BRR  HZ EP       2238 55.18                             151    0.2410 74.2 298 
 BRR  HN ES       2239 12.11                             151    0.6210 74.2 298 
 BRR  HZ I        2239 15.23        16.2 0.32            150           74.2 298 
 PAM  SZ EP       2238 56.30                             151    0.5610 75.7  37 
 PAM  SN ES       2239 12.11                             151   -0.8010 75.7  37 
 PAM  SZ I        2239 15.28        14.2 0.48            153           75.7  37 
 RUS  HZ EP       2238 57.30                             144   -0.0310100.0 178 
 RUS  HN ES       2239 15.57                             144   -0.1910100.0 178 
 RUS  HZ I        2239 17.83         6.3 0.32            146          100.0 178 
 PTB  HZ EP   1   2239  0.25                             131   -0.64 7  151 259 
 PTB  HN ES   4   2239 20.44                             131   -1.64 0  151 259 
 PTB  HZ I        2239 22.89         4.3 0.20            132            151 259 
 SPBC HN ES   1   2239 24.64                             128    0.04 7  165 220 
 SPBC HZ I        2239 26.99         7.0 0.32            130            165 220 
 ZAR  HE ES       2239 31.50                             122   -0.43 8  207 292 
 ZAR  HZ I        2239 37.50         6.0 0.22            122            207 292 
                                                                                
