 2010  721 2319 23.1 L   6.783 -73.020141.0  RSN 11 0.7 2.1LRSN                1
 GAP=173        1.55       5.4    10.9 10.3 -0.1740E+02  0.2290E+01  0.3474E+01E
 Epicentro: CEPITA - SANTANDER                                                 3
 ACTION:UPD 10-12-01 15:19 OP:pat  STATUS:               ID:20100721231923 L   I
 2010-07-21-2314-33S.COL___123                                                 6
 STAT SP IPHASW D HRMM SECON CODA AMPLIT PERI AZIMU VELO AIN AR TRES W  DIS CAZ7
 BAR2 SZ EP       2319 41.94                             168    -0.310   28 221 
 BAR2 SZ ES   1   2319 57.13                             168    -0.1 7   28 221 
 BAR2 SZ I        2319 58.95        26.6 0.57                            28 221 
 GIR2 SZ EP   1   2319 42.37                             164    -0.1 7   38 330 
 BRR  HZ EP       2319 43.93                             147    -0.710   85 295 
 BRR  HZ I        2319 44.20        51.0 0.17                            85 295 
 BRR  HN ES       2320  1.49                             147     0.210   85 295 
 RUS  HZ EP       2319 46.08                             143    -0.210   99 184 
 RUS  HN ES       2320  4.62                             143     0.310   99 184 
 RUS  HZ I        2320  6.42        13.4 0.68                            99 184 
 GUE  SZ EP       2319 48.80                             138     1.410  116   5 
 GUE  SZ ES   2   2320  5.85                             138    -0.4 5  116   5 
 GUE  SZ I        2320 10.54         7.4 0.05                           116   5 
 GRA  SZ EP   1   2319 47.85                             136     0.0 7  124  11 
 GRA  SZ ES   2   2320  7.04                             136     0.0 5  124  11 
 GRA  SZ I        2320  8.52        14.2 0.56                           124  11 
 OCA  SZ EP       2319 51.29                             128    -0.2 9  164 348 
 OCA  SZ ES   2   2320 11.94                             128    -1.6 5  164 348 
 OCA  SZ I        2320 18.37        28.6 0.43                           164 348 
 CHI  HZ EP   1   2320  0.31                             116    -0.5 6  251 198 
 CHI  HN ES   1   2320 29.79                             116    -0.4 6  251 198 
 CHI  HZ I        2320 35.44         7.6 1.36                           251 198 
 HEL  HN ES   3   2320 35.53                             113    -1.4 2  285 257 
 HEL  HZ I        2320 40.43         5.8 0.90                           285 257 
 RREF HZ EP   1   2320 10.66                             109     0.5 5  331 231 
 RREF HN ES       2320 47.99                             109     1.2 7  331 231 
 RREF HZ I        2320 53.24         9.3 0.57                           331 231 
 PRA  HZ EP   1   2320 16.21                             105    -0.9 4  397 211 
 PRA  HN ES   1   2320 58.73                             105    -0.5 4  397 211 
 PRA  HZ I        2321  1.26         8.8 0.84                           397 211 
                                                                                
