 2017  821 2319 52.2 L   7.378 -73.196133.3  RSN  5 0.1 1.6LRSN                1
 GAP=180        0.43       2.6     2.1  3.2  0.1498E+01  0.1511E+01 -0.1376E+00E
 Epicentro: EL PLAYON - SANTANDER                                              3
 ACTION:UPD 17-09-04 20:23 OP:rebc STATUS:               ID:20170821231952 L   I
 OLDACT:DUP 17-08-22 04:22 OP:lv   STATUS:               ID:20170821231740d    3
 2017-08-21-2318-00M.COL___414                                                 6
 STAT SP IPHASW D HRMM SECON CODA AMPLIT PERI AZIMU VELO AIN AR TRES W  DIS CAZ7
 PAM  EZ EP       2320 11.87                             156    0.0410 55.0  94 
 PAM  EE ES       2320 27.17                             156    0.0110 55.0  94 
 PAM  EZ I        2320 29.07         7.6 0.42            159           55.0  94 
 BRR  HZ EP       2320 11.56                             153   -0.0510 64.3 242 
 BRR  HN ES       2320 26.55                             153   -0.2010 64.3 242 
 BRR  HZ I        2320 28.73        11.2 0.18            153           64.3 242 
 BAR2 EZ EP       2320 13.53                             145    0.1510 86.9 179 
 BAR2 EZ ES       2320 29.97                             145    0.0610 86.9 179 
 BAR2 EZ I        2320 31.03        19.4 0.14            147           86.9 179 
 RUS  HZ EP       2320 20.13                             126   -0.32 9  165 176 
 RUS  HN ES       2320 42.65                             126    0.15 9  165 176 
 RUS  HZ I        2320 43.63         1.4 0.42            128            165 176 
 ZAR  HZ EP       2320 21.78                             122    0.04 9  184 274 
 ZAR  HN ES       2320 44.92                             122    0.13 9  184 274 
 ZAR  HZ I        2320 48.07         6.2 0.08            124            184 274 
 SJC  HZ EP   4   2320 39.54                             106   -1.30 0  354 322 
 SJC  HN ES   4   2321 15.62                             106   -3.17 0  354 322 
                                                                                
