 2012 1121 2014  5.2 L   6.809 -73.174150.1  RSN 11 0.3 2.5LRSN 3.0WRSN        1
 SPEC AVERAGE  MO 13.6 ST  3.9 OM  3.2 f0 2.65 R0.6177 AL 1.85 WI 20.9 MW  3.0 3
 SPEC SD       MO  0.5 ST  3.8 OM  1.3 f00.855 R0.1989 AL      WI      MW  0.3 3
 GAP= 69        0.70       1.9     2.7  3.5  0.6486E-01  0.2230E+01  0.5214E+00E
 Epicentro: LOS SANTOS - SANTANDER                                             3
 SPEC RUS HH N MO 13.1 ST0.108 OM  1.5 f0 1.80 R0.8167 AL 1.58 WI  7.3 MW  2.7 3
 SPEC RUS HH N T201448 K 0.000 GD  181 VS 4.20 DE 3.00 Q0230.0 QA 0.60 VS 4.20 3
 SPEC OCA HH N MO 14.1 ST  7.7 OM  2.4 f0 3.51 R0.4188 AL 2.12 WI 34.4 MW  3.3 3
 SPEC OCA HH N T201455 K 0.000 GD  218 VS 4.20 DE 3.00 Q0230.0 QA 0.60 VS 4.20 3
 ACTION:UPD 12-12-05 15:35 OP:}ep  STATUS:               ID:20121121201405 L   I
 2012-11-21-2010-00M.COL___234                                                 6
 STAT SP IPHASW D HRMM SECON CODA AMPLIT PERI AZIMU VELO AIN AR TRES W  DIS CAZ7
 BAR2 SZ EP       2014 25.34                             171   -0.0410 23.9 182 
 BAR2 SZ I        2014 25.67        41.8 0.34                          23.9 182 
 BAR2 SZ ES       2014 41.28                             171    0.1710 23.9 182 
 GIR2 SZ EP       2014 25.71                             168    0.3410 29.9 356 
 GIR2 SZ ES       2014 41.46                             168    0.3710 29.9 356 
 PAM  SZ EP       2014 28.14                             151    0.1610 78.7  42 
 PAM  SN ES       2014 45.27                             151   -0.4510 78.7  42 
 PAM  SN I        2014 46.88        47.4 0.42                          78.7  42 
 RUS  HZ EP       2014 29.23                             144   -0.2610  102 174 
 RUS  HN ES       2014 48.17                             144   -0.2410  102 174 
 RUS  HN I        2014 49.66        15.2 0.32                           102 174 
 PTB  HZ EP       2014 32.31                             134    0.03 9  145 258 
 PTB  HN ES       2014 52.93                             134   -0.46 9  145 258 
 PTB  HN I        2014 59.02        58.4 0.32                           145 258 
 TAM  HZ IP     D 2014 33.50                             131   -0.05 9  158 105 
 TAM  HZ I        2014 33.81        25.6 0.22                           158 105 
 OCA  HZ EP       2014 33.82                             131    0.07 9  159 354 
 OCA  HN ES       2014 55.98                             131   -0.02 9  159 354 
 OCA  HN I        2014 59.96        74.6 0.38                           159 354 
 ZAR  HZ EP       2014 37.18                             124   -0.43 9  201 292 
 ZAR  HN ES       2015  3.30                             124    0.42 9  201 292 
 ZAR  HN I        2015 10.29        35.8 0.32                           201 292 
 SML  HZ EP       2014 41.83                             119   -0.03 8  242 336 
 SML  HE ES       2015 10.36                             119   -0.07 8  242 336 
 SML  HN I        2015 20.04        52.0 0.10                           242 336 
 CHI  HZ EP       2014 43.43                             118    0.26 8  249 194 
 CHI  HN ES       2015 13.24                             118    0.46 8  249 194 
 CHI  HN I        2015 19.69        17.7 0.52                           249 194 
 PRA  HZ EP       2014 59.00                             107    0.19 6  391 209 
 PRA  HN ES       2015 40.26                             107   -0.35 6  391 209 
 PRA  HN I        2015 45.92         7.2 0.34                           391 209 
                                                                                
