 2012 1221 2115 54.1 L   6.699 -73.194147.1  RSN  4 0.4 1.7LRSN                1
 GAP=224        0.95       7.6     7.7  7.9  0.3113E+02  0.1310E+02  0.6375E+01E
 Epicentro: VILLANUEVA - SANTANDER                                             3
 ACTION:UPD 13-01-04 14:29 OP:ep   STATUS:               ID:20121221211554 L   I
 2012-12-21-2110-00M.COL___243                                                 6
 STAT SP IPHASW D HRMM SECON CODA AMPLIT PERI AZIMU VELO AIN AR TRES W  DIS CAZ7
 BAR2 SZ ES       2116 28.43                             175   -0.5610 11.8 174 
 BAR2 SZ I        2116 29.83        16.0 0.40                          11.8 174 
 BRR  HZ EP       2116 15.32                             152   -0.1410 72.9 308 
 BRR  HN ES       2116 32.66                             152    0.5210 72.9 308 
 RUS  HZ EP       2116 17.60                             147    0.3810 90.0 172 
 RUS  HN ES       2116 35.42                             147    0.1410 90.0 172 
 RUS  HN I        2116 37.90         5.8 0.24                          90.0 172 
 PTB  HZ EP       2116 20.13                             134   -0.38 9  141 263 
 PTB  HN ES       2116 41.14                             134    0.00 9  141 263 
 PTB  HN I        2116 46.85         5.7 0.66                           141 263 
                                                                                
