 2011  421 2049 12.9 L   6.834 -73.123141.2  RSN  8 0.3 1.6LRSN                1
 GAP=138        0.52       3.4     5.5  6.0 -0.4276E+01 -0.8770E+01 -0.1162E+00E
 Epicentro: LOS SANTOS - SANTANDER                                             3
 ACTION:UP  11-06-22 15:32 OP:REBC STATUS:               ID:20110421204912 L   I
 2011-04-21-2043-53S.COL___139                                                 6
 STAT SP IPHASW D HRMM SECON CODA AMPLIT PERI AZIMU VELO SNR AR TRES W  DIS CAZ7
 BAR2 SZ EP   2   2049 32.94                             168     0.8 5   28 194 
 GIR2 SZ EP       2049 32.01                             168     0.010   28 344 
 BAR2 SZ ES   2   2049 47.29                             168     0.2 5   28 194 
 BAR2 SZ I        2049 49.08        10.1 0.19                            28 194 
 BRR  HZ EP   1   2049 33.50                             152    -0.1 7   72 295 
 BRR  HE ES   1   2049 49.77                             152     0.0 7   72 295 
 BRR  HZ I        2049 51.93        14.4 0.16                            72 295 
 PAM  SZ EP   1   2049 34.47                             151     0.1 7   73  40 
 PAM  SN ES   2   2049 51.28                             151     0.1 5   73  40 
 BRI  SZ EP   1   2049 36.19                             142     0.1 7  104  20 
 RUS  HZ EP   2   2049 36.23                             142    -0.3 5  104 178 
 RUS  HN ES   2   2049 54.47                             142    -0.4 5  104 178 
 RUS  HZ I        2049 55.65         2.9 0.24                           104 178 
 GRA  SZ EP   1   2049 37.30                             137    -0.1 7  121  17 
 GRA  SZ I        2049 39.00         6.9 0.22                           121  17 
 GRA  SZ ES   1   2049 56.31                             137    -0.2 7  121  17 
 OCA  SZ ES   2   2050  2.04                             129    -0.1 5  157 352 
 OCA  SZ I        2050 11.74         5.2 0.45                           157 352 
                                                                                
