 2016 1221 2046 25.5 L   6.774 -73.122143.5  RSN  5 0.2 1.5LRSN                1
 GAP=141        0.60       3.8     3.3  4.9  0.2346E+01  0.2026E+01  0.2260E+01E
 Epicentro: LOS SANTOS - SANTANDER                                             3
 ACTION:UPD 17-01-11 20:17 OP:rebc STATUS:               ID:20161221204625 L   I
 OLDACT:REG 16-12-22 03:20 OP:ar   STATUS:               ID:20161221203745     3
 2016-12-21-2038-00M.COL___384                                                 6
 STAT SP IPHASW D HRMM SECON CODA AMPLIT PERI AZIMU VELO AIN AR TRES W  DIS CAZ7
 BAR2 EZ EP     C 2046 44.78                             171   -0.0110 21.2 199 
 BAR2 EZ ES       2046 59.62                             171   -0.2310 21.2 199 
 BAR2 EZ I        2047  0.99        12.2 0.20            169           21.2 199 
 BRR  HZ EP       2046 46.49                             151   -0.1110 74.9 300 
 BRR  HZ I        2047  2.55        16.0 0.32            145           74.9 300 
 BRR  HN ES       2047  3.51                             151    0.4410 74.9 300 
 PAM  EZ EP       2046 47.69                             150    0.2010 78.0  37 
 PAM  EN ES       2047  4.49                             150   -0.1710 78.0  37 
 PAM  EZ I        2047  6.89         5.0 0.34            147           78.0  37 
 RUS  HZ EP       2046 48.83                             144    0.0510 97.5 178 
 RUS  HN ES   2   2047  7.08                             144    0.12 5 97.5 178 
 RUS  HZ I        2047 10.02         1.9 0.46            140           97.5 178 
 ZAR  HN ES       2047 23.33                             121   -0.29 8  208 293 
                                                                                
