 2016  521 2353 13.6 L   6.798 -73.099154.1  RSN  4 0.3 1.5LRSN                1
 GAP=143        0.80       6.6     4.7  8.1 -0.9484E+01 -0.3118E+01  0.2336E+02E
 Epicentro: LOS SANTOS - SANTANDER                                             3
 ACTION:UPD 16-08-18 17:48 OP:cam  STATUS:               ID:20160521235313 L   I
 OLDACT:UP  16-05-22 06:38 OP:dani STATUS:               ID:20160521234748     3
 OLDACT:REG 16-05-22 03:46 OP:dani STATUS:               ID:20160521234748     3
 2016-05-21-2347-48M.COL___298                                                 6
 STAT SP IPHASW D HRMM SECON CODA AMPLIT PERI AZIMU VELO AIN AR TRES W  DIS CAZ7
 PAM  EZ EP       2353 36.79                             153    0.2810 74.4  36 
 PAM  EN ES       2353 54.00                             153   -0.4010 74.4  36 
 PAM  EZ I        2353 55.55         4.1 0.48            155           74.4  36 
 BRR  HZ EP       2353 35.81                             152   -0.0710 75.8 297 
 BRR  HE ES       2353 53.71                             152    0.4310 75.8 297 
 BRR  HZ I        2354  2.04         7.8 0.38            151           75.8 297 
 RUS  HZ EP       2353 38.44                             145    0.3210  100 179 
 RUS  HN ES   2   2353 56.96                             145   -0.30 5  100 179 
 PTB  HZ EP       2353 41.30                             133   -0.38 9  153 259 
 PTB  HE ES       2354  3.42                             133   -0.17 9  153 259 
 PTB  HZ I        2354  3.72         3.2 0.12            135            153 259 
                                                                                
