 2015  421 2251 51.4 L   6.783 -73.144145.6  RSN  9 0.5 2.3LRSN                1
 GAP=138        1.24       4.1     5.0  7.1 -0.2262E+01  0.1064E+02 -0.2725E+01E
 Epicentro: LOS SANTOS - SANTANDER                                             3
 ACTION:UPD 15-06-03 16:56 OP:cam  STATUS:               ID:20150421225151 L   I
 OLDACT:REG 15-04-22 05:24 OP:carl STATUS:               ID:20150421224747     3
 2015-04-21-2247-47M.COL___277                                                 6
 STAT SP IPHASW D HRMM SECON CODA AMPLIT PERI AZIMU VELO AIN AR TRES W  DIS CAZ7
 BAR2 EZ EP       2252 10.88                             171   -0.0610 21.5 191 
 BAR2 EZ ES       2252 25.92                             171   -0.2810 21.5 191 
 BAR2 EZ I        2252 26.85        75.0 0.22            171           21.5 191 
 BRR  HZ EP       2252 12.84                             152    0.2910 72.3 300 
 BRR  HN ES       2252 29.70                             152    0.6210 72.3 300 
 BRR  HZ I        2252 31.41        42.7 0.14            150           72.3 300 
 PAM  SZ EP       2252 13.83                             150    0.1910 78.7  39 
 PAM  SN ES       2252 30.87                             150   -0.1510 78.7  39 
 PAM  SZ I        2252 33.20        27.4 0.60            153           78.7  39 
 RUS  HZ EP       2252 15.00                             144    0.0410 98.7 176 
 RUS  HN ES       2252 33.57                             144    0.2010 98.7 176 
 RUS  HZ I        2252 34.38        20.5 0.30            146           98.7 176 
 PTB  HZ EP       2252 17.56                             132   -0.74 9  148 260 
 PTB  HN ES       2252 38.43                             132   -0.88 9  148 260 
 PTB  HZ I        2252 44.18        21.4 0.16            132            148 260 
 SPBC HZ EP       2252 19.67                             129   -0.05 9  162 219 
 SPBC HN ES       2252 41.97                             129    0.13 9  162 219 
 SPBC HZ I        2252 45.06        29.4 0.10            130            162 219 
 ZAR  HZ EP       2252 25.17                             122    1.28 9  205 293 
 ZAR  HN ES       2252 49.84                             122    0.58 9  205 293 
 ZAR  HZ I        2252 51.61        14.7 0.56            123            205 293 
 NOR  HZ EP       2252 26.96                             119   -0.02 8  234 235 
 NOR  HN ES       2252 54.62                             119   -0.14 8  234 235 
 NOR  HZ I        2252 59.74        18.5 0.22            119            234 235 
 SML  HZ EP       2252 27.68                             117   -0.49 8  245 335 
 SML  HN ES       2252 56.17                             117   -0.71 8  245 335 
 SML  HZ I        2253  2.06        19.0 0.26            118            245 335 
                                                                                
