 2017  621 2241 47.3 L   6.735 -73.218149.7  RSN  5 0.3 2.2LRSN                1
 GAP=271        0.66       3.9     6.5  6.3  0.1818E+01 -0.9361E+01  0.1950E+01E
 Epicentro: VILLANUEVA - SANTANDER                                             3
 ACTION:UPD 17-09-14 16:54 OP:jn   STATUS:               ID:20170621224147 L   I
 OLDACT:UP  17-06-22 07:26 OP:dani STATUS:               ID:20170621223738     3
 OLDACT:UP  17-06-22 07:26 OP:dani STATUS:               ID:20170621223738     3
 OLDACT:UP  17-06-22 07:26 OP:dani STATUS:               ID:20170621223738     3
 OLDACT:REG 17-06-22 06:23 OP:dani STATUS:               ID:20170621223738     3
 2017-06-21-2238-00M.COL___352                                                 6
 STAT SP IPHASW D HRMM SECON CODA AMPLIT PERI AZIMU VELO AIN AR TRES W  DIS CAZ7
 BRR  HZ EP       2242  8.43                             154   -0.3010 68.3 307 
 BRR  HN ES       2242 25.62                             154    0.1910 68.3 307 
 PTB  HZ EP       2242 13.52                             135   -0.27 9  139 261 
 PTB  HN ES       2242 34.13                             135   -0.32 9  139 261 
 PTB  HZ I        2242 35.54         7.2 0.48            131            139 261 
 SPBC HZ EP       2242 15.28                             132    0.15 9  153 218 
 SPBC HN ES       2242 37.03                             132    0.19 9  153 218 
 SPBC HZ I        2242 41.89       168.9 0.04            129            153 218 
 ZAR  HZ EP       2242 19.93                             124    0.38 9  200 295 
 ZAR  HE ES       2242 44.81                             124    0.10 9  200 295 
 ZAR  HZ I        2242 50.44         9.3 0.31            122            200 295 
 GUY2CHZ EP   4   2242 32.59                             114    2.68 0  291 235 
 GUY2CHN ES   4   2243  7.47                             114    4.33 0  291 235 
 GUY2CHZ I        2243 12.69         4.0 0.59                           291 235 
 SJC  HZ EP   4   2242 40.93                             106   -2.28 0  411 328 
 SJC  HN ES   4   2243 22.85                             106   -3.96 0  411 328 
                                                                                
