 2012  321 2031 46.9 L   7.426 -73.205123.9  RSN  5 0.3 1.5LRSN                1
 GAP=187        0.66       8.3     4.3  8.2 -0.1331E+02  0.1228E+02  0.8066E+01E
 ACTION:UP  12-03-31 23:21 OP:EP   STATUS:               ID:20120321203146 L   I
 2012-03-21-2030-00M.COL___202                                                 6
 STAT SP IPHASW D HRMM SECON CODA AMPLIT PERI AZIMU VELO SNR AR TRES W  DIS CAZ7
 PAM  SZ EP   1   2032  5.62                             154     0.1 7   57 100 
 PAM  SN ES   1   2032 20.14                             154     0.0 7   57 100 
 PAM  SZ I        2032 22.62         5.3 0.17                            57 100 
 BRR  HZ EP   1   2032  5.50                             150     0.1 7   66 238 
 BRR  HN ES   1   2032 19.87                             150     0.0 7   66 238 
 BRR  HZ I        2032 27.88        14.3 0.22                            66 238 
 PTB  HZ EP   1   2032 14.03                             122    -0.3 7  169 235 
 PTB  HN ES   1   2032 35.27                             122    -0.5 7  169 235 
 PTB  HZ I        2032 38.71         2.3 0.10                           169 235 
 ZAR  HN ES   1   2032 38.37                             120     0.2 7  183 272 
 ZAR  HZ I        2032 45.61         4.1 0.13                           183 272 
 NOR  SN ES   1   2032 57.38                             109     0.6 6  276 222 
                                                                                
