 2012 1121 2042 37.4 L   6.808 -73.195144.7  RSN  6 0.1 1.8LRSN                1
 GAP=130        0.38       1.7     2.1  2.5 -0.9877E+00  0.1022E+01  0.1089E+01E
 Epicentro: ZAPATOCA - SANTANDER                                               3
 ACTION:UPD 12-12-05 15:35 OP:}ep  STATUS:               ID:20121121204237 L   I
 2012-11-21-2040-00M.COL___234                                                 6
 STAT SP IPHASW D HRMM SECON CODA AMPLIT PERI AZIMU VELO AIN AR TRES W  DIS CAZ7
 BAR2 SZ ES       2043 12.21                             170    0.0810 23.9 177 
 BAR2 SZ I        2043 13.43        14.3 0.42                          23.9 177 
 GIR2 SZ EP       2042 57.10                             168    0.1910 29.9   0 
 GIR2 SZ ES       2043 12.04                             168   -0.0910 29.9   0 
 PAM  SZ IP       2042 59.83                             150    0.1510 80.3  43 
 PAM  SZ I        2042 59.92         7.7 0.20                          80.3  43 
 PAM  SN ES       2043 16.89                             150   -0.1710 80.3  43 
 RUS  HZ EP       2043  1.03                             143   -0.1210  102 173 
 RUS  HN ES       2043 19.75                             143    0.0810  102 173 
 PTB  HZ EP       2043  3.67                             133   -0.14 9  143 258 
 PTB  HE ES       2043 24.47                             133    0.06 9  143 258 
 PTB  HN I        2043 30.20        12.6 0.44                           143 258 
 CHI  HZ EP       2043 14.98                             117    0.00 8  248 194 
 CHI  HN ES       2043 44.22                             117   -0.07 8  248 194 
 CHI  HN I        2043 47.14         3.8 0.50                           248 194 
                                                                                
