 2016  821 2055 25.0 L   6.754 -73.152150.0  RSN 11 0.5 2.1LRSN                1
 GAP=119        1.23       4.0     4.4  7.5 -0.3339E+01  0.3175E+01 -0.3278E+01E
 Epicentro: LOS SANTOS - SANTANDER                                             3
 ACTION:UPD 16-10-29 15:37 OP:rebc STATUS:               ID:20160821205525 L   I
 OLDACT:UP  16-08-22 03:16 OP:dani STATUS:               ID:20160821204744     3
 OLDACT:REG 16-08-22 02:37 OP:dani STATUS:               ID:20160821204744     3
 2016-08-21-2047-44M.COL___346                                                 6
 STAT SP IPHASW D HRMM SECON CODA AMPLIT PERI AZIMU VELO AIN AR TRES W  DIS CAZ7
 BRR  HZ EP       2055 47.24                             152    0.4910 73.1 302 
 BRR  HN ES       2056  4.31                             152    0.6210 73.1 302 
 BRR  HZ I        2056  5.23        23.1 0.17                          73.1 302 
 PAM  EZ EP       2055 48.31                             150    0.3410 81.8  38 
 PAM  EN ES       2056  5.82                             150   -0.0410 81.8  38 
 PAM  EZ I        2056  8.05        18.9 0.70                          81.8  38 
 RUS  HZ EP       2055 48.90                             146    0.0410 95.5 175 
 RUS  HE ES       2056  6.79                             146   -0.6510 95.5 175 
 RUS  HZ I        2056  8.64        14.4 0.34                          95.5 175 
 PTB  HZ EP       2055 51.89                             133   -0.32 9  146 261 
 PTB  HN ES       2056 12.61                             133   -0.79 9  146 261 
 PTB  HZ I        2056 18.20        10.7 0.14                           146 261 
 SPBC HZ EP       2055 53.96                             131    0.51 9  159 220 
 SPBC HN ES       2056 15.54                             131   -0.08 9  159 220 
 SPBC HZ I        2056 18.30        15.2 0.20                           159 220 
 OCA  HZ EP       2055 54.27                             129    0.12 9  165 354 
 OCA  HE ES       2056 16.26                             129   -0.59 9  165 354 
 OCA  HZ I        2056 19.40        31.0 0.50                           165 354 
 ZAR  HZ EP       2055 58.60                             123    0.71 8  205 294 
 ZAR  HN ES       2056 23.91                             123    0.39 8  205 294 
 ZAR  HZ I        2056 29.32        18.3 0.28                           205 294 
 NOR  HN ES       2056 28.84                             120    0.43 8  231 235 
 URE  HE ES       2056 37.97                             114   -0.79 7  285 293 
 SOCV BZ EP       2056  8.43                             112   -0.24 7  305  56 
 SOCV BN ES   4   2056 41.01                             112   -1.69 0  305  56 
 SJC  HZ EP       2056 20.09                             106   -1.11 6  413 327 
 SJC  HE ES   4   2057  3.61                             106   -1.39 0  413 327 
 SJC  HZ I        2057  5.61         2.2 0.29                           413 327 
                                                                                
