 2013 1021 2203 32.5 L   6.754 -73.023139.4  RSN  5 0.2 1.5LRSN                1
 GAP=195        0.43       4.1     2.6  5.0 -0.3786E+01  0.4051E+01 -0.2364E+01E
 Epicentro: CEPITA - SANTANDER                                                 3
 ACTION:UPD 13-11-25 09:22 OP:ep   STATUS:               ID:20131021220332 L   I
 OLDACT:DUP 13-10-22 00:16 OP:mh   STATUS:               ID:20131021215850d    3
 2013-10-21-2158-49M.COL___212                                                 6
 STAT SP IPHASW D HRMM SECON CODA AMPLIT PERI AZIMU VELO AIN AR TRES W  DIS CAZ7
 BAR2 SZ EP   1   22 3 51.52                             169    0.10 7 25.1 224 
 BAR2 SZ ES       22 4  5.97                             169   -0.1910 25.1 224 
 PAM  SZ EP   1   22 3 53.76                             151   -0.09 7 73.9  29 
 PAM  SE ES       22 4 10.56                             151    0.0810 73.9  29 
 PAM  SZ I        22 4 13.82         5.7 0.20            143           73.9  29 
 BRR  HN ES       22 4 10.64                             146    0.1010 85.5 297 
 BRR  HZ I        22 4 14.74         7.5 0.29            138           85.5 297 
 PTB  HN ES       22 4 21.86                             128    0.16 9  160 262 
 ZAR  HN ES   1   22 4 31.93                             119   -0.32 6  218 292 
 ZAR  HZ I        22 4 39.76         2.8 0.22            116            218 292 
                                                                                
