 2010 1121 2348 58.2 L   6.827 -73.100147.3  RSN  6 0.4 1.6LRSN                1
 GAP=163        0.70       4.0    11.1  9.3 -0.6437E+01 -0.1589E+02  0.9458E+01E
 Epicentro: LOS SANTOS - SANTANDER                                             3
 ACTION:UP  10-12-17 16:54 OP:REBC STATUS:               ID:20101121234858 L   I
 2010-11-21-2345-16S.COL___129                                                 6
 STAT SP IPHASW D HRMM SECON CODA AMPLIT PERI AZIMU VELO SNR AR TRES W  DIS CAZ7
 BAR2 SZ EP   1   2349 17.94                             169    -0.210   28 200 
 BRR  HZ EP   1   2349 19.84                             152     0.110   74 295 
 BRR  HN ES   2   2349 36.85                             152     0.4 6   74 295 
 BRR  HZ I        2349 40.09         8.2 0.68                            74 295 
 RUS  HZ EP   1   2349 22.07                             143    -0.210  103 179 
 RUS  HN ES   2   2349 40.94                             143    -0.2 6  103 179 
 RUS  HZ I        2349 42.52         3.7 0.20                           103 179 
 GRA  SZ EP   1   2349 23.61                             138     0.4 9  121  16 
 GRA  SZ ES   2   2349 43.18                             138     0.4 6  121  16 
 OCA  SZ EP   1   2349 26.28                             130    -0.2 9  158 351 
 OCA  SZ ES   2   2349 47.44                             130    -1.0 6  158 351 
 OCA  SZ I        2349 52.40         7.6 0.10                           158 351 
 CHI  HZ EP       2349 36.59                             117     0.110  253 196 
 CHI  HZ I        2350 11.35         2.0 0.44                           253 196 
                                                                                
