 2014 1021 2050 34.9 L   6.550 -73.563110.0  RSN  9 0.5 1.9LRSN                1
 GAP=121        1.09       5.1     4.3  8.1 -0.1074E+02  0.2568E+01  0.1078E+02E
 Epicentro: EL CARMEN - SANTANDER                                              3
 ACTION:UPD 14-11-29 23:53 OP:nd   STATUS:               ID:20141021204749dL   I
 OLDACT:DUP 14-10-23 08:51 OP:fm   STATUS:               ID:20141021204749dL   3
 2014-10-21-2047-48M.COL___280                                                 6
 STAT SP IPHASW D HRMM SECON CODA AMPLIT PERI AZIMU VELO AIN AR TRES W  DIS CAZ7
 BAR2 SZ EP       2050 51.33                             158    0.4210 42.4  84 
 BAR2 SZ ES   1   2051  3.76                             158    0.32 7 42.4  84 
 BRR  HN ES       2051  5.58                             148    0.6110 63.8 345 
 BRR  HZ I        2051  5.87        14.3 0.20            143           63.8 345 
 PTB  HZ EP       2050 53.96                             135   -0.5310 98.8 269 
 PTB  HN ES       2051  9.29                             135   -0.5110 98.8 269 
 PTB  HZ I        2051 13.81        12.5 0.10            131           98.8 269 
 PAM  SZ EP       2050 57.81                             127   -0.1510  129  47 
 PAM  SN ES       2051 15.25                             127   -0.7210  129  47 
 PAM  SZ I        2051 20.28         7.2 0.44            124            129  47 
 HEL  HN ES   1   2051 32.71                             112   -0.49 6  221 260 
 HEL  HZ I        2051 36.72         3.9 0.30            109            221 260 
 GUY2CHZ EP   4   2051 12.78                             109    1.97 0  248 234 
 GUY2CHN ES       2051 39.36                             109    0.51 8  248 234 
 GUY2CHZ I        2051 44.75         4.7 0.76                           248 234 
 SML  HN ES       2051 39.87                             108    0.52 8  255 347 
 SML  HZ I        2051 45.64        11.1 0.24            105            255 347 
 TOL  SZ EP   1   2051 16.23                             105    0.44 5  292 222 
 TOL  SN ES   1   2051 47.81                             105    0.10 5  292 222 
 TOL  SZ I        2051 52.54         8.0 0.38            103            292 222 
 PRA  HZ EP   1   2051 21.99                             102    0.10 5  346 205 
 PRA  HN ES   4   2051 48.81                             102   -9.77 0  346 205 
 PRA  HZ I        2052  1.67         5.0 0.34             99            346 205 
                                                                                
