 2010  121 2145  0.4 L   6.902 -73.254125.2  RSN  6 0.3 2.5LRSN                1
 GAP=274        0.53       6.3     6.0  7.3  0.2906E+01  0.2556E+02  0.7008E+01E
 Epicentro: BETULIA - SANTANDER                                                3
 ACTION:UP  10-08-24 09:45 OP:vdl  STATUS:               ID:20100121214500 L   I
 2010-01-21-2143-17S.COL___095                                                 6
 STAT SP IPHASW D HRMM SECON CODA AMPLIT PERI AZIMU VELO SNR AR TRES W  DIS CAZ7
 BAR2 SZ EP   1   2145 18.23                             164     0.3 7   35 167 
 BAR2 SZ ES   2   2145 31.71                             164     0.1 5   35 167 
 RUS  BZ EP   1   2145 23.13                             136    -0.1 7  113 170 
 RUS  BN ES   2   2145 40.57                             136    -0.5 5  113 170 
 RUS  BZ I        2145 41.77        37.5 0.19                           113 170 
 CHI  HZ EP   1   2145 37.68                             112    -0.3 6  257 192 
 CHI  HZ I        2145 39.77        17.9 0.35                           257 192 
 CHI  HE ES   2   2146  7.50                             112     0.2 4  257 192 
 HEL  HZ EP   1   2145 38.89                             111     0.2 6  264 253 
 HEL  HE ES   2   2146  7.89                             111    -0.7 4  264 253 
 HEL  HZ I        2146 12.12        32.6 0.53                           264 253 
 RREF BZ EP   1   2145 45.55                             107     0.0 5  320 226 
 RREF BN ES   2   2146 21.11                             107     0.3 3  320 226 
 RREF BZ I        2146 27.81        12.5 0.37                           320 226 
 PRA  HZ EP   1   2145 54.01                             103     0.2 4  396 207 
 PRA  HZ I        2146  3.09        16.1 0.26                           396 207 
 PRA  HE ES   2   2146 36.00                             103     0.6 3  396 207 
                                                                                
