 2010  521 2135 21.3 L   6.792 -73.474103.6  RSN  8 0.4 2.1LRSN                1
 GAP=134        0.74       5.7    10.4 10.9 -0.4540E+02  0.7590E+02 -0.2216E+02E
 Epicentro: EL CARMEN DE CHUCURI - SANTANDER                                   3
 ACTION:UP  10-08-24 10:06 OP:vdl  STATUS:               ID:20100521213521 L   I
 2010-05-21-2131-25S.COL___111                                                 6
 STAT SP IPHASW D HRMM SECON CODA AMPLIT PERI AZIMU VELO SNR AR TRES W  DIS CAZ7
 BAR2 SZ IP       2135 36.32                             159    -0.210   39 125 
 BAR2 SZ ES   2   2135 48.49                             159     0.2 5   39 125 
 BRI  SZ EP   1   2135 43.38                             125     0.1 7  127  36 
 BRI  SZ ES   2   2136  0.83                             125     0.4 5  127  36 
 GUE  SZ EP   1   2135 43.21                             125    -0.6 7  130  28 
 GUE  SZ ES   2   2136  0.65                             125    -0.6 5  130  28 
 GRA  SZ EP   1   2135 45.13                             122     0.4 7  142  31 
 GRA  SZ ES   2   2136  3.65                             122     0.6 5  142  31 
 HEL  HZ EP   1   2135 55.58                             108     0.0 6  237 254 
 CHI  HZ EP   1   2135 55.93                             108    -0.2 6  241 187 
 CHI  HZ I        2136 28.58         7.2 0.38                           241 187 
 RREF BZ EP   1   2136  3.53                             103     0.8 5  295 225 
 RREF BN ES   2   2136 34.80                             103    -0.3 4  295 225 
 RREF BZ I        2136 44.87         4.6 0.72                           295 225 
 PRA  HZ EP   1   2136 11.04                              99    -0.6 5  375 205 
 PRA  HE ES   2   2136 51.69                              99     0.8 3  375 205 
 PRA  HZ I        2136 59.27         7.5 0.60                           375 205 
                                                                                
