 2014  221 2118 57.0 L   6.706 -73.124140.4  RSN  9 0.4 2.5LRSN                1
 GAP=143        1.02       3.5     4.4  6.5 -0.4080E+00  0.7671E+01  0.3312E+01E
 Epicentro: JORDAN - SANTANDER                                                 3
 ACTION:UPD 14-03-10 08:12 OP:ep   STATUS:               ID:20140221211857 L   I
 OLDACT:UP  14-02-22 01:15 OP:mh   STATUS:               ID:20140221211649     3
 OLDACT:REG 14-02-22 00:37 OP:mh   STATUS:               ID:20140221211649     3
 2014-02-21-2116-49M.COL___235                                                 6
 STAT SP IPHASW D HRMM SECON CODA AMPLIT PERI AZIMU VELO AIN AR TRES W  DIS CAZ7
 BAR2 SZ EP   1   2119 15.88                             174    0.04 7 14.1 207 
 BAR2 SZ ES   1   2119 30.78                             174    0.25 7 14.1 207 
 BRR  HZ EP       2119 18.35                             149    0.3210 78.7 304 
 BRR  HN ES       2119 35.08                             149    0.6510 78.7 304 
 BRR  HZ I        2119 40.94        10.5 0.23            148           78.7 304 
 PAM  SZ EP       2119 19.05                             148   -0.0510 84.3  34 
 PAM  SN ES       2119 35.74                             148   -0.5810 84.3  34 
 PAM  SZ I        2119 38.59         8.1 0.42            151           84.3  34 
 RUS  HZ EP       2119 19.76                             146    0.2710 90.1 177 
 RUS  HN ES       2119 37.07                             146    0.0510 90.1 177 
 RUS  HZ I        2119 39.57         4.6 0.16            148           90.1 177 
 PTB  HZ EP       2119 23.29                             131   -0.32 9  148 263 
 PTB  HN ES       2119 43.37                             131   -0.99 9  148 263 
 ZAR  HZ EP       2119 29.94                             120    0.17 8  210 295 
 ZAR  HN ES   1   2119 54.97                             120   -0.36 6  210 295 
 ZAR  HZ I        2119 57.92         4.0 0.19            121            210 295 
 NOR  HZ EP   1   2119 32.01                             118   -0.00 6  231 237 
 NOR  HN ES       2119 59.96                             118    0.65 8  231 237 
 NOR  HZ I        2120  5.84         4.4 0.26            119            231 237 
 CHI  HZ EP       2119 33.33                             117   -0.07 8  239 196 
 CHI  HN ES       2120  1.51                             117   -0.27 8  239 196 
 CHI  HZ I        2120  6.80         1.4 0.27            119            239 196 
 SML  HN ES   1   2120  4.09                             115    0.37 6  254 336 
 SML  HZ I        2120 10.88     561.5e4 0.01            117            254 336 
                                                                                
