 2011 1021 2027 52.1 L   6.575 -73.487110.1  RSN  8 0.4 2.0LRSN                1
 GAP= 85        0.61       3.3     3.8  6.4 -0.7599E+00  0.1197E+02 -0.2278E+01E
 Epicentro: EL CARMEN DE CHUCURI - SANTANDER                                   3
 ACTION:UPD 12-07-13 16:05 OP:ep   STATUS:               ID:20111021202752 L   I
 2011-10-21-2026-21S.COL___171                                                 6
 STAT SP IPHASW D HRMM SECON CODA AMPLIT PERI AZIMU VELO AIN AR TRES W  DIS CAZ7
 BAR2 SZ EP   1   2028  8.12                             162    0.31 7 33.7  87 
 BAR2 SZ ES   1   2028 20.25                             162    0.19 7 33.7  87 
 BAR2 SZ I        2028 21.57       107.4 0.39                          33.7  87 
 BRR  HZ EP   1   2028  8.67                             148   -0.37 7 63.9 337 
 BRR  HN ES   2   2028 21.97                             148   -0.28 5 63.9 337 
 BRR  HZ I        2028 22.88        28.3 0.13                          63.9 337 
 GIR2 SZ EP   1   2028  9.25                             148   -0.04 7 64.5  30 
 RUS  HZ EP   1   2028 11.78                             139    0.30 7 87.7 149 
 RUS  HE ES   1   2028 26.73                             139    0.15 7 87.7 149 
 RUS  HZ I        2028 29.45        18.3 0.35                          87.7 149 
 PAM  SZ EP   1   2028 14.41                             129   -0.03 7  121  46 
 PAM  SN ES   1   2028 31.47                             129   -0.39 7  121  46 
 PAM  SZ I        2028 35.00         4.7 0.22                           121  46 
 ZAR  HZ EP   1   2028 20.48                             116    0.37 7  182 304 
 ZAR  HN ES   2   2028 42.49                             116    0.54 4  182 304 
 ZAR  HZ I        2028 44.98        26.9 0.34                           182 304 
 NOR  SZ EP   2   2028 20.27                             115   -0.68 4  189 234 
 NOR  SN ES   2   2028 42.66                             115   -0.79 4  189 234 
 HEL  HZ EP   2   2028 25.90                             110    0.01 4  230 259 
 HEL  HZ I        2028 55.50         6.7 0.29                           230 259 
                                                                                
