 2012 1021 2120 26.7 L   6.844 -73.128140.1  RSN 13 0.5 2.9LRSN 3.4WRSN        1
 SPEC AVERAGE  MO 14.1 ST 16.6 OM  2.9 f0 3.45 R0.4983 AL 2.26 WI 28.5 MW  3.4 3
 SPEC SD       MO  0.2 ST 17.9 OM  0.8 f0 1.24 R0.2040 AL      WI      MW  0.1 3
 GAP= 66        0.95       4.2     4.6  6.4 -0.1287E+01  0.5371E+01  0.6985E+01E
 Epicentro: LOS SANTOS - SANTANDER                                             3
 SPEC RREFHH Z MO 14.0 ST  8.9 OM  1.3 f0 4.03 R0.3648 AL 2.31 WI 32.2 MW  3.3 3
 SPEC RREFHH Z T212113 K 0.000 GD  354 VP 7.60 DE 3.00 Q0230.0 QA 0.60 VS 4.20 3
 SPEC OCA HH N MO 14.4 ST 29.7 OM  2.7 f0 4.44 R0.3311 AL 2.69 WI 26.5 MW  3.5 3
 SPEC OCA HH N T212114 K 0.000 GD  209 VS 4.20 DE 3.00 Q0230.0 QA 0.60 VS 4.20 3
 SPEC RUS HH N MO 13.8 ST0.471 OM  2.2 f0 1.74 R0.8448 AL 1.75 WI 25.9 MW  3.2 3
 SPEC RUS HH N T2121 8 K 0.000 GD  175 VS 4.20 DE 3.00 Q0230.0 QA 0.60 VS 4.20 3
 SPEC HEL HH N MO 14.0 ST  1.2 OM  2.1 f0 2.11 R0.6967 AL 1.29 WI 36.5 MW  3.2 3
 SPEC HEL HH N T212137 K 0.000 GD  308 VS 4.20 DE 3.00 Q0230.0 QA 0.60 VS 4.20 3
 SPEC CHI HH N MO 14.1 ST  2.4 OM  2.3 f0 2.35 R0.6255 AL 1.91 WI 29.3 MW  3.4 3
 SPEC CHI HH N T212133 K 0.000 GD  290 VS 4.20 DE 3.00 Q0230.0 QA 0.60 VS 4.20 3
 SPEC BRR HH E MO 14.5 ST 52.4 OM  2.9 f0 5.07 R0.2899 AL 3.54 WI 29.0 MW  3.6 3
 SPEC BRR HH E T2121 3 K 0.000 GD  156 VS 4.20 DE 3.00 Q0230.0 QA 0.60 VS 4.20 3
 SPEC BRR HH N MO 14.3 ST 21.3 OM  2.7 f0 4.38 R0.3356 AL 2.32 WI 20.3 MW  3.5 3
 SPEC BRR HH N T2121 3 K 0.000 GD  156 VS 4.20 DE 3.00 Q0230.0 QA 0.60 VS 4.20 3
 ACTION:UPD 12-11-22 17:05 OP:ep   STATUS:               ID:20121021212026 L   I
 2012-10-21-2120-00M.COL___233                                                 6
 STAT SP IPHASW D HRMM SECON CODA AMPLIT PERI AZIMU VELO AIN AR TRES W  DIS CAZ7
 GIR2 SZ EP       2120 45.47                             168   -0.0910 26.9 344 
 BAR2 SZ IP       2120 45.74                             168    0.0010 28.5 192 
 BAR2 SZ ES   1   2120 59.26                             168   -1.36 7 28.5 192 
 BAR2 SZ I        2121  4.37       123.4 0.38                          28.5 192 
 BRR  HZ IP     C 2120 47.26                             152    0.0810 70.7 294 
 BRR  HZ I        2120 47.31        80.9 0.34                          70.7 294 
 BRR  HN ES   1   2121  3.98                             152    0.79 7 70.7 294 
 PAM  SZ EP       2120 48.15                             151    0.1610 72.4  41 
 PAM  SZ I        2120 48.58       234.8 0.16                          72.4  41 
 PAM  SN ES   1   2121  4.98                             151    0.36 7 72.4  41 
 RUS  HZ EP       2120 50.01                             141   -0.2210  105 177 
 RUS  HN ES   1   2121  9.28                             141    0.67 7  105 177 
 TAM  HZ EP       2120 54.30                             129    0.44 9  155 107 
 TAM  HZ I        2120 54.40        67.4 0.20                           155 107 
 TAM  HE ES   2   2121 14.82                             129   -0.24 5  155 107 
 OCA  HZ EP   2   2120 53.32                             129   -0.79 5  156 352 
 OCA  HN ES   2   2121 14.45                             129   -1.06 5  156 352 
 OCA  HN I        2121 18.70       294.0 0.26                           156 352 
 YOP  SZ EP   2   2120 56.90                             124    0.23 4  182 155 
 YOP  SN I        2121 24.02        88.6 0.30                           182 155 
 ZAR  HZ EP   2   2120 58.77                             121    0.02 4  204 291 
 ZAR  HN I        2121 27.99       149.7 0.44                           204 291 
 CHI  HZ EP       2121  3.98                             115   -0.65 8  254 195 
 CHI  HN ES   1   2121 34.15                             115   -0.10 6  254 195 
 CHI  HN I        2121 36.28        40.7 0.34                           254 195 
 HEL  HZ EP       2121  7.14                             113    0.19 8  275 255 
 HEL  HN ES   2   2121 38.34                             113   -0.02 4  275 255 
 HEL  HN I        2121 43.77        32.6 0.30                           275 255 
 RREF HZ EP       2121 13.19                             109    0.08 7  326 229 
 RREF HN ES   2   2121 50.00                             109    0.67 3  326 229 
 RREF HZ I        2122  0.89        27.6 0.26                           326 229 
 ANIL HZ EP   3   2121 17.50                             107    0.67 2  362 224 
 ANIL HN ES   3   2121 56.72                             107    0.77 2  362 224 
 ANIL HZ I        2122  2.34        53.0 0.24                           362 224 
                                                                                
