 2015 1021 2132 45.6 L   6.803 -73.131142.6  RSN 14 0.4 2.3LRSN                1
 GAP=138        0.94       2.7     3.7  5.7 -0.1065E+01  0.1050E+02  0.2301E+01E
 Epicentro: LOS SANTOS - SANTANDER                                             3
 ACTION:UPD 15-12-22 20:41 OP:cam  STATUS:               ID:20151021213245 L   I
 OLDACT:REG 15-10-22 04:24 OP:ak   STATUS:               ID:20151021212748     3
 2015-10-21-2127-48M.COL___322                                                 6
 STAT SP IPHASW D HRMM SECON CODA AMPLIT PERI AZIMU VELO AIN AR TRES W  DIS CAZ7
 BAR2 EZ EP       2133  4.89                             170    0.0510 23.9 194 
 BAR2 EZ ES       2133 19.79                             170   -0.0710 23.9 194 
 BAR2 EZ I        2133 22.69        44.0 0.42            167           23.9 194 
 PAM  EZ EP       2133  7.68                             151    0.3010 76.1  39 
 PAM  EN ES       2133 24.75                             151    0.3710 76.1  39 
 PAM  EZ I        2133 27.01        20.1 0.18            158           76.1  39 
 RUS  HZ EP       2133  8.58                             143   -0.4510  101 177 
 RUS  HN ES       2133 27.44                             143    0.1210  101 177 
 RUS  HZ I        2133 30.40        11.1 0.32            146            101 177 
 OCA  HZ EP   4   2133 11.96                             129   -1.68 0  160 353 
 OCA  HN ES       2133 34.92                             129   -0.60 9  160 353 
 OCA  HZ I        2133 41.94        44.3 0.22            133            160 353 
 SPBC HZ EP       2133 13.62                             128   -0.34 9  164 219 
 SPBC HN ES       2133 36.00                             128   -0.09 9  164 219 
 SPBC HZ I        2133 43.92        31.6 0.32            130            164 219 
 ZAR  HZ EP       2133 18.35                             121    0.38 8  205 292 
 ZAR  HN ES       2133 43.46                             121    0.23 8  205 292 
 ZAR  HZ I        2133 51.05        13.3 0.37            123            205 292 
 NOR  HZ EP       2133 20.54                             118   -0.75 8  236 235 
 NOR  HN ES       2133 48.91                             118   -0.23 8  236 235 
 NOR  HZ I        2133 57.50        13.8 0.20            120            236 235 
 CHI  HZ EP       2133 23.33                             116    0.15 8  249 196 
 CHI  HN ES       2133 52.28                             116   -0.23 8  249 196 
 CHI  HZ I        2134  2.04         8.3 0.36            120            249 196 
 HEL  HZ EP       2133 26.56                             114    0.74 8  274 256 
 HEL  HN ES       2133 57.39                             114    0.19 8  274 256 
 HEL  HZ I        2134  3.48        10.5 0.28            116            274 256 
 URE  HZ EP   4   2133 28.80                             113    2.14 0  285 292 
 URE  HE ES       2133 58.08                             113   -0.62 7  285 292 
 URE  HZ I        2134  9.04        10.5 0.25            115            285 292 
 GUY2CHZ EP       2133 29.90                             112    0.69 7  303 235 
 GUY2CHN ES       2134  3.87                             112    0.62 7  303 235 
 GUY2CHZ I        2134 13.65         9.8 0.54                           303 235 
 ANIL HZ EP   1   2133 36.02                             108    0.60 5  359 225 
 ANIL HE ES       2134 14.27                             108   -0.03 6  359 225 
 ANIL HZ I        2134 21.07        16.4 0.32            110            359 225 
 ORTC HZ EP       2133 38.64                             106   -0.89 6  397 216 
 ORTC HN ES       2134 21.84                             106    0.22 6  397 216 
 ORTC HZ I        2134 28.81         6.5 0.50            108            397 216 
 SJC  HZ EP   4   2133 38.24                             105   -2.88 0  410 327 
 SJC  HN ES   4   2134 18.67                             105   -5.77 0  410 327 
 SJC  HZ I        2134 24.66         4.3 0.38            108            410 327 
                                                                                
