 2010 1121 2345 58.8 L   6.784 -73.074149.8  RSN 11 0.4 2.4LRSN                1
 GAP=167        0.69       3.5     6.5  6.6 -0.9124E+01  0.8757E+01  0.2185E+01E
 Epicentro: LOS SANTOS - SANTANDER                                             3
 ACTION:UP  10-12-17 16:54 OP:REBC STATUS:               ID:20101121234558 L   I
 2010-11-21-2342-33S.COL___129                                                 6
 STAT SP IPHASW D HRMM SECON CODA AMPLIT PERI AZIMU VELO SNR AR TRES W  DIS CAZ7
 BAR2 SZ IP     D 2346 18.91                             170     0.010   25 210 
 BAR2 SZ ES   2   2346 34.25                             170    -0.4 5   25 210 
 BAR2 SZ I        2346 35.68        51.2 0.34                            25 210 
 BRR  HZ IP     C 2346 20.83                             151     0.010   79 297 
 BRR  HE ES   2   2346 38.40                             151     0.4 5   79 297 
 BRR  HZ I        2346 42.58        58.6 0.06                            79 297 
 RUS  HZ EP   1   2346 22.93                             145     0.1 7   99 181 
 RUS  HN ES   2   2346 41.35                             145    -0.2 5   99 181 
 RUS  HZ I        2346 42.41        24.3 0.37                            99 181 
 GUE  SZ EP   1   2346 23.25                             140    -0.6 7  117   8 
 GRA  SZ EP   1   2346 24.67                             138     0.3 7  125  14 
 GRA  SZ ES   2   2346 45.14                             138     0.8 5  125  14 
 OCA  SZ EP   1   2346 27.58                             130    -0.1 7  163 350 
 OCA  SZ ES   2   2346 49.88                             130    -0.3 5  163 350 
 OCA  SZ I        2346 55.22        28.4 0.26                           163 350 
 NOR  SZ EP   1   2346 34.62                             119    -0.7 6  240 236 
 NOR  SN ES   2   2347  3.59                             119    -0.3 4  240 236 
 CHI  HZ EP   1   2346 36.99                             118     0.2 6  249 197 
 CHI  HN ES   2   2347  6.66                             118     0.3 4  249 197 
 CHI  HZ I        2347 12.22        15.1 0.32                           249 197 
 HEL  HZ EP   1   2346 40.50                             115     0.5 6  279 257 
 HEL  HZ I        2347 17.11        10.5 0.14                           279 257 
 RREF HZ EP   2   2346 45.85                             111     0.2 3  327 231 
 RREF HE ES   2   2347 22.64                             111     0.4 3  327 231 
 RREF HZ I        2347 29.00        12.8 0.37                           327 231 
 PRA  HZ EP   1   2346 52.81                             107     0.1 4  394 211 
 PRA  HN ES   2   2347 34.79                             107     0.0 3  394 211 
                                                                                
