 2016  221 2307  0.5 L   6.841 -73.161141.7  RSN  5 0.4 1.2LRSN                1
 GAP=146        0.51       5.9     6.0  7.6 -0.9774E+01  0.1071E+02  0.3736E+01E
 Epicentro: LOS SANTOS - SANTANDER                                             3
 ACTION:UPD 16-03-04 21:28 OP:rebc STATUS:               ID:20160221230700 L   I
 OLDACT:REG 16-02-22 03:41 OP:dnl  STATUS:               ID:20160221225743     3
 2016-02-21-2257-43M.COL___324                                                 6
 STAT SP IPHASW D HRMM SECON CODA AMPLIT PERI AZIMU VELO AIN AR TRES W  DIS CAZ7
 BAR2 EZ EP   2   23 7 20.00                             168    0.27 5 27.6 185 
 BAR2 EZ ES   2   23 7 35.11                             168    0.38 5 27.6 185 
 BAR2 EZ I        23 7 37.89         3.7 0.20            168           27.6 185 
 PAM  EZ EP   2   23 7 22.07                             151   -0.07 5 75.1  43 
 PAM  EE ES   2   23 7 38.86                             151   -0.16 5 75.1  43 
 PAM  EZ I        23 7 42.44         2.6 0.44            154           75.1  43 
 RUS  HZ EP   2   23 7 24.57                             142    0.38 5  105 175 
 RUS  HN ES   2   23 7 42.09                             142   -0.59 5  105 175 
 RUS  HZ I        23 7 43.96         1.8 0.20            143            105 175 
 PTB  HZ EP   2   23 7 26.48                             131   -0.58 5  147 257 
 PTB  HN ES   2   23 7 47.94                             131    0.16 5  147 257 
 PTB  HZ I        23 7 50.64         3.4 0.14            133            147 257 
 CHI  HZ EP   2   23 7 38.63                             116    0.24 4  253 195 
 CHI  HE ES   4   23 8  6.08                             116   -1.88 0  253 195 
 CHI  HZ I        23 8 13.26         0.6 0.21            117            253 195 
                                                                                
