 2017  821 2244 55.4 L   6.681 -73.236144.2  RSN  4 0.3 1.4LRSN                1
 GAP=197        0.72       8.3    10.0  6.0  0.7156E+02  0.2230E+02  0.1055E+02E
 Epicentro: BARICHARA - SANTANDER                                              3
 ACTION:UPD 17-09-04 20:23 OP:rebc STATUS:               ID:20170821224455 L   I
 OLDACT:DUP 17-08-22 04:11 OP:lv   STATUS:               ID:20170821223740d    3
 2017-08-21-2238-00M.COL___414                                                 6
 STAT SP IPHASW D HRMM SECON CODA AMPLIT PERI AZIMU VELO AIN AR TRES W  DIS CAZ7
 BAR2 EZ ES       2245 29.54                             175   -0.1110 11.5 149 
 BAR2 EZ I        2245 30.17         8.8 0.28            173           11.5 149 
 BRR  HZ IP     C 2245 15.88                             152   -0.4310 70.6 312 
 BRR  HN ES       2245 33.00                             152    0.3510 70.6 312 
 BRR  HZ I        2245 36.24         4.4 0.17            151           70.6 312 
 RUS  HZ EP       2245 18.45                             147    0.3110 88.8 169 
 RUS  HN ES       2245 35.78                             147   -0.1310 88.8 169 
 RUS  HZ I        2245 37.76         1.7 0.26            148           88.8 169 
 ZAR  HZ EP       2245 27.50                             123    0.18 9  200 297 
 ZAR  HE ES       2245 52.09                             123   -0.17 9  200 297 
 ZAR  HZ I        2245 55.08         5.9 0.10            123            200 297 
                                                                                
