 2010 1021 2342 19.8 L   6.134 -73.784102.3  RSN 15 0.4 2.5LRSN                1
 GAP= 74        0.78       2.2     3.0  6.4 -0.2649E+01  0.5901E+01 -0.6242E+00E
 Epicentro: LANDAZURI - SANTANDER                                              3
 ACTION:UP  11-02-18 11:11 OP:tino STATUS:               ID:20101021234219 L   I
 2010-10-21-2339-25S.COL___125                                                 6
 STAT SP IPHASW D HRMM SECON CODA AMPLIT PERI AZIMU VELO SNR AR TRES W  DIS CAZ7
 RUS  HZ EP       2342 38.02                             138     0.010   82 109 
 RUS  HN ES   1   2342 51.66                             138    -0.5 7   82 109 
 RUS  HZ I        2342 53.45        65.8 0.23                            82 109 
 BAR2 SZ IP       2342 37.98                             138     0.210   84  53 
 BAR2 SZ ES   1   2342 52.02                             138     0.2 7   84  53 
 BAR2 SZ I        2342 53.09        96.9 0.49                            84  53 
 BRR  HZ IP     C 2342 39.58                             129     0.010  108   4 
 BRR  HE ES   1   2342 55.31                             129     0.3 7  108   4 
 BRR  HZ I        2343  3.09        64.1 0.11                           108   4 
 NOR  SZ EP       2342 42.01                             122    -0.4 9  136 243 
 NOR  SE ES   1   2343  0.50                             122     0.4 7  136 243 
 ROSC BE ES   1   2343  4.61                             119     0.1 7  155 203 
 ROSC BZ I        2343 10.05        61.2 0.34                           155 203 
 CHI  HZ IP     C 2342 46.30                             117     0.1 9  166 178 
 CHI  HZ I        2342 47.65        32.2 0.18                           166 178 
 CHI  HE ES   1   2343  6.11                             117    -0.6 7  166 178 
 YOP  SZ EP   1   2342 47.21                             115     0.6 7  174 120 
 HEL  HZ EP   1   2342 49.19                             112     0.1 7  193 272 
 HEL  HE ES   2   2343 11.99                             112     0.1 4  193 272 
 HEL  HZ I        2343 16.14        23.9 0.39                           193 272 
 GUE  SZ EP   1   2342 50.66                             110    -0.3 6  210  27 
 RREF HZ EP   1   2342 53.04                             109     0.5 6  220 232 
 RREF HE ES   1   2343 17.75                             109    -0.3 6  220 232 
 RREF HZ I        2343 25.06        42.5 0.36                           220 232 
 GRA  SZ EP   1   2342 51.58                             109    -0.5 6  222  29 
 GRA  SZ ES   1   2343 17.16                             109    -0.1 6  222  29 
 GRA  SZ I        2343 22.40        44.7 0.31                           222  29 
 VIL  SZ EP   2   2342 52.64                             108     0.3 4  224 175 
 VIL  SE ES   2   2343 18.44                             108     0.7 4  224 175 
 OCA  SZ EP   1   2342 54.44                             107     0.4 6  238  12 
 OCA  SZ ES   1   2343 20.35                             107    -0.3 6  238  12 
 OCA  SZ I        2343 29.94        35.6 0.41                           238  12 
 DBB  SZ EP   2   2342 58.75                             103    -0.7 4  285 290 
 DBB  SZ I        2343 34.91         6.3 0.32                           285 290 
 PRA  HZ EP   1   2343  0.34                             102    -0.1 5  294 205 
 PRA  HN ES   1   2343 32.08                             102    -0.1 5  294 205 
 PRA  HZ I        2343 38.60        51.4 0.28                           294 205 
                                                                                
