 2011  721 2104 54.3 L   6.392 -73.578111.9  RSN  4 0.3 1.7LRSN                1
 GAP=112        0.66       3.8     4.6  8.1 -0.2184E+01  0.1030E+02 -0.7379E+00E
 Epicentro: SANTA HELENA DEL OPON - SANTANDER                                  3
 ACTION:UPD 12-07-25 14:02 OP:epov STATUS:               ID:20110721210454 L   I
 2011-07-21-2103-36S.COL___119                                                 6
 STAT SP IPHASW D HRMM SECON CODA AMPLIT PERI AZIMU VELO AIN AR TRES W  DIS CAZ7
 RUS  HZ EP   1   21 5 13.39                             143    0.35 7 77.7 135 
 RUS  HZ I        21 5 13.96        10.5 0.23                          77.7 135 
 RUS  HN ES   1   21 5 27.49                             143   -0.19 7 77.7 135 
 BRR  HZ EP   1   21 5 13.01                             141    0.46 7 80.5 349 
 BRR  HZ I        21 5 22.62         9.6 0.09                          80.5 349 
 BRR  HN ES   1   21 5 26.77                             141   -0.05 7 80.5 349 
 NOR  SZ EP   1   21 5 21.16                             119    0.09 7  170 237 
 NOR  SN ES   1   21 5 41.72                             119   -0.25 7  170 237 
 GRA  SZ EP   1   21 5 22.37                             116   -0.58 7  186  27 
 GRA  SZ I        21 5 49.75         6.4 0.40                           186  27 
                                                                                
