 2012  621 2154 13.1 L   6.718 -73.154139.9  RSN  6 0.4 1.9LRSN                1
 GAP=230        0.75       5.0     4.5  7.0  0.4654E+01  0.8128E+01 -0.6723E+00E
 Epicentro: VILLANUEVA - SANTANDER                                             3
 ACTION:UPD 12-08-06 17:51 OP:ep   STATUS:               ID:20120621215413 L   I
 2012-06-21-2150-00M.COL___199                                                 6
 STAT SP IPHASW D HRMM SECON CODA AMPLIT PERI AZIMU VELO AIN AR TRES W  DIS CAZ7
 BAR2 SZ EP       2154 31.73                             174   -0.1410 14.3 193 
 BAR2 SZ ES   1   2154 46.35                             174   -0.16 7 14.3 193 
 BAR2 SZ I        2154 47.59        18.8 0.19                          14.3 193 
 BRR  HZ EP   1   2154 33.67                             150   -0.18 7 75.2 305 
 BRR  HZ I        2154 34.09        40.4 0.06                          75.2 305 
 BRR  HN ES   1   2154 50.30                             150    0.26 7 75.2 305 
 RUS  HZ EP   1   2154 35.78                             145    0.15 7 91.6 175 
 RUS  HN ES   1   2154 53.52                             145    0.31 7 91.6 175 
 RUS  HZ I        2154 55.06         6.6 0.18                          91.6 175 
 PTB  HZ EP   1   2154 38.58                             131   -0.79 7  145 262 
 PTB  HN ES       2154 59.63                             131   -0.23 9  145 262 
 PTB  HZ I        2155  1.69         8.6 0.14                           145 262 
 ZAR  HZ EP   1   2154 46.24                             121    0.78 6  207 295 
 ZAR  HN ES   1   2155 10.92                             121    0.23 6  207 295 
 ZAR  HZ I        2155 14.72         5.6 0.18                           207 295 
 NOR  SE ES       2155 15.13                             118    0.17 8  229 236 
                                                                                
