 2013 1121 2206 53.2 L   6.646 -73.073141.7  RSN  4 0.6 1.6LRSN                1
 GAP=215        1.35      32.2    14.3 21.5 -0.3938E+03 -0.1896E+03  0.5321E+03E
 Epicentro: CURITI - SANTANDER                                                 3
 ACTION:UPD 14-01-09 16:30 OP:ep   STATUS:               ID:20131121220652 L   I
 OLDACT:UP  13-12-03 10:15 OP:ep   STATUS:               ID:20131121220652 L   3
 OLDACT:REG 13-11-22 00:34 OP:stll STATUS:               ID:20131121215819     3
 2013-11-21-2158-19M.COL___238                                                 6
 STAT SP IPHASW D HRMM SECON CODA AMPLIT PERI AZIMU VELO AIN AR TRES W  DIS CAZ7
 BAR2 SZ EP   3   22 7 11.84                             174   -0.30 2 13.5 244 
 BAR2 SZ ES   3   22 7 28.40                             174    1.46 2 13.5 244 
 BAR2 SZ I        22 7 31.08        10.0 0.26            168           13.5 244 
 PAM  SZ EP       22 7 15.65                             147    0.0910 87.0  28 
 PAM  SN ES       22 7 32.32                             147   -0.7110 87.0  28 
 PAM  SZ I        22 7 36.33         5.4 0.44            157           87.0  28 
 BRR  HZ EP       22 7 15.44                             147    0.5810 87.1 306 
 BRR  HE ES       22 7 32.43                             147    0.6410 87.1 306 
 PTB  HZ EP       22 7 20.45                             130    0.12 9  153 266 
 PTB  HN ES       22 7 40.60                             130   -0.91 9  153 266 
 PTB  HZ I        22 7 48.43         6.7 0.48            134            153 266 
                                                                                
