 2014  721 2158 10.5 L   6.739 -73.143143.0  RSN  4 0.3 1.2LRSN                1
 GAP=233        0.74       5.8     5.6  6.0  0.1641E+02  0.3508E+01  0.6535E+00E
 Epicentro: LOS SANTOS - SANTANDER                                             3
 ACTION:UPD 15-03-16 20:45 OP:nd   STATUS:               ID:20140721215810 L   I
 OLDACT:REG 14-07-22 03:28 OP:stll STATUS:               ID:20140721214820     3
 2014-07-21-2148-20M.COL___269                                                 6
 STAT SP IPHASW D HRMM SECON CODA AMPLIT PERI AZIMU VELO AIN AR TRES W  DIS CAZ7
 BAR2 SZ EP       2158 29.64                             173   -0.0910 16.8 195 
 BAR2 SZ ES       2158 44.24         4.0 0.14            173   -0.4510 16.8 195 
 BAR2 SZ I        2158 45.68         4.0 0.14            169           16.8 195 
 BRR  HZ EP       2158 31.86                             151    0.2410 75.0 303 
 BRR  HN ES       2158 48.31                             151    0.2610 75.0 303 
 RUS  HZ EP       2158 33.69                             145    0.1510 93.8 176 
 RUS  HZ I        2158 34.64         1.2 0.28            143           93.8 176 
 RUS  HN ES       2158 51.72                             145    0.2410 93.8 176 
 PTB  HZ EP       2158 36.77                             131   -0.44 9  147 261 
 PTB  HN ES       2158 58.06                             131    0.04 9  147 261 
 PTB  HZ I        2159  1.82         3.5 0.10            130            147 261 
                                                                                
