 2011  321 2007 31.8 L   6.752 -73.146146.6  RSN 11 0.3 2.0LRSN                1
 GAP=136        0.53       2.6     3.9  4.5 -0.3853E+01  0.7508E+01 -0.9913E+00E
 Epicentro: LOS SANTOS - SANTANDER                                             3
 ACTION:UP  11-06-16 14:35 OP:jfem STATUS:               ID:20110321200731 L   I
 2011-03-21-2004-46S.COL___132                                                 6
 STAT SP IPHASW D HRMM SECON CODA AMPLIT PERI AZIMU VELO SNR AR TRES W  DIS CAZ7
 BAR2 SZ EP   1   20 7 50.99                             173    -0.4 8   18 193 
 BAR2 SZ ES   1   20 8  6.72                             173     0.0 8   18 193 
 BAR2 SZ I        20 8  8.90        42.3 0.35                            18 193 
 RUS  HZ EP   1   20 7 54.88                             145    -0.4 8   95 176 
 RUS  HN ES   1   20 8 13.73                             145     0.2 8   95 176 
 RUS  HZ I        20 8 14.80         9.0 0.27                            95 176 
 GRA  SZ IP       20 7 57.79                             136     0.310  131  17 
 GRA  SZ ES   1   20 8 17.60                             136     0.0 7  131  17 
 GRA  SZ I        20 8 18.77        21.8 0.32                           131  17 
 OCA  SZ EP   2   20 8  0.18                             129    -0.5 5  166 353 
 OCA  SZ ES   2   20 8 23.32                             129     0.1 5  166 353 
 OCA  SZ I        20 8 29.41        16.8 0.39                           166 353 
 YOP  SZ EP   1   20 8  1.69                             127     0.3 7  174 153 
 YOP  SZ I        20 8  4.76         8.6 0.35                           174 153 
 NOR  SZ EP   1   20 8  7.39                             119     0.1 6  232 236 
 NOR  SN ES   2   20 8 34.88                             119     0.0 4  232 236 
 CHI  HZ EP   2   20 8  8.89                             118    -0.1 4  243 195 
 CHI  HZ I        20 8 46.02         6.2 0.31                           243 195 
 HEL  HZ EP   1   20 8 11.98                             115     0.1 6  271 257 
 HEL  HE ES   2   20 8 43.37                             115     0.2 4  271 257 
 HEL  HZ I        20 8 49.34         6.5 0.22                           271 257 
 RREF HZ EP   1   20 8 17.28                             111    -0.3 5  318 230 
 RREF HN ES   1   20 8 53.47                             111     0.2 5  318 230 
 RREF HZ I        20 9  0.46        10.1 0.33                           318 230 
 DBB  SZ EP   1   20 8 19.22                             110    -0.1 5  340 275 
 DBB  SZ I        20 8 57.43         1.5 0.32                           340 275 
 PRA  HZ EP   2   20 8 25.32                             107     0.5 3  387 210 
                                                                                
