 2013  721 2355 11.3 L   6.822 -73.123143.1  RSN  9 0.6 2.0LRSN                1
 GAP=140        1.38       6.3     6.5  9.8  0.1910E+01 -0.7793E+01 -0.1723E+02E
 Epicentro: LOS SANTOS - SANTANDER                                             3
 ACTION:UPD 13-08-12 10:39 OP:ep   STATUS:               ID:20130721235511 L   I
 OLDACT:REG 13-07-21 23:45 OP:stll STATUS:               ID:20130721234849     3
 2013-07-21-2348-49M.COL___226                                                 6
 STAT SP IPHASW D HRMM SECON CODA AMPLIT PERI AZIMU VELO AIN AR TRES W  DIS CAZ7
 BAR2 SZ EP       2355 30.86                             169    0.2210 26.3 194 
 BAR2 SZ ES       2355 45.01                             169   -0.7510 26.3 194 
 BAR2 SZ I        2355 48.08        12.2 0.10            167           26.3 194 
 GIR2 SZ EP       2355 30.79                             168    0.2110 29.4 345 
 BRR  HZ EP       2355 32.76                             152    0.5710 72.3 296 
 BRR  HN ES       2355 49.26                             152    0.7510 72.3 296 
 BRR  HN I        2355 52.75        43.0 0.16            152           72.3 296 
 RUS  HZ EP       2355 35.16                             143    0.2310  103 178 
 RUS  HN ES       2355 53.44                             143    0.0510  103 178 
 GRA  SZ EP       2355 36.50                             137    0.4810  123  17 
 CAPV BZ EP       2355 37.15                             132   -0.98 9  146  38 
 PTB  HZ EP       2355 37.62                             131   -0.67 9  151 258 
 PTB  HN ES   1   2355 58.42                             131   -0.94 7  151 258 
 SPBC HZ EP   1   2355 40.33                             128    0.43 7  167 219 
 SPBC HN ES   1   2356  2.60                             128    0.37 7  167 219 
 SPBC HZ I        2356  8.59        11.7 0.23            129            167 219 
 ZAR  HE ES       2356  8.69                             122   -0.28 8  205 291 
                                                                                
