 2017  821 2311 50.1 L   6.871 -73.161145.6  RSN 11 0.4 1.9LRSN                1
 GAP=131        0.98       3.3     4.4  5.6 -0.2651E+01  0.4439E+01  0.3449E+01E
 Epicentro: ZAPATOCA - SANTANDER                                               3
 ACTION:UPD 17-09-04 20:23 OP:rebc STATUS:               ID:20170821231150 L   I
 OLDACT:REG 17-08-22 03:14 OP:lv   STATUS:               ID:20170821230738     3
 2017-08-21-2308-00M.COL___414                                                 6
 STAT SP IPHASW D HRMM SECON CODA AMPLIT PERI AZIMU VELO AIN AR TRES W  DIS CAZ7
 BAR2 EZ EP       2312  9.76                             167   -0.1510 30.9 184 
 BAR2 EZ ES       2312 24.50                             167   -0.8510 30.9 184 
 BAR2 EZ I        2312 26.69        19.4 0.36            166           30.9 184 
 BRR  HZ IP     C 2312 11.10                             154    0.1210 66.2 293 
 BRR  HE ES       2312 28.03                             154    0.7810 66.2 293 
 BRR  HZ I        2312 28.96        14.9 0.12            153           66.2 293 
 PAM  EZ EP       2312 12.11                             152    0.0710 72.7  45 
 PAM  EN ES       2312 29.24                             152    0.0910 72.7  45 
 PAM  EZ I        2312 31.06        19.4 0.26            156           72.7  45 
 RUS  HZ EP       2312 14.30                             142   -0.1510  109 175 
 RUS  HN ES       2312 33.79                             142    0.3710  109 175 
 RUS  HZ I        2312 34.55         7.1 0.26            142            109 175 
 SPBC HZ EP       2312 19.28                             128    0.18 9  168 217 
 SPBC HN ES       2312 41.54                             128   -0.17 9  168 217 
 SPBC HZ I        2312 46.95        11.0 0.18            128            168 217 
 ZAR  HZ EP   4   2312 23.79                             123    1.69 0  200 290 
 ZAR  HN ES       2312 46.44                             123   -0.60 9  200 290 
 ZAR  HZ I        2312 52.11         9.6 0.19            123            200 290 
 NOR  HN ES       2312 54.75                             118    0.42 8  238 233 
 CHI  HZ EP       2312 28.90                             116    0.31 8  256 194 
 CHI  HN ES       2312 58.52                             116   -0.08 8  256 194 
 CHI  HZ I        2313  2.45         2.8 0.38            117            256 194 
 LL6C HZ EP       2312 34.62                             111   -0.29 7  317 358 
 PRA  HZ EP       2312 44.60                             106    0.26 6  398 209 
 PRA  HN ES       2313 26.03                             106   -0.60 6  398 209 
 PRA  HZ I        2313 32.06         4.0 0.62            107            398 209 
 SJC  HZ EP   4   2312 42.97                             106   -1.82 0  402 327 
 SJC  HN ES   4   2313 22.45                             106   -4.99 0  402 327 
 SJC  HZ I        2313 27.26         1.2 0.14            107            402 327 
                                                                                
