 2013  821 2037 11.5 L   6.725 -73.243146.3  RSN  4 0.3 1.2LRSN                1
 GAP=220        0.59       7.0     4.5  7.1  0.1727E+02  0.3454E+01 -0.5929E+01E
 Epicentro: VILLANUEVA - SANTANDER                                             3
 ACTION:UPD 14-01-14 09:05 OP:ep   STATUS:               ID:20130821203711 L   I
 OLDACT:DUP 13-08-21 21:44 OP:jn   STATUS:               ID:20130821202960d    3
 2013-08-21-2029-59M.COL___269                                                 6
 STAT SP IPHASW D HRMM SECON CODA AMPLIT PERI AZIMU VELO AIN AR TRES W  DIS CAZ7
 BAR2 SZ EP       2037 30.93                             173   -0.1610 16.1 155 
 BAR2 SZ ES       2037 46.29                             173   -0.0610 16.1 155 
 BAR2 SZ I        2037 47.15         3.9 0.18            169           16.1 155 
 RUS  HZ EP   1   2037 34.85                             146    0.01 7 93.7 169 
 RUS  HN ES   1   2037 53.39                             146    0.37 7 93.7 169 
 RUS  HZ I        2037 54.63         2.3 0.34            144           93.7 169 
 PTB  HN ES       2037 57.46                             135   -0.24 9  136 261 
 PTB  HZ I        2038  1.82         2.1 0.18            133            136 261 
 ZAR  HE ES   1   2038  8.65                             123    0.50 6  198 296 
                                                                                
