 2016 1221 2228 29.3 L   6.767 -73.086143.8  RSN  5 0.3 1.5LRSN                1
 GAP=146        0.66       2.9     5.1  4.7 -0.2687E+01  0.1161E+00  0.4049E+01E
 Epicentro: LOS SANTOS - SANTANDER                                             3
 ACTION:UPD 17-01-11 20:17 OP:rebc STATUS:               ID:20161221222829 L   I
 OLDACT:UP  16-12-22 10:12 OP:ar   STATUS:               ID:20161221221745     3
 OLDACT:UP  16-12-22 10:04 OP:ar   STATUS:               ID:20161221221745     3
 OLDACT:REG 16-12-22 03:32 OP:ar   STATUS:               ID:20161221221745     3
 2016-12-21-2218-00M.COL___372                                                 6
 STAT SP IPHASW D HRMM SECON CODA AMPLIT PERI AZIMU VELO AIN AR TRES W  DIS CAZ7
 BAR2 EZ EP       2228 48.36                             171   -0.3310 22.0 209 
 BAR2 EZ ES       2229  3.97                             171    0.1810 22.0 209 
 BAR2 EZ I        2229  4.69        12.2 0.44            172           22.0 209 
 PAM  EZ EP       2228 51.39                             151    0.1210 76.4  34 
 PAM  EN ES       2229  8.53                             151    0.1510 76.4  34 
 PAM  EZ I        2229 11.70         3.1 0.46            150           76.4  34 
 BRR  HZ EP       2228 50.39                             150   -0.3110 78.7 299 
 BRR  HN ES       2229  7.49                             150    0.1210 78.7 299 
 RUS  HZ EP       2228 52.51                             144   -0.0910 96.7 180 
 RUS  HN ES       2229 10.45                             144   -0.3010 96.7 180 
 RUS  HZ I        2229 12.38         4.3 0.34            146           96.7 180 
 CHI  HE EP       2229  7.17                             117    0.45 8  247 197 
 CHI  HN ES       2229 36.17                             117    0.28 8  247 197 
                                                                                
