 2014  421 2215 34.7 L   7.534 -73.210127.7  RSN  4 0.3 1.7LRSN                1
 GAP=145        0.75       4.7     3.7  7.2  0.1705E+01  0.8138E+01 -0.1352E+02E
 Epicentro: EL PLAYON - SANTANDER                                              3
 ACTION:UPD 14-05-13 23:10 OP:nd   STATUS:               ID:20140421221534 L   I
 OLDACT:UP  14-04-22 08:30 OP:stll STATUS:               ID:20140421220819     3
 OLDACT:REG 14-04-22 03:49 OP:stll STATUS:               ID:20140421220819     3
 2014-04-21-2208-19M.COL___242                                                 6
 STAT SP IPHASW D HRMM SECON CODA AMPLIT PERI AZIMU VELO AIN AR TRES W  DIS CAZ7
 PAM  SZ EP       2215 54.24                             153    0.2810 60.3 111 
 PAM  SN ES       2216  9.12                             153    0.1110 60.3 111 
 PAM  SZ I        2216 11.58        14.5 0.82            155           60.3 111 
 BRR  HZ EP       2215 53.93                             148   -0.0710 72.9 230 
 BRR  HN ES       2216  8.70                             148   -0.3810 72.9 230 
 SML  HZ EP       2216  1.94                             123   -0.40 9  169 326 
 SML  HE ES       2216 23.96                             123    0.04 9  169 326 
 ZAR  HZ EP       2216  3.59                             121   -0.08 9  182 269 
 ZAR  HN ES       2216 26.82                             121    0.53 9  182 269 
 ZAR  HZ I        2216 28.31         5.5 0.20            123            182 269 
                                                                                
