 2014  321 2351 36.1 L   6.771 -73.175141.0  RSN  4 0.2 1.2LRSN                1
 GAP=134        0.59       2.6     3.3  5.9 -0.1205E+01  0.7084E+01 -0.4670E+01E
 Epicentro: LOS SANTOS - SANTANDER                                             3
 ACTION:UPD 14-04-09 23:19 OP:nd   STATUS:               ID:20140321235136 L   I
 OLDACT:DUP 14-03-21 22:35 OP:nd   STATUS:               ID:20140321235047d    3
 2014-03-21-2350-46M.COL___243                                                 6
 STAT SP IPHASW D HRMM SECON CODA AMPLIT PERI AZIMU VELO AIN AR TRES W  DIS CAZ7
 PAM  SZ EP       2351 57.76                             148   -0.3310 81.9  40 
 PAM  SN ES       2352 15.27                             148    0.0310 81.9  40 
 PAM  SZ I        2352 17.19         2.6 0.54            154           81.9  40 
 RUS  HZ EP       2351 59.01                             144   -0.1610 97.7 174 
 RUS  HN ES       2352 17.44                             144    0.2710 97.7 174 
 RUS  HZ I        2352 19.25         0.9 0.18            149           97.7 174 
 PTB  HZ EP       2352  2.48                             132    0.15 9  144 260 
 PTB  HN ES       2352 22.55                             132   -0.25 9  144 260 
 PTB  HZ I        2352 30.41         2.8 0.46            133            144 260 
 SML  HZ EP       2352 12.93                             116    0.30 8  245 336 
 SML  HN ES       2352 41.25                             116    0.13 8  245 336 
 SML  HZ I        2352 45.35         2.5 0.10            119            245 336 
                                                                                
