 2010  621 2302 31.2 L   6.496 -73.647103.3  RSN  8 0.4 1.9LRSN                1
 GAP= 93        0.91       4.0     4.4  7.5 -0.6233E+01  0.1428E+02 -0.4844E+01E
 Epicentro: SANTA HELENA DEL OPON - SANTANDER                                  3
 ACTION:UP  10-08-24 10:12 OP:vdl  STATUS:               ID:20100621230231 L   I
 2010-06-21-2301-00S.COL___118                                                 6
 STAT SP IPHASW D HRMM SECON CODA AMPLIT PERI AZIMU VELO SNR AR TRES W  DIS CAZ7
 BAR2 SZ IP       23 2 47.13                             151     0.010   52  78 
 BAR2 SZ ES   1   23 2 59.68                             151     0.2 7   52  78 
 BRR  HZ EP       23 2 47.33                             144    -0.410   68 354 
 BRR  HZ I        23 2 47.61        27.3 0.15                            68 354 
 BRR  HE ES   1   23 3  1.02                             144     0.4 7   68 354 
 RUS  HZ EP   1   23 2 50.00                             135    -0.3 7   91 137 
 RUS  HE ES   1   23 3  5.03                             135    -0.1 7   91 137 
 RUS  HZ I        23 3  6.59        15.7 0.35                            91 137 
 BRI  SZ EP       23 2 57.30                             117     0.2 9  164  35 
 BRI  SZ ES   1   23 3 17.78                             117     0.5 7  164  35 
 GUE  SZ EP       23 2 57.35                             117    -0.3 9  168  28 
 GUE  SZ ES   1   23 3 17.78                             117    -0.5 7  168  28 
 OCA  SZ EP   1   23 3  1.23                             112     0.6 6  196  11 
 OCA  SZ I        23 3 29.93         8.2 0.32                           196  11 
 HEL  HZ EP       23 3  2.59                             111     0.0 8  211 261 
 HEL  HN ES   1   23 3 26.47                             111    -0.5 6  211 261 
 HEL  HZ I        23 3 30.72         8.9 0.36                           211 261 
 RREF HZ EP   1   23 3  9.22                             106     0.9 6  258 227 
 RREF HE ES   2   23 3 37.84                             106     0.5 4  258 227 
 RREF HZ I        23 3 44.22         3.8 0.39                           258 227 
                                                                                
