 2010  821 2354 41.3 L   6.806 -72.943143.6  RSN 12 0.4 2.5LRSN                1
 GAP=203        0.76       3.6     9.2  5.6 -0.9493E+01  0.4150E+01  0.6927E+01E
 Epicentro: CEPITA - SANTANDER                                                 3
 ACTION:UP  10-09-07 10:57 OP:vdl  STATUS:               ID:20100821235441 L   I
 2010-08-21-2354-08S.COL___120                                                 6
 STAT SP IPHASW D HRMM SECON CODA AMPLIT PERI AZIMU VELO SNR AR TRES W  DIS CAZ7
 BAR2 SZ EP       2355  0.97                             166     0.010   36 228 
 BAR2 SZ ES   1   2355 16.12                             166    -0.2 7   36 228 
 BAR2 SZ I        2355 17.43        62.3 0.36                            36 228 
 BTL  SZ EP       2355  1.39                             165     0.310   38 289 
 BTL  SZ ES   1   2355 16.45                             165     0.0 7   38 289 
 GIR2 SZ EP   2   2355  1.17                             164     0.2 5   41 318 
 GIR2 SZ ES   2   2355 16.24                             164    -0.1 5   41 318 
 BRR  HZ EP       2355  2.91                             146    -0.610   91 291 
 BRR  HZ I        2355  3.24        71.0 0.10                            91 291 
 RUS  HZ EP       2355  5.26                             143     0.310  102 189 
 OCA  SZ EP   1   2355  9.85                             129     0.1 7  164 345 
 OCA  SZ ES   1   2355 32.06                             129     0.1 7  164 345 
 OCA  SZ I        2355 36.33        30.9 0.20                           164 345 
 CHI  HZ EP       2355 19.32                             116    -0.3 8  256 200 
 CHI  HE ES   1   2355 49.10                                    -0.5 6  256 200 
 CHI  HZ I        2355 53.42        14.6 0.36                           256 200 
 ROSC BZ EP       2355 20.88                             115     0.2 8  266 215 
 ROSC BE ES   1   2355 52.04                             115     0.6 6  266 215 
 ROSC BZ I        2355 55.48        16.7 0.31                           266 215 
 HEL  HZ EP   3   2355 23.01                             112    -0.8 2  294 257 
 HEL  HZ I        2355 59.63        10.9 0.16                           294 257 
 GUY  SE ES   2   2356  3.29                             110     0.7 3  320 237 
 RREF HZ EP   1   2355 29.51                             109     0.2 5  339 232 
 RREF HN ES   3   2356  6.72                             109    -0.1 2  339 232 
 RREF HZ I        2356 11.13        16.3 0.46                           339 232 
 PRA  HZ EP   2   2355 35.54                             106    -0.6 3  404 212 
 PRA  HN ES   2   2356 18.05                             106    -0.9 3  404 212 
 PRA  HZ I        2356 21.89        15.8 0.36                           404 212 
                                                                                
