 2010  921 2225 15.5 L   6.782 -73.101145.8  RSN 10 0.4 2.4LRSN                1
 GAP=164        0.75       3.7     7.2  7.2 -0.1184E+02  0.8305E+01  0.1067E+01E
 Epicentro: LOS SANTOS - SANTANDER                                             3
 ACTION:UP  11-02-18 11:04 OP:tino STATUS:               ID:20100921222515 L   I
 2010-09-21-2222-19S.COL___122                                                 6
 STAT SP IPHASW D HRMM SECON CODA AMPLIT PERI AZIMU VELO SNR AR TRES W  DIS CAZ7
 BAR2 SZ IP     C 2225 35.15                             171     0.010   23 203 
 BAR2 SZ ES   2   2225 50.44                             171     0.0 5   23 203 
 BAR2 SZ I        2225 51.85       102.2 0.17                            23 203 
 BRR  HZ EP   1   2225 36.99                             151     0.0 7   77 298 
 BRR  HE ES   2   2225 54.26                             151     0.5 5   77 298 
 BRR  HZ I        2225 56.27        45.9 0.21                            77 298 
 RUS  HZ EP   1   2225 39.02                             144    -0.1 7   98 179 
 RUS  HN ES   2   2225 57.52                             144     0.0 5   98 179 
 RUS  HZ I        2225 59.01        22.8 0.34                            98 179 
 GUE  SZ EP   1   2225 40.25                             139    -0.1 7  118  10 
 GRA  SZ IP     C 2225 40.93                             137     0.110  126  15 
 GRA  SZ ES   2   2226  0.46                             137    -0.1 5  126  15 
 OCA  SZ EP   1   2225 43.79                             129    -0.3 7  163 352 
 OCA  SZ ES   2   2226  5.94                             129    -0.4 5  163 352 
 OCA  SZ I        2226 10.33        26.7 0.37                           163 352 
 NOR  SZ EP   1   2225 51.03                             118    -0.5 6  238 236 
 NOR  SN ES   2   2226 19.17                             118    -0.5 4  238 236 
 CHI  HZ EP   1   2225 53.11                             117     0.0 6  248 196 
 CHI  HN ES   2   2226 21.46                             117    -1.0 4  248 196 
 CHI  HZ I        2226 27.95        11.1 0.48                           248 196 
 ROSC BZ EP   1   2225 54.83                             117     1.1 6  254 212 
 ROSC BE ES   2   2226 23.91                             117     0.4 4  254 212 
 ROSC BZ I        2226 30.10        20.7 0.40                           254 212 
 HEL  HZ EP   1   2225 56.37                             114     0.2 6  276 256 
 HEL  HZ I        2226 34.65        11.8 0.20                           276 256 
                                                                                
