 2016  521 2237 27.1 L   6.819 -73.126145.8  RSN 14 0.5 2.2LRSN                1
 GAP= 71        1.24       3.3     3.6  7.0 -0.9331E+00  0.5290E+01  0.1544E+01E
 Epicentro: LOS SANTOS - SANTANDER                                             3
 ACTION:UPD 16-08-18 17:48 OP:cam  STATUS:               ID:20160521223727 L   I
 OLDACT:UP  16-05-22 05:53 OP:dani STATUS:               ID:20160521222744     3
 OLDACT:UP  16-05-22 05:48 OP:dani STATUS:               ID:20160521222744     3
 OLDACT:REG 16-05-22 05:40 OP:dani STATUS:               ID:20160521222744     3
 2016-05-21-2227-44M.COL___297                                                 6
 STAT SP IPHASW D HRMM SECON CODA AMPLIT PERI AZIMU VELO AIN AR TRES W  DIS CAZ7
 BAR2 EZ EP       2237 46.66                             170   -0.1010 25.8 194 
 BAR2 EZ I        2238  2.48        18.3 0.16            169           25.8 194 
 BRR  HZ EP       2237 48.81                             152    0.5310 72.1 296 
 BRR  HE ES       2238  5.52                             152    0.7010 72.1 296 
 BRR  HZ I        2238  9.87        36.9 0.12            152           72.1 296 
 PAM  EZ EP     D 2237 49.70                             151    0.5910 74.4  39 
 PAM  EN ES       2238  6.54                             151    0.2310 74.4  39 
 PAM  EZ I        2238  8.61        48.2 0.44            155           74.4  39 
 RUS  HZ EP       2237 50.76                             143   -0.2110  103 177 
 RUS  HE ES       2238  8.88                             143   -0.7310  103 177 
 RUS  HZ I        2238  9.92        12.6 0.22            145            103 177 
 PTB  HZ EP       2237 53.57                             131   -0.70 9  150 258 
 PTB  HN ES       2238 15.24                             131   -0.25 9  150 258 
 PTB  HZ I        2238 21.47        15.9 0.30            132            150 258 
 TAM  HZ EP     C 2237 55.04                             131    0.43 9  154 106 
 TAM  HE ES       2238 15.92                             131   -0.17 9  154 106 
 OCA  HZ EP       2237 55.01                             130   -0.20 9  158 352 
 OCA  HN ES       2238 16.70                             130   -0.46 9  158 352 
 OCA  HZ I        2238 20.05        49.1 0.32            132            158 352 
 SPBC HZ EP       2237 55.78                             128   -0.07 9  166 219 
 SPBC HE ES       2238 17.61                             128   -0.70 9  166 219 
 SPBC HZ I        2238 21.46        19.6 0.18            130            166 219 
 ZAR  HZ EP       2238  0.20                             122    0.56 8  205 291 
 ZAR  HN ES       2238 25.53                             122    0.48 8  205 291 
 ZAR  HZ I        2238 30.68        23.7 0.48            123            205 291 
 NOR  HZ EP       2238  3.23                             118    0.11 8  238 234 
 NOR  HE ES       2238 30.69                             118   -0.55 8  238 234 
 NOR  HZ I        2238 36.57         8.1 0.16            119            238 234 
 CHI  HZ EP   4   2238  7.04                             117    1.99 0  251 196 
 CHI  HE ES       2238 35.11                             117    0.43 8  251 196 
 CHI  HZ I        2238 38.32         5.2 0.30            118            251 196 
 ANIL HN ES       2238 57.38                             108    1.04 6  360 225 
 ORTC HZ EP       2238 22.00                             106    0.66 6  398 216 
 ORTC HN ES   4   2239  5.14                             106    1.48 0  398 216 
 ORTC HZ I        2239 11.74         3.9 0.38            107            398 216 
 SJC  HZ EP     C 2238 21.62                             106   -0.94 6  409 327 
 SJC  HN ES       2239  4.86                             106   -0.99 6  409 327 
 SJC  HZ I        2239  6.69         3.5 0.32            107            409 327 
                                                                                
