 2012  721 2308 31.1 L   6.722 -73.204156.9  RSN  4 0.3 1.4LRSN                1
 GAP=224        0.81       8.5     8.3 10.6  0.3313E+02 -0.1666E+02 -0.1483E+02E
 Epicentro: VILLANUEVA - SANTANDER                                             3
 ACTION:UPD 12-08-14 11:46 OP:ep   STATUS:               ID:20120721230831 L   I
 2012-07-21-2300-00M.COL___215                                                 6
 STAT SP IPHASW D HRMM SECON CODA AMPLIT PERI AZIMU VELO AIN AR TRES W  DIS CAZ7
 BAR2 SZ EP       23 8 51.57                             174    -0.410   15 171 
 BAR2 SZ I        23 8 52.21         5.8 0.25            163             15 171 
 BRR  HZ EP       23 8 53.86                             154     0.410   70 307 
 BRR  HZ I        23 8 54.14        10.7 0.14            149             70 307 
 BRR  HE ES   1   23 9 10.80                             154    -0.1 7   70 307 
 RUS  HZ EP   1   23 8 55.40                             148    -0.1 7   93 172 
 RUS  HN ES   1   23 9 14.76                             148     0.3 7   93 172 
 RUS  HZ I        23 9 16.97         2.1 0.48            143             93 172 
 PTB  HZ EP   1   23 8 58.48                             136     0.1 7  140 262 
 PTB  HE ES   1   23 9 19.41                             136    -0.2 7  140 262 
 PTB  HZ I        23 9 27.31         3.1 0.34            130            140 262 
