 2016 1221 2139 28.8 L   6.842 -73.134141.5  RSN 17 0.7 2.4LRSN                1
 GAP=136        1.40       4.6     5.0  6.9 -0.2856E+00  0.1111E+02  0.9932E+01E
 Epicentro: LOS SANTOS - SANTANDER                                             3
 ACTION:UPD 17-01-11 20:17 OP:rebc STATUS:               ID:20161221213928 L   I
 OLDACT:UP  16-12-22 07:45 OP:ar   STATUS:               ID:20161221213747     3
 OLDACT:UP  16-12-22 06:27 OP:ar   STATUS:               ID:20161221213747     3
 OLDACT:UP  16-12-22 06:05 OP:ar   STATUS:               ID:20161221213747     3
 OLDACT:UP  16-12-22 05:45 OP:ar   STATUS:               ID:20161221213747     3
 OLDACT:REG 16-12-22 03:26 OP:ar   STATUS:               ID:20161221213747     3
 2016-12-21-2138-00M.COL___384                                                 6
 STAT SP IPHASW D HRMM SECON CODA AMPLIT PERI AZIMU VELO AIN AR TRES W  DIS CAZ7
 BAR2 EZ IP     C 2139 47.94                             168   -0.1110 28.2 191 
 BAR2 EZ ES       2140  2.48                             168   -0.5710 28.2 191 
 BAR2 EZ I        2140  3.80        73.5 0.34            166           28.2 191 
 BRR  HZ EP       2139 49.81                             152    0.3510 70.3 295 
 BRR  HN ES       2140  5.97                             152    0.4210 70.3 295 
 BRR  HZ I        2140 10.09        44.6 0.22            150           70.3 295 
 PAM  EZ EP       2139 50.97                             151    0.6510 72.9  41 
 PAM  EN ES       2140  7.75                             151    0.6610 72.9  41 
 PAM  EZ I        2140  9.96        28.6 0.24            155           72.9  41 
 RUS  HZ EP       2139 51.96                             142   -0.5410  105 177 
 RUS  HN ES       2140 10.30                             142   -0.6710  105 177 
 RUS  HZ I        2140 12.11        19.6 0.68            142            105 177 
 PTB  HZ EP       2139 54.74                             130   -0.92 9  150 257 
 PTB  HN ES       2140 15.75                             130   -0.84 9  150 257 
 PTB  HZ I        2140 17.73        28.6 0.28            130            150 257 
 ZAR  HZ EP       2140  0.89                             121   -0.06 9  204 291 
 ZAR  HN ES       2140 25.66                             121   -0.34 9  204 291 
 ZAR  HZ I        2140 31.24        35.6 0.56            122            204 291 
 CHI  HZ EP       2140  6.24                             116   -0.59 8  254 195 
 CHI  HN ES       2140 37.31                             116    0.85 8  254 195 
 ROSC BZ EP       2140  8.11                             115    0.87 8  257 211 
 ROSC BN ES       2140 38.08                             115    0.89 8  257 211 
 ROSC BZ I        2140 42.48        23.6 0.45            116            257 211 
 URE  HZ EP   9   2140  6.83                             113   -2.81 0  283 291 
 URE  HN ES       2140 38.69                             114    0.03 7  283 291 
 URE  HZ I        2140 43.42        20.4 0.14            113            283 291 
 GUY2CHZ EP       2140 13.31                             111    0.64 7  305 234 
 GUY2CHN ES       2140 47.62                             111    0.75 7  305 234 
 GUY2CHZ I        2140 54.75        13.0 0.30                           305 234 
 VIL  EZ EP       2140 11.96                             111   -0.65 7  308 192 
 VIL  EN ES   4   2140 45.56                             111   -1.19 0  308 192 
 VIL  EZ I        2140 50.22        20.1 0.62            112            308 192 
 ELA  HN ES   4   2140 57.49                             109    4.75 0  333 229 
 ELA  HZ I        2141  0.75         9.0 0.32            110            333 229 
 CBOC HZ EP       2140 16.75                             109    0.87 7  336 251 
 CBOC HN ES       2140 51.90                             109   -0.69 7  336 251 
 CBOC HZ I        2141  1.19         4.4 0.56            109            336 251 
 DBB  EZ EP       2140 16.31                             109    0.06 7  340 273 
 DBB  EN ES   4   2140 48.59                             109   -4.65 0  340 273 
 DBB  EZ I        2140 54.24         6.2 0.14            109            340 273 
 ANIL HZ EP       2140 18.30                             107   -0.67 6  362 224 
 ANIL HN ES       2140 58.28                             107    0.20 6  362 224 
 ANIL HZ I        2141  5.40        27.2 0.34            108            362 224 
 ORTC HZ EP       2140 24.00                             105    0.86 6  400 216 
 ORTC HE ES       2141  5.36                             105   -0.15 6  400 216 
 ORTC HZ I        2141 12.19        11.7 0.24            106            400 216 
 CRJC HZ EP   2   2140 28.13                             103   -2.51 2  463   3 
 CRJC HN ES   4   2141 14.39                             103   -4.47 0  463   3 
                                                                                
