 2010  821 2146 55.2 L   6.721 -73.050151.2  RSN  6 0.3 1.5LRSN                1
 GAP=170        0.56       7.3    11.5 11.6  0.4625E+02 -0.8836E+02 -0.4822E+02E
 Epicentro: ARATOCA - SANTANDER                                                3
 ACTION:UP  10-09-07 10:57 OP:vdl  STATUS:               ID:20100821214655 L   I
 2010-08-21-2144-57S.COL___120                                                 6
 STAT SP IPHASW D HRMM SECON CODA AMPLIT PERI AZIMU VELO SNR AR TRES W  DIS CAZ7
 BAR2 SZ EP       2147 15.60                             175     0.210   21 226 
 BAR2 SZ ES   3   2147 30.94                             175    -0.3 2   21 226 
 BAR2 SZ I        2147 32.61         6.3 0.49                            21 226 
 BTL  SZ EP       2147 15.86                             168     0.210   33 312 
 BRR  HZ EP       2147 17.63                             150    -0.110   85 300 
 BRR  HZ I        2147 17.89        13.0 0.16                            85 300 
 BRR  HN ES   1   2147 35.31                             150     0.0 7   85 300 
 RUS  HZ EP   3   2147 18.35                             149    -0.5 2   92 182 
 RUS  HN ES   2   2147 37.04                             149    -0.3 5   92 182 
 RUS  HZ I        2147 39.57         2.6 0.24                            92 182 
 GUE  SZ EP   1   2147 20.61                             138    -0.3 7  123   6 
 GRA  SZ EP   3   2147 22.39                             136     1.0 2  132  12 
 GRA  SZ I        2147 23.56         3.6 0.52                           132  12 
                                                                                
