 2016 1221 2213 19.6 L   6.786 -73.163140.3  RSN  8 0.4 2.0LRSN                1
 GAP=135        1.03       4.0     4.5  6.5  0.2132E+01  0.6453E+01  0.4525E+01E
 Epicentro: LOS SANTOS - SANTANDER                                             3
 ACTION:UPD 17-01-11 20:17 OP:rebc STATUS:               ID:20161221221319 L   I
 OLDACT:UP  16-12-22 08:05 OP:ar   STATUS:               ID:20161221220745     3
 OLDACT:REG 16-12-22 03:31 OP:ar   STATUS:               ID:20161221220745     3
 2016-12-21-2208-00M.COL___381                                                 6
 STAT SP IPHASW D HRMM SECON CODA AMPLIT PERI AZIMU VELO AIN AR TRES W  DIS CAZ7
 BAR2 EZ EP       2213 38.38                             171   -0.1310 21.5 186 
 BAR2 EZ ES       2213 53.10                             171   -0.1810 21.5 186 
 BAR2 EZ I        2213 54.37        42.5 0.42            171           21.5 186 
 BRR  HZ IP     D 2213 40.16                             152    0.0810 70.3 300 
 BRR  HE ES       2213 57.06                             152    0.9810 70.3 300 
 BRR  HZ I        2213 59.56        23.2 0.16            151           70.3 300 
 PAM  EZ EP       2213 41.20                             149   -0.1610 79.8  40 
 PAM  EN ES       2213 58.11                             149   -0.2410 79.8  40 
 PAM  EZ I        2214  0.47        22.2 0.70            151           79.8  40 
 RUS  HZ EP       2213 42.71                             143    0.0210 99.2 175 
 RUS  HN ES       2214  0.71                             143   -0.0110 99.2 175 
 RUS  HZ I        2214  2.75         9.4 0.32            145           99.2 175 
 PTB  HZ EP   2   2213 45.01                             131   -0.89 5  146 259 
 PTB  HN ES       2214  5.90                             131   -0.54 9  146 259 
 PTB  HZ I        2214  7.76        12.3 0.26            131            146 259 
 ZAR  HZ EP       2213 52.06                             121    0.51 9  203 293 
 ZAR  HN ES       2214 15.99                             121   -0.50 9  203 293 
 ZAR  HZ I        2214 22.93        12.2 0.56            122            203 293 
 CHI  HZ EP       2213 57.11                             116    0.35 8  247 195 
 CHI  HN ES       2214 25.92                             116    0.16 8  247 195 
 CHI  HZ I        2214 29.53         2.9 0.56            117            247 195 
 URE  HZ EP   4   2214  2.77                             113    2.52 0  283 292 
 URE  HN ES   4   2214 29.36                             113   -2.62 0  283 292 
 URE  HZ I        2214 34.18         7.2 0.14            113            283 292 
                                                                                
