 2012  221 2334 54.9 L   6.767 -73.138144.0  RSN 11 0.4 2.2LRSN                1
 GAP=139        0.75       4.0     4.5  5.6 -0.3411E+01  0.6268E+01  0.5677E+01E
 ACTION:UP  12-03-07 16:32 OP:epov STATUS:               ID:20120221233454 L   I
 2012-02-21-2330-00M.COL___191                                                 6
 STAT SP IPHASW D HRMM SECON CODA AMPLIT PERI AZIMU VELO AIN AR TRES W  DIS CAZ7
 BAR2 SZ EP   1   2335 14.03                             172   -0.23 7 19.9 194 
 BAR2 SZ ES   1   2335 29.71                             172    0.35 7 19.9 194 
 BAR2 SZ I        2335 31.06        98.6 0.25                          19.9 194 
 GIR2 SZ EP   1   2335 14.36                             166   -0.12 7 35.0 350 
 BRR  HZ EP       2335 16.17                             151    0.1610 73.8 301 
 BRR  HN ES   1   2335 33.20                             151    0.72 7 73.8 301 
 BRR  HZ I        2335 35.46        33.5 0.22                          73.8 301 
 PAM  SZ EP   1   2335 17.09                             150    0.01 7 79.7  37 
 PAM  SE ES   1   2335 33.87                             150   -0.50 7 79.7  37 
 RUS  HZ EP   1   2335 18.21                             144   -0.01 7 96.9 176 
 RUS  HN ES   1   2335 36.48                             144    0.08 7 96.9 176 
 RUS  HZ I        2335 38.21        21.6 0.39                          96.9 176 
 PTB  HZ EP   1   2335 21.21                             132   -0.54 7  148 260 
 PTB  HN ES   1   2335 42.00                             132   -0.69 7  148 260 
 NOR  SZ EP   1   2335 30.29                             118   -0.10 6  233 235 
 NOR  SN ES   1   2335 57.66                             118   -0.40 6  233 235 
 CHI  HZ EP   1   2335 32.32                             117    0.17 6  245 196 
 CHI  HN ES   1   2336  1.18                             117   -0.02 6  245 196 
 CHI  HZ I        2336  5.21         8.6 0.66                           245 196 
 HEL  HZ EP   1   2335 35.83                             114    0.80 6  272 257 
 HEL  HZ I        2336 13.40         6.7 0.41                           272 257 
 TOL  SZ EP   1   2335 43.50                             109    0.63 5  342 225 
 PRA  HZ EP   1   2335 48.02                             106   -0.03 4  389 210 
                                                                                
