 2010  521 2337 49.5 L   6.768 -72.973145.2  RSN  8 0.5 2.1LRSN                1
 GAP=202        0.87       7.6    14.4 10.1 -0.7727E+02  0.4029E+02  0.6538E+01E
 Epicentro: CEPITA - SANTANDER                                                 3
 ACTION:UP  10-08-24 10:06 OP:vdl  STATUS:               ID:20100521233749 L   I
 2010-05-21-2334-23S.COL___111                                                 6
 STAT SP IPHASW D HRMM SECON CODA AMPLIT PERI AZIMU VELO SNR AR TRES W  DIS CAZ7
 BAR2 SZ EP   1   2338  9.13                             167    -0.1 7   30 230 
 BAR2 SZ ES   2   2338 23.83                             167    -0.7 5   30 230 
 BRI  SZ EP   1   2338 13.72                             142     0.6 7  107  11 
 BRI  SZ ES   2   2338 32.10                             142     0.4 5  107  11 
 GUE  SZ EP   1   2338 14.17                             139     0.0 7  118   3 
 GUE  SZ ES   2   2338 33.44                             139    -0.1 5  118   3 
 GRA  SZ EP   1   2338 14.31                             137    -0.3 7  125   9 
 GRA  SZ ES   2   2338 34.86                             137     0.7 5  125   9 
 OCA  SZ EP   1   2338 17.43                             128    -0.9 7  167 347 
 OCA  SZ ES   2   2338 41.22                             128     0.3 5  167 347 
 OCA  SZ I        2338 43.14         6.9 0.43                           167 347 
 HEL  HZ EP   1   2338 31.32                             113    -0.3 5  290 257 
 RREF BZ EP   1   2338 38.00                             110     1.0 5  334 232 
 RREF BE ES   2   2339 14.71                             110     0.6 3  334 232 
 RREF BZ I        2339 21.70         7.3 0.41                           334 232 
 PRA  HZ EP   1   2338 43.66                             106    -0.1 4  399 212 
 PRA  HE ES   2   2339 26.13                             106     0.0 3  399 212 
 PRA  HZ I        2339 29.03         4.8 0.48                           399 212 
                                                                                
