 2013  221 2326  1.7 L   6.829 -73.322122.0  RSN 15 0.5 3.1LRSN 3.2WRSN        1
 SPEC AVERAGE  MO 13.9 ST  9.0 OM  2.5 f0 3.65 R0.4451 AL 2.54 WI 25.0 MW  3.2 3
 SPEC SD       MO  0.2 ST 12.1 OM  0.4 f0 1.19 R0.1360 AL      WI      MW  0.1 3
 GAP= 52        1.06       3.3     3.1  5.9  0.4068E+00  0.7150E+00  0.4324E+00E
 Epicentro: ZAPATOCA - SANTANDER                                               3
 SPEC TAM HH N MO 14.1 ST  2.0 OM  2.4 f0 2.21 R0.6652 AL 2.07 WI 17.3 MW  3.4 3
 SPEC TAM HH N T232649 K 0.000 GD  213 VS 4.20 DE 3.20 Q0300.0 QA 0.60 VS 4.20 3
 SPEC PTB HH N MO 13.8 ST  2.2 OM  2.2 f0 2.85 R0.5158 AL 1.43 WI 23.6 MW  3.2 3
 SPEC PTB HH N T232640 K 0.000 GD  177 VS 4.20 DE 3.20 Q0300.0 QA 0.60 VS 4.20 3
 SPEC RUS HH N MO 13.7 ST  2.5 OM  2.1 f0 3.29 R0.4468 AL 2.39 WI 19.2 MW  3.1 3
 SPEC RUS HH N T232639 K 0.000 GD  162 VS 4.20 DE 3.20 Q0300.0 QA 0.60 VS 4.20 3
 SPEC OCA HH N MO 14.3 ST 37.9 OM  2.6 f0 5.19 R0.2832 AL 3.11 WI 24.3 MW  3.5 3
 SPEC OCA HH N T232646 K 0.000 GD  198 VS 4.20 DE 3.20 Q0300.0 QA 0.60 VS 4.20 3
 SPEC PAM SH N MO 13.8 ST  6.7 OM  2.2 f0 4.33 R0.3395 AL 3.02 WI 20.0 MW  3.1 3
 SPEC PAM SH N T232637 K 0.000 GD  151 VS 4.20 DE 3.20 Q0300.0 QA 0.60 VS 4.20 3
 SPEC COD HH N MO 13.7 ST  3.5 OM  1.7 f0 3.80 R0.3868 AL 2.43 WI 38.5 MW  3.0 3
 SPEC COD HH N T232723 K 0.000 GD  364 VS 4.20 DE 3.20 Q0300.0 QA 0.60 VS 4.20 3
 SPEC HEL HH N MO 13.7 ST  2.1 OM  1.9 f0 2.99 R0.4916 AL 2.16 WI 31.7 MW  3.1 3
 SPEC HEL HH N T2327 6 K 0.000 GD  281 VS 4.20 DE 3.20 Q0300.0 QA 0.60 VS 4.20 3
 SPEC CHI HH N MO 13.8 ST  1.2 OM  2.0 f0 2.35 R0.6255 AL 1.92 WI 26.9 MW  3.2 3
 SPEC CHI HH N T2327 4 K 0.000 GD  275 VS 4.20 DE 3.20 Q0300.0 QA 0.60 VS 4.20 3
 SPEC BRR HH E MO 13.9 ST 23.0 OM  2.4 f0 5.85 R0.2513 AL 4.34 WI 23.6 MW  3.2 3
 SPEC BRR HH E T232632 K 0.000 GD  133 VS 4.20 DE 3.20 Q0300.0 QA 0.60 VS 4.20 3
 ACTION:UPD 13-03-12 09:34 OP:ep   STATUS:               ID:20130221232601 L   I
 2013-02-21-2320-00M.COL___235                                                 6
 STAT SP IPHASW D HRMM SECON CODA AMPLIT PERI AZIMU VELO AIN AR TRES W  DIS CAZ7
 BAR2 SZ EP       2326 18.89                             165    0.2310 30.4 149 
 BAR2 SZ ES   1   2326 31.86                             165   -0.04 7 30.4 149 
 BAR2 SZ I        2326 33.03       561.4 0.16            158           30.4 149 
 BRR  HZ EP     D 2326 19.56                             155    0.3110 53.0 306 
 BRR  HN ES       2326 33.46                             155    0.5210 53.0 306 
 BRR  HN I        2326 34.99       431.7 0.18            142           53.0 306 
 PAM  SZ EP   1   2326 22.30                             142    0.04 7 89.0  51 
 PAM  SN ES   2   2326 38.88                             142    0.57 5 89.0  51 
 PAM  SN I        2326 40.11       163.9 0.22            132           89.0  51 
 RUS  HZ EP       2326 23.37                             136   -0.3310  107 166 
 RUS  HN ES   1   2326 40.57                             136   -0.30 7  107 166 
 RUS  HN I        2326 41.85       132.5 0.26            123            107 166 
 PTB  HZ EP       2326 24.09                             130   -0.9710  129 256 
 PTB  HE ES       2326 42.85                             130   -0.4510  129 256 
 PTB  HE I        2326 46.73      5637.4 1.26            116            129 256 
 OCA  HZ EP   1   2326 27.50                             125   -0.32 7  156   0 
 OCA  HN ES       2326 47.58                             125   -0.63 9  156   0 
 OCA  HN I        2326 51.86       522.7 0.20            113            156   0 
 TAM  HZ IP     D 2326 29.78                             121    0.17 9  175 104 
 TAM  HN ES   1   2326 51.59                             121    0.20 7  175 104 
 TAM  HN I        2326 52.41       153.5 0.46            111            175 104 
 ZAR  HZ EP   1   2326 30.85                             119    0.22 7  185 293 
 ZAR  HN ES       2326 53.56                             119    0.35 9  185 293 
 ZAR  HN I        2326 57.59       165.7 0.30            108            185 293 
 ROSC BZ EP   1   2326 38.29                             112    0.42 6  246 207 
 ROSC BZ I        2327 14.65        24.6 0.40            103            246 207 
 CHI  HZ EP   1   2326 38.64                             112    0.60 6  247 191 
 CHI  HN ES   1   2327  6.16                             112   -0.24 6  247 191 
 CHI  HN I        2327 14.28        41.9 0.34            103            247 191 
 HEL  HZ EP   1   2326 39.86                             111    1.12 6  254 254 
 HEL  HN ES       2327  8.02                             111    0.37 8  254 254 
 HEL  HN I        2327 13.17        60.5 0.34            103            254 254 
 URE  HZ EP   1   2326 38.45                             110   -1.05 6  265 293 
 URE  HN I        2327 16.06       108.4 0.28            102            265 293 
 DBB  SZ EP   1   2326 46.01                             106    0.02 5  320 274 
 COD  HZ EP   1   2326 50.01                             105    1.31 5  344 358 
 COD  HN ES   1   2327 25.33                             105   -0.04 5  344 358 
 COD  HN I        2327 34.16        13.6 0.24             99            344 358 
 SDV  BZ EP   1   2326 51.68                             103   -0.81 5  374  52 
                                                                                
