 2014  721 2048 46.4 L   6.805 -73.176136.2  RSN  8 0.5 1.9LRSN                1
 GAP= 77        1.22       4.9     4.5  7.5  0.4206E+01  0.3353E+01 -0.3723E+01E
 Epicentro: LOS SANTOS - SANTANDER                                             3
 ACTION:UPD 15-03-16 20:45 OP:nd   STATUS:               ID:20140721204846 L   I
 OLDACT:REG 14-07-22 03:25 OP:stll STATUS:               ID:20140721204817     3
 2014-07-21-2048-17M.COL___272                                                 6
 STAT SP IPHASW D HRMM SECON CODA AMPLIT PERI AZIMU VELO AIN AR TRES W  DIS CAZ7
 BAR2 SZ EP       2049  5.06                             170    0.1710 23.6 182 
 BAR2 SZ ES       2049 19.14                             170   -0.1710 23.6 182 
 BAR2 SZ I        2049 20.90        15.9 0.14            170           23.6 182 
 BRR  HZ EP       2049  6.99                             152    0.6510 67.9 299 
 BRR  HN ES       2049 22.47                             152    0.5910 67.9 299 
 BRR  HZ I        2049 28.35         9.4 0.12            150           67.9 299 
 PAM  SZ EP       2049  8.12                             148    0.4010 79.1  42 
 PAM  SZ I        2049  8.27        23.3 0.24            152           79.1  42 
 PAM  SN ES       2049 24.25                             148   -0.0910 79.1  42 
 RUS  HZ EP       2049  9.40                             141    0.1010  101 174 
 RUS  HN ES       2049 26.72                             141   -0.4310  101 174 
 RUS  HZ I        2049 29.27         9.8 0.40            144            101 174 
 PTB  HZ EP       2049 12.19                             130   -0.12 9  145 258 
 PTB  HE ES       2049 31.96                             130   -0.55 9  145 258 
 PTB  HZ I        2049 36.72         6.9 0.16            131            145 258 
 TAM  HZ EP       2049 13.44                             128   -0.23 9  159 105 
 TAM  HZ I        2049 13.72        23.0 0.36            132            159 105 
 ZAR  HZ EP       2049 18.12                             121    0.23 9  201 292 
 ZAR  HN ES       2049 42.80                             121    0.35 9  201 292 
 ZAR  HZ I        2049 49.83         6.4 0.36            121            201 292 
 SML  HN ES       2049 48.93                             115   -1.36 8  242 336 
                                                                                
