 2013  921 2307 59.2 L   6.490 -73.605108.0  RSN  5 0.4 1.5LRSN                1
 GAP=135        1.04       6.6     5.3  9.8  0.1581E+02  0.2028E+02  0.1693E+02E
 Epicentro: SANTA HELENA DEL OPON - SANTANDER                                  3
 ACTION:UPD 13-10-22 09:24 OP:ep   STATUS:               ID:20130921230759 L   I
 OLDACT:UP  13-09-21 22:07 OP:cam  STATUS:               ID:20130921225959     3
 OLDACT:REG 13-09-21 21:48 OP:cam  STATUS:               ID:20130921225959     3
 2013-09-21-2259-59M.COL___269                                                 6
 STAT SP IPHASW D HRMM SECON CODA AMPLIT PERI AZIMU VELO AIN AR TRES W  DIS CAZ7
 BAR2 SZ EP       23 8 14.83                             155   -0.5010 48.1  76 
 BAR2 SZ ES       23 8 27.80                             155   -0.1010 48.1  76 
 BAR2 SZ I        23 8 28.70        11.7 0.20            166           48.1  76 
 BRR  HE ES       23 8 29.84                             145    0.2210 69.2 350 
 RUS  HZ EP   1   23 8 18.85                             139    0.45 7 87.8 139 
 RUS  HN ES       23 8 33.61                             139    0.2510 87.8 139 
 RUS  HZ I        23 8 36.82         3.5 0.38            143           87.8 139 
 PTB  HZ EP       23 8 17.65                             136   -0.6310 94.3 273 
 PTB  HN ES       23 8 33.29                             136    0.1310 94.3 273 
 PTB  HZ I        23 8 39.92         6.7 0.16            135           94.3 273 
 ZAR  HZ EP   1   23 8 27.40                             117    0.85 7  177 309 
 ZAR  HE ES   4   23 8 50.18                             117    2.30 0  177 309 
 ZAR  HZ I        23 8 52.02         7.7 0.46            120            177 309 
                                                                                
