 2017  421 2345  4.0 L   6.717 -73.154140.7  RSN  5 0.3 1.4LRSN                1
 GAP=157        0.86       7.0     4.1  6.3 -0.6262E+01  0.7317E+01 -0.1920E+01E
 Epicentro: VILLANUEVA - SANTANDER                                             3
 ACTION:UPD 17-05-30 21:14 OP:jn   STATUS:               ID:20170421234504 L   I
 OLDACT:REG 17-04-22 07:00 OP:cara STATUS:               ID:20170421233743     3
 2017-04-21-2338-00M.COL___365                                                 6
 STAT SP IPHASW D HRMM SECON CODA AMPLIT PERI AZIMU VELO AIN AR TRES W  DIS CAZ7
 BAR2 EZ EP       2345 23.21                             174    0.3510 14.1 193 
 BAR2 EZ ES       2345 37.69                             174    0.1110 14.1 193 
 BRR  HZ EP       2345 24.99                             150    0.1510 75.3 305 
 BRR  HN ES       2345 41.47                             150    0.3710 75.3 305 
 BRR  HZ I        2345 44.57         8.0 0.40            148           75.3 305 
 PAM  EZ EP       2345 26.28                             147    0.1110 85.2  36 
 PAM  EN ES       2345 42.97                             147   -0.5010 85.2  36 
 PAM  EZ I        2345 45.15         3.3 0.44            151           85.2  36 
 PTB  HZ EP       2345 29.75                             131   -0.58 9  145 262 
 PTB  HN ES       2345 50.57                             131   -0.30 9  145 262 
 PTB  HZ I        2345 58.85         1.9 0.32            131            145 262 
 ZAR  HZ EP       2345 36.72                             121    0.31 8  207 295 
 ZAR  HN ES       2346  1.64                             121   -0.05 8  207 295 
 ZAR  HZ I        2346  7.03         2.8 0.32            121            207 295 
                                                                                
