 2010  721 2344 58.0 L   6.793 -73.084136.7  RSN  7 0.3 1.8LRSN                1
 GAP=166        0.97       4.5     9.2  8.0 -0.8455E+01 -0.2295E+02 -0.1998E+01E
 Epicentro: LOS SANTOS - SANTANDER                                             3
 ACTION:UPD 10-12-01 15:19 OP:pat  STATUS:               ID:20100721234458 L   I
 2010-07-21-2339-29S.COL___122                                                 6
 STAT SP IPHASW D HRMM SECON CODA AMPLIT PERI AZIMU VELO AIN AR TRES W  DIS CAZ7
 BAR2 SZ EP       2345 16.45                             169    -0.110   25 206 
 BAR2 SZ ES   1   2345 31.15                             169     0.1 7   25 206 
 BAR2 SZ I        2345 32.63        23.9 0.04                            25 206 
 GIR2 SZ EP   1   2345 16.31                             165    -0.4 7   34 339 
 GIR2 SZ ES   1   2345 30.81                             165    -0.4 7   34 339 
 BRR  HZ EP       2345 18.12                             149    -0.510   78 297 
 BRR  HN ES       2345 34.95                             149     0.310   78 297 
 BRR  HZ I        2345 39.49        33.3 0.08                            78 297 
 RUS  HN ES   1   2345 38.71                             142     0.1 7  100 180 
 RUS  HZ I        2345 43.24         4.1 0.23                           100 180 
 GUE  SZ EP       2345 22.41                             137     0.610  116   9 
 GUE  SZ I        2345 23.06         7.6 0.09                           116   9 
 GRA  SZ EP       2345 22.21                             135    -0.110  125  14 
 GRA  SZ ES   1   2345 41.54                             135     0.2 7  125  14 
 GRA  SZ I        2345 42.62        20.5 0.19                           125  14 
 CHI  HN ES   1   2346  4.82                             115     0.3 6  250 197 
 CHI  HZ I        2346 11.88         2.7 0.29                           250 197 
                                                                                
