 2011  821 2131  8.4 L   6.790 -73.067148.0  RSN  5 0.3 1.6LRSN                1
 GAP=191        0.44       5.0     9.3  6.9  0.3339E+02 -0.3084E+02 -0.1275E+02E
 Epicentro: LOS SANTOS - SANTANDER                                             3
 ACTION:UPD 12-07-13 15:53 OP:ep   STATUS:               ID:20110821213108 L   I
 2011-08-21-2125-53S.COL___152                                                 6
 STAT SP IPHASW D HRMM SECON CODA AMPLIT PERI AZIMU VELO AIN AR TRES W  DIS CAZ7
 BAR2 SZ EP       2131 28.25                             170   -0.0910 25.3 210 
 BAR2 SZ I        2131 28.35        10.6 0.40                          25.3 210 
 BAR2 SZ ES   3   2131 43.06                             170   -0.83 2 25.3 210 
 BRR  HZ EP       2131 30.15                             150   -0.1210 79.4 296 
 BRR  HZ I        2131 30.47         8.5 0.30                          79.4 296 
 BRR  HN ES   1   2131 47.59                             150    0.27 7 79.4 296 
 RUS  HZ EP       2131 32.40                             145    0.1210 99.3 181 
 RUS  HE ES   1   2131 50.98                             145    0.07 7 99.3 181 
 RUS  HZ I        2131 51.78         3.1 0.28                          99.3 181 
 OCA  SZ EP   3   2131 37.42                             130    0.32 2  163 350 
 OCA  SZ ES   3   2131 58.83                             130   -0.66 2  163 350 
 OCA  SZ I        2131 59.90         5.1 0.47                           163 350 
 NOR  SN ES   3   2132 12.57                             118   -0.90 2  241 236 
                                                                                
