 2013  621 2240  2.1 L   7.459 -73.231136.0  RSN  5 0.5 2.0LRSN                1
 GAP=130        0.90       6.2     7.5  9.4 -0.2275E+02  0.2848E+02 -0.2136E+02E
 Epicentro: EL PLAYON - SANTANDER                                              3
 ACTION:UPD 14-01-08 09:56 OP:ep   STATUS:               ID:20130621224002 L   I
 OLDACT:REG 13-06-21 22:50 OP:mh   STATUS:               ID:20130621223951     3
 2013-06-21-2239-51M.COL___224                                                 6
 STAT SP IPHASW D HRMM SECON CODA AMPLIT PERI AZIMU VELO AIN AR TRES W  DIS CAZ7
 PAM  SN ES   1   2240 37.58                             155   -0.46 7 60.2 103 
 PAM  SN I        2240 39.31         7.0 0.24            161           60.2 103 
 BRR  HZ EP       2240 22.11                             153    0.2310 65.8 234 
 BRR  HE ES       2240 37.36                             153    0.0510 65.8 234 
 BRR  HZ I        2240 40.24        12.9 0.34            153           65.8 234 
 BRR  HZ E      C 2240 42.31                                           65.8 234 
 OCA  HZ EP   1   2240 24.12                             145    0.70 7 86.7 354 
 OCA  HN ES   2   2240 40.49                             145    0.44 5 86.7 354 
 OCA  HN I        2240 43.52        25.8 0.20            148           86.7 354 
 PTB  HZ EP   1   2240 30.61                             125    0.25 7  169 233 
 PTB  HN ES       2240 52.20                             125   -0.21 9  169 233 
 PTB  HN I        2240 58.01         9.3 0.52            128            169 233 
 SML  HZ EP   1   2240 29.93                             124   -0.96 7  175 328 
 SML  HN ES   2   2240 53.17                             124   -0.19 4  175 328 
 SML  HN I        2240 54.32        34.0 0.10            127            175 328 
                                                                                
