 2015  421 2132 53.6 L   6.816 -73.142146.0  RSN 13 0.5 2.6LRSN                1
 GAP=136        1.08       2.9     4.0  5.4 -0.3067E+01  0.7463E+01 -0.2219E+00E
 Epicentro: LOS SANTOS - SANTANDER                                             3
 ACTION:UPD 15-06-03 16:56 OP:cam  STATUS:               ID:20150421213253 L   I
 OLDACT:REG 15-04-22 05:22 OP:carl STATUS:               ID:20150421212747     3
 2015-04-21-2127-47M.COL___277                                                 6
 STAT SP IPHASW D HRMM SECON CODA AMPLIT PERI AZIMU VELO AIN AR TRES W  DIS CAZ7
 BAR2 EZ IP     D 2133 13.20                             170   -0.1310 25.1 190 
 BAR2 EZ ES       2133 28.61                             170   -0.0910 25.1 190 
 BAR2 EZ I        2133 30.00        60.5 0.46            168           25.1 190 
 BRR  HZ EP       2133 15.03                             153    0.2510 70.7 297 
 BRR  HN ES       2133 32.19                             153    0.9110 70.7 297 
 BRR  HZ I        2133 37.39        54.3 0.12            150           70.7 297 
 PAM  SZ EP       2133 16.03                             151    0.2410 75.8  40 
 PAM  SN ES       2133 33.26                             151    0.2010 75.8  40 
 PAM  SZ I        2133 35.41        44.9 0.56            157           75.8  40 
 RUS  HZ EP       2133 17.06                             143   -0.4810  102 176 
 RUS  HN ES       2133 36.05                             143   -0.1310  102 176 
 RUS  HZ I        2133 38.48        31.0 0.48            147            102 176 
 PTB  HZ EP       2133 20.04                             132   -0.65 9  148 258 
 PTB  HN ES       2133 41.40                             132   -0.39 9  148 258 
 PTB  HZ I        2133 47.16        49.5 0.34            132            148 258 
 OCA  HZ EP       2133 22.08                             130    0.27 9  159 353 
 OCA  HN ES       2133 43.78                             130   -0.00 9  159 353 
 OCA  HZ I        2133 49.06        80.7 0.34            133            159 353 
 SPBC HZ EP       2133 22.13                             129   -0.17 9  165 219 
 SPBC HN ES       2133 44.50                             129   -0.16 9  165 219 
 SPBC HZ I        2133 51.20        69.8 0.28            131            165 219 
 ZAR  HZ EP       2133 25.83                             123   -0.24 9  204 292 
 ZAR  HN ES       2133 50.90                             123   -0.46 9  204 292 
 ZAR  HZ I        2133 57.73        46.6 0.48            124            204 292 
 NOR  HZ EP       2133 29.24                             118   -0.28 8  236 234 
 NOR  HN ES       2133 57.13                             118   -0.38 8  236 234 
 NOR  HZ I        2134  4.34        25.8 0.26            120            236 234 
 SML  HZ EP       2133 29.62                             118   -0.50 8  242 335 
 SML  HN ES       2133 57.99                             118   -0.59 8  242 335 
 SML  HZ I        2134  1.13        55.7 0.32            120            242 335 
 HEL  HZ EP       2133 35.07                             115    1.12 8  273 255 
 HEL  HE ES       2134  5.74                             115    0.35 8  273 255 
 HEL  HZ I        2134 13.83        16.5 0.26            117            273 255 
 URE  HZ EP   4   2133 33.56                             114   -1.12 0  284 292 
 URE  HN ES   4   2134  4.66                             114   -2.04 0  284 292 
 GUY2CHZ EP       2133 38.21                             112    0.81 7  302 235 
 GUY2CHN ES       2134 12.32                             112    0.78 7  302 235 
 GUY2CHZ I        2134 20.19        17.2 0.42                           302 235 
 TOL  SZ EP       2133 42.37                             109    0.30 7  345 224 
 TOL  SN ES       2134 19.93                             109    0.08 7  345 224 
 TOL  SZ I        2134 26.63        15.3 0.32            111            345 224 
                                                                                
