 2011  721 2348 18.5 L   6.765 -73.145144.0  RSN  9 0.3 1.9LRSN                1
 GAP=138        0.68       3.2     6.4  5.8 -0.1123E+02  0.1371E+02 -0.4224E+01E
 Epicentro: LOS SANTOS - SANTANDER                                             3
 ACTION:UPD 12-07-25 14:02 OP:epov STATUS:               ID:20110721234818 L   I
 2011-07-21-2346-45S.COL___143                                                 6
 STAT SP IPHASW D HRMM SECON CODA AMPLIT PERI AZIMU VELO AIN AR TRES W  DIS CAZ7
 BAR2 SZ EP   1   2348 37.75                             172   -0.05 7 19.6 192 
 BAR2 SZ I        2348 38.09        16.5 0.12                          19.6 192 
 BAR2 SZ ES   1   2348 53.04                             172    0.15 7 19.6 192 
 BTL  SZ EP   1   2348 38.37                             171    0.53 7 21.7 321 
 GIR2 SZ EP       2348 38.22                             166    0.2010 35.1 351 
 GIR2 SZ ES   2   2348 53.38                             166    0.09 5 35.1 351 
 PAM  SZ EP   1   2348 40.87                             149    0.21 7 80.3  38 
 PAM  SZ I        2348 41.18         8.9 0.18                          80.3  38 
 PAM  SN ES   2   2348 57.83                             149   -0.15 5 80.3  38 
 RUS  HZ EP   1   2348 41.68                             144   -0.07 7 96.7 176 
 RUS  HN ES   1   2348 59.52                             144   -0.41 7 96.7 176 
 RUS  HZ I        2349  1.09        13.8 0.38                          96.7 176 
 BRI  SZ EP   1   2348 42.66                             140    0.21 7  112  20 
 BRI  SZ ES   1   2349  0.73                             140   -0.44 7  112  20 
 BRI  SZ I        2349  3.37        16.6 0.36                           112  20 
 GRA  SZ EP   1   2348 44.00                             136    0.16 7  129  17 
 GRA  SZ I        2348 45.43        13.7 0.20                           129  17 
 GRA  SZ ES   1   2349  3.79                             136    0.14 7  129  17 
 OCA  SZ EP       2348 46.95                             128   -0.04 9  164 353 
 OCA  SZ ES   1   2349  8.76                             128   -0.48 7  164 353 
 OCA  SZ I        2349 13.58        10.1 0.23                           164 353 
 NOR  SZ EP   1   2348 52.92                             118   -0.93 6  233 235 
 NOR  SN ES   1   2349 21.92                             118    0.46 6  233 235 
                                                                                
