 2012  521 2025 25.3 L   6.775 -73.131143.3  RSN  4 0.3 1.5LRSN                1
 GAP=139        0.86       5.7     6.9  9.4 -0.1220E+01  0.1420E+02  0.7956E+01E
 Epicentro: LOS SANTOS - SANTANDER                                             3
 ACTION:UP  12-07-05 12:07 OP:pat  STATUS:               ID:20120521202525 L   I
 2012-05-21-2020-00M.COL___200                                                 6
 STAT SP IPHASW D HRMM SECON CODA AMPLIT PERI AZIMU VELO SNR AR TRES W  DIS CAZ7
 BRR  HZ EP       2025 46.58                             151     0.310   74 300 
 BRR  HZ I        2026  2.62         6.7 0.32                            74 300 
 BRR  HN ES   1   2026  2.90                             151     0.2 7   74 300 
 PAM  SZ EP       2025 47.66                             150     0.410   79  37 
 PAM  SN ES   1   2026  3.94                             150    -0.5 7   79  37 
 RUS  HZ EP       2025 48.50                             144    -0.110   98 177 
 RUS  HN ES   1   2026  6.87                             144     0.1 7   98 177 
 PTB  HZ EP       2025 51.69                             131    -0.5 9  149 260 
 PTB  HZ I        2026 14.67         3.2 0.48                           149 260 
                                                                                
