 2011 1221 2351 31.1 L   7.222 -72.976  4.2  RSN  4 0.3 1.2LRSN                1
 GAP=190        0.51       3.9     3.0  6.0 -0.7704E+01 -0.1818E+01  0.6485E+01E
 Epicentro: TONA - SANTANDER                                                   3
 ACTION:UPD 12-07-13 16:17 OP:ep   STATUS:               ID:20111221235131 L   I
 2011-12-21-2350-00M.COL___191                                                 6
 STAT SP IPHASW D HRMM SECON CODA AMPLIT PERI AZIMU VELO AIN AR TRES W  DIS CAZ7
 GIR2 SZ EP   1   2351 36.20                              47    0.03 7 28.7 237 
 GIR2 SZ ES   1   2351 39.99                              47   -0.15 7 28.7 237 
 PAM  SZ EP   2   2351 37.27                              47    0.06 5 33.2  67 
 PAM  SN ES   2   2351 41.70                              47   -0.29 5 33.2  67 
 BAR2 SZ EP   2   2351 43.51                              47    0.49 5 73.3 198 
 BAR2 SZ ES   2   2351 51.93                              47   -0.41 5 73.3 198 
 BAR2 SZ I        2351 55.83        11.2 0.26                          73.3 198 
 RUS  HZ EP   2   2351 55.17                              47    0.64 5  148 185 
 RUS  HZ I        2351 56.34         3.5 0.30                           148 185 
 RUS  HN ES   2   2352 12.66                              47   -0.16 5  148 185 
                                                                                
