 2011  821 2014 59.2 L   6.820 -72.995139.2  RSN  5 0.2 1.9LRSN                1
 GAP=198        0.45       4.0     8.5  4.4  0.1729E+02 -0.7838E+01 -0.2638E+00E
 Epicentro: CEPITA - SANTANDER                                                 3
 ACTION:UPD 12-07-13 15:53 OP:ep   STATUS:               ID:20110821201459 L   I
 2011-08-21-2012-41S.COL___152                                                 6
 STAT SP IPHASW D HRMM SECON CODA AMPLIT PERI AZIMU VELO AIN AR TRES W  DIS CAZ7
 BAR2 SZ IP       2015 18.55                             166    0.2710 32.7 219 
 BAR2 SZ ES   1   2015 33.09                             166   -0.07 7 32.7 219 
 BAR2 SZ I        2015 34.97        19.0 0.22                          32.7 219 
 BRR  HZ IP     D 2015 20.37                             147   -0.1710 85.4 292 
 BRR  HZ I        2015 27.13        22.4 0.12                          85.4 292 
 BRR  HN ES   1   2015 37.28                             147    0.10 7 85.4 292 
 RUS  HN ES   2   2015 40.28                             142   -0.39 5  103 185 
 OCA  SZ EP   2   2015 27.09                             128    0.02 5  161 347 
 OCA  SZ ES   3   2015 48.30                             128   -0.51 2  161 347 
 CHI  HZ EP       2015 37.33                             115    0.01 8  256 199 
 CHI  HZ I        2015 49.83         4.3 0.10                           256 199 
                                                                                
