 2011 1021 2229  2.2 L   6.785 -73.097146.0  RSN  5 0.2 1.8LRSN                1
 GAP=144        0.38       3.5     4.9  4.2  0.3063E+01 -0.2754E+01  0.1465E+01E
 Epicentro: LOS SANTOS - SANTANDER                                             3
 ACTION:UPD 12-07-13 16:05 OP:ep   STATUS:               ID:20111021222902 L   I
 2011-10-21-2227-02S.COL___171                                                 6
 STAT SP IPHASW D HRMM SECON CODA AMPLIT PERI AZIMU VELO AIN AR TRES W  DIS CAZ7
 BAR2 SZ EP   1   2229 21.82                             170   -0.03 7 23.3 204 
 BAR2 SZ ES   1   2229 37.10                             170   -0.08 7 23.3 204 
 GIR2 SZ EP   1   2229 21.75                             166   -0.22 7 34.2 342 
 GIR2 SZ ES   2   2229 37.28                             166   -0.12 5 34.2 342 
 PAM  SZ EP   2   2229 24.59                             151    0.28 5 75.4  36 
 PAM  SZ I        2229 24.73        13.7 0.17                          75.4  36 
 PAM  SN ES   2   2229 41.68                             151    0.11 5 75.4  36 
 BRR  HZ EP   1   2229 23.50                             151   -0.19 7 76.7 298 
 BRR  HZ I        2229 23.89        17.4 0.11                          76.7 298 
 BRR  HE ES   1   2229 40.68                             151    0.23 7 76.7 298 
 RUS  HZ EP   1   2229 26.05                             144    0.22 7 98.7 179 
 RUS  HN ES   2   2229 44.18                             144   -0.09 5 98.7 179 
 RUS  HZ I        2229 45.31         6.8 0.26                          98.7 179 
                                                                                
