 2015  521 2240 21.9 L   6.872 -73.311123.0  RSN  8 0.3 2.0LRSN                1
 GAP=103        0.75       2.3     3.1  4.7 -0.1879E+00  0.3933E+01 -0.5948E+00E
 Epicentro: BETULIA - SANTANDER                                                3
 ACTION:UPD 15-09-10 22:06 OP:cam  STATUS:               ID:20150521224021 L   I
 OLDACT:REG 15-05-22 02:47 OP:drio STATUS:               ID:20150521223749     3
 2015-05-21-2237-49M.COL___294                                                 6
 STAT SP IPHASW D HRMM SECON CODA AMPLIT PERI AZIMU VELO AIN AR TRES W  DIS CAZ7
 BAR2 EZ EP       2240 39.25                             164    0.1410 34.1 155 
 BAR2 EZ ES       2240 52.20                             164   -0.3410 34.1 155 
 BAR2 EZ I        2240 53.60        51.0 0.34            168           34.1 155 
 BRR  HZ EP       2240 39.65                             156    0.1610 51.3 300 
 BRR  HE ES       2240 53.26                             156    0.0510 51.3 300 
 PAM  SZ EP       2240 42.58                             143    0.2910 85.0  53 
 PAM  SE ES       2240 58.49                             143    0.3010 85.0  53 
 PAM  SZ I        2241  0.90         9.7 0.26            145           85.0  53 
 RUS  HZ EP       2240 44.38                             135    0.0110  111 167 
 RUS  HN ES       2241  1.90                             135   -0.0110  111 167 
 OCA  HZ EP       2240 47.09                             126   -0.54 9  151 360 
 OCA  HN ES       2241  7.39                             126   -0.31 9  151 360 
 OCA  HZ I        2241  8.39        31.7 0.30            126            151 360 
 SPBC HZ EP       2240 48.60                             124    0.26 9  159 212 
 SPBC HN ES       2241  8.65                             124   -0.31 9  159 212 
 ZAR  HZ EP       2240 50.60                             120   -0.23 9  184 292 
 ZAR  HN ES       2241 13.85                             120    0.46 9  184 292 
 ZAR  HZ I        2241 20.28         6.6 0.24            120            184 292 
 SML  HZ EP   4   2240 54.29                             114   -1.43 0  229 339 
 SML  HN ES   4   2241 20.62                             114   -1.49 0  229 339 
 SML  HZ I        2241 26.64        10.5 0.28            114            229 339 
                                                                                
