 2015  321 2052 14.3 L   6.698 -73.591104.2  RSN  6 0.4 1.1LRSN                1
 GAP=112        0.95       4.5     3.8 10.3 -0.1478E+01  0.2246E+01 -0.1151E+02E
 Epicentro: EL CARMEN - SANTANDER                                              3
 ACTION:UPD 15-04-30 16:28 OP:nd   STATUS:               ID:20150321205214 L   I
 OLDACT:REG 15-03-22 05:10 OP:spq  STATUS:               ID:20150321204748     3
 2015-03-21-2047-48M.COL___275                                                 6
 STAT SP IPHASW D HRMM SECON CODA AMPLIT PERI AZIMU VELO AIN AR TRES W  DIS CAZ7
 BAR2 EZ EP       2052 30.22                             154    0.3010 46.6 105 
 BAR2 EZ ES   1   2052 42.62                             154    0.52 7 46.6 105 
 BAR2 EZ I        2052 43.65         9.5 0.26            155           46.6 105 
 BRR  HZ EP       2052 29.99                             154    0.3910 47.2 343 
 PTB  HZ EP   1   2052 33.34                             133    0.03 7 97.3 260 
 PTB  HN ES       2052 47.64                             133   -0.4910 97.3 260 
 PTB  HZ I        2052 49.33         2.8 0.32            136           97.3 260 
 RUS  HZ EP       2052 34.73                             131    0.0610  105 148 
 RUS  HN ES   1   2052 50.59                             131    0.03 7  105 148 
 RUS  HZ I        2052 52.23         1.3 0.28            133            105 148 
 PAM  SZ EP   1   2052 35.68                             127   -0.51 7  121  54 
 PAM  SN ES       2052 52.68                             127   -0.5810  121  54 
 PAM  SZ I        2052 53.68         2.3 0.28            130            121  54 
 ZAR  HZ EP   4   2052 41.78                             117    1.67 0  165 302 
 SML  HN ES   1   2053 15.58                             107    0.62 6  239 347 
                                                                                
