 2016  721 2200  7.3 L   6.776 -73.141139.3  RSN 10 0.4 2.4LRSN                1
 GAP= 98        1.07       3.7     3.6  7.6 -0.3548E+00  0.1018E+02  0.4930E+01E
 Epicentro: LOS SANTOS - SANTANDER                                             3
 ACTION:UPD 17-03-29 16:53 OP:lp   STATUS:               ID:20160721220007 L   I
 OLDACT:UP  16-07-22 03:37 OP:dani STATUS:               ID:20160721215760d    3
 OLDACT:UP  16-07-22 03:36 OP:dani STATUS:               ID:20160721215760d    3
 OLDACT:UP  16-07-22 03:36 OP:dani STATUS:               ID:20160721215760d    3
 OLDACT:UP  16-07-22 03:27 OP:dani STATUS:               ID:20160721215760d    3
 OLDACT:DUP 16-07-22 03:26 OP:dani STATUS:               ID:20160721215760d    3
 2016-07-21-2157-59S.COL___334                                                 6
 STAT SP IPHASW D HRMM SECON CODA AMPLIT PERI AZIMU VELO AIN AR TRES W  DIS CAZ7
 BAR2 EZ EP       22 0 25.70                             171   -0.3810 20.8 193 
 BAR2 HE ES   4   22 0 38.69                             171   -2.06 0 20.8 193 
 BRR  HZ IP     C 22 0 27.55                             151   -0.2910 72.9 300 
 BRR  HN ES       22 0 44.42                             151    0.5510 72.9 300 
 BRR  HZ I        22 0 48.35        38.9 0.12            150           72.9 300 
 PAM  EZ EP       22 0 28.75                             149   -0.1710 79.1  38 
 PAM  EE ES       22 0 45.64                             149   -0.1610 79.1  38 
 PAM  EZ I        22 0 46.14        44.4 0.22            155           79.1  38 
 RUS  HZ EP       22 0 29.92                             143   -0.2810 97.9 176 
 RUS  HE ES       22 0 48.42                             143    0.3410 97.9 176 
 RUS  HZ I        22 0 50.19        32.5 0.30            146           97.9 176 
 TAM  HE ES       22 0 55.82                             129    0.36 9  154 104 
 SPBC HZ EP       22 0 34.89                             128   -0.23 9  161 220 
 SPBC HN ES       22 0 56.13                             128   -0.71 9  161 220 
 SPBC HZ I        22 1  1.81        31.2 0.18            129            161 220 
 ZAR  HZ EP       22 0 40.30                             121    0.83 8  206 293 
 ZAR  HN ES       22 1  3.93                             121   -0.64 8  206 293 
 ZAR  HZ I        22 1  9.50        44.6 0.44            123            206 293 
 NOR  HZ EP       22 0 42.29                             117   -0.23 8  234 235 
 NOR  HE ES       22 1 10.31                             117    0.30 8  234 235 
 NOR  HZ I        22 1 17.39        13.6 0.14            119            234 235 
 CHI  HE ES       22 1 13.45                             116    0.17 8  246 195 
 HEL  HZ EP       22 0 47.82                             113    0.66 8  272 256 
 HEL  HN ES       22 1 18.62                             113    0.36 8  272 256 
 HEL  HZ I        22 1 24.92        10.2 0.34            115            272 256 
 SOCV BZ EP   4   22 0 48.51                             111   -1.65 0  302  56 
 SOCV BN ES   4   22 1 20.15                             111   -3.45 0  302  56 
                                                                                
