 2010  521 2329 11.8 L   6.778 -73.097141.0  RSN 10 0.5 2.6LRSN                1
 GAP=179        0.83       5.2    11.6  9.2 -0.4008E+02  0.3776E+02  0.3531E+01E
 Epicentro: LOS SANTOS - SANTANDER                                             3
 ACTION:UP  10-08-24 10:06 OP:vdl  STATUS:               ID:20100521232911 L   I
 2010-05-21-2326-25S.COL___111                                                 6
 STAT SP IPHASW D HRMM SECON CODA AMPLIT PERI AZIMU VELO SNR AR TRES W  DIS CAZ7
 BAR2 SZ IP       2329 30.60                             170    -0.310   23 205 
 BAR2 SZ ES   2   2329 45.64                             170    -0.1 5   23 205 
 BRI  SZ EP       2329 35.47                             140     0.210  109  18 
 BRI  SZ ES   2   2329 54.37                             140     0.8 5  109  18 
 GUE  SZ EP   1   2329 35.81                             138    -0.4 7  118   9 
 GUE  SZ ES   2   2329 55.46                             138     0.2 5  118   9 
 GRA  SZ EP   1   2329 36.73                             136     0.0 7  127  15 
 GRA  SZ ES   2   2329 56.37                             136     0.3 5  127  15 
 OCA  SZ EP   1   2329 39.65                             128    -0.4 7  163 351 
 OCA  SZ ES   2   2330  1.47                             128    -0.6 5  163 351 
 OCA  SZ I        2330  4.83        51.4 0.35                           163 351 
 CHI  HZ EP   1   2329 49.06                             116    -0.1 6  248 197 
 CHI  HE ES   2   2330 17.97                             116    -0.3 4  248 197 
 CHI  HZ I        2330 26.06        11.1 0.28                           248 197 
 ROSC BZ EP   1   2329 50.62                             116     0.9 6  254 212 
 ROSC BZ I        2330 26.40        24.0 0.50                           254 212 
 HEL  HZ EP   1   2329 52.74                             113     0.4 6  277 257 
 HEL  HZ I        2330 29.29        23.2 0.22                           277 257 
 RREF BZ EP   1   2329 58.79                             110     0.7 5  324 230 
 RREF BE ES   2   2330 33.56                             110    -0.5 3  324 230 
 RREF BZ I        2330 39.98        19.8 0.23                           324 230 
 PRA  HZ EP   1   2330  4.23                             106    -1.0 4  393 210 
 PRA  HE ES   2   2330 46.94                             106     0.0 3  393 210 
 PRA  HZ I        2330 53.10        12.6 0.37                           393 210 
                                                                                
