 2017  421 2210 18.1 L   6.800 -73.141148.0  RSN 14 0.3 2.4LRSN                1
 GAP=112        0.88       3.2     3.1  4.8  0.1965E+00  0.3149E+01  0.5187E+01E
 Epicentro: LOS SANTOS - SANTANDER                                             3
 ACTION:UPD 17-05-30 21:14 OP:jn   STATUS:               ID:20170421221018 L   I
 OLDACT:REG 17-04-22 06:58 OP:cara STATUS:               ID:20170421220743     3
 2017-04-21-2208-00M.COL___369                                                 6
 STAT SP IPHASW D HRMM SECON CODA AMPLIT PERI AZIMU VELO AIN AR TRES W  DIS CAZ7
 BAR2 EZ IP       2210 38.10                             171    0.0510 23.4 191 
 BAR2 EZ ES       2210 53.67                             171    0.1010 23.4 191 
 BAR2 EZ I        2210 55.82        47.4 0.22            166           23.4 191 
 BRR  HZ EP       2210 39.92                             152    0.3610 71.7 298 
 BRR  HN ES       2210 56.42                             152    0.1510 71.7 298 
 BRR  HZ I        2211  0.31        35.9 0.14            151           71.7 298 
 PAM  EZ EP       2210 40.65                             151    0.0710 77.1  39 
 PAM  EN ES       2210 57.85                             151   -0.2310 77.1  39 
 PAM  EZ I        2211  0.29        28.0 0.60            158           77.1  39 
 PTB  HZ EP   9   2210 45.14                             132   -0.20 0  148 259 
 PTB  HN ES       2211  5.48                                   -0.87 9  148 259 
 PTB  HZ I        2211 13.58        26.0 0.24            132            148 259 
 SPBC HZ EP       2210 46.92                             129    0.08 9  163 219 
 SPBC HN ES       2211  9.45                             129    0.23 9  163 219 
 SPBC HZ I        2211 13.20        34.3 0.24            129            163 219 
 YPLC HZ EP       2210 48.27                             127    0.19 9  177 151 
 YPLC HN ES       2211 10.59                             127   -0.83 9  177 151 
 YPLC HZ I        2211 13.29        30.8 0.26            129            177 151 
 ZAR  HZ EP       2210 50.79                             122    0.00 9  205 292 
 ZAR  HN ES       2211 15.77                             122   -0.48 9  205 292 
 ZAR  HZ I        2211 22.13        49.4 0.28            124            205 292 
 NOR  HZ EP       2210 54.11                             119    0.06 8  235 235 
 NOR  HN ES       2211 22.52                             119    0.47 8  235 235 
 NOR  HZ I        2211 27.94        16.9 0.32            119            235 235 
 ROSC BZ EP   4   2210 58.42                             117    2.01 0  253 211 
 ROSC BN ES   4   2211 28.40                             117    2.14 0  253 211 
 ROSC BZ I        2211 33.65        16.6 0.40            118            253 211 
 HEL  HZ EP   4   2211  0.39                             115    1.87 0  273 256 
 HEL  HN ES   4   2211 28.28                             115   -1.74 0  273 256 
 HEL  HZ I        2211 38.26        13.4 0.40            116            273 256 
 VIL  EZ EP   4   2211  7.84                             112    6.17 0  303 192 
 PTGC HZ EP   4   2211  0.87                             112   -1.21 0  308 159 
 PTGC HN ES   4   2211 31.47                             112   -4.87 0  308 159 
 DBB  EN ES       2211 42.24                             109   -0.68 7  340 274 
 DBB  EZ I        2211 46.00         9.0 0.16            111            340 274 
 PRA  HZ EP       2211 11.73                             107   -0.04 6  392 210 
 PRA  HE ES       2211 53.37                             107   -0.22 6  392 210 
 PRA  HZ I        2212  1.94         4.9 0.28            108            392 210 
 ORTC HZ EP       2211 12.38                             106    0.21 6  396 216 
 ORTC HN ES       2211 54.46                             106    0.15 6  396 216 
 ORTC HZ I        2212  2.07         4.3 0.54            108            396 216 
 SJC  HZ EP   4   2211 11.83                             106   -1.99 0  410 327 
 SJC  HE ES   4   2211 51.55                             106   -5.69 0  410 327 
 SJC  HZ I        2211 56.01         4.8 0.28            108            410 327 
                                                                                
