 2016  421 2304 17.8 L   6.818 -73.141143.9  RSN 22 0.4 2.5LRSN                1
 GAP= 71        0.87       2.4     2.1  3.9 -0.1217E+01  0.2413E+01  0.6319E+00E
 Epicentro: LOS SANTOS - SANTANDER                                             3
 ACTION:UPD 16-05-05 14:23 OP:rebc STATUS:               ID:20160421230417 L   I
 OLDACT:REG 16-04-22 07:02 OP:ak   STATUS:               ID:20160421225746     3
 2016-04-21-2257-46M.COL___319                                                 6
 STAT SP IPHASW D HRMM SECON CODA AMPLIT PERI AZIMU VELO AIN AR TRES W  DIS CAZ7
 BAR2 EZ IP     C 23 4 37.30                             170    0.0810 25.4 190 
 BAR2 EZ ES       23 4 52.23                             170   -0.1610 25.4 190 
 BAR2 EZ I        23 4 53.62       113.9 0.18            167           25.4 190 
 PAM  EZ EP     D 23 4 40.06                             151    0.3910 75.5  40 
 PAM  EN ES       23 4 57.21                             151    0.4510 75.5  40 
 PAM  EZ I        23 4 57.90        25.2 0.16            151           75.5  40 
 RUS  HZ EP     C 23 4 41.26                             143   -0.2210  103 176 
 RUS  HN ES       23 4 59.87                             143   -0.1010  103 176 
 RUS  HZ I        23 5  1.14        22.3 0.46            140            103 176 
 PTB  HZ EP       23 4 44.31                             131   -0.36 9  149 258 
 PTB  HN ES       23 5  4.90                             131   -0.75 9  149 258 
 PTB  HZ I        23 5  7.71        31.7 0.16            127            149 258 
 TAM  HZ IP     D 23 4 45.61                             130    0.31 9  155 106 
 TAM  HN ES       23 5  6.61                             130   -0.16 9  155 106 
 OCA  HZ EP   2   23 4 46.14                             129    0.39 5  158 353 
 OCA  HN ES       23 5  7.93                             129    0.35 9  158 353 
 OCA  HZ I        23 5 10.58        90.1 0.18            127            158 353 
 SPBC HZ EP       23 4 46.28                             128   -0.02 9  165 219 
 SPBC HN ES       23 5  8.46                             128   -0.10 9  165 219 
 SPBC HZ I        23 5 14.48        52.2 0.23            124            165 219 
 ZAR  HZ EP       23 4 49.95                             122   -0.12 9  204 292 
 ZAR  HE ES       23 5 15.50                             122    0.24 9  204 292 
 ZAR  HZ I        23 5 21.43        26.6 0.42            118            204 292 
 NOR  HZ EP       23 4 53.74                             118    0.18 8  236 234 
 NOR  HE ES       23 5 21.30                             118   -0.18 8  236 234 
 NOR  HZ I        23 5 26.59        35.5 0.21            115            236 234 
 CHI  HZ EP       23 4 55.37                             116   -0.21 8  251 195 
 CHI  HN ES       23 5 24.87                             116   -0.21 8  251 195 
 CHI  HZ I        23 5 31.86        18.4 0.48            114            251 195 
 ROSC BZ EP       23 4 57.02                             116    1.02 8  255 211 
 ROSC BN ES   4   23 5 27.82                             116    2.00 0  255 211 
 ROSC BZ I        23 5 33.57        22.2 0.30            113            255 211 
 HEL  HZ EP       23 4 57.56                             114   -0.44 8  273 255 
 HEL  HN ES       23 5 28.89                             114   -0.48 8  273 255 
 HEL  HZ I        23 5 35.89        14.0 0.24            111            273 255 
 URE  HN ES   4   23 5 27.45                             113   -3.21 0  284 292 
 URE  HZ I        23 5 37.78        20.5 0.32            110            284 292 
 SOCV BZ EP       23 5  0.01                             112   -0.55 7  300  57 
 SOCV BN ES   4   23 5 30.13                             112   -3.80 0  300  57 
 GUY2CHZ EP       23 5  1.26                             112   -0.21 7  303 235 
 GUY2CHN ES       23 5 36.36                             112    0.81 7  303 235 
 GUY2CHZ I        23 5 43.89        26.0 0.38                           303 235 
 CBOC HZ EP       23 5  5.11                             109    0.38 7  335 252 
 CBOC HN ES       23 5 41.69                             109    0.33 7  335 252 
 CBOC HZ I        23 5 50.72         5.7 0.57            107            335 252 
 DBB  SZ EP       23 5  4.73                             109   -0.48 7  340 274 
 DBB  SZ ES       23 5 41.87                             109   -0.35 7  340 274 
 DBB  SZ I        23 5 49.81        34.3 0.28            106            340 274 
 SDV  BZ EP       23 5  6.87                             108   -0.67 6  359  50 
 SDV  BN ES   4   23 5 43.17                             108   -3.20 0  359  50 
 SDV  BZ I        23 5 48.81         3.6 0.45            106            359  50 
 ANIL HZ EP       23 5  7.67                             108   -0.04 6  359 224 
 ANIL HE ES       23 5 46.92                             108    0.26 6  359 224 
 ANIL HZ I        23 5 57.37        28.7 0.42            105            359 224 
 ORTC HZ EP       23 5 11.97                             106    0.12 6  397 216 
 ORTC HN ES       23 5 55.00                             106    0.97 6  397 216 
 ORTC HZ I        23 6  0.15        11.9 0.30            104            397 216 
 PAL  HZ EP       23 5 12.94                             105   -0.10 6  407 239 
 PAL  HN ES       23 5 56.29                             105    0.14 6  407 239 
 CRJC HZ EP   4   23 5 17.62                             103   -2.35 0  466   3 
 CRJC HE ES   4   23 6  3.69                             103   -4.81 0  466   3 
 CRJC HZ I        23 6 10.92         5.5 0.18            101            466   3 
 MACC HZ EP   4   23 5 24.38                             101   -2.29 0  523 189 
 MACC HN ES   4   23 6 15.24                             101   -5.18 0  523 189 
                                                                                
