 2010  921 2229 12.3 L   6.849 -73.322121.6  RSN  4 0.1 1.9LRSN                1
 GAP=138        0.36       2.6     5.2  5.1  0.5507E+00 -0.6712E+01 -0.1485E+01E
 Epicentro: ZAPATOCA - SANTANDER                                               3
 ACTION:UP  11-02-18 11:04 OP:tino STATUS:               ID:20100921222912 L   I
 2010-09-21-2226-19S.COL___122                                                 6
 STAT SP IPHASW D HRMM SECON CODA AMPLIT PERI AZIMU VELO SNR AR TRES W  DIS CAZ7
 BAR2 SZ EP   1   2229 29.30                             164     0.0 7   32 152 
 BAR2 SZ ES   2   2229 42.30                             164    -0.2 5   32 152 
 BAR2 SZ I        2229 43.61        46.5 0.26                            32 152 
 BRR  HZ EP   1   2229 29.60                             155    -0.1 7   52 304 
 BRR  HN ES   2   2229 43.54                             155     0.2 5   52 304 
 BRR  HZ I        2229 48.47        21.6 0.42                            52 304 
 RUS  HZ EP   1   2229 34.37                             136    -0.1 7  109 166 
 RUS  HE ES   2   2229 51.97                             136     0.2 5  109 166 
 GRA  SZ EP   1   2229 35.78                             130     0.1 7  128  27 
 GRA  SZ ES   2   2229 53.88                             130    -0.1 5  128  27 
 GRA  SZ I        2229 56.51         6.6 0.67                           128  27 
                                                                                
