 2010  421 2355 30.3 L   6.827 -73.011147.8  RSN 10 0.4 2.5LRSN                1
 GAP=187        0.93       4.0     7.3  6.9 -0.1595E+02 -0.4664E+01  0.1334E+02E
 Epicentro: CEPITA - SANTANDER                                                 3
 ACTION:UPD 10-08-24 10:00 OP:vdl  STATUS:               ID:20100421235530 L   I
 2010-04-21-2353-58S.COL___104                                                 6
 STAT SP IPHASW D HRMM SECON CODA AMPLIT PERI AZIMU VELO AIN AR TRES W  DIS CAZ7
 BAR2 SZ IP       2355 50.57                             167     0.110   32 216 
 BAR2 SZ ES   2   2356  5.32                             167    -0.8 5   32 216 
 BRR  HZ IP     C 2355 52.81                             149     0.410   83 292 
 BRR  HE ES       2356  9.90                             149     0.210   83 292 
 BRR  HZ I        2356 13.00        42.6 0.10                            83 292 
 GRA  SZ EP       2355 55.22                             139     0.010  119  11 
 GRA  SZ ES       2356 14.80                             139     0.210  119  11 
 OCA  SZ EP       2355 58.70                             130    -0.1 9  160 348 
 OCA  SZ ES       2356 20.49                             130    -0.4 9  160 348 
 OCA  SZ I        2356 25.28        57.9 0.15                           160 348 
 CHI  HZ EP       2356  8.90                             117     0.0 8  256 198 
 CHI  HN ES   1   2356 38.79                             117    -0.2 6  256 198 
 CHI  HZ I        2356 41.91         9.5 0.49                           256 198 
 ROSC BZ EP   1   2356  9.86                             116     0.1 6  263 213 
 ROSC BE ES   1   2356 40.27                             116    -0.2 6  263 213 
 ROSC BZ I        2356 47.46        14.1 0.32                           263 213 
 RREF BZ EP       2356 18.89                             110     0.8 7  335 231 
 RREF BN ES   1   2356 54.64                             110    -0.7 5  335 231 
 RREF BZ I        2357  2.89        11.9 0.24                           335 231 
 DBB  SZ EP       2356 18.63                             109    -1.0 6  354 274 
 TOL  SZ EP       2356 20.50                             109     0.4 6  356 226 
 TOL  SZ ES   1   2356 59.77                             109     0.8 5  356 226 
 PRA  HZ EP       2356 24.58                             106    -0.5 6  402 211 
 PRA  HE ES   1   2357  7.63                             106    -0.2 4  402 211 
 PRA  HZ I        2357 12.92        10.5 0.40                           402 211 
                                                                                
