 2012 1121 2010 32.1 L   6.756 -73.146140.7  RSN  4 0.5 1.4LRSN                1
 GAP=159        1.27       7.5    20.6 10.5 -0.7207E+02 -0.3487E+02  0.1072E+02E
 Epicentro: LOS SANTOS - SANTANDER                                             3
 ACTION:UPD 12-12-05 15:35 OP:}ep  STATUS:               ID:20121121201032 L   I
 2012-11-21-2010-00M.COL___234                                                 6
 STAT SP IPHASW D HRMM SECON CODA AMPLIT PERI AZIMU VELO AIN AR TRES W  DIS CAZ7
 BAR2 SZ ES       2011  4.89                             172   -0.9610 18.6 192 
 BAR2 SZ I        2011  7.05        15.6 0.28                          18.6 192 
 GIR2 SZ EP       2010 51.25                             165   -0.1110 36.1 352 
 GIR2 SZ ES       2011  7.07                             165    0.7210 36.1 352 
 PAM  SZ EP       2010 53.90                             149   -0.1610 81.2  37 
 PAM  SZ I        2010 54.64         3.1 0.28                          81.2  37 
 PAM  SN ES       2011 11.18                             149    0.0210 81.2  37 
 RUS  HZ EP       2010 55.12                             144    0.0710 95.8 176 
 RUS  HN ES       2011 13.34                             144    0.4210 95.8 176 
 RUS  HN I        2011 15.46         3.2 0.26                          95.8 176 
                                                                                
