 2015  822 0019 13.8 L   6.764 -73.068146.0  RSN  5 0.3 1.5LRSN                1
 GAP=148        0.64       3.5     3.9  6.6 -0.1830E+01 -0.3410E+00  0.3267E+01E
 Epicentro: LOS SANTOS - SANTANDER                                             3
 ACTION:UPD 15-09-15 23:04 OP:cam  STATUS:               ID:20150822001913 L   I
 OLDACT:UP  15-08-22 14:50 OP:spq  STATUS:               ID:20150822001748     3
 OLDACT:REG 15-08-22 12:41 OP:spq  STATUS:               ID:20150822001748     3
 2015-08-22-0017-48M.COL___349                                                 6
 STAT SP IPHASW D HRMM SECON CODA AMPLIT PERI AZIMU VELO AIN AR TRES W  DIS CAZ7
 PAM  EZ EP        019 36.00                             152    0.1010 75.6  33 
 PAM  EN ES   1    019 53.24                             152    0.08 7 75.6  33 
 PAM  EZ I         019 55.37         2.5 0.46            155           75.6  33 
 BRR  HZ EP        019 34.94                             150   -0.5610 80.7 298 
 BRR  HN ES        019 52.50                             150    0.0510 80.7 298 
 BRR  HZ I         019 55.77         5.9 0.13            149           80.7 298 
 RUS  HZ EP        019 37.26                             145    0.0210 96.3 181 
 RUS  HE ES   2    019 55.84                             145    0.30 5 96.3 181 
 RUS  HZ I         019 56.79         2.9 0.38            148           96.3 181 
 SPBC HE ES        020  4.93                             129   -0.02 9  166 222 
 SPBC HZ I         020  8.06         5.3 0.32            131            166 222 
 ZAR  HZ EP   1    019 47.73                             121    0.52 6  214 292 
 ZAR  HE ES   1    020 13.49                             121    0.20 6  214 292 
 ZAR  HZ I         020 17.38         4.5 0.36            123            214 292 
                                                                                
