 2013  122 0924 53.8 L   6.805 -73.133145.5  RSN  6 0.3 1.9LRSN                1
 GAP=138        0.82       3.6     5.6  5.6 -0.2071E+01  0.5857E+01  0.5082E+01E
 Epicentro: LOS SANTOS - SANTANDER                                             3
 ACTION:UPD 13-02-15 09:15 OP:ep   STATUS:               ID:20130122092453 L   I
 2013-01-22-0918-49M.COL___183                                                 6
 STAT SP IPHASW D HRMM SECON CODA AMPLIT PERI AZIMU VELO AIN AR TRES W  DIS CAZ7
 BAR2 SZ EP        925 13.40                             170   -0.0210 24.1 193 
 BAR2 SZ ES        925 28.88                             170    0.1710 24.1 193 
 BAR2 SZ I         925 29.61        15.4 0.22            158           24.1 193 
 BRR  HZ EP        925 15.12                             152    0.1410 72.2 298 
 BRR  HN ES        925 31.73                             152    0.2410 72.2 298 
 BRR  HN I         925 35.47        17.9 0.16            134           72.2 298 
 PAM  SZ EP        925 16.15                             151    0.2410 76.1  39 
 PAM  SZ I         925 16.46        10.7 0.22            148           76.1  39 
 PAM  SN ES        925 32.93                             151   -0.2310 76.1  39 
 RUS  HZ EP        925 17.76                             144    0.2010  101 177 
 RUS  HN ES        925 35.62                             144   -0.4610  101 177 
 PTB  HZ EP        925 20.22                             132   -0.66 9  149 259 
 PTB  HN I         925 43.53         9.5 0.34            119            149 259 
 CHI  HZ EP        925 31.58                             117    0.00 8  249 195 
 CHI  HN ES        926  1.52                             117    0.48 8  249 195 
                                                                                
