 2012  222 0928  6.6 L   6.770 -73.182145.3  RSN  9 0.2 2.0LRSN                1
 GAP=176        0.46       2.3     3.4  3.9 -0.1446E+01  0.3148E+01  0.9192E+00E
 ACTION:UP  12-03-07 16:33 OP:epov STATUS:               ID:20120222092806 L   I
 2012-02-22-0926-59S.COL___194                                                 6
 STAT SP IPHASW D HRMM SECON CODA AMPLIT PERI AZIMU VELO AIN AR TRES W  DIS CAZ7
 BAR2 SZ EP   1    928 26.00                             172   -0.15 7 19.7 180 
 BAR2 SZ ES   2    928 41.33                             172   -0.04 5 19.7 180 
 BAR2 SZ I         928 42.80        24.1 0.36                          19.7 180 
 GIR2 SZ EP   1    928 26.25                             166   -0.09 7 34.2 358 
 GIR2 SZ ES   1    928 41.92                             166    0.21 7 34.2 358 
 BRR  HZ EP   1    928 27.92                             153    0.28 7 69.4 303 
 BRR  HZ I         928 28.21        47.5 0.15                          69.4 303 
 RUS  HZ EP   1    928 29.98                             145   -0.16 7 97.6 174 
 RUS  HN ES   1    928 48.47                             145    0.00 7 97.6 174 
 RUS  HZ I         928 52.13         9.3 0.41                          97.6 174 
 PTB  HZ EP   1    928 32.60                             133   -0.56 7  143 260 
 PTB  HN ES   1    928 53.89                             133    0.05 7  143 260 
 OCA  SZ EP   1    928 35.30                             129    0.11 7  163 355 
 OCA  SZ ES   1    928 57.32                             129   -0.13 7  163 355 
 NOR  SZ EP   1    928 42.12                             119    0.34 6  229 235 
 NOR  SN ES   1    929  9.11                             119   -0.09 6  229 235 
 CHI  HZ EP   1    928 43.90                             117    0.05 6  244 194 
 CHI  HZ I         929 17.48         4.7 0.41                           244 194 
 PRA  HZ EP   1    929  0.09                             107    0.52 4  387 209 
                                                                                
