 2013  422 0022 26.3 L   6.844 -73.157146.2  RSN 20 0.5 2.9LRSN                1
 GAP= 56        1.07       2.6     2.8  4.8 -0.1437E+00  0.2431E+01  0.5916E+00E
 Epicentro: LOS SANTOS - SANTANDER                                             3
 ACTION:UPD 13-05-22 14:40 OP:EP   STATUS:               ID:20130422002226 L   I
 2013-04-22-0020-00M.COL___250                                                 6
 STAT SP IPHASW D HRMM SECON CODA AMPLIT PERI AZIMU VELO AIN AR TRES W  DIS CAZ7
 GIR2 SZ EP        022 46.11                             169    0.1910 26.3 351 
 GIR2 SZ I         023  2.81        56.5 0.34            168           26.3 351 
 BAR2 SZ EP        022 46.20                             169    0.1010 28.0 186 
 BAR2 SZ ES        023  0.91                             169   -0.6210 28.0 186 
 BAR2 SZ I         023  1.89        51.6 0.26            166           28.0 186 
 BRR  HZ EP     C  022 47.90                             154    0.5710 67.9 295 
 BRR  HN ES        023  4.52                             154    0.8010 67.9 295 
 BRR  HN I         023  5.15       311.2 0.28            150           67.9 295 
 PAM  SZ EP   1    022 48.84                             152    0.43 7 74.5  43 
 PAM  SN ES        023  5.92                             152    0.2810 74.5  43 
 PAM  SN I         023  6.99       153.3 0.42            150           74.5  43 
 RUS  HZ EP     C  022 50.22                             143   -0.2510  106 176 
 RUS  HN ES        023  8.67                             143   -0.6410  106 176 
 PTB  HZ EP        022 52.63                             132   -0.67 9  148 257 
 PTB  HN ES        023 13.47                             132   -0.88 9  148 257 
 PTB  HN I         023 16.38       128.0 0.20            127            148 257 
 OCA  HZ EP        022 54.16                             131   -0.04 9  155 353 
 OCA  HN ES        023 16.31                             131    0.37 9  155 353 
 OCA  HN I         023 18.61       246.2 0.22            127            155 353 
 TAM  HZ EP        022 54.59                             130    0.32 9  158 107 
 TAM  HE ES        023 15.91                             130   -0.15 9  158 107 
 TAM  HE I         023 17.40        58.5 0.48            126            158 107 
 YOP  SZ EP        022 57.04                             126    0.16 9  184 154 
 YOP  SE ES   1    023 21.27                             126    0.56 7  184 154 
 YOP  SN I         023 22.92        59.0 0.20            121            184 154 
 ZAR  HN ES        023 23.92                             123    0.34 9  201 291 
 ZAR  HN I         023 29.73       121.3 0.44            118            201 291 
 NOR  HZ EP        023  2.41                             118    0.14 8  237 233 
 NOR  HN ES        023 30.10                             118   -0.21 8  237 233 
 NOR  HN I         023 34.89        92.8 0.16            114            237 233 
 SML  HZ EP   1    023  2.04                             118   -0.40 6  239 335 
 SML  HN ES   1    023 30.31                             118   -0.30 6  239 335 
 SML  HN I         023 35.39       124.2 0.10            114            239 335 
 ROSC BZ EP   1    023  5.65                             116    0.80 6  256 210 
 ROSC BE ES        023 35.51                             116    0.61 8  256 210 
 HEL  HZ EP        023  7.09                             115    0.53 8  272 255 
 HEL  HN ES        023 37.82                             115   -0.12 8  272 255 
 HEL  HN I         023 50.39        16.1 0.44            111            272 255 
 VIL  SZ EP   1    023  9.95                             112   -0.32 5  308 191 
 VIL  SN I         023 47.95        62.2 0.72            108            308 191 
 DBB  SZ EP        023 13.71                             110    0.08 7  338 273 
 COD  HZ EP   1    023 13.36                             109   -0.78 5  343 355 
 COD  HN ES        023 50.83                             109   -0.61 7  343 355 
 COD  HN I         023 58.38        14.4 0.52            106            343 355 
 SDV  BZ EP   1    023 15.67                             108   -0.46 5  358  51 
 SDV  BE ES   4    023 52.55                             108   -2.43 0  358  51 
 PRA  HZ EP   1    023 20.24                             106   -0.04 4  396 209 
 PRA  HN ES        024  2.14                             106   -0.23 6  396 209 
 PRA  HN I         024  8.47        16.3 0.40            103            396 209 
 SJC  HZ EP   1    023 19.97                             106   -1.37 4  404 327 
 SJC  HN ES   4    024  1.28                             106   -2.97 0  404 327 
 SJC  HN I         024  3.85        12.6 0.14            103            404 327 
                                                                                
