 2010  722 0012 23.4 L   6.507 -73.587112.4  RSN  6 0.2 1.4LRSN                1
 GAP=208        0.35       4.5     6.7  4.4  0.1771E+02  0.2783E+01 -0.4398E+01E
 Epicentro: SANTA HELENA DEL OPON - SANTANDER                                  3
 ACTION:UPD 10-12-01 15:19 OP:pat  STATUS:               ID:20100722001223 L   I
 2010-07-22-0011-16S.COL___123                                                 6
 STAT SP IPHASW D HRMM SECON CODA AMPLIT PERI AZIMU VELO AIN AR TRES W  DIS CAZ7
 BAR2 SZ IP        012 39.91                             156     0.110   46  78 
 BAR2 SZ ES   1    012 52.65                             156    -0.1 7   46  78 
 BAR2 SZ I         012 53.86        18.2 0.40                            46  78 
 BRR  HZ EP   1    012 40.68                             146    -0.1 7   68 348 
 BRR  HN ES   2    012 54.62                             146     0.2 5   68 348 
 GIR2 SZ EP   2    012 41.42                             143    -0.2 5   77  34 
 RUS  HZ EP   3    012 43.46                             140     0.5 2   88 141 
 RUS  HN ES   2    012 58.22                             140     0.0 5   88 141 
 RUS  HZ I         013  0.84         1.7 0.28                            88 141 
 GUE  SZ EP   3    012 49.62                             120    -0.3 2  164  27 
 GRA  SZ EP   1    012 51.05                             118     0.1 7  175  30 
 GRA  SZ I         013 13.19         3.4 0.50                           175  30 
                                                                                
