 2012  322 0524 11.8 L   7.230 -73.752 27.5  RSN  7 0.3 1.9LRSN                1
 GAP=161        0.74       4.7     2.6  2.9  0.2676E+00  0.1123E+01 -0.4068E+01E
 ACTION:UP  12-03-31 23:21 OP:EP   STATUS:               ID:20120322052411 L   I
 2012-03-22-0520-00M.COL___202                                                 6
 STAT SP IPHASW D HRMM SECON CODA AMPLIT PERI AZIMU VELO SNR AR TRES W  DIS CAZ7
 BRR  HZ IP     C  524 16.45                             148    -0.310   14 162 
 BRR  HZ I         524 16.66       235.7 0.12                            14 162 
 BRR  HN ES   1    524 20.81                             148     0.2 7   14 162 
 BAR2 SZ EP        524 27.45                              61     0.310   94 138 
 BAR2 SZ ES   2    524 38.66                              61    -0.5 5   94 138 
 BAR2 SZ I         524 43.26        25.4 0.41                            94 138 
 PTB  HZ EP        524 28.64                              61    -0.110  109 226 
 PTB  HN ES   2    524 41.92                              61     0.0 5  109 226 
 PTB  HZ I         524 42.99        17.2 0.35                           109 226 
 PAM  SZ EP        524 30.51                              61     0.210  117  84 
 PAM  SE ES   2    524 44.37                              61    -0.3 5  117  84 
 ZAR  HZ EP        524 30.50                              61    -0.310  126 283 
 ZAR  HN ES   2    524 45.55                              61     0.0 5  126 283 
 ZAR  HZ I         524 47.40        40.9 0.30                           126 283 
 RUS  HZ EP   9    524 38.19                              61     1.9 0  165 153 
 RUS  HN ES   9    524 58.69                                   -99.9 0  165 153 
 RUS  HZ I         525  0.11        23.6 0.31                           165 153 
 HEL  HZ EP   2    524 44.71                              61     0.7 4  228 240 
 HEL  HN ES   2    525  9.36                              61     0.3 4  228 240 
 HEL  HZ I         525 18.29         4.4 0.47                           228 240 
                                                                                
