 2017  122 0805 53.8 L   6.789 -73.126150.0  RSN  4 0.1 0.8LRSN                1
 GAP=239        0.43       4.0     3.5  3.7  0.7628E+01  0.1700E+01  0.2136E+01E
 Epicentro: LOS SANTOS - SANTANDER                                             3
 ACTION:UPD 17-05-22 16:02 OP:jn   STATUS:               ID:20170122080553 L   I
 OLDACT:UP  17-01-22 17:23 OP:dani STATUS:               ID:20170122075741d    3
 OLDACT:DUP 17-01-22 17:21 OP:dani STATUS:               ID:20170122075741d    3
 OLDACT:DUP 17-01-22 17:19 OP:dani STATUS:               ID:20170122075740d    3
 OLDACT:REG 17-01-22 13:19 OP:dani STATUS:               ID:20170122075739     3
 2017-01-22-0758-00M.COL___331                                                 6
 STAT SP IPHASW D HRMM SECON CODA AMPLIT PERI AZIMU VELO AIN AR TRES W  DIS CAZ7
 BAR2 EZ EP        8 6 13.72                             171   -0.2410 22.6 196 
 BAR2 EZ ES        8 6 29.77                             171    0.1010 22.6 196 
 BAR2 EZ I         8 6 31.44         2.0 0.26            170           22.6 196 
 BRR  HN ES        8 6 32.58                             152    0.0310 73.7 299 
 RUS  HZ EP        8 6 18.11                             145    0.2010 99.2 177 
 RUS  HN ES        8 6 36.60                             145   -0.0910 99.2 177 
 RUS  HZ I         8 6 37.62         0.9 0.23            145           99.2 177 
 PTB  HZ EP        8 6 21.37                             133    0.04 9  150 259 
 PTB  HE ES        8 6 42.73                             133   -0.04 9  150 259 
 PTB  HZ I         8 6 44.14         0.7 0.24            133            150 259 
                                                                                
