 2012  822 0846 59.4 L   6.782 -73.152149.5  RSN  7 0.3 1.7LRSN                1
 GAP=137        0.75       3.2     3.7  7.0 -0.1404E+00  0.7239E+01 -0.1478E+01E
 Epicentro: LOS SANTOS - SANTANDER                                             3
 ACTION:UPD 12-09-10 11:57 OP:ep   STATUS:               ID:20120822084659 L   I
 2012-08-22-0840-00M.COL___218                                                 6
 STAT SP IPHASW D HRMM SECON CODA AMPLIT PERI AZIMU VELO AIN AR TRES W  DIS CAZ7
 BAR2 SZ EP   1    847 19.51                             171    0.04 7 21.2 189 
 BAR2 SZ ES   1    847 34.62                             171   -0.48 7 21.2 189 
 BAR2 SZ I         847 36.54        20.2 0.36                          21.2 189 
 BRR  HZ EP   1    847 20.98                             153   -0.02 7 71.6 300 
 BRR  HZ I         847 21.63        17.9 0.16                          71.6 300 
 BRR  HN ES   1    847 38.57                             153    0.74 7 71.6 300 
 PAM  SZ EP   1    847 22.34                             151    0.18 7 79.4  39 
 PAM  SN ES        847 39.85                             151   -0.0410 79.4  39 
 PAM  SZ I         847 42.02         3.8 0.22                          79.4  39 
 RUS  HZ EP   1    847 23.79                             145    0.38 7 98.6 176 
 RUS  HN ES        847 42.21                             145    0.0910 98.6 176 
 RUS  HZ I         847 43.32         4.3 0.28                          98.6 176 
 PTB  HZ EP   1    847 26.11                             133   -0.50 7  147 260 
 PTB  HN ES        847 47.48                             133   -0.33 9  147 260 
 PTB  HZ I         847 49.58         3.7 0.10                           147 260 
 OCA  HN ES        847 50.40                             130   -0.26 9  162 353 
 ZAR  HE ES        847 57.94                             123    0.30 9  204 293 
 ZAR  HZ I         848  4.57         5.9 0.20                           204 293 
                                                                                
