 2014  122 0444 36.9 L   6.798 -73.166144.8  RSN  9 0.2 1.5LRSN                1
 GAP=134        0.52       1.9     2.5  3.7 -0.1462E+01  0.2411E+01 -0.3607E-01E
 Epicentro: LOS SANTOS - SANTANDER                                             3
 ACTION:UPD 14-03-13 09:57 OP:ep   STATUS:               ID:20140122044436 L   I
 OLDACT:DUP 14-01-22 10:18 OP:nd   STATUS:               ID:20140122044001d    3
 2014-01-22-0440-00M.COL___279                                                 6
 STAT SP IPHASW D HRMM SECON CODA AMPLIT PERI AZIMU VELO AIN AR TRES W  DIS CAZ7
 BRR  HZ EP        444 58.43                             153    0.5810 69.3 300 
 BRR  HN ES   2    445 14.54                             153    0.36 5 69.3 300 
 BRR  HZ I         445 16.57         5.5 0.30            152           69.3 300 
 PAM  SN EP        444 59.19                             150    0.0710 79.0  41 
 PAM  SE ES        445 16.21                             150   -0.2310 79.0  41 
 PAM  SN I         445 17.08         8.4 0.40            155           79.0  41 
 RUS  HZ EP        445  0.44                             144   -0.1310  101 175 
 RUS  HN ES        445 19.08                             144    0.0610  101 175 
 RUS  HZ I         445 20.50         2.0 0.38            145            101 175 
 PTB  HZ EP        445  3.42                             132   -0.17 9  145 259 
 PTB  HN ES        445 24.30                             132   -0.10 9  145 259 
 PTB  HZ I         445 30.43         3.9 0.50            132            145 259 
 SPBC HZ EP        445  5.12                             129   -0.07 9  162 218 
 SPBC HN ES        445 27.13                             129   -0.11 9  162 218 
 SPBC HZ I         445 32.53         5.6 0.40            129            162 218 
 NOR  HZ EP        445 12.37                             118   -0.00 8  233 234 
 NOR  HN ES        445 39.94                             118   -0.09 8  233 234 
 NOR  HZ I         445 44.31         2.6 0.26            119            233 234 
 SML  HZ EP        445 13.30                             117   -0.10 8  243 336 
 SML  HN ES   2    445 41.63                             117   -0.23 4  243 336 
 SML  HZ I         445 45.60         4.8 0.10            119            243 336 
 CHI  HZ EP        445 14.59                             117    0.12 8  248 195 
 CHI  HN ES        445 43.82                             117    0.05 8  248 195 
 CHI  HZ I         445 53.99         1.0 0.40            118            248 195 
 GUY2CHZ EP   4    445 22.72                             112    2.47 0  299 235 
 GUY2CHN ES   4    445 57.86                             112    3.80 0  299 235 
 GUY2CHZ I         446  3.34         2.6 0.74                           299 235 
                                                                                
