 2015  122 0740 58.8 L   6.736 -73.167151.7  RSN  5 0.3 1.2LRSN                1
 GAP=230        0.90       5.6     6.3  8.1  0.4133E+01  0.1256E+02 -0.3794E+01E
 Epicentro: VILLANUEVA - SANTANDER                                             3
 ACTION:UPD 15-03-02 15:41 OP:nd   STATUS:               ID:20150122074058 L   I
 OLDACT:REG 15-01-22 12:43 OP:carl STATUS:               ID:20150122073747     3
 2015-01-22-0737-47M.COL___261                                                 6
 STAT SP IPHASW D HRMM SECON CODA AMPLIT PERI AZIMU VELO AIN AR TRES W  DIS CAZ7
 BAR2 EZ EP        741 18.43                             174   -0.6410 16.0 186 
 BAR2 EZ ES        741 34.60                             174   -0.2410 16.0 186 
 BAR2 EZ I         741 34.84         3.2 0.18            174           16.0 186 
 BRR  HZ EP        741 21.05                             153    0.3210 72.9 304 
 BRR  HE ES        741 37.98                             153    0.1810 72.9 304 
 BRR  HZ I         741 45.80         4.2 0.42            149           72.9 304 
 RUS  HN ES        741 41.79                             147    0.4610 93.7 174 
 PTB  HZ EP        741 26.23                             134    0.24 9  144 261 
 PTB  HN ES        741 47.00                             134   -0.17 9  144 261 
 PTB  HZ I         741 50.13         1.9 0.20            135            144 261 
 SPBC HN ES        741 49.07                             132   -0.18 9  156 220 
                                                                                
