 2014  522 0046  4.3 L   6.364 -73.647 97.4  RSN 20 0.4 1.9LRSN                1
 GAP= 53        1.03       2.1     2.4  5.5 -0.1048E+01  0.4493E+01  0.6346E+00E
 Epicentro: SANTA HELENA DEL OPON - SANTANDER                                  3
 ACTION:UPD 15-03-16 16:59 OP:nd   STATUS:               ID:20140522004604 L   I
 OLDACT:UP  14-05-22 14:27 OP:spq  STATUS:               ID:20140522003817     3
 OLDACT:REG 14-05-22 12:18 OP:spq  STATUS:               ID:20140522003817     3
 2014-05-22-0038-17M.COL___252                                                 6
 STAT SP IPHASW D HRMM SECON CODA AMPLIT PERI AZIMU VELO AIN AR TRES W  DIS CAZ7
 BAR2 SZ EPg       046 20.28                             148    0.4710 57.2  64 
 BAR2 SZ ESg       046 32.43                             148    0.5210 57.2  64 
 RUS  HZ EPg       046 22.06                             138    0.0910 81.3 130 
 RUS  HN ESg       046 35.21                             138   -0.5610 81.3 130 
 RUS  HZ I         046 39.18         8.4 0.22            121           81.3 130 
 BRR  HZ EPg       046 21.51                             137    0.1210 82.5 355 
 BRR  HE ESg       046 35.14                             137    0.4010 82.5 355 
 BRR  HZ I         046 41.59        13.7 0.18            122           82.5 355 
 PTB  HZ IP     C  046 21.35                             134   -0.8610 91.6 282 
 PTB  HN ES        046 35.51                             134   -0.6910 91.6 282 
 PTB  HZ I         046 38.12        23.8 0.04            118           91.6 282 
 SPBC HZ EP        046 22.37                             134    0.0410 91.7 211 
 SPBC HE ES        046 36.59                             134    0.2010 91.7 211 
 SPBC HZ I         046 38.88        34.2 0.20            117           91.7 211 
 PAM  SN ES        046 47.09                             119   -0.67 9  150  44 
 PAM  SZ I         046 50.30         6.1 0.18            106            150  44 
 NOR  HZ EP        046 29.33                             117   -0.07 9  162 237 
 NOR  HN ES        046 49.35                             117    0.37 9  162 237 
 NOR  HZ I         046 52.07        17.3 0.14            104            162 237 
 ZAR  HZ EP        046 31.36                             114   -0.35 9  183 313 
 ZAR  HN ES        046 53.49                             114    0.38 9  183 313 
 ZAR  HZ I         046 57.37        12.0 0.11            102            183 313 
 CHI  HZ EP        046 33.04                             113   -0.21 9  192 183 
 CHI  HN ES        046 55.84                             113   -0.00 9  192 183 
 CHI  HZ I         047  0.08         6.3 0.24            101            192 183 
 TAM  HZ I         046 57.52        11.9 0.19            100            205  88 
 TAM  HN ES   1    046 57.55                             111   -0.19 6  205  88 
 HEL  HZ EP        046 35.67                             111    0.51 8  209 265 
 HEL  HN ES   1    046 58.87                             111   -0.37 6  209 265 
 HEL  HZ I         047  2.98         9.9 0.34            100            209 265 
 OCA  HN ES        046 59.53                             111    0.50 8  210  10 
 OCA  HZ I         047  5.26        13.0 0.24            100            210  10 
 GUY2CHZ EP        046 38.19                             109    0.68 8  228 237 
 GUY2CHE ES        047  3.42                             109   -0.00 8  228 237 
 GUY2CHZ I         047  9.64         7.1 0.36                           228 237 
 RREF HZ EP   1    046 39.80                             107   -0.26 6  248 229 
 RREF HE ES        047  8.40                             107    0.43 8  248 229 
 RREF HZ I         047 14.71         6.2 0.40             98            248 229 
 URE  HE ES   4    047  7.48                             106   -1.31 0  259 306 
 URE  HZ I         047 14.97         6.9 0.22             98            259 306 
 CBOC HN ES        047 10.40                             106   -0.61 8  268 258 
 CBOC HZ I         047 18.25         2.6 0.38             97            268 258 
 SML  HZ EP   1    046 41.75                             105   -0.51 6  274 350 
 SML  HN ES        047 11.92                             105    0.04 8  274 350 
 SML  HZ I         047 17.32        12.6 0.08             97            274 350 
 PRA  HZ EP        046 48.34                             103    0.02 7  324 205 
 PRA  HE ES   1    047 23.07                             103    0.40 5  324 205 
 PRA  HZ I         047 29.37         3.5 0.24             96            324 205 
 ORTC HZ I         047 30.73         2.7 0.21             96            324 213 
 SJC  HN ES   4    047 41.32                              99   -3.39 0  426 337 
 SJC  HZ I         047 46.11         1.8 0.42             94            426 337 
                                                                                
