 2015  822 0343 20.3 L   6.808 -73.136146.0  RSN 15 0.3 2.0LRSN                1
 GAP= 71        0.75       2.2     2.6  4.4 -0.1424E+01  0.2261E+01  0.7345E+00E
 Epicentro: LOS SANTOS - SANTANDER                                             3
 ACTION:UPD 15-09-15 23:04 OP:cam  STATUS:               ID:20150822034320 L   I
 OLDACT:DUP 15-08-22 15:38 OP:spq  STATUS:               ID:20150822033749d    3
 2015-08-22-0337-48M.COL___352                                                 6
 STAT SP IPHASW D HRMM SECON CODA AMPLIT PERI AZIMU VELO AIN AR TRES W  DIS CAZ7
 BAR2 EZ EP        343 39.92                             170   -0.0810 24.5 192 
 BAR2 EZ ES   1    343 54.89                             170   -0.46 7 24.5 192 
 BAR2 EZ I         343 55.94        26.2 0.12            168           24.5 192 
 BRR  HZ EP     C  343 41.73                             152    0.2110 71.7 297 
 BRR  HN ES        343 58.72                             152    0.6610 71.7 297 
 BRR  HZ I         344  1.89        17.8 0.52            149           71.7 297 
 PAM  EZ IP     C  343 42.82                             151    0.3510 75.9  39 
 PAM  EE ES        343 59.79                             151    0.0410 75.9  39 
 PAM  EZ I         344  1.50        16.6 0.56            155           75.9  39 
 RUS  HZ EP   1    343 44.08                             144   -0.07 7  101 177 
 RUS  HE ES   1    344  2.67                             144   -0.07 7  101 177 
 RUS  HZ I         344  3.38         7.3 0.20            145            101 177 
 TAM  HZ EP     D  343 48.18                             131    0.24 9  154 105 
 OCA  HZ EP        343 48.36                             130   -0.21 9  159 353 
 OCA  HE ES        344  9.90                             130   -0.71 9  159 353 
 OCA  HZ I         344 13.29        22.2 0.24            131            159 353 
 SPBC HZ EP        343 48.86                             129   -0.11 9  165 219 
 SPBC HN ES        344 11.13                             129   -0.19 9  165 219 
 SPBC HZ I         344 17.79        12.1 0.28            128            165 219 
 ZAR  HN ES        344 18.51                             122    0.29 9  205 292 
 ZAR  HZ I         344 24.61        13.1 0.36            122            205 292 
 NOR  HZ EP        343 56.57                             118    0.35 8  236 234 
 NOR  HE ES        344 23.77                             118   -0.45 8  236 234 
 NOR  HZ I         344 30.16         7.8 0.20            118            236 234 
 SML  HZ EP        343 56.71                             118   -0.21 8  243 335 
 SML  HN ES   1    344 25.38                             118   -0.08 6  243 335 
 SML  HZ I         344 28.94         9.7 0.10            118            243 335 
 CHI  HN ES   1    344 27.62                             117   -0.05 6  250 195 
 CHI  HZ I         344 31.68         2.2 0.52            118            250 195 
 HEL  HZ EP   4    344  2.08                             115    1.39 0  273 256 
 HEL  HE ES        344 32.21                             115    0.04 8  273 256 
 HEL  HZ I         344 38.90         4.4 0.26            114            273 256 
 URE  HE ES   4    344 31.77                             114   -1.81 0  285 292 
 URE  HZ I         344 36.08         6.1 0.38            113            285 292 
 GUY2CHZ EP   4    344  5.58                             112    1.48 0  303 235 
 GUY2CHE ES        344 38.20                             112   -0.05 7  303 235 
 GUY2CHZ I         344 46.68         4.4 0.39                           303 235 
 CBOC HZ EP   4    344  8.79                             110    1.39 0  335 252 
 CBOC HE ES        344 44.14                             110    0.02 7  335 252 
 CBOC HZ I         344 55.62         2.0 0.46            110            335 252 
 SJC  HZ EP   4    344 14.18                             106   -1.69 0  409 327 
                                                                                
