 2017  622 0035 21.9 L   6.587 -73.115152.7  RSN  4 0.1 1.5LRSN                1
 GAP=275        0.37       4.4     4.1  4.1 -0.4967E+01 -0.6973E+01  0.1355E+01E
 Epicentro: SAN GIL - SANTANDER                                                3
 ACTION:UPD 17-09-14 16:54 OP:jn   STATUS:               ID:20170622003521 L   I
 OLDACT:DUP 17-06-22 13:41 OP:lv   STATUS:               ID:20170622002736d    3
 2017-06-22-0028-00M.COL___346                                                 6
 STAT SP IPHASW D HRMM SECON CODA AMPLIT PERI AZIMU VELO AIN AR TRES W  DIS CAZ7
 BRR  HZ EP        035 44.64                             149   -0.1410 87.5 311 
 BRR  HN ES        036  2.70                             149    0.0810 87.5 311 
 BRR  HZ I         036  8.38         3.7 0.27            161           87.5 311 
 SPBC HZ EP   9    035 51.82                             133    2.23 0  148 226 
 SPBC HN ES        036 13.38                                   -0.02 9  148 226 
 SPBC HZ I         036 19.52         4.5 0.23            136            148 226 
 PTB  HZ EP        035 49.68                             133    0.16 9  148 268 
 PTB  HN ES        036 10.98                             133   -0.07 9  148 268 
 PTB  HZ I         036 15.46         3.3 0.07            141            148 268 
 ZAR  HN ES        036 22.85                             122   -0.01 8  217 298 
                                                                                
