 2012  522 0002 24.1 L   6.698 -73.218147.3  RSN  4 0.3 1.3LRSN                1
 GAP=221        0.69       7.5     8.1 10.4  0.3483E+02  0.1627E+02 -0.7240E+01E
 Epicentro: VILLANUEVA - SANTANDER                                             3
 ACTION:UP  12-07-05 12:07 OP:pat  STATUS:               ID:20120522000224 L   I
 2012-05-22-0000-00M.COL___200                                                 6
 STAT SP IPHASW D HRMM SECON CODA AMPLIT PERI AZIMU VELO SNR AR TRES W  DIS CAZ7
 BRR  HZ EP   1    0 2 45.30                             153    -0.1 7   71 310 
 BRR  HN ES   1    0 3  1.90                             153    -0.2 7   71 310 
 BRR  HZ I         0 3  3.37         4.2 0.16                            71 310 
 RUS  HN ES   1    0 3  5.66                             147     0.2 7   90 170 
 RUS  HZ I         0 3  7.25         3.9 0.39                            90 170 
 PTB  HZ EP   1    0 2 50.27                             134    -0.1 7  138 263 
 PTB  HN ES   1    0 3 10.54                             134    -0.3 7  138 263 
 PTB  HZ I         0 3 14.87         2.0 0.17                           138 263 
 ZAR  HN ES   1    0 3 22.13                             123     0.6 6  201 296 
 ZAR  HZ I         0 3 28.22         2.7 0.13                           201 296 
                                                                                
