 2015  822 0609 44.5 L   6.776 -73.102144.7  RSN 13 0.3 1.7LRSN                1
 GAP=143        0.71       2.6     3.0  4.5 -0.1889E+01  0.4150E+01 -0.1011E+00E
 Epicentro: LOS SANTOS - SANTANDER                                             3
 ACTION:UPD 15-09-15 23:04 OP:cam  STATUS:               ID:20150822060944 L   I
 OLDACT:REG 15-08-22 14:22 OP:spq  STATUS:               ID:20150822060749     3
 2015-08-22-0607-49M.COL___349                                                 6
 STAT SP IPHASW D HRMM SECON CODA AMPLIT PERI AZIMU VELO AIN AR TRES W  DIS CAZ7
 BAR2 EZ EP        610  3.92                             171   -0.1010 22.2 204 
 BAR2 EZ ES   1    610 18.90                             171   -0.31 7 22.2 204 
 BAR2 EZ I         610 20.97        13.1 0.18            169           22.2 204 
 PAM  EZ EP     C  610  6.97                             151    0.3710 76.5  35 
 PAM  EN ES        610 23.92                             151    0.1310 76.5  35 
 PAM  EZ I         610 26.29         7.7 0.37            154           76.5  35 
 BRR  HZ IP     C  610  5.94                             151    0.0410 76.7 299 
 BRR  HN ES        610 22.94                             151    0.3910 76.7 299 
 BRR  HZ I         610 24.00         7.5 0.24            149           76.7 299 
 RUS  HZ EP        610  7.73                             145   -0.2510 97.7 179 
 RUS  HE ES   1    610 26.03                             145   -0.23 7 97.7 179 
 RUS  HZ I         610 27.24         3.4 0.18            145           97.7 179 
 OCA  HZ EP        610 12.66                             129   -0.42 9  164 352 
 OCA  HN ES   4    610 34.01                             129   -1.33 0  164 352 
 OCA  HZ I         610 37.69        13.2 0.23            131            164 352 
 SPBC HZ EP        610 13.01                             129   -0.05 9  164 221 
 SPBC HE ES        610 35.31                             129    0.01 9  164 221 
 SPBC HZ I         610 40.34         7.7 0.21            129            164 221 
 ZAR  HZ EP        610 17.42                             121   -0.07 8  210 292 
 ZAR  HE ES        610 43.20                             121    0.02 8  210 292 
 ZAR  HZ I         610 48.95         5.3 0.48            122            210 292 
 NOR  HN ES   1    610 48.33                             118   -0.17 6  237 236 
 NOR  HZ I         610 52.08         4.3 0.16            118            237 236 
 CHI  HN ES   1    610 51.98                             117    0.68 6  247 196 
 CHI  HZ I         610 57.95         1.6 0.22            118            247 196 
 SML  HZ EP   1    610 21.81                             117    0.22 6  248 335 
 HEL  HN ES        610 56.23                             114   -0.60 7  276 257 
 HEL  HZ I         611  2.95         3.2 0.24            115            276 257 
 GUY2CHZ EP   1    610 28.71                             112    0.33 5  304 236 
 GUY2CHE ES   1    611  3.46                             112    0.89 5  304 236 
 GUY2CHZ I         611  9.33         3.9 0.36                           304 236 
 CBOC HN ES   1    611  8.31                             110   -0.44 5  337 253 
 CBOC HZ I         611 11.74         1.1 0.26            110            337 253 
                                                                                
