 2010 1122 0652 34.4 L   6.755 -73.145145.5  RSN  5 0.4 1.6LRSN                1
 GAP=159        0.92       5.4    13.2 11.5  0.7081E+01 -0.5075E+02  0.2937E+01E
 Epicentro: LOS SANTOS - SANTANDER                                             3
 ACTION:UP  10-12-17 16:54 OP:REBC STATUS:               ID:20101122065234 L   I
 2010-11-22-0650-45S.COL___129                                                 6
 STAT SP IPHASW D HRMM SECON CODA AMPLIT PERI AZIMU VELO SNR AR TRES W  DIS CAZ7
 BAR2 SZ EP        652 53.91                             172     0.010   19 193 
 BAR2 SZ I         653  9.85        13.1 0.19                            19 193 
 BRR  HZ EP   1    652 55.53                             152    -0.1 7   74 302 
 BRR  HZ I         652 55.79        31.8 0.17                            74 302 
 BRR  HE ES   1    653 12.41                             152     0.2 7   74 302 
 RUS  HZ EP   1    652 58.15                             145     0.4 7   96 176 
 RUS  HE ES   1    653 16.00                             145     0.0 7   96 176 
 RUS  HZ I         653 18.04         3.3 0.31                            96 176 
 GRA  SZ EP   1    652 59.63                             136    -0.4 7  130  17 
 GRA  SZ I         653 21.92         3.4 0.54                           130  17 
 CHI  HZ EP   1    653 12.22                             118     0.7 6  244 195 
 CHI  HE ES   1    653 39.73                             118    -0.8 6  244 195 
 CHI  HZ I         653 47.59         2.1 0.47                           244 195 
                                                                                
