 2016  822 0152 21.1 L   6.793 -73.170150.6  RSN 12 0.5 1.9LRSN                1
 GAP=234        1.01       4.1     5.0  6.4  0.6982E+01  0.9752E+01  0.4665E+01E
 Epicentro: LOS SANTOS - SANTANDER                                             3
 ACTION:UPD 16-10-29 15:37 OP:rebc STATUS:               ID:20160822015221 L   I
 OLDACT:REG 16-08-22 13:28 OP:ak   STATUS:               ID:20160822014734     3
 2016-08-22-0148-00M.COL___368                                                 6
 STAT SP IPHASW D HRMM SECON CODA AMPLIT PERI AZIMU VELO AIN AR TRES W  DIS CAZ7
 BAR2 EZ EP        152 41.42                             171    0.1110 22.2 183 
 BAR2 EZ ES        152 56.85                             171   -0.2010 22.2 183 
 BAR2 EZ I         152 59.08        20.3 0.36                          22.2 183 
 BRR  HZ EP        152 43.35                             154    0.6710 69.2 300 
 BRR  HN ES        152 59.93                             154    0.4310 69.2 300 
 RUS  HZ EP        152 45.03                             145   -0.2810  100 174 
 RUS  HN ES        153  3.70                             145   -0.4710  100 174 
 RUS  HZ I         153  5.48         7.2 0.28                           100 174 
 PTB  HZ EP        152 47.48                             134   -0.75 9  145 259 
 PTB  HN ES        153  9.01                             134   -0.37 9  145 259 
 PTB  HZ I         153 11.09         8.4 0.42                           145 259 
 SPBC HZ EP        152 50.35                             131    0.58 9  161 218 
 SPBC HN ES        153 12.12                             131   -0.00 9  161 218 
 SPBC HZ I         153 18.23        12.1 0.24                           161 218 
 ZAR  HZ EP   2    152 53.44                             124   -0.22 4  202 293 
 ZAR  HN ES        153 19.51                             124    0.47 9  202 293 
 ZAR  HZ I         153 26.16         6.2 0.33                           202 293 
 NOR  HZ EP   2    152 57.24                             120    0.39 4  232 234 
 NOR  HN ES        153 25.09                             120    0.38 8  232 234 
 NOR  HZ I         153 30.70         7.7 0.18                           232 234 
 CHI  HZ EP   2    152 59.24                             118    0.31 4  247 195 
 CHI  HN ES        153 28.84                             118    0.42 8  247 195 
 CHI  HZ I         153 33.04         3.8 0.21                           247 195 
 HEL  HZ EP   1    153  0.91                             116   -0.36 6  269 256 
 HEL  HE ES   4    153 34.48                             116    1.90 0  269 256 
 HEL  HZ I         153 41.03         4.0 0.54                           269 256 
 URE  HZ EP   2    153  1.88                             115   -0.30 4  282 292 
 URE  HN ES        153 33.29                             115   -0.92 7  282 292 
 URE  HZ I         153 42.40         2.8 0.17                           282 292 
 GUY2CHZ EP   2    153  4.10                             113   -0.55 4  298 235 
 GUY2CHN ES   4    153 43.40                             113    4.79 0  298 235 
 GUY2CHZ I         153 47.85         6.4 0.30                           298 235 
 PRA  HZ EP   4    153 11.10                             107   -3.47 0  390 209 
 PRA  HN ES        153 56.40                             107    0.14 6  390 209 
 PRA  HZ I         154  3.93         4.2 0.26                           390 209 
                                                                                
