 2012  122 0156 22.5 L   6.742 -73.160160.8  RSN  4 0.2 1.4LRSN                1
 GAP=137        0.58       5.4     5.3  7.8  0.6896E+01 -0.1024E+02 -0.8564E+01E
 Epicentro: VILLANUEVA - SANTANDER                                             3
 ACTION:UP  12-02-03 08:19 OP:REBC STATUS:               ID:20120122015622 L   I
 2012-01-22-0150-00M.COL___186                                                 6
 STAT SP IPHASW D HRMM SECON CODA AMPLIT PERI AZIMU VELO SNR AR TRES W  DIS CAZ7
 BRR  HZ EP   1    156 45.48                             154     0.1 7   73 304 
 BRR  HZ I         156 46.82         5.7 0.14                            73 304 
 BRR  HN ES   1    157  3.45                             154     0.2 7   73 304 
 PAM  SZ EP   1    156 46.36                             151    -0.3 7   83  38 
 RUS  HZ EP   1    156 47.76                             148     0.4 7   94 175 
 RUS  HZ I         156 48.87         2.2 0.18                            94 175 
 RUS  HN ES   1    157  6.53                             148    -0.2 7   94 175 
 PTB  HZ EP   1    156 50.36                             136    -0.1 7  145 261 
 PTB  HE ES   1    157 12.16                             136    -0.2 7  145 261 
                                                                                
