 2016  322 0432 28.0 L   6.891 -73.140139.2  RSN  4 0.2 1.2LRSN                1
 GAP=247        0.46       4.7     3.9  7.7  0.1283E+02 -0.1103E+02 -0.2129E+02E
 Epicentro: PIEDECUESTA - SANTANDER                                            3
 ACTION:UPD 16-05-13 21:26 OP:cam  STATUS:               ID:20160322043228 L   I
 OLDACT:REG 16-03-22 12:57 OP:ak   STATUS:               ID:20160322042742     3
 2016-03-22-0427-42M.COL___305                                                 6
 STAT SP IPHASW D HRMM SECON CODA AMPLIT PERI AZIMU VELO AIN AR TRES W  DIS CAZ7
 RUS  HZ EP        432 52.22                             139    0.3110  111 177 
 RUS  HN ES        433 10.35                             139   -0.1910  111 177 
 RUS  HZ I         433 11.67         2.3 0.26            136            111 177 
 PTB  HZ EP        432 54.70                             130   -0.04 9  151 255 
 PTB  HN ES        433 15.65                             130    0.07 9  151 255 
 PTB  HZ I         433 17.53         1.6 0.19            127            151 255 
 SPBC HZ EP   2    432 56.45                             126   -0.40 5  172 217 
 SPBC HN ES        433 19.32                             126   -0.01 9  172 217 
 SPBC HZ I         433 23.05         2.0 0.28            123            172 217 
 ZAR  HZ EP   2    432 59.47                             121   -0.27 4  201 289 
 ZAR  HE ES        433 24.48                             121   -0.00 9  201 289 
                                                                                
