 2012 1122 0335 49.0 L   6.794 -73.183143.0  RSN  4 0.1 1.5LRSN                1
 GAP=143        0.37       2.7     2.8  4.6 -0.2693E+01  0.3184E+01  0.1409E+01E
 Epicentro: LOS SANTOS - SANTANDER                                             3
 ACTION:UPD 12-12-05 15:35 OP:}ep  STATUS:               ID:20121122033549 L   I
 2012-11-22-0330-00M.COL___234                                                 6
 STAT SP IPHASW D HRMM SECON CODA AMPLIT PERI AZIMU VELO AIN AR TRES W  DIS CAZ7
 BAR2 SZ EP        336  8.38                             171    0.1210 22.3 180 
 BAR2 SZ I         336  8.85        10.5 0.15                          22.3 180 
 PAM  SZ EP        336 11.22                             149    0.1210 80.6  41 
 PAM  SZ I         336 11.55         8.1 0.21                          80.6  41 
 PAM  SE ES        336 28.24                             149   -0.1110 80.6  41 
 RUS  HZ EP        336 12.37                             143   -0.0710  100 174 
 RUS  HE ES   1    336 30.74                             143    0.01 7  100 174 
 RUS  HE I         336 32.12         5.9 0.25                           100 174 
 PTB  HZ EP   1    336 15.13                             132   -0.21 7  144 259 
 PTB  HN ES   1    336 35.98                             132    0.08 7  144 259 
 PTB  HZ I         336 41.32         2.5 0.41                           144 259 
                                                                                
