 2012  722 0307  0.6 L   6.740 -73.196149.6  RSN  5 0.3 1.4LRSN                1
 GAP=227        0.77       9.3     7.5  9.3  0.3268E+02  0.1704E+02 -0.2322E+01E
 Epicentro: VILLANUEVA - SANTANDER                                             3
 ACTION:UPD 12-08-14 11:46 OP:ep   STATUS:               ID:20120722030700 L   I
 2012-07-22-0300-00M.COL___215                                                 6
 STAT SP IPHASW D HRMM SECON CODA AMPLIT PERI AZIMU VELO AIN AR TRES W  DIS CAZ7
 BAR2 SZ EP   1    3 7 20.60                             174     0.0 7   16 175 
 BAR2 SZ ES   1    3 7 35.49                             174    -0.6 7   16 175 
 BAR2 SZ I         3 7 37.78         4.8 0.23            169             16 175 
 BRR  HZ EP   1    3 7 22.35                             153     0.3 7   70 305 
 BRR  HZ I         3 7 22.46         7.9 0.16            153             70 305 
 BRR  HE ES   1    3 7 39.32                             153     0.5 7   70 305 
 RUS  HN ES   2    3 7 43.12                             146     0.3 5   95 172 
 PTB  HZ EP   1    3 7 27.11                             134    -0.2 7  141 261 
 PTB  HN ES   1    3 7 48.13                             134     0.0 7  141 261 
 PTB  HZ I         3 7 51.95         2.2 0.20            133            141 261 
 ZAR  HN ES   1    3 7 58.08                             123    -0.3 6  202 294 
