 2015  122 0744  9.0 L   6.784 -73.106148.9  RSN  7 0.4 1.4LRSN                1
 GAP=142        0.97       4.6     4.7  6.6 -0.7131E+01  0.5173E+01  0.3673E+01E
 Epicentro: LOS SANTOS - SANTANDER                                             3
 ACTION:UPD 15-03-02 15:41 OP:nd   STATUS:               ID:20150122074409 L   I
 OLDACT:DUP 15-01-22 16:18 OP:carl STATUS:               ID:20150122073748d    3
 2015-01-22-0737-47M.COL___261                                                 6
 STAT SP IPHASW D HRMM SECON CODA AMPLIT PERI AZIMU VELO AIN AR TRES W  DIS CAZ7
 BAR2 EZ EP        744 29.18                             171    0.2210 22.8 202 
 BAR2 EZ ES        744 44.32                             171   -0.2310 22.8 202 
 BAR2 EZ I         744 46.89         4.5 0.22            168           22.8 202 
 BRR  HZ EP        744 31.24                             151    0.5210 75.9 298 
 BRR  HN ES        744 48.20                             151    0.5110 75.9 298 
 PAM  SZ EP        744 31.29                             152   -0.1510 76.1  36 
 PAM  SN ES        744 48.81                             152   -0.1610 76.1  36 
 PAM  SZ I         744 51.29         3.4 0.18            157           76.1  36 
 RUS  HZ EP        744 32.85                             145   -0.0410 98.6 179 
 RUS  HE ES        744 51.41                             145   -0.1310 98.6 179 
 RUS  HZ I         744 56.31         1.5 0.38            145           98.6 179 
 PTB  HZ EP        744 35.88                             132   -0.67 9  152 260 
 PTB  HN ES        744 57.40                             132   -0.66 9  152 260 
 PTB  HZ I         745  3.05         4.0 0.60            134            152 260 
 SPBC HZ EP        744 38.06                             129    0.22 9  165 221 
 SPBC HN ES        745  0.78                             129    0.42 9  165 221 
 SPBC HZ I         745  7.30         5.5 0.38            131            165 221 
 NOR  HN ES        745 13.49                             119    0.11 8  237 235 
                                                                                
