 2010 1122 0412 19.9 L   6.809 -73.070143.7  RSN  5 0.2 1.5LRSN                1
 GAP=246        0.52       4.2     8.6  7.1  0.1908E+02 -0.3456E+01  0.1603E+01E
 Epicentro: LOS SANTOS - SANTANDER                                             3
 ACTION:UP  10-12-17 16:54 OP:REBC STATUS:               ID:20101122041219 L   I
 2010-11-22-0400-00M.COL___119                                                 6
 STAT SP IPHASW D HRMM SECON CODA AMPLIT PERI AZIMU VELO SNR AR TRES W  DIS CAZ7
 BAR2 SZ EP   1    412 39.47                             169     0.1 7   27 208 
 BAR2 SZ I         412 39.78         6.2 0.05                            27 208 
 BRR  HZ IP     C  412 41.23                             150     0.010   78 295 
 BRR  HN ES   1    412 57.94                             150     0.1 7   78 295 
 BRR  HZ I         413  1.50         9.7 0.18                            78 295 
 RUS  HZ EP   1    412 43.60                             143     0.1 7  101 181 
 RUS  HN ES   1    413  1.61                             143    -0.3 7  101 181 
 RUS  HZ I         413  3.79         3.5 0.25                           101 181 
 CHI  HN ES   1    413 27.69                             116     0.3 6  252 197 
 CHI  HZ I         413 35.07         2.3 0.17                           252 197 
 HEL  HZ EP   2    413  0.42                             113    -0.5 4  280 256 
 HEL  HZ I         413 38.59         2.1 0.41                           280 256 
                                                                                
