 2010  322 0512 51.8 L   6.803 -73.019146.4  RSN  8 0.3 1.9LRSN                1
 GAP=196        0.53       2.9     6.1  4.9  0.1983E+01  0.1964E+01 -0.3608E+00E
 Epicentro: CEPITA - SANTANDER                                                 3
 ACTION:UP  10-08-24 09:55 OP:vdl  STATUS:               ID:20100322051251 L   I
 2010-03-22-0508-54S.COL___098                                                 6
 STAT SP IPHASW D HRMM SECON CODA AMPLIT PERI AZIMU VELO SNR AR TRES W  DIS CAZ7
 BAR2 SZ EP   1    513 11.67                             168     0.0 7   30 218 
 BAR2 SZ ES   1    513 26.76                             168    -0.4 7   30 218 
 BRR  HZ EP        513 13.57                             149    -0.210   84 294 
 BRR  HE ES   1    513 31.02                             149     0.1 7   84 294 
 BRR  HZ I         513 35.14        16.0 0.17                            84 294 
 RUS  HZ EP   1    513 15.77                             144     0.1 7  101 184 
 RUS  HN ES   1    513 34.53                             144     0.3 7  101 184 
 RUS  HZ I         513 35.49        10.7 0.47                           101 184 
 OCA  SZ EP   1    513 20.50                             129     0.2 7  162 348 
 OCA  SZ ES   2    513 42.65                             129     0.1 5  162 348 
 CHI  HZ EP   2    513 29.71                             117    -0.3 4  253 198 
 CHI  HE ES   2    513 59.27                             117    -0.5 4  253 198 
 CHI  HZ I         514  4.29         3.4 0.48                           253 198 
 HEL  HZ EP   2    513 33.56                             114     0.0 4  286 256 
 HEL  HN ES   3    514  5.70                             114    -0.4 2  286 256 
 HEL  HZ I         514  9.60         4.2 0.33                           286 256 
 RREF BN ES   2    514 17.03                             110     0.8 3  333 231 
 RREF BZ I         514 23.16         3.9 0.24                           333 231 
 PRA  HN ES   2    514 28.22                             106    -0.4 3  399 211 
                                                                                
