 2015  622 0326 20.6 L   6.773 -73.097146.0  RSN  4 0.2 1.4LRSN                1
 GAP=144        0.59       3.3     4.9  6.3 -0.2328E+00 -0.2008E+01  0.4893E+01E
 Epicentro: LOS SANTOS - SANTANDER                                             3
 ACTION:UPD 15-09-10 22:14 OP:cam  STATUS:               ID:20150622032620 L   I
 OLDACT:UP  15-06-22 15:23 OP:mh   STATUS:               ID:20150622031749     3
 OLDACT:REG 15-06-22 13:02 OP:mh   STATUS:               ID:20150622031749     3
 2015-06-22-0317-49M.COL___322                                                 6
 STAT SP IPHASW D HRMM SECON CODA AMPLIT PERI AZIMU VELO AIN AR TRES W  DIS CAZ7
 BAR2 EZ EP   1    326 39.85                             171   -0.37 7 22.1 205 
 BAR2 EZ I         326 57.33        10.1 0.09             61           22.1 205 
 PAM  SZ EP   1    326 43.27                             151    0.49 7 76.5  35 
 PAM  SN ES        326 59.95                             151   -0.1410 76.5  35 
 PAM  SZ I         327  2.14         5.4 0.52             61           76.5  35 
 BRR  HZ EP   1    326 42.22                             151    0.09 7 77.4 299 
 BRR  HN ES        326 58.92                             151   -0.0010 77.4 299 
 BRR  HZ I         327 47.06         2.8 0.41             60           77.4 299 
 RUS  HZ EP        326 43.98                             145   -0.1510 97.3 179 
 RUS  HN ES        327  2.67                             145    0.1810 97.3 179 
 RUS  HZ I         327  2.93         4.1 0.20             61           97.3 179 
                                                                                
