 2017  122 0032 14.5 L   6.778 -73.130145.4  RSN 10 0.5 1.7LRSN                1
 GAP=121        1.10       4.4     4.2  6.5  0.3105E+01  0.3805E+01  0.1080E+02E
 Epicentro: LOS SANTOS - SANTANDER                                             3
 ACTION:UPD 17-05-22 16:02 OP:jn   STATUS:               ID:20170122003214 L   I
 OLDACT:UP  17-01-22 13:37 OP:dani STATUS:               ID:20170122002743     3
 OLDACT:UP  17-01-22 13:36 OP:dani STATUS:               ID:20170122002743     3
 OLDACT:REG 17-01-22 12:29 OP:dani STATUS:               ID:20170122002743     3
 2017-01-22-0028-00M.COL___343                                                 6
 STAT SP IPHASW D HRMM SECON CODA AMPLIT PERI AZIMU VELO AIN AR TRES W  DIS CAZ7
 BAR2 EZ EP        032 33.96                             171   -0.0810 21.4 196 
 BAR2 EZ ES        032 49.39                             171    0.1010 21.4 196 
 BAR2 EZ I         032 51.97        19.6 0.30            170           21.4 196 
 BRR  HZ EP        032 36.10                             152    0.3410 73.9 300 
 BRR  HE ES        032 51.53                             152   -0.8210 73.9 300 
 BRR  HZ I         032 55.91        13.4 0.41            153           73.9 300 
 PAM  EZ EP        032 36.91                             150    0.1910 78.2  37 
 PAM  EE ES        032 54.22                             150    0.1710 78.2  37 
 PAM  EZ I         032 58.78         5.9 0.26            155           78.2  37 
 RUS  HZ EP        032 38.03                             144   -0.0010 98.1 177 
 RUS  HN ES        032 56.99                             144    0.6010 98.1 177 
 RUS  HZ I         032 59.58         5.7 0.33            146           98.1 177 
 PTB  HZ EP        032 41.40                             132   -0.15 9  149 260 
 PTB  HN ES        033  2.11                             132   -0.54 9  149 260 
 PTB  HZ I         033  9.50         9.1 0.35            134            149 260 
 ZAR  HN ES        033 12.97                             122    0.30 8  207 293 
 NOR  HZ EP        032 50.60                             118    0.39 8  235 235 
 NOR  HN ES        033 18.29                             118    0.22 8  235 235 
 NOR  HZ I         033 22.78         6.4 0.34            121            235 235 
 CHI  HZ EP        032 52.48                             117    0.51 8  247 196 
 CHI  HN ES   3    033 23.17                             117    1.96 2  247 196 
 CHI  HZ I         033 24.32         2.2 0.32            120            247 196 
 PTGC HZ EP        032 57.10                             112   -0.91 7  306 159 
 PTGC HN ES        033 31.05                             112   -0.90 7  306 159 
 SJC  HZ EP   9    033  8.37                             105   -2.02 0  412 327 
 SJC  HN ES        033 51.37                             106   -0.60 6  412 327 
                                                                                
