 2015  922 0006 54.7 L   6.827 -73.081145.8  RSN  4 0.4 1.7LRSN                1
 GAP=269        0.93       7.5     7.8  9.0  0.1204E+02  0.2996E+02  0.1464E+02E
 Epicentro: LOS SANTOS - SANTANDER                                             3
 ACTION:UPD 15-10-28 16:27 OP:cam  STATUS:               ID:20150922000654 L   I
 OLDACT:REG 15-09-22 14:00 OP:mh   STATUS:               ID:20150922000005     3
 2015-09-22-0000-05M.COL___355                                                 6
 STAT SP IPHASW D HRMM SECON CODA AMPLIT PERI AZIMU VELO AIN AR TRES W  DIS CAZ7
 BAR2 EZ EP   1    0 7 14.82                             168    0.38 7 28.3 203 
 BAR2 EZ ES        0 7 29.36                             168   -0.4810 28.3 203 
 BAR2 EZ I         0 7 31.89         8.0 0.24            163           28.3 203 
 BRR  HZ EP        0 7 16.08                             151   -0.0710 76.3 294 
 BRR  HN ES        0 7 33.46                             151    0.5910 76.3 294 
 BRR  HZ I         0 7 34.53        10.3 0.27            148           76.3 294 
 ZAR  HN ES        0 7 52.98                             122   -0.49 8  210 291 
 ZAR  HZ I         0 7 57.93         4.4 0.28            121            210 291 
 NOR  HZ EP   1    0 7 31.24                             118   -0.00 6  242 235 
 NOR  HN ES        0 7 59.89                             118    0.15 8  242 235 
 NOR  HZ I         0 8  5.42         3.1 0.26            117            242 235 
                                                                                
