 2012  622 0026 54.2 L   6.772 -73.128143.4  RSN  5 0.3 1.5LRSN                1
 GAP=140        0.51       3.6     4.3  5.6 -0.2132E+01 -0.3842E+01  0.1007E+00E
 Epicentro: LOS SANTOS - SANTANDER                                             3
 ACTION:UPD 12-08-06 17:51 OP:ep   STATUS:               ID:20120622002654 L   I
 2012-06-22-0020-00M.COL___193                                                 6
 STAT SP IPHASW D HRMM SECON CODA AMPLIT PERI AZIMU VELO AIN AR TRES W  DIS CAZ7
 BAR2 SZ EP   2    027 13.69                             171    0.18 5 20.8 197 
 BAR2 SZ ES   1    027 28.30                             171   -0.27 7 20.8 197 
 BAR2 SZ I         027 32.51         8.5 0.42                          20.8 197 
 BRR  HZ EP   2    027 15.26                             151   -0.04 5 74.4 300 
 BRR  HZ I         027 18.73         9.6 0.32                          74.4 300 
 BRR  HN ES   1    027 32.13                             151    0.39 7 74.4 300 
 PAM  SZ EP        027 16.29                             150    0.0310 78.6  37 
 PAM  SZ I         027 16.59         6.1 0.44                          78.6  37 
 PAM  SE ES   1    027 33.29                             150   -0.16 7 78.6  37 
 RUS  HZ EP   1    027 17.43                             144   -0.08 7 97.4 177 
 RUS  HE ES   1    027 35.90                             144    0.23 7 97.4 177 
 RUS  HZ I         027 38.69         2.6 0.48                          97.4 177 
 PTB  HN ES   2    027 41.46                             131   -0.64 5  149 260 
 PTB  HZ I         027 47.26         3.2 0.22                           149 260 
                                                                                
