 2010 1022 0952 47.9 L   6.817 -73.133142.9  RSN 10 0.4 2.5LRSN                1
 GAP=217        0.70       4.4     4.7  5.6  0.3642E+01  0.5695E+01  0.8381E+01E
 Epicentro: LOS SANTOS - SANTANDER                                             3
 ACTION:UP  11-02-18 11:11 OP:tino STATUS:               ID:20101022095247 L   I
 2010-10-22-0940-00M.COL___115                                                 6
 STAT SP IPHASW D HRMM SECON CODA AMPLIT PERI AZIMU VELO SNR AR TRES W  DIS CAZ7
 BAR2 SZ EP   1    953  7.02                             170    -0.2 8   26 193 
 BAR2 SZ ES   1    953 22.20                             170    -0.1 8   26 193 
 BAR2 SZ I         953 24.04        64.9 0.22                            26 193 
 BRR  HZ EP   1    953  8.75                             152     0.0 8   72 297 
 BRR  HE ES   1    953 25.59                             152     0.6 8   72 297 
 BRR  HZ I         953 26.71        89.4 0.12                            72 297 
 RUS  HZ EP        953 11.32                             143    -0.210  102 177 
 RUS  HN ES   1    953 29.50                             143    -0.4 7  102 177 
 RUS  HZ I         953 32.05        40.4 0.33                           102 177 
 YOP  SZ EP   1    953 18.08                             125     0.2 7  180 154 
 YOP  SE ES   2    953 41.96                             125     0.8 4  180 154 
 NOR  SZ EP   1    953 23.41                             118    -0.3 6  237 234 
 NOR  SN ES        953 51.27                             118    -0.4 8  237 234 
 CHI  HZ EP   1    953 25.78                             116     0.1 6  251 195 
 CHI  HZ I         953 27.63        15.0 0.28                           251 195 
 CHI  HN ES   1    953 55.15                             116     0.0 6  251 195 
 ROSC BE ES   2    953 56.73                             116     0.8 4  255 211 
 ROSC BZ I         954  2.04        18.1 0.25                           255 211 
 HEL  HZ EP   1    953 28.49                             114     0.3 6  274 255 
 HEL  HZ I         954  6.79        23.2 0.26                           274 255 
 RREF HZ EP   2    953 34.47                             110     0.3 3  324 229 
 RREF HZ I         954 16.60        14.7 0.59                           324 229 
 PRA  HZ EP   1    953 41.55                             106     0.0 4  394 210 
 PRA  HE ES   2    954 23.95                             106     0.5 3  394 210 
                                                                                
