 2013  122 0113 38.5 L   6.805 -73.149147.3  RSN 24 0.6 3.2LRSN 3.5WRSN        1
 SPEC AVERAGE  MO 14.3 ST 31.2 OM  2.5 f0 4.02 R0.3957 AL 2.25 WI 29.8 MW  3.5 3
 SPEC SD       MO  0.2 ST 42.5 OM  0.5 f0 1.21 R0.1069 AL      WI      MW  0.2 3
 GAP= 71        1.23       3.1     3.4  5.2 -0.9653E+00  0.4305E+01  0.2703E+01E
 Epicentro: LOS SANTOS - SANTANDER                                             3
 SPEC ANILHH N MO 14.5 ST 59.6 OM  2.5 f0 5.33 R0.2758 AL 2.83 WI 38.7 MW  3.6 3
 SPEC ANILHH N T 115 6 K 0.000 GD  386 VS 4.20 DE 3.00 Q0230.0 QA 0.60 VS 4.20 3
 SPEC DBB SH Z MO 14.2 ST  3.7 OM  1.5 f0 2.54 R0.5787 AL 1.38 WI 33.4 MW  3.4 3
 SPEC DBB SH Z T 11425 K 0.000 GD  369 VP 7.60 DE 3.00 Q0230.0 QA 0.60 VS 4.20 3
 SPEC HEL HH N MO 14.2 ST  6.6 OM  2.3 f0 3.22 R0.4565 AL 1.85 WI 56.0 MW  3.4 3
 SPEC HEL HH N T 11447 K 0.000 GD  309 VS 4.20 DE 3.00 Q0230.0 QA 0.60 VS 4.20 3
 SPEC ROSCBH Z MO 14.3 ST 15.7 OM  1.7 f0 3.83 R0.3838 AL 2.80 WI 27.6 MW  3.5 3
 SPEC ROSCBH Z T 11418 K 0.000 GD  292 VP 7.60 DE 3.00 Q0230.0 QA 0.60 VS 4.20 3
 SPEC CHI HH E MO 14.1 ST  6.3 OM  2.3 f0 3.24 R0.4537 AL 2.46 WI 30.2 MW  3.4 3
 SPEC CHI HH E T 11445 K 0.000 GD  289 VS 4.20 DE 3.00 Q0230.0 QA 0.60 VS 4.20 3
 SPEC OCA HH E MO 14.6 ST 52.5 OM  2.9 f0 4.55 R0.3231 AL 2.07 WI 33.6 MW  3.7 3
 SPEC OCA HH E T 11428 K 0.000 GD  217 VS 4.20 DE 3.00 Q0230.0 QA 0.60 VS 4.20 3
 SPEC PTB HH N MO 14.3 ST  4.8 OM  2.6 f0 2.61 R0.5632 AL 0.96 WI 41.1 MW  3.5 3
 SPEC PTB HH N T 11425 K 0.000 GD  208 VS 4.20 DE 3.00 Q0230.0 QA 0.60 VS 4.20 3
 SPEC RUS HH N MO 13.9 ST  5.9 OM  2.3 f0 3.71 R0.3962 AL 2.49 WI 11.9 MW  3.2 3
 SPEC RUS HH N T 11420 K 0.000 GD  178 VS 4.20 DE 3.00 Q0230.0 QA 0.60 VS 4.20 3
 SPEC PAM SH Z MO 13.9 ST  7.1 OM  1.5 f0 4.14 R0.3551 AL 1.82 WI 17.2 MW  3.2 3
 SPEC PAM SH Z T 114 1 K 0.000 GD  166 VP 7.60 DE 3.00 Q0230.0 QA 0.60 VS 4.20 3
 SPEC BRR HH E MO 14.5 ST 29.7 OM  2.9 f0 4.14 R0.3551 AL 3.36 WI 23.6 MW  3.6 3
 SPEC BRR HH E T 11417 K 0.000 GD  163 VS 4.20 DE 3.00 Q0230.0 QA 0.60 VS 4.20 3
 SPEC BAR2SH Z MO 14.5 ST151.7 OM  2.2 f0 6.95 R0.2115 AL 2.73 WI 14.2 MW  3.6 3
 SPEC BAR2SH Z T 11358 K 0.000 GD  149 VP 7.60 DE 3.00 Q0230.0 QA 0.60 VS 4.20 3
 ACTION:UPD 13-02-15 09:15 OP:ep   STATUS:               ID:20130122011338 L   I
 2013-01-22-0108-44M.COL___181                                                 6
 STAT SP IPHASW D HRMM SECON CODA AMPLIT PERI AZIMU VELO AIN AR TRES W  DIS CAZ7
 BAR2 SZ IP        113 58.43                             171    0.1510 23.8 189 
 BAR2 SZ ES        114 13.74                             171    0.0010 23.8 189 
 BAR2 SZ I         114 14.92       652.1 0.14            166           23.8 189 
 BRR  HZ IP     C  114  0.27                             153    0.5310 70.7 298 
 BRR  HN ES        114 17.29                             153    0.9410 70.7 298 
 BRR  HE I         114 18.21       657.5 0.24            145           70.7 298 
 PAM  SZ EP     C  114  1.24                             151    0.4210 77.2  40 
 PAM  SN ES        114 18.21                             151   -0.0610 77.2  40 
 PAM  SE I         114 19.89       148.1 0.70            147           77.2  40 
 RUS  HZ IP     D  114  2.27                             144   -0.1310  101 176 
 RUS  HN ES        114 20.64                             144   -0.4310  101 176 
 RUS  HN I         114 22.80       217.2 0.24            136            101 176 
 PTB  HZ EP        114  4.93                             132   -0.60 9  148 259 
 PTB  HN ES        114 25.77                             132   -0.88 9  148 259 
 PTB  HN I         114 31.63       285.2 0.62            123            148 259 
 TAM  HZ IP     D  114  6.64                             131    0.34 9  156 105 
 TAM  HZ I         114  6.80       131.0 0.34            124            156 105 
 TAM  HN ES        114 28.09                             131    0.08 9  156 105 
 OCA  HZ EP        114  7.03                             130    0.20 9  160 353 
 OCA  HN ES        114 28.46                             130   -0.51 9  160 353 
 OCA  HE I         114 34.28       333.9 0.20            123            160 353 
 ZAR  HZ EP        114 10.69                             123   -0.26 9  204 292 
 ZAR  HE ES        114 36.25                             123   -0.05 9  204 292 
 CHI  HZ EP     D  114 16.36                             117    0.08 8  249 195 
 CHI  HN ES        114 44.98                             117   -0.81 8  249 195 
 CHI  HE I         114 49.07        97.0 0.30            110            249 195 
 ROSC BZ EP   1    114 18.31                             117    1.62 6  253 211 
 ROSC BE ES        114 46.53                             117    0.02 8  253 211 
 ROSC BZ I         114 52.56        88.3 0.40            110            253 211 
 HEL  HZ EP        114 19.64                             115    0.91 8  272 256 
 HEL  HN ES        114 51.00                             115    0.86 8  272 256 
 HEL  HN I         114 57.14        48.2 0.34            108            272 256 
 HEL  HN E         114 57.26                                            272 256 
 URE  HZ EP        114 18.27                             114   -1.27 7  283 292 
 VIL  SZ EP        114 22.07                             112    0.08 7  304 191 
 VIL  SN ES        114 55.00                             112   -0.95 7  304 191 
 RREF HZ EP        114 25.15                             111    0.48 7  322 229 
 RREF HZ ES        115  0.48                             111   -0.25 7  322 229 
 DBB  SZ EP        114 25.84                             110   -0.11 7  339 274 
 DBB  SZ I         115  6.19        46.9 0.54            103            339 274 
 TOL  SZ EP        114 27.29                             110    0.50 7  344 225 
 TOL  SZ I         115 12.05        20.9 0.55            103            344 225 
 ANIL HZ EP        114 28.51                             109    0.17 6  357 224 
 ANIL HN ES        115  7.72                             109    0.48 6  357 224 
 ANIL HN I         115 15.33       127.4 0.36            102            357 224 
 SDV  BZ EP        114 27.79                             108   -0.75 6  360  50 
 SJA  SZ EP   3    114 35.20                             106    2.09 1  401 193 
 SJA  SZ I         115 23.64        59.9 0.28            101            401 193 
 PAL  HZ EP        114 33.90                             106    0.24 6  406 239 
 SJC  HN EP   3    114 32.57                             106   -1.43 1  409 327 
 YOT  HZ EP        114 40.79                             103   -0.76 5  472 229 
 SMAR HZ EP        114 43.46                             103   -0.84 4  496 346 
 POP2 HZ EP        114 58.58                             100    0.06 3  613 220 
                                                                                
