 2015  122 0214 48.5 L   6.786 -73.160146.5  RSN  9 0.2 1.7LRSN                1
 GAP=135        0.61       2.0     2.5  3.6  0.2409E+00  0.2656E+01  0.9187E+00E
 Epicentro: LOS SANTOS - SANTANDER                                             3
 ACTION:UPD 15-03-02 15:41 OP:nd   STATUS:               ID:20150122021448 L   I
 OLDACT:DUP 15-01-22 14:37 OP:carl STATUS:               ID:20150122020749d    3
 2015-01-22-0207-47M.COL___265                                                 6
 STAT SP IPHASW D HRMM SECON CODA AMPLIT PERI AZIMU VELO AIN AR TRES W  DIS CAZ7
 BAR2 EZ EP        215  8.24                             171    0.0510 21.5 187 
 BAR2 EZ ES        215 23.45                             171   -0.0910 21.5 187 
 BAR2 EZ I         215 25.96         7.4 0.44            170           21.5 187 
 BRR  HZ EP        215  9.79                             153    0.0910 70.6 300 
 BRR  HN ES        215 26.53                             153    0.3010 70.6 300 
 BRR  HZ I         215 28.12        16.8 0.34            153           70.6 300 
 PAM  SZ EP        215 10.98                             150    0.0510 79.6  40 
 PAM  SN ES        215 28.22                             150   -0.2010 79.6  40 
 PAM  SZ I         215 30.41         7.2 0.56            154           79.6  40 
 RUS  HZ EP        215 12.22                             144   -0.0010 99.1 175 
 RUS  HE ES        215 30.96                             144    0.2410 99.1 175 
 RUS  HZ I         215 33.62         4.6 0.34            145           99.1 175 
 PTB  HZ EP        215 15.08                             133   -0.29 9  146 259 
 PTB  HN ES        215 35.96                             133   -0.36 9  146 259 
 PTB  HZ I         215 38.42         8.2 0.18            133            146 259 
 ZAR  HZ EP        215 21.39                             123    0.48 9  203 293 
 ZAR  HN ES        215 46.37                             123    0.18 9  203 293 
 ZAR  HZ I         215 52.65         5.8 0.26            124            203 293 
 NOR  HZ EP        215 23.83                             119   -0.21 8  232 235 
 NOR  HN ES        215 51.87                             119    0.11 8  232 235 
 NOR  HZ I         215 55.92         4.1 0.16            120            232 235 
 SML  HN ES        215 53.57                             117   -0.35 8  244 336 
 CHI  HZ EP        215 26.26                             117    0.22 8  247 195 
 CHI  HN ES        215 54.97                             117   -0.34 8  247 195 
 CHI  HZ I         215 59.61         1.6 0.46            119            247 195 
                                                                                
