 2016  322 0452  1.2 L   6.875 -73.310125.6  RSN 18 0.5 2.0LRSN                1
 GAP= 50        1.13       2.7     2.9  6.0 -0.1065E+01  0.6595E+01 -0.2527E+01E
 Epicentro: BETULIA - SANTANDER                                                3
 ACTION:UPD 16-05-13 21:26 OP:cam  STATUS:               ID:20160322045201 L   I
 OLDACT:REG 16-03-22 12:59 OP:ak   STATUS:               ID:20160322044746     3
 2016-03-22-0447-46M.COL___305                                                 6
 STAT SP IPHASW D HRMM SECON CODA AMPLIT PERI AZIMU VELO AIN AR TRES W  DIS CAZ7
 BAR2 EZ EP        452 19.04                             164    0.3610 34.3 156 
 BAR2 EZ ES        452 32.01                             164   -0.3410 34.3 156 
 PAM  EZ EP        452 22.42                             144    0.6410 84.8  53 
 PAM  EN ES        452 38.42                             144    0.5510 84.8  53 
 PAM  EZ I         452 40.86        20.3 0.24            148           84.8  53 
 RUS  HZ EP        452 24.09                             136    0.2110  111 167 
 RUS  HE ES        452 41.31                             136   -0.2910  111 167 
 RUS  HZ I         452 42.69         6.4 0.26            140            111 167 
 PTB  HZ EP        452 24.30                             130   -0.7610  132 254 
 PTB  HN ES   4    452 41.79                             130   -1.91 0  132 254 
 PTB  HZ I         452 46.28        25.5 0.32            131            132 254 
 OCA  HZ EP        452 27.04                             126   -0.01 9  151 360 
 OCA  HN ES        452 47.12                             126   -0.12 9  151 360 
 OCA  HZ I         452 51.51        45.6 0.10            129            151 360 
 SPBC HZ EP        452 27.91                             125    0.11 9  159 212 
 SPBC HN ES        452 47.97                             125   -0.61 9  159 212 
 SPBC HZ I         452 51.35        19.1 0.06            127            159 212 
 TAM  HZ EP        452 29.88                             122    0.56 9  175 106 
 TAM  HN ES        452 50.64                             122   -0.65 9  175 106 
 TAM  HZ I         452 52.42         7.2 0.18            126            175 106 
 ZAR  HZ EP        452 30.86                             120    0.62 9  184 292 
 ZAR  HE ES        452 53.48                             120    0.56 9  184 292 
 ZAR  HZ I         452 59.46        18.4 0.38            122            184 292 
 CHI  HZ EP        452 38.89                             112    0.62 8  253 191 
 CHI  HN ES        453  6.72                             112   -0.49 8  253 191 
 CHI  HZ I         453 13.86         2.9 0.44            115            253 191 
 HEL  HZ EP   2    452 39.54                             112    0.86 4  257 253 
 HEL  HE ES        453  7.94                             112   -0.00 8  257 253 
 HEL  HZ I         453 11.67         6.1 0.44            113            257 253 
 URE  HZ EP        452 39.52                             111    0.48 8  264 292 
 URE  HN ES   4    453  6.86                             111   -1.73 0  264 292 
 URE  HZ I         453 18.78         8.1 0.16            113            264 292 
 GUY2CHZ EP   4    452 44.28                             109    1.48 0  292 231 
 GUY2CHE ES        453 15.15                             109   -0.13 7  292 231 
 GUY2CHZ I         453 22.63         6.0 0.46                           292 231 
 SOCV BZ EP        452 43.84                             107   -0.82 7  312  60 
 SOCV BE ES   4    453 15.58                             107   -3.01 0  312  60 
 CBOC HZ EP   2    452 46.43                             107    0.81 3  319 250 
 CBOC HN ES        453 20.14                             107   -0.15 7  319 250 
 CBOC HZ I         453 23.66         3.2 0.24            109            319 250 
 MON  HZ EP   2    452 46.59                             106   -0.58 3  334 309 
 MON  HN ES        453 22.24                             106   -0.83 7  334 309 
 MON  HZ I         453 24.48         4.0 0.26            107            334 309 
 SJC  HZ EP        452 53.47                             103   -0.67 6  393 329 
 SJC  HN ES   4    453 33.30                             103   -2.16 0  393 329 
 SJC  HZ I         453 37.88         2.8 0.30            104            393 329 
 PAL  HZ EP        452 54.93                             103    0.53 6  395 237 
 PAL  HE ES   4    453 32.44                             103   -3.49 0  395 237 
 PAL  HZ I         453 38.26         2.9 0.24            104            395 237 
 CRJC HZ EP        453  1.24                             100   -1.11 5  461   6 
 CRJC HN ES        453 49.82                             100   -0.26 5  461   6 
                                                                                
