 2016  822 0142 19.5 L   6.815 -73.128147.1  RSN 21 0.5 2.3LRSN                1
 GAP= 61        1.01       3.0     2.6  4.3 -0.1484E+01  0.2518E+01  0.1028E+01E
 Epicentro: LOS SANTOS - SANTANDER                                             3
 ACTION:UPD 16-10-29 15:37 OP:rebc STATUS:               ID:20160822014219 L   I
 OLDACT:REG 16-08-22 13:27 OP:ak   STATUS:               ID:20160822013737     3
 2016-08-22-0138-00M.COL___368                                                 6
 STAT SP IPHASW D HRMM SECON CODA AMPLIT PERI AZIMU VELO AIN AR TRES W  DIS CAZ7
 BAR2 EZ EP        142 39.30                             170    0.0010 25.4 194 
 BAR2 EZ ES        142 54.79                             170    0.0210 25.4 194 
 BAR2 EZ I         142 55.75        48.8 0.08                          25.4 194 
 BRR  HZ EP        142 41.08                             152    0.2710 72.2 297 
 BRR  HN ES        142 58.07                             152    0.6010 72.2 297 
 BRR  HZ I         143  0.65        15.2 0.16                          72.2 297 
 PAM  EZ EP        142 42.00                             152    0.3310 74.8  39 
 PAM  EN ES        142 59.17                             152    0.1810 74.8  39 
 PAM  EZ I         143  1.23        31.2 0.50                          74.8  39 
 RUS  HZ EP        142 43.27                             144   -0.1910  102 177 
 RUS  HN ES        143  2.06                             144   -0.1110  102 177 
 RUS  HZ I         143  3.11        21.5 0.30                           102 177 
 PTB  HZ EP        142 45.94                             132   -0.80 9  150 258 
 PTB  HN ES        143  7.06                             132   -0.97 9  150 258 
 PTB  HZ I         143  9.01        16.3 0.14                           150 258 
 TAM  HZ EP        142 47.53                             131    0.42 9  154 106 
 TAM  HZ I         143  7.76        13.8 0.50                           154 106 
 TAM  HN ES        143  8.65                             131   -0.02 9  154 106 
 SPBC HZ EP        142 48.16                             129   -0.14 9  166 219 
 SPBC HN ES        143 10.71                             129   -0.09 9  166 219 
 SPBC HZ I         143 12.97        40.1 0.26                           166 219 
 ZAR  HZ EP        142 52.43                             122    0.31 8  205 292 
 ZAR  HN ES        143 17.27                             122   -0.32 8  205 292 
 ZAR  HZ I         143 24.07        14.5 0.27                           205 292 
 NOR  HZ EP   2    142 55.89                             118    0.34 4  237 234 
 NOR  HN ES        143 23.51                             118   -0.18 8  237 234 
 NOR  HZ I         143 28.72        21.3 0.08                           237 234 
 CHI  HZ EP        142 57.11                             117   -0.36 8  251 196 
 CHI  HN ES        143 26.77                             117   -0.34 8  251 196 
 CHI  HZ I         143 30.95         9.3 0.26                           251 196 
 ROSC BZ EP   2    142 58.66                             117    0.74 4  255 211 
 ROSC BN ES   4    143 30.34                             117    2.42 0  255 211 
 ROSC BZ I         143 35.34        16.0 0.45                           255 211 
 HEL  HZ EP        143  0.65                             115    0.65 8  274 256 
 HEL  HN ES        143 32.15                             115    0.53 8  274 256 
 HEL  HZ I         143 39.20        13.0 0.42                           274 256 
 URE  HZ EP   2    143  0.21                             114   -0.52 4  285 291 
 URE  HN ES   4    143 30.69                             114   -2.24 0  285 291 
 URE  HZ I         143 39.92         7.5 0.28                           285 291 
 SOCV BZ EP        143  1.68                             113   -0.60 7  299  57 
 SOCV BE ES   4    143 33.90                             113   -1.78 0  299  57 
 GUY2CHZ EP        143  4.30                             112    0.88 7  304 235 
 GUY2CHN ES        143 38.31                             112    0.60 7  304 235 
 GUY2CHZ I         143 45.77        13.8 0.32                           304 235 
 PTGC HZ EP   9    143  2.36                             112   -1.11 0  310 159 
 PTGC HN ES        143 36.26                                   -0.43 7  310 159 
 PTGC HZ I         143 38.58        10.9 0.28                           310 159 
 LL6C HZ EP        143  4.20                             111   -0.84 7  323 357 
 LL6C HE ES   4    143 38.38                             111   -2.21 0  323 357 
 CBOC HZ EP        143  7.26                             110    0.55 7  336 252 
 CBOC HN ES        143 43.47                             110   -0.09 7  336 252 
 CBOC HZ I         143 49.83         3.7 0.59                           336 252 
 ANIL HZ EP        143  9.96                             109    0.34 6  360 225 
 ANIL HN ES   4    143 50.48                             109    1.74 0  360 225 
 ANIL HZ I         143 57.54        20.2 0.22                           360 225 
 PRA  HZ EP        143 12.79                             107   -0.52 6  394 210 
 PRA  HN ES        143 55.61                             107    0.29 6  394 210 
 PRA  HZ I         144  1.87         9.4 0.12                           394 210 
 PAL  HZ EP        143 15.12                             106    0.15 6  408 239 
 PAL  HN ES        143 57.35                             106   -0.91 6  408 239 
 PAL  HZ I         144  4.01         4.2 0.57                           408 239 
                                                                                
