 2010  122 0028 23.4 L   6.785 -72.959152.1  RSN  9 0.4 2.5LRSN                1
 GAP=202        0.85       3.3     8.0  5.7 -0.5983E+01  0.1958E+02  0.1206E+01E
 Epicentro: CEPITA - SANTANDER                                                 3
 ACTION:UP  10-08-24 09:45 OP:vdl  STATUS:               ID:20100122002823 L   I
 2010-01-22-0026-43S.COL___095                                                 6
 STAT SP IPHASW D HRMM SECON CODA AMPLIT PERI AZIMU VELO SNR AR TRES W  DIS CAZ7
 BAR2 SZ EP        028 43.82                             167    -0.110   33 229 
 BAR2 SZ ES   1    028 59.80                             167    -0.2 7   33 229 
 GIR2 SZ EP   1    028 44.01                             164    -0.1 7   42 321 
 GIR2 SZ ES   1    029  0.16                             164    -0.1 7   42 321 
 RUS  BZ EP        028 47.68                             145     0.010  100 188 
 RUS  BE ES        029  6.62                             145     0.010  100 188 
 RUS  BZ I         029  7.76        27.4 0.55                           100 188 
 OCA  SZ EP        028 52.61                             130    -0.1 9  166 346 
 OCA  SZ ES   1    029 16.11                             130     0.6 7  166 346 
 CHI  HZ EP        029  1.70                             118    -0.2 8  253 200 
 CHI  HN ES        029 32.69                             118     0.7 8  253 200 
 CHI  HZ I         029 39.10        17.3 0.60                           253 200 
 HEL  HZ EP        029  5.64                             114    -0.4 7  292 257 
 HEL  HE ES   2    029 38.95                             114    -0.4 4  292 257 
 RREF BZ EP        029 11.89                             111     0.4 7  337 232 
 RREF BN ES   1    029 49.28                             111     0.3 5  337 232 
 RREF BZ I         029 52.35        26.5 0.18                           337 232 
 TOL  SZ EP        029 14.27                             109     0.8 6  357 227 
 PRA  HZ EP        029 17.43                             107    -0.7 6  401 212 
 PRA  HE ES        030  0.28                             107    -0.6 6  401 212 
                                                                                
