 2017  122 0459 24.8 L   6.611 -73.431121.7  RSN 18 0.5 2.3LRSN                1
 GAP= 73        0.85       2.6     2.4  4.1  0.1765E+00  0.3334E+01  0.1627E+01E
 Epicentro: EL CARMEN - SANTANDER                                              3
 ACTION:UPD 17-05-22 16:02 OP:jn   STATUS:               ID:20170122045924 L   I
 OLDACT:UP  17-01-22 15:50 OP:dani STATUS:               ID:20170122045650     3
 OLDACT:UP  17-01-22 15:50 OP:dani STATUS:               ID:20170122045650     3
 OLDACT:UP  17-01-22 15:49 OP:dani STATUS:               ID:20170122045650     3
 OLDACT:REG 17-01-22 12:55 OP:dani STATUS:               ID:20170122045650     3
 2017-01-22-0457-00M.COL___343                                                 6
 STAT SP IPHASW D HRMM SECON CODA AMPLIT PERI AZIMU VELO AIN AR TRES W  DIS CAZ7
 BAR2 EZ EP     D  459 41.49                             166   -0.1210 27.6  94 
 BAR2 EZ ES        459 54.41                             166   -0.3410 27.6  94 
 BAR2 EZ I         459 56.49        53.3 0.26            169           27.6  94 
 BRR  HZ EP        459 42.99                             150    0.1410 63.0 330 
 BRR  HN ES        459 57.18                             150    0.2310 63.0 330 
 BRR  HZ I         459 58.07        56.6 0.14            151           63.0 330 
 RUS  HZ EP        459 44.70                             142   -0.5710 88.3 154 
 RUS  HN ES        5 0  0.89                             142   -0.3710 88.3 154 
 RUS  HZ I         5 0  3.22        28.6 0.20            143           88.3 154 
 PAM  EZ EP        459 47.56                             134    0.2010  114  45 
 PAM  EE ES        5 0  5.22                             134    0.2310  114  45 
 PAM  EZ I         5 0  6.94        23.8 0.18            136            114  45 
 PTB  HZ EP   9    459 45.33                             133   -1.35 0  114 266 
 PTB  HN ES        5 0  1.99                             133   -0.4410  114 266 
 PTB  HZ I         5 0  5.42        31.1 0.11            134            114 266 
 TAM  HZ EP        459 53.43                             119   -0.04 9  182  96 
 TAM  HN ES   1    5 0 15.65                             119   -0.22 7  182  96 
 TAM  HZ I         5 0 16.50        27.4 0.17            121            182  96 
 ZAR  HZ EP        459 54.15                             119    0.41 9  185 302 
 ZAR  HN ES        5 0 16.60                             119    0.26 9  185 302 
 ZAR  HZ I         5 0 21.82        23.8 0.18            120            185 302 
 NOR  HZ EP        459 55.30                             117    0.26 9  197 234 
 NOR  HN ES        5 0 18.77                             117    0.11 9  197 234 
 NOR  HZ I         5 0 20.13        20.7 0.34            118            197 234 
 ROSC BZ EP   4    459 59.84                             114    1.92 0  219 207 
 ROSC BN ES   4    5 0 27.67                             114    3.89 0  219 207 
 CHI  HZ EP        459 58.92                             114    0.70 8  222 189 
 CHI  HN ES        5 0 24.63                             114    0.32 8  222 189 
 CHI  HZ I         5 0 27.88         9.4 0.48            115            222 189 
 URE  HZ EP        5 0  1.57                             110   -0.94 8  264 299 
 URE  HN ES   3    5 0 30.25                             110   -1.70 2  264 299 
 URE  HZ I         5 0 32.99        17.5 0.25            111            264 299 
 ELA  HZ EP   3    5 0  7.71                             108    1.38 2  292 229 
 CBOC HZ EP        5 0  6.86                             107    0.32 7  297 254 
 CBOC HE ES   1    5 0 39.31                             107    0.18 5  297 254 
 CBOC HZ I         5 0 44.49         4.4 0.27            108            297 254 
 PTGC HZ EP   9    5 0  5.78                             107   -1.21 0  303 152 
 PTGC HE ES        5 0 38.45                             106   -0.27 7  303 152 
 PTGC HZ I         5 0 40.56        19.7 0.40            108            303 152 
 LL6C HZ EP   4    459 52.93                             104   -19.1 0  346   3 
 LL6C HN ES   4    5 0 34.23                             104   -14.7 0  346   3 
 ORTC HZ EP   3    5 0 15.23                             103    1.46 2  360 214 
 PAL  HZ EP        5 0 14.34                             103   -0.38 6  368 239 
 APAC HZ EP        5 0 15.32                             102   -0.25 6  376 292 
 SJC  HZ EP   3    5 0 18.33                             101   -1.54 1  411 332 
 SJC  HN ES   4    5 1  0.33                             101   -2.53 0  411 332 
 YOT  HZ EP        5 0 22.17                             100   -0.56 5  434 228 
 YOT  HN ES   4    5 1 17.50                             100    9.55 0  434 228 
                                                                                
