 2015  322 0926 49.1 L   6.556 -73.553104.3  RSN 16 0.4 2.0LRSN                1
 GAP= 65        1.23       2.8     3.5  6.0 -0.3681E+01  0.8073E+01 -0.1010E+01E
 Epicentro: EL CARMEN - SANTANDER                                              3
 ACTION:UPD 15-04-30 16:28 OP:nd   STATUS:               ID:20150322092649 L   I
 OLDACT:DUP 15-03-22 15:40 OP:stll STATUS:               ID:20150322091742d    3
 2015-03-22-0917-41M.COL___269                                                 6
 STAT SP IPHASW D HRMM SECON CODA AMPLIT PERI AZIMU VELO AIN AR TRES W  DIS CAZ7
 BAR2 EZ IP     D  927  4.92                             157    0.4710 41.2  84 
 BAR2 EZ ES        927 17.16                             157    0.7310 41.2  84 
 BAR2 EZ I         927 19.08       116.0 0.34            159           41.2  84 
 BRR  HZ EP        927  5.54                             146    0.1310 63.5 344 
 BRR  HE ES        927 18.73                             146    0.6010 63.5 344 
 BRR  HZ I         927 27.58        12.0 0.20            142           63.5 344 
 RUS  HZ EP     D  927  7.87                             136   -0.2510 89.9 145 
 RUS  HE ES        927 22.89                             136   -0.0710 89.9 145 
 RUS  HZ I         927 24.87        10.7 0.40            141           89.9 145 
 PTB  HZ EP        927  7.63                             133   -0.7110 99.9 269 
 PTB  HN ES        927 22.57                             133   -0.7910 99.9 269 
 PTB  HZ I         927 23.75        36.7 0.30            131           99.9 269 
 SPBC HZ EP        927  9.73                             128   -0.1410  115 210 
 SPBC HN ES        927 26.08                             128    0.0010  115 210 
 SPBC HZ I         927 27.90        22.9 0.10            130            115 210 
 PAM  SZ EP        927 11.30                             125   -0.3610  128  47 
 PAM  SN ES        927 28.76                             125   -0.5010  128  47 
 PAM  SZ I         927 31.03        16.4 0.30            125            128  47 
 ZAR  HZ EP        927 16.69                             115    0.43 9  178 306 
 ZAR  HZ I         927 41.51        22.9 0.48            114            178 306 
 NOR  HZ EP        927 16.45                             115   -0.40 9  182 233 
 NOR  HE ES        927 37.81                             115   -0.69 9  182 233 
 NOR  HZ I         927 40.17        11.2 0.32            115            182 233 
 OCA  HZ EP        927 17.16                             114   -0.44 9  188   8 
 OCA  HN ES        927 40.01                             114    0.17 9  188   8 
 OCA  HZ I         927 45.67        21.3 0.30            113            188   8 
 HEL  HZ EP        927 21.86                             110    0.09 8  222 260 
 HEL  HN ES        927 47.55                             110    0.30 8  222 260 
 HEL  HZ I         927 50.13         5.3 0.26            110            222 260 
 GUY2CHZ EP        927 25.65                             107    0.67 8  249 234 
 GUY2CHE ES        927 53.39                             107    0.42 8  249 234 
 GUY2CHZ I         927 57.32         6.9 0.32                           249 234 
 SML  HZ EP        927 24.96                             106   -0.12 8  255 347 
 SML  HN ES        927 53.35                             106    0.20 8  255 347 
 SML  HZ I         928  0.61        15.1 0.10            106            255 347 
 CBOC HZ EP        927 29.20                             104    0.62 7  283 254 
 CBOC HZ I         927 30.69         6.4 0.16            104            283 254 
 TOL  SZ EP        927 30.13                             103    0.14 7  293 222 
 TOL  SN ES        928  1.89                             103   -0.01 7  293 222 
 MON  HZ EP   9    927 34.27                             100   -0.77 0  339 317 
 MON  HE ES        928  8.26                                   -1.85 7  339 317 
 MON  HZ I         928 11.57         3.1 0.40            100            339 317 
 ORTC HZ EP        927 36.63                             100    0.46 6  348 213 
 ORTC HE ES        928 12.74                             100   -0.15 6  348 213 
 ORTC HZ I         928 19.10         3.7 0.76            101            348 213 
                                                                                
