 2016  422 0834 16.1 L   6.683 -73.118129.9  RSN  5 0.4 1.3LRSN                1
 GAP=145        0.65       5.3     4.4  8.7 -0.1559E+01  0.1587E+02 -0.2027E+02E
 Epicentro: JORDAN - SANTANDER                                                 3
 ACTION:UPD 16-05-05 14:23 OP:rebc STATUS:               ID:20160422083416 L   I
 OLDACT:ARG 16-04-22 12:58 OP:cara STATUS:               ID:20160422082745     3
 2016-04-22-0827-45M.COL___312                                                 6
 STAT SP IPHASW D HRMM SECON CODA AMPLIT PERI AZIMU VELO AIN AR TRES W  DIS CAZ7
 BAR2 EZ EP        834 33.80                             174    0.1210 12.3 215 
 BAR2 EZ ES   2    834 47.73                             174    0.38 5 12.3 215 
 BAR2 EZ I         834 50.86         6.6 0.12            172           12.3 215 
 PAM  EZ EP   2    834 37.81                             145    0.52 5 86.1  32 
 PAM  EN ES   2    834 53.32                             145   -0.46 5 86.1  32 
 PAM  EZ I         834 56.92         3.0 0.32            150           86.1  32 
 RUS  HZ EP   4    834 29.26                             145   -8.13 0 87.5 177 
 RUS  HN ES        834 53.82                             145   -0.1410 87.5 177 
 RUS  HZ I         834 58.34         2.1 0.18            153           87.5 177 
 PTB  HZ EP        834 41.58                             128   -0.39 9  149 264 
 PTB  HN ES        835  2.38                             128    0.27 9  149 264 
 PTB  HZ I         835  5.83         3.5 0.18            132            149 264 
 ZAR  HZ EP   2    834 49.01                             118    0.54 4  212 295 
 ZAR  HE ES   2    835 13.16                             118   -0.52 4  212 295 
 ZAR  HZ I         835 21.64         2.2 0.54            122            212 295 
                                                                                
