 2011  822 0933 31.9 L   6.806 -73.015141.3  RSN  4 0.1 1.4LRSN                1
 GAP=196        0.36       2.5     6.9  4.6  0.9426E+01 -0.1552E+02 -0.5401E+01E
 Epicentro: CEPITA - SANTANDER                                                 3
 ACTION:UPD 12-07-13 15:53 OP:ep   STATUS:               ID:20110822093331 L   I
 2011-08-22-0932-41S.COL___153                                                 6
 STAT SP IPHASW D HRMM SECON CODA AMPLIT PERI AZIMU VELO AIN AR TRES W  DIS CAZ7
 BAR2 SZ EP   1    933 51.02                             167   -0.16 7 30.0 218 
 BAR2 SZ I         933 51.55         5.9 0.13                          30.0 218 
 BAR2 SZ ES   1    934  6.06                             167   -0.14 7 30.0 218 
 BRR  HZ EP   1    933 53.45                             147    0.06 7 83.9 293 
 BRR  HN ES   1    934 10.10                             147   -0.02 7 83.9 293 
 BRR  HZ I         934 12.97         7.8 0.13                          83.9 293 
 RUS  HZ EP   1    933 55.19                             143   -0.11 7  101 184 
 RUS  HZ I         933 55.71         4.0 0.28                           101 184 
 RUS  HE ES   1    934 13.78                             143    0.26 7  101 184 
 OCA  SZ EP   1    934  0.11                             128    0.05 7  162 348 
 OCA  SZ ES   1    934 22.10                             128    0.09 7  162 348 
 OCA  SZ I         934 26.77         2.7 0.13                           162 348 
                                                                                
