 2013 1022 0304 16.8 L   6.814 -73.107151.2  RSN 11 0.5 2.0LRSN                1
 GAP=187        1.16       3.2     5.5  6.4  0.6858E+00  0.6603E+01  0.9484E+00E
 Epicentro: LOS SANTOS - SANTANDER                                             3
 ACTION:UPD 13-11-25 09:23 OP:ep   STATUS:               ID:20131022030416 L   I
 OLDACT:REG 13-10-22 08:34 OP:carl STATUS:               ID:20131022025847     3
 2013-10-22-0258-47M.COL___215                                                 6
 STAT SP IPHASW D HRMM SECON CODA AMPLIT PERI AZIMU VELO AIN AR TRES W  DIS CAZ7
 BAR2 SZ EP        3 4 37.15                             170    0.0410 26.0 199 
 BAR2 SZ ES        3 4 52.93                             170   -0.0510 26.0 199 
 BAR2 SZ I         3 4 53.86        20.5 0.26            169           26.0 199 
 BRR  HZ EP        3 4 39.08                             153    0.3910 74.3 296 
 BRR  HN ES        3 4 56.71                             153    0.9310 74.3 296 
 BRR  HZ I         3 5  1.34        10.7 0.12            151           74.3 296 
 RUS  HZ EP        3 4 41.04                             145   -0.1210  102 179 
 RUS  HN ES        3 4 59.82                             145   -0.3710  102 179 
 RUS  HZ I         3 5  1.18         4.1 0.46            147            102 179 
 PTB  HZ EP        3 4 44.11                             132   -0.49 9  152 259 
 PTB  HN ES        3 5  5.48                             132   -0.82 9  152 259 
 PTB  HZ I         3 5 11.08        12.4 0.40            133            152 259 
 OCA  HN ES        3 5  8.25                             131    0.49 9  159 352 
 OCA  HN I         3 5 11.23        56.5 0.24            133            159 352 
 SPBC HZ EP        3 4 46.21                             130    0.14 9  167 220 
 SPBC HN ES        3 5  8.77                             130   -0.15 9  167 220 
 SPBC HZ I         3 5 15.17        19.2 0.24            131            167 220 
 ZAR  HZ EP        3 4 50.07                             123    0.14 8  207 291 
 ZAR  HE ES        3 5 15.39                             123   -0.40 8  207 291 
 NOR  HZ EP        3 4 53.14                             119   -0.16 8  239 235 
 NOR  HN ES        3 5 21.55                             119   -0.24 8  239 235 
 NOR  HZ I         3 5 24.85         7.0 0.18            121            239 235 
 SML  HZ EP        3 4 53.63                             119   -0.12 8  244 334 
 SML  HN ES        3 5 21.90                             119   -0.70 8  244 334 
 SML  HZ I         3 5 26.85        14.5 0.10            120            244 334 
 CHI  HZ EP        3 4 55.20                             118    0.13 8  251 196 
 CHI  HN ES        3 5 24.83                             118   -0.11 8  251 196 
 CHI  HZ I         3 5 28.57         3.1 0.46            120            251 196 
 GUY2CHZ EP        3 5  1.38                             113    0.24 7  306 235 
 GUY2CHN ES        3 5 37.20                             113    1.46 7  306 235 
 GUY2CHZ I         3 5 44.36         4.4 0.56                           306 235 
                                                                                
