 2012  122 0904 19.1 L   6.798 -73.151149.8  RSN  6 0.4 1.3LRSN                1
 GAP=136        0.63       5.8     5.1  7.9  0.1299E+01  0.5648E+01  0.1443E+01E
 Epicentro: LOS SANTOS - SANTANDER                                             3
 ACTION:UP  12-02-03 08:19 OP:REBC STATUS:               ID:20120122090419 L   I
 2012-01-22-0900-00M.COL___186                                                 6
 STAT SP IPHASW D HRMM SECON CODA AMPLIT PERI AZIMU VELO SNR AR TRES W  DIS CAZ7
 BAR2 SZ ES   2    9 4 54.71                             171    -0.2 5   23 189 
 BAR2 SZ I         9 4 56.50         6.6 0.28                            23 189 
 BRR  HZ EP   1    9 4 40.92                             153     0.3 7   71 299 
 BRR  HZ I         9 4 41.15         5.4 0.12                            71 299 
 BRR  HE ES   2    9 4 57.90                             153     0.4 5   71 299 
 PAM  SZ EP   1    9 4 41.80                             151     0.1 7   78  40 
 PAM  SN ES   2    9 4 58.90                             151    -0.5 5   78  40 
 RUS  HZ EP   1    9 4 43.26                             145     0.1 7  100 176 
 RUS  HN ES   2    9 5  2.37                             145     0.3 5  100 176 
 RUS  HZ I         9 5  3.70         1.8 0.39                           100 176 
 PTB  HZ EP   1    9 4 45.95                             133    -0.4 7  147 259 
 PTB  HN ES   2    9 5  6.91                             133    -0.7 5  147 259 
 ZAR  HN ES   2    9 5 17.55                             123     0.3 4  204 292 
                                                                                
