 2014 1122 0432  9.0 L   6.783 -73.168152.3  RSN  7 0.5 1.5LRSN                1
 GAP=135        1.18       5.1     5.1  7.5 -0.7076E+00  0.9081E+01  0.1690E+00E
 Epicentro: LOS SANTOS - SANTANDER                                             3
 ACTION:UPD 14-12-19 15:45 OP:nd   STATUS:               ID:20141122043209 L   I
 OLDACT:REG 14-11-22 13:43 OP:fm   STATUS:               ID:20141122042745     3
 2014-11-22-0427-45M.COL___306                                                 6
 STAT SP IPHASW D HRMM SECON CODA AMPLIT PERI AZIMU VELO AIN AR TRES W  DIS CAZ7
 BAR2 SZ EP        432 29.22                             172   -0.1910 21.2 184 
 BAR2 SZ ES        432 44.87                             172   -0.4310 21.2 184 
 BAR2 SZ I         432 46.74         7.0 0.26            171           21.2 184 
 BRR  HZ EP        432 31.35                             154    0.5210 70.0 301 
 BRR  HN ES        432 48.39                             154    0.5710 70.0 301 
 BRR  HZ I         432 52.43         5.0 0.28            152           70.0 301 
 PAM  SZ EP        432 32.33                             151    0.2110 80.3  40 
 PAM  SN ES        432 49.64                             151   -0.4910 80.3  40 
 PAM  SZ I         432 51.84         6.8 0.46            155           80.3  40 
 RUS  HZ EP        432 33.89                             146    0.5710 98.9 175 
 RUS  HN ES        432 52.52                             146    0.2610 98.9 175 
 RUS  HZ I         432 53.51         3.6 0.36            148           98.9 175 
 PTB  HZ EP        432 35.37                             134   -0.93 9  145 259 
 PTB  HN ES        432 57.15                             134   -0.42 9  145 259 
 PTB  HZ I         432 59.52         4.6 0.58            134            145 259 
 SPBC HZ EP        432 37.37                             131   -0.40 9  160 219 
 SPBC HN ES        433  0.41                             131    0.23 9  160 219 
 SPBC HZ I         433  7.75         6.6 0.22            132            160 219 
 ZAR  HZ EP        432 41.83                             124    0.07 9  203 293 
 ZAR  HN ES        433  7.59                             124    0.31 9  203 293 
 ZAR  HZ I         433 15.40         2.0 0.16            125            203 293 
                                                                                
