 2017  122 0110 15.7 L   6.777 -73.104138.0  RSN  8 0.3 1.5LRSN                1
 GAP=143        0.68       2.7     3.0  5.5 -0.5602E+00  0.1119E+01  0.3548E+01E
 Epicentro: LOS SANTOS - SANTANDER                                             3
 ACTION:UPD 17-05-22 16:02 OP:jn   STATUS:               ID:20170122011015 L   I
 OLDACT:UP  17-01-22 13:41 OP:dani STATUS:               ID:20170122010745     3
 OLDACT:UP  17-01-22 13:41 OP:dani STATUS:               ID:20170122010745     3
 OLDACT:UP  17-01-22 13:41 OP:dani STATUS:               ID:20170122010745     3
 OLDACT:UP  17-01-22 13:40 OP:dani STATUS:               ID:20170122010745     3
 OLDACT:REG 17-01-22 12:32 OP:dani STATUS:               ID:20170122010745     3
 2017-01-22-0108-00M.COL___346                                                 6
 STAT SP IPHASW D HRMM SECON CODA AMPLIT PERI AZIMU VELO AIN AR TRES W  DIS CAZ7
 BAR2 EZ EP        110 34.23                             170   -0.1810 22.2 203 
 BAR2 EZ I         111  1.42         6.6 0.30            170           22.2 203 
 BRR  HZ EP        110 36.15                             150   -0.2310 76.5 299 
 BRR  HE ES        110 52.81                             150    0.3410 76.5 299 
 BRR  HZ I         110 53.46         8.7 0.29            150           76.5 299 
 PAM  EZ EP        110 37.27                             150    0.1810 76.6  36 
 PAM  EE ES        110 53.92                             150    0.1810 76.6  36 
 PAM  EZ I         110 57.01         5.8 0.56            144           76.6  36 
 RUS  HZ EP        110 38.20                             143   -0.3310 97.8 179 
 RUS  HN ES        110 56.12                             143   -0.1910 97.8 179 
 RUS  HZ I         110 57.87         5.6 0.26            140           97.8 179 
 PTB  HZ EP   9    110 40.88                             130   -1.59 0  152 260 
 PTB  HN ES        111  1.72                             130   -0.00 9  152 260 
 PTB  HZ I         111  4.26         7.7 0.18            129            152 260 
 ZAR  HN ES        111 13.25                             120   -0.34 8  209 292 
 NOR  HN ES        111 19.24                             117    0.24 8  237 236 
 CHI  HZ EP   3    110 54.12                             116    1.23 2  247 196 
 CHI  HE ES        111 22.28                             116    0.42 8  247 196 
 CHI  HZ I         111 25.45         1.3 0.30            113            247 196 
                                                                                
