 2010  522 0116  6.3 L   6.834 -73.096145.6  RSN  7 0.4 2.1LRSN                1
 GAP=146        0.72       6.2     8.9 12.7 -0.3669E+02 -0.3585E+02  0.5134E+02E
 Epicentro: LOS SANTOS - SANTANDER                                             3
 ACTION:UP  10-08-24 10:06 OP:vdl  STATUS:               ID:20100522011606 L   I
 2010-05-22-0114-23S.COL___111                                                 6
 STAT SP IPHASW D HRMM SECON CODA AMPLIT PERI AZIMU VELO SNR AR TRES W  DIS CAZ7
 GUE  SZ EP   1    116 30.60                             140     0.0 8  112  10 
 GRA  SZ IP        116 31.60                             138     0.510  121  15 
 GRA  SZ ES   1    116 50.31                             138    -0.1 7  121  15 
 OCA  SZ EP   1    116 34.18                             130    -0.1 7  157 351 
 OCA  SZ ES   1    116 55.64                             130    -0.5 7  157 351 
 OCA  SZ I         117  0.90        22.3 0.25                           157 351 
 CHI  HZ EP   2    116 44.09                             116    -0.4 4  254 196 
 CHI  HN ES   2    117 14.52                             116     0.2 4  254 196 
 CHI  HZ I         117 16.19         5.4 0.35                           254 196 
 RREF BZ EP   1    116 53.75                             110     0.6 5  328 230 
 RREF BN ES   2    117 29.89                             110     0.1 3  328 230 
 RREF BZ I         117 33.82         5.2 0.33                           328 230 
 SDV  BZ EP   1    116 55.44                             108    -0.1 5  354  50 
 SDV  BE ES   2    117 33.32                             108    -0.7 3  354  50 
 SDV  BZ I         117 34.87         4.3 0.49                           354  50 
 PRA  HZ EP   1    116 59.97                             106    -0.5 4  398 210 
 PRA  HE ES   2    117 42.22                             106    -0.6 3  398 210 
 PRA  HZ I         117 46.65         4.1 0.39                           398 210 
                                                                                
