 2013 1222 0412 55.4 L   6.807 -73.165144.8  RSN  9 0.4 1.6LRSN                1
 GAP=134        0.82       2.4     4.0  5.3 -0.1492E+01  0.6446E+01 -0.6538E+00E
 Epicentro: LOS SANTOS - SANTANDER                                             3
 ACTION:UPD 14-01-13 10:20 OP:ep   STATUS:               ID:20131222041255 L   I
 OLDACT:REG 13-12-22 09:03 OP:jn   STATUS:               ID:20131222041000     3
 2013-12-22-0410-00M.COL___285                                                 6
 STAT SP IPHASW D HRMM SECON CODA AMPLIT PERI AZIMU VELO AIN AR TRES W  DIS CAZ7
 BAR2 SZ EP        413 15.14                             170    0.1810 23.9 185 
 BAR2 SZ ES        413 29.87                             170   -0.3110 23.9 185 
 BAR2 SZ I         413 32.01        12.3 0.42            170           23.9 185 
 PAM  SZ EP        413 18.07                             150    0.4810 78.1  41 
 PAM  SN ES        413 34.96                             150    0.0910 78.1  41 
 PAM  SZ I         413 37.64         6.4 0.18            153           78.1  41 
 RUS  HZ EP        413 19.13                             143   -0.0310  102 175 
 RUS  HN ES        413 37.79                             143    0.1310  102 175 
 RUS  HZ I         413 40.68         3.9 0.36            145            102 175 
 PTB  HZ EP        413 21.94                             132   -0.21 9  146 258 
 PTB  HN ES        413 43.36                             132    0.37 9  146 258 
 PTB  HZ I         413 45.46         4.9 0.16            134            146 258 
 OCA  HN ES   1    413 45.09                             129   -0.42 7  159 354 
 OCA  HZ I         413 50.25         6.1 0.37            132            159 354 
 SPBC HZ EP        413 24.19                             129    0.40 9  163 218 
 SPBC HN ES        413 45.75                             129   -0.16 9  163 218 
 SPBC HZ I         413 51.20         8.4 0.22            130            163 218 
 ZAR  HE ES   2    413 53.35                             122    0.69 4  202 292 
 SML  HZ EP        413 31.55                             117   -0.28 8  242 336 
 SML  HN ES        413 59.86                             117   -0.36 8  242 336 
 CHI  HZ EP        413 33.26                             117    0.16 8  249 195 
 CHI  HN ES        414  1.69                             117   -0.80 8  249 195 
 CHI  HZ I         414  8.07         2.0 0.30            119            249 195 
                                                                                
