 2017  422 0955 54.1 L   6.799 -73.151144.9  RSN  5 0.3 1.4LRSN                1
 GAP=149        0.65       5.6     3.1  5.7 -0.3422E+01  0.3868E+01 -0.2903E+01E
 Epicentro: LOS SANTOS - SANTANDER                                             3
 ACTION:UPD 17-05-30 21:15 OP:jn   STATUS:               ID:20170422095554 L   I
 OLDACT:REG 17-04-22 12:03 OP:dnl  STATUS:               ID:20170422093737     3
 2017-04-22-0948-00M.COL___368                                                 6
 STAT SP IPHASW D HRMM SECON CODA AMPLIT PERI AZIMU VELO AIN AR TRES W  DIS CAZ7
 BAR2 EZ EP        956 13.62                             170    0.0310 23.1 189 
 BAR2 EZ ES        956 29.06                             170    0.2510 23.1 189 
 BAR2 EZ I         956 29.73         4.9 0.48            171           23.1 189 
 BRR  HZ EP   2    956 14.69                             153   -0.41 5 70.8 299 
 BRR  HN ES        956 31.72                             153    0.2210 70.8 299 
 BRR  HZ I         956 36.67        16.0 0.40            148           70.8 299 
 PAM  EZ EP        956 16.36                             151    0.1410 77.9  40 
 PAM  EN ES        956 33.18                             151   -0.3210 77.9  40 
 PAM  EZ I         956 35.39         3.8 0.52            153           77.9  40 
 PTB  HZ EP   2    956 20.60                             132   -0.31 5  147 259 
 PTB  HN ES        956 41.49                             132   -0.36 9  147 259 
 PTB  HZ I         956 49.05         1.7 0.36            131            147 259 
 ZAR  HZ EP   2    956 27.29                             122    0.88 4  204 292 
 ZAR  HN ES        956 51.62                             122   -0.01 9  204 292 
 ZAR  HZ I         956 57.80         2.8 0.40            122            204 292 
                                                                                
