 2010  422 0754 52.6 L   6.391 -73.654103.5  RSN  8 0.3 1.8LRSN                1
 GAP=138        0.61       3.5     4.4  5.6 -0.6722E+01  0.5138E+01  0.1568E+01E
 Epicentro: SANTA HELENA DEL OPON - SANTANDER                                  3
 ACTION:UPD 10-08-24 10:00 OP:vdl  STATUS:               ID:20100422075452 L   I
 2010-04-22-0751-12S.COL___104                                                 6
 STAT SP IPHASW D HRMM SECON CODA AMPLIT PERI AZIMU VELO SNR AR TRES W  DIS CAZ7
 BAR2 SZ IP        755  8.39                             149    -0.310   57  67 
 BAR2 SZ ES   1    755 21.30                             149     0.0 7   57  67 
 BRR  HZ IP     C  755  9.91                             139    -0.110   80 355 
 BRR  HE ES   1    755 23.58                             139     0.0 7   80 355 
 BRR  HZ I         755 32.10         8.9 0.11                            80 355 
 GIR2 SZ EP   2    755 10.84                             135    -0.3 5   92  34 
 BRI  SZ IP        755 19.77                             115     0.2 9  175  33 
 GUE  SZ IP        755 20.37                             115     0.2 9  178  27 
 GUE  SZ ES   1    755 41.79                             115     0.1 7  178  27 
 OCA  SZ EP   2    755 22.98                             111    -0.3 4  208  10 
 OCA  SZ ES   2    755 47.47                             111     0.3 4  208  10 
 OCA  SZ I         755 54.88        14.6 0.34                           208  10 
 HEL  HZ EP   2    755 23.53                             111    -0.1 4  209 264 
 HEL  HN ES   2    755 47.82                             111     0.0 4  209 264 
 HEL  HZ I         755 50.64         4.2 0.16                           209 264 
 PRA  HZ EP   2    755 35.98                             101    -1.0 3  326 205 
 PRA  HE ES   1    756 12.50                             101     0.8 5  326 205 
 PRA  HZ I         756 19.34         2.7 0.18                           326 205 
                                                                                
