 2013  522 0822 17.2 L   6.778 -73.190147.6  RSN  5 0.3 1.0LRSN                1
 GAP=174        0.66       5.8     5.7  6.6  0.8860E+01  0.6271E+01  0.9291E+01E
 Epicentro: LOS SANTOS - SANTANDER                                             3
 ACTION:UPD 13-06-20 09:52 OP:ep   STATUS:               ID:20130522082217 L   I
 2013-05-22-0820-00M.COL___259                                                 6
 STAT SP IPHASW D HRMM SECON CODA AMPLIT PERI AZIMU VELO AIN AR TRES W  DIS CAZ7
 BAR2 SZ EP   1    822 37.16                             172    0.20 7 20.6 178 
 BAR2 SZ ES   1    822 52.76                             172    0.36 7 20.6 178 
 GIR2 SZ EP   1    822 36.93                             167   -0.18 7 33.2 359 
 GIR2 SZ ES   1    822 52.62                             167   -0.04 7 33.2 359 
 BRR  HN ES   1    822 54.68                             154   -0.18 7 68.2 302 
 RUS  HZ EP   1    822 40.47                             145   -0.49 7 98.6 173 
 RUS  HE ES   1    822 59.52                             145    0.01 7 98.6 173 
 RUS  HZ I         823  0.91         1.4 0.34            143           98.6 173 
 PTB  HZ EP   1    822 44.44                             133    0.63 7  142 259 
 PTB  HE ES   1    823  4.31                             133   -0.28 7  142 259 
 PTB  HZ I         823  7.89         1.4 0.14            132            142 259 
                                                                                
