 2012  322 0855 53.3 L   6.729 -73.458122.2  RSN  6 0.4 1.6LRSN                1
 GAP=103        0.82       7.4     5.0 10.0 -0.5825E+01  0.1094E+02 -0.1522E+02E
 ACTION:UP  12-03-31 23:21 OP:EP   STATUS:               ID:20120322085553 L   I
 2012-03-22-0850-00M.COL___202                                                 6
 STAT SP IPHASW D HRMM SECON CODA AMPLIT PERI AZIMU VELO SNR AR TRES W  DIS CAZ7
 BAR2 SZ ES   2    856 23.41                             163    -0.4 5   34 116 
 BAR2 SZ I         856 24.05        23.4 0.20                            34 116 
 BRR  HZ EP        856 10.99                             156     0.210   50 326 
 BRR  HE ES   2    856 24.01                             156    -0.3 5   50 326 
 BRR  HZ I         856 24.93         8.5 0.22                            50 326 
 RUS  HN ES   2    856 31.85                             138     0.1 5  101 156 
 RUS  HZ I         856 33.29         4.3 0.27                           101 156 
 PAM  SZ EP        856 15.63                             136     0.210  108  51 
 PAM  SN ES   2    856 32.21                             136    -0.4 5  108  51 
 PTB  HZ EP        856 14.77                             134    -0.410  112 259 
 PTB  HZ I         856 14.97         4.1 0.23                           112 259 
 PTB  HN ES   2    856 33.03                             134     0.8 5  112 259 
 ZAR  HZ EP   2    856 20.76                             121    -0.6 4  176 299 
 ZAR  HN ES   2    856 43.38                             121     0.2 4  176 299 
 ZAR  HZ I         856 46.37         5.4 0.41                           176 299 
                                                                                
