 2016  122 0742  2.3 L   6.638 -72.551  4.0  RSN  5 0.4 1.1LRSN                1
 GAP=227        1.01       2.9     7.0  7.3 -0.1095E+02  0.2703E+02 -0.4774E+01E
 Epicentro: CARCASI - SANTANDER                                                3
 ACTION:UPD 16-03-09 23:27 OP:cam  STATUS:               ID:20160122074202 L   I
 OLDACT:UP  16-01-22 20:17 OP:ar   STATUS:               ID:20160122073738     3
 OLDACT:REG 16-01-22 14:23 OP:ar   STATUS:               ID:20160122073738     3
 2016-01-22-0737-38M.COL___316                                                 6
 STAT SP IPHASW D HRMM SECON CODA AMPLIT PERI AZIMU VELO AIN AR TRES W  DIS CAZ7
 BAR2 EZ EP        742 13.72                              47   -0.0410 70.0 266 
 BAR2 EZ ES        742 22.52                              47   -0.1610 70.0 266 
 BAR2 EZ I         742 23.18         4.5 0.26             47           70.0 266 
 PAM  EZ EP        742 15.48                              47    0.0610 79.3 348 
 PAM  EN ES        742 25.31                              47   -0.3410 79.3 348 
 PAM  EZ I         742 26.28         5.8 0.16             47           79.3 348 
 RUS  HZ EP        742 18.61                              47   -0.1610  101 216 
 RUS  HN ES        742 31.16                              47   -0.4410  101 216 
 RUS  HZ I         742 32.04         3.0 0.18             47            101 216 
 SPBC HZ EP        742 32.82                              37    0.07 9  201 237 
 SPBC HN ES        742 56.82                              37    0.33 9  201 237 
 SPBC HZ I         743  2.83         2.6 0.36             37            201 237 
 PTB  HZ EP        742 35.05                              37    1.09 8  211 267 
 PTB  HN ES   4    743  1.26                              37    2.62 0  211 267 
 PTB  HZ I         743  3.03         3.2 0.20             37            211 267 
                                                                                
