 2016  222 0435 35.5 L   6.985 -73.117153.5  RSN 10 0.4 1.8LRSN                1
 GAP=129        1.03       3.5     4.6  6.1  0.4335E+00  0.5241E+01  0.2156E+01E
 Epicentro: PIEDECUESTA - SANTANDER                                            3
 ACTION:UPD 16-03-04 21:28 OP:rebc STATUS:               ID:20160222043535 L   I
 OLDACT:UP  16-02-22 16:33 OP:mh   STATUS:               ID:20160222042749d    3
 OLDACT:DUP 16-02-22 16:29 OP:mh   STATUS:               ID:20160222042749d    3
 2016-02-22-0427-48M.COL___324                                                 6
 STAT SP IPHASW D HRMM SECON CODA AMPLIT PERI AZIMU VELO AIN AR TRES W  DIS CAZ7
 BAR2 EZ EP        435 56.72                             163    0.0910 44.0 189 
 BAR2 EZ ES        436 12.92                             163   -0.1910 44.0 189 
 BAR2 EZ I         436 14.42        13.3 0.72            165           44.0 189 
 PAM  EZ IP     D  435 57.70                             158    0.0210 60.5  50 
 PAM  EN ES        436 14.89                             158   -0.0810 60.5  50 
 PAM  EZ I         436 17.19         7.0 0.42            158           60.5  50 
 BRR  HZ EP     C  435 57.65                             155    0.3610 67.1 282 
 BRR  HN ES        436 15.27                             155    1.0010 67.1 282 
 BRR  HZ I         436 18.08         9.6 0.16            156           67.1 282 
 RUS  HZ EP        436  1.49                             140   -0.0410  121 178 
 RUS  HN ES        436 21.43                             140   -0.3910  121 178 
 OCA  HZ EP        436  3.10                             135    0.42 9  140 351 
 OCA  HN ES        436 23.26                             135   -0.60 9  140 351 
 OCA  HZ I         436 31.23        11.3 0.30            136            140 351 
 PTB  HZ EP        436  3.60                             132   -0.26 9  156 252 
 PTB  HN ES        436 25.43                             132   -0.54 9  156 252 
 PTB  HZ I         436 27.67         6.4 0.28            134            156 252 
 ZAR  HZ EP        436  7.89                             125   -0.20 9  200 286 
 ZAR  HN ES        436 33.39                             125   -0.12 9  200 286 
 ZAR  HZ I         436 35.67         6.3 0.28            126            200 286 
 CHI  HZ EP        436 15.84                             117   -0.03 8  269 195 
 CHI  HN ES        436 47.84                             117    0.49 8  269 195 
 CHI  HZ I         436 51.24         1.4 0.32            119            269 195 
 URE  HZ EP   4    436 20.09                             115    3.56 0  280 288 
 URE  HN ES   4    436 46.88                             115   -1.65 0  280 288 
 URE  HZ I         436 48.44         5.0 0.16            117            280 288 
 SJC  HZ EP   4    436 27.36                             108   -2.21 0  394 325 
 SJC  HN ES   4    437  9.89                             108   -1.85 0  394 325 
 SJC  HZ I         437 11.81         1.9 0.68            109            394 325 
                                                                                
