 2010 1222 0808  1.8 L   6.802 -73.129139.2  RSN  9 0.3 2.1LRSN                1
 GAP=160        0.62       2.6     5.2  5.3 -0.5667E+01  0.1014E+02 -0.8527E+00E
 Epicentro: LOS SANTOS - SANTANDER                                             3
 ACTION:UP  11-01-14 15:26 OP:pat  STATUS:               ID:20101222080801 L   I
 2010-12-22-0808-02S.COL___134                                                 6
 STAT SP IPHASW D HRMM SECON CODA AMPLIT PERI AZIMU VELO SNR AR TRES W  DIS CAZ7
 BAR2 SZ EP   1    8 8 20.76                             170     0.1 8   24 195 
 BAR2 SZ ES   1    8 8 35.57                             170     0.2 8   24 195 
 BAR2 SZ I         8 8 36.82        43.5 0.25                            24 195 
 RUS  HZ EP        8 8 24.69                             142    -0.210  101 177 
 RUS  HE ES   1    8 8 42.60                             142    -0.3 7  101 177 
 RUS  HZ I         8 8 44.50        16.0 0.42                           101 177 
 GRA  SZ IP        8 8 26.66                             136     0.310  125  17 
 GRA  SZ ES   1    8 8 45.67                             136     0.1 7  125  17 
 GRA  SZ I         8 8 47.13        19.7 0.24                           125  17 
 OCA  SZ EP   1    8 8 29.15                             128    -0.4 7  160 352 
 OCA  SZ ES   1    8 8 50.98                             128    -0.3 7  160 352 
 OCA  SZ I         8 8 54.76        20.4 0.37                           160 352 
 NOR  SZ EP   1    8 8 37.35                             117     0.0 6  236 235 
 NOR  SN ES   1    8 9  5.09                             117     0.0 6  236 235 
 CHI  HZ EP   1    8 8 38.98                             116    -0.2 6  249 196 
 CHI  HZ I         8 8 41.65         3.8 0.49                           249 196 
 CHI  HE ES   2    8 9  9.14                             116     0.8 4  249 196 
 HEL  HZ EP   2    8 8 42.21                             113     0.3 4  274 256 
 HEL  HE ES   2    8 9 12.91                             113    -0.2 4  274 256 
 HEL  HZ I         8 9 19.16         5.7 0.47                           274 256 
 RREF HZ EP   2    8 8 48.64                             109     0.8 3  323 230 
 RREF HZ I         8 9 33.42         6.0 0.55                           323 230 
 PRA  HZ EP   1    8 8 55.32                             105     0.1 4  393 210 
 PRA  HE ES   2    8 9 36.38                             105    -0.5 3  393 210 
                                                                                
