 2013  222 0131 51.9 L   6.882 -73.300128.9  RSN  6 0.5 1.5LRSN                1
 GAP=159        0.88       4.4     6.8  9.1  0.4910E+01  0.6818E+01  0.6715E+01E
 Epicentro: BETULIA - SANTANDER                                                3
 ACTION:UPD 13-03-12 09:34 OP:ep   STATUS:               ID:20130222013151 L   I
 2013-02-22-0130-00M.COL___238                                                 6
 STAT SP IPHASW D HRMM SECON CODA AMPLIT PERI AZIMU VELO AIN AR TRES W  DIS CAZ7
 BAR2 SZ EP   1    132 10.41                             164    0.55 7 34.6 158 
 BAR2 SZ ES   1    132 23.95                             164    0.11 7 34.6 158 
 BRR  HZ EP   1    132 10.70                             157    0.48 7 51.9 299 
 BRR  HN ES   1    132 24.68                             157    0.20 7 51.9 299 
 BRR  HZ I         132 25.69        13.2 0.10            155           51.9 299 
 RUS  HZ EP   1    132 15.14                             137    0.14 7  112 168 
 RUS  HN ES   1    132 32.21                             137   -0.77 7  112 168 
 RUS  HZ I         132 33.94         2.1 0.26            138            112 168 
 PTB  HZ EP   1    132 15.50                             131   -0.73 7  133 254 
 PTB  HN ES   1    132 35.16                             131   -0.01 7  133 254 
 PTB  HZ I         132 38.16         5.9 0.50            130            133 254 
 OCA  HN ES   1    132 37.94                             127   -0.38 7  150 359 
 CHI  HN ES   1    132 58.89                             113    0.42 6  254 191 
                                                                                
