 2011 1222 0319 54.3 L   6.789 -73.142139.0  RSN  5 0.4 1.5LRSN                1
 GAP=183        0.78       5.0     9.9  9.5  0.1319E+02 -0.1597E+02 -0.1151E+02E
 Epicentro: LOS SANTOS - SANTANDER                                             3
 ACTION:UPD 12-07-13 16:17 OP:ep   STATUS:               ID:20111222031954 L   I
 2011-12-22-0320-00M.COL___191                                                 6
 STAT SP IPHASW D HRMM SECON CODA AMPLIT PERI AZIMU VELO AIN AR TRES W  DIS CAZ7
 BAR2 SZ ES   2    320 27.73                             171   -0.01 5 22.3 192 
 BRR  HZ EP   1    320 14.05                             151   -0.71 7 72.1 299 
 BRR  HZ I         320 16.03         8.5 0.26                          72.1 299 
 BRR  HN ES   1    320 31.18                             151    0.45 7 72.1 299 
 RUS  HZ EP   1    320 17.78                             143    0.49 7 99.4 176 
 RUS  HE ES   1    320 34.95                             143   -0.28 7 99.4 176 
 RUS  HZ I         320 36.89         2.5 0.17                          99.4 176 
 OCA  SZ EP   1    320 22.49                             128    0.30 7  161 353 
 OCA  SZ ES   2    320 43.52                             128   -0.44 5  161 353 
 OCA  SZ I         320 47.19         6.8 0.22                           161 353 
 NOR  SE ES   2    320 57.01                             117   -0.12 4  234 235 
                                                                                
