 2014  722 0053 18.6 L   6.368 -73.554109.5  RSN 12 0.6 1.9LRSN                1
 GAP=147        1.39       4.4     5.4  8.7  0.1241E+01  0.1124E+02  0.8553E+01E
 Epicentro: SANTA HELENA DEL OPON - SANTANDER                                  3
 ACTION:UPD 15-03-16 20:46 OP:nd   STATUS:               ID:20140722005318 L   I
 OLDACT:REG 14-07-22 12:17 OP:mh   STATUS:               ID:20140722004808     3
 2014-07-22-0048-08M.COL___269                                                 6
 STAT SP IPHASW D HRMM SECON CODA AMPLIT PERI AZIMU VELO AIN AR TRES W  DIS CAZ7
 RUS  HZ EP        053 37.75                             144    0.8710 74.1 135 
 RUS  HN ES   1    053 50.05                             144   -1.08 7 74.1 135 
 BRR  HZ EP        053 36.81                             140   -0.0910 83.5 348 
 BRR  HE ES   1    053 51.62                             140    0.45 7 83.5 348 
 BRR  HZ I         054  6.08        10.6 0.08                          83.5 348 
 SPBC HZ EP        053 37.76                             135   -0.4510 97.8 216 
 SPBC HN ES        053 54.12                             135    0.6210 97.8 216 
 SPBC HZ I         053 56.59        19.0 0.06                          97.8 216 
 PTB  HZ EP        053 38.20                             134   -0.2410  102 281 
 PTB  HN ES        053 53.31                             134   -0.6010  102 281 
 PTB  HZ I         053 55.73        24.5 0.14            137            102 281 
 NOR  HZ EP        053 44.89                             118   -0.48 9  171 239 
 NOR  HN ES   1    054  6.33                             118    0.09 7  171 239 
 NOR  HZ I         054  8.43        10.9 0.07            123            171 239 
 ZAR  HZ EP        053 48.05                             115    0.60 9  190 311 
 ZAR  HN ES        054 10.42                             115    0.47 9  190 311 
 ZAR  HZ I         054 15.73         9.7 0.10            119            190 311 
 OCA  HN ES   4    054 15.17                             112    1.28 0  208   7 
 HEL  HZ EP        053 51.07                             111   -0.11 8  219 265 
 HEL  HN ES        054 15.96                             111   -0.62 8  219 265 
 HEL  HZ I         054 23.85         4.0 0.47            116            219 265 
 GUY2CHZ EP        053 52.71                             109   -0.63 8  237 238 
 GUY2CHE ES   4    054 22.01                             109    1.59 0  237 238 
 GUY2CHZ I         054 26.61         4.6 0.14                           237 238 
 RREF HZ EP        053 54.72                             108   -1.06 8  257 231 
 RREF HN ES        054 25.52                             108    0.76 8  257 231 
 RREF HZ I         054 31.08         5.6 0.23            113            257 231 
 TOL  SZ EP        053 58.97                             106    1.08 7  278 225 
 TOL  SN ES        054 29.17                             106    0.64 7  278 225 
 TOL  SZ I         054 33.38         6.1 0.33            111            278 225 
 PRA  HZ EP        054  3.15                             102   -0.38 7  329 207 
 PRA  HN ES   1    054 38.62                             102    0.05 5  329 207 
 PRA  HZ I         054 44.96         4.8 0.24            107            329 207 
 ORTC HZ EP        054  3.88                             102    0.14 7  330 215 
                                                                                
