 2015  922 0152  1.1 L   6.813 -73.151145.8  RSN 27 0.5 2.8LRSN                1
 GAP= 70        1.05       2.3     2.7  4.3 -0.6657E+00  0.2657E+01  0.1247E+01E
 Epicentro: LOS SANTOS - SANTANDER                                             3
 ACTION:UPD 15-10-28 16:27 OP:cam  STATUS:               ID:20150922015201 L   I
 OLDACT:UP  15-09-22 15:29 OP:mh   STATUS:               ID:20150922014746     3
 OLDACT:REG 15-09-22 14:03 OP:mh   STATUS:               ID:20150922014746     3
 2015-09-22-0147-46M.COL___358                                                 6
 STAT SP IPHASW D HRMM SECON CODA AMPLIT PERI AZIMU VELO AIN AR TRES W  DIS CAZ7
 BAR2 EZ EP     D  152 20.78                             170    0.0710 24.6 188 
 BAR2 EZ ES        152 35.38                             170   -0.6610 24.6 188 
 BRR  HZ IP     D  152 22.56                             153    0.4310 70.0 298 
 BRR  HN ES        152 39.32                             153    0.7410 70.0 298 
 BRR  HZ I         152 43.29       104.8 0.28            151           70.0 298 
 PAM  EZ EP     C  152 23.60                             151    0.3810 76.7  41 
 PAM  EN ES        152 40.65                             151    0.1310 76.7  41 
 PAM  EZ I         152 43.54        90.7 0.32            151           76.7  41 
 RUS  HZ IP     C  152 24.86                             143   -0.0510  102 176 
 RUS  HN ES        152 43.20                             143   -0.3110  102 176 
 RUS  HZ I         152 44.29        66.6 0.34            141            102 176 
 PTB  HZ EP        152 27.24                             132   -0.75 9  147 258 
 PTB  HN ES        152 48.40                             132   -0.60 9  147 258 
 PTB  HZ I         152 50.79        52.2 0.14            129            147 258 
 TAM  HZ IP     C  152 29.25                             130    0.43 9  156 105 
 TAM  HZ I         152 50.04        32.3 0.76            129            156 105 
 TAM  HN ES        152 50.89                             130    0.42 9  156 105 
 OCA  HZ EP        152 28.79                             130   -0.43 9  159 353 
 OCA  HN ES        152 51.41                             130    0.21 9  159 353 
 OCA  HZ I         152 54.30       114.8 0.50            128            159 353 
 SPBC HZ EP        152 29.66                             129    0.04 9  164 219 
 SPBC HN ES        152 51.48                             129   -0.42 9  164 219 
 SPBC HZ I         152 57.41        80.9 0.32            126            164 219 
 ZAR  HZ EP        152 33.18                             122   -0.20 9  203 292 
 ZAR  HN ES        152 58.99                             122    0.39 9  203 292 
 ZAR  HZ I         153  3.45        59.3 0.26            120            203 292 
 NOR  HZ EP   1    152 36.83                             118    0.01 6  235 234 
 NOR  HN ES        153  4.23                             118   -0.48 8  235 234 
 NOR  HZ I         153 11.69        44.7 0.20            116            235 234 
 SML  HZ EP        152 36.81                             118   -0.70 8  242 335 
 SML  HN ES        153  5.21                             118   -0.74 8  242 335 
 SML  HZ I         153 11.59        69.3 0.10            116            242 335 
 CHI  HZ EP        152 39.09                             117    0.21 8  250 195 
 CHI  HN ES        153  8.34                             117   -0.04 8  250 195 
 CHI  HZ I         153 14.42        27.9 0.36            115            250 195 
 ROSC BZ EP        152 39.83                             117    0.56 8  254 211 
 ROSC BN ES   4    153 11.30                             117    2.22 0  254 211 
 ROSC BZ I         153 15.01        73.1 0.45            115            254 211 
 HEL  HZ EP   1    152 41.34                             115    0.10 6  272 255 
 HEL  HE ES        153 13.79                             115    1.21 8  272 255 
 HEL  HZ I         153 20.60        29.9 0.38            113            272 255 
 URE  HZ EP   4    152 40.42                             114   -1.58 0  283 292 
 URE  HN ES   4 C  153 10.92                             114   -3.02 0  283 292 
 URE  HZ I         153 24.26        27.6 0.14            112            283 292 
 GUY2CHZ EP        152 45.34                             112    0.64 7  302 234 
 GUY2CHE ES   4    153 21.83                             112    3.09 0  302 234 
 GUY2CHZ I         153 30.68        31.3 0.46                           302 234 
 VIL  SZ EP        152 44.12                             112   -0.49 7  305 191 
 VIL  SN ES        153 18.50                             112   -0.08 7  305 191 
 VIL  SZ I         153 24.12        36.8 0.36            110            305 191 
 LL2C HZ EP        152 44.72                             112    0.25 7  305 354 
 LL2C HN ES   4    153 20.09                             112    1.76 0  305 354 
 LL2C HZ I         153 23.92        45.1 0.42            110            305 354 
 PTGC HZ EP   4    152 43.98                             111   -1.10 0  310 159 
 PTGC HN ES   4    153 17.43                             111   -1.99 0  310 159 
 PTGC HZ I         153 22.14        33.7 0.26            110            310 159 
 ELA  HZ EP        152 48.03                             110    0.08 7  330 229 
 ELA  HN ES   4    153 26.41                             110    1.87 0  330 229 
 ELA  HZ I         153 39.80        27.0 0.42            109            330 229 
 CBOC HZ EP        152 48.34                             110    0.39 7  333 252 
 CBOC HN ES        153 24.61                             110    0.08 7  333 252 
 CBOC HZ I         153 41.69         8.5 0.70            108            333 252 
 DBB  SZ EP        152 48.25                             109   -0.20 7  339 274 
 DBB  SZ ES   4    153 23.08                             109   -2.33 0  339 274 
 DBB  SZ I         153 28.23        84.3 0.46            108            339 274 
 ANIL HZ EP   4    152 52.15                             108    1.23 0  358 224 
 ANIL HE ES   4    153 33.08                             108    3.26 0  358 224 
 SDV  BZ EP   1    152 50.26                             108   -0.78 5  360  50 
 SDV  BN ES   4    153 26.89                             108   -3.14 0  360  50 
 SDV  BZ I         153 31.05         7.6 0.40            107            360  50 
 PRA  HZ EP        152 54.20                             106   -0.48 6  393 209 
 PRA  HN ES        153 36.37                             106   -0.14 6  393 209 
 PRA  HZ I         153 42.86        34.0 0.46            105            393 209 
 ORTC HZ EP        152 54.96                             106   -0.10 6  396 216 
 ORTC HN ES        153 37.86                             106    0.67 6  396 216 
 ORTC HZ I         153 44.56        16.2 0.26            105            396 216 
 SJC  HZ EP   4    152 54.67                             106   -1.77 0  408 327 
 SJC  HN ES   4    153 35.59                             106   -4.05 0  408 327 
 SJC  HZ I         153 40.33         8.1 0.35            104            408 327 
 CRJC HZ EP   4    153  1.13                             103   -2.26 0  466   4 
 CRJC HN ES   4    153 48.81                             103   -3.20 0  466   4 
 CRJC HZ I         153 59.23        12.8 0.24            102            466   4 
                                                                                
