 2017  722 0452 50.9 L   6.808 -73.152149.2  RSN  7 0.3 1.4LRSN                1
 GAP=135        0.82       3.9     3.9  5.6 -0.5055E+01  0.3551E+01  0.2673E+01E
 Epicentro: LOS SANTOS - SANTANDER                                             3
 ACTION:UPD 17-08-30 15:35 OP:rebc STATUS:               ID:20170722045250 L   I
 OLDACT:REG 17-07-22 13:12 OP:dnl  STATUS:               ID:20170722044739     3
 2017-07-22-0448-00M.COL___380                                                 6
 STAT SP IPHASW D HRMM SECON CODA AMPLIT PERI AZIMU VELO AIN AR TRES W  DIS CAZ7
 BAR2 EZ EP        453 10.81                             170   -0.1610 24.1 188 
 BAR2 EZ ES        453 26.19                             170   -0.4310 24.1 188 
 BAR2 EZ I         453 28.58         7.2 0.28            170           24.1 188 
 BRR  HZ EP        453 12.62                             153    0.2410 70.2 298 
 BRR  HE ES        453 29.64                             153    0.5210 70.2 298 
 BRR  HZ I         453 32.94         5.4 0.16            155           70.2 298 
 PAM  EZ EP        453 13.77                             151    0.2910 77.1  40 
 PAM  EN ES        453 30.85                             151   -0.2310 77.1  40 
 PAM  EZ I         453 33.43         3.1 0.50            155           77.1  40 
 RUS  HZ EP        453 15.01                             144   -0.0610  102 176 
 RUS  HN ES        453 34.25                             144    0.3410  102 176 
 RUS  HZ I         453 35.47         2.7 0.30            146            102 176 
 PTB  HZ EP        453 17.59                             133   -0.53 9  147 258 
 PTB  HN ES        453 39.04                             133   -0.30 9  147 258 
 PTB  HZ I         453 39.62         2.7 0.14            135            147 258 
 SPBC HZ EP        453 19.84                             130    0.13 9  163 219 
 SPBC HN ES        453 42.14                             130   -0.02 9  163 219 
 SPBC HZ I         453 47.80         5.1 0.44            132            163 219 
 NOR  HN ES        453 55.06                             119    0.20 8  235 234 
 NOR  HZ I         453 57.38         1.8 0.18            121            235 234 
                                                                                
