 2014 1022 0450 50.1 L   6.818 -73.133147.8  RSN 15 0.4 2.0LRSN                1
 GAP=119        0.97       2.6     3.7  5.2 -0.7849E+00  0.1801E+01  0.2463E+01E
 Epicentro: LOS SANTOS - SANTANDER                                             3
 ACTION:UPD 14-11-29 23:54 OP:nd   STATUS:               ID:20141022045050 L   I
 OLDACT:REG 14-10-23 19:36 OP:mh   STATUS:               ID:20141022044742     3
 2014-10-22-0447-42M.COL___277                                                 6
 STAT SP IPHASW D HRMM SECON CODA AMPLIT PERI AZIMU VELO AIN AR TRES W  DIS CAZ7
 BAR2 SZ EP     D  451 10.05                             170    0.0310 25.5 192 
 BAR2 SZ ES   1    451 24.89                             170   -0.67 7 25.5 192 
 BAR2 SZ I         451 33.03        14.9 0.26            169           25.5 192 
 BRR  HZ IP     C  451 11.80                             153    0.3210 71.5 297 
 BRR  HN ES        451 28.80                             153    0.6310 71.5 297 
 BRR  HZ I         451 32.66        18.6 0.21            151           71.5 297 
 PAM  SZ EP     D  451 13.02                             152    0.6310 75.0  40 
 PAM  SN ES        451 29.62                             152   -0.1610 75.0  40 
 PAM  SZ I         451 32.04        11.5 0.36            156           75.0  40 
 RUS  HZ EP        451 14.25                             144    0.0710  102 177 
 RUS  HE ES   1    451 32.61                             144   -0.36 7  102 177 
 RUS  HZ I         451 35.05         7.7 0.34            147            102 177 
 PTB  HZ EP        451 16.63                             132   -0.75 9  150 258 
 PTB  HE ES        451 38.10                             132   -0.57 9  150 258 
 PTB  HZ I         451 39.34        13.2 0.36            132            150 258 
 OCA  HZ EP        451 18.36                             130   -0.04 9  158 353 
 OCA  HN ES        451 40.27                             130   -0.21 9  158 353 
 OCA  HZ I         451 44.63        10.3 0.30            132            158 353 
 SPBC HZ EP        451 19.11                             129    0.14 9  166 219 
 SPBC HE ES        451 41.82                             129    0.32 9  166 219 
 SPBC HZ I         451 48.16        10.1 0.19            131            166 219 
 ZAR  HZ EP        451 22.47                             123   -0.26 9  205 291 
 ZAR  HE ES        451 48.22                             123    0.03 9  205 291 
 ZAR  HZ I         451 53.37        15.8 0.32            124            205 291 
 SML  HZ EP        451 26.41                             118   -0.29 8  243 335 
 SML  HE ES   1    451 55.48                             118    0.22 6  243 335 
 SML  HZ I         452  2.14        14.4 0.10            120            243 335 
 CHI  HZ EP        451 28.40                             117    0.25 8  251 195 
 CHI  HE ES        451 58.47                             117    0.64 8  251 195 
 CHI  HZ I         452  0.80         4.8 0.30            120            251 195 
 HEL  HZ EP   4    451 32.26                             115    1.65 0  274 255 
 HEL  HE ES   1    452  2.41                             115    0.19 6  274 255 
 HEL  HZ I         452  8.96         5.4 0.24            116            274 255 
 GUY2CHZ EP   4    451 35.96                             113    1.91 0  303 235 
 GUY2CHE ES   4    452 10.36                             113    2.02 0  303 235 
 GUY2CHZ I         452 18.26         4.9 0.54                           303 235 
 PTGC HZ EP        451 33.46                             112   -0.73 7  310 159 
 PTGC HE ES   4    452  6.77                             112   -1.82 0  310 159 
 PTGC HZ I         452  9.00         6.7 0.26            115            310 159 
 MON  HZ EP   4    451 37.03                             109   -2.13 0  354 308 
 MON  HN ES   4    452 15.69                             109   -1.74 0  354 308 
 MON  HZ I         452 31.03         2.7 0.56            110            354 308 
 PRA  HZ EP        451 44.47                             107    0.51 6  394 210 
 PRA  HN ES        452 25.61                             107   -0.37 6  394 210 
 PRA  HZ I         452 32.52         4.4 0.26            109            394 210 
                                                                                
