 2015  422 0146 41.6 L   6.902 -73.112141.4  RSN  5 0.6 1.4LRSN                1
 GAP=219        1.42       9.0    10.6 11.4  0.7736E+01  0.2311E+02 -0.3885E+02E
 Epicentro: PIEDECUESTA - SANTANDER                                            3
 ACTION:UPD 15-06-03 16:56 OP:cam  STATUS:               ID:20150422014641 L   I
 OLDACT:REG 15-04-22 12:03 OP:ak   STATUS:               ID:20150422013750     3
 2015-04-22-0137-50M.COL___277                                                 6
 STAT SP IPHASW D HRMM SECON CODA AMPLIT PERI AZIMU VELO AIN AR TRES W  DIS CAZ7
 BAR2 EZ EP   2    147  1.45                             165    0.44 5 35.1 193 
 BAR2 EZ ES        147 15.44                             165   -0.7010 35.1 193 
 BAR2 EZ I         147 19.91         3.0 0.36            171           35.1 193 
 BRR  HZ EP        147  2.89                             152    0.6810 70.0 289 
 BRR  HE ES        147 19.25                             152    0.9710 70.0 289 
 BRR  HZ I         147 23.30         5.4 0.28            151           70.0 289 
 PTB  HZ EP        147  8.38                             130   -0.41 9  154 255 
 PTB  HN ES        147 29.69                             130   -0.30 9  154 255 
 PTB  HZ I         147 32.05         3.3 0.23            133            154 255 
 ZAR  HZ EP        147 13.86                             121    0.15 9  204 289 
 ZAR  HN ES        147 38.68                             121   -0.08 9  204 289 
 ZAR  HZ I         147 44.81         2.6 0.13            124            204 289 
 SML  HZ EP   1    147 17.43                             117    0.38 6  235 333 
 SML  HN ES        147 43.73                             117   -0.97 8  235 333 
 SML  HZ I         147 51.16         4.4 0.26            120            235 333 
                                                                                
