 2015  822 0528 52.0 L   6.238 -73.704108.7  RSN  5 0.3 1.1LRSN                1
 GAP=105        0.71       3.3     3.9  7.1  0.2731E+00  0.7534E+01 -0.8277E+01E
 Epicentro: LANDAZURI - SANTANDER                                              3
 ACTION:UPD 15-09-15 23:04 OP:cam  STATUS:               ID:20150822052852 L   I
 OLDACT:REG 15-08-22 14:18 OP:spq  STATUS:               ID:20150822052741     3
 2015-08-22-0527-41M.COL___349                                                 6
 STAT SP IPHASW D HRMM SECON CODA AMPLIT PERI AZIMU VELO AIN AR TRES W  DIS CAZ7
 BAR2 EZ EP        529  9.57                             145    0.0910 69.7  56 
 BAR2 EZ ES   1    529 23.35                             145    0.20 7 69.7  56 
 BAR2 EZ I         529 24.06        10.4 0.22            152           69.7  56 
 SPBC HN ES        529 23.58                             142   -0.0910 76.6 212 
 SPBC HZ I         529 27.97         2.8 0.10            146           76.6 212 
 RUS  HZ EP   1    529 10.99                             142    0.51 7 78.6 119 
 RUS  HE ES   1    529 24.84                             142   -0.10 7 78.6 119 
 RUS  HZ I         529 26.89         1.9 0.38            149           78.6 119 
 BRR  HZ EP        529 10.86                             135   -0.3610 96.1 359 
 BRR  HN ES        529 26.08                             135   -0.1610 96.1 359 
 BRR  HZ I         529 30.61         2.3 0.40            141           96.1 359 
 ZAR  HZ EP        529 20.36                             115   -0.19 9  188 317 
 ZAR  HN ES   1    529 43.59                             115    0.73 7  188 317 
                                                                                
