 2010 1022 0400 15.9 L   6.795 -73.046142.1  RSN 10 0.5 1.9LRSN                1
 GAP=193        0.99       5.3     8.0  8.5 -0.3063E+00  0.1597E+02  0.7236E+01E
 Epicentro: LOS SANTOS - SANTANDER                                             3
 ACTION:UP  11-02-18 11:11 OP:tino STATUS:               ID:20101022040015 L   I
 2010-10-22-0357-49S.COL___125                                                 6
 STAT SP IPHASW D HRMM SECON CODA AMPLIT PERI AZIMU VELO SNR AR TRES W  DIS CAZ7
 BAR2 SZ EP   1    4 0 34.54                             169    -0.7 9   27 214 
 BAR2 SZ ES   2    4 0 49.18                             169    -1.1 6   27 214 
 BAR2 SZ I         4 0 52.12        13.5 0.11                            27 214 
 BRR  HZ EP   1    4 0 37.50                             149     0.2 9   81 295 
 BRR  HE ES   1    4 0 54.32                             149     0.3 9   81 295 
 BRR  HZ I         4 0 57.13         9.7 0.20                            81 295 
 RUS  HZ EP   1    4 0 39.53                             143     0.3 9  100 182 
 RUS  HN ES   1    4 0 58.11                             143     0.6 9  100 182 
 RUS  HZ I         4 0 59.70         7.9 0.35                           100 182 
 OCA  SZ EP   1    4 0 44.70                             128     0.5 9  163 349 
 NOR  SZ EP        4 0 51.95                             117    -0.510  244 236 
 CHI  HZ EP   1    4 0 53.58                             116    -0.1 7  251 198 
 CHI  HN ES   1    4 1 22.84                             116    -0.3 7  251 198 
 CHI  HZ I         4 1 29.30         2.7 0.57                           251 198 
 ROSC BE ES   2    4 1 25.16                             116     0.7 5  258 213 
 ROSC BZ I         4 1 29.99         4.6 0.14                           258 213 
 HEL  HZ EP   2    4 0 57.27                             113     0.1 5  283 256 
 HEL  HE ES   1    4 1 28.77                             113    -0.5 7  283 256 
 HEL  HZ I         4 1 34.28         4.9 0.57                           283 256 
 RREF HZ EP   2    4 1  2.61                             110    -0.2 4  330 231 
 RREF HN ES   1    4 1 40.24                             110     0.8 6  330 231 
 RREF HZ I         4 1 47.39         4.3 0.26                           330 231 
 PRA  HZ EP   1    4 1  9.74                             106    -0.2 5  397 211 
 PRA  HZ I         4 1 13.15        10.1 0.25                           397 211 
 PRA  HN ES   2    4 1 52.01                             106     0.0 4  397 211 
                                                                                
