 2013 1122 0712 28.5 L   6.794 -73.163148.4  RSN  9 0.4 2.0LRSN                1
 GAP=135        1.05       3.3     5.2  6.1 -0.3566E+01  0.4026E+01 -0.2785E-01E
 Epicentro: LOS SANTOS - SANTANDER                                             3
 ACTION:UPD 14-01-09 16:30 OP:ep   STATUS:               ID:20131122071228 L   I
 OLDACT:UP  13-11-22 14:05 OP:mh   STATUS:               ID:20131122071000     3
 OLDACT:REG 13-11-22 11:29 OP:mh   STATUS:               ID:20131122071000     3
 2013-11-22-0710-00M.COL___282                                                 6
 STAT SP IPHASW D HRMM SECON CODA AMPLIT PERI AZIMU VELO AIN AR TRES W  DIS CAZ7
 BAR2 SZ EP        712 48.56                             171    0.1410 22.5 185 
 BAR2 SZ ES        713  3.09                             171   -0.8710 22.5 185 
 BAR2 SZ I         713  5.17        22.1 0.16            171           22.5 185 
 BRR  HZ EP        712 50.41                             153    0.5610 69.8 300 
 BRR  HN ES        713  7.04                             153    0.5310 69.8 300 
 BRR  HZ I         713  8.69         8.8 0.13            154           69.8 300 
 PAM  SZ EP        712 51.40                             151    0.3110 79.1  40 
 PAM  SN ES        713  8.48                             151   -0.2310 79.1  40 
 PAM  SZ I         713 11.06         8.8 0.26            152           79.1  40 
 RUS  HZ EP        712 52.53                             144    0.0610  100 175 
 RUS  HN ES        713 11.49                             144    0.3210  100 175 
 RUS  HZ I         713 12.31         5.3 0.26            145            100 175 
 PTB  HZ EP   1    712 55.24                             133   -0.26 7  146 259 
 PTB  HN ES        713 16.16                             133   -0.40 9  146 259 
 PTB  HZ I         713 18.45         5.4 0.08            134            146 259 
 SPBC HZ EP        712 56.63                             130   -0.41 9  161 219 
 SPBC HN ES        713 19.77                             130    0.47 9  161 219 
 OCA  HZ EP   1    712 56.47                             130   -0.58 7  161 354 
 OCA  HN ES   1    713 19.92                             130    0.61 7  161 354 
 SML  HZ EP        713  4.98                             118   -0.26 8  243 336 
 SML  HN ES   2    713 32.95                             118   -0.95 4  243 336 
 SML  HZ  AMP      713 35.77       702.0 0.07                           243 336 
 CHI  HZ EP   1    713  6.23                             118    0.01 6  248 195 
 CHI  HN ES        713 35.51                             118   -0.14 8  248 195 
 CHI  HZ I         713 40.00         2.4 0.17            119            248 195 
                                                                                
