 2013  722 0557  6.7 L   6.839 -73.087137.1  RSN  4 0.6 1.3LRSN                1
 GAP=246        1.37      17.9    18.1 11.9  0.2670E+03 -0.7386E+00 -0.4338E+02E
 Epicentro: LOS SANTOS - SANTANDER                                             3
 ACTION:UPD 13-08-12 10:39 OP:ep   STATUS:               ID:20130722055706 L   I
 OLDACT:UP  13-07-22 10:56 OP:cam  STATUS:               ID:20130722054959     3
 OLDACT:REG 13-07-22 08:50 OP:cam  STATUS:               ID:20130722054959     3
 2013-07-22-0549-59M.COL___267                                                 6
 STAT SP IPHASW D HRMM SECON CODA AMPLIT PERI AZIMU VELO AIN AR TRES W  DIS CAZ7
 BAR2 SZ EP        557 25.27                             168   -0.1710 29.2 201 
 BAR2 SZ ES        557 39.42                             168   -0.6310 29.2 201 
 BRR  HZ EP        557 27.02                             150   -0.1510 75.1 293 
 BRR  HN ES        557 43.98                             150    0.8610 75.1 293 
 BRR  HZ I         557 45.56         3.2 0.30            143           75.1 293 
 RUS  HZ EP   2    557 29.76                             141   -0.17 5  105 180 
 RUS  HN ES   1    557 48.59                             141    0.55 7  105 180 
 ZAR  HZ EP        557 39.72                             120    0.64 8  209 290 
 ZAR  HE ES        558  3.46                             120   -0.87 8  209 290 
 ZAR  HZ I         558 10.55         1.9 0.38            117            209 290 
                                                                                
