 2016 1222 0445 38.7 L   6.787 -73.165138.8  RSN  9 0.4 1.8LRSN                1
 GAP=135        0.85       3.7     3.8  5.7 -0.1642E+00  0.7377E+01  0.4128E+01E
 Epicentro: LOS SANTOS - SANTANDER                                             3
 ACTION:UPD 17-01-11 20:17 OP:rebc STATUS:               ID:20161222044538 L   I
 OLDACT:UP  16-12-22 15:31 OP:cog  STATUS:               ID:20161222043743     3
 OLDACT:UP  16-12-22 15:31 OP:cog  STATUS:               ID:20161222043743     3
 OLDACT:REG 16-12-22 12:54 OP:cog  STATUS:               ID:20161222043743     3
 2016-12-22-0438-00M.COL___366                                                 6
 STAT SP IPHASW D HRMM SECON CODA AMPLIT PERI AZIMU VELO AIN AR TRES W  DIS CAZ7
 BAR2 EZ EP        445 57.63                             171    0.1910 21.6 185 
 BAR2 EZ ES        446 11.95                             171   -0.1210 21.6 185 
 BAR2 EZ I         446 13.75        17.8 0.16            172           21.6 185 
 BRR  HZ EP        445 59.53                             152    0.5210 70.0 300 
 BRR  HN ES   3    446 16.81                             152    1.93 2 70.0 300 
 BRR  HZ I         446 20.83        11.9 0.18            151           70.0 300 
 PAM  EZ EP        446  0.39                             149    0.0710 79.9  40 
 PAM  EN ES        446 16.94                             149   -0.2510 79.9  40 
 PAM  EZ I         446 20.17         7.9 0.52            153           79.9  40 
 RUS  HZ EP        446  1.40                             143   -0.2610 99.3 175 
 RUS  HN ES        446 19.90                             143    0.3110 99.3 175 
 RUS  HZ I         446 21.19         7.5 0.38            148           99.3 175 
 PTB  HZ EP        446  4.41                             131   -0.46 9  145 259 
 PTB  HN ES        446 24.76                             131   -0.54 9  145 259 
 PTB  HZ I         446 31.22         9.1 0.54            133            145 259 
 ZAR  HZ EP   4    446 13.31                             121    2.78 0  203 293 
 ZAR  HE ES        446 35.67                             121    0.29 9  203 293 
 CHI  HZ EP        446 15.53                             116   -0.26 8  247 195 
 GUY2CHZ EP   3    446 22.34                             111    0.66 2  299 235 
 GUY2CHE ES   4    446 57.83                             111    2.61 0  299 235 
 GUY2CHZ I         447  3.98         4.3 0.52                           299 235 
 ORTC HZ EP        446 32.30                             105    0.22 6  393 216 
 ORTC HE ES        447 14.18                             105    0.44 6  393 216 
                                                                                
