 2012  522 0758 17.5 L   6.806 -73.162141.5  RSN 14 0.4 2.9LRSN                1
 GAP=134        0.89       3.6     4.4  6.6 -0.3377E+01  0.1195E+02 -0.1506E+01E
 Epicentro: LOS SANTOS - SANTANDER                                             3
 ACTION:UP  12-07-05 12:07 OP:pat  STATUS:               ID:20120522075817 L   I
 2012-05-22-0756-59S.COL___206                                                 6
 STAT SP IPHASW D HRMM SECON CODA AMPLIT PERI AZIMU VELO SNR AR TRES W  DIS CAZ7
 BAR2 SZ IP        758 36.73                             170     0.110   24 185 
 BAR2 SZ I         758 37.08       217.1 0.10                            24 185 
 BAR2 SZ ES   1    758 51.50                             170    -0.1 7   24 185 
 BRR  HZ IP     C  758 38.68                             152     0.610   69 299 
 BRR  HZ I         758 39.04       149.2 0.13                            69 299 
 PAM  SZ EP   1    758 39.44                             150     0.1 7   78  41 
 PAM  SN ES   1    758 56.68                             150     0.3 7   78  41 
 RUS  HZ EP        758 40.59                             143    -0.310  101 175 
 RUS  HZ I         758 41.39        59.5 0.20                           101 175 
 RUS  HN ES   1    758 59.18                             143     0.0 7  101 175 
 PTB  HZ EP   1    758 43.25                             131    -0.8 7  146 258 
 PTB  HN ES   1    759  4.09                             131    -0.6 7  146 258 
 PTB  HZ I         759 10.81        73.2 0.26                           146 258 
 OCA  HZ EP   1    758 45.04                             129    -0.4 7  159 354 
 OCA  HN ES   1    759  6.84                             129    -0.4 7  159 354 
 OCA  HZ I         759 14.60       186.7 0.25                           159 354 
 ZAR  HZ EP   1    758 50.37                             122     0.9 6  202 292 
 ZAR  HN ES   1    759 14.54                             122     0.1 6  202 292 
 ZAR  HZ I         759 20.87        87.8 0.49                           202 292 
 NOR  SZ EP   1    758 53.33                             118     0.4 6  234 234 
 NOR  SN ES   1    759 20.31                             118    -0.2 6  234 234 
 ROSC BN ES   2    759 25.44                             116     0.5 4  252 211 
 ROSC BZ I         759 34.46        85.5 0.47                           252 211 
 HEL  HZ EP   1    758 57.38                             114     0.0 6  270 256 
 HEL  HN ES   1    759 28.65                             114     0.2 6  270 256 
 HEL  HZ I         759 37.27        34.9 0.27                           270 256 
 DBB  SZ EP   1    759  4.67                             109     0.0 5  338 274 
 COD  HZ EP   1    759  5.04                             108    -0.6 5  347 355 
 COD  HZ I         759 51.00        13.7 0.36                           347 355 
 PRA  HZ EP   1    759 11.22                             106     0.3 4  392 209 
 PRA  HN ES   2    759 52.84                             106     0.4 3  392 209 
 YOT  HZ EP   1    759 19.69                             103    -0.7 4  471 229 
                                                                                
