 2012 1222 0231 28.6 L   6.747 -73.154138.7  RSN  8 0.2 1.7LRSN                1
 GAP= 72        0.54       3.4     2.6  4.1  0.1230E+01 -0.6569E+00 -0.7507E+00E
 Epicentro: LOS SANTOS - SANTANDER                                             3
 ACTION:UPD 13-01-04 14:29 OP:ep   STATUS:               ID:20121222023128 L   I
 2012-12-22-0230-00M.COL___243                                                 6
 STAT SP IPHASW D HRMM SECON CODA AMPLIT PERI AZIMU VELO AIN AR TRES W  DIS CAZ7
 BAR2 SZ EP        231 47.41                             172    0.1910 17.4 190 
 BAR2 SZ ES        232  1.87                             172    0.0910 17.4 190 
 BAR2 SZ I         232  3.55        20.6 0.32                          17.4 190 
 GIR2 SZ EP        231 47.45                             164   -0.1010 36.9 353 
 BRR  HZ EP     D  231 49.39                             150    0.3210 73.4 303 
 BRR  HZ I         231 52.07        12.5 0.37                          73.4 303 
 BRR  HN ES   1    232  4.91                             150   -0.16 7 73.4 303 
 PAM  SZ EP   1    231 49.89                             148   -0.45 7 82.5  37 
 PAM  SN ES   1    232  7.33                             148   -0.01 7 82.5  37 
 PAM  SZ I         232  9.59        10.3 0.70                          82.5  37 
 RUS  HZ EP   1    231 51.33                             144    0.14 7 94.9 175 
 RUS  HN ES   1    232  8.58                             144   -0.27 7 94.9 175 
 RUS  HN I         232 10.50         6.6 0.17                          94.9 175 
 PTB  HZ EP   1    231 54.30                             131   -0.47 7  146 261 
 PTB  HE ES   1    232 15.28                             131    0.06 7  146 261 
 PTB  HZ I         232 17.96         7.1 0.26                           146 261 
 TAM  HZ EP        231 55.75                             129    0.12 9  155 103 
 ZAR  HN ES   1    232 25.84                             120    0.08 6  205 294 
 ZAR  HZ I         232 32.17         4.1 0.15                           205 294 
                                                                                
