 2014  522 0356  0.7 L   6.929 -73.001 92.0  RSN  4 0.3 1.0LRSN                1
 GAP=258        0.78       7.7     6.5 21.6  0.3259E+02 -0.4065E+02 -0.1022E+03E
 Epicentro: PIEDECUESTA - SANTANDER                                            3
 ACTION:UPD 15-03-16 16:59 OP:nd   STATUS:               ID:20140522035600 L   I
 OLDACT:UP  14-05-22 19:16 OP:spq  STATUS:               ID:20140522034818d    3
 OLDACT:DUP 14-05-22 19:11 OP:spq  STATUS:               ID:20140522034818d    3
 2014-05-22-0348-17M.COL___252                                                 6
 STAT SP IPHASW D HRMM SECON CODA AMPLIT PERI AZIMU VELO AIN AR TRES W  DIS CAZ7
 RUS  HZ EP        356 21.39                             126    0.3610  115 185 
 RUS  HN ES   1    356 36.61                             126   -0.31 7  115 185 
 RUS  HZ I         356 41.98         1.2 0.19            140            115 185 
 PTB  HZ EP        356 25.39                             115   -0.58 9  167 255 
 PTB  HN ES        356 45.74                             115    0.02 9  167 255 
 PTB  HZ I         356 53.05         1.7 0.44            126            167 255 
 SPBC HN ES        356 49.63                             112    0.15 9  184 220 
 SPBC HZ I         356 53.85         2.4 0.08            124            184 220 
 ZAR  HN ES        356 55.71                             109    0.23 9  214 287 
 ZAR  HZ I         357  1.86         1.3 0.32            119            214 287 
                                                                                
