 2013  322 0452  0.3 L   6.789 -73.144142.0  RSN  9 0.5 2.4LRSN                1
 GAP=137        1.19       4.3     5.2  7.4  0.6860E+00  0.8392E+01  0.6050E-01E
 Epicentro: LOS SANTOS - SANTANDER                                             3
 ACTION:UPD 13-04-09 14:04 OP:ep   STATUS:               ID:20130322045200 L   I
 2013-03-22-0450-00M.COL___245                                                 6
 STAT SP IPHASW D HRMM SECON CODA AMPLIT PERI AZIMU VELO AIN AR TRES W  DIS CAZ7
 BAR2 SZ EP        452 19.33                             171   -0.0810 22.1 191 
 BAR2 SZ ES        452 34.14                             171   -0.2110 22.1 191 
 BAR2 SZ I         452 35.17        79.2 0.36            169           22.1 191 
 BRR  HZ EP     D  452 21.13                             152    0.0910 71.9 299 
 BRR  HN ES        452 38.16                             152    0.9010 71.9 299 
 BRR  HZ I         452 42.67        21.2 0.44            148           71.9 299 
 PAM  SZ EP        452 22.18                             150    0.0510 78.2  39 
 PAM  SN ES        452 39.25                             150    0.0710 78.2  39 
 PAM  SN I         452 40.26        58.4 0.70            154           78.2  39 
 RUS  HZ EP        452 23.32                             144   -0.2310 99.3 176 
 RUS  HN ES        452 41.87                             144    0.1510 99.3 176 
 RUS  HN I         452 42.52        39.8 0.24            146           99.3 176 
 PTB  HZ EP        452 25.84                             131   -1.07 9  148 259 
 PTB  HN ES        452 47.19                             131   -0.51 9  148 259 
 PTB  HN I         452 51.85        32.8 0.24            130            148 259 
 OCA  HZ EP   1    452 28.39                             129   -0.01 7  162 353 
 OCA  HN ES        452 49.95                             129   -0.40 9  162 353 
 OCA  HN I         452 53.91        66.5 0.40            130            162 353 
 ZAR  HZ EP        452 33.07                             122    0.54 9  205 292 
 ZAR  HE ES        452 57.94                             122    0.25 9  205 292 
 ZAR  HE I         453  3.33        75.4 0.40            121            205 292 
 CHI  HZ EP   1    452 38.01                             117    0.39 6  247 195 
 CHI  HN ES   2    453  8.46                             117    1.69 4  247 195 
 CHI  HN I         453  9.51        14.0 0.32            118            247 195 
 HEL  HZ EP   4    452 41.71                             114    1.44 0  272 256 
 HEL  HN ES   4    453 13.08                             114    1.61 0  272 256 
 HEL  HN I         453 18.65         7.6 0.40            114            272 256 
                                                                                
