 2013  722 0407 18.6 L   6.767 -73.143151.2  RSN  8 0.4 1.8LRSN                1
 GAP=185        0.80       4.3     4.9  5.8  0.4884E+01  0.4491E+01 -0.3767E+01E
 Epicentro: LOS SANTOS - SANTANDER                                             3
 ACTION:UPD 13-08-12 10:39 OP:ep   STATUS:               ID:20130722035959 L   I
 OLDACT:UP  13-07-22 10:24 OP:cam  STATUS:               ID:20130722035959 L   3
 OLDACT:UPD 13-07-22 08:35 OP:stll STATUS:               ID:20130722035959 L   3
 2013-07-22-0359-59M.COL___267                                                 6
 STAT SP IPHASW D HRMM SECON CODA AMPLIT PERI AZIMU VELO AIN AR TRES W  DIS CAZ7
 BAR2 SZ EP        4 7 38.68                             173   -0.1210 19.8 193 
 BAR2 SZ I         4 7 54.72        10.6 0.26            157           19.8 193 
 GIR2 SZ EP        4 7 38.83                             166   -0.1610 34.9 351 
 GIR2 SZ ES        4 7 55.08                             166    0.1610 34.9 351 
 BRR  HZ EP        4 7 40.60                             153    0.1710 73.2 301 
 BRR  HZ I         4 7 40.87        13.6 0.26            143           73.2 301 
 BRR  HN ES   1    4 7 57.87                             153    0.40 7 73.2 301 
 RUS  HZ EP   1    4 7 43.09                             146    0.48 7 97.0 176 
 RUS  HN ES        4 8  1.24                             146   -0.1210 97.0 176 
 RUS  HZ I         4 8  2.04         5.3 0.20            126           97.0 176 
 PTB  HZ EP        4 7 45.85                             134   -0.11 9  147 260 
 PTB  HN ES        4 8  6.65                             134   -0.66 9  147 260 
 PTB  HZ I         4 8  8.93         6.2 0.10            117            147 260 
 ZAR  HZ EP   1    4 7 51.87                             123    0.32 6  206 293 
 ZAR  HE ES   1    4 8 18.06                             123    0.79 6  206 293 
 ZAR  HZ I         4 8 22.93         8.0 0.38            111            206 293 
 NOR  HZ EP   2    4 7 54.68                             120    0.25 4  233 235 
 NOR  HZ I         4 8 29.01         4.3 0.20            107            233 235 
 SML  HZ EP        4 7 55.69                             118   -0.19 8  247 336 
 SML  HN ES   2    4 8 24.07                             118   -0.90 4  247 336 
 SML  HZ I         4 8 28.75         7.7 0.10            108            247 336 
                                                                                
