 2012 1122 0915 20.1 L   6.817 -73.159142.6  RSN 15 0.4 3.0LRSN 3.1WRSN        1
 SPEC AVERAGE  MO 13.8 ST  5.7 OM  2.7 f0 3.68 R0.4091 AL 2.93 WI 11.9 MW  3.1 3
 SPEC SD       MO  0.2 ST  5.5 OM  0.8 f00.618 R0.0610 AL      WI      MW  0.1 3
 GAP= 70        0.79       2.6     2.6  4.4 -0.1485E-01  0.4108E+01  0.2480E+01E
 Epicentro: LOS SANTOS - SANTANDER                                             3
 SPEC ROSCBH Z MO 13.9 ST  3.1 OM  2.0 f0 3.13 R0.4696 AL 3.40 WI 13.8 MW  3.2 3
 SPEC ROSCBH Z T 91629 K 0.000 GD  291 VS 4.20 DE 3.20 Q0300.0 QA 0.60 VS 4.20 3
 SPEC RUS HH Z MO 13.4 ST  1.3 OM  1.8 f0 3.25 R0.4523 AL 2.59 WI  7.4 MW  2.9 3
 SPEC RUS HH Z T 916 0 K 0.000 GD  175 VS 4.20 DE 3.20 Q0300.0 QA 0.60 VS 4.20 3
 SPEC GUY SH Z MO 14.0 ST 15.1 OM  2.1 f0 4.70 R0.3128 AL 3.20 WI 12.6 MW  3.3 3
 SPEC GUY SH Z T 91640 K 0.000 GD  334 VS 4.20 DE 3.20 Q0300.0 QA 0.60 VS 4.20 3
 SPEC HEL HH Z MO 13.7 ST  3.3 OM  1.8 f0 3.66 R0.4016 AL 2.55 WI 13.9 MW  3.1 3
 SPEC HEL HH Z T 91631 K 0.000 GD  306 VS 4.20 DE 3.20 Q0300.0 QA 0.60 VS 4.20 3
 ACTION:UPD 12-12-05 15:35 OP:}ep  STATUS:               ID:20121122091520 L   I
 2012-11-22-0910-00M.COL___233                                                 6
 STAT SP IPHASW D HRMM SECON CODA AMPLIT PERI AZIMU VELO AIN AR TRES W  DIS CAZ7
 BAR2 SZ IP        915 39.45                             170    0.1110 25.0 186 
 BAR2 SZ ES        915 54.64                             170    0.2610 25.0 186 
 BAR2 SZ I         915 57.28       292.0 0.36                          25.0 186 
 GIR2 SZ EP     D  915 39.51                             168    0.2210 29.2 352 
 PAM  SZ IP     C  915 42.16                             150    0.2610 76.9  41 
 PAM  SZ I         915 42.49       175.2 0.15                          76.9  41 
 PAM  SN ES        915 58.64                             150   -0.3010 76.9  41 
 RUS  HZ EP        915 43.34                             143   -0.3010  103 175 
 RUS  HE ES        916  1.98                             143   -0.0610  103 175 
 RUS  HE I         916  3.48       132.7 0.27                           103 175 
 PTB  HZ EP        915 46.05                             131   -0.62 9  147 258 
 PTB  HN ES   1    916  7.19                             131   -0.23 7  147 258 
 PTB  HZ I         916  9.90       115.9 0.20                           147 258 
 TAM  HZ IP     D  915 47.59                             129   -0.07 9  157 106 
 TAM  HZ I         915 48.03       131.3 0.27                           157 106 
 TAM  HN ES        916  9.32                             129    0.13 9  157 106 
 OCA  HZ EP   1    915 47.59                             129   -0.34 7  158 354 
 OCA  HN ES   1    916  9.51                             129   -0.15 7  158 354 
 ZAR  HZ EP        915 51.92                             122   -0.16 9  202 292 
 ZAR  HN ES        916 17.56                             122    0.50 9  202 292 
 ZAR  HZ I         916 20.40        72.9 0.22                           202 292 
 CHI  HZ EP        915 57.51                             116   -0.23 8  250 195 
 CHI  HE ES   1    916 26.88                             116   -0.25 6  250 195 
 ROSC BZ EP        915 58.87                             116    0.77 8  254 211 
 ROSC BZ I         916 35.51        73.4 0.40                           254 211 
 HEL  HZ EP   1    916  0.26                             114    0.26 6  271 255 
 HEL  HN ES   1    916 30.53                             114   -0.63 6  271 255 
 HEL  HZ I         916 38.61        42.5 0.52                           271 255 
 GUY  SZ EP        916  4.57                             111    0.80 7  303 235 
 GUY  SZ I         916 50.18        89.6 0.56                           303 235 
 VIL  SZ EP   1    916  3.13                             111   -0.38 5  305 191 
 VIL  SE ES   2    916 37.81                             111    0.41 4  305 191 
 VIL  SZ I         916 53.05        42.3 0.30                           305 191 
 RREF HZ EP        916  6.47                             110    0.40 7  322 229 
 RREF HN ES   1    916 41.80                             110   -0.17 5  322 229 
 RREF HZ I         916 50.65        51.0 0.15                           322 229 
 PRA  HZ EP        916 12.95                             106   -0.63 6  393 209 
 PRA  HN ES   1    916 55.27                             106   -0.05 4  393 209 
 PRA  HZ I         917  2.47        35.5 0.21                           393 209 
                                                                                
