 2010  622 0058  7.6 L   6.804 -73.138140.1  RSN 16 0.5 3.3LRSN                1
 GAP=126        1.05       4.5     7.4  7.5 -0.1612E+02  0.1268E+02  0.5421E+01E
 Epicentro: LOS SANTOS - SANTANDER                                             3
 ACTION:UP  10-08-24 10:12 OP:vdl  STATUS:               ID:20100622005807 L   I
 2010-06-22-0056-06S.COL___118                                                 6
 STAT SP IPHASW D HRMM SECON CODA AMPLIT PERI AZIMU VELO SNR AR TRES W  DIS CAZ7
 BAR2 SZ IP        058 26.85                             170     0.310   24 192 
 BAR2 SZ ES   1    058 40.78                             170    -0.6 7   24 192 
 BRR  HZ IP     C  058 28.66                             151     0.510   72 298 
 BRR  HZ I         058 28.95       726.5 0.20                            72 298 
 BTN  SZ IP        058 29.00                             149    -0.110   80   3 
 BTN  SZ ES   2    058 45.55                             149    -0.3 5   80   3 
 RUS  HZ EP        058 30.81                             142     0.010  101 177 
 RUS  HZ I         058 50.95       188.5 0.29                           101 177 
 BRI  SZ EP        058 31.35                             140     0.410  108  20 
 BRI  SZ ES   1    058 49.41                             140     0.3 7  108  20 
 GUE  SZ EP        058 31.70                             138    -0.110  116  12 
 GRA  SZ IP        058 32.68                             136     0.410  125  17 
 GRA  SZ ES   1    058 51.87                             136     0.3 7  125  17 
 OCA  SZ EP        058 35.11                             128    -0.3 9  160 353 
 OCA  SZ ES   1    058 56.35                             128    -0.8 7  160 353 
 OCA  SZ I         059  0.25       464.2 0.23                           160 353 
 CHI  HZ EP        058 44.43                             116    -0.7 8  249 195 
 CHI  HZ I         059 26.39        57.1 0.42                           249 195 
 HEL  HZ EP   1    058 47.12                             113    -0.5 6  273 256 
 HEL  HZ I         059 25.24       147.2 0.27                           273 256 
 CVER SZ EP   2    058 49.48                             114     1.7 4  273 202 
 GUY  HZ EP   2    058 51.71                             111     0.6 4  302 235 
 GUY  HN ES   2    059 24.99                             111     0.0 4  302 235 
 RREF HZ EP   1    058 53.45                             110    -0.2 5  323 229 
 RREF HE ES   2    059 29.48                             110     0.0 3  323 229 
 RREF HZ I         059 41.14       110.4 0.48                           323 229 
 DBB  SZ EP        058 55.00                             108     0.0 7  340 274 
 TOL  SZ EP   1    058 56.17                             108     0.4 5  344 225 
 SDV  BZ IP        058 56.46                             107    -0.9 6  359  50 
 SDV  BZ I         058 57.25        60.9 0.26                           359  50 
                                                                                
