 2010  922 0140 51.0 L   6.797 -73.115151.3  RSN  4 0.1 1.4LRSN                1
 GAP=230        0.34       7.6    13.0  8.2  0.8436E+02 -0.7688E+02 -0.3814E+02E
 Epicentro: LOS SANTOS - SANTANDER                                             3
 ACTION:UP  11-02-18 11:04 OP:tino STATUS:               ID:20100922014051 L   I
 2010-09-22-0139-43S.COL___122                                                 6
 STAT SP IPHASW D HRMM SECON CODA AMPLIT PERI AZIMU VELO SNR AR TRES W  DIS CAZ7
 BTL  SZ EP        141 11.31                             172     0.110   22 308 
 BAR2 SZ EP   2    141 11.04                             171    -0.3 5   24 199 
 BAR2 SZ I         141 32.09         7.5 0.65                            24 199 
 BRR  HZ IP     D  141 12.90                             152     0.010   74 297 
 BRR  HZ I         141 13.07         8.1 0.10                            74 297 
 BRR  HN ES   1    141 30.01                             152     0.0 7   74 297 
 RUS  HZ EP   2    141 15.34                             145     0.1 5  100 178 
 RUS  HN ES   2    141 34.17                             145     0.0 5  100 178 
 RUS  HZ I         141 34.89         2.0 0.18                           100 178 
                                                                                
