 2017  722 0559 41.8 L   6.800 -73.154147.7  RSN 11 0.3 1.9LRSN                1
 GAP=111        0.82       3.3     3.2  5.3 -0.6635E+00  0.1483E+01  0.3684E+01E
 Epicentro: LOS SANTOS - SANTANDER                                             3
 ACTION:UPD 17-08-30 15:35 OP:rebc STATUS:               ID:20170722055941 L   I
 OLDACT:UP  17-07-22 14:30 OP:dnl  STATUS:               ID:20170722055739     3
 OLDACT:UP  17-07-22 14:30 OP:dnl  STATUS:               ID:20170722055739     3
 OLDACT:REG 17-07-22 13:15 OP:dnl  STATUS:               ID:20170722055739     3
 2017-07-22-0558-00M.COL___380                                                 6
 STAT SP IPHASW D HRMM SECON CODA AMPLIT PERI AZIMU VELO AIN AR TRES W  DIS CAZ7
 BAR2 EZ EP        6 0  1.43                             171   -0.2310 23.1 188 
 BAR2 EZ ES        6 0 16.85                             171   -0.2910 23.1 188 
 BAR2 EZ I         6 0 19.21        19.9 0.34            167           23.1 188 
 BRR  HZ EP        6 0  3.22                             153    0.1110 70.4 299 
 BRR  HN ES        6 0 20.36                             153    0.6210 70.4 299 
 BRR  HZ I         6 0 24.40        10.8 0.16            150           70.4 299 
 PAM  EZ EP        6 0  4.37                             151    0.1110 78.0  40 
 PAM  EN ES        6 0 21.55                             151   -0.2210 78.0  40 
 PAM  EZ I         6 0 23.56        10.1 0.54            146           78.0  40 
 RUS  HN EP   2    6 0  5.74                             144    0.00 5  101 176 
 RUS  HE ES        6 0 24.07                             144   -0.3410  101 176 
 RUS  HN I         6 0 25.12        28.5 0.32            137            101 176 
 PTB  HZ EP        6 0  8.37                             133   -0.47 9  147 259 
 PTB  HE ES        6 0 30.00                             133    0.07 9  147 259 
 PTB  HZ I         6 0 34.19         3.6 0.24            127            147 259 
 SPBC HZ EP        6 0 10.63                             130    0.24 9  163 219 
 SPBC HN ES        6 0 32.65                             130   -0.03 9  163 219 
 SPBC HZ I         6 0 36.19        12.8 0.22            123            163 219 
 YPLC HZ EP        6 0 11.71                             127   -0.06 9  177 151 
 YPLC HN ES        6 0 35.82                             127    0.67 9  177 151 
 YPLC HZ I         6 0 38.59         9.2 0.26            120            177 151 
 NOR  HZ EP   4    6 0 20.43                             119    2.88 0  234 234 
 NOR  HE ES        6 0 45.34                             119   -0.11 8  234 234 
 NOR  HZ I         6 0 51.06         4.2 0.22            114            234 234 
 GUY2CHZ EP   4    6 0 27.47                             113    2.06 0  300 235 
 GUY2CHE ES   4    6 1  1.09                             113    1.67 0  300 235 
 GUY2CHZ I         6 1  7.60         3.2 0.28                           300 235 
 PTGC HZ EP   4    6 0 24.55                             112   -1.22 0  309 158 
 PTGC HZ I         6 0 57.40         3.9 0.38            107            309 158 
 PTGC HN ES   4    6 0 57.72                             112   -2.35 0  309 158 
 SJC  HZ EP   4    6 0 35.61                             106   -1.76 0  409 327 
 SJC  HN ES   4    6 1 16.90                             106   -3.81 0  409 327 
 SJC  HZ I         6 1 20.88         1.8 0.66            102            409 327 
                                                                                
