 2011  222 0923  5.0 L   6.748 -73.200142.9  RSN  5 0.4 1.2LRSN                1
 GAP=194        0.65       6.8    11.5 11.2 -0.2643E+02  0.4188E+02 -0.8959E+00E
 Epicentro: VILLANUEVA - SANTANDER                                             3
 ACTION:UP  11-03-28 15:10 OP:jfem STATUS:               ID:20110222092305 L   I
 2011-02-22-0920-00S.COL___137                                                 6
 STAT SP IPHASW D HRMM SECON CODA AMPLIT PERI AZIMU VELO SNR AR TRES W  DIS CAZ7
 BAR2 SZ EP   2    923 24.15                             173     0.0 5   17 174 
 BAR2 SZ ES   2    923 38.62                             173    -0.5 5   17 174 
 BAR2 SZ I         923 40.48         5.0 0.42                            17 174 
 BTL  SZ EP        923 24.25                             172     0.010   20 338 
 RUS  HZ EP   2    923 27.97                             145    -0.1 5   95 172 
 RUS  HE ES   2    923 46.83                             145     0.7 5   95 172 
 RUS  HZ I         923 47.71         1.8 0.34                            95 172 
 NOR  SN ES   2    924  7.03                             119     0.3 4  227 235 
 CHI  HZ EP   2    923 41.89                             117     0.1 4  242 194 
 CHI  HZ I         923 43.79         1.1 0.65                           242 194 
 CHI  HE ES   2    924  9.64                             117    -0.8 4  242 194 
                                                                                
