 2016  122 0957 29.3 L   6.807 -73.198137.7  RSN  7 0.3 1.6LRSN                1
 GAP=130        0.81       3.0     4.3  6.0 -0.2093E+01  0.8570E+01 -0.5830E+01E
 Epicentro: ZAPATOCA - SANTANDER                                               3
 ACTION:UPD 16-03-09 23:27 OP:cam  STATUS:               ID:20160122095729 L   I
 OLDACT:DUP 16-01-22 20:56 OP:ar   STATUS:               ID:20160122094738d    3
 2016-01-22-0947-37M.COL___315                                                 6
 STAT SP IPHASW D HRMM SECON CODA AMPLIT PERI AZIMU VELO AIN AR TRES W  DIS CAZ7
 BAR2 EZ EP        957 48.29                             170    0.2810 23.8 176 
 BAR2 EZ ES        958  2.17                             170   -0.4110 23.8 176 
 BAR2 EZ I         958  4.51         6.4 0.08            173           23.8 176 
 PAM  EZ EP        957 51.01                             148    0.1010 80.6  43 
 PAM  EN ES        958  8.05                             148    0.3310 80.6  43 
 PAM  EZ I         958 10.45         6.8 0.44            151           80.6  43 
 RUS  HZ EP        957 52.55                             142    0.1410  102 173 
 RUS  HN ES        958 10.33                             142   -0.0710  102 173 
 PTB  HZ EP        957 55.50                             131    0.34 9  142 258 
 PTB  HN ES        958 15.26                             131   -0.04 9  142 258 
 PTB  HZ I         958 17.89         4.7 0.12            132            142 258 
 OCA  HZ EP        957 56.39                             128   -0.51 9  159 355 
 OCA  HN ES        958 18.33                             128   -0.07 9  159 355 
 OCA  HZ I         958 25.61        14.0 0.10            129            159 355 
 ZAR  HZ EP   4    958  3.38                             121    2.69 0  198 293 
 ZAR  HN ES   4    958 26.91                             121    1.77 0  198 293 
 ZAR  HZ I         958 34.84         4.4 0.33            122            198 293 
 SML  HZ EP        958  4.62                             116   -0.57 8  241 336 
 SML  HN ES   1    958 33.76                             116    0.61 6  241 336 
                                                                                
