 2010  822 0714 40.9 L   6.781 -73.047146.6  RSN 10 0.4 1.9LRSN                1
 GAP=170        1.03       4.0     8.1  7.0 -0.9650E+01 -0.7947E+01  0.3155E+01E
 Epicentro: LOS SANTOS - SANTANDER                                             3
 ACTION:UP  10-09-07 10:57 OP:vdl  STATUS:               ID:20100822071441 L   I
 2010-08-22-0714-53S.COL___120                                                 6
 STAT SP IPHASW D HRMM SECON CODA AMPLIT PERI AZIMU VELO SNR AR TRES W  DIS CAZ7
 BAR2 SZ EP        715  0.62                             168    -0.110   26 216 
 BAR2 SZ ES   1    715 15.27                             168    -0.9 7   26 216 
 BAR2 SZ I         715 17.41        14.3 0.33                            26 216 
 BTL  SZ EP        715  0.75                             167     0.010   29 302 
 BTL  SZ ES   1    715 16.25                             167     0.0 7   29 302 
 GIR2 SZ EP   2    715  0.09                             164    -0.8 5   37 334 
 BRR  HZ IP        715  2.48                             148    -0.310   82 296 
 BRR  HZ I         715  2.80        39.5 0.04                            82 296 
 BRR  HN ES        715 20.03                             148     0.210   82 296 
 RUS  HZ EP        715  4.80                             144     0.210   98 182 
 RUS  HE ES        715 23.41                             144     0.410   98 182 
 RUS  HZ I         715 24.40         6.7 0.31                            98 182 
 GUE  SZ EP        715  5.63                             139    -0.110  117   7 
 GUE  SZ I         715 28.16         3.8 0.17                           117   7 
 GRA  SZ EP        715  6.43                             137     0.310  125  12 
 GRA  SZ ES   1    715 26.16                             137     0.3 7  125  12 
 GRA  SZ I         715 27.07        15.2 0.42                           125  12 
 CHI  HZ EP   1    715 18.74                             116     0.0 6  250 198 
 CHI  HZ I         715 20.69         2.7 0.25                           250 198 
 CHI  HN ES   1    715 48.50                             116     0.2 6  250 198 
 RREF HN ES   1    716  5.43                             110     0.9 5  329 231 
 RREF HZ I         716 12.26         6.1 0.47                           329 231 
 PRA  HZ I         715 36.29         2.9 0.42                           396 211 
 PRA  HN ES   1    716 15.69                             106    -1.3 4  396 211 
                                                                                
