 2012  722 0718 27.9 L   6.757 -73.138148.1  RSN  7 0.4 1.7LRSN                1
 GAP=139        0.93       6.4     5.4  9.3 -0.5096E+01  0.1124E+02 -0.9122E+01E
 Epicentro: LOS SANTOS - SANTANDER                                             3
 ACTION:UPD 12-08-14 11:46 OP:ep   STATUS:               ID:20120722071827 L   I
 2012-07-22-0710-00M.COL___215                                                 6
 STAT SP IPHASW D HRMM SECON CODA AMPLIT PERI AZIMU VELO AIN AR TRES W  DIS CAZ7
 BAR2 SZ EP   1    718 47.87                             172     0.1 7   19 195 
 BAR2 SZ ES   1    719  3.00                             172    -0.2 7   19 195 
 BAR2 SZ I         719  5.82        16.3 0.39            169             19 195 
 BRR  HZ EP   1    718 49.83                             152     0.4 7   74 301 
 BRR  HZ I         718 50.29         9.1 0.12            150             74 301 
 BRR  HN ES   1    719  7.11                             152     0.8 7   74 301 
 PAM  SZ EP        718 50.70                             150     0.210   81  37 
 PAM  SN ES   1    719  7.59                             150    -0.6 7   81  37 
 RUS  HN ES   1    719 10.08                             146     0.1 7   96 176 
 RUS  HZ I         719 13.22         5.1 0.27            146             96 176 
 PTB  HZ EP   1    718 54.72                             132    -0.3 7  148 261 
 PTB  HN ES   1    719 15.79                             132    -0.4 7  148 261 
 PTB  HZ I         719 21.73         5.5 0.22            132            148 261 
 ZAR  HN ES   1    719 26.15                             122    -0.2 6  207 293 
 ZAR  HZ I         719 32.31         6.5 0.35            123            207 293 
 NOR  SN ES   2    719 31.38                             119     0.0 4  233 236 
