 2010 1222 0142 46.4 L   6.789 -73.167141.8  RSN 10 0.2 2.1LRSN                1
 GAP=156        0.52       2.1     3.8  3.8 -0.3905E+01  0.4613E+01 -0.3828E+00E
 Epicentro: LOS SANTOS - SANTANDER                                             3
 ACTION:UP  11-01-14 15:26 OP:pat  STATUS:               ID:20101222014246 L   I
 2010-12-22-0141-48S.COL___135                                                 6
 STAT SP IPHASW D HRMM SECON CODA AMPLIT PERI AZIMU VELO SNR AR TRES W  DIS CAZ7
 BTL  SZ IP        143  5.77                             172     0.310   18 322 
 BTL  SZ ES   1    143 20.46                             172     0.2 7   18 322 
 BAR2 SZ IP        143  5.44                             171    -0.110   22 185 
 BAR2 SZ ES   1    143 20.35                             171    -0.1 7   22 185 
 BAR2 SZ I         143 21.66        44.6 0.54                            22 185 
 RUS  HZ EP   1    143  9.38                             143    -0.3 7  100 175 
 RUS  HE ES   1    143 27.82                             143     0.0 7  100 175 
 RUS  HZ I         143 28.90        17.5 0.31                           100 175 
 GRA  SZ IP        143 11.39                             136    -0.110  128  18 
 GRA  SZ ES   1    143 30.75                             136    -0.2 7  128  18 
 GRA  SZ I         143 31.93        13.8 0.21                           128  18 
 OCA  SZ EP   1    143 14.25                             129    -0.2 7  161 354 
 OCA  SZ ES   1    143 36.64                             129     0.2 7  161 354 
 OCA  SZ I         143 40.21        12.6 0.41                           161 354 
 NOR  SZ EP   1    143 21.32                             118    -0.3 6  232 234 
 NOR  SE ES        143 48.88                             118    -0.2 8  232 234 
 CHI  HZ EP   1    143 23.70                             116     0.0 6  247 195 
 CHI  HE ES   1    143 53.01                             116     0.3 6  247 195 
 CHI  HZ I         143 56.90         6.2 0.22                           247 195 
 HEL  HZ EP   2    143 26.48                             114     0.4 4  269 256 
 HEL  HE ES   2    143 56.90                             114    -0.2 4  269 256 
 HEL  HZ I         144  4.26         9.8 0.27                           269 256 
 RREF HZ EP   2    143 32.71                             110     0.6 3  319 229 
 RREF HE ES   2    144  8.10                             110     0.4 3  319 229 
 RREF HZ I         144 17.75         7.0 0.11                           319 229 
 PRA  HZ EP   2    143 39.82                             106     0.3 3  390 209 
                                                                                
