 2015  722 0556 36.3 L   6.481 -73.532  4.0  RSN  5 0.4 1.3LRSN                1
 GAP=131        0.89       2.7     2.0  5.7  0.1006E+01 -0.6499E+00 -0.5908E+01E
 Epicentro: SANTA HELENA DEL OPON - SANTANDER                                  3
 ACTION:UPD 15-09-08 21:50 OP:cam  STATUS:               ID:20150722055636 L   I
 OLDACT:DUP 15-07-22 16:07 OP:stll STATUS:               ID:20150722054748d    3
 2015-07-22-0547-47M.COL___334                                                 6
 STAT SP IPHASW D HRMM SECON CODA AMPLIT PERI AZIMU VELO AIN AR TRES W  DIS CAZ7
 BAR2 EZ IP     D  556 43.41                              47    0.1310 40.6  72 
 BAR2 EZ ES        556 48.35                              47   -0.3910 40.6  72 
 BAR2 EZ I         556 49.02        23.8 0.58             47           40.6  72 
 RUS  HZ EP        556 50.31                              47    0.5110 81.9 143 
 RUS  HN ES        557  0.17                              47   -0.1710 81.9 143 
 RUS  HZ I         557  1.82        10.8 0.36             47           81.9 143 
 CPBEREZ EP        556 52.38                              47   -0.0410  102 274 
 CPBEREN ES        557  4.70                              47   -0.3010  102 274 
 OCA  HN ES        557 29.32                              37   -0.22 9  196   7 
 SML  HE ES        557 44.94                              37    0.71 8  263 347 
                                                                                
