 2016  722 0839 17.4 L   6.775 -73.095139.1  RSN 10 0.4 1.8LRSN                1
 GAP=144        1.03       3.9     4.2  6.5 -0.4388E+00  0.1251E+02  0.1027E+01E
 Epicentro: LOS SANTOS - SANTANDER                                             3
 ACTION:UPD 17-03-29 16:53 OP:lp   STATUS:               ID:20160722083917 L   I
 OLDACT:UP  16-07-22 18:04 OP:ar   STATUS:               ID:20160722083759     3
 OLDACT:REG 16-07-22 14:52 OP:ar   STATUS:               ID:20160722083759     3
 2016-07-22-0837-59S.COL___327                                                 6
 STAT SP IPHASW D HRMM SECON CODA AMPLIT PERI AZIMU VELO AIN AR TRES W  DIS CAZ7
 BAR2 EZ EP        839 36.14                             170   -0.0510 22.4 205 
 BAR2 EZ ES        839 50.36                             170   -0.5010 22.4 205 
 PAM  EZ EP        839 38.96                             150    0.1410 76.2  35 
 PAM  EN ES        839 55.78                             150    0.2410 76.2  35 
 PAM  EZ I         839 58.90        10.1 0.48            154           76.2  35 
 BRR  HZ EP        839 37.99                             149   -0.2010 77.4 298 
 BRR  HN ES        839 54.87                             149    0.4510 77.4 298 
 BRR  HZ I         839 58.94        12.6 0.12            148           77.4 298 
 RUS  HZ EP        839 40.30                             143    0.0410 97.6 179 
 RUS  HN ES        839 58.40                             143    0.2910 97.6 179 
 RUS  HZ I         839 58.90         7.3 0.44            147           97.6 179 
 SPBC HZ EP        839 44.91                             127   -0.61 9  165 221 
 SPBC HN ES        840  7.03                             127   -0.43 9  165 221 
 SPBC HZ I         840 10.71        10.6 0.16            130            165 221 
 ZAR  HZ EP        839 49.59                             120   -0.46 8  210 292 
 ZAR  HN ES        840 15.36                             120   -0.18 8  210 292 
 ZAR  HZ I         840 21.20         7.0 0.28            122            210 292 
 HEL  HZ EP        839 58.65                             113    0.86 7  277 257 
 HEL  HN ES        840 29.37                             113    0.05 7  277 257 
 HEL  HZ I         840 34.63         3.4 0.48            115            277 257 
 URE  HZ EP   4    840  3.43                             112    4.60 0  290 292 
 URE  HN ES        840 30.93                             112   -0.24 7  290 292 
 URE  HZ I         840 38.63         3.5 0.36            114            290 292 
 SOCV BZ EP   4    839 59.35                             111   -0.43 0  298  56 
 SOCV BN ES   4    840 31.09                             111   -1.76 0  298  56 
 GUY2CHZ EP   4    840  2.72                             111    1.69 0  304 236 
 GUY2CHN ES        840 36.11                             111    1.04 7  304 236 
 GUY2CHZ I         840 41.28         3.4 0.34                           304 236 
 SJC  HZ EP   4    840 11.07                             104   -2.29 0  415 327 
 SJC  HN ES   4    840 50.66                             104   -6.37 0  415 327 
 SJC  HZ I         840 53.21         1.8 0.34            106            415 327 
                                                                                
