 2015 1022 0800 36.8 L   7.261 -73.804 30.8  RSN  8 0.4 1.7LRSN                1
 GAP=130        0.83       2.7     2.3  2.7  0.1491E+01 -0.5083E+00 -0.3275E+01E
 Epicentro: PUERTO WILCHES - SANTANDER                                         3
 ACTION:UPD 15-12-22 20:42 OP:cam  STATUS:               ID:20151022080036 L   I
 OLDACT:UP  15-10-22 18:58 OP:mh   STATUS:               ID:20151022075749d    3
 OLDACT:UP  15-10-22 18:58 OP:mh   STATUS:               ID:20151022075749d    3
 OLDACT:DUP 15-10-22 18:54 OP:mh   STATUS:               ID:20151022075749d    3
 2015-10-22-0757-48M.COL___319                                                 6
 STAT SP IPHASW D HRMM SECON CODA AMPLIT PERI AZIMU VELO AIN AR TRES W  DIS CAZ7
 BRR  HZ IP     C  8 0 42.34                             145   -0.2710 19.8 149 
 BRR  HE ES        8 0 47.12                             145    0.0110 19.8 149 
 BRR  HZ I         8 0 48.47        49.1 0.10            147           19.8 149 
 BAR2 EZ EP        8 0 52.89                              61    0.0910  101 137 
 BAR2 EZ ES        8 1  4.65                              61   -0.6010  101 137 
 BAR2 EZ I         8 1  6.78        16.2 0.30             61            101 137 
 ZAR  HZ EP        8 0 54.93                              61    0.1310  119 282 
 ZAR  HN ES        8 1  8.69                              61   -0.1210  119 282 
 ZAR  HZ I         8 1 10.43        16.9 0.34             61            119 282 
 OCA  HZ EP        8 0 55.16                              61    0.0110  121  26 
 OCA  HN ES        8 1  9.56                              61    0.1210  121  26 
 PAM  EZ EP        8 0 56.10                              61    0.3410  122  86 
 PAM  EN ES        8 1 10.50                              61   -0.0210  122  86 
 PAM  EZ I         8 1 12.81        15.7 0.40             61            122  86 
 RUS  HZ EP   1    8 1  2.84                              61    0.97 7  171 152 
 RUS  HN ES   4    8 1 23.97                              61    2.58 0  171 152 
 RUS  HZ I         8 1 24.11         5.6 0.22             61            171 152 
 SML  HZ EP   4    8 1  0.10                              61   -1.39 0  173 350 
 SML  HN ES   2    8 1 20.12                              61   -0.60 4  173 350 
 SML  HZ I         8 1 27.71        15.8 0.22             61            173 350 
 URE  HZ EP   4    8 1  9.06                              61    4.35 0  198 286 
 URE  HN ES   4    8 1 27.51                              61    1.06 0  198 286 
 URE  HZ I         8 1 32.18         4.0 0.18             61            198 286 
                                                                                
