 2014 1122 0618  2.8 L   6.773 -73.142155.0  RSN  6 0.4 1.3LRSN                1
 GAP=236        1.14       6.3     6.9  7.7  0.1755E+02  0.7318E+01 -0.2523E+01E
 Epicentro: LOS SANTOS - SANTANDER                                             3
 ACTION:UPD 14-12-19 15:45 OP:nd   STATUS:               ID:20141122061802 L   I
 OLDACT:DUP 14-11-22 17:01 OP:fm   STATUS:               ID:20141122060738d    3
 OLDACT:REG 14-11-22 13:47 OP:fm   STATUS:               ID:20141122060737     3
 2014-11-22-0607-37M.COL___306                                                 6
 STAT SP IPHASW D HRMM SECON CODA AMPLIT PERI AZIMU VELO AIN AR TRES W  DIS CAZ7
 BAR2 SZ EP        618 23.83                             172    0.3410 20.5 192 
 BAR2 SZ ES        618 39.69                             172    0.0610 20.5 192 
 BAR2 SZ I         618 40.40         5.1 0.18            167           20.5 192 
 BRR  HZ EP        618 25.03                             153   -0.0210 73.0 300 
 BRR  HN ES        618 42.84                             153    0.4310 73.0 300 
 BRR  HZ I         618 43.93         2.4 0.12            150           73.0 300 
 RUS  HZ EP        618 26.87                             146   -0.4010 97.6 176 
 RUS  HN ES        618 45.85                             146   -0.5010 97.6 176 
 RUS  HZ I         618 48.29         1.2 0.24            146           97.6 176 
 PTB  HZ EP        618 30.73                             134    0.21 9  148 260 
 PTB  HN ES        618 51.47                             134   -0.67 9  148 260 
 PTB  HZ I         618 57.62         2.0 0.50            132            148 260 
 SPBC HZ EP        618 32.60                             131    0.76 9  161 220 
 SPBC HN ES        618 54.89                             131    0.41 9  161 220 
 SPBC HZ I         618 59.14         2.6 0.10            130            161 220 
 ZAR  HZ EP        618 35.31                             124   -0.70 8  206 293 
 ZAR  HE ES        619  1.97                             124    0.05 8  206 293 
 ZAR  HZ I         619  8.25         2.7 0.34            124            206 293 
                                                                                
