 2017  522 0057 29.8 L   6.702 -73.206150.0  RSN  5 0.4 1.3LRSN                1
 GAP=223        1.08       6.3     7.3  9.6  0.2138E+02 -0.1948E+01 -0.1319E+02E
 Epicentro: VILLANUEVA - SANTANDER                                             3
 ACTION:UPD 17-06-16 13:37 OP:jn   STATUS:               ID:20170522005729 L   I
 OLDACT:DUP 17-05-22 14:00 OP:ar   STATUS:               ID:20170522004745d    3
 OLDACT:UP  17-05-22 13:59 OP:ar   STATUS:               ID:20170522004744d    3
 OLDACT:UP  17-05-22 13:48 OP:ar   STATUS:               ID:20170522004744d    3
 OLDACT:UP  17-05-22 13:47 OP:ar   STATUS:               ID:20170522004744d    3
 OLDACT:DUP 17-05-22 13:47 OP:ar   STATUS:               ID:20170522004744d    3
 2017-05-22-0048-00M.COL___356                                                 6
 STAT SP IPHASW D HRMM SECON CODA AMPLIT PERI AZIMU VELO AIN AR TRES W  DIS CAZ7
 BRR  HZ EP        057 50.87                             153   -0.5810 71.6 309 
 BRR  HN ES        058  8.18                             153   -0.1410 71.6 309 
 BRR  HZ I         058 11.13         4.3 0.21            152           71.6 309 
 RUS  HZ EP     D  057 53.06                             148   -0.2410 90.5 171 
 RUS  HN ES        058 12.26                             148    0.6410 90.5 171 
 PTB  HZ EP        057 56.28                             135   -0.12 9  139 263 
 PTB  HN ES        058 16.89                             135   -0.24 9  139 263 
 PTB  HZ I         058 22.86         2.4 0.60            135            139 263 
 SPBC HE ES        058 18.79                             133   -0.27 9  151 220 
 ZAR  HZ EP        058  3.00                             124    0.63 9  202 296 
 ZAR  HN ES        058 28.33                             124    0.57 9  202 296 
                                                                                
