 2013 1222 0241  9.7 L   6.819 -73.164147.9  RSN  5 0.5 1.3LRSN                1
 GAP=200        1.16       8.5     8.3 10.1  0.1569E+02  0.2070E+02 -0.8576E+01E
 Epicentro: LOS SANTOS - SANTANDER                                             3
 ACTION:UPD 14-01-13 10:20 OP:ep   STATUS:               ID:20131222024109 L   I
 OLDACT:REG 13-12-22 08:58 OP:jn   STATUS:               ID:20131222024000     3
 2013-12-22-0240-00M.COL___285                                                 6
 STAT SP IPHASW D HRMM SECON CODA AMPLIT PERI AZIMU VELO AIN AR TRES W  DIS CAZ7
 BAR2 SZ ES        241 45.62                             170    0.5010 25.1 185 
 BAR2 SZ I         241 47.46         7.5 0.26            170           25.1 185 
 RUS  HZ EP        241 33.86                             144    0.0810  103 175 
 RUS  HN ES        241 51.84                             144   -0.7510  103 175 
 RUS  HZ I         241 54.72         1.5 0.26            145            103 175 
 PTB  HZ EP        241 36.16                             133   -0.50 9  146 258 
 PTB  HN ES        241 57.42                             133   -0.30 9  146 258 
 SPBC HZ EP        241 38.90                             129    0.55 9  164 218 
 SPBC HN ES        242  1.23                             129    0.49 9  164 218 
 SML  HE ES   2    242 14.57                             118    0.03 4  241 336 
                                                                                
