 2011  122 0919 23.2 L   6.818 -73.054131.1  RSN  5 0.3 1.3LRSN                1
 GAP=169        0.54       2.8    14.0  6.2 -0.6522E+01 -0.2145E+02 -0.3168E+01E
 Epicentro: LOS SANTOS - SANTANDER                                             3
 ACTION:UP  11-02-08 08:42 OP:pat  STATUS:               ID:20110122091923 L   I
 2011-01-22-0916-08S.COL___138                                                 6
 STAT SP IPHASW D HRMM SECON CODA AMPLIT PERI AZIMU VELO SNR AR TRES W  DIS CAZ7
 BAR2 SZ EP   1    919 41.06                             167    -0.2 8   29 210 
 BAR2 SZ I         919 41.78         4.8 0.12                            29 210 
 BAR2 SZ ES   1    919 55.23                             167     0.0 8   29 210 
 RUS  HZ EP   1    919 45.46                             140    -0.2 8  102 182 
 RUS  HZ I         919 46.68         2.2 0.15                           102 182 
 RUS  HE ES   2    920  3.36                             140     0.1 5  102 182 
 GRA  SZ IP        919 46.96                             135     0.210  121  13 
 GRA  SZ I         920  7.69         3.8 0.30                           121  13 
 OCA  SZ EP   1    919 50.34                             126     0.0 7  160 349 
 OCA  SZ ES   1    920 11.53                             126     0.0 7  160 349 
 OCA  SZ I         920 15.66         5.7 0.18                           160 349 
 CHI  HZ EP   2    920  0.24                             113    -0.4 4  253 197 
 CHI  HN ES   2    920 30.66                             113     0.8 4  253 197 
 CHI  HZ I         920 35.46         1.0 0.56                           253 197 
                                                                                
