 2016  622 0434 49.6 L   6.736 -73.172145.8  RSN  5 0.3 1.2LRSN                1
 GAP=240        0.79       4.9     6.1  6.4  0.5028E+01  0.1176E+02  0.4332E+01E
 Epicentro: VILLANUEVA - SANTANDER                                             3
 ACTION:UPD 16-07-21 22:21 OP:rebc STATUS:               ID:20160622043449 L   I
 OLDACT:REG 16-06-22 13:48 OP:ak   STATUS:               ID:20160622042744     3
 2016-06-22-0427-44M.COL___319                                                 6
 STAT SP IPHASW D HRMM SECON CODA AMPLIT PERI AZIMU VELO AIN AR TRES W  DIS CAZ7
 BAR2 EZ ES        435 24.25                             173   -0.1110 15.9 184 
 BAR2 EZ I         435 26.59         3.0 0.13                          15.9 184 
 BRR  HZ EP        435 10.79                             152   -0.0710 72.5 305 
 BRR  HN ES        435 27.64                             152    0.2210 72.5 305 
 PTB  HZ EP        435 15.79                             133   -0.45 9  144 261 
 PTB  HN ES        435 36.51                             133   -0.48 9  144 261 
 PTB  HZ I         435 44.04         2.4 0.38                           144 261 
 SPBC HZ EP        435 17.85                             130    0.40 9  156 220 
 SPBC HN ES        435 39.37                             130    0.23 9  156 220 
 SPBC HZ I         435 43.89         2.6 0.28                           156 220 
 ZAR  HZ EP   2    435 21.94                             122   -0.16 4  204 294 
 ZAR  HE ES        435 47.82                             122    0.40 9  204 294 
 ZAR  HZ I         435 54.01         1.3 0.29                           204 294 
                                                                                
