 2014 1022 0838 10.9 L   6.767 -73.143146.9  RSN  9 0.5 1.5LRSN                1
 GAP=138        1.13       3.9     4.7  7.0 -0.2117E+01  0.9970E+01 -0.5335E+01E
 Epicentro: LOS SANTOS - SANTANDER                                             3
 ACTION:UPD 14-11-29 23:54 OP:nd   STATUS:               ID:20141022083810 L   I
 OLDACT:REG 14-10-23 19:38 OP:mh   STATUS:               ID:20141022083743     3
 2014-10-22-0837-43M.COL___277                                                 6
 STAT SP IPHASW D HRMM SECON CODA AMPLIT PERI AZIMU VELO AIN AR TRES W  DIS CAZ7
 BAR2 SZ EP        838 30.40                             172   -0.1610 19.8 193 
 BAR2 SZ ES        838 45.67                             172   -0.2610 19.8 193 
 BAR2 SZ I         838 46.46         6.5 0.30            173           19.8 193 
 BRR  HZ EP        838 32.59                             152    0.3410 73.3 301 
 BRR  HN ES        838 49.66                             152    0.7310 73.3 301 
 BRR  HZ I         838 54.32         5.1 0.14            151           73.3 301 
 PAM  SZ EP        838 33.70                             150    0.3510 80.0  38 
 PAM  SN ES        838 50.89                             150   -0.0110 80.0  38 
 PAM  SZ I         838 52.83         3.8 0.46            152           80.0  38 
 RUS  HZ EP        838 34.24                             145   -0.2310 96.9 176 
 RUS  HN ES        838 53.03                             145    0.1510 96.9 176 
 RUS  HZ I         838 55.91         1.4 0.42            149           96.9 176 
 PTB  HZ EP        838 37.51                             132   -0.38 9  147 260 
 PTB  HN ES        838 58.24                             132   -0.73 9  147 260 
 PTB  HZ I         838 59.18         3.6 0.12            134            147 260 
 SPBC HE ES        839  1.02                             130   -0.29 9  161 220 
 SPBC HZ I         839  3.19         4.5 0.30            132            161 220 
 ZAR  HZ EP        838 44.43                             122    0.87 8  206 293 
 ZAR  HE ES        839  9.32                             122    0.26 8  206 293 
 ZAR  HZ I         839 15.10         4.6 0.38            124            206 293 
 SML  HZ EP        838 47.53                             117   -0.39 8  247 336 
 SML  HN ES        839 16.05                             117   -0.78 8  247 336 
 SML  HZ I         839 21.47         3.2 0.10            119            247 336 
 GUY2CHN ES        839 28.65                             113    0.43 7  299 235 
                                                                                
