 2013  322 0636 35.5 L   6.796 -73.136141.8  RSN 11 0.5 2.6LRSN                1
 GAP= 72        1.25       3.9     3.7  6.8  0.6269E+00  0.4748E+01  0.5375E+01E
 Epicentro: LOS SANTOS - SANTANDER                                             3
 ACTION:UPD 13-04-09 14:04 OP:ep   STATUS:               ID:20130322063635 L   I
 2013-03-22-0630-00M.COL___245                                                 6
 STAT SP IPHASW D HRMM SECON CODA AMPLIT PERI AZIMU VELO AIN AR TRES W  DIS CAZ7
 BAR2 SZ EP        636 54.40                             170   -0.2010 23.1 193 
 BAR2 SZ ES        637  9.67                             170    0.1310 23.1 193 
 BAR2 SZ I         637 11.70       138.6 0.28            168           23.1 193 
 BRR  HZ EP        636 56.31                             151    0.0710 72.4 298 
 BRR  HN ES        637 13.23                             151    0.7710 72.4 298 
 BRR  HN I         637 13.64       135.6 0.26            150           72.4 298 
 PAM  SZ EP     D  636 57.28                             150    0.0510 77.1  39 
 PAM  SN ES        637 14.29                             150    0.0710 77.1  39 
 PAM  SN I         637 15.27        64.1 0.44            153           77.1  39 
 RUS  HZ EP        636 58.25                             143   -0.5310  100 177 
 RUS  HN ES        637 16.86                             143   -0.1110  100 177 
 RUS  HN I         637 17.71        43.5 0.20            143            100 177 
 PTB  HZ EP        637  2.22                             131    0.03 9  149 259 
 PTB  HN ES        637 21.57                             131   -1.48 9  149 259 
 PTB  HN I         637 27.63        62.5 0.30            130            149 259 
 TAM  HZ EP     D  637  2.72                             130    0.01 9  154 105 
 TAM  HN ES        637 24.21                             130    0.24 9  154 105 
 TAM  HN I         637 24.79        62.6 0.36            132            154 105 
 OCA  HZ EP   1    637  4.07                             129    0.56 7  161 353 
 OCA  HN ES        637 24.51                             129   -0.89 9  161 353 
 ZAR  HZ EP   1    637  8.04                             121    0.27 6  205 292 
 ZAR  HN ES        637 33.75                             121    0.78 8  205 292 
 ZAR  HN I         637 39.83        43.6 0.12            121            205 292 
 CHI  HZ EP        637 12.67                             116   -0.25 8  248 195 
 CHI  HN ES        637 42.84                             116    0.70 8  248 195 
 CHI  HN I         637 47.37        20.5 0.22            116            248 195 
 HEL  HZ EP   1    637 15.80                             114    0.23 6  273 256 
 HEL  HN ES        637 47.27                             114    0.41 8  273 256 
 HEL  HN I         637 53.49        17.7 0.32            114            273 256 
 PRA  HZ EP        637 28.85                             106   -0.01 6  392 210 
 PRA  HN ES   1    638 10.64                             106    0.13 4  392 210 
 PRA  HN I         638 15.80        13.5 0.56            106            392 210 
                                                                                
