 2013  122 0447  7.9 L   6.822 -73.171141.1  RSN  6 0.5 1.7LRSN                1
 GAP=132        1.25       5.7     7.0  9.2 -0.8968E+01  0.1752E+02  0.5997E+01E
 Epicentro: LOS SANTOS - SANTANDER                                             3
 ACTION:UPD 13-02-15 09:15 OP:ep   STATUS:               ID:20130122044707 L   I
 2013-01-22-0438-48M.COL___183                                                 6
 STAT SP IPHASW D HRMM SECON CODA AMPLIT PERI AZIMU VELO AIN AR TRES W  DIS CAZ7
 BAR2 SZ EP        447 28.17                             169    1.1410 25.4 183 
 BAR2 SZ ES        447 42.02                             169    0.0910 25.4 183 
 BAR2 SZ I         447 43.45        14.8 0.16            168           25.4 183 
 BRR  HZ EP        447 28.67                             153    0.3210 67.6 298 
 BRR  HE I         447 49.03        12.2 0.18            142           67.6 298 
 PAM  SZ EP        447 29.52                             150   -0.1110 77.3  42 
 PAM  SZ I         447 29.63         7.0 0.16            148           77.3  42 
 PAM  SN ES        447 46.38                             150   -0.1910 77.3  42 
 RUS  HZ EP        447 30.94                             142   -0.4610  103 175 
 RUS  HN ES        447 49.27                             142   -0.4610  103 175 
 RUS  HN I         447 51.40         4.4 0.36            145            103 175 
 PTB  HZ EP        447 33.93                             131   -0.37 9  146 258 
 PTB  HN ES        447 54.67                             131   -0.21 9  146 258 
 PTB  HN I         448  0.65         7.4 0.52            125            146 258 
 CHI  HZ EP        447 45.13                             116   -0.40 8  250 194 
 CHI  HN ES        448 15.55                             116    0.67 8  250 194 
                                                                                
