 2017  522 0022 15.8 L   6.795 -73.199151.4  RSN  4 0.3 1.4LRSN                1
 GAP=231        0.78       5.3     6.5  7.8  0.1663E+02 -0.1338E+01  0.3814E+01E
 Epicentro: ZAPATOCA - SANTANDER                                               3
 ACTION:UPD 17-06-16 13:37 OP:jn   STATUS:               ID:20170522002215 L   I
 OLDACT:UP  17-06-02 13:01 OP:nlst STATUS:               ID:20170522002215 L   3
 OLDACT:REG 17-05-22 12:51 OP:ar   STATUS:               ID:20170522000246     3
 2017-05-22-0018-00M.COL___356                                                 6
 STAT SP IPHASW D HRMM SECON CODA AMPLIT PERI AZIMU VELO AIN AR TRES W  DIS CAZ7
 BRR  HZ EP     C  022 37.34                             155    0.0710 66.4 301 
 BRR  HN ES        022 54.38                             155    0.3310 66.4 301 
 BRR  HZ I         022 54.81         9.9 0.12            151           66.4 301 
 RUS  HZ EP        022 40.23                             145    0.1510  101 173 
 RUS  HN ES        022 58.61                             145   -0.4410  101 173 
 RUS  HZ I         022 59.57         2.9 0.38            144            101 173 
 PTB  HZ EP        022 42.45                             134   -0.23 9  142 259 
 PTB  HN ES        023  3.50                             134   -0.18 9  142 259 
 PTB  HZ I         023  9.71         2.5 0.38            131            142 259 
 CHI  HE ES   1    023 23.78                             118    0.72 6  247 194 
                                                                                
