 2015  422 0121 46.0 L   6.829 -73.152146.2  RSN 21 0.5 2.5LRSN                1
 GAP=117        1.08       2.6     3.6  4.8 -0.1739E+01  0.4240E+01  0.1259E+01E
 Epicentro: LOS SANTOS - SANTANDER                                             3
 ACTION:UPD 15-06-03 16:56 OP:cam  STATUS:               ID:20150422012146 L   I
 OLDACT:REG 15-04-22 12:00 OP:ak   STATUS:               ID:20150422011747     3
 2015-04-22-0117-47M.COL___271                                                 6
 STAT SP IPHASW D HRMM SECON CODA AMPLIT PERI AZIMU VELO AIN AR TRES W  DIS CAZ7
 BAR2 EZ IP     D  122  5.85                             169    0.1110 26.4 187 
 BAR2 EZ ES        122 20.52                             169   -0.6310 26.4 187 
 BAR2 EZ I         122 23.64        75.8 0.26            168           26.4 187 
 BRR  HZ IP     D  122  7.64                             153    0.5610 69.1 296 
 BRR  HE ES        122 24.33                             153    0.8110 69.1 296 
 BRR  HZ I         122 27.88        48.8 0.24            149           69.1 296 
 PAM  SZ IP     C  122  8.67                             151    0.5310 75.4  41 
 PAM  SZ EP     C  122  8.68                             151           75.4  41 
 PAM  SE ES        122 25.77                             151    0.3610 75.4  41 
 PAM  SZ I         122 26.62        44.6 0.20            156           75.4  41 
 RUS  HZ IP     D  122  9.83                             143   -0.1910  104 176 
 RUS  HE ES        122 28.36                             143   -0.4110  104 176 
 RUS  HZ I         122 30.14        19.4 0.33            146            104 176 
 PTB  HZ EP        122 12.49                             132   -0.51 9  148 258 
 PTB  HN ES        122 33.58                             132   -0.48 9  148 258 
 PTB  HZ I         122 40.95        33.9 0.42            131            148 258 
 OCA  HZ EP        122 13.87                             130   -0.17 9  157 353 
 OCA  HN ES        122 35.80                             130   -0.11 9  157 353 
 OCA  HZ I         122 44.12        68.3 0.48            131            157 353 
 SPBC HZ EP        122 14.98                             129    0.25 9  165 218 
 SPBC HE ES        122 37.10                             129   -0.04 9  165 218 
 SPBC HZ I         122 41.51        54.6 0.32            129            165 218 
 ZAR  HZ EP        122 18.22                             123   -0.06 9  202 291 
 ZAR  HE ES        122 43.09                             123   -0.38 9  202 291 
 ZAR  HZ I         122 49.02        37.8 0.30            122            202 291 
 NOR  HZ EP        122 22.08                             118    0.19 8  236 234 
 NOR  HE ES        122 49.76                             118   -0.13 8  236 234 
 NOR  HZ I         122 55.38        22.8 0.22            119            236 234 
 SML  HZ EP        122 22.18                             118   -0.12 8  241 335 
 SML  HN ES   2    122 50.45                             118   -0.17 4  241 335 
 SML  HZ I         122 53.08        20.9 0.31            119            241 335 
 CHI  HZ EP        122 24.36                             117    0.33 8  252 195 
 CHI  HN ES        122 53.34                             117   -0.36 8  252 195 
 CHI  HZ I         122 56.92        26.1 0.58            119            252 195 
 ROSC BZ EP        122 25.05                             117    0.65 8  255 211 
 ROSC BN ES        122 54.97                             117    0.61 8  255 211 
 ROSC BZ I         123  0.23        58.4 0.45            118            255 211 
 HEL  HZ EP   2    122 27.36                             115    1.11 4  272 255 
 HEL  HN ES        122 57.99                             115    0.35 8  272 255 
 HEL  HZ I         123  4.27        18.1 0.38            115            272 255 
 URE  HZ EP        122 26.27                             114   -0.62 7  282 291 
 URE  HN ES   4    122 56.04                             114   -2.74 0  282 291 
 URE  HZ I         123  9.54        15.9 0.36            114            282 291 
 GUY2CHZ EP        122 30.28                             112    0.51 7  303 234 
 GUY2CHN ES        123  3.22                             112   -0.70 7  303 234 
 GUY2CHZ I         123 12.27        20.0 0.60                           303 234 
 PTGC HZ EP        122 29.07                             111   -1.17 7  312 159 
 PTGC HE ES   4    123  1.53                             111   -3.21 0  312 159 
 CBOC HZ EP   2    122 33.60                             110    0.63 3  334 252 
 CBOC HN ES   2    123  9.04                             110   -0.57 3  334 252 
 CBOC HZ I         123 18.71         5.0 0.56            111            334 252 
 TOL  SZ EP        122 34.95                             109    0.47 7  345 224 
 TOL  SE ES        123 13.06                             109    0.77 7  345 224 
 TOL  SZ I         123 19.58        13.4 0.28            110            345 224 
 MON  HZ EP   4    122 32.46                             109   -2.26 0  351 308 
 MON  HN ES   4    123 10.98                             109   -1.75 0  351 308 
 MON  HZ I         123 13.63         6.7 0.36            109            351 308 
 ORTC HZ EP   1    122 39.65                             106   -0.54 4  398 216 
 ORTC HN ES   2    123 22.43                             106   -0.03 3  398 216 
 ORTC HZ I         123 27.27        12.6 0.26            108            398 216 
 SJC  HZ EP        122 40.07                             106   -1.14 6  406 327 
 SJC  HN ES   4    123 21.41                             106   -2.87 0  406 327 
 SJC  HZ I         123 35.56         5.6 0.66            107            406 327 
 CRJC HZ EP   4    122 46.07                             103   -2.06 0  464   4 
 CRJC HN ES   4    123 32.94                             103   -3.66 0  464   4 
                                                                                
