 2012  622 0717 19.3 L   6.833 -73.134147.1  RSN  7 0.5 2.0LRSN                1
 GAP=136        0.99       5.0     5.9  8.4  0.1886E+01  0.8297E+01  0.1280E+01E
 Epicentro: LOS SANTOS - SANTANDER                                             3
 ACTION:UPD 12-08-06 17:51 OP:ep   STATUS:               ID:20120622071719 L   I
 2012-06-22-0700-00M.COL___193                                                 6
 STAT SP IPHASW D HRMM SECON CODA AMPLIT PERI AZIMU VELO AIN AR TRES W  DIS CAZ7
 BAR2 SZ IP        717 39.30                             169    0.1310 27.1 191 
 BAR2 SZ I         717 39.58        15.6 0.34                          27.1 191 
 BAR2 SZ ES   1    717 54.40                             169   -0.27 7 27.1 191 
 BRR  HZ IP     C  717 40.90                             153    0.3410 70.7 295 
 BRR  HZ I         717 41.13        22.6 0.32                          70.7 295 
 BRR  HN ES   1    717 57.95                             153    0.80 7 70.7 295 
 PAM  SZ EP        717 41.85                             152    0.4010 73.8  41 
 PAM  SN ES   1    717 58.58                             152   -0.14 7 73.8  41 
 RUS  HZ EP        717 43.65                             143    0.2110  104 177 
 RUS  HN ES   1    718  1.75                             143   -0.51 7  104 177 
 PTB  HZ EP        717 45.94                             132   -0.61 9  150 258 
 PTB  HN ES   2    718  7.55                             132   -0.26 5  150 258 
 OCA  HZ EP   2    717 46.97                             131   -0.42 5  157 353 
 OCA  HN ES   1    718  8.36                             131   -0.94 7  157 353 
 ZAR  HN ES   1    718 17.41                             123    0.24 6  204 291 
                                                                                
