 2016 1222 0910 18.4 L   6.748 -73.201137.9  RSN  7 0.6 1.7LRSN                1
 GAP=132        1.46       6.3     5.9  9.2 -0.6995E+00  0.1907E+02  0.4505E+01E
 Epicentro: VILLANUEVA - SANTANDER                                             3
 ACTION:UPD 17-01-11 20:17 OP:rebc STATUS:               ID:20161222091018 L   I
 OLDACT:UP  16-12-22 16:51 OP:cog  STATUS:               ID:20161222090745d    3
 OLDACT:DUP 16-12-22 16:47 OP:cog  STATUS:               ID:20161222090745d    3
 2016-12-22-0908-00M.COL___347                                                 6
 STAT SP IPHASW D HRMM SECON CODA AMPLIT PERI AZIMU VELO AIN AR TRES W  DIS CAZ7
 BAR2 EZ EP        910 36.93                             172   -0.0710 17.4 173 
 BAR2 EZ ES        910 51.22                             172   -0.2710 17.4 173 
 BAR2 EZ I         910 53.20        14.1 0.18            172           17.4 173 
 BRR  HZ EP        910 39.00                             152    0.4010 69.0 305 
 BRR  HE ES        910 55.03                             152    0.6910 69.0 305 
 PAM  EZ EP        910 39.87                             147   -0.4810 85.7  40 
 PAM  EN ES        910 57.38                             147   -0.0710 85.7  40 
 PAM  EZ I         910 59.48         6.3 0.54            151           85.7  40 
 RUS  HZ EP        910 40.91                             144   -0.1310 95.5 172 
 RUS  HN ES        910 59.23                             144    0.5510 95.5 172 
 RUS  HZ I         911  0.63         5.5 0.28            146           95.5 172 
 PTB  HZ EP        910 43.48                             132   -0.63 9  141 261 
 PTB  HN ES        911  2.85                             132   -1.30 9  141 261 
 PTB  HZ I         911 12.19         6.5 0.42            133            141 261 
 ZAR  HZ EP        910 49.96                             121   -0.06 9  201 294 
 ZAR  HE ES        911 15.30                             121    0.64 9  201 294 
 GUY2CHZ EP  4     911  1.86                             111    1.12 7  293 235 
 GUY2CHE ES        911 33.86                             111    0.12 7  293 235 
 GUY2CHZ I         911 43.24         3.6 0.26                           293 235 
                                                                                
