 2016 1222 0539  1.1 L   6.460 -74.119 67.9  RSN  8 0.6 1.3LRSN                1
 GAP= 68        1.38       3.8     3.3  9.8 -0.8754E+00 -0.4017E+01  0.1300E+02E
 Epicentro: PUERTO PARRA - SANTANDER                                           3
 ACTION:UPD 17-01-11 20:17 OP:rebc STATUS:               ID:20161222053901 L   I
 OLDACT:UP  16-12-22 15:55 OP:cog  STATUS:               ID:20161222053742     3
 OLDACT:REG 16-12-22 13:01 OP:cog  STATUS:               ID:20161222053742     3
 2016-12-22-0538-00M.COL___363                                                 6
 STAT SP IPHASW D HRMM SECON CODA AMPLIT PERI AZIMU VELO AIN AR TRES W  DIS CAZ7
 PTB  HZ EP        539 11.40                             147   -0.6210 38.3 283 
 PTB  HE ES        539 20.77                             147    0.2610 38.3 283 
 PTB  HZ I         539 21.26        19.8 0.30            150           38.3 283 
 BRR  HZ EP        539 15.95                             123   -0.1410 84.6  32 
 BRR  HE ES        539 28.22                             123    0.4710 84.6  32 
 BAR2 EZ EP        539 18.31                             117   -0.2410  105  82 
 BAR2 EZ ES        539 32.48                             117    0.3510  105  82 
 BAR2 EZ I         539 33.46        14.2 0.14            118            105  82 
 RUS  HZ EP        539 21.08                             111   -0.7310  131 119 
 RUS  HN ES        539 37.04                             111   -0.9010  131 119 
 RUS  HZ I         539 38.65         2.4 0.20            112            131 119 
 ZAR  HZ EP        539 22.27                             109   -0.07 9  140 324 
 ZAR  HE ES        539 38.79                             109   -0.08 9  140 324 
 PAM  EN ES        539 49.59                             104    0.33 9  185  58 
 GUY2CHZ EP        539 30.00                             103    0.69 9  194 225 
 GUY2CHN ES        539 50.69                             103   -0.59 9  194 225 
 GUY2CHZ I         539 58.42         1.2 0.36                           194 225 
 CHI  HZ EP        539 31.45                             102    0.69 8  207 168 
 CHI  HN ES        539 54.89                             102    1.02 8  207 168 
 CHI  HZ I         539 58.49         1.8 0.28            103            207 168 
                                                                                
