 2012 1022 0715 51.3 L   6.802 -73.115146.5  RSN  9 0.4 2.3LRSN                1
 GAP=140        0.76       2.7     5.6  6.7 -0.1139E+01  0.1897E+02  0.1130E+01E
 Epicentro: LOS SANTOS - SANTANDER                                             3
 ACTION:UPD 12-11-22 17:05 OP:ep   STATUS:               ID:20121022071551 L   I
 2012-10-22-0710-00M.COL___233                                                 6
 STAT SP IPHASW D HRMM SECON CODA AMPLIT PERI AZIMU VELO AIN AR TRES W  DIS CAZ7
 BAR2 SZ EP   1    716 11.07                             170    0.02 7 24.3 198 
 BAR2 SZ ES   2    716 25.76                             170   -0.68 5 24.3 198 
 BAR2 SZ I         716 26.99        29.0 0.25                          24.3 198 
 GIR2 SZ EP   1    716 11.17                             167    0.09 7 31.8 344 
 BRR  HZ EP   1    716 12.98                             152    0.28 7 74.1 297 
 BRR  HN ES   2    716 29.95                             152    0.57 5 74.1 297 
 BRR  HN I         716 30.49        75.3 0.19                          74.1 297 
 PAM  SZ EP   1    716 13.89                             152    0.42 7 75.1  38 
 PAM  SN ES        716 31.03                             152    0.2810 75.1  38 
 PAM  SN I         716 32.06        20.7 0.21                          75.1  38 
 RUS  HZ EP   1    716 15.04                             144   -0.09 7  101 178 
 RUS  HN ES        716 33.74                             144    0.0310  101 178 
 OCA  HZ EP   1    716 19.56                             130   -0.14 7  161 352 
 OCA  HN ES        716 41.20                             130   -0.64 9  161 352 
 OCA  HN I         716 45.32        51.7 0.26                           161 352 
 ZAR  HZ EP   1    716 24.06                             122   -0.06 6  207 292 
 ZAR  HN ES   2    716 49.61                             122   -0.09 4  207 292 
 CHI  HZ EP   1    716 28.54                             117   -0.63 6  250 196 
 CHI  HN ES        716 58.41                             117   -0.28 8  250 196 
 CHI  HN I         717  4.31        10.9 0.46                           250 196 
 HEL  HZ EP   1    716 32.93                             115    1.00 6  275 256 
 HEL  HN ES   2    717  3.80                             115    0.20 4  275 256 
 HEL  HN I         717 15.12         4.3 0.48                           275 256 
                                                                                
