 2013  222 0431 52.4 L   6.829 -73.185134.6  RSN  4 0.4 1.2LRSN                1
 GAP=236        0.80       9.0     8.2 10.6  0.2596E+02  0.2221E+02 -0.1800E+02E
 Epicentro: ZAPATOCA - SANTANDER                                               3
 ACTION:UPD 13-03-12 09:34 OP:ep   STATUS:               ID:20130222043152 L   I
 2013-02-22-0430-00M.COL___238                                                 6
 STAT SP IPHASW D HRMM SECON CODA AMPLIT PERI AZIMU VELO AIN AR TRES W  DIS CAZ7
 BAR2 SZ EP   1    432 10.84                             168    0.12 7 26.2 179 
 BAR2 SZ ES   1    432 24.39                             168   -0.65 7 26.2 179 
 BAR2 SZ I         432 27.12         6.7 0.28            168           26.2 179 
 BRR  HZ EP   1    432 12.33                             152    0.33 7 65.9 298 
 BRR  HN ES   2    432 27.83                             152    0.51 5 65.9 298 
 RUS  HN ES   1    432 33.58                             140    0.37 7  104 174 
 PTB  HZ EP   1    432 17.53                             130   -0.58 7  144 257 
 PTB  HE ES   1    432 38.33                             130    0.14 7  144 257 
 PTB  HZ I         432 41.24         1.4 0.26            131            144 257 
                                                                                
