 2017  622 0129 53.7 L   6.803 -73.120154.9  RSN  6 0.3 1.8LRSN                1
 GAP=253        0.63       4.2     6.8  6.6 -0.2108E+01 -0.1075E+02 -0.3003E+01E
 Epicentro: LOS SANTOS - SANTANDER                                             3
 ACTION:UPD 17-09-14 16:54 OP:jn   STATUS:               ID:20170622012953 L   I
 OLDACT:UP  17-06-22 13:57 OP:lv   STATUS:               ID:20170622012739     3
 OLDACT:REG 17-06-22 12:32 OP:lv   STATUS:               ID:20170622012739     3
 2017-06-22-0128-00M.COL___346                                                 6
 STAT SP IPHASW D HRMM SECON CODA AMPLIT PERI AZIMU VELO AIN AR TRES W  DIS CAZ7
 BRR  HZ IP     C  130 16.41                             153    0.4210 73.6 297 
 BRR  HN ES        130 33.15                             153   -0.2210 73.6 297 
 PTB  HZ EP        130 21.52                             133   -0.18 9  151 259 
 PTB  HN ES        130 43.45                             133   -0.08 9  151 259 
 SPBC HN ES        130 46.08                             131    0.01 9  165 220 
 SPBC HZ I         130 51.58         6.9 0.21            128            165 220 
 ZAR  HZ EP   4    130 29.29                             124    2.26 0  207 292 
 ZAR  HN ES        130 53.23                             124    0.21 8  207 292 
 ZAR  HZ I         130 54.98         4.9 0.13            123            207 292 
 GUY2CHZ EP   4    130 41.35                             114    3.30 0  304 235 
 GUY2CHN ES   4    131 10.96                             114   -1.67 0  304 235 
 GUY2CHZ I         131 22.56         2.6 0.30                           304 235 
 SJC  HZ EP        130 49.31                             107   -0.43 6  411 327 
 SJC  HN ES   4    131 30.17                             107   -3.27 0  411 327 
                                                                                
