 2017  822 0744 10.2 L   6.758 -73.118142.7  RSN  6 0.3 1.4LRSN                1
 GAP=142        0.75       3.3     3.9  5.4 -0.1171E+01  0.7241E+01 -0.1408E+01E
 Epicentro: LOS SANTOS - SANTANDER                                             3
 ACTION:UPD 17-09-04 20:23 OP:rebc STATUS:               ID:20170822074410 L   I
 OLDACT:DUP 17-08-22 18:07 OP:osc  STATUS:               ID:20170822073743d    3
 2017-08-22-0738-00M.COL___411                                                 6
 STAT SP IPHASW D HRMM SECON CODA AMPLIT PERI AZIMU VELO AIN AR TRES W  DIS CAZ7
 BAR2 EZ EP        744 29.07                             172   -0.3110 19.7 201 
 BAR2 EZ ES        744 44.43                             172    0.0810 19.7 201 
 BAR2 EZ I         744 45.13         8.0 0.18            167           19.7 201 
 BRR  HZ EP        744 31.31                             150    0.0110 76.2 300 
 BRR  HE ES        744 47.97                             150    0.2010 76.2 300 
 PAM  EZ EP        744 32.02                             150   -0.1710 79.2  36 
 PAM  EN ES        744 49.29                             150   -0.0610 79.2  36 
 RUS  HN ES        744 51.56                             145    0.2410 95.8 178 
 SPBC HZ EP        744 38.34                             129    0.03 9  162 221 
 SPBC HN ES        744 59.93                             129   -0.30 9  162 221 
 SPBC HZ I         745  7.87         2.3 0.12            127            162 221 
 ZAR  HZ EP        744 43.66                             121    0.74 8  209 293 
 ZAR  HN ES        745  8.04                             121   -0.41 8  209 293 
 ZAR  HZ I         745 13.67         2.5 0.26            120            209 293 
                                                                                
