 2014 1222 0421 41.5 L   6.194 -73.905 17.2  RSN 23 0.6 2.7LRSN                1
 GAP= 64        1.47       3.1     2.9  5.2 -0.1160E+01  0.3485E+01  0.3330E+01E
 Epicentro: LANDAZURI - SANTANDER                                              3
 ACTION:UPD 15-02-10 17:06 OP:nd   STATUS:               ID:20141222042141 L   I
 OLDACT:UP  14-12-22 18:27 OP:mh   STATUS:               ID:20141222041747d    3
 OLDACT:UP  14-12-22 18:24 OP:mh   STATUS:               ID:20141222041747d    3
 OLDACT:UP  14-12-22 18:24 OP:mh   STATUS:               ID:20141222041747d    3
 OLDACT:DUP 14-12-22 18:03 OP:mh   STATUS:               ID:20141222041747d    3
 2014-12-22-0417-46M.COL___290                                                 6
 STAT SP IPHASW D HRMM SECON CODA AMPLIT PERI AZIMU VELO AIN AR TRES W  DIS CAZ7
 SPBC HZ EP   9    421 53.57                             103    1.70 0 62.7 197 
 SPBC HN ES        422  2.92                             107    1.2310 62.7 197 
 SPBC HZ I         422  3.23       956.6 0.12             92           62.7 197 
 PTB  HZ EP        421 53.25                             101    0.0910 71.9 302 
 PTB  HN ES        422  2.11                             101   -0.1710 71.9 302 
 PTB  HZ I         422  2.56       814.0 0.16             91           71.9 302 
 PTB  HZ E         422  2.67                                           71.9 302 
 BAR2 EZ ES        422  7.09                              99   -0.7610 91.3  61 
 BAR2 EZ I         422 10.38       350.1 0.09             91           91.3  61 
 RUS  HZ EP        421 57.96                              99    0.5710 96.9 110 
 RUS  HN ES   1    422  9.87                              99    0.05 7 96.9 110 
 RUS  HZ I         422 11.88       261.9 0.40             91           96.9 110 
 BRR  HZ EP   1    421 57.45                              98   -0.37 7  103  12 
 BRR  HN ES   1    422 10.23                              98   -0.35 7  103  12 
 BRR  HZ I         422 13.51        91.0 0.09             91            103  12 
 NOR  HZ EP   9    422  0.28                              96   -1.24 0  127 237 
 NOR  HN ES   2    422 14.87                              95   -1.07 5  127 237 
 NOR  HZ I         422 16.45       108.6 0.20             91            127 237 
 ROSC BZ EP   1    422  6.25                              56    0.63 7  157 197 
 ROSC BN ES   4    422 25.73                              56    1.25 0  157 197 
 ROSC BZ I         422 32.99        44.3 0.45             91            157 197 
 CHI  HZ EP   1    422  7.93                              56    0.10 7  174 174 
 CHI  HN ES   4    422 29.43                              56    1.02 0  174 174 
 CHI  HZ I         422 34.62        42.4 0.38             91            174 174 
 ZAR  HZ EP   4    422  6.02                              56   -1.82 0  178 324 
 ZAR  HN ES   4    422 22.89                              56   -5.53 0  178 324 
 ZAR  HZ I         422 27.23       102.3 0.36             56            178 324 
 HEL  HZ IP     D  422  7.75                              56   -0.73 9  180 270 
 HEL  HN ES   4    422 27.16                              56   -2.40 0  180 270 
 HEL  HZ I         422 28.79       226.3 0.24             56            180 270 
 PAM  SZ EP        422  9.67                              56    0.52 9  184  46 
 PAM  SN ES        422 30.60                              56   -0.15 9  184  46 
 PAM  SZ I         422 31.91        79.8 0.18             56            184  46 
 RREF HZ EP   1    422 13.05                              56   -0.09 6  214 228 
 RREF HN ES   1    422 37.46                              56   -0.40 6  214 228 
 RREF HZ I         422 39.85        86.7 0.30             56            214 228 
 VIL  SZ I         422 51.51        56.5 0.36             56            231 174 
 TAM  HZ EP   4    422 16.17                              56    1.11 0  235  83 
 TAM  HN ES   4    422 43.86                              56    2.59 0  235  83 
 TAM  HZ I         422 47.25        29.2 0.52             56            235  83 
 OCA  HZ EP        422 15.08                              56   -0.08 8  235  16 
 OCA  HZ I         422 56.27        48.0 0.21             56            235  16 
 CBOC HZ EP        422 16.15                              56    0.86 8  236 261 
 CBOC HN ES   4    422 42.84                              56    1.15 0  236 261 
 CBOC HZ I         422 48.17        38.0 0.40             56            236 261 
 TOL  SZ EP        422 16.43                              56    0.81 8  237 221 
 TOL  SN ES        422 41.50                              56   -0.77 8  237 221 
 TOL  SZ I         422 44.78       155.5 0.53             56            237 221 
 URE  HZ EP   4    422 16.70                              56   -0.02 0  249 314 
 URE  HN ES        422 44.04                              56   -0.18 8  249 314 
 URE  HZ I         422 46.53                              56            249 314 
 ANIL HZ EP   4    422 17.45                              56    0.14 0  251 221 
 ANIL HN ES   4    422 44.82                              56   -0.45 0  251 221 
 ANIL HZ I         422 48.77        14.0 0.17             56            251 221 
 DBB  SZ EP   1    422 20.36                              56    0.86 6  271 290 
 DBB  SZ I         423 13.23        79.6 0.07             56            271 290 
 SML  HZ EP        422 22.38                              55    0.73 7  289 356 
 SML  HN ES        422 53.79                              55    0.78 7  289 356 
 SML  HZ I         423  2.44        34.0 0.44             55            289 356 
 ORTC HZ EP   1    422 22.77                              55    0.53 5  293 211 
 ORTC HN ES        422 52.36                              55   -1.69 7  293 211 
 ORTC HZ I         422 57.96        25.0 0.50             55            293 211 
 PAL  HZ EP   4    422 24.06                              55    1.00 0  299 242 
 PAL  HN ES   4    422 59.23                              55    3.72 0  299 242 
 MON  HZ EP   4    422 27.23                              55   -1.42 0  346 326 
 MON  HZ I         422 49.71         6.4 0.48             55            346 326 
 MON  HN ES   4    423  3.51                              55   -1.95 0  346 326 
 MACC HN ES   4    423 26.02                              55   -1.95 0  448 179 
                                                                                
