 2012  522 0332 58.0 L   6.797 -73.145141.4  RSN 10 0.4 2.2LRSN                1
 GAP=137        0.89       4.2     5.1  7.0  0.2748E+00  0.1172E+02  0.4556E+01E
 Epicentro: LOS SANTOS - SANTANDER                                             3
 ACTION:UP  12-07-05 12:07 OP:pat  STATUS:               ID:20120522033258 L   I
 2012-05-22-0330-00M.COL___200                                                 6
 STAT SP IPHASW D HRMM SECON CODA AMPLIT PERI AZIMU VELO SNR AR TRES W  DIS CAZ7
 BAR2 SZ EP   1    333 17.12                             170     0.0 7   23 190 
 BAR2 SZ I         333 17.44        39.7 0.10                            23 190 
 BAR2 SZ ES   1    333 31.94                             170     0.0 7   23 190 
 BRR  HZ EP   1    333 18.90                             152     0.2 7   71 299 
 BRR  HZ I         333 19.15        53.1 0.16                            71 299 
 BRR  HN ES   1    333 35.62                             152     0.8 7   71 299 
 PAM  SZ EP   1    333 20.01                             150     0.3 7   78  39 
 PAM  SZ I         333 20.20        27.2 0.16                            78  39 
 PAM  SN ES   1    333 36.88                             150     0.2 7   78  39 
 RUS  HZ EP   1    333 21.14                             143    -0.1 7  100 176 
 RUS  HZ I         333 22.34        11.9 0.14                           100 176 
 RUS  HN ES   1    333 38.96                             143    -0.5 7  100 176 
 PTB  HZ EP   2    333 24.21                             131    -0.4 5  148 259 
 PTB  HN ES   1    333 44.92                             131    -0.4 7  148 259 
 PTB  HZ I         333 50.58        10.7 0.14                           148 259 
 OCA  HN ES   1    333 47.19                             128    -0.7 7  161 353 
 OCA  HZ I         333 51.59        32.4 0.48                           161 353 
 ZAR  HZ EP   1    333 29.82                             121    -0.3 6  204 292 
 ZAR  HE ES   1    333 55.27                             121     0.0 6  204 292 
 ZAR  HZ I         334  0.80        21.7 0.39                           204 292 
 HEL  HZ EP   1    333 37.94                             114     0.0 6  272 256 
 HEL  HZ I         334 15.40         9.1 0.49                           272 256 
 RREF HZ EP   2    333 44.87                             110     1.0 3  322 229 
 RREF HZ I         334 27.71         5.2 0.20                           322 229 
 PRA  HZ EP   1    333 51.84                             106     0.5 4  392 210 
 PRA  HN ES   1    334 33.34                             106     0.4 4  392 210 
                                                                                
