 2013  322 0658 10.5 L   6.770 -73.127142.7  RSN  7 0.5 2.1LRSN                1
 GAP=140        1.24       4.9     5.5  8.3  0.9148E+00  0.1200E+02 -0.2217E+01E
 Epicentro: LOS SANTOS - SANTANDER                                             3
 ACTION:UPD 13-04-09 14:04 OP:ep   STATUS:               ID:20130322065810 L   I
 2013-03-22-0650-00M.COL___245                                                 6
 STAT SP IPHASW D HRMM SECON CODA AMPLIT PERI AZIMU VELO AIN AR TRES W  DIS CAZ7
 BAR2 SZ EP        658 29.92                             171    0.1810 20.5 197 
 BAR2 SZ ES        658 44.82                             171    0.1010 20.5 197 
 BAR2 SZ I         658 46.06        21.2 0.28            170           20.5 197 
 BRR  HZ EP        658 31.63                             151    0.0810 74.6 300 
 BRR  HN ES        658 48.68                             151    0.7410 74.6 300 
 BRR  HN I         658 48.95        40.1 0.30            149           74.6 300 
 PAM  SZ EP        658 32.57                             150    0.0610 78.8  37 
 PAM  SN ES        658 48.99                             150   -0.6510 78.8  37 
 RUS  HZ EP        658 34.00                             144    0.2710 97.1 177 
 RUS  HN ES        658 51.98                             144    0.1610 97.1 177 
 RUS  HN I         658 54.24         9.7 0.34            145           97.1 177 
 PTB  HZ EP        658 36.59                             131   -0.79 9  149 260 
 PTB  HN ES        658 57.38                             131   -0.94 9  149 260 
 PTB  HN I         659  2.96        16.0 0.22            130            149 260 
 OCA  HN ES        659  1.01                             128   -0.10 9  164 353 
 OCA  HN I         659  3.57        25.5 0.18            129            164 353 
 ZAR  HZ EP        658 43.65                             121    0.54 8  207 293 
 ZAR  HE ES        659  8.87                             121    0.35 8  207 293 
 ZAR  HE I         659 14.24        16.8 0.14            121            207 293 
                                                                                
