 2012  422 0224  6.0 L   6.750 -73.254151.5  RSN  4 0.3 1.5LRSN                1
 GAP=221        0.72       7.5     6.7  9.5  0.2686E+02 -0.6190E+01 -0.4379E+01E
 Epicentro: ZAPATOCA - SANTANDER                                               3
 ACTION:UPD 12-07-05 11:55 OP:tino STATUS:               ID:20120422022406 L   I
 2012-04-22-0220-00M.COL___186                                                 6
 STAT SP IPHASW D HRMM SECON CODA AMPLIT PERI AZIMU VELO AIN AR TRES W  DIS CAZ7
 BRR  HZ EP   1    224 27.29                             156    -0.1 8   64 308 
 BRR  HZ I         224 27.61         6.6 0.16                            64 308 
 BRR  HN ES   1    224 44.19                             156     0.1 8   64 308 
 RUS  HZ EP   1    224 30.59                             146     0.5 8   97 169 
 RUS  HN ES   1    224 48.55                             146    -0.3 8   97 169 
 RUS  HZ I         224 49.39         2.9 0.23                            97 169 
 PTB  HZ EP   1    224 31.95                             136    -0.4 7  135 260 
 PTB  HN ES        224 53.03                             136     0.110  135 260 
 PTB  HZ I         224 56.98         2.8 0.07                           135 260 
 ZAR  HZ I         224 45.69         6.3 0.10                           195 295 
 ZAR  HE ES   2    225  2.92                             125     0.0 5  195 295 
                                                                                
