 2011  222 0757 15.1 L   6.783 -73.073142.9  RSN  8 0.4 1.9LRSN                1
 GAP=167        0.63       3.3     6.6  7.3 -0.9893E+01  0.1800E+02 -0.4658E+01E
 Epicentro: LOS SANTOS - SANTANDER                                             3
 ACTION:UP  11-03-28 15:10 OP:jfem STATUS:               ID:20110222075715 L   I
 2011-02-22-0755-14S.COL___137                                                 6
 STAT SP IPHASW D HRMM SECON CODA AMPLIT PERI AZIMU VELO SNR AR TRES W  DIS CAZ7
 BAR2 SZ EP        757 34.45                             170     0.010   24 210 
 BAR2 SZ ES   2    757 49.06                             170    -0.4 5   24 210 
 BAR2 SZ I         757 51.15        17.9 0.49                            24 210 
 BTL  SZ EP        757 34.70                             169     0.210   26 305 
 RUS  HZ EP   1    757 38.37                             144    -0.1 7   99 181 
 RUS  HN ES   1    757 56.77                             144     0.1 7   99 181 
 GRA  SZ EP        757 40.07                             136     0.010  125  14 
 GRA  SZ ES   1    757 59.76                             136     0.2 7  125  14 
 GRA  SZ I         758  1.81        12.4 0.28                           125  14 
 OCA  SZ EP   2    757 43.42                             128    -0.1 5  163 350 
 OCA  SZ ES   2    758  4.86                             128    -0.8 5  163 350 
 OCA  SZ I         758  9.74        12.4 0.41                           163 350 
 NOR  SZ EP   2    757 50.90                             117    -0.4 4  240 236 
 NOR  SE ES   2    758 18.74                             117    -0.8 4  240 236 
 CHI  HZ EP   2    757 52.29                             116    -0.4 4  249 197 
 CHI  HN ES   2    758 22.12                             116     0.1 4  249 197 
 CHI  HZ I         758 31.51         2.6 0.32                           249 197 
 HEL  HZ EP   2    757 56.48                             113     0.5 4  279 257 
 HEL  HN ES   2    758 28.86                             113     0.9 4  279 257 
 HEL  HZ I         758 33.70         4.6 0.28                           279 257 
                                                                                
