 2011  822 0042  1.7 L   6.759 -73.110141.0  RSN 14 0.3 3.6LRSN                1
 GAP=160        0.64       2.4     4.9  4.3 -0.2942E+01  0.5747E+01  0.1881E+01E
 Epicentro: LOS SANTOS - SANTANDER                                             3
 ACTION:UPD 12-07-13 15:53 OP:ep   STATUS:               ID:20110822004201 L   I
 2011-08-22-0040-27S.COL___152                                                 6
 STAT SP IPHASW D HRMM SECON CODA AMPLIT PERI AZIMU VELO AIN AR TRES W  DIS CAZ7
 BAR2 SZ IP        042 20.86                             171    0.1410 20.1 203 
 BAR2 SZ ES   1    042 35.10                             171   -0.44 7 20.1 203 
 BAR2 SZ I         042 37.09      1425.3 0.29                          20.1 203 
 BRR  HZ IP     C  042 22.80                             150    0.1010 76.8 300 
 BRR  HE ES   1    042 39.50                             150    0.44 7 76.8 300 
 BRR  HZ I         042 44.33      1685.0 0.15                          76.8 300 
 RUS  HZ EP        042 24.76                             144    0.0910 95.9 178 
 RUS  HN ES   1    042 42.35                             144   -0.22 7 95.9 178 
 RUS  HZ I         042 44.39       455.9 0.40                          95.9 178 
 BRI  SZ IP        042 25.60                             140    0.2010  111  18 
 BRI  SZ ES   1    042 44.26                             140    0.40 7  111  18 
 OCA  SZ EP        042 29.67                             128   -0.48 9  165 352 
 OCA  SZ ES   1    042 51.92                             128   -0.40 7  165 352 
 OCA  SZ I         042 59.05      1027.1 0.20                           165 352 
 NOR  SZ EP   1    042 36.81                             117   -0.45 6  235 236 
 NOR  SN ES   2    043  4.99                             117    0.02 4  235 236 
 CHI  HZ EP   1    042 39.12                             116    0.31 6  245 196 
 CHI  HZ I         043 14.67       103.3 0.32                           245 196 
 HEL  HZ EP   1    042 41.35                             113   -0.66 6  275 257 
 VIL  SZ EP   1    042 44.24                             111   -0.28 5  300 192 
 VIL  SN ES   1    043 17.62                             111   -0.28 5  300 192 
 VIL  SZ I         043 27.45       140.7 0.47                           300 192 
 GUY  SZ EP   1    042 45.77                             111    0.30 5  304 236 
 GUY  SZ I         043 27.39       201.7 0.38                           304 236 
 RREF HZ EP   1    042 48.15                             110    0.47 5  322 230 
 RREF HZ I         043 32.85       167.6 0.28                           322 230 
 TOL  SZ EP   1    042 50.37                             108    0.62 5  343 226 
 ANIL HZ EP   1    042 51.46                             108    0.15 5  357 225 
 ANIL HZ I         043 34.78       254.4 0.33                           357 225 
 PRA  HZ EP   1    042 54.73                             106   -0.13 4  390 210 
 PRA  HN ES   2    043 36.71                             106    0.41 3  390 210 
                                                                                
