 2016 1022 0504  7.7 L   6.784 -73.088144.2  RSN 11 0.3 1.8LRSN                1
 GAP=145        0.66       3.1     4.6  3.9  0.3722E+00 -0.5845E+00  0.2457E+01E
 Epicentro: LOS SANTOS - SANTANDER                                             3
 ACTION:UPD 16-11-09 19:21 OP:rebc STATUS:               ID:20161022050407 L   I
 OLDACT:UP  16-10-22 20:53 OP:and  STATUS:               ID:20161022045642     3
 OLDACT:UP  16-10-22 20:52 OP:and  STATUS:               ID:20161022045642     3
 OLDACT:REG 16-10-22 13:11 OP:and  STATUS:               ID:20161022045642     3
 2016-10-22-0457-00M.COL___346                                                 6
 STAT SP IPHASW D HRMM SECON CODA AMPLIT PERI AZIMU VELO AIN AR TRES W  DIS CAZ7
 BAR2 EZ EP        5 4 27.14                             170    0.0110 23.6 206 
 BAR2 EZ ES        5 4 42.15                             170   -0.1510 23.6 206 
 BAR2 EZ I         5 4 43.69        26.1 0.42            168           23.6 206 
 PAM  EZ EP   2    5 4 30.13                             151    0.54 5 75.0  35 
 PAM  EN ES   4    5 4 47.36                             151    0.69 0 75.0  35 
 PAM  EZ I         5 4 49.82         5.9 0.33            153           75.0  35 
 BRR  HZ IP     C  5 4 29.06                             150    0.0110 77.7 297 
 BRR  HN ES        5 4 45.68                             150   -0.0310 77.7 297 
 BRR  HZ I         5 4 46.63        12.0 0.10            148           77.7 297 
 RUS  HZ EP        5 4 31.12                             144   -0.0110 98.5 180 
 RUS  HN ES        5 4 49.59                             144    0.1710 98.5 180 
 RUS  HZ I         5 4 50.55         6.9 0.20            144           98.5 180 
 PTB  HZ EP   9    5 4 33.80                             130   -1.27 0  154 260 
 PTB  HN ES        5 4 55.11                             130   -0.05 9  154 260 
 PTB  HZ I         5 4 58.16         7.0 0.16            129            154 260 
 SPBC HZ EP        5 4 36.04                             128   -0.29 9  166 221 
 SPBC HN ES        5 4 58.65                             128   -0.01 9  166 221 
 SPBC HZ I         5 5  1.75         9.3 0.12            127            166 221 
 CHI  HZ EP        5 4 44.91                             117   -0.39 8  249 197 
 CHI  HN ES        5 5 15.07                             117    0.43 8  249 197 
 HEL  HZ EP   4    5 4 49.64                             114    1.18 0  278 256 
 HEL  HN ES   4    5 5 21.65                             114    1.38 0  278 256 
 HEL  HZ I         5 5 26.80         3.1 0.22            113            278 256 
 GUY2CHZ EP   4    5 4 52.90                             112    1.20 0  305 236 
 GUY2CHE ES   4    5 5 28.59                             112    2.56 0  305 236 
 GUY2CHZ I         5 5 33.76         3.6 0.44                           305 236 
 CBOC HZ EP        5 4 55.88                             109    0.70 7  339 253 
 CBOC HN ES   4    5 5 30.54                             109   -1.68 0  339 253 
 PRA  HZ EP        5 5  0.67                             106   -0.68 6  394 211 
 PRA  HN ES   4    5 5 42.26                             106   -0.94 0  394 211 
 PRA  HZ I         5 5 50.61         1.6 0.37            106            394 211 
 SJC  HZ EP   4    5 5  1.58                             105   -2.21 0  414 326 
 SJC  HN ES   4    5 5 44.98                             105   -2.57 0  414 326 
                                                                                
