 2010 1122 0144  4.0 L   6.786 -73.112151.4  RSN  6 0.2 1.4LRSN                1
 GAP=163        0.55       4.1     7.9  6.6  0.8342E+01 -0.1474E+02 -0.1388E+01E
 Epicentro: LOS SANTOS - SANTANDER                                             3
 ACTION:UP  10-12-17 16:54 OP:REBC STATUS:               ID:20101122014404 L   I
 2010-11-22-0141-48S.COL___129                                                 6
 STAT SP IPHASW D HRMM SECON CODA AMPLIT PERI AZIMU VELO SNR AR TRES W  DIS CAZ7
 BAR2 SZ EP   1    144 23.98                             171    -0.3 7   23 200 
 BAR2 SZ I         144 42.15         7.7 0.36                            23 200 
 BRR  HZ EP   1    144 26.10                             152     0.1 7   75 298 
 BRR  HE ES   1    144 43.20                             152     0.0 7   75 298 
 BRR  HZ I         144 45.74         7.7 0.12                            75 298 
 RUS  HZ EP   1    144 28.06                             145    -0.1 7   99 178 
 RUS  HN ES   1    144 47.15                             145     0.1 7   99 178 
 RUS  HZ I         144 48.08         1.8 0.11                            99 178 
 GRA  SZ EP   1    144 29.93                             138     0.1 7  126  16 
 GRA  SZ I         144 50.68         8.5 0.32                           126  16 
 NOR  SZ EP   2    144 40.00                             119    -0.3 4  237 235 
 NOR  SZ I         145 11.97         0.6 0.11                           237 235 
 CHI  HZ EP   1    144 42.36                             118     0.4 6  248 196 
 CHI  HZ I         145 20.32         1.7 0.60                           248 196 
                                                                                
