 2016 1022 0620 37.5 L   6.810 -73.098146.9  RSN 12 0.3 1.8LRSN                1
 GAP=188        0.80       2.7     4.2  4.5 -0.2194E+01  0.4266E+00  0.1332E+01E
 Epicentro: LOS SANTOS - SANTANDER                                             3
 ACTION:UPD 16-11-09 19:21 OP:rebc STATUS:               ID:20161022062037 L   I
 OLDACT:UP  16-10-22 22:51 OP:edw  STATUS:               ID:20161022061741     3
 OLDACT:UP  16-10-22 22:50 OP:and  STATUS:               ID:20161022061741     3
 OLDACT:REG 16-10-22 13:15 OP:and  STATUS:               ID:20161022061741     3
 2016-10-22-0618-00M.COL___346                                                 6
 STAT SP IPHASW D HRMM SECON CODA AMPLIT PERI AZIMU VELO AIN AR TRES W  DIS CAZ7
 BAR2 EZ EP        620 57.37                             170    0.0810 25.8 201 
 BAR2 EZ ES        621 12.35                             170   -0.4010 25.8 201 
 BAR2 EZ I         621 13.99         8.3 0.14            167           25.8 201 
 BRR  HZ EP        620 59.21                             151    0.2310 75.4 296 
 BRR  HE ES        621 16.23                             151    0.4710 75.4 296 
 BRR  HZ I         621 17.97         5.7 0.14            148           75.4 296 
 RUS  HZ EP        621  1.39                             144   -0.0010  101 179 
 RUS  HN ES        621 20.28                             144    0.2210  101 179 
 RUS  HZ I         621 21.85         4.9 0.26            144            101 179 
 PTB  HZ EP   9    621  4.08                             131   -0.94 0  153 259 
 PTB  HN ES        621 24.95                             130   -0.62 9  153 259 
 PTB  HZ I         621 30.35         6.9 0.29            129            153 259 
 OCA  HZ EP        621  6.03                             130    0.20 9  160 351 
 OCA  HN ES        621 27.50                             130   -0.46 9  160 351 
 OCA  HZ I         621 33.09        14.0 0.28            130            160 351 
 SPBC HZ EP        621  6.37                             128   -0.08 9  167 220 
 SPBC HN ES        621 28.59                             128   -0.47 9  167 220 
 SPBC HZ I         621 35.38         8.4 0.22            127            167 220 
 NOR  HZ EP   4    621 11.75                             118   -2.04 0  240 235 
 NOR  HN ES        621 42.10                             118   -0.03 8  240 235 
 NOR  HZ I         621 46.34         6.2 0.32            117            240 235 
 CHI  HZ EP        621 15.64                             117    0.14 8  251 196 
 CHI  HN ES   4    621 43.88                             117   -1.28 0  251 196 
 CHI  HZ I         621 48.75         4.0 0.80            117            251 196 
 HEL  HZ EP   4    621 19.58                             114    1.24 0  277 256 
 HEL  HN ES        621 50.48                             114    0.27 7  277 256 
 HEL  HZ I         621 56.06         4.5 0.46            113            277 256 
 GUY2CHZ EP   4    621 24.00                             112    2.31 0  306 235 
 GUY2CHN ES   4    622  0.11                             112    3.93 0  306 235 
 GUY2CHZ I         622  1.70         2.2 0.34                           306 235 
 CBOC HZ EP   4    621 26.10                             109    1.06 0  339 252 
 CBOC HN ES   4    621 58.56                             109   -3.59 0  339 252 
 PRA  HZ EP        621 31.48                             106    0.03 6  396 210 
 PRA  HN ES        622 13.39                             106   -0.16 6  396 210 
 PRA  HZ I         622 19.67         2.8 0.30            106            396 210 
 SJC  HZ EP   2    621 31.84                             106   -1.46 3  411 326 
 SJC  HN ES   4    622 12.50                             106   -4.35 0  411 326 
                                                                                
