 2012  222 0507 23.7 L   6.767 -73.146144.0  RSN 11 0.4 1.9LRSN                1
 GAP=138        0.72       3.6     4.2  4.9 -0.4344E+01  0.3230E+01  0.2445E+01E
 ACTION:UP  12-03-07 16:32 OP:epov STATUS:               ID:20120222050723 L   I
 2012-02-22-0505-59S.COL___194                                                 6
 STAT SP IPHASW D HRMM SECON CODA AMPLIT PERI AZIMU VELO AIN AR TRES W  DIS CAZ7
 BAR2 SZ EP   1    5 7 42.91                             172   -0.11 7 19.7 192 
 BAR2 SZ ES   1    5 7 57.62                             172   -0.49 7 19.7 192 
 BAR2 SZ I         5 7 59.16        24.6 0.39                          19.7 192 
 GIR2 SZ EP   1    5 7 43.01                             166   -0.23 7 34.9 351 
 GIR2 SZ ES   1    5 7 59.02                             166    0.52 7 34.9 351 
 BRR  HZ EP   1    5 7 44.76                             152    0.03 7 73.0 301 
 BRR  HN ES   1    5 8  1.72                             152    0.56 7 73.0 301 
 PAM  SZ EP        5 7 45.81                             150   -0.0710 80.3  38 
 PAM  SZ I         5 7 45.94         9.0 0.20                          80.3  38 
 PAM  SN ES   1    5 8  3.23                             150    0.04 7 80.3  38 
 RUS  HZ EP   1    5 7 46.95                             145   -0.04 7 96.9 176 
 RUS  HN ES   1    5 8  5.46                             145    0.29 7 96.9 176 
 RUS  HZ I         5 8  6.76         9.9 0.28                          96.9 176 
 PTB  HZ EP   1    5 7 49.97                             132   -0.46 7  147 260 
 PTB  HN ES   1    5 8 10.73                             132   -0.57 7  147 260 
 OCA  SZ EP   1    5 7 51.84                             129   -0.35 7  164 353 
 OCA  SZ ES   2    5 8 14.57                             129    0.13 5  164 353 
 NOR  SN ES   1    5 8 26.71                             118    0.03 6  233 235 
 CHI  HZ EP   1    5 8  0.85                             117   -0.04 6  245 195 
 CHI  HZ I         5 8  3.55         4.1 0.41                           245 195 
 HEL  HZ EP   1    5 8  4.57                             115    0.88 6  271 257 
 HEL  HZ I         5 8 41.55         6.8 0.32                           271 257 
 PRA  HZ EP   1    5 8 17.33                             106    0.57 4  389 210 
                                                                                
