 2015 1022 0524  4.6 L   6.769 -73.138148.0  RSN  8 0.3 1.6LRSN                1
 GAP=139        0.79       2.9     3.8  6.5 -0.2139E+01  0.5555E+01  0.3238E+01E
 Epicentro: LOS SANTOS - SANTANDER                                             3
 ACTION:UPD 15-12-22 20:42 OP:cam  STATUS:               ID:20151022052404 L   I
 OLDACT:REG 15-10-22 12:17 OP:mh   STATUS:               ID:20151022051749     3
 2015-10-22-0517-49M.COL___319                                                 6
 STAT SP IPHASW D HRMM SECON CODA AMPLIT PERI AZIMU VELO AIN AR TRES W  DIS CAZ7
 BAR2 EZ I         524 40.20         6.3 0.18            171           20.2 194 
 BRR  HZ EP   1    524 26.65                             152    0.53 7 73.6 301 
 BRR  HN ES        524 43.32                             152    0.4110 73.6 301 
 BRR  HZ I         524 44.46         5.5 0.50            151           73.6 301 
 PAM  EZ EP        524 27.41                             151    0.2310 79.5  38 
 PAM  EN ES        524 44.73                             151   -0.0610 79.5  38 
 PAM  EZ I         524 47.10         3.9 0.44            153           79.5  38 
 RUS  HZ EP        524 28.03                             145   -0.2910 97.1 176 
 RUS  HN ES   1    524 46.55                             145   -0.28 7 97.1 176 
 RUS  HZ I         524 48.16         3.2 0.24            147           97.1 176 
 SPBC HZ EP        524 33.30                             130    0.23 9  161 220 
 SPBC HN ES        524 55.02                             130   -0.25 9  161 220 
 SPBC HZ I         524 57.68         6.5 0.10            130            161 220 
 OCA  HN ES        524 55.70                             130   -0.18 9  164 353 
 OCA  HZ I         524 57.58         8.5 0.20            130            164 353 
 ZAR  HZ EP        524 37.14                             123   -0.26 8  206 293 
 ZAR  HN ES        525  2.48                             123   -0.50 8  206 293 
 ZAR  HZ I         525  8.40         3.4 0.58            123            206 293 
 NOR  HN ES        525  8.61                             119    0.43 8  233 235 
 NOR  HZ I         525 13.17         3.2 0.36            120            233 235 
                                                                                
