 2017  622 0205  4.7 L   6.918 -73.041166.0  RSN  5 0.3 1.6LRSN                1
 GAP=292        0.61       4.3     6.6  7.0 -0.1562E+01 -0.6914E+01  0.1071E+02E
 Epicentro: PIEDECUESTA - SANTANDER                                            3
 ACTION:UPD 17-09-14 16:54 OP:jn   STATUS:               ID:20170622020504 L   I
 OLDACT:REG 17-06-22 12:57 OP:lv   STATUS:               ID:20170622015746     3
 2017-06-22-0158-00M.COL___346                                                 6
 STAT SP IPHASW D HRMM SECON CODA AMPLIT PERI AZIMU VELO AIN AR TRES W  DIS CAZ7
 BRR  HZ EP        2 5 28.16                             154   -0.2310 77.1 286 
 BRR  HE ES        2 5 46.91                             154    0.0510 77.1 286 
 PTB  HZ EP        2 5 34.64                             133   -0.00 9  162 255 
 PTB  HN ES   4    2 5 55.87                             133   -2.11 0  162 255 
 PTB  HZ I         2 5 57.88         2.2 0.07            131            162 255 
 SPBC HZ EP        2 5 36.92                             130    0.49 9  181 219 
 SPBC HN ES        2 6  0.85                             130   -0.32 9  181 219 
 SPBC HZ I         2 6  6.55         6.9 0.23            128            181 219 
 ZAR  HN ES        2 6  6.14                             125    0.05 8  211 288 
 ZAR  HZ I         2 6 11.83         3.5 0.20            124            211 288 
 GUY2CHZ EP   3    2 5 49.99                             114   -1.23 2  318 234 
 GUY2CHN ES        2 6 27.60                             114    0.12 7  318 234 
 GUY2CHZ I         2 6 34.16         1.7 0.24                           318 234 
                                                                                
