 2010  822 0331 27.7 L   6.796 -73.021140.6  RSN  5 0.4 1.4LRSN                1
 GAP=179        1.13       9.3    12.4 13.1 -0.3342E+02 -0.3761E+02 -0.6489E+01E
 Epicentro: CEPITA - SANTANDER                                                 3
 ACTION:UP  10-09-07 10:57 OP:vdl  STATUS:               ID:20100822033127 L   I
 2010-08-22-0329-27S.COL___120                                                 6
 STAT SP IPHASW D HRMM SECON CODA AMPLIT PERI AZIMU VELO SNR AR TRES W  DIS CAZ7
 BAR2 SZ ES   2    332  2.14                             168     0.4 5   29 219 
 BAR2 SZ I         332  4.52         6.7 0.13                            29 219 
 BRR  HZ EP        331 48.45                             148    -0.610   84 294 
 BRR  HZ I         331 49.04         6.2 0.80                            84 294 
 BRR  HN ES        332  5.79                             148     0.110   84 294 
 RUS  HN ES   2    332  8.71                             143    -0.3 5  100 184 
 RUS  HZ I         332 10.04         2.2 0.49                           100 184 
 GUE  SZ EP        331 52.20                             139     0.410  115   5 
 RREF HN ES   1    332 52.16                             109     0.6 5  332 231 
 RREF HZ I         332 57.85         1.6 0.12                           332 231 
                                                                                
