 2016  822 0704  8.4 L   6.533 -73.600100.0  RSN  6 0.5 1.7LRSN                1
 GAP=123        1.18       4.5     5.4  9.6  0.1359E+01  0.1929E+02  0.1368E+02E
 Epicentro: EL CARMEN - SANTANDER                                              3
 ACTION:UPD 16-10-29 15:37 OP:rebc STATUS:               ID:20160822070408 L   I
 OLDACT:DUP 16-08-22 16:56 OP:ak   STATUS:               ID:20160822065734d    3
 OLDACT:REG 16-08-22 13:44 OP:ak   STATUS:               ID:20160822065733     3
 2016-08-22-0658-00M.COL___368                                                 6
 STAT SP IPHASW D HRMM SECON CODA AMPLIT PERI AZIMU VELO AIN AR TRES W  DIS CAZ7
 BAR2 EZ IP     D  7 4 23.19                             154   -0.3210 46.6  82 
 BAR2 EZ ES        7 4 35.48                             154    0.1410 46.6  82 
 BAR2 EZ I         7 4 37.13        38.6 0.52                          46.6  82 
 BRR  HZ IP     D  7 4 24.10                             145   -0.2210 64.7 349 
 BRR  HN ES        7 4 37.35                             145    0.5810 64.7 349 
 PTB  HZ EP        7 4 25.89                             133   -0.8910 94.7 270 
 PTB  HN ES        7 4 40.68                             133   -0.4810 94.7 270 
 SPBC HZ EP        7 4 28.24                             129   -0.1110  111 208 
 SPBC HN ES        7 4 44.36                             129    0.4110  111 208 
 SPBC HZ I         7 4 46.22         8.1 0.17                           111 208 
 ZAR  HZ EP   2    7 4 35.22                             115    0.21 4  175 307 
 ZAR  HN ES        7 4 56.43                             115    0.63 9  175 307 
 ZAR  HZ I         7 5  0.15         5.5 0.17                           175 307 
 PRA  HZ EP   2    7 4 54.96                              99    0.20 3  343 205 
 PRA  HE ES        7 5 31.75                              99    0.79 7  343 205 
                                                                                
