 2013  622 0235 16.7 L   6.809 -73.143147.2  RSN 15 0.5 2.4LRSN                1
 GAP=112        0.90       2.9     3.1  5.4 -0.5120E+00  0.3895E+01  0.2567E+01E
 Epicentro: LOS SANTOS - SANTANDER                                             3
 ACTION:UPD 14-01-08 09:56 OP:ep   STATUS:               ID:20130622023516 L   I
 OLDACT:REG 13-06-22 08:42 OP:carl STATUS:               ID:20130622022959     3
 2013-06-22-0229-59M.COL___267                                                 6
 STAT SP IPHASW D HRMM SECON CODA AMPLIT PERI AZIMU VELO AIN AR TRES W  DIS CAZ7
 BAR2 SZ EP        235 36.44                             170   -0.1010 24.4 190 
 BAR2 SZ ES   1    235 51.77                             170   -0.23 7 24.4 190 
 BAR2 SZ I         235 53.41        35.8 0.22            169           24.4 190 
 GIR2 SZ EP        235 36.56                             168    0.0210 30.3 349 
 BRR  HZ EP        235 38.26                             153    0.2510 71.0 298 
 BRR  HN ES   1    235 55.82                             153    1.20 7 71.0 298 
 BRR  HZ I         235 58.25        29.7 0.16            152           71.0 298 
 RUS  HZ EP        235 40.43                             144   -0.2510  102 176 
 RUS  HN ES   1    235 59.31                             144   -0.06 7  102 176 
 RUS  HZ I         236  1.91        29.3 0.36            146            102 176 
 PTB  HZ EP   1    235 43.11                             132   -0.74 7  148 258 
 PTB  HN ES   1    236  4.57                             132   -0.44 7  148 258 
 PTB  HZ I         236  6.55        43.0 0.12            133            148 258 
 TAM  HZ IP     C  235 44.59                             131    0.09 9  155 105 
 TAM  HN ES        236  6.13                             131   -0.05 9  155 105 
 OCA  HZ EP   1    235 45.50                             130    0.45 7  159 353 
 OCA  HE ES   1    236  6.77                             130   -0.38 7  159 353 
 OCA  HZ I         236 12.15        27.1 0.22            132            159 353 
 NOR  HZ EP        235 52.37                             119   -0.25 8  236 234 
 NOR  HE ES   1    236 20.75                             119    0.12 6  236 234 
 NOR  HZ I         236 24.72        23.1 0.18            120            236 234 
 SML  HZ EP        235 52.98                             118   -0.36 8  243 335 
 SML  HN ES   1    236 21.59                             118   -0.31 6  243 335 
 SML  HZ I         236 25.78        37.5 0.10            119            243 335 
 CHI  HZ EP        235 54.66                             117    0.05 8  250 195 
 CHI  HN ES   1    236 23.73                             117   -0.44 6  250 195 
 CHI  HZ I         236 32.05         8.6 0.52            119            250 195 
 ROSC BZ EP   1    235 56.15                             117    1.12 6  254 211 
 ROSC BN ES   4    236 29.74                             117    4.83 0  254 211 
 HEL  HZ EP   1    235 57.46                             115    0.39 6  273 256 
 HEL  HN ES   1    236 27.64                             115   -0.90 6  273 256 
 HEL  HZ I         236 35.58        13.0 0.38            116            273 256 
 GUY2CHZ EP        236  1.24                             113    0.75 7  302 235 
 GUY2CHN ES   1    236 35.28                             113    0.65 5  302 235 
 GUY2CHZ I         236 41.76        11.6 0.30                           302 235 
 PRA  HZ EP        236 10.48                             107    0.07 6  393 210 
 PRA  HE ES   1    236 51.84                             107   -0.45 4  393 210 
 PRA  HZ I         236 56.62         8.8 0.32            108            393 210 
 ORTC HZ EP   1    236 10.62                             107   -0.19 4  396 216 
 ORTC HN ES        236 52.94                             107   -0.06 6  396 216 
                                                                                
