 2016 1222 0951 32.5 L   6.820 -73.167120.6  RSN  5 0.4 1.2LRSN                1
 GAP=237        1.10       7.6     7.4  8.5  0.3700E+02  0.7401E+01 -0.6286E+01E
 Epicentro: LOS SANTOS - SANTANDER                                             3
 ACTION:UPD 17-01-11 20:17 OP:rebc STATUS:               ID:20161222095132 L   I
 OLDACT:UP  16-12-22 17:12 OP:cog  STATUS:               ID:20161222094749     3
 OLDACT:REG 16-12-22 13:28 OP:cog  STATUS:               ID:20161222094749     3
 2016-12-22-0948-00M.COL___347                                                 6
 STAT SP IPHASW D HRMM SECON CODA AMPLIT PERI AZIMU VELO AIN AR TRES W  DIS CAZ7
 BAR2 EZ EP        951 48.66                             167   -0.4910 25.2 184 
 BAR2 EZ ES        952  2.74                             167    0.6010 25.2 184 
 BAR2 EZ I         952  4.76         5.0 0.36            170           25.2 184 
 BRR  HZ EP        951 50.97                             148    0.1910 68.1 298 
 BRR  HN ES        952  4.41                             148   -0.6310 68.1 298 
 BRR  HZ I         952 11.70         7.9 0.40            150           68.1 298 
 RUS  HZ EP        951 53.86                             137   -0.1910  103 175 
 RUS  HN ES        952 11.06                             137    0.1910  103 175 
 RUS  HZ I         952 12.25         1.8 0.22            143            103 175 
 PTB  HZ EP   4    951 55.47                             126   -1.88 0  146 258 
 PTB  HN ES        952 16.39                             126   -0.35 9  146 258 
 PTB  HZ I         952 19.99         2.1 0.16            130            146 258 
 ZAR  HZ EP        952  3.38                             117    0.28 9  201 292 
 ZAR  HE ES        952 27.57                             117    0.59 9  201 292 
                                                                                
