 2010  722 0222  2.3 L   7.358 -73.575112.4  RSN  7 0.4 1.6LRSN                1
 GAP=167        0.97       5.5    18.2 14.6 -0.3996E+02 -0.1835E+03  0.2639E+02E
 Epicentro: SABANA DE TORRES - SANTANDER                                       3
 ACTION:UPD 10-12-01 15:19 OP:pat  STATUS:               ID:20100722022202 L   I
 2010-07-22-0219-25S.COL___123                                                 6
 STAT SP IPHASW D HRMM SECON CODA AMPLIT PERI AZIMU VELO AIN AR TRES W  DIS CAZ7
 BRR  HZ EP   1    222 17.94                             162     0.1 7   32 209 
 BRR  HN ES   1    222 29.72                             162    -0.2 7   32 209 
 BRR  HZ I         222 31.04        25.3 0.12                            32 209 
 GIR2 SZ EP   1    222 18.46                             154    -0.5 7   52 126 
 GUE  SZ EP   1    222 21.25                             139    -0.5 7   89  54 
 GUE  SZ I         222 21.53        10.0 0.15                            89  54 
 BAR2 SZ EP   1    222 21.81                             137    -0.3 7   95 153 
 BAR2 SZ I         222 37.28        13.3 0.22                            95 153 
 OCA  SZ EP   1    222 23.08                             134     0.5 7  101  16 
 OCA  SZ ES   1    222 38.66                             134     0.3 7  101  16 
 OCA  SZ I         222 39.60        11.2 0.14                           101  16 
 GRA  SZ EP   1    222 22.88                             134     0.2 7  103  56 
 GRA  SZ I         222 39.98         7.6 0.22                           103  56 
 RUS  HZ EP   1    222 29.99                             119     0.2 7  171 161 
 RUS  HZ I         222 51.84         1.3 0.25                           171 161 
 RUS  HN ES   2    222 52.28                             119     1.0 4  171 161 
                                                                                
