 2013  822 0110 40.8 L   6.809 -73.159141.0  RSN 18 0.5 2.3LRSN                1
 GAP=134        0.96       2.8     4.0  5.6 -0.2859E+01  0.9299E+01 -0.2915E+01E
 Epicentro: LOS SANTOS - SANTANDER                                             3
 ACTION:UPD 14-01-14 09:05 OP:ep   STATUS:               ID:20130822011040 L   I
 OLDACT:REG 13-08-22 07:11 OP:nd   STATUS:               ID:20130822010959     3
 2013-08-22-0109-59M.COL___270                                                 6
 STAT SP IPHASW D HRMM SECON CODA AMPLIT PERI AZIMU VELO AIN AR TRES W  DIS CAZ7
 BAR2 SZ IP     D  111  0.03                             170    0.1810 24.1 186 
 BAR2 SZ ES   1    111 14.55                             170   -0.17 7 24.1 186 
 BAR2 SZ I         111 15.84        42.3 0.18            170           24.1 186 
 BRR  HZ IP     C  111  1.95                             152    0.6410 69.4 298 
 BRR  HN ES   2    111 17.62                             152    0.30 5 69.4 298 
 BRR  HZ I         111 23.29        45.0 0.12            145           69.4 298 
 PAM  SZ EP     C  111  2.90                             150    0.4010 77.6  41 
 PAM  SN ES        111 19.79                             150    0.3510 77.6  41 
 PAM  SZ I         111 20.85        26.9 0.18            150           77.6  41 
 RUS  HZ EP     C  111  3.93                             142   -0.2110  102 175 
 RUS  HN ES        111 21.82                             142   -0.5410  102 175 
 RUS  HZ I         111 23.07        22.0 0.46            147            102 175 
 PTB  HZ EP        111  6.61                             131   -0.63 9  146 258 
 PTB  HN ES        111 27.52                             131   -0.36 9  146 258 
 PTB  HZ I         111 30.07        36.5 0.24            128            146 258 
 OCA  HZ EP        111  8.42                             129   -0.19 9  159 354 
 OCA  HN ES        111 30.01                             129   -0.31 9  159 354 
 OCA  HZ I         111 32.37        18.6 0.18            126            159 354 
 SPBC HZ EP        111  8.98                             128    0.09 9  163 218 
 SPBC HN ES        111 30.95                             128    0.13 9  163 218 
 SPBC HZ I         111 32.04        23.5 0.22            128            163 218 
 ZAR  HZ EP        111 13.37                             121    0.64 9  202 292 
 ZAR  HN ES   2    111 37.72                             121    0.06 4  202 292 
 ZAR  HZ I         111 44.78        25.6 0.28            119            202 292 
 NOR  HZ EP   4    111 12.24                             117   -3.92 0  234 234 
 NOR  HN ES   4    111 43.10                             117   -0.66 0  234 234 
 NOR  HZ I         111 45.97        11.9 0.16            117            234 234 
 SML  HZ EP        111 16.10                             116   -0.88 8  242 336 
 SML  HE ES   2    111 45.23                             116    0.02 4  242 336 
 SML  HZ I         111 51.61        37.3 0.10            115            242 336 
 HEL  HZ EP   2    111 20.88                             114    0.27 4  271 256 
 HEL  HN ES   2    111 52.15                             114    0.46 4  271 256 
 HEL  HZ I         112  0.86         9.9 0.26            113            271 256 
 URE  HZ EP   4    111 20.30                             113   -1.12 0  282 292 
 URE  HN ES   4    111 51.96                             113   -1.16 0  282 292 
 URE  HZ I         112  5.92        15.0 0.18            111            282 292 
 GUY2CHZ EP   4    111 25.81                             111    1.72 0  301 234 
 GUY2CHN ES   4    111 57.02                             111   -0.85 0  301 234 
 GUY2CHZ I         112  7.25         8.6 0.52                           301 234 
 RREF HZ EP   4    111 29.17                             110    2.51 0  321 229 
 RREF HN ES   4    112  3.22                             110    0.78 0  321 229 
 RREF HZ I         112  8.18         7.0 0.30            110            321 229 
 DBB  SZ EP        111 28.21                             109    0.33 7  338 274 
 DBB  SZ ES        112  5.01                             109    0.39 7  338 274 
 DBB  SZ I         112  8.80         9.9 0.44            108            338 274 
 COD  HZ EP   2    111 29.16                             108    0.32 3  347 355 
 COD  HN ES   2    112  6.62                             108    0.29 3  347 355 
 COD  HZ I         112 35.61         3.1 0.56            108            347 355 
 PRA  HZ EP        111 35.00                             106    0.85 6  392 209 
 PRA  HN ES        112 15.51                             106   -0.26 6  392 209 
 PRA  HZ I         112 21.34         3.4 0.24            106            392 209 
 SJC  HZ IP     C  111 34.98                             105   -1.02 6  408 327 
 SJC  HN ES   4    112 16.39                             105   -2.67 0  408 327 
 SJC  HZ I         112 20.32         4.4 0.64            104            408 327 
                                                                                
