 2016  322 0612 35.1 L   7.368 -73.244127.5  RSN  4 0.3 1.2LRSN                1
 GAP=178        0.80       6.4     4.1  9.1 -0.6441E+01  0.2300E+02 -0.2115E+02E
 Epicentro: EL PLAYON - SANTANDER                                              3
 ACTION:UPD 16-05-13 21:26 OP:cam  STATUS:               ID:20160322061235 L   I
 OLDACT:REG 16-03-22 13:02 OP:ak   STATUS:               ID:20160322060744     3
 2016-03-22-0607-44M.COL___304                                                 6
 STAT SP IPHASW D HRMM SECON CODA AMPLIT PERI AZIMU VELO AIN AR TRES W  DIS CAZ7
 PAM  EZ EP        612 54.37                             153    0.0510 60.2  93 
 PAM  EN ES        613  9.17                             153   -0.1810 60.2  93 
 PAM  EZ I         613 11.84         4.4 0.30            160           60.2  93 
 BAR2 EZ EP   2    612 55.73                             144    0.13 5 86.0 175 
 BAR2 EZ ES        613 11.87                             144    0.2510 86.0 175 
 BAR2 EZ I         613 14.83         2.3 0.13            150           86.0 175 
 PTB  HZ EP        613  1.40                             125   -0.63 9  162 236 
 PTB  HN ES        613 23.05                             125   -0.01 9  162 236 
 PTB  HZ I         613 25.81         1.6 0.45            129            162 236 
 ZAR  HZ EP        613  4.27                             122    0.58 9  179 275 
 ZAR  HN ES        613 25.94                             122   -0.09 9  179 275 
 ZAR  HZ I         613 30.66         2.5 0.19            126            179 275 
                                                                                
