 2016  222 0125 51.2 L   6.885 -73.158146.6  RSN  6 0.4 1.5LRSN                1
 GAP=130        0.91       3.7     4.7  6.4 -0.2017E+01  0.3665E+01 -0.9488E+00E
 Epicentro: BETULIA - SANTANDER                                                3
 ACTION:UPD 16-03-04 21:28 OP:rebc STATUS:               ID:20160222012550 L   I
 OLDACT:UP  16-02-24 08:04 OP:AK   STATUS:               ID:20160222012550 L   3
 OLDACT:UP  16-02-22 14:54 OP:mh   STATUS:               ID:20160222011741d    3
 OLDACT:DUP 16-02-22 14:49 OP:mh   STATUS:               ID:20160222011741d    3
 OLDACT:UP  16-02-22 14:48 OP:mh   STATUS:               ID:20160222011740d    3
 OLDACT:DUP 16-02-22 14:29 OP:mh   STATUS:               ID:20160222011740d    3
 2016-02-22-0117-39M.COL___330                                                 6
 STAT SP IPHASW D HRMM SECON CODA AMPLIT PERI AZIMU VELO AIN AR TRES W  DIS CAZ7
 BAR2 EZ EP   1    126 10.69                             167   -0.41 7 32.5 185 
 BAR2 EZ ES        126 26.20                             167   -0.4610 32.5 185 
 BAR2 EZ I         126 27.50         5.7 0.28            171           32.5 185 
 BRR  HZ EP        126 12.37                             154    0.2710 65.9 292 
 BRR  HN ES        126 29.13                             154    0.6910 65.9 292 
 BRR  HZ I         126 29.67         5.1 0.12            153           65.9 292 
 PAM  EZ EP        126 13.43                             153    0.3210 71.3  45 
 PAM  EN ES        126 30.13                             153   -0.1010 71.3  45 
 PAM  EZ I         126 32.30         7.5 0.26            152           71.3  45 
 RUS  HZ EP        126 15.60                             141   -0.0910  110 176 
 RUS  HN ES        126 35.10                             141    0.2810  110 176 
 RUS  HZ I         126 36.35         1.6 0.44            145            110 176 
 PTB  HZ EP        126 18.33                             132    0.07 9  149 255 
 PTB  HN ES        126 38.93                             132   -0.47 9  149 255 
 PTB  HZ I         126 41.48         3.9 0.30            133            149 255 
 OCA  HZ EP   1    126 18.48                             132   -0.17 7  151 353 
 OCA  HN ES        126 39.79                             132   -0.30 9  151 353 
 OCA  HZ I         126 48.92         8.5 0.30            131            151 353 
                                                                                
