 2010  722 0532 22.7 L   6.762 -73.100140.0  RSN  8 0.4 1.7LRSN                1
 GAP=164        0.99       5.6    12.4 10.7 -0.1731E+01 -0.4590E+02 -0.9367E+01E
 Epicentro: LOS SANTOS - SANTANDER                                             3
 ACTION:UPD 10-12-01 15:19 OP:pat  STATUS:               ID:20100722053222 L   I
 2010-07-22-0529-03S.COL___123                                                 6
 STAT SP IPHASW D HRMM SECON CODA AMPLIT PERI AZIMU VELO AIN AR TRES W  DIS CAZ7
 BAR2 SZ EP   1    532 41.32                             171    -0.3 8   21 206 
 BAR2 SZ ES   2    532 56.38                             171     0.0 5   21 206 
 BAR2 SZ I         532 57.65        14.7 0.23                            21 206 
 GIR2 SZ EP   2    532 41.43                             165    -0.5 5   37 344 
 BRR  HZ EP   1    532 43.30                             150    -0.4 8   78 300 
 BRR  HN ES   1    533  0.25                             150     0.3 8   78 300 
 BRR  HZ I         533  4.31        13.5 0.05                            78 300 
 RUS  HZ EP   1    532 45.30                             144    -0.3 8   96 179 
 RUS  HN ES   1    533  3.66                             144     0.2 8   96 179 
 RUS  HZ I         533  4.93         4.0 0.39                            96 179 
 GUE  SZ EP   1    532 46.45                             137    -0.7 8  120   9 
 GUE  SZ I         533  5.25         2.7 0.18                           120   9 
 GRA  SZ EP        532 48.24                             135     0.510  128  15 
 GRA  SZ ES   2    533  7.50                             135     0.3 5  128  15 
 GRA  SZ I         533  8.74         6.0 0.49                           128  15 
 CHI  HZ EP   2    533  0.60                             116     0.8 4  246 197 
 CHI  HZ I         533 40.38         2.6 0.37                           246 197 
 PRA  HZ EP   2    533 16.56                             106     0.6 3  391 211 
 PRA  HZ I         534  3.22         3.8 0.23                           391 211 
                                                                                
