 2010  722 0551 45.8 L   6.757 -73.122138.0  RSN  6 0.5 1.4LRSN                1
 GAP=162        1.25       9.2    14.8 15.0 -0.2730E+02 -0.7485E+02 -0.2474E+02E
 Epicentro: LOS SANTOS - SANTANDER                                             3
 ACTION:UPD 10-12-01 15:19 OP:pat  STATUS:               ID:20100722055145 L   I
 2010-07-22-0547-33S.COL___123                                                 6
 STAT SP IPHASW D HRMM SECON CODA AMPLIT PERI AZIMU VELO AIN AR TRES W  DIS CAZ7
 BAR2 SZ ES   2    552 17.95                             172    -1.0 5   19 200 
 BAR2 SZ I         552 20.20         8.4 0.25                            19 200 
 GIR2 SZ EP   2    552  4.49                             165    -0.3 5   36 348 
 BRR  HZ IP     C  552  6.24                             150    -0.210   76 301 
 BRR  HE ES   1    552 22.96                             150     0.5 7   76 301 
 BRR  HZ I         552 28.14         8.1 0.13                            76 301 
 RUS  HZ EP   2    552  8.99                             144     0.5 5   96 177 
 RUS  HN ES   2    552 26.68                             144     0.6 5   96 177 
 RUS  HZ I         552 30.40         1.5 0.05                            96 177 
 GUE  SZ EP        552  9.48                             137    -0.710  121  10 
 GRA  SZ IP        552 11.27                             135     0.510  130  16 
 GRA  SZ ES   1    552 30.51                             135     0.4 7  130  16 
 GRA  SZ I         552 33.02         5.2 0.06                           130  16 
                                                                                
