 2011 1022 0527 31.2 L   6.699 -73.158152.1  RSN  6 0.3 1.4LRSN                1
 GAP=180        0.47       4.6     7.2  7.1  0.1585E+02 -0.4886E+01 -0.8004E+01E
 Epicentro: VILLANUEVA - SANTANDER                                             3
 ACTION:UPD 12-07-13 16:05 OP:ep   STATUS:               ID:20111022052731 L   I
 2011-10-22-0526-05S.COL___171                                                 6
 STAT SP IPHASW D HRMM SECON CODA AMPLIT PERI AZIMU VELO AIN AR TRES W  DIS CAZ7
 BAR2 SZ EP   1    527 51.26                             175   -0.19 7 12.1 193 
 BAR2 SZ ES   2    528  6.86                             175   -0.37 5 12.1 193 
 BAR2 SZ I         528 17.60         5.4 0.60                          12.1 193 
 GIR2 SZ ES   3    528  7.67                             164   -0.50 2 42.2 355 
 BRR  HZ EP   2    527 53.23                             152   -0.11 5 76.0 306 
 BRR  HN ES   2    528 10.89                             152    0.31 5 76.0 306 
 BRR  HZ I         528 15.08         3.3 0.15                          76.0 306 
 RUS  HZ EP   2    527 54.65                             148   -0.22 5 89.6 175 
 RUS  HZ I         528 12.64         2.0 0.61                          89.6 175 
 RUS  HE ES   2    528 13.95                             148    0.64 5 89.6 175 
 OCA  SZ EP   2    528  1.26                             129    0.20 4  171 354 
 OCA  SZ I         528  6.77         4.3 0.51                           171 354 
 OCA  SZ ES   2    528 24.58                             129    0.26 4  171 354 
 ZAR  HN ES   2    528 30.21                             123   -0.10 4  207 295 
 ZAR  HZ I         528 35.44         3.6 0.25                           207 295 
                                                                                
