 2016 1122 0352 10.8 L   6.732 -73.164147.7  RSN  5 0.2 1.5LRSN                1
 GAP=150        0.62       5.3     3.0  5.0 -0.3455E+01  0.3007E+01  0.8317E+00E
 Epicentro: VILLANUEVA - SANTANDER                                             3
 ACTION:UPD 17-10-26 21:10 OP:lp   STATUS:               ID:20161122035210 L   I
 OLDACT:DUP 16-11-22 15:15 OP:edw  STATUS:               ID:20161122034747d    3
 2016-11-22-0348-00M.COL___349                                                 6
 STAT SP IPHASW D HRMM SECON CODA AMPLIT PERI AZIMU VELO AIN AR TRES W  DIS CAZ7
 BAR2 EZ EP        352 30.57                             174    0.0310 15.6 188 
 BAR2 EZ ES        352 45.96                             174    0.0210 15.6 188 
 BAR2 EZ I         352 47.27         6.4 0.12            172           15.6 188 
 BRR  HZ EP        352 32.46                             152    0.1710 73.4 304 
 BRR  HN ES        352 49.47                             152    0.4210 73.4 304 
 PAM  EZ EP        352 33.74                             149    0.0810 84.5  37 
 PAM  EN ES        352 51.15                             149   -0.3410 84.5  37 
 PAM  EZ I         352 52.79         6.6 0.48            153           84.5  37 
 PTB  HZ EP        352 37.67                             133    0.02 9  145 262 
 PTB  HN ES        352 58.25                             133   -0.33 9  145 262 
 PTB  HZ I         353  4.30         2.6 0.15            133            145 262 
 ZAR  HE ES        353  8.83                             123   -0.16 9  205 294 
                                                                                
