 2010  422 0710 33.3 L   6.761 -73.042147.2  RSN 11 0.4 2.2LRSN                1
 GAP=150        0.87       4.7     7.8  6.5 -0.1905E+02 -0.1419E+02  0.6702E+01E
 Epicentro: LOS SANTOS - SANTANDER                                             3
 ACTION:UPD 10-08-24 10:00 OP:vdl  STATUS:               ID:20100422071033 L   I
 2010-04-22-0706-34S.COL___104                                                 6
 STAT SP IPHASW D HRMM SECON CODA AMPLIT PERI AZIMU VELO SNR AR TRES W  DIS CAZ7
 BAR2 SZ IP        710 53.09                             170     0.010   24 220 
 BAR2 SZ ES   1    711  8.41                             170    -0.2 7   24 220 
 GIR2 SZ ES   2    711  8.48                             164    -0.5 5   39 335 
 BRR  HZ IP     D  710 55.42                             149     0.110   83 297 
 BRR  HZ I         710 57.31        33.0 0.16                            83 297 
 BRR  HN ES   1    711 12.60                             149     0.1 7   83 297 
 GUE  SZ IP        710 59.04                             139     0.710  119   6 
 GRA  SZ IP        710 58.82                             137     0.110  127  12 
 GRA  SZ ES   1    711 18.40                             137    -0.2 7  127  12 
 OCA  SZ IP        711  1.47                             129    -0.8 9  166 349 
 OCA  SZ ES   1    711 25.30                             129     0.4 7  166 349 
 CHI  HZ EP   2    711 11.13                             117     0.2 4  248 198 
 CHI  HE ES   2    711 40.62                             117     0.3 4  248 198 
 CHI  HZ I         711 43.11         6.1 0.32                           248 198 
 HEL  HZ EP   2    711 13.91                             114    -0.8 4  282 257 
 HEL  HZ I         711 51.87         5.1 0.42                           282 257 
 RREF BZ EP   2    711 20.44                             111     0.3 3  328 231 
 RREF BN ES   2    711 56.81                             111     0.1 3  328 231 
 RREF BZ I         712  4.45         9.3 0.52                           328 231 
 SDV  BZ IP     C  711 22.48                             109    -0.2 6  354  48 
 SDV  BZ I         712  1.75         3.2 0.63                           354  48 
 PRA  HZ EP   1    711 27.05                             107     0.0 4  394 211 
 PRA  HE ES   2    712  9.05                             107     0.0 3  394 211 
 PRA  HZ I         712 12.56         9.0 0.61                           394 211 
                                                                                
