 2014 1122 0433  3.7 L   6.769 -73.166143.2  RSN  7 0.3 1.4LRSN                1
 GAP=135        0.82       3.5     3.5  5.5 -0.4684E+00  0.4903E+01 -0.1458E+01E
 Epicentro: LOS SANTOS - SANTANDER                                             3
 ACTION:UPD 14-12-19 15:45 OP:nd   STATUS:               ID:20141122043303 L   I
 OLDACT:DUP 14-11-22 16:05 OP:fm   STATUS:               ID:20141122042746d    3
 2014-11-22-0427-45M.COL___306                                                 6
 STAT SP IPHASW D HRMM SECON CODA AMPLIT PERI AZIMU VELO AIN AR TRES W  DIS CAZ7
 BAR2 SZ EP        433 22.70                             172   -0.2810 19.7 185 
 BAR2 SZ ES        433 38.08                             172    0.0810 19.7 185 
 BAR2 SZ I         433 40.98         4.8 0.30            172           19.7 185 
 BRR  HZ EP        433 25.09                             152    0.5110 71.0 302 
 BRR  HN ES        433 41.26                             152    0.4010 71.0 302 
 BRR  HZ I         433 42.05         7.4 0.30            151           71.0 302 
 PAM  SZ EP        433 25.86                             149   -0.0610 81.4  39 
 PAM  SN ES        433 42.92                             149   -0.3110 81.4  39 
 PAM  SZ I         433 44.78         5.4 0.56            152           81.4  39 
 RUS  HZ EP        433 27.19                             144    0.2010 97.4 175 
 RUS  HN ES        433 45.14                             144   -0.0010 97.4 175 
 RUS  HZ I         433 47.38         1.4 0.24            147           97.4 175 
 PTB  HZ EP        433 29.74                             132   -0.49 9  145 260 
 PTB  HN ES        433 50.46                             132   -0.44 9  145 260 
 PTB  HZ I         433 56.10         3.9 0.32            133            145 260 
 SPBC HN ES        433 53.56                             129    0.14 9  159 219 
 ZAR  HZ EP        433 36.31                             122    0.39 9  203 293 
 ZAR  HN ES        434  0.87                             122   -0.17 9  203 293 
 ZAR  HZ I         434  6.71         4.8 0.56            123            203 293 
                                                                                
