 2013  122 0629 23.3 L   6.796 -73.153145.1  RSN  6 0.4 1.7LRSN                1
 GAP=136        1.09       5.5     5.6  7.3 -0.2371E+01  0.4224E+01  0.8063E+01E
 Epicentro: LOS SANTOS - SANTANDER                                             3
 ACTION:UPD 13-02-15 09:15 OP:ep   STATUS:               ID:20130122062923 L   I
 2013-01-22-0628-48M.COL___183                                                 6
 STAT SP IPHASW D HRMM SECON CODA AMPLIT PERI AZIMU VELO AIN AR TRES W  DIS CAZ7
 BAR2 SZ EP        629 42.46                             171   -0.3310 22.7 188 
 BAR2 SZ ES        629 57.97                             171   -0.0610 22.7 188 
 BAR2 SZ I         629 58.96         9.8 0.18            171           22.7 188 
 BRR  HZ EP        629 44.56                             153    0.2510 70.7 299 
 BRR  HN ES        630  1.56                             153    0.8310 70.7 299 
 BRR  HN I         630  2.36        17.1 0.14            154           70.7 299 
 PAM  SZ EP        629 45.59                             150    0.1410 78.3  40 
 PAM  SZ I         629 45.90         9.0 0.20            151           78.3  40 
 PAM  SN ES        630  2.34                             150   -0.4310 78.3  40 
 PAM  SE I         630  4.49        10.2 0.48            151           78.3  40 
 RUS  HZ EP        629 47.06                             144    0.1510  100 176 
 RUS  HN ES        630  5.37                             144    0.0110  100 176 
 RUS  HN I         630  7.21         4.7 0.44            145            100 176 
 PTB  HZ EP        629 49.57                             132   -0.52 9  147 259 
 PTB  HN ES        630 10.47                             132   -0.55 9  147 259 
 CHI  HZ EP        630  1.43                             117    0.59 8  248 195 
                                                                                
