 2014  422 0411 32.0 L   6.814 -73.140145.0  RSN 14 0.5 2.3LRSN                1
 GAP=137        1.02       2.5     3.7  6.1 -0.2025E+01  0.7470E+01  0.1487E+01E
 Epicentro: LOS SANTOS - SANTANDER                                             3
 ACTION:UPD 14-05-13 23:10 OP:nd   STATUS:               ID:20140422041132 L   I
 OLDACT:REG 14-04-22 13:34 OP:spq  STATUS:               ID:20140422040805     3
 2014-04-22-0408-05M.COL___233                                                 6
 STAT SP IPHASW D HRMM SECON CODA AMPLIT PERI AZIMU VELO AIN AR TRES W  DIS CAZ7
 PAM  SZ EP        411 54.42                             151    0.4010 75.8  40 
 PAM  SE ES        412 11.56                             151    0.3410 75.8  40 
 RUS  HZ EP        411 55.55                             143   -0.2210  102 176 
 RUS  HN ES        412 14.28                             143   -0.0410  102 176 
 PTB  HZ EP        411 58.63                             132   -0.34 9  149 258 
 PTB  HN ES        412 19.39                             132   -0.64 9  149 258 
 OCA  HZ EP        411 59.88                             130   -0.22 9  159 353 
 OCA  HN ES        412 22.17                             130    0.14 9  159 353 
 OCA  HZ I         412 30.05        19.6 0.36            132            159 353 
 SPBC HZ EP        412  0.60                             129    0.03 9  165 219 
 SPBC HN ES        412 22.92                             129    0.04 9  165 219 
 SPBC HZ I         412 27.75        32.3 0.40            130            165 219 
 ZAR  HZ EP        412  4.49                             122    0.11 9  204 292 
 ZAR  HE ES        412 29.86                             122    0.21 9  204 292 
 ZAR  HZ I         412 35.99        21.7 0.30            124            204 292 
 NOR  HZ EP        412  7.74                             118   -0.08 8  236 234 
 NOR  HN ES        412 36.16                             118    0.39 8  236 234 
 NOR  HZ I         412 39.50        14.6 0.24            120            236 234 
 SML  HZ EP        412  7.81                             117   -0.63 8  243 335 
 SML  HN ES        412 36.43                             117   -0.46 8  243 335 
 CHI  HZ EP        412  9.69                             117   -0.12 8  250 195 
 CHI  HN ES        412 38.70                             117   -0.63 8  250 195 
 CHI  HZ I         412 42.86         6.1 0.34            119            250 195 
 ROSC BZ EP   4    412 10.26                             116    0.02 0  254 211 
 ROSC BN ES   4    412 41.76                             116    1.68 0  254 211 
 HEL  HZ EP        412 13.41                             114    1.14 8  273 256 
 HEL  HN ES        412 44.10                             114    0.41 8  273 256 
 HEL  HZ I         412 50.37         7.2 0.36            116            273 256 
 RREF HZ EP        412 19.14                             111    0.88 7  323 229 
 RREF HN ES        412 54.62                             111    0.26 7  323 229 
 CBOC HZ EP        412 19.58                             110    0.59 7  335 252 
 CBOC HN ES        412 54.76                             110   -0.89 7  335 252 
 PRA  HZ EP        412 24.70                             106   -0.97 6  394 210 
 PRA  HE ES        413  7.43                             106   -0.11 6  394 210 
 PRA  HZ I         413 13.50         9.4 0.34            108            394 210 
 ORTC HZ EP        412 25.88                             106   -0.18 6  397 216 
 ORTC HN ES        413  8.95                             106    0.70 6  397 216 
 ORTC HZ I         413 16.39         6.5 0.60            108            397 216 
                                                                                
