 2011  222 0629 48.3 L   6.806 -73.191134.7  RSN  8 0.4 1.6LRSN                1
 GAP=154        0.81       5.4     9.8  9.5 -0.1874E+02  0.5056E+02 -0.1754E+02E
 Epicentro: ZAPATOCA - SANTANDER                                               3
 ACTION:UP  11-03-28 15:10 OP:jfem STATUS:               ID:20110222062948 L   I
 2011-02-22-0628-16S.COL___137                                                 6
 STAT SP IPHASW D HRMM SECON CODA AMPLIT PERI AZIMU VELO SNR AR TRES W  DIS CAZ7
 BTL  SZ EP   1    630  6.95                             173     0.5 7   15 326 
 BAR2 SZ EP   1    630  6.79                             170     0.2 7   24 178 
 BAR2 SZ ES   1    630 20.91                             170     0.1 7   24 178 
 BAR2 SZ I         630 23.16        14.8 0.21                            24 178 
 GIR2 SZ EP   1    630  5.92                             167    -0.7 7   30 359 
 RUS  HZ EP   1    630 10.80                             141    -0.2 7  102 173 
 RUS  HN ES   1    630 28.70                             141    -0.1 7  102 173 
 RUS  HZ I         630 30.02         6.4 0.29                           102 173 
 GRA  SZ EP   1    630 12.71                             134     0.1 7  127  20 
 GRA  SZ I         630 34.49         5.7 0.27                           127  20 
 OCA  SZ ES   2    630 36.94                             127     0.0 5  159 355 
 NOR  SZ EP   1    630 23.64                             116     0.7 6  231 234 
 NOR  SN ES   2    630 49.81                             116    -0.3 4  231 234 
 HEL  HZ EP   1    630 26.97                             113    -0.4 6  267 255 
 HEL  HZ I         631  7.18         2.7 0.30                           267 255 
                                                                                
