 2016 1222 0106 10.9 L   6.698 -73.188140.7  RSN  6 0.5 1.4LRSN                1
 GAP=225        1.18       6.2     7.5  8.5  0.2504E+02  0.1759E+02  0.1570E+02E
 Epicentro: VILLANUEVA - SANTANDER                                             3
 ACTION:UPD 17-01-11 20:17 OP:rebc STATUS:               ID:20161222010610 L   I
 OLDACT:DUP 16-12-22 13:59 OP:cog  STATUS:               ID:20161222005745d    3
 2016-12-22-0058-00M.COL___375                                                 6
 STAT SP IPHASW D HRMM SECON CODA AMPLIT PERI AZIMU VELO AIN AR TRES W  DIS CAZ7
 BAR2 EZ EP        1 6 29.40                             175   -0.3610 11.7 177 
 BAR2 EZ ES        1 6 44.14                             175   -0.3210 11.7 177 
 BAR2 EZ I         1 6 45.06         8.6 0.32            168           11.7 177 
 BRR  HZ EP        1 6 31.39                             151   -0.2710 73.5 308 
 BRR  HN ES        1 6 47.89                             151    0.0610 73.5 308 
 BRR  HZ I         1 6 48.88         5.2 0.32            151           73.5 308 
 RUS  HZ EP        1 6 34.04                             146    0.6310 89.8 173 
 RUS  HN ES        1 6 51.52                             146    0.5610 89.8 173 
 RUS  HZ I         1 6 52.67         3.3 0.26            142           89.8 173 
 PTB  HZ EP        1 6 36.31                             132   -0.58 9  141 263 
 PTB  HN ES        1 6 56.78                             132   -0.37 9  141 263 
 PTB  HZ I         1 6 59.43         4.0 0.18            130            141 263 
 ZAR  HE ES        1 7  9.05                             121    0.90 9  204 296 
 CHI  HZ EP        1 6 47.20                             117    0.18 8  237 195 
 CHI  HN ES        1 7 14.84                             117   -0.35 8  237 195 
 CHI  HZ I         1 7 24.32         1.3 0.66            116            237 195 
                                                                                
