 2015  622 0047 54.2 L   6.151 -73.715120.3  RSN  5 0.4 1.7LRSN                1
 GAP=190        0.94       5.4     5.1 11.1 -0.1460E+02  0.2194E+02  0.1488E+01E
 Epicentro: CHIPATA - SANTANDER                                                3
 ACTION:UPD 15-09-10 22:14 OP:cam  STATUS:               ID:20150622004753 L   I
 OLDACT:UP  15-06-23 06:14 OP:STLL STATUS:               ID:20150622004753 L   3
 OLDACT:UP  15-06-22 14:40 OP:mh   STATUS:               ID:20150622003748d    3
 OLDACT:UP  15-06-22 14:39 OP:mh   STATUS:               ID:20150622003748d    3
 OLDACT:DUP 15-06-22 14:37 OP:mh   STATUS:               ID:20150622003748d    3
 2015-06-22-0037-47M.COL___328                                                 6
 STAT SP IPHASW D HRMM SECON CODA AMPLIT PERI AZIMU VELO AIN AR TRES W  DIS CAZ7
 BAR2 EZ EP        048 13.48                             145    0.1110 76.5  50 
 BAR2 EZ ES        048 28.15                             145   -0.1610 76.5  50 
 BAR2 EZ I         048 29.67        23.8 0.36             99           76.5  50 
 BRR  HZ EP        048 15.78                             136    0.4810  106   0 
 BRR  HZ I         048 45.06         7.6 0.80             56            106   0 
 NOR  HZ EP        048 18.61                             126   -0.24 9  143 243 
 NOR  HN ES        048 37.87                             126   -0.20 9  143 243 
 NOR  HZ I         048 39.64         5.9 0.14             97            143 243 
 ZAR  HE ES        048 47.25                             117   -0.22 9  195 320 
 ZAR  HZ I         048 51.11         4.0 0.54             56            195 320 
 GUY2CHZ EP        048 25.78                             116   -0.56 8  210 241 
 GUY2CHN ES        048 52.14                             116    0.74 8  210 241 
 GUY2CHZ I         048 56.16         2.8 0.54                           210 241 
                                                                                
