 2014  922 0429 13.0 L   6.773 -73.176148.9  RSN  4 0.3 1.2LRSN                1
 GAP=232        0.75       4.7     5.6  6.8  0.7932E+01 -0.2319E+01  0.1136E+01E
 Epicentro: LOS SANTOS - SANTANDER                                             3
 ACTION:UPD 14-10-03 23:07 OP:nd   STATUS:               ID:20140922042913 L   I
 OLDACT:UP  14-09-22 16:00 OP:cam  STATUS:               ID:20140922042747     3
 OLDACT:REG 14-09-22 15:46 OP:cam  STATUS:               ID:20140922042747     3
 2014-09-22-0427-47M.COL___281                                                 6
 STAT SP IPHASW D HRMM SECON CODA AMPLIT PERI AZIMU VELO AIN AR TRES W  DIS CAZ7
 BRR  HZ EP     C  429 34.55                             153    0.1410 69.8 302 
 BRR  HN ES        429 51.33                             153    0.2110 69.8 302 
 BRR  HZ I         429 52.10         3.0 0.12            152           69.8 302 
 RUS  HZ EP        429 36.87                             145    0.0010 97.9 174 
 RUS  HN ES        429 55.21                             145   -0.2810 97.9 174 
 RUS  HZ I         429 57.02         2.5 0.18            142           97.9 174 
 PTB  HZ EP        429 39.47                             133   -0.41 9  144 260 
 PTB  HN ES        430  0.51                             133   -0.34 9  144 260 
 PTB  HZ I         430  3.38         2.3 0.12            131            144 260 
 SPBC HZ EP        429 41.62                             131    0.30 9  159 219 
 SPBC HN ES        430  3.83                             131    0.41 9  159 219 
 SPBC HZ I         430 12.17         2.3 0.36            128            159 219 
                                                                                
