 2012  522 0245 21.5 L   6.832 -73.130140.8  RSN  6 0.4 1.6LRSN                1
 GAP=185        0.79       5.0     7.2  9.5  0.9938E+01  0.1881E+02 -0.6340E+01E
 Epicentro: LOS SANTOS - SANTANDER                                             3
 ACTION:UP  12-07-05 12:07 OP:pat  STATUS:               ID:20120522024521 L   I
 2012-05-22-0240-00M.COL___200                                                 6
 STAT SP IPHASW D HRMM SECON CODA AMPLIT PERI AZIMU VELO SNR AR TRES W  DIS CAZ7
 BAR2 SZ EP   1    245 40.70                             169     0.1 7   27 192 
 BAR2 SZ ES   1    245 55.40                             169    -0.1 7   27 192 
 BAR2 SZ I         245 56.40         7.0 0.30                            27 192 
 BRR  HZ EP   1    245 42.54                             152     0.4 7   71 295 
 BRR  HN ES   1    245 58.79                             152     0.6 7   71 295 
 BRR  HZ I         246  3.33        10.6 0.15                            71 295 
 RUS  HN ES   1    246  3.20                             142    -0.2 7  104 177 
 RUS  HZ I         246  5.44         5.4 0.27                           104 177 
 PTB  HZ EP   1    245 48.35                             130     0.0 7  150 258 
 PTB  HN ES   2    246  8.59                             130    -0.6 5  150 258 
 OCA  HN ES   1    246 10.25                             129    -0.4 7  157 352 
 ZAR  HN ES   1    246 18.50                             121    -0.3 6  204 291 
 ZAR  HZ I         246 24.89         5.6 0.24                           204 291 
                                                                                
