 2013 1222 0110  6.9 L   6.802 -73.191144.0  RSN  4 0.2 1.2LRSN                1
 GAP=197        0.56       3.3     4.1  5.4  0.4673E+01  0.3345E+01 -0.5061E+01E
 Epicentro: ZAPATOCA - SANTANDER                                               3
 ACTION:UPD 14-01-13 10:20 OP:ep   STATUS:               ID:20131222011006 L   I
 OLDACT:REG 13-12-22 08:52 OP:jn   STATUS:               ID:20131222011000     3
 2013-12-22-0110-00M.COL___285                                                 6
 STAT SP IPHASW D HRMM SECON CODA AMPLIT PERI AZIMU VELO AIN AR TRES W  DIS CAZ7
 BAR2 SZ EP        110 26.04                             170   -0.2810 23.2 178 
 BAR2 SZ ES        110 41.71                             170    0.2510 23.2 178 
 RUS  HZ EP        110 30.63                             143    0.1010  101 173 
 RUS  HN ES        110 48.81                             143   -0.1510  101 173 
 RUS  HZ I         110 50.60         1.4 0.20            143            101 173 
 PTB  HZ EP        110 33.57                             133    0.28 9  143 258 
 PTB  HN ES        110 53.72                             133   -0.14 9  143 258 
 PTB  HZ I         111  0.06         3.2 0.44            130            143 258 
 SML  HE ES        111 11.42                             117   -0.07 8  241 336 
                                                                                
