 2013  722 0128  8.9 L   6.784 -73.139153.6  RSN  6 0.3 1.7LRSN                1
 GAP=138        0.77       3.4     4.0  6.1  0.7482E-01  0.3140E+01 -0.2247E+01E
 Epicentro: LOS SANTOS - SANTANDER                                             3
 ACTION:UPD 13-08-12 10:39 OP:ep   STATUS:               ID:20130722011959 L   I
 OLDACT:UP  13-07-22 09:31 OP:cam  STATUS:               ID:20130722011959 L   3
 OLDACT:UPD 13-07-22 08:35 OP:stll STATUS:               ID:20130722011959 L   3
 2013-07-22-0119-59M.COL___267                                                 6
 STAT SP IPHASW D HRMM SECON CODA AMPLIT PERI AZIMU VELO AIN AR TRES W  DIS CAZ7
 GIR2 SZ EP   1    128 29.50                             167   -0.09 7 33.1 350 
 BRR  HZ IP     C  128 31.22                             153    0.2010 72.7 299 
 BRR  HZ I         128 31.52        11.8 0.24            152           72.7 299 
 BRR  HN ES        128 48.81                             153    0.5610 72.7 299 
 PAM  SZ EP        128 32.23                             152    0.1910 78.3  38 
 PAM  SZ I         128 32.46         8.2 0.22            151           78.3  38 
 PAM  SN ES        128 49.67                             152   -0.4010 78.3  38 
 RUS  HZ EP        128 33.63                             146    0.2910 98.8 176 
 RUS  HN ES        128 52.21                             146   -0.1710 98.8 176 
 RUS  HZ I         128 53.18         2.8 0.22            147           98.8 176 
 PTB  HZ EP        128 36.41                             134   -0.18 9  148 260 
 PTB  HN ES        128 57.79                             134   -0.37 9  148 260 
 PTB  HZ I         128 58.92         4.2 0.16            133            148 260 
 SML  HZ EP   1    128 45.90                             119   -0.32 6  246 335 
 SML  HE ES        129 15.26                             119   -0.04 8  246 335 
 SML  HZ I         129 20.99         5.9 0.28            118            246 335 
                                                                                
