 2010  922 0507  2.6 L   6.760 -73.110139.6  RSN 10 0.4 2.2LRSN                1
 GAP=163        0.94       4.7     7.1  7.5 -0.9837E+01 -0.6824E+01  0.1092E+02E
 Epicentro: LOS SANTOS - SANTANDER                                             3
 ACTION:UP  11-02-18 11:04 OP:tino STATUS:               ID:20100922050702 L   I
 2010-09-22-0505-02S.COL___122                                                 6
 STAT SP IPHASW D HRMM SECON CODA AMPLIT PERI AZIMU VELO SNR AR TRES W  DIS CAZ7
 BAR2 SZ EP   1    5 7 21.34                             172    -0.1 7   20 204 
 BAR2 SZ ES   1    5 7 36.03                             172    -0.1 7   20 204 
 BAR2 SZ I         5 7 37.44        36.3 0.32                            20 204 
 BTL  SZ EP        5 7 21.49                             170     0.010   25 315 
 BRR  HZ IP     D  5 7 23.03                             150    -0.410   77 300 
 BRR  HZ I         5 7 23.24        45.0 0.15                            77 300 
 BRR  HE ES        5 7 40.04                             150     0.410   77 300 
 RUS  HZ EP        5 7 25.27                             144    -0.110   96 178 
 RUS  HZ I         5 7 45.40        11.0 0.25                            96 178 
 GRA  SZ EP        5 7 28.13                             135     0.610  129  15 
 OCA  SZ EP   2    5 7 30.32                             127    -0.6 5  165 352 
 OCA  SZ ES   2    5 7 52.08                             127    -0.9 5  165 352 
 OCA  SZ I         5 7 56.36        20.0 0.20                           165 352 
 NOR  SZ EP   1    5 7 37.59                             117    -0.4 6  236 236 
 NOR  SN ES   1    5 8  5.08                             117    -0.6 6  236 236 
 CHI  HZ EP   1    5 7 39.47                             116    -0.1 6  245 196 
 CHI  HE ES   1    5 8  8.41                             116     0.0 6  245 196 
 CHI  HZ I         5 8 13.47         8.1 0.45                           245 196 
 HEL  HZ EP   2    5 7 42.88                             113     0.1 4  275 257 
 HEL  HZ I         5 8 19.61         6.8 0.32                           275 257 
 RREF HZ EP   1    5 7 49.33                             110     0.9 5  322 230 
 RREF HN ES   2    5 8 24.93                             110     0.7 3  322 230 
 RREF HZ I         5 8 31.10         9.3 0.44                           322 230 
                                                                                
