 2012  222 0603 24.0 L   6.697 -73.188142.4  RSN  5 0.2 1.0LRSN                1
 GAP=173        0.47       6.0     5.5  5.4  0.2539E+01  0.9400E+01  0.9945E+01E
 ACTION:UP  12-03-07 16:33 OP:epov STATUS:               ID:20120222060324 L   I
 2012-02-22-0600-00M.COL___191                                                 6
 STAT SP IPHASW D HRMM SECON CODA AMPLIT PERI AZIMU VELO AIN AR TRES W  DIS CAZ7
 BAR2 SZ EP   1    6 3 43.14                             175    0.12 7 11.6 177 
 BAR2 SZ ES   1    6 3 57.58                             175   -0.29 7 11.6 177 
 BAR2 SZ I         6 3 58.93         3.8 0.24                          11.6 177 
 GIR2 SZ EP   1    6 3 43.30                             163   -0.30 7 42.2 359 
 GIR2 SZ ES   1    6 3 59.17                             163    0.26 7 42.2 359 
 BRR  HZ EP   1    6 3 44.98                             151    0.08 7 73.5 308 
 RUS  HZ EP   1    6 3 46.83                             146    0.20 7 89.7 173 
 RUS  HZ I         6 4  9.00         1.2 0.55                          89.7 173 
 PTB  HZ EP   1    6 3 49.93                             133   -0.15 7  141 263 
 PTB  HN ES   2    6 4 10.59                             133    0.14 5  141 263 
                                                                                
