 2011  122 0843  9.0 L   6.764 -73.151136.3  RSN  7 0.5 1.8LRSN                1
 GAP=158        1.06       4.9    12.8 10.2 -0.2923E+02  0.5083E+02 -0.1226E+02E
 Epicentro: LOS SANTOS - SANTANDER                                             3
 ACTION:UP  11-02-08 08:42 OP:pat  STATUS:               ID:20110122084309 L   I
 2011-01-22-0841-05S.COL___137                                                 6
 STAT SP IPHASW D HRMM SECON CODA AMPLIT PERI AZIMU VELO SNR AR TRES W  DIS CAZ7
 BAR2 SZ IP        843 27.24                             171    -0.210   19 191 
 BAR2 SZ ES   1    843 41.45                             171    -0.3 7   19 191 
 BAR2 SZ I         843 43.55        23.5 0.30                            19 191 
 RUS  HZ EP   2    843 31.06                             143    -0.5 5   97 176 
 RUS  HN ES   1    843 49.14                             143     0.0 7   97 176 
 RUS  HZ I         843 50.69         6.3 0.08                            97 176 
 GRA  SZ IP        843 34.08                             134     0.310  130  17 
 GRA  SZ I         843 35.48        12.4 0.10                           130  17 
 GRA  SZ ES   1    843 53.19                             134     0.1 7  130  17 
 OCA  SZ EP   1    843 35.81                             126    -1.1 7  164 354 
 OCA  SZ ES   1    843 59.36                             126     0.6 7  164 354 
 OCA  SZ I         844  2.49         8.5 0.35                           164 354 
 NOR  SZ EP   2    843 43.58                             117    -0.3 4  232 235 
 NOR  SE ES   2    844 11.67                             117     0.6 4  232 235 
 CHI  HZ EP   1    843 46.51                             115     0.8 6  245 195 
 CHI  HN ES   2    844 14.72                             115     0.3 4  245 195 
 CHI  HZ I         844 21.60         3.0 0.40                           245 195 
 HEL  HZ EP   2    843 48.02                             113    -0.5 4  271 257 
 HEL  HZ I         844 26.28         3.6 0.30                           271 257 
                                                                                
