 2016 1122 0011 19.5 L   6.610 -73.093135.5  RSN  4 0.1 1.5LRSN                1
 GAP=239        0.40       5.3     2.3  5.0 -0.6470E+01 -0.1830E+01  0.1469E+02E
 Epicentro: CURITI - SANTANDER                                                 3
 ACTION:UPD 17-10-26 21:10 OP:lp   STATUS:               ID:20161122001119 L   I
 OLDACT:UP  16-11-22 13:31 OP:edw  STATUS:               ID:20161122000740     3
 OLDACT:REG 16-11-22 12:10 OP:edw  STATUS:               ID:20161122000740     3
 2016-11-22-0008-00M.COL___349                                                 6
 STAT SP IPHASW D HRMM SECON CODA AMPLIT PERI AZIMU VELO AIN AR TRES W  DIS CAZ7
 BRR  HZ EP        011 40.66                             145   -0.0010 87.8 309 
 BRR  HN ES        011 57.16                             145    0.0210 87.8 309 
 BRR  HZ I         011 59.23         8.6 0.29            147           87.8 309 
 PAM  EZ EP        011 41.82                             144    0.1910 91.7  28 
 PAM  EE ES        011 58.74                             144   -0.1210 91.7  28 
 PTB  HZ EP        011 45.80                             129   -0.19 9  151 267 
 PTB  HN ES        012  6.72                             129    0.10 9  151 267 
 PTB  HZ I         012  8.06         3.0 0.14            131            151 267 
 ZAR  HE ES        012 18.79                             118   -0.01 8  218 297 
                                                                                
