 2012  522 0128 11.7 L   6.695 -73.188142.2  RSN  5 0.3 1.5LRSN                1
 GAP=224        0.82       8.5     8.4  9.1  0.4585E+02  0.2119E+02  0.7466E+01E
 Epicentro: VILLANUEVA - SANTANDER                                             3
 ACTION:UP  12-07-05 12:07 OP:pat  STATUS:               ID:20120522012811 L   I
 2012-05-22-0120-00M.COL___200                                                 6
 STAT SP IPHASW D HRMM SECON CODA AMPLIT PERI AZIMU VELO SNR AR TRES W  DIS CAZ7
 BAR2 SZ ES   1    128 45.07                             175    -0.5 7   11 177 
 BRR  HZ EP   1    128 32.41                             151    -0.2 7   74 308 
 BRR  HZ I         128 32.69        12.4 0.20                            74 308 
 BRR  HE ES   1    128 49.22                             151     0.3 7   74 308 
 RUS  HZ EP   1    128 34.65                             146     0.3 7   89 173 
 RUS  HE ES   1    128 52.21                             146     0.3 7   89 173 
 RUS  HZ I         128 55.51         2.7 0.36                            89 173 
 PTB  HZ EP   1    128 37.31                             132    -0.5 7  141 263 
 PTB  HN ES   1    128 57.95                             132    -0.2 7  141 263 
 PTB  HZ I         128 58.20         2.9 0.58                           141 263 
 ZAR  HN ES   1    129  9.51                             121     0.4 6  204 296 
 ZAR  HZ I         129 15.49         5.3 0.39                           204 296 
                                                                                
