 2017  122 0730 42.1 L   6.776 -73.144156.0  RSN  9 0.5 1.4LRSN                1
 GAP=120        1.12       5.5     5.0  7.9  0.4742E+01  0.1998E+01  0.5271E+01E
 Epicentro: LOS SANTOS - SANTANDER                                             3
 ACTION:UPD 17-05-22 16:02 OP:jn   STATUS:               ID:20170122073042 L   I
 OLDACT:UP  17-01-22 17:02 OP:dani STATUS:               ID:20170122072740     3
 OLDACT:UP  17-01-22 17:01 OP:dani STATUS:               ID:20170122072740     3
 OLDACT:UP  17-01-22 17:00 OP:dani STATUS:               ID:20170122072740     3
 OLDACT:UP  17-01-22 17:00 OP:dani STATUS:               ID:20170122072740     3
 OLDACT:REG 17-01-22 13:13 OP:dani STATUS:               ID:20170122072740     3
 2017-01-22-0728-00M.COL___331                                                 6
 STAT SP IPHASW D HRMM SECON CODA AMPLIT PERI AZIMU VELO AIN AR TRES W  DIS CAZ7
 BAR2 EZ EP        731  3.01                             172    0.1310 20.7 192 
 BAR2 EZ I         731 19.13         6.8 0.30            171           20.7 192 
 BRR  HZ EP     D  731  4.84                             153    0.4310 72.7 300 
 BRR  HE ES        731 22.25                             153    0.4110 72.7 300 
 BRR  HZ I         731 26.13         3.8 0.42            153           72.7 300 
 PAM  EZ EP        731  5.75                             151    0.2610 79.3  38 
 PAM  EN ES        731 23.15                             151   -0.6110 79.3  38 
 PAM  EZ I         731 25.17         3.6 0.54            153           79.3  38 
 RUS  HZ EP        731  7.30                             146    0.6410 97.9 176 
 RUS  HN ES        731 25.37                             146   -0.4610 97.9 176 
 RUS  HZ I         731 26.95         4.4 0.30            146           97.9 176 
 PTB  HZ EP        731 10.08                             134    0.22 9  147 260 
 PTB  HN ES        731 30.89                             134   -0.65 9  147 260 
 PTB  HZ I         731 38.37         3.1 0.29            134            147 260 
 ZAR  HE ES        731 41.32                             124    0.06 8  205 293 
 URE  HE ES   3    731 54.75                             115   -1.57 2  285 292 
 PTGC HZ EP        731 25.87                             113   -0.24 7  306 159 
 SJC  HZ EP        731 37.30                             107   -0.95 6  412 327 
 SJC  HE ES   4    732 19.57                             107   -2.51 0  412 327 
                                                                                
