 2016  622 0603 54.5 L   6.772 -73.149145.2  RSN  5 0.1 1.3LRSN                1
 GAP=250        0.41       2.6     2.7  3.2  0.1172E+01  0.1760E+01  0.9873E+00E
 Epicentro: LOS SANTOS - SANTANDER                                             3
 ACTION:UPD 16-07-21 22:21 OP:rebc STATUS:               ID:20160622060354 L   I
 OLDACT:REG 16-06-22 13:56 OP:ak   STATUS:               ID:20160622055744     3
 2016-06-22-0557-44M.COL___316                                                 6
 STAT SP IPHASW D HRMM SECON CODA AMPLIT PERI AZIMU VELO AIN AR TRES W  DIS CAZ7
 BAR2 EZ EP        6 4 13.97                             172   -0.0510 20.2 191 
 BAR2 EZ ES        6 4 29.18                             172   -0.0510 20.2 191 
 BAR2 EZ I         6 4 29.84         3.5 0.36                          20.2 191 
 BRR  HZ IP     D  6 4 15.87                             152    0.1910 72.5 301 
 BRR  HN ES        6 4 32.20                             152    0.0210 72.5 301 
 BRR  HZ I         6 4 34.84         2.3 0.12                          72.5 301 
 PTB  HZ EP        6 4 21.12                             132   -0.24 9  147 260 
 PTB  HN ES        6 4 42.11                             132   -0.18 9  147 260 
 PTB  HZ I         6 4 45.11         1.7 0.18                           147 260 
 SPBC HZ EP        6 4 22.70                             129   -0.02 9  161 220 
 SPBC HN ES        6 4 44.94                             129    0.22 9  161 220 
 SPBC HZ I         6 4 49.21         2.9 0.24                           161 220 
 ZAR  HZ EP   2    6 4 27.10                             122    0.08 4  205 293 
 ZAR  HN ES        6 4 52.46                             122    0.09 9  205 293 
 ZAR  HZ I         6 4 58.51         3.4 0.26                           205 293 
                                                                                
