 2012  122 0952 40.8 L   6.769 -73.178154.6  RSN  5 0.3 1.2LRSN                1
 GAP=231        0.66       9.3     8.2  9.0  0.4601E+02  0.3794E+01 -0.1133E+01E
 Epicentro: LOS SANTOS - SANTANDER                                             3
 ACTION:UP  12-02-03 08:19 OP:REBC STATUS:               ID:20120122095240 L   I
 2012-01-22-0950-00M.COL___186                                                 6
 STAT SP IPHASW D HRMM SECON CODA AMPLIT PERI AZIMU VELO SNR AR TRES W  DIS CAZ7
 BAR2 SZ EP   1    953  0.90                             172    -0.5 7   20 182 
 BAR2 SZ ES   2    953 17.17                             172    -0.3 5   20 182 
 BAR2 SZ I         953 18.58         4.2 0.21                            20 182 
 BRR  HZ EP   1    953  3.10                             154     0.3 7   70 302 
 BRR  HZ I         953  3.18         3.4 0.12                            70 302 
 BRR  HE ES   2    953 20.50                             154     0.5 5   70 302 
 RUS  HZ EP   1    953  5.26                             146     0.1 7   97 174 
 RUS  HN ES   2    953 24.62                             146     0.4 5   97 174 
 RUS  HZ I         953 25.71         1.6 0.31                            97 174 
 PTB  HZ EP   1    953  8.28                             135     0.2 7  144 260 
 PTB  HE ES   2    953 29.06                             135    -0.4 5  144 260 
 ZAR  HN ES   2    953 38.93                             124    -0.3 4  202 293 
                                                                                
