 2012  522 0317 41.1 L   6.816 -73.180146.9  RSN  9 0.4 2.3LRSN                1
 GAP=179        0.92       4.4     6.2  7.9  0.1164E+01  0.1230E+02 -0.5400E+01E
 Epicentro: LOS SANTOS - SANTANDER                                             3
 ACTION:UP  12-07-05 12:07 OP:pat  STATUS:               ID:20120522031741 L   I
 2012-05-22-0317-00S.COL___200                                                 6
 STAT SP IPHASW D HRMM SECON CODA AMPLIT PERI AZIMU VELO SNR AR TRES W  DIS CAZ7
 BAR2 SZ IP        318  0.93                             170     0.110   25 181 
 BAR2 SZ ES   1    318 16.37                             170     0.1 7   25 181 
 BAR2 SZ I         318 17.68        48.7 0.27                            25 181 
 BRR  HZ EP        318  2.76                             154     0.610   67 299 
 BRR  HZ I         318  3.08        82.7 0.16                            67 299 
 RUS  HZ EP   1    318  4.75                             143    -0.3 7  103 174 
 RUS  HN ES   1    318 23.47                             143    -0.3 7  103 174 
 RUS  HZ I         318 24.77        21.1 0.44                           103 174 
 PTB  HZ EP   1    318  7.56                             133    -0.3 7  144 258 
 PTB  HN ES   1    318 28.80                             133     0.1 7  144 258 
 PTB  HZ I         318 31.16        16.8 0.17                           144 258 
 OCA  HZ EP   1    318  8.90                             130    -0.4 7  158 354 
 OCA  HN ES   1    318 31.36                             130     0.1 7  158 354 
 ZAR  HZ EP   1    318 13.28                             123     0.1 6  200 292 
 ZAR  HN ES   1    318 37.40                             123    -0.8 6  200 292 
 ZAR  HZ I         318 46.04        28.9 0.32                           200 292 
 HEL  HZ EP   1    318 21.71                             115     0.7 6  269 255 
 HEL  HZ I         318 59.93        11.0 0.39                           269 255 
 COD  HZ EP   1    318 28.89                             109    -0.4 5  346 355 
 COD  HZ I         318 33.43         8.8 0.89                           346 355 
 PRA  HZ EP   1    318 34.28                             107    -0.3 4  392 209 
 PRA  HE ES   1    319 16.61                             107     0.3 4  392 209 
                                                                                
