 2013 1222 0507 25.1 L   6.769 -73.185141.7  RSN  8 0.3 1.6LRSN                1
 GAP= 81        0.83       3.0     3.8  5.7  0.1976E+01  0.4035E+01 -0.2785E+01E
 Epicentro: VILLANUEVA - SANTANDER                                             3
 ACTION:UPD 14-01-13 10:20 OP:ep   STATUS:               ID:20131222050725 L   I
 OLDACT:REG 13-12-22 09:51 OP:jn   STATUS:               ID:20131222050636     3
 2013-12-22-0506-36M.COL___235                                                 6
 STAT SP IPHASW D HRMM SECON CODA AMPLIT PERI AZIMU VELO AIN AR TRES W  DIS CAZ7
 BAR2 SZ EP        5 7 44.45                             172    0.2710 19.5 179 
 BAR2 SZ ES        5 7 59.01                             172   -0.0410 19.5 179 
 BAR2 SZ I         5 8  0.49        12.2 0.18            172           19.5 179 
 PAM  SZ EP        5 7 47.60                             148    0.3610 82.9  40 
 PAM  SN ES        5 8  4.89                             148    0.4010 82.9  40 
 PAM  SZ I         5 8  7.32         6.6 0.70            152           82.9  40 
 RUS  HZ EP        5 7 48.31                             144    0.0710 97.5 173 
 RUS  HN ES        5 8  5.78                             144   -0.5010 97.5 173 
 RUS  HZ I         5 8  7.78         7.0 0.32            146           97.5 173 
 PTB  HZ EP        5 7 51.36                             132    0.06 9  143 260 
 PTB  HN ES   2    5 8 11.58                             132   -0.14 5  143 260 
 PTB  HZ I         5 8 17.22         3.6 0.16            133            143 260 
 TAM  HZ EP        5 7 52.68                             129   -0.11 9  158 103 
 OCA  HN ES        5 8 14.92                             128   -0.53 9  163 355 
 ZAR  HN ES        5 8 22.38                             122    0.48 9  201 294 
 SML  HZ EP        5 8  1.35                             116   -0.31 8  245 337 
 SML  HE ES        5 8 29.83                             116   -0.34 8  245 337 
                                                                                
