 2016  422 0557 37.3 L   6.811 -73.190142.9  RSN  7 0.2 1.7LRSN                1
 GAP=131        0.63       2.4     2.7  4.2 -0.3594E+00  0.3621E+01  0.6547E+00E
 Epicentro: ZAPATOCA - SANTANDER                                               3
 ACTION:UPD 16-05-05 14:23 OP:rebc STATUS:               ID:20160422055737 L   I
 OLDACT:ARG 16-04-22 12:58 OP:cara STATUS:               ID:20160422054748     3
 2016-04-22-0547-48M.COL___312                                                 6
 STAT SP IPHASW D HRMM SECON CODA AMPLIT PERI AZIMU VELO AIN AR TRES W  DIS CAZ7
 BAR2 EZ IP        557 56.57                             170   -0.0810 24.2 178 
 BAR2 EZ ES        558 11.72                             170    0.0210 24.2 178 
 BAR2 EZ I         558 14.48        12.4 0.36            170           24.2 178 
 PAM  EZ IP        557 59.58                             149    0.1810 79.7  43 
 PAM  EN ES        558 16.66                             149    0.0610 79.7  43 
 PAM  EZ I         558 19.62        11.6 0.24            154           79.7  43 
 RUS  HZ EP        558  0.57                             143   -0.3610  102 173 
 RUS  HN ES        558 19.24                             143   -0.0910  102 173 
 RUS  HZ I         558 20.20         2.9 0.48            146            102 173 
 PTB  HZ EP        558  3.61                             132   -0.06 9  143 258 
 PTB  HN ES        558 23.74                             132   -0.46 9  143 258 
 PTB  HZ I         558 26.84         6.7 0.14            133            143 258 
 SPBC HZ EP        558  5.76                             129    0.33 9  161 217 
 SPBC HE ES        558 27.73                             129    0.40 9  161 217 
 SPBC HZ I         558 34.43        10.2 0.24            130            161 217 
 ZAR  HZ EP        558  8.93                             122   -0.16 9  199 292 
 ZAR  HN ES        558 34.13                             122    0.27 9  199 292 
 ZAR  HZ I         558 43.48         7.0 0.14            123            199 292 
 CHI  HZ EP        558 14.78                             116   -0.09 8  249 194 
 CHI  HN ES        558 44.29                             116    0.14 8  249 194 
 CHI  HZ I         558 47.60         3.1 0.56            119            249 194 
                                                                                
