 2011 1022 0434 17.5 L   6.788 -73.121154.4  RSN  6 0.3 1.6LRSN                1
 GAP=140        0.46       5.0     5.4  6.8  0.6050E+01  0.5241E+01 -0.5359E+00E
 Epicentro: LOS SANTOS - SANTANDER                                             3
 ACTION:UPD 12-07-13 16:05 OP:ep   STATUS:               ID:20111022043417 L   I
 2011-10-22-0431-18S.COL___171                                                 6
 STAT SP IPHASW D HRMM SECON CODA AMPLIT PERI AZIMU VELO AIN AR TRES W  DIS CAZ7
 BAR2 SZ EP   2    434 37.73                             171   -0.45 5 22.7 197 
 BAR2 SZ ES   2    434 54.25                             171   -0.04 5 22.7 197 
 BAR2 SZ I         434 55.38         7.7 0.51                          22.7 197 
 GIR2 SZ EP   3    434 38.12                             167   -0.16 2 33.2 346 
 GIR2 SZ ES   3    434 54.39                             167   -0.07 2 33.2 346 
 BRR  HZ EP   1    434 39.80                             153    0.02 7 74.3 298 
 BRR  HZ I         434 41.47         8.9 0.23                          74.3 298 
 BRR  HN ES   2    434 57.74                             153    0.60 5 74.3 298 
 PAM  SZ EP   2    434 40.95                             152    0.32 5 76.7  37 
 PAM  SN ES   2    434 58.36                             152   -0.29 5 76.7  37 
 RUS  HZ EP   2    434 42.37                             146    0.34 5 99.1 178 
 RUS  HZ I         434 59.21         4.3 0.73                          99.1 178 
 RUS  HE ES   2    435  1.01                             146   -0.14 5 99.1 178 
 ZAR  HZ I         434 52.10         4.9 0.56                           207 292 
 ZAR  HN ES   2    435 16.40                             124   -0.46 4  207 292 
                                                                                
