 2016  922 0017  1.4 L   6.801 -73.153153.5  RSN  4 0.2 1.4LRSN                1
 GAP=237        0.53       4.6     4.7  5.4  0.1293E+02 -0.2377E+01 -0.1918E+01E
 Epicentro: LOS SANTOS - SANTANDER                                             3
 ACTION:UPD 17-08-17 21:14 OP:lp   STATUS:               ID:20160922001702dL   I
 OLDACT:UP  16-09-22 12:55 OP:and  STATUS:               ID:20160922000733d    3
 OLDACT:DUP 16-09-22 12:51 OP:and  STATUS:               ID:20160922000733d    3
 2016-09-22-0008-00M.COL___369                                                 6
 STAT SP IPHASW D HRMM SECON CODA AMPLIT PERI AZIMU VELO AIN AR TRES W  DIS CAZ7
 BRR  HZ EP        017 23.52                             154    0.1910 70.5 299 
 BRR  HN ES        017 40.33                             154   -0.1210 70.5 299 
 RUS  HZ EP        017 26.04                             145    0.1410  101 176 
 RUS  HN ES        017 44.97                             145   -0.0710  101 176 
 RUS  HZ I         017 46.49         1.7 0.40            143            101 176 
 PTB  HZ EP        017 28.55                             134   -0.37 9  147 259 
 PTB  HN ES        017 50.59                             134    0.19 9  147 259 
 PTB  HZ I         017 54.89         3.2 0.12            129            147 259 
 ZAR  HZ EP   4    017 35.76                             124    1.50 0  203 292 
 ZAR  HN ES   2    017 59.95                             124    0.04 4  203 292 
 ZAR  HZ I         018  8.02         4.0 0.12            121            203 292 
                                                                                
