 2016  922 0623 13.8 L   6.802 -73.148146.0  RSN 11 0.5 1.9LRSN                1
 GAP=136        1.25       4.6     5.4  7.2 -0.6101E+00  0.1065E+02 -0.3254E+00E
 Epicentro: LOS SANTOS - SANTANDER                                             3
 ACTION:UPD 17-08-17 21:15 OP:lp   STATUS:               ID:20160922062313 L   I
 OLDACT:UP  16-09-22 17:59 OP:drio STATUS:               ID:20160922061732     3
 OLDACT:REG 16-09-22 11:47 OP:and  STATUS:               ID:20160922061732     3
 2016-09-22-0618-00M.COL___363                                                 6
 STAT SP IPHASW D HRMM SECON CODA AMPLIT PERI AZIMU VELO AIN AR TRES W  DIS CAZ7
 BAR2 EZ EP        623 33.43                             170   -0.0110 23.5 189 
 BAR2 EZ ES        623 48.22                             170   -0.5510 23.5 189 
 BAR2 EZ I         623 49.67        22.4 0.20            168           23.5 189 
 BRR  HZ EP        623 35.26                             153    0.3310 70.9 299 
 BRR  HE ES        623 52.49                             153    1.0610 70.9 299 
 BRR  HZ I         623 52.80        18.2 0.10            147           70.9 299 
 PAM  EZ EP        623 36.26                             151    0.2410 77.4  40 
 PAM  EE ES        623 53.73                             151    0.3610 77.4  40 
 PAM  EZ I         623 55.57        27.2 0.52            154           77.4  40 
 RUS  HZ EP        623 37.28                             144   -0.2810  101 176 
 RUS  HE ES        623 56.14                             144    0.0210  101 176 
 RUS  HZ I         623 57.32         9.9 0.28            146            101 176 
 PTB  HZ EP        623 40.25                             132   -0.49 9  148 259 
 PTB  HE ES        624  1.35                             132   -0.42 9  148 259 
 PTB  HZ I         624  8.33         4.9 0.26            130            148 259 
 OCA  HZ EP        623 41.59                             130   -0.49 9  160 353 
 OCA  HE ES        624  3.51                             130   -0.65 9  160 353 
 OCA  HZ I         624 13.13        18.4 0.20            130            160 353 
 SPBC HZ EP        623 42.39                             129    0.10 9  163 219 
 SPBC HE ES   4    624  3.61                             129   -0.92 0  163 219 
 SPBC HZ I         624  9.23        15.5 0.24            129            163 219 
 ZAR  HZ EP        623 46.66                             123    0.46 9  204 292 
 ZAR  HN ES        624 11.12                             123   -0.37 9  204 292 
 ZAR  HZ I         624 18.18        10.9 0.40            121            204 292 
 HEL  HZ EP   4    623 56.11                             115    2.14 0  272 256 
 HEL  HN ES   4    624 24.44                             115   -0.89 0  272 256 
 HEL  HZ I         624 34.28         3.0 0.26            114            272 256 
 GUY2CHZ EP   4    624  0.48                             112    3.10 0  301 235 
 GUY2CHE ES   4    624 34.77                             112    3.38 0  301 235 
 GUY2CHZ I         624 39.50         3.4 0.32                           301 235 
 CBOC HZ EP        624  1.62                             110    0.95 7  333 252 
 CBOC HN ES   4    624 35.92                             110   -1.33 0  333 252 
 CBOC HZ I         624 46.53         0.9 0.28            110            333 252 
                                                                                
