 2017  822 0614 51.5 L   6.786 -73.151144.5  RSN 18 0.4 2.0LRSN                1
 GAP= 65        0.94       2.6     2.6  4.8  0.4532E+00  0.2869E+01  0.1963E+01E
 Epicentro: LOS SANTOS - SANTANDER                                             3
 ACTION:UPD 17-09-04 20:23 OP:rebc STATUS:               ID:20170822061451 L   I
 OLDACT:UP  17-08-22 16:58 OP:osc  STATUS:               ID:20170822060743d    3
 OLDACT:UP  17-08-22 16:57 OP:osc  STATUS:               ID:20170822060743d    3
 OLDACT:DUP 17-08-22 16:43 OP:osc  STATUS:               ID:20170822060743d    3
 2017-08-22-0608-00M.COL___411                                                 6
 STAT SP IPHASW D HRMM SECON CODA AMPLIT PERI AZIMU VELO AIN AR TRES W  DIS CAZ7
 BAR2 EZ EP        615 10.65                             171   -0.3010 21.7 189 
 BAR2 EZ ES        615 25.94                             171   -0.1810 21.7 189 
 BAR2 EZ I         615 27.23        50.1 0.16            169           21.7 189 
 BRR  HZ IP     D  615 12.37                             152   -0.1610 71.5 300 
 BRR  HN ES        615 29.46                             152    0.5310 71.5 300 
 BRR  HZ I         615 33.39        27.6 0.36            148           71.5 300 
 PAM  EZ EP        615 13.56                             150   -0.1210 78.9  39 
 PAM  EN ES        615 30.78                             150   -0.1910 78.9  39 
 PAM  EZ I         615 32.82        21.4 0.40            152           78.9  39 
 RUS  HZ EP        615 14.55                             144   -0.4710 99.1 176 
 RUS  HN ES        615 33.34                             144   -0.0310 99.1 176 
 RUS  HZ I         615 34.20         9.3 0.25            144           99.1 176 
 TAM  HZ EP     C  615 19.01                             130   -0.09 9  155 104 
 TAM  HN ES        615 40.80                             130    0.18 9  155 104 
 SPBC HZ EP        615 19.57                             129   -0.19 9  162 219 
 SPBC HE ES        615 42.05                             129    0.25 9  162 219 
 SPBC HZ I         615 45.76        15.8 0.12            128            162 219 
 YPLC HZ EP     C  615 21.04                             126   -0.06 9  176 151 
 YPLC HE ES        615 44.69                             126    0.50 9  176 151 
 YPLC HZ I         615 46.09         5.7 0.26            128            176 151 
 ZAR  HZ EP        615 25.05                             122    1.18 9  204 293 
 ZAR  HE ES        615 48.56                             122   -0.56 9  204 293 
 ZAR  HZ I         615 55.34        14.6 0.38            120            204 293 
 NOR  HZ EP        615 27.07                             118    0.05 8  233 235 
 NOR  HE ES        615 55.19                             118    0.48 8  233 235 
 CHI  HZ EP        615 28.92                             117   -0.04 8  247 195 
 CHI  HN ES        615 58.25                             117    0.08 8  247 195 
 CHI  HZ I         616  1.88         5.2 0.33            117            247 195 
 ROSC BZ EP   4    615 30.80                             117    1.42 0  251 211 
 ROSC BE ES   4    616  1.58                             117    2.66 0  251 211 
 ROSC BZ I         616  5.29        12.3 0.40            116            251 211 
 HEL  HZ EP   4    615 33.41                             115    1.86 0  271 256 
 HEL  HN ES        616  1.99                             115   -0.80 8  271 256 
 HEL  HZ I         616 10.77         4.6 0.22            114            271 256 
 URE  HZ EP   4    615 35.81                             113    3.29 0  284 292 
 URE  HE ES   4    616  1.81                             113   -2.70 0  284 292 
 URE  HZ I         616 14.54         6.7 0.15            112            284 292 
 GUY2CHZ EP   4    615 37.02                             112    2.12 0  300 235 
 GUY2CHN ES   4    616 12.73                             112    3.98 0  300 235 
 GUY2CHZ I         616 16.06         2.8 0.38                           300 235 
 PTGC HZ EP   9    615 33.74                             111   -1.43 0  307 158 
 PTGC HE ES        616  7.54                             112   -0.26 7  307 158 
 PTGC HZ I         616 10.83         4.0 0.26            112            307 158 
 ARGC HE ES        616 20.40                             108    0.34 6  360 341 
 PRA  HZ EP        615 44.53                             106   -0.26 6  390 210 
 PRA  HE ES        616 26.43                             106    0.07 6  390 210 
 PRA  HZ I         616 31.81         6.9 0.30            106            390 210 
 ORTC HE ES   4    616 29.44                             106    2.36 0  394 216 
 SJC  HZ EP   4    615 44.76                             105   -2.38 0  410 327 
 SJC  HE ES   4    616 28.96                             105   -1.57 0  410 327 
 SJC  HZ I         616 40.74         1.9 0.38            105            410 327 
                                                                                
