 2016 1222 0830 48.5 L   7.197 -74.130  4.0  RSN  5 0.4 1.0LRSN                1
 GAP=152        1.13       3.9     2.4  6.9  0.2056E+01  0.1333E+01  0.8422E+01E
 Epicentro: PUERTO WILCHES - SANTANDER                                         3
 ACTION:UPD 17-01-11 20:17 OP:rebc STATUS:               ID:20161222083048 L   I
 OLDACT:DUP 16-12-22 16:32 OP:cog  STATUS:               ID:20161222082748d    3
 2016-12-22-0828-00M.COL___353                                                 6
 STAT SP IPHASW D HRMM SECON CODA AMPLIT PERI AZIMU VELO AIN AR TRES W  DIS CAZ7
 BRR  HZ EP        830 55.78                              47   -0.5010 47.2 102 
 BRR  HN ES        831  2.02                              47   -0.3010 47.2 102 
 PTB  HZ EP        831  1.90                              47    0.4710 81.1 206 
 PTB  HN ES        831 11.05                              47   -0.4510 81.1 206 
 PTB  HZ I         831 14.10         2.4 0.46             47           81.1 206 
 ZAR  HZ EP        831  2.69                              47    0.4110 86.8 292 
 ZAR  HN ES        831 12.57                              47   -0.4410 86.8 292 
 PAM  EZ EP        831 13.94                              47    0.25 9  159  84 
 RUS  HZ EP        831 18.26                              37    0.76 9  185 141 
 RUS  HN ES        831 40.10                              37    0.01 9  185 141 
 RUS  HZ I         831 42.36         2.8 0.26             37            185 141 
                                                                                
