 2016 1022 0658 11.1 L   6.171 -73.677108.9  RSN 13 0.4 1.8LRSN                1
 GAP= 67        1.06       2.9     3.4  5.7 -0.4173E+01  0.4291E+01  0.1505E+00E
 Epicentro: LA PAZ - SANTANDER                                                 3
 ACTION:UPD 16-11-09 19:21 OP:rebc STATUS:               ID:20161022065811 L   I
 OLDACT:UP  16-10-22 23:16 OP:and  STATUS:               ID:20161022065745     3
 OLDACT:REG 16-10-22 13:17 OP:and  STATUS:               ID:20161022065745     3
 2016-10-22-0658-00M.COL___346                                                 6
 STAT SP IPHASW D HRMM SECON CODA AMPLIT PERI AZIMU VELO AIN AR TRES W  DIS CAZ7
 BAR2 EZ EP        658 28.85                             143    0.0410 71.8  50 
 BAR2 EZ ES        658 42.51                             143   -0.1010 71.8  50 
 SPBC HZ EP        658 28.62                             143   -0.0110 72.2 217 
 SPBC HN ES        658 42.79                             143    0.5010 72.2 217 
 SPBC HZ I         658 44.12        29.4 0.18            142           72.2 217 
 RUS  HZ IP     D  658 28.87                             143   -0.3510 72.5 115 
 RUS  HE ES        658 42.77                             143   -0.5710 72.5 115 
 PTB  HZ EP   9    658 29.58                             135   -0.78 0 95.4 295 
 PTB  HN ES        658 43.65                             134   -0.9410 95.4 295 
 PTB  HZ I         658 47.89        13.6 0.14            133           95.4 295 
 BRR  HZ IP     C  658 30.90                             132   -0.1510  104 358 
 BRR  HN ES        658 47.00                             132    0.4010  104 358 
 BRR  HZ I         658 48.47        10.8 0.12            131            104 358 
 NOR  HZ EP        658 35.43                             121   -0.03 9  148 243 
 NOR  HN ES        658 53.95                             121   -0.50 9  148 243 
 NOR  HZ I         658 56.53        19.4 0.34            120            148 243 
 PAM  EZ EP        658 38.40                             118    0.24 9  168  40 
 PAM  EN ES        658 59.46                             118    0.21 9  168  40 
 PAM  EZ I         659  1.93         3.7 0.20            118            168  40 
 CHI  HZ EP        658 38.17                             117   -0.13 9  171 182 
 CHI  HN ES        658 59.75                             117    0.25 9  171 182 
 CHI  HZ I         659  6.31         5.8 0.36            117            171 182 
 HEL  HZ EP   4    658 42.19                             112    0.16 0  205 271 
 HEL  HN ES   4    659  7.22                             112    1.08 0  205 271 
 HEL  HZ I         659 10.99         3.6 0.32            111            205 271 
 GUY2CHZ EP   4    658 44.81                             111    1.59 0  214 241 
 GUY2CHN ES   4    659  9.25                             111    0.99 0  214 241 
 GUY2CHZ I         659 15.50         6.3 0.26                           214 241 
 OCA  HZ EP        658 44.80                             109   -0.03 8  232  10 
 OCA  HN ES   4    659 12.48                             109    1.35 0  232  10 
 OCA  HZ I         659 17.13        15.1 0.52            109            232  10 
 ELA  HN ES   4    659 15.68                             109    2.13 0  240 233 
 CBOC HZ EP        658 48.53                             106    0.34 8  261 263 
 CBOC HN ES        659 16.66                             106   -0.43 8  261 263 
 CBOC HZ I         659 20.77         2.8 0.20            106            261 263 
 PRA  HZ EP        658 52.52                             103   -0.47 7  303 206 
 PRA  HN ES        659 26.71                             103    1.07 7  303 206 
 PRA  HZ I         659 31.43         4.7 0.28            103            303 206 
 LL6C HZ EP   4    658 44.80                              98   -19.3 0  397   6 
 LL6C HN ES   4    659 25.68                              98   -19.8 0  397   6 
 SJC  HZ EP   4    659  8.65                              96   -1.29 0  444 338 
 SJC  HN ES   4    659 51.38                              96   -4.43 0  444 338 
                                                                                
