 2017  522 0051 28.9 L   6.790 -73.177140.0  RSN  7 0.5 2.0LRSN                1
 GAP=109        1.29       5.4     5.1  9.2  0.9460E+01  0.8439E+01  0.1114E+02E
 Epicentro: LOS SANTOS - SANTANDER                                             3
 ACTION:UPD 17-06-16 13:37 OP:jn   STATUS:               ID:20170522005128 L   I
 OLDACT:UP  17-05-22 13:48 OP:ar   STATUS:               ID:20170522004743     3
 OLDACT:REG 17-05-22 13:00 OP:ar   STATUS:               ID:20170522004743     3
 2017-05-22-0048-00M.COL___356                                                 6
 STAT SP IPHASW D HRMM SECON CODA AMPLIT PERI AZIMU VELO AIN AR TRES W  DIS CAZ7
 BRR  HZ IP     C  051 49.13                             152   -0.2010 68.7 301 
 BRR  HN ES        052  5.77                             152    0.5410 68.7 301 
 BRR  HZ I         052 10.14        14.2 0.38            153           68.7 301 
 PAM  EZ EP        051 51.19                             149    0.4510 80.5  41 
 PAM  EN ES        052  7.04                             149   -0.7010 80.5  41 
 PAM  EZ I         052  9.54        22.4 0.66            148           80.5  41 
 RUS  HZ EP        051 51.75                             143   -0.3210 99.8 174 
 RUS  HN ES        052 10.24                             143    0.1310 99.8 174 
 PTB  HZ EP        051 54.57                             131   -0.54 9  144 259 
 PTB  HN ES        052 15.02                             131   -0.51 9  144 259 
 PTB  HZ I         052 16.79         7.9 0.18            134            144 259 
 SPBC HZ EP        051 56.38                             128   -0.33 9  160 218 
 SPBC HN ES   4    052 11.80                             128   -6.57 0  160 218 
 SPBC HZ I         052 13.74        14.5 0.10            131            160 218 
 YPLC HZ EP        051 58.07                             125   -0.32 9  178 150 
 YPLC HE ES        052 22.20                             125    0.83 9  178 150 
 YPLC HZ I         052 24.71         8.8 0.22            128            178 150 
 ZAR  HZ EP        052  1.59                             121    0.86 9  201 293 
 ZAR  HE ES        052 25.88                             121    0.36 9  201 293 
 ZAR  HZ I         052 30.39        15.3 0.28            123            201 293 
 TABC EZ EP   4    051 59.29                             118   -4.77 0  227 210 
                                                                                
