 2015 1222 0711 54.8 L   6.803 -73.119140.0  RSN 14 0.6 2.0LRSN                1
 GAP=186        1.29       3.4     5.6  6.7  0.8693E+00  0.6931E+01 -0.6104E+00E
 Epicentro: LOS SANTOS - SANTANDER                                             3
 ACTION:UPD 16-02-04 15:06 OP:cam  STATUS:               ID:20151222071154 L   I
 OLDACT:REG 15-12-22 13:02 OP:dnl  STATUS:               ID:20151222070748     3
 2015-12-22-0707-48M.COL___334                                                 6
 STAT SP IPHASW D HRMM SECON CODA AMPLIT PERI AZIMU VELO AIN AR TRES W  DIS CAZ7
 BAR2 EZ EP        712 14.05                             170    0.3010 24.4 197 
 BAR2 EZ ES        712 28.36                             170   -0.1810 24.4 197 
 BAR2 EZ I         712 29.84        19.6 0.10            167           24.4 197 
 BRR  HZ EP     D  712 16.04                             151    0.5810 73.6 297 
 BRR  HN ES        712 32.05                             151    0.4610 73.6 297 
 BRR  HZ I         712 36.56        11.5 0.29            145           73.6 297 
 RUS  HZ EP        712 18.18                             142    0.1910  101 178 
 RUS  HE ES        712 35.65                             142   -0.4410  101 178 
 RUS  HZ I         712 37.10        10.2 0.27            146            101 178 
 PTB  HZ EP        712 21.09                             130   -0.48 9  151 259 
 PTB  HN ES        712 41.78                             130   -0.68 9  151 259 
 PTB  HZ I         712 44.22         9.0 0.22            128            151 259 
 OCA  HZ EP        712 22.97                             128    0.31 9  160 352 
 OCA  HN ES        712 44.22                             128   -0.18 9  160 352 
 OCA  HZ I         712 49.54        19.6 0.14            128            160 352 
 ZAR  HZ EP        712 27.23                             121    0.09 8  207 292 
 ZAR  HE ES        712 53.28                             121    0.91 8  207 292 
 ZAR  HZ I         712 59.01        14.3 0.32            119            207 292 
 NOR  HZ EP        712 30.61                             117    0.14 8  237 235 
 NOR  HN ES        712 57.21                             117   -1.10 8  237 235 
 NOR  HZ I         713  1.97         7.0 0.16            117            237 235 
 SML  HZ EP        712 30.58                             116   -0.62 8  245 335 
 SML  HE ES        712 58.77                             116   -0.83 8  245 335 
 SML  HZ I         713 10.54        12.7 0.12            116            245 335 
 CHI  HZ EP        712 32.26                             116   -0.04 8  250 196 
 CHI  HN ES        713  2.09                             116    0.53 8  250 196 
 HEL  HZ EP        712 36.32                             113    1.27 8  275 256 
 HEL  HN ES        713  6.77                             113    0.33 8  275 256 
 HEL  HZ I         713 16.21         4.6 0.29            113            275 256 
 URE  HZ EP   4    712 37.82                             112    1.94 0  286 292 
 URE  HE ES   4    713  5.99                             112   -1.94 0  286 292 
 URE  HZ I         713 20.56         5.1 0.21            112            286 292 
 GUY2CHN ES   4    713  8.17                             111   -4.31 0  304 235 
 GUY2CHZ I         713 19.46         4.8 0.44                           304 235 
 PRA  HZ EP        712 47.97                             105   -0.35 6  394 210 
 PRA  HN ES   2    713 29.79                             105   -0.29 3  394 210 
 PRA  HZ I         713 33.51         2.2 0.16            106            394 210 
 SJC  HZ EP        712 49.44                             105   -0.88 6  411 327 
 SJC  HN ES   4    713 28.79                             105   -4.85 0  411 327 
 SJC  HZ I         713 34.63         3.4 0.36            105            411 327 
                                                                                
