 2014 1022 0039 41.7 L   6.208 -73.795 98.5  RSN  9 0.5 1.5LRSN                1
 GAP= 64        1.06       2.8     3.4  7.4  0.6310E+00  0.6460E+01  0.8806E+00E
 Epicentro: LANDAZURI - SANTANDER                                              3
 ACTION:UPD 14-11-29 23:53 OP:nd   STATUS:               ID:20141022003941 L   I
 OLDACT:REG 14-10-23 19:34 OP:mh   STATUS:               ID:20141022003743     3
 2014-10-22-0037-43M.COL___277                                                 6
 STAT SP IPHASW D HRMM SECON CODA AMPLIT PERI AZIMU VELO AIN AR TRES W  DIS CAZ7
 SPBC HZ EP   1    039 58.16                             143    0.20 7 68.7 207 
 SPBC HN ES        040 11.13                             143    0.5110 68.7 207 
 SPBC HZ I         040 12.62        12.7 0.42            144           68.7 207 
 BAR2 SZ EP   1    039 59.03                             138   -0.03 7 80.0  58 
 BAR2 SZ ES   1    040 12.73                             138    0.16 7 80.0  58 
 BAR2 SZ I         040 13.55         9.1 0.36            139           80.0  58 
 PTB  HZ EP        039 58.37                             137   -0.5310 81.8 297 
 PTB  HN ES        040 11.80                             137   -0.5010 81.8 297 
 PTB  HZ I         040 15.65         9.6 0.20            137           81.8 297 
 RUS  HZ EP        039 60.00                             136    0.0810 86.2 114 
 RUS  HE ES        040 13.46                             136   -0.6610 86.2 114 
 RUS  HZ I         040 15.59         2.6 0.16            138           86.2 114 
 BRR  HZ EP   1    040  0.56                             131    0.09 7 99.9   5 
 BRR  HN ES        040 15.66                             131    0.5610 99.9   5 
 BRR  HZ I         040 17.37         8.5 0.44            131           99.9   5 
 CHI  HZ EP   1    040  8.86                             115    0.07 7  175 178 
 CHI  HN ES        040 30.03                             115    0.13 9  175 178 
 CHI  HZ I         040 32.47         1.6 0.24            116            175 178 
 ZAR  HZ EP   1    040  8.23                             114   -1.13 7  184 320 
 ZAR  HE ES        040 31.24                             114    0.33 9  184 320 
 ZAR  HZ I         040 35.98         6.9 0.44            113            184 320 
 GUY2CHZ EP        040 12.93                             112    0.62 9  205 238 
 GUY2CHN ES        040 35.98                             112   -0.19 9  205 238 
 GUY2CHZ I         040 43.26         2.4 0.40                           205 238 
 SML  HN ES   1    040 52.82                             105    0.30 5  288 354 
 SML  HZ I         040 57.25         6.0 0.24            103            288 354 
                                                                                
