 2013  422 0630 32.5 L   6.815 -73.127148.6  RSN 13 0.4 2.4LRSN                1
 GAP=113        0.99       3.2     3.4  7.1  0.1665E+01  0.1922E+01 -0.6974E+00E
 Epicentro: LOS SANTOS - SANTANDER                                             3
 ACTION:UPD 13-05-22 14:40 OP:EP   STATUS:               ID:20130422063032 L   I
 2013-04-22-0630-00M.COL___250                                                 6
 STAT SP IPHASW D HRMM SECON CODA AMPLIT PERI AZIMU VELO AIN AR TRES W  DIS CAZ7
 BAR2 SZ IP     D  630 52.56                             170    0.0510 25.4 194 
 BAR2 SZ I         631  9.38        16.7 0.34            171           25.4 194 
 GIR2 SZ EP        630 52.61                             168    0.1410 30.0 346 
 GIR2 SZ I         631  9.90        20.8 0.12            165           30.0 346 
 BRR  HZ IP     C  630 54.41                             153    0.4010 72.2 297 
 BRR  HN ES        631 11.32                             153    0.5410 72.2 297 
 BRR  HN I         631 12.81        85.2 0.22            149           72.2 297 
 RUS  HZ EP        630 56.42                             144   -0.2210  102 177 
 RUS  HN ES        631 15.13                             144   -0.3410  102 177 
 RUS  HN I         631 15.45        24.3 0.34            143            102 177 
 PTB  HZ EP        630 59.10                             132   -0.81 9  150 258 
 PTB  HN ES        631 20.74                             132   -0.54 9  150 258 
 PTB  HN I         631 25.55        64.5 0.28            129            150 258 
 TAM  HZ EP   1    631  0.71                             132    0.45 7  154 106 
 TAM  HE ES        631 21.93                             132    0.02 9  154 106 
 TAM  HE I         631 23.32        35.2 0.48            130            154 106 
 OCA  HZ EP   1    631  1.47                             131    0.58 7  159 352 
 OCA  HN ES        631 22.97                             131   -0.07 9  159 352 
 OCA  HN I         631 26.18       104.1 0.22            127            159 352 
 ZAR  HN ES        631 31.23                             123    0.42 8  205 291 
 ZAR  HN I         631 36.48        46.3 0.26            120            205 291 
 SML  HZ EP        631  8.81                             118   -0.40 8  243 335 
 SML  HN ES        631 37.18                             118   -0.66 8  243 335 
 SML  HN I         631 46.27        45.1 0.10            115            243 335 
 ROSC BN ES   1    631 41.89                             117    0.78 6  255 211 
 HEL  HZ EP   1    631 13.89                             115    0.77 6  274 256 
 HEL  HN ES   1    631 44.74                             115   -0.06 6  274 256 
 HEL  HN I         631 54.13         7.5 0.24            113            274 256 
 URE  HZ EP   4    631 12.39                             114   -1.46 0  285 291 
 URE  HN ES   4    631 47.82                             114    1.72 0  285 291 
 URE  HN I         631 56.51        23.6 0.24            112            285 291 
 PRA  HZ EP   1    631 26.53                             107    0.12 4  394 210 
 PRA  HN ES   1    632  8.43                             107   -0.03 4  394 210 
 PRA  HN I         632 13.32         3.7 0.26            105            394 210 
 SJC  HZ EP   4    631 26.53                             106   -1.59 0  409 327 
 SJC  HN ES   4    632  6.45                             106   -5.05 0  409 327 
                                                                                
