 2011  722 0225 27.8 L   6.784 -73.105141.3  RSN 10 0.3 1.9LRSN                1
 GAP=160        0.61       2.7     5.2  4.7 -0.4165E+01  0.2066E+01  0.2872E+00E
 Epicentro: LOS SANTOS - SANTANDER                                             3
 ACTION:UPD 12-07-25 14:02 OP:epov STATUS:               ID:20110722022527 L   I
 2011-07-22-0223-05S.COL___143                                                 6
 STAT SP IPHASW D HRMM SECON CODA AMPLIT PERI AZIMU VELO AIN AR TRES W  DIS CAZ7
 BAR2 SZ EP   1    225 46.87                             170   -0.02 7 22.9 202 
 BAR2 SZ ES   1    226  1.32                             170   -0.45 7 22.9 202 
 BAR2 SZ I         226  3.51        33.4 0.22                          22.9 202 
 BRR  HZ EP        225 48.77                             150    0.0110 76.0 298 
 BRR  HN ES   1    226  5.37                             150    0.27 7 76.0 298 
 BRR  HZ I         226 10.35        22.9 0.16                          76.0 298 
 RUS  HZ EP   1    225 50.84                             143   -0.13 7 98.6 179 
 RUS  HE ES   1    226  9.50                             143    0.46 7 98.6 179 
 RUS  HZ I         226 10.68         7.3 0.18                          98.6 179 
 BRI  SZ EP   1    225 51.44                             140    0.16 7  109  18 
 BRI  SZ I         226 15.28        11.0 0.26                           109  18 
 GRA  SZ EP   1    225 52.69                             136    0.00 7  126  15 
 GRA  SZ ES   1    226 11.73                             136   -0.36 7  126  15 
 GRA  SZ I         226 13.30         9.8 0.48                           126  15 
 OCA  SZ EP   1    225 56.22                             128    0.23 7  163 352 
 OCA  SZ I         226 22.87        10.1 0.17                           163 352 
 NOR  SN ES   2    226 30.52                             117   -0.94 4  237 235 
 CHI  HZ EP   1    226  4.88                             116   -0.33 6  248 196 
 CHI  HE ES   1    226 34.50                             116    0.12 6  248 196 
 CHI  HZ I         226 38.10         6.8 0.50                           248 196 
 HEL  HZ EP   1    226  8.81                             113    0.57 6  276 256 
 PRA  HZ EP   1    226 21.00                             106   -0.26 4  393 210 
                                                                                
