 2011  122 0611 20.8 L   6.825 -72.703133.0  RSN  4 0.4 1.4LRSN                1
 GAP=226        0.95       5.4    39.7 16.2  0.5790E+02 -0.4470E+03 -0.2839E+02E
 Epicentro: CERRITO - SANTANDER                                                3
 ACTION:UP  11-02-08 08:41 OP:pat  STATUS:               ID:20110122061120 L   I
 2011-01-22-0606-27S.COL___137                                                 6
 STAT SP IPHASW D HRMM SECON CODA AMPLIT PERI AZIMU VELO SNR AR TRES W  DIS CAZ7
 BAR2 SZ EP   1    611 39.81                             155    -0.4 7   59 244 
 BAR2 SZ ES   1    611 54.81                             155    -0.6 7   59 244 
 BAR2 SZ I         611 56.06         7.7 0.32                            59 244 
 RUS  HZ EP   1    611 44.38                             138     0.3 7  111 202 
 RUS  HE ES   1    612  2.88                             138     0.5 7  111 202 
 RUS  HZ I         612  4.54         3.0 0.29                           111 202 
 OCA  SZ EP   1    611 48.87                             125    -0.3 7  171 337 
 OCA  SZ ES   1    612 11.80                             125     0.5 7  171 337 
 OCA  SZ I         612 14.71         3.9 0.48                           171 337 
 CHI  HZ EP   2    611 59.44                             112    -0.5 4  268 205 
 CHI  HN ES   2    612 30.97                             112     0.4 4  268 205 
 CHI  HZ I         612 31.08         1.2 0.45                           268 205 
                                                                                
