 2017  322 0755 13.2 L   6.830 -73.161146.4  RSN  5 0.5 1.4LRSN                1
 GAP=248        1.26       7.7     8.3  9.2  0.1223E+02  0.1487E+02  0.1755E+01E
 Epicentro: LOS SANTOS - SANTANDER                                             3
 ACTION:UPD 17-05-25 18:43 OP:jn   STATUS:               ID:20170322075513 L   I
 OLDACT:UP  17-03-22 16:29 OP:dani STATUS:               ID:20170322074743d    3
 OLDACT:DUP 17-03-22 16:27 OP:dani STATUS:               ID:20170322074743d    3
 2017-03-22-0748-00M.COL___352                                                 6
 STAT SP IPHASW D HRMM SECON CODA AMPLIT PERI AZIMU VELO AIN AR TRES W  DIS CAZ7
 BAR2 EZ EP        755 32.75                             169   -0.2110 26.4 185 
 BAR2 EZ ES        755 47.86                             169   -0.5210 26.4 185 
 BAR2 EZ I         755 49.30         4.2 0.32            165           26.4 185 
 BRR  HZ EP        755 34.59                             154    0.3610 68.1 297 
 BRR  HE ES        755 51.36                             154    0.7110 68.1 297 
 BRR  HZ I         755 53.85         5.1 0.36            150           68.1 297 
 PTB  HZ EP        755 39.68                             132   -0.44 9  147 257 
 PTB  HE ES        756  0.32                             132   -0.80 9  147 257 
 PTB  HZ I         756  3.57         2.9 0.15            130            147 257 
 SPBC HZ EP        755 41.95                             129    0.07 9  165 218 
 SPBC HN ES        756  5.06                             129    0.80 9  165 218 
 SPBC HZ I         756 10.99         2.5 0.44            128            165 218 
 ZAR  HZ EP        755 45.54                             123    0.16 9  201 291 
 ZAR  HE ES        756 10.36                             123   -0.13 9  201 291 
 ZAR  HZ I         756 17.73         2.1 0.32            122            201 291 
                                                                                
