 2013  222 0223 55.1 L   6.773 -73.139141.9  RSN  5 0.4 1.3LRSN                1
 GAP=139        0.78       5.3     5.3  8.4 -0.2486E+01  0.3029E+01  0.1323E+02E
 Epicentro: LOS SANTOS - SANTANDER                                             3
 ACTION:UPD 13-03-12 09:34 OP:ep   STATUS:               ID:20130222022355 L   I
 2013-02-22-0220-00M.COL___238                                                 6
 STAT SP IPHASW D HRMM SECON CODA AMPLIT PERI AZIMU VELO AIN AR TRES W  DIS CAZ7
 BRR  HZ EP   1    224 16.24                             151    0.27 7 73.3 300 
 BRR  HN ES   1    224 32.91                             151    0.67 7 73.3 300 
 BRR  HZ I         224 36.05         4.5 0.60            153           73.3 300 
 PAM  SZ EP   1    224 17.27                             149    0.24 7 79.2  38 
 PAM  SN ES   1    224 33.58                             149   -0.55 7 79.2  38 
 PAM  SZ I         224 36.69         3.1 0.58            153           79.2  38 
 RUS  HZ EP   1    224 18.29                             144    0.01 7 97.6 176 
 RUS  HN ES   1    224 36.37                             144    0.03 7 97.6 176 
 RUS  HZ I         224 38.14         3.1 0.34            148           97.6 176 
 PTB  HZ EP   1    224 21.34                             131   -0.46 7  148 260 
 PTB  HN ES   1    224 42.11                             131   -0.49 7  148 260 
 PTB  HZ I         224 45.08         2.4 0.18            134            148 260 
 CHI  HZ EP   1    224 32.56                             117    0.24 6  246 196 
                                                                                
