 2011 1122 0937 19.6 L   6.788 -73.104140.0  RSN  6 0.3 1.7LRSN                1
 GAP=142        0.59       3.1     4.8  5.3  0.1351E+01  0.1193E+01 -0.3689E+01E
 Epicentro: LOS SANTOS - SANTANDER                                             3
 ACTION:UPD 12-07-13 16:11 OP:ep   STATUS:               ID:20111122093719 L   I
 2011-11-22-0935-46S.COL___178                                                 6
 STAT SP IPHASW D HRMM SECON CODA AMPLIT PERI AZIMU VELO AIN AR TRES W  DIS CAZ7
 BAR2 SZ EP   1    937 38.62                             170    0.03 7 23.3 202 
 BAR2 SZ ES   1    937 52.81                             170   -0.55 7 23.3 202 
 BAR2 SZ I         937 55.07        12.9 0.14                          23.3 202 
 PAM  SZ EP   1    937 41.45                             150    0.31 7 75.6  36 
 PAM  SN ES   1    937 58.04                             150    0.13 7 75.6  36 
 BRR  HZ EP        937 40.54                             150    0.0910 75.9 298 
 BRR  HE ES   1    937 56.97                             150    0.29 7 75.9 298 
 BRR  HZ I         938  1.75        15.5 0.20                          75.9 298 
 RUS  HZ EP   1    937 42.86                             143    0.14 7 99.1 179 
 RUS  HN ES   1    938  0.79                             143    0.07 7 99.1 179 
 RUS  HZ I         938  2.15         2.8 0.27                          99.1 179 
 OCA  SZ EP        937 47.26                             128   -0.44 9  162 352 
 OCA  SZ ES   1    938  9.70                             128    0.12 7  162 352 
 OCA  SZ I         938 14.19         7.4 0.28                           162 352 
 ZAR  HN ES   2    938 17.58                             120   -0.05 4  209 292 
 ZAR  HZ I         938 23.66         9.1 0.43                           209 292 
                                                                                
