 2014 1222 0942  1.1 L   6.796 -73.163142.2  RSN  8 0.5 1.8LRSN                1
 GAP=135        1.22       4.6     5.3  7.8 -0.1811E+01  0.1155E+02 -0.1241E+02E
 Epicentro: LOS SANTOS - SANTANDER                                             3
 ACTION:UPD 15-02-10 17:06 OP:nd   STATUS:               ID:20141222094201 L   I
 OLDACT:REG 14-12-22 12:38 OP:mh   STATUS:               ID:20141222093747     3
 2014-12-22-0937-47M.COL___290                                                 6
 STAT SP IPHASW D HRMM SECON CODA AMPLIT PERI AZIMU VELO AIN AR TRES W  DIS CAZ7
 BAR2 EZ EP        942 20.52                             171    0.2610 22.6 185 
 BAR2 EZ ES        942 34.66                             171   -0.5710 22.6 185 
 BAR2 EZ I         942 36.25        11.8 0.12            173           22.6 185 
 BRR  HZ EP        942 22.47                             152    0.7110 69.8 300 
 BRR  HN ES        942 38.77                             152    0.8810 69.8 300 
 BRR  HZ I         942 43.58        12.3 0.12            150           69.8 300 
 PAM  SZ IP     C  942 23.48                             150    0.4710 79.0  40 
 PAM  SN ES        942 40.17                             150    0.0510 79.0  40 
 PAM  SZ I         942 42.56        16.4 0.58            152           79.0  40 
 RUS  HE ES        942 42.40                             143   -0.2910  100 175 
 RUS  HZ I         942 43.90         4.2 0.36            149            100 175 
 PTB  HZ EP        942 27.40                             132   -0.17 9  146 259 
 PTB  HN ES        942 47.80                             132   -0.45 9  146 259 
 PTB  HZ I         942 51.31        10.0 0.24            133            146 259 
 OCA  HZ EP        942 28.49                             129   -0.64 9  161 354 
 OCA  HN ES        942 50.66                             129   -0.36 9  161 354 
 OCA  HZ I         942 53.77        11.7 0.34            130            161 354 
 ZAR  HZ EP        942 33.68                             122    0.56 9  202 292 
 ZAR  HN ES        942 57.99                             122   -0.13 9  202 292 
 ZAR  HZ I         943  4.39         7.9 0.34            123            202 292 
 SML  HZ EP        942 37.10                             117   -0.36 8  243 336 
 SML  HN ES        943  5.53                             117   -0.32 8  243 336 
 SML  HZ I         943 11.98         9.2 0.10            118            243 336 
                                                                                
