 2010  722 0904 21.0 L   6.758 -73.112149.5  RSN  7 0.4 1.5LRSN                1
 GAP=163        0.93       5.8    12.2 10.5  0.1731E+02 -0.2907E+02 -0.5200E+01E
 Epicentro: LOS SANTOS - SANTANDER                                             3
 ACTION:UPD 10-12-01 15:19 OP:pat  STATUS:               ID:20100722090421 L   I
 2010-07-22-0902-16S.COL___123                                                 6
 STAT SP IPHASW D HRMM SECON CODA AMPLIT PERI AZIMU VELO AIN AR TRES W  DIS CAZ7
 BAR2 SZ EP   1    9 4 40.65                             172    -0.3 7   20 203 
 BAR2 SZ I         9 4 57.21        14.9 0.18                            20 203 
 BRR  HZ EP        9 4 42.49                             152    -0.410   77 300 
 BRR  HN ES   1    9 5  0.07                             152     0.2 7   77 300 
 BRR  HZ I         9 5  1.68         8.8 0.12                            77 300 
 RUS  HZ EP        9 4 44.59                             146    -0.210   96 178 
 RUS  HN ES   1    9 5  3.76                             146     0.4 7   96 178 
 RUS  HZ I         9 5  4.56         2.9 0.24                            96 178 
 GRA  SZ EP   1    9 4 47.46                             137     0.6 7  129  15 
 GRA  SZ I         9 5  9.23         2.7 0.31                           129  15 
 OCA  SZ EP   2    9 4 49.88                             130    -0.2 5  165 352 
 OCA  SZ I         9 5 14.85         4.0 0.09                           165 352 
 CHI  HZ EP   1    9 4 58.38                             119    -0.1 6  245 196 
 CHI  HN ES   2    9 5 27.72                             119    -0.1 4  245 196 
 CHI  HZ I         9 5 36.27         1.9 0.51                           245 196 
 HEL  HZ EP   2    9 5  2.64                             116     1.0 4  275 257 
 HEL  HZ I         9 5 20.64         1.7 0.54                           275 257 
                                                                                
