 2011  622 0846 16.5 L   6.684 -73.190141.9  RSN  4 0.3 1.3LRSN                1
 GAP=191        0.69      12.8    20.6  8.6  0.2204E+03 -0.4463E+02 -0.1959E+02E
 Epicentro: VILLANUEVA - SANTANDER                                             3
 ACTION:UP  11-07-14 19:07 OP:ep   STATUS:               ID:20110622084616 L   I
 2011-06-22-0842-33S.COL___140                                                 6
 STAT SP IPHASW D HRMM SECON CODA AMPLIT PERI AZIMU VELO SNR AR TRES W  DIS CAZ7
 BAR2 SZ EP   1    846 35.30                             175    -0.1 7   10 175 
 BAR2 SZ ES   1    846 50.25                             175     0.0 7   10 175 
 BAR2 SZ I         846 52.93         6.3 0.30                            10 175 
 BTL  SZ EP   1    846 35.72                             169     0.0 7   27 342 
 BRR  HZ EP   1    846 37.02                             151    -0.3 7   74 309 
 BRR  HN ES   1    846 53.89                             151     0.2 7   74 309 
 BRR  HZ I         846 56.50         4.0 0.16                            74 309 
 RUS  HZ EP   1    846 39.45                             146     0.5 7   88 172 
 RUS  HN ES   2    846 55.99                             146    -0.5 5   88 172 
 RUS  HZ I         846 59.25         3.1 0.48                            88 172 
                                                                                
