 2013  422 0907 39.3 L   6.817 -73.056147.4  RSN  5 0.4 1.5LRSN                1
 GAP=192        0.89       5.0    15.1  9.6  0.4696E+02 -0.7553E+01 -0.1676E+02E
 Epicentro: LOS SANTOS - SANTANDER                                             3
 ACTION:UPD 13-05-22 14:40 OP:EP   STATUS:               ID:20130422090739 L   I
 2013-04-22-0900-00M.COL___249                                                 6
 STAT SP IPHASW D HRMM SECON CODA AMPLIT PERI AZIMU VELO AIN AR TRES W  DIS CAZ7
 BAR2 SZ ES        9 8 15.01                             169    0.2610 28.5 209 
 BAR2 SZ I         9 8 16.69         4.5 0.38            166           28.5 209 
 BRR  HZ EP        9 8  1.41                             150    0.3610 79.2 294 
 BRR  HN ES   1    9 8 18.22                             150    0.17 7 79.2 294 
 BRR  HN I         9 8 23.00         7.9 0.18            148           79.2 294 
 RUS  HZ EP   1    9 8  3.59                             144    0.30 7  102 182 
 RUS  HN ES        9 8 21.50                             144   -0.5410  102 182 
 RUS  HN I         9 8 22.63         3.4 0.22            147            102 182 
 OCA  HN ES        9 8 29.86                             130    0.05 9  160 350 
 OCA  HN I         9 8 32.94         8.0 0.24            132            160 350 
 SML  HE ES        9 8 44.50                             117   -0.61 8  246 333 
                                                                                
