 2015  522 0517  2.1 L   6.815 -73.042145.3  RSN  8 0.5 1.9LRSN                1
 GAP=194        1.07       3.6     6.3  6.5  0.2936E+01  0.1007E+02 -0.3055E+01E
 Epicentro: LOS SANTOS - SANTANDER                                             3
 ACTION:UPD 15-09-10 22:06 OP:cam  STATUS:               ID:20150522051702 L   I
 OLDACT:REG 15-05-22 13:58 OP:ar   STATUS:               ID:20150522050750     3
 2015-05-22-0507-50M.COL___288                                                 6
 STAT SP IPHASW D HRMM SECON CODA AMPLIT PERI AZIMU VELO AIN AR TRES W  DIS CAZ7
 BAR2 EZ EP     C  517 21.42                             168   -0.3710 29.1 212 
 BAR2 EZ ES        517 37.19                             168    0.0310 29.1 212 
 BAR2 EZ I         517 38.19        13.3 0.40            167           29.1 212 
 BRR  HZ EP     C  517 23.29                             149   -0.4610 80.8 294 
 BRR  HN ES        517 40.85                             149    0.1910 80.8 294 
 BRR  HZ I         517 47.02         7.4 0.14            147           80.8 294 
 RUS  HZ EP        517 26.15                             143    0.2510  102 183 
 RUS  HN ES        517 44.36                             143   -0.1110  102 183 
 RUS  HZ I         517 45.21         6.5 0.28            147            102 183 
 OCA  HZ EP        517 30.82                             129    0.45 9  160 349 
 OCA  HN ES        517 52.61                             129    0.17 9  160 349 
 OCA  HZ I         517 57.23        24.4 0.20            131            160 349 
 ZAR  HZ EP   1    517 34.33                             121   -1.21 6  214 291 
 ZAR  HN ES        518  1.01                             121   -0.63 8  214 291 
 ZAR  HZ I         518  6.46        11.5 0.36            122            214 291 
 SML  HZ EP        517 38.82                             117   -0.25 8  247 333 
 SML  HN ES        518  8.62                             117    0.70 8  247 333 
 SML  HZ I         518 11.03        14.3 0.24            118            247 333 
 HEL  HZ EP        517 43.56                             114    0.01 7  284 256 
 HEL  HN ES   4    518 17.47                             114    1.57 0  284 256 
 HEL  HZ I         518 19.82         3.0 0.28            115            284 256 
 PTGC HZ EP   4    517 44.24                             112   -1.40 0  306 161 
 GUY2CHZ EP        517 47.17                             111    0.33 7  312 236 
 GUY2CHN ES        518 22.63                             111    0.88 7  312 236 
 GUY2CHZ I         518 28.95         3.3 0.72                           312 236 
                                                                                
