 2013  822 0053 14.1 L   6.826 -73.119146.3  RSN 20 0.5 2.4LRSN                1
 GAP=139        1.15       2.8     4.6  5.4 -0.1511E+01  0.6808E+01  0.1911E+01E
 Epicentro: LOS SANTOS - SANTANDER                                             3
 ACTION:UPD 14-01-14 09:05 OP:ep   STATUS:               ID:20130822005314 L   I
 OLDACT:REG 13-08-22 07:10 OP:nd   STATUS:               ID:20130822004959     3
 2013-08-22-0049-59M.COL___270                                                 6
 STAT SP IPHASW D HRMM SECON CODA AMPLIT PERI AZIMU VELO AIN AR TRES W  DIS CAZ7
 BAR2 SZ IP     C  053 33.79                             169   -0.0310 26.8 195 
 BAR2 SZ ES        053 48.96                             169   -0.2810 26.8 195 
 BAR2 SZ I         053 50.38        53.2 0.22            167           26.8 195 
 BRR  HZ IP     D  053 35.60                             152    0.2710 72.5 295 
 BRR  HN ES        053 52.31                             152    0.3810 72.5 295 
 BRR  HZ I         053 55.12        41.0 0.34            148           72.5 295 
 PAM  SZ IP     D  053 36.77                             152    0.6810 73.3  39 
 PAM  SN ES        053 53.67                             152    0.4010 73.3  39 
 PAM  SZ I         053 54.55        26.8 0.22            155           73.3  39 
 RUS  HZ IP     D  053 37.70                             143   -0.3510  103 178 
 RUS  HN ES        053 56.30                             143   -0.4710  103 178 
 RUS  HZ I         053 58.53        15.2 0.26            144            103 178 
 PTB  HZ EP        053 41.24                             131   -0.14 9  151 258 
 PTB  HN ES        054  1.89                             131   -0.80 9  151 258 
 PTB  HZ I         054  4.19        31.5 0.16            129            151 258 
 OCA  HZ EP        053 41.69                             130   -0.48 9  158 352 
 OCA  HN ES        054  3.73                             130   -0.38 9  158 352 
 OCA  HZ I         054  7.06        18.6 0.24            130            158 352 
 SPBC HZ EP     C  053 42.70                             128   -0.28 9  167 219 
 SPBC HN ES        054  6.03                             128    0.49 9  167 219 
 SPBC HZ I         054 11.76        32.1 0.24            128            167 219 
 ZAR  HZ EP        053 46.42                             122   -0.28 8  206 291 
 ZAR  HN ES        054 11.90                             122   -0.27 8  206 291 
 ZAR  HZ I         054 17.00        20.3 0.36            121            206 291 
 NOR  HZ EP        053 49.99                             118   -0.26 8  239 234 
 NOR  HN ES   2    054 18.88                             118    0.40 4  239 234 
 NOR  HZ I         054 27.35        19.0 0.16            117            239 234 
 SML  HZ EP        053 50.28                             118   -0.28 8  242 334 
 SML  HN ES        054 19.68                             118    0.64 8  242 334 
 SML  HZ I         054 25.30        30.7 0.09            117            242 334 
 CHI  HZ EP        053 51.95                             117   -0.22 8  252 196 
 CHI  HN ES        054 21.30                             117   -0.59 8  252 196 
 CHI  HZ I         054 27.37        10.2 0.40            117            252 196 
 ROSC BZ EP        053 53.58                             116    0.94 8  257 211 
 ROSC BN ES        054 23.96                             116    1.23 8  257 211 
 HEL  HZ EP        053 55.08                             114    0.39 7  276 255 
 HEL  HN ES   4    054 29.27                             114    2.89 0  276 255 
 HEL  HZ I         054 32.46        14.5 0.26            114            276 255 
 URE  HZ EP   4    053 53.68                             113   -1.65 0  285 291 
 URE  HN ES   4    054 24.28                             113   -3.25 0  285 291 
 URE  HZ I         054 35.97        17.0 0.22            113            285 291 
 GUY2CHZ EP        053 58.14                             112   -0.00 7  305 235 
 GUY2CHN ES   4    054 34.93                             112    2.40 0  305 235 
 GUY2CHZ I         054 40.20        15.5 0.64                           305 235 
 RREF HZ EP   4    054  2.39                             111    1.71 0  326 229 
 RREF HN ES   4    054 38.65                             111    1.59 0  326 229 
 RREF HZ I         054 41.14        13.3 0.24            110            326 229 
 COD  HZ EP   4 C  054  1.75                             109   -0.40 0  346 354 
 COD  HN ES   4    054 38.32                             109   -1.35 0  346 354 
 COD  HZ I         054 50.32         3.6 0.50            109            346 354 
 PRA  HZ EP        054  7.34                             106   -0.71 6  396 210 
 PRA  HN ES   4    054 49.11                             106   -1.06 0  396 210 
 PRA  HZ I         054 56.07        13.1 0.50            107            396 210 
 ORTC HZ EP        054  8.37                             106   -0.10 6  399 216 
 ORTC HN ES        054 51.72                             106    0.82 6  399 216 
 ORTC HZ I         054 55.27         7.2 0.24            106            399 216 
 SJC  HZ EP   4    054  7.63                             106   -1.91 0  408 326 
 SJC  HN ES   4    054 49.11                             106   -3.71 0  408 326 
 SJC  HZ I         054 53.17         2.9 0.56            106            408 326 
                                                                                
