 2014  322 0055 43.4 L   6.791 -73.135145.1  RSN  8 0.3 1.7LRSN                1
 GAP=138        0.76       4.2     3.8  6.3 -0.1940E+00  0.7011E+01  0.6698E+01E
 Epicentro: LOS SANTOS - SANTANDER                                             3
 ACTION:UPD 14-04-09 23:19 OP:nd   STATUS:               ID:20140322005543 L   I
 OLDACT:REG 14-03-22 07:33 OP:mh   STATUS:               ID:20140322004808     3
 2014-03-22-0048-08M.COL___243                                                 6
 STAT SP IPHASW D HRMM SECON CODA AMPLIT PERI AZIMU VELO AIN AR TRES W  DIS CAZ7
 BAR2 SZ EP        056  2.81                             171   -0.1310 22.6 193 
 BAR2 SZ I         056 19.50        12.8 0.22            171           22.6 193 
 BRR  HZ IP        056  4.78                             152    0.2110 72.7 299 
 BRR  HN ES        056 21.38                             152    0.3010 72.7 299 
 BRR  HZ I         056 25.04        10.1 0.31            151           72.7 299 
 PAM  SZ EP   1    056  5.73                             151    0.18 7 77.4  38 
 PAM  SN ES        056 22.53                             151   -0.2910 77.4  38 
 PAM  SZ I         056 25.15        10.5 0.52            149           77.4  38 
 RUS  HZ EP        056  6.95                             144   -0.0610 99.5 177 
 RUS  HN ES   1    056 25.78                             144    0.35 7 99.5 177 
 RUS  HZ I         056 26.79         4.3 0.30            143           99.5 177 
 PTB  HZ EP        056  9.99                             132   -0.42 9  149 259 
 PTB  HN ES   1    056 30.73                             132   -0.74 7  149 259 
 PTB  HZ I         056 32.79         5.0 0.14            131            149 259 
 ZAR  HZ EP        056 16.47                             122    0.51 8  206 292 
 ZAR  HN ES   1    056 41.30                             122   -0.05 6  206 292 
 NOR  HZ EP   1    056 18.92                             118   -0.22 6  235 235 
 NOR  HN ES   1    056 47.31                             118    0.30 6  235 235 
 NOR  HZ I         056 54.52         4.7 0.21            117            235 235 
 SML  HZ EP   4    056 18.48                             117   -1.66 0  245 335 
 SML  HN ES   4    056 46.84                             117   -1.96 0  245 335 
 SML  HZ I         056 55.24         7.0 0.11            116            245 335 
                                                                                
