 2013  322 0942 14.1 L   6.750 -73.170148.3  RSN  6 0.4 1.7LRSN                1
 GAP=136        1.01       6.5     5.8  7.3  0.1137E+02  0.4050E+00 -0.1106E+02E
 Epicentro: VILLANUEVA - SANTANDER                                             3
 ACTION:UPD 13-04-09 14:04 OP:ep   STATUS:               ID:20130322094214 L   I
 2013-03-22-0940-00M.COL___245                                                 6
 STAT SP IPHASW D HRMM SECON CODA AMPLIT PERI AZIMU VELO AIN AR TRES W  DIS CAZ7
 BAR2 SZ EP        942 33.73                             173   -0.2310 17.5 185 
 BAR2 SZ ES        942 49.61                             173    0.1810 17.5 185 
 BAR2 SZ I         942 51.24        11.0 0.42            172           17.5 185 
 BRR  HZ EP        942 35.59                             153    0.0110 71.7 303 
 BRR  HN ES        942 52.48                             153    0.1710 71.7 303 
 BRR  HN I         942 52.78        22.2 0.40            152           71.7 303 
 PAM  SZ EP        942 36.55                             149   -0.4210 83.3  39 
 RUS  HZ EP        942 38.34                             146    0.5810 95.3 174 
 RUS  HN ES        942 56.18                             146   -0.0110 95.3 174 
 RUS  HN I         942 57.95         4.4 0.36            146           95.3 174 
 PTB  HZ EP        942 40.42                             133   -0.56 9  144 261 
 PTB  HN ES        943  1.48                             133   -0.45 9  144 261 
 PTB  HN I         943  4.18         4.6 0.28            133            144 261 
 ZAR  HZ EP        942 47.50                             123    0.79 9  204 294 
 ZAR  HN ES   2    943 12.39                             123    0.27 4  204 294 
 ZAR  HN I         943 16.70         4.3 0.34            123            204 294 
                                                                                
