 2016  722 0347 48.2 L   6.762 -73.154148.8  RSN  4 0.3 1.6LRSN                1
 GAP=234        0.72       4.4     6.5  5.8  0.5315E+01  0.2847E+01  0.3343E+01E
 Epicentro: LOS SANTOS - SANTANDER                                             3
 ACTION:UPD 17-03-29 16:53 OP:lp   STATUS:               ID:20160722034748 L   I
 OLDACT:REG 16-07-22 13:23 OP:ar   STATUS:               ID:20160722033759     3
 2016-07-22-0337-59S.COL___328                                                 6
 STAT SP IPHASW D HRMM SECON CODA AMPLIT PERI AZIMU VELO AIN AR TRES W  DIS CAZ7
 BAR2 EZ EP        348  8.01                             172   -0.1010 19.1 190 
 BAR2 EZ ES        348 23.16                             172   -0.4910 19.1 190 
 BRR  HZ EP        348  9.77                             153    0.0310 72.5 302 
 BRR  HN ES        348 26.84                             153    0.2910 72.5 302 
 BRR  HZ I         348 29.88         5.4 0.48            146           72.5 302 
 RUS  HZ EP        348 11.96                             146    0.0110 96.5 175 
 RUS  HN ES        348 30.93                             146    0.4410 96.5 175 
 SPBC HZ EP        348 16.51                             130   -0.05 9  159 220 
 SPBC HN ES        348 38.53                             130   -0.17 9  159 220 
 SPBC HZ I         348 46.65         6.4 0.24            126            159 220 
                                                                                
