 2011  422 0245 22.8 L   6.738 -73.116149.5  RSN  6 0.4 1.8LRSN                1
 GAP=186        0.99       6.4    10.0 10.4  0.5492E+01  0.8475E+01 -0.9928E+00E
 Epicentro: JORDAN - SANTANDER                                                 3
 ACTION:UP  11-06-22 15:32 OP:REBC STATUS:               ID:20110422024523dL   I
 2011-04-22-0244-30S.COL___139                                                 6
 STAT SP IPHASW D HRMM SECON CODA AMPLIT PERI AZIMU VELO SNR AR TRES W  DIS CAZ7
 BAR2 SZ EP   1    245 42.15                             173    -0.6 7   18 205 
 BAR2 SZ I         246  1.30        14.3 0.83                            18 205 
 BTL  SZ EP   4    245 41.70                             170    -1.2 0   26 320 
 BTL  SZ ES   4    245 55.82                             170    -2.8 0   26 320 
 GIR2 SZ EP        245 42.86                             165    -0.210   39 347 
 GIR2 SZ ES   3    245 58.96                             165     0.0 2   39 347 
 BRR  HZ EP        245 44.33                             151    -0.310   78 302 
 BRR  HZ I         245 45.82        14.0 0.18                            78 302 
 BRR  HN ES   1    246  2.00                             151     0.2 7   78 302 
 RUS  HZ EP        245 46.49                             146     0.110   94 178 
 RUS  HN ES   1    246  5.15                             146     0.3 7   94 178 
 RUS  HZ I         246  6.42         5.6 0.66                            94 178 
 OCA  SZ EP   1    245 52.88                             129     0.8 7  167 352 
 OCA  SZ I         246 19.05        12.4 0.32                           167 352 
 NOR  SZ EP        245 58.81                             119     0.2 8  234 236 
 NOR  SN ES   2    246 26.22                             119    -0.3 4  234 236 
                                                                                
