 2012  622 0933 47.2 L   6.801 -73.164146.0  RSN 10 0.5 2.4LRSN                1
 GAP=134        0.92       4.2     5.6  8.0 -0.4989E+01  0.9035E+01  0.1052E+02E
 Epicentro: LOS SANTOS - SANTANDER                                             3
 ACTION:UPD 12-08-06 17:51 OP:ep   STATUS:               ID:20120622093347 L   I
 2012-06-22-0920-00M.COL___193                                                 6
 STAT SP IPHASW D HRMM SECON CODA AMPLIT PERI AZIMU VELO AIN AR TRES W  DIS CAZ7
 BAR2 SZ EP        934  6.89                             171    0.0210 23.2 185 
 BAR2 SZ I         934 23.54        54.6 0.18                          23.2 185 
 BRR  HZ EP        934  8.68                             153    0.3910 69.3 299 
 BRR  HZ I         934  8.85        70.4 0.14                          69.3 299 
 BRR  HN ES   1    934 25.49                             153    0.77 7 69.3 299 
 PAM  SZ EP        934  9.71                             151    0.1810 78.6  41 
 PAM  SE ES   1    934 26.66                             151   -0.28 7 78.6  41 
 PAM  SZ I         934 28.86        14.7 0.42                          78.6  41 
 RUS  HZ EP        934 10.95                             144   -0.0610  101 175 
 RUS  HE ES   2    934 28.90                             144   -0.67 5  101 175 
 RUS  HZ I         934 30.40        28.9 0.28                           101 175 
 PTB  HZ EP        934 13.30                             133   -0.72 9  146 259 
 PTB  HZ I         934 41.38        18.2 0.42                           146 259 
 OCA  HZ EP        934 15.33                             130   -0.19 9  160 354 
 OCA  HZ I         934 42.43        34.5 0.34                           160 354 
 ZAR  HZ EP   2    934 20.34                             123    0.86 4  202 292 
 ZAR  HN ES   2    934 42.95                             123   -1.69 4  202 292 
 ZAR  HZ I         934 46.74        18.1 0.28                           202 292 
 NOR  SZ EP        934 23.00                             119    0.21 8  233 234 
 NOR  SN ES   1    934 50.71                             119    0.18 6  233 234 
 CHI  HZ EP        934 24.90                             117    0.02 8  248 195 
 CHI  HN ES   1    934 54.21                             117   -0.05 6  248 195 
 PRA  HZ EP        934 40.72                             107    0.08 6  391 209 
 PRA  HZ I         934 42.55        23.2 0.32                           391 209 
 PRA  HN ES   1    935 22.79                             107    0.48 4  391 209 
                                                                                
