 2015  422 0218 47.0 L   6.815 -73.157142.2  RSN  8 0.5 1.6LRSN                1
 GAP=200        1.17       4.1     6.1  7.1  0.7291E+01  0.8578E+01  0.5118E+00E
 Epicentro: LOS SANTOS - SANTANDER                                             3
 ACTION:UPD 15-06-03 16:56 OP:cam  STATUS:               ID:20150422021847 L   I
 OLDACT:REG 15-04-22 12:08 OP:ak   STATUS:               ID:20150422021746     3
 2015-04-22-0217-46M.COL___277                                                 6
 STAT SP IPHASW D HRMM SECON CODA AMPLIT PERI AZIMU VELO AIN AR TRES W  DIS CAZ7
 BAR2 EZ EP     C  219  6.90                             170    0.6510 24.8 186 
 BAR2 EZ ES        219 20.72                             170   -0.5310 24.8 186 
 BAR2 EZ I         219 23.21         9.7 0.14            170           24.8 186 
 BRR  HZ EP        219  8.45                             152    0.7710 69.3 298 
 BRR  HE ES        219 23.73                             152   -0.0610 69.3 298 
 BRR  HZ I         219 29.44         5.9 0.28            151           69.3 298 
 RUS  HZ EP        219 11.09                             142    0.5410  102 175 
 RUS  HE ES        219 28.63                             142   -0.2710  102 175 
 PTB  HZ EP        219 13.43                             131   -0.19 9  147 258 
 PTB  HE ES        219 34.64                             131    0.28 9  147 258 
 PTB  HZ I         219 39.92         4.8 0.15            132            147 258 
 ZAR  HN ES        219 44.54                             122    0.51 9  202 292 
 SML  HZ EP        219 22.76                             117   -0.47 8  242 335 
 SML  HN ES        219 50.71                             117   -0.76 8  242 335 
 SML  HZ I         219 55.44         6.2 0.10            119            242 335 
 CHI  HZ EP   1    219 24.22                             116   -0.45 6  250 195 
 CHI  HE ES        219 53.86                             116   -0.16 8  250 195 
 CHI  HZ I         219 57.73         2.2 0.44            118            250 195 
 GUY2CHZ EP        219 29.92                             112   -0.54 7  301 234 
 GUY2CHE ES        220  3.91                             112   -0.43 7  301 234 
 GUY2CHZ I         220 12.84         2.3 0.32                           301 234 
                                                                                
