 2010 1022 0142  1.2 L   6.792 -73.067145.0  RSN 16 0.5 2.7LRSN                1
 GAP=107        1.05       3.7     5.5  6.5 -0.8320E+01  0.2118E+01  0.4884E+01E
 Epicentro: LOS SANTOS - SANTANDER                                             3
 ACTION:UP  11-02-18 11:11 OP:tino STATUS:               ID:20101022014201 L   I
 2010-10-22-0139-53S.COL___125                                                 6
 STAT SP IPHASW D HRMM SECON CODA AMPLIT PERI AZIMU VELO SNR AR TRES W  DIS CAZ7
 BAR2 SZ IP        142 20.97                             169     0.210   26 210 
 BAR2 SZ ES   1    142 35.91                             169    -0.2 7   26 210 
 BAR2 SZ I         142 37.69       207.2 0.14                            26 210 
 BRR  HZ IP     C  142 22.84                             150     0.110   79 296 
 BRR  HZ I         142 23.08       241.9 0.13                            79 296 
 BRR  HN ES   1    142 40.11                             150     0.5 7   79 296 
 RUS  HZ IP     D  142 24.84                             144     0.010   99 181 
 RUS  HN ES   1    142 43.27                             144     0.1 7   99 181 
 RUS  HZ I         142 44.90        64.6 0.37                            99 181 
 GRA  SZ IP        142 26.76                             137     0.510  124  13 
 GRA  SZ ES        142 45.16                             137    -0.610  124  13 
 GRA  SZ I         142 51.19        50.7 0.20                           124  13 
 OCA  SZ EP        142 29.33                             129    -0.3 9  162 350 
 OCA  SZ ES   1    142 51.95                             129     0.1 7  162 350 
 OCA  SZ I         142 58.21        52.1 0.22                           162 350 
 YOP  SZ EP   1    142 31.41                             127     0.7 7  174 156 
 NOR  SZ EP   1    142 37.03                             117    -0.6 6  241 236 
 NOR  SN ES   1    143  5.04                             117    -1.0 6  241 236 
 CHI  HZ EP   1    142 38.88                             117    -0.2 6  250 197 
 CHI  HN ES   2    143  8.11                             117    -0.4 4  250 197 
 CHI  HZ I         143 16.06        16.2 0.29                           250 197 
 ROSC BZ EP   1    142 40.65                             116     0.9 6  257 213 
 ROSC BZ I         143 18.61        31.6 0.43                           257 213 
 HEL  HZ EP   1    142 41.92                             114    -0.4 6  280 256 
 HEL  HE ES   2    143 15.32                             114     1.0 4  280 256 
 HEL  HZ I         143 19.54        17.0 0.32                           280 256 
 VIL  SZ EP   2    142 44.38                             112    -0.1 4  302 192 
 GUY  SZ EP   1    142 46.03                             111     0.5 5  308 236 
 GUY  SN ES   1    143 19.56                             111    -0.6 5  308 236 
 GUY  SZ I         143 28.24        30.6 0.12                           308 236 
 RREF HZ EP   1    142 48.12                             110     0.1 5  328 230 
 RREF HE ES   1    143 25.33                             110     0.8 5  328 230 
 RREF HZ I         143 29.95        22.4 0.04                           328 230 
 DBB  SZ EP   2    142 49.78                             109     0.1 3  348 274 
 SDV  BZ IP     D  142 50.40                             108    -0.1 6  354  49 
 SDV  BZ I         142 51.20         8.2 0.18                           354  49 
 PRA  HZ EP   1    142 54.33                             106    -0.8 4  396 211 
 PRA  HN ES   1    143 36.31                             106    -0.9 4  396 211 
 PRA  HZ I         143 43.47        53.2 0.10                           396 211 
                                                                                
