 2011  622 0701 18.3 L   6.876 -73.290116.8  RSN  4 0.3 1.3LRSN                1
 GAP=139        0.75       8.4    12.2  8.9  0.4991E+02 -0.1044E+02 -0.1694E+02E
 Epicentro: BETULIA - SANTANDER                                                3
 ACTION:UP  11-07-14 19:07 OP:ep   STATUS:               ID:20110622070118 L   I
 2011-06-22-0700-00M.COL___125                                                 6
 STAT SP IPHASW D HRMM SECON CODA AMPLIT PERI AZIMU VELO SNR AR TRES W  DIS CAZ7
 BTL  SZ EP   1    7 1 34.29                             177     0.2 7    5  28 
 BTL  SZ ES   1    7 1 47.06                             177     0.5 7    5  28 
 BAR2 SZ EP   1    7 1 34.75                             163     0.0 7   34 159 
 BAR2 SZ ES   1    7 1 47.06                             163    -0.5 7   34 159 
 BAR2 SZ I         7 1 48.99         6.7 0.19                            34 159 
 BRR  HZ EP   1    7 1 35.30                             154     0.0 7   53 299 
 BRR  HN ES   1    7 1 48.36                             154    -0.2 7   53 299 
 BRR  HZ I         7 1 52.21         4.3 0.29                            53 299 
 OCA  SZ ES   2    7 2  2.90                             124    -0.3 5  151 359 
 OCA  SZ I         7 2  7.16         3.3 0.35                           151 359 
                                                                                
