 2011  622 0653 56.5 L   6.772 -73.125146.3  RSN 20 0.3 3.3LRSN                1
 GAP=140        0.65       2.2     3.5  3.8 -0.3315E+01  0.3351E+01  0.1041E+01E
 Epicentro: LOS SANTOS - SANTANDER                                             3
 ACTION:UP  11-07-14 19:07 OP:ep   STATUS:               ID:20110622065356 L   I
 2011-06-22-0652-21S.COL___140                                                 6
 STAT SP IPHASW D HRMM SECON CODA AMPLIT PERI AZIMU VELO SNR AR TRES W  DIS CAZ7
 BAR2 SZ IP        654 16.24                             172     0.110   21 198 
 BAR2 SZ ES   1    654 30.94                             172    -0.6 7   21 198 
 BAR2 SZ I         654 34.21       440.8 0.56                            21 198 
 BTL  SZ EP   1    654 16.37                             171     0.2 7   23 316 
 BTL  SZ ES   2    654 30.97                             171    -0.6 5   23 316 
 GIR2 SZ IP        654 16.37                             166     0.010   35 348 
 BRR  HZ IP     C  654 18.08                             151     0.210   75 300 
 BRR  HN ES   1    654 35.05                             151     0.4 7   75 300 
 BRR  HZ I         654 39.23       259.1 0.21                            75 300 
 PAM  SZ EP   1    654 18.97                             151     0.1 7   78  37 
 PAM  SE ES   1    654 36.09                             151    -0.2 7   78  37 
 RUS  HZ IP     D  654 20.08                             145     0.010   97 177 
 RUS  HN ES   1    654 38.82                             145     0.3 7   97 177 
 BRI  SZ IP        654 20.72                             141     0.110  111  19 
 GRA  SZ IP        654 21.99                             137     0.010  128  16 
 GRA  SZ ES   1    654 41.75                             137    -0.1 7  128  16 
 GRA  SZ I         654 44.60       123.8 0.42                           128  16 
 OCA  SZ EP        654 24.82                             129    -0.4 9  164 352 
 OCA  SZ ES   1    654 48.20                             129     0.6 7  164 352 
 OCA  SZ I         654 52.27       231.0 0.43                           164 352 
 NOR  SZ EP        654 32.03                             119    -0.3 8  235 235 
 NOR  SE ES   1    655  0.14                             119     0.0 6  235 235 
 CHI  HZ EP   1    654 33.89                             117    -0.1 6  246 196 
 CHI  HE ES   1    655  3.15                             117    -0.1 6  246 196 
 CHI  HZ I         655 12.15        58.7 0.33                           246 196 
 ROSC BE ES   1    655  4.38                             117     0.2 6  251 212 
 ROSC BZ I         655 14.26       255.4 0.40                           251 212 
 HEL  HZ EP   1    654 36.24                             115    -0.7 6  273 257 
 HEL  HE ES   1    655  8.03                             115    -0.4 6  273 257 
 HEL  HZ I         655 15.23       134.2 0.23                           273 257 
 VIL  SZ EP   1    654 39.86                             112     0.2 5  301 192 
 VIL  SE ES   2    655 13.08                             112    -0.2 4  301 192 
 VIL  SZ I         655 18.27        61.9 0.49                           301 192 
 GUY  SZ EP   2    654 40.64                             112     0.2 4  304 236 
 GUY  SN ES   2    655 14.78                             112     0.1 4  304 236 
 GUY  SZ I         655 24.36       223.3 0.41                           304 236 
 RREF HZ EP   1    654 43.19                             111     0.5 5  321 230 
 RREF HZ I         655 28.32       101.3 0.15                           321 230 
 DBB  SZ EP   1    654 44.19                             109    -0.1 5  342 275 
 TOL  SZ EP   2    654 45.17                             109     0.4 3  343 225 
 PRA  HZ EP   1    654 49.54                             107    -0.3 4  390 210 
 PRA  HN ES   1    655 32.14                             107     0.7 4  390 210 
 SJA  SZ EP   2    654 50.04                             106    -0.8 3  398 193 
                                                                                
