 2010 1122 0824  2.4 L   6.524 -73.471115.3  RSN  4 0.1 1.3LRSN                1
 GAP=189        0.43       6.7    13.2  6.3  0.8034E+02 -0.3598E+02 -0.2039E+02E
 Epicentro: SIMACOTA - SANTANDER                                               3
 ACTION:UP  10-12-17 16:54 OP:REBC STATUS:               ID:20101122082402 L   I
 2010-11-22-0820-43S.COL___129                                                 6
 STAT SP IPHASW D HRMM SECON CODA AMPLIT PERI AZIMU VELO SNR AR TRES W  DIS CAZ7
 BAR2 SZ EP   1    824 18.67                             163     0.0 7   33  77 
 BAR2 SZ I         824 33.30         7.5 0.31                            33  77 
 BRR  HZ EP        824 20.11                             147    -0.110   70 338 
 BRR  HE ES   1    824 34.29                             147     0.1 7   70 338 
 BRR  HZ I         824 35.46         4.8 0.24                            70 338 
 RUS  HZ EP   1    824 22.02                             142     0.2 7   82 148 
 RUS  HE ES   1    824 36.81                             142    -0.1 7   82 148 
 RUS  HZ I         824 38.81         5.1 0.20                            82 148 
 OCA  SZ EP   1    824 31.72                             117     0.0 7  190   5 
                                                                                
