 2012 1122 0627 29.5 L   6.834 -73.169147.7  RSN  5 0.1 1.7LRSN                1
 GAP=146        0.39       3.0     2.9  4.5 -0.1808E+01  0.3504E+01  0.2935E+01E
 Epicentro: LOS SANTOS - SANTANDER                                             3
 ACTION:UPD 12-12-05 15:35 OP:}ep  STATUS:               ID:20121122062729 L   I
 2012-11-22-0620-00M.COL___234                                                 6
 STAT SP IPHASW D HRMM SECON CODA AMPLIT PERI AZIMU VELO AIN AR TRES W  DIS CAZ7
 BAR2 SZ EP        627 49.63                             169    0.2310 26.7 183 
 BAR2 SZ I         627 49.87        10.9 0.23                          26.7 183 
 PAM  SZ EP   1    627 51.60                             151   -0.22 7 76.3  43 
 PAM  SN ES   1    628  9.31                             151    0.05 7 76.3  43 
 PAM  SZ I         628 12.17         6.7 0.61                          76.3  43 
 RUS  HZ EP   1    627 53.53                             143   -0.16 7  105 175 
 RUS  HN ES   1    628 12.51                             143   -0.08 7  105 175 
 RUS  HN I         628 13.92        10.0 0.43                           105 175 
 PTB  HZ EP        627 56.42                             133   -0.01 9  146 257 
 PTB  HN ES   1    628 17.40                             133   -0.07 7  146 257 
 PTB  HZ I         628 23.47         4.6 0.29                           146 257 
 CHI  HZ EP        628  7.66                             117    0.07 8  252 194 
                                                                                
