 2016  622 0126 28.5 L   6.885 -73.058229.3  RSN  6 0.3 1.8LRSN                1
 GAP=143        0.65       5.1     5.5 10.7 -0.6200E+01  0.1833E+02  0.8710E+01E
 Epicentro: PIEDECUESTA - SANTANDER                                            3
 ACTION:UPD 16-07-21 22:21 OP:rebc STATUS:               ID:20160622012628 L   I
 OLDACT:UP  16-06-22 14:57 OP:ak   STATUS:               ID:20160622011747     3
 OLDACT:REG 16-06-22 13:16 OP:ak   STATUS:               ID:20160622011747     3
 2016-06-22-0117-47M.COL___325                                                 6
 STAT SP IPHASW D HRMM SECON CODA AMPLIT PERI AZIMU VELO AIN AR TRES W  DIS CAZ7
 BAR2 EZ EP   2    126 58.74                             171    0.34 5 35.2 203 
 BAR2 EZ ES        127 21.27                             171   -0.4610 35.2 203 
 BAR2 EZ I         127 23.23         9.0 0.26                          35.2 203 
 PAM  EN ES        127 23.86                             164    0.1010 64.0  38 
 BRR  HZ EP   2    126 58.74                             161   -0.53 5 76.3 289 
 BRR  HE ES        127 23.42                             161    0.1510 76.3 289 
 BRR  HZ I         127 27.07         5.5 0.34                          76.3 289 
 RUS  HE ES        127 27.62                             154    0.2610  110 181 
 RUS  HZ I         127 29.32         4.8 0.34                           110 181 
 PTB  HN ES        127 31.81                             144    0.09 9  159 256 
 SPBC HN ES        127 34.10                             141   -0.09 9  177 220 
                                                                                
