 2017  422 0140 46.8 L   6.176 -73.671114.8  RSN 11 0.4 1.9LRSN                1
 GAP=133        1.10       3.1     3.9  7.1 -0.4970E+01  0.7866E+01 -0.1965E+00E
 Epicentro: LA PAZ - SANTANDER                                                 3
 ACTION:UPD 17-05-30 21:14 OP:jn   STATUS:               ID:20170422014046 L   I
 OLDACT:UP  17-04-22 12:15 OP:dnl  STATUS:               ID:20170422013741     3
 OLDACT:UP  17-04-22 12:14 OP:dnl  STATUS:               ID:20170422013741     3
 OLDACT:REG 17-04-22 11:42 OP:dnl  STATUS:               ID:20170422013741     3
 2017-04-22-0138-00M.COL___362                                                 6
 STAT SP IPHASW D HRMM SECON CODA AMPLIT PERI AZIMU VELO AIN AR TRES W  DIS CAZ7
 BAR2 EZ IP     C  141  4.97                             146   -0.0910 71.0  50 
 BAR2 EZ ES        141 19.20                             146   -0.0710 71.0  50 
 BAR2 EZ I         141 20.03        52.5 0.34            148           71.0  50 
 SPBC HZ EP   4    141  6.57                             145    1.59 0 73.0 218 
 SPBC HE ES        141 18.62                             145   -0.5210 73.0 218 
 SPBC HZ I         141 25.73        13.1 0.54            142           73.0 218 
 PTB  HZ EP        141  5.54                             137   -1.0810 95.8 295 
 PTB  HN ES   4    141 20.59                             137   -1.47 0 95.8 295 
 PTB  HZ I         141 23.10         6.7 0.40            137           95.8 295 
 BRR  HE EP        141  7.28                             135    0.0610  103 357 
 BRR  HN ES        141 23.48                             135    0.3510  103 357 
 BRR  HE I         141 26.89        33.2 0.20            136            103 357 
 NOR  HZ EP        141 11.90                             124    0.26 9  149 243 
 NOR  HZ I         141 31.63        15.6 0.84            122            149 243 
 NOR  HE ES        141 31.70                             124    0.70 9  149 243 
 PAM  EZ EP        141 14.15                             120    0.01 9  168  40 
 PAM  EN ES        141 35.93                             120    0.49 9  168  40 
 PAM  EZ I         141 38.07         7.0 0.56            121            168  40 
 CHI  HZ EP   4    141 13.29                             120   -1.12 0  171 182 
 CHI  HN ES        141 36.02                             120    0.10 9  171 182 
 CHI  HZ I         141 40.37         8.0 0.58            118            171 182 
 ZAR  HZ EP        141 16.18                             116   -0.40 9  196 318 
 ZAR  HN ES        141 39.89                             116    0.10 9  196 318 
 ZAR  HZ I         141 41.87        18.4 0.30            115            196 318 
 CBOC HZ EP        141 24.55                             109    0.36 8  261 263 
 CBOC HN ES        141 53.40                             109    0.06 8  261 263 
 CBOC HZ I         141 56.10         3.4 0.48            108            261 263 
 PRA  HZ EP        141 28.47                             105   -0.49 7  304 206 
 PRA  HN ES        142  2.36                             105    0.53 7  304 206 
 PRA  HZ I         142  6.60         3.7 0.26            104            304 206 
 ORTC HZ EP   4    141 27.89                             105   -1.27 0  305 215 
 ORTC HN ES   4    142  0.78                             105   -1.41 0  305 215 
 ORTC HZ I         142  7.33         3.3 0.58            104            305 215 
                                                                                
