 2016  522 0530 11.2 L   6.726 -73.150142.4  RSN  6 0.5 1.2LRSN                1
 GAP=139        1.14       6.4     5.6  8.0  0.1043E+02  0.5164E+01 -0.8641E+01E
 Epicentro: JORDAN - SANTANDER                                                 3
 ACTION:UPD 16-08-18 17:48 OP:cam  STATUS:               ID:20160522053011 L   I
 OLDACT:REG 16-05-22 13:11 OP:mh   STATUS:               ID:20160522052745     3
 2016-05-22-0527-45M.COL___290                                                 6
 STAT SP IPHASW D HRMM SECON CODA AMPLIT PERI AZIMU VELO AIN AR TRES W  DIS CAZ7
 BAR2 EZ EP        530 30.15                             174   -0.1810 15.2 194 
 BAR2 EZ ES        530 44.78                             174   -0.4310 15.2 194 
 BAR2 EZ I         530 46.34         3.4 0.28            175           15.2 194 
 BRR  HZ EP        530 32.32                             151    0.0710 75.0 304 
 BRR  HE ES        530 49.04                             151    0.4010 75.0 304 
 BRR  HZ I         530 54.02         3.4 0.16            150           75.0 304 
 PAM  EZ EP        530 33.37                             148   -0.1610 84.2  36 
 PAM  EN ES   2    530 50.76                             148   -0.15 5 84.2  36 
 PAM  EZ I         530 53.03         1.7 0.16            149           84.2  36 
 RUS  HZ EP        530 34.11                             146    0.0310 92.4 175 
 RUS  HE ES        530 52.53                             146    0.6310 92.4 175 
 RUS  HZ I         530 53.75         3.4 0.34            151           92.4 175 
 PTB  HZ EP        530 36.93                             132   -0.84 9  146 262 
 PTB  HN ES        530 58.04                             132   -0.41 9  146 262 
 PTB  HZ I         530 59.68         2.7 0.58            133            146 262 
 ZAR  HZ EP        530 44.64                             121    0.88 8  207 294 
 ZAR  HE ES        531  9.31                             121    0.19 8  207 294 
 ZAR  HZ I         531 15.60         2.6 0.12            123            207 294 
                                                                                
