 2016  822 0050 33.2 L   6.828 -73.165149.8  RSN 10 0.5 1.5LRSN                1
 GAP=238        1.22       5.1     6.4  7.6  0.1330E+02  0.1421E+02  0.9932E+01E
 Epicentro: LOS SANTOS - SANTANDER                                             3
 ACTION:UPD 16-10-29 15:37 OP:rebc STATUS:               ID:20160822005033 L   I
 OLDACT:REG 16-08-22 13:25 OP:ak   STATUS:               ID:20160822004739     3
 2016-08-22-0048-00M.COL___368                                                 6
 STAT SP IPHASW D HRMM SECON CODA AMPLIT PERI AZIMU VELO AIN AR TRES W  DIS CAZ7
 BAR2 EZ EP   2    050 53.57                             170    0.19 5 26.1 184 
 BAR2 EZ ES        051  8.47                             170   -0.6510 26.1 184 
 BAR2 EZ I         051 10.10         6.9 0.14                          26.1 184 
 BRR  HZ EP        050 55.57                             154    0.9510 67.8 297 
 BRR  HN ES        051 11.96                             154    0.6510 67.8 297 
 RUS  HZ EP        050 57.47                             144   -0.1210  104 175 
 RUS  HN ES        051 16.80                             144    0.1910  104 175 
 RUS  HZ I         051 17.55         3.6 0.24                           104 175 
 PTB  HZ EP        050 59.71                             133   -0.67 9  146 257 
 PTB  HN ES        051 21.37                             133   -0.19 9  146 257 
 PTB  HZ I         051 23.63         3.3 0.12                           146 257 
 SPBC HZ EP   2    051  2.28                             130    0.16 5  164 218 
 SPBC HN ES        051 24.49                             130   -0.18 9  164 218 
 SPBC HZ I         051 27.54         6.2 0.08                           164 218 
 ZAR  HZ EP   2    051  4.91                             124   -0.69 4  201 292 
 ZAR  HN ES        051 30.59                             124   -0.27 9  201 292 
 ZAR  HZ I         051 36.20         3.7 0.23                           201 292 
 NOR  HZ EP        051  9.98                             119    0.80 8  235 234 
 NOR  HN ES        051 37.98                             119    0.74 8  235 234 
 NOR  HZ I         051 43.65         1.3 0.14                           235 234 
 CHI  HZ EP        051 10.79                             118   -0.61 8  251 194 
 CHI  HN ES        051 40.91                             118   -0.27 8  251 194 
 CHI  HZ I         051 43.44         1.8 0.25                           251 194 
 URE  HN ES        051 45.30                             115   -0.74 7  281 291 
 PRA  HZ EP   2    051 27.47                             107    0.41 3  394 209 
 PRA  HN ES        052  9.16                             107    0.10 6  394 209 
 PRA  HZ I         052 15.82         2.1 0.74                           394 209 
                                                                                
