 2016  222 0932 19.7 L   6.073 -73.719113.4  RSN  9 0.4 2.2LRSN                1
 GAP= 77        0.97       2.9     2.8  6.3 -0.1351E+01  0.1645E+01 -0.3450E+01E
 Epicentro: VELEZ - SANTANDER                                                  3
 ACTION:UPD 16-03-04 21:28 OP:rebc STATUS:               ID:20160222093219 L   I
 OLDACT:UP  16-02-22 19:11 OP:mh   STATUS:               ID:20160222092746     3
 OLDACT:REG 16-02-22 12:52 OP:mh   STATUS:               ID:20160222092746     3
 2016-02-22-0927-46M.COL___291                                                 6
 STAT SP IPHASW D HRMM SECON CODA AMPLIT PERI AZIMU VELO AIN AR TRES W  DIS CAZ7
 SPBC HZ EP        932 36.94                             150    0.0510 60.8 220 
 SPBC HN ES        932 50.82                             150    0.5110 60.8 220 
 SPBC HZ I         932 52.28        62.4 0.36            154           60.8 220 
 RUS  HZ EP        932 38.15                             145   -0.1210 73.2 106 
 RUS  HN ES        932 52.74                             145   -0.0410 73.2 106 
 RUS  HZ I         932 53.69        25.3 0.26            146           73.2 106 
 BAR2 EZ EP        932 39.03                             141    0.4310 82.6  46 
 BAR2 EZ I         932 54.57       127.7 0.32            140           82.6  46 
 PTB  HZ EP        932 38.93                             137   -0.4810 96.5 302 
 PTB  HN ES        932 54.18                             137   -0.6210 96.5 302 
 PTB  HZ I         933  0.97        17.5 0.34            138           96.5 302 
 NOR  HZ EP        932 43.71                             125    0.29 9  139 246 
 NOR  HN ES        933  2.13                             125    0.19 9  139 246 
 NOR  HZ I         933  4.15        53.3 0.18            128            139 246 
 CHI  HZ EP        932 45.46                             121   -0.51 9  160 181 
 CHI  HN ES        933  5.89                             121   -0.58 9  160 181 
 CHI  HZ I         933  8.84        12.9 0.24            124            160 181 
 PAM  EZ EP        932 48.24                             118    0.04 9  180  39 
 PAM  EN ES        933 10.81                             118    0.36 9  180  39 
 PAM  EZ I         933 13.71        13.0 0.40            118            180  39 
 ZAR  HZ EP        932 49.82                             115   -0.11 9  201 321 
 ZAR  HN ES        933 13.35                             115   -0.18 9  201 321 
 ZAR  HZ I         933 15.70        23.4 0.26            116            201 321 
 GUY2CHZ EP        932 51.44                             114    0.48 9  205 243 
 GUY2CHN ES        933 15.77                             114    0.42 9  205 243 
 GUY2CHZ I         933 20.15        11.0 0.30                           205 243 
 URE  HZ EP   4    932 59.83                             107    1.68 0  273 313 
 URE  HN ES   4    933 26.82                             107   -1.34 0  273 313 
                                                                                
