 2013  422 0417 51.2 L   6.815 -73.146145.8  RSN  8 0.4 2.2LRSN                1
 GAP=136        1.05       4.2     4.7  6.9 -0.3719E+01  0.8139E+01 -0.1035E+01E
 Epicentro: LOS SANTOS - SANTANDER                                             3
 ACTION:UPD 13-05-22 14:40 OP:EP   STATUS:               ID:20130422041751 L   I
 2013-04-22-0410-00M.COL___250                                                 6
 STAT SP IPHASW D HRMM SECON CODA AMPLIT PERI AZIMU VELO AIN AR TRES W  DIS CAZ7
 BAR2 SZ EP        418 10.84                             170   -0.0110 25.0 189 
 BAR2 SZ ES        418 26.00                             170   -0.2010 25.0 189 
 BAR2 SZ I         418 28.59        20.3 0.26            170           25.0 189 
 GIR2 SZ EP   1    418 10.81                             168   -0.01 7 29.6 350 
 BRR  HZ EP        418 12.78                             153    0.4910 70.4 297 
 BRR  HN ES        418 29.39                             153    0.6310 70.4 297 
 BRR  HN I         418 30.38        48.0 0.42            151           70.4 297 
 PAM  SZ EP        418 13.89                             151    0.5610 76.1  40 
 PAM  SN ES        418 30.73                             151    0.1310 76.1  40 
 PAM  SN I         418 32.88        26.8 0.46            154           76.1  40 
 RUS  HZ EP        418 14.92                             144   -0.1410  102 176 
 RUS  HN ES        418 33.43                             144   -0.2610  102 176 
 RUS  HN I         418 35.34        18.0 0.30            146            102 176 
 PTB  HZ EP        418 17.55                             132   -0.63 9  148 258 
 PTB  HN ES        418 38.81                             132   -0.44 9  148 258 
 PTB  HN I         418 43.63        18.9 0.52            132            148 258 
 OCA  HZ EP   1    418 18.74                             130   -0.60 7  159 353 
 OCA  HN ES        418 40.80                             130   -0.50 9  159 353 
 OCA  HN I         418 45.10        34.9 0.26            131            159 353 
 HEL  HZ EP   1    418 32.17                             115    0.73 6  272 255 
 HEL  HN ES        419  3.20                             115    0.35 8  272 255 
 HEL  HN I         419  8.71         4.7 0.30            116            272 255 
                                                                                
