 2013  922 0511 52.7 L   6.735 -73.187142.3  RSN  6 0.5 1.6LRSN                1
 GAP=228        1.19       6.9     7.7  9.5  0.1093E+02  0.1956E+02  0.6510E+01E
 Epicentro: VILLANUEVA - SANTANDER                                             3
 ACTION:UPD 13-10-22 09:24 OP:ep   STATUS:               ID:20130922051152 L   I
 OLDACT:REG 13-09-22 07:43 OP:jn   STATUS:               ID:20130922050959     3
 2013-09-22-0509-59M.COL___269                                                 6
 STAT SP IPHASW D HRMM SECON CODA AMPLIT PERI AZIMU VELO AIN AR TRES W  DIS CAZ7
 BAR2 SZ EP        512 11.62                             173   -0.1710 15.8 178 
 BAR2 SZ ES        512 26.31                             173   -0.3710 15.8 178 
 BAR2 SZ I         512 27.59        12.6 0.22            170           15.8 178 
 BRR  HZ EP        512 13.50                             152    0.0310 71.1 305 
 BRR  HN ES        512 30.37                             152    0.7010 71.1 305 
 BRR  HZ I         512 31.11         7.6 0.12            153           71.1 305 
 RUS  HN ES   1    512 33.56                             145    0.03 7 93.9 173 
 RUS  HZ I         512 35.14         2.7 0.28            144           93.9 173 
 PTB  HZ EP        512 18.40                             132   -0.47 9  142 261 
 PTB  HN ES        512 38.40                             132   -0.88 9  142 261 
 PTB  HZ I         512 41.38         6.9 0.18            132            142 261 
 SPBC HZ EP        512 20.57                             130    0.43 9  155 219 
 SPBC HN ES        512 42.09                             130    0.55 9  155 219 
 SPBC HZ I         512 46.02         4.4 0.14            129            155 219 
 ZAR  HN ES   1    512 50.18                             122    0.38 6  203 294 
                                                                                
