 2010  922 0859 49.0 L   6.767 -73.343125.3  RSN  9 0.3 1.8LRSN                1
 GAP=111        0.73       3.2     6.0  7.0 -0.3571E+01 -0.4617E+01  0.8595E-02E
 Epicentro: ZAPATOCA - SANTANDER                                               3
 ACTION:UP  11-02-18 11:04 OP:tino STATUS:               ID:20100922085949 L   I
 2010-09-22-0857-11S.COL___122                                                 6
 STAT SP IPHASW D HRMM SECON CODA AMPLIT PERI AZIMU VELO SNR AR TRES W  DIS CAZ7
 BTL  SZ EP        9 0  6.24                             171     0.110   19  27 
 BAR2 SZ EP        9 0  6.28                             168     0.010   26 138 
 BAR2 SZ I         9 0  6.55        27.1 0.06                            26 138 
 BAR2 SZ ES   2    9 0 19.70                             168     0.0 5   26 138 
 BRR  HZ EP        9 0  7.03                             155    -0.110   55 313 
 BRR  HZ I         9 0  7.21        22.9 0.11                            55 313 
 BRR  HE ES   1    9 0 21.46                             155     0.3 7   55 313 
 RUS  HZ EP   1    9 0 10.58                             139    -0.3 7  101 163 
 RUS  HN ES   2    9 0 27.35                             139    -0.5 5  101 163 
 RUS  HZ I         9 0 29.64         5.5 0.32                           101 163 
 GUE  SZ EP        9 0 13.31                             132     0.510  126  21 
 GRA  SZ EP   1    9 0 13.44                             129    -0.2 7  137  26 
 GRA  SZ ES   1    9 0 32.78                             129     0.0 7  137  26 
 GRA  SZ I         9 0 35.48         9.0 0.23                           137  26 
 OCA  SZ EP   1    9 0 15.58                             124    -0.5 7  163   1 
 OCA  SZ ES   1    9 0 36.82                             124    -0.4 7  163   1 
 OCA  SZ I         9 0 38.35        12.9 0.68                           163   1 
 CHI  HZ EP   2    9 0 25.31                             113     0.6 4  240 190 
 CHI  HZ I         9 0 27.45         2.5 0.23                           240 190 
 CHI  HE ES   2    9 0 52.98                             113     0.4 4  240 190 
 HEL  HE ES   2    9 0 54.20                             112    -0.3 4  250 255 
 HEL  HZ I         9 0 58.55         3.5 0.37                           250 255 
                                                                                
