 2013  422 0843 29.2 L   6.761 -73.176157.1  RSN 10 0.5 2.2LRSN                1
 GAP=179        1.09       4.3     6.8  7.6  0.1120E+01  0.1379E+02 -0.9987E+01E
 Epicentro: VILLANUEVA - SANTANDER                                             3
 ACTION:UPD 13-05-22 14:40 OP:EP   STATUS:               ID:20130422084329 L   I
 2013-04-22-0840-00M.COL___249                                                 6
 STAT SP IPHASW D HRMM SECON CODA AMPLIT PERI AZIMU VELO AIN AR TRES W  DIS CAZ7
 BAR2 SZ EP   1    843 50.40                             173    0.33 7 18.6 182 
 BAR2 SZ ES        844  5.60                             173   -0.7710 18.6 182 
 BAR2 SZ I         844  6.80        12.1 0.46            165           18.6 182 
 BRR  HZ EP        843 52.27                             154    0.7710 70.6 303 
 BRR  HN ES        844  9.46                             154    0.5310 70.6 303 
 BRR  HN I         844 13.80        31.0 0.22            141           70.6 303 
 RUS  HZ EP   1    843 54.34                             147    0.58 7 96.5 174 
 RUS  HN ES        844 12.71                             147   -0.2410 96.5 174 
 RUS  HN I         844 13.59        15.9 0.28            139           96.5 174 
 PTB  HZ EP   1    843 56.99                             135    0.27 7  144 260 
 PTB  HN ES   2    844 18.26                             135    0.05 5  144 260 
 PTB  HN I         844 23.82        26.7 0.32            122            144 260 
 OCA  HZ EP   1    843 58.77                             131    0.04 7  164 354 
 OCA  HN ES        844 21.63                             131   -0.17 9  164 354 
 OCA  HN I         844 24.52        29.6 0.22            122            164 354 
 ZAR  HN ES   1    844 28.60                             125    0.58 6  203 294 
 ZAR  HN I         844 34.47        22.5 0.28            114            203 294 
 NOR  HN ES        844 32.42                             121   -0.57 8  229 235 
 NOR  HN I         844 39.04        16.0 0.14            111            229 235 
 SML  HZ EP   1    844  6.88                             119    0.16 6  246 336 
 SML  HN ES   2    844 35.68                             119   -0.33 4  246 336 
 SML  HN I         844 42.06        19.5 0.10            111            246 336 
 URE  HZ EP   1    844 10.02                             116   -0.62 6  282 293 
 URE  HN I         844 55.08        11.5 0.26            107            282 293 
 SJC  HZ EP        844 24.46                             107   -0.87 6  411 328 
 SJC  HN ES        845  8.42                             107   -0.72 6  411 328 
 SJC  HN I         845 10.64         1.9 0.46            101            411 328 
                                                                                
