 2010 1122 0848 47.7 L   6.828 -73.103142.9  RSN 10 0.3 2.4LRSN                1
 GAP=163        0.71       3.1     6.2  8.2 -0.8978E+01  0.2462E+02 -0.2368E+01E
 Epicentro: LOS SANTOS - SANTANDER                                             3
 ACTION:UP  10-12-17 16:54 OP:REBC STATUS:               ID:20101122084847 L   I
 2010-11-22-0846-45S.COL___129                                                 6
 STAT SP IPHASW D HRMM SECON CODA AMPLIT PERI AZIMU VELO SNR AR TRES W  DIS CAZ7
 BAR2 SZ IP        849  7.13                             169     0.010   28 199 
 BAR2 SZ I         849 23.20        40.2 0.38                            28 199 
 BRR  HZ IP     C  849  8.71                             151     0.010   74 295 
 BRR  HZ I         849 29.66        67.3 0.08                            74 295 
 RUS  HZ EP   1    849 11.26                             142    -0.2 7  103 179 
 RUS  HE ES   1    849 30.04                             142     0.1 7  103 179 
 RUS  HZ I         849 31.85        19.2 0.49                           103 179 
 GRA  SZ IP        849 12.51                             137     0.110  121  16 
 GRA  SZ ES   1    849 31.78                             137     0.2 7  121  16 
 GRA  SZ I         849 32.85        43.9 0.13                           121  16 
 OCA  SZ EP   1    849 15.05                             129    -0.6 7  158 351 
 OCA  SZ I         849 41.08        36.6 0.14                           158 351 
 NOR  SZ EP   1    849 23.84                             117    -0.1 6  240 235 
 NOR  SE ES   1    849 51.58                             117    -0.6 6  240 235 
 CHI  HZ EP   1    849 25.23                             116    -0.5 6  253 196 
 CHI  HE ES        849 55.44                             116     0.0 8  253 196 
 CHI  HZ I         850  3.01         8.4 0.36                           253 196 
 HEL  HZ EP   1    849 29.02                             114     0.6 6  277 255 
 HEL  HE ES   2    850  0.50                             114     0.4 4  277 255 
 HEL  HZ I         850  7.16        15.1 0.55                           277 255 
 RREF HZ EP   1    849 34.96                             110     0.6 5  327 230 
 RREF HZ I         850 17.86        16.3 0.32                           327 230 
 PRA  HZ EP   1    849 42.15                             106     0.4 4  397 210 
 PRA  HN ES   1    850 24.14                             106     0.3 4  397 210 
                                                                                
