 2013  522 0112 39.2 L   5.968 -73.769111.9  RSN  6 0.4 1.5LRSN                1
 GAP=110        0.92       5.5     4.5  9.0  0.1040E+02  0.1668E+02  0.1462E+02E
 Epicentro: GUAVATA - SANTANDER                                                3
 ACTION:UPD 13-06-20 09:52 OP:ep   STATUS:               ID:20130522011239 L   I
 2013-05-22-0110-00M.COL___259                                                 6
 STAT SP IPHASW D HRMM SECON CODA AMPLIT PERI AZIMU VELO AIN AR TRES W  DIS CAZ7
 RUS  HZ EP        112 58.01                             144    0.1010 76.3  96 
 RUS  HN ES        113 12.50                             144    0.0210 76.3  96 
 RUS  HZ I         113 14.15         4.6 0.24            146           76.3  96 
 BAR2 SZ EP        112 59.09                             137    0.0910 94.7  43 
 BAR2 SZ ES        113 14.06                             137   -0.3510 94.7  43 
 PTB  HZ EP        112 58.37                             135   -0.6810 98.9 310 
 PTB  HN ES        113 14.67                             135    0.1810 98.9 310 
 PTB  HZ I         113 16.20         4.9 0.32            137           98.9 310 
 BRR  HZ EP        113  1.52                             128    0.0110  126   3 
 BRR  HE ES   1    113 19.75                             128    0.86 7  126   3 
 BRR  HZ I         113 21.75         8.7 0.14            129            126   3 
 ZAR  HE ES   1    113 34.09                             113   -0.05 6  207 325 
 ZAR  HZ I         113 35.65         4.0 0.28            115            207 325 
 PRA  HZ EP   1    113 18.95                             106    0.65 6  278 206 
                                                                                
