 2014  722 0000 45.0 L   6.811 -73.142142.6  RSN 13 0.5 2.0LRSN                1
 GAP=239        0.93       4.3     5.3  6.2  0.6013E+01  0.5599E+01  0.6529E+01E
 Epicentro: LOS SANTOS - SANTANDER                                             3
 ACTION:UPD 15-03-16 20:45 OP:nd   STATUS:               ID:20140722000045 L   I
 OLDACT:REG 14-07-22 12:14 OP:mh   STATUS:               ID:20140722000000     3
 2014-07-22-0000-00M.COL___269                                                 6
 STAT SP IPHASW D HRMM SECON CODA AMPLIT PERI AZIMU VELO AIN AR TRES W  DIS CAZ7
 BAR2 SZ ES   1    0 1 19.32                             170    0.02 8 24.6 191 
 BAR2 SZ I         0 1 21.23        23.1 0.17            166           24.6 191 
 BRR  HZ EP   1    0 1  5.16                             152   -0.63 8 71.0 298 
 BRR  HN ES   1    0 1 22.41                             152    0.40 8 71.0 298 
 BRR  HZ I         0 1 26.55        12.2 0.22            147           71.0 298 
 RUS  HZ EP   1    0 1  8.79                             143    0.27 8  102 176 
 RUS  HN ES   1    0 1 27.40                             143    0.54 8  102 176 
 RUS  HZ I         0 1 29.00        12.5 0.42            145            102 176 
 PTB  HZ EP   1    0 1 11.33                             131   -0.44 7  148 258 
 PTB  HN ES        0 1 32.45                             131   -0.2010  148 258 
 PTB  HZ I         0 1 39.76         8.1 0.42            129            148 258 
 SPBC HZ EP        0 1 13.70                             128    0.3310  164 219 
 SPBC HN ES        0 1 34.89                             128   -0.6010  164 219 
 SPBC HZ I         0 1 41.78        13.2 0.32            128            164 219 
 ZAR  HZ EP   1    0 1 17.18                             122   -0.05 7  204 292 
 ZAR  HN ES        0 1 42.42                             122    0.04 9  204 292 
 ZAR  HZ I         0 1 48.49         7.6 0.30            121            204 292 
 NOR  HZ EP   1    0 1 20.76                             118    0.10 6  236 234 
 NOR  HN ES        0 1 48.99                             118    0.52 9  236 234 
 NOR  HZ I         0 1 56.85         5.7 0.24            118            236 234 
 SML  HZ EP   4    0 1 17.43                             117   -3.92 0  243 335 
 SML  HN ES   4    0 1 48.45                             117   -1.25 0  243 335 
 SML  HZ I         0 1 57.62         4.8 0.20            118            243 335 
 CHI  HZ EP        0 1 22.66                             116    0.00 8  250 195 
 CHI  HN ES        0 1 51.16                             116   -0.87 8  250 195 
 CHI  HZ I         0 1 56.77         7.0 0.05            118            250 195 
 GUY2CHZ EP   1    0 1 28.31                             112   -0.27 6  302 235 
 GUY2CHN ES   1    0 2  2.21                             112   -0.36 6  302 235 
 GUY2CHZ I         0 2 10.84         2.9 0.10                           302 235 
 RREF HZ EP   4    0 1 32.72                             110    1.59 0  323 229 
 RREF HN ES   4    0 2 10.00                             110    2.89 0  323 229 
 RREF HZ I         0 2 16.84         6.2 0.47            111            323 229 
 TOL  SZ EP        0 1 33.82                             109    0.56 7  345 225 
 TOL  SN ES        0 2 11.87                             109    0.97 7  345 225 
 TOL  SZ I         0 2 18.58         7.8 0.24            109            345 225 
 PRA  HZ EP   1    0 1 38.35                             106   -0.21 5  393 210 
 PRA  HN ES   4    0 2 19.43                             106   -0.90 0  393 210 
                                                                                
