 2010 1022 0637  0.8 L   6.822 -73.056141.8  RSN  5 0.3 1.5LRSN                1
 GAP=168        0.54       5.4     7.8  7.4  0.1034E+02 -0.2052E+02 -0.1162E+02E
 Epicentro: LOS SANTOS - SANTANDER                                             3
 ACTION:UP  11-02-18 11:11 OP:tino STATUS:               ID:20101022063700 L   I
 2010-10-22-0633-45S.COL___125                                                 6
 STAT SP IPHASW D HRMM SECON CODA AMPLIT PERI AZIMU VELO SNR AR TRES W  DIS CAZ7
 BAR2 SZ EP   2    637 20.10                             168     0.0 5   29 209 
 BAR2 SZ ES   2    637 35.32                             168     0.2 5   29 209 
 BAR2 SZ I         637 36.26         7.8 0.28                            29 209 
 BRR  HZ EP   1    637 21.62                             149    -0.4 7   79 294 
 BRR  HN ES   1    637 38.59                             149     0.1 7   79 294 
 BRR  HZ I         637 39.47         8.1 0.04                            79 294 
 RUS  HZ EP   2    637 24.69                             142     0.4 5  103 182 
 RUS  HN ES   2    637 42.30                             142    -0.4 5  103 182 
 RUS  HZ I         637 44.87         2.0 0.35                           103 182 
 GRA  SZ EP   1    637 25.33                             137     0.1 7  121  13 
 GRA  SZ I         637 26.73         4.2 0.27                           121  13 
 HEL  HZ EP   2    637 42.22                             113     0.3 4  282 256 
 HEL  HZ I         638 19.07         2.2 0.23                           282 256 
                                                                                
