 2016  422 0001 45.2 L   6.781 -73.165150.4  RSN  7 0.2 1.6LRSN                1
 GAP=135        0.62       2.8     2.7  4.5 -0.1533E+01  0.4842E+01 -0.1114E+01E
 Epicentro: LOS SANTOS - SANTANDER                                             3
 ACTION:UPD 16-05-05 14:23 OP:rebc STATUS:               ID:20160422000145 L   I
 OLDACT:ARG 16-04-22 12:58 OP:cara STATUS:               ID:20160422000005     3
 2016-04-22-0000-05M.COL___319                                                 6
 STAT SP IPHASW D HRMM SECON CODA AMPLIT PERI AZIMU VELO AIN AR TRES W  DIS CAZ7
 BAR2 EZ IP        0 2  5.51                             172    0.1510 21.0 185 
 BAR2 EZ ES        0 2 20.98                             172   -0.0910 21.0 185 
 BAR2 EZ I         0 2 22.75         7.4 0.20            171           21.0 185 
 PAM  EZ EP        0 2  8.42                             151    0.3210 80.3  40 
 PAM  EN ES        0 2 25.71                             151   -0.2410 80.3  40 
 PAM  EZ I         0 2 27.55         7.7 0.56            155           80.3  40 
 RUS  HZ EP        0 2  9.26                             145   -0.0310 98.6 175 
 RUS  HN ES        0 2 27.93                             145   -0.1410 98.6 175 
 RUS  HZ I         0 2 29.50         2.6 0.18            149           98.6 175 
 PTB  HZ EP        0 2 12.30                             133   -0.05 9  145 259 
 PTB  HN ES        0 2 33.68                             133    0.17 9  145 259 
 PTB  HZ I         0 2 40.81         8.6 0.42            134            145 259 
 SPBC HZ EP        0 2 13.99                             131    0.19 9  160 219 
 SPBC HN ES        0 2 36.33                             131    0.24 9  160 219 
 SPBC HZ I         0 2 39.76         8.9 0.12            133            160 219 
 ZAR  HZ EP        0 2 17.37                             123   -0.48 9  203 293 
 ZAR  HE ES        0 2 43.52                             123    0.21 9  203 293 
 ZAR  HZ I         0 2 49.14         5.0 0.26            125            203 293 
 GUY2CHN ES        0 3  2.16                             113   -0.48 7  298 235 
 GUY2CHZ I         0 3 12.54         2.0 0.36                           298 235 
                                                                                
