 2010  722 0714 38.1 L   6.795 -73.153153.1  RSN  4 0.1 1.1LRSN                1
 GAP=158        0.40       4.2     8.8  7.1  0.2482E+02 -0.3994E+02 -0.1536E+02E
 Epicentro: LOS SANTOS - SANTANDER                                             3
 ACTION:UPD 10-12-01 15:19 OP:pat  STATUS:               ID:20100722071438 L   I
 2010-07-22-0710-52S.COL___123                                                 6
 STAT SP IPHASW D HRMM SECON CODA AMPLIT PERI AZIMU VELO AIN AR TRES W  DIS CAZ7
 BRR  HZ EP        715  0.05                             154     0.010   71 299 
 BRR  HZ I         715  0.40         4.9 0.06                            71 299 
 BRR  HN ES   1    715 17.05                             154    -0.1 7   71 299 
 RUS  HZ EP        715  2.48                             145     0.010  100 176 
 RUS  HN ES   1    715 21.65                             145     0.0 7  100 176 
 RUS  HZ I         715 22.29         2.0 0.26                           100 176 
 GUE  SZ EP   2    715  3.83                             141     0.3 5  117  12 
 GUE  SZ I         715  5.84         0.6 0.07                           117  12 
 GRA  SZ EP   2    715  3.77                             138    -0.3 5  127  18 
 GRA  SZ I         715 24.69         2.3 0.18                           127  18 
                                                                                
