 2012 1222 0957 33.5 L   6.788 -73.140151.5  RSN 11 0.4 3.0LRSN                1
 GAP=183        0.80       2.7     4.1  4.4  0.2651E+01  0.3897E+01 -0.3489E+00E
 Epicentro: LOS SANTOS - SANTANDER                                             3
 ACTION:UPD 13-01-04 14:29 OP:ep   STATUS:               ID:20121222095733 L   I
 2012-12-22-0950-00M.COL___243                                                 6
 STAT SP IPHASW D HRMM SECON CODA AMPLIT PERI AZIMU VELO AIN AR TRES W  DIS CAZ7
 BAR2 SZ IP        957 53.86                             171    0.0810 22.1 192 
 BAR2 SZ ES        958  9.24                             171   -0.3610 22.1 192 
 BAR2 SZ I         958 10.67       291.9 0.37                          22.1 192 
 GIR2 SZ EP     C  957 53.96                             167    0.0910 32.7 350 
 GIR2 SZ ES   1    958 10.36                             167    0.59 7 32.7 350 
 GIR2 SZ I         958 11.23       115.5 0.41                          32.7 350 
 BRR  HZ IP     C  957 55.76                             153    0.4510 72.3 299 
 BRR  HZ I         957 56.07       309.2 0.22                          72.3 299 
 BRR  HE ES        958 12.77                             153    0.4310 72.3 299 
 RUS  HZ EP     D  957 57.72                             145    0.0210 99.2 176 
 RUS  HN ES        958 16.34                             145   -0.2510 99.2 176 
 RUS  HN I         958 18.26       140.0 0.19                          99.2 176 
 PTB  HZ EP        958  0.66                             133   -0.29 9  148 259 
 PTB  HE ES   1    958 21.91                             133   -0.46 7  148 259 
 PTB  HZ I         958 29.14       153.0 0.52                           148 259 
 OCA  HZ EP   1    958  1.77                             131   -0.60 7  162 353 
 OCA  HN ES   1    958 24.49                             131   -0.41 7  162 353 
 OCA  HZ I         958 29.88        90.9 0.26                           162 353 
 ZAR  HZ EP        958  6.29                             123   -0.12 9  205 292 
 ZAR  HE ES        958 31.91                             123   -0.18 9  205 292 
 ZAR  HZ I         958 37.69        78.8 0.21                           205 292 
 CTAB SZ EP   4    958 11.02                             121    1.53 0  229 211 
 SML  HZ EP        958 10.34                             118   -0.25 8  245 335 
 SML  HE ES        958 39.64                             118    0.11 8  245 335 
 SML  HZ I         958 41.76       124.7 0.22                           245 335 
 CHI  HZ EP        958 11.74                             118    0.36 8  248 195 
 CHI  HE ES   1    958 40.84                             118   -0.10 6  248 195 
 ROSC BZ EP   4    958 13.67                             118    1.84 0  252 211 
 ROSC BZ I         958 52.01        40.1 0.43                           252 211 
 HEL  HZ EP   1    958 14.96                             116    0.94 6  272 256 
 HEL  HN ES   1    958 45.58                             116   -0.06 6  272 256 
 HEL  HZ I         958 52.53        48.6 0.29                           272 256 
 URE  HZ EP   4    958 13.66                             115   -1.29 0  285 292 
 MON  HZ EP   4    958 20.92                             109   -1.94 0  355 308 
                                                                                
