 2012 1222 0940 34.8 L   6.790 -73.123147.9  RSN 12 0.3 2.1LRSN                1
 GAP=140        0.72       2.7     3.6  4.5 -0.9862E-01  0.3859E+01  0.3281E+00E
 Epicentro: LOS SANTOS - SANTANDER                                             3
 ACTION:UPD 13-01-04 14:29 OP:ep   STATUS:               ID:20121222094034 L   I
 2012-12-22-0940-00M.COL___243                                                 6
 STAT SP IPHASW D HRMM SECON CODA AMPLIT PERI AZIMU VELO AIN AR TRES W  DIS CAZ7
 BAR2 SZ EP        940 54.71                             171    0.0310 22.8 197 
 BAR2 SZ ES   1    941 10.23                             171    0.04 7 22.8 197 
 BAR2 SZ I         941 12.32        58.6 0.28                          22.8 197 
 GIR2 SZ EP        940 54.80                             167    0.0210 32.9 346 
 BRR  HZ EP     D  940 56.58                             152    0.2410 73.9 298 
 BRR  HN ES        941 13.60                             152    0.4610 73.9 298 
 BRR  HZ I         941 16.20        15.9 0.17                          73.9 298 
 PAM  SZ EP        940 57.55                             151    0.3410 76.7  38 
 PAM  SZ I         940 57.88        29.9 0.17                          76.7  38 
 PAM  SN ES        941 14.73                             151    0.0510 76.7  38 
 RUS  HZ EP        940 58.74                             145    0.0610 99.3 177 
 RUS  HE ES        941 16.92                             145   -0.3810 99.3 177 
 RUS  HE I         941 18.52        28.9 0.19                          99.3 177 
 PTB  HZ EP        941  1.84                             132   -0.31 9  150 259 
 PTB  HE ES   1    941 23.20                             132   -0.28 7  150 259 
 PTB  HZ I         941 25.65        12.2 0.21                           150 259 
 OCA  HZ EP   1    941  3.10                             130   -0.32 7  162 352 
 OCA  HN ES   1    941 24.86                             130   -0.87 7  162 352 
 OCA  HZ I         941 28.03        10.0 0.26                           162 352 
 ZAR  HZ EP   1    941  7.56                             122   -0.12 6  207 292 
 ZAR  HE ES   1    941 33.27                             122   -0.04 6  207 292 
 ZAR  HZ I         941 41.47        12.0 0.49                           207 292 
 SML  HZ EP   1    941 11.54                             118   -0.24 6  246 335 
 CHI  HZ EP   1    941 12.78                             118    0.20 6  248 196 
 CHI  HN ES   1    941 41.91                             118   -0.14 6  248 196 
 CHI  HZ I         941 47.78         6.0 0.28                           248 196 
 ROSC BZ EP   4    941 14.92                             117    1.84 0  253 212 
 ROSC BZ I         941 50.71        11.5 0.46                           253 212 
 HEL  HZ EP   1    941 16.11                             115    0.74 6  274 256 
 HEL  HZ I         941 54.85         4.4 0.27                           274 256 
 URE  HZ EP   4    941 15.00                             114   -1.29 0  287 292 
 MON  HN ES   4    942  0.51                             109   -2.21 0  356 308 
                                                                                
