 2016  722 0241 29.5 L   6.765 -73.120157.9  RSN  4 0.2 1.4LRSN                1
 GAP=238        0.58       3.6     5.5  4.7  0.3388E+01  0.9168E+00  0.1678E+01E
 Epicentro: LOS SANTOS - SANTANDER                                             3
 ACTION:UPD 17-03-29 16:53 OP:lp   STATUS:               ID:20160722024129 L   I
 OLDACT:REG 16-07-22 13:20 OP:ar   STATUS:               ID:20160722023759     3
 2016-07-22-0237-59S.COL___328                                                 6
 STAT SP IPHASW D HRMM SECON CODA AMPLIT PERI AZIMU VELO AIN AR TRES W  DIS CAZ7
 BAR2 EZ EP        241 50.36                             172   -0.1510 20.3 200 
 BAR2 EZ ES        242  7.30                             172    0.3810 20.3 200 
 BRR  HZ EP        241 52.23                             153    0.0510 75.5 300 
 BRR  HN ES        242  9.69                             153   -0.2010 75.5 300 
 BRR  HZ I         242 12.52         3.7 0.13            151           75.5 300 
 RUS  HZ EP        241 54.07                             147   -0.1010 96.6 178 
 RUS  HN ES        242 13.24                             147   -0.1910 96.6 178 
 RUS  HZ I         242 14.32         1.8 0.15            148           96.6 178 
 SPBC HZ EP        241 59.12                             132    0.30 9  162 221 
 SPBC HN ES        242 21.67                             132   -0.05 9  162 221 
 SPBC HZ I         242 24.05         6.8 0.24            132            162 221 
                                                                                
