 2010 1122 0917 39.2 L   6.768 -73.071146.0  RSN  6 0.2 1.5LRSN                1
 GAP=167        0.69       4.2     9.6  8.2  0.1733E+02 -0.4613E+02 -0.1492E+02E
 Epicentro: LOS SANTOS - SANTANDER                                             3
 ACTION:UP  10-12-17 16:54 OP:REBC STATUS:               ID:20101122091739 L   I
 2010-11-22-0912-58S.COL___129                                                 6
 STAT SP IPHASW D HRMM SECON CODA AMPLIT PERI AZIMU VELO SNR AR TRES W  DIS CAZ7
 BAR2 SZ EP   1    917 58.87                             171     0.0 7   23 213 
 BAR2 SZ I         918 16.71        12.7 0.18                            23 213 
 BRR  HZ EP   1    918  0.76                             150    -0.2 7   80 298 
 BRR  HZ I         918 11.76         5.7 0.08                            80 298 
 BRR  HE ES        918 17.94                             150     0.110   80 298 
 RUS  HZ EP   1    918  2.75                             145     0.0 7   97 181 
 RUS  HE ES        918 20.96                             145    -0.110   97 181 
 RUS  HZ I         918 22.67         3.9 0.03                            97 181 
 GRA  SZ EP        918  4.93                             137     0.310  127  13 
 OCA  SZ EP   1    918  7.44                             129    -0.6 7  165 350 
 OCA  SZ I         918 40.60         3.9 0.45                           165 350 
 CHI  HZ EP   1    918 17.05                             117     0.2 6  248 197 
 CHI  HZ I         918 19.32         1.8 0.76                           248 197 
                                                                                
