 2010  922 0603 50.0 L   6.747 -73.053148.2  RSN  5 0.2 1.5LRSN                1
 GAP=170        0.50       3.5     6.6  5.7 -0.3709E+01 -0.1221E+02 -0.2539E+01E
 Epicentro: LOS SANTOS - SANTANDER                                             3
 ACTION:UP  11-02-18 11:04 OP:tino STATUS:               ID:20100922060350 L   I
 2010-09-22-0602-25S.COL___122                                                 6
 STAT SP IPHASW D HRMM SECON CODA AMPLIT PERI AZIMU VELO SNR AR TRES W  DIS CAZ7
 BAR2 SZ EP        6 4 10.02                             171     0.110   22 220 
 BAR2 SZ I         6 4 10.36         7.9 0.41                            22 220 
 BAR2 SZ ES   1    6 4 25.48                             171     0.0 7   22 220 
 BTL  SZ EP        6 4 10.36                             168     0.310   30 309 
 BRR  HZ EP   1    6 4 11.97                             149    -0.1 7   83 299 
 BRR  HN ES   1    6 4 29.23                             149    -0.1 7   83 299 
 BRR  HZ I         6 4 31.79         6.8 0.14                            83 299 
 RUS  HZ EP   2    6 4 13.09                             146    -0.5 5   95 182 
 RUS  HN ES   2    6 4 31.82                             146    -0.1 5   95 182 
 RUS  HZ I         6 4 35.49         2.5 0.25                            95 182 
 GRA  SZ EP        6 4 15.69                             137     0.010  129  12 
 GRA  SZ ES   1    6 4 35.66                             137    -0.1 7  129  12 
 GRA  SZ I         6 4 36.66         4.6 0.39                           129  12 
                                                                                
