 2013  922 0137 35.3 L   6.813 -73.152149.8  RSN 17 0.5 2.7LRSN 3.0WRSN        1
 SPEC AVERAGE  MO 13.6 ST 23.3 OM  1.9 f0 7.99 R0.2754 AL 0.00 WI 16.5 MW  3.0 3
 SPEC SD       MO  0.3 ST 28.0 OM  0.5 f0 2.67 R0.0866 AL      WI      MW  0.2 3
 GAP=135        1.06       3.3     4.6  5.3 -0.2333E+01  0.6376E+01  0.1639E+01E
 Epicentro: LOS SANTOS - SANTANDER                                             3
 SPEC ZAR HH Z MO 13.7 ST 58.3 OM  1.9 f0 10.0 R0.1554 AL 0.00 WI 18.8 MW  3.1 3
 SPEC ZAR HH Z T 13831 K 0.000 GD  252 VS 4.20 DE 3.20 Q0300.0 QA 0.60 VS 4.20 3
 SPEC SPBCHH N MO 13.8 ST 81.4 OM  2.1 f0 10.0 R0.1554 AL 0.00 WI 19.1 MW  3.2 3
 SPEC SPBCHH N T 13825 K 0.000 GD  222 VS 4.20 DE 3.20 Q0300.0 QA 0.60 VS 4.20 3
 SPEC RUS HH Z MO 13.1 ST  2.6 OM  0.7 f0 10.0 R0.2812 AL 0.00 WI 16.2 MW  2.7 3
 SPEC RUS HH Z T 13758 K 0.000 GD  181 VP 7.60 DE 3.20 Q0300.0 QA 0.60 VS 4.20 3
 SPEC PTB HH Z MO 13.7 ST 14.0 OM  2.0 f0 6.12 R0.2539 AL 0.00 WI 16.5 MW  3.1 3
 SPEC PTB HH Z T 13822 K 0.000 GD  209 VS 4.20 DE 3.20 Q0300.0 QA 0.60 VS 4.20 3
 SPEC PAM SH Z MO 13.4 ST  2.2 OM  1.8 f0 4.12 R0.3772 AL 0.00 WI 11.7 MW  2.9 3
 SPEC PAM SH Z T 13813 K 0.000 GD  168 VS 4.20 DE 3.20 Q0300.0 QA 0.60 VS 4.20 3
 SPEC CHI HH N MO 13.8 ST  3.5 OM  1.9 f0 3.72 R0.4177 AL 0.00 WI 20.0 MW  3.1 3
 SPEC CHI HH N T 13841 K 0.000 GD  291 VS 4.20 DE 3.20 Q0300.0 QA 0.60 VS 4.20 3
 SPEC BRR HH Z MO 14.0 ST 19.2 OM  1.6 f0 10.0 R0.2812 AL 0.00 WI 15.6 MW  3.3 3
 SPEC BRR HH Z T 13757 K 0.000 GD  165 VP 7.60 DE 3.20 Q0300.0 QA 0.60 VS 4.20 3
 SPEC BAR2SH Z MO 13.4 ST  5.6 OM  1.1 f0 10.0 R0.2812 AL 0.00 WI 14.3 MW  2.9 3
 SPEC BAR2SH Z T 13754 K 0.000 GD  151 VP 7.60 DE 3.20 Q0300.0 QA 0.60 VS 4.20 3
 ACTION:UPD 13-10-22 09:24 OP:ep   STATUS:               ID:20130922013735 L   I
 OLDACT:UP  13-09-22 10:11 OP:jn   STATUS:               ID:20130922012959     3
 OLDACT:UP  13-09-22 10:06 OP:jn   STATUS:               ID:20130922012959     3
 OLDACT:UP  13-09-22 10:05 OP:jn   STATUS:               ID:20130922012959     3
 OLDACT:REG 13-09-22 07:22 OP:jn   STATUS:               ID:20130922012959     3
 2013-09-22-0129-59M.COL___269                                                 6
 STAT SP IPHASW D HRMM SECON CODA AMPLIT PERI AZIMU VELO AIN AR TRES W  DIS CAZ7
 BAR2 SZ EP        137 55.44                             170   -0.0410 24.7 188 
 BAR2 SZ ES        138 11.28                             170    0.0810 24.7 188 
 BAR2 SZ I         138 12.91        83.1 0.44            167           24.7 188 
 BRR  HZ EP        137 57.37                             154    0.5210 69.9 298 
 BRR  HN ES        138 14.70                             154    1.0610 69.9 298 
 BRR  HZ I         138 17.95        77.2 0.12            151           69.9 298 
 PAM  SZ EP        137 58.26                             152    0.3110 76.7  41 
 PAM  SN ES        138 15.55                             152   -0.0310 76.7  41 
 PAM  SZ I         138 17.62        90.6 0.50            154           76.7  41 
 RUS  HZ EP        137 59.31                             144   -0.2910  102 176 
 RUS  HE ES   1    138 18.22                             144   -0.30 7  102 176 
 RUS  HZ I         138 20.40        44.3 0.20            142            102 176 
 PTB  HZ EP        138  2.29                             133   -0.31 9  147 258 
 PTB  HN ES        138 23.37                             133   -0.50 9  147 258 
 PTB  HZ I         138 29.09       105.3 0.50            130            147 258 
 OCA  HZ EP        138  3.55                             131   -0.27 9  159 353 
 OCA  HN ES   1    138 24.77                             131   -1.27 7  159 353 
 OCA  HZ I         138 32.10        63.9 0.16            130            159 353 
 SPBC HZ EP        138  4.34                             130    0.12 9  164 218 
 SPBC HN ES   1    138 26.32                             130   -0.42 7  164 218 
 SPBC HZ I         138 33.36        72.0 0.26            127            164 218 
 ZAR  HZ EP        138  8.34                             123    0.41 9  203 292 
 ZAR  HN ES   1    138 32.87                             123   -0.48 6  203 292 
 ZAR  HZ I         138 40.47        91.8 0.52            121            203 292 
 NOR  HZ EP        138 11.49                             119    0.15 8  235 234 
 NOR  HN ES   1    138 38.87                             119   -0.54 6  235 234 
 NOR  HZ I         138 44.33        41.2 0.20            117            235 234 
 SML  HZ EP        138 11.85                             118   -0.17 8  242 335 
 SML  HE ES   1    138 40.21                             118   -0.42 6  242 335 
 CHI  HZ EP        138 13.13                             118   -0.27 8  250 195 
 CHI  HN ES   1    138 42.80                             118   -0.28 6  250 195 
 CHI  HZ I         138 48.20        24.0 0.42            116            250 195 
 ROSC BZ EP   2    138 14.94                             117    1.16 4  254 211 
 URE  HZ EP   4    138 15.27                             114   -1.20 0  283 292 
 URE  HN ES   4    138 46.63                             114   -1.93 0  283 292 
 URE  HZ I         138 48.72        48.4 0.16            113            283 292 
 GUY2CHZ EP        138 19.24                             113    0.07 7  301 234 
 RREF HZ EP        138 22.05                             112    0.34 7  322 229 
 CBOC HZ EP        138 23.14                             111    0.74 7  333 252 
 ORTC HZ EP   4    138 29.57                             107    0.08 0  396 216 
 ORTC HZ I         139 18.15        10.9 0.24            106            396 216 
                                                                                
