 2016 1122 0917 28.0 L   6.704 -73.130138.0  RSN  5 0.2 1.0LRSN                1
 GAP=171        0.49       4.6     2.6  5.0 -0.4128E+01  0.4797E+01  0.3883E+00E
 Epicentro: JORDAN - SANTANDER                                                 3
 ACTION:UPD 17-10-26 21:10 OP:lp   STATUS:               ID:20161122091728 L   I
 OLDACT:UP  16-11-22 17:29 OP:edw  STATUS:               ID:20161122090748     3
 OLDACT:REG 16-11-22 13:22 OP:edw  STATUS:               ID:20161122090748     3
 2016-11-22-0908-00M.COL___349                                                 6
 STAT SP IPHASW D HRMM SECON CODA AMPLIT PERI AZIMU VELO AIN AR TRES W  DIS CAZ7
 BAR2 EZ EP        917 46.75                             174    0.2010 13.6 205 
 BAR2 EZ ES   2    918  1.33                             174    0.32 5 13.6 205 
 BRR  HZ EP        917 48.91                             149    0.1410 78.2 305 
 PAM  EZ EP        917 49.77                             147   -0.1310 84.9  34 
 PAM  EN ES        918  6.84                             147   -0.1210 84.9  34 
 PAM  EZ I         918  8.69         2.3 0.50            149           84.9  34 
 PTB  HZ EP        917 54.31                             130   -0.06 9  148 263 
 PTB  HN ES        918 14.61                             130   -0.31 9  148 263 
 PTB  HZ I         918 17.31         1.1 0.16            132            148 263 
 ZAR  HZ EP        918  0.57                             120   -0.01 8  210 295 
 ZAR  HE ES        918 26.20                             120    0.22 8  210 295 
                                                                                
