 2011 1222 0544 10.4 L   6.728 -73.107135.7  RSN  8 0.4 1.6LRSN                1
 GAP=145        0.81       4.8     7.1  7.8 -0.4953E+01 -0.4642E+01  0.5753E+00E
 Epicentro: JORDAN - SANTANDER                                                 3
 ACTION:UPD 12-07-13 16:17 OP:ep   STATUS:               ID:20111222054410 L   I
 2011-12-22-0540-00M.COL___191                                                 6
 STAT SP IPHASW D HRMM SECON CODA AMPLIT PERI AZIMU VELO AIN AR TRES W  DIS CAZ7
 BAR2 SZ EP        544 28.76                             172    0.0610 17.2 209 
 BAR2 SZ I         544 29.16        12.9 0.09                          17.2 209 
 BAR2 SZ ES   2    544 43.26                             172    0.28 5 17.2 209 
 GIR2 SZ EP        544 28.84                             163   -0.3210 39.9 346 
 BRR  HZ EP        544 30.61                             148   -0.3410 78.9 302 
 BRR  HN ES   1    544 47.14                             148    0.17 7 78.9 302 
 BRR  HZ I         544 48.27        20.9 0.13                          78.9 302 
 PAM  SZ EP        544 31.66                             147   -0.1410 81.2  34 
 PAM  SE ES   2    544 47.78                             147   -0.70 5 81.2  34 
 RUS  HZ EP   1    544 32.75                             144    0.18 7 92.5 178 
 RUS  HN ES   2    544 50.55                             144    0.68 5 92.5 178 
 RUS  HZ I         544 52.81         5.5 0.34                          92.5 178 
 OCA  SZ EP        544 39.53                             125    0.76 9  169 352 
 NOR  SN ES   2    545 12.39                             116   -0.42 4  234 237 
 CHI  HZ EP   1    544 46.64                             115   -0.21 6  242 197 
 CHI  HZ I         545 21.06         1.7 0.38                           242 197 
                                                                                
