 2011  122 0931 33.1 L   6.780 -73.059146.0  RSN  4 0.2 1.3LRSN                1
 GAP=169        0.62       4.6    29.1 10.3  0.1063E+02 -0.1826E+03 -0.1957E+02E
 Epicentro: LOS SANTOS - SANTANDER                                             3
 ACTION:UP  11-02-08 08:42 OP:pat  STATUS:               ID:20110122093133 L   I
 2011-01-22-0928-10S.COL___137                                                 6
 STAT SP IPHASW D HRMM SECON CODA AMPLIT PERI AZIMU VELO SNR AR TRES W  DIS CAZ7
 BAR2 SZ IP        931 52.51                             170    -0.310   25 214 
 BAR2 SZ ES   1    932  8.31                             170     0.1 7   25 214 
 BAR2 SZ I         932 11.09         4.0 0.56                            25 214 
 RUS  HZ EP   1    931 57.04                             145     0.3 7   98 182 
 RUS  HE ES   1    932 15.12                             145     0.0 7   98 182 
 RUS  HZ I         932 16.21         2.0 0.22                            98 182 
 GRA  SZ IP        931 58.36                             137     0.010  125  13 
 GRA  SZ I         932 19.10         2.9 0.53                           125  13 
 OCA  SZ ES   2    932 24.43                             129     0.3 5  164 350 
 OCA  SZ I         932 26.76         3.7 0.41                           164 350 
                                                                                
