 2014  122 0246 39.9 L   5.923 -73.752108.2  RSN 11 0.5 1.4LRSN                1
 GAP= 87        1.34       3.3     3.8  7.3 -0.2842E+01  0.6766E+01 -0.2260E+00E
 Epicentro: GUAVATA - SANTANDER                                                3
 ACTION:UPD 14-03-13 09:57 OP:ep   STATUS:               ID:20140122024639 L   I
 OLDACT:REG 14-01-22 07:25 OP:nd   STATUS:               ID:20140122024000     3
 2014-01-22-0240-00M.COL___279                                                 6
 STAT SP IPHASW D HRMM SECON CODA AMPLIT PERI AZIMU VELO AIN AR TRES W  DIS CAZ7
 SPBC HZ EP        246 55.51                             155   -0.1810 46.4 230 
 SPBC HN ES        247  8.24                             155    0.1910 46.4 230 
 SPBC HZ I         247  9.59         9.7 0.28            156           46.4 230 
 RUS  HZ EP        246 58.18                             143    0.1810 74.1  93 
 RUS  HN ES        247 12.14                             143   -0.0210 74.1  93 
 RUS  HZ I         247 17.29         2.7 0.40            145           74.1  93 
 BAR2 SZ EP        247  0.87                             135    1.3810 97.2  40 
 BAR2 SZ ES        247 14.87                             135    0.0510 97.2  40 
 BAR2 SZ I         247 17.56        17.5 0.44            137           97.2  40 
 PTB  HZ EP        246 58.49                             133   -1.2710  104 311 
 PTB  HN ES        247 14.84                             133   -0.4410  104 311 
 PTB  HZ I         247 15.93         4.2 0.12            135            104 311 
 NOR  HZ IP     C  247  2.35                             126    0.0410  130 252 
 NOR  HN ES        247 20.03                             126    0.2110  130 252 
 NOR  HZ I         247 22.87         8.9 0.12            128            130 252 
 BRR  HZ EP        247  2.11                             125   -0.2310  131   2 
 BRR  HN ES        247 19.96                             125    0.0910  131   2 
 BRR  HZ I         247 20.49         5.0 0.60            128            131   2 
 CHI  HZ EP        247  4.12                             123    0.03 9  143 179 
 CHI  HN ES        247 22.27                             123   -0.73 9  143 179 
 CHI  HZ I         247 27.84         1.2 0.26            125            143 179 
 GUY2CHZ EP        247  9.97                             114    0.25 9  195 247 
 GUY2CHN ES        247 33.55                             114    0.53 9  195 247 
 GUY2CHZ I         247 37.66         2.1 0.48                           195 247 
 HEL  HZ EP        247  9.98                             114   -0.08 9  199 279 
 HEL  HN ES        247 34.25                             114    0.64 9  199 279 
 HEL  HZ I         247 37.89         2.4 0.28            116            199 279 
 PRA  HZ EP        247 18.83                             106    0.46 8  275 207 
 PRA  HN ES        247 47.92                             106   -0.49 8  275 207 
 PRA  HZ I         247 51.04         1.2 0.38            107            275 207 
 SML  HZ EP        247 23.20                             103   -0.49 7  320 354 
 SML  HN ES        247 57.57                             103   -0.30 7  320 354 
 SML  HZ I         248  3.21         2.2 0.24            104            320 354 
                                                                                
