 2012 1222 0857 35.2 L   6.722 -73.199148.8  RSN  5 0.3 1.5LRSN                1
 GAP=171        0.54       5.2     5.1  7.0  0.1243E+02 -0.6907E+01 -0.2373E+01E
 Epicentro: VILLANUEVA - SANTANDER                                             3
 ACTION:UPD 13-01-04 14:29 OP:ep   STATUS:               ID:20121222085735 L   I
 2012-12-22-0850-00M.COL___243                                                 6
 STAT SP IPHASW D HRMM SECON CODA AMPLIT PERI AZIMU VELO AIN AR TRES W  DIS CAZ7
 BAR2 SZ EP        857 55.01                             174    0.0010 14.5 173 
 BAR2 SZ I         858 10.99         9.8 0.32                          14.5 173 
 GIR2 SZ EP   2    857 54.73                             164   -0.71 5 39.4   1 
 BRR  HZ EP   1    857 57.08                             153    0.46 7 70.9 307 
 BRR  HZ I         858 10.27         6.4 0.25                          70.9 307 
 BRR  HN ES   1    858 13.36                             153    0.00 7 70.9 307 
 RUS  HZ EP        857 58.75                             147    0.0810 92.7 172 
 RUS  HE ES   1    858 16.97                             147   -0.02 7 92.7 172 
 RUS  HE I         858 18.66         3.1 0.50                          92.7 172 
 PTB  HZ EP   1    858  1.53                             134   -0.21 7  141 262 
 PTB  HE ES   1    858 22.39                             134   -0.08 7  141 262 
 PTB  HZ I         858 24.25         3.4 0.19                           141 262 
                                                                                
