 2016 1222 0848  4.0 L   6.666 -74.228 22.8  RSN  6 0.6 0.7LRSN                1
 GAP=117        1.55       5.3     4.4  5.6  0.2041E+01 -0.4862E+01  0.3889E+01E
 Epicentro: PUERTO PARRA - SANTANDER                                           3
 ACTION:UPD 17-01-11 20:17 OP:rebc STATUS:               ID:20161222084804 L   I
 OLDACT:REG 16-12-22 13:18 OP:cog  STATUS:               ID:20161222084746     3
 2016-12-22-0848-00M.COL___353                                                 6
 STAT SP IPHASW D HRMM SECON CODA AMPLIT PERI AZIMU VELO AIN AR TRES W  DIS CAZ7
 PTB  HZ EP        848  9.77                             126   -0.2010 28.8 241 
 PTB  HZ I         848 14.71         2.9 0.23            124           28.8 241 
 BRR  HZ EP        848 16.48                             105    0.0910 75.1  49 
 BRR  HN ES        848 25.59                             105   -0.4210 75.1  49 
 ZAR  HE ES        848 35.74                              56   -0.3710  115 323 
 BAR2 EZ EP        848 22.71                              56    0.2510  116  94 
 BAR2 EZ ES        848 35.99                              56   -0.8410  116  94 
 BAR2 EZ I         848 39.59         2.4 0.66             56            116  94 
 RUS  HZ EP        848 28.31                              56    0.93 9  153 124 
 RUS  HN ES        848 44.89                              56   -0.70 9  153 124 
 RUS  HZ I         848 47.56         1.0 0.30             56            153 124 
 PAM  EZ EP        848 32.46                              56    1.11 9  185  66 
 PAM  EN ES        848 53.18                              56    0.53 9  185  66 
 PAM  EZ I         848 56.71         1.7 0.44             56            185  66 
                                                                                
