 2014 1222 0222  3.8 L   6.562 -73.432118.7  RSN 11 0.5 2.0LRSN                1
 GAP= 69        1.10       3.0     3.5  6.8 -0.1760E+01  0.5634E+01 -0.3078E+01E
 Epicentro: HATO - SANTANDER                                                   3
 ACTION:UPD 15-02-10 17:06 OP:nd   STATUS:               ID:20141222022203 L   I
 OLDACT:UP  14-12-22 14:44 OP:mh   STATUS:               ID:20141222021750     3
 OLDACT:UP  14-12-22 14:44 OP:mh   STATUS:               ID:20141222021750     3
 OLDACT:UP  14-12-22 14:44 OP:mh   STATUS:               ID:20141222021750     3
 OLDACT:REG 14-12-22 12:29 OP:mh   STATUS:               ID:20141222021750     3
 2014-12-22-0217-50M.COL___290                                                 6
 STAT SP IPHASW D HRMM SECON CODA AMPLIT PERI AZIMU VELO AIN AR TRES W  DIS CAZ7
 BAR2 EZ EP        222 20.36                             166    0.0410 27.8  83 
 BAR2 EZ I         222 35.03        34.2 0.17            167           27.8  83 
 BRR  HZ EP        222 22.04                             148    0.1610 67.7 333 
 BRR  HN ES        222 35.98                             148    0.0110 67.7 333 
 BRR  HZ I         222 37.34        20.4 0.75            150           67.7 333 
 RUS  HZ EP        222 23.96                             143    0.2910 83.6 152 
 RUS  HN ES        222 39.13                             143   -0.0310 83.6 152 
 RUS  HZ I         222 40.41        14.0 0.24            143           83.6 152 
 PTB  HZ EP        222 24.46                             133   -0.9910  113 269 
 PTB  HN ES        222 42.89                             133    0.5710  113 269 
 PTB  HZ I         222 44.44        24.3 0.34            134            113 269 
 PAM  SZ EP        222 26.56                             132    0.0410  118  43 
 PAM  SN ES        222 44.00                             132   -0.2310  118  43 
 PAM  SZ I         222 46.81         9.2 0.35            134            118  43 
 SPBC HZ EP        222 26.51                             131    0.0710  123 215 
 SPBC HN ES        222 43.89                             131   -0.2010  123 215 
 SPBC HZ I         222 51.15        24.1 0.22            131            123 215 
 OCA  HZ EP   1    222 32.79                             118   -0.06 7  186   4 
 OCA  HN ES        222 55.32                             118   -0.19 9  186   4 
 OCA  HZ I         222 59.55        12.1 0.34            120            186   4 
 ZAR  HZ EP        222 33.85                             118    0.94 9  188 303 
 ZAR  HN ES        222 55.78                             118    0.17 9  188 303 
 ZAR  HZ I         223  1.37        15.2 0.26            119            188 303 
 HEL  HZ EP        222 37.98                             112   -0.64 8  236 260 
 HEL  HN ES        223  5.12                             112   -0.65 8  236 260 
 HEL  HZ I         223 11.91         5.8 0.20            113            236 260 
 SML  HZ EP        222 40.35                             110   -0.29 8  257 344 
 SML  HN ES        223  9.53                             110    0.17 8  257 344 
 SML  HZ I         223 11.43        17.7 0.10            111            257 344 
 TOL  SZ EP        222 47.21                             106    0.91 7  303 224 
 TOL  SE ES   4    223 21.47                             106    2.03 0  303 224 
 TOL  SZ I         223 25.61         8.1 0.22            107            303 224 
                                                                                
