 2017  522 0830 54.3 L   6.850 -73.107144.3  RSN  7 0.5 1.8LRSN                1
 GAP=220        1.22       6.0     6.1  8.7  0.1812E+02 -0.6935E+01 -0.4546E+01E
 Epicentro: LOS SANTOS - SANTANDER                                             3
 ACTION:UPD 17-06-16 13:37 OP:jn   STATUS:               ID:20170522083054 L   I
 OLDACT:UP  17-05-22 16:24 OP:ar   STATUS:               ID:20170522082740     3
 OLDACT:REG 17-05-22 13:19 OP:ar   STATUS:               ID:20170522082740     3
 2017-05-22-0828-00M.COL___329                                                 6
 STAT SP IPHASW D HRMM SECON CODA AMPLIT PERI AZIMU VELO AIN AR TRES W  DIS CAZ7
 BRR  HZ IP     D  831 15.22                             152   -0.1010 72.6 293 
 BRR  HE ES        831 32.22                             152    0.4710 72.6 293 
 BRR  HZ I         831 32.52        11.0 0.30            148           72.6 293 
 RUS  HZ EP        831 18.03                             142   -0.2210  106 179 
 RUS  HN ES        831 36.58                             142   -0.3910  106 179 
 RUS  HZ I         831 37.91         6.5 0.32            139            106 179 
 PTB  HZ EP   9    831 20.17                             131   -1.41 0  153 257 
 PTB  HN ES        831 41.30                             131   -0.19 9  153 257 
 PTB  HZ I         831 44.74         5.2 0.24            127            153 257 
 SPBC HZ EP        831 23.46                             127    0.16 9  170 219 
 SPBC HN ES        831 45.39                             127   -0.57 9  170 219 
 SPBC HZ I         831 48.07         8.2 0.22            124            170 219 
 YPLC HZ EP        831 23.81                             126   -0.42 9  180 153 
 YPLC HN ES        831 48.25                             126    0.64 9  180 153 
 YPLC HZ I         831 50.69         4.8 0.28            125            180 153 
 ZAR  HZ EP        831 27.57                             122    0.77 8  206 290 
 ZAR  HN ES        831 51.37                             122   -0.82 8  206 290 
 ZAR  HZ I         831 56.86         8.5 0.34            120            206 290 
 NOR  HZ EP        831 30.38                             117   -0.23 8  241 234 
 NOR  HN ES        831 59.87                             117    0.90 8  241 234 
 NOR  HZ I         832  8.56         5.6 0.14            115            241 234 
                                                                                
