 2016 1222 0123  0.3 L   6.804 -73.177135.0  RSN  4 0.1 1.2LRSN                1
 GAP=143        0.39       2.3     2.2  3.3 -0.1579E+01  0.2152E+01 -0.7208E+00E
 Epicentro: LOS SANTOS - SANTANDER                                             3
 ACTION:UPD 17-01-11 20:17 OP:rebc STATUS:               ID:20161222012300 L   I
 OLDACT:REG 16-12-22 12:32 OP:cog  STATUS:               ID:20161222011746     3
 2016-12-22-0118-00M.COL___375                                                 6
 STAT SP IPHASW D HRMM SECON CODA AMPLIT PERI AZIMU VELO AIN AR TRES W  DIS CAZ7
 BAR2 EZ EP        123 18.61                             170   -0.0610 23.5 182 
 BAR2 EZ ES        123 32.95                             170   -0.0210 23.5 182 
 BAR2 EZ I         123 36.04         3.9 0.40            170           23.5 182 
 PAM  EZ EP        123 21.75                             148    0.2210 79.2  42 
 PAM  EN ES        123 37.97                             148   -0.0910 79.2  42 
 PAM  EZ I         123 40.43         3.3 0.40            150           79.2  42 
 RUS  HZ EP        123 22.94                             141   -0.1610  101 174 
 RUS  HN ES        123 40.98                             141    0.1210  101 174 
 RUS  HZ I         123 42.90         2.6 0.40            144            101 174 
 PTB  HZ EP        123 26.11                             130   -0.03 9  144 258 
 PTB  HN ES        123 46.30                             130    0.03 9  144 258 
                                                                                
