 2013 1022 0137 43.3 L   6.800 -73.138150.7  RSN 10 0.5 1.9LRSN                1
 GAP=137        1.16       3.6     4.8  6.8 -0.1095E+01  0.8373E+01  0.3273E+00E
 Epicentro: LOS SANTOS - SANTANDER                                             3
 ACTION:UPD 13-11-25 09:23 OP:ep   STATUS:               ID:20131022013743 L   I
 OLDACT:REG 13-10-22 09:18 OP:carl STATUS:               ID:20131022013645     3
 2013-10-22-0136-45M.COL___215                                                 6
 STAT SP IPHASW D HRMM SECON CODA AMPLIT PERI AZIMU VELO AIN AR TRES W  DIS CAZ7
 BAR2 SZ EP        138  3.62                             171    0.0710 23.5 192 
 BAR2 SZ ES        138 18.82                             171   -0.5110 23.5 192 
 BAR2 SZ I         138 21.31        19.2 0.36            169           23.5 192 
 BRR  HZ EP        138  5.57                             153    0.5210 71.9 298 
 BRR  HN ES        138 22.96                             153    0.9710 71.9 298 
 BRR  HZ I         138 26.22        10.4 0.42            150           71.9 298 
 PAM  SZ EP        138  6.40                             152    0.3610 76.9  39 
 PAM  SN ES        138 23.82                             152    0.0710 76.9  39 
 PAM  SZ I         138 26.00        12.6 0.38            156           76.9  39 
 RUS  HZ EP        138  7.58                             145    0.0210  101 177 
 RUS  HN ES        138 26.13                             145   -0.3410  101 177 
 RUS  HZ I         138 29.05         3.2 0.46            148            101 177 
 PTB  HZ EP        138 10.23                             133   -0.54 9  149 259 
 PTB  HN ES        138 31.51                             133   -0.67 9  149 259 
 PTB  HZ I         138 38.80        13.8 0.40            132            149 259 
 SPBC HZ EP        138 12.50                             130    0.25 9  164 219 
 SPBC HN ES   1    138 34.63                             130   -0.19 7  164 219 
 SPBC HZ I         138 42.17         9.6 0.14            131            164 219 
 ZAR  HE ES        138 41.91                             123    0.12 9  205 292 
 ZAR  HZ I         138 47.69        11.5 0.26            123            205 292 
 NOR  HZ EP        138 19.69                             119    0.28 8  235 235 
 NOR  HE ES        138 48.13                             119    0.56 8  235 235 
 NOR  HZ I         138 53.69         7.2 0.16            120            235 235 
 SML  HZ EP        138 19.69                             118   -0.58 8  244 335 
 SML  HN ES        138 48.37                             118   -0.71 8  244 335 
 SML  HZ I         138 59.24        10.7 0.10            120            244 335 
 CHI  HN ES        138 50.88                             118   -0.08 8  249 195 
 CHI  HN I         138 53.76         7.3 0.44            120            249 195 
                                                                                
