 2011  922 0926 42.3 L   7.032 -73.494106.4  RSN  7 0.2 1.8LRSN                1
 GAP=108        0.37       1.8     2.1  2.9  0.1348E+01  0.1460E+01  0.5060E+00E
 Epicentro: SAN VICENTE DE CHUCURI - SANTANDER                                 3
 ACTION:UPD 12-07-13 15:59 OP:ep   STATUS:               ID:20110922092642 L   I
 2011-09-22-0921-24S.COL___152                                                 6
 STAT SP IPHASW D HRMM SECON CODA AMPLIT PERI AZIMU VELO AIN AR TRES W  DIS CAZ7
 BRR  HZ IP     C  926 56.79                             165   -0.1110 25.5 289 
 BRR  HZ I         926 57.06        31.0 0.16                          25.5 289 
 BRR  HE ES        927  8.30                             165   -0.0110 25.5 289 
 BTL  SZ EP   1    926 57.61                             164    0.27 7 27.9 117 
 BAR2 SZ EP   1    926 59.05                             149    0.16 7 59.6 145 
 BAR2 SZ ES   1    927 11.93                             149    0.09 7 59.6 145 
 BAR2 SZ I         927 12.96        26.7 0.17                          59.6 145 
 RUS  HZ EP   1    927  5.66                             125    0.09 7  134 160 
 RUS  HE ES   1    927 23.43                             125   -0.31 7  134 160 
 RUS  HZ I         927 25.47         4.7 0.23                           134 160 
 OCA  SZ EP   2    927  5.33                             124    0.11 5  135   8 
 OCA  SZ ES   1    927 22.99                             124   -0.13 7  135   8 
 OCA  SZ I         927 28.17         7.8 0.23                           135   8 
 ZAR  HZ EP   1    927  7.33                             119   -0.21 7  159 289 
 ZAR  HN ES   1    927 27.40                             119    0.15 7  159 289 
 ZAR  HZ I         927 31.29        14.7 0.28                           159 289 
 HEL  HZ EP   1    927 17.46                             108   -0.02 6  244 248 
 HEL  HE ES   2    927 45.06                             108    0.12 4  244 248 
 HEL  HZ I         927 52.93         3.3 0.31                           244 248 
                                                                                
