 2013  822 0807 34.7 L   6.811 -73.156149.1  RSN  7 0.3 1.9LRSN                1
 GAP=135        0.72       3.4     3.9  5.6 -0.4595E+01  0.6395E+01 -0.3660E+01E
 Epicentro: LOS SANTOS - SANTANDER                                             3
 ACTION:UPD 14-01-14 09:05 OP:ep   STATUS:               ID:20130822080734 L   I
 OLDACT:DUP 13-08-22 10:55 OP:nd   STATUS:               ID:20130822075960d    3
 2013-08-22-0759-59M.COL___270                                                 6
 STAT SP IPHASW D HRMM SECON CODA AMPLIT PERI AZIMU VELO AIN AR TRES W  DIS CAZ7
 BAR2 SZ EP     D  8 7 54.81                             170    0.0110 24.3 187 
 BAR2 SZ ES   2    8 8 10.04                             170   -0.41 5 24.3 187 
 BAR2 SZ I         8 8 11.62        11.8 0.50            175           24.3 187 
 BRR  HZ IP     C  8 7 56.67                             154    0.4910 69.6 298 
 BRR  HN ES   2    8 8 12.91                             154    0.02 5 69.6 298 
 BRR  HZ I         8 8 16.67         9.1 0.14            143           69.6 298 
 PAM  SZ EP        8 7 57.67                             151    0.3610 77.2  41 
 PAM  SN ES        8 8 14.85                             151   -0.0610 77.2  41 
 PAM  SZ I         8 8 17.02        16.6 0.54            142           77.2  41 
 RUS  HZ EP        8 7 58.52                             144   -0.4010  102 175 
 RUS  HN ES        8 8 17.71                             144   -0.0710  102 175 
 RUS  HZ I         8 8 20.30         9.2 0.38            144            102 175 
 PTB  HZ EP        8 8  1.64                             133   -0.27 9  147 258 
 PTB  HN ES        8 8 23.00                             133   -0.10 9  147 258 
 PTB  HZ I         8 8 24.89        10.8 0.12            126            147 258 
 SPBC HZ EP        8 8  3.81                             130    0.28 9  163 218 
 SPBC HN ES        8 8 26.16                             130    0.19 9  163 218 
 SPBC HZ I         8 8 28.14        11.0 0.26            125            163 218 
 SML  HZ EP        8 8 10.94                             118   -0.46 8  242 335 
 SML  HZ I         8 8 42.83        13.0 0.08            111            242 335 
                                                                                
