 2010  122 0142 12.6 L   6.780 -72.875147.6  RSN  8 0.3 2.3LRSN                1
 GAP=210        0.72       3.0     8.7  5.1 -0.9265E+01  0.9340E+01  0.2554E+01E
 Epicentro: SAN ANDRES - SANTANDER                                             3
 ACTION:UP  10-08-24 09:45 OP:vdl  STATUS:               ID:20100122014212 L   I
 2010-01-22-0139-23S.COL___095                                                 6
 STAT SP IPHASW D HRMM SECON CODA AMPLIT PERI AZIMU VELO SNR AR TRES W  DIS CAZ7
 BAR2 SZ EP        142 33.07                             164     0.110   40 239 
 BAR2 SZ ES   1    142 48.37                             164    -0.4 7   40 239 
 GIR2 SZ EP        142 33.14                             161     0.010   48 313 
 GIR2 SZ ES   1    142 49.29                             161     0.2 7   48 313 
 RUS  BZ EP        142 36.95                             144     0.410  101 193 
 RUS  BN ES   1    142 55.31                             144     0.1 7  101 193 
 RUS  BZ I         142 56.49        13.1 0.08                           101 193 
 OCA  SZ EP        142 41.47                             129    -0.4 9  169 343 
 OCA  SZ ES   1    143  4.71                             129     0.0 7  169 343 
 CHI  HZ EP        142 51.04                             117    -0.2 8  256 202 
 CHI  HN ES        143 21.12                             117    -0.2 8  256 202 
 CHI  HZ I         143 29.99         7.5 0.73                           256 202 
 RREF BZ EP        143  1.84                             110     0.5 7  344 233 
 RREF BE ES   1    143 39.59                             110     0.2 5  344 233 
 RREF BZ I         143 45.55        10.4 0.10                           344 233 
 TOL  SZ EP   1    143  3.89                             108     0.6 5  364 228 
 PRA  HZ EP        143  7.41                             106    -0.4 6  406 213 
 PRA  HN ES        143 50.37                             106    -0.5 6  406 213 
 PRA  HZ I         143 54.76         9.7 0.69                           406 213 
                                                                                
