 2013  822 0646 22.8 L   6.782 -73.186138.0  RSN  6 0.5 1.5LRSN                1
 GAP=232        1.12       6.3     6.5  8.5  0.1511E+02  0.1078E+02 -0.8952E+01E
 Epicentro: LOS SANTOS - SANTANDER                                             3
 ACTION:UPD 14-01-14 09:05 OP:ep   STATUS:               ID:20130822064622 L   I
 OLDACT:REG 13-08-22 07:33 OP:nd   STATUS:               ID:20130822063959     3
 2013-08-22-0639-59M.COL___271                                                 6
 STAT SP IPHASW D HRMM SECON CODA AMPLIT PERI AZIMU VELO AIN AR TRES W  DIS CAZ7
 BAR2 SZ EP        646 41.24                             171   -0.1810 21.0 179 
 BAR2 SZ ES        646 56.79                             171    0.8210 21.0 179 
 BAR2 SZ I         646 57.61        12.6 0.20            171           21.0 179 
 BRR  HZ EP     D  646 42.96                             152    0.0410 68.3 302 
 BRR  HN ES   2    646 56.95                             152   -1.68 5 68.3 302 
 BRR  HZ I         647  1.04         6.6 0.14            150           68.3 302 
 RUS  HZ EP        646 45.62                             143   -0.0310 99.0 173 
 RUS  HN ES        647  3.23                             143   -0.2710 99.0 173 
 RUS  HZ I         647  5.15         4.2 0.26            146           99.0 173 
 PTB  HZ EP        646 48.02                             132   -0.66 9  143 259 
 PTB  HN ES        647  8.91                             132    0.03 9  143 259 
 PTB  HZ I         647 11.43         4.0 0.26            131            143 259 
 SPBC HZ EP        646 50.15                             129   -0.12 9  159 218 
 SPBC HN ES        647 12.00                             129    0.29 9  159 218 
 SPBC HZ I         647 14.65         5.2 0.40            130            159 218 
 ZAR  HZ EP     D  646 54.66                             122    0.29 9  201 293 
 ZAR  HN ES        647 19.32                             122    0.30 9  201 293 
 ZAR  HZ I         647 28.02         3.1 0.30            122            201 293 
                                                                                
