 2010  522 0348  0.5 L   6.779 -73.026148.0  RSN  9 0.4 2.2LRSN                1
 GAP=150        0.60       3.6     5.7  5.0 -0.1315E+02  0.2339E+01  0.1093E+01E
 Epicentro: CEPITA - SANTANDER                                                 3
 ACTION:UP  10-08-24 10:06 OP:vdl  STATUS:               ID:20100522034800 L   I
 2010-05-22-0345-27S.COL___111                                                 6
 STAT SP IPHASW D HRMM SECON CODA AMPLIT PERI AZIMU VELO SNR AR TRES W  DIS CAZ7
 BAR2 SZ IP        348 20.29                             169    -0.210   27 220 
 BAR2 SZ ES   1    348 36.18                             169     0.1 7   27 220 
 BRI  SZ EP   1    348 24.80                             142     0.3 7  107  14 
 BRI  SZ ES   2    348 42.87                             142    -0.3 5  107  14 
 GRA  SZ EP        348 26.05                             138     0.210  125  11 
 GRA  SZ ES   1    348 45.21                             138    -0.4 7  125  11 
 OCA  SZ EP        348 29.45                             129     0.1 9  165 349 
 OCA  SZ ES   2    348 52.53                             129     0.6 5  165 349 
 OCA  SZ I         348 56.73        16.8 0.27                           165 349 
 CHI  HZ EP   2    348 38.56                             117     0.1 4  250 198 
 CHI  HE ES   2    349  8.27                             117     0.2 4  250 198 
 CHI  HZ I         349 13.44         7.1 0.36                           250 198 
 HEL  HZ EP   1    348 41.95                             114    -0.2 6  284 257 
 HEL  HE ES   2    349 13.80                             114    -0.9 4  284 257 
 HEL  HZ I         349 19.02         5.8 0.32                           284 257 
 RREF BZ EP   2    348 47.80                             111     0.1 3  330 231 
 RREF BN ES   2    349 25.54                             111     1.0 3  330 231 
 RREF BZ I         349 32.01        10.7 0.27                           330 231 
 SDV  BZ EP   1    348 49.57                             109    -0.1 5  352  49 
 SDV  BZ I         348 50.58         3.8 0.31                           352  49 
 SDV  BN ES   2    349 27.45                             109    -0.5 3  352  49 
 PRA  HZ EP   1    348 54.54                             107    -0.1 4  397 211 
 PRA  HE ES   2    349 36.52                             107    -0.4 3  397 211 
 PRA  HZ I         349 41.88         8.6 0.39                           397 211 
                                                                                
