 2011  522 0903 15.8 L   6.744 -73.161138.0  RSN  6 0.3 1.3LRSN                1
 GAP=157        0.76       7.9    14.5 11.0  0.7586E+02 -0.7882E+02 -0.4215E+02E
 Epicentro: VILLANUEVA - SANTANDER                                             3
 ACTION:UP  11-06-29 08:55 OP:tino STATUS:               ID:20110522090315 L   I
 2011-05-22-0900-00M.COL___141                                                 6
 STAT SP IPHASW D HRMM SECON CODA AMPLIT PERI AZIMU VELO SNR AR TRES W  DIS CAZ7
 BAR2 SZ EP   2    9 3 33.87                             172    -0.5 5   17 188 
 BAR2 SZ ES   2    9 3 48.55                             172    -0.3 5   17 188 
 BAR2 SZ I         9 3 52.31         5.6 0.25                            17 188 
 BTL  SZ EP        9 3 34.95                             170     0.510   23 328 
 GIR2 SZ EP   1    9 3 34.49                             164    -0.2 7   37 354 
 BRR  HZ EP        9 3 35.86                             150    -0.310   73 303 
 BRR  HN ES   1    9 3 52.40                             150     0.3 7   73 303 
 BRR  HZ I         9 3 57.01         5.8 0.11                            73 303 
 RUS  HZ EP   1    9 3 38.49                             144     0.2 7   95 175 
 RUS  HN ES   1    9 3 55.90                             144     0.0 7   95 175 
 RUS  HZ I         9 3 58.20         2.7 0.14                            95 175 
 GRA  SZ EP   2    9 3 40.84                             134    -0.1 5  132  17 
                                                                                
