 2013  322 0611 50.8 L   6.764 -73.147142.3  RSN  5 0.4 1.7LRSN                1
 GAP=138        1.00       5.2     6.2  7.3 -0.1566E+01  0.7210E+01  0.1684E+01E
 Epicentro: LOS SANTOS - SANTANDER                                             3
 ACTION:UPD 13-04-09 14:04 OP:ep   STATUS:               ID:20130322061150 L   I
 2013-03-22-0610-00M.COL___245                                                 6
 STAT SP IPHASW D HRMM SECON CODA AMPLIT PERI AZIMU VELO AIN AR TRES W  DIS CAZ7
 BAR2 SZ EP        612  9.97                             172   -0.0110 19.4 192 
 BAR2 SZ ES        612 24.59                             172   -0.3210 19.4 192 
 BAR2 SZ I         612 27.68         9.3 0.38            171           19.4 192 
 BRR  HZ EP        612 12.07                             151    0.3410 73.1 301 
 BRR  HN ES        612 28.64                             151    0.6210 73.1 301 
 BRR  HN I         612 28.84        11.4 0.22            152           73.1 301 
 PAM  SZ EP     C  612 12.97                             149    0.0810 80.6  38 
 PAM  SN ES        612 29.70                             149   -0.3810 80.6  38 
 PAM  SN I         612 30.68        12.1 0.48            152           80.6  38 
 RUS  HZ EP        612 14.26                             144    0.2910 96.6 176 
 RUS  HN ES        612 32.13                             144    0.1210 96.6 176 
 PTB  HZ EP        612 16.75                             131   -0.70 9  147 260 
 PTB  HN ES   2    612 37.60                             131   -0.61 5  147 260 
 PTB  HN I         612 39.96         6.0 0.22            132            147 260 
                                                                                
