 2014  922 0723  8.7 L   6.722 -73.153150.6  RSN  5 0.5 1.4LRSN                1
 GAP=216        1.27       5.9     9.7  9.1 -0.7349E+01  0.6520E+01 -0.9164E+01E
 Epicentro: VILLANUEVA - SANTANDER                                             3
 ACTION:UPD 14-10-03 23:07 OP:nd   STATUS:               ID:20140922072308 L   I
 OLDACT:REG 14-09-22 12:54 OP:cam  STATUS:               ID:20140922072000     3
 2014-09-22-0720-00M.COL___252                                                 6
 STAT SP IPHASW D HRMM SECON CODA AMPLIT PERI AZIMU VELO AIN AR TRES W  DIS CAZ7
 BAR2 SZ EP        723 28.83                             174    0.0210 14.7 193 
 BAR2 SZ ES        723 43.89                             174   -0.5710 14.7 193 
 BAR2 SZ I         723 45.21         4.7 0.22            175           14.7 193 
 BRR  HZ EP        723 31.05                             152    0.4310 75.0 305 
 BRR  HN ES        723 48.48                             152    0.7910 75.0 305 
 BRR  HZ I         723 49.48         6.4 0.30            149           75.0 305 
 PTB  HZ EP        723 36.18                             133    0.28 9  146 262 
 PTB  HN ES        723 56.37                             133   -0.72 9  146 262 
 PTB  HZ I         723 57.70         2.6 0.50            133            146 262 
 SPBC HZ EP        723 36.48                             131   -0.47 9  156 221 
 SPBC HN ES        723 59.40                             131    0.45 9  156 221 
 SPBC HZ I         724  1.84         3.0 0.48            132            156 221 
 SML  HZ EP        723 46.62                             118    0.17 8  251 336 
 SML  HE ES        724 15.23                             118   -0.63 8  251 336 
 SML  HZ I         724 23.95         2.0 0.42            117            251 336 
                                                                                
