 2012  422 0138 28.3 L   6.751 -73.142144.0  RSN  7 0.4 2.2LRSN                1
 GAP=139        0.81       5.4     4.7  6.9 -0.6250E+01  0.1053E+02  0.4007E+01E
 Epicentro: LOS SANTOS - SANTANDER                                             3
 ACTION:UPD 12-07-05 11:55 OP:tino STATUS:               ID:20120422013828 L   I
 2012-04-22-0137-00S.MAN___186                                                 6
 STAT SP IPHASW D HRMM SECON CODA AMPLIT PERI AZIMU VELO AIN AR TRES W  DIS CAZ7
 BAR2 SZ EP   1    138 47.34                             172    -0.3 7   18 194 
 BAR2 SZ ES   1    139  2.81                             172     0.1 7   18 194 
 BAR2 SZ I         139  4.17        34.4 0.31                            18 194 
 BRR  HZ EP   1    138 49.61                             151     0.2 7   74 302 
 BRR  HN ES   1    139  6.37                             151     0.4 7   74 302 
 BRR  HZ I         139  8.92        44.1 0.12                            74 302 
 PAM  SZ EP   1    138 50.58                             149     0.0 7   81  37 
 PAM  SN ES   1    139  7.70                             149    -0.3 7   81  37 
 RUS  HZ EP   1    138 51.53                             145     0.0 7   95 176 
 RUS  HN ES   1    139  9.86                             145     0.3 7   95 176 
 RUS  HZ I         139 11.76        18.7 0.38                            95 176 
 PTB  HZ EP   1    138 54.59                             132    -0.5 7  147 261 
 PTB  HN ES   1    139 15.42                             132    -0.6 7  147 261 
 PTB  HZ I         139 18.73        20.3 0.15                           147 261 
 NOR  SZ EP   1    139  3.73                             118     0.1 6  232 236 
 NOR  SN ES   1    139 30.69                             118    -0.5 6  232 236 
 HEL  HZ EP   1    139  9.11                             114     0.8 6  271 257 
 HEL  HN ES   1    139 40.06                             114     0.5 6  271 257 
 HEL  HZ I         139 47.50        10.8 0.33                           271 257 
                                                                                
