 2013 1222 0400 54.1 L   6.842 -73.139137.0  RSN  4 0.3 1.0LRSN                1
 GAP=202        0.56       3.4     4.3  8.6  0.5593E+01 -0.7653E+01 -0.1952E+02E
 Epicentro: LOS SANTOS - SANTANDER                                             3
 ACTION:UPD 14-01-13 10:20 OP:ep   STATUS:               ID:20131222040054 L   I
 OLDACT:REG 13-12-22 09:02 OP:jn   STATUS:               ID:20131222040000     3
 2013-12-22-0400-00M.COL___285                                                 6
 STAT SP IPHASW D HRMM SECON CODA AMPLIT PERI AZIMU VELO AIN AR TRES W  DIS CAZ7
 RUS  HZ EP        4 1 17.44                             141    0.1210  105 177 
 RUS  HN ES        4 1 35.36                             141   -0.0910  105 177 
 RUS  HZ I         4 1 37.27         1.2 0.70            144            105 177 
 PTB  HZ EP        4 1 20.13                             130   -0.36 9  149 257 
 PTB  HN ES        4 1 41.02                             130   -0.08 9  149 257 
 PTB  HZ I         4 1 44.63         1.5 0.14            132            149 257 
 SPBC HE ES   2    4 1 44.94                             126    0.61 5  167 218 
 SML  HZ EP        4 1 30.01                             116    0.22 8  240 335 
 SML  HN ES        4 1 57.78                             116    0.13 8  240 335 
                                                                                
