 2014  922 0136 47.1 L   6.820 -73.156151.9  RSN  8 0.3 2.0LRSN                1
 GAP=134        0.88       3.7     4.0  5.9  0.1866E+01  0.3891E+01 -0.4268E+01E
 Epicentro: LOS SANTOS - SANTANDER                                             3
 ACTION:UPD 14-10-03 23:07 OP:nd   STATUS:               ID:20140922013647 L   I
 OLDACT:UP  14-09-22 13:22 OP:cam  STATUS:               ID:20140922013000     3
 OLDACT:UP  14-09-22 13:21 OP:cam  STATUS:               ID:20140922013000     3
 OLDACT:REG 14-09-22 12:36 OP:cam  STATUS:               ID:20140922013000     3
 2014-09-22-0130-00M.COL___252                                                 6
 STAT SP IPHASW D HRMM SECON CODA AMPLIT PERI AZIMU VELO AIN AR TRES W  DIS CAZ7
 BAR2 SZ EP        137  7.53                             170    0.0310 25.3 186 
 BAR2 SZ ES        137 23.17                             170   -0.2610 25.3 186 
 BAR2 SZ I         137 23.44        13.3 0.26            173           25.3 186 
 BRR  HZ EP        137  9.35                             154    0.5510 69.1 297 
 BRR  HN ES        137 26.21                             154    0.4810 69.1 297 
 BRR  HZ I         137 30.31        10.6 0.28            152           69.1 297 
 PAM  SZ EP        137 10.33                             152    0.4110 76.5  41 
 PAM  SN ES        137 27.35                             152   -0.3710 76.5  41 
 PAM  SZ I         137 29.13        27.0 0.52            152           76.5  41 
 RUS  HZ EP        137 11.66                             144    0.0510  103 175 
 RUS  HN ES        137 30.72                             144   -0.0210  103 175 
 RUS  HZ I         137 32.16        11.7 0.28            148            103 175 
 PTB  HZ EP        137 14.21                             133   -0.29 9  147 258 
 PTB  HN ES        137 35.48                             133   -0.41 9  147 258 
 PTB  HZ I         137 37.93        11.9 0.14            134            147 258 
 ZAR  HN ES        137 45.47                             124    0.24 9  202 292 
 ZAR  HZ I         137 48.53         7.2 0.26            124            202 292 
 SML  HZ EP        137 23.29                             119   -0.51 8  241 335 
 SML  HE ES        137 52.26                             119   -0.18 8  241 335 
 SML  HZ I         138  0.92         9.5 0.10            119            241 335 
 GUY2CHZ EP   4    137 32.63                             113    1.61 0  301 234 
 GUY2CHZ I         138 15.62         4.0 0.26                           301 234 
 MON  HZ EP   4    137 34.48                             110   -1.60 0  351 308 
                                                                                
