 2011  122 0658 48.8 L   6.769 -73.120145.7  RSN 13 0.4 2.2LRSN                1
 GAP=104        0.96       3.8     5.7  7.0 -0.9915E+01  0.1038E+02 -0.1548E+01E
 Epicentro: LOS SANTOS - SANTANDER                                             3
 ACTION:UP  11-02-08 08:42 OP:pat  STATUS:               ID:20110122065848 L   I
 2011-01-22-0655-46S.COL___137                                                 6
 STAT SP IPHASW D HRMM SECON CODA AMPLIT PERI AZIMU VELO SNR AR TRES W  DIS CAZ7
 BAR2 SZ IP        659  8.26                             171    -0.110   21 200 
 BAR2 SZ ES   1    659 23.26                             171    -0.3 7   21 200 
 BAR2 SZ I         659 24.95        48.9 0.23                            21 200 
 RUS  HZ EP   1    659 12.18                             145    -0.1 7   97 178 
 RUS  HE ES   1    659 30.43                             145    -0.1 7   97 178 
 RUS  HZ I         659 32.62        14.0 0.58                            97 178 
 GRA  SZ IP        659 15.10                             136     0.910  128  16 
 GRA  SZ ES   1    659 34.18                             136     0.1 7  128  16 
 GRA  SZ I         659 37.88        18.1 0.46                           128  16 
 OCA  SZ EP   1    659 17.22                             129    -0.2 7  164 352 
 OCA  SZ ES   1    659 39.60                             129    -0.2 7  164 352 
 OCA  SZ I         659 41.85        18.0 0.28                           164 352 
 YOP  SZ EP   2    659 19.02                             127     0.6 4  175 154 
 YOP  SZ I         659 20.24         9.1 0.15                           175 154 
 NOR  SZ EP   1    659 23.98                             118    -0.6 6  235 236 
 NOR  SE ES   1    659 52.41                             118     0.0 6  235 236 
 CHI  HZ EP   1    659 26.39                             117     0.2 6  246 196 
 CHI  HE ES   1    659 55.70                             117     0.3 6  246 196 
 CHI  HZ I         659 59.43         9.6 0.75                           246 196 
 HEL  HZ EP   1    659 29.07                             114    -0.1 6  274 257 
 HEL  HN ES   1    7 0  0.89                             114     0.2 6  274 257 
 HEL  HZ I         7 0  6.43        11.0 0.26                           274 257 
 RREF HZ EP   1    659 34.27                             111    -0.6 5  322 230 
 RREF HE ES   1    7 0 11.29                             111     0.4 5  322 230 
 RREF HZ I         7 0 17.04        10.8 0.31                           322 230 
 DBB  SZ EP   1    659 36.06                             109    -0.5 5  343 275 
 TOL  SZ EP   1    659 37.48                             109     0.5 5  343 225 
 SDV  BZ IP     D  659 37.88                             108    -0.9 6  360  49 
 SDV  BZ I         659 38.65         4.6 0.18                           360  49 
 SJA  SZ EP   2    659 42.97                             106     0.0 3  397 193 
 SJA  SZ I         7 0 29.44        12.9 0.26                           397 193 
                                                                                
