 2011  422 0247 52.2 L   6.797 -73.103148.0  RSN  7 0.3 1.7LRSN                1
 GAP=142        0.79       6.0     7.8  8.5 -0.7383E+01 -0.7071E+01  0.1468E+02E
 Epicentro: LOS SANTOS - SANTANDER                                             3
 ACTION:UP  11-06-22 15:32 OP:REBC STATUS:               ID:20110422024752 L   I
 2011-04-22-0244-30S.COL___139                                                 6
 STAT SP IPHASW D HRMM SECON CODA AMPLIT PERI AZIMU VELO SNR AR TRES W  DIS CAZ7
 BAR2 SZ EP        248 11.94                             170    -0.110   24 201 
 BAR2 SZ I         248 12.10        17.0 0.22                            24 201 
 GIR2 SZ EP        248 12.12                             167     0.010   33 342 
 GIR2 SZ ES   2    248 27.12                             167    -0.6 5   33 342 
 PAM  SZ EP        248 14.90                             152     0.410   75  37 
 PAM  SZ I         248 15.08         5.4 0.06                            75  37 
 PAM  SN ES   3    248 31.85                             152     0.0 2   75  37 
 BRR  HZ EP        248 13.84                             152     0.110   76 297 
 BRR  HZ I         248 14.20        26.5 0.11                            76 297 
 BRR  HN ES   1    248 31.06                             152     0.4 7   76 297 
 RUS  HZ EP        248 16.00                             145    -0.110  100 179 
 RUS  HZ I         248 35.69         3.1 0.30                           100 179 
 OCA  SZ EP        248 20.29                             130    -0.4 9  161 352 
 OCA  SZ I         248 43.73         5.7 0.58                           161 352 
 NOR  SZ EP        248 28.39                             119     0.0 8  238 235 
                                                                                
