 2015  822 0349  6.3 L   6.807 -73.133149.7  RSN 23 0.4 2.6LRSN                1
 GAP= 71        0.77       1.9     2.1  3.7 -0.3634E+00  0.2364E+01  0.1387E+01E
 Epicentro: LOS SANTOS - SANTANDER                                             3
 ACTION:UPD 15-09-15 23:04 OP:cam  STATUS:               ID:20150822034906 L   I
 OLDACT:REG 15-08-22 14:12 OP:spq  STATUS:               ID:20150822034749     3
 2015-08-22-0347-49M.COL___351                                                 6
 STAT SP IPHASW D HRMM SECON CODA AMPLIT PERI AZIMU VELO AIN AR TRES W  DIS CAZ7
 BAR2 EZ IP     C  349 26.19                             170   -0.2310 24.4 193 
 BAR2 EZ ES   1    349 42.28                             170    0.16 7 24.4 193 
 BAR2 EZ I         349 42.78       138.7 0.18            168           24.4 193 
 BRR  HZ EP        349 28.07                             153    0.1510 72.1 297 
 BRR  HN ES        349 45.14                             153    0.3510 72.1 297 
 BRR  HZ I         349 46.51        42.2 0.14            152           72.1 297 
 PAM  EZ IP     D  349 28.92                             152    0.0810 75.8  39 
 PAM  EN ES        349 46.28                             152   -0.1510 75.8  39 
 PAM  EZ I         349 48.69        49.7 0.62            149           75.8  39 
 RUS  HZ EP     C  349 30.06                             144   -0.4310  101 177 
 RUS  HE ES        349 49.12                             144   -0.2410  101 177 
 RUS  HZ I         349 50.06        46.9 0.26            141            101 177 
 TAM  HZ EP     D  349 34.43                             132    0.25 9  154 105 
 TAM  HZ I         349 55.28        32.0 0.40            128            154 105 
 TAM  HN ES        349 56.25                             132    0.32 9  154 105 
 OCA  HZ EP        349 34.42                             131   -0.44 9  160 353 
 OCA  HN ES        349 57.36                             131    0.22 9  160 353 
 OCA  HZ I         350  0.09        72.2 0.24            128            160 353 
 SPBC HZ EP        349 35.08                             130   -0.16 9  165 219 
 SPBC HN ES        349 57.41                             130   -0.41 9  165 219 
 SPBC HZ I         350  0.05        73.5 0.22            126            165 219 
 ZAR  HE ES        350  4.57                             123   -0.13 9  205 292 
 ZAR  HZ I         350  9.54        32.2 0.44            121            205 292 
 NOR  HZ EP        349 42.33                             119   -0.10 8  236 235 
 NOR  HN ES        350 10.81                             119    0.20 8  236 235 
 NOR  HZ I         350 13.68        37.0 0.18            116            236 235 
 SML  HZ EP        349 43.15                             118    0.02 8  244 335 
 SML  HE ES   1    350 11.66                             118   -0.20 6  244 335 
 SML  HZ I         350 13.51        34.8 0.32            116            244 335 
 CHI  HZ EP        349 44.26                             118   -0.08 8  250 195 
 CHI  HE ES   1    350 13.34                             118   -0.67 6  250 195 
 CHI  HZ I         350 22.27        16.1 0.36            115            250 195 
 ROSC BZ EP        349 45.75                             117    0.96 8  254 211 
 ROSC BE ES   4    350 16.42                             117    1.61 0  254 211 
 ROSC BZ I         350 20.90        42.2 0.50            114            254 211 
 HEL  HZ EP   1    349 46.45                             115   -0.43 6  274 256 
 HEL  HE ES        350 18.72                             115    0.17 8  274 256 
 HEL  HZ I         350 25.24        20.0 0.24            113            274 256 
 URE  HZ EP   4    349 45.85                             114   -1.82 0  285 292 
 URE  HE ES   4    350 17.76                             114   -2.19 0  285 292 
 URE  HZ I         350 24.83        14.0 0.16            112            285 292 
 GUY2CHZ EP        349 50.83                             113    0.56 7  303 235 
 GUY2CHN ES        350 24.81                             113    0.24 7  303 235 
 GUY2CHZ I         350 30.96        17.7 0.38                           303 235 
 VIL  SZ EP        349 49.78                             113   -0.23 7  304 192 
 VIL  SE ES   1    350 24.70                             113    0.58 5  304 192 
 VIL  SZ I         350 26.60        17.0 0.38            110            304 192 
 PTGC HZ EP   4    349 49.12                             112   -1.23 0  309 159 
 PTGC HN ES   4    350 22.81                             112   -1.91 0  309 159 
 PTGC HZ I         350 29.94        16.9 0.46            109            309 159 
 ELA  HZ EP   4    349 55.26                             111    1.76 0  331 230 
 ELA  HE ES   4    350 32.42                             111    2.10 0  331 230 
 ELA  HZ I         350 45.75        17.5 0.50            108            331 230 
 CBOC HZ EP        349 53.75                             110    0.19 7  335 252 
 CBOC HN ES        350 31.00                             110    0.58 7  335 252 
 CBOC HZ I         350 34.18         5.9 0.22            108            335 252 
 DBB  SZ EP        349 53.70                             110   -0.39 7  341 274 
 DBB  SZ ES   1    350 30.45                             110   -0.92 5  341 274 
 DBB  SZ I         350 33.97        34.8 0.66            108            341 274 
 ARGC HE ES   4    350 36.19                             109    1.29 0  359 340 
 ARGC HZ I         350 42.06        11.4 0.27            107            359 340 
 ORTC HZ EP        350  0.46                             107   -0.06 6  397 216 
 ORTC HE ES        350 42.77                             107   -0.05 6  397 216 
 ORTC HZ I         350 49.26        15.6 0.50            105            397 216 
 SJC  HZ EP   4    350  0.43                             106   -1.57 0  409 327 
 SJC  HN ES   4    350 41.64                             106   -3.81 0  409 327 
 SJC  HZ I         350 45.66         4.9 0.56            104            409 327 
                                                                                
