 2010 1122 0710 40.3 L   6.736 -73.121151.8  RSN  4 0.1 1.5LRSN                1
 GAP=162        0.32       3.2     6.6  5.6  0.1364E+02 -0.2356E+02 -0.9774E+01E
 Epicentro: JORDAN - SANTANDER                                                 3
 ACTION:UP  10-12-17 16:54 OP:REBC STATUS:               ID:20101122071040 L   I
 2010-11-22-0708-05S.COL___129                                                 6
 STAT SP IPHASW D HRMM SECON CODA AMPLIT PERI AZIMU VELO SNR AR TRES W  DIS CAZ7
 BAR2 SZ EP   2    711  0.55                             173     0.0 5   17 204 
 BAR2 SZ I         711 16.49         6.8 0.27                            17 204 
 BRR  HZ EP        711  2.46                             152     0.110   77 302 
 BRR  HE ES   1    711 19.61                             152    -0.1 7   77 302 
 BRR  HZ I         711 23.32         5.2 0.02                            77 302 
 RUS  HZ EP        711  4.05                             147    -0.110   93 177 
 RUS  HE ES   1    711 22.77                             147     0.1 7   93 177 
 RUS  HZ I         711 23.81         4.0 0.36                            93 177 
 GRA  SZ EP   1    711  6.53                             137     0.0 7  132  15 
 GRA  SZ I         711  7.84         4.5 0.11                           132  15 
                                                                                
