 2010  822 0428 49.5 L   6.770 -73.086148.3  RSN 11 0.6 1.8LRSN                1
 GAP=166        1.46       6.8    10.1 10.8 -0.2761E+02 -0.7083E+01  0.8538E+01E
 Epicentro: LOS SANTOS - SANTANDER                                             3
 ACTION:UP  10-09-07 10:57 OP:vdl  STATUS:               ID:20100822042849 L   I
 2010-08-22-0426-01S.COL___120                                                 6
 STAT SP IPHASW D HRMM SECON CODA AMPLIT PERI AZIMU VELO SNR AR TRES W  DIS CAZ7
 BAR2 SZ EP   1    429  9.02                             171    -0.4 7   22 209 
 BAR2 SZ I         429 26.59        10.3 0.77                            22 209 
 BTL  SZ EP        429  9.24                             170    -0.310   26 309 
 BTL  SZ ES   1    429 24.60                             170    -0.5 7   26 309 
 BRR  HZ EP        429 10.95                             151    -0.410   79 298 
 BRR  HN ES        429 28.98                             151     0.610   79 298 
 BRR  HZ I         429 30.57        12.1 0.16                            79 298 
 RUS  HN ES   1    429 31.77                             145     0.0 7   97 180 
 RUS  HZ I         429 34.39         5.8 0.45                            97 180 
 GUE  SZ EP        429 14.53                             140    -0.110  119   9 
 GUE  SZ I         429 38.97         3.1 0.19                           119   9 
 GRA  SZ EP        429 16.07                             137     1.010  127  14 
 GRA  SZ ES   1    429 35.53                             137     0.5 7  127  14 
 GRA  SZ I         429 38.43         9.2 0.60                           127  14 
 OCA  SZ EP   1    429 17.56                             130    -0.8 7  164 351 
 OCA  SZ ES   1    429 40.20                             130    -0.7 7  164 351 
 OCA  SZ I         429 44.36        12.7 0.35                           164 351 
 CHI  HZ EP   1    429 27.14                             118    -0.1 6  247 197 
 CHI  HZ I         429 29.26         4.0 0.74                           247 197 
 CHI  HN ES   3    429 57.07                                     0.5 2  247 197 
 HEL  HN ES   1    430  2.70                             115     0.3 6  278 257 
 HEL  HZ I         430  8.29         4.5 0.91                           278 257 
 RREF HZ EP   1    429 37.25                             111     1.2 5  325 231 
 RREF HN ES   1    430 11.86                             111    -0.6 5  325 231 
 RREF HZ I         430 19.11         4.3 1.15                           325 231 
 PRA  HZ I         429 45.95         3.6 0.49                           392 211 
                                                                                
