 2011  522 0522 43.6 L   6.836 -73.066143.0  RSN  7 0.5 1.4LRSN                1
 GAP=145        0.98       6.6     9.8  9.1 -0.2071E+02 -0.1722E+02  0.1010E+02E
 Epicentro: LOS SANTOS - SANTANDER                                             3
 ACTION:UP  11-06-29 08:55 OP:tino STATUS:               ID:20110522052243 L   I
 2011-05-22-0520-00M.COL___141                                                 6
 STAT SP IPHASW D HRMM SECON CODA AMPLIT PERI AZIMU VELO SNR AR TRES W  DIS CAZ7
 BTL  SZ EP   1    523  2.98                             170     0.1 7   24 292 
 BTL  SZ ES   1    523 18.10                             170     0.2 7   24 292 
 BAR2 SZ EP   1    523  3.88                             168     0.9 7   30 205 
 BAR2 SZ ES   2    523 17.31                             168    -0.9 5   30 205 
 BAR2 SZ I         523 19.04         6.0 0.27                            30 205 
 GIR2 SZ EP   1    523  2.94                             168     0.1 7   30 332 
 PAM  SZ EP   1    523  5.40                             153     0.4 7   69  36 
 PAM  SE ES   1    523 21.80                             153     0.1 7   69  36 
 BRR  HZ EP   1    523  4.40                             150    -0.4 7   77 293 
 BRR  HZ I         523  8.97         8.0 0.11                            77 293 
 BRR  HE ES   1    523 21.40                             150     0.1 7   77 293 
 RUS  HZ EP   1    523  7.39                             142     0.1 7  104 181 
 RUS  HE ES   2    523 25.26                             142    -0.6 5  104 181 
 RUS  HZ I         523 27.54         1.5 0.30                           104 181 
 GRA  SZ EP   1    523  7.20                             138    -0.8 7  120  14 
 GRA  SZ ES   1    523 27.15                             138     0.0 7  120  14 
 GRA  SZ I         523 28.74         5.3 0.40                           120  14 
                                                                                
