 2010  722 0438 11.8 L   6.798 -73.052143.6  RSN 13 0.3 2.2LRSN                1
 GAP=133        0.71       2.9     5.3  4.8 -0.5595E+01  0.2248E+01 -0.2166E+00E
 Epicentro: LOS SANTOS - SANTANDER                                             3
 ACTION:UPD 10-12-01 15:19 OP:pat  STATUS:               ID:20100722043811 L   I
 2010-07-22-0436-56S.COL___123                                                 6
 STAT SP IPHASW D HRMM SECON CODA AMPLIT PERI AZIMU VELO AIN AR TRES W  DIS CAZ7
 BAR2 SZ IP        438 31.09                             169    -0.210   27 213 
 BAR2 SZ ES   1    438 46.73                             169     0.3 7   27 213 
 BAR2 SZ I         438 48.10        36.8 0.16                            27 213 
 GIR2 SZ IP        438 31.24                             166    -0.110   35 333 
 BRR  HZ IP     D  438 33.02                             149    -0.310   81 295 
 BRR  HN ES   1    438 50.00                             149     0.0 7   81 295 
 BRR  HZ I         438 53.99        57.4 0.07                            81 295 
 RUS  HZ EP   1    438 35.33                             143     0.0 7  100 182 
 RUS  HN ES   1    438 53.24                             143    -0.4 7  100 182 
 RUS  HZ I         438 54.67        15.5 0.18                           100 182 
 GUE  SZ EP        438 36.26                             139     0.110  115   7 
 GUE  SZ I         438 57.01        20.7 0.10                           115   7 
 GRA  SZ EP        438 37.04                             137     0.410  123  13 
 GRA  SZ ES   1    438 56.38                             137     0.4 7  123  13 
 GRA  SZ I         438 57.41        43.5 0.38                           123  13 
 OCA  SZ EP        438 39.75                             129    -0.4 9  162 350 
 OCA  SZ ES   1    439  2.07                             129    -0.1 7  162 350 
 OCA  SZ I         439  2.80        33.3 0.27                           162 350 
 CHI  HZ EP   2    438 49.57                             116    -0.1 4  251 197 
 CHI  HE ES   3    439 19.17                             116     0.0 2  251 197 
 CHI  HZ I         439 25.20         3.8 0.50                           251 197 
 HEL  HZ EP   1    438 53.20                             113     0.2 6  282 256 
 HEL  HZ I         439 30.40         8.4 0.38                           282 256 
 RREF HZ EP   1    438 59.59                             110     0.8 5  330 231 
 RREF HN ES   2    439 36.01                             110     0.7 3  330 231 
 RREF HZ I         439 44.15         6.0 0.26                           330 231 
 DBB  SZ EP   1    438 59.97                             108    -0.4 5  350 274 
 DBB  SZ I         439 40.10         3.5 0.34                           350 274 
 SDV  BZ EP   1    439  0.87                             108     0.0 5  353  49 
 SDV  BZ I         439 42.38         4.2 0.51                           353  49 
 PRA  HZ EP   1    439  5.80                             106     0.0 4  397 211 
 PRA  HE ES   1    439 48.07                             106     0.1 4  397 211 
 PRA  HZ I         439 51.74         8.9 0.29                           397 211 
                                                                                
