 2014  422 0002 48.2 L   6.737 -73.152138.0  RSN  5 0.5 1.3LRSN                1
 GAP=139        1.08       6.9     6.2 10.4  0.4892E+01  0.1123E+02  0.5476E+01E
 Epicentro: JORDAN - SANTANDER                                                 3
 ACTION:UPD 14-05-13 23:10 OP:nd   STATUS:               ID:20140422000248 L   I
 OLDACT:REG 14-04-22 13:58 OP:fm   STATUS:               ID:20140422000006     3
 2014-04-22-0000-06M.COL___242                                                 6
 STAT SP IPHASW D HRMM SECON CODA AMPLIT PERI AZIMU VELO AIN AR TRES W  DIS CAZ7
 BRR  HZ EP        0 3  8.68                             150   -0.0410 74.2 303 
 BRR  HN ES        0 3 25.31                             150    0.6110 74.2 303 
 BRR  HZ I         0 3 31.10         7.5 0.42            154           74.2 303 
 PAM  SZ EP   1    0 3  9.35                             148   -0.64 7 83.3  37 
 PAM  SE ES   1    0 3 26.78                             148   -0.19 7 83.3  37 
 PAM  SZ I         0 3 28.71         4.1 0.54            153           83.3  37 
 RUS  HZ EP   1    0 3 11.49                             144    0.78 7 93.7 175 
 RUS  HN ES   1    0 3 28.11                             144   -0.14 7 93.7 175 
 RUS  HZ I         0 3 31.47         1.6 0.18            149           93.7 175 
 PTB  HZ EP   1    0 3 13.78                             131   -0.62 7  146 261 
 PTB  HN ES   1    0 3 34.16                             131   -0.65 7  146 261 
 ZAR  HZ EP   1    0 3 21.12                             121    0.72 6  206 294 
 ZAR  HN ES   1    0 3 45.19                             121   -0.30 6  206 294 
                                                                                
