 2015  222 0549 41.2 L   6.816 -73.155145.1  RSN 11 0.4 2.5LRSN                1
 GAP= 70        1.05       3.2     3.7  5.9 -0.2176E+00  0.2818E+01 -0.6191E+00E
 Epicentro: LOS SANTOS - SANTANDER                                             3
 ACTION:UPD 15-04-30 21:28 OP:nd   STATUS:               ID:20150222054941 L   I
 OLDACT:UP  15-02-22 18:37 OP:mher STATUS:               ID:20150222054735     3
 OLDACT:REG 15-02-22 12:43 OP:mh   STATUS:               ID:20150222054735     3
 2015-02-22-0547-35M.COL___272                                                 6
 STAT SP IPHASW D HRMM SECON CODA AMPLIT PERI AZIMU VELO AIN AR TRES W  DIS CAZ7
 BAR2 EZ EP        550  0.98                             170    0.1610 24.9 187 
 BAR2 EZ ES        550 15.94                             170   -0.1610 24.9 187 
 BAR2 EZ I         550 17.00       124.2 0.18            168           24.9 187 
 BRR  HZ IPg    C  550  2.85                             153    0.6310 69.5 298 
 BRR  HN ES        550 19.28                             153    0.7010 69.5 298 
 BRR  HZ I         550 20.48        72.5 0.14            151           69.5 298 
 PAM  SZ EP     C  550  3.81                             151    0.4710 76.7  41 
 PAM  SN ES        550 20.61                             151    0.0210 76.7  41 
 PAM  SZ I         550 22.67        41.7 0.46            154           76.7  41 
 RUS  HZ EP        550  5.07                             143    0.0210  102 176 
 RUS  HN ES        550 23.40                             143   -0.2310  102 176 
 RUS  HZ I         550 25.73        35.0 0.18            144            102 176 
 PTB  HZ EP        550  7.44                             132   -0.65 9  147 258 
 PTB  HN ES   1    550 28.20                             132   -0.83 7  147 258 
 PTB  HZ I         550 33.81        37.6 0.22            131            147 258 
 TAM  HZ EP        550  9.49                             130    0.49 9  157 106 
 TAM  HN ES        550 30.07                             130   -0.58 9  157 106 
 OCA  HZ EP        550  8.86                             130   -0.46 9  158 353 
 OCA  HN ES        550 30.77                             130   -0.46 9  158 353 
 OCA  HZ I         550 36.15        31.8 0.20            131            158 353 
 SPBC HZ EP        550 10.02                             129    0.27 9  164 218 
 SPBC HN ES   1    550 32.23                             129    0.24 7  164 218 
 SPBC HZ I         550 38.65        42.0 0.36            129            164 218 
 NOR  HZ EP   1    550 16.88                             118   -0.06 6  235 234 
 NOR  HN ES   1    550 44.78                             118   -0.02 6  235 234 
 NOR  HZ I         550 46.75        24.9 0.24            119            235 234 
 SML  HZ EP   1    550 17.13                             118   -0.47 6  242 335 
 SML  HN ES        550 46.08                             118    0.11 8  242 335 
 SML  HZ I         550 48.42        36.1 0.26            119            242 335 
 ROSC BZ EP   4    550 20.97                             116    1.55 0  254 211 
 ROSC BN ES   4    550 51.31                             116    2.10 0  254 211 
 ROSC BZ I         550 55.96        30.4 0.50            117            254 211 
 URE  HZ EP   4    550 21.44                             114   -0.65 0  282 292 
 URE  HN ES   4    550 56.34                             114    2.38 0  282 292 
                                                                                
