 2011  922 0503 42.4 L   6.824 -73.332119.9  RSN  5 0.1 1.5LRSN                1
 GAP=142        0.41       4.4     7.1  4.4  0.2467E+02 -0.1106E+02 -0.4238E+01E
 Epicentro: ZAPATOCA - SANTANDER                                               3
 ACTION:UPD 12-07-13 15:59 OP:ep   STATUS:               ID:20110922050342 L   I
 2011-09-22-0500-00M.COL___167                                                 6
 STAT SP IPHASW D HRMM SECON CODA AMPLIT PERI AZIMU VELO AIN AR TRES W  DIS CAZ7
 BTL  SZ EP        5 3 58.93                             173    0.2010 12.6  34 
 BAR2 SZ EP        5 3 59.24                             165    0.1010 30.6 147 
 BAR2 SZ ES   1    5 4 12.03                             165   -0.16 7 30.6 147 
 BAR2 SZ I         5 4 13.55        10.8 0.33                          30.6 147 
 GIR2 SZ EP   1    5 3 58.89                             164   -0.15 7 32.0  29 
 BRR  HZ EP        5 3 59.65                             155   -0.0510 52.3 307 
 BRR  HE ES        5 4 13.19                             155   -0.0110 52.3 307 
 BRR  HZ I         5 4 14.41         6.4 0.10                          52.3 307 
 RUS  HZ EP   1    5 4  3.98                             136   -0.24 7  107 165 
 RUS  HE ES   1    5 4 21.35                             136    0.11 7  107 165 
                                                                                
