 2012 1222 0121 59.5 L   6.748 -73.196142.5  RSN  6 0.2 1.6LRSN                1
 GAP=133        0.52       3.4     3.6  4.4  0.2409E+01 -0.1317E+01 -0.4066E+01E
 Epicentro: VILLANUEVA - SANTANDER                                             3
 ACTION:UPD 13-01-04 14:29 OP:ep   STATUS:               ID:20121222012159 L   I
 2012-12-22-0120-00M.COL___243                                                 6
 STAT SP IPHASW D HRMM SECON CODA AMPLIT PERI AZIMU VELO AIN AR TRES W  DIS CAZ7
 BAR2 SZ EP        122 18.79                             173    0.1410 17.3 175 
 BAR2 SZ ES        122 33.54                             173   -0.0310 17.3 175 
 BAR2 SZ I         122 34.71        14.3 0.15                          17.3 175 
 GIR2 SZ EP   1    122 18.72                             165   -0.24 7 36.6   0 
 BRR  HZ EP        122 20.49                             152    0.2710 69.5 305 
 BRR  HZ I         122 20.98         6.8 0.43                          69.5 305 
 BRR  HE ES   1    122 36.56                             152    0.20 7 69.5 305 
 PAM  SZ EP        122 21.64                             148   -0.2510 85.3  40 
 PAM  SZ I         122 21.90        10.6 0.22                          85.3  40 
 RUS  HZ EP        122 22.66                             145    0.0810 95.4 173 
 RUS  HN ES        122 40.54                             145   -0.0210 95.4 173 
 RUS  HN I         122 42.17         6.8 0.22                          95.4 173 
 PTB  HZ EP   1    122 25.70                             132    0.07 7  141 261 
 PTB  HN ES   1    122 45.58                             132   -0.43 7  141 261 
 PTB  HZ I         122 54.97         2.7 0.23                           141 261 
                                                                                
