 2013  522 0953 51.0 L   6.625 -73.326152.3  RSN  5 0.4 1.2LRSN                1
 GAP=141        0.86       7.2     6.3 10.3  0.4792E+01  0.9090E+01  0.1219E+02E
 Epicentro: GALAN - SANTANDER                                                  3
 ACTION:UPD 13-06-20 09:52 OP:ep   STATUS:               ID:20130522095351 L   I
 2013-05-22-0950-00M.COL___259                                                 6
 STAT SP IPHASW D HRMM SECON CODA AMPLIT PERI AZIMU VELO AIN AR TRES W  DIS CAZ7
 BAR2 SZ EP   1    954 10.72                             174   -0.54 7 16.3 103 
 BAR2 SZ ES   1    954 26.70                             174   -0.40 7 16.3 103 
 BAR2 SZ I         954 28.09         3.7 0.28            174           16.3 103 
 BRR  HZ EP   1    954 12.59                             155   -0.07 7 68.3 321 
 BRR  HN ES   1    954 29.78                             155    0.19 7 68.3 321 
 BRR  HZ I         954 42.93         5.9 0.40            149           68.3 321 
 RUS  HZ EP   1    954 15.00                             149    0.65 7 85.3 162 
 RUS  HN ES   1    954 32.79                             149    0.19 7 85.3 162 
 RUS  HZ I         954 34.39         1.4 0.36            160           85.3 162 
 PTB  HN ES   1    954 37.01                             138    0.48 7  125 266 
 PTB  HZ I         954 40.72         2.0 0.40            138            125 266 
 NOR  HN ES   1    954 49.52                             123   -0.64 6  207 236 
 NOR  HZ I         954 56.45         1.8 0.20            127            207 236 
                                                                                
