 2012  722 0745 11.6 L   6.053 -73.727109.6  RSN 16 0.5 2.3LRSN                1
 GAP= 61        1.21       3.3     3.5  8.8  0.1075E+01  0.8564E+01  0.3606E+01E
 Epicentro: BOLIVAR - SANTANDER                                                3
 ACTION:UPD 12-08-14 11:46 OP:ep   STATUS:               ID:20120722074511 L   I
 2012-07-22-0740-00M.COL___215                                                 6
 STAT SP IPHASW D HRMM SECON CODA AMPLIT PERI AZIMU VELO AIN AR TRES W  DIS CAZ7
 RUS  HZ EP        745 29.81                             144    -0.110   73 104 
 RUS  HZ I         745 30.28        38.9 0.34            141             73 104 
 RUS  HN ES   1    745 43.67                             144    -0.4 7   73 104 
 BAR2 SZ IP        745 30.58                             139     0.210   85  45 
 BAR2 SZ ES   1    745 45.00                             139     0.0 7   85  45 
 PTB  HZ IP     C  745 30.30                             135    -0.810   97 304 
 PTB  HN ES   1    745 46.26                             135     0.0 7   97 304 
 PTB  HZ I         745 48.10        46.7 0.50            131             97 304 
 BRR  HZ IP     C  745 32.76                             129    -0.110  117   1 
 BRR  HZ I         745 34.26        64.3 0.19            127            117   1 
 BRR  HN ES   1    745 50.00                             129     0.6 7  117   1 
 NOR  SZ EP        745 35.08                             124     0.1 9  138 247 
 NOR  SN ES   1    745 53.74                             124     0.6 7  138 247 
 ROSC BZ EP   1    745 37.85                             122     1.3 7  149 206 
 ROSC BZ I         746  1.26        16.1 0.38            117            149 206 
 CHI  HZ EP   1    745 37.16                             121    -0.3 7  157 180 
 CHI  HN ES   1    745 56.65                             121    -0.9 7  157 180 
 CHI  HZ I         746  1.43        16.1 0.39            116            157 180 
 YOP  SZ EP   1    745 37.79                             119     0.0 7  164 118 
 YOP  SE ES   1    745 58.92                             119     0.8 7  164 118 
 YOP  SZ I         746  2.25        20.2 0.30            116            164 118 
 PAM  SN ES   2    746  1.89                             116    -0.6 4  182  39 
 HEL  HZ EP        745 42.67                             114     0.6 9  200 274 
 HEL  HN ES   1    746  5.14                             114    -0.6 6  200 274 
 HEL  HZ I         746 13.20        16.0 0.22            111            200 274 
 ZAR  HZ EP        745 41.42                             113    -0.4 9  202 322 
 ZAR  HE ES   1    746  5.52                             113     0.1 6  202 322 
 ZAR  HZ I         746  7.02        47.3 0.33            111            202 322 
 VIL  SZ EP   1    745 43.36                             112     0.0 6  215 179 
 VIL  SN ES   1    746  8.16                             112     0.0 6  215 179 
 VIL  SZ I         746 11.52        17.1 0.53            109            215 179 
 TAM  HZ EP   1    745 43.35                             111    -0.3 6  218  79 
 TOL  SZ EP   1    745 46.90                             109     0.4 6  240 227 
 OCA  HZ EP   1    745 46.26                             109    -0.7 6  246  11 
 OCA  HN ES   1    746 15.54                             109     1.0 6  246  11 
 OCA  HZ I         746 21.18        65.2 0.16            107            246  11 
 DBB  SZ EP   1    745 52.39                             105    -0.2 5  295 291 
 DBB  SZ ES   1    746 24.23                             105    -0.3 5  295 291 
