 2017  522 0950 33.3 L   6.775 -73.147141.2  RSN 17 0.5 2.4LRSN                1
 GAP=210        1.19       4.6     4.4  7.1  0.7837E+01  0.3951E+01  0.1413E+01E
 Epicentro: LOS SANTOS - SANTANDER                                             3
 ACTION:UPD 17-06-16 13:38 OP:jn   STATUS:               ID:20170522095033 L   I
 OLDACT:UP  17-05-22 17:10 OP:ar   STATUS:               ID:20170522094739     3
 OLDACT:REG 17-05-22 13:26 OP:ar   STATUS:               ID:20170522094739     3
 2017-05-22-0948-00M.COL___329                                                 6
 STAT SP IPHASW D HRMM SECON CODA AMPLIT PERI AZIMU VELO AIN AR TRES W  DIS CAZ7
 BRR  HZ EP        950 54.23                             151    0.2110 72.4 301 
 BRR  HN ES        951 10.75                             151    0.5710 72.4 301 
 BRR  HZ I         951 11.82        47.2 0.10            149           72.4 301 
 RUS  HZ IP     C  950 55.88                             144   -0.5110 97.8 176 
 RUS  HN ES        951 14.35                             144   -0.0610 97.8 176 
 PTB  HZ EP        950 58.70                             131   -1.13 9  147 260 
 PTB  HN ES        951 19.61                             131   -0.91 9  147 260 
 PTB  HZ I         951 21.26        20.3 0.36            128            147 260 
 SPBC HZ EP        951  1.03                             128   -0.20 9  161 220 
 SPBC HN ES        951 22.92                             128   -0.09 9  161 220 
 SPBC HZ I         951 25.00        41.8 0.60            126            161 220 
 YPLC HZ IP     C  951  2.23                             126   -0.29 9  174 151 
 YPLC HN ES        951 25.87                             126    0.55 9  174 151 
 YPLC HZ I         951 28.40        15.7 0.22            125            174 151 
 ZAR  HZ EP        951  5.15                             121   -0.39 9  205 293 
 ZAR  HN ES        951 31.06                             121    0.37 9  205 293 
 ZAR  HZ I         951 35.57        25.3 0.34            121            205 293 
 TABC EZ EP   4    951 10.20                             119    1.69 0  227 211 
 TABC EZ ES   4    951 39.91                             119    3.93 0  227 211 
 TABC EZ I         951 43.63        23.6 0.34            117            227 211 
 NOR  HZ EP        951  8.99                             118    0.42 8  233 235 
 NOR  HN ES        951 36.78                             118    0.69 8  233 235 
 NOR  HZ I         951 40.96        23.4 0.20            116            233 235 
 CHI  HZ EP        951 11.32                             116    0.88 8  246 195 
 CHI  HN ES        951 39.24                             116   -0.18 8  246 195 
 CHI  HZ I         951 46.42        11.6 0.46            115            246 195 
 ROSC BZ EP   4    951 12.63                             116    1.74 0  250 211 
 ROSC BN ES   4    951 43.03                             116    2.80 0  250 211 
 ROSC BZ I         951 45.88        17.0 0.60            115            250 211 
 HEL  HZ EP        951 13.72                             114    0.54 8  271 256 
 HEL  HN ES        951 44.12                             114   -0.18 8  271 256 
 HEL  HZ I         951 51.46        12.5 0.26            113            271 256 
 PTGC HZ EP   9 D  951 15.06                             111   -1.60 0  306 158 
 PTGC HE ES        951 48.29                             111   -0.60 7  306 158 
 PTGC HZ I         951 50.77        10.0 0.48            111            306 158 
 ELA  HZ EP   9    951 21.30                             110    1.57 0  327 230 
 ELA  HN ES        951 57.61                             109    0.09 7  327 230 
 ELA  HZ I         952  3.09         9.3 0.60            109            327 230 
 CBOC HZ EP        951 20.34                             109    0.44 7  333 253 
 CBOC HN ES        951 56.74                             109    0.48 7  333 253 
 CBOC HZ I         952  0.86         5.4 0.40            108            333 253 
 DBB  EN ES   4    951 55.65                             109   -1.84 0  340 275 
 DBB  EZ I         951 59.16         8.5 0.42            108            340 275 
 PAL  HZ EP        951 27.90                             105   -0.22 6  404 239 
 PAL  HN ES        952 10.57                             105   -0.32 6  404 239 
 PAL  HZ I         952 16.24         5.3 0.38            105            404 239 
 SJC  HZ EP   4    951 26.35                             105   -2.62 0  411 327 
 SJC  HE ES   4    952  7.56                             105   -4.84 0  411 327 
 SJC  HZ I         952 11.93         9.6 0.56            105            411 327 
                                                                                
