 2016  122 0655  7.6 L   6.809 -73.111150.3  RSN 23 0.5 2.4LRSN                1
 GAP= 54        1.03       2.7     2.7  4.6 -0.9974E+00  0.2544E+01  0.9594E+00E
 Epicentro: LOS SANTOS - SANTANDER                                             3
 ACTION:UPD 16-03-09 23:27 OP:cam  STATUS:               ID:20160122065507 L   I
 OLDACT:UP  16-02-23 20:54 OP:AR   STATUS:               ID:20160122065507 L   3
 OLDACT:UP  16-01-22 20:11 OP:ar   STATUS:               ID:20160122064745d    3
 OLDACT:UP  16-01-22 20:10 OP:ar   STATUS:               ID:20160122064745d    3
 OLDACT:DUP 16-01-22 20:02 OP:ar   STATUS:               ID:20160122064745d    3
 OLDACT:UP  16-01-22 19:59 OP:ar   STATUS:               ID:20160122064744     3
 OLDACT:REG 16-01-22 14:19 OP:ar   STATUS:               ID:20160122064744     3
 2016-01-22-0647-44M.COL___316                                                 6
 STAT SP IPHASW D HRMM SECON CODA AMPLIT PERI AZIMU VELO AIN AR TRES W  DIS CAZ7
 BAR2 EZ IP     D  655 27.89                             170    0.0910 25.2 198 
 BAR2 EZ ES        655 43.65                             170    0.0910 25.2 198 
 BAR2 EZ I         655 44.62        40.1 0.42            169           25.2 198 
 PAM  EZ IP     D  655 30.69                             152    0.5910 74.2  38 
 PAM  EN ES        655 48.11                             152    0.4510 74.2  38 
 RUS  HZ EP        655 31.78                             144   -0.0610  101 178 
 RUS  HN ES        655 50.69                             144   -0.0610  101 178 
 RUS  HZ I         655 53.93        20.9 0.38            146            101 178 
 PTB  HZ EP        655 34.46                             132   -0.82 9  152 259 
 PTB  HN ES        655 56.52                             132   -0.36 9  152 259 
 PTB  HZ I         655 57.97        33.7 0.18            131            152 259 
 TAM  HZ EP        655 35.76                             132    0.45 9  152 106 
 TAM  HE ES        655 56.91                             132   -0.02 9  152 106 
 TAM  HZ I         655 58.47        14.6 0.34            135            152 106 
 OCA  HZ EP   9    655 36.67                             131    0.46 0  160 352 
 OCA  HN ES        655 58.72                                   -0.28 9  160 352 
 OCA  HZ I         656  3.94        59.4 0.28            131            160 352 
 SPBC HZ EP        655 36.76                             129    0.03 9  166 220 
 SPBC HN ES        655 59.29                             129   -0.18 9  166 220 
 SPBC HZ I         656  1.34        28.7 0.24            129            166 220 
 ZAR  HZ EP        655 40.65                             123   -0.01 8  207 291 
 ZAR  HN ES        656  5.97                             123   -0.49 8  207 291 
 ZAR  HZ I         656 12.00        44.0 0.38            123            207 291 
 NOR  HZ EP        655 43.79                             119   -0.19 8  238 235 
 NOR  HN ES        656 11.60                             119   -0.76 8  238 235 
 NOR  HZ I         656 18.92        14.4 0.28            119            238 235 
 SML  HZ EP        655 44.30                             118   -0.25 8  244 334 
 SML  HN ES        656 13.64                             118    0.25 8  244 334 
 SML  HZ I         656 20.10        40.7 0.32            119            244 334 
 CHI  HZ EP        655 45.87                             118    0.12 8  251 196 
 CHI  HN ES        656 15.06                             118   -0.45 8  251 196 
 CHI  HZ I         656 20.99        11.7 0.30            119            251 196 
 ROSC BZ EP   9    655 48.08                             117    1.82 0  256 212 
 ROSC BN ES        656 17.94                             117   -0.31 8  256 212 
 ROSC BZ I         656 25.10        20.8 0.50            118            256 212 
 HEL  HZ EP   4    655 49.91                             115    1.44 0  276 256 
 HEL  HN ES        656 20.78                             115    0.42 7  276 256 
 HEL  HZ I         656 27.05        11.8 0.30            115            276 256 
 URE  HZ EP   4    655 47.70                             114   -1.54 0  287 291 
 URE  HN ES   4    656 18.81                             114   -2.92 0  287 291 
 URE  HZ I         656 33.40        18.5 0.16            114            287 291 
 SOCV BZ EP        655 49.46                             113   -0.96 7  298  57 
 SOCV BN ES   4    656 21.28                             113   -2.55 0  298  57 
 GUY2CHZ EP        655 51.95                             113    0.13 7  305 235 
 GUY2CHN ES   4    656 28.28                             113    1.95 0  305 235 
 GUY2CHZ I         656 36.35        10.1 0.68                           305 235 
 PTGC HZ EP        655 50.65                             112   -0.94 7  308 159 
 PTGC HN ES   4    656 24.16                             112   -1.75 0  308 159 
 PTGC HZ I         656 26.61        10.5 0.40            114            308 159 
 DBB  SZ EP        655 55.86                             110    0.18 7  343 274 
 DBB  SZ ES   4    656 31.91                             110   -1.29 0  343 274 
 ANIL HZ IPg       655 58.59                             109    0.63 6  361 225 
 ANIL HN ES        656 38.58                             109    1.33 6  361 225 
 ANIL HZ I         656 44.56        28.1 0.32            109            361 225 
 PRA  HZ EP        656  2.23                             107    0.64 6  395 210 
 PRA  HN ES        656 43.76                             107    0.05 6  395 210 
 PRA  HZ I         656 47.16        10.8 0.54            108            395 210 
 ORTC HN ES        656 45.06                             107    0.58 6  399 217 
 PAL  HZ EP        656  4.04                             106    0.69 6  409 239 
 PAL  HN ES   4    656 49.12                             106    2.28 0  409 239 
 PAL  HZ I         656 50.39         2.8 0.40            107            409 239 
 SJC  HZ EP   9    656  1.61                             106   -1.85 0  411 326 
 SJC  HN ES        656 44.94                             107   -0.25 6  411 326 
 SJC  HZ I         656 45.16         2.0 0.11            107            411 326 
                                                                                
