 2010  722 0910  1.1 L   6.836 -73.022138.4  RSN  4 0.1 1.3LRSN                1
 GAP=172        0.38       4.6     9.2  8.9  0.3113E+02 -0.6124E+02 -0.2521E+02E
 Epicentro: CEPITA - SANTANDER                                                 3
 ACTION:UPD 10-12-01 15:19 OP:pat  STATUS:               ID:20100722091001 L   I
 2010-07-22-0905-46S.COL___123                                                 6
 STAT SP IPHASW D HRMM SECON CODA AMPLIT PERI AZIMU VELO AIN AR TRES W  DIS CAZ7
 BAR2 SZ EP        910 20.25                             166     0.110   32 214 
 BAR2 SZ I         910 20.41         5.0 0.11                            32 214 
 BRR  HZ EP   1    910 22.14                             148     0.0 7   82 292 
 BRR  HZ I         910 22.51         5.7 0.07                            82 292 
 BRR  HE ES   1    910 38.52                             148     0.0 7   82 292 
 RUS  HZ EP   1    910 24.36                             141    -0.1 7  105 184 
 RUS  HN ES   1    910 42.61                             141    -0.1 7  105 184 
 RUS  HZ I         910 44.43         2.3 0.26                           105 184 
 GRA  SZ EP   2    910 24.98                             137    -0.1 5  118  12 
 GRA  SZ I         910 47.70         3.3 0.36                           118  12 
                                                                                
