 2012  522 0143 56.4 L   6.812 -73.177141.5  RSN 10 0.4 2.2LRSN                1
 GAP=180        0.96       4.5     6.8  8.3  0.2757E+01  0.1656E+02  0.1874E+01E
 Epicentro: LOS SANTOS - SANTANDER                                             3
 ACTION:UP  12-07-05 12:07 OP:pat  STATUS:               ID:20120522014356 L   I
 2012-05-22-0140-00M.COL___200                                                 6
 STAT SP IPHASW D HRMM SECON CODA AMPLIT PERI AZIMU VELO SNR AR TRES W  DIS CAZ7
 BAR2 SZ EP   1    144 15.61                             170     0.0 7   24 181 
 BAR2 SZ ES   1    144 30.81                             170     0.3 7   24 181 
 BAR2 SZ I         144 32.13        48.7 0.13                            24 181 
 BRR  HZ EP        144 17.42                             153     0.510   68 299 
 BRR  HZ I         144 37.94        23.2 0.22                            68 299 
 RUS  HZ EP   1    144 19.46                             142    -0.4 7  102 174 
 RUS  HN ES   1    144 38.15                             142     0.0 7  102 174 
 RUS  HZ I         144 39.47        16.5 0.41                           102 174 
 PTB  HZ EP   1    144 22.36                             132    -0.4 7  145 258 
 PTB  HN ES   1    144 42.58                             132    -0.7 7  145 258 
 PTB  HZ I         144 46.71        10.3 0.21                           145 258 
 OCA  HZ EP   1    144 23.97                             129    -0.3 7  159 354 
 OCA  HN ES   1    144 45.60                             129    -0.4 7  159 354 
 OCA  HZ I         144 50.42        27.7 0.20                           159 354 
 ZAR  HN ES   1    144 53.33                             122     0.3 6  200 292 
 ZAR  HZ I         144 58.96        18.4 0.27                           200 292 
 ROSC BZ EP   1    144 34.54                             116     0.3 6  252 210 
 ROSC BZ I         145  9.96        17.0 0.40                           252 210 
 HEL  HZ EP   1    144 36.75                             114     0.7 6  269 255 
 HEL  HZ I         145 14.67         5.7 0.33                           269 255 
 RREF HZ EP   2    144 42.56                             110     0.4 3  320 229 
 RREF HZ I         145 26.17         8.1 0.32                           320 229 
 PRA  HZ EP   1    144 49.13                             106    -0.6 4  391 209 
 PRA  HN ES   1    145 31.42                             106     0.1 4  391 209 
                                                                                
