 2016  322 0220 57.9 L   6.781 -73.186145.6  RSN  6 0.3 1.2LRSN                1
 GAP=132        0.80       3.0     4.6  6.4 -0.3012E+01  0.7781E+01  0.1142E+01E
 Epicentro: LOS SANTOS - SANTANDER                                             3
 ACTION:UPD 16-05-13 21:26 OP:cam  STATUS:               ID:20160322022057 L   I
 OLDACT:REG 16-03-22 12:52 OP:ak   STATUS:               ID:20160322021742     3
 2016-03-22-0217-42M.COL___308                                                 6
 STAT SP IPHASW D HRMM SECON CODA AMPLIT PERI AZIMU VELO AIN AR TRES W  DIS CAZ7
 BAR2 EZ EP   2    221 17.15                             171   -0.34 5 20.9 179 
 BAR2 EZ ES        221 33.17                             171    0.4210 20.9 179 
 BAR2 EZ I         221 34.45         4.3 0.29            171           20.9 179 
 PAM  EZ EP        221 20.34                             149   -0.0510 81.8  41 
 PAM  EN ES        221 37.66                             149   -0.2510 81.8  41 
 PAM  EZ I         221 39.99         3.9 0.15            154           81.8  41 
 RUS  HZ EP        221 21.39                             144   -0.1510 99.0 173 
 RUS  HN ES        221 39.96                             144   -0.0010 99.0 173 
 RUS  HZ I         221 41.45         1.5 0.38            148           99.0 173 
 PTB  HZ EP        221 25.10                             133    0.65 9  143 259 
 PTB  HN ES        221 44.60                             133   -0.54 9  143 259 
 PTB  HZ I         221 53.17         2.4 0.40            133            143 259 
 OCA  HN ES        221 48.62                             129    0.07 9  162 355 
 CHI  HZ EP   2    221 34.98                             117   -0.29 4  246 194 
 CHI  HN ES        222  4.41                             117    0.00 8  246 194 
                                                                                
