 2016  422 0819 58.7 L   6.375 -73.603106.0  RSN  7 0.5 1.5LRSN                1
 GAP= 80        0.90       4.5     4.1  7.9 -0.4176E+01  0.9559E+01 -0.5112E+01E
 Epicentro: SANTA HELENA DEL OPON - SANTANDER                                  3
 ACTION:UPD 16-05-05 14:23 OP:rebc STATUS:               ID:20160422081958 L   I
 OLDACT:ARG 16-04-22 12:58 OP:cara STATUS:               ID:20160422081744     3
 2016-04-22-0817-44M.COL___312                                                 6
 STAT SP IPHASW D HRMM SECON CODA AMPLIT PERI AZIMU VELO AIN AR TRES W  DIS CAZ7
 BAR2 EZ EP        820 14.64                             153   -0.1910 52.4  63 
 BAR2 EZ ES        820 27.92                             153    0.5110 52.4  63 
 BAR2 EZ I         820 29.00        10.6 0.30            154           52.4  63 
 RUS  HZ EP   2    820 16.12                             142   -0.84 5 78.5 133 
 RUS  HE ES   2    820 30.27                             142   -0.93 5 78.5 133 
 SPBC HZ EP        820 17.69                             136   -0.0910 95.3 213 
 SPBC HN ES        820 33.15                             136    0.4810 95.3 213 
 SPBC HZ I         820 36.93         8.3 0.22            138           95.3 213 
 PTB  HZ EP        820 17.18                             135   -0.5710 96.1 281 
 PTB  HN ES        820 32.46                             135   -0.1510 96.1 281 
 PTB  HZ I         820 34.79         4.4 0.16            134           96.1 281 
 ZAR  HZ EP   2    820 26.99                             115    0.13 4  186 312 
 ZAR  HN ES   2    820 49.31                             115    0.49 4  186 312 
 ZAR  HZ I         820 54.42         4.0 0.23            115            186 312 
 OCA  HZ EP   2    820 30.20                             112    0.60 4  208   9 
 OCA  HN ES   2    820 53.91                             112    0.21 4  208   9 
 OCA  HZ I         820 58.73         7.7 0.20            113            208   9 
 GUY2CHZ EP   2    820 33.58                             110    0.78 4  233 237 
 GUY2CHN ES   2    820 59.86                             110    0.46 4  233 237 
 GUY2CHZ I         821  5.34         1.3 0.34                           233 237 
                                                                                
