 2014  622 0109 10.1 L   6.670 -73.126142.5  RSN  5 0.5 1.6LRSN                1
 GAP=269        1.12       7.4     7.8  9.8  0.1317E+02  0.2314E+02  0.1959E+02E
 Epicentro: VILLANUEVA - SANTANDER                                             3
 ACTION:UPD 14-07-01 22:55 OP:nd   STATUS:               ID:20140622010910 L   I
 OLDACT:DUP 14-06-22 14:36 OP:carl STATUS:               ID:20140622005819d    3
 2014-06-22-0058-18M.COL___262                                                 6
 STAT SP IPHASW D HRMM SECON CODA AMPLIT PERI AZIMU VELO AIN AR TRES W  DIS CAZ7
 BAR2 SZ EP        1 9 29.35                             176    0.2310 10.6 216 
 BAR2 SZ ES        1 9 44.17                             176    0.2010 10.6 216 
 BAR2 SZ I         1 9 46.01        10.9 0.14            165           10.6 216 
 BRR  HN ES        1 9 47.70                             149   -0.4210 80.8 307 
 PTB  HZ EP        1 9 36.22                             131   -0.56 9  148 264 
 PTB  HN ES        1 9 57.11                             131   -0.49 9  148 264 
 PTB  HZ I         110  3.32         4.6 0.20            130            148 264 
 SPBC HZ EP        1 9 37.38                             130   -0.05 9  154 223 
 SPBC HE ES        1 9 59.13                             130    0.37 9  154 223 
 SPBC HZ I         110  6.15         6.0 0.20            128            154 223 
 ZAR  HE ES        110  9.78                             121    0.88 8  212 296 
                                                                                
