 2015  622 0713 18.0 L   6.847 -73.082145.5  RSN  8 0.3 1.9LRSN                1
 GAP=190        0.79       2.7     4.3  5.7  0.1340E+01  0.6071E+01 -0.8385E+00E
 Epicentro: LOS SANTOS - SANTANDER                                             3
 ACTION:UPD 15-09-10 22:14 OP:cam  STATUS:               ID:20150622071318 L   I
 OLDACT:UP  15-06-22 18:24 OP:mh   STATUS:               ID:20150622070748     3
 OLDACT:UP  15-06-22 16:30 OP:mh   STATUS:               ID:20150622070748     3
 OLDACT:REG 15-06-22 13:08 OP:mh   STATUS:               ID:20150622070748     3
 2015-06-22-0707-48M.COL___313                                                 6
 STAT SP IPHASW D HRMM SECON CODA AMPLIT PERI AZIMU VELO AIN AR TRES W  DIS CAZ7
 BAR2 EZ EP        713 37.96                             168    0.1610 30.3 202 
 BAR2 EZ ES   1    713 52.81                             168   -0.40 7 30.3 202 
 BAR2 EZ I         713 53.68        11.5 0.28            168           30.3 202 
 BRR  HZ EP        713 39.73                             151    0.3310 75.3 292 
 BRR  HN ES        713 56.74                             151    0.6810 75.3 292 
 BRR  HZ I         714  0.77        12.2 0.36            148           75.3 292 
 RUS  HZ EP        713 42.09                             142   -0.0510  106 180 
 RUS  HN ES        714  0.63                             142   -0.2910  106 180 
 RUS  HZ I         714  2.13         7.3 0.30            146            106 180 
 OCA  HZ EP        713 45.73                             130   -0.21 9  156 350 
 OCA  HN ES        714  7.68                             130   -0.02 9  156 350 
 OCA  HZ I         714 10.67        15.6 0.38            130            156 350 
 ZAR  HZ EP   1    713 51.00                             122    0.04 6  209 290 
 ZAR  HN ES        714 16.16                             122   -0.47 8  209 290 
 ZAR  HZ I         714 21.20        10.1 0.14            121            209 290 
 SML  HN ES        714 22.55                             118   -0.34 8  242 333 
 SML  HZ I         714 32.94        11.7 0.10            118            242 333 
 HEL  HZ EP   1    713 59.50                             114    0.35 6  280 255 
 HEL  HN ES   1    714 30.86                             114   -0.35 6  280 255 
 HEL  HZ I         714 36.32         4.5 0.06            115            280 255 
 GUY2CHZ EP   1    714  3.24                             112    0.60 5  310 235 
 GUY2CHN ES     C  714 37.34                             112   -0.08 7  310 235 
 GUY2CHZ I         714 44.78         2.7 0.36                           310 235 
                                                                                
