 2017  822 0450 28.0 L   6.792 -73.107141.1  RSN 15 0.6 1.9LRSN                1
 GAP= 99        1.27       4.1     4.4  6.4 -0.1217E+01  0.6542E+01  0.6845E+01E
 Epicentro: LOS SANTOS - SANTANDER                                             3
 ACTION:UPD 17-09-04 20:23 OP:rebc STATUS:               ID:20170822045028 L   I
 OLDACT:UP  17-08-22 16:38 OP:osc  STATUS:               ID:20170822044739     3
 OLDACT:REG 17-08-22 12:50 OP:osc  STATUS:               ID:20170822044739     3
 2017-08-22-0448-00M.COL___411                                                 6
 STAT SP IPHASW D HRMM SECON CODA AMPLIT PERI AZIMU VELO AIN AR TRES W  DIS CAZ7
 BAR2 EZ IP     C  450 46.63                             170   -0.4810 23.6 201 
 BAR2 EZ ES        451  1.84                             170   -0.1510 23.6 201 
 BAR2 EZ I         451  2.69        23.7 0.24            167           23.6 201 
 BRR  HZ EP        450 48.38                             150   -0.5510 75.4 298 
 BRR  HE ES        451  5.50                             150    0.2810 75.4 298 
 BRR  HZ I         451  6.03        10.9 0.13            149           75.4 298 
 PAM  EZ EP        450 49.49                             150   -0.1510 75.4  37 
 PAM  EE ES        451  6.66                             150    0.1710 75.4  37 
 PAM  EZ I         451  8.38        11.7 0.46            155           75.4  37 
 RUS  HZ EP        450 51.14                             143   -0.1110 99.5 178 
 RUS  HN ES        451  9.36                             143    0.0110 99.5 178 
 RUS  HZ I         451 10.95        13.3 0.32            143           99.5 178 
 TAM  HZ IP     D  450 55.02                             130    0.08 9  151 105 
 SPBC HZ EP        450 55.62                             127   -0.76 9  165 220 
 SPBC HE ES        451 17.86                             127   -0.62 9  165 220 
 SPBC HZ I         451 23.70        10.8 0.09            127            165 220 
 YPLC HZ EP        450 57.21                             126   -0.01 9  174 152 
 YPLC HN ES        451 21.13                             126    1.15 9  174 152 
 YPLC HZ I         451 21.74        11.2 0.30            127            174 152 
 ZAR  HZ EP        451  1.05                             121    0.42 8  208 292 
 ZAR  HN ES   4    451 24.72                             121   -1.33 0  208 292 
 ZAR  HZ I         451 30.64         8.9 0.18            121            208 292 
 CHI  HZ EP        451  5.81                             116    0.30 8  249 196 
 CHI  HE ES        451 34.23                             116   -0.51 8  249 196 
 CHI  HZ I         451 38.83         1.9 0.16            116            249 196 
 ROSC BZ EP        451  6.71                             115    0.64 8  254 212 
 ROSC BN ES   4    451 38.30                             115    2.57 0  254 212 
 ROSC BZ I         451 42.88         4.0 0.55            116            254 212 
 HEL  HZ EP        451  7.82                             113   -0.63 7  276 256 
 HEL  HE ES        451 41.68                             113    1.70 7  276 256 
 HEL  HZ I         451 45.07         4.2 0.42            114            276 256 
 URE  HE ES   4    451 38.10                             112   -3.50 0  288 292 
 GUY2CHZ EP   4    451 12.82                             111    1.05 0  304 235 
 GUY2CHE ES        451 45.73                             111   -0.15 7  304 235 
 GUY2CHZ I         451 51.78         2.8 0.26                           304 235 
 PTGC HZ EP   9    451 10.20                             111   -1.22 0  306 159 
 PTGC HN ES        451 43.52                             111   -0.52 7  306 159 
 PRA  HZ EP        451 21.38                             106   -0.18 6  393 210 
 PRA  HE ES        452  2.75                             106   -0.55 6  393 210 
 PRA  HZ I         452  7.88         2.5 0.36            106            393 210 
 ORTC HZ EP        451 22.41                             105    0.40 6  397 217 
 ORTC HE ES        452  4.59                             105    0.48 6  397 217 
                                                                                
