 2013  422 0025 15.6 L   6.769 -73.159144.4  RSN  9 0.5 2.0LRSN                1
 GAP=136        1.08       3.9     5.8  6.3 -0.1762E+01  0.9649E+01 -0.1239E+01E
 Epicentro: LOS SANTOS - SANTANDER                                             3
 ACTION:UPD 13-05-22 14:40 OP:EP   STATUS:               ID:20130422002515 L   I
 2013-04-22-0020-00M.COL___250                                                 6
 STAT SP IPHASW D HRMM SECON CODA AMPLIT PERI AZIMU VELO AIN AR TRES W  DIS CAZ7
 BAR2 SZ EP   1    025 35.06                             172    0.02 7 19.7 188 
 BAR2 SZ ES        025 49.97                             172   -0.2010 19.7 188 
 BAR2 SZ I         025 51.65        20.7 0.14            170           19.7 188 
 GIR2 SZ EP        025 35.21                             166   -0.0310 34.5 354 
 GIR2 SZ ES        025 50.82                             166    0.2810 34.5 354 
 GIR2 SZ I         025 51.63        14.7 0.32            162           34.5 354 
 BRR  HZ EP     D  025 37.09                             152    0.4210 71.7 301 
 BRR  HN ES        025 53.77                             152    0.6910 71.7 301 
 BRR  HN I         025 54.57        38.4 0.28            147           71.7 301 
 PAM  SZ EP        025 38.19                             149    0.2610 80.9  39 
 PAM  SN ES        025 55.49                             149    0.1710 80.9  39 
 PAM  SN I         025 56.31        16.3 0.50            151           80.9  39 
 RUS  HZ EP        025 39.29                             145    0.2710 97.3 175 
 RUS  HN ES        025 56.49                             145   -0.7710 97.3 175 
 RUS  HN I         025 58.24         5.1 0.44            147           97.3 175 
 PTB  HZ EP        025 42.00                             132   -0.31 9  146 260 
 PTB  HN ES   1    026  2.91                             132   -0.21 7  146 260 
 PTB  HZ I         026 10.03         9.1 0.42            129            146 260 
 OCA  HN ES        026  5.76                             129   -0.63 9  164 354 
 OCA  HN I         026 10.13        33.4 0.22            128            164 354 
 NOR  HZ EP   1    025 51.86                             119    0.91 6  232 235 
 NOR  HE ES   2    026 18.20                             119   -0.30 4  232 235 
 NOR  HE I         026 22.84         9.8 0.20            118            232 235 
 SML  HZ EP        025 52.24                             117   -0.23 8  246 336 
 SML  HN ES   1    026 20.20                             117   -0.99 6  246 336 
 SML  HN I         026 30.35        13.8 0.26            116            246 336 
                                                                                
