 2016 1222 0250 27.6 L   6.782 -73.148140.8  RSN 10 0.5 1.9LRSN                1
 GAP= 99        1.25       4.7     3.8  7.0  0.1035E+01  0.5403E+01  0.7135E+01E
 Epicentro: LOS SANTOS - SANTANDER                                             3
 ACTION:UPD 17-01-11 20:17 OP:rebc STATUS:               ID:20161222025027 L   I
 OLDACT:UP  16-12-22 14:53 OP:cog  STATUS:               ID:20161222024745     3
 OLDACT:REG 16-12-22 12:43 OP:cog  STATUS:               ID:20161222024745     3
 2016-12-22-0248-00M.COL___372                                                 6
 STAT SP IPHASW D HRMM SECON CODA AMPLIT PERI AZIMU VELO AIN AR TRES W  DIS CAZ7
 BAR2 EZ EP        250 46.49                             171   -0.1210 21.3 190 
 BAR2 EZ ES        251  1.06                             171   -0.3710 21.3 190 
 BAR2 EZ I         251  2.42        21.8 0.34            169           21.3 190 
 BRR  HZ EP        250 48.40                             151    0.1210 72.0 300 
 BRR  HE ES        251  4.83                             151    0.4410 72.0 300 
 BRR  HZ I         251  8.71        17.0 0.14            152           72.0 300 
 PAM  EZ EP        250 49.30                             149   -0.1110 79.0  39 
 PAM  EN ES        251  6.40                             149   -0.0110 79.0  39 
 PAM  EZ I         251  8.85        14.4 0.60            153           79.0  39 
 RUS  HZ EP        250 50.46                             143   -0.2810 98.6 176 
 RUS  HN ES        251  9.17                             143    0.3910 98.6 176 
 RUS  HZ I         251  9.92         9.7 0.22            143           98.6 176 
 PTB  HZ EP        250 53.07                             131   -1.06 9  147 260 
 PTB  HN ES        251 13.99                             131   -0.82 9  147 260 
 PTB  HZ I         251 17.67        12.1 0.16            131            147 260 
 TAM  HZ EP        250 54.73                             129   -0.15 9  155 104 
 TAM  HE ES        251 16.63                             129    0.49 9  155 104 
 ZAR  HZ EP        250 59.73                             121   -0.07 9  205 293 
 ZAR  HN ES        251 25.63                             121    0.72 9  205 293 
 CHI  HZ EP     C  251  4.75                             116   -0.08 8  247 195 
 CHI  HE ES        251 33.64                             116   -0.22 8  247 195 
 CHI  HZ I         251 40.81         2.9 0.60            117            247 195 
 GUY2CHZ EP        251 11.71                             111    0.86 7  300 235 
 GUY2CHN ES        251 45.69                             111    1.12 7  300 235 
 GUY2CHZ I         251 53.21         9.8 0.36                           300 235 
 ELA  HZ EP   4    251 12.80                             109   -1.30 0  328 230 
 ELA  HN ES   4    251 53.09                             109    2.74 0  328 230 
 ELA  HZ I         251 58.20         4.5 0.26            110            328 230 
                                                                                
