 2012 1122 0819 34.4 L   6.828 -73.177139.5  RSN  4 0.3 1.2LRSN                1
 GAP=131        0.61       4.1     3.7  8.5  0.7137E+00  0.9206E+01  0.3561E+01E
 Epicentro: ZAPATOCA - SANTANDER                                               3
 ACTION:UPD 12-12-05 15:35 OP:}ep  STATUS:               ID:20121122081934 L   I
 2012-11-22-0814-38M.COL___207                                                 6
 STAT SP IPHASW D HRMM SECON CODA AMPLIT PERI AZIMU VELO AIN AR TRES W  DIS CAZ7
 PAM  SZ EP   1    819 56.21                             150    0.26 8 77.3  43 
 PAM  SZ I         819 56.34         2.3 0.10                          77.3  43 
 PAM  SN ES   1    820 12.51                             150   -0.24 8 77.3  43 
 RUS  HZ EP        819 57.91                             141    0.1110  104 174 
 RUS  HN ES   1    820 16.13                             141    0.09 7  104 174 
 RUS  HN I         820 17.92         3.3 0.33                           104 174 
 PTB  HZ EP   1    820  0.03                             131   -0.59 7  145 257 
 PTB  HE ES   1    820 20.98                             131   -0.08 7  145 257 
 PTB  HZ I         820 23.50         3.1 0.06                           145 257 
 ZAR  HN ES   1    820 31.01                             121    0.38 6  200 292 
 ZAR  HZ I         820 37.13         1.5 0.40                           200 292 
                                                                                
