 2010  622 0437  0.3 L   6.761 -73.099140.6  RSN  4 0.2 1.4LRSN                1
 GAP=187        0.41       5.1    11.2  6.6  0.4174E+02 -0.3846E+02 -0.1806E+02E
 Epicentro: LOS SANTOS - SANTANDER                                             3
 ACTION:UP  10-08-24 10:12 OP:vdl  STATUS:               ID:20100622043700 L   I
 2010-06-22-0432-25S.COL___118                                                 6
 STAT SP IPHASW D HRMM SECON CODA AMPLIT PERI AZIMU VELO SNR AR TRES W  DIS CAZ7
 BAR2 SZ ES   2    437 34.04                             171    -0.1 5   21 207 
 BRR  HZ EP        437 21.20                             149    -0.110   78 300 
 BRR  HE ES   2    437 38.01                             149     0.3 5   78 300 
 BRR  HZ I         437 42.46         5.1 0.24                            78 300 
 RUS  HZ EP        437 23.38                             144     0.110   96 179 
 RUS  HN ES   2    437 40.90                             144    -0.2 5   96 179 
 OCA  SZ EP   1    437 28.78                             127     0.0 7  165 352 
                                                                                
