 2012  622 0124  8.3 L   6.753 -73.130143.7  RSN  5 0.3 1.5LRSN                1
 GAP=141        0.55       5.7     4.5  6.9 -0.8894E+01  0.9694E+00  0.6018E+01E
 Epicentro: LOS SANTOS - SANTANDER                                             3
 ACTION:UPD 12-08-06 17:51 OP:ep   STATUS:               ID:20120622012408 L   I
 2012-06-22-0120-00M.COL___193                                                 6
 STAT SP IPHASW D HRMM SECON CODA AMPLIT PERI AZIMU VELO AIN AR TRES W  DIS CAZ7
 BAR2 SZ EP   2    124 27.05                             172   -0.50 5 18.7 198 
 BAR2 SZ I         124 43.91         7.6 0.18                          18.7 198 
 BRR  HZ EP   1    124 29.59                             151    0.17 7 75.3 301 
 BRR  HN ES   1    124 46.20                             151    0.28 7 75.3 301 
 BRR  HZ I         124 48.85         8.4 0.16                          75.3 301 
 PAM  SZ EP        124 30.46                             149    0.0210 80.4  36 
 PAM  SZ I         124 30.73         6.0 0.24                          80.4  36 
 PAM  SN ES   1    124 47.54                             149   -0.20 7 80.4  36 
 RUS  HN ES   2    124 49.71                             145    0.22 5 95.3 177 
 PTB  HZ EP   1    124 35.26                             131    0.13 7  149 261 
 PTB  HN ES   2    124 55.34                             131   -0.74 5  149 261 
 PTB  HZ I         124 58.64         2.5 0.14                           149 261 
                                                                                
