 2015 1122 0918 29.1 L   6.805 -73.137148.3  RSN 18 0.6 2.3LRSN                1
 GAP= 66        1.07       2.7     3.1  5.1 -0.5347E+00  0.4905E+01  0.1251E+01E
 Epicentro: LOS SANTOS - SANTANDER                                             3
 ACTION:UPD 15-12-28 16:12 OP:cam  STATUS:               ID:20151122091829 L   I
 OLDACT:UP  15-12-07 19:17 OP:cma  STATUS:               ID:20151122091829 L   3
 OLDACT:UP  15-12-01 10:58 OP:ak   STATUS:               ID:20151122091829 L   3
 OLDACT:UP  15-11-22 18:52 OP:ak   STATUS:               ID:20151122091200     3
 OLDACT:REG 15-11-22 16:15 OP:ak   STATUS:               ID:20151122091200     3
 2015-11-22-0911-59S.COL___153                                                 6
 STAT SP IPHASW D HRMM SECON CODA AMPLIT PERI AZIMU VELO AIN AR TRES W  DIS CAZ7
 BAR2 EZ IP     C  918 49.03                             170   -0.0510 24.1 192 
 BAR2 EZ ES        919  4.12                             170   -0.5210 24.1 192 
 BAR2 EZ I         919  8.36        26.0 0.32            170           24.1 192 
 BRR  HZ IP     C  918 50.87                             153    0.2910 71.7 298 
 BRR  HN ES        919  7.88                             153    0.5610 71.7 298 
 BRR  HZ I         919 13.24        26.2 0.19            149           71.7 298 
 PAM  EZ IP     C  918 51.95                             151    0.4010 76.4  39 
 PAM  EN ES        919  8.74                             151   -0.3110 76.4  39 
 PAM  EZ I         919 10.78        22.4 0.76            150           76.4  39 
 RUS  HZ EP        918 53.07                             144   -0.0910  101 177 
 RUS  HN ES        919 11.77                             144   -0.1410  101 177 
 RUS  HZ I         919 12.56        22.2 0.22            143            101 177 
 TAM  HZ EP        918 57.26                             131    0.32 9  154 105 
 TAM  HZ I         919 17.82        15.4 0.32            130            154 105 
 TAM  HE ES        919 19.24                             131    0.61 9  154 105 
 OCA  HZ EP        918 57.83                             130    0.24 9  160 353 
 OCA  HN ES        919 19.67                             130   -0.13 9  160 353 
 OCA  HZ I         919 25.91        25.2 0.28            128            160 353 
 SPBC HZ EP        918 57.82                             129   -0.10 9  164 219 
 SPBC HN ES        919 20.35                             129   -0.02 9  164 219 
 SPBC HZ I         919 24.44        27.9 0.38            127            164 219 
 ZAR  HZ EP        919  1.42                             123   -0.38 9  205 292 
 ZAR  HN ES        919 27.45                             123    0.16 9  205 292 
 ZAR  HZ I         919 33.91        22.6 0.58            120            205 292 
 NOR  HZ EP        919  4.92                             119   -0.20 8  236 234 
 NOR  HE ES        919 32.70                             119   -0.49 8  236 234 
 NOR  HZ I         919 38.33        15.9 0.58            117            236 234 
 SML  HZ EP        919  5.47                             118   -0.41 8  244 335 
 SML  HE ES        919 34.20                             118   -0.35 8  244 335 
 SML  HZ I         919 45.88        16.4 0.11            116            244 335 
 HEL  HZ EP   2    919 10.02                             115    0.44 4  273 256 
 HEL  HN ES        919 41.21                             115    0.07 8  273 256 
 HEL  HZ I         919 51.00         7.8 0.22            113            273 256 
 URE  HZ EP        919  9.60                             114   -0.79 7  284 292 
 URE  HE ES   4    919 40.81                             114   -1.77 0  284 292 
 URE  HZ I         919 48.78         9.2 0.24            112            284 292 
 PTGC HZ EP   2    919 11.81                             112   -1.31 4  309 159 
 PTGC HN ES   2    919 43.82                             112   -3.61 4  309 159 
 CBOC HZ EP        919 17.21                             110    0.94 7  335 252 
 CBOC HN ES        919 53.29                             110    0.25 7  335 252 
 CBOC HZ I         920 13.86         3.7 0.46            108            335 252 
 ANIL HN ES   4    919 59.84                             109    1.67 0  358 225 
 ANIL HZ I         920  6.92        20.9 0.40            107            358 225 
 PRA  HZ EP        919 22.82                             107   -0.03 6  393 210 
 PRA  HE ES        920  5.03                             107    0.28 6  393 210 
 PRA  HZ I         920 11.35         8.3 0.26            105            393 210 
 ORTC HZ EP        919 23.86                             107    0.61 6  396 216 
 ORTC HN ES        920  6.38                             107    0.91 6  396 216 
 ORTC HZ I         920 12.01         4.9 0.45            105            396 216 
 PAL  HZ EP   2    919 24.17                             106   -0.33 3  407 239 
 PAL  HE ES   2    920  7.83                             106    0.14 3  407 239 
 PAL  HZ I         920 13.65         4.1 0.48            105            407 239 
                                                                                
