 2017  222 0716 11.0 L   5.883 -73.762105.0  RSN  4 0.1 0.8LRSN                1
 GAP=165        0.40       2.6     1.4  4.8 -0.5040E+00  0.1340E+01  0.2213E-01E
 Epicentro: JESUS MARIA - SANTANDER                                            3
 ACTION:UPD 17-05-24 15:39 OP:jn   STATUS:               ID:20170222071611 L   I
 OLDACT:REG 17-02-22 13:08 OP:cog  STATUS:               ID:20170222070644     3
 2017-02-22-0707-00M.COL___376                                                 6
 STAT SP IPHASW D HRMM SECON CODA AMPLIT PERI AZIMU VELO AIN AR TRES W  DIS CAZ7
 RUS  HZ EP        716 29.17                             142    0.2010 75.2  89 
 RUS  HN ES        716 42.81                             142   -0.1310 75.2  89 
 RUS  HZ I         716 56.05         0.5 0.54            146           75.2  89 
 BAR2 EZ EP        716 30.72                             133   -0.0610  101  39 
 BAR2 EZ ES        716 46.24                             133    0.0610  101  39 
 BAR2 EZ I         716 47.65         2.2 0.36            145            101  39 
 PTB  HZ EP        716 30.73                             131   -0.1510  106 313 
 PTB  HN ES        716 46.42                             131    0.0610  106 313 
 PTB  HZ I         716 46.58         2.2 0.14            149            106 313 
 NOR  HN ES        716 50.21                             125    0.0210  128 254 
                                                                                
