 2012 1222 0756 15.6 L   6.782 -73.170144.3  RSN 11 0.3 2.2LRSN                1
 GAP=109        0.64       2.7     2.4  4.2  0.1214E+01  0.7767E+00 -0.3508E+00E
 Epicentro: LOS SANTOS - SANTANDER                                             3
 ACTION:UPD 13-01-04 14:29 OP:ep   STATUS:               ID:20121222075615 L   I
 2012-12-22-0750-00M.COL___243                                                 6
 STAT SP IPHASW D HRMM SECON CODA AMPLIT PERI AZIMU VELO AIN AR TRES W  DIS CAZ7
 BAR2 SZ EP        756 35.21                             171    0.1710 21.0 184 
 BAR2 SZ I         756 35.56        47.7 0.28                          21.0 184 
 BAR2 SZ ES        756 50.03                             171   -0.1410 21.0 184 
 GIR2 SZ EP        756 35.38                             166    0.2110 32.9 355 
 BRR  HZ EP   1    756 37.10                             153    0.56 7 69.9 301 
 BRR  HZ I         756 37.60        42.7 0.30                          69.9 301 
 BRR  HE ES   1    756 53.37                             153    0.52 7 69.9 301 
 RUS  HZ EP        756 39.17                             144    0.0610 98.8 174 
 RUS  HN ES   1    756 57.25                             144   -0.17 7 98.8 174 
 RUS  HN I         756 58.67        27.4 0.24                          98.8 174 
 PTB  HZ EP        756 42.00                             132   -0.21 9  145 259 
 PTB  HE ES        757  2.68                             132   -0.25 9  145 259 
 PTB  HZ I         757  5.59        17.8 0.26                           145 259 
 TAM  HZ EP        756 43.48                             130    0.10 9  157 104 
 TAM  HN ES   1    757  4.80                             130   -0.23 7  157 104 
 TAM  HZ I         757  5.64        10.7 0.37                           157 104 
 OCA  HZ EP   1    756 43.72                             129   -0.26 7  162 354 
 OCA  HE ES   1    757  5.59                             129   -0.51 7  162 354 
 ZAR  HZ EP   1    756 47.93                             122    0.13 6  202 293 
 ZAR  HE ES   1    757 13.21                             122    0.31 6  202 293 
 ZAR  HZ I         757 19.49        23.3 0.40                           202 293 
 CHI  HZ EP   1    756 52.88                             117   -0.08 6  246 195 
 CHI  HE ES   1    757 21.75                             117   -0.33 6  246 195 
 HEL  HZ EP   1    756 55.83                             115    0.40 6  269 256 
 HEL  HN ES   1    757 26.53                             115    0.06 6  269 256 
 HEL  HZ I         757 34.62        12.6 0.81                           269 256 
 MON  HZ EP   4    757  2.66                             108   -1.82 0  353 309 
 MON  HN ES   1    757 41.66                             108   -0.92 5  353 309 
 MON  HZ I         757 56.95         4.5 0.58                           353 309 
                                                                                
