 2016 1122 0335  3.6 L   6.828 -73.173145.0  RSN 10 0.3 1.9LRSN                1
 GAP=140        0.72       3.9     3.4  4.4 -0.7751E+00  0.3409E+01  0.5850E+01E
 Epicentro: ZAPATOCA - SANTANDER                                               3
 ACTION:UPD 17-10-26 21:10 OP:lp   STATUS:               ID:20161122033503 L   I
 OLDACT:UP  16-11-22 15:04 OP:edw  STATUS:               ID:20161122032742d    3
 OLDACT:UP  16-11-22 15:03 OP:edw  STATUS:               ID:20161122032742d    3
 OLDACT:UP  16-11-22 15:02 OP:edw  STATUS:               ID:20161122032742d    3
 OLDACT:DUP 16-11-22 14:56 OP:edw  STATUS:               ID:20161122032742d    3
 OLDACT:UP  16-11-22 14:55 OP:edw  STATUS:               ID:20161122032741     3
 OLDACT:UP  16-11-22 14:55 OP:edw  STATUS:               ID:20161122032741     3
 OLDACT:UP  16-11-22 14:54 OP:edw  STATUS:               ID:20161122032741     3
 OLDACT:REG 16-11-22 12:43 OP:edw  STATUS:               ID:20161122032741     3
 2016-11-22-0328-00M.COL___347                                                 6
 STAT SP IPHASW D HRMM SECON CODA AMPLIT PERI AZIMU VELO AIN AR TRES W  DIS CAZ7
 BAR2 EZ EP        335 22.97                             170   -0.2610 26.1 182 
 BAR2 EZ ES        335 38.30                             170   -0.2110 26.1 182 
 BAR2 EZ I         335 38.81        23.3 0.26            166           26.1 182 
 BRR  HZ EP     C  335 24.67                             153    0.2010 67.1 297 
 BRR  HE ES        335 41.01                             153    0.2910 67.1 297 
 BRR  HZ I         335 42.56        10.4 0.12            150           67.1 297 
 PAM  EZ EP     D  335 25.80                             150    0.0510 77.0  43 
 PAM  EN ES        335 42.80                             150   -0.1910 77.0  43 
 PAM  EZ I         335 44.69        22.4 0.52            156           77.0  43 
 PTB  HZ EP   9    335 29.77                             132   -0.56 0  145 257 
 PTB  HN ES        335 50.06                             133   -0.53 9  145 257 
 PTB  HZ I         335 56.18         8.1 0.20            129            145 257 
 ZAR  HZ EP        335 35.84                             122    0.22 9  200 292 
 ZAR  HN ES        336  0.75                             122    0.18 9  200 292 
 ZAR  HZ I         336  4.66         8.0 0.28            121            200 292 
 NOR  HZ EP        335 39.06                             118   -0.20 8  234 233 
 NOR  HN ES   4    336  4.74                             118   -2.30 0  234 233 
 NOR  HZ I         336 12.89         2.9 0.03            117            234 233 
 CHI  HN ES   4    336 10.11                             116   -0.99 0  251 194 
 URE  HZ EP   4    335 47.31                             113    3.08 0  280 292 
 URE  HE ES   2    336 14.38                             113   -1.50 4  280 292 
 URE  HZ I         336 22.35         5.0 0.14            113            280 292 
 PRA  HZ EP        335 57.50                             106    0.22 6  393 209 
 PRA  HN ES        336 39.16                             106    0.05 6  393 209 
 PRA  HZ I         336 46.76         2.8 0.36            106            393 209 
 ORTC HZ EP        335 57.86                             106    0.24 6  396 216 
 ORTC HN ES   4    336 39.56                             106   -0.16 0  396 216 
 ORTC HZ I         336 45.79         2.1 0.27            106            396 216 
 SJC  HZ EP   4    335 56.77                             105   -1.90 0  405 327 
 SJC  HN ES   4    336 38.45                             105   -3.15 0  405 327 
 SJC  HZ I         336 42.33         3.0 0.52            106            405 327 
                                                                                
