 2010  722 0407 45.3 L   7.390 -73.197135.5  RSN  5 0.1 1.4LRSN                1
 GAP=150        0.36       3.2     6.0  7.3 -0.2195E+01 -0.2649E+02 -0.4747E+01E
 Epicentro: EL PLAYON - SANTANDER                                              3
 ACTION:UPD 10-12-01 15:19 OP:pat  STATUS:               ID:20100722040745 L   I
 2010-07-22-0404-41S.COL___123                                                 6
 STAT SP IPHASW D HRMM SECON CODA AMPLIT PERI AZIMU VELO AIN AR TRES W  DIS CAZ7
 GUE  SZ EP   1    4 8  5.03                             156    -0.1 7   57  32 
 GUE  SZ I         4 8 20.58         3.4 0.20                            57  32 
 BRR  HZ EP   1    4 8  4.97                             153    -0.1 7   65 241 
 BRR  HZ I         4 8 18.46         8.3 0.40                            65 241 
 BRR  HE ES   1    4 8 20.45                             153     0.1 7   65 241 
 GRA  SZ EP   1    4 8  5.62                             151     0.1 7   70  38 
 GRA  SZ I         4 8 21.64        11.4 0.31                            70  38 
 BAR2 SZ EP   1    4 8  6.85                             145     0.0 7   88 179 
 BAR2 SZ ES   2    4 8 23.36                             145    -0.3 5   88 179 
 BAR2 SZ I         4 8 26.61         5.7 0.39                            88 179 
 RUS  HZ EP   3    4 8 13.62                             126    -0.3 2  166 176 
 RUS  HZ I         4 8 34.15         1.4 0.53                           166 176 
 RUS  HN ES   2    4 8 36.43                             126     0.3 5  166 176 
                                                                                
