 2011  622 0735 18.3 L   6.786 -73.061146.0  RSN 13 0.3 1.9LRSN                1
 GAP=166        0.50       2.2     3.8  4.1 -0.3511E+01  0.1611E+01  0.2245E+01E
 Epicentro: LOS SANTOS - SANTANDER                                             3
 ACTION:UP  11-07-14 19:07 OP:ep   STATUS:               ID:20110622073518 L   I
 2011-06-22-0730-27S.COL___139                                                 6
 STAT SP IPHASW D HRMM SECON CODA AMPLIT PERI AZIMU VELO SNR AR TRES W  DIS CAZ7
 BAR2 SZ IP        735 38.06                             170     0.010   25 212 
 BAR2 SZ ES   2    735 52.87                             170    -0.5 5   25 212 
 BAR2 SZ I         735 54.85        16.9 0.30                            25 212 
 BTL  SZ EP   1    735 38.27                             169     0.2 7   27 303 
 GIR2 SZ EP   1    735 38.20                             166     0.0 7   36 336 
 GIR2 SZ ES   2    735 53.74                             166     0.1 5   36 336 
 BRR  HZ EP   1    735 40.02                             150     0.0 7   80 296 
 BRR  HN ES   1    735 57.32                             150     0.3 7   80 296 
 BRR  HZ I         735 59.21        16.2 0.21                            80 296 
 RUS  HZ EP   1    735 41.82                             144    -0.2 7   99 181 
 RUS  HE ES   2    736  0.47                             144     0.0 5   99 181 
 RUS  HZ I         736  1.55         5.9 0.36                            99 181 
 BRI  SZ EP   1    735 42.67                             142     0.5 7  107  16 
 BRI  SZ ES   1    736  0.84                             142     0.1 7  107  16 
 GRA  SZ EP   1    735 43.29                             137    -0.2 7  125  13 
 GRA  SZ ES   1    736  2.98                             137    -0.2 7  125  13 
 GRA  SZ I         736  4.63        11.1 0.36                           125  13 
 OCA  SZ EP   1    735 46.66                             129    -0.3 7  163 350 
 OCA  SZ ES   1    736  9.10                             129    -0.2 7  163 350 
 OCA  SZ I         736 17.03         8.5 0.35                           163 350 
 NOR  SZ EP   2    735 54.76                             118    -0.1 4  241 236 
 NOR  SN ES   2    736 23.10                             118    -0.2 4  241 236 
 CHI  HZ EP   2    735 55.97                             117    -0.2 4  250 197 
 CHI  HN ES   1    736 25.71                             117     0.0 6  250 197 
 CHI  HZ I         736 31.44         4.2 0.57                           250 197 
 HEL  HZ EP   1    735 59.29                             114    -0.2 6  281 257 
 HEL  HN ES   2    736 31.14                             114    -0.5 4  281 257 
 HEL  HZ I         736 36.19         3.4 0.39                           281 257 
 RREF HZ EP   2    736  5.77                             111     0.6 3  328 231 
 RREF HN ES   2    736 42.26                             111     0.5 3  328 231 
 RREF HZ I         736 49.66         6.9 0.43                           328 231 
 PRA  HZ EP   2    736 12.18                             106    -0.1 3  395 211 
 PRA  HN ES   2    736 54.36                             106     0.0 3  395 211 
                                                                                
