 2014  122 0010 44.5 L   6.782 -73.143146.0  RSN 12 0.4 1.7LRSN                1
 GAP=138        0.91       2.7     3.6  4.9 -0.1650E+01  0.4511E+01 -0.8259E+00E
 Epicentro: LOS SANTOS - SANTANDER                                             3
 ACTION:UPD 14-03-13 09:57 OP:ep   STATUS:               ID:20140122001044 L   I
 OLDACT:REG 14-01-22 07:20 OP:nd   STATUS:               ID:20140122001000     3
 2014-01-22-0010-00M.COL___279                                                 6
 STAT SP IPHASW D HRMM SECON CODA AMPLIT PERI AZIMU VELO AIN AR TRES W  DIS CAZ7
 BAR2 SZ EP        011  4.33                             171    0.2010 21.4 192 
 BAR2 SZ ES        011 18.93                             171   -0.5110 21.4 192 
 BAR2 SZ I         011 20.67        27.0 0.72            177           21.4 192 
 BRR  HZ IP     C  011  6.17                             152    0.4210 72.5 300 
 BRR  HN ES        011 23.27                             152    0.9410 72.5 300 
 BRR  HZ I         011 24.70        13.3 0.28            147           72.5 300 
 PAM  SZ IP     D  011  7.29                             150    0.4610 78.7  38 
 PAM  SN ES        011 24.15                             150   -0.0910 78.7  38 
 PAM  SZ I         011 32.16         4.2 0.60            143           78.7  38 
 RUS  HZ EP        011  8.20                             144    0.0610 98.5 176 
 RUS  HN ES        011 26.37                             144   -0.2010 98.5 176 
 RUS  HZ I         011 27.67         5.5 0.46            145           98.5 176 
 PTB  HZ EP        011 10.90                             132   -0.59 9  148 260 
 PTB  HN ES        011 32.24                             132   -0.29 9  148 260 
 PTB  HZ I         011 38.10         6.6 0.14            129            148 260 
 SPBC HZ EP        011 13.19                             129    0.30 9  162 220 
 SPBC HN ES        011 34.94                             129   -0.10 9  162 220 
 SPBC HZ I         011 36.70         9.2 0.18            128            162 220 
 OCA  HZ EP        011 12.47                             129   -0.56 9  162 353 
 OCA  HN ES   2    011 34.89                             129   -0.38 5  162 353 
 OCA  HZ I         011 43.31         5.4 0.22            123            162 353 
 ZAR  HZ EP        011 17.21                             122    0.14 9  205 293 
 ZAR  HN ES        011 42.19                             122   -0.29 9  205 293 
 ZAR  HZ I         011 48.50         9.5 0.42            118            205 293 
 NOR  HZ EP        011 20.55                             119    0.40 8  234 235 
 NOR  HN ES        011 47.87                             119   -0.08 8  234 235 
 NOR  HZ I         011 50.07         3.0 0.20            116            234 235 
 SML  HZ EP        011 21.15                             117   -0.21 8  246 335 
 SML  HN ES   2    011 49.86                             117   -0.24 4  246 335 
 SML  HZ I         011 55.46         7.8 0.10            112            246 335 
 CHI  HZ EP   2    011 21.80                             117   -0.21 4  247 195 
 CHI  HN ES        011 51.23                             117   -0.04 8  247 195 
 CHI  HZ I         011 54.46         1.6 0.30            115            247 195 
 HEL  HZ EP   2    011 24.46                             115   -0.25 4  272 256 
 HEL  HN ES   3    011 56.61                             115    0.54 2  272 256 
 HEL  HZ I         012  2.66         3.2 0.32            112            272 256 
                                                                                
