 2010  222 0600  1.2 L   6.820 -73.050137.6  RSN 11 0.4 2.0LRSN                1
 GAP=193        0.85       3.6     9.5  6.5  0.4159E+01  0.2036E+02  0.4650E+01E
 Epicentro: LOS SANTOS - SANTANDER                                             3
 ACTION:UP  10-08-24 09:50 OP:vdl  STATUS:               ID:20100222060001 L   I
 2010-02-22-0556-41S.COL___094                                                 6
 STAT SP IPHASW D HRMM SECON CODA AMPLIT PERI AZIMU VELO SNR AR TRES W  DIS CAZ7
 BAR2 SZ IP        6 0 20.25                             167     0.310   29 210 
 GIR2 SZ EP        6 0 19.33                             166    -0.610   33 331 
 GIR2 SZ ES        6 0 34.29                             166    -0.310   33 331 
 BRR  HZ IP        6 0 22.14                             148     0.110   80 294 
 BRR  HZ I         6 0 22.59        24.0 0.14                            80 294 
 BRR  HN ES   2    6 0 38.41                             148     0.2 5   80 294 
 RUS  BZ EP        6 0 24.10                             141    -0.210  103 182 
 RUS  BE ES   1    6 0 42.86                             141     0.5 7  103 182 
 RUS  BZ I         6 0 43.92         9.5 0.41                           103 182 
 OCA  SZ EP        6 0 29.07                             128     0.2 9  160 349 
 OCA  SZ ES        6 0 50.55                             128     0.2 9  160 349 
 OCA  SZ I         6 0 56.97        25.7 0.46                           160 349 
 CHI  HZ EP   2    6 0 38.94                             115    -0.1 4  254 197 
 CHI  HE ES   3    6 1  7.59                             115    -0.9 2  254 197 
 CHI  HZ I         6 1 15.67         3.0 0.50                           254 197 
 HEL  HZ EP        6 0 42.49                             112     0.3 7  283 256 
 HEL  HZ I         6 1 19.51         4.0 0.28                           283 256 
 RREF BZ EP   2    6 0 48.93                             108     0.8 3  331 230 
 RREF BN ES   3    6 1 24.42                             108    -0.3 2  331 230 
 RREF BZ I         6 1 30.34         6.1 0.24                           331 230 
 DBB  SZ EP   2    6 0 48.34                             107    -1.2 3  350 274 
 TOL  SZ EP   2    6 0 50.40                             107     0.2 3  353 226 
 PRA  HZ EP   2    6 0 54.87                             105    -0.4 3  399 211 
 PRA  HZ I         6 1 39.96         4.4 0.39                           399 211 
                                                                                
