 2014  622 0845 13.4 L   6.835 -73.119144.5  RSN  5 0.5 1.5LRSN                1
 GAP=186        1.15       5.5     6.9 10.4 -0.3028E+00  0.2199E+02 -0.2407E+02E
 Epicentro: LOS SANTOS - SANTANDER                                             3
 ACTION:UPD 14-07-01 22:55 OP:nd   STATUS:               ID:20140622084513 L   I
 OLDACT:REG 14-06-22 14:21 OP:carl STATUS:               ID:20140622083815     3
 2014-06-22-0838-15M.COL___256                                                 6
 STAT SP IPHASW D HRMM SECON CODA AMPLIT PERI AZIMU VELO AIN AR TRES W  DIS CAZ7
 BAR2 SZ EP        845 33.06                             169    0.1210 27.7 195 
 BAR2 SZ ES        845 48.58                             169    0.3710 27.7 195 
 BAR2 SZ I         845 51.14         4.4 0.28            171           27.7 195 
 RUS  HN ES        845 55.88                             142   -0.0210  104 178 
 PTB  HZ EP        845 40.11                             131   -0.46 9  151 258 
 PTB  HN ES        846  1.12                             131   -0.66 9  151 258 
 PTB  HZ I         846  7.08         3.4 0.30            133            151 258 
 OCA  HZ EP        845 41.52                             130    0.26 9  157 352 
 OCA  HE ES        846  2.39                             130   -0.62 9  157 352 
 OCA  HZ I         846  9.19         4.9 0.26            132            157 352 
 ZAR  HZ EP        845 46.12                             122    0.25 8  205 291 
 ZAR  HE ES        846 12.08                             122    0.86 8  205 291 
 ZAR  HZ I         846 17.67         4.1 0.28            124            205 291 
                                                                                
