 2014  922 0731  7.1 L   6.790 -73.175142.0  RSN  6 0.3 1.4LRSN                1
 GAP=198        0.85       3.4     5.2  5.7  0.3478E+01  0.2071E+01 -0.3918E+01E
 Epicentro: LOS SANTOS - SANTANDER                                             3
 ACTION:UPD 14-10-03 23:07 OP:nd   STATUS:               ID:20140922073107 L   I
 OLDACT:REG 14-09-22 12:54 OP:cam  STATUS:               ID:20140922073000     3
 2014-09-22-0730-00M.COL___252                                                 6
 STAT SP IPHASW D HRMM SECON CODA AMPLIT PERI AZIMU VELO AIN AR TRES W  DIS CAZ7
 BAR2 SZ EP        731 26.21                             171   -0.0810 21.9 182 
 BAR2 SZ ES        731 40.86                             171   -0.3610 21.9 182 
 BAR2 SZ I         731 42.22         5.7 0.24            171           21.9 182 
 BRR  HZ EP        731 28.16                             153    0.4010 69.0 301 
 BRR  HN ES        731 44.36                             153    0.5310 69.0 301 
 BRR  HZ I         731 45.91         6.0 0.56            150           69.0 301 
 RUS  HZ EP        731 30.32                             143   -0.1410 99.7 174 
 RUS  HN ES        731 48.78                             143    0.1310 99.7 174 
 RUS  HZ I         731 50.28         2.2 0.44            145           99.7 174 
 PTB  HZ EP        731 33.36                             132   -0.14 9  144 259 
 PTB  HN ES        731 53.82                             132   -0.23 9  144 259 
 PTB  HZ I         731 58.41         2.9 0.10            131            144 259 
 SPBC HZ EP        731 35.05                             129   -0.03 9  160 218 
 SPBC HN ES        731 56.90                             129    0.03 9  160 218 
 SPBC HZ I         731 59.57         3.0 0.28            129            160 218 
 SML  HZ EP        731 44.02                             117    0.49 8  243 336 
 SML  HE ES        732 11.20                             117   -0.71 8  243 336 
 SML  HZ I         732 16.33         1.8 0.10            117            243 336 
                                                                                
