 2011  622 0354 40.2 L   6.763 -73.076147.1  RSN  7 0.2 1.5LRSN                1
 GAP=164        0.55       3.5     6.7  5.2 -0.5875E+01 -0.1091E+02  0.7907E+00E
 Epicentro: LOS SANTOS - SANTANDER                                             3
 ACTION:UP  11-07-14 19:07 OP:ep   STATUS:               ID:20110622035440 L   I
 2011-06-22-0349-15S.COL___140                                                 6
 STAT SP IPHASW D HRMM SECON CODA AMPLIT PERI AZIMU VELO SNR AR TRES W  DIS CAZ7
 BAR2 SZ EP   1    354 59.85                             171    -0.1 7   22 212 
 BAR2 SZ ES   1    355 15.16                             171    -0.2 7   22 212 
 BAR2 SZ I         355 16.70        12.1 0.23                            22 212 
 BTL  SZ EP   1    355  0.63                             169     0.5 7   27 309 
 BTL  SZ ES   2    355 16.06                             169     0.5 5   27 309 
 GIR2 SZ EP   1    354 59.87                             165    -0.3 7   37 340 
 GIR2 SZ ES   2    355 15.56                             165    -0.3 5   37 340 
 BRR  HZ EP   1    355  1.80                             150    -0.2 7   80 298 
 BRR  HE ES   1    355 19.09                             150     0.1 7   80 298 
 BRR  HZ I         355 23.22         6.3 0.62                            80 298 
 RUS  HZ EP   1    355  3.88                             145     0.1 7   96 180 
 RUS  HZ I         355 22.21         3.2 0.64                            96 180 
 RUS  HE ES   2    355 22.22                             145     0.0 5   96 180 
 BRI  SZ EP   1    355  4.47                             141     0.1 7  110  16 
 BRI  SZ ES   2    355 23.08                             141    -0.1 5  110  16 
 GRA  SZ EP   1    355  5.65                             137    -0.1 7  128  14 
 GRA  SZ ES   1    355 25.71                             137     0.1 7  128  14 
 GRA  SZ I         355 26.96         3.3 0.49                           128  14 
                                                                                
