 2013  122 0233 32.5 L   6.436 -73.770 85.6  RSN  8 0.5 1.6LRSN                1
 GAP= 83        1.34       4.8     3.9  9.6  0.4275E+01  0.1067E+02  0.1008E+02E
 Epicentro: SANTA HELENA DEL OPON - SANTANDER                                  3
 ACTION:UPD 13-02-15 09:15 OP:ep   STATUS:               ID:20130122023332 L   I
 2013-01-22-0228-35M.COL___181                                                 6
 STAT SP IPHASW D HRMM SECON CODA AMPLIT PERI AZIMU VELO AIN AR TRES W  DIS CAZ7
 BAR2 SZ ES        233 59.69                             139    0.3310 67.2  75 
 BAR2 SZ I         234  1.90        11.2 0.44            142           67.2  75 
 BRR  HZ EP        233 47.55                             136   -0.3210 74.5   5 
 BRR  HN ES        234  0.10                             136    0.2410 74.5   5 
 PTB  HZ IP        233 47.15                             135   -0.9410 76.8 279 
 PTB  HE ES        234  0.15                             135   -0.1110 76.8 279 
 RUS  HZ EP        233 50.44                             128   -0.1610 96.9 128 
 RUS  HN ES        234  4.85                             128    0.1210 96.9 128 
 RUS  HN I         234  7.12         6.9 0.30            131           96.9 128 
 PAM  SZ EP   1    233 57.81                             114    1.05 7  155  50 
 PAM  SN ES        234 14.90                             114   -0.79 9  155  50 
 ZAR  HZ EP        233 57.36                             112   -0.25 9  168 314 
 ZAR  HN ES        234 18.12                             112    0.92 9  168 314 
 ZAR  HN I         234 22.76         9.9 0.52            114            168 314 
 HEL  HZ EP        234  1.51                             109    0.10 9  197 262 
 CHI  HZ EP        234  2.40                             108    0.55 9  200 179 
                                                                                
