 2013 1122 0943 45.9 L   6.432 -73.197140.3  RSN  5 0.8 1.4LRSN                1
 GAP=270        1.48      20.4    14.9 14.4  0.4803E+02  0.7262E+02  0.5016E+02E
 Epicentro: PARAMO - SANTANDER                                                 3
 ACTION:UPD 14-01-09 16:30 OP:ep   STATUS:               ID:20131122094311 L   I
 OLDACT:UP  13-12-04 17:21 OP:ep   STATUS:               ID:20131122094311 L   3
 OLDACT:UP  13-12-04 17:21 OP:ep   STATUS:               ID:20131122094311 L   3
 OLDACT:UP  13-12-04 16:56 OP:ep   STATUS:               ID:20131122094311 L   3
 OLDACT:UP  13-11-22 14:46 OP:mh   STATUS:               ID:20131122094001d    3
 OLDACT:DUP 13-11-22 14:43 OP:mh   STATUS:               ID:20131122094001d    3
 OLDACT:UP  13-11-22 14:42 OP:mh   STATUS:               ID:20131122094000     3
 OLDACT:REG 13-11-22 11:32 OP:mh   STATUS:               ID:20131122094000     3
 2013-11-22-0940-00M.COL___282                                                 6
 STAT SP IPHASW D HRMM SECON CODA AMPLIT PERI AZIMU VELO AIN AR TRES W  DIS CAZ7
 BAR2 SZ EP   3    944  5.71                             173    0.96 2 17.7   5 
 BAR2 SZ ES   1    944 19.72                             173    0.24 7 17.7   5 
 BAR2 SZ I         944 21.23        10.1 0.27            178           17.7   5 
 RUS  HN ES   4    944 26.52                             155    3.75 0 61.0 168 
 RUS  HZ I         944 28.08         2.0 0.24            150           61.0 168 
 BRR  HZ EP        944  8.15                             144    0.2410 93.8 323 
 BRR  HN ES        944 24.57                             144   -0.5310 93.8 323 
 PTB  HZ EP   1    944 10.01                             132   -1.67 7  140 275 
 PTB  HN ES   1    944 32.56                             132    0.76 7  140 275 
 PTB  HZ I         944 33.52         3.1 0.22            132            140 275 
 ZAR  HZ EP        944 20.23                             119    0.81 8  218 303 
 ZAR  HN ES   1    944 45.57                             119   -0.01 6  218 303 
 ZAR  HZ I         944 50.54         2.4 0.26            121            218 303 
                                                                                
