 2011  822 0132 24.1 L   6.834 -73.070137.4  RSN  5 0.3 1.8LRSN                1
 GAP=191        0.64       3.3     6.4  6.7  0.6342E+00 -0.7355E-01 -0.3273E+01E
 Epicentro: LOS SANTOS - SANTANDER                                             3
 ACTION:UPD 12-07-13 15:53 OP:ep   STATUS:               ID:20110822013224 L   I
 2011-08-22-0128-30S.COL___152                                                 6
 STAT SP IPHASW D HRMM SECON CODA AMPLIT PERI AZIMU VELO AIN AR TRES W  DIS CAZ7
 BAR2 SZ EP   1    132 42.93                             167    0.00 7 29.5 205 
 BAR2 SZ ES   1    132 57.00                             167   -0.57 7 29.5 205 
 BAR2 SZ I         132 58.55        11.7 0.21                          29.5 205 
 BRR  HZ EP   1    132 44.64                             149   -0.12 7 77.1 293 
 BRR  HZ I         132 44.92        17.3 0.19                          77.1 293 
 BRR  HE ES   1    133  1.38                             149    0.54 7 77.1 293 
 RUS  HZ EP   1    132 47.57                             141    0.21 7  104 181 
 RUS  HN ES   1    133  5.73                             141    0.27 7  104 181 
 OCA  SZ EP   1    132 51.55                             128   -0.03 7  158 350 
 OCA  SZ ES   1    133 12.88                             128   -0.10 7  158 350 
 OCA  SZ I         133 16.25        10.2 0.41                           158 350 
 NOR  SN ES   1    133 28.33                             116   -0.34 6  244 235 
                                                                                
