 2014  222 0406 16.0 L   6.933 -73.425  0.0  RSN  4 0.6 1.3LRSN                1
 GAP=157        1.01       3.0     4.2 10.8  0.1673E+01  0.1198E+02 -0.1072E+02E
 Epicentro: SAN VICENTE DE CHUCURI - SANTANDER                                 3
 ACTION:UPD 14-03-10 08:12 OP:ep   STATUS:               ID:20140222040616 L   I
 OLDACT:REG 14-02-22 09:49 OP:fm   STATUS:               ID:20140222035945     3
 2014-02-22-0359-45M.COL___226                                                 6
 STAT SP IPHASW D HRMM SECON CODA AMPLIT PERI AZIMU VELO AIN AR TRES W  DIS CAZ7
 RUS  HZ EP     C  4 6 35.58                              47   -0.4610  121 162 
 RUS  HN ES   1    4 6 52.54                              47    0.87 7  121 162 
 RUS  HZ I         4 6 55.15         2.2 0.34             47            121 162 
 PTB  HZ EP   2    4 6 34.78                              47   -0.91 5  122 249 
 PTB  HN ES   2    4 6 50.85                              47   -0.19 5  122 249 
 OCA  HZ EP   2    4 6 38.54                              47   -0.74 5  145   5 
 OCA  HN ES        4 6 57.60                              47    0.1710  145   5 
 OCA  HZ I         4 6 58.94         7.5 0.40             47            145   5 
 ZAR  HZ EP   4    4 6 41.56                              47   -1.37 0  170 291 
 ZAR  HN ES        4 7  4.24                              47    0.31 9  170 291 
 ZAR  HZ I         4 7  8.63         6.8 0.30             47            170 291 
                                                                                
