 2010  922 0254 55.2 L   6.770 -73.130155.0  RSN  4 0.2 1.3LRSN                1
 GAP=161        0.49       6.4    10.7 11.9  0.2851E+02 -0.6752E+02 -0.4156E+02E
 Epicentro: LOS SANTOS - SANTANDER                                             3
 ACTION:UP  11-02-18 11:04 OP:tino STATUS:               ID:20100922025455 L   I
 2010-09-22-0252-12S.COL___122                                                 6
 STAT SP IPHASW D HRMM SECON CODA AMPLIT PERI AZIMU VELO SNR AR TRES W  DIS CAZ7
 BTL  SZ EP   1    255 16.28                             171     0.4 7   22 317 
 BRR  HZ EP        255 17.42                             153    -0.110   74 300 
 BRR  HZ I         255 17.76         8.3 0.20                            74 300 
 BRR  HE ES   2    255 34.97                             153     0.0 5   74 300 
 RUS  HZ EP   2    255 19.69                             147     0.1 5   97 177 
 RUS  HE ES   2    255 38.48                             147    -0.2 5   97 177 
 RUS  HZ I         255 39.03         1.2 0.23                            97 177 
 GRA  SZ EP   1    255 21.38                             138    -0.1 7  128  16 
 GRA  SZ I         255 27.30         2.4 0.61                           128  16 
                                                                                
