 2017  722 0952 51.5 L   6.800 -73.127149.8  RSN  9 0.4 1.8LRSN                1
 GAP=139        0.93       3.8     3.8  5.5 -0.2175E+01  0.5156E+01  0.1165E+01E
 Epicentro: LOS SANTOS - SANTANDER                                             3
 ACTION:UPD 17-08-30 15:35 OP:rebc STATUS:               ID:20170722095251 L   I
 OLDACT:UP  17-07-22 16:49 OP:dnl  STATUS:               ID:20170722094738     3
 OLDACT:REG 17-07-22 13:20 OP:dnl  STATUS:               ID:20170722094738     3
 2017-07-22-0948-00M.COL___374                                                 6
 STAT SP IPHASW D HRMM SECON CODA AMPLIT PERI AZIMU VELO AIN AR TRES W  DIS CAZ7
 BAR2 EZ IP     C  953 11.54                             171   -0.0610 23.8 195 
 BAR2 EZ ES        953 27.63                             171    0.3310 23.8 195 
 BAR2 EZ I         953 28.11        31.7 0.22            170           23.8 195 
 BRR  HZ EP   2    953 12.64                             153   -0.52 5 73.0 298 
 BRR  HN ES        953 30.57                             153    0.4910 73.0 298 
 BRR  HZ I         953 34.79        13.1 0.44            151           73.0 298 
 PAM  EZ EP        953 14.42                             152    0.3710 76.1  38 
 PAM  EN ES        953 31.26                             152   -0.3910 76.1  38 
 PAM  EZ I         953 33.15         6.2 0.16            155           76.1  38 
 RUS  HZ EP        953 15.56                             145   -0.0610  100 177 
 RUS  HN ES        953 34.22                             145   -0.2310  100 177 
 RUS  HZ I         953 35.36         5.2 0.40            147            100 177 
 PTB  HZ EP        953 18.38                             132   -0.57 9  150 259 
 PTB  HN ES        953 39.55                             132   -0.84 9  150 259 
 PTB  HZ I         953 44.66         4.7 0.34            132            150 259 
 SPBC HZ EP        953 20.46                             130    0.05 9  164 220 
 SPBC HN ES        953 43.18                             130    0.21 9  164 220 
 SPBC HZ I         953 47.72        12.0 0.26            131            164 220 
 ZAR  HZ EP        953 24.70                             123    0.32 8  206 292 
 ZAR  HN ES        953 50.07                             123    0.02 8  206 292 
 ZAR  HZ I         953 54.96         8.9 0.30            124            206 292 
 NOR  HZ EP        953 27.87                             119    0.25 8  236 235 
 NOR  HN ES        953 56.22                             119    0.41 8  236 235 
 NOR  HZ I         953 59.98         4.3 0.38            120            236 235 
 GUY2CHZ EP   9    953 36.73                             113    1.27 0  303 235 
 GUY2CHN ES        954 11.17                             113    0.13 7  303 235 
 GUY2CHZ I         954 18.14         3.7 0.26                           303 235 
                                                                                
