 2014  522 0628 40.2 L   6.683 -73.203147.7  RSN  4 0.3 1.0LRSN                1
 GAP=221        0.74       6.6     6.2  8.3  0.2789E+02 -0.4482E+01 -0.1270E+02E
 Epicentro: VILLANUEVA - SANTANDER                                             3
 ACTION:UPD 15-03-16 16:59 OP:nd   STATUS:               ID:20140522062840 L   I
 OLDACT:REG 14-05-22 13:16 OP:spq  STATUS:               ID:20140522061807     3
 2014-05-22-0618-07M.COL___252                                                 6
 STAT SP IPHASW D HRMM SECON CODA AMPLIT PERI AZIMU VELO AIN AR TRES W  DIS CAZ7
 BRR  HZ EP        629  2.09                             152    0.3710 73.2 310 
 BRR  HN ES   1    629 18.45                             152   -0.02 7 73.2 310 
 BRR  HZ I         629 55.60         2.7 0.19            129           73.2 310 
 RUS  HZ EP        629  3.35                             148    0.0010 88.4 171 
 RUS  HN ES        629 21.15                             148   -0.2210 88.4 171 
 RUS  HZ I         629 23.23         1.1 0.53            144           88.4 171 
 PTB  HZ EP        629  6.45                             134   -0.18 9  139 264 
 PTB  HE ES        629 27.61                             134    0.39 9  139 264 
 PTB  HZ I         629 28.85         1.1 0.12            138            139 264 
 ZAR  HN ES        629 37.67                             123   -0.46 9  204 296 
 ZAR  HZ I         629 43.57         0.8 0.19            122            204 296 
                                                                                
