 2013  322 0018 58.3 L   6.776 -73.151149.7  RSN  4 0.2 1.4LRSN                1
 GAP=137        0.61       3.5     3.3  5.7 -0.1594E+01  0.8211E+00  0.3866E+01E
 Epicentro: LOS SANTOS - SANTANDER                                             3
 ACTION:UPD 13-04-09 14:04 OP:ep   STATUS:               ID:20130322001858 L   I
 2013-03-22-0010-00M.COL___245                                                 6
 STAT SP IPHASW D HRMM SECON CODA AMPLIT PERI AZIMU VELO AIN AR TRES W  DIS CAZ7
 BRR  HN ES        019 37.18                             153    0.3610 72.0 301 
 PAM  SZ EP     C  019 21.21                             151    0.1010 79.8  39 
 PAM  SN ES        019 38.61                             151   -0.2710 79.8  39 
 RUS  HZ EP        019 22.50                             145    0.2110 98.0 176 
 RUS  HN ES        019 40.93                             145   -0.0510 98.0 176 
 RUS  HN I         019 42.03         3.7 0.22            145           98.0 176 
 PTB  HZ EP        019 25.36                             133   -0.18 9  147 260 
 PTB  HN ES        019 46.52                             133   -0.23 9  147 260 
 PTB  HN I         019 47.80         3.4 0.18            133            147 260 
                                                                                
