 2016 1122 0738 44.5 L   6.775 -73.141150.1  RSN  8 0.5 1.5LRSN                1
 GAP=121        1.08       4.8     4.6  7.6  0.3174E+01  0.1762E+01  0.1744E+02E
 Epicentro: LOS SANTOS - SANTANDER                                             3
 ACTION:UPD 17-10-26 21:10 OP:lp   STATUS:               ID:20161122073844 L   I
 OLDACT:UP  16-11-22 16:56 OP:edw  STATUS:               ID:20161122073744     3
 OLDACT:REG 16-11-22 13:12 OP:edw  STATUS:               ID:20161122073744     3
 2016-11-22-0738-00M.COL___349                                                 6
 STAT SP IPHASW D HRMM SECON CODA AMPLIT PERI AZIMU VELO AIN AR TRES W  DIS CAZ7
 BAR2 EZ EP        739  4.77                             172    0.1410 20.7 193 
 BAR2 EZ ES        739 19.99                             172   -0.3210 20.7 193 
 BAR2 EZ I         739 20.78         6.7 0.34            170           20.7 193 
 BRR  HZ IP     C  739  6.56                             153    0.3210 72.9 300 
 BRR  HN ES        739 23.69                             153    0.5110 72.9 300 
 BRR  HZ I         739 24.31         5.8 0.15            150           72.9 300 
 PAM  EZ EP     C  739  7.57                             151    0.2610 79.2  38 
 PAM  EN ES        739 24.89                             151   -0.1910 79.2  38 
 PAM  EZ I         739 26.95         6.0 0.50            153           79.2  38 
 PTB  HZ EP        739 11.51                             133   -0.34 9  148 260 
 PTB  HN ES        739 32.52                             133   -0.64 9  148 260 
 PTB  HZ I         739 38.16         4.1 0.12            131            148 260 
 ZAR  HZ EP   4    739 18.87                             123    1.46 0  206 293 
 ZAR  HN ES        739 42.89                             123   -0.17 8  206 293 
 ZAR  HZ I         739 48.98         3.3 0.19            122            206 293 
 CHI  HZ EP        739 22.36                             118    0.16 8  246 195 
 CHI  HN ES        739 52.65                             118    1.07 8  246 195 
 CHI  HZ I         739 54.63         1.8 0.30            118            246 195 
 PTGC HZ EP        739 27.90                             112   -0.38 7  306 159 
 PTGC HN ES        740  1.75                             112   -0.65 7  306 159 
 PRA  HZ EP   4    739 35.92                             107   -2.04 0  390 210 
 PRA  HN ES   4    740 16.59                             107   -3.03 0  390 210 
 PRA  HZ I         740 24.29         1.1 0.62            107            390 210 
 SJC  HZ EP   4    739 39.05                             106   -1.49 0  412 327 
 SJC  HN ES   4    740 21.14                             106   -3.08 0  412 327 
                                                                                
