 2012 1222 0308 17.9 L   6.757 -73.139154.5  RSN 10 0.4 2.0LRSN                1
 GAP=139        0.82       3.8     4.6  5.3  0.1559E+01  0.3260E+01 -0.4882E+00E
 Epicentro: LOS SANTOS - SANTANDER                                             3
 ACTION:UPD 13-01-04 14:29 OP:ep   STATUS:               ID:20121222030817 L   I
 2012-12-22-0300-00M.COL___243                                                 6
 STAT SP IPHASW D HRMM SECON CODA AMPLIT PERI AZIMU VELO AIN AR TRES W  DIS CAZ7
 BAR2 SZ EP     C  3 8 38.71                             173    0.1910 18.8 195 
 BAR2 SZ ES        3 8 54.77                             173    0.1810 18.8 195 
 BAR2 SZ I         3 8 56.71        27.4 0.29                          18.8 195 
 GIR2 SZ EP   1    3 8 38.94                             166    0.18 7 36.1 350 
 BRR  HZ EP        3 8 40.37                             153    0.1910 74.2 301 
 BRR  HZ I         3 8 40.89        16.6 0.19                          74.2 301 
 BRR  HN ES        3 8 57.95                             153    0.4110 74.2 301 
 PAM  SZ EP   1    3 8 41.52                             151    0.26 7 80.7  37 
 PAM  SN ES   1    3 8 58.72                             151   -0.74 7 80.7  37 
 PAM  SZ I         3 8 59.60         5.8 0.24                          80.7  37 
 RUS  HZ EP        3 8 42.61                             147    0.4010 95.8 176 
 RUS  HN ES   1    3 9  0.48                             147   -0.68 7 95.8 176 
 RUS  HE ES   1    3 9  1.36                                           95.8 176 
 RUS  HE I         3 9  2.39        18.0 0.49                          95.8 176 
 PTB  HZ EP        3 8 45.57                             134   -0.02 9  148 261 
 PTB  HE ES   1    3 9  6.98                             134   -0.20 7  148 261 
 PTB  HZ I         3 9  9.70        11.4 0.08                           148 261 
 OCA  HZ EP   1    3 8 47.34                             131   -0.02 7  165 353 
 OCA  HN ES   1    3 9  9.99                             131   -0.34 7  165 353 
 OCA  HZ I         3 9 14.67        11.2 0.21                           165 353 
 ZAR  HZ EP   1    3 8 51.26                             124    0.06 6  207 293 
 ZAR  HE ES   1    3 9 16.58                             124   -0.57 6  207 293 
 ZAR  HZ I         3 9 23.53        12.5 0.42                           207 293 
 CHI  HZ EP   1    3 8 54.83                             119   -0.81 6  244 196 
 SML  HZ EP   1    3 8 55.39                             119   -0.15 6  248 336 
                                                                                
