 2017  422 0743 44.2 L   6.653 -73.148150.1  RSN  5 0.3 1.4LRSN                1
 GAP=176        0.65       8.2     4.2  5.3 -0.3814E+01  0.8737E-01 -0.1110E+02E
 Epicentro: VILLANUEVA - SANTANDER                                             3
 ACTION:UPD 17-05-30 21:15 OP:jn   STATUS:               ID:20170422074344 L   I
 OLDACT:REG 17-04-22 12:00 OP:dnl  STATUS:               ID:20170422073012     3
 2017-04-22-0738-00M.COL___368                                                 6
 STAT SP IPHASW D HRMM SECON CODA AMPLIT PERI AZIMU VELO AIN AR TRES W  DIS CAZ7
 BAR2 EZ EP        744  4.42                             177    0.2910 7.71 209 
 BAR2 EZ ES        744 19.75                             177    0.0610 7.71 209 
 BAR2 EZ I         744 21.01         7.9 0.20            172           7.71 209 
 BRR  HZ EP        744  6.16                             150   -0.1510 80.0 309 
 BRR  HN ES        744 23.69                             150    0.1210 80.0 309 
 BRR  HZ I         744 28.04         4.3 0.50            146           80.0 309 
 PAM  EZ EP        744  7.36                             148   -0.3210 90.7  33 
 PAM  EE ES   4    744 24.35                             148   -1.66 0 90.7  33 
 PAM  EZ I         744 26.55         2.6 0.44            150           90.7  33 
 PTB  HZ EP   2    744 11.12                             133   -0.16 5  145 265 
 PTB  HN ES        744 32.12                             133   -0.30 9  145 265 
 PTB  HZ I         744 39.19         2.3 0.32            132            145 265 
 ZAR  HZ EP        744 17.98                             122    0.41 8  210 296 
 ZAR  HN ES   4    744 40.95                             122   -2.66 0  210 296 
 ZAR  HZ I         744 47.56         3.8 0.26            122            210 296 
                                                                                
