 2017  122 0759 12.3 L   6.771 -73.142146.7  RSN  5 0.3 0.9LRSN                1
 GAP=138        0.68       5.1     4.2  5.6  0.2762E+01 -0.2518E+01 -0.2622E+00E
 Epicentro: LOS SANTOS - SANTANDER                                             3
 ACTION:UPD 17-05-22 16:02 OP:jn   STATUS:               ID:20170122075912 L   I
 OLDACT:REG 17-01-22 13:19 OP:dani STATUS:               ID:20170122075739     3
 2017-01-22-0758-00M.COL___331                                                 6
 STAT SP IPHASW D HRMM SECON CODA AMPLIT PERI AZIMU VELO AIN AR TRES W  DIS CAZ7
 BAR2 EZ EP        759 31.80                             172   -0.1610 20.2 193 
 BAR2 EZ ES        759 46.99                             172   -0.3210 20.2 193 
 BAR2 EZ I         759 49.52         2.7 0.42            169           20.2 193 
 BRR  HN ES        759 50.64                             152    0.3510 73.1 301 
 PAM  EZ EP        759 34.69                             150   -0.0310 79.7  38 
 RUS  HZ EP        759 35.89                             145    0.0010 97.3 176 
 RUS  HE ES   1    759 54.75                             145    0.45 7 97.3 176 
 RUS  HZ I         759 55.61         1.1 0.33            145           97.3 176 
 PTB  HZ EP        759 39.50                             132    0.20 9  148 260 
 PTB  HN ES        8 0  0.06                             132   -0.31 9  148 260 
 PTB  HZ I         8 0  4.25         0.6 0.06            132            148 260 
                                                                                
