 2016  922 0447 23.3 L   6.812 -73.143149.9  RSN  8 0.4 1.7LRSN                1
 GAP=150        1.06       4.8     5.0  7.6 -0.4727E+01  0.6200E+01  0.9161E+01E
 Epicentro: LOS SANTOS - SANTANDER                                             3
 ACTION:UPD 17-08-17 21:15 OP:lp   STATUS:               ID:20160922044723 L   I
 OLDACT:UP  16-09-23 00:03 OP:ar   STATUS:               ID:20160922043736     3
 OLDACT:REG 16-09-22 11:41 OP:and  STATUS:               ID:20160922043736     3
 2016-09-22-0438-00M.COL___369                                                 6
 STAT SP IPHASW D HRMM SECON CODA AMPLIT PERI AZIMU VELO AIN AR TRES W  DIS CAZ7
 BAR2 EZ EP        447 43.29                             170   -0.1510 24.7 190 
 BAR2 EZ ES        447 58.61                             170   -0.5410 24.7 190 
 BAR2 EZ I         448  1.95         8.2 0.80            169           24.7 190 
 BRR  HZ IP     C  447 45.21                             153    0.3510 70.8 297 
 BRR  HN ES        448  2.42                             153    0.7410 70.8 297 
 BRR  HZ I         448  5.23         4.6 0.32            151           70.8 297 
 PAM  EZ EP        447 46.13                             152    0.2610 76.2  40 
 PAM  EE ES        448  3.32                             152   -0.1610 76.2  40 
 PAM  EZ I         448  4.52         5.8 0.16            156           76.2  40 
 PTB  HZ EP        447 50.10                             133   -0.54 9  148 258 
 PTB  HE ES        448 11.70                             133   -0.27 9  148 258 
 PTB  HZ I         448 17.23         4.7 0.50            133            148 258 
 SPBC HZ EP        447 51.97                             130   -0.25 9  164 219 
 SPBC HN ES        448 14.69                             130   -0.09 9  164 219 
 SPBC HZ I         448 17.26         7.7 0.22            131            164 219 
 ZAR  HN ES        448 21.44                             123   -0.03 9  204 292 
 ZAR  HZ I         448 28.12         4.5 0.54            124            204 292 
 CHI  HN ES        448 31.97                             118    0.91 8  250 195 
 CHI  HN I         448 33.14         4.1 0.22            120            250 195 
 GUY2CHZ EP   2    448  6.79                             113   -0.41 4  302 235 
 GUY2CHZ I         448 49.90         2.7 0.44                           302 235 
                                                                                
