 2012  222 0824  3.6 L   5.911 -73.971113.6  RSN  4 0.2 1.3LRSN                1
 GAP=158        0.47       4.4     3.8  8.5 -0.1128E+02 -0.9165E+01  0.8730E+01E
 ACTION:UP  12-03-07 16:33 OP:epov STATUS:               ID:20120222082403 L   I
 2012-02-22-0820-00M.COL___191                                                 6
 STAT SP IPHASW D HRMM SECON CODA AMPLIT PERI AZIMU VELO AIN AR TRES W  DIS CAZ7
 RUS  HZ EP   1    824 24.02                             136   -0.18 7 98.3  91 
 RUS  HZ I         824 24.21         1.3 0.09                          98.3  91 
 NOR  SZ EP   1    824 24.05                             134   -0.26 7  107 249 
 NOR  SN ES   1    824 40.61                             134    0.17 7  107 249 
 BAR2 SZ EP   1    824 25.60                             131    0.25 7  115  49 
 BAR2 SZ I         824 25.76         5.3 0.10                           115  49 
 BAR2 SZ ES   1    824 42.32                             131    0.04 7  115  49 
 BRR  HZ EP   1    824 27.16                             126    0.22 7  135  12 
 BRR  HZ I         824 27.45         5.7 0.12                           135  12 
 BRR  HE ES   1    824 44.87                             126   -0.24 7  135  12 
                                                                                
