 2016  622 0616  4.9 L   6.306 -73.582112.1  RSN  6 0.3 1.2LRSN                1
 GAP=163        0.80       3.2     3.8  7.0 -0.2541E+01  0.1011E+02  0.9140E+00E
 Epicentro: SANTA HELENA DEL OPON - SANTANDER                                  3
 ACTION:UPD 16-07-21 22:21 OP:rebc STATUS:               ID:20160622061604 L   I
 OLDACT:REG 16-06-22 13:56 OP:ak   STATUS:               ID:20160622060743     3
 2016-06-22-0607-43M.COL___316                                                 6
 STAT SP IPHASW D HRMM SECON CODA AMPLIT PERI AZIMU VELO AIN AR TRES W  DIS CAZ7
 BAR2 EZ EP        616 21.52                             152   -0.2410 54.3  54 
 BAR2 EZ ES        616 35.24                             152    0.3010 54.3  54 
 BAR2 EZ I         616 36.44         7.8 0.36                          54.3  54 
 BRR  HZ EP   2    616 23.69                             138   -0.19 5 89.7 351 
 BRR  HN ES        616 38.85                             138    0.1210 89.7 351 
 BRR  HZ I         616 40.57         2.3 0.18                          89.7 351 
 SPBC HZ EP        616 24.32                             138    0.2510 90.5 217 
 SPBC HN ES        616 38.86                             138   -0.2010 90.5 217 
 SPBC HZ I         616 41.76         4.9 0.07                          90.5 217 
 PTB  HZ EP        616 24.21                             135   -0.5710  100 285 
 PTB  HN ES        616 40.05                             135   -0.2710  100 285 
 PTB  HZ I         616 40.84         2.2 0.20                           100 285 
 ZAR  HZ EP   1    616 34.32                             115    0.23 7  193 313 
 ZAR  HN ES        616 57.14                             115    0.25 9  193 313 
 ZAR  HZ I         617  4.44         2.2 0.54                           193 313 
 GUY2CHN ES        617  6.14                             111    0.54 8  231 239 
                                                                                
