 2012 1122 0633 46.9 L   6.791 -73.172145.1  RSN  6 0.3 1.5LRSN                1
 GAP=134        0.62       4.3     3.7  6.5 -0.7530E+00  0.7872E+01 -0.2736E+01E
 Epicentro: LOS SANTOS - SANTANDER                                             3
 ACTION:UPD 12-12-05 15:35 OP:}ep  STATUS:               ID:20121122063346 L   I
 2012-11-22-0630-00M.COL___234                                                 6
 STAT SP IPHASW D HRMM SECON CODA AMPLIT PERI AZIMU VELO AIN AR TRES W  DIS CAZ7
 BAR2 SZ EP        634  6.78                             171    0.3210 22.0 183 
 BAR2 SZ ES   1    634 21.92                             171    0.23 7 22.0 183 
 BAR2 SZ I         634 23.45        11.6 0.26                          22.0 183 
 GIR2 SZ EP   1    634  6.42                             167   -0.13 7 31.9 356 
 PAM  SZ EP   1    634  9.59                             150    0.35 7 80.0  41 
 PAM  SZ I         634  9.91         3.7 0.29                          80.0  41 
 PAM  SN ES   1    634 26.19                             150   -0.44 7 80.0  41 
 RUS  HZ EP   1    634 10.55                             144   -0.02 7 99.8 174 
 RUS  HN ES   1    634 28.87                             144   -0.13 7 99.8 174 
 RUS  HN I         634 30.63         6.4 0.29                          99.8 174 
 PTB  HZ EP        634 13.22                             132   -0.36 9  145 259 
 PTB  HN ES   1    634 34.27                             132   -0.09 7  145 259 
 PTB  HZ I         634 40.34         2.6 0.21                           145 259 
 ZAR  HE ES   1    634 44.47                             122    0.27 6  202 293 
 ZAR  HZ I         634 51.62         2.3 0.34                           202 293 
                                                                                
