 2013  222 0604 51.4 L   6.832 -73.232157.9  RSN  4 0.1 1.2LRSN                1
 GAP=228        0.35       6.9     4.1  6.2 -0.1770E+01 -0.6573E+01  0.1677E+02E
 Epicentro: ZAPATOCA - SANTANDER                                               3
 ACTION:UPD 13-03-12 09:34 OP:ep   STATUS:               ID:20130222060451 L   I
 2013-02-22-0600-00M.COL___238                                                 6
 STAT SP IPHASW D HRMM SECON CODA AMPLIT PERI AZIMU VELO AIN AR TRES W  DIS CAZ7
 BAR2 SZ EP   1    6 5 12.44                             170   -0.13 7 27.1 168 
 BRR  HZ EP   1    6 5 13.40                             158    0.02 7 61.1 300 
 BRR  HN ES   1    6 5 30.60                             158    0.08 7 61.1 300 
 BRR  HZ I         6 5 32.85         3.8 0.62            160           61.1 300 
 PTB  HZ EP   1    6 5 18.83                             136    0.18 7  139 257 
 PTB  HN ES   1    6 5 39.84                             136   -0.06 7  139 257 
 PTB  HZ I         6 5 42.03         1.3 0.29            139            139 257 
 ZAR  HN ES   2    6 5 48.60                             126   -0.22 4  194 292 
                                                                                
