 2013  522 0952 13.9 L   6.102 -74.169 17.7  RSN  8 0.6 1.3LRSN                1
 GAP= 96        1.21       3.7     3.2  7.1  0.1898E+00  0.3396E+01  0.2144E+01E
 Epicentro: CIMITARRA - SANTANDER                                              3
 ACTION:UPD 13-06-20 09:52 OP:ep   STATUS:               ID:20130522095213 L   I
 2013-05-22-0950-00M.COL___259                                                 6
 STAT SP IPHASW D HRMM SECON CODA AMPLIT PERI AZIMU VELO AIN AR TRES W  DIS CAZ7
 PTB  HZ EP        952 24.07                             105    0.5810 57.9 327 
 PTB  HN ES        952 31.00                             105   -0.0210 57.9 327 
 PTB  HZ I         952 32.70        36.2 0.10             47           57.9 327 
 NOR  HZ EP        952 29.49                              99    0.0310 97.7 233 
 NOR  HE ES   1    952 40.74                              99   -0.90 7 97.7 233 
 NOR  HZ I         952 41.19        13.9 0.18             47           97.7 233 
 BAR2 SZ ES   1    952 48.14                              97   -0.31 7  122  64 
 BAR2 SZ I         952 51.53         9.3 0.74             47            122  64 
 RUS  HZ EP   1    952 34.27                              97    0.64 7  122 101 
 RUS  HE ES   1    952 48.37                              97   -0.69 7  122 101 
 RUS  HZ I         952 50.32         2.1 0.33             47            122 101 
 HEL  HZ EP        952 37.15                              56   -0.08 9  151 274 
 HEL  HE ES   4    952 54.58                              56   -0.88 0  151 274 
 HEL  HZ I         952 55.33         4.9 0.24             47            151 274 
 GUY2CHZ EP   1    952 40.05                              56    1.02 7  164 234 
 GUY2CHZ I         953  4.00         2.5 0.34                           164 234 
 ZAR  HN ES   1    952 58.40                              56   -0.91 7  172 334 
 ZAR  HZ I         953  5.87         3.5 0.26             47            172 334 
 PRA  HZ EP   2    952 53.24                              55    0.79 4  276 197 
                                                                                
