 2013  422 0015 32.6 L   6.839 -73.157151.7  RSN  8 0.4 1.8LRSN                1
 GAP=133        0.94       3.7     4.3  7.3 -0.5867E+00  0.6856E+01  0.4934E+00E
 Epicentro: LOS SANTOS - SANTANDER                                             3
 ACTION:UPD 13-05-22 14:40 OP:EP   STATUS:               ID:20130422001532 L   I
 2013-04-22-0010-00M.COL___250                                                 6
 STAT SP IPHASW D HRMM SECON CODA AMPLIT PERI AZIMU VELO AIN AR TRES W  DIS CAZ7
 BAR2 SZ EP        015 53.04                             169    0.0210 27.4 186 
 BAR2 SZ I         015 53.12         5.0 0.20            171           27.4 186 
 BRR  HZ EP        015 54.96                             155    0.7410 68.1 296 
 BRR  HE ES        016 11.53                             155    0.4510 68.1 296 
 BRR  HE I         016 13.11        11.1 0.24            152           68.1 296 
 PAM  SZ EP   1    015 55.21                             153   -0.10 7 75.0  42 
 PAM  SN ES        016 12.98                             153   -0.0410 75.0  42 
 PAM  SN I         016 14.46        11.9 0.44            154           75.0  42 
 RUS  HZ EP        015 57.09                             144   -0.1510  105 176 
 RUS  HN ES        016 16.21                             144   -0.2510  105 176 
 RUS  HN I         016 17.12         7.7 0.42            146            105 176 
 PTB  HZ EP   1    015 59.76                             133   -0.26 7  147 257 
 PTB  HN ES        016 21.04                             133   -0.36 9  147 257 
 PTB  HN I         016 23.28         6.2 0.20            133            147 257 
 ZAR  HN ES   1    016 30.88                             124    0.34 6  201 291 
 ZAR  HN I         016 36.76         6.5 0.26            123            201 291 
 NOR  HZ EP   1    016  9.37                             120    0.54 6  236 233 
 NOR  HE ES        016 36.91                             120   -0.18 8  236 233 
 NOR  HE I         016 39.81         6.3 0.16            120            236 233 
 SML  HZ EP   1    016  9.27                             119    0.18 6  239 335 
 SML  HN ES        016 36.67                             119   -0.88 8  239 335 
 SML  HN I         016 42.79        16.1 0.10            119            239 335 
                                                                                
