 2016  622 0503 50.9 L   6.776 -73.158146.0  RSN  4 0.2 1.2LRSN                1
 GAP=247        0.42       2.8     3.4  4.0  0.2260E+01  0.3555E+01  0.2338E+00E
 Epicentro: LOS SANTOS - SANTANDER                                             3
 ACTION:UPD 16-07-21 22:21 OP:rebc STATUS:               ID:20160622050350 L   I
 OLDACT:REG 16-06-22 13:51 OP:ak   STATUS:               ID:20160622045739     3
 2016-06-22-0457-39M.COL___319                                                 6
 STAT SP IPHASW D HRMM SECON CODA AMPLIT PERI AZIMU VELO AIN AR TRES W  DIS CAZ7
 BAR2 EZ EP        5 4 10.29                             172   -0.1810 20.5 188 
 BAR2 EZ ES        5 4 25.77                             172    0.0110 20.5 188 
 BAR2 EZ I         5 4 26.90         1.2 0.07                          20.5 188 
 BRR  HZ EP        5 4 12.07                             153    0.0210 71.3 301 
 BRR  HN ES        5 4 28.77                             153    0.2010 71.3 301 
 BRR  HZ I         5 4 32.52         3.4 0.46                          71.3 301 
 SPBC HZ EP   2    5 4 19.43                             130    0.32 5  160 219 
 SPBC HN ES        5 4 41.14                             130   -0.00 9  160 219 
 SPBC HZ I         5 4 46.20         2.5 0.05                           160 219 
 ZAR  HZ EP   2    5 4 23.51                             123    0.21 4  204 293 
 ZAR  HN ES        5 4 48.39                             123   -0.21 9  204 293 
 ZAR  HZ I         5 4 54.45         2.4 0.56                           204 293 
                                                                                
