 2011  622 0202 40.2 L   6.776 -73.082142.7  RSN  6 0.2 1.6LRSN                1
 GAP=166        0.45       3.0     5.8  4.5 -0.1967E+01 -0.7885E+01  0.2706E+00E
 Epicentro: LOS SANTOS - SANTANDER                                             3
 ACTION:UP  11-07-14 19:07 OP:ep   STATUS:               ID:20110622020240 L   I
 2011-06-22-0201-36S.COL___140                                                 6
 STAT SP IPHASW D HRMM SECON CODA AMPLIT PERI AZIMU VELO SNR AR TRES W  DIS CAZ7
 BAR2 SZ EP   1    2 2 59.05                             170    -0.4 7   23 209 
 BAR2 SZ ES   1    2 3 14.35                             170    -0.1 7   23 209 
 BAR2 SZ I         2 3 15.69         8.6 0.15                            23 209 
 BTL  SZ EP   1    2 2 59.70                             169     0.2 7   26 308 
 BTL  SZ ES   2    2 3 14.49                             169    -0.1 5   26 308 
 GIR2 SZ EP   1    2 2 59.66                             165     0.0 7   36 340 
 GIR2 SZ ES   2    2 3 14.71                             165    -0.1 5   36 340 
 BRR  HZ EP   1    2 3  1.44                             149     0.0 7   79 298 
 BRR  HZ I         2 3  3.30        16.4 0.12                            79 298 
 BRR  HN ES   1    2 3 18.20                             149     0.1 7   79 298 
 RUS  HZ EP   1    2 3  3.55                             144     0.1 7   98 180 
 RUS  HE ES   2    2 3 22.03                             144     0.4 5   98 180 
 RUS  HZ I         2 3 23.03         2.8 0.30                            98 180 
 GRA  SZ EP   1    2 3  5.30                             136     0.1 7  126  14 
 GRA  SZ ES   1    2 3 24.85                             136     0.1 7  126  14 
 GRA  SZ I         2 3 25.97         5.2 0.55                           126  14 
                                                                                
