 2015 1022 0943 55.6 L   6.832 -73.058149.0  RSN 13 0.4 1.8LRSN                1
 GAP=209        0.76       2.9     5.2  4.7  0.6179E+01  0.5912E+01  0.1159E+00E
 Epicentro: LOS SANTOS - SANTANDER                                             3
 ACTION:UPD 15-12-22 20:42 OP:cam  STATUS:               ID:20151022094355 L   I
 OLDACT:REG 15-10-22 12:24 OP:mh   STATUS:               ID:20151022093737     3
 2015-10-22-0937-37M.COL___319                                                 6
 STAT SP IPHASW D HRMM SECON CODA AMPLIT PERI AZIMU VELO AIN AR TRES W  DIS CAZ7
 BAR2 EZ EP        944 15.86                             168    0.0510 29.8 207 
 BAR2 EZ ES        944 31.38                             168   -0.1610 29.8 207 
 BAR2 EZ I         944 31.93         8.6 0.26            166           29.8 207 
 BRR  HZ EP   2    944 17.91                             151    0.35 5 78.4 293 
 BRR  HE ES        944 35.22                             151    0.5710 78.4 293 
 BRR  HZ I         944 36.62        11.4 0.20            146           78.4 293 
 RUS  HZ EP   2    944 19.93                             143   -0.02 5  104 182 
 RUS  HN ES        944 38.59                             143   -0.3210  104 182 
 RUS  HN ISg  2    944 38.59                             143   -0.32 5  104 182 
 RUS  HZ I         944 39.20         6.2 0.24            143            104 182 
 SPBC HZ EP   2    944 24.93                             128   -0.30 4  172 221 
 SPBC HE ES   4    944 46.75                             128   -1.57 0  172 221 
 SPBC HZ I         944 48.84         9.9 0.10            126            172 221 
 ZAR  HZ EP   4    944 24.74                             122   -4.36 0  212 290 
 ZAR  HE ES        944 54.55                             122   -0.64 8  212 290 
 ZAR  HZ I         945  0.70         7.9 0.22            119            212 290 
 NOR  HE ES   2    945  1.00                             118   -0.47 4  245 235 
 NOR  HZ I         945  3.46         5.7 0.05            116            245 235 
 SML  HZ EP        944 32.66                             118    0.10 8  245 333 
 SML  HN ES        945  1.27                             118   -0.10 8  245 333 
 SML  HZ I         945  8.45         6.1 0.10            116            245 333 
 NOR  HZ EP   2    944 32.61                             118   -0.01 4  245 235 
 CHI  HZ EP        944 33.71                             117   -0.46 8  255 197 
 CHI  HN ES        945  4.97                             117    0.74 8  255 197 
 CHI  HZ I         945 11.40         2.5 0.58            116            255 197 
 HEL  HZ EP        944 37.78                             114    0.63 7  282 256 
 HEL  HN ES   2    945  9.98                             114    0.45 4  282 256 
 HEL  HZ I         945 14.52         3.5 0.34            112            282 256 
 URE  HZ EP   2    944 37.18                             113   -0.55 4  292 291 
 URE  HN ES   4    945  7.80                             113   -2.77 0  292 291 
 URE  HZ I         945  9.76         4.7 0.12            111            292 291 
 GUY2CHZ EP   9    944 42.42                             112    1.90 0  311 235 
 GUY2CHN ES   2    945 16.98                                   -0.45 3  311 235 
 GUY2CHZ I         945 23.37         2.8 0.40                           311 235 
 MON  HZ EP   9    944 43.56                             109   -1.84 0  359 307 
 MON  HN ES   2    945 22.29                                   -0.09 3  359 307 
 MON  HZ I         945 37.71         1.5 0.46            107            359 307 
 PAL  HZ EP   2    944 51.80                             106   -0.29 3  416 239 
 PAL  HN ES   2    945 35.58                             106   -0.54 3  416 239 
 PAL  HZ I         945 37.71         2.0 0.22            104            416 239 
                                                                                
