 2015 1022 0808 10.4 L   6.827 -73.089150.4  RSN 15 0.5 2.2LRSN                1
 GAP=142        0.96       2.9     4.2  5.2 -0.1797E+01  0.7271E+01 -0.5692E+00E
 Epicentro: LOS SANTOS - SANTANDER                                             3
 ACTION:UPD 15-12-22 20:42 OP:cam  STATUS:               ID:20151022080810 L   I
 OLDACT:UP  15-11-01 03:31 OP:DRIO STATUS:               ID:20151022080810 L   3
 OLDACT:UP  15-10-22 17:11 OP:ar   STATUS:               ID:20151022080747     3
 OLDACT:REG 15-10-22 12:21 OP:mh   STATUS:               ID:20151022080747     3
 2015-10-22-0807-47M.COL___319                                                 6
 STAT SP IPHASW D HRMM SECON CODA AMPLIT PERI AZIMU VELO AIN AR TRES W  DIS CAZ7
 BAR2 EZ EP     C  8 8 30.60                             169   -0.0810 27.9 202 
 BAR2 EZ ES        8 8 46.02                             169   -0.4810 27.9 202 
 BAR2 EZ I         8 8 47.10        22.8 0.20            167           27.9 202 
 PAM  EZ EP        8 8 33.42                             154    0.6710 71.2  37 
 PAM  EN ES        8 8 50.50                             154    0.3110 71.2  37 
 PAM  EZ I         8 8 51.01        14.9 0.22            156           71.2  37 
 BRR  HZ EP        8 8 32.42                             152    0.1410 75.5 294 
 BRR  HN ES        8 8 49.64                             152    0.2810 75.5 294 
 BRR  HZ I         8 8 52.69        23.0 0.12            149           75.5 294 
 RUS  HZ EP        8 8 34.66                             144   -0.1410  103 180 
 RUS  HN ES        8 8 53.52                             144   -0.3110  103 180 
 OCA  HZ EP        8 8 38.76                             131   -0.11 9  158 351 
 OCA  HN ES        8 9  1.06                             131   -0.03 9  158 351 
 OCA  HZ I         8 9  5.95        29.2 0.24            132            158 351 
 SPBC HZ EP        8 8 39.64                             129   -0.20 9  169 220 
 SPBC HN ES        8 9  2.82                             129    0.01 9  169 220 
 SPBC HZ I         8 9  5.39        21.1 0.18            129            169 220 
 ZAR  HZ EP        8 8 43.34                             123   -0.29 8  209 291 
 ZAR  HN ES        8 9  9.28                             123   -0.27 8  209 291 
 ZAR  HZ I         8 9 12.99        10.4 0.15            122            209 291 
 NOR  HZ EP   2    8 8 46.60                             119   -0.52 4  242 235 
 NOR  HE ES   2    8 9 14.97                             119   -0.80 4  242 235 
 NOR  HZ I         8 9 21.31        11.1 0.18            119            242 235 
 SML  HZ EP        8 8 46.94                             118   -0.34 8  244 334 
 SML  HE ES   2    8 9 16.57                             118    0.51 4  244 334 
 SML  HZ I         8 9 18.87        22.8 0.10            119            244 334 
 ROSC BZ EP   2    8 8 50.64                             117    1.24 4  259 212 
 ROSC BN ES   4    8 9 21.82                             117    2.00 0  259 212 
 HEL  HZ EP   4    8 8 53.46                             115    1.87 0  279 256 
 HEL  HN ES        8 9 24.60                             115    0.87 7  279 256 
 HEL  HZ I         8 9 30.48         5.4 0.22            115            279 256 
 URE  HZ EP        8 8 51.45                             114   -0.77 7  289 291 
 URE  HE ES   4    8 9 22.29                             114   -2.55 0  289 291 
 URE  HZ I         8 9 24.00         9.5 0.38            114            289 291 
 GUY2CHZ EP   4    8 8 56.66                             113    1.67 0  308 235 
 GUY2CHE ES   4    8 9 33.05                             113    3.28 0  308 235 
 GUY2CHZ I         8 9 37.13         8.1 0.32                           308 235 
 CBOC HZ EP   4    8 8 47.22                             110   -11.1 0  340 252 
 CBOC HN ES   4    8 8 59.00                             110   -36.6 0  340 252 
 CBOC HZ I    4    8 8 59.40         9.7 0.32            110            340 252 
 MON  HZ EP   9    8 8 58.08                             109   -1.85 0  357 307 
 MON  HE ES   2    8 9 36.38                             109   -0.34 3  357 307 
 ORTC HZ EP        8 9  5.09                             107   -0.10 6  402 217 
 ORTC HE ES        8 9 49.18                             107    1.26 6  402 217 
 ORTC HZ I         8 9 54.96         4.5 0.40            107            402 217 
                                                                                
