 2011  822 0323  0.2 L   6.785 -73.076145.9  RSN  4 0.3 1.6LRSN                1
 GAP=244        0.55       5.6     7.8  6.6  0.2071E+02 -0.9593E+00  0.6409E+00E
 Epicentro: LOS SANTOS - SANTANDER                                             3
 ACTION:UPD 12-07-13 15:53 OP:ep   STATUS:               ID:20110822032300 L   I
 2011-08-22-0321-19S.COL___152                                                 6
 STAT SP IPHASW D HRMM SECON CODA AMPLIT PERI AZIMU VELO AIN AR TRES W  DIS CAZ7
 BAR2 SZ EP   1    323 19.75                             170   -0.15 7 24.4 209 
 BAR2 SZ ES   1    323 34.90                             170   -0.34 7 24.4 209 
 BAR2 SZ I         323 36.26         7.4 0.20                          24.4 209 
 BRR  HZ EP   1    323 21.63                             150   -0.22 7 78.8 297 
 BRR  HZ I         323 21.85         8.6 0.14                          78.8 297 
 BRR  HE ES   1    323 39.07                             150    0.37 7 78.8 297 
 RUS  HZ EP   1    323 24.10                             144    0.23 7 98.7 180 
 RUS  HE ES   1    323 42.49                             144    0.19 7 98.7 180 
 NOR  SN ES   2    324  4.58                             118   -0.30 4  240 236 
                                                                                
