 2015  222 0915 19.1 L   6.822 -73.162142.9  RSN 11 0.5 1.8LRSN                1
 GAP=181        1.18       3.0     6.6  6.4 -0.3887E+01  0.1131E+02  0.1184E+01E
 Epicentro: LOS SANTOS - SANTANDER                                             3
 ACTION:UPD 15-04-30 21:28 OP:nd   STATUS:               ID:20150222091519 L   I
 OLDACT:REG 15-02-22 12:49 OP:mh   STATUS:               ID:20150222090742     3
 2015-02-22-0907-42M.COL___275                                                 6
 STAT SP IPHASW D HRMM SECON CODA AMPLIT PERI AZIMU VELO AIN AR TRES W  DIS CAZ7
 BAR2 EZ EP        915 39.19                             169    0.7410 25.5 185 
 BAR2 EZ ES        915 53.28                             169   -0.2510 25.5 185 
 BAR2 EZ I         915 55.28        11.6 0.20            167           25.5 185 
 BRR  HZ EP   1    915 39.97                             153    0.16 7 68.5 297 
 BRR  HN ES        915 56.95                             153    1.0110 68.5 297 
 BRR  HE ES        915 57.89                                           68.5 297 
 RUS  HZ EP        915 42.40                             143   -0.3810  103 175 
 RUS  HE ES        916  1.23                             143   -0.0010  103 175 
 RUS  HZ I         916  2.75         5.5 0.24            143            103 175 
 OCA  HZ EP        915 46.93                             130   -0.04 9  158 354 
 OCA  HN ES        916  8.05                             130   -0.63 9  158 354 
 OCA  HZ I         916 12.22         5.4 0.34            130            158 354 
 SPBC HZ EP        915 48.01                             128    0.54 9  164 218 
 SPBC HE ES        916  8.87                             128   -0.72 9  164 218 
 SPBC HZ I         916 14.54         9.3 0.20            128            164 218 
 NOR  HZ EP        915 55.29                             118    0.61 8  235 234 
 NOR  HN ES        916 21.86                             118   -0.56 8  235 234 
 NOR  HZ I         916 30.95         4.3 0.16            118            235 234 
 SML  HZ EP        915 55.46                             117    0.19 8  241 335 
 SML  HE ES        916 22.75                             117   -0.71 8  241 335 
 SML  HZ I         916 27.53         6.8 0.10            118            241 335 
 CHI  HZ EP        915 56.59                             116   -0.27 8  250 195 
 CHI  HN ES        916 26.11                             116   -0.20 8  250 195 
 CHI  HZ I         916 30.07         3.8 0.58            117            250 195 
 GUY2CHZ EP        916  2.42                             112   -0.17 7  301 234 
 GUY2CHE ES        916 36.69                             112    0.20 7  301 234 
 GUY2CHZ I         916 43.16         2.4 0.34                           301 234 
 PRA  HZ EP        916 13.12                             106    0.43 6  393 209 
 PRA  HE ES        916 53.94                             106   -0.53 6  393 209 
 PRA  HZ I         917  1.01         2.2 0.36            106            393 209 
 ORTC HN ES        916 55.47                             106    0.36 6  396 216 
 ORTC HZ I         917  0.45         2.5 0.36            106            396 216 
                                                                                
