 2012  322 0539  7.5 L   6.753 -73.108140.0  RSN  7 0.4 1.9LRSN                1
 GAP=144        0.90       6.4     5.2  9.1 -0.2026E+01  0.1749E+02  0.2174E+02E
 ACTION:UP  12-03-31 23:21 OP:EP   STATUS:               ID:20120322053907 L   I
 2012-03-22-0538-59S.COL___203                                                 6
 STAT SP IPHASW D HRMM SECON CODA AMPLIT PERI AZIMU VELO SNR AR TRES W  DIS CAZ7
 BAR2 SZ EP        539 26.31                             172     0.010   20 205 
 BAR2 SZ I         539 26.50        20.3 0.17                            20 205 
 BRR  HZ IP     C  539 28.24                             149    -0.110   77 300 
 BRR  HZ I         539 28.71        21.6 0.12                            77 300 
 BRR  HE ES   1    539 45.08                             149     0.4 7   77 300 
 PAM  SZ EP        539 29.28                             149     0.110   79  35 
 PAM  SN ES        539 46.08                             149     0.010   79  35 
 RUS  HZ EP        539 30.31                             144     0.010   95 178 
 RUS  HN ES   2    539 48.20                             144     0.1 5   95 178 
 RUS  HZ I         539 49.85         6.3 0.32                            95 178 
 PTB  HZ EP        539 33.56                             130    -0.7 9  151 261 
 PTB  HN ES   2    539 54.82                             130    -0.4 5  151 261 
 PTB  HZ I         539 56.31         8.2 0.18                           151 261 
 ZAR  HZ EP   2    539 40.59                             120     0.4 4  210 293 
 ZAR  HE ES   2    540  5.38                             120    -0.3 4  210 293 
 ZAR  HZ I         540 13.40         7.8 0.39                           210 293 
 HEL  HZ EP        539 48.42                             113     0.7 8  275 257 
 HEL  HN ES   2    540 19.70                             113     0.6 4  275 257 
 HEL  HZ I         540 26.09         4.7 0.39                           275 257 
                                                                                
