 2013  922 0043 44.3 L   6.794 -73.138148.4  RSN 13 0.4 2.4LRSN                1
 GAP=138        1.01       2.8     4.6  5.3 -0.2444E+01  0.5388E+01  0.1609E+01E
 Epicentro: LOS SANTOS - SANTANDER                                             3
 ACTION:UPD 13-10-22 09:24 OP:ep   STATUS:               ID:20130922004344 L   I
 OLDACT:REG 13-09-22 07:21 OP:jn   STATUS:               ID:20130922003959     3
 2013-09-22-0039-59M.COL___269                                                 6
 STAT SP IPHASW D HRMM SECON CODA AMPLIT PERI AZIMU VELO AIN AR TRES W  DIS CAZ7
 BAR2 SZ EP        044  4.37                             171    0.1210 22.8 192 
 BAR2 SZ ES        044 19.33                             171   -0.4710 22.8 192 
 BAR2 SZ I         044 22.34        44.1 0.38            170           22.8 192 
 BRR  HZ EP        044  6.24                             153    0.4410 72.2 299 
 BRR  HN ES        044 23.60                             153    1.0310 72.2 299 
 BRR  HZ I         044 26.79        25.5 0.16            152           72.2 299 
 PAM  SZ EP        044  7.20                             151    0.4010 77.4  39 
 PAM  SN ES        044 24.23                             151   -0.1210 77.4  39 
 PAM  SZ I         044 26.59        51.7 0.56            154           77.4  39 
 RUS  HZ EP        044  8.36                             145    0.0910 99.9 177 
 RUS  HN ES        044 26.96                             145    0.0010 99.9 177 
 RUS  HZ I         044 28.72        30.2 0.38            146           99.9 177 
 PTB  HZ EP        044 11.02                             132   -0.53 9  148 259 
 PTB  HN ES   1    044 32.32                             132   -0.48 7  148 259 
 PTB  HZ I         044 34.67        41.1 0.16            133            148 259 
 OCA  HZ EP        044 12.80                             130   -0.10 9  161 353 
 OCA  HN ES        044 34.42                             130   -0.78 9  161 353 
 OCA  HZ I         044 39.31        34.6 0.30            132            161 353 
 SPBC HZ EP        044 13.32                             130    0.31 9  163 219 
 SPBC HN ES        044 35.23                             130   -0.17 9  163 219 
 SPBC HZ I         044 40.38        53.6 0.24            131            163 219 
 ZAR  HZ EP   2    044 17.12                             123    0.09 4  205 292 
 ZAR  HN ES   1    044 42.50                             123   -0.05 6  205 292 
 NOR  HZ EP        044 20.20                             119   -0.02 8  235 235 
 NOR  HN ES   1    044 48.12                             119   -0.11 6  235 235 
 SML  HZ EP   1    044 20.69                             118   -0.50 6  245 335 
 SML  HE ES   2    044 50.67                             118    0.72 4  245 335 
 SML  HZ I         044 53.68        37.7 0.10            119            245 335 
 CHI  HZ EP        044 22.46                             118    0.35 8  248 195 
 CHI  HN ES        044 51.13                             118   -0.46 8  248 195 
 CHI  HZ I         044 57.26        11.6 0.28            119            248 195 
 ARGC HE E      C  044 19.90                                            360 340 
 PRA  HZ EP        044 37.47                             107   -0.43 6  392 210 
 PRA  HN ES   1    045 20.49                             107    0.79 4  392 210 
 PRA  HZ I         045 25.64        11.4 0.24            108            392 210 
                                                                                
