 2012  822 0051  8.3 L   6.786 -73.147150.9  RSN 10 0.5 2.0LRSN                1
 GAP=137        0.99       3.4     4.5  6.4  0.7871E-01  0.8196E+01  0.1697E+01E
 Epicentro: LOS SANTOS - SANTANDER                                             3
 ACTION:UP  12-09-10 11:57 OP:ep   STATUS:               ID:20120822005108 L   I
 2012-08-22-0050-00M.COL___218                                                 6
 STAT SP IPHASW D HRMM SECON CODA AMPLIT PERI AZIMU VELO AIN AR TRES W  DIS CAZ7
 BAR2 SZ EP   1    051 28.28                             171   -0.20 7 21.8 190 
 BAR2 SZ ES   1    051 43.93                             171   -0.32 7 21.8 190 
 BAR2 SZ I         051 45.49        32.5 0.34                          21.8 190 
 BRR  HZ EP        051 30.30                             153    0.3010 71.8 300 
 BRR  HZ I         051 30.59        28.5 0.15                          71.8 300 
 BRR  HN ES        051 47.79                             153    0.8410 71.8 300 
 PAM  SZ EP   1    051 31.17                             151    0.07 7 78.7  39 
 PAM  SN ES        051 48.74                             151   -0.1710 78.7  39 
 PAM  SZ I         051 50.31         4.7 0.28                          78.7  39 
 RUS  HZ EP   1    051 32.51                             145    0.10 7 99.1 176 
 RUS  HN ES        051 50.95                             145   -0.3010 99.1 176 
 RUS  HZ I         051 52.16         7.3 0.23                          99.1 176 
 PTB  HZ EP   1    051 34.64                             133   -0.97 7  147 259 
 PTB  HN ES        051 56.63                             133   -0.31 9  147 259 
 PTB  HZ I         051 58.68         7.2 0.18                           147 259 
 OCA  HZ EP   1    051 37.37                             130    0.26 7  162 353 
 OCA  HN ES        051 59.49                             130   -0.12 9  162 353 
 OCA  HZ I         052  4.37        25.0 0.27                           162 353 
 ZAR  HZ EP   1    051 41.97                             123    0.89 6  204 293 
 ZAR  HE ES        052  6.27                             123   -0.42 9  204 293 
 ZAR  HZ I         052 13.53        13.3 0.27                           204 293 
 CHI  HZ EP   1    051 46.22                             118    0.14 6  247 195 
 CHI  HE ES        052 16.09                             118    0.50 8  247 195 
 CHI  HZ I         052 21.64         4.0 0.33                           247 195 
 HEL  HZ EP   1    051 48.79                             116    0.11 6  272 256 
 HEL  HN ES   2    052 20.60                             116    0.40 4  272 256 
 HEL  HZ I         052 26.84         3.2 0.32                           272 256 
 URE  HZ EP   1    051 48.74                             114   -0.88 6  284 292 
 URE  HZ I         052 29.25         9.0 0.30                           284 292 
                                                                                
