 2010  322 0755 59.6 L   6.848 -72.974142.3  RSN  4 0.1 1.2LRSN                1
 GAP=200        0.35       3.7     9.0  5.0  0.2021E+02 -0.1744E+02 -0.5391E+01E
 Epicentro: CEPITA - SANTANDER                                                 3
 ACTION:UP  10-08-24 09:55 OP:vdl  STATUS:               ID:20100322075559 L   I
 2010-03-22-0753-29S.COL___098                                                 6
 STAT SP IPHASW D HRMM SECON CODA AMPLIT PERI AZIMU VELO SNR AR TRES W  DIS CAZ7
 BAR2 SZ EP        756 19.31                             165     0.110   37 219 
 BAR2 SZ ES   1    756 34.33                             165    -0.1 7   37 219 
 BRR  HZ EP   1    756 21.29                             147     0.0 7   86 289 
 BRR  HE ES   2    756 38.29                             147     0.0 5   86 289 
 BRR  HZ I         756 39.07         2.6 0.22                            86 289 
 RUS  HZ EP   1    756 23.30                             141    -0.1 7  106 187 
 RUS  HE ES   2    756 42.12                             141     0.1 5  106 187 
 RUS  HZ I         756 43.72         2.5 0.52                           106 187 
 OCA  SZ ES   2    756 49.18                             129     0.0 5  159 346 
                                                                                
