 2017  822 0338  0.6 L   6.815 -73.136148.3  RSN  9 0.4 1.5LRSN                1
 GAP=215        0.91       4.1     4.9  5.5  0.1046E+02  0.4185E+01  0.3822E+01E
 Epicentro: LOS SANTOS - SANTANDER                                             3
 ACTION:UPD 17-09-04 20:23 OP:rebc STATUS:               ID:20170822033800 L   I
 OLDACT:REG 17-08-22 12:42 OP:osc  STATUS:               ID:20170822033742     3
 2017-08-22-0338-00M.COL___414                                                 6
 STAT SP IPHASW D HRMM SECON CODA AMPLIT PERI AZIMU VELO AIN AR TRES W  DIS CAZ7
 BAR2 EZ EP        338 20.35                             170   -0.2610 25.1 192 
 BAR2 EZ ES        338 35.58                             170   -0.6110 25.1 192 
 BAR2 EZ I         338 38.18         7.0 0.30            167           25.1 192 
 BRR  HZ EP        338 22.16                             153    0.0910 71.4 297 
 BRR  HE ES        338 39.41                             153    0.6210 71.4 297 
 BRR  HZ I         338 42.40         7.4 0.26            152           71.4 297 
 RUS  HZ EP        338 24.58                             144   -0.1710  102 177 
 RUS  HN ES        338 43.36                             144   -0.2010  102 177 
 RUS  HZ I         338 45.60         1.7 0.23            145            102 177 
 SPBC HZ EP        338 29.61                             129    0.10 9  165 219 
 SPBC HE ES        338 52.20                             129    0.16 9  165 219 
 SPBC HZ I         338 57.56         4.3 0.29            130            165 219 
 YPLC HZ EP        338 30.75                             127    0.05 9  178 152 
 YPLC HN ES        338 54.98                             127    0.82 9  178 152 
 ZAR  HZ EP        338 33.03                             123   -0.26 9  204 292 
 ZAR  HN ES        338 58.74                             123   -0.02 9  204 292 
 ZAR  HZ I         339  3.24         3.4 0.26            124            204 292 
 NOR  HE ES   2    339  4.67                             119   -0.18 4  237 234 
 CHI  HZ EP        338 38.21                             117   -0.47 8  251 195 
 CHI  HN ES        339  8.22                             117   -0.13 8  251 195 
 GUY2CHZ EP        338 45.03                             113    0.46 7  303 235 
 GUY2CHE ES   4    339 20.50                             113    1.66 0  303 235 
                                                                                
