 2016 1222 0028  7.1 L   6.842 -73.409113.8  RSN  6 0.4 1.4LRSN                1
 GAP=187        0.86       5.1     4.8  5.8  0.1587E+02  0.9259E+01  0.7786E+01E
 Epicentro: SAN VICENTE DE CHUCURI - SANTANDER                                 3
 ACTION:UPD 17-01-11 20:17 OP:rebc STATUS:               ID:20161222002807 L   I
 OLDACT:REG 16-12-22 12:26 OP:cog  STATUS:               ID:20161222002746     3
 2016-12-22-0028-00M.COL___375                                                 6
 STAT SP IPHASW D HRMM SECON CODA AMPLIT PERI AZIMU VELO AIN AR TRES W  DIS CAZ7
 BAR2 EZ EP        028 23.39                             161   -0.0110 37.4 138 
 BAR2 EZ ES        028 36.20                             161    0.1110 37.4 138 
 BAR2 EZ I         028 37.84        20.6 0.36            161           37.4 138 
 BRR  HZ EP        028 23.71                             157    0.3510 44.4 311 
 BRR  HN ES        028 36.06                             157    0.0410 44.4 311 
 RUS  HZ EP        028 28.37                             133   -0.4510  111 161 
 RUS  HE ES        028 45.68                             133   -0.0410  111 161 
 RUS  HZ I         028 47.03         1.8 0.28            134            111 161 
 PTB  HZ EP        028 28.65                             130   -0.3910  120 254 
 PTB  HN ES        028 46.23                             130    0.1110  120 254 
 PTB  HZ I         028 51.43         5.7 0.28            129            120 254 
 ZAR  HZ EP        028 35.22                             118    0.63 9  175 294 
 ZAR  HE ES        028 55.42                             118   -0.59 9  175 294 
 CHI  HZ EP        028 43.38                             110    0.25 8  247 188 
 CHI  HN ES   3    029 12.73                             110    1.53 2  247 188 
                                                                                
