 2014  222 0133 51.8 L   6.802 -73.115152.0  RSN  6 0.4 1.7LRSN                1
 GAP=140        0.74       4.6     4.7  7.7  0.5822E+01  0.1331E+02 -0.3713E+00E
 Epicentro: LOS SANTOS - SANTANDER                                             3
 ACTION:UPD 14-03-10 08:12 OP:ep   STATUS:               ID:20140222013351 L   I
 OLDACT:REG 14-02-22 09:35 OP:fm   STATUS:               ID:20140222012950     3
 2014-02-22-0129-50M.COL___235                                                 6
 STAT SP IPHASW D HRMM SECON CODA AMPLIT PERI AZIMU VELO AIN AR TRES W  DIS CAZ7
 BAR2 SZ EP        134 12.38                             170    0.1310 24.3 198 
 BAR2 SZ ES   2    134 27.41                             170   -0.75 5 24.3 198 
 BAR2 SZ I         134 28.78        11.5 0.22            175           24.3 198 
 PAM  SN ES   1    134 32.34                             153   -0.01 7 75.1  38 
 PAM  SZ I         134 34.67         4.6 0.48            150           75.1  38 
 RUS  HZ EP        134 16.41                             145    0.1910  101 178 
 RUS  HN ES   1    134 35.46                             145    0.23 7  101 178 
 RUS  HZ I         134 36.10         3.8 0.19            150            101 178 
 PTB  HZ EP        134 19.23                             133   -0.40 9  151 259 
 PTB  HE ES   1    134 40.90                             133   -0.40 7  151 259 
 PTB  HZ I         134 41.96         6.2 0.40            134            151 259 
 ZAR  HZ EP   1    134 24.81                             123   -0.21 6  207 292 
 ZAR  HN ES        134 51.53                             123    0.64 8  207 292 
 ZAR  HZ I         134 56.33         4.8 0.28            123            207 292 
 SML  HZ EP   2    134 28.71                             119   -0.26 4  245 335 
 SML  HN ES   2    134 57.57                             119   -0.35 4  245 335 
 SML  HZ I         135  5.31         5.1 0.26            118            245 335 
                                                                                
