 2013  622 0328  5.6 L   6.814 -73.138141.5  RSN 15 0.4 2.4LRSN                1
 GAP=113        0.86       2.8     3.8  5.4 -0.1413E+01  0.1995E+01  0.2549E+01E
 Epicentro: LOS SANTOS - SANTANDER                                             3
 ACTION:UPD 14-01-08 09:56 OP:ep   STATUS:               ID:20130622032805 L   I
 OLDACT:REG 13-06-22 08:44 OP:carl STATUS:               ID:20130622031959     3
 2013-06-22-0319-59M.COL___267                                                 6
 STAT SP IPHASW D HRMM SECON CODA AMPLIT PERI AZIMU VELO AIN AR TRES W  DIS CAZ7
 BAR2 SZ IP     C  328 24.83                             170    0.1210 25.0 191 
 BAR2 SZ ES   1    328 38.94                             170   -0.71 7 25.0 191 
 BAR2 SZ I         328 40.95        63.9 0.42            171           25.0 191 
 GIR2 SZ EP        328 24.83                             167    0.1410 29.9 348 
 GIR2 SZ I         328 41.93        23.3 0.22            165           29.9 348 
 BRR  HZ IP     D  328 26.69                             152    0.4410 71.3 297 
 BRR  HN ES   1    328 43.54                             152    1.15 7 71.3 297 
 BRR  HZ I         328 46.91        49.9 0.32            150           71.3 297 
 RUS  HZ EP        328 28.85                             143   -0.1510  102 177 
 RUS  HN ES   1    328 47.52                             143    0.24 7  102 177 
 RUS  HZ I         328 48.42        37.2 0.20            145            102 177 
 PTB  HZ EP        328 31.56                             131   -0.73 9  149 258 
 PTB  HN ES   1    328 52.62                             131   -0.52 7  149 258 
 PTB  HZ I         328 54.96        36.4 0.22            131            149 258 
 TAM  HZ IP     D  328 33.17                             130    0.31 9  155 106 
 OCA  HZ EP   1    328 33.19                             129   -0.22 7  159 353 
 OCA  HN ES   1    328 54.66                             129   -0.47 7  159 353 
 OCA  HZ I         328 58.40        31.3 0.34            129            159 353 
 NOR  HZ EP   1    328 41.45                             117    0.23 6  236 234 
 NOR  HN ES   1    329  8.93                             117   -0.10 6  236 234 
 NOR  HZ I         329 14.99        22.8 0.16            118            236 234 
 SML  HZ EP   1    328 41.15                             117   -0.69 6  243 335 
 SML  HN ES   1    329 10.15                             117    0.02 6  243 335 
 SML  HZ I         329 14.24        45.8 0.10            117            243 335 
 CHI  HZ EP   1    328 43.24                             116    0.03 6  250 195 
 CHI  HN ES   1    329 12.28                             116   -0.30 6  250 195 
 CHI  HZ I         329 15.53        10.6 0.46            118            250 195 
 ROSC BZ EP   1    328 43.89                             116    0.25 6  255 211 
 ROSC BN ES        329 12.89                             116   -0.46 8  255 211 
 HEL  HZ EP   1    328 46.24                             114    0.55 6  273 256 
 HEL  HN ES   1    329 17.15                             114    0.15 6  273 256 
 HEL  HZ I         329 23.61        13.4 0.54            115            273 256 
 GUY2CHZ EP   1    328 49.42                             111    0.27 5  303 235 
 GUY2CHE ES   2    329 23.68                             111    0.52 4  303 235 
 GUY2CHZ I         329 31.12        10.6 0.48                           303 235 
 PRA  HZ EP        328 59.23                             106    0.09 6  394 210 
 PRA  HN ES   1    329 41.26                             106    0.32 4  394 210 
 PRA  HZ I         329 46.05         8.1 0.26            107            394 210 
 ORTC HZ EP        328 59.46                             106   -0.08 6  397 216 
 ORTC HN ES   2    329 42.30                             106    0.65 3  397 216 
                                                                                
