 2014  522 0530 38.5 L   6.791 -73.100146.6  RSN  8 0.4 1.4LRSN                1
 GAP=143        1.05       4.3     5.7  8.4  0.2216E+01  0.1177E+02 -0.1158E+01E
 Epicentro: LOS SANTOS - SANTANDER                                             3
 ACTION:UPD 15-03-16 16:59 OP:nd   STATUS:               ID:20140522053038 L   I
 OLDACT:UP  14-05-22 17:47 OP:mh   STATUS:               ID:20140522052809     3
 OLDACT:UP  14-05-22 17:47 OP:mh   STATUS:               ID:20140522052809     3
 OLDACT:REG 14-05-22 13:12 OP:spq  STATUS:               ID:20140522052809     3
 2014-05-22-0528-09M.COL___252                                                 6
 STAT SP IPHASW D HRMM SECON CODA AMPLIT PERI AZIMU VELO AIN AR TRES W  DIS CAZ7
 PAM  SN ES   1    531 17.69                             151   -0.29 7 75.0  36 
 BRR  HZ IP     C  531  0.71                             151    0.6610 76.1 297 
 BRR  HN ES   1    531 17.37                             151    0.54 7 76.1 297 
 BRR  HZ I         531 21.72         4.0 0.05            149           76.1 297 
 RUS  HZ EP        531  2.81                             144    0.5410 99.4 179 
 RUS  HN ES        531 20.57                             144   -0.2210 99.4 179 
 PTB  HZ EP        531  5.19                             131   -0.81 9  153 260 
 PTB  HN ES        531 26.98                             131   -0.44 9  153 260 
 PTB  HZ I         531 28.98         3.7 0.14            132            153 260 
 OCA  HE ES   1    531 28.99                             129   -0.31 7  162 351 
 SPBC HZ EP        531  7.10                             129   -0.22 9  166 221 
 SPBC HE ES   1    531 29.93                             129    0.14 7  166 221 
 SPBC HZ I         531 32.39         2.5 0.09            131            166 221 
 ZAR  HZ EP        531 11.82                             122    0.27 8  209 292 
 ZAR  HN ES        531 37.53                             122    0.23 8  209 292 
 ZAR  HZ I         531 41.27         2.2 0.37            123            209 292 
 SML  HZ EP   1    531 15.13                             117   -0.40 6  247 334 
 SML  HN ES   4    531 40.31                             117   -4.07 0  247 334 
 SML  HZ I         531 52.68         2.6 0.06            118            247 334 
                                                                                
