 2013  722 0310 49.6 L   6.801 -73.161150.8  RSN  7 0.3 1.3LRSN                1
 GAP=182        0.64       4.0     5.7  5.6  0.8515E+01  0.1062E+01 -0.3459E+01E
 Epicentro: LOS SANTOS - SANTANDER                                             3
 ACTION:UPD 13-08-12 10:39 OP:ep   STATUS:               ID:20130722030959 L   I
 OLDACT:UP  13-07-22 10:00 OP:cam  STATUS:               ID:20130722030959 L   3
 OLDACT:UPD 13-07-22 08:35 OP:stll STATUS:               ID:20130722030959 L   3
 2013-07-22-0309-59M.COL___267                                                 6
 STAT SP IPHASW D HRMM SECON CODA AMPLIT PERI AZIMU VELO AIN AR TRES W  DIS CAZ7
 BAR2 SZ ES   2    311 25.14                             171   -0.43 5 23.3 186 
 GIR2 SZ ES   1    311 25.24                             168   -0.38 7 30.9 353 
 BRR  HZ EP     C  311 11.36                             154    0.1910 69.6 299 
 BRR  HN ES        311 28.36                             154    0.3410 69.6 299 
 BRR  HZ I         311 28.68         5.5 0.32            149           69.6 299 
 RUS  HZ EP   1    311 13.97                             145    0.14 7  101 175 
 RUS  HN ES   1    311 32.93                             145    0.17 7  101 175 
 RUS  HZ I         311 33.86         0.9 0.34            144            101 175 
 PTB  HZ EP   2    311 16.41                             134   -0.39 5  146 259 
 PTB  HN ES   1    311 37.54                             134   -0.50 7  146 259 
 PTB  HZ I         311 42.78         2.6 0.58            130            146 259 
 ZAR  HE ES   2    311 48.06                             124    0.45 4  202 292 
 SML  HZ EP   1    311 25.97                             119   -0.41 6  243 336 
 SML  HE ES   1    311 55.16                             119    0.06 6  243 336 
 SML  HZ I         312  2.14         2.9 0.10            116            243 336 
                                                                                
