 2012  622 0354 58.5 L   6.746 -73.174145.9  RSN  6 0.4 1.7LRSN                1
 GAP=135        0.81       4.8     5.3  7.1 -0.2382E+00  0.8785E+00 -0.3103E+01E
 Epicentro: VILLANUEVA - SANTANDER                                             3
 ACTION:UPD 12-08-06 17:51 OP:ep   STATUS:               ID:20120622035458 L   I
 2012-06-22-0340-00M.COL___193                                                 6
 STAT SP IPHASW D HRMM SECON CODA AMPLIT PERI AZIMU VELO AIN AR TRES W  DIS CAZ7
 BAR2 SZ EP        355 18.14                             174    0.0910 17.0 183 
 BAR2 SZ I         355 18.21        11.2 0.22                          17.0 183 
 BAR2 SZ ES   1    355 33.15                             174   -0.14 7 17.0 183 
 BRR  HZ EP        355 20.20                             152    0.4910 71.6 304 
 BRR  HZ I         355 20.56        15.5 0.12                          71.6 304 
 BRR  HN ES   1    355 36.86                             152    0.63 7 71.6 304 
 PAM  SZ EP        355 21.29                             148    0.1410 84.0  39 
 PAM  SZ I         355 21.48        10.7 0.18                          84.0  39 
 PAM  SE ES   2    355 38.90                             148    0.09 5 84.0  39 
 RUS  HZ EP        355 21.85                             146   -0.0310 94.9 174 
 RUS  HN ES   1    355 39.78                             146   -0.32 7 94.9 174 
 RUS  HZ I         355 41.62         6.9 0.30                          94.9 174 
 PTB  HZ EP        355 24.94                             133   -0.19 9  144 261 
 PTB  HN ES   1    355 45.26                             133   -0.62 7  144 261 
 PTB  HZ I         355 51.84         3.5 0.14                           144 261 
 OCA  HZ EP   2    355 26.72                             128   -0.65 5  166 354 
 OCA  HN ES   2    355 48.92                             128   -0.95 5  166 354 
 OCA  HZ I         355 53.34        12.3 0.18                           166 354 
                                                                                
