 2012 1222 0010 45.0 L   6.814 -73.138140.7  RSN  6 0.3 1.6LRSN                1
 GAP=137        0.49       3.3     3.5  5.0 -0.8265E+00  0.6956E+01  0.1273E+01E
 Epicentro: LOS SANTOS - SANTANDER                                             3
 ACTION:UPD 13-01-04 14:29 OP:ep   STATUS:               ID:20121222001045 L   I
 2012-12-22-0010-00M.COL___243                                                 6
 STAT SP IPHASW D HRMM SECON CODA AMPLIT PERI AZIMU VELO AIN AR TRES W  DIS CAZ7
 BAR2 SZ ES   1    011 18.94                             169   -0.02 7 25.0 191 
 BAR2 SZ I         011 21.06        10.1 0.17                          25.0 191 
 BRR  HZ EP   1    011  5.65                             151    0.01 7 71.2 297 
 BRR  HE ES   1    011 21.87                             151    0.16 7 71.2 297 
 BRR  HZ I         011 26.44         5.0 0.16                          71.2 297 
 PAM  SN ES        011 23.31                             150   -0.1210 75.6  40 
 PAM  SZ I         011 25.71         7.8 0.53                          75.6  40 
 RUS  HZ EP   1    011  8.38                             142   -0.02 7  102 177 
 RUS  HE ES   1    011 26.78                             142    0.15 7  102 177 
 RUS  HE I         011 28.48         7.4 0.49                           102 177 
 PTB  HZ EP   2    011 11.00                             130   -0.70 5  149 258 
 PTB  HE ES   1    011 32.35                             130   -0.15 7  149 258 
 PTB  HZ I         011 34.18         4.9 0.21                           149 258 
 ZAR  HZ EP   1    011 17.64                             121    0.46 6  204 292 
 ZAR  HZ I         011 46.90         4.3 0.32                           204 292 
                                                                                
