 2012 1122 0747  1.3 L   6.808 -73.180141.9  RSN  8 0.2 1.8LRSN                1
 GAP=132        0.38       1.9     2.1  3.4 -0.2033E+00  0.2697E+01  0.1341E+01E
 Epicentro: LOS SANTOS - SANTANDER                                             3
 ACTION:UPD 12-12-05 15:35 OP:}ep  STATUS:               ID:20121122074701 L   I
 2012-11-22-0740-00M.COL___234                                                 6
 STAT SP IPHASW D HRMM SECON CODA AMPLIT PERI AZIMU VELO AIN AR TRES W  DIS CAZ7
 BAR2 SZ EP        747 20.35                             170   -0.1610 23.9 181 
 BAR2 SZ ES   2    747 35.82                             170    0.35 5 23.9 181 
 BAR2 SZ I         747 37.00        17.6 0.29                          23.9 181 
 GIR2 SZ EP   1    747 20.59                             167    0.08 7 29.9 357 
 PAM  SZ EP        747 23.36                             149    0.1110 79.2  42 
 PAM  SN ES        747 40.34                             149    0.0010 79.2  42 
 PAM  SZ I         747 42.20         9.7 0.17                          79.2  42 
 RUS  HZ EP        747 24.71                             143   -0.0910  102 174 
 RUS  HN ES   1    747 42.93                             143   -0.17 7  102 174 
 RUS  HN I         747 45.13         6.9 0.11                           102 174 
 PTB  HZ EP        747 27.45                             132   -0.21 9  144 258 
 PTB  HE ES   1    747 48.21                             132    0.01 7  144 258 
 PTB  HZ I         747 53.34        11.7 0.15                           144 258 
 ZAR  HZ EP   1    747 33.20                             122    0.08 6  200 292 
 ZAR  HN ES   1    747 58.00                             122    0.08 6  200 292 
 ZAR  HZ I         748  3.71         6.6 0.21                           200 292 
 CHI  HZ EP   1    747 38.90                             116    0.09 6  249 194 
 CHI  HE ES   1    748  8.40                             116    0.36 6  249 194 
 CHI  HZ I         748 16.35         2.1 0.37                           249 194 
 PRA  HZ EP   1    747 54.86                             106    0.26 4  391 209 
 PRA  HZ I         748 44.14         2.6 0.29                           391 209 
                                                                                
