 2016  622 0542  1.5 L   6.775 -73.121142.8  RSN 21 0.5 2.6LRSN                1
 GAP= 97        0.98       3.0     2.4  4.5 -0.4213E+00  0.3191E+01  0.3428E+01E
 Epicentro: LOS SANTOS - SANTANDER                                             3
 ACTION:UPD 16-07-21 22:21 OP:rebc STATUS:               ID:20160622054201 L   I
 OLDACT:REG 16-06-22 13:53 OP:ak   STATUS:               ID:20160622053745     3
 2016-06-22-0537-45M.COL___316                                                 6
 STAT SP IPHASW D HRMM SECON CODA AMPLIT PERI AZIMU VELO AIN AR TRES W  DIS CAZ7
 BAR2 EZ IP     D  542 20.78                             171    0.0910 21.3 198 
 BAR2 EZ ES        542 35.81                             171    0.1110 21.3 198 
 BAR2 EZ I         542 36.80        74.6 0.28                          21.3 198 
 BRR  HZ IP     D  542 22.67                             151    0.1710 74.9 299 
 BRR  HN ES        542 39.52                             151    0.6010 74.9 299 
 BRR  HZ I         542 42.97        49.3 0.16                          74.9 299 
 PAM  EZ EP        542 23.73                             150    0.3410 77.9  37 
 PAM  EN ES        542 40.78                             150    0.2810 77.9  37 
 PAM  EZ I         542 44.66        25.6 0.36                          77.9  37 
 RUS  HZ EP        542 24.83                             144    0.1210 97.7 178 
 RUS  HN ES        542 42.40                             144   -0.4510 97.7 178 
 RUS  HZ I         542 44.16        39.7 0.24                          97.7 178 
 PTB  HZ EP        542 27.36                             131   -1.02 9  150 260 
 PTB  HN ES        542 48.72                             131   -0.66 9  150 260 
 PTB  HZ I         542 51.15        32.4 0.08                           150 260 
 TAM  HZ EP        542 28.88                             130    0.28 9  152 104 
 TAM  HN ES        542 49.33                             130   -0.43 9  152 104 
 TAM  HZ I         542 51.11        30.7 0.22                           152 104 
 SPBC HZ IP     C  542 29.72                             128    0.03 9  163 220 
 SPBC HE ES        542 51.32                             128   -0.40 9  163 220 
 SPBC HZ I         542 53.54        45.6 0.48                           163 220 
 ZAR  HZ EP        542 33.50                             121   -0.58 8  208 293 
 ZAR  HN ES        542 59.33                             121   -0.19 8  208 293 
 ZAR  HZ I         543  5.17        67.3 0.50                           208 293 
 NOR  HZ EP        542 37.19                             118    0.11 8  235 235 
 NOR  HN ES        543  4.94                             118    0.07 8  235 235 
 NOR  HZ I         543 11.08        40.9 0.20                           235 235 
 CHI  HZ EP   2    542 38.74                             117   -0.04 4  247 196 
 CHI  HE ES        543  8.35                             117    0.45 8  247 196 
 CHI  HZ I         543 11.45        11.4 0.22                           247 196 
 ROSC BZ EP   4    542 41.12                             116    1.81 0  252 212 
 ROSC BN ES   4    543 12.09                             116    3.25 0  252 212 
 ROSC BZ I         543 16.69        26.1 0.50                           252 212 
 HEL  HZ EP        542 42.42                             114    0.68 8  274 256 
 HEL  HN ES        543 13.02                             114   -0.14 8  274 256 
 HEL  HZ I         543 19.72        36.2 0.80                           274 256 
 URE  HZ EP   9    542 40.94                             113   -1.84 0  287 292 
 URE  HN ES        543 13.04                                   -0.13 7  287 292 
 URE  HZ I         543 25.63        31.3 0.22                           287 292 
 GUY2CHZ EP        542 45.90                             112    0.90 7  302 235 
 GUY2CHN ES        543 19.76                             112    0.79 7  302 235 
 GUY2CHZ I         543 27.51        26.2 0.34                           302 235 
 PTGC HZ IP     C  542 43.79                             111   -0.99 7  305 159 
 PTGC HN ES   4    543 16.01                             111   -2.56 0  305 159 
 PTGC HZ I         543 16.76        11.5 0.32                           305 159 
 CBOC HZ EP        542 48.78                             109    0.33 7  335 253 
 CBOC HE ES        543 25.01                             109   -0.09 7  335 253 
 CBOC HZ I         543 37.57         8.9 0.66                           335 253 
 DBB  SZ EP        542 48.62                             109   -0.53 7  342 275 
 DBB  SZ ES        543 25.95                             109   -0.40 7  342 275 
 DBB  SZ I         543 40.39        43.3 0.50                           342 275 
 ANIL HZ EP   2    542 51.32                             108    0.18 3  357 225 
 ANIL HE ES        543 29.95                             108    0.05 6  357 225 
 ANIL HZ I         543 37.07        38.3 0.30                           357 225 
 PRA  HZ EP   2    542 54.64                             106   -0.11 3  391 210 
 PRA  HN ES        543 36.47                             106    0.14 6  391 210 
 PRA  HZ I         543 44.30        10.8 0.30                           391 210 
 ORTC HZ EP        542 55.74                             106    0.53 6  395 217 
 ORTC HN ES        543 37.55                             106    0.42 6  395 217 
 ORTC HZ I         543 43.41         9.4 0.52                           395 217 
 PAL  HZ EP        542 56.57                             105   -0.06 6  407 240 
 PAL  HN ES        543 39.70                             105    0.04 6  407 240 
 PAL  HZ I         543 45.59         7.4 0.62                           407 240 
 YOT  HZ EP   4    543  1.79                             103   -2.66 0  472 229 
 YOT  HE ES   4    543 52.52                             103   -1.06 0  472 229 
                                                                                
