 2013 1222 0336 51.6 L   7.468 -73.283139.3  RSN  4 0.4 1.3LRSN                1
 GAP=234        0.91       6.1     9.0 10.9 -0.3511E+02 -0.9407E+01  0.1926E+02E
 Epicentro: EL PLAYON - SANTANDER                                              3
 ACTION:UPD 14-01-13 10:20 OP:ep   STATUS:               ID:20131222033651 L   I
 OLDACT:REG 13-12-22 09:01 OP:jn   STATUS:               ID:20131222033000     3
 2013-12-22-0330-00M.COL___285                                                 6
 STAT SP IPHASW D HRMM SECON CODA AMPLIT PERI AZIMU VELO AIN AR TRES W  DIS CAZ7
 OCA  HZ EP        337 13.11                             147   -0.0810 85.3 357 
 OCA  HN ES        337 30.25                             147    0.2410 85.3 357 
 PTB  HZ EP        337 19.86                             127    0.10 9  165 232 
 PTB  HN ES        337 41.29                             127   -0.41 9  165 232 
 PTB  HZ I         337 44.62         1.8 0.12            125            165 232 
 SML  HZ EP        337 20.51                             126    0.22 9  171 330 
 SML  HN ES   1    337 41.76                             126   -0.88 7  171 330 
 ZAR  HN ES   1    337 43.87                             126    0.70 7  174 271 
 ZAR  HZ I         337 49.32         3.4 0.36            123            174 271 
                                                                                
