 2017  822 0422 15.9 L   6.883 -73.105150.2  RSN  5 0.4 1.2LRSN                1
 GAP=248        1.12       6.8     8.5  8.2  0.2942E+02  0.9682E+01 -0.1202E+01E
 Epicentro: PIEDECUESTA - SANTANDER                                            3
 ACTION:UPD 17-09-04 20:23 OP:rebc STATUS:               ID:20170822042215 L   I
 OLDACT:REG 17-08-22 12:48 OP:osc  STATUS:               ID:20170822041740     3
 2017-08-22-0418-00M.COL___411                                                 6
 STAT SP IPHASW D HRMM SECON CODA AMPLIT PERI AZIMU VELO AIN AR TRES W  DIS CAZ7
 BAR2 EZ EP        422 36.53                             167    0.1810 33.3 195 
 BAR2 EZ ES        422 52.12                             167   -0.1410 33.3 195 
 BAR2 EZ I         422 53.46         2.6 0.28            160           33.3 195 
 BRR  HZ EP        422 38.24                             153    0.6410 71.5 290 
 BRR  HE ES        422 54.79                             153    0.3110 71.5 290 
 RUS  HZ EP        422 40.18                             142   -0.6110  110 179 
 RUS  HN ES        422 59.83                             142   -0.3310  110 179 
 SPBC HZ EP        422 46.04                             128    0.30 9  173 218 
 SPBC HE ES        423  9.36                             128    0.39 9  173 218 
 SPBC HZ I         423 15.39         2.2 0.10            125            173 218 
 ZAR  HZ EP        422 48.76                             123   -0.03 9  205 289 
 ZAR  HN ES        423 13.54                             123   -0.86 9  205 289 
                                                                                
