 2015 1022 0834 42.8 L   6.820 -73.143149.7  RSN 25 0.5 2.5LRSN                1
 GAP= 70        1.13       2.8     3.1  5.0 -0.4398E+00  0.5447E+01  0.1948E+01E
 Epicentro: LOS SANTOS - SANTANDER                                             3
 ACTION:UPD 15-12-22 20:42 OP:cam  STATUS:               ID:20151022083442 L   I
 OLDACT:REG 15-10-22 12:21 OP:mh   STATUS:               ID:20151022082744     3
 2015-10-22-0827-44M.COL___319                                                 6
 STAT SP IPHASW D HRMM SECON CODA AMPLIT PERI AZIMU VELO AIN AR TRES W  DIS CAZ7
 BAR2 EZ EP        835  2.67                             170   -0.2410 25.6 190 
 BAR2 EZ ES        835 18.04                             170   -0.5810 25.6 190 
 BRR  HZ IP     C  835  4.51                             153    0.2210 70.4 297 
 BRR  HN ES        835 21.88                             153    0.8010 70.4 297 
 BRR  HZ I         835 22.47        38.9 0.26            148           70.4 297 
 PAM  EZ EP     C  835  5.48                             152    0.2010 75.5  40 
 PAM  EN ES        835 23.02                             152    0.1710 75.5  40 
 PAM  EZ I         835 25.77        31.0 0.46            154           75.5  40 
 RUS  HZ EP     D  835  6.59                             144   -0.4710  103 176 
 RUS  HN ES        835 25.49                             144   -0.5210  103 176 
 RUS  HZ I         835 26.51        60.4 0.32            145            103 176 
 TAM  HZ IP     C  835 10.95                             131    0.17 9  155 106 
 TAM  HN ES        835 32.73                             131    0.10 9  155 106 
 TAM  HZ I         835 33.27        14.9 0.26            135            155 106 
 OCA  HZ EP        835 10.75                             131   -0.42 9  158 353 
 OCA  HN ES        835 33.69                             131    0.36 9  158 353 
 OCA  HZ I         835 37.34        39.4 0.18            130            158 353 
 SPBC HZ EP        835 11.58                             129   -0.16 9  165 219 
 SPBC HN ES        835 33.75                             129   -0.60 9  165 219 
 SPBC HZ I         835 36.28        78.9 0.34            128            165 219 
 ZAR  HZ EP        835 15.34                             123   -0.07 9  203 292 
 ZAR  HN ES        835 40.97                             123    0.10 9  203 292 
 ZAR  HZ I         835 47.10        30.1 0.12            121            203 292 
 NOR  HZ EP        835 18.87                             119   -0.02 8  236 234 
 NOR  HN ES        835 46.35                             119   -0.71 8  236 234 
 NOR  HZ I         835 52.38        27.5 0.16            118            236 234 
 SML  HZ EP        835 18.80                             118   -0.60 8  242 335 
 SML  HN ES   4    835 49.68                             118    1.70 0  242 335 
 SML  HZ I         835 55.74        49.3 0.10            117            242 335 
 CHI  HZ EP        835 20.77                             118   -0.15 8  251 195 
 CHI  HN ES        835 51.48                             118    0.79 8  251 195 
 CHI  HZ I         835 55.64        15.7 0.32            117            251 195 
 ROSC BZ EP        835 22.16                             117    0.84 8  255 211 
 ROSC BN ES   4    835 55.73                             117    4.33 0  255 211 
 ROSC BZ I         835 58.09        37.2 0.40            117            255 211 
 HEL  HZ EP        835 23.99                             115    0.72 8  273 255 
 HEL  HN ES        835 54.83                             115   -0.03 8  273 255 
 HEL  HZ I         836  1.52        15.7 0.26            114            273 255 
 URE  HZ EP        835 23.06                             114   -0.90 7  283 291 
 URE  HN ES   4    835 53.85                             114   -2.24 0  283 291 
 URE  HZ I         836  4.18        14.4 0.16            113            283 291 
 GUY2CHZ EP        835 27.48                             113    0.75 7  303 234 
 GUY2CHE ES   4    836  2.56                             113    1.54 0  303 234 
 GUY2CHZ I         836 12.76        14.9 0.58                           303 234 
 VIL  SZ EP   1    835 26.35                             112   -0.27 5  306 192 
 VIL  SN ES   1    836  2.28                             112    1.46 5  306 192 
 ELA  HZ EP   4    835 31.73                             111    1.76 0  331 229 
 ELA  HN ES   4    836 10.45                             111    3.65 0  331 229 
 ELA  HZ I         836 21.85        13.9 0.52            110            331 229 
 CBOC HZ EP        835 30.40                             110    0.45 7  335 252 
 CBOC HN ES   2    836  6.69                             110   -0.07 3  335 252 
 CBOC HZ I         836 22.34         4.6 0.66            109            335 252 
 DBB  SZ EP        835 30.32                             110   -0.09 7  340 274 
 DBB  SZ ES        836  8.01                             110    0.43 7  340 274 
 DBB  SZ I         836 10.30        32.9 0.64            109            340 274 
 MON  HZ EP   9    835 29.82                             109   -1.96 0  353 308 
 MON  HN ES        836  8.53                                    0.48 6  353 308 
 MON  HZ I         836 24.13         4.9 0.42            108            353 308 
 ANIL HZ EP   4    835 34.64                             109    1.71 0  359 224 
 ANIL HN ES   4    836 14.90                             109    2.84 0  359 224 
 ANIL HZ I         836 16.56        34.9 0.38            108            359 224 
 ORTC HZ EP        835 37.66                             107    0.61 6  397 216 
 ORTC HN ES        836 19.94                             107    0.55 6  397 216 
 ORTC HZ I         836 25.90        12.2 0.76            106            397 216 
 PAL  HZ EP        835 38.03                             106   -0.19 6  407 239 
 PAL  HE ES        836 20.27                             106   -1.20 6  407 239 
 SJC  HN ES   4    836 18.06                             106   -3.47 0  407 327 
 SJC  HZ I         836 33.22         3.7 0.51            106            407 327 
 PAL  HZ I         836 33.18         5.1 0.40            106            407 239 
 SJC  HZ EP   2    835 36.88                             106   -1.37 3  407 327 
 CRJC HZ EP   4    835 43.05                             104   -2.05 0  465   4 
 CRJC HN ES   4    836 29.15                             104   -4.58 0  465   4 
 CRJC HZ I         836 36.45         6.3 0.50            104            465   4 
 MACC HZ EP   4    835 49.46                             102   -2.38 0  523 189 
 MACC HN ES   4    836 40.57                             102   -5.15 0  523 189 
                                                                                
