 2011  922 0530  9.0 L   6.788 -73.126142.4  RSN 11 0.4 2.2LRSN                1
 GAP=161        0.76       2.6     4.2  4.9  0.2183E+01  0.4474E+01  0.2004E+01E
 Epicentro: LOS SANTOS - SANTANDER                                             3
 ACTION:UPD 12-07-13 15:59 OP:ep   STATUS:               ID:20110922053009 L   I
 2011-09-22-0529-03S.COL___152                                                 6
 STAT SP IPHASW D HRMM SECON CODA AMPLIT PERI AZIMU VELO AIN AR TRES W  DIS CAZ7
 BTL  SZ EP   1    530 28.57                             171    0.43 7 21.3 313 
 BAR2 SZ EP        530 28.37                             171    0.2010 22.5 196 
 BAR2 SZ ES        530 42.73                             171   -0.4210 22.5 196 
 BAR2 SZ I         530 44.13        59.7 0.23                          22.5 196 
 BRR  HZ IP     C  530 30.35                             151    0.4610 73.8 299 
 BRR  HN ES        530 46.76                             151    0.5310 73.8 299 
 BRR  HZ I         530 48.39        48.4 0.12                          73.8 299 
 RUS  HZ EP        530 32.43                             143    0.1610 99.1 177 
 RUS  HE ES   1    530 50.09                             143   -0.36 7 99.1 177 
 RUS  HZ I         530 52.39        15.9 0.33                          99.1 177 
 OCA  SZ EP        530 37.11                             128   -0.05 9  162 352 
 OCA  SZ ES        530 58.53                             128   -0.63 9  162 352 
 OCA  SZ I         531  2.39        38.6 0.48                           162 352 
 YOP  SZ ES   1    531  1.70                             126    0.09 7  177 154 
 ZAR  HZ EP   2    530 40.77                             121   -0.68 4  207 292 
 ZAR  HN ES   1    531  6.91                             121    0.11 6  207 292 
 NOR  SZ EP   1    530 44.36                             118   -0.24 6  236 235 
 NOR  SE ES   2    531 12.21                             118   -0.19 4  236 235 
 CHI  HZ EP   1    530 46.50                             116    0.11 6  248 196 
 CHI  HN ES   1    531 15.28                             116   -0.31 6  248 196 
 CHI  HZ I         531 20.05         4.6 0.57                           248 196 
 HEL  HZ EP   1    530 48.94                             114   -0.26 6  274 256 
 HEL  HN ES   1    531 20.15                             114   -0.44 6  274 256 
 HEL  HZ I         531 27.45         6.7 0.35                           274 256 
 PRA  HZ EP   1    531  2.54                             106    0.19 4  392 210 
 PRA  HE ES   1    531 44.04                             106    0.04 4  392 210 
                                                                                
