 2015 1022 0201 50.9 L   6.813 -73.133140.8  RSN  9 0.4 1.8LRSN                1
 GAP=137        0.92       3.1     4.8  5.7  0.7061E+00  0.1087E+02  0.1141E+01E
 Epicentro: LOS SANTOS - SANTANDER                                             3
 ACTION:UPD 15-12-22 20:42 OP:cam  STATUS:               ID:20151022020150 L   I
 OLDACT:REG 15-10-22 12:12 OP:mh   STATUS:               ID:20151022015750     3
 2015-10-22-0157-50M.COL___319                                                 6
 STAT SP IPHASW D HRMM SECON CODA AMPLIT PERI AZIMU VELO AIN AR TRES W  DIS CAZ7
 BAR2 EZ EP   1    2 2 10.01                             170    0.07 7 25.0 193 
 BAR2 EZ ES        2 2 24.23                             170   -0.5810 25.0 193 
 BAR2 EZ I         2 2 26.00         9.7 0.14            169           25.0 193 
 BRR  HZ EP   1    2 2 11.75                             151    0.23 7 71.8 297 
 BRR  HN ES   1    2 2 28.59                             151    0.97 7 71.8 297 
 PAM  EZ EP        2 2 12.86                             150    0.4210 75.4  39 
 PAM  EN ES        2 2 29.49                             150    0.2310 75.4  39 
 PAM  EZ I         2 2 31.69         9.6 0.50            152           75.4  39 
 RUS  HZ EP   1    2 2 14.05                             142   -0.18 7  102 177 
 RUS  HN ES        2 2 32.25                             142   -0.2110  102 177 
 RUS  HZ I         2 2 32.78         8.2 0.36            144            102 177 
 SPBC HZ EP   1    2 2 19.02                             128   -0.16 7  165 219 
 SPBC HN ES   1    2 2 41.23                             128   -0.03 7  165 219 
 SPBC HZ I         2 2 44.73        10.5 0.24            127            165 219 
 ZAR  HZ EP        2 2 22.95                             121   -0.12 9  205 292 
 ZAR  HN ES        2 2 48.32                             121    0.13 9  205 292 
 ZAR  HZ I         2 2 54.14        14.2 0.32            120            205 292 
 SML  HZ EP   1    2 2 26.37                             116   -0.78 6  243 335 
 SML  HN ES   1    2 2 54.48                             116   -0.96 6  243 335 
 SML  HZ I         2 3  2.54         9.2 0.24            116            243 335 
 CHI  HZ EP        2 2 28.84                             116    0.36 8  250 195 
 CHI  HN ES        2 2 57.63                             116   -0.19 8  250 195 
 CHI  HZ I         2 3  4.65         2.1 0.30            116            250 195 
 GUY2CHZ EP        2 2 34.73                             111    0.26 7  303 235 
 GUY2CHN ES   4    2 3  9.29                             111    0.81 0  303 235 
 GUY2CHZ I         2 3 14.11         2.3 0.28                           303 235 
                                                                                
