 2015  422 0235 17.9 L   6.835 -73.150142.9  RSN 18 0.5 2.4LRSN                1
 GAP=134        1.10       2.9     3.9  5.3 -0.2623E+01  0.6258E+01  0.1525E+01E
 Epicentro: LOS SANTOS - SANTANDER                                             3
 ACTION:UPD 15-06-03 16:56 OP:cam  STATUS:               ID:20150422023517 L   I
 OLDACT:REG 15-04-22 12:09 OP:ak   STATUS:               ID:20150422022749     3
 2015-04-22-0227-49M.COL___274                                                 6
 STAT SP IPHASW D HRMM SECON CODA AMPLIT PERI AZIMU VELO AIN AR TRES W  DIS CAZ7
 BAR2 EZ IP     C  235 37.24                             169   -0.0510 27.0 188 
 BAR2 EZ ES        235 52.47                             169    0.0810 27.0 188 
 BAR2 EZ I         235 53.63        48.2 0.18            168           27.0 188 
 BRR  HZ IP     C  235 39.02                             153    0.3910 69.0 296 
 BRR  HE ES        235 55.14                             153    0.3510 69.0 296 
 BRR  HZ I         235 58.33        34.7 0.12            149           69.0 296 
 PAM  SZ IP     C  235 40.16                             151    0.4910 74.8  42 
 PAM  SE ES        235 57.15                             151    0.5110 74.8  42 
 PAM  SZ I         235 59.42        34.3 0.66            155           74.8  42 
 RUS  HZ EP        235 41.28                             142   -0.3910  104 176 
 RUS  HN ES        235 59.64                             142   -0.5610  104 176 
 RUS  HZ I         236  1.75        27.2 0.30            145            104 176 
 PTB  HZ EP        235 44.04                             131   -0.64 9  148 257 
 PTB  HN ES        236  4.89                             131   -0.67 9  148 257 
 PTB  HZ I         236  6.55        37.2 0.38            130            148 257 
 OCA  HZ EP        235 45.37                             130   -0.27 9  156 353 
 OCA  HN ES        236  6.94                             130   -0.33 9  156 353 
 OCA  HZ I         236 11.81        80.0 0.28            130            156 353 
 SPBC HZ EP        235 46.25                             128   -0.21 9  166 218 
 SPBC HN ES        236  8.32                             128   -0.40 9  166 218 
 SPBC HZ I         236 15.31        43.2 0.14            128            166 218 
 ZAR  HZ EP   1    235 50.07                             122    0.09 6  202 291 
 ZAR  HE ES        236 15.53                             122    0.53 9  202 291 
 ZAR  HZ I         236 22.77        25.7 0.27            121            202 291 
 NOR  HZ EP        235 53.48                             118   -0.20 8  237 234 
 NOR  HE ES        236 21.42                             118   -0.16 8  237 234 
 NOR  HZ I         236 27.29        22.0 0.16            118            237 234 
 SML  HZ EP        235 53.64                             117   -0.34 8  240 335 
 SML  HE ES   2    236 21.47                             117   -0.65 4  240 335 
 SML  HZ I         236 27.20        32.6 0.12            118            240 335 
 CHI  HZ IP     C  235 55.69                             116   -0.16 8  252 195 
 CHI  HN ES   2    236 25.16                             116   -0.27 4  252 195 
 CHI  HZ I         236 28.42        12.3 0.40            118            252 195 
 ROSC BZ EP   1    235 56.91                             116    0.69 6  256 210 
 ROSC BN ES        236 26.74                             116    0.65 8  256 210 
 HEL  HZ EP   1    235 58.34                             114    0.30 6  273 255 
 HEL  HN ES   1    236 29.25                             114   -0.09 6  273 255 
 HEL  HZ I         236 37.57        17.9 0.62            114            273 255 
 GUY2CHZ EP        236  1.63                             112    0.03 7  303 234 
 GUY2CHN ES   4    236 37.88                             112    2.21 0  303 234 
 GUY2CHZ I         236 43.69        17.0 0.58                           303 234 
 CBOC HZ EP        236  5.17                             109    0.37 7  334 251 
 CBOC HN ES        236 40.79                             109   -0.58 7  334 251 
 CBOC HZ I         236 53.23         5.3 0.58            110            334 251 
 TOL  SE ES        236 46.07                             109    1.97 6  346 224 
 MON  HZ EP   4    236  4.45                             108   -2.04 0  351 308 
 MON  HN ES   4    236 42.78                             108   -1.60 0  351 308 
 MON  HZ I         236 49.30         4.2 0.18            109            351 308 
 ORTC HZ EP        236 12.27                             106    0.20 6  398 216 
 ORTC HN ES   2    236 55.28                             106    0.97 3  398 216 
 ORTC HZ I         237  2.50         6.7 0.50            107            398 216 
 SJC  HZ EP   4    236 11.29                             105   -1.69 0  406 327 
 SJC  HN ES   4    236 51.42                             105   -4.50 0  406 327 
                                                                                
