 2011  622 0727  3.1 L   6.747 -73.121145.2  RSN  4 0.2 1.1LRSN                1
 GAP=218        0.48       7.8    12.6  5.2  0.7601E+02 -0.9640E+01 -0.3089E+00E
 Epicentro: LOS SANTOS - SANTANDER                                             3
 ACTION:UP  11-07-14 19:07 OP:ep   STATUS:               ID:20110622072703 L   I
 2011-06-22-0725-21S.COL___139                                                 6
 STAT SP IPHASW D HRMM SECON CODA AMPLIT PERI AZIMU VELO SNR AR TRES W  DIS CAZ7
 BAR2 SZ EP   1    727 22.30                             172    -0.3 7   18 202 
 BAR2 SZ ES   1    727 37.68                             172    -0.1 7   18 202 
 BAR2 SZ I         727 38.55         3.0 0.49                            18 202 
 BTL  SZ EP   1    727 22.69                             170    -0.1 7   25 319 
 BTL  SZ ES   1    727 38.28                             170     0.3 7   25 319 
 BRR  HZ EP   1    727 24.61                             151     0.1 7   77 301 
 BRR  HZ I         727 26.15         3.5 0.33                            77 301 
 BRR  HE ES   1    727 41.17                             151    -0.1 7   77 301 
 RUS  HZ EP   1    727 26.67                             145     0.3 7   95 177 
 RUS  HN ES   2    727 44.48                             145    -0.1 5   95 177 
 RUS  HZ I         727 46.08         1.6 0.36                            95 177 
                                                                                
