 2014  422 0015 38.5 L   6.111 -73.658110.4  RSN  5 0.5 1.3LRSN                1
 GAP=152        1.21       6.5     5.1 11.1  0.3412E+01  0.1399E+02 -0.3023E+02E
 Epicentro: CHIPATA - SANTANDER                                                3
 ACTION:UPD 14-05-13 23:10 OP:nd   STATUS:               ID:20140422001538 L   I
 OLDACT:REG 14-04-22 12:40 OP:spq  STATUS:               ID:20140422000817     3
 2014-04-22-0008-17M.COL___242                                                 6
 STAT SP IPHASW D HRMM SECON CODA AMPLIT PERI AZIMU VELO AIN AR TRES W  DIS CAZ7
 RUS  HZ EP        015 57.17                             146    0.7110 68.1 111 
 RUS  HN ES        016 10.15                             146   -0.3010 68.1 111 
 RUS  HZ I         016 13.20         3.5 0.24            151           68.1 111 
 SPBC HZ EP        015 55.92                             146    0.0110 68.4 222 
 SPBC HN ES        016  9.17                             146   -0.3110 68.4 222 
 SPBC HZ I         016 12.60         6.6 0.18            150           68.4 222 
 PTB  HZ EP   1    015 57.10                             134   -1.20 7  100 298 
 PTB  HN ES   1    016 14.55                             134    0.81 7  100 298 
 PTB  HZ I         016 15.46         3.4 0.12            138            100 298 
 NOR  HZ EP        016  2.70                             122   -0.15 9  147 246 
 NOR  HN ES        016 22.15                             122    0.31 9  147 246 
 NOR  HZ I         016 23.22         2.5 0.30            127            147 246 
 ZAR  HZ EP        016  8.95                             113    0.21 9  202 319 
 ZAR  HN ES        016 32.06                             113   -0.25 9  202 319 
 ZAR  HZ I         016 34.64         3.4 0.20            117            202 319 
                                                                                
