 2013  122 0536 36.6 L   6.822 -73.138149.1  RSN 17 0.6 2.9LRSN 3.4WRSN        1
 SPEC AVERAGE  MO 14.2 ST 17.2 OM  2.1 f0 3.99 R0.3789 AL 2.19 WI 27.9 MW  3.4 3
 SPEC SD       MO  0.2 ST 15.1 OM  0.5 f00.676 R0.0624 AL      WI      MW  0.1 3
 GAP= 71        1.40       4.1     4.2  6.2 -0.1665E+01  0.6028E+01  0.2783E+01E
 Epicentro: LOS SANTOS - SANTANDER                                             3
 SPEC ZAR HH E MO 14.6 ST 55.8 OM  2.8 f0 4.77 R0.3082 AL 3.33 WI 32.9 MW  3.7 3
 SPEC ZAR HH E T 53733 K 0.000 GD  252 VS 4.20 DE 3.00 Q0230.0 QA 0.60 VS 4.20 3
 SPEC RREFHH Z MO 14.2 ST 20.7 OM  1.5 f0 4.58 R0.3210 AL 2.61 WI 34.8 MW  3.4 3
 SPEC RREFHH Z T 53723 K 0.000 GD  356 VP 7.60 DE 3.00 Q0230.0 QA 0.60 VS 4.20 3
 SPEC TAM HH Z MO 14.0 ST  6.7 OM  1.5 f0 3.73 R0.3941 AL 1.30 WI  7.4 MW  3.3 3
 SPEC TAM HH Z T 537 4 K 0.000 GD  215 VP 7.60 DE 3.00 Q0230.0 QA 0.60 VS 4.20 3
 SPEC OCA HH N MO 14.3 ST 34.2 OM  2.6 f0 4.97 R0.2958 AL 2.43 WI 29.9 MW  3.5 3
 SPEC OCA HH N T 53725 K 0.000 GD  217 VS 4.20 DE 3.00 Q0230.0 QA 0.60 VS 4.20 3
 SPEC PTB HH N MO 14.2 ST  9.6 OM  2.5 f0 3.55 R0.4141 AL 1.27 WI 40.6 MW  3.4 3
 SPEC PTB HH N T 53724 K 0.000 GD  210 VS 4.20 DE 3.00 Q0230.0 QA 0.60 VS 4.20 3
 SPEC PAM SH Z MO 13.9 ST  7.7 OM  1.5 f0 4.24 R0.3467 AL 2.17 WI 16.1 MW  3.2 3
 SPEC PAM SH Z T 53659 K 0.000 GD  166 VP 7.60 DE 3.00 Q0230.0 QA 0.60 VS 4.20 3
 SPEC ANILHH Z MO 14.0 ST  5.2 OM  1.3 f0 3.27 R0.4495 AL 1.47 WI 37.1 MW  3.3 3
 SPEC ANILHH Z T 53727 K 0.000 GD  389 VP 7.60 DE 3.00 Q0230.0 QA 0.60 VS 4.20 3
 SPEC HEL HH Z MO 14.1 ST  6.3 OM  1.5 f0 3.22 R0.4565 AL 1.75 WI 30.0 MW  3.4 3
 SPEC HEL HH Z T 53716 K 0.000 GD  311 VP 7.60 DE 3.00 Q0230.0 QA 0.60 VS 4.20 3
 SPEC CHI HH N MO 14.0 ST  6.1 OM  2.2 f0 3.44 R0.4273 AL 2.52 WI 30.7 MW  3.3 3
 SPEC CHI HH N T 53742 K 0.000 GD  291 VS 4.20 DE 3.00 Q0230.0 QA 0.60 VS 4.20 3
 SPEC BRR HH N MO 14.2 ST 24.8 OM  2.6 f0 4.89 R0.3006 AL 3.39 WI 33.0 MW  3.4 3
 SPEC BRR HH N T 53716 K 0.000 GD  165 VS 4.20 DE 3.00 Q0230.0 QA 0.60 VS 4.20 3
 SPEC BAR2SH Z MO 14.4 ST 12.4 OM  2.1 f0 3.24 R0.4537 AL 1.89 WI 14.1 MW  3.6 3
 SPEC BAR2SH Z T 53656 K 0.000 GD  151 VP 7.60 DE 3.00 Q0230.0 QA 0.60 VS 4.20 3
 ACTION:UPD 13-02-15 09:15 OP:ep   STATUS:               ID:20130122053636 L   I
 2013-01-22-0528-40M.COL___183                                                 6
 STAT SP IPHASW D HRMM SECON CODA AMPLIT PERI AZIMU VELO AIN AR TRES W  DIS CAZ7
 BAR2 SZ IP        536 56.79                             170    0.0810 25.9 191 
 BAR2 SZ I         536 56.95       177.8 0.40            170           25.9 191 
 BAR2 SZ ES        537 12.20                             170   -0.1710 25.9 191 
 BRR  HZ IP     D  536 58.65                             153    0.5310 70.8 296 
 BRR  HN ES        537 16.14                             153    1.2710 70.8 296 
 PAM  SZ IP     C  536 59.56                             152    0.5010 75.0  40 
 PAM  SN ES        537 16.02                             152   -0.5410 75.0  40 
 RUS  HZ IP     D  537  0.67                             144   -0.2110  103 177 
 RUS  HE ES        537 19.39                             144   -0.4010  103 177 
 PTB  HZ EP        537  3.26                             132   -0.73 9  149 258 
 PTB  HN ES        537 24.38                             132   -0.94 9  149 258 
 TAM  HZ IP     D  537  4.96                             131    0.40 9  155 106 
 TAM  HZ I         537  5.09        99.4 0.34            131            155 106 
 TAM  HN ES        537 26.53                             131    0.19 9  155 106 
 OCA  HZ EP        537  5.10                             131    0.11 9  158 353 
 OCA  HE ES        537 26.79                             131   -0.31 9  158 353 
 ZAR  HZ EP        537  9.34                             123    0.06 9  204 291 
 CHI  HZ EP        537 14.78                             117   -0.01 8  251 195 
 CHI  HN ES        537 43.93                             117   -0.62 8  251 195 
 HEL  HZ EP        537 17.31                             115    0.14 8  273 255 
 HEL  HN ES        537 49.68                             115    0.89 8  273 255 
 URE  HZ EP        537 16.68                             114   -1.17 7  284 291 
 VIL  SZ EP        537 20.46                             112   -0.03 7  306 192 
 RREF HZ EP        537 23.77                             111    0.60 7  324 229 
 TOL  SZ EP        537 26.23                             110    0.94 6  346 224 
 SDV  BZ EP        537 26.10                             109   -0.45 6  358  50 
 ANIL HZ EP        537 27.84                             109    1.01 6  360 224 
 ANIL HN ES        538  5.74                             109   -0.25 6  360 224 
 SJC  HN EP        537 31.05                             106   -1.07 6  408 327 
                                                                                
