 2011  922 0552  5.7 L   6.780 -73.146141.1  RSN  6 0.2 1.4LRSN                1
 GAP=183        0.43       5.2     6.5  5.7  0.2417E+02 -0.1442E+02 -0.6757E+01E
 Epicentro: LOS SANTOS - SANTANDER                                             3
 ACTION:UPD 12-07-13 15:59 OP:ep   STATUS:               ID:20110922055205 L   I
 2011-09-22-0548-46S.COL___152                                                 6
 STAT SP IPHASW D HRMM SECON CODA AMPLIT PERI AZIMU VELO AIN AR TRES W  DIS CAZ7
 BTL  SZ EP        552 24.98                             171    0.2510 20.4 319 
 BAR2 SZ EP        552 24.62                             171   -0.1210 21.1 191 
 BAR2 SZ I         552 25.38         5.5 0.39                          21.1 191 
 BRR  HZ EP        552 26.32                             152   -0.1010 72.3 300 
 BRR  HZ I         552 26.57         6.3 0.16                          72.3 300 
 BRR  HN ES        552 42.53                             152   -0.0410 72.3 300 
 RUS  HZ EP   1    552 28.64                             144   -0.20 7 98.4 176 
 RUS  HE ES   2    552 47.14                             144    0.25 5 98.4 176 
 RUS  HZ I         552 48.86         2.4 0.31                          98.4 176 
 OCA  SZ EP   2    552 33.91                             128    0.04 5  162 353 
 OCA  SZ I         552 39.89         3.4 0.35                           162 353 
 ZAR  HZ EP   2    552 38.39                             121    0.45 4  205 293 
 ZAR  HN ES   2    553  2.91                             121   -0.17 4  205 293 
 ZAR  HZ I         553  9.32         3.4 0.23                           205 293 
                                                                                
