 2014  422 0314  2.1 L   6.988 -73.095130.0  RSN  4 0.3 1.3LRSN                1
 GAP=288        0.78       8.9     5.5 11.1  0.1297E+02  0.2975E+01 -0.4820E+02E
 Epicentro: PIEDECUESTA - SANTANDER                                            3
 ACTION:UPD 14-05-13 23:10 OP:nd   STATUS:               ID:20140422031402 L   I
 OLDACT:DUP 14-04-22 17:09 OP:carl STATUS:               ID:20140422030815d    3
 2014-04-22-0308-14M.COL___236                                                 6
 STAT SP IPHASW D HRMM SECON CODA AMPLIT PERI AZIMU VELO AIN AR TRES W  DIS CAZ7
 RUS  HZ EP        314 26.11                             135    0.0710  121 179 
 RUS  HE ES        314 44.89                             135    0.1910  121 179 
 RUS  HZ I         314 47.49         2.3 0.36            135            121 179 
 PTB  HZ EP        314 28.52                             126   -0.36 9  158 252 
 PTB  HN ES        314 50.03                             126    0.27 9  158 252 
 PTB  HZ I         314 53.60         2.6 0.14            127            158 252 
 SPBC HE ES        314 53.78                             122   -0.59 9  183 216 
 SPBC HZ I         315  0.92         3.0 0.20            123            183 216 
 GUY2CHZ EP        314 47.15                             108    0.17 7  318 232 
 GUY2CHN ES        315 22.42                             108    0.43 7  318 232 
 GUY2CHZ I         315 26.86         1.1 0.30                           318 232 
                                                                                
