 2010  422 0708  1.4 L   6.740 -73.051141.1  RSN 11 0.5 2.2LRSN                1
 GAP=163        0.91       8.5     8.7  8.4 -0.5011E+02 -0.2863E+02  0.1872E+02E
 Epicentro: ARATOCA - SANTANDER                                                3
 ACTION:UPD 10-08-24 10:00 OP:vdl  STATUS:               ID:20100422070801 L   I
 2010-04-22-0704-34S.COL___104                                                 6
 STAT SP IPHASW D HRMM SECON CODA AMPLIT PERI AZIMU VELO SNR AR TRES W  DIS CAZ7
 BAR2 SZ EP   2    7 8 20.10                             171    -0.4 5   22 222 
 BAR2 SZ ES   2    7 8 34.34                             171    -1.0 5   22 222 
 GIR2 SZ ES   2    7 8 36.35                             164     0.4 5   41 337 
 BRR  HZ IP     C  7 8 23.04                             148     0.210   84 299 
 BRR  HE ES   1    7 8 39.67                             148     0.1 7   84 299 
 BRR  HZ I         7 8 44.04        45.4 0.12                            84 299 
 BRI  SZ IP        7 8 25.27                             140     0.210  112  15 
 GUE  SZ EP        7 8 26.61                             137     0.510  121   7 
 GRA  SZ IP        7 8 26.54                             135     0.010  130  12 
 GRA  SZ ES   2    7 8 46.18                             135     0.0 5  130  12 
 OCA  SZ EP   1    7 8 29.13                             127    -1.0 7  168 350 
 OCA  SZ I         7 8 30.37        41.4 0.07                           168 350 
 HEL  HZ EP   2    7 8 42.20                             113    -0.2 4  281 258 
 HEL  HN ES   2    7 9 13.73                             113    -0.6 4  281 258 
 HEL  HZ I         7 9 21.32         4.7 0.23                           281 258 
 RREF BE ES   2    7 9 23.71                             110    -0.3 3  326 231 
 RREF BZ I         7 9 34.85         5.2 0.39                           326 231 
 SDV  BZ IP     D  7 8 50.50                             108    -0.4 6  357  48 
 SDV  BZ I         7 9 30.61         2.8 0.49                           357  48 
 PRA  HZ EP   2    7 8 55.17                             106     0.4 3  392 211 
 PRA  HE ES   2    7 9 36.98                             106     0.7 3  392 211 
 PRA  HZ I         7 9 42.72         3.7 0.12                           392 211 
                                                                                
