 2011  422 0616 35.0 L   6.798 -73.110148.3  RSN 12 0.4 2.5LRSN                1
 GAP=117        1.02       3.8     6.2  6.1 -0.2749E+01  0.2475E+01  0.2222E+01E
 Epicentro: LOS SANTOS - SANTANDER                                             3
 ACTION:UP  11-06-22 15:32 OP:REBC STATUS:               ID:20110422061635 L   I
 2011-04-22-0614-55S.COL___138                                                 6
 STAT SP IPHASW D HRMM SECON CODA AMPLIT PERI AZIMU VELO SNR AR TRES W  DIS CAZ7
 BAR2 SZ EP        616 54.63                             170    -0.410   24 199 
 BAR2 SZ ES   1    617  9.86                             170    -0.7 7   24 199 
 GIR2 SZ IP        616 54.84                             167    -0.210   32 343 
 GIR2 SZ ES   1    617 10.84                             167     0.2 7   32 343 
 BRR  HZ IP     C  616 56.63                             152     0.010   75 297 
 BRR  HZ I         616 56.87        89.6 0.14                            75 297 
 BRR  HN ES   1    617 14.21                             152     0.7 7   75 297 
 PAM  SZ EP        616 57.56                             152     0.210   75  37 
 PAM  SN ES   1    617 15.31                             152     0.5 7   75  37 
 RUS  HZ EP        616 58.82                             144    -0.210  100 178 
 RUS  HN ES   1    617 17.21                             144    -0.5 7  100 178 
 BRI  SZ IP        616 59.29                             142     0.210  107  19 
 GRA  SZ IP        617  0.59                             138     0.210  125  16 
 GRA  SZ I         617  1.68        29.2 0.40                           125  16 
 OCA  SZ EP        617  2.95                             130    -0.7 9  161 352 
 OCA  SZ I         617 31.35        22.6 0.29                           161 352 
 YOP  SZ EP        617  5.24                             127     0.2 9  177 154 
 YOP  SN ES   1    617 29.01                             127     0.5 7  177 154 
 NOR  SZ EP        617 11.80                             119     0.5 8  238 235 
 NOR  SN ES   2    617 38.92                             119    -0.6 4  238 235 
 ROSC BZ EP   2    617 14.32                             117     0.8 4  255 212 
 ROSC BN ES   2    617 44.58                             117     1.1 4  255 212 
 ROSC BZ I         617 52.43        16.3 0.56                           255 212 
 PRA  HZ EP        617 28.48                             107    -0.4 6  394 210 
 PRA  HZ I         618 13.60        14.9 0.26                           394 210 
                                                                                
