 2012  822 0221 11.5 L   6.989 -73.403 10.0  RSN 10 0.4 1.9LRSN                1
 GAP= 84        0.79       2.0     2.0  4.4  0.7327E+00  0.3472E+01 -0.1803E+00E
 Epicentro: SAN VICENTE DE CHUCURI - SANTANDER                                 3
 ACTION:UPD 12-09-10 11:57 OP:ep   STATUS:               ID:20120822022111 L   I
 2012-08-22-0220-00M.COL___218                                                 6
 STAT SP IPHASW D HRMM SECON CODA AMPLIT PERI AZIMU VELO AIN AR TRES W  DIS CAZ7
 GIR2 SZ IP        221 16.16                             109   -0.0610 25.2  67 
 BRR  HZ IP     D  221 17.72                             102   -0.0310 36.5 291 
 BRR  HN ES   1    221 22.63                             102    0.03 7 36.5 291 
 BRR  HZ I         221 23.89       247.9 0.20                          36.5 291 
 BAR2 SZ EP   1    221 20.56                              99    0.51 7 50.2 151 
 BAR2 SZ ES   1    221 26.67                              99   -0.02 7 50.2 151 
 BAR2 SZ I         221 28.32        30.2 0.33                          50.2 151 
 PAM  SZ EP   1    221 25.72                              95   -0.10 7 86.8  63 
 PAM  SZ I         221 37.09        26.7 0.17                          86.8  63 
 RUS  HZ EP   1    221 32.50                              93    0.69 7  126 164 
 RUS  HN ES        221 46.96                              93   -0.6610  126 164 
 RUS  HZ I         221 50.54         4.7 0.24                           126 164 
 PTB  HZ EP        221 31.64                              93    0.2810  127 247 
 PTB  HN ES        221 46.79                              93   -0.0310  127 247 
 PTB  HZ I         221 47.61        26.2 0.19                           127 247 
 OCA  HZ EP   1    221 33.71                              93    0.41 7  138   4 
 OCA  HN ES   2    221 49.84                              93   -0.42 5  138   4 
 OCA  HZ I         221 54.92        39.6 0.30                           138   4 
 ZAR  HZ EP   1    221 37.23                              56   -0.32 7  170 289 
 ZAR  HN ES        221 57.42                              56   -0.41 9  170 289 
 ZAR  HZ I         221 58.42        19.2 0.26                           170 289 
 NOR  SN ES   2    222 11.26                              56    0.83 4  226 226 
 HEL  HZ EP   1    221 48.54                              56    0.42 6  251 250 
 HEL  HN ES   2    222 16.39                              56   -0.26 4  251 250 
                                                                                
