 2015 1222 0422 39.8 L   6.780 -73.162141.3  RSN  5 0.4 1.4LRSN                1
 GAP=245        1.05       6.2     6.9  7.7  0.7399E+01  0.1166E+02  0.1917E+01E
 Epicentro: LOS SANTOS - SANTANDER                                             3
 ACTION:UPD 16-02-04 15:06 OP:cam  STATUS:               ID:20151222042239 L   I
 OLDACT:REG 15-12-22 12:50 OP:dnl  STATUS:               ID:20151222041746     3
 2015-12-22-0417-46M.COL___334                                                 6
 STAT SP IPHASW D HRMM SECON CODA AMPLIT PERI AZIMU VELO AIN AR TRES W  DIS CAZ7
 BAR2 EZ EP        422 58.57                             171   -0.2810 20.9 186 
 BAR2 EZ ES        423 13.80                             171    0.0910 20.9 186 
 BAR2 EZ I         423 14.74         8.1 0.25            171           20.9 186 
 BRR  HZ EP        423  0.51                             152    0.0610 70.7 301 
 BRR  HN ES        423 16.65                             152    0.1110 70.7 301 
 BRR  HZ I         423 25.57         4.1 0.20            148           70.7 301 
 PTB  HZ EP        423  5.55                             131   -0.66 9  146 260 
 PTB  HE ES        423 26.28                             131   -0.53 9  146 260 
 PTB  HZ I         423 28.78         3.1 0.10            132            146 260 
 SPBC HZ EP        423  7.62                             129   -0.08 9  160 219 
 SPBC HN ES        423 30.03                             129    0.58 9  160 219 
 SPBC HZ I         423 33.65         3.5 0.08            131            160 219 
 ZAR  HZ EP        423 12.71                             121    0.83 9  203 293 
 ZAR  HE ES        423 36.94                             121    0.05 9  203 293 
 ZAR  HZ I         423 45.38         2.3 0.10            122            203 293 
                                                                                
