 2012  722 0922  6.1 L   6.716 -73.164156.8  RSN  5 0.4 1.6LRSN                1
 GAP=229        0.86       9.7     8.9 10.6  0.4867E+02  0.2563E+02 -0.2843E+01E
 Epicentro: VILLANUEVA - SANTANDER                                             3
 ACTION:UPD 12-08-14 11:46 OP:ep   STATUS:               ID:20120722092206 L   I
 2012-07-22-0920-00M.COL___215                                                 6
 STAT SP IPHASW D HRMM SECON CODA AMPLIT PERI AZIMU VELO AIN AR TRES W  DIS CAZ7
 BAR2 SZ EP   1    922 26.98                             175     0.1 7   14 188 
 BAR2 SZ ES   1    922 42.51                             175    -0.6 7   14 188 
 BAR2 SZ I         922 44.35         6.4 0.59            170             14 188 
 BRR  HZ EP   2    922 28.81                             153     0.2 5   74 306 
 BRR  HN ES   1    922 46.71                             153     0.5 7   74 306 
 BRR  HZ I         922 48.38         9.2 0.15            151             74 306 
 RUS  HN ES   1    922 49.45                             148     0.2 7   92 174 
 RUS  HZ I         922 52.74         5.1 0.47            148             92 174 
 PTB  HZ EP   1    922 33.53                             135    -0.1 7  144 262 
 PTB  HN ES   1    922 55.28                             135     0.1 7  144 262 
 PTB  HZ I         922 58.21         3.4 0.13            133            144 262 
 ZAR  HE ES   1    923  5.08                             124    -0.4 6  206 295 
 ZAR  HZ I         923 12.94         4.3 0.39            124            206 295 
