 2012  422 0236  3.4 L   7.042 -73.446111.0  RSN  5 0.4 1.5LRSN                1
 GAP=140        0.94       7.7     4.2  9.3 -0.7021E+01  0.1178E+02 -0.1591E+02E
 Epicentro: SAN VICENTE DE CHUCURI - SANTANDER                                 3
 ACTION:UPD 12-07-05 11:55 OP:tino STATUS:               ID:20120422023603 L   I
 2012-04-22-0230-00M.COL___186                                                 6
 STAT SP IPHASW D HRMM SECON CODA AMPLIT PERI AZIMU VELO AIN AR TRES W  DIS CAZ7
 BRR  HZ EP   1    236 18.73                             164     0.0 8   30 284 
 BRR  HE ES   1    236 30.63                             164    -0.1 8   30 284 
 BRR  HZ I         236 31.04        17.1 0.14                            30 284 
 BAR2 SZ EP   1    236 20.93                             151     0.5 8   58 150 
 BAR2 SZ ES   1    236 33.70                             151     0.0 8   58 150 
 BAR2 SZ I         236 35.24        14.1 0.21                            58 150 
 PAM  SZ EP   1    236 23.47                             139     0.5 8   89  68 
 PAM  SZ I         236 25.16         5.4 0.22                            89  68 
 PAM  SN ES   1    236 37.77                             139    -0.4 8   89  68 
 PTB  HZ EP   1    236 24.91                             128    -0.6 7  125 244 
 PTB  HN ES        236 42.78                             128     0.010  125 244 
 PTB  HZ I         236 45.95         3.2 0.11                           125 244 
 ZAR  HZ EP   1    236 29.01                             120    -0.5 7  164 288 
 ZAR  HN ES   1    236 50.37                             120     0.6 7  164 288 
                                                                                
