 2017  122 0629 56.1 L   6.805 -73.156149.4  RSN 19 0.5 2.3LRSN                1
 GAP= 65        0.89       3.0     2.7  4.3  0.1075E+01  0.3277E+01  0.1426E+01E
 Epicentro: LOS SANTOS - SANTANDER                                             3
 ACTION:UPD 17-05-22 16:02 OP:jn   STATUS:               ID:20170122062956 L   I
 OLDACT:UP  17-01-22 16:22 OP:dani STATUS:               ID:20170122062749     3
 OLDACT:UP  17-01-22 16:21 OP:dani STATUS:               ID:20170122062749     3
 OLDACT:UP  17-01-22 16:21 OP:dani STATUS:               ID:20170122062749     3
 OLDACT:UP  17-01-22 16:21 OP:dani STATUS:               ID:20170122062749     3
 OLDACT:UP  17-01-22 16:20 OP:dani STATUS:               ID:20170122062749     3
 OLDACT:UP  17-01-22 16:20 OP:dani STATUS:               ID:20170122062749     3
 OLDACT:UP  17-01-22 16:19 OP:dani STATUS:               ID:20170122062749     3
 OLDACT:UP  17-01-22 16:19 OP:dani STATUS:               ID:20170122062749     3
 OLDACT:REG 17-01-22 13:08 OP:dani STATUS:               ID:20170122062749     3
 2017-01-22-0628-00M.COL___331                                                 6
 STAT SP IPHASW D HRMM SECON CODA AMPLIT PERI AZIMU VELO AIN AR TRES W  DIS CAZ7
 BAR2 EZ EP     D  630 15.98                             171   -0.1410 23.6 187 
 BAR2 EZ ES        630 31.21                             171   -0.5610 23.6 187 
 BAR2 EZ I         630 32.35       124.4 0.16            166           23.6 187 
 BRR  HZ EP        630 17.80                             153    0.2810 69.9 299 
 BRR  HN ES        630 34.99                             153    0.7210 69.9 299 
 BRR  HZ I         630 36.00        37.0 0.12            152           69.9 299 
 PAM  EZ EP        630 18.81                             151    0.1410 77.8  40 
 PAM  EE ES        630 36.11                             151   -0.2110 77.8  40 
 PAM  EZ I         630 38.21        42.6 0.50            157           77.8  40 
 RUS  HZ EP        630 19.91                             144   -0.2910  101 175 
 RUS  HN ES        630 39.15                             144    0.1110  101 175 
 RUS  HZ I         630 39.72        41.1 0.22            143            101 175 
 PTB  HZ EP        630 22.71                             133   -0.51 9  147 259 
 PTB  HN ES        630 43.84                             133   -0.57 9  147 259 
 PTB  HZ I         630 46.47        34.0 0.21            131            147 259 
 TAM  HZ EP        630 24.16                             131    0.03 9  156 105 
 TAM  HE ES        630 46.20                             131    0.16 9  156 105 
 ZAR  HZ EP        630 28.59                             123   -0.01 9  203 292 
 ZAR  HN ES        630 54.59                             123    0.60 9  203 292 
 ZAR  HZ I         631  0.78        20.8 0.30            123            203 292 
 CHI  HZ EP        630 33.94                             118   -0.03 8  249 195 
 CHI  HN ES        631  3.53                             118   -0.02 8  249 195 
 CHI  HZ I         631  8.52        10.6 0.44            118            249 195 
 ROSC BZ EP        630 35.34                             117    0.99 8  253 211 
 ROSC BN ES   4    631  6.83                             117    2.60 0  253 211 
 ROSC BZ I         631 11.52        25.1 0.48            117            253 211 
 URE  HZ EP        630 36.63                             114   -0.53 7  283 292 
 URE  HE ES   3    631  7.25                             114   -1.97 2  283 292 
 PTGC HZ EP   3    630 39.15                             112   -1.02 2  310 158 
 PTGC HN ES   4    631 12.29                             112   -2.30 0  310 158 
 PTGC HZ I         631 14.49        10.0 0.46            113            310 158 
 LL6C HZ EP   9    630 21.85                             111   -20.0 0  324 358 
 LL6C HE ES        630 57.12                             111   -0.45 7  324 3587
 LL6C HZ I         631  2.67         5.0 0.25            113            324 358 
 ELA  HZ EP   4    630 45.17                             111    2.18 0  329 229 
 CBOC HZ EP   3    630 44.63                             110    1.62 2  333 252 
 CBOC HE ES        631 19.72                             110    0.09 7  333 252 
 CBOC HZ I         631 26.23         4.6 0.40            111            333 252 
 DBB  EZ EP        630 43.89                             110    0.35 7  338 274 
 ARGC HZ EP   1    630 45.68                             109   -0.07 5  358 341 
 ARGC HN ES   1    631 24.64                             109    0.13 5  358 341 
 ARGC HZ I         631 32.13         3.9 0.29            110            358 341 
 ORTC HZ EP        630 50.08                             107    0.02 6  395 216 
 ORTC HN ES   3    631 33.72                             107    1.53 1  395 216 
 ORTC HZ I         631 39.63         8.7 0.55            107            395 216 
 APAC HZ EP   1    630 49.64                             107   -0.58 4  397 288 
 APAC HN ES   3    631 31.32                             107   -1.14 1  397 288 
 APAC HZ I         631 36.88         5.0 0.49            107            397 288 
 SJC  HZ EP   3    630 50.24                             106   -1.37 1  408 327 
 SJC  HN ES   4    631 32.04                             106   -2.91 0  408 327 
 SJC  HZ I         631 35.81         3.9 0.41            107            408 327 
 MACC HZ EP   4    631  2.26                             102   -2.63 0  521 188 
 MACC HN ES   4    631 54.69                             102   -3.89 0  521 188 
 MACC HZ I         631 59.92         2.2 0.39            103            521 188 
                                                                                
