 2010  622 0605 39.8 L   6.820 -73.030131.5  RSN  5 0.2 1.1LRSN                1
 GAP=171        0.51       3.5     7.4  8.2  0.2485E+01 -0.2925E+02 -0.1076E+02E
 Epicentro: CEPITA - SANTANDER                                                 3
 ACTION:UP  10-08-24 10:12 OP:vdl  STATUS:               ID:20100622060539 L   I
 2010-06-22-0604-33S.COL___118                                                 6
 STAT SP IPHASW D HRMM SECON CODA AMPLIT PERI AZIMU VELO SNR AR TRES W  DIS CAZ7
 BAR2 SZ ES   2    6 6 11.82                             167    -0.2 5   30 214 
 BRR  HZ EP        6 5 59.84                             146    -0.210   82 293 
 BRR  HZ I         6 6  0.01         3.6 0.10                            82 293 
 BRR  HN ES   2    6 6 16.19                             146     0.3 5   82 293 
 RUS  HZ EP        6 6  2.45                             140     0.110  103 183 
 RUS  HE ES   2    6 6 19.71                             140    -0.2 5  103 183 
 RUS  HZ I         6 6 22.58         1.6 0.21                           103 183 
 GUE  SZ EP        6 6  3.03                             137     0.210  112   6 
 GRA  SZ EP        6 6  3.18                             135    -0.110  120  12 
                                                                                
