 2015  322 0405  5.4 L   6.848 -73.148137.5  RSN 16 0.5 2.1LRSN                1
 GAP=134        1.98       5.6     6.6  9.7 -0.7292E+01  0.1828E+02  0.1037E+02E
 Epicentro: LOS SANTOS - SANTANDER                                             3
 ACTION:UPD 15-04-30 16:28 OP:nd   STATUS:               ID:20150322040505 L   I
 OLDACT:DUP 15-03-22 14:18 OP:stll STATUS:               ID:20150322035751d    3
 2015-03-22-0357-50M.COL___269                                                 6
 STAT SP IPHASW D HRMM SECON CODA AMPLIT PERI AZIMU VELO AIN AR TRES W  DIS CAZ7
 BAR2 EZ IP     C  4 5 24.20                             167    0.0110 28.5 188 
 BAR2 EZ ES        4 5 39.33                             167    0.5110 28.5 188 
 BAR2 EZ I         4 5 40.16        29.7 0.24            167           28.5 188 
 BRR  HZ IP     D  4 5 25.81                             153    0.2710 68.6 295 
 BRR  HE ES        4 5 42.02                             153    0.7910 68.6 295 
 BRR  HZ I         4 5 46.10        16.5 0.12            151           68.6 295 
 PAM  SZ EP        4 5 26.77                             150    0.2310 73.6  42 
 PAM  SN ES        4 5 43.30                             150    0.2910 73.6  42 
 PAM  SZ I         4 5 45.69        52.0 0.42            156           73.6  42 
 RUS  HZ IP     C  4 5 28.37                             140   -0.4110  106 176 
 RUS  HE ES        4 5 46.90                             140   -0.0910  106 176 
 RUS  HZ I         4 5 48.34         7.1 0.40            143            106 176 
 PTB  HZ IP     D  4 5 31.29                             130   -0.53 9  149 257 
 PTB  HE ES        4 5 51.68                             130   -0.72 9  149 257 
 PTB  HZ I         4 5 57.71        11.1 0.16            131            149 257 
 OCA  HZ EP        4 5 31.93                             129   -0.68 9  155 353 
 OCA  HN ES        4 5 53.46                             129   -0.35 9  155 353 
 OCA  HZ I         4 5 58.39        21.9 0.20            132            155 353 
 SPBC HZ EP        4 5 33.29                             126   -0.41 9  167 218 
 SPBC HN ES        4 5 55.50                             126   -0.24 9  167 218 
 SPBC HZ I         4 6  4.49        14.1 0.24            128            167 218 
 ZAR  HZ EP        4 5 37.00                             121   -0.12 9  202 291 
 ZAR  HE ES        4 6  2.11                             121    0.27 9  202 291 
 ZAR  HZ I         4 6  7.18        14.2 0.22            122            202 291 
 NOR  HZ EP        4 5 40.35                             116   -0.66 8  238 233 
 NOR  HN ES        4 6  8.53                             116   -0.23 8  238 233 
 NOR  HZ I         4 6 17.65         6.3 0.18            118            238 233 
 SML  HZ EP   9    4 5 39.49                             116   -1.58 0  239 335 
 SML  HN ES        4 6  7.37                                    0.08 8  239 335 
 SML  HZ I         4 6 10.72        16.4 0.10            118            239 335 
 HEL  HZ EP        4 5 46.19                             113    0.83 8  273 255 
 HEL  HN ES        4 6 16.00                             113   -0.50 8  273 255 
 HEL  HZ I         4 6 23.29         4.1 0.42            115            273 255 
 URE  HZ EP   9    4 5 47.79                             112    1.92 0  282 291 
 URE  HN ES        4 6 15.86                                   -3.47 7  282 291 
 GUY2CHZ EP        4 5 50.51                             110    1.52 7  304 234 
 GUY2CHE ES        4 6 23.37                             110    0.40 7  304 234 
 GUY2CHZ I         4 6 32.27         3.9 0.30                           304 234 
 TOL  SZ EP        4 5 54.23                             107    0.45 6  347 224 
 TOL  SE ES        4 6 32.14                             107    0.65 6  347 224 
 ORTC HZ EP        4 5 58.92                             105   -0.64 6  400 216 
 ORTC HN ES        4 6 41.59                             105   -0.19 6  400 216 
 ORTC HZ I         4 6 47.22         3.9 0.42            107            400 216 
 SJC  HZ EP   9    4 5 57.76                             104   -2.44 0  405 327 
 SJC  HE ES        4 6 37.22                                   -3.26 6  405 327 
 SJC  HZ I         4 6 43.00         3.7 0.58            106            405 327 
                                                                                
