 2016  822 0454 30.8 L   6.821 -73.177147.9  RSN  6 0.5 1.6LRSN                1
 GAP=243        1.11       6.8     6.9  8.7  0.4582E+01  0.1578E+02  0.2043E+02E
 Epicentro: ZAPATOCA - SANTANDER                                               3
 ACTION:UPD 16-10-29 15:37 OP:rebc STATUS:               ID:20160822045430 L   I
 OLDACT:DUP 16-08-22 15:49 OP:ak   STATUS:               ID:20160822044735d    3
 OLDACT:REG 16-08-22 13:37 OP:ak   STATUS:               ID:20160822044734     3
 2016-08-22-0448-00M.COL___368                                                 6
 STAT SP IPHASW D HRMM SECON CODA AMPLIT PERI AZIMU VELO AIN AR TRES W  DIS CAZ7
 BAR2 EZ EP        454 50.55                             170   -0.1510 25.3 181 
 BAR2 EZ ES        455  6.08                             170   -0.1610 25.3 181 
 BAR2 EZ I         455  8.40        10.1 0.44                          25.3 181 
 BRR  HZ EP        454 52.44                             154    0.5210 67.1 298 
 BRR  HN ES        455  8.91                             154    0.4910 67.1 298 
 BRR  HZ I         455 13.49         5.3 0.06                          67.1 298 
 PTB  HZ EP        454 57.25                             133   -0.40 9  145 258 
 PTB  HN ES        455 17.67                             133   -0.95 9  145 258 
 PTB  HZ I         455 19.48         3.1 0.06                           145 258 
 ZAR  HZ EP   2    455  2.30                             123   -0.64 4  200 292 
 ZAR  HN ES        455 28.19                             123    0.16 9  200 292 
 NOR  HE ES        455 34.98                             119    0.66 8  233 233 
 NOR  HZ I         455 42.45         3.1 0.20                           233 233 
 PRA  HZ EP        455 24.40                             107   -0.01 6  392 209 
 PRA  HN ES        456  6.40                             107    0.16 6  392 209 
 PRA  HZ I         456 12.82         1.7 0.56                           392 209 
                                                                                
