 2016  122 0236 54.6 L   6.775 -73.148141.0  RSN  8 0.3 1.9LRSN                1
 GAP=137        0.72       2.2     3.1  4.5 -0.2955E+00  0.4646E+01 -0.8874E+00E
 Epicentro: LOS SANTOS - SANTANDER                                             3
 ACTION:UPD 16-03-09 23:27 OP:cam  STATUS:               ID:20160122023654 L   I
 OLDACT:REG 16-01-22 14:02 OP:ar   STATUS:               ID:20160122022738     3
 2016-01-22-0227-38M.COL___327                                                 6
 STAT SP IPHASW D HRMM SECON CODA AMPLIT PERI AZIMU VELO AIN AR TRES W  DIS CAZ7
 BAR2 EZ EP        237 13.50                             171   -0.1210 20.5 191 
 BAR2 EZ ES        237 28.44                             171    0.0010 20.5 191 
 BAR2 EZ I         237 29.38        27.6 0.36            171           20.5 191 
 PAM  EZ EP        237 16.50                             149    0.0210 79.8  38 
 PAM  EN ES        237 33.59                             149    0.0710 79.8  38 
 PAM  EZ I         237 35.72        12.1 0.42            151           79.8  38 
 RUS  HZ EP        237 17.46                             144   -0.2410 97.8 176 
 RUS  HN ES        237 35.83                             144    0.1310 97.8 176 
 RUS  HZ I         237 36.81         8.2 0.24            144           97.8 176 
 PTB  HZ EP        237 20.56                             131   -0.57 9  147 260 
 PTB  HN ES        237 41.31                             131   -0.49 9  147 260 
 PTB  HZ I         237 43.06         8.9 0.46            131            147 260 
 SPBC HZ EP        237 22.65                             128    0.12 9  161 220 
 SPBC HN ES        237 44.52                             128    0.22 9  161 220 
 SPBC HZ I         237 46.42        12.6 0.22            128            161 220 
 ZAR  HZ EP        237 27.47                             121    0.63 9  205 293 
 ZAR  HE ES        237 52.35                             121    0.38 9  205 293 
 ZAR  HZ I         237 58.29         7.8 0.26            121            205 293 
 CHI  HZ EP        237 31.73                             116   -0.02 8  246 195 
 SML  HZ EP        237 31.12                             116   -0.13 8  246 336 
 SML  HN ES        237 59.80                             116   -0.02 8  246 336 
 SML  HZ I         238  1.97         8.9 0.10            117            246 336 
 CHI  HN ES        238  0.95                             116    0.24 8  246 195 
 CHI  HZ I         238  7.66         1.8 0.56            117            246 195 
 URE  HN ES   4    238  5.66                             112   -1.81 0  285 292 
                                                                                
