 2014 1122 0041 59.8 L   6.795 -73.192138.1  RSN  6 0.5 1.2LRSN                1
 GAP=131        1.26       6.0     5.3  8.5  0.3502E+01  0.1192E+02 -0.2078E+01E
 Epicentro: ZAPATOCA - SANTANDER                                               3
 ACTION:UPD 14-12-19 15:45 OP:nd   STATUS:               ID:20141122004159 L   I
 OLDACT:REG 14-11-22 12:56 OP:fm   STATUS:               ID:20141122003748     3
 2014-11-22-0037-48M.COL___303                                                 6
 STAT SP IPHASW D HRMM SECON CODA AMPLIT PERI AZIMU VELO AIN AR TRES W  DIS CAZ7
 BAR2 SZ EP        042 17.72                             170   -0.7610 22.4 177 
 BAR2 SZ ES        042 32.34                             170   -0.7110 22.4 177 
 BAR2 SZ I         042 35.98         4.6 0.22            170           22.4 177 
 BRR  HZ EP        042 20.36                             153    0.4910 67.0 301 
 BRR  HN ES        042 36.00                             153    0.4710 67.0 301 
 PAM  SZ EP        042 21.20                             148   -0.2410 81.2  42 
 PAM  SN ES        042 38.55                             148    0.2310 81.2  42 
 PAM  SZ I         042 40.31         3.0 0.62            153           81.2  42 
 RUS  HZ EP        042 23.41                             142    0.6210  101 173 
 RUS  HN ES        042 41.08                             142    0.3610  101 173 
 RUS  HZ I         042 42.97         1.6 0.54            145            101 173 
 PTB  HZ EP        042 25.75                             131    0.09 9  143 259 
 PTB  HE ES        042 45.50                             131   -0.34 9  143 259 
 PTB  HZ I         042 51.78         1.8 0.30            132            143 259 
 ZAR  HZ EP        042 30.65                             121   -0.62 9  199 293 
 ZAR  HN ES        042 56.13                             121    0.31 9  199 293 
 ZAR  HZ I         043  1.04         1.6 0.26            123            199 293 
                                                                                
