 2013  322 0140 53.6 L   7.100 -73.281  6.9  RSN  6 0.3 1.7LRSN                1
 GAP=144        0.86       2.7     1.8  6.3 -0.7982E+00  0.3866E+01 -0.5540E+01E
 Epicentro: LEBRIJA - SANTANDER                                                3
 ACTION:UPD 13-04-09 14:04 OP:ep   STATUS:               ID:20130322014053 L   I
 2013-03-22-0140-00M.COL___245                                                 6
 STAT SP IPHASW D HRMM SECON CODA AMPLIT PERI AZIMU VELO AIN AR TRES W  DIS CAZ7
 BRR  HZ IP     D  141  1.31                              94   -0.0910 47.6 271 
 BRR  HN I         141  7.57        38.1 0.16            106           47.6 271 
 BRR  HN ES        141  7.63                              94    0.1210 47.6 271 
 BAR2 SZ EP     D  141  3.01                              93   -0.1010 57.2 169 
 BAR2 SZ I         141  5.13        31.2 0.22            105           57.2 169 
 PAM  SZ EP        141  5.27                              93    0.0610 69.4  68 
 PAM  SE ES        141 14.02                              93   -0.2610 69.4  68 
 PAM  SE I         141 14.81        29.1 0.20            103           69.4  68 
 RUS  HZ EP        141 15.48                              91    0.29 9  135 171 
 RUS  HN ES        141 31.99                              91   -0.06 9  135 171 
 RUS  HN I         141 35.14        11.4 0.42             56            135 171 
 PTB  HZ IP        141 16.23                              91    0.22 9  144 245 
 PTB  HN ES        141 33.06                              91   -0.44 9  144 245 
 PTB  HN I         141 33.44        19.3 0.24             56            144 245 
 ZAR  HZ EP        141 21.84                              56    0.81 9  179 284 
 ZAR  HN ES        141 41.96                              56   -0.48 9  179 284 
 ZAR  HN I         141 42.63        18.6 0.26             56            179 284 
 HEL  HZ EP   4    141 34.40                              56    1.85 0  268 248 
                                                                                
