 2016  522 0657 46.3 L   6.771 -73.099148.6  RSN 19 0.4 2.2LRSN                1
 GAP=124        0.84       2.3     2.9  4.2 -0.1402E+00  0.2430E+01  0.2356E+01E
 Epicentro: LOS SANTOS - SANTANDER                                             3
 ACTION:UPD 16-08-18 17:48 OP:cam  STATUS:               ID:20160522065746 L   I
 OLDACT:REG 16-05-22 13:14 OP:mh   STATUS:               ID:20160522064741     3
 2016-05-22-0647-41M.COL___289                                                 6
 STAT SP IPHASW D HRMM SECON CODA AMPLIT PERI AZIMU VELO AIN AR TRES W  DIS CAZ7
 BAR2 EZ EP     C  658  6.53                             171    0.2610 21.8 205 
 BAR2 EZ ES        658 21.37                             171   -0.4510 21.8 205 
 BAR2 EZ I         658 22.90        30.5 0.14            168           21.8 205 
 PAM  EZ EP   2    658  9.50                             151    0.68 5 76.8  35 
 PAM  EN ES        658 26.59                             151    0.2410 76.8  35 
 PAM  EZ I         658 28.94        14.3 0.20            151           76.8  35 
 BRR  HZ EP     C  658  8.42                             151    0.2910 77.2 299 
 BRR  HN ES        658 25.26                             151    0.1310 77.2 299 
 BRR  HZ I         658 27.97        24.6 0.40            145           77.2 299 
 RUS  HZ EP        658 10.45                             145    0.3310 97.1 179 
 RUS  HE ES        658 29.20                             145    0.5310 97.1 179 
 RUS  HZ I         658 30.00        11.9 0.18            143           97.1 179 
 PTB  HZ EP        658 13.41                             132   -0.52 9  152 260 
 PTB  HE ES        658 34.77                             132   -0.69 9  152 260 
 PTB  HZ I         658 40.27        20.2 0.18            127            152 260 
 OCA  HZ EP        658 14.86                             130   -0.37 9  164 352 
 OCA  HN ES        658 37.48                             130   -0.28 9  164 352 
 OCA  HZ I         658 41.60        35.3 0.34            126            164 352 
 SPBC HZ EP        658 15.43                             130    0.30 9  164 221 
 SPBC HE ES        658 37.70                             130    0.12 9  164 221 
 SPBC HZ I         658 40.76        27.2 0.12            126            164 221 
 ZAR  HZ EP   4    658 20.75                             122    1.17 0  210 292 
 ZAR  HN ES        658 45.57                             122    0.07 8  210 292 
 ZAR  HZ I         658 51.49        23.4 0.56            118            210 292 
 NOR  HZ EP        658 22.49                             119    0.01 8  237 236 
 NOR  HN ES        658 50.42                             119   -0.25 8  237 236 
 NOR  HZ I         658 58.97        16.1 0.16            115            237 236 
 CHI  HZ EP   2    658 23.79                             118   -0.22 4  247 197 
 CHI  HN ES        658 53.72                             118    0.33 8  247 197 
 CHI  HZ I         658 57.64         5.0 0.28            115            247 197 
 ROSC BZ EP   4    658 26.29                             117    1.69 0  253 212 
 ROSC BN ES   4    658 57.91                             117    3.46 0  253 212 
 ROSC BZ I         659  4.29        16.1 0.35            114            253 212 
 HEL  HZ EP   2    658 27.53                             115    0.37 4  276 257 
 HEL  HN ES   2    658 59.04                             115    0.05 4  276 257 
 HEL  HZ I         659  5.42        10.4 0.24            112            276 257 
 URE  HZ EP   4    658 26.66                             114   -1.54 0  290 292 
 URE  HN ES   4    658 59.02                             114   -1.84 0  290 292 
 URE  HZ I         659  9.95        11.6 0.18            110            290 292 
 PTGC HZ EP        658 29.48                             112   -0.29 7  304 159 
 PTGC HN ES        659  2.71                             112   -0.94 7  304 159 
 PTGC HZ I         659 11.02        10.2 0.34            111            304 159 
 LL6C HZ EP   2    658 32.13                             111   -0.42 3  328 357 
 LL6C HE ES   4    659  7.56                             111   -1.04 0  328 357 
 LL6C HZ I         659 24.07         3.8 0.54            108            328 357 
 CBOC HZ EP        658 34.40                             110    0.59 7  338 253 
 CBOC HN ES        659 11.09                             110    0.24 7  338 253 
 CBOC HZ I         659 24.34         2.8 0.30            107            338 253 
 DBB  SZ EP   2    658 34.83                             110    0.29 3  345 275 
 DBB  SZ ES   4    659  8.89                             110   -3.25 0  345 275 
 PRA  HZ EP   2    658 40.25                             107    0.32 3  392 210 
 PRA  HN ES        659 21.14                             107   -0.59 6  392 210 
 PRA  HZ I         659 28.91         5.5 0.26            105            392 210 
 ORTC HZ EP   2    658 40.82                             107    0.41 3  396 217 
 ORTC HN ES   2    659 23.00                             107    0.42 3  396 217 
 ORTC HZ I         659 30.09         3.9 0.52            105            396 217 
                                                                                
