 2017  122 0002 22.2 L   6.786 -73.169141.1  RSN  7 0.3 1.7LRSN                1
 GAP=134        0.90       3.6     3.9  6.0  0.1283E+01  0.4548E+01  0.5226E+01E
 Epicentro: LOS SANTOS - SANTANDER                                             3
 ACTION:UPD 17-05-22 16:02 OP:jn   STATUS:               ID:20170122000222 L   I
 OLDACT:UP  17-01-22 13:31 OP:dani STATUS:               ID:20170121235957     3
 OLDACT:UP  17-01-22 13:30 OP:dani STATUS:               ID:20170121235957     3
 OLDACT:UP  17-01-22 13:30 OP:dani STATUS:               ID:20170121235957     3
 OLDACT:UP  17-01-22 13:30 OP:dani STATUS:               ID:20170121235957     3
 OLDACT:REG 17-01-22 12:28 OP:dani STATUS:               ID:20170121235957     3
 2017-01-22-0000-15M.COL___343                                                 6
 STAT SP IPHASW D HRMM SECON CODA AMPLIT PERI AZIMU VELO AIN AR TRES W  DIS CAZ7
 BAR2 EZ EP        0 2 41.15                             171   -0.0410 21.5 184 
 BAR2 EZ ES        0 2 55.44                             171   -0.5910 21.5 184 
 BAR2 EZ I         0 2 57.84        14.0 0.22            170           21.5 184 
 BRR  HZ EP        0 2 42.97                             152    0.2510 69.7 301 
 BRR  HN ES        0 2 59.05                             152    0.3010 69.7 301 
 BRR  HZ I         0 3  0.62        13.2 0.08            151           69.7 301 
 PAM  EZ EP        0 2 44.02                             149   -0.0310 80.2  40 
 PAM  EE ES        0 3  1.22                             149    0.1010 80.2  40 
 PAM  EZ I         0 3  3.26        13.8 0.52            151           80.2  40 
 RUS  HZ EP        0 2 45.05                             143   -0.3110 99.3 175 
 RUS  HE ES        0 3  3.94                             143    0.4910 99.3 175 
 RUS  HZ I         0 3  5.15         7.8 0.31            144           99.3 175 
 PTB  HZ EP        0 2 47.95                             131   -0.54 9  145 259 
 PTB  HN ES        0 3  8.69                             131   -0.34 9  145 259 
 ZAR  HE ES        0 3 19.45                             122    0.41 9  202 293 
 ZAR  HZ I         0 3 25.52         4.9 0.42            122            202 293 
 CHI  HZ EP        0 2 59.54                             116    0.17 8  247 195 
 CHI  HN ES        0 3 28.71                             116    0.31 8  247 195 
 CHI  HZ I         0 3 33.68         2.4 0.27            117            247 195 
                                                                                
