 2011  622 0729 28.1 L   6.788 -73.083147.7  RSN  4 0.3 1.3LRSN                1
 GAP=235        0.72      10.4    22.3  8.3  0.1738E+03 -0.3734E+02 -0.1924E+02E
 Epicentro: LOS SANTOS - SANTANDER                                             3
 ACTION:UP  11-07-14 19:07 OP:ep   STATUS:               ID:20110622072928 L   I
 2011-06-22-0725-21S.COL___139                                                 6
 STAT SP IPHASW D HRMM SECON CODA AMPLIT PERI AZIMU VELO SNR AR TRES W  DIS CAZ7
 BAR2 SZ EP   1    729 47.74                             170    -0.3 7   24 207 
 BAR2 SZ ES   1    730  2.94                             170    -0.6 7   24 207 
 BAR2 SZ I         730  4.80         4.0 0.68                            24 207 
 BTL  SZ EP   1    729 48.19                             170     0.2 7   25 305 
 BTL  SZ ES   1    730  4.00                             170     0.5 7   25 305 
 BRR  HZ EP   1    729 49.82                             151    -0.1 7   78 297 
 BRR  HZ I         729 51.62         3.9 0.32                            78 297 
 BRR  HN ES   2    730  6.78                             151    -0.1 5   78 297 
 RUS  HZ EP   2    729 52.08                             145     0.1 5   99 180 
 RUS  HN ES   1    730 10.78                             145     0.2 7   99 180 
 RUS  HZ I         730 12.29         2.4 0.42                            99 180 
                                                                                
