 2014  122 0236  7.3 L   6.858 -73.109130.0  RSN  4 0.5 1.1LRSN                1
 GAP=205        0.97       4.7     6.6 11.7  0.5280E+01  0.1690E+02 -0.1640E+02E
 Epicentro: LOS SANTOS - SANTANDER                                             3
 ACTION:UPD 14-03-13 09:57 OP:ep   STATUS:               ID:20140122023607 L   I
 OLDACT:DUP 14-01-22 08:35 OP:nd   STATUS:               ID:20140122023001d    3
 2014-01-22-0230-00M.COL___279                                                 6
 STAT SP IPHASW D HRMM SECON CODA AMPLIT PERI AZIMU VELO AIN AR TRES W  DIS CAZ7
 RUS  HZ EP        236 29.96                             139   -0.0210  107 178 
 RUS  HN ES        236 47.69                             139   -0.0210  107 178 
 RUS  HZ I         236 49.42         1.0 0.46            147            107 178 
 PTB  HZ EP        236 33.10                             127   -0.39 9  153 257 
 PTB  HN ES        236 54.40                             127    0.44 9  153 257 
 PTB  HZ I         236 56.17         2.1 0.18            132            153 257 
 SML  HZ EP   2    236 43.18                             114    0.59 4  240 334 
 SML  HN ES        237  9.94                             114   -0.21 8  240 334 
 SML  HZ I         237 20.26         1.6 0.28            117            240 334 
 GUY2CHZ EP        236 51.85                             109    0.86 7  308 234 
 GUY2CHZ I         237 23.25         0.5 0.62                           308 234 
 GUY2CHN ES        237 24.32                             109   -0.78 7  308 234 
                                                                                
