 2012  422 1636 42.8 L   7.374 -73.242  0.0  RSN  4 0.3 1.3LRSN                1
 GAP=213        0.73       4.0     2.3  6.0 -0.4660E+01 -0.4765E+01  0.1015E+02E
 Epicentro: EL PLAYON - SANTANDER                                              3
 ACTION:UPD 12-07-05 11:55 OP:tino STATUS:               ID:20120422163642 L   I
 2012-04-22-1630-00M.COL___186                                                 6
 STAT SP IPHASW D HRMM SECON CODA AMPLIT PERI AZIMU VELO AIN AR TRES W  DIS CAZ7
 BRR  HZ EP       1636 52.78                              47    -0.310   60 240 
 BRR  HE ES   1   1637  1.56                              47     0.5 7   60 240 
 BRR  HZ I        1637  4.60         7.1 0.18                            60 240 
 PAM  SZ EP       1636 53.37                              47    -0.210   60  94 
 PAM  SN ES       1637  2.30                              47     0.310   60  94 
 BAR2 SZ EP   1   1636 57.31                              47    -0.1 7   87 176 
 BAR2 SZ ES   1   1637  8.60                              47    -0.1 7   87 176 
 BAR2 SZ I        1637 12.18        12.4 0.50                            87 176 
 RUS  HZ EP       1637  9.60                              47     0.1 9  165 174 
 RUS  HN ES   1   1637 30.20                              47    -0.1 7  165 174 
 RUS  HZ I        1637 32.19         6.7 0.18                           165 174 
                                                                                
