 2014  622 1930 22.8 L   7.147 -73.321125.2  RSN  6 0.3 1.8LRSN                1
 GAP=166        0.74       2.9     4.6  5.7 -0.9831E+00  0.3676E+01 -0.3778E+01E
 Epicentro: LEBRIJA - SANTANDER                                                3
 ACTION:UPD 14-07-01 22:55 OP:nd   STATUS:               ID:20140622193022 L   I
 OLDACT:REG 14-06-22 21:13 OP:mh   STATUS:               ID:20140622192817     3
 2014-06-22-1928-17M.COL___262                                                 6
 STAT SP IPHASW D HRMM SECON CODA AMPLIT PERI AZIMU VELO AIN AR TRES W  DIS CAZ7
 BRR  HZ EP     C 1930 40.67                             160    0.3510 43.4 264 
 BRR  HN ES       1930 53.97                             160    0.0210 43.4 264 
 BRR  HZ I        1930 55.38        13.6 0.13            152           43.4 264 
 BAR2 SZ EP       1930 41.90                             152    0.2310 63.2 166 
 BAR2 SZ ES   1   1930 56.00                             152   -0.35 7 63.2 166 
 BAR2 SZ I        1930 57.79        21.2 0.22            157           63.2 166 
 OCA  HZ EP   1   1930 45.39                             133   -0.48 7  121   0 
 OCA  HN ES       1931  4.11                             133    0.2710  121   0 
 OCA  HZ I        1931  6.06        17.4 0.11            133            121   0 
 PTB  HZ EP       1930 47.56                             128   -0.13 9  142 242 
 PTB  HN ES   1   1931  6.65                             128   -0.43 7  142 242 
 PTB  HZ I        1931  9.19         5.9 0.08            127            142 242 
 ZAR  HZ EP   1   1930 51.36                             122    0.51 7  174 283 
 ZAR  HN ES   1   1931 12.99                             122    0.30 7  174 283 
 ZAR  HZ I        1931 24.48         6.1 0.19            120            174 283 
 SML  HZ EP       1930 53.45                             118   -0.21 9  201 336 
 SML  HN ES       1931 17.30                             118   -0.40 9  201 336 
 SML  HZ I        1931 24.07         7.4 0.16            118            201 336 
                                                                                
