 2011  222 1249  2.1 L   6.774 -73.150142.7  RSN  6 0.3 2.1LRSN                1
 GAP=158        0.88       5.1     8.8  6.9 -0.2331E+02  0.1570E+02 -0.1785E+01E
 Epicentro: LOS SANTOS - SANTANDER                                             3
 ACTION:UP  11-03-28 15:10 OP:jfem STATUS:               ID:20110222124902 L   I
 2011-02-22-1245-58S.COL___137                                                 6
 STAT SP IPHASW D HRMM SECON CODA AMPLIT PERI AZIMU VELO SNR AR TRES W  DIS CAZ7
 BAR2 SZ IP       1249 21.19                             171    -0.110   21 190 
 BAR2 SZ I        1249 21.34        39.3 0.17                            21 190 
 BAR2 SZ ES   1   1249 36.15                             171    -0.2 7   21 190 
 BTL  SZ IP       1249 21.39                             171     0.110   21 321 
 BTL  SZ ES   2   1249 36.16                             171    -0.2 5   21 321 
 GIR2 SZ EP       1249 22.25                             166     0.710   34 352 
 GIR2 SZ ES   1   1249 36.85                             166     0.2 7   34 352 
 RUS  HZ EP       1249 25.12                             144    -0.210   98 176 
 RUS  HN ES   1   1249 43.55                             144     0.1 7   98 176 
 RUS  HZ I        1249 45.15        15.0 0.27                            98 176 
 GRA  SZ EP       1249 27.12                             136    -0.210  129  17 
 GRA  SZ ES   1   1249 46.47                             136    -0.5 7  129  17 
 GRA  SZ I        1249 47.77        18.7 0.52                           129  17 
 NOR  SZ EP       1249 37.72                             118     0.3 8  233 235 
 NOR  SN ES   1   1250  4.55                             118    -0.5 6  233 235 
                                                                                
