 2016  822 1952 54.5 L   6.274 -73.637 96.0  RSN  7 0.7 1.7LRSN                1
 GAP=114        1.64       5.6     5.5 13.0  0.8440E+00  0.3687E+02  0.1417E+02E
 Epicentro: SANTA HELENA DEL OPON - SANTANDER                                  3
 ACTION:UPD 16-10-29 15:38 OP:rebc STATUS:               ID:20160822195254 L   I
 OLDACT:DUP 16-08-23 01:15 OP:ar   STATUS:               ID:20160822194746d    3
 OLDACT:UP  16-08-23 01:15 OP:ar   STATUS:               ID:20160822194745     3
 OLDACT:UP  16-08-23 01:11 OP:ar   STATUS:               ID:20160822194745     3
 OLDACT:REG 16-08-22 21:18 OP:ar   STATUS:               ID:20160822194745     3
 2016-08-22-1947-45M.COL___343                                                 6
 STAT SP IPHASW D HRMM SECON CODA AMPLIT PERI AZIMU VELO AIN AR TRES W  DIS CAZ7
 BAR2 EZ EP       1953  9.21                             145   -0.9810 61.3  55 
 BAR2 EZ ES       1953 22.79                             145    0.3910 61.3  55 
 BAR2 EZ I        1953 23.76        11.4 0.10                          61.3  55 
 RUS  HZ EP       1953 11.13                             140   -0.4010 74.4 125 
 RUS  HN ES       1953 25.02                             140    0.2410 74.4 125 
 RUS  HZ I        1953 27.47         5.6 0.36                          74.4 125 
 BRR  HZ EP       1953 13.65                             133    1.2510 92.5 355 
 BRR  HN ES       1953 26.22                             133   -0.1110 92.5 355 
 BRR  HZ I        1953 38.07        19.3 0.32                          92.5 355 
 PTB  HZ EP   2   1953 11.04                             132   -1.64 5 95.3 288 
 PTB  HN ES       1953 26.01                             132   -0.8210 95.3 288 
 PTB  HZ I        1953 28.44        24.3 0.10                          95.3 288 
 NOR  HZ EP       1953 18.68                             117   -0.42 9  157 240 
 NOR  HN ES       1953 39.11                             117    0.85 9  157 240 
 NOR  HZ I        1953 41.11         7.9 0.18                           157 240 
 ZAR  HZ EP       1953 22.65                             112   -0.12 9  191 315 
 ZAR  HN ES       1953 45.22                             112    0.42 9  191 315 
 ZAR  HZ I        1953 47.75         9.7 0.40                           191 315 
 GUY2CHZ EP       1953 27.54                             109    0.35 8  224 239 
 GUY2CHN ES       1953 52.68                             109    0.02 8  224 239 
 GUY2CHZ I        1954  3.11         3.7 0.58                           224 239 
                                                                                
