 2011  722 1810  0.6 L   6.760 -73.130146.5  RSN  9 0.4 2.2LRSN                1
 GAP=140        0.69       3.4     5.4  5.2 -0.4711E+01  0.6247E+01  0.1608E+01E
 Epicentro: LOS SANTOS - SANTANDER                                             3
 ACTION:UPD 12-07-25 14:02 OP:epov STATUS:               ID:20110722181000 L   I
 2011-07-22-1807-13S.COL___140                                                 6
 STAT SP IPHASW D HRMM SECON CODA AMPLIT PERI AZIMU VELO AIN AR TRES W  DIS CAZ7
 BAR2 SZ EP   1   1810 20.08                             172   -0.19 7 19.5 197 
 BAR2 SZ ES   1   1810 35.29                             172   -0.31 7 19.5 197 
 BAR2 SZ I        1810 37.77        28.7 0.30                          19.5 197 
 BTL  SZ EP   1   1810 20.50                             171    0.16 7 23.2 319 
 GIR2 SZ ES   1   1810 35.87                             166   -0.16 7 35.9 349 
 BRR  HZ EP   1   1810 21.94                             151   -0.12 7 74.9 301 
 BRR  HE ES   1   1810 39.34                             151    0.55 7 74.9 301 
 BRR  HZ I        1810 41.20        44.7 0.13                          74.9 301 
 PAM  SZ EP   1   1810 22.95                             150   -0.11 7 79.7  37 
 PAM  SN ES   1   1810 40.34                             150   -0.22 7 79.7  37 
 RUS  HZ EP   1   1810 24.39                             145    0.26 7 96.1 177 
 RUS  HN ES   1   1810 42.79                             145    0.32 7 96.1 177 
 RUS  HZ I        1810 46.06         6.9 0.22                          96.1 177 
 OCA  SZ EP   1   1810 28.84                             129   -0.58 7  165 353 
 OCA  SZ ES   1   1810 52.39                             129    0.51 7  165 353 
 OCA  SZ I        1810 54.47        48.9 0.20                           165 353 
 NOR  SZ EP   1   1810 36.36                             119    0.08 6  234 236 
 NOR  SN ES   1   1811  3.45                             119   -0.64 6  234 236 
 PRA  HZ EP   1   1810 54.46                             107    0.64 4  389 210 
                                                                                
