 2010  822 1411 13.2 L   6.801 -73.094147.9  RSN  6 0.2 1.4LRSN                1
 GAP=164        0.40       3.1     4.8  3.8  0.6635E+00 -0.7860E+01 -0.1715E+01E
 Epicentro: LOS SANTOS - SANTANDER                                             3
 ACTION:UP  10-09-07 10:57 OP:vdl  STATUS:               ID:20100822141113 L   I
 2010-08-22-1409-36S.COL___120                                                 6
 STAT SP IPHASW D HRMM SECON CODA AMPLIT PERI AZIMU VELO SNR AR TRES W  DIS CAZ7
 BTL  SZ EP       1411 33.24                             171     0.110   23 304 
 BTL  SZ ES       1411 48.52                             171    -0.110   23 304 
 BAR2 SZ EP   1   1411 32.92                             170    -0.2 7   25 203 
 BAR2 SZ ES   2   1411 48.47                             170    -0.2 5   25 203 
 BAR2 SZ I        1411 49.65         7.9 0.05                            25 203 
 BRR  HZ EP       1411 34.86                             151     0.010   76 296 
 BRR  HZ I        1411 35.10        10.0 0.12                            76 296 
 BRR  HE ES       1411 51.84                             151     0.110   76 296 
 RUS  HZ EP   2   1411 37.19                             144     0.0 5  100 179 
 RUS  HZ I        1411 37.92         2.0 0.32                           100 179 
 RUS  HE ES   2   1411 56.13                             144     0.3 5  100 179 
 GUE  SZ EP   1   1411 37.81                             140    -0.2 7  115   9 
 GRA  SZ EP   1   1411 38.64                             138     0.1 7  124  15 
 GRA  SZ I        1411 47.77         3.2 0.38                           124  15 
 GRA  SZ ES   2   1411 58.41                             138     0.2 5  124  15 
                                                                                
