 2015  322 1120 36.1 L   6.833 -73.182139.2  RSN 21 0.5 2.6LRSN                1
 GAP=123        1.16       2.8     3.9  5.0 -0.3646E+01  0.7364E+01 -0.6989E+00E
 Epicentro: ZAPATOCA - SANTANDER                                               3
 ACTION:UPD 15-04-30 16:28 OP:nd   STATUS:               ID:20150322112036 L   I
 OLDACT:UP  15-03-22 21:31 OP:cam  STATUS:               ID:20150322111749     3
 OLDACT:REG 15-03-22 20:19 OP:cam  STATUS:               ID:20150322111749     3
 2015-03-22-1117-49M.COL___281                                                 6
 STAT SP IPHASW D HRMM SECON CODA AMPLIT PERI AZIMU VELO AIN AR TRES W  DIS CAZ7
 BAR2 EZ EP     D 1120 55.05                             169    0.0010 26.7 180 
 BAR2 EZ ES       1121 10.37                             169    0.5710 26.7 180 
 BAR2 EZ I        1121 11.08        88.4 0.16            169           26.7 180 
 BRR  HZ EP       1120 57.13                             153    0.8610 65.9 297 
 BRR  HN ES       1121 12.66                             153    0.6810 65.9 297 
 BRR  HZ I        1121 17.81        55.9 0.12            151           65.9 297 
 PAM  SZ IP     D 1120 57.82                             150    0.1710 77.3  44 
 PAM  SN ES       1121 14.67                             150    0.2410 77.3  44 
 PAM  SZ I        1121 17.15       134.1 0.62            154           77.3  44 
 RUS  HZ EP       1120 59.06                             141   -0.4810  105 174 
 RUS  HN ES       1121 17.10                             141   -0.7110  105 174 
 RUS  HZ I        1121 18.73        52.3 0.28            144            105 174 
 PTB  HZ EP       1121  2.10                             131   -0.17 9  145 257 
 PTB  HN ES       1121 21.87                             131   -0.80 9  145 257 
 PTB  HZ I        1121 26.00        55.0 0.14            131            145 257 
 OCA  HZ IP     C 1121  3.35                             129   -0.19 9  156 354 
 OCA  HN ES       1121 24.84                             129   -0.09 9  156 354 
 OCA  HZ I        1121 28.70       117.1 0.34            131            156 354 
 SPBC HZ EP     D 1121  4.27                             127    0.10 9  164 217 
 SPBC HN ES       1121 25.47                             127   -0.57 9  164 217 
 SPBC HZ I        1121 29.81        73.5 0.20            129            164 217 
 ZAR  HZ EP       1121  8.09                             122    0.47 9  199 292 
 ZAR  HN ES   4   1121 33.93                             122    1.75 0  199 292 
 ZAR  HZ I        1121 39.00        55.1 0.34            122            199 292 
 NOR  HZ EP       1121 11.62                             117    0.26 8  234 233 
 NOR  HN ES       1121 38.69                             117   -0.16 8  234 233 
 NOR  HZ I        1121 44.11        28.9 0.28            119            234 233 
 SML  HZ EP       1121 11.31                             117   -0.53 8  239 336 
 SML  HN ES       1121 38.99                             117   -0.71 8  239 336 
 SML  HZ I        1121 43.06        32.4 0.10            118            239 336 
 ROSC BZ EP       1121 14.11                             115    0.09 8  254 210 
 ROSC BN ES       1121 43.53                             115   -0.05 8  254 210 
 ROSC BZ I        1121 49.52        22.4 0.35            117            254 210 
 HEL  HZ EP       1121 16.54                             114    0.86 8  269 255 
 HEL  HN ES   4   1121 45.07                             114   -1.46 0  269 255 
 HEL  HZ I        1121 53.59        69.9 0.96            115            269 255 
 URE  HZ EP       1121 15.64                             113   -0.67 7  279 292 
 URE  HN ES   4   1121 46.33                             113   -1.32 0  279 292 
 URE  HZ I        1121 50.04        25.0 0.16            114            279 292 
 GUY2CHZ EP       1121 19.83                             111    0.52 7  300 234 
 GUY2CHN ES       1121 52.34                             111   -0.65 7  300 234 
 GUY2CHZ I        1122  2.67        20.6 0.58                           300 234 
 CBOC HZ EP       1121 23.22                             109    0.75 7  331 251 
 CBOC HE ES       1121 58.05                             109   -0.56 7  331 251 
 CBOC HZ I        1122  0.84         6.2 0.26            110            331 251 
 DBB  SZ EP       1121 23.26                             109    0.41 7  335 274 
 DBB  SZ ES       1121 59.60                             109    0.31 7  335 274 
 TOL  SZ EP       1121 24.86                             108    0.75 7  343 224 
 TOL  SN ES   4   1122  3.24                             108    1.71 0  343 224 
 TOL  SZ I        1122  7.29        12.5 0.26            110            343 224 
 SDV  BZ EP       1121 25.45                             107   -0.57 6  361  51 
 SDV  BN ES   4   1122  2.06                             107   -2.87 0  361  51 
 SDV  BZ I        1122  4.33        13.5 0.40            110            361  51 
 ORTC HZ EP       1121 30.23                             105    0.33 6  396 215 
 ORTC HN ES       1122 12.03                             105    0.18 6  396 215 
 ORTC HZ I        1122 18.27         8.2 0.38            107            396 215 
 SJC  HZ EP       1121 29.80                             105   -1.05 6  404 327 
 SJC  HN ES   4   1122 10.31                             105   -3.23 0  404 327 
 PAL  HZ EP       1121 31.30                             105    0.41 6  404 238 
 PAL  HN ES       1122 13.53                             105   -0.08 6  404 238 
 PAL  HZ I        1122 23.54         7.4 0.62            106            404 238 
                                                                                
