 2010  822 1245 12.7 L   6.808 -73.024139.1  RSN  7 0.2 1.9LRSN                1
 GAP=178        0.58       3.3     7.0  5.1  0.3522E+01 -0.3521E+01  0.1170E+01E
 Epicentro: CEPITA - SANTANDER                                                 3
 ACTION:UP  10-09-07 10:57 OP:vdl  STATUS:               ID:20100822124512 L   I
 2010-08-22-1241-49S.COL___120                                                 6
 STAT SP IPHASW D HRMM SECON CODA AMPLIT PERI AZIMU VELO SNR AR TRES W  DIS CAZ7
 BAR2 SZ EP       1245 31.80                             167     0.110   30 216 
 BAR2 SZ ES   1   1245 46.68                             167     0.1 7   30 216 
 BAR2 SZ I        1245 48.09        13.4 0.27                            30 216 
 GIR2 SZ EP   2   1245 32.25                             165     0.5 5   35 328 
 BRR  HZ EP       1245 33.56                             147    -0.410   83 294 
 BRR  HN ES   1   1245 50.49                             147     0.1 7   83 294 
 BRR  HZ I        1245 54.68        20.3 0.10                            83 294 
 RUS  HZ EP       1245 35.79                             142    -0.110  101 184 
 RUS  HE ES   1   1245 53.92                             142    -0.1 7  101 184 
 RUS  HZ I        1245 55.84         6.9 0.48                           101 184 
 GUE  SZ EP   1   1245 36.71                             139     0.1 7  114   6 
 CHI  HZ EP   1   1245 50.68                             115     0.1 6  253 198 
 CHI  HE ES   1   1246 20.09                             115     0.0 6  253 198 
 CHI  HZ I        1246 26.67         4.9 0.47                           253 198 
 RREF HZ EP   1   1246  0.45                             109     0.6 5  333 231 
 RREF HZ I        1246 41.63         4.3 0.27                           333 231 
                                                                                
