 2014  222 1037 30.1 L   6.817 -73.174144.1  RSN 11 0.3 2.1LRSN                1
 GAP=132        0.60       1.6     2.6  3.5 -0.3248E+00  0.2702E+01 -0.1264E+00E
 Epicentro: LOS SANTOS - SANTANDER                                             3
 ACTION:UPD 14-03-10 08:12 OP:ep   STATUS:               ID:20140222103730 L   I
 OLDACT:UP  14-02-22 15:06 OP:cam  STATUS:               ID:20140222103001d    3
 OLDACT:DUP 14-02-22 15:00 OP:cam  STATUS:               ID:20140222103001d    3
 OLDACT:REG 14-02-22 14:37 OP:cam  STATUS:               ID:20140222103000     3
 2014-02-22-1030-00M.COL___215                                                 6
 STAT SP IPHASW D HRMM SECON CODA AMPLIT PERI AZIMU VELO AIN AR TRES W  DIS CAZ7
 BAR2 SZ EP       1037 49.49                             170   -0.0410 24.8 182 
 BAR2 SZ ES       1038  4.76                             170    0.0510 24.8 182 
 BAR2 SZ I        1038  6.03        60.1 0.34            169           24.8 182 
 PAM  SZ EP       1037 52.30                             150    0.1610 78.0  42 
 PAM  SN ES       1038  9.49                             150    0.1210 78.0  42 
 PAM  SZ I        1038 11.62        20.0 0.56            155           78.0  42 
 RUS  HZ EP       1037 53.50                             143   -0.3110  103 174 
 RUS  HN ES       1038 12.12                             143   -0.2110  103 174 
 RUS  HZ I        1038 13.58         6.7 0.30            145            103 174 
 PTB  HZ EP   1   1037 56.47                             132   -0.18 7  145 258 
 PTB  HN ES       1038 17.00                             132   -0.39 9  145 258 
 PTB  HZ I        1038 21.43         9.5 0.62            131            145 258 
 OCA  HZ EP   1   1037 57.77                             130   -0.27 7  158 354 
 OCA  HN ES   1   1038 20.03                             130    0.17 7  158 354 
 OCA  HZ I        1038 23.70        10.0 0.34            131            158 354 
 SPBC HZ EP       1037 58.30                             129   -0.09 9  163 218 
 SPBC HN ES       1038 20.51                             129    0.03 9  163 218 
 SPBC HZ I        1038 27.45         9.5 0.38            129            163 218 
 ZAR  HZ EP       1038  2.14                             122    0.11 9  200 292 
 ZAR  HN ES       1038 27.05                             122    0.09 9  200 292 
 ZAR  HZ I        1038 34.20        11.7 0.30            123            200 292 
 SML  HZ EP       1038  5.89                             117   -0.38 8  241 336 
 SML  HE ES       1038 34.84                             117    0.32 8  241 336 
 SML  HZ I        1038 40.74        15.1 0.10            119            241 336 
 CHI  HZ EP       1038  7.90                             117    0.12 8  250 194 
 CHI  HN ES       1038 37.43                             117    0.24 8  250 194 
 CHI  HZ I        1038 40.60         6.4 0.60            118            250 194 
 ROSC BZ EP   4   1038  9.79                             116    1.70 0  253 210 
 ROSC BE ES   1   1038 38.75                             116    1.00 6  253 210 
 ROSC BZ I        1038 44.12        17.8 0.40            118            253 210 
 PRA  HZ IP       1038 23.65                             106    0.12 6  392 209 
 PRA  HZ EP   1   1038 23.65                             106    0.12 4  392 209 
                                                                                
