 2015  222 1928 14.0 L   6.776 -73.221130.0  RSN  5 0.4 1.4LRSN                1
 GAP=143        1.00       5.5     5.1  9.3 -0.1249E+02  0.2071E+02  0.7227E+00E
 Epicentro: ZAPATOCA - SANTANDER                                               3
 ACTION:UPD 15-04-30 21:28 OP:nd   STATUS:               ID:20150222192814 L   I
 OLDACT:REG 15-02-22 21:01 OP:fm   STATUS:               ID:20150222191745     3
 2015-02-22-1917-45M.COL___278                                                 6
 STAT SP IPHASW D HRMM SECON CODA AMPLIT PERI AZIMU VELO AIN AR TRES W  DIS CAZ7
 PAM  SZ IP     D 1928 35.20                             145    0.1110 84.8  43 
 PAM  SE ES       1928 51.49                             145   -0.0310 84.8  43 
 PAM  SZ I        1928 52.83         3.5 0.48            153           84.8  43 
 RUS  HZ EP       1928 35.66                             141   -0.4710 98.9 171 
 RUS  HN ES       1928 53.64                             141    0.2710 98.9 171 
 RUS  HZ I        1928 55.85         3.0 0.32            146           98.9 171 
 PTB  HZ EP       1928 38.44                             130   -0.50 9  139 259 
 PTB  HN ES       1928 58.65                             130    0.28 9  139 259 
 PTB  HZ I        1929  5.34         4.0 0.18            132            139 259 
 NOR  HZ EP       1928 48.73                             116    0.75 8  226 234 
 NOR  HN ES       1929 13.76                             116   -0.71 8  226 234 
 NOR  HZ I        1929 22.99         2.3 0.16            119            226 234 
 GUY2CHZ EP       1928 56.36                             110    0.36 7  293 234 
 GUY2CHN ES       1929 28.92                             110    0.18 7  293 234 
 GUY2CHZ I        1929 37.12         1.5 0.34                           293 234 
                                                                                
