 2010 1122 1118 32.5 L   6.793 -73.092143.1  RSN  9 0.3 2.1LRSN                1
 GAP=165        0.60       2.4     5.3  4.8 -0.2530E+01 -0.3629E-01  0.4935E+00E
 Epicentro: LOS SANTOS - SANTANDER                                             3
 ACTION:UP  10-12-17 16:54 OP:REBC STATUS:               ID:20101122111832 L   I
 2010-11-22-1117-41S.COL___129                                                 6
 STAT SP IPHASW D HRMM SECON CODA AMPLIT PERI AZIMU VELO SNR AR TRES W  DIS CAZ7
 BAR2 SZ IP       1118 51.88                             170     0.010   24 205 
 BAR2 SZ ES   1   1119  6.77                             170    -0.2 7   24 205 
 BAR2 SZ I        1119  7.82        52.2 0.28                            24 205 
 BRR  HZ IP     C 1118 53.75                             150     0.010   77 297 
 BRR  HE ES   1   1119 10.63                             150     0.4 7   77 297 
 BRR  HZ I        1119 13.22        35.4 0.19                            77 297 
 RUS  HZ EP       1118 55.86                             144    -0.110  100 179 
 RUS  HE ES   1   1119 14.40                             144     0.2 7  100 179 
 RUS  HZ I        1119 15.51        12.0 0.31                           100 179 
 GRA  SZ IP       1118 57.73                             137     0.310  125  15 
 GRA  SZ ES   1   1119 16.80                             137    -0.1 7  125  15 
 GRA  SZ I        1119 18.35        15.4 0.38                           125  15 
 OCA  SZ EP   1   1119  0.45                             129    -0.3 7  162 351 
 OCA  SZ ES   1   1119 22.56                             129    -0.3 7  162 351 
 OCA  SZ I        1119 25.46        21.7 0.25                           162 351 
 NOR  SE ES   2   1119 35.96                             117    -0.8 4  239 236 
 CHI  HZ EP   1   1119 10.12                             116    -0.1 6  250 197 
 CHI  HN ES   2   1119 39.29                             116    -0.3 4  250 197 
 CHI  HZ I        1119 42.90         2.9 0.48                           250 197 
 HEL  HZ EP   2   1119 13.59                             114     0.4 4  278 256 
 HEL  HZ I        1119 50.13         6.8 0.32                           278 256 
 RREF HZ EP   2   1119 19.62                             110     0.6 3  326 230 
 RREF HZ I        1120  6.07         4.8 0.32                           326 230 
                                                                                
