 2013  422 1722 42.8 L   6.796 -73.176141.6  RSN 10 0.4 2.2LRSN                1
 GAP=133        0.90       4.3     5.4  5.7 -0.7938E+01  0.1251E+02 -0.5594E+01E
 Epicentro: LOS SANTOS - SANTANDER                                             3
 ACTION:UPD 13-05-22 14:40 OP:EP   STATUS:               ID:20130422172242 L   I
 2013-04-22-1720-00M.COL___250                                                 6
 STAT SP IPHASW D HRMM SECON CODA AMPLIT PERI AZIMU VELO AIN AR TRES W  DIS CAZ7
 BAR2 SZ EP     D 1723  2.07                             170    0.1010 22.6 182 
 BAR2 SZ ES   1   1723 16.27                             170   -0.61 7 22.6 182 
 BAR2 SZ I        1723 17.78        42.7 0.34            172           22.6 182 
 GIR2 SZ IP     D 1723  2.12                             167    0.0910 31.3 356 
 GIR2 SZ ES       1723 16.97                             167   -0.0210 31.3 356 
 GIR2 SZ I        1723 19.86        27.5 0.42            165           31.3 356 
 BRR  HZ IP     C 1723  3.86                             153    0.4610 68.5 300 
 BRR  HN ES   3   1723 20.44                             153    1.02 2 68.5 300 
 BRR  HZ I        1723 21.64        37.9 0.18            150           68.5 300 
 PAM  SZ IP     C 1723  5.00                             149    0.2210 79.9  41 
 PAM  SN ES   1   1723 21.65                             149   -0.23 7 79.9  41 
 PAM  SZ I        1723 24.22        31.8 0.48            152           79.9  41 
 RUS  HZ EP       1723  6.13                             143   -0.0610  100 174 
 RUS  HN ES   1   1723 24.18                             143   -0.21 7  100 174 
 RUS  HZ I        1723 26.04        12.5 0.26            147            100 174 
 PTB  HZ EP       1723  8.68                             132   -0.49 9  144 259 
 PTB  HN ES   1   1723 29.64                             132   -0.07 7  144 259 
 PTB  HZ I        1723 33.07        17.0 0.18            132            144 259 
 OCA  HZ EP       1723 11.07                             128    0.23 9  160 354 
 OCA  HN ES   4   1723 31.77                             128   -0.91 0  160 354 
 OCA  HZ I        1723 35.23        20.7 0.24            130            160 354 
 NOR  HZ EP       1723 18.73                             118    0.71 8  232 234 
 NOR  HN ES   1   1723 45.24                             118   -0.21 6  232 234 
 NOR  HZ I        1723 49.92        17.4 0.42            120            232 234 
 SML  HZ EP       1723 19.20                             116    0.07 8  243 336 
 SML  HN ES   4   1723 45.22                             116   -2.22 0  243 336 
 SML  HZ I        1723 52.64        25.3 0.08            118            243 336 
 SJC  HZ EP       1723 36.71                             105   -1.39 6  408 327 
 SJC  HN ES   4   1724 17.67                             105   -3.53 0  408 327 
 SJC  HZ I        1724 21.92         2.6 0.34            106            408 327 
                                                                                
