 2017  222 1159 16.5 L   6.786 -73.110138.3  RSN  5 0.2 1.2LRSN                1
 GAP=142        0.91       4.6     4.6  7.8  0.3319E+01 -0.1159E+01  0.7218E+00E
 Epicentro: LOS SANTOS - SANTANDER                                             3
 ACTION:UPD 17-05-24 15:39 OP:jn   STATUS:               ID:20170222115916 L   I
 OLDACT:UP  17-02-22 22:46 OP:edw  STATUS:               ID:20170222115741     3
 OLDACT:REG 17-02-22 19:45 OP:edw  STATUS:               ID:20170222115741     3
 2017-02-22-1158-00M.COL___376                                                 6
 STAT SP IPHASW D HRMM SECON CODA AMPLIT PERI AZIMU VELO AIN AR TRES W  DIS CAZ7
 BRR  HZ EP       1159 36.79                             150   -0.3110 75.4 298 
 BRR  HN ES       1159 53.35                             150    0.1910 75.4 298 
 PAM  EZ IP     D 1159 37.66                             149   -0.1910 76.2  37 
 PAM  EN ES       1159 54.57                             149    0.0710 76.2  37 
 PAM  EZ I        1159 56.51         2.6 0.56            150           76.2  37 
 RUS  HZ EP       1159 39.41                             142    0.0210 98.8 178 
 RUS  HN ES       1159 57.31                             142    0.0610 98.8 178 
 RUS  HZ I        1159 58.61         2.5 0.28            144           98.8 178 
 PTB  HZ EP   9   1159 42.53                             129   -0.67 0  151 260 
 PTB  HN ES       12 0  2.44                             132   -0.92 9  151 260 
 PTB  HZ I        12 0  4.83         2.4 0.34            131            151 260 
 ZAR  HN ES       12 0 14.41                             120    0.21 8  208 292 
                                                                                
