 2016  422 1050 17.4 L   5.965 -73.778112.5  RSN  8 0.5 2.0LRSN                1
 GAP=180        1.13       4.6     4.2  7.6 -0.6750E+01  0.6809E+01 -0.3820E+01E
 Epicentro: BOLIVAR - SANTANDER                                                3
 *M:3.8 Z:15Km 0.16S 80.57W CERCA DE LA COSTA DE ECUADOR (IG)                  3
 ACTION:UPD 16-05-05 14:23 OP:rebc STATUS:               ID:20160422105017 L   I
 OLDACT:UP  16-04-22 23:51 OP:ar   STATUS:               ID:20160422104746d    3
 OLDACT:DUP 16-04-22 23:44 OP:ar   STATUS:               ID:20160422104746d    3
 2016-04-22-1047-45M.COL___309                                                 6
 STAT SP IPHASW D HRMM SECON CODA AMPLIT PERI AZIMU VELO AIN AR TRES W  DIS CAZ7
 SPBC HZ EP       1050 33.29                             155   -0.5010 47.5 223 
 SPBC HN ES       1050 46.06                             155   -0.4910 47.5 223 
 SPBC HZ I        1050 47.15        20.4 0.18            156           47.5 223 
 BAR2 EZ EP       1050 37.57                             136    0.2610 95.7  44 
 BAR2 EZ ES       1050 53.39                             136    0.5810 95.7  44 
 BAR2 EZ I        1050 54.68        74.9 0.36            137           95.7  44 
 PTB  HZ EP       1050 36.89                             136   -0.3410 98.3 310 
 PTB  HN ES       1050 53.04                             136    0.3710 98.3 310 
 PTB  HZ I        1050 56.29        11.8 0.30            133           98.3 310 
 NOR  HZ EP       1050 39.97                             127   -0.0910  129 250 
 NOR  HN ES       1050 57.36                             127   -0.3610  129 250 
 NOR  HZ I        1051  0.51        22.7 0.16            127            129 250 
 GUY2CHZ EP       1050 47.59                             115    0.17 9  194 245 
 GUY2CHN ES       1051 11.57                             115    0.75 9  194 245 
 GUY2CHZ I        1051 17.02         8.6 0.80                           194 245 
 HEL  HZ EP       1050 47.71                             115    0.26 9  195 277 
 HEL  HN ES       1051 11.47                             115    0.60 9  195 277 
 HEL  HZ I        1051 15.56         6.9 0.24            115            195 277 
 ZAR  HZ EP       1050 47.71                             113   -0.55 8  207 325 
 ZAR  HN ES       1051 11.73                             113   -0.57 8  207 325 
 ZAR  HZ I        1051 15.93        10.4 0.22            113            207 325 
 URE  HZ EP   9   1050 54.50                             107   -1.79 0  277 316 
 URE  HN ES       1051 24.38                             111   -0.44 7  277 316 
 URE  HZ I        1051 35.17         7.2 0.36            107            277 316 
                                                                                
