 2012  822 1836 17.6 L   6.572 -73.584105.7  RSN  7 0.5 1.5LRSN                1
 GAP= 88        0.99       5.8     4.7 10.9 -0.6160E+01  0.2327E+02 -0.6888E+01E
 Epicentro: EL CARMEN DE CHUCURI - SANTANDER                                   3
 ACTION:UPD 12-09-10 11:57 OP:ep   STATUS:               ID:20120822183617 L   I
 2012-08-22-1830-00M.COL___217                                                 6
 STAT SP IPHASW D HRMM SECON CODA AMPLIT PERI AZIMU VELO AIN AR TRES W  DIS CAZ7
 BAR2 SZ EP       1836 33.44                             155    0.1210 44.5  87 
 BAR2 SZ I        1836 33.76        39.3 0.26                          44.5  87 
 BAR2 SZ ES   1   1836 45.95                             155    0.40 7 44.5  87 
 BRR  HZ EP   1   1836 34.28                             148    0.35 7 60.9 347 
 RUS  HZ EP   1   1836 36.49                             136   -0.60 7 93.3 144 
 RUS  HN ES   1   1836 52.49                             136    0.24 7 93.3 144 
 RUS  HZ I        1836 53.48         2.6 0.19                          93.3 144 
 PTB  HZ EP   1   1836 36.28                             134   -0.43 7 96.5 268 
 PTB  HN ES   1   1836 50.86                             134   -0.73 7 96.5 268 
 PTB  HZ I        1836 52.71         7.7 0.23                          96.5 268 
 PAM  SN ES   1   1836 57.85                             125   -0.38 7  129  49 
 PAM  SZ I        1836 59.77         4.6 0.15                           129  49 
 ZAR  HZ EP   1   1836 45.29                             116    0.82 7  174 306 
 ZAR  HZ I        1837 11.51         4.7 0.26                           174 306 
 NOR  SZ EP   1   1836 44.93                             115   -0.37 7  181 232 
 NOR  SN ES   1   1837  7.57                             115    0.71 7  181 232 
                                                                                
