 2010 1022 1536 21.3 L   6.822 -73.109140.5  RSN  8 0.5 2.3LRSN                1
 GAP=162        0.99       4.9    10.0 10.2 -0.1820E+02  0.2187E+01  0.1529E+01E
 Epicentro: LOS SANTOS - SANTANDER                                             3
 ACTION:UP  11-02-18 11:11 OP:tino STATUS:               ID:20101022153621 L   I
 2010-10-22-1534-17S.COL___125                                                 6
 STAT SP IPHASW D HRMM SECON CODA AMPLIT PERI AZIMU VELO SNR AR TRES W  DIS CAZ7
 BAR2 SZ IP     D 1536 40.34                             169     0.010   27 198 
 BAR2 SZ ES   2   1536 55.02                             169    -0.2 5   27 198 
 BAR2 SZ I        1536 56.64        64.4 0.15                            27 198 
 BRR  HZ IP     C 1536 42.19                             150     0.210   74 295 
 BRR  HZ I        1536 42.54        90.2 0.12                            74 295 
 BRR  HE ES   2   1536 58.62                             150     0.5 5   74 295 
 RUS  HZ EP   1   1536 44.42                             142    -0.2 7  103 178 
 RUS  HN ES   2   1537  2.70                             142    -0.2 5  103 178 
 RUS  HZ I        1537  3.83        11.3 0.14                           103 178 
 GUE  SZ EP   1   1536 46.42                             139     1.2 7  113  10 
 GRA  SZ IP     C 1536 45.19                             137    -0.510  122  16 
 GRA  SZ ES   2   1537  4.55                             137    -0.3 5  122  16 
 GRA  SZ I        1537  6.94        40.7 0.32                           122  16 
 OCA  SZ EP   1   1536 49.01                             129     0.0 7  158 352 
 OCA  SZ ES   2   1537 10.20                             129    -0.4 5  158 352 
 NOR  SZ EP   1   1536 56.57                             117    -0.6 6  240 235 
 NOR  SN ES   2   1537 25.00                             117    -0.3 4  240 235 
 CHI  HZ EP   1   1536 59.37                             116     0.3 6  252 196 
 CHI  HN ES   2   1537 28.93                             116     0.4 4  252 196 
 CHI  HZ I        1537 38.00         7.8 0.41                           252 196 
                                                                                
