 2011 1022 1947 47.4 L   6.561 -74.117  4.0  RSN 11 0.4 2.1LRSN                1
 GAP= 94        0.72       2.1     2.1  4.2 -0.2233E+01  0.2581E+01 -0.1077E+01E
 Epicentro: PUERTO PARRA - SANTANDER                                           3
 ACTION:UPD 12-07-13 16:05 OP:ep   STATUS:               ID:20111022194747 L   I
 2011-10-22-1946-10S.COL___171                                                 6
 STAT SP IPHASW D HRMM SECON CODA AMPLIT PERI AZIMU VELO AIN AR TRES W  DIS CAZ7
 BRR  HZ EP   1   1947 59.32                              47   -0.01 7 75.1  37 
 BRR  HE ES   1   1948  8.77                              47    0.10 7 75.1  37 
 BRR  HZ I        1948  9.14       109.4 0.13                          75.1  37 
 BAR2 SZ EP   1   1948  3.69                              47   -0.17 7  103  88 
 BAR2 SZ I        1948 17.08        24.0 0.44                           103  88 
 GIR2 SZ EP   2   1948  5.79                              47   -0.03 5  117  61 
 ZAR  HZ EP   1   1948  8.12                              47    0.23 7  132 322 
 ZAR  HN ES   1   1948 23.63                              47   -0.27 7  132 322 
 ZAR  HZ I        1948 24.44        42.6 0.20                           132 322 
 RUS  HZ EP   1   1948  9.33                              47    0.24 7  136 123 
 RUS  HZ I        1948 30.63        15.8 0.13                           136 123 
 NOR  SZ EP   1   1948  8.97                              47    0.02 7  138 217 
 NOR  SN ES   1   1948 25.24                              47   -0.55 7  138 217 
 HEL  HZ EP   1   1948 12.99                              47    0.19 7  162 255 
 HEL  HN ES   1   1948 32.34                              47   -0.31 7  162 255 
 HEL  HZ I        1948 34.82        28.8 0.26                           162 255 
 PAM  SZ EP   1   1948 15.94                              47    0.41 7  179  61 
 PAM  SN ES   1   1948 36.57                              47   -0.93 7  179  61 
 GUY  SN ES   1   1948 43.10                              37   -0.10 6  204 224 
 GUY  SZ I        1948 47.52        29.2 0.26                           204 224 
 OCA  SZ EP   1   1948 18.62                              37    0.16 6  205  25 
 OCA  SZ ES   1   1948 43.12                              37    0.39 6  205  25 
 OCA  SZ I        1948 50.01        28.4 0.29                           205  25 
 RREF HE ES   1   1948 49.78                              37    0.83 6  229 217 
 RREF HZ I        1948 55.00        13.4 0.27                           229 217 
                                                                                
