 2014  322 1358 57.6 L   6.798 -73.146146.0  RSN 12 0.4 2.3LRSN                1
 GAP=136        0.83       2.9     4.1  5.2 -0.1917E+01  0.4302E+01  0.1274E+01E
 Epicentro: LOS SANTOS - SANTANDER                                             3
 OLDACT:REG 14-03-22 15:25 OP:fm   STATUS:               ID:20140322135815     3
 ACTION:UPD 14-04-09 23:19 OP:nd   STATUS:               ID:20140322135857 L   I
 OLDACT:UP  14-03-22 18:05 OP:fm   STATUS:               ID:20140322135815     3
 2014-03-22-1358-15M.COL___246                                                 6
 STAT SP IPHASW D HRMM SECON CODA AMPLIT PERI AZIMU VELO AIN AR TRES W  DIS CAZ7
 BAR2 SZ EP       1359 17.17                             171   -0.1210 23.1 190 
 BAR2 SZ ES   1   1359 32.80                             171    0.18 7 23.1 190 
 BAR2 SZ I        1359 33.71        84.5 0.16            165           23.1 190 
 BRR  HZ EP       1359 18.85                             153    0.0410 71.2 299 
 BRR  HN ES       1359 35.89                             153    0.5710 71.2 299 
 BRR  SZ I        1359 36.60        29.4 0.10            148           71.2 299 
 PAM  SZ EP       1359 20.10                             151    0.2210 77.6  40 
 PAM  SN ES       1359 37.13                             151   -0.1110 77.6  40 
 PAM  SZ I        1359 39.07        43.8 0.56            148           77.6  40 
 RUS  HZ EP       1359 21.22                             144   -0.1710  100 176 
 RUS  HE ES   1   1359 40.18                             144    0.25 7  100 176 
 PTB  HN ES   1   1359 44.75                             132   -0.90 7  148 259 
 OCA  HZ EP   1   1359 25.20                             130   -0.78 7  160 353 
 OCA  HE ES   2   1359 47.43                             130   -0.65 5  160 353 
 OCA  SZ I        1359 52.49        15.6 0.32            125            160 353 
 SPBC HZ EP   1   1359 26.17                             129    0.04 7  163 219 
 SPBC HN ES   1   1359 47.79                             129   -0.57 7  163 219 
 SPBC SZ I        1359 52.78        16.6 0.96            122            163 219 
 ZAR  HZ EP   1   1359 30.80                             123    0.71 6  204 292 
 ZAR  HN ES   2   1359 55.50                             123    0.09 4  204 292 
 ZAR  SZ I        14 0  0.99        17.7 0.36            117            204 292 
 NOR  HZ EP   1   1359 33.48                             119    0.12 6  235 234 
 NOR  HN ES   2   14 0  1.61                             119    0.39 4  235 234 
 NOR  SZ I        14 0  9.04        11.9 0.18            113            235 234 
 SML  HZ EP   1   1359 33.59                             118   -0.70 6  244 335 
 SML  HN ES   1   14 0  3.29                             118    0.42 6  244 335 
 SML  SZ I        14 0  6.23        28.7 0.08            113            244 335 
 CHI  HZ EP   1   1359 35.46                             117    0.14 6  248 195 
 CHI  SZ I        14 0  4.03        16.3 2.32            111            248 195 
 CHI  HE ES   1   14 0  4.86                             117    0.14 6  248 195 
 ROSC BN ES   4   14 0  7.74                             117    2.27 0  253 211 
 HEL  HN ES   4   14 0  7.84                             115   -1.37 0  272 256 
 URE  HE ES   4   14 0  8.57                             114   -2.18 0  284 292 
 GUY2CHZ EP   1   1359 41.90                             113    0.67 5  301 235 
 GUY2CSZ I        14 0 13.49         5.8 2.10                           301 235 
 GUY2CHN ES   2   14 0 14.55                             113   -0.69 4  301 235 
                                                                                
