 2017  422 1558 19.1 L   6.792 -73.305125.0  RSN  5 0.4 1.8LRSN                1
 GAP=109        0.99       7.2     4.1  7.3 -0.5692E+01  0.9437E+01 -0.6533E+01E
 Epicentro: ZAPATOCA - SANTANDER                                               3
 ACTION:UPD 17-05-30 21:15 OP:jn   STATUS:               ID:20170422155819 L   I
 OLDACT:DUP 17-04-22 21:19 OP:dani STATUS:               ID:20170422154655d    3
 OLDACT:REG 17-04-22 19:44 OP:dani STATUS:               ID:20170422154654     3
 2017-04-22-1548-00M.COL___374                                                 6
 STAT SP IPHASW D HRMM SECON CODA AMPLIT PERI AZIMU VELO AIN AR TRES W  DIS CAZ7
 BAR2 EZ EP       1558 36.66                             168    0.4010 25.9 148 
 BAR2 EZ ES       1558 49.81                             168    0.1310 25.9 148 
 BAR2 EZ I        1558 50.89        37.5 0.34            176           25.9 148 
 BRR  HZ EP       1558 36.94                             154   -0.2210 56.9 308 
 BRR  HN ES       1558 51.07                             154   -0.2110 56.9 308 
 BRR  HZ I        1558 56.13        13.3 0.16            151           56.9 308 
 PAM  EZ EP       1558 40.08                             142    0.0610 90.2  48 
 PAM  EN ES       1558 56.25                             142   -0.1210 90.2  48 
 PAM  EZ I        1558 58.34        10.5 0.24            144           90.2  48 
 PTB  HZ EP       1558 41.86                             131   -0.8910  130 258 
 PTB  HN ES       1559  1.45                             131    0.2110  130 258 
 PTB  HZ I        1559  3.81         9.4 0.35            133            130 258 
 ZAR  HZ EP       1558 49.15                             120    0.61 9  188 294 
 ZAR  HN ES       1559 11.69                             120    0.15 9  188 294 
 ZAR  HZ I        1559 16.79         7.9 0.29            121            188 294 
                                                                                
