 2012 1022 1347 25.6 L   6.768 -73.124143.4  RSN  8 0.3 2.2LRSN                1
 GAP= 97        0.65       3.5     3.2  4.2  0.1121E+01  0.7515E+00  0.3607E+01E
 Epicentro: LOS SANTOS - SANTANDER                                             3
 ACTION:UPD 12-11-22 17:05 OP:ep   STATUS:               ID:20121022134725 L   I
 2012-10-22-1340-00M.COL___231                                                 6
 STAT SP IPHASW D HRMM SECON CODA AMPLIT PERI AZIMU VELO AIN AR TRES W  DIS CAZ7
 BAR2 SZ IP       1347 44.83                             171   -0.1110 20.5 198 
 BAR2 SZ ES       1347 59.91                             171   -0.0810 20.5 198 
 BAR2 SZ I        1348  1.57        49.6 0.20                          20.5 198 
 BRR  HZ EP       1347 46.80                             151    0.0410 75.0 300 
 BRR  HN ES       1348  3.49                             151    0.2610 75.0 300 
 BRR  HZ I        1348  6.15        37.3 0.20                          75.0 300 
 PAM  SZ EP       1347 47.67                             150   -0.0210 78.7  37 
 PAM  SN ES       1348  4.88                             150    0.0010 78.7  37 
 PAM  SZ I        1348  6.94        21.4 0.16                          78.7  37 
 RUS  HZ EP       1347 48.70                             144   -0.2010 97.0 177 
 RUS  HN ES   1   1348  7.18                             144    0.13 7 97.0 177 
 RUS  HN I        1348  9.43        25.2 0.24                          97.0 177 
 TAM  HZ EP       1347 52.94                             131    0.10 9  152 104 
 TAM  HZ I        1348 13.51        23.8 0.51                           152 104 
 ZAR  HN ES   1   1348 23.01                             121   -0.77 6  208 293 
 ZAR  HZ I        1348 29.26        23.7 0.14                           208 293 
 CHI  HZ EP   1   1348  2.63                             117   -0.29 6  246 196 
 CHI  HZ I        1348 38.26         7.0 0.61                           246 196 
 HEL  HZ EP       1348  6.53                             114    0.63 8  274 257 
 HEL  HZ I        1348 44.08         9.2 0.31                           274 257 
                                                                                
