 2016  922 1700 45.9 L   6.836 -73.190135.9  RSN  7 0.4 1.8LRSN                1
 GAP=129        0.87       4.4     4.5  7.0 -0.9147E+01  0.1327E+02 -0.4156E+01E
 Epicentro: ZAPATOCA - SANTANDER                                               3
 ACTION:UPD 17-08-17 21:15 OP:lp   STATUS:               ID:20160922170045 L   I
 OLDACT:DUP 16-09-23 02:58 OP:dnl  STATUS:               ID:20160922165744d    3
 OLDACT:REG 16-09-22 22:48 OP:edw  STATUS:               ID:20160922165743     3
 2016-09-22-1658-00M.COL___366                                                 6
 STAT SP IPHASW D HRMM SECON CODA AMPLIT PERI AZIMU VELO AIN AR TRES W  DIS CAZ7
 BAR2 EZ EP       17 1  4.37                             168   -0.0110 27.0 178 
 BAR2 EZ ES       17 1 18.96                             168    0.1210 27.0 178 
 BAR2 EZ I        17 1 20.57        16.3 0.26            171           27.0 178 
 BRR  HZ EP       17 1  6.24                             153    0.6510 65.0 297 
 BRR  HE ES   4   17 1 22.70                             153    1.72 0 65.0 297 
 BRR  HZ I        17 1 26.35        14.4 0.42            152           65.0 297 
 PAM  EZ EP       17 1  7.18                             149    0.1410 77.6  44 
 PAM  EE ES       17 1 23.38                             149   -0.1910 77.6  44 
 PAM  EZ I        17 1 26.49        16.3 0.48            153           77.6  44 
 RUS  HZ EP       17 1  8.74                             140   -0.2510  105 174 
 RUS  HN ES       17 1 27.06                             140    0.0310  105 174 
 RUS  HZ I        17 1 28.10         8.1 0.28            146            105 174 
 PTB  HZ EP       17 1 10.98                             130   -0.69 9  144 257 
 PTB  HN ES       17 1 31.55                             130   -0.26 9  144 257 
 PTB  HZ I        17 1 35.03         7.5 0.14            133            144 257 
 SPBC HE ES       17 1 35.34                             127    0.04 9  163 217 
 SPBC HZ I        17 1 40.00        12.0 0.30            131            163 217 
 GUY2CHZ EP   2   17 1 29.61                             110    0.77 4  300 234 
 GUY2CHN ES       17 2  2.80                             110    0.42 7  300 234 
 GUY2CHZ I        17 2 10.62         3.2 0.38                           300 234 
                                                                                
