 2012  122 1125  1.8 L   6.758 -73.137141.6  RSN 12 0.4 2.5LRSN                1
 GAP=140        0.91       4.1     4.1  6.3 -0.1714E+01  0.7844E+01  0.6426E+01E
 Epicentro: LOS SANTOS - SANTANDER                                             3
 ACTION:UP  12-02-03 08:19 OP:REBC STATUS:               ID:20120122112501 L   I
 2012-01-22-1120-00M.COL___186                                                 6
 STAT SP IPHASW D HRMM SECON CODA AMPLIT PERI AZIMU VELO SNR AR TRES W  DIS CAZ7
 BAR2 SZ EP       1125 21.01                             172     0.110   19 195 
 BAR2 SZ ES   1   1125 35.85                             172     0.1 7   19 195 
 BAR2 SZ I        1125 39.02       156.6 0.36                            19 195 
 BRR  HZ EP       1125 22.86                             151     0.110   74 301 
 BRR  HN ES   1   1125 39.73                             151     0.7 7   74 301 
 BRR  HZ I        1125 42.64       107.0 0.29                            74 301 
 PAM  SZ EP       1125 23.75                             149    -0.110   80  37 
 PAM  SN ES   1   1125 40.58                             149    -0.4 7   80  37 
 RUS  HZ EP   1   1125 24.80                             144     0.0 7   96 176 
 RUS  HN ES   1   1125 42.85                             144     0.1 7   96 176 
 RUS  HZ I        1125 44.87        48.0 0.22                            96 176 
 PTB  HZ EP   1   1125 27.58                             131    -0.9 7  148 261 
 PTB  HN ES   1   1125 48.62                             131    -0.6 7  148 261 
 PTB  HZ I        1125 51.96         0.2 0.13                           148 261 
 ZAR  HZ EP   1   1125 34.79                             121     0.5 6  207 293 
 ZAR  HN ES   1   1125 59.22                             121    -0.4 6  207 293 
 ZAR  HZ I        1126  6.88        24.7 0.13                           207 293 
 NOR  SZ EP   1   1125 36.80                             118    -0.3 6  233 236 
 NOR  SN ES   1   1126  4.16                             118    -0.5 6  233 236 
 CHI  HZ EP   1   1125 38.76                             117    -0.1 6  244 196 
 CHI  HN ES   1   1126  7.53                             117    -0.2 6  244 196 
 CHI  HZ I        1126 16.11        23.1 0.34                           244 196 
 ROSC BZ EP   1   1125 39.90                             116     0.5 6  249 212 
 ROSC BZ I        1126 16.99        76.7 0.54                           249 212 
 HEL  HZ EP   1   1125 41.99                             114     0.2 6  272 257 
 HEL  HN ES       1126 13.28                             114     0.3 8  272 257 
 HEL  HZ I        1126 19.38        24.2 0.26                           272 257 
 RREF HZ EP   1   1125 48.07                             110     0.5 5  319 230 
 RREF HN ES   1   1126 23.83                             110     0.6 5  319 230 
 RREF HZ I        1126 30.55        32.7 0.33                           319 230 
 PRA  HZ EP   1   1125 54.58                             106    -0.2 4  388 210 
 PRA  HZ I        1126 43.11        62.3 0.22                           388 210 
                                                                                
