 2014 1122 1404 11.1 L   6.795 -73.133150.9  RSN  5 0.3 1.7LRSN                1
 GAP=138        0.73       3.6     5.0  5.3 -0.5960E+01  0.1566E+01  0.2623E+01E
 Epicentro: LOS SANTOS - SANTANDER                                             3
 ACTION:UPD 14-12-19 15:46 OP:nd   STATUS:               ID:20141122140411 L   I
 OLDACT:ARG 14-11-22 21:32 OP:stll STATUS:               ID:20141122135746     3
 2014-11-22-1357-46M.COL___294                                                 6
 STAT SP IPHASW D HRMM SECON CODA AMPLIT PERI AZIMU VELO AIN AR TRES W  DIS CAZ7
 BAR2 SZ EP       14 4 31.40                             171    0.0910 23.1 194 
 BAR2 SZ ES       14 4 46.60                             171   -0.5010 23.1 194 
 BAR2 SZ I        14 4 47.64        10.7 0.24            171           23.1 194 
 BRR  HZ EP       14 4 32.41                             153   -0.4410 72.7 298 
 BRR  HN ES       14 4 50.19                             153    0.3410 72.7 298 
 PAM  SZ EP       14 4 34.05                             152    0.2510 76.9  38 
 PAM  SN ES       14 4 51.56                             152    0.0310 76.9  38 
 PAM  SZ I        14 4 53.56         8.7 0.44            152           76.9  38 
 RUS  HZ EP       14 4 35.23                             145   -0.0510100.0 177 
 RUS  HN ES       14 4 54.39                             145    0.2210100.0 177 
 RUS  HZ I        14 4 55.14         5.8 0.28            146          100.0 177 
 SPBC HZ EP       14 4 39.95                             130   -0.05 9  164 219 
 SPBC HN ES       14 5  2.69                             130    0.11 9  164 219 
                                                                                
