 2017  122 1020 37.7 L   7.363 -73.115 16.3  RSN  6 0.3 1.1LRSN                1
 GAP=179        0.84       3.3     2.0  3.7 -0.6298E+00  0.3259E+01  0.1060E+01E
 Epicentro: RIONEGRO - SANTANDER                                               3
 ACTION:UPD 17-05-22 16:02 OP:jn   STATUS:               ID:20170122102037 L   I
 OLDACT:UP  17-01-22 23:27 OP:edw  STATUS:               ID:20170122101741     3
 OLDACT:UP  17-01-22 23:19 OP:edw  STATUS:               ID:20170122101741     3
 OLDACT:REG 17-01-22 20:20 OP:cog  STATUS:               ID:20170122101741     3
 2017-01-22-1018-00M.COL___337                                                 6
 STAT SP IPHASW D HRMM SECON CODA AMPLIT PERI AZIMU VELO AIN AR TRES W  DIS CAZ7
 PAM  EZ EP       1020 46.30                             108    0.2010 46.0  93 
 PAM  EN ES       1020 52.52                             108   -0.1010 46.0  93 
 PAM  EZ I        1020 53.47        10.5 0.16            101           46.0  93 
 BRR  HZ EP       1020 49.50                             100    0.1310 71.7 247 
 BRR  HN ES       1020 58.52                             100    0.0810 71.7 247 
 BAR2 EZ ES       1021  2.26                              99   -0.3210 85.6 185 
 RUS  HZ EP   4   1020 59.81                              56   -3.07 0  163 179 
 RUS  HN ES       1021 22.50                              56    0.02 9  163 179 
 RUS  HZ I        1021 24.08         1.3 0.18             56            163 179 
 PTB  HZ EP   4   1021  1.13                              56   -2.58 0  174 238 
 PTB  HN ES       1021 24.57                              56    0.60 9  174 238 
 PTB  HZ I        1021 25.80         1.8 0.22             56            174 238 
 ZAR  HN ES       1021 27.52                              56   -0.65 9  193 274 
 ZAR  HZ I        1021 30.61         3.3 0.26             56            193 274 
                                                                                
