 2016  322 1855 28.3 L   6.787 -73.224138.7  RSN  5 0.3 1.3LRSN                1
 GAP=125        0.43       4.5     3.9  7.5 -0.3917E+00  0.9428E+01 -0.3367E+01E
 Epicentro: ZAPATOCA - SANTANDER                                               3
 ACTION:UPD 16-05-13 21:26 OP:cam  STATUS:               ID:20160322185528 L   I
 OLDACT:UP  16-03-23 00:28 OP:dnl  STATUS:               ID:20160322184744     3
 OLDACT:REG 16-03-22 21:37 OP:dnl  STATUS:               ID:20160322184744     3
 2016-03-22-1847-44M.COL___307                                                 6
 STAT SP IPHASW D HRMM SECON CODA AMPLIT PERI AZIMU VELO AIN AR TRES W  DIS CAZ7
 BAR2 EZ EP   3   1855 46.76                             171   -0.28 2 22.0 168 
 BAR2 EZ ES   2   1856  2.23                             171    0.56 5 22.0 168 
 BAR2 EZ I        1856  3.71         7.0 0.25            173           22.0 168 
 PAM  EZ EP   2   1855 50.31                             147    0.12 5 84.2  43 
 PAM  EN ES   2   1856  6.94                             147   -0.33 5 84.2  43 
 PAM  EZ I        1856 10.11         3.2 0.32            151           84.2  43 
 RUS  HZ EP   2   1855 51.52                             142    0.21 5  100 171 
 RUS  HN ES   2   1856  8.93                             142   -0.35 5  100 171 
 RUS  HZ I        1856 11.16         2.3 0.16            148            100 171 
 PTB  HZ EP   2   1855 53.92                             132    0.03 5  139 259 
 PTB  HN ES   2   1856 13.60                             132   -0.25 5  139 259 
 PTB  HZ I        1856 18.59         2.4 0.16            133            139 259 
 ZAR  HZ EP   4   1855 58.37                             122   -1.14 0  197 293 
 ZAR  HE ES   2   1856 23.94                             122    0.08 4  197 293 
 ZAR  HZ I        1856 29.12         2.6 0.08            123            197 293 
                                                                                
