 2014  922 1541 19.8 L   6.783 -73.088147.6  RSN  6 0.4 1.6LRSN                1
 GAP=145        0.88       4.8     4.9  6.8 -0.6795E+01  0.7639E+00  0.4658E+01E
 Epicentro: LOS SANTOS - SANTANDER                                             3
 ACTION:UPD 14-10-03 23:07 OP:nd   STATUS:               ID:20140922154119 L   I
 OLDACT:REG 14-09-22 20:47 OP:spq  STATUS:               ID:20140922153819     3
 2014-09-22-1538-19M.COL___284                                                 6
 STAT SP IPHASW D HRMM SECON CODA AMPLIT PERI AZIMU VELO AIN AR TRES W  DIS CAZ7
 BAR2 SZ EP       1541 39.66                             170   -0.0110 23.5 206 
 BAR2 SZ ES   1   1541 54.83                             170   -0.33 7 23.5 206 
 BAR2 SZ I        1541 56.20         7.5 0.16            169           23.5 206 
 PAM  SZ EP       1541 42.28                             152    0.1910 75.0  35 
 PAM  SN ES   1   1541 59.37                             152   -0.10 7 75.0  35 
 PAM  SZ I        1542  1.41         8.3 0.52            156           75.0  35 
 BRR  HZ EP       1541 41.50                             151   -0.0410 77.7 298 
 BRR  HE ES       1541 58.79                             151    0.3110 77.7 298 
 BRR  HZ I        1542  1.28         8.3 0.46            152           77.7 298 
 RUS  HZ EP   1   1541 44.21                             145    0.61 7 98.5 180 
 RUS  HN ES   1   1542  1.69                             145   -0.46 7 98.5 180 
 RUS  HZ I        1542  4.22         3.7 0.40            146           98.5 180 
 PTB  HZ EP       1541 46.66                             131   -0.81 9  154 260 
 PTB  HN ES       1542  9.00                             131   -0.03 9  154 260 
 PTB  HZ I        1542 11.37         4.7 0.16            133            154 260 
 SPBC HZ EP       1541 48.78                             129    0.08 9  166 221 
 SPBC HE ES       1542 11.67                             129    0.43 9  166 221 
 SPBC HZ I        1542 16.65         4.0 0.18            130            166 221 
                                                                                
