 2014  522 1452 29.5 L   6.824 -73.178140.0  RSN  9 0.5 1.8LRSN                1
 GAP=131        1.02       3.7     5.2  7.2 -0.4743E+01  0.1604E+02 -0.3528E+00E
 Epicentro: LOS SANTOS - SANTANDER                                             3
 ACTION:UPD 15-03-16 16:59 OP:nd   STATUS:               ID:20140522145229 L   I
 OLDACT:UP  14-05-22 23:43 OP:cam  STATUS:               ID:20140522144812     3
 OLDACT:REG 14-05-22 22:36 OP:cam  STATUS:               ID:20140522144812     3
 2014-05-22-1448-12M.COL___246                                                 6
 STAT SP IPHASW D HRMM SECON CODA AMPLIT PERI AZIMU VELO AIN AR TRES W  DIS CAZ7
 BAR2 SZ EP   1   1452 48.34                             169   -0.15 7 25.6 181 
 BAR2 SZ ES       1453  3.39                             169    0.0910 25.6 181 
 BAR2 SZ I        1453  6.16        21.7 0.32            170           25.6 181 
 PAM  SZ EP   1   1452 51.32                             150    0.18 7 77.8  43 
 PAM  SN ES       1453  8.41                             150    0.4010 77.8  43 
 RUS  HZ EP   1   1452 51.88                             142   -1.03 7  104 174 
 RUS  HN ES       1453 11.17                             142    0.0010  104 174 
 RUS  HZ I        1453 12.04         5.2 0.28            145            104 174 
 PTB  HZ EP       1452 55.38                             131   -0.35 9  145 258 
 PTB  HN ES       1453 16.17                             131   -0.02 9  145 258 
 PTB  HZ I        1453 18.13         8.4 0.44            132            145 258 
 SPBC HZ EP       1452 57.35                             128   -0.20 9  163 217 
 SPBC HN ES       1453 19.32                             128   -0.10 9  163 217 
 SPBC HZ I        1453 22.02        10.4 0.36            130            163 217 
 NOR  HZ EP   1   1453  4.92                             118    0.16 6  233 233 
 NOR  HE ES       1453 32.64                             118    0.39 8  233 233 
 NOR  HZ I        1453 34.10         5.4 0.16            119            233 233 
 SML  HE ES       1453 33.04                             117   -0.34 8  240 336 
 SML  HZ I        1453 36.56         6.2 0.28            118            240 336 
 CHI  HZ EP   1   1453  6.94                             116   -0.13 6  250 194 
 CHI  HN ES   1   1453 36.44                             116    0.08 6  250 194 
 GUY2CHZ EP   1   1453 14.64                             111    1.95 5  300 234 
                                                                                
