 2014  922 1042 47.1 L   6.823 -73.104146.5  RSN  4 0.2 1.4LRSN                1
 GAP=225        0.53       2.8     4.4  5.9  0.1136E+01  0.2925E+01 -0.5424E+01E
 Epicentro: LOS SANTOS - SANTANDER                                             3
 ACTION:UPD 14-10-03 23:07 OP:nd   STATUS:               ID:20140922104247 L   I
 OLDACT:REG 14-09-22 20:04 OP:spq  STATUS:               ID:20140922103817     3
 2014-09-22-1038-17M.COL___278                                                 6
 STAT SP IPHASW D HRMM SECON CODA AMPLIT PERI AZIMU VELO AIN AR TRES W  DIS CAZ7
 BAR2 SZ EP       1043  6.86                             169   -0.0710 27.0 199 
 BAR2 SZ ES   1   1043 22.28                             169   -0.09 7 27.0 199 
 BAR2 SZ I        1043 26.08         3.7 0.28            167           27.0 199 
 SPBC HZ EP       1043 15.92                             128   -0.23 9  168 220 
 SPBC HN ES       1043 39.11                             128    0.32 9  168 220 
 SPBC HZ I        1043 44.92         3.2 0.26            130            168 220 
 ZAR  HE ES       1043 45.35                             122   -0.23 8  207 291 
 ZAR  HZ I        1043 51.35         2.3 0.28            124            207 291 
 SML  HZ EP       1043 23.96                             118    0.20 8  243 334 
 SML  HN ES   1   1043 52.58                             118    0.25 6  243 334 
 SML  HZ I        1043 55.50         2.8 0.10            121            243 334 
                                                                                
