 2014  322 1914 13.4 L   6.836 -73.141153.2  RSN  9 0.5 1.7LRSN                1
 GAP=135        0.88       4.8     5.3  8.4  0.2229E+01  0.1357E+02  0.4655E+01E
 Epicentro: LOS SANTOS - SANTANDER                                             3
 OLDACT:DUP 14-03-22 19:09 OP:fm   STATUS:               ID:20140322190817d    3
 ACTION:UPD 14-04-09 23:19 OP:nd   STATUS:               ID:20140322191413 L   I
 OLDACT:UP  14-03-22 19:14 OP:fm   STATUS:               ID:20140322190817d    3
 2014-03-22-1908-16M.COL___245                                                 6
 STAT SP IPHASW D HRMM SECON CODA AMPLIT PERI AZIMU VELO AIN AR TRES W  DIS CAZ7
 BAR2 SZ EP   1   1914 33.48                             169   -0.56 8 27.4 190 
 BAR2 SZ ES   1   1914 50.13                             169    0.02 8 27.4 190 
 BAR2 SZ I        1914 50.61        20.5 0.26            165           27.4 190 
 BRR  HE ES   1   1914 52.75                             154    0.37 8 69.9 295 
 PAM  SN ES   1   1914 54.29                             153    0.24 8 74.0  41 
 RUS  HZ EP   1   1914 38.43                             144    0.23 8  105 177 
 RUS  HN ES   1   1914 57.43                             144   -0.09 8  105 177 
 RUS  SZ I        1914 58.36         4.2 0.22            143            105 177 
 PTB  HZ EP       1914 41.27                             133    0.1410  149 257 
 PTB  HN ES       1915  2.06                             133   -0.6810  149 257 
 PTB  SZ I        1915  7.54         5.9 0.52            132            149 257 
 OCA  HE ES   2   1915  3.38                             132   -0.85 5  156 353 
 SPBC HZ EP   2   1914 43.38                             130    0.55 5  167 218 
 SPBC HE ES   2   1915  6.39                             130    0.63 5  167 218 
 SPBC SZ I        1915 10.27         5.5 0.24            129            167 218 
 ZAR  HN ES   1   1915 12.72                             124    0.83 7  203 291 
 SML  HN ES   2   1915 18.42                             119   -0.31 4  240 335 
                                                                                
