 2016  122 1650  9.9 L   6.744 -73.119147.8  RSN  6 0.3 1.9LRSN                1
 GAP=159        0.78       5.5     6.3  7.6 -0.2506E+02  0.2694E+02 -0.1138E+02E
 Epicentro: LOS SANTOS - SANTANDER                                             3
 ACTION:UPD 16-03-09 23:27 OP:cam  STATUS:               ID:20160122165009 L   I
 OLDACT:UP  16-01-23 01:13 OP:mh   STATUS:               ID:20160122164748     3
 OLDACT:UP  16-01-23 01:13 OP:mh   STATUS:               ID:20160122164748     3
 OLDACT:UP  16-01-23 01:12 OP:mh   STATUS:               ID:20160122164748     3
 OLDACT:REG 16-01-22 22:41 OP:mh   STATUS:               ID:20160122164748     3
 2016-01-22-1647-48M.COL___321                                                 6
 STAT SP IPHASW D HRMM SECON CODA AMPLIT PERI AZIMU VELO AIN AR TRES W  DIS CAZ7
 BAR2 EZ EP   1   1650 29.63                             173   -0.06 7 18.1 203 
 BAR2 EZ I        1650 46.66        15.7 0.13            172           18.1 203 
 PAM  EZ EP       1650 32.66                             150    0.1310 80.6  35 
 PAM  EN ES       1650 50.16                             150   -0.0110 80.6  35 
 PAM  EZ I        1650 52.24         7.5 0.43            151           80.6  35 
 RUS  HZ EP       1650 33.47                             146    0.0510 94.2 178 
 RUS  HN ES       1650 51.80                             146    0.0510 94.2 178 
 RUS  HZ I        1650 53.25        10.5 0.26            149           94.2 178 
 SPBC HZ EP       1650 38.42                             130    0.13 9  160 221 
 SPBC HN ES       1651  0.25                             130   -0.18 9  160 221 
 SPBC HZ I        1651  7.56        15.0 0.12            131            160 221 
 NOR  HZ EP       1650 44.88                             119   -0.76 8  234 236 
 NOR  HN ES       1651 13.18                             119   -0.32 8  234 236 
 NOR  HZ I        1651 20.36         6.2 0.16            120            234 236 
 GUY2CHZ EP       1650 53.78                             113    0.29 7  300 236 
 GUY2CHN ES       1651 28.28                             113    0.81 7  300 236 
 GUY2CHZ I        1651 35.40         3.9 0.26                           300 236 
                                                                                
