 2010  422 1621 23.0 L   6.764 -73.016138.0  RSN  4 0.2 2.1LRSN                1
 GAP=213        0.47       4.4     5.7  6.2 -0.7857E+01 -0.1928E+02  0.2456E+01E
 Epicentro: CEPITA - SANTANDER                                                 3
 ACTION:UPD 10-08-24 10:00 OP:vdl  STATUS:               ID:20100422162122 L   I
 2010-04-22-1618-08S.COL___104                                                 6
 STAT SP IPHASW D HRMM SECON CODA AMPLIT PERI AZIMU VELO AIN AR TRES W  DIS CAZ7
 BAR2 SZ EP       1621 41.93                             168     0.210   27 224 
 BAR2 SZ ES   2   1621 56.05                             168    -0.3 5   27 224 
 BRR  HZ EP       1621 43.94                             160    -0.310   86 296 
 BRR  HN ES       1622  0.93                             160     0.110   86 296 
 BRR  HZ I        1622  5.39        25.8 0.08                            86 296 
 GUE  SZ EP       1621 47.13                             147     0.010  118   5 
 GUE  SZ ES   2   1622  5.94                             147     0.0 5  118   5 
 GRA  SZ EP   1   1621 47.62                             144     0.1 7  126  11 
 GRA  SZ ES   2   1622  6.73                             144     0.0 5  126  11 
                                                                                
