 2012  122 1358 12.4 L   6.697 -73.162143.0  RSN  8 0.4 2.1LRSN                1
 GAP=139        0.98       6.3     6.1  7.9  0.6394E+01  0.1324E+02  0.1349E+01E
 Epicentro: VILLANUEVA - SANTANDER                                             3
 ACTION:UP  12-02-03 08:19 OP:REBC STATUS:               ID:20120122135812 L   I
 2012-01-22-1356-38S.COL___155                                                 6
 STAT SP IPHASW D HRMM SECON CODA AMPLIT PERI AZIMU VELO SNR AR TRES W  DIS CAZ7
 BAR2 SZ EP   1   1358 31.54                             175     0.0 7   12 191 
 BAR2 SZ ES   1   1358 46.18                             175    -0.3 7   12 191 
 BAR2 SZ I        1358 49.07        32.8 0.23                            12 191 
 BRR  HZ EP   1   1358 33.55                             150     0.0 7   76 307 
 BRR  HZ I        1358 33.96        32.1 0.12                            76 307 
 BRR  HN ES   1   1358 50.58                             150     0.6 7   76 307 
 PAM  SZ EP   1   1358 34.50                             147    -0.5 7   88  36 
 PAM  SZ I        1358 34.85        19.3 0.17                            88  36 
 RUS  HZ EP   1   1358 35.37                             146     0.3 7   89 174 
 RUS  HN ES   1   1358 53.06                             146     0.3 7   89 174 
 RUS  HZ I        1358 55.03        16.8 0.25                            89 174 
 PTB  HZ EP   1   1358 38.47                             132    -0.4 7  144 263 
 PTB  HN ES   1   1358 58.73                             132    -0.7 7  144 263 
 PTB  HZ I        1359  4.05                                            144 263 
 ZAR  HZ EP   1   1358 45.70                             121     0.7 6  207 295 
 ZAR  HN ES   1   1359 10.29                             121    -0.1 6  207 295 
 ZAR  HZ I        1359 15.80         9.7 0.14                           207 295 
 HEL  HZ EP   1   1358 52.61                             115     0.6 6  268 258 
 RREF HZ EP   1   1358 56.67                             111    -0.8 5  313 231 
 RREF HN ES   1   1359 32.89                             111     0.3 5  313 231 
                                                                                
