 2010  922 1341 33.8 L   6.809 -73.136144.8  RSN 17 0.5 2.6LRSN                1
 GAP=160        1.14       3.8     6.6  7.1 -0.1087E+02  0.1723E+02  0.1929E+01E
 Epicentro: LOS SANTOS - SANTANDER                                             3
 ACTION:UP  11-02-18 11:04 OP:tino STATUS:               ID:20100922134133 L   I
 2010-09-22-1339-52S.COL___122                                                 6
 STAT SP IPHASW D HRMM SECON CODA AMPLIT PERI AZIMU VELO SNR AR TRES W  DIS CAZ7
 BTL  SZ EP       1341 53.52                             172     0.310   19 310 
 BAR2 SZ IP       1341 53.19                             170    -0.210   25 192 
 BAR2 SZ ES   1   1342  8.74                             170     0.1 7   25 192 
 BAR2 SZ I        1342 10.11        66.1 0.26                            25 192 
 GIR2 SZ EP       1341 54.27                             167     0.910   31 348 
 GIR2 SZ ES   2   1342  8.61                             167     0.0 5   31 348 
 BRR  HZ EP       1341 55.09                             152     0.210   72 297 
 BRR  HN ES   2   1342 12.00                             152     0.6 5   72 297 
 BRR  HZ I        1342 16.72       101.8 0.05                            72 297 
 RUS  HZ EP       1341 57.11                             143    -0.410  102 177 
 RUS  HN ES   1   1342 15.70                             143    -0.4 7  102 177 
 RUS  HZ I        1342 17.43        39.2 0.17                           102 177 
 GUE  SZ EP       1341 58.28                             140    -0.110  115  12 
 GRA  SZ IP       1341 59.03                             137     0.110  124  17 
 GRA  SZ ES   1   1342 18.03                             137    -0.4 7  124  17 
 GRA  SZ I        1342 24.57        32.3 0.29                           124  17 
 OCA  SZ EP       1342  1.29                             130    -0.7 9  159 353 
 OCA  SZ ES   1   1342 23.92                             130     0.0 7  159 353 
 OCA  SZ I        1342 31.25        37.0 0.36                           159 353 
 NOR  SZ EP       1342  9.11                             118    -0.6 8  236 235 
 NOR  SE ES   1   1342 36.96                             118    -0.7 6  236 235 
 CHI  HZ EP       1342 11.37                             117    -0.2 8  250 195 
 CHI  HN ES   1   1342 40.65                             117    -0.4 6  250 195 
 CHI  HZ I        1342 50.33        23.3 0.35                           250 195 
 ROSC BZ EP       1342 12.90                             116     0.9 8  254 211 
 ROSC BN ES   1   1342 41.75                             116    -0.1 6  254 211 
 ROSC BZ I        1342 46.35        27.5 0.48                           254 211 
 HEL  HZ I        1342 52.48        32.1 0.44                           273 256 
 CVER SZ EP   1   1342 14.99                             114     0.7 6  273 202 
 CVER SZ I        1342 54.20        34.2 0.17                           273 202 
 HEL  HZ EP       1342 14.60                             114     0.5 8  273 256 
 HEL  HN ES   1   1342 45.20                             114    -0.4 6  273 256 
 RREF HZ EP       1342 20.24                             111     0.1 7  323 229 
 RREF HN ES   2   1342 56.01                             111    -0.2 3  323 229 
 RREF HZ I        1343  3.17        29.4 0.25                           323 229 
 DBB  SZ EP       1342 20.77                             109    -0.6 7  341 274 
 DBB  SZ I        1342 59.65         6.1 0.34                           341 274 
 TOL  SZ EP       1342 22.49                             109     0.3 7  345 225 
 ANIL HZ EP       1342 23.63                             108    -0.1 6  359 225 
 ANIL HE ES   1   1343  3.66                             108     0.9 5  359 225 
 ANIL HZ I        1343 10.17        50.5 0.35                           359 225 
                                                                                
