 2012  722 1954 41.4 L   6.662 -73.173146.6  RSN  4 0.1 1.6LRSN                1
 GAP=238        0.37       5.5     3.8  4.1  0.4294E+01  0.1854E+01  0.5139E+01E
 Epicentro: VILLANUEVA - SANTANDER                                             3
 ACTION:UPD 12-08-14 11:46 OP:ep   STATUS:               ID:20120722195441 L   I
 2012-07-22-1950-00M.COL___215                                                 6
 STAT SP IPHASW D HRMM SECON CODA AMPLIT PERI AZIMU VELO AIN AR TRES W  DIS CAZ7
 BAR2 SZ EP   1   1955  1.05                             177     0.1 7    8 187 
 BAR2 SZ ES   2   1955 15.98                             177    -0.2 5    8 187 
 BAR2 SZ I        1955 20.74         7.1 0.23            175              8 187 
 BRR  HZ EP   1   1955  2.89                             151    -0.1 7   77 310 
 BRR  HZ I        1955  3.11         9.2 0.17            151             77 310 
 BRR  HN ES       1955 19.93                             151     0.110   77 310 
 PTB  HZ EP   1   1955  7.95                             133     0.0 7  143 265 
 PTB  HN ES   1   1955 28.77                             133     0.0 7  143 265 
 PTB  HZ I        1955 31.69         5.1 0.08            135            143 265 
 ZAR  HZ EP   1   1955 14.42                             122     0.1 6  208 296 
 ZAR  HN ES   2   1955 39.61                             122    -0.3 4  208 296 
 ZAR  HZ I        1955 45.64         5.2 0.19            125            208 296 
