 2016 1222 1359 54.6 L   6.916 -73.179146.0  RSN  4 0.1 1.1LRSN                1
 GAP=246        0.33       3.9     2.5  3.3  0.5259E+01  0.3286E+00 -0.3231E+01E
 Epicentro: BETULIA - SANTANDER                                                3
 ACTION:UPD 17-01-11 20:17 OP:rebc STATUS:               ID:20161222135954 L   I
 OLDACT:UP  16-12-23 02:13 OP:edw  STATUS:               ID:20161222135747     3
 OLDACT:UP  16-12-23 02:13 OP:edw  STATUS:               ID:20161222135747     3
 OLDACT:REG 16-12-22 20:38 OP:edw  STATUS:               ID:20161222135747     3
 2016-12-22-1358-00M.COL___374                                                 6
 STAT SP IPHASW D HRMM SECON CODA AMPLIT PERI AZIMU VELO AIN AR TRES W  DIS CAZ7
 BAR2 EZ EP       14 0 14.63                             166    0.0610 35.9 181 
 BAR2 EZ ES       14 0 30.09                             166   -0.0610 35.9 181 
 BAR2 EZ I        14 0 31.00         2.9 0.14            164           35.9 181 
 RUS  HZ EP       14 0 19.42                             140    0.0710  114 175 
 RUS  HN ES       14 0 38.66                             140   -0.0010  114 175 
 RUS  HZ I        14 0 39.77         2.0 0.24            140            114 175 
 PTB  HZ EP       14 0 21.38                             132   -0.15 9  147 254 
 PTB  HN ES       14 0 42.59                             132    0.05 9  147 254 
 PTB  HZ I        14 0 44.93         1.8 0.11            132            147 254 
 ZAR  HN ES   2   14 0 51.02                             124    0.11 4  196 289 
 CHI  HZ EP   4   14 0 31.95                             116   -1.61 0  260 194 
 CHI  HE ES   4   14 1  5.77                             116    1.81 0  260 194 
                                                                                
