 2013 1022 1532 40.8 L   6.791 -73.132145.4  RSN  8 0.3 2.0LRSN                1
 GAP=139        0.82       3.3     4.1  5.2 -0.1344E-01  0.4689E+01 -0.2564E+01E
 Epicentro: LOS SANTOS - SANTANDER                                             3
 ACTION:UPD 13-11-25 09:23 OP:ep   STATUS:               ID:20131022153240 L   I
 OLDACT:REG 13-10-22 14:55 OP:cam  STATUS:               ID:20131022152850     3
 2013-10-22-1528-50M.COL___227                                                 6
 STAT SP IPHASW D HRMM SECON CODA AMPLIT PERI AZIMU VELO AIN AR TRES W  DIS CAZ7
 BAR2 SZ EP       1533  0.45                             171    0.0510 22.7 194 
 BAR2 SZ ES       1533 15.17                             171   -0.5010 22.7 194 
 BAR2 SZ I        1533 16.13        27.0 0.34            171           22.7 194 
 BRR  HZ EP       1533  2.38                             152    0.3410 73.0 299 
 BRR  HN ES       1533 19.12                             152    0.5410 73.0 299 
 BRR  HZ I        1533 22.70        15.7 0.28            150           73.0 299 
 PAM  SZ EP       1533  3.42                             151    0.4310 77.2  38 
 PAM  SN ES       1533 20.05                             151   -0.2410 77.2  38 
 RUS  HZ EP       1533  4.43                             144   -0.0410 99.5 177 
 RUS  HE ES       1533 22.95                             144    0.0510 99.5 177 
 RUS  HZ I        1533 24.53         6.6 0.30            147           99.5 177 
 PTB  HZ EP       1533  7.92                             132    0.04 9  149 259 
 PTB  HN ES       1533 28.80                             132   -0.18 9  149 259 
 PTB  HZ I        1533 31.23        12.0 0.16            132            149 259 
 NOR  HZ EP   1   1533 16.43                             118   -0.17 6  235 235 
 SML  HZ EP       1533 17.03                             117   -0.57 8  245 335 
 SML  HN ES       1533 46.14                             117   -0.14 8  245 335 
 SML  HZ I        1533 50.74        17.0 0.26            118            245 335 
 GUY2CHZ EP   4   1533 26.00                             112    1.51 0  302 235 
 GUY2CHZ I        1534  5.75         2.7 0.26                           302 235 
                                                                                
