 2011  422 1848 53.6 L   6.803 -73.151145.7  RSN 12 0.4 1.9LRSN                1
 GAP=113        0.89       4.1     5.1  5.9 -0.8270E+01  0.5426E+01  0.2699E+01E
 Epicentro: LOS SANTOS - SANTANDER                                             3
 ACTION:UP  11-06-22 15:32 OP:REBC STATUS:               ID:20110422184853 L   I
 2011-04-22-1843-25S.COL___139                                                 6
 STAT SP IPHASW D HRMM SECON CODA AMPLIT PERI AZIMU VELO SNR AR TRES W  DIS CAZ7
 BTL  SZ EP   1   1849 13.46                             173     0.3 7   18 315 
 BAR2 SZ EP   1   1849 13.20                             170    -0.1 7   24 188 
 BAR2 SZ ES   1   1849 28.11                             170    -0.5 7   24 188 
 BAR2 SZ I        1849 30.58        26.1 0.23                            24 188 
 GIR2 SZ ES   1   1849 28.99                             167     0.4 7   31 351 
 BRR  HZ EP   1   1849 14.97                             153     0.2 7   71 299 
 BRR  HN ES   1   1849 31.81                             153     0.6 7   71 299 
 BRR  HZ I        1849 36.08        34.2 0.15                            71 299 
 PAM  SZ EP   1   1849 16.23                             151     0.4 7   78  40 
 PAM  SN ES   1   1849 33.12                             151    -0.1 7   78  40 
 RUS  HZ EP   1   1849 17.52                             144     0.1 7  101 176 
 RUS  HN ES   1   1849 35.60                             144    -0.3 7  101 176 
 RUS  HZ I        1849 37.27         6.9 0.19                           101 176 
 BRI  SZ EP   1   1849 17.56                             141     0.1 7  108  21 
 BRI  SZ ES   1   1849 36.36                             141     0.2 7  108  21 
 BRI  SZ I        1849 41.24        28.7 0.42                           108  21 
 GRA  SZ EP   1   1849 18.83                             137     0.0 7  126  18 
 GRA  SZ ES   1   1849 37.81                             137    -0.7 7  126  18 
 GRA  SZ I        1849 39.68        26.6 0.39                           126  18 
 OCA  SZ EP   1   1849 21.02                             130    -0.9 7  160 353 
 YOP  SZ EP   1   1849 24.00                             126     0.3 7  179 153 
 NOR  SZ EP   1   1849 29.72                             118     0.4 6  234 234 
 NOR  SN ES   1   1849 56.64                             118    -0.5 6  234 234 
 NOR  SZ I        1850  1.26         1.9 0.46                           234 234 
 HEL  HZ EP   1   1849 33.76                             115     0.0 6  272 256 
 HEL  HZ I        1849 40.03         2.3 0.40                           272 256 
 HEL  HN ES   1   1850  4.85                             115    -0.2 6  272 256 
                                                                                
