 2014  122 1226 14.4 L   6.812 -73.145142.7  RSN  9 0.4 2.0LRSN                1
 GAP= 77        0.90       3.2     3.7  6.1 -0.4137E+01  0.2394E+01  0.1711E+01E
 Epicentro: LOS SANTOS - SANTANDER                                             3
 ACTION:UPD 14-03-13 09:57 OP:ep   STATUS:               ID:20140122122614 L   I
 OLDACT:DUP 14-01-22 19:53 OP:stll STATUS:               ID:20140122121810d    3
 2014-01-22-1218-09M.COL___241                                                 6
 STAT SP IPHASW D HRMM SECON CODA AMPLIT PERI AZIMU VELO AIN AR TRES W  DIS CAZ7
 PAM  SZ EP       1226 36.71                             150    0.4610 76.3  40 
 PAM  SZ I        1226 37.01        34.1 0.20            152           76.3  40 
 PAM  SN ES       1226 53.52                             150    0.2510 76.3  40 
 RUS  HZ EP       1226 38.28                             143    0.3010  102 176 
 RUS  HN ES       1226 55.67                             143   -0.6710  102 176 
 RUS  HZ I        1226 57.48        10.1 0.28            142            102 176 
 PTB  HZ EP       1226 41.37                             131    0.19 9  148 258 
 PTB  HN ES       1227  2.31                             131    0.27 9  148 258 
 PTB  HZ I        1227  3.89        15.2 0.14            131            148 258 
 TAM  HZ IP     C 1226 42.22                             130    0.33 9  155 105 
 OCA  HN ES       1227  3.74                             129   -0.43 9  159 353 
 NOR  HZ EP       1226 50.11                             118    0.04 8  236 234 
 NOR  HE ES       1227 17.73                             118   -0.14 8  236 234 
 NOR  HZ I        1227 19.80         7.6 0.14            117            236 234 
 SML  HZ EP       1226 50.40                             117   -0.36 8  243 335 
 SOCV BZ EP       1226 56.59                             111   -0.66 7  301  57 
 PRA  HZ EP       1227  8.23                             106    0.24 6  393 209 
 PRA  HN ES       1227 49.47                             106   -0.29 6  393 209 
 PRA  HZ I        1227 55.71         3.1 0.46            106            393 209 
                                                                                
