 2015  522 1602 25.4 L   6.798 -73.102143.8  RSN  5 0.3 1.7LRSN                1
 GAP=242        0.72       5.6     6.2  7.5  0.1655E+02  0.5935E+01  0.3911E+01E
 Epicentro: LOS SANTOS - SANTANDER                                             3
 ACTION:UPD 15-09-10 22:06 OP:cam  STATUS:               ID:20150522160225 L   I
 OLDACT:REG 15-05-22 20:32 OP:spq  STATUS:               ID:20150522155748     3
 2015-05-22-1557-48M.COL___294                                                 6
 STAT SP IPHASW D HRMM SECON CODA AMPLIT PERI AZIMU VELO AIN AR TRES W  DIS CAZ7
 BAR2 EZ EP       16 2 44.79                             170   -0.0710 24.4 201 
 BAR2 EZ ES   1   16 2 59.38                             170   -0.63 7 24.4 201 
 BAR2 EZ I        16 3  0.79         6.7 0.26            167           24.4 201 
 BRR  HZ EP       16 2 46.65                             151    0.0210 75.6 297 
 BRR  HE ES       16 3  3.35                             151    0.1810 75.6 297 
 BRR  HZ I        16 3  6.49        11.6 0.38            147           75.6 297 
 RUS  HZ EP   1   16 2 48.85                             144   -0.12 7  100 179 
 RUS  HN ES   1   16 3  7.97                             144    0.65 7  100 179 
 RUS  HZ I        16 3  8.67         4.0 0.14            144            100 179 
 ZAR  HN ES   1   16 3 23.93                             121    0.12 6  209 292 
 ZAR  HZ I        16 3 28.88         8.1 0.46            121            209 292 
 NOR  HE ES   1   16 3 29.24                             118   -0.33 6  239 235 
 NOR  HZ I        16 3 32.15         4.3 0.21            117            239 235 
                                                                                
