 2013  622 1608  6.7 L   6.863 -72.967  7.1  RSN  4 0.2 1.5LRSN                1
 GAP=233        0.53       3.7     4.6  5.5  0.1323E+02  0.1715E+02  0.1436E+02E
 Epicentro: CEPITA - SANTANDER                                                 3
 ACTION:UPD 14-01-08 09:56 OP:ep   STATUS:               ID:20130622160806 L   I
 OLDACT:UP  13-06-22 17:10 OP:cma  STATUS:               ID:20130622155959     3
 OLDACT:UP  13-06-22 17:10 OP:cma  STATUS:               ID:20130622155959     3
 OLDACT:UP  13-06-22 17:09 OP:cma  STATUS:               ID:20130622155959     3
 OLDACT:UP  13-06-22 17:07 OP:cma  STATUS:               ID:20130622155959     3
 OLDACT:REG 13-06-22 15:37 OP:y    STATUS:               ID:20130622155959     3
 2013-06-22-1559-59M.COL___267                                                 6
 STAT SP IPHASW D HRMM SECON CODA AMPLIT PERI AZIMU VELO AIN AR TRES W  DIS CAZ7
 GIR2 SZ EP       16 8 12.65                              96   -0.0110 34.6 314 
 GIR2 SZ ES   1   16 8 17.07                              96   -0.27 7 34.6 314 
 BRR  HZ EP     C 16 8 20.78                              92    0.3910 86.6 288 
 BRR  HN ES       16 8 31.02                              92   -0.0810 86.6 288 
 BRR  HZ I        16 8 44.54         9.8 0.36             71           86.6 288 
 RUS  HZ EP       16 8 24.04                              92   -0.1110  108 187 
 RUS  HZ I        16 8 37.46         6.6 0.20             56            108 187 
 PTB  HZ EP   2   16 8 32.51                              56   -0.22 5  169 258 
 PTB  HN ES       16 8 53.08                              56    0.01 9  169 258 
 PTB  HZ I        16 8 53.75        10.4 0.16             56            169 258 
                                                                                
