 2013  422 1540 25.0 L   6.784 -73.161151.2  RSN  7 0.5 1.9LRSN                1
 GAP=135        1.19       6.8     7.5  8.8 -0.6697E+01  0.1607E+02 -0.4899E+01E
 Epicentro: LOS SANTOS - SANTANDER                                             3
 ACTION:UPD 13-05-22 14:40 OP:EP   STATUS:               ID:20130422154025 L   I
 2013-04-22-1540-00M.COL___249                                                 6
 STAT SP IPHASW D HRMM SECON CODA AMPLIT PERI AZIMU VELO AIN AR TRES W  DIS CAZ7
 BAR2 SZ EP     D 1540 45.46                             172    0.2510 21.4 186 
 BAR2 SZ ES   1   1541  0.38                             172   -0.62 7 21.4 186 
 BAR2 SZ I        1541  1.96        25.9 0.18            170           21.4 186 
 BRR  HZ EP     C 1540 47.15                             154    0.4910 70.5 300 
 BRR  HN ES   1   1541  4.41                             154    0.82 7 70.5 300 
 BRR  HZ I        1541  9.41        18.3 0.40            153           70.5 300 
 PAM  SZ IP     C 1540 48.32                             151    0.4210 79.8  40 
 PAM  SN ES   1   1541  5.40                             151   -0.39 7 79.8  40 
 PAM  SZ I        1541  7.53        11.7 0.52            157           79.8  40 
 RUS  HZ IP     C 1540 49.38                             145    0.2410 99.0 175 
 RUS  HN ES   1   1541  7.43                             145   -0.57 7 99.0 175 
 RUS  HZ I        1541  8.87         3.8 0.44            147           99.0 175 
 PTB  HZ EP       1540 52.17                             134   -0.03 9  146 259 
 PTB  HN ES   1   1541 13.12                             134   -0.32 7  146 259 
 PTB  HZ I        1541 15.76         6.8 0.12            134            146 259 
 NOR  HZ EP       1541  0.70                             120   -0.05 8  232 235 
 NOR  HN ES   4   1541 30.37                             120    1.70 0  232 235 
 NOR  HZ I        1541 34.89         6.3 0.14            121            232 235 
 SML  HZ EP       1541  0.79                             118   -1.20 8  245 336 
 SML  HN ES   4   1541 28.33                             118   -2.54 0  245 336 
 SML  HZ I        1541 28.99        13.5 0.08            121            245 336 
                                                                                
