 2012  922 1021 27.7 L   6.723 -73.157146.2  RSN  6 0.3 1.6LRSN                1
 GAP=230        0.43       5.6     5.8  5.3  0.2035E+02  0.4927E+01  0.4616E+01E
 Epicentro: VILLANUEVA - SANTANDER                                             3
 ACTION:UPD 12-10-22 14:20 OP:ep   STATUS:               ID:20120922102127 L   I
 2012-09-22-1020-00M.COL___221                                                 6
 STAT SP IPHASW D HRMM SECON CODA AMPLIT PERI AZIMU VELO AIN AR TRES W  DIS CAZ7
 BAR2 SZ EP   2   1021 46.72                             174   -0.53 5 14.7 191 
 BAR2 SZ ES   1   1022  2.35                             174   -0.13 7 14.7 191 
 BAR2 SZ I        1022  3.57        11.3 0.30                          14.7 191 
 BRR  HZ EP   1   1021 49.31                             151    0.21 7 74.6 305 
 BRR  HZ I        1021 49.87         9.0 0.29                          74.6 305 
 BRR  HE ES   2   1022  6.04                             151    0.26 5 74.6 305 
 RUS  HZ EP   1   1021 51.09                             146    0.18 7 92.1 175 
 RUS  HE ES   2   1022  9.08                             146    0.07 5 92.1 175 
 PTB  HN ES   2   1022 15.36                             133    0.02 5  145 262 
 ZAR  HE ES   2   1022 25.56                             122   -0.36 4  206 294 
 ZAR  HZ I        1022 31.25         3.2 0.11                           206 294 
 CHI  HZ EP   2   1022  4.28                             118   -0.22 4  240 195 
 CHI  HZ I        1022 40.53         1.8 0.39                           240 195 
                                                                                
