 2013  622 1022 39.6 L   7.243 -73.042 15.1  RSN  7 0.3 1.8LRSN                1
 GAP=197        0.69       1.9     3.2  3.0  0.1784E+01 -0.1111E+01 -0.2128E+01E
 Epicentro: CHARTA - SANTANDER                                                 3
 ACTION:UPD 14-01-08 09:56 OP:ep   STATUS:               ID:20130622102239 L   I
 OLDACT:REG 13-06-22 14:50 OP:y    STATUS:               ID:20130622101959     3
 2013-06-22-1019-59M.COL___267                                                 6
 STAT SP IPHASW D HRMM SECON CODA AMPLIT PERI AZIMU VELO AIN AR TRES W  DIS CAZ7
 GIR2 SZ EP       1022 44.51                             118   -0.0110 24.7 223 
 GIR2 SZ ES   1   1022 48.69                             118    0.34 7 24.7 223 
 BAR2 SZ EP       1022 51.74                              99    0.0110 73.6 192 
 BAR2 SZ ES       1023  1.25                              99    0.0710 73.6 192 
 BAR2 SZ I        1023  1.82        15.3 0.10             47           73.6 192 
 BRR  HZ IP     C 1022 51.74                              99   -0.0210 75.5 259 
 BRR  HN ES       1023  1.08                              99   -0.1710 75.5 259 
 BRR  HZ I        1023  1.57        44.0 0.16             47           75.5 259 
 OCA  HN ES   1   1023 11.32                              96   -0.61 7  114 345 
 RUS  HN ES   1   1023 21.06                              56   -0.49 7  149 182 
 ZAR  HZ EP   1   1023  9.60                              56    0.39 6  202 278 
 ZAR  HE ES       1023 32.20                              56   -0.11 9  202 278 
 ZAR  HZ I        1023 34.96         9.0 0.76             37            202 278 
 SML  HZ EP   1   1023 10.41                              56    0.72 6  206 327 
 SML  HN ES   1   1023 33.46                              56    0.30 6  206 327 
 SML  HZ I        1023 40.13        10.3 0.10             37            206 327 
                                                                                
