 2010 1222 1249 17.8 L   6.801 -73.152147.8  RSN 16 0.5 3.0LRSN                1
 GAP=135        0.98       3.3     6.1  6.3 -0.5748E+01  0.1196E+02  0.2093E+01E
 Epicentro: LOS SANTOS - SANTANDER                                             3
 ACTION:UP  11-01-14 15:26 OP:pat  STATUS:               ID:20101222124917 L   I
 2010-12-22-1247-22S.COL___135                                                 6
 STAT SP IPHASW D HRMM SECON CODA AMPLIT PERI AZIMU VELO SNR AR TRES W  DIS CAZ7
 BTL  SZ ES   1   1249 53.83                             172     0.8 7   18 315 
 BAR2 SZ IP       1249 37.57                             171    -0.110   23 188 
 BAR2 SZ ES   1   1249 52.72                             171    -0.5 7   23 188 
 BAR2 SZ I        1249 54.33       238.1 0.15                            23 188 
 RUS  HZ EP       1249 41.52                             144    -0.210  101 176 
 RUS  HE ES   1   1250  0.26                             144    -0.2 7  101 176 
 RUS  HZ I        1250  2.00       169.3 0.40                           101 176 
 GRA  SZ IP       1249 43.42                             138     0.210  126  18 
 GRA  SZ ES   1   1250  2.38                             138    -0.7 7  126  18 
 GRA  SZ I        1250  4.56        77.1 0.30                           126  18 
 OCA  SZ EP       1249 46.25                             130     0.0 9  160 353 
 OCA  SZ ES   1   1250  8.80                             130     0.4 7  160 353 
 OCA  SZ I        1250 14.61       101.1 0.32                           160 353 
 YOP  SZ EP   1   1249 48.20                             127     0.2 7  179 153 
 YOP  SN ES   2   1250 12.00                             127     0.4 4  179 153 
 YOP  SZ I        1250 13.09        64.9 0.40                           179 153 
 NOR  SZ EP   1   1249 53.09                             119    -0.5 6  234 234 
 NOR  SN ES   1   1250 21.66                             119     0.1 6  234 234 
 CHI  HZ EP       1249 55.58                             118     0.0 8  249 195 
 CHI  HE ES   1   1250 25.02                             118    -0.1 6  249 195 
 CHI  HZ I        1250 28.09        48.1 0.45                           249 195 
 ROSC BN ES   1   1250 26.79                             117     1.0 6  253 211 
 ROSC BZ I        1250 32.90        95.3 0.40                           253 211 
 HEL  HZ EP   1   1249 58.77                             115     0.7 6  271 256 
 HEL  HE ES   2   1250 28.52                             115    -0.9 4  271 256 
 HEL  HZ I        1250 36.69        52.5 0.30                           271 256 
 VIL  SZ EP   2   1250  1.50                             113     0.4 4  302 190 
 VIL  SN ES   2   1250 34.20                             113    -0.7 4  302 190 
 VIL  SZ I        1250 39.07        31.2 0.31                           302 190 
 RREF HZ EP   1   1250  4.71                             111     0.7 5  321 229 
 RREF HZ I        1250 49.67        75.5 0.28                           321 229 
 DBB  SZ EP   1   1250  4.35                             110    -0.9 5  339 274 
 TOL  SZ EP   1   1250  6.60                             110     0.5 5  343 225 
 PRA  HZ EP   1   1250 10.83                             107    -0.5 4  392 209 
 PRA  HE ES   1   1250 52.68                             107    -0.5 4  392 209 
 SJA  SZ EP   2   1250 11.91                             106    -0.5 3  400 193 
 SJA  SZ I        1250 58.39        58.3 0.26                           400 193 
                                                                                
