 2011  422 1824 47.0 L   6.773 -73.054155.5  RSN  8 0.3 1.5LRSN                1
 GAP=150        0.71       4.6     5.3  7.1 -0.6263E+01  0.1399E+02  0.1077E+01E
 Epicentro: LOS SANTOS - SANTANDER                                             3
 ACTION:UP  11-06-22 15:32 OP:REBC STATUS:               ID:20110422182447 L   I
 2011-04-22-1823-15S.COL___139                                                 6
 STAT SP IPHASW D HRMM SECON CODA AMPLIT PERI AZIMU VELO SNR AR TRES W  DIS CAZ7
 BAR2 SZ EP   1   1825  7.45                             171    -0.4 7   25 215 
 BAR2 SZ I        1825 25.41         9.6 0.24                            25 215 
 BTL  SZ EP   1   1825  8.40                             169     0.5 7   29 304 
 PAM  SN ES   1   1825 28.26                             153     0.2 7   74  32 
 BRR  HZ IP       1825  9.86                             151     0.110   82 297 
 BRR  HZ I        1825 13.53         7.6 0.13                            82 297 
 BRR  HN ES   1   1825 27.42                             151    -0.1 7   82 297 
 RUS  HZ EP   1   1825 11.86                             147     0.4 7   97 182 
 RUS  HN ES   1   1825 30.36                             147    -0.3 7   97 182 
 RUS  HZ I        1825 31.96         5.4 0.25                            97 182 
 OCA  SZ EP   1   1825 15.97                             131    -0.5 7  165 350 
 NOR  SZ EP   1   1825 23.83                             120    -0.2 6  241 236 
 NOR  SN ES   1   1825 52.65                             120    -0.2 6  241 236 
 NOR  SZ I        1825 59.23         0.7 0.17                           241 236 
 HEL  HZ EP   1   1825 28.85                             116     0.1 6  281 257 
 HEL  HN ES   1   1826  1.71                             116     0.4 6  281 257 
                                                                                
