 2012  722 1113 16.3 L   6.764 -73.173152.6  RSN  5 0.3 1.6LRSN                1
 GAP=232        0.65       7.7     6.6  7.3  0.2188E+02  0.9882E+01  0.5210E+01E
 Epicentro: LOS SANTOS - SANTANDER                                             3
 ACTION:UPD 12-08-14 11:46 OP:ep   STATUS:               ID:20120722111316 L   I
 2012-07-22-1110-00M.COL___215                                                 6
 STAT SP IPHASW D HRMM SECON CODA AMPLIT PERI AZIMU VELO AIN AR TRES W  DIS CAZ7
 BAR2 SZ EP   1   1113 36.77                             173     0.0 7   19 183 
 BAR2 SZ ES   1   1113 52.16                             173    -0.5 7   19 183 
 BAR2 SZ I        1113 52.93         7.2 0.16            174             19 183 
 BRR  HZ EP   1   1113 38.39                             154     0.2 7   71 303 
 BRR  HZ I        1113 40.58         9.8 0.12            148             71 303 
 BRR  HN ES       1113 55.38                             154     0.110   71 303 
 RUS  HN ES   2   1113 59.93                             146     0.6 5   97 174 
 PTB  HZ EP   1   1113 43.27                             134    -0.3 7  144 260 
 PTB  HN ES   1   1114  4.69                             134    -0.1 7  144 260 
 PTB  HZ I        1114  6.94         4.1 0.20            131            144 260 
 ZAR  HE ES   2   1114 14.96                             124     0.3 4  203 293 
 ZAR  HZ I        1114 19.99         3.3 0.15            121            203 293 
