 2014  922 1813 14.8 L   6.793 -73.109152.0  RSN  9 0.4 1.6LRSN                1
 GAP=141        0.90       3.7     4.4  6.3  0.9062E-01  0.2863E+01  0.4244E+00E
 Epicentro: LOS SANTOS - SANTANDER                                             3
 ACTION:UPD 14-10-03 23:07 OP:nd   STATUS:               ID:20140922181314 L   I
 OLDACT:DUP 14-09-23 00:58 OP:spq  STATUS:               ID:20140922180821d    3
 2014-09-22-1808-20M.COL___284                                                 6
 STAT SP IPHASW D HRMM SECON CODA AMPLIT PERI AZIMU VELO AIN AR TRES W  DIS CAZ7
 BAR2 SZ EP       1813 35.18                             171   -0.0510 23.6 200 
 BAR2 SZ ES   1   1813 51.07                             171   -0.06 7 23.6 200 
 BAR2 SZ I        1813 52.89         9.4 0.20            168           23.6 200 
 BRR  HZ EP   1   1813 36.91                             152    0.03 7 75.1 298 
 BRR  HN ES       1813 54.51                             152    0.4310 75.1 298 
 BRR  HZ I        1814  1.50        11.1 0.24            150           75.1 298 
 PAM  SZ EP     C 1813 38.14                             152    0.5210 75.5  37 
 PAM  SN ES   1   1813 54.94                             152   -0.44 7 75.5  37 
 PAM  SZ I        1813 56.00         4.2 0.24            158           75.5  37 
 RUS  HZ EP       1813 39.07                             145   -0.0710 99.6 178 
 RUS  HE ES   1   1813 57.48                             145   -0.62 7 99.6 178 
 RUS  HZ I        1813 58.98         2.8 0.44            148           99.6 178 
 PTB  HZ EP   1   1813 41.90                             133   -0.76 7  152 259 
 PTB  HE ES   1   1814  4.11                             133   -0.25 7  152 259 
 PTB  HZ I        1814  9.04         5.4 0.26            132            152 259 
 SPBC HZ EP       1813 44.07                             130    0.06 9  165 220 
 SPBC HN ES       1814  7.33                             130    0.57 9  165 220 
 SPBC HZ I        1814 13.27         6.4 0.40            131            165 220 
 ZAR  HN ES       1814 13.55                             123   -0.50 8  208 292 
 ZAR  HZ I        1814 19.59         3.7 0.22            124            208 292 
 SML  HZ EP   1   1813 51.70                             118   -0.38 6  246 335 
 SML  HN ES   1   1814 21.49                             118    0.36 6  246 335 
 SML  HZ I        1814 23.84         6.3 0.24            121            246 335 
 GUY2CHZ EP   1   1813 59.48                             113    0.42 5  304 235 
 GUY2CHE ES   4   1814 36.86                             113    3.30 0  304 235 
 GUY2CHZ I        1814 42.02         2.2 0.47                           304 235 
                                                                                
