 2017  122 1815  8.0 L   6.799 -73.117143.2  RSN  7 0.3 2.1LRSN                1
 GAP=140        0.90       4.0     4.0  5.4 -0.4236E+00  0.4972E+01  0.9075E+00E
 Epicentro: LOS SANTOS - SANTANDER                                             3
 ACTION:UPD 17-05-22 16:02 OP:jn   STATUS:               ID:20170122181508 L   I
 OLDACT:UP  17-01-22 21:49 OP:cog  STATUS:               ID:20170122180746     3
 OLDACT:REG 17-01-22 21:32 OP:cog  STATUS:               ID:20170122180746     3
 2017-01-22-1808-00M.COL___355                                                 6
 STAT SP IPHASW D HRMM SECON CODA AMPLIT PERI AZIMU VELO AIN AR TRES W  DIS CAZ7
 BAR2 EZ IP       1815 27.22                             170   -0.1210 24.0 198 
 BAR2 EZ ES       1815 41.91                             170   -0.5010 24.0 198 
 BAR2 EZ I        1815 42.84        40.2 0.28            171           24.0 198 
 BRR  HZ EP       1815 29.24                             151    0.2010 74.1 297 
 BRR  HN ES       1815 45.99                             151    0.5510 74.1 297 
 BRR  HZ I        1815 47.61        23.1 0.16            150           74.1 297 
 PAM  EZ EP       1815 30.09                             151    0.2610 75.5  38 
 PAM  EE ES       1815 46.52                             151   -0.3310 75.5  38 
 PAM  EZ I        1815 49.38        21.7 0.41            152           75.5  38 
 RUS  HZ EP       1815 31.22                             143   -0.2610  100 178 
 RUS  HN ES       1815 50.33                             143    0.5410  100 178 
 RUS  HZ I        1815 51.29        15.4 0.30            146            100 178 
 PTB  HZ EP   9   1815 34.08                             131   -0.97 0  151 259 
 PTB  HN ES       1815 54.87                             131   -0.30 9  151 259 
 PTB  HZ I        1815 58.29        12.2 0.14            131            151 259 
 ZAR  HZ EP       1815 40.35                             121   -0.24 8  207 292 
 ZAR  HN ES       1816  5.96                             121   -0.05 8  207 292 
 ZAR  HZ I        1816 10.85        11.2 0.40            122            207 292 
 NOR  HZ EP       1815 44.09                             117    0.23 8  237 235 
 NOR  HN ES       1816 11.41                             117   -0.42 8  237 235 
 NOR  HZ I        1816 12.63         6.5 0.14            118            237 235 
 CHI  HN ES   4   1816 16.50                             116    1.50 0  249 196 
 URE  HE ES   4   1816 18.88                             113   -2.60 0  287 292 
                                                                                
