 2011  522 1110 15.4 L   6.579 -73.409118.9  RSN  7 0.3 1.8LRSN                1
 GAP=176        0.58       3.2     5.2  5.4 -0.3137E+00  0.3156E+01  0.3464E+01E
 Epicentro: HATO - SANTANDER                                                   3
 ACTION:UP  11-06-29 08:55 OP:tino STATUS:               ID:20110522111015 L   I
 2011-05-22-1107-56S.COL___141                                                 6
 STAT SP IPHASW D HRMM SECON CODA AMPLIT PERI AZIMU VELO SNR AR TRES W  DIS CAZ7
 BAR2 SZ EP       1110 31.77                             167    -0.110   25  87 
 BAR2 SZ ES   1   1110 44.60                             167    -0.1 7   25  87 
 BAR2 SZ I        1110 45.49        22.2 0.24                            25  87 
 BTL  SZ EP       1110 32.58                             160     0.210   41  23 
 BTL  SZ ES   2   1110 44.87                             160    -0.8 5   41  23 
 GIR2 SZ EP       1110 33.28                             151     0.110   60  23 
 GIR2 SZ ES   1   1110 47.31                             151     0.2 7   60  23 
 BRR  HZ EP       1110 33.27                             148    -0.210   67 330 
 BRR  HZ I        1110 33.38        22.5 0.16                            67 330 
 BRR  HN ES   1   1110 47.82                             148     0.3 7   67 330 
 RUS  HZ EP       1110 35.34                             143     0.010   84 155 
 RUS  HN ES   2   1110 50.87                             143     0.0 5   84 155 
 RUS  HZ I        1110 52.24        11.3 0.25                            84 155 
 PAM  SN ES   1   1110 55.63                             133     0.3 7  115  43 
 GRA  SZ ES   1   1111  1.76                             123    -0.4 7  159  25 
                                                                                
