 2013  622 1931 32.5 L   6.091 -73.707118.0  RSN 16 0.5 3.0LRSN                1
 GAP= 60        0.92       2.3     2.4  5.9  0.1959E+00  0.7328E+00  0.5144E-01E
 Epicentro: BOLIVAR - SANTANDER                                                3
 ACTION:UPD 14-01-08 09:56 OP:ep   STATUS:               ID:20130622193132 L   I
 OLDACT:REG 13-06-22 16:10 OP:y    STATUS:               ID:20130622192959     3
 2013-06-22-1929-59M.COL___267                                                 6
 STAT SP IPHASW D HRMM SECON CODA AMPLIT PERI AZIMU VELO AIN AR TRES W  DIS CAZ7
 RUS  HZ IP     D 1931 51.22                             147   -0.2510 72.5 108 
 RUS  HZ I        1931 51.54       173.3 0.22            142           72.5 108 
 RUS  HN ES   1   1932  5.99                             147   -0.31 7 72.5 108 
 BAR2 SZ IP     C 1931 51.81                             144    0.1610 80.3  46 
 BAR2 SZ ES   1   1932  6.04                             144   -0.58 7 80.3  46 
 BAR2 SZ I        1932  9.44       301.6 0.38            140           80.3  46 
 PTB  HZ EP       1931 51.84                             138   -0.7610 96.6 301 
 PTB  HN ES   1   1932  9.31                             138    1.00 7 96.6 301 
 PTB  HZ I        1932 11.82        94.5 0.42            131           96.6 301 
 BRR  HZ EP       1931 54.04                             133    0.1210  112 360 
 BRR  HN ES   1   1932 10.69                             133    0.02 7  112 360 
 BRR  HZ I        1932 14.47       187.4 0.18            128            112 360 
 GIR2 SZ EP   1   1931 55.50                             131    0.41 7  123  27 
 NOR  HZ EP       1931 56.26                             126   -0.46 9  141 246 
 NOR  HN ES       1932 15.94                             126    0.29 9  141 246 
 NOR  HZ I        1932 17.93       215.3 0.20            119            141 246 
 ROSC BZ EP   2   1931 59.61                             124    1.16 5  154 206 
 ROSC BN ES   2   1932 18.39                             124   -0.34 5  154 206 
 CHI  HZ IP     C 1931 59.05                             123   -0.20 9  162 181 
 CHI  HN ES       1932 20.31                             123    0.16 9  162 181 
 CHI  HZ I        1932 26.30        86.1 0.30            116            162 181 
 YOP  SZ IP       1931 59.39                             122    0.28 9  164 120 
 YOP  SN ES   1   1932 20.60                             122    0.70 7  164 120 
 YOP  SZ I        1932 21.83       125.1 0.18            117            164 120 
 ZAR  HZ EP       1932  2.70                             116   -0.16 9  200 321 
 ZAR  HE ES       1932 26.90                             116    0.32 9  200 321 
 ZAR  HZ I        1932 29.29       134.2 0.26            112            200 321 
 HEL  HZ EP   1   1932  4.25                             116    0.77 6  202 273 
 HEL  HN ES   1   1932 26.96                             116   -0.72 6  202 273 
 HEL  HZ I        1932 29.26        49.6 0.46            111            202 273 
 TAM  HZ EP       1932  4.52                             114   -0.04 8  215  80 
 TAM  HN ES   1   1932 29.38                             114   -0.22 6  215  80 
 VIL  SZ EP   2   1932  5.21                             114    0.16 4  219 180 
 VIL  SN ES   2   1932 30.73                             114    0.25 4  219 180 
 VIL  SZ I        1932 35.29       108.0 0.48            109            219 180 
 OCA  HZ EP   1   1932  8.07                             111    0.46 6  241  10 
 OCA  HN ES   1   1932 35.07                             111    0.03 6  241  10 
 OCA  HZ I        1932 42.81        69.8 0.32            108            241  10 
 PRA  HZ EP       1932 13.01                             107   -0.49 7  294 206 
 PRA  HZ I        1932 52.67        67.2 0.22            104            294 206 
 SML  HZ EP   1   1932 14.35                             106   -0.12 5  302 352 
 SML  HN ES   1   1932 46.90                             106   -0.34 5  302 352 
 SML  HZ I        1932 55.05        86.6 0.10            104            302 352 
                                                                                
