 2012  522 1655 27.1 L   6.819 -73.170150.6  RSN  6 0.4 1.7LRSN                1
 GAP=133        0.92       5.5     5.6  8.6 -0.1869E+01  0.1697E+02 -0.5069E+01E
 Epicentro: LOS SANTOS - SANTANDER                                             3
 ACTION:UP  12-07-05 12:07 OP:pat  STATUS:               ID:20120522165527 L   I
 2012-05-22-1650-00M.COL___200                                                 6
 STAT SP IPHASW D HRMM SECON CODA AMPLIT PERI AZIMU VELO SNR AR TRES W  DIS CAZ7
 BAR2 SZ EP       1655 47.62                             170     0.310   25 183 
 BAR2 SZ ES   2   1656  2.71                             170    -0.5 5   25 183 
 BAR2 SZ I        1656  4.55        14.0 0.29                            25 183 
 PAM  SE ES       1656  7.71                             152     0.110   78  42 
 RUS  HZ EP       1655 51.66                             144     0.110  103 175 
 RUS  HN ES   1   1656 10.34                             144    -0.2 7  103 175 
 RUS  HZ I        1656 13.34         5.7 0.47                           103 175 
 PTB  HZ EP   1   1655 54.44                             134     0.1 7  146 258 
 PTB  HN ES   1   1656 14.87                             134    -0.6 7  146 258 
 PTB  HZ I        1656 21.04         6.3 0.21                           146 258 
 ZAR  HZ EP   2   1655 59.97                             124     0.4 4  201 292 
 ZAR  HE ES   1   1656 25.42                             124     0.6 6  201 292 
 ZAR  HZ I        1656 33.45         6.3 0.41                           201 292 
 COD  HZ EP       1656 14.59                             110    -0.8 6  346 355 
                                                                                
