 2013  622 1536  3.0 L   6.548 -73.493116.6  RSN  8 0.3 2.0LRSN                1
 GAP=119        0.72       2.6     3.6  6.0  0.1638E+01  0.8724E+01  0.1401E+01E
 Epicentro: EL CARMEN DE CHUCURI - SANTANDER                                   3
 ACTION:UPD 14-01-08 09:56 OP:ep   STATUS:               ID:20130622153603 L   I
 OLDACT:UP  13-06-22 16:54 OP:cma  STATUS:               ID:20130622152960d    3
 OLDACT:DUP 13-06-22 16:50 OP:cma  STATUS:               ID:20130622152960d    3
 OLDACT:UP  13-06-22 16:50 OP:cma  STATUS:               ID:20130622152959     3
 OLDACT:REG 13-06-22 15:36 OP:y    STATUS:               ID:20130622152959     3
 2013-06-22-1529-59M.COL___267                                                 6
 STAT SP IPHASW D HRMM SECON CODA AMPLIT PERI AZIMU VELO AIN AR TRES W  DIS CAZ7
 BRR  HZ EP       1536 20.55                             148   -0.2010 66.4 339 
 BRR  HE ES       1536 34.27                             148   -0.3410 66.4 339 
 BRR  HZ I        1536 40.80        18.3 0.40            147           66.4 339 
 GIR2 SZ EP       1536 21.05                             148    0.0310 67.4  29 
 GIR2 SZ ES   1   1536 35.15                             148    0.07 7 67.4  29 
 RUS  HZ EP       1536 22.80                             141    0.0110 85.5 148 
 RUS  HN ES       1536 38.53                             141    0.2910 85.5 148 
 RUS  HZ I        1536 39.85         9.1 0.48            143           85.5 148 
 PTB  HZ EP   4   1536 22.58                             134   -1.28 0  107 270 
 PTB  HN ES   4   1536 37.47                             134   -2.67 0  107 270 
 PTB  HZ I        1536 38.68        24.5 0.42            135            107 270 
 ZAR  HZ EP       1536 31.85                             118    0.38 9  183 305 
 ZAR  HE ES       1536 54.31                             118    0.62 9  183 305 
 ZAR  HZ I        1536 56.97        23.0 0.44            118            183 305 
 NOR  HZ EP   1   1536 31.56                             117   -0.38 7  187 235 
 NOR  HN ES   1   1536 54.08                             117   -0.45 7  187 235 
 NOR  HZ I        1536 57.04        11.2 0.12            118            187 235 
 OCA  HZ EP   2   1536 31.94                             117   -0.20 4  188   6 
 OCA  HN ES       1536 54.62                             117   -0.27 9  188   6 
 OCA  HZ I        1537  2.56        18.5 0.36            117            188   6 
 PRA  HZ EP   2   1536 50.58                             103    0.00 3  349 206 
 PRA  HE ES   4   1537 28.42                             103    0.73 0  349 206 
 PRA  HZ I        1537 33.01         6.3 0.22            103            349 206 
                                                                                
