 2013  122 1450 30.6 L   6.752 -73.166139.6  RSN  7 0.4 1.8LRSN                1
 GAP=136        0.71       3.7     4.1  6.2  0.1340E+01  0.5093E+01  0.5501E+01E
 Epicentro: VILLANUEVA - SANTANDER                                             3
 ACTION:UPD 13-02-15 09:16 OP:ep   STATUS:               ID:20130122145030 L   I
 2013-01-22-1450-00M.COL___241                                                 6
 STAT SP IPHASW D HRMM SECON CODA AMPLIT PERI AZIMU VELO AIN AR TRES W  DIS CAZ7
 BAR2 SZ EP   1   1450 49.55                             172    0.13 7 17.7 186 
 BAR2 SZ ES   1   1451  3.55                             172   -0.52 7 17.7 186 
 BRR  HZ EP   1   1450 51.41                             151    0.24 7 72.0 303 
 BRR  HN ES   1   1451  7.92                             151    0.74 7 72.0 303 
 BRR  HZ I        1451 10.86        16.5 0.30            153           72.0 303 
 PAM  SZ EP   1   1450 52.37                             148   -0.18 7 83.0  38 
 PAM  SN ES   1   1451  9.44                             148   -0.21 7 83.0  38 
 PAM  SZ I        1451 11.47        10.5 0.50            154           83.0  38 
 RUS  HZ EP   1   1450 53.53                             144    0.12 7 95.5 174 
 RUS  HN ES   1   1451 11.50                             144    0.32 7 95.5 174 
 RUS  HZ I        1451 13.53        13.4 0.26            144           95.5 174 
 PTB  HZ EP   1   1450 56.41                             131   -0.40 7  145 261 
 PTB  HN ES   1   1451 16.91                             131   -0.32 7  145 261 
 PTB  HZ I        1451 20.56         8.6 0.14            132            145 261 
 ZAR  HN ES   1   1451 27.57                             121   -0.11 6  204 294 
 CHI  HZ EP   1   1451  7.78                             116    0.41 6  243 195 
 CHI  HN ES   1   1451 35.74                             116   -0.29 6  243 195 
 CHI  HZ I        1451 44.18         3.8 0.28            118            243 195 
                                                                                
