 2014  222 1203 33.0 L   6.795 -73.196141.7  RSN  6 0.2 1.7LRSN                1
 GAP=131        0.49       3.8     2.9  4.8 -0.2935E+00  0.2621E+01 -0.1070E+02E
 Epicentro: ZAPATOCA - SANTANDER                                               3
 ACTION:UPD 14-03-10 08:12 OP:ep   STATUS:               ID:20140222120333 L   I
 OLDACT:UP  14-02-22 15:19 OP:cam  STATUS:               ID:20140222120000     3
 OLDACT:REG 14-02-22 14:41 OP:cam  STATUS:               ID:20140222120000     3
 2014-02-22-1200-00M.COL___215                                                 6
 STAT SP IPHASW D HRMM SECON CODA AMPLIT PERI AZIMU VELO AIN AR TRES W  DIS CAZ7
 BAR2 SZ EP       12 3 52.10                             171   -0.0210 22.5 176 
 BAR2 SZ ES       12 4  7.14                             171    0.1010 22.5 176 
 BAR2 SZ I        12 4  8.17        12.4 0.16            173           22.5 176 
 PAM  SZ EP       12 3 54.94                             149   -0.0910 81.4  42 
 PAM  SZ I        12 3 55.10        15.7 0.26            151           81.4  42 
 RUS  HZ EP   1   12 3 56.55                             143    0.20 7  101 173 
 RUS  HN ES       12 4 14.50                             143   -0.0710  101 173 
 RUS  HZ I        12 4 15.72         3.2 0.36            149            101 173 
 PTB  HZ EP       12 3 58.95                             132   -0.17 9  142 259 
 PTB  HN ES       12 4 19.43                             132   -0.07 9  142 259 
 PTB  HZ I        12 4 22.09         4.9 0.58            132            142 259 
 ZAR  HZ EP   1   12 4  5.25                             122    0.59 6  199 293 
 ZAR  HE ES   4   12 4 27.72                             122   -1.64 0  199 293 
 ZAR  HZ I        12 4 38.08         5.5 0.20            122            199 293 
 SML  HZ EP   1   12 4  9.00                             117   -0.20 6  242 337 
                                                                                
