 2017  722 1716 12.8 L   6.735 -73.114136.8  RSN 13 0.5 2.1LRSN                1
 GAP= 92        1.08       3.3     2.9  5.3  0.6429E+00  0.1739E+01  0.4901E+01E
 Epicentro: JORDAN - SANTANDER                                                 3
 ACTION:UPD 17-08-30 15:35 OP:rebc STATUS:               ID:20170722171612 L   I
 OLDACT:REG 17-07-22 19:43 OP:lv   STATUS:               ID:20170722170735     3
 2017-07-22-1708-00M.COL___395                                                 6
 STAT SP IPHASW D HRMM SECON CODA AMPLIT PERI AZIMU VELO AIN AR TRES W  DIS CAZ7
 BAR2 EZ IP     C 1716 31.12                             172   -0.1710 17.5 206 
 BAR2 EZ ES       1716 46.14                             172    0.4610 17.5 206 
 BAR2 EZ I        1716 47.25        18.2 0.13            171           17.5 206 
 BRR  HZ EP       1716 33.08                             149   -0.3610 77.8 302 
 BRR  HE ES       1716 49.83                             149    0.3210 77.8 302 
 BRR  HZ I        1716 54.32        25.5 0.13            149           77.8 302 
 PAM  EZ EP       1716 34.15                             148   -0.2010 81.0  34 
 PAM  EN ES       1716 50.75                             148   -0.3810 81.0  34 
 PAM  EZ I        1716 53.05        49.5 0.46            151           81.0  34 
 RUS  HZ EP       1716 35.48                             144    0.2910 93.2 178 
 RUS  HN ES       1716 52.86                             144    0.2510 93.2 178 
 RUS  HZ I        1716 54.84        20.0 0.19            145           93.2 178 
 TAM  HZ IP     C 1716 39.53                             129    0.19 9  150 103 
 TAM  HN ES       1717  0.63                             129    0.62 9  150 103 
 PTB  HZ EP   9   1716 37.80                             129   -1.51 0  150 262 
 PTB  HN ES       1716 58.06                                   -0.38 9  150 262 
 PTB  HZ I        1717  1.24         7.5 0.09            131            150 262 
 SPBC HZ EP       1716 40.24                             128   -0.12 9  160 222 
 SPBC HN ES       1717  1.50                             128   -0.32 9  160 222 
 SPBC HZ I        1717  5.45        24.7 0.21            129            160 222 
 YPLC HZ EP       1716 41.51                             126    0.30 9  169 151 
 YPLC HN ES       1717  2.59                             126   -0.74 9  169 151 
 YPLC HZ I        1717  8.00        13.8 0.45            128            169 151 
 ZAR  HZ EP       1716 45.93                             119    0.57 8  210 294 
 ZAR  HN ES       1717 10.12                             119   -0.60 8  210 294 
 ZAR  HZ I        1717 15.74        16.9 0.01            121            210 294 
 NOR  HZ EP       1716 47.99                             117    0.05 8  233 236 
 NOR  HN ES       1717 14.78                             117   -0.53 8  233 236 
 GUY2CHZ EP   4   1716 57.12                             111    1.20 0  300 236 
 GUY2CHN ES       1717 30.24                             111    0.73 7  300 236 
 GUY2CHZ I        1717 36.26         4.4 0.25                           300 236 
 PTGC HZ EP       1716 54.66                             110   -0.74 7  301 159 
 PTGC HN ES       1717 27.96                             110   -0.63 7  301 159 
 ORTC HZ EP       1717  6.60                             105    0.56 6  392 217 
 ORTC HN ES       1717 48.39                             105    0.86 6  392 217 
 ORTC HZ I        1717 53.14         3.2 0.13            106            392 217 
 SJC  HZ EP   4   1717  6.03                             104   -3.04 0  417 327 
 SJC  HN ES   4   1717 47.19                             104   -5.73 0  417 327 
                                                                                
