 2010  822 1640 46.8 L   6.809 -73.106145.5  RSN  4 0.2 1.2LRSN                1
 GAP=184        0.46      11.7    33.6  8.6 -0.3510E+03  0.1851E+02 -0.1902E+02E
 Epicentro: LOS SANTOS - SANTANDER                                             3
 ACTION:UP  10-09-07 10:57 OP:vdl  STATUS:               ID:20100822164047 L   I
 2010-08-22-1637-56S.COL___120                                                 6
 STAT SP IPHASW D HRMM SECON CODA AMPLIT PERI AZIMU VELO SNR AR TRES W  DIS CAZ7
 BTL  SZ EP       1641  6.47                             171     0.110   22 304 
 BAR2 SZ EP       1641  6.39                             170    -0.110   26 200 
 BAR2 SZ ES   2   1641 21.88                             170     0.1 5   26 200 
 BAR2 SZ I        1641 24.32         5.1 0.54                            26 200 
 GUE  SZ EP   2   1641 11.04                             140    -0.3 5  115  10 
 GUE  SZ I        1641 11.96         1.2 0.17                           115  10 
 GRA  SZ EP   1   1641 12.13                             137     0.3 7  124  16 
 GRA  SZ I        1641 12.50         2.9 0.38                           124  16 
 GRA  SZ ES   2   1641 31.22                             137    -0.2 5  124  16 
                                                                                
