 2013  522 1227  2.6 L   6.743 -73.153139.2  RSN  7 0.4 2.1LRSN                1
 GAP=138        1.03       4.8     4.4  6.7  0.1138E+01  0.6427E+01  0.2670E+01E
 Epicentro: JORDAN - SANTANDER                                                 3
 ACTION:UPD 13-06-20 09:52 OP:ep   STATUS:               ID:20130522122702 L   I
 2013-05-22-1218-51M.COL___215                                                 6
 STAT SP IPHASW D HRMM SECON CODA AMPLIT PERI AZIMU VELO AIN AR TRES W  DIS CAZ7
 BAR2 SZ EP       1227 21.42                             173    0.1410 17.0 191 
 BAR2 SZ ES       1227 36.01                             173    0.1210 17.0 191 
 BAR2 SZ I        1227 37.36        29.4 0.18            171           17.0 191 
 GIR2 SZ EP       1227 21.60                             164   -0.0410 37.4 353 
 GIR2 SZ ES       1227 36.43                             164   -0.0910 37.4 353 
 BRR  HZ EP       1227 23.48                             150    0.3310 73.7 303 
 BRR  HN ES       1227 39.99                             150    0.7810 73.7 303 
 BRR  HN I        1227 44.11        45.0 0.16            152           73.7 303 
 PAM  SZ EP       1227 24.41                             148   -0.0210 82.9  37 
 PAM  SZ I        1227 24.66        15.3 0.24            152           82.9  37 
 PAM  SN ES       1227 40.89                             148   -0.5910 82.9  37 
 RUS  HZ EP       1227 25.40                             144    0.1810 94.3 175 
 RUS  HN ES       1227 42.91                             144    0.0210 94.3 175 
 RUS  HN I        1227 46.63        11.9 0.56            145           94.3 175 
 PTB  HZ EP       1227 28.70                             131   -0.12 9  146 261 
 PTB  HN ES       1227 48.40                             131   -0.91 9  146 261 
 PTB  HN I        1227 51.55        44.5 0.32            132            146 261 
 ZAR  HN ES       1227 59.98                             121    0.10 8  206 294 
                                                                                
