 2010 1022 1251 22.1 L   6.854 -72.977150.2  RSN  4 0.1 1.7LRSN                1
 GAP=257        0.39       6.6    12.3  5.5  0.5769E+02 -0.1387E+02 -0.6060E+00E
 Epicentro: CEPITA - SANTANDER                                                 3
 ACTION:UP  11-02-18 11:11 OP:tino STATUS:               ID:20101022125122 L   I
 2010-10-22-1245-52S.COL___125                                                 6
 STAT SP IPHASW D HRMM SECON CODA AMPLIT PERI AZIMU VELO SNR AR TRES W  DIS CAZ7
 BAR2 SZ EP   1   1251 42.41                             165    -0.2 7   37 218 
 BAR2 SZ ES   2   1251 58.77                             165     0.1 5   37 218 
 BAR2 SZ I        1252  0.90        12.5 0.43                            37 218 
 BRR  HZ EP   1   1251 44.78                             149     0.1 7   86 289 
 BRR  HN ES   2   1252  2.08                             149    -0.1 5   86 289 
 BRR  HZ I        1252  5.50         9.7 0.17                            86 289 
 RUS  HZ EP   1   1251 46.93                             143     0.1 7  107 186 
 RUS  HE ES   2   1252  5.98                             143     0.0 5  107 186 
 RUS  HZ I        1252  7.53         6.5 0.49                           107 186 
 CHI  HZ EP   1   1252  1.23                             117    -0.1 6  260 199 
                                                                                
