 2012 1122 1326 51.1 L   6.824 -73.181143.1  RSN 10 0.4 2.2LRSN                1
 GAP=131        0.64       2.6     3.7  4.7  0.4430E+00  0.6726E+01  0.1260E+01E
 Epicentro: ZAPATOCA - SANTANDER                                               3
 ACTION:UPD 12-12-05 15:35 OP:}ep  STATUS:               ID:20121122132651 L   I
 2012-11-22-1320-00M.COL___233                                                 6
 STAT SP IPHASW D HRMM SECON CODA AMPLIT PERI AZIMU VELO AIN AR TRES W  DIS CAZ7
 BAR2 SZ EP   1   1327 10.48                             169    0.01 7 25.6 180 
 BAR2 SZ ES   1   1327 25.23                             169   -0.34 7 25.6 180 
 BAR2 SZ I        1327 26.41        42.8 0.34                          25.6 180 
 GIR2 SZ EP   1   1327 10.54                             168    0.16 7 28.2 357 
 GIR2 SZ ES   1   1327 25.77                             168    0.35 7 28.2 357 
 PAM  SZ EP   1   1327 13.40                             150    0.33 7 77.9  43 
 PAM  SN ES   1   1327 30.46                             150    0.26 7 77.9  43 
 PAM  SZ I        1327 32.48        30.9 0.50                          77.9  43 
 RUS  HZ EP   1   1327 14.68                             142   -0.13 7  104 174 
 RUS  HN ES   1   1327 32.94                             142   -0.37 7  104 174 
 RUS  HZ I        1327 34.21        18.3 0.24                           104 174 
 PTB  HZ EP   1   1327 17.28                             132   -0.28 7  145 258 
 PTB  HN ES   1   1327 38.07                             132   -0.13 7  145 258 
 PTB  HZ I        1327 39.76        15.7 0.12                           145 258 
 ZAR  HZ EP   1   1327 22.82                             122   -0.09 6  199 292 
 ZAR  HE ES   1   1327 48.13                             122    0.42 6  199 292 
 CTAB SZ EP   4   1327 28.21                             119    1.47 0  230 210 
 SML  HZ EP   1   1327 26.75                             117   -0.40 6  240 336 
 SML  HE ES   1   1327 54.79                             117   -0.47 6  240 336 
 CHI  HZ EP   1   1327 28.77                             116   -0.06 6  250 194 
 CHI  HN ES   1   1327 58.04                             116   -0.22 6  250 194 
 CHI  HZ I        1328  1.40         7.9 0.34                           250 194 
 GUY  SZ EP   4   1327 36.66                             112    1.99 0  302 234 
 GUY  SZ I        1328 16.71        12.8 0.52                           302 234 
 PRA  HZ EP   1   1327 45.05                             106    0.46 4  392 209 
 PRA  HE ES   1   1328 27.50                             106    1.20 4  392 209 
 PRA  HZ I        1328 30.87         3.9 0.38                           392 209 
                                                                                
