 2010  622 1932 19.0 L   6.821 -73.034132.0  RSN  6 0.4 1.5LRSN                1
 GAP=168        0.71       4.8    10.8 10.4 -0.5736E+01 -0.4539E+02 -0.1003E+02E
 Epicentro: CEPITA - SANTANDER                                                 3
 ACTION:UP  10-08-24 10:12 OP:vdl  STATUS:               ID:20100622193219 L   I
 2010-06-22-1928-26S.COL___118                                                 6
 STAT SP IPHASW D HRMM SECON CODA AMPLIT PERI AZIMU VELO SNR AR TRES W  DIS CAZ7
 BAR2 SZ EP   1   1932 37.11                             167    -0.1 7   30 213 
 BAR2 SZ ES   2   1932 51.44                             167     0.1 5   30 213 
 BRR  HZ EP   1   1932 38.85                             147    -0.5 7   81 293 
 BRR  HE ES   2   1932 55.80                             147     0.6 5   81 293 
 BRR  HZ I        1932 58.54        10.1 1.08                            81 293 
 BRI  SZ EP   1   1932 41.53                             140     0.4 7  102  15 
 RUS  HZ EP   1   1932 41.42                             140    -0.2 7  103 183 
 RUS  HE ES   2   1932 59.45                             140     0.2 5  103 183 
 RUS  HZ I        1933  1.41         3.3 0.25                           103 183 
 GUE  SZ EP   1   1932 42.17                             137     0.0 7  112   6 
 GUE  SZ ES   2   1932 59.38                             137    -0.8 5  112   6 
 GRA  SZ EP   1   1932 42.89                             135     0.3 7  120  12 
                                                                                
