 2010 1122 1811 13.6 L   6.784 -73.100140.0  RSN  8 0.4 1.8LRSN                1
 GAP=164        0.97       4.7    10.7  8.6 -0.1953E+01 -0.1692E+02 -0.4981E+01E
 Epicentro: LOS SANTOS - SANTANDER                                             3
 ACTION:UP  10-12-17 16:54 OP:REBC STATUS:               ID:20101122181113 L   I
 2010-11-22-1807-29S.COL___132                                                 6
 STAT SP IPHASW D HRMM SECON CODA AMPLIT PERI AZIMU VELO SNR AR TRES W  DIS CAZ7
 BAR2 SZ EP   1   1811 32.20                             171    -0.3 7   23 204 
 BAR2 SZ ES   1   1811 47.12                             171    -0.2 7   23 204 
 BAR2 SZ I        1811 50.20        18.4 0.28                            23 204 
 BTL  SZ EP       1811 32.58                             170     0.010   24 309 
 BRR  HZ EP   1   1811 34.13                             150    -0.3 7   77 298 
 BRR  HN ES   1   1811 50.82                             150     0.1 7   77 298 
 BRR  HZ I        1811 52.52        11.9 0.54                            77 298 
 RUS  HZ EP   1   1811 36.35                             143    -0.3 7   99 179 
 RUS  HN ES   1   1811 54.68                             143     0.1 7   99 179 
 RUS  HZ I        1811 56.31         5.9 0.35                            99 179 
 GRA  SZ IP       1811 39.15                             135     0.810  126  15 
 GRA  SZ I        1811 59.71         7.1 0.33                           126  15 
 OCA  SZ EP   1   1811 41.10                             128    -0.6 7  163 351 
 OCA  SZ ES   2   1812  3.96                             128     0.3 5  163 351 
 OCA  SZ I        1812  9.38         6.7 0.19                           163 351 
 CHI  HZ EP   1   1811 50.65                             116    -0.3 6  248 196 
 CHI  HN ES   2   1812 20.18                             116     0.1 4  248 196 
 CHI  HZ I        1812 25.29         4.1 0.39                           248 196 
 RREF HE ES   2   1812 36.63                             110     0.8 3  325 230 
 RREF HZ I        1812 44.10         3.9 0.40                           325 230 
                                                                                
