 2013  522 1542 39.5 L   6.779 -73.177148.5  RSN  6 0.2 1.7LRSN                1
 GAP=134        0.56       3.5     3.3  4.4  0.1979E+01 -0.1553E+01 -0.2963E+01E
 Epicentro: LOS SANTOS - SANTANDER                                             3
 ACTION:UPD 13-06-20 09:52 OP:ep   STATUS:               ID:20130522154239 L   I
 2013-05-22-1538-50M.COL___215                                                 6
 STAT SP IPHASW D HRMM SECON CODA AMPLIT PERI AZIMU VELO AIN AR TRES W  DIS CAZ7
 BAR2 SZ EP       1542 59.37                             172   -0.0910 20.7 182 
 BAR2 SZ ES       1543 14.86                             172   -0.1310 20.7 182 
 BAR2 SZ I        1543 15.96         8.8 0.36            172           20.7 182 
 GIR2 SZ EP       1542 59.33                             167   -0.2710 33.2 357 
 BRR  HZ EP       1543  1.07                             154    0.1810 69.4 302 
 BRR  HN ES       1543 17.85                             154    0.3110 69.4 302 
 BRR  HN I        1543 18.64        25.7 0.30            154           69.4 302 
 PAM  SZ EP       1543  2.22                             150   -0.0710 81.4  40 
 RUS  HZ EP       1543  3.76                             145    0.3310 98.6 174 
 RUS  HN ES       1543 22.04                             145   -0.0110 98.6 174 
 RUS  HN I        1543 22.69         4.8 0.22            146           98.6 174 
 PTB  HZ EP       1543  6.32                             133   -0.08 9  144 259 
 PTB  HN ES       1543 27.14                             133   -0.20 9  144 259 
 PTB  HN I        1543 28.06         4.1 0.18            134            144 259 
                                                                                
