 2012  822 1103  9.4 L   6.741 -73.158142.3  RSN  6 0.4 2.1LRSN                1
 GAP=138        0.79       5.1     4.4  7.1  0.7320E+00  0.5368E+01 -0.3363E+01E
 Epicentro: VILLANUEVA - SANTANDER                                             3
 ACTION:UPD 12-09-10 11:57 OP:ep   STATUS:               ID:20120822110309 L   I
 2012-08-22-1100-00M.COL___218                                                 6
 STAT SP IPHASW D HRMM SECON CODA AMPLIT PERI AZIMU VELO AIN AR TRES W  DIS CAZ7
 BAR2 SZ EP   1   11 3 28.33                             173   -0.14 7 16.7 189 
 BAR2 SZ ES   1   11 3 42.83                             173   -0.54 7 16.7 189 
 BAR2 SZ I        11 3 45.74        20.6 0.23                          16.7 189 
 BRR  HZ EP       11 3 30.63                             151    0.3510 73.4 303 
 BRR  HZ I        11 3 31.12        33.3 0.10                          73.4 303 
 BRR  HN ES   1   11 3 47.26                             151    0.67 7 73.4 303 
 PAM  SZ EP       11 3 31.71                             148    0.1210 83.3  37 
 PAM  SZ I        11 3 31.95        20.9 0.23                          83.3  37 
 PAM  SN ES   1   11 3 48.53                             148   -0.39 7 83.3  37 
 RUS  HZ EP   1   11 3 32.48                             145    0.15 7 94.2 175 
 RUS  HN ES   1   11 3 50.60                             145    0.36 7 94.2 175 
 PTB  HZ EP   1   11 3 35.22                             132   -0.62 7  145 261 
 PTB  HN ES   1   11 3 56.20                             132   -0.29 7  145 261 
 PTB  HZ I        11 3 59.13        11.5 0.26                           145 261 
 ZAR  HZ EP   2   11 3 41.35                             121   -0.39 4  205 294 
 ZAR  HN ES   1   11 4  6.96                             121   -0.02 6  205 294 
 ZAR  HZ I        11 4 13.85        11.7 0.28                           205 294 
                                                                                
