 2016 1022 1018 46.3 L   6.716 -72.940  4.0  RSN  6 0.5 1.0LRSN                1
 GAP=169        1.25       2.9     3.8  7.7 -0.3854E+01  0.9310E+01 -0.4439E+01E
 Epicentro: CEPITA - SANTANDER                                                 3
 ACTION:UPD 16-11-09 19:21 OP:rebc STATUS:               ID:20161022101846 L   I
 OLDACT:UP  16-10-22 22:36 OP:ar   STATUS:               ID:20161022100745     3
 OLDACT:REG 16-10-22 20:09 OP:ar   STATUS:               ID:20161022100745     3
 2016-10-22-1008-00M.COL___337                                                 6
 STAT SP IPHASW D HRMM SECON CODA AMPLIT PERI AZIMU VELO AIN AR TRES W  DIS CAZ7
 BAR2 EZ EP       1018 51.42                              47   -0.2710 30.1 243 
 BAR2 EZ ES       1018 55.28                              47   -0.6210 30.1 243 
 BAR2 EZ I        1018 55.69        38.4 0.18             47           30.1 243 
 PAM  EZ EP       1018 59.27                              47    0.6910 73.9  21 
 PAM  EN ES       1019  7.33                              47   -0.8410 73.9  21 
 PAM  EZ I        1019  8.67         6.2 0.14             47           73.9  21 
 RUS  HZ EP       1019  1.82                              47    0.4210 92.4 190 
 RUS  HE ES       1019 13.03                              47   -0.1510 92.4 190 
 RUS  HZ I        1019 13.94         2.8 0.22             47           92.4 190 
 BRR  HE ES       1019 13.61                              47    0.4810 95.6 297 
 PTB  HZ EP       1019 12.81                              47    0.34 9  169 263 
 PTB  HN ES       1019 32.74                              47   -0.16 9  169 263 
 PTB  HZ I        1019 34.35         1.6 0.26             47            169 263 
 SPBC HZ EP       1019 13.18                              47    0.16 9  172 227 
                                                                                
