 2013 1022 1035 39.9 L   6.802 -73.097144.2  RSN 13 0.4 2.4LRSN                1
 GAP=143        0.88       2.9     4.2  5.1 -0.1025E+01  0.6373E+01  0.9957E+00E
 Epicentro: LOS SANTOS - SANTANDER                                             3
 ACTION:UPD 13-11-25 09:23 OP:ep   STATUS:               ID:20131022103539 L   I
 OLDACT:UP  13-10-22 16:17 OP:cam  STATUS:               ID:20131022102847     3
 OLDACT:REG 13-10-22 14:36 OP:cam  STATUS:               ID:20131022102847     3
 2013-10-22-1028-47M.COL___218                                                 6
 STAT SP IPHASW D HRMM SECON CODA AMPLIT PERI AZIMU VELO AIN AR TRES W  DIS CAZ7
 BAR2 SZ EP     D 1035 59.43                             170    0.0110 25.1 202 
 BAR2 SZ ES       1036 14.05                             170   -0.5710 25.1 202 
 BAR2 SZ I        1036 15.31       111.4 0.16            168           25.1 202 
 PAM  SZ EP       1036  2.32                             152    0.5310 73.9  36 
 PAM  SN ES       1036 19.21                             152    0.3910 73.9  36 
 PAM  SZ I        1036 21.88        27.3 0.50            154           73.9  36 
 BRR  HZ EP       1036  1.41                             151    0.2110 75.8 296 
 BRR  HN ES       1036 18.16                             151    0.3910 75.8 296 
 BRR  HZ I        1036 19.16        37.1 0.46            148           75.8 296 
 RUS  HZ EP       1036  3.42                             143   -0.1310  101 179 
 RUS  HN ES       1036 21.93                             143   -0.0210  101 179 
 RUS  HZ I        1036 23.98        14.8 0.44            145            101 179 
 PTB  HZ EP   4   1036  6.12                             131   -1.15 0  153 259 
 PTB  HN ES   4   1036 27.03                             131   -1.56 0  153 259 
 PTB  HZ I        1036 29.92        55.3 0.14            129            153 259 
 OCA  HZ EP   1   1036  7.94                             129   -0.24 7  161 351 
 OCA  HN ES       1036 29.57                             129   -0.63 9  161 351 
 OCA  HZ I        1036 32.83        26.5 0.30            129            161 351 
 SPBC HZ EP       1036  8.39                             128   -0.28 9  167 220 
 SPBC HN ES   1   1036 31.00                             128   -0.08 7  167 220 
 SPBC HZ I        1036 32.69        16.8 0.18            128            167 220 
 ZAR  HZ EP   1   1036 13.05                             121    0.25 6  209 292 
 ZAR  HE ES       1036 38.43                             121    0.01 8  209 292 
 ZAR  HZ I        1036 46.96        24.2 0.26            121            209 292 
 NOR  HZ EP       1036 15.96                             118   -0.11 8  239 235 
 NOR  HN ES   1   1036 44.51                             118    0.26 6  239 235 
 NOR  HZ I        1036 48.73        18.5 0.24            118            239 235 
 SML  HZ EP   1   1036 16.02                             117   -0.69 6  246 334 
 CHI  HZ EP   1   1036 17.50                             117   -0.24 6  250 196 
 HEL  HZ EP   4   1036 21.97                             114    1.30 0  277 256 
 HEL  HE ES   4   1036 50.39                             114   -2.04 0  277 256 
 HEL  HZ I        1036 58.34        17.7 0.30            114            277 256 
 GUY2CHZ EP   1   1036 25.05                             112    1.05 5  306 235 
                                                                                
