 2016  922 1014  4.9 L   6.732 -73.212137.5  RSN  9 0.3 1.5LRSN                1
 GAP=128        0.67       2.9     3.7  4.4  0.2612E+01  0.3539E+01  0.4455E+01E
 Epicentro: VILLANUEVA - SANTANDER                                             3
 ACTION:UPD 17-08-17 21:15 OP:lp   STATUS:               ID:20160922101404 L   I
 OLDACT:UP  16-09-22 23:23 OP:edw  STATUS:               ID:20160922100737d    3
 OLDACT:DUP 16-09-22 23:11 OP:edw  STATUS:               ID:20160922100737d    3
 OLDACT:UP  16-09-22 23:03 OP:edw  STATUS:               ID:20160922100736     3
 OLDACT:REG 16-09-22 21:08 OP:edw  STATUS:               ID:20160922100736     3
 2016-09-22-1008-00M.COL___360                                                 6
 STAT SP IPHASW D HRMM SECON CODA AMPLIT PERI AZIMU VELO AIN AR TRES W  DIS CAZ7
 BAR2 EZ EP       1014 22.98                             173   -0.3810 15.8 168 
 BAR2 EZ ES       1014 37.60                             173   -0.1910 15.8 168 
 BAR2 EZ I        1014 40.69        10.8 0.22            170           15.8 168 
 BRR  HZ EP       1014 25.19                             152    0.2010 69.0 307 
 BRR  HN ES       1014 41.04                             152    0.3510 69.0 307 
 PAM  EZ EP   9   1014 25.88                             146   -1.00 0 87.9  40 
 PAM  EN ES       1014 43.02                             146   -0.0410 87.9  40 
 PAM  EZ I        1014 45.15         5.7 0.52            149           87.9  40 
 RUS  HZ EP       1014 27.39                             144    0.0810 94.0 171 
 RUS  HN ES   2   1014 44.59                             144   -0.24 5 94.0 171 
 RUS  HZ I        1014 46.87         4.8 0.32            141           94.0 171 
 PTB  HZ EP       1014 30.02                             132   -0.35 9  139 261 
 PTB  HN ES       1014 50.51                             132    0.24 9  139 261 
 PTB  HZ I        1014 55.87         3.4 0.16            129            139 261 
 SPBC HZ EP       1014 31.94                             129    0.21 9  153 219 
 SPBC HZ I        1014 45.54         7.5 0.05            126            153 219 
 SPBC HN ES   4   1014 50.59                             129   -2.10 0  153 219 
 OCA  HN ES       1014 55.46                             126    0.17 9  167 356 
 ZAR  HZ EP   4   1014 38.03                             121    1.65 0  200 295 
 ZAR  HN ES       1015  0.44                             121   -0.52 9  200 295 
 ZAR  HZ I        1015  6.71         2.2 0.15            120            200 295 
 CHI  HZ EP       1014 41.33                             116    0.22 8  240 194 
 CHI  HN ES   2   1015  9.50                             116    0.11 4  240 194 
                                                                                
