 2013  322 1310 30.3 L   6.814 -73.160152.0  RSN  9 0.3 2.2LRSN                1
 GAP=134        0.88       2.7     3.9  6.2  0.4408E+00  0.2199E+01  0.2082E+01E
 Epicentro: LOS SANTOS - SANTANDER                                             3
 ACTION:UPD 13-04-09 14:04 OP:ep   STATUS:               ID:20130322131030 L   I
 2013-03-22-1310-00M.COL___241                                                 6
 STAT SP IPHASW D HRMM SECON CODA AMPLIT PERI AZIMU VELO AIN AR TRES W  DIS CAZ7
 BAR2 SZ EP       1310 50.62                             170   -0.0710 24.6 186 
 BAR2 SZ I        1311  7.45        19.7 0.38            170           24.6 186 
 BRR  HZ EP       1310 52.59                             154    0.5910 69.0 298 
 BRR  HN ES       1311  9.17                             154    0.2410 69.0 298 
 BRR  HN I        1311 12.49        28.4 0.18            152           69.0 298 
 PAM  SZ EP       1310 53.58                             152    0.4210 77.3  41 
 PAM  SN ES       1311 10.85                             152   -0.1510 77.3  41 
 PAM  SN I        1311 11.91        33.1 0.44            152           77.3  41 
 RUS  HZ EP       1310 54.61                             145   -0.1610  102 175 
 RUS  HN ES       1311 13.66                             145   -0.2110  102 175 
 RUS  HN I        1311 14.81        15.6 0.40            145            102 175 
 PTB  HZ EP       1310 57.42                             134   -0.23 9  146 258 
 PTB  HN ES       1311 18.88                             134   -0.12 9  146 258 
 PTB  HN I        1311 24.16        20.1 0.38            132            146 258 
 OCA  HZ EP       1310 59.25                             131    0.32 9  159 354 
 OCA  HN ES       1311 20.79                             131   -0.48 9  159 354 
 OCA  HN I        1311 24.39        45.7 0.36            131            159 354 
 ZAR  HN ES       1311 28.38                             124   -0.02 9  202 292 
 ZAR  HN I        1311 34.22        12.2 0.24            123            202 292 
 SML  HN ES       1311 35.55                             119   -0.17 8  242 335 
 SML  HN I        1311 42.23        33.1 0.10            118            242 335 
 CHI  HZ EP       1311  7.75                             118   -0.70 8  250 195 
 CHI  HN ES       1311 38.76                             118    0.54 8  250 195 
 CHI  HN I        1311 40.54         7.2 0.46            118            250 195 
 SJC  HN ES   4   1312  5.21                             107   -3.90 0  407 327 
                                                                                
