 2010  222 1521 55.2 L   6.790 -73.073148.0  RSN 14 0.4 2.5LRSN                1
 GAP=190        0.61       3.3     5.2  5.8 -0.1676E+01  0.1213E+02  0.5632E+01E
 Epicentro: LOS SANTOS - SANTANDER                                             3
 ACTION:UP  10-08-24 09:50 OP:vdl  STATUS:               ID:20100222152155 L   I
 2010-02-22-1520-38S.COL___094                                                 6
 STAT SP IPHASW D HRMM SECON CODA AMPLIT PERI AZIMU VELO SNR AR TRES W  DIS CAZ7
 BAR2 SZ IP       1522 15.11                             170     0.010   25 209 
 BAR2 SZ ES   3   1522 30.18                             170    -0.5 2   25 209 
 GIR2 SZ EP       1522 15.27                             166     0.110   35 337 
 BRR  HZ IP       1522 17.09                             150     0.110   79 296 
 BRR  HE ES   2   1522 33.92                             150    -0.1 5   79 296 
 BRR  HZ I        1522 36.23        44.9 0.02                            79 296 
 RUS  BZ EP       1522 18.98                             145    -0.110   99 181 
 RUS  BE ES   2   1522 37.94                             145     0.3 5   99 181 
 RUS  BZ I        1522 39.48        26.5 0.23                            99 181 
 OCA  SZ EP       1522 23.81                             130     0.0 9  163 350 
 OCA  SZ ES   3   1522 45.58                             130    -0.7 2  163 350 
 CHI  HZ EP       1522 33.13                             117     0.0 8  250 197 
 CHI  HE ES   3   1523  2.15                             117    -0.6 2  250 197 
 CHI  HZ I        1523  8.41        13.9 0.60                           250 197 
 ROSC BZ EP       1522 33.34                             117    -0.4 8  256 213 
 ROSC BN ES   3   1523  4.13                             117     0.3 2  256 213 
 HEL  HZ EP       1522 36.42                             115     0.1 7  280 256 
 HEL  HN ES   2   1523  7.53                             115    -0.9 4  280 256 
 HEL  HZ I        1523 13.24        13.4 0.47                           280 256 
 GUY  HZ EP       1522 39.82                             112     0.3 7  307 236 
 GUY  HN ES   2   1523 15.13                             112     0.9 4  307 236 
 RREF BZ EP       1522 42.46                             111     0.4 7  327 230 
 RREF BN ES   3   1523 19.51                             111     0.9 2  327 230 
 RREF BZ I        1523 26.70        20.0 0.27                           327 230 
 DBB  SZ EP   2   1522 43.16                             109    -0.5 3  348 274 
 TOL  SZ EP       1522 44.48                             109     0.4 6  348 226 
 ANIL BZ EP       1522 44.92                             109    -0.7 6  362 226 
 ANIL BN ES   3   1523 24.13                             109    -0.8 2  362 226 
 ANIL BZ I        1523 31.77        28.9 0.32                           362 226 
 PRA  HZ EP       1522 48.88                             107    -0.2 6  395 211 
 PRA  HE ES   3   1523 30.44                             107    -0.8 1  395 211 
 PRA  HZ I        1523 34.94        13.3 0.39                           395 211 
                                                                                
