 2013  822 1040  7.1 L   6.814 -73.137141.4  RSN  8 0.3 1.3LRSN                1
 GAP=184        0.67       2.2     3.7  4.1  0.1882E+01  0.2854E+01 -0.4753E+00E
 Epicentro: LOS SANTOS - SANTANDER                                             3
 ACTION:UPD 14-01-14 09:05 OP:ep   STATUS:               ID:20130822104007 L   I
 OLDACT:REG 13-08-22 15:48 OP:stll STATUS:               ID:20130822103851     3
 2013-08-22-1038-51M.COL___212                                                 6
 STAT SP IPHASW D HRMM SECON CODA AMPLIT PERI AZIMU VELO AIN AR TRES W  DIS CAZ7
 BAR2 SZ EP       1040 26.14                             170   -0.1410 25.0 192 
 BAR2 SZ ES       1040 41.32                             170    0.1110 25.0 192 
 BAR2 SZ I        1040 42.54         4.0 0.16            168           25.0 192 
 BRR  HZ EP       1040 27.93                             152    0.1110 71.3 297 
 BRR  HN ES       1040 44.46                             152    0.5010 71.3 297 
 RUS  HZ EP       1040 30.80                             143    0.2310  102 177 
 RUS  HN ES       1040 48.56                             143   -0.2910  102 177 
 RUS  HZ I        1040 50.00         2.2 0.40            143            102 177 
 PTB  HZ EP       1040 33.67                             131   -0.19 9  149 258 
 PTB  HN ES       1040 54.25                             131   -0.46 9  149 258 
 PTB  HZ I        1040 57.51         3.5 0.14            130            149 258 
 OCA  HN ES       1040 56.49                             129   -0.21 9  159 353 
 ZAR  HZ EP       1040 39.62                             121    0.29 9  204 292 
 ZAR  HN ES       1041  4.53                             121    0.08 9  204 292 
 ZAR  HZ I        1041 10.51         3.2 0.32            121            204 292 
 SML  HZ EP       1040 43.07                             117   -0.34 8  243 335 
 SML  HN ES       1041 11.78                             117    0.07 8  243 335 
 PRA  HZ EP       1041  1.00                             106    0.28 6  394 210 
 PRA  HN ES       1041 42.65                             106    0.14 6  394 210 
                                                                                
