 2011  222 1118 43.8 L   6.897 -73.322116.4  RSN  5 0.4 1.6LRSN                1
 GAP=166        0.91       9.6    14.0 10.0 -0.3212E+02  0.2629E+02  0.2613E+02E
 Epicentro: BETULIA - SANTANDER                                                3
 ACTION:UP  11-03-28 15:10 OP:jfem STATUS:               ID:20110222111843 L   I
 2011-02-22-1117-01S.COL___137                                                 6
 STAT SP IPHASW D HRMM SECON CODA AMPLIT PERI AZIMU VELO SNR AR TRES W  DIS CAZ7
 BTL  SZ IP       1119  0.12                             177     0.410    6  68 
 BTL  SZ ES   2   1119 12.70                             177     0.7 5    6  68 
 GIR2 SZ IP       1118 59.38                             167    -0.510   25  35 
 GIR2 SZ ES   2   1119 11.73                             167    -0.6 5   25  35 
 BAR2 SZ IP       1119  0.69                             161     0.310   37 156 
 BAR2 SZ I        1119  0.92        34.1 0.13                            37 156 
 BAR2 SZ ES   1   1119 13.08                             161    -0.2 7   37 156 
 RUS  HZ EP       1119  5.91                             133    -0.110  114 167 
 RUS  HZ I        1119  7.54         2.2 0.15                           114 167 
 NOR  SN ES   2   1119 42.79                             112    -0.2 4  226 229 
                                                                                
