 2012  822 1228 41.8 L   6.780 -73.168148.3  RSN  5 0.4 1.9LRSN                1
 GAP=135        0.84       5.9     5.6  7.9 -0.5154E+01  0.2433E+01 -0.7021E+00E
 Epicentro: LOS SANTOS - SANTANDER                                             3
 ACTION:UPD 12-09-10 11:57 OP:ep   STATUS:               ID:20120822122841 L   I
 2012-08-22-1220-00M.COL___217                                                 6
 STAT SP IPHASW D HRMM SECON CODA AMPLIT PERI AZIMU VELO AIN AR TRES W  DIS CAZ7
 BAR2 SZ EP   1   1229  1.51                             172   -0.15 7 20.9 184 
 BAR2 SZ ES   1   1229 17.01                             172   -0.16 7 20.9 184 
 BAR2 SZ I        1229 19.61        33.6 0.39                          20.9 184 
 BRR  HZ EP   1   1229  3.66                             153    0.52 7 70.2 301 
 BRR  HN ES   1   1229 20.53                             153    0.73 7 70.2 301 
 BRR  HZ I        1229 23.20        17.8 0.31                          70.2 301 
 PAM  SZ EP       1229  4.47                             150    0.0210 80.6  40 
 PAM  SZ I        1229  4.81        12.7 0.22                          80.6  40 
 PAM  SE ES   1   1229 21.63                             150   -0.51 7 80.6  40 
 RUS  HZ EP   1   1229  5.65                             145    0.01 7 98.6 175 
 RUS  HN ES   1   1229 24.54                             145    0.29 7 98.6 175 
 RUS  HZ I        1229 25.27         9.2 0.24                          98.6 175 
 PTB  HZ EP   1   1229  8.56                             133   -0.14 7  145 259 
 PTB  HN ES   1   1229 28.97                             133   -0.73 7  145 259 
 PTB  HZ I        1229 30.96         7.8 0.21                           145 259 
                                                                                
