 2016  122 1541 19.7 L   6.773 -73.182135.2  RSN  4 0.3 1.6LRSN                1
 GAP=140        0.84       7.2     4.3  8.0 -0.1092E+02  0.1414E+02 -0.1118E+02E
 Epicentro: LOS SANTOS - SANTANDER                                             3
 ACTION:UPD 16-03-09 23:27 OP:cam  STATUS:               ID:20160122154119 L   I
 OLDACT:REG 16-01-22 22:39 OP:mh   STATUS:               ID:20160122153749     3
 2016-01-22-1537-49M.COL___324                                                 6
 STAT SP IPHASW D HRMM SECON CODA AMPLIT PERI AZIMU VELO AIN AR TRES W  DIS CAZ7
 BAR2 EZ EP       1541 38.40                             171    0.3910 20.0 180 
 BAR2 EZ ES       1541 52.51                             171    0.2310 20.0 180 
 BAR2 EZ I        1541 54.50        12.3 0.05            172           20.0 180 
 PAM  EZ EP       1541 41.14                             147    0.0110 82.2  40 
 PAM  EN ES       1541 57.51                             147   -0.3210 82.2  40 
 PAM  EZ I        1542  0.08         7.0 0.42            149           82.2  40 
 PTB  HZ EP       1541 45.12                             130   -0.30 9  143 260 
 PTB  HN ES       1542  5.06                             130   -0.41 9  143 260 
 PTB  HZ I        1542  6.70         4.3 0.38            133            143 260 
 ZAR  HN ES       1542 16.23                             120    0.43 9  202 293 
                                                                                
