 2010 1122 1033  4.1 L   6.778 -73.089142.3  RSN  6 0.4 1.6LRSN                1
 GAP=165        0.73       3.7     9.6  7.5  0.1827E+01 -0.1254E+02  0.7492E+00E
 Epicentro: LOS SANTOS - SANTANDER                                             3
 ACTION:UP  10-12-17 16:54 OP:REBC STATUS:               ID:20101122103304 L   I
 2010-11-22-1028-26S.COL___129                                                 6
 STAT SP IPHASW D HRMM SECON CODA AMPLIT PERI AZIMU VELO SNR AR TRES W  DIS CAZ7
 BAR2 SZ EP   1   1033 23.12                             170    -0.2 7   23 207 
 BAR2 SZ ES   1   1033 37.99                             170    -0.3 7   23 207 
 BAR2 SZ I        1033 39.39        11.6 0.26                            23 207 
 BRR  HZ IP     C 1033 25.22                             149    -0.110   78 298 
 BRR  HE ES   1   1033 41.76                             149    -0.1 7   78 298 
 BRR  HZ I        1033 42.70        11.5 0.16                            78 298 
 RUS  HZ EP   1   1033 27.37                             144     0.0 7   98 180 
 RUS  HZ I        1033 28.55         4.3 0.17                            98 180 
 RUS  HE ES   2   1033 46.19                             144     0.7 5   98 180 
 GRA  SZ EP   2   1033 28.97                             136    -0.2 5  126  14 
 GRA  SZ ES   2   1033 48.53                             136    -0.1 5  126  14 
 GRA  SZ I        1033 50.80         3.6 0.29                           126  14 
 OCA  SZ EP   2   1033 32.18                             128    -0.3 5  164 351 
 OCA  SZ ES   1   1033 55.28                             128     0.7 7  164 351 
 OCA  SZ I        1033 56.54         7.3 0.26                           164 351 
 CHI  HZ EP   2   1033 41.47                             116    -0.1 4  248 197 
 CHI  HE ES   2   1034 11.49                             116     0.7 4  248 197 
 CHI  HZ I        1034 15.66         1.9 0.22                           248 197 
                                                                                
