 2013  322 1602  5.5 L   6.880 -73.281123.4  RSN  8 0.3 2.4LRSN                1
 GAP=110        0.72       2.6     2.8  5.2  0.6938E+00  0.3736E+01 -0.1099E+01E
 Epicentro: BETULIA - SANTANDER                                                3
 ACTION:UPD 13-04-09 14:04 OP:ep   STATUS:               ID:20130322160205 L   I
 2013-03-22-1600-00M.COL___241                                                 6
 STAT SP IPHASW D HRMM SECON CODA AMPLIT PERI AZIMU VELO AIN AR TRES W  DIS CAZ7
 BAR2 SZ EP       16 2 23.00                             164    0.2410 33.6 161 
 BAR2 SZ ES       16 2 36.17                             164   -0.0510 33.6 161 
 BAR2 SZ I        16 2 36.99        89.9 0.52            168           33.6 161 
 BRR  HZ EP       16 2 23.34                             155    0.0610 53.9 298 
 BRR  HN ES       16 2 37.36                             155    0.2210 53.9 298 
 BRR  HN I        16 2 38.00       150.9 0.18            151           53.9 298 
 PAM  SZ EP   1   16 2 26.11                             145    0.39 7 81.9  52 
 PAM  SE ES       16 2 41.63                             145    0.1610 81.9  52 
 PAM  SE I        16 2 46.05        17.2 0.30            141           81.9  52 
 RUS  HZ EP       16 2 27.73                             136   -0.3110  111 169 
 RUS  HN ES       16 2 45.40                             136   -0.2010  111 169 
 RUS  HN I        16 2 46.47        21.5 0.34            137            111 169 
 PTB  HN ES       16 2 48.00                             129   -0.32 9  135 254 
 PTB  HN I        16 2 50.62        18.5 0.24            128            135 254 
 OCA  HN ES       16 2 50.76                             126   -0.47 9  150 358 
 OCA  HN I        16 2 52.90        77.1 0.22            123            150 358 
 ZAR  HZ EP       16 2 34.96                             119    0.19 9  187 291 
 ZAR  HN ES       16 2 57.99                             119    0.40 9  187 291 
 ZAR  HN I        16 3  1.20        21.1 0.14            117            187 291 
 SML  HN ES   2   16 3  5.16                             114   -0.70 4  230 338 
 SML  HN I        16 3 19.24        32.8 0.10            112            230 338 
                                                                                
