 2011 1122 1422 56.3 L   6.479 -73.118172.3  RSN  7 0.4 2.3LRSN                1
 GAP=151        0.76       5.1     5.7  6.9  0.1904E+01  0.8837E+01  0.4011E+01E
 Epicentro: VALLE DE SAN JOSE - SANTANDER                                      3
 ACTION:UPD 12-07-13 16:11 OP:ep   STATUS:               ID:20111122142256 L   I
 2011-11-22-1420-38S.COL___178                                                 6
 STAT SP IPHASW D HRMM SECON CODA AMPLIT PERI AZIMU VELO AIN AR TRES W  DIS CAZ7
 BAR2 SZ EP       1423 18.83                             175   -0.1910 14.4 330 
 BAR2 SZ ES   1   1423 36.34                             175   -0.39 7 14.4 330 
 BAR2 SZ I        1423 37.95        43.6 0.38                          14.4 330 
 RUS  HZ EP       1423 21.03                             159    0.2110 64.9 177 
 RUS  HN ES   1   1423 39.95                             159    0.02 7 64.9 177 
 RUS  HZ I        1423 41.69        54.6 0.31                          64.9 177 
 BRR  HZ EP   1   1423 22.07                             149    0.33 7 95.6 317 
 BRR  HZ I        1423 22.43        66.7 0.14                          95.6 317 
 BRR  HN ES   1   1423 42.49                             149    0.92 7 95.6 317 
 PAM  SZ EP   1   1423 23.13                             147    0.04 7  106  26 
 PAM  SE ES   1   1423 43.53                             147   -0.45 7  106  26 
 PAM  SZ I        1423 46.88         4.7 0.46                           106  26 
 NOR  SZ EP   2   1423 31.94                             126   -0.18 4  219 243 
 NOR  SE ES   2   1423 59.61                             126   -0.43 4  219 243 
 ZAR  HZ EP   2   1423 32.26                             125   -0.18 4  223 300 
 ZAR  HN ES   1   1424  0.08                             125   -0.53 6  223 300 
 ZAR  HZ I        1424  1.71        15.2 0.18                           223 300 
 RREF HZ EP   2   1423 41.93                             117    0.32 4  302 235 
                                                                                
