 2015  522 1507 39.6 L   6.287 -73.714 28.6  RSN  7 0.3 1.6LRSN                1
 GAP=116        0.63       2.2     3.8  8.3 -0.4664E+01  0.2961E+02 -0.1107E+02E
 Epicentro: SANTA HELENA DEL OPON - SANTANDER                                  3
 ACTION:UPD 15-09-10 22:06 OP:cam  STATUS:               ID:20150522150739 L   I
 OLDACT:REG 15-05-22 20:29 OP:spq  STATUS:               ID:20150522145748     3
 2015-05-22-1457-48M.COL___294                                                 6
 STAT SP IPHASW D HRMM SECON CODA AMPLIT PERI AZIMU VELO AIN AR TRES W  DIS CAZ7
 BAR2 EZ EP       15 7 51.32                             104    0.0410 67.8  60 
 BAR2 EZ ES   1   15 7 59.82                             104   -0.60 7 67.8  60 
 BAR2 EZ I        15 8  0.39        24.6 0.24            107           67.8  60 
 RUS  HZ EP       15 7 53.83                             100    0.2410 82.3 122 
 RUS  HE ES       15 8  4.63                             100    0.0910 82.3 122 
 RUS  HZ I        15 8  5.02         7.9 0.10            105           82.3 122 
 BRR  HZ EP   1   15 7 53.98                              61   -0.12 7 90.7   0 
 BRR  HN ES       15 8  5.43                              61   -0.0210 90.7   0 
 BRR  HZ I        15 8 10.39         9.8 0.40            102           90.7   0 
 NOR  HZ EP       15 8  1.81                              61    0.13 9  151 238 
 NOR  HN ES       15 8 18.57                              61   -0.37 9  151 238 
 NOR  HZ I        15 8 19.44        29.1 0.16             56            151 238 
 ZAR  HE ES       15 8 26.53                              61    0.36 9  184 317 
 ZAR  HZ I        15 8 29.25        11.0 0.46             56            184 317 
 HEL  HZ EP       15 8  8.50                              61    0.15 9  201 267 
 HEL  HN ES       15 8 30.63                              61   -0.18 9  201 267 
 GUY2CHZ EP   4   15 8 12.95                              61    2.45 0  217 237 
 GUY2CHE ES   4   15 8 36.84                              61    2.19 0  217 237 
 GUY2CHZ I        15 8 41.78         4.7 0.48                           217 237 
                                                                                
