 2013  522 1146 54.5 L   6.821 -73.134144.1  RSN 15 0.6 2.4LRSN                1
 GAP=120        1.39       4.0     4.6  6.5 -0.3821E+01  0.3926E+01 -0.2145E+01E
 Epicentro: LOS SANTOS - SANTANDER                                             3
 ACTION:UPD 13-06-20 09:52 OP:ep   STATUS:               ID:20130522114654 L   I
 2013-05-22-1138-51M.COL___211                                                 6
 STAT SP IPHASW D HRMM SECON CODA AMPLIT PERI AZIMU VELO AIN AR TRES W  DIS CAZ7
 BAR2 SZ EP       1147 13.96                             169    0.0210 25.9 192 
 BAR2 SZ ES       1147 28.94                             169   -0.2110 25.9 192 
 BAR2 SZ I        1147 29.86        19.1 0.16            169           25.9 192 
 GIR2 SZ EP       1147 14.05                             168    0.1710 29.2 347 
 BRR  HZ EP       1147 15.92                             152    0.4910 71.2 296 
 BRR  HN ES       1147 32.60                             152    0.8110 71.2 296 
 BRR  HN I        1147 37.95        49.3 0.16            151           71.2 296 
 PAM  SZ IP     C 1147 16.91                             151    0.5710 74.7  40 
 PAM  SN ES       1147 33.38                             151   -0.0310 74.7  40 
 PAM  SN I        1147 34.88        73.6 0.48            154           74.7  40 
 RUS  HZ EP       1147 18.77                             143    0.5610  103 177 
 RUS  HN ES       1147 35.96                             143   -0.7810  103 177 
 RUS  HN I        1147 37.96        24.7 0.42            145            103 177 
 PTB  HZ EP       1147 21.91                             131    0.46 9  149 258 
 PTB  HN ES       1147 41.90                             131   -0.60 9  149 258 
 PTB  HN I        1147 43.91        45.5 0.26            132            149 258 
 OCA  HZ EP       1147 22.48                             130    0.05 9  158 353 
 OCA  HN ES       1147 43.76                             130   -0.50 9  158 353 
 OCA  HN I        1147 47.96       120.9 0.22            131            158 353 
 ZAR  HZ EP       1147 27.45                             122    0.62 9  204 291 
 ZAR  HN ES       1147 52.14                             122    0.06 9  204 291 
 ZAR  HN I        1147 53.95        38.8 0.40            123            204 291 
 SML  HZ EP       1147 30.45                             117   -0.37 8  242 335 
 SML  HE ES       1147 59.07                             117   -0.11 8  242 335 
 HEL  HE ES       1148  4.73                             114   -1.52 8  274 255 
 HEL  HN I        1148 13.34         8.7 0.36            115            274 255 
 SOCV BZ EP       1147 36.50                             112   -0.66 7  299  57 
 GUY2CHZ EP       1147 39.30                             112    1.04 7  304 235 
 GUY2CHN ES       1148 13.03                             112    0.60 7  304 235 
 GUY2CHN I        1148 20.01         5.7 0.38                           304 235 
 COD  HZ EP       1147 41.25                             109   -1.26 6  346 354 
 SDV  BZ EP       1147 43.83                             108   -0.32 6  358  50 
 PRA  HZ EP       1147 48.28                             106    0.05 6  395 210 
 PRA  HN ES       1148 29.35                             106   -0.83 6  395 210 
 PRA  HN I        1148 35.39         3.1 0.40            107            395 210 
                                                                                
