 2012  322 1221 26.8 L   6.699 -73.216139.1  RSN  5 0.6 1.6LRSN                1
 GAP=213        1.39      13.4    12.5 13.5  0.1026E+03  0.3411E+02 -0.5584E+01E
 ACTION:UP  12-03-31 23:21 OP:EP   STATUS:               ID:20120322122126 L   I
 2012-03-22-1220-00M.COL___202                                                 6
 STAT SP IPHASW D HRMM SECON CODA AMPLIT PERI AZIMU VELO SNR AR TRES W  DIS CAZ7
 BAR2 SZ EP   1   1221 44.86                             175    -0.6 7   12 162 
 BAR2 SZ ES   1   1221 59.61                             175    -0.4 7   12 162 
 BAR2 SZ I        1222  0.72        14.4 0.19                            12 162 
 BRR  HZ EP   1   1221 46.72                             151    -0.5 7   71 310 
 BRR  HE ES   1   1222  3.63                             151     0.5 7   71 310 
 BRR  HZ I        1222  5.03         9.7 0.13                            71 310 
 RUS  HZ EP   1   1221 49.76                             145     0.6 7   90 171 
 RUS  HN ES   1   1222  7.13                             145     0.5 7   90 171 
 RUS  HZ I        1222  8.30         3.7 0.17                            90 171 
 PTB  HZ EP   1   1221 51.44                             132    -0.9 7  138 263 
 PTB  HN ES   1   1222 11.92                             132    -0.4 7  138 263 
 PTB  HZ I        1222 14.38         3.9 0.09                           138 263 
 ZAR  HZ EP   1   1221 59.45                             121     0.9 6  201 296 
 ZAR  HN ES   1   1222 23.80                             121     0.5 6  201 296 
 ZAR  HZ I        1222 29.57         5.9 0.26                           201 296 
                                                                                
