 2012  122 1102 43.6 L   6.789 -73.113146.5  RSN  4 0.4 1.4LRSN                1
 GAP=141        0.86       6.4    10.2 10.5 -0.8681E+01 -0.2738E+02  0.1002E+02E
 Epicentro: LOS SANTOS - SANTANDER                                             3
 ACTION:UP  12-02-03 08:19 OP:REBC STATUS:               ID:20120122110243 L   I
 2012-01-22-1100-00M.COL___186                                                 6
 STAT SP IPHASW D HRMM SECON CODA AMPLIT PERI AZIMU VELO SNR AR TRES W  DIS CAZ7
 BAR2 SZ EP   1   11 3  2.47                             171    -0.8 7   23 199 
 BAR2 SZ ES   1   11 3 18.74                             171     0.0 7   23 199 
 BAR2 SZ I        11 3 20.10         7.9 0.20                            23 199 
 BRR  HN ES   1   11 3 21.92                             151     0.1 7   75 298 
 PAM  SZ EP   1   11 3  6.21                             151     0.4 7   76  37 
 PAM  SN ES   1   11 3 23.05                             151    -0.1 7   76  37 
 RUS  HZ EP   1   11 3  7.63                             144     0.3 7   99 178 
 RUS  HN ES   1   11 3 25.91                             144     0.1 7   99 178 
 RUS  HZ I        11 3 27.56         3.1 0.37                            99 178 
                                                                                
