 2014  322 1137 20.5 L   6.556 -73.954 77.0  RSN  7 0.5 1.7LRSN                1
 GAP= 96        1.00       3.8     3.5  8.7 -0.1176E+01 -0.2242E+00 -0.7802E+01E
 Epicentro: PUERTO PARRA - SANTANDER                                           3
 OLDACT:REG 14-03-22 15:17 OP:fm   STATUS:               ID:20140322112813     3
 ACTION:UPD 14-04-09 23:19 OP:nd   STATUS:               ID:20140322113720 L   I
 OLDACT:UP  14-03-22 19:48 OP:fm   STATUS:               ID:20140322112813     3
 2014-03-22-1128-13M.COL___234                                                 6
 STAT SP IPHASW D HRMM SECON CODA AMPLIT PERI AZIMU VELO AIN AR TRES W  DIS CAZ7
 PTB  HZ IP     D 1137 33.05                             141   -0.5410 55.5 268 
 PTB  HE ES       1137 43.61                             141   -0.1610 55.5 268 
 PTB  HZ I        1137 44.23        15.4 0.22            140           55.5 268 
 BAR2 SZ EP       1137 36.36                             127   -0.2010 85.5  87 
 BAR2 SZ ES   1   1137 49.58                             127    0.54 7 85.5  87 
 BAR2 HZ I        1137 50.06        21.6 0.14            127           85.5  87 
 RUS  HE ES   2   1137 56.27                             117    0.01 5  121 127 
 ZAR  HZ EP       1137 42.42                             112   -0.12 9  144 316 
 ZAR  HN ES   1   1138  0.53                             112    0.83 7  144 316 
 ZAR  HZ I        1138  2.36        12.1 0.22            111            144 316 
 NOR  HN ES   1   1138  1.18                             111    0.26 7  149 223 
 GUY2CHZ EP   1   1137 52.40                             104    0.96 6  215 227 
 GUY2CHE ES   1   1138 15.47                             104   -0.07 6  215 227 
 GUY2CHZ I        1138 26.09         1.9 2.24                           215 227 
 SML  HZ EP   1   1137 53.97                             102   -0.96 6  249 357 
 SML  HE ES       1138 22.00                             102    0.25 8  249 357 
 SML  HZ I        1138 27.04         6.0 0.08            101            249 357 
                                                                                
