 2016  822 1007 59.9 L   6.657 -73.156155.9  RSN  5 0.4 1.4LRSN                1
 GAP=225        0.88       8.8     6.5  6.8  0.3172E+02  0.7623E+01  0.8782E+01E
 Epicentro: VILLANUEVA - SANTANDER                                             3
 ACTION:UPD 16-10-29 15:38 OP:rebc STATUS:               ID:20160822100759 L   I
 OLDACT:REG 16-08-22 21:33 OP:ar   STATUS:               ID:20160822095933     3
 2016-08-22-1000-00M.COL___368                                                 6
 STAT SP IPHASW D HRMM SECON CODA AMPLIT PERI AZIMU VELO AIN AR TRES W  DIS CAZ7
 BAR2 EZ EP       10 8 20.57                             177    0.0310 7.69 202 
 BAR2 EZ ES       10 8 36.62                             177   -0.0310 7.69 202 
 BAR2 EZ I        10 8 37.50         4.4 0.22                          7.69 202 
 BRR  HZ EP       10 8 22.48                             152   -0.1010 79.1 309 
 BRR  HN ES       10 8 40.46                             152    0.1810 79.1 309 
 BRR  HZ I        10 8 41.99         3.2 0.14                          79.1 309 
 RUS  HZ EP       10 8 23.43                             150   -0.2010 84.9 175 
 PTB  HZ EP       10 8 27.23                             135   -0.17 9  144 265 
 PTB  HE ES       10 8 49.15                             135    0.28 9  144 265 
 PTB  HZ I        10 8 56.18         4.1 0.30                           144 265 
 ZAR  HZ EP       10 8 34.30                             124    0.74 8  210 296 
 ZAR  HN ES       10 8 59.09                             124   -0.74 8  210 296 
                                                                                
