 2015  522 1108 21.1 L   6.756 -73.148150.0  RSN  5 0.3 1.7LRSN                1
 GAP=234        0.70       4.4     5.8  7.4  0.8061E+01 -0.2940E-01 -0.5317E+00E
 Epicentro: LOS SANTOS - SANTANDER                                             3
 ACTION:UPD 15-09-10 22:06 OP:cam  STATUS:               ID:20150522110821 L   I
 OLDACT:REG 15-05-22 20:13 OP:spq  STATUS:               ID:20150522105748     3
 2015-05-22-1057-48M.COL___282                                                 6
 STAT SP IPHASW D HRMM SECON CODA AMPLIT PERI AZIMU VELO AIN AR TRES W  DIS CAZ7
 BAR2 EZ EP       11 8 40.89                             173   -0.2610 18.5 192 
 BAR2 EZ ES   1   11 8 56.39                             173   -0.41 7 18.5 192 
 BAR2 EZ I        11 8 57.08        12.0 0.38            170           18.5 192 
 BRR  HZ EP       11 8 42.85                             153    0.0210 73.5 302 
 BRR  HN ES       11 9  0.21                             153    0.4210 73.5 302 
 BRR  HZ I        11 9  4.47        11.1 0.35            148           73.5 302 
 RUS  HZ EP   1   11 8 45.29                             146    0.36 7 95.7 176 
 RUS  HE ES   1   11 9  3.61                             146    0.09 7 95.7 176 
 RUS  HZ I        11 9  4.17         3.8 0.42            148           95.7 176 
 SPBC HN ES       11 9 11.76                             131   -0.01 9  159 220 
 SPBC HZ I        11 9 13.80         5.8 0.14            130            159 220 
 ZAR  HE ES   1   11 9 19.17                             123   -0.48 6  206 293 
 ZAR  HZ I        11 9 26.01         4.9 0.24            122            206 293 
                                                                                
