 2015  522 1035 54.1 L   6.807 -73.098151.5  RSN 15 0.3 2.3LRSN                1
 GAP=157        0.72       2.0     3.2  4.1 -0.1856E+00  0.4661E+00  0.3861E+00E
 Epicentro: LOS SANTOS - SANTANDER                                             3
 ACTION:UPD 15-09-10 22:06 OP:cam  STATUS:               ID:20150522103554 L   I
 OLDACT:REG 15-05-22 20:11 OP:spq  STATUS:               ID:20150522102749     3
 2015-05-22-1027-49M.COL___288                                                 6
 STAT SP IPHASW D HRMM SECON CODA AMPLIT PERI AZIMU VELO AIN AR TRES W  DIS CAZ7
 BAR2 EZ EP       1036 14.48                             170   -0.0110 25.5 201 
 BAR2 EZ ES   1   1036 30.08                             170   -0.29 7 25.5 201 
 BAR2 EZ I        1036 31.56        33.1 0.16            170           25.5 201 
 BRR  HZ EP       1036 16.36                             152    0.2210 75.6 296 
 BRR  HN ES       1036 33.89                             152    0.5810 75.6 296 
 BRR  HZ I        1036 38.68        24.3 0.14            149           75.6 296 
 RUS  HZ EP       1036 18.45                             145   -0.0310  101 179 
 RUS  HE ES       1036 37.24                             145   -0.2410  101 179 
 RUS  HZ I        1036 38.11        19.6 0.26            147            101 179 
 OCA  HZ EP       1036 23.18                             131    0.29 9  160 351 
 OCA  HE ES       1036 45.23                             131   -0.09 9  160 351 
 OCA  HZ I        1036 50.45        45.3 0.20            130            160 351 
 SPBC HZ EP       1036 23.47                             130    0.03 9  167 220 
 SPBC HE ES       1036 46.10                             130   -0.20 9  167 220 
 SPBC HZ I        1036 47.73        26.6 0.12            130            167 220 
 ZAR  HE ES       1036 52.85                             123   -0.54 8  209 291 
 ZAR  HZ I        1036 58.59        29.7 0.38            122            209 291 
 NOR  HZ EP       1036 30.42                             119   -0.28 8  239 235 
 NOR  HE ES       1036 59.07                             119   -0.15 8  239 235 
 NOR  HZ I        1037  5.80        15.7 0.20            119            239 235 
 SML  HZ EP       1036 31.43                             118    0.18 8  245 334 
 SML  HE ES   1   1036 59.91                             118   -0.30 6  245 334 
 SML  HZ I        1037  7.31        22.1 0.10            118            245 334 
 CHI  HZ EP       1036 32.70                             118    0.32 8  251 196 
 CHI  HN ES   1   1037  2.86                             118    0.65 6  251 196 
 CHI  HZ I        1037  7.77         9.6 0.24            119            251 196 
 HEL  HZ EP   4   1036 36.66                             115    1.44 0  277 256 
 HEL  HN ES       1037  6.99                             115   -0.28 7  277 256 
 HEL  HZ I        1037 12.78         9.0 0.32            115            277 256 
 GUY2CHZ EP       1036 38.95                             113    0.41 7  306 235 
 GUY2CHE ES   1   1037 13.55                             113    0.37 5  306 235 
 GUY2CHZ I        1037 23.42         7.7 0.46                           306 235 
 PTGC HZ EP       1036 37.68                             113   -0.43 7  307 160 
 PTGC HN ES   4   1037 10.82                             113   -1.60 0  307 160 
 PTGC HZ I        1037 14.83        22.5 0.38            114            307 160 
 MON  HZ EP   4   1036 41.59                             109   -2.19 0  357 308 
 MON  HN ES   4   1037 20.62                             109   -1.89 0  357 308 
 MON  HZ I        1037 22.88         3.6 0.28            109            357 308 
 SJC  HZ EP   4   1036 48.16                             106   -1.99 0  412 326 
 SJC  HN ES   4   1037 31.94                             106   -1.91 0  412 326 
 SJC  HZ I        1037 42.24         2.6 0.38            107            412 326 
 CRJC HZ EP   4   1036 55.36                             104   -1.31 0  467   3 
 CRJC HE ES   1   1037 44.69                             104   -0.76 4  467   3 
 CRJC HZ I        1037 48.72         7.1 0.42            105            467   3 
                                                                                
