 2017  422 1530  6.8 L   6.813 -73.170145.7  RSN 14 0.6 2.2LRSN                1
 GAP=109        1.23       4.2     4.0  6.7  0.3917E+00  0.4972E+01  0.7165E+01E
 Epicentro: LOS SANTOS - SANTANDER                                             3
 ACTION:UPD 17-05-30 21:15 OP:jn   STATUS:               ID:20170422153006 L   I
 OLDACT:UP  17-04-22 21:16 OP:dani STATUS:               ID:20170422152448     3
 OLDACT:UP  17-04-22 21:15 OP:dani STATUS:               ID:20170422152448     3
 OLDACT:UP  17-04-22 21:14 OP:dani STATUS:               ID:20170422152448     3
 OLDACT:UP  17-04-22 21:14 OP:dani STATUS:               ID:20170422152448     3
 OLDACT:UP  17-04-22 21:12 OP:dani STATUS:               ID:20170422152448     3
 OLDACT:REG 17-04-22 19:42 OP:dani STATUS:               ID:20170422152448     3
 2017-04-22-1528-00M.COL___374                                                 6
 STAT SP IPHASW D HRMM SECON CODA AMPLIT PERI AZIMU VELO AIN AR TRES W  DIS CAZ7
 BAR2 EZ EP       1530 26.26                             170   -0.1910 24.5 183 
 BAR2 EZ ES       1530 41.20                             170   -0.5710 24.5 183 
 BAR2 EZ I        1530 42.46        39.1 0.20            167           24.5 183 
 BRR  HZ EP       1530 27.99                             153    0.2210 68.1 299 
 BRR  HE ES       1530 44.92                             153    0.8010 68.1 299 
 BRR  HZ I        1530 48.34        18.3 0.26            153           68.1 299 
 PAM  EZ EP       1530 29.22                             150    0.1710 78.0  42 
 PAM  EN ES       1530 46.22                             150   -0.1810 78.0  42 
 PAM  EZ I        1530 48.41        17.2 0.52            157           78.0  42 
 PTB  HZ EP       1530 32.71                             132   -0.84 9  145 258 
 PTB  HN ES       1530 53.69                             132   -0.72 9  145 258 
 PTB  HZ I        1531  0.98        21.5 0.32            132            145 258 
 SPBC HZ EP       1530 34.41                             129   -0.84 9  163 218 
 SPBC HN ES       1530 58.08                             129    0.65 9  163 218 
 SPBC HZ I        1531  2.97        25.4 0.20            129            163 218 
 YPLC HZ EP     D 1530 36.68                             126   -0.17 9  179 151 
 YPLC HN ES       1531  1.12                             126    0.84 9  179 151 
 YPLC HZ I        1531  3.35        11.8 0.30            129            179 151 
 ZAR  HZ EP       1530 39.57                             123    0.64 9  201 292 
 ZAR  HN ES       1531  3.79                             123   -0.19 9  201 292 
 ZAR  HZ I        1531 10.58        15.3 0.18            124            201 292 
 TABC EZ EP   3   1530 44.08                             119    1.54 2  230 210 
 TABC EZ ES   4   1531 12.84                             119    2.43 0  230 210 
 NOR  HZ EP       1530 42.30                             119   -0.09 8  233 234 
 NOR  HN ES       1531 10.28                             119    0.14 8  233 234 
 NOR  HZ I        1531 14.90         8.5 0.24            120            233 234 
 CHI  HZ EP       1530 44.49                             117   -0.09 8  249 194 
 CHI  HN ES       1531 13.75                             117   -0.29 8  249 194 
 CHI  HZ I        1531 18.86        11.0 0.38            118            249 194 
 ROSC BZ EP   9   1530 46.10                             117    1.19 0  253 210 
 ROSC BN ES       1531 15.29                                   -0.53 8  253 210 
 ROSC BZ I        1531 21.07        23.9 0.36            118            253 210 
 HEL  HZ EP       1530 47.44                             115    0.68 8  270 255 
 HEL  HN ES       1531 18.31                             115    0.38 8  270 255 
 HEL  HZ I        1531 24.59         9.1 0.37            116            270 255 
 PTGC HZ EP   3   1530 49.49                             111   -1.44 2  311 158 
 PTGC HN ES   4   1531 23.14                             111   -2.20 0  311 158 
 PTGC HZ I        1531 25.29        17.3 0.39            113            311 158 
 SJC  HZ EP   3   1531  0.42                             106   -1.62 1  407 327 
 SJC  HN ES   4   1531 41.51                             106   -3.62 0  407 327 
                                                                                
