 2016 1222 1130 21.7 L   6.785 -73.118142.0  RSN  5 0.3 1.3LRSN                1
 GAP=141        1.06       5.6     7.6  8.0 -0.2004E+01 -0.1511E+02  0.8401E+00E
 Epicentro: LOS SANTOS - SANTANDER                                             3
 ACTION:UPD 17-01-11 20:17 OP:rebc STATUS:               ID:20161222113021 L   I
 OLDACT:UP  16-12-22 23:56 OP:edw  STATUS:               ID:20161222112748d    3
 OLDACT:DUP 16-12-22 23:51 OP:edw  STATUS:               ID:20161222112748d    3
 2016-12-22-1128-00M.COL___362                                                 6
 STAT SP IPHASW D HRMM SECON CODA AMPLIT PERI AZIMU VELO AIN AR TRES W  DIS CAZ7
 BAR2 EZ EP       1130 40.55                             171   -0.3310 22.5 199 
 BAR2 EZ ES       1130 55.46                             171   -0.3610 22.5 199 
 BAR2 EZ I        1130 56.47         4.9 0.26            174           22.5 199 
 BRR  HZ EP       1130 42.61                             151   -0.0610 74.7 298 
 BRR  HN ES       1130 58.82                             151   -0.1810 74.7 298 
 PAM  EZ IP       1130 43.54                             150    0.0410 76.7  37 
 PAM  EN ES       1131  0.95                             150    0.4710 76.7  37 
 PAM  EZ I        1131  4.91         4.2 0.46            150           76.7  37 
 RUS  HZ EP       1130 45.23                             143    0.2610 98.8 178 
 RUS  HN ES       1131  3.26                             143    0.1610 98.8 178 
 PTB  HZ EP   9   1130 46.25                             131   -2.38 0  150 260 
 PTB  HN ES       1131  8.22                             134    0.98 9  150 260 
 PTB  HZ I        1131 11.01         2.3 0.12            133            150 260 
                                                                                
