 2012  222 1527  2.2 L   6.771 -73.128144.1  RSN  5 0.3 1.7LRSN                1
 GAP=189        0.62       6.9     7.1  7.7  0.1328E+02  0.7384E+01  0.9449E+01E
 ACTION:UP  12-03-07 16:33 OP:epov STATUS:               ID:20120222152702 L   I
 2012-02-22-1520-00M.COL___191                                                 6
 STAT SP IPHASW D HRMM SECON CODA AMPLIT PERI AZIMU VELO AIN AR TRES W  DIS CAZ7
 BAR2 SZ EP   1   1527 21.24                             171   -0.33 7 20.6 197 
 BAR2 SZ ES   2   1527 36.36                             171   -0.33 5 20.6 197 
 BAR2 SZ I        1527 41.53         6.9 0.48                          20.6 197 
 GIR2 SZ EP   1   1527 21.72                             166   -0.05 7 34.8 348 
 GIR2 SZ ES   2   1527 37.05                             166    0.01 5 34.8 348 
 BRR  HZ EP   2   1527 23.63                             151    0.27 5 74.5 300 
 BRR  HZ I        1527 36.78        32.3 0.45                          74.5 300 
 BRR  HN ES   2   1527 40.24                             151    0.37 5 74.5 300 
 RUS  HZ EP   1   1527 26.17                             144    0.63 7 97.2 177 
 RUS  HN ES   2   1527 43.72                             144   -0.03 5 97.2 177 
 RUS  HZ I        1527 45.49         5.5 0.36                          97.2 177 
 PTB  HZ EP   1   1527 28.67                             131   -0.48 7  149 260 
 PTB  HN ES   2   1527 50.28                             131    0.10 5  149 260 
                                                                                
