 2010 1122 1217 54.2 L   6.773 -73.042145.9  RSN  8 0.3 2.0LRSN                1
 GAP=171        0.60       2.6     6.1  4.9 -0.3210E+01 -0.1368E+01  0.3903E+00E
 Epicentro: LOS SANTOS - SANTANDER                                             3
 ACTION:UP  10-12-17 16:54 OP:REBC STATUS:               ID:20101122121754 L   I
 2010-11-22-1215-02S.COL___129                                                 6
 STAT SP IPHASW D HRMM SECON CODA AMPLIT PERI AZIMU VELO SNR AR TRES W  DIS CAZ7
 BAR2 SZ EP   1   1218 13.72                             170    -0.1 7   25 218 
 BAR2 SZ ES   1   1218 29.17                             170    -0.1 7   25 218 
 BAR2 SZ I        1218 30.18        24.1 0.37                            25 218 
 BRR  HZ IP     C 1218 15.81                             149    -0.210   83 297 
 BRR  HZ I        1218 16.08        36.3 0.15                            83 297 
 BRR  HN ES   1   1218 33.20                             149     0.1 7   83 297 
 RUS  HZ EP   1   1218 17.79                             145     0.1 7   97 183 
 RUS  HE ES   1   1218 36.19                             145     0.1 7   97 183 
 RUS  HZ I        1218 37.76         8.2 0.25                            97 183 
 GRA  SZ IP       1218 19.72                             137     0.310  126  12 
 GRA  SZ I        1218 20.86        17.4 0.33                           126  12 
 GRA  SZ ES   2   1218 38.64                             137    -0.5 5  126  12 
 OCA  SZ EP   1   1218 22.39                             129    -0.6 7  165 349 
 OCA  SZ ES   1   1218 45.79                             129     0.4 7  165 349 
 OCA  SZ I        1218 55.82        13.4 0.39                           165 349 
 CHI  HZ EP   1   1218 32.00                             117     0.1 6  249 198 
 CHI  HE ES   2   1219  1.24                             117    -0.1 4  249 198 
 CHI  HZ I        1219  9.10         3.9 0.44                           249 198 
 RREF HZ EP   2   1218 41.84                             110     0.7 3  329 231 
 RREF HE ES   2   1219 17.69                             110     0.0 3  329 231 
 RREF HZ I        1219 22.42         5.1 0.09                           329 231 
 PRA  HZ EP   2   1218 47.91                             106    -0.2 3  395 211 
 PRA  HN ES   2   1219 29.99                             106    -0.1 3  395 211 
                                                                                
