 2014 1122 1406  9.9 L   6.467 -73.700 69.3  RSN  5 0.7 1.2LRSN                1
 GAP=143        1.71       7.6     5.7 16.8  0.1153E+02  0.8822E+01  0.2942E+02E
 Epicentro: SANTA HELENA DEL OPON - SANTANDER                                  3
 ACTION:UPD 14-12-19 15:46 OP:nd   STATUS:               ID:20141122140609 L   I
 OLDACT:DUP 14-11-23 00:31 OP:stll STATUS:               ID:20141122135747d    3
 2014-11-22-1357-46M.COL___294                                                 6
 STAT SP IPHASW D HRMM SECON CODA AMPLIT PERI AZIMU VELO AIN AR TRES W  DIS CAZ7
 BAR2 SZ EP       14 6 22.98                             135    0.1410 58.9  76 
 BAR2 SZ I        14 6 23.09         6.0 0.32             47           58.9  76 
 BAR2 SZ ES       14 6 33.56                             135    0.6410 58.9  76 
 BRR  HN ES       14 6 34.15                             129   -0.1310 70.8 359 
 PTB  HZ EP       14 6 25.86                             124    0.9110 84.1 276 
 PTB  HN ES       14 6 36.02                             124   -0.6510 84.1 276 
 PTB  HZ I        14 6 38.86         7.7 0.12             47           84.1 276 
 RUS  HZ EP       14 6 27.18                             121    0.6610 93.2 133 
 RUS  HN ES       14 6 38.64                             121   -0.8210 93.2 133 
 RUS  HZ I        14 6 42.62         1.8 0.30             47           93.2 133 
 PAM  SZ EP       14 6 31.67                             109   -0.85 9  147  49 
 PAM  SZ I        14 6 41.30         5.2 0.18             47            147  49 
                                                                                
