 2011  722 1032 34.1 L   6.777 -73.107141.2  RSN  6 0.2 1.3LRSN                1
 GAP=163        0.45       3.0     5.3  4.1 -0.5480E+01 -0.1191E+01  0.1442E+01E
 Epicentro: LOS SANTOS - SANTANDER                                             3
 ACTION:UPD 12-07-25 14:02 OP:epov STATUS:               ID:20110722103234 L   I
 2011-07-22-1031-53S.COL___142                                                 6
 STAT SP IPHASW D HRMM SECON CODA AMPLIT PERI AZIMU VELO AIN AR TRES W  DIS CAZ7
 BAR2 SZ EP   1   1032 52.99                             171   -0.16 7 22.1 202 
 BAR2 SZ ES   1   1033  7.58                             171   -0.43 7 22.1 202 
 BAR2 SZ I        1033  9.24         5.1 0.29                          22.1 202 
 GIR2 SZ ES       1033  8.52                             165    0.2010 34.7 344 
 BRR  HZ EP   1   1032 55.17                             150    0.13 7 76.1 299 
 BRR  HN ES   2   1033 11.32                             150   -0.07 5 76.1 299 
 BRR  HZ I        1033 12.41         5.2 0.28                          76.1 299 
 RUS  HZ EP   1   1032 57.30                             144    0.10 7 97.8 178 
 RUS  HZ I        1032 58.98         2.8 0.38                          97.8 178 
 RUS  HN ES   2   1033 15.61                             144    0.39 5 97.8 178 
 GRA  SZ EP   1   1032 58.94                             136   -0.10 7  127  15 
 GRA  SZ ES   1   1033 18.48                             136   -0.01 7  127  15 
 GRA  SZ I        1033 19.24         2.3 0.59                           127  15 
 NOR  SN ES   2   1033 37.53                             117   -0.09 4  237 236 
                                                                                
