 2016  922 1916  6.3 L   6.716 -73.148144.9  RSN  5 0.3 1.5LRSN                1
 GAP=140        0.76       4.4     4.3  6.1 -0.4360E+01  0.5595E+01 -0.1577E+01E
 Epicentro: VILLANUEVA - SANTANDER                                             3
 ACTION:UPD 17-08-17 21:15 OP:lp   STATUS:               ID:20160922191606 L   I
 OLDACT:UP  16-09-23 01:27 OP:ar   STATUS:               ID:20160922190233     3
 OLDACT:REG 16-09-22 22:55 OP:edw  STATUS:               ID:20160922190233     3
 2016-09-22-1908-00M.COL___366                                                 6
 STAT SP IPHASW D HRMM SECON CODA AMPLIT PERI AZIMU VELO AIN AR TRES W  DIS CAZ7
 BAR2 EZ EP       1916 25.73                             174    0.1010 14.1 195 
 BAR2 EZ ES       1916 40.41                             174   -0.3310 14.1 195 
 BAR2 EZ I        1916 42.25        14.2 0.16            173           14.1 195 
 BRR  HZ EP   2   1916 27.41                             151   -0.17 5 75.8 305 
 BRR  HE ES   2   1916 44.61                             151    0.40 5 75.8 305 
 PAM  EZ EP       1916 28.49                             148   -0.3610 85.0  36 
 PAM  HE ES       1916 46.76                             148    0.2910 85.0  36 
 PAM  EZ I        1916 48.52         3.7 0.24            151           85.0  36 
 RUS  HZ EP       1916 29.80                             146    0.5310 91.3 175 
 RUS  HE ES       1916 47.06                             146   -0.1610 91.3 175 
 RUS  HZ I        1916 49.53         4.7 0.22            149           91.3 175 
 PTB  HZ EP       1916 32.71                             132   -0.28 9  146 262 
 PTB  HE ES       1916 53.97                             132    0.13 9  146 262 
 PTB  HZ I        1916 58.61         2.5 0.20            133            146 262 
                                                                                
