 2011  222 1811 56.0 L   6.705 -73.346111.8  RSN  5 0.3 1.7LRSN                1
 GAP=218        0.81       6.1    23.9  8.3 -0.8340E+02  0.2069E+02 -0.6727E+01E
 Epicentro: GALAN - SANTANDER                                                  3
 ACTION:UP  11-03-28 15:10 OP:jfem STATUS:               ID:20110222181156 L   I
 2011-02-22-1809-18S.COL___137                                                 6
 STAT SP IPHASW D HRMM SECON CODA AMPLIT PERI AZIMU VELO SNR AR TRES W  DIS CAZ7
 BAR2 SZ ES   1   1812 23.48                             168    -0.1 7   22 125 
 BAR2 SZ I        1812 25.05        42.9 0.21                            22 125 
 BTL  SZ EP       1812 11.22                             166    -0.410   25  20 
 GIR2 SZ IP       1812 12.69                             157     0.510   45  22 
 GIR2 SZ ES   2   1812 25.06                             157     0.2 5   45  22 
 RUS  HZ EP       1812 16.15                             137     0.110   94 162 
 RUS  HZ I        1812 33.72         7.4 0.24                            94 162 
 GRA  SZ EP       1812 19.99                             124    -0.2 9  144  25 
 GRA  SZ ES   1   1812 39.10                             124     0.0 7  144  25 
 GRA  SZ I        1812 40.36         4.1 0.23                           144  25 
                                                                                
