 2017  222 1108 17.1 L   6.782 -73.108148.7  RSN  9 0.4 1.8LRSN                1
 GAP=142        0.82       3.2     3.5  4.6  0.8162E+00  0.4173E+01  0.2382E+01E
 Epicentro: LOS SANTOS - SANTANDER                                             3
 ACTION:UPD 17-05-24 15:39 OP:jn   STATUS:               ID:20170222110817 L   I
 OLDACT:UP  17-02-22 21:53 OP:edw  STATUS:               ID:20170222110743     3
 OLDACT:REG 17-02-22 19:39 OP:edw  STATUS:               ID:20170222110743     3
 2017-02-22-1108-00M.COL___370                                                 6
 STAT SP IPHASW D HRMM SECON CODA AMPLIT PERI AZIMU VELO AIN AR TRES W  DIS CAZ7
 BAR2 EZ IP     D 11 8 36.99                             171   -0.0410 22.5 201 
 BAR2 EZ ES       11 8 52.77                             171    0.1610 22.5 201 
 BAR2 EZ I        11 8 55.50         8.9 0.12            168           22.5 201 
 BRR  HZ EP       11 8 38.78                             151   -0.0110 75.8 298 
 BRR  HN ES       11 8 55.87                             151    0.1310 75.8 298 
 BRR  HZ I        11 8 59.96        14.7 0.12            151           75.8 298 
 PAM  EZ EP       11 8 39.84                             152    0.3010 76.4  36 
 PAM  EN ES       11 8 57.18                             152    0.1110 76.4  36 
 PAM  EZ I        11 8 59.21         5.4 0.46            156           76.4  36 
 RUS  HZ EP     D 11 8 40.84                             145   -0.1110 98.4 178 
 RUS  HN ES       11 8 58.83                             145   -0.7510 98.4 178 
 RUS  HZ I        11 9  3.11         7.4 0.20            145           98.4 178 
 PTB  HZ EP   9   11 8 43.73                             132   -0.88 0  151 260 
 PTB  HN ES       11 9  5.28                             132    0.07 9  151 260 
 PTB  HZ I        11 9  6.96        11.3 0.36            132            151 260 
 ZAR  HZ EP       11 8 49.59                             122   -0.59 8  209 292 
 ZAR  HN ES       11 9 15.85                             122   -0.15 8  209 292 
 ZAR  HZ I        11 9 21.65        10.8 0.46            124            209 292 
 CHI  HZ EP       11 8 55.07                             118    0.23 8  248 196 
 CHI  HN ES       11 9 24.96                             118    0.65 8  248 196 
 CHI  HZ I        11 9 32.15         2.7 0.26            119            248 196 
 HEL  HZ EP       11 8 58.10                             115    0.28 7  276 256 
 HEL  HN ES       11 9 29.80                             115    0.19 7  276 256 
 HEL  HZ I        11 9 35.08         4.9 0.24            116            276 256 
 LL6C HN EP   4   11 8 43.68                             111   -19.5 0  327 357 
 LL6C HE ES   4   11 9 18.77                             111   -20.3 0  327 357 
 CBOC HZ EP   2   11 9  3.84                             110   -0.65 3  337 253 
 CBOC HN ES   4   11 9 35.60                             110   -5.87 0  337 253 
 FLO2 HZ EP   4   11 9 54.03                              99   13.78 0  641 206 
                                                                                
