 2013  422 1020 50.5 L   6.793 -73.159147.0  RSN 12 0.3 2.0LRSN                1
 GAP=182        0.57       2.4     3.9  3.5  0.4795E+00  0.4330E+01  0.5687E+00E
 Epicentro: LOS SANTOS - SANTANDER                                             3
 ACTION:UPD 13-05-22 14:40 OP:EP   STATUS:               ID:20130422102050 L   I
 2013-04-22-1020-00M.COL___250                                                 6
 STAT SP IPHASW D HRMM SECON CODA AMPLIT PERI AZIMU VELO AIN AR TRES W  DIS CAZ7
 BAR2 SZ EP       1021 10.26                             171   -0.0110 22.3 187 
 BAR2 SZ ES       1021 25.70                             171    0.0210 22.3 187 
 BAR2 SZ I        1021 27.88        24.2 0.18            165           22.3 187 
 GIR2 SZ EP       1021 10.31                             167   -0.0310 31.9 353 
 GIR2 SZ ES   1   1021 26.07                             167    0.26 7 31.9 353 
 GIR2 SZ I        1021 29.52         7.8 0.26            163           31.9 353 
 BRR  HZ IP     C 1021 12.09                             153    0.3410 70.4 300 
 BRR  HN ES   1   1021 28.27                             153   -0.04 7 70.4 300 
 BRR  HZ I        1021 33.69        15.7 0.30            147           70.4 300 
 RUS  HZ EP       1021 14.35                             144    0.0210 99.9 175 
 RUS  HN ES   1   1021 32.71                             144   -0.20 7 99.9 175 
 RUS  HZ I        1021 35.72        11.7 0.34            146           99.9 175 
 PTB  HZ EP       1021 16.83                             133   -0.61 9  146 259 
 PTB  HN ES   1   1021 38.22                             133   -0.22 7  146 259 
 PTB  HZ I        1021 44.12        20.0 0.42            130            146 259 
 OCA  HN ES   2   1021 41.06                             130   -0.12 5  161 354 
 NOR  HZ EP       1021 26.51                             119    0.37 8  233 234 
 NOR  HN ES   2   1021 54.37                             119    0.44 4  233 234 
 NOR  HZ I        1021 57.99        12.9 0.22            119            233 234 
 SML  HZ EP       1021 27.18                             118   -0.04 8  244 336 
 SML  HN ES   1   1021 55.83                             118   -0.03 6  244 336 
 SML  HZ I        1021 58.78        21.8 0.09            120            244 336 
 HEL  HZ EP   4   1021 32.19                             115    1.58 0  270 256 
 HEL  HN ES   4   1022  0.38                             115   -1.51 0  270 256 
 HEL  HZ I        1022  8.56         5.8 0.32            116            270 256 
 URE  HZ EP   4   1021 30.49                             114   -1.04 0  283 292 
 URE  HN ES   4   1022  1.69                             114   -1.83 0  283 292 
 URE  HZ I        1022 12.75         5.4 0.34            115            283 292 
 PRA  HZ EP       1021 43.81                             107   -0.10 6  391 209 
 PRA  HN ES   1   1022 25.91                             107    0.35 4  391 209 
 PRA  HZ I        1022 30.82         4.3 0.32            109            391 209 
 SJC  HZ EP   4   1021 44.49                             106   -1.61 0  409 327 
 SJC  HN ES   4   1022 24.36                             106   -5.10 0  409 327 
 SJC  HZ I        1022 30.24         1.8 0.32            108            409 327 
                                                                                
