 2014 1122 1717 16.2 L   6.812 -73.167146.0  RSN  7 0.2 1.5LRSN                1
 GAP= 80        0.77       3.2     5.7  6.2 -0.6807E+01 -0.1006E+02  0.4144E+01E
 Epicentro: LOS SANTOS - SANTANDER                                             3
 ACTION:UPD 14-12-19 15:46 OP:nd   STATUS:               ID:20141122171716 L   I
 OLDACT:ARG 14-11-22 21:32 OP:stll STATUS:               ID:20141122170743     3
 2014-11-22-1707-43M.COL___309                                                 6
 STAT SP IPHASW D HRMM SECON CODA AMPLIT PERI AZIMU VELO AIN AR TRES W  DIS CAZ7
 BAR2 SZ EP       1717 35.87                             170   -0.0210 24.3 184 
 BRR  HZ EP   9   1717 37.81                             154    0.58 0 68.5 298 
 BRR  HN ES       1717 54.72                                    0.5110 68.5 298 
 PAM  SZ EP       1717 38.81                             151    0.3310 77.9  41 
 PAM  SN ES       1717 56.10                             151    0.2510 77.9  41 
 PAM  SZ I        1717 57.69         8.1 0.50            151           77.9  41 
 RUS  HZ EP       1717 40.00                             144   -0.0910  102 175 
 RUS  HN ES       1717 58.47                             144   -0.2510  102 175 
 RUS  HZ I        1717 59.94         4.2 0.40            145            102 175 
 TAM  HZ EP       1717 44.15                             131    0.00 9  158 105 
 OCA  HN ES       1718  5.91                             131   -0.46 9  159 354 
 SPBC HN ES       1718  7.07                             130    0.18 9  163 218 
                                                                                
