 2015 1222 1346 43.2 L   6.792 -73.099135.0  RSN 10 0.4 2.1LRSN                1
 GAP=205        0.95       3.1     4.7  6.3  0.6959E+00  0.9337E+01 -0.3576E+01E
 Epicentro: LOS SANTOS - SANTANDER                                             3
 ACTION:UPD 16-02-04 15:06 OP:cam  STATUS:               ID:20151222134643 L   I
 OLDACT:REG 15-12-22 21:12 OP:cara STATUS:               ID:20151222133748     3
 2015-12-22-1337-48M.COL___339                                                 6
 STAT SP IPHASW D HRMM SECON CODA AMPLIT PERI AZIMU VELO AIN AR TRES W  DIS CAZ7
 BAR2 EZ IP       1347  2.11                             169    0.5310 23.9 203 
 BAR2 EZ ES       1347 15.46                             169   -0.4410 23.9 203 
 BAR2 EZ I        1347 17.74        24.3 0.30            166           23.9 203 
 BRR  HZ EP       1347  3.96                             149    0.4310 76.1 297 
 BRR  HZ IP       1347  4.15                                           76.1 297 
 BRR  HN ES   4   1347 21.14                             149    1.77 0 76.1 297 
 BRR  HZ I        1347 25.03        31.9 0.12            148           76.1 297 
 RUS  HZ EP       1347  5.38                             142   -0.4810 99.5 179 
 RUS  HN ES       1347 24.05                             142    0.5510 99.5 179 
 RUS  HZ I        1347 25.79        10.0 0.26            144           99.5 179 
 PTB  HZ EP       1347  9.34                             128   -0.47 9  153 260 
 PTB  HE ES       1347 30.53                             128   -0.00 9  153 260 
 SPBC HZ EP       1347 11.28                             126    0.10 9  166 221 
 SPBC HN ES       1347 32.62                             126   -0.37 9  166 221 
 SPBC HZ I        1347 48.82        40.3 0.10            128            166 221 
 ZAR  HZ EP       1347 15.90                             119    0.36 8  209 292 
 ZAR  HN ES       1347 41.11                             119    0.37 8  209 292 
 ZAR  HZ I        1347 44.40        15.6 0.26            122            209 292 
 NOR  HZ EP       1347 18.72                             116   -0.04 8  238 235 
 NOR  HE ES       1347 46.03                             116   -0.45 8  238 235 
 NOR  HZ I        1347 47.98         9.3 0.16            118            238 235 
 SML  HZ EP       1347 19.00                             115   -0.61 8  247 334 
 SML  HE ES       1347 47.84                             115   -0.14 8  247 334 
 SML  HZ I        1347 50.89        16.8 0.10            119            247 334 
 CHI  HZ IP   4   1347 21.60                             115    1.18 0  249 196 
 CHI  HN ES       1347 49.33                             115   -0.09 8  249 196 
 CHI  HZ I        1347 55.07         3.0 0.26            118            249 196 
 GUY2CHZ EP       1347 27.15                             110    0.36 7  305 235 
 GUY2CHN ES       1348  1.11                             110    0.35 7  305 235 
 GUY2CHZ I        1348  7.49         8.5 0.24                           305 235 
                                                                                
