 2014 1022 1049 30.3 L   6.594 -73.243143.4  RSN  4 0.3 1.3LRSN                1
 GAP=134        0.69       6.1     5.3  6.7  0.9303E+01  0.6708E+01  0.2592E+00E
 Epicentro: CABRERA - SANTANDER                                                3
 ACTION:UPD 14-11-29 23:54 OP:nd   STATUS:               ID:20141022104930 L   I
 OLDACT:DUP 14-10-25 05:44 OP:fm   STATUS:               ID:20141022103747d    3
 2014-10-22-1037-46M.COL___277                                                 6
 STAT SP IPHASW D HRMM SECON CODA AMPLIT PERI AZIMU VELO AIN AR TRES W  DIS CAZ7
 BAR2 SZ EP       1049 49.48                             177    0.0710 6.76  92 
 BAR2 SZ ES   1   1050  4.20                             177   -0.13 7 6.76  92 
 BAR2 SZ I        1050  6.52         3.0 0.38            179           6.76  92 
 BRR  HZ EP       1049 51.09                             150   -0.4210 76.8 318 
 BRR  HN ES       1050  8.33                             150    0.2710 76.8 318 
 BRR  HZ I        1050  9.59         6.0 0.54            151           76.8 318 
 RUS  HE ES   1   1050  9.67                             150    0.04 7 79.6 167 
 PTB  HZ EP       1049 56.24                             134    0.3810  134 267 
 PTB  HN ES       1050 15.57                             134   -0.2310  134 267 
 PTB  HZ I        1050 19.19         2.3 0.24            135            134 267 
                                                                                
