 2010 1022 1656 53.8 L   6.797 -73.090146.0  RSN  7 0.5 2.0LRSN                1
 GAP=165        1.09       6.4    11.7 11.8 -0.3159E+02  0.1150E+01  0.4596E+01E
 Epicentro: LOS SANTOS - SANTANDER                                             3
 ACTION:UP  11-02-18 11:11 OP:tino STATUS:               ID:20101022165653 L   I
 2010-10-22-1652-46S.COL___125                                                 6
 STAT SP IPHASW D HRMM SECON CODA AMPLIT PERI AZIMU VELO SNR AR TRES W  DIS CAZ7
 BAR2 SZ EP   1   1657 13.55                             170     0.0 7   25 204 
 BAR2 SZ ES   2   1657 28.20                             170    -0.7 5   25 204 
 BAR2 SZ I        1657 30.37        20.3 0.37                            25 204 
 BRR  HZ IP     C 1657 15.42                             151     0.110   77 297 
 BRR  HZ I        1657 15.73        40.4 0.19                            77 297 
 BRR  HE ES   2   1657 32.91                             151     0.8 5   77 297 
 RUS  HZ EP   1   1657 17.80                             144     0.2 7  100 180 
 RUS  HN ES   2   1657 36.24                             144     0.2 5  100 180 
 RUS  HZ I        1657 38.93         9.9 0.46                           100 180 
 GUE  SZ EP   1   1657 19.65                             140     1.2 7  116   9 
 GRA  SZ IP     C 1657 18.35                             137    -0.610  124  15 
 GRA  SZ ES   2   1657 37.98                             137    -0.6 5  124  15 
 NOR  SZ EP   1   1657 29.68                             118    -0.4 6  240 235 
 NOR  SE ES   2   1657 57.82                             118    -0.6 4  240 235 
 CHI  HZ EP   1   1657 31.72                             117     0.0 6  250 197 
 CHI  HN ES   2   1658  1.36                             117     0.1 4  250 197 
 CHI  HZ I        1658  8.70         5.0 0.49                           250 197 
                                                                                
