 2012  222 1023  0.3 L   6.772 -73.086148.3  RSN 14 0.4 2.3LRSN                1
 GAP=131        0.55       2.6     3.6  3.8 -0.2222E+01  0.2354E+01  0.1544E+01E
 ACTION:UP  12-03-07 16:33 OP:epov STATUS:               ID:20120222102300 L   I
 2012-02-22-1020-00M.COL___191                                                 6
 STAT SP IPHASW D HRMM SECON CODA AMPLIT PERI AZIMU VELO AIN AR TRES W  DIS CAZ7
 BAR2 SZ IP       1023 20.20                             171    0.0310 22.6 208 
 BAR2 SZ ES   1   1023 35.18                             171   -0.52 7 22.6 208 
 BAR2 SZ I        1023 38.13        38.4 0.33                          22.6 208 
 GIR2 SZ EP   1   1023 20.33                             166   -0.02 7 35.9 341 
 GIR2 SZ ES   2   1023 36.04                             166    0.01 5 35.9 341 
 PAM  SZ EP   1   1023 23.00                             152    0.36 7 75.9  34 
 PAM  SN ES   2   1023 40.53                             152    0.42 5 75.9  34 
 BRR  HZ IP     C 1023 22.11                             150    0.0210 78.5 298 
 BRR  HE ES   1   1023 39.59                             150    0.46 7 78.5 298 
 RUS  HZ EP   1   1023 24.04                             145    0.03 7 97.3 180 
 RUS  HN ES   1   1023 42.54                             145   -0.01 7 97.3 180 
 PTB  HZ EP   2   1023 27.21                             131   -0.76 5  154 260 
 PTB  HE ES   2   1023 48.85                             131   -0.73 5  154 260 
 OCA  SZ EP   1   1023 28.67                             129   -0.46 7  164 351 
 OCA  SZ ES   2   1023 51.50                             129   -0.15 5  164 351 
 NOR  SZ EP   2   1023 36.26                             118   -0.26 4  238 236 
 NOR  SE ES   2   1024  4.61                             118   -0.20 4  238 236 
 CHI  HZ EP   1   1023 38.18                             118    0.21 6  248 197 
 CHI  HE ES   2   1024  7.60                             118    0.22 4  248 197 
 CHI  HZ I        1024 16.03         9.7 0.55                           248 197 
 ROSC BZ EP   2   1023 38.43                             117   -0.17 4  254 213 
 ROSC BZ I        1024 15.36        27.0 0.46                           254 213 
 HEL  HZ EP   1   1023 41.60                             115    0.37 6  278 257 
 HEL  HE ES   2   1024 13.83                             115    0.65 4  278 257 
 HEL  HZ I        1024 18.49        11.5 0.45                           278 257 
 RREF HZ EP   1   1023 47.34                             111    0.48 5  325 231 
 RREF HN ES   2   1024 23.05                             111   -0.16 3  325 231 
 RREF HZ I        1024 31.89        14.6 0.32                           325 231 
 SDV  BZ EP   2   1023 49.54                             109   -0.49 3  357  49 
 SDV  BZ I        1024 29.34         5.2 0.48                           357  49 
 PRA  HZ EP   1   1023 53.60                             107   -0.34 4  393 211 
 PRA  HN ES   2   1024 36.12                             107    0.31 3  393 211 
                                                                                
