 2012 1122 1351 44.1 L   6.802 -73.132145.7  RSN 12 0.3 2.6LRSN                1
 GAP=138        0.58       2.1     2.9  4.3 -0.1641E+00  0.5146E+01  0.1292E+01E
 Epicentro: LOS SANTOS - SANTANDER                                             3
 ACTION:UPD 12-12-05 15:35 OP:}ep  STATUS:               ID:20121122135144 L   I
 2012-11-22-1350-00M.COL___233                                                 6
 STAT SP IPHASW D HRMM SECON CODA AMPLIT PERI AZIMU VELO AIN AR TRES W  DIS CAZ7
 BAR2 SZ EP   1   1352  3.80                             170    0.1113 23.8 194 
 BAR2 SZ I        1352 20.05        64.6 0.10                          23.8 194 
 GIR2 SZ EP   1   1352  3.94                             167    0.2213 31.4 347 
 GIR2 SZ ES   1   1352 19.14                             167    0.0713 31.4 347 
 PAM  SZ EP   1   1352  6.67                             151    0.4713 76.3  39 
 PAM  SE ES   1   1352 23.63                             151    0.1613 76.3  39 
 PAM  SZ I        1352 25.94        70.4 0.54                          76.3  39 
 RUS  HZ EP   1   1352  7.85                             144    0.0413  101 177 
 RUS  HE ES   1   1352 26.17                             144   -0.1613  101 177 
 RUS  HZ I        1352 27.31        31.7 0.30                           101 177 
 PTB  HZ EP   1   1352 10.83                             132   -0.3312  149 259 
 PTB  HN ES   1   1352 31.93                             132   -0.3712  149 259 
 PTB  HZ I        1352 36.15        57.5 0.14                           149 259 
 OCA  HZ EP   1   1352 12.11                             130   -0.2512  160 353 
 OCA  HN ES   1   1352 33.86                             130   -0.5812  160 353 
 ZAR  HZ EP   1   1352 16.52                             122   -0.1211  205 292 
 ZAR  HE ES   1   1352 42.63                             122    0.5811  205 292 
 ZAR  HZ I        1352 49.87        39.1 0.21                           205 292 
 CTAB SZ EP   4   1352 21.36                             119    1.46 0  231 211 
 SML  HZ EP   1   1352 20.35                             117   -0.3810  244 335 
 SML  HE ES   1   1352 49.35                             117    0.0210  244 335 
 CHI  HZ EP   1   1352 21.95                             117    0.1410  249 195 
 CHI  HN ES   1   1352 51.02                             117   -0.2410  249 195 
 CHI  HZ I        1352 54.38        14.3 0.30                           249 195 
 HEL  HZ EP   1   1352 25.25                             115    0.8210  274 256 
 HEL  HE ES   1   1352 56.07                             115    0.1410  274 256 
 HEL  HZ I        1353  2.52        32.7 0.38                           274 256 
 DBB  SZ EP   1   1352 31.68                             109   -0.02 8  341 274 
 DBB  SZ ES   1   1353  8.88                             109    0.01 8  341 274 
 DBB  SZ I        1353 15.72        11.5 0.44                           341 274 
 MON  HZ EP   4   1352 30.88                             108   -2.30 0  355 308 
 MON  HE ES   4   1353  9.87                             108   -1.63 0  355 308 
 PRA  HZ EP       1352 37.45                             106   -0.2310  393 210 
 PRA  HE ES   1   1353 19.32                             106   -0.19 7  393 210 
 PRA  HZ I        1353 28.17        16.0 0.36                           393 210 
 SJC  HE ES   4   1353 19.17                             106   -3.92 0  410 327 
                                                                                
