 2017  522 1810 17.2 L   6.810 -73.157148.0  RSN 16 0.5 2.6LRSN                1
 GAP=110        1.15       3.6     3.7  6.4  0.1853E+01  0.5856E+01  0.6166E+01E
 Epicentro: LOS SANTOS - SANTANDER                                             3
 ACTION:UPD 17-06-16 13:38 OP:jn   STATUS:               ID:20170522181017 L   I
 OLDACT:UP  17-05-22 23:04 OP:dnl  STATUS:               ID:20170522180738     3
 OLDACT:REG 17-05-22 22:57 OP:dnl  STATUS:               ID:20170522180738     3
 2017-05-22-1808-00M.COL___335                                                 6
 STAT SP IPHASW D HRMM SECON CODA AMPLIT PERI AZIMU VELO AIN AR TRES W  DIS CAZ7
 BRR  HN EP       1810 38.73                             153    0.2010 69.6 298 
 BRR  HE ES       1810 55.95                             153    0.8010 69.6 298 
 BRR  HN I        1810 58.45       183.0 0.16            152           69.6 298 
 PAM  EZ EP       1810 39.65                             151   -0.0310 77.3  41 
 PAM  EN ES       1810 56.91                             151   -0.2810 77.3  41 
 PAM  EZ I        1810 59.07        73.7 0.42            156           77.3  41 
 RUS  HZ EP     D 1810 40.77                             144   -0.5210  102 175 
 RUS  HN ES       1811  0.04                             144   -0.0110  102 175 
 RUS  HZ I        1811  0.59        46.3 0.28            144            102 175 
 PTB  HZ EP       1810 43.36                             133   -0.93 9  147 258 
 PTB  HN ES       1811  4.63                             133   -0.77 9  147 258 
 PTB  HZ I        1811  9.43        35.5 0.42            132            147 258 
 SPBC HZ EP       1810 45.85                             130   -0.06 9  163 218 
 SPBC HN ES       1811  8.05                             130   -0.23 9  163 218 
 SPBC HZ I        1811 13.68        71.7 0.10            129            163 218 
 YPLC HZ EP       1810 47.23                             127   -0.11 9  178 151 
 YPLC HE ES       1811 11.82                             127    1.00 9  178 151 
 YPLC HZ I        1811 13.94        27.7 0.30            129            178 151 
 ZAR  HZ EP       1810 49.82                             123    0.16 9  203 292 
 ZAR  HE ES       1811 14.72                             123   -0.24 9  203 292 
 ZAR  HZ I        1811 20.00        50.7 0.32            123            203 292 
 NOR  HZ EP       1810 52.99                             119   -0.06 8  234 234 
 NOR  HE ES       1811 21.64                             119    0.65 8  234 234 
 NOR  HZ I        1811 30.17        27.7 0.38            119            234 234 
 CHI  HZ EP       1810 55.08                             118   -0.06 8  249 195 
 CHI  HN ES       1811 24.29                             118   -0.41 8  249 195 
 CHI  HZ I        1811 29.37        27.6 0.52            118            249 195 
 ROSC BZ EP   4   1810 56.67                             117    1.16 0  253 211 
 ROSC BN ES   4   1811 27.27                             117    1.91 0  253 211 
 ROSC BZ I        1811 31.48        77.1 0.40            118            253 211 
 HEL  HZ EP   4   1810 58.74                             115    1.28 0  271 256 
 HEL  HN ES       1811 29.22                             115    0.39 8  271 256 
 HEL  HZ I        1811 34.90        26.5 0.28            116            271 256 
 VIL  EZ EP       1811  1.08                             112    0.23 7  304 191 
 VIL  EN ES       1811 34.37                             112   -0.49 7  304 191 
 VIL  EZ I        1811 44.55        42.9 0.40            113            304 191 
 CBOC HZ EP       1811  5.12                             110    0.97 7  333 252 
 CBOC HN ES   4   1811 41.82                             110    1.08 0  333 252 
 CBOC HZ I        1811 46.46        16.6 0.34            111            333 252 
 DBB  EZ EP       1811  4.98                             110    0.33 7  338 274 
 DBB  EN ES   4   1811 40.17                             110   -1.46 0  338 274 
 DBB  EZ I        1811 41.56        11.5 0.28            111            338 274 
 PAL  HZ EP       1811 12.39                             106   -0.02 6  405 239 
 PAL  HN ES       1811 56.02                             106    0.57 6  405 239 
 PAL  HZ I        1812  0.44         5.1 0.20            107            405 239 
 SJC  HZ EP   4   1811 10.79                             106   -1.89 0  408 327 
 SJC  HE ES   4   1811 52.54                             106   -3.39 0  408 327 
 SJC  HZ I        1812  6.65         6.8 0.64            107            408 327 
                                                                                
