 2010  722 1803  4.9 L   6.799 -73.066137.7  RSN  4 0.3 1.7LRSN                1
 GAP=168        0.64       6.4    10.0 10.6  0.2130E+02 -0.6126E+02 -0.3369E+02E
 Epicentro: LOS SANTOS - SANTANDER                                             3
 ACTION:UPD 10-12-01 15:19 OP:pat  STATUS:               ID:20100722180304 L   I
 2010-07-22-1758-50S.COL___123                                                 6
 STAT SP IPHASW D HRMM SECON CODA AMPLIT PERI AZIMU VELO AIN AR TRES W  DIS CAZ7
 BAR2 SZ EP   2   18 3 23.49                             169    -0.2 5   26 210 
 BAR2 SZ ES   2   18 3 37.94                             169    -0.3 5   26 210 
 BAR2 SZ I        18 3 40.07        15.7 0.44                            26 210 
 BRR  HZ EP       18 3 25.41                             149    -0.310   79 296 
 BRR  HZ I        18 3 25.75        19.5 0.11                            79 296 
 BRR  HE ES   1   18 3 42.23                             149     0.3 7   79 296 
 RUS  HZ EP   2   18 3 28.26                             143     0.4 5  100 181 
 RUS  HE ES   2   18 3 45.88                             143     0.1 5  100 181 
 RUS  HZ I        18 3 47.34         2.7 0.28                           100 181 
 GRA  SZ IP       18 3 29.40                             136     0.110  124  14 
 GRA  SZ I        18 3 49.96         7.3 0.37                           124  14 
                                                                                
