 2017  822 1755 11.4 L   6.778 -73.092148.2  RSN  5 0.4 1.4LRSN                1
 GAP=145        0.96       5.1     6.8  7.7  0.2029E+01 -0.7555E-01  0.5485E+00E
 Epicentro: LOS SANTOS - SANTANDER                                             3
 ACTION:UPD 17-09-04 20:23 OP:rebc STATUS:               ID:20170822175511 L   I
 OLDACT:UP  17-08-23 00:17 OP:edw  STATUS:               ID:20170822174234d    3
 OLDACT:UP  17-08-23 00:17 OP:edw  STATUS:               ID:20170822174234d    3
 OLDACT:DUP 17-08-23 00:14 OP:edw  STATUS:               ID:20170822174234d    3
 2017-08-22-1748-00M.COL___414                                                 6
 STAT SP IPHASW D HRMM SECON CODA AMPLIT PERI AZIMU VELO AIN AR TRES W  DIS CAZ7
 BAR2 EZ EP       1755 30.81                             171   -0.5110 22.8 206 
 BAR2 EZ ES       1755 47.32                             171    0.4810 22.8 206 
 BAR2 EZ I        1755 47.98         2.6 0.50            172           22.8 206 
 PAM  EZ EP     C 1755 34.16                             152    0.3810 75.7  35 
 PAM  EN ES       1755 50.95                             152   -0.2810 75.7  35 
 PAM  EZ I        1755 53.30         5.9 0.56            153           75.7  35 
 BRR  HZ EP       1755 32.97                             151   -0.2210 77.6 298 
 BRR  HN ES       1755 50.27                             151    0.1010 77.6 298 
 BRR  HZ I        1755 53.09         8.7 0.34            152           77.6 298 
 RUS  HZ EP       1755 35.68                             145    0.4710 97.9 179 
 RUS  HN ES       1755 53.38                             145   -0.3910 97.9 179 
 RUS  HZ I        1755 55.22         2.7 0.28            147           97.9 179 
 ZAR  HE ES   2   1756 10.46                             122   -0.16 4  211 292 
                                                                                
