 2017  622 1951 47.2 L   6.877 -73.114153.1  RSN 17 0.8 2.5LRSN                1
 GAP=105        1.57       4.7     4.6  8.8  0.8820E+00  0.5565E+00  0.9800E+00E
 Epicentro: LOS SANTOS - SANTANDER                                             3
 ACTION:UPD 17-09-14 16:54 OP:jn   STATUS:               ID:20170622195147 L   I
 OLDACT:UP  17-06-23 01:35 OP:ar   STATUS:               ID:20170622194738     3
 OLDACT:UP  17-06-23 00:58 OP:dnl  STATUS:               ID:20170622194738     3
 OLDACT:UP  17-06-23 00:58 OP:dnl  STATUS:               ID:20170622194738     3
 OLDACT:REG 17-06-22 18:58 OP:ar   STATUS:               ID:20170622194738     3
 2017-06-22-1948-00M.COL___348                                                 6
 STAT SP IPHASW D HRMM SECON CODA AMPLIT PERI AZIMU VELO AIN AR TRES W  DIS CAZ7
 BRR  HZ EP       1952  9.55                             154    0.3810 70.8 291 
 BRR  HE ES       1952 26.81                             154    0.5310 70.8 291 
 BRR  HZ I        1952 29.71        41.5 0.28            155           70.8 291 
 PTB  HZ EP   9   1952 14.45                             133   -0.84 0  153 256 
 PTB  HE ES       1952 35.98                                   -0.35 9  153 256 
 PTB  HZ I        1952 37.38        27.9 0.40            134            153 256 
 TAM  HZ EP     D 1952 16.10                             132    0.67 9  154 108 
 TAM  HZ I        1952 37.20        18.7 0.24            132            154 108 
 TAM  HN ES       1952 37.84                             132    0.43 9  154 108 
 SPBC HZ EP       1952 16.74                             129   -0.41 9  172 218 
 SPBC HN ES       1952 39.29                             129   -1.18 9  172 218 
 SPBC HZ I        1952 45.09        50.9 0.20            130            172 218 
 YPLC HZ EP       1952 17.75                             127   -0.40 9  183 154 
 YPLC HN ES       1952 41.42                             127   -0.84 9  183 154 
 YPLC HZ I        1952 44.80        18.2 0.28            128            183 154 
 ZAR  HZ EP       1952 20.48                             124    0.28 9  204 290 
 ZAR  HN ES       1952 45.69                             124   -0.22 9  204 290 
 ZAR  HZ I        1952 50.86        41.5 0.36            125            204 290 
 TABC EZ EP       1952 25.51                             120    1.11 8  239 210 
 TABC EZ ES       1952 54.43                             120    1.04 8  239 210 
 TABC EZ I        1952 58.89        31.9 0.38            120            239 210 
 NOR  HZ EP       1952 23.76                             119   -0.48 8  243 233 
 NOR  HE ES       1952 52.46                             119   -0.65 8  243 233 
 NOR  HZ I        1953  1.01        21.2 0.40            120            243 233 
 CHI  HZ EP       1952 25.75                             118   -0.59 8  258 195 
 CHI  HN ES   4   1952 55.10                             118   -1.74 0  258 195 
 CHI  HZ I        1953  0.24        19.5 0.48            118            258 195 
 ROSC BZ EP       1952 27.92                             117    1.16 8  262 211 
 ROSC BN ES       1952 57.97                             117    0.39 8  262 211 
 ROSC BZ I        1953  2.48        53.6 0.40            118            262 211 
 HEL  HZ EP       1952 30.03                             116    1.57 7  278 254 
 HEL  HN ES       1953  0.10                             116   -0.50 7  278 254 
 HEL  HZ I        1953  5.58        20.8 0.30            116            278 254 
 GUY2CHZ EP       1952 32.63                             113    0.55 7  309 234 
 GUY2CHE ES   4   1953 10.39                             113    3.34 0  309 234 
 GUY2CHZ I        1953 13.93        18.7 0.32                           309 234 
 VIL  EZ EP       1952 31.70                             113   -0.32 7  312 192 
 VIL  EE ES       1953  5.66                             113   -1.29 7  312 192 
 VIL  EZ I        1953  8.25        30.5 0.42            113            312 192 
 CBOC HZ EP       1952 35.12                             111   -0.04 7  340 251 
 CBOC HE ES   4   1953 10.88                             111   -1.66 0  340 251 
 CBOC HZ I        1953 23.15         9.5 0.10            111            340 251 
 SJC  HZ EP       1952 41.86                             107   -0.59 6  404 326 
 SJC  HN ES   4   1953 23.68                             107   -1.84 0  404 326 
 SJC  HZ I        1953 31.52         4.9 0.24            107            404 326 
 ORTC HZ EP       1952 41.96                             107   -0.51 6  404 216 
 ORTC HN ES       1953 25.42                             107   -0.12 6  404 216 
 ORTC HZ I        1953 29.08        12.4 0.22            107            404 216 
 CRJC HZ EP       1952 48.12                             105   -0.81 5  459   3 
 CRJC HN ES       1953 35.59                             105   -1.45 5  459   3 
 CRJC HZ I        1953 41.23         7.8 0.16            105            459   3 
                                                                                
