 2015  322 1229 10.0 L   6.515 -73.482116.3  RSN  9 0.5 2.1LRSN                1
 GAP=186        1.26       6.0     5.5  8.3 -0.4349E+01  0.1895E+02 -0.6301E+01E
 Epicentro: SIMACOTA - SANTANDER                                               3
 ACTION:UPD 15-04-30 16:28 OP:nd   STATUS:               ID:20150322122910 L   I
 OLDACT:UP  15-03-22 21:41 OP:cam  STATUS:               ID:20150322121746     3
 OLDACT:UP  15-03-22 21:40 OP:cam  STATUS:               ID:20150322121746     3
 OLDACT:REG 15-03-22 20:22 OP:cam  STATUS:               ID:20150322121746     3
 2015-03-22-1217-46M.COL___281                                                 6
 STAT SP IPHASW D HRMM SECON CODA AMPLIT PERI AZIMU VELO AIN AR TRES W  DIS CAZ7
 BAR2 EZ IP     D 1229 27.00                             162    0.5710 34.2  76 
 BAR2 EZ ES       1229 39.19                             162   -0.0610 34.2  76 
 BAR2 EZ I        1229 40.96       125.5 0.50            163           34.2  76 
 BRR  HZ EP       1229 27.88                             147   -0.1110 70.3 339 
 BRR  HN ES       1229 41.82                             147   -0.2010 70.3 339 
 BRR  HN I        1229 42.44        38.8 0.38            144           70.3 339 
 PTB  HZ EP       1229 29.80                             134   -1.1510  108 271 
 PTB  HN ES   4   1229 44.81                             134   -2.48 0  108 271 
 PTB  HZ I        1229 45.92        13.0 0.18            133            108 271 
 PAM  SZ EP       1229 33.61                             130    0.4010  126  43 
 PAM  SN ES       1229 51.48                             130    0.1610  126  43 
 PAM  SZ I        1229 52.77        12.6 0.26            129            126  43 
 ZAR  HZ EP       1229 39.34                             117    0.54 9  187 305 
 ZAR  HE ES       1230  2.22                             117    0.96 9  187 305 
 ZAR  HZ I        1230  3.50        15.8 0.50            116            187 305 
 OCA  HZ EP       1229 39.30                             117   -0.22 9  191   5 
 OCA  HN ES       1230  2.08                             117   -0.47 9  191   5 
 OCA  HZ I        1230  7.22        29.1 0.14            116            191   5 
 HEL  HZ EP       1229 44.05                             112    0.06 8  229 261 
 HEL  HN ES   4   1230  7.79                             112   -2.72 0  229 261 
 HEL  HZ I        1230 17.52         3.4 0.42            112            229 261 
 GUY2CHZ EP   4   1229 48.45                             110    1.66 0  253 236 
 GUY2CHN ES   4   1230 16.56                             110    1.07 0  253 236 
 GUY2CHZ I        1230 19.44         4.5 0.34                           253 236 
 SML  HZ EP       1229 46.92                             109   -0.23 8  261 346 
 SML  HN ES       1230 15.90                             109   -0.23 8  261 346 
 SML  HZ I        1230 20.87        14.2 0.10            108            261 346 
                                                                                
