 2017  222 1712 20.8 L   5.858 -73.738127.1  RSN 18 0.6 2.5LRSN                1
 GAP= 93        1.33       4.5     3.7  7.9 -0.7819E+01  0.8391E+01 -0.8088E+01E
 Epicentro: JESUS MARIA - SANTANDER                                            3
 ACTION:UPD 17-05-24 15:39 OP:jn   STATUS:               ID:20170222171220 L   I
 OLDACT:UP  17-02-23 00:30 OP:edw  STATUS:               ID:20170222170744     3
 OLDACT:UP  17-02-23 00:29 OP:edw  STATUS:               ID:20170222170744     3
 OLDACT:REG 17-02-22 20:18 OP:edw  STATUS:               ID:20170222170744     3
 2017-02-22-1708-00M.COL___388                                                 6
 STAT SP IPHASW D HRMM SECON CODA AMPLIT PERI AZIMU VELO AIN AR TRES W  DIS CAZ7
 RUS  HZ EP       1712 40.31                             148   -0.4310 72.6  87 
 RUS  HN ES       1712 56.01                             148   -0.3110 72.6  87 
 RUS  HZ I        1712 57.00        45.7 0.58            153           72.6  87 
 BAR2 EZ IP     D 1712 42.86                             138    0.3610  102  37 
 BAR2 EZ ES       1713  0.42                             138    0.9910  102  37 
 PTB  HZ IP   9 C 1712 41.90                             136   -0.92 0  110 314 
 PTB  HN ES       1712 59.15                             136    0.0610  110 314 
 PTB  HZ I        1713  2.72        43.6 0.16            137            110 314 
 NOR  HZ EP       1712 43.72                             131   -0.9010  129 255 
 NOR  HN ES       1713  2.18                             131   -1.0410  129 255 
 NOR  HZ I        1713  4.42        72.4 0.44            132            129 255 
 ROSC BZ EP     C 1712 45.10                             131   -0.0110  130 210 
 ROSC BN ES       1713  4.64                             131    0.5610  130 210 
 ROSC BZ I        1713  9.59        20.0 0.40            134            130 210 
 CHI  HZ EP   9 D 1712 44.27                             130   -1.43 0  136 180 
 CHI  HN ES       1713  2.85                             135   -0.85 9  136 180 
 CHI  HZ I        1713  6.29        29.0 0.22            133            136 180 
 BRR  HZ EP       1712 45.61                             129    0.25 9  138   1 
 BRR  HN ES   4   1713  5.94                             129    1.42 0  138   1 
 BRR  HZ I        1713  7.83        37.3 0.12            131            138   1 
 VIL  EZ EP   4   1712 49.76                             119   -1.32 0  193 179 
 VIL  EN ES   4   1713 12.91                             119   -1.80 0  193 179 
 VIL  EZ I        1713 15.44        56.3 0.36            122            193 179 
 PAM  EZ EP       1712 52.42                             118    0.14 9  200  35 
 PAM  EN ES       1713 16.36                             118   -0.48 9  200  35 
 PAM  EZ I        1713 19.13        22.3 0.26            121            200  35 
 HEL  HZ EP       1712 52.20                             118   -0.09 9  202 281 
 HEL  HN ES   2   1713 17.31                             118    0.44 4  202 281 
 HEL  HZ I        1713 21.97        29.5 0.74            120            202 281 
 ELA  HZ EP       1712 54.47                             116    0.56 8  215 239 
 ELA  HN ES       1713 20.42                             116    0.67 8  215 239 
 ZAR  HZ EP       1712 54.39                             116    0.67 8  219 326 
 ZAR  HN ES       1713 18.62                             116   -0.79 8  219 326 
 ZAR  HZ I        1713 26.03        33.8 0.24            117            219 326 
 TAM  HN ES       1713 20.38                             115   -0.21 8  225  73 
 ANIL HZ EP   2   1712 55.53                             114   -0.71 4  239 231 
 ANIL HE ES   4   1713 22.71                             114   -1.19 0  239 231 
 ANIL HZ I        1713 24.83        36.4 0.24            116            239 231 
 CBOC HZ EP   2   1712 57.19                             112   -0.38 4  252 270 
 CBOC HN ES       1713 26.75                             112    0.48 8  252 270 
 ORTC HZ EP   4   1712 58.40                             110   -1.38 0  273 218 
 ORTC HN ES   4   1713 27.73                             110   -2.47 0  273 218 
 ORTC HZ I        1713 33.05        18.2 0.16            112            273 218 
 URE  HZ EP   2   1713  1.07                             109   -0.47 4  288 317 
 URE  HN ES   4   1713 31.68                             109   -1.66 0  288 317 
 ARGC HZ EP   4   1713  4.98                             101   -15.1 0  446 353 
 ARGC HN ES   4   1713 30.76                             101   -35.6 0  446 353 
 SJC  HZ EP   2   1713 23.34                             100   -0.21 2  474 341 
 SJC  HN ES   4   1714  7.34                             100   -5.17 0  474 341 
 SJC  HZ I        1714 15.85         6.1 0.50            101            474 341 
                                                                                
