 2017  922 1331 31.6 L   6.744 -73.108137.8  RSN  8 0.6 1.7LRSN                1
 GAP=144        1.00       4.2     4.7  6.8 -0.9538E+00  0.1023E+02  0.8376E+01E
 Epicentro: LOS SANTOS - SANTANDER                                             3
 ACTION:UPD 17-10-05 19:15 OP:rebc STATUS:               ID:20170922133131 L   I
 OLDACT:REG 17-09-22 19:43 OP:lv   STATUS:               ID:20170922132742     3
 2017-09-22-1328-00M.COL___435                                                 6
 STAT SP IPHASW D HRMM SECON CODA AMPLIT PERI AZIMU VELO AIN AR TRES W  DIS CAZ7
 BAR2 EZ EP       1331 50.22                             172    0.0510 18.8 206 
 BAR2 EZ ES       1332  3.98                             172   -0.6810 18.8 206 
 BAR2 EZ I        1332  6.20        15.2 0.18            170           18.8 206 
 BRR  HE ES       1332  8.78                             149    0.3510 77.9 301 
 PAM  EZ EP       1331 52.99                             149   -0.1210 79.7  34 
 PAM  EN ES       1332 10.02                             149    0.1310 79.7  34 
 PAM  EZ I        1332 11.66         6.7 0.28            150           79.7  34 
 RUS  HZ EP       1331 54.34                             144    0.2410 94.2 178 
 RUS  HN ES       1332 11.88                             144    0.2310 94.2 178 
 RUS  HZ I        1332 14.38         2.3 0.15            145           94.2 178 
 ZAR  HZ EP   3   1332  6.05                             120    1.86 2  210 293 
 ZAR  HE ES       1332 29.40                             120   -0.21 8  210 293 
 ZAR  HZ I        1332 37.22         6.5 0.26            119            210 293 
 NOR  HZ EP       1332  6.27                             117   -0.59 8  235 236 
 NOR  HN ES       1332 35.09                             117    0.71 8  235 236 
 NOR  HZ I        1332 36.14         4.9 0.16            117            235 236 
 URE  HN ES   3   1332 43.07                             111   -2.21 2  290 293 
 PRA  HZ EP       1332 24.84                             105    0.37 6  389 211 
 PRA  HE ES       1333  4.95                             105   -0.76 6  389 211 
 PRA  HZ I        1333 11.46         2.5 0.44            106            389 211 
                                                                                
