 2017  322 1137 45.0 L   6.804 -73.155147.7  RSN 12 0.5 2.7LRSN                1
 GAP=147        1.09       4.4     4.3  6.5 -0.7381E+00  0.5541E+01  0.8529E+01E
 Epicentro: LOS SANTOS - SANTANDER                                             3
 ACTION:UPD 17-05-25 18:43 OP:jn   STATUS:               ID:20170322113745 L   I
 OLDACT:UP  17-03-22 22:09 OP:cog  STATUS:               ID:20170322112744     3
 OLDACT:REG 17-03-22 20:28 OP:cog  STATUS:               ID:20170322112744     3
 2017-03-22-1128-00M.COL___382                                                 6
 STAT SP IPHASW D HRMM SECON CODA AMPLIT PERI AZIMU VELO AIN AR TRES W  DIS CAZ7
 BAR2 EZ EP       1138  4.70                             170   -0.1910 23.6 187 
 BAR2 EZ ES       1138 20.42                             170    0.0310 23.6 187 
 BRR  HZ EP       1138  6.25                             153   -0.0710 70.1 299 
 BRR  HE ES       1138 23.73                             153    0.7910 70.1 299 
 BRR  HZ I        1138 28.44        63.7 0.26            154           70.1 299 
 PAM  EZ IP     C 1138  7.40                             151   -0.0710 77.7  40 
 PAM  EE ES       1138 24.74                             151   -0.2310 77.7  40 
 PAM  EZ I        1138 27.11       102.8 0.56            157           77.7  40 
 PTB  HZ EP       1138 11.32                             133   -0.75 9  147 259 
 PTB  HN ES       1138 32.74                             133   -0.43 9  147 259 
 PTB  HZ I        1138 35.04        70.8 0.18            133            147 259 
 SPBC HZ EP       1138 13.58                             130   -0.06 9  163 219 
 SPBC HE ES       1138 35.91                             130   -0.06 9  163 219 
 SPBC HZ I        1138 38.45       108.0 0.28            130            163 219 
 ZAR  HZ EP       1138 17.49                             123    0.01 9  203 292 
 ZAR  HE ES       1138 43.21                             123    0.40 9  203 292 
 ZAR  HZ I        1138 49.80        59.8 0.30            125            203 292 
 CHI  HZ EP       1138 22.75                             117   -0.09 8  249 195 
 CHI  HN ES       1138 52.25                             117   -0.10 8  249 195 
 CHI  HZ I        1139  1.85        23.7 0.34            119            249 195 
 ROSC BZ EP       1138 24.53                             117    1.30 8  253 211 
 ROSC BN ES   4   1138 57.00                             117    3.96 0  253 211 
 URE  HZ EP   9   1138 24.72                             114   -1.35 0  283 292 
 URE  HE ES       1138 55.72                             114   -1.01 7  283 292 
 URE  HZ I        1138 56.92        23.0 0.18            116            283 292 
 ELA  HZ EP   4   1138 34.59                             111    2.69 0  329 229 
 ELA  HN ES   4   1139  6.84                             111   -1.62 0  329 229 
 ELA  HZ I        1139 18.82        22.9 0.36            112            329 229 
 CBOC HZ EP   3   1138 32.72                             110    0.80 2  333 252 
 CBOC HE ES   3   1139  7.79                             110   -0.72 2  333 252 
 DBB  EZ EP   3   1138 32.40                             110   -0.06 2  338 274 
 DBB  EE ES       1139  9.22                             110   -0.24 7  338 274 
 DBB  EZ I        1139 10.76        14.9 0.28            111            338 274 
                                                                                
