 2011  922 1011 52.6 L   6.875 -73.071153.4  RSN  7 0.5 1.5LRSN                1
 GAP=163        0.73      13.3    12.9 13.7  0.1203E+03  0.3808E+02  0.9227E+02E
 Epicentro: LOS SANTOS - SANTANDER                                             3
 ACTION:UPD 12-07-13 15:59 OP:ep   STATUS:               ID:20110922101152 L   I
 2011-09-22-1000-00M.COL___167                                                 6
 STAT SP IPHASW D HRMM SECON CODA AMPLIT PERI AZIMU VELO AIN AR TRES W  DIS CAZ7
 BTL  SZ EP   3   1012 13.63                             172    0.48 2 22.3 283 
 GIR2 SZ EP   3   1012 13.30                             168    0.22 2 26.3 329 
 GIR2 SZ ES   2   1012 29.10                             168    0.06 5 26.3 329 
 BAR2 SZ EP       1012 13.28                             169   -0.1210 33.6 202 
 BAR2 SZ I        1012 31.06         3.9 0.44                          33.6 202 
 BRR  HZ EP       1012 15.37                             152    0.5510 75.3 290 
 BRR  HZ I        1012 27.49        10.6 0.34                          75.3 290 
 BRR  HE ES   2   1012 31.47                             152   -0.67 5 75.3 290 
 BRI  SZ EP   3   1012 15.13                             143   -1.36 2 97.9  18 
 RUS  HZ EP       1012 17.57                             143   -0.1310  109 181 
 ZAR  HN ES   2   1012 51.56                             122   -0.58 4  209 289 
                                                                                
