 2010  622 1248 24.5 L   6.748 -73.093143.7  RSN 10 0.4 2.3LRSN                1
 GAP=162        0.69       3.3     6.8  6.5 -0.7905E+01  0.1073E+02  0.2825E+01E
 Epicentro: LOS SANTOS - SANTANDER                                             3
 ACTION:UP  10-08-24 10:12 OP:vdl  STATUS:               ID:20100622124824 L   I
 2010-06-22-1244-17S.COL___119                                                 6
 STAT SP IPHASW D HRMM SECON CODA AMPLIT PERI AZIMU VELO SNR AR TRES W  DIS CAZ7
 BAR2 SZ IP       1248 43.71                             172    -0.110   20 210 
 BAR2 SZ ES   2   1248 58.52                             172    -0.4 5   20 210 
 BRR  HZ EP   1   1248 45.79                             149    -0.1 7   79 300 
 BRR  HZ I        1248 49.89        42.5 0.22                            79 300 
 BRR  HN ES   2   1249  3.24                             149     0.6 5   79 300 
 RUS  HZ IP     C 1248 47.42                             145    -0.210   95 179 
 RUS  HZ I        1248 48.55        24.1 0.08                            95 179 
 RUS  HE ES   2   1249  6.07                             145     0.4 5   95 179 
 BRI  SZ EP   1   1248 48.80                             140     0.3 7  112  17 
 BRI  SZ ES   2   1249  6.84                             140    -0.3 5  112  17 
 GRA  SZ EP   1   1248 50.03                             135     0.1 7  130  14 
 GRA  SZ ES   2   1249 10.01                             135     0.3 5  130  14 
 OCA  SZ EP   1   1248 53.08                             128    -0.2 7  167 351 
 OCA  SZ ES   2   1249 15.38                             128    -0.3 5  167 351 
 OCA  SZ I        1249 18.18        23.6 0.55                           167 351 
 CHI  HZ EP   1   1249  1.49                             117    -0.2 6  245 197 
 CHI  HN ES   2   1249 30.64                             117     0.0 4  245 197 
 CHI  HZ I        1249 39.38         7.5 0.29                           245 197 
 ROSC BZ EP   1   1249  3.19                             116     0.9 6  251 213 
 ROSC BZ I        1249 40.75        16.1 0.46                           251 213 
 HEL  HZ EP   1   1249  5.08                             114     0.0 6  276 257 
 HEL  HZ I        1249 43.38        11.4 0.46                           276 257 
 RREF HZ EP   1   1249 10.92                             110     0.3 5  323 231 
 RREF HN ES   2   1249 45.72                             110    -0.9 3  323 231 
 RREF HZ I        1249 53.00        17.3 0.35                           323 231 
                                                                                
