 2014 1122 1219 26.3 L   6.796 -73.178138.8  RSN  4 0.4 0.9LRSN                1
 GAP=133        1.02       5.3     7.8  8.3 -0.3111E+00 -0.4170E+01  0.1970E+01E
 Epicentro: LOS SANTOS - SANTANDER                                             3
 ACTION:UPD 14-12-19 15:46 OP:nd   STATUS:               ID:20141122121926 L   I
 OLDACT:ARG 14-11-22 21:32 OP:stll STATUS:               ID:20141122121743     3
 2014-11-22-1217-43M.COL___291                                                 6
 STAT SP IPHASW D HRMM SECON CODA AMPLIT PERI AZIMU VELO AIN AR TRES W  DIS CAZ7
 BAR2 SZ EP       1219 45.18                             170    0.0510 22.5 181 
 BAR2 SZ ES       1220  0.49                             170    0.7210 22.5 181 
 BRR  HZ EP       1219 47.05                             152    0.4610 68.4 300 
 BRR  HE ES       1220  1.86                             152   -0.5110 68.4 300 
 PAM  SZ EP       1219 47.88                             149   -0.1210 80.0  41 
 PAM  SZ I        1219 48.50         2.6 0.48            148           80.0  41 
 PAM  SN ES       1220  4.74                             149   -0.1410 80.0  41 
 RUS  HZ EP       1219 49.32                             142   -0.0910  100 174 
 RUS  HZ I        1219 51.62         0.7 0.30            140            100 174 
 RUS  HN ES       1220  7.01                             142   -0.3810  100 174 
                                                                                
