 2013  222 1234 21.2 L   6.803 -73.170139.2  RSN  4 0.1 1.4LRSN                1
 GAP=276        0.33       4.5     3.1  3.6  0.5653E+01  0.1097E+01 -0.1034E+01E
 Epicentro: LOS SANTOS - SANTANDER                                             3
 ACTION:UPD 13-03-12 09:34 OP:ep   STATUS:               ID:20130222123421 L   I
 2013-02-22-1230-00M.COL___238                                                 6
 STAT SP IPHASW D HRMM SECON CODA AMPLIT PERI AZIMU VELO AIN AR TRES W  DIS CAZ7
 BAR2 SZ EP       1234 39.92                             170   -0.0910 23.4 183 
 BAR2 SZ ES   1   1234 54.81                             170    0.10 7 23.4 183 
 RUS  HZ EP       1234 44.43                             142    0.1110  101 175 
 RUS  HN ES   1   1235  2.26                             142   -0.12 7  101 175 
 RUS  HN I        1235  3.50         4.4 0.26            141            101 175 
 PTB  HZ EP   1   1234 47.32                             131   -0.05 7  145 258 
 PTB  HE ES   1   1235  7.84                             131    0.03 7  145 258 
 PTB  HE I        1235 14.47         3.9 0.32            127            145 258 
 CHI  HZ EP   2   1234 58.54                             116    0.07 4  248 195 
                                                                                
