 2015  922 1941 37.8 L   6.801 -73.153146.5  RSN 11 0.4 2.3LRSN                1
 GAP=136        1.01       3.0     4.2  5.6 -0.5100E+00  0.5676E+01  0.1963E+01E
 Epicentro: LOS SANTOS - SANTANDER                                             3
 ACTION:UPD 15-10-28 16:27 OP:cam  STATUS:               ID:20150922194137 L   I
 OLDACT:REG 15-09-22 23:13 OP:ar   STATUS:               ID:20150922193748     3
 2015-09-22-1937-48M.COL___334                                                 6
 STAT SP IPHASW D HRMM SECON CODA AMPLIT PERI AZIMU VELO AIN AR TRES W  DIS CAZ7
 BAR2 EZ EP       1941 57.38                             171   -0.1810 23.3 188 
 BAR2 EZ ES       1942 12.71                             171   -0.2310 23.3 188 
 BAR2 EZ I        1942 13.77        72.0 0.18            171           23.3 188 
 BRR  HZ EP       1941 59.15                             153    0.1210 70.5 299 
 BRR  HN ES       1942 16.49                             153    0.9310 70.5 299 
 BRR  HZ I        1942 17.33        33.6 0.40            150           70.5 299 
 PAM  EZ EP     C 1942  0.15                             151   -0.0110 77.8  40 
 PAM  EN ES       1942 17.43                             151   -0.1510 77.8  40 
 PAM  EZ I        1942 19.52        26.0 0.50            151           77.8  40 
 RUS  HZ EP       1942  2.00                             144    0.3210  101 176 
 RUS  HN ES       1942 20.14                             144   -0.1310  101 176 
 RUS  HZ I        1942 21.18        37.0 0.30            145            101 176 
 PTB  HZ EP       1942  4.22                             132   -0.58 9  147 259 
 PTB  HN ES       1942 25.16                             132   -0.67 9  147 259 
 PTB  HZ I        1942 27.32        15.9 0.22            131            147 259 
 OCA  HZ EP   2   1942  6.25                             130    0.06 5  160 353 
 OCA  HN ES       1942 28.29                             130   -0.02 9  160 353 
 OCA  HZ I        1942 31.08        32.3 0.16            129            160 353 
 SPBC HZ EP       1942  6.25                             129   -0.10 9  163 219 
 SPBC HN ES       1942 28.22                             129   -0.38 9  163 219 
 SPBC HZ I        1942 30.83        44.5 0.30            129            163 219 
 ZAR  HZ EP       1942 10.01                             123   -0.25 9  203 292 
 ZAR  HN ES       1942 35.84                             123    0.30 9  203 292 
 ZAR  HZ I        1942 41.73        17.8 0.12            122            203 292 
 SML  HZ EP   2   1942 13.96                             118   -0.51 4  243 335 
 SML  HN ES   2   1942 43.09                             118    0.06 4  243 335 
 SML  HZ I        1942 50.42        28.5 0.10            117            243 335 
 CHI  HZ EP       1942 15.44                             117   -0.12 8  248 195 
 CHI  HN ES       1942 45.80                             117    0.81 8  248 195 
 CHI  HZ I        1942 50.23         8.8 0.36            118            248 195 
 GUY2CHZ EP       1942 22.25                             112    0.84 7  301 235 
 GUY2CHE ES   4   1942 57.28                             112    1.88 0  301 235 
 GUY2CHZ I        1943  4.78         6.8 0.66                           301 235 
                                                                                
