 2014  722 1016 27.1 L   6.841 -73.151149.2  RSN  4 0.2 1.4LRSN                1
 GAP=256        0.50       4.4     3.8  5.5  0.1899E+01  0.1963E+01 -0.1180E+01E
 Epicentro: LOS SANTOS - SANTANDER                                             3
 ACTION:UPD 15-03-16 20:46 OP:nd   STATUS:               ID:20140722101627 L   I
 OLDACT:REG 14-07-22 20:12 OP:y    STATUS:               ID:20140722100816     3
 2014-07-22-1008-16M.COL___263                                                 6
 STAT SP IPHASW D HRMM SECON CODA AMPLIT PERI AZIMU VELO AIN AR TRES W  DIS CAZ7
 BAR2 SZ EP       1016 47.31                             169    0.1010 27.8 187 
 BAR2 SZ ES   1   1017  2.86                             169   -0.05 7 27.8 187 
 BAR2 SZ I        1017  4.01         4.6 0.18            169           27.8 187 
 PTB  HZ EP       1016 54.01                             133   -0.34 9  148 257 
 PTB  HN ES       1017 15.52                             133   -0.11 9  148 257 
 PTB  HZ I        1017 21.71         2.2 0.18            131            148 257 
 SPBC HZ EP       1016 56.29                             129    0.15 9  166 218 
 SPBC HN ES       1017 18.87                             129    0.06 9  166 218 
 SPBC HZ I        1017 20.85         3.8 0.26            131            166 218 
 ZAR  HN ES   1   1017 25.16                             123    0.35 6  202 291 
 ZAR  HZ I        1017 31.74         2.2 0.28            123            202 291 
                                                                                
