 2014  122 1003  8.8 L   6.775 -73.173144.5  RSN  5 0.1 1.3LRSN                1
 GAP=274        0.43       4.5     3.3  3.5  0.6162E+01  0.2743E+01  0.2013E+01E
 Epicentro: LOS SANTOS - SANTANDER                                             3
 ACTION:UPD 14-03-13 09:57 OP:ep   STATUS:               ID:20140122100308 L   I
 OLDACT:REG 14-01-22 15:27 OP:stll STATUS:               ID:20140122095818     3
 2014-01-22-0958-18M.COL___234                                                 6
 STAT SP IPHASW D HRMM SECON CODA AMPLIT PERI AZIMU VELO AIN AR TRES W  DIS CAZ7
 BAR2 SZ ES       10 3 43.53                             172    0.1810 20.2 183 
 BAR2 SZ I        10 3 44.58         6.2 0.30            163           20.2 183 
 RUS  HZ EP       10 3 32.13                             144   -0.1010 98.0 174 
 RUS  HN ES       10 3 50.35                             144   -0.1610 98.0 174 
 PTB  HZ EP       10 3 35.25                             132   -0.08 9  144 260 
 PTB  HN ES       10 3 55.99                             132   -0.05 9  144 260 
 PTB  HZ I        10 4  2.19         2.3 0.52            128            144 260 
 SPBC HN ES   1   10 3 58.74                             130    0.09 7  159 219 
 SPBC HZ I        10 4  4.31         3.2 0.18            126            159 219 
 CHI  HZ EP       10 3 46.29                             117    0.26 8  245 195 
 CHI  HZ I        10 3 49.05         1.0 0.42            116            245 195 
                                                                                
