 2014  322 1012 41.9 L   6.747 -73.132151.3  RSN  6 0.4 1.7LRSN                1
 GAP=222        0.79       5.7     6.6  8.6 -0.3790E+01  0.1233E+02 -0.1412E+02E
 Epicentro: LOS SANTOS - SANTANDER                                             3
 OLDACT:DUP 14-03-22 19:30 OP:fm   STATUS:               ID:20140322100814d    3
 ACTION:UPD 14-04-09 23:19 OP:nd   STATUS:               ID:20140322101241 L   I
 OLDACT:UP  14-03-22 19:36 OP:fm   STATUS:               ID:20140322100814d    3
 2014-03-22-1008-13M.COL___234                                                 6
 STAT SP IPHASW D HRMM SECON CODA AMPLIT PERI AZIMU VELO AIN AR TRES W  DIS CAZ7
 BAR2 SZ EP   1   1013  2.63                             173    0.54 7 18.0 198 
 BAR2 SZ ES   1   1013 17.84                             173   -0.01 7 18.0 198 
 BAR2 SZ I        1013 27.97        10.4 1.40            174           18.0 198 
 PTB  HZ EP   1   1013  9.43                             133    0.08 7  148 261 
 PTB  HN ES   1   1013 30.16                             133   -0.61 7  148 261 
 PTB  SZ I        1013 32.22         4.5 1.62            142            148 261 
 SPBC HZ EP   1   1013  9.65                             131   -0.84 7  160 221 
 SPBC HE ES   2   1013 32.97                             131    0.18 5  160 221 
 SPBC SZ I        1013 40.12         4.9 0.30            140            160 221 
 ZAR  HZ EP   1   1013 15.54                             123    0.47 6  208 293 
 ZAR  HN ES   1   1013 41.21                             123    0.26 6  208 293 
 ZAR  SZ I        1013 46.67         4.7 0.50            132            208 293 
 NOR  HE ES   1   1013 46.11                             120    0.45 6  233 236 
 SML  HZ EP   1   1013 19.24                             118   -0.23 6  250 336 
 SML  HN ES   2   1013 48.44                             118   -0.35 4  250 336 
 SML  SZ I        1013 49.92         4.3 1.24            126            250 336 
                                                                                
