 2012 1022 1256 11.9 L   6.799 -73.125148.9  RSN  5 0.1 1.9LRSN                1
 GAP=139        0.40       2.7     2.8  4.7  0.1075E+01  0.3610E+01  0.2872E+01E
 Epicentro: LOS SANTOS - SANTANDER                                             3
 ACTION:UPD 12-11-22 17:05 OP:ep   STATUS:               ID:20121022125611 L   I
 2012-10-22-1250-00M.COL___231                                                 6
 STAT SP IPHASW D HRMM SECON CODA AMPLIT PERI AZIMU VELO AIN AR TRES W  DIS CAZ7
 BAR2 SZ EP       1256 31.81                             170   -0.1310 23.8 195 
 BAR2 SZ I        1256 49.97        20.9 0.37                          23.8 195 
 BRR  HZ EP       1256 33.72                             152    0.1910 73.3 298 
 BRR  HN ES   1   1256 50.32                             152   -0.06 7 73.3 298 
 BRR  HZ I        1256 55.47        21.2 0.47                          73.3 298 
 PAM  SZ EP   1   1256 34.54                             152    0.14 7 76.0  38 
 PAM  SE ES       1256 51.87                             152   -0.0510 76.0  38 
 PAM  SZ I        1256 54.04         9.3 0.14                          76.0  38 
 RUS  HZ EP   1   1256 35.76                             144   -0.22 7  100 177 
 RUS  HE ES   1   1256 54.91                             144    0.18 7  100 177 
 RUS  HE I        1256 55.74        10.3 0.48                           100 177 
 ZAR  HN ES   1   1257 10.36                             123   -0.08 6  206 292 
                                                                                
