 2016  522 1434 16.0 L   6.764 -73.140142.3  RSN  7 0.4 1.9LRSN                1
 GAP=235        1.08       5.1     5.6  6.9  0.7541E+01  0.1015E+02  0.1732E+01E
 Epicentro: LOS SANTOS - SANTANDER                                             3
 ACTION:UPD 16-08-18 17:48 OP:cam  STATUS:               ID:20160522143416 L   I
 OLDACT:DUP 16-05-22 23:16 OP:drio STATUS:               ID:20160522142745d    3
 2016-05-22-1427-44M.COL___298                                                 6
 STAT SP IPHASW D HRMM SECON CODA AMPLIT PERI AZIMU VELO AIN AR TRES W  DIS CAZ7
 BAR2 EZ EP       1434 35.10                             172   -0.0810 19.6 194 
 BAR2 EZ ES       1434 50.11                             172    0.0010 19.6 194 
 BAR2 EZ I        1434 51.28        13.7 0.24            169           19.6 194 
 BRR  HZ EP       1434 36.85                             151   -0.1010 73.7 301 
 BRR  HN ES       1434 53.73                             151    0.4610 73.7 301 
 BRR  HZ I        1434 58.23        11.1 0.14            150           73.7 301 
 RUS  HZ EP       1434 39.21                             144    0.0510 96.6 176 
 RUS  HE ES       1434 56.96                             144   -0.2410 96.6 176 
 RUS  HZ I        1434 59.03         5.7 0.30            146           96.6 176 
 PTB  HZ EP       1434 41.73                             131   -0.98 9  148 260 
 PTB  HN ES       1435  2.89                             131   -0.63 9  148 260 
 PTB  HZ I        1435  5.76         8.0 0.22            132            148 260 
 SPBC HZ EP       1434 44.18                             129    0.17 9  161 220 
 SPBC HE ES       1435  6.44                             129    0.60 9  161 220 
 SPBC HZ I        1435 12.20        11.4 0.22            130            161 220 
 ZAR  HZ EP       1434 49.20                             121    0.73 8  206 293 
 ZAR  HN ES       1435 13.68                             121   -0.09 8  206 293 
 ZAR  HZ I        1435 18.74        13.9 0.36            123            206 293 
 NOR  HZ EP       1434 51.58                             118    0.21 8  233 235 
 NOR  HN ES       1435 19.05                             118    0.11 8  233 235 
 NOR  HZ I        1435 21.13         6.3 0.20            119            233 235 
                                                                                
