 2012 1222 1316 24.6 L   6.703 -73.147150.4  RSN  6 0.4 2.0LRSN                1
 GAP=182        0.86       6.7     6.6  6.8  0.2050E+02  0.7984E+00 -0.1025E+02E
 Epicentro: VILLANUEVA - SANTANDER                                             3
 ACTION:UPD 13-01-04 14:29 OP:ep   STATUS:               ID:20121222131624 L   I
 2012-12-22-1310-00M.COL___238                                                 6
 STAT SP IPHASW D HRMM SECON CODA AMPLIT PERI AZIMU VELO AIN AR TRES W  DIS CAZ7
 BAR2 SZ EP       1316 44.71                             175    0.0610 12.8 198 
 BAR2 SZ ES       1316 59.87                             175   -0.4010 12.8 198 
 BAR2 SZ I        1317  1.00        29.0 0.19                          12.8 198 
 BRR  HZ IP     C 1316 46.89                             151    0.3010 76.8 306 
 BRR  HE ES       1317  4.22                             151    0.4910 76.8 306 
 BRR  HZ I        1317  8.76        14.8 0.22                          76.8 306 
 RUS  HZ EP   1   1316 48.23                             148    0.12 7 89.9 176 
 RUS  HE ES   1   1317  6.57                             148    0.14 7 89.9 176 
 RUS  HE I        1317  8.16        23.0 0.19                          89.9 176 
 PTB  HZ EP   1   1316 51.68                             133   -0.13 7  146 263 
 PTB  HE ES   1   1317 12.48                             133   -0.54 7  146 263 
 PTB  HZ I        1317 13.53        13.5 0.23                           146 263 
 OCA  HZ EP   1   1316 53.49                             129   -0.81 7  171 354 
 OCA  HZ I        1317 19.01         8.3 0.20                           171 354 
 ZAR  HZ EP   1   1316 58.31                             123    0.51 6  208 295 
 ZAR  HE ES   1   1317 23.41                             123   -0.27 6  208 295 
 ZAR  HZ I        1317 29.69        11.2 0.43                           208 295 
                                                                                
