 2014  822 1944 21.4 L   6.732 -73.228148.1  RSN  4 0.2 1.5LRSN                1
 GAP=214        0.65       5.3     5.1  5.4  0.1429E+02  0.5850E+01  0.3269E+01E
 Epicentro: VILLANUEVA - SANTANDER                                             3
 ACTION:UPD 14-09-15 21:52 OP:nd   STATUS:               ID:20140822194421 L   I
 OLDACT:UP  14-08-22 21:57 OP:cam  STATUS:               ID:20140822194000     3
 OLDACT:REG 14-08-22 20:36 OP:cam  STATUS:               ID:20140822194000     3
 2014-08-22-1940-00M.COL___285                                                 6
 STAT SP IPHASW D HRMM SECON CODA AMPLIT PERI AZIMU VELO AIN AR TRES W  DIS CAZ7
 BAR2 SZ ES       1944 56.21                             173   -0.4110 16.3 162 
 BRR  HZ EP       1944 42.52                             154   -0.0710 67.6 308 
 BRR  HN ES       1944 59.49                             154    0.3510 67.6 308 
 BRR  HN I        1945  3.86        12.1 0.24            152           67.6 308 
 RUS  HZ EP       1944 45.06                             146    0.1410 94.2 170 
 RUS  HE ES       1945  3.47                             146    0.1810 94.2 170 
 RUS  HZ I        1945  4.50         4.0 0.34            148           94.2 170 
 PTB  HZ EP       1944 47.48                             135   -0.15 9  137 261 
 PTB  HN ES       1945  8.04                             135   -0.07 9  137 261 
 PTB  HZ I        1945 13.63         2.6 0.18            134            137 261 
                                                                                
