 2013  622 1716  1.9 L   6.711 -73.139146.3  RSN  4 0.3 1.6LRSN                1
 GAP=255        0.68       7.9     6.0  8.4 -0.8021E+01  0.2343E+01  0.2376E+02E
 Epicentro: JORDAN - SANTANDER                                                 3
 ACTION:UPD 14-01-08 09:56 OP:ep   STATUS:               ID:20130622171601 L   I
 OLDACT:REG 13-06-22 16:05 OP:y    STATUS:               ID:20130622170959     3
 2013-06-22-1709-59M.COL___267                                                 6
 STAT SP IPHASW D HRMM SECON CODA AMPLIT PERI AZIMU VELO AIN AR TRES W  DIS CAZ7
 BAR2 SZ EP       1716 21.27                             174   -0.1310 14.0 200 
 BAR2 SZ ES   1   1716 36.61                             174   -0.02 7 14.0 200 
 BRR  HZ EP   1   1716 23.62                             151    0.22 7 77.0 305 
 BRR  HN ES       1716 40.37                             151    0.1710 77.0 305 
 BRR  HZ I        1716 42.45         6.7 0.32            147           77.0 305 
 PTB  HZ EP   2   1716 28.49                             132   -0.30 5  147 263 
 PTB  HN ES   1   1716 49.15                             132   -0.64 7  147 263 
 PTB  HZ I        1716 53.54         6.0 0.42            131            147 263 
 NOR  HN ES   1   1717  5.15                             119    0.59 6  230 237 
                                                                                
