 2010  622 1755 38.0 L   6.804 -73.133146.8  RSN  5 0.3 1.1LRSN                1
 GAP=157        0.58       4.2     8.9  8.8 -0.9820E+01 -0.2108E+02  0.1907E+01E
 Epicentro: LOS SANTOS - SANTANDER                                             3
 ACTION:UP  10-08-24 10:12 OP:vdl  STATUS:               ID:20100622175538 L   I
 2010-06-22-1753-39S.COL___118                                                 6
 STAT SP IPHASW D HRMM SECON CODA AMPLIT PERI AZIMU VELO SNR AR TRES W  DIS CAZ7
 BRR  HZ EP   1   1755 59.31                             152     0.0 7   72 298 
 BRR  HE ES   2   1756 16.08                             152     0.1 5   72 298 
 RUS  HZ EP   1   1756  2.18                             144     0.3 7  101 177 
 RUS  HN ES   2   1756 20.18                             144    -0.4 5  101 177 
 RUS  HZ I        1756 21.39         1.9 0.31                           101 177 
 BRI  SZ EP   1   1756  1.70                             142    -0.3 7  108  20 
 BRI  SZ ES   2   1756 21.31                             142     0.7 5  108  20 
 GUE  SZ EP   1   1756  2.62                             140    -0.2 7  116  11 
 GUE  SZ ES   2   1756 21.59                             140    -0.5 5  116  11 
 GRA  SZ EP   1   1756  3.52                             137     0.2 7  125  17 
                                                                                
