 2012  922 1831 54.4 L   6.532 -73.523109.7  RSN  4 0.2 1.8LRSN                1
 GAP=197        0.41       3.0     4.2  4.9  0.1067E+01  0.3934E+01 -0.6182E+00E
 Epicentro: EL CARMEN DE CHUCURI - SANTANDER                                   3
 ACTION:UPD 12-10-22 14:20 OP:ep   STATUS:               ID:20120922183154 L   I
 2012-09-22-1830-00M.COL___221                                                 6
 STAT SP IPHASW D HRMM SECON CODA AMPLIT PERI AZIMU VELO AIN AR TRES W  DIS CAZ7
 BAR2 SZ EP   1   1832 10.70                             159    0.42 7 38.3  80 
 BAR2 SZ ES   1   1832 22.55                             159   -0.09 7 38.3  80 
 BAR2 SZ I        1832 24.43        96.6 0.43                          38.3  80 
 BRR  HZ EP       1832 11.49                             146   -0.0510 67.0 342 
 BRR  HE ES   2   1832 24.86                             146   -0.01 5 67.0 342 
 BRR  HZ I        1832 25.24         9.8 0.30                          67.0 342 
 RUS  HZ EP   1   1832 13.48                             139   -0.14 7 85.8 145 
 RUS  HE ES   2   1832 28.57                             139   -0.02 5 85.8 145 
 PAM  SZ EP   1   1832 17.23                             127   -0.11 7  128  45 
 PAM  SZ I        1832 19.22         4.1 0.12                           128  45 
 PAM  SN ES   1   1832 35.21                             127    0.01 7  128  45 
                                                                                
