 2014  622 1222  4.0 L   6.852 -73.116145.1  RSN 17 0.5 2.5LRSN                1
 GAP=138        1.07       3.3     5.0  6.7 -0.3185E+01  0.1660E+02 -0.1059E+01E
 Epicentro: LOS SANTOS - SANTANDER                                             3
 ACTION:UPD 14-07-01 22:55 OP:nd   STATUS:               ID:20140622122204 L   I
 OLDACT:UP  14-06-22 22:37 OP:mh   STATUS:               ID:20140622121810     3
 OLDACT:UP  14-06-22 22:35 OP:mh   STATUS:               ID:20140622121810     3
 OLDACT:REG 14-06-22 21:03 OP:mh   STATUS:               ID:20140622121810     3
 2014-06-22-1218-10M.COL___259                                                 6
 STAT SP IPHASW D HRMM SECON CODA AMPLIT PERI AZIMU VELO AIN AR TRES W  DIS CAZ7
 BAR2 SZ EP     C 1222 23.94                             168    0.2010 29.6 194 
 BAR2 SZ ES       1222 39.11                             168    0.0110 29.6 194 
 BAR2 SZ I        1222 44.56        43.8 0.15            166           29.6 194 
 PAM  SZ EP       1222 26.50                             153    0.6810 70.9  40 
 PAM  SN ES   1   1222 43.24                             153    0.44 7 70.9  40 
 PAM  SZ I        1222 45.55        34.8 0.46            159           70.9  40 
 RUS  HZ EP       1222 28.21                             142    0.0710  106 178 
 RUS  HN ES       1222 46.33                             142   -0.6010  106 178 
 PTB  HZ EP       1222 30.52                             131   -0.84 9  152 257 
 PTB  HN ES   4   1222 51.08                             131   -1.59 0  152 257 
 PTB  HZ I        1222 54.70        36.7 0.26            131            152 257 
 OCA  HZ EP       1222 31.61                             130   -0.20 9  155 352 
 OCA  HN ES   1   1222 53.08                             130   -0.40 7  155 352 
 OCA  HZ I        1222 57.52        46.8 0.12            134            155 352 
 ZAR  HZ EP   1   1222 36.27                             122   -0.28 6  205 290 
 ZAR  HN ES       1223  2.66                             122    0.76 9  205 290 
 ZAR  HZ I        1223  8.00        52.2 0.42            124            205 290 
 SML  HZ EP       1222 39.90                             118   -0.33 8  240 334 
 SML  HN ES   1   1223  7.73                             118   -0.72 6  240 334 
 SML  HZ I        1223 14.95        47.5 0.26            121            240 334 
 NOR  HZ EP       1222 39.86                             118   -0.52 8  241 234 
 NOR  HN ES   1   1223  8.49                             118   -0.24 6  241 234 
 NOR  HZ I        1223 15.07        17.7 0.29            120            241 234 
 CHI  HZ EP   2   1222 42.14                             116   -0.26 4  255 196 
 CHI  HN ES   2   1223 12.67                             116    0.35 4  255 196 
 ROSC BZ EP   4   1222 44.13                             116    1.28 0  259 211 
 ROSC BN ES   4   1223 13.00                             116   -0.11 0  259 211 
 ROSC BZ I        1223 21.24        19.8 0.40            119            259 211 
 HEL  HZ EP       1222 45.30                             114    0.56 7  277 255 
 HEL  HN ES   1   1223 16.03                             114   -0.45 6  277 255 
 URE  HZ EP   4   1222 47.06                             113    1.87 0  285 291 
 URE  HE ES   4   1223 20.80                             113    3.51 0  285 291 
 URE  HZ I        1223 23.91        26.7 0.25            115            285 291 
 GUY2CHZ EP       1222 48.57                             112    0.27 7  307 234 
 GUY2CHN ES       1223 23.84                             112    1.02 7  307 234 
 GUY2CHZ I        1223 32.24        12.3 0.46                           307 234 
 RREF HZ EP   4   1222 49.84                             110   -1.03 0  328 229 
 RREF HN ES   4   1223 29.42                             110    2.03 0  328 229 
 RREF HZ I        1223 34.77        11.7 0.33            113            328 229 
 TOL  SZ EP   1   1222 54.14                             109    1.13 5  350 224 
 TOL  SN ES       1223 30.84                             109   -0.36 6  350 224 
 TOL  SZ I        1223 37.11        19.2 0.68            111            350 224 
 PRA  HZ EP       1222 58.15                             106   -0.16 6  399 210 
 PRA  HN ES   1   1223 40.77                             106    0.13 4  399 210 
 PRA  HZ I        1223 48.49         9.0 0.39            109            399 210 
 SJC  HZ EP   4   1222 57.24                             106   -2.00 0  406 326 
 SJC  HN ES   4   1223 37.11                             106   -5.18 0  406 326 
 SJC  HZ I        1223 42.64         5.2 0.28            108            406 326 
                                                                                
