 2012  122 1408 39.0 L   6.774 -73.224140.1  RSN  5 0.4 1.7LRSN                1
 GAP=124        1.00       7.6     8.7  9.7  0.2307E+02  0.1008E+02 -0.8614E+01E
 Epicentro: ZAPATOCA - SANTANDER                                               3
 ACTION:UP  12-02-03 08:19 OP:REBC STATUS:               ID:20120122140839 L   I
 2012-01-22-1406-35S.COL___154                                                 6
 STAT SP IPHASW D HRMM SECON CODA AMPLIT PERI AZIMU VELO SNR AR TRES W  DIS CAZ7
 BAR2 SZ EP   1   14 8 58.07                             171     0.2 7   21 167 
 BAR2 SZ ES   1   14 9 12.19                             171    -0.4 7   21 167 
 BAR2 SZ I        14 9 14.86        11.7 0.25                            21 167 
 BRR  HZ EP   1   14 8 59.99                             153     0.8 7   65 304 
 BRR  HZ I        14 9  0.27        27.6 0.16                            65 304 
 BRR  HE ES   1   14 9 15.34                             153     0.4 7   65 304 
 PAM  SZ EP   1   14 9  0.83                             147    -0.3 7   85  43 
 PAM  SZ I        14 9  1.16         5.7 0.19                            85  43 
 PAM  SN ES   2   14 9 18.18                             147    -0.2 5   85  43 
 RUS  HZ EP   1   14 9  2.24                             143     0.2 7   99 171 
 RUS  HN ES   1   14 9 19.89                             143    -0.1 7   99 171 
 RUS  HZ I        14 9 22.00         5.0 0.40                            99 171 
 ZAR  HZ EP   1   14 9  9.66                             122    -0.7 6  197 294 
 ZAR  HN ES   2   14 9 34.24                             122    -0.6 4  197 294 
 ZAR  HZ I        14 9 42.21         6.2 0.13                           197 294 
                                                                                
