 2015  322 1646 57.5 L   6.805 -73.149149.8  RSN 10 0.4 2.2LRSN                1
 GAP=136        1.07       3.1     4.3  5.9 -0.2287E+01  0.6641E+01 -0.2108E+01E
 Epicentro: LOS SANTOS - SANTANDER                                             3
 ACTION:UPD 15-04-30 16:28 OP:nd   STATUS:               ID:20150322164657 L   I
 OLDACT:REG 15-03-22 20:38 OP:cam  STATUS:               ID:20150322163748     3
 2015-03-22-1637-48M.COL___284                                                 6
 STAT SP IPHASW D HRMM SECON CODA AMPLIT PERI AZIMU VELO AIN AR TRES W  DIS CAZ7
 BAR2 EZ IP     D 1647 17.72                             171    0.0710 23.9 189 
 BAR2 EZ ES       1647 33.74                             171    0.4010 23.9 189 
 BAR2 EZ I        1647 35.51        14.5 0.28            170           23.9 189 
 BRR  HZ EP     D 1647 19.65                             153    0.5710 70.6 298 
 BRR  HN ES       1647 35.99                             153    0.1010 70.6 298 
 BRR  HZ I        1647 42.26        20.7 0.28            151           70.6 298 
 PAM  SZ EP       1647 20.52                             152    0.3710 77.1  40 
 PAM  SN ES       1647 37.90                             152    0.1010 77.1  40 
 PAM  SE I        1647 39.72        37.9 0.56            156           77.1  40 
 RUS  HZ EP       1647 21.49                             144   -0.2210  101 176 
 RUS  HE ES       1647 40.08                             144   -0.5010  101 176 
 RUS  HZ I        1647 43.11        10.2 0.40            149            101 176 
 PTB  HZ EP       1647 24.01                             133   -0.79 9  148 259 
 PTB  HN ES       1647 45.71                             133   -0.37 9  148 259 
 PTB  HZ I        1647 51.43        13.3 0.12            133            148 259 
 OCA  HZ EP       1647 25.98                             131   -0.11 9  160 353 
 OCA  HN ES       1647 47.90                             131   -0.47 9  160 353 
 OCA  HZ I        1647 52.27        32.0 0.20            133            160 353 
 SPBC HZ EP       1647 26.58                             130    0.22 9  163 219 
 SPBC HN ES       1647 48.75                             130   -0.10 9  163 219 
 SPBC HZ I        1647 51.31        26.9 0.34            132            163 219 
 ZAR  HZ EP       1647 31.24                             123    1.06 9  204 292 
 ZAR  HN ES       1647 55.97                             123    0.32 9  204 292 
 ZAR  HZ I        1648  2.78        12.6 0.32            124            204 292 
 NOR  HZ EP       1647 33.54                             119    0.05 8  235 234 
 NOR  HN ES       1648  1.62                             119    0.06 8  235 234 
 NOR  HZ I        1648  9.17        10.0 0.18            121            235 234 
 SML  HZ EP       1647 33.80                             118   -0.50 8  243 335 
 SML  HE ES       1648  2.59                             118   -0.40 8  243 335 
 SML  HZ I        1648 10.10        16.5 0.22            120            243 335 
                                                                                
