 2014  422 1626 48.8 L   6.804 -73.118143.7  RSN 14 0.5 2.4LRSN                1
 GAP=140        1.03       2.7     3.9  6.7 -0.2210E+01  0.9261E+01 -0.3236E+00E
 Epicentro: LOS SANTOS - SANTANDER                                             3
 ACTION:UPD 14-05-13 23:10 OP:nd   STATUS:               ID:20140422162648 L   I
 OLDACT:REG 14-04-22 20:31 OP:nd   STATUS:               ID:20140422162044     3
 2014-04-22-1620-44M.COL___242                                                 6
 STAT SP IPHASW D HRMM SECON CODA AMPLIT PERI AZIMU VELO AIN AR TRES W  DIS CAZ7
 PAM  SZ EP       1627 11.30                             151    0.6010 75.1  38 
 PAM  SN ES       1627 28.11                             151    0.3610 75.1  38 
 PAM  SZ I        1627 30.70        60.5 0.50            157           75.1  38 
 RUS  HZ EP       1627 12.39                             143   -0.0210  101 178 
 RUS  HN ES       1627 30.85                             143    0.0610  101 178 
 RUS  HZ I        1627 32.34        20.0 0.48            147            101 178 
 PTB  HZ EP       1627 15.14                             131   -0.79 9  151 259 
 PTB  HN ES       1627 36.69                             131   -0.37 9  151 259 
 PTB  HZ I        1627 42.40        38.0 0.22            133            151 259 
 OCA  HZ EP       1627 17.02                             129    0.03 9  160 352 
 OCA  HN ES       1627 38.69                             129   -0.25 9  160 352 
 OCA  HZ I        1627 46.96        28.2 0.36            133            160 352 
 SPBC HZ EP       1627 17.35                             128   -0.06 9  165 220 
 SPBC HN ES       1627 39.74                             128    0.06 9  165 220 
 SPBC HZ I        1627 44.62        48.5 0.22            131            165 220 
 ZAR  HZ EP       1627 21.63                             121    0.19 8  207 292 
 ZAR  HN ES       1627 46.99                             121    0.13 8  207 292 
 ZAR  HZ I        1627 52.87        39.2 0.32            124            207 292 
 NOR  HZ EP       1627 24.46                             118   -0.29 8  237 235 
 NOR  HN ES       1627 52.06                             118   -0.70 8  237 235 
 NOR  HZ I        1627 59.70        20.5 0.26            121            237 235 
 SML  HZ EP       1627 25.34                             117   -0.12 8  245 335 
 SML  HN ES       1627 53.34                             117   -0.67 8  245 335 
 CHI  HZ EP       1627 26.54                             116   -0.03 8  250 196 
 CHI  HN ES       1627 55.56                             116   -0.43 8  250 196 
 CHI  HZ I        1628  1.91        10.5 0.30            120            250 196 
 HEL  HZ EP       1627 30.20                             114    0.90 8  275 256 
 HEL  HN ES       1628  1.23                             114    0.38 8  275 256 
 HEL  HZ I        1628  7.26        14.0 0.38            117            275 256 
 GUY2CHZ EP   2   1627 31.99                             112   -0.68 4  304 235 
 GUY2CHN ES   2   1628  7.75                             112    0.89 4  304 235 
 RREF HZ EP   4   1627 35.93                             110    0.73 0  324 230 
 RREF HN ES   4   1628 11.63                             110    0.27 0  324 230 
 RREF HZ I        1628 20.27        17.4 0.48            113            324 230 
 CBOC HZ EP       1627 36.27                             109    0.24 7  337 252 
 CBOC HN ES       1628 14.02                             109    1.19 7  337 252 
 SJC  HZ EP   4   1627 42.22                             105   -2.28 0  411 327 
 SJC  HN ES   4   1628 23.68                             105   -4.22 0  411 327 
 SJC  HZ I        1628 28.19         4.3 0.46            108            411 327 
                                                                                
