 2015 1022 1645 42.8 L   6.566 -73.495112.2  RSN  7 0.3 1.9LRSN                1
 GAP=149        0.80       3.6     3.7  7.1 -0.5070E+01  0.1502E+02 -0.8054E+01E
 Epicentro: EL CARMEN - SANTANDER                                              3
 ACTION:UPD 15-12-22 20:42 OP:cam  STATUS:               ID:20151022164542 L   I
 OLDACT:REG 15-10-22 21:21 OP:dnl  STATUS:               ID:20151022163750     3
 2015-10-22-1637-50M.COL___322                                                 6
 STAT SP IPHASW D HRMM SECON CODA AMPLIT PERI AZIMU VELO AIN AR TRES W  DIS CAZ7
 BAR2 EZ EP       1645 58.85                             162    0.0310 34.7  85 
 BAR2 EZ ES       1646 11.53                             162    0.2510 34.7  85 
 BAR2 EZ I        1646 12.76        61.1 0.34            166           34.7  85 
 BRR  HZ EP       1645 59.83                             148   -0.1910 64.5 338 
 PAM  EZ EP       1646  5.78                             129    0.3210  123  46 
 PAM  EE ES       1646 22.68                             129   -0.4210  123  46 
 PAM  EZ I        1646 24.56         6.7 0.48            132            123  46 
 ZAR  HZ EP       1646 11.54                             117    0.61 9  182 304 
 ZAR  HE ES       1646 32.86                             117    0.02 9  182 304 
 ZAR  HZ I        1646 35.52        12.1 0.44            118            182 304 
 NOR  HZ EP       1646 11.75                             116    0.10 9  188 234 
 NOR  HN ES       1646 33.73                             116   -0.39 9  188 234 
 NOR  HZ I        1646 37.21         5.3 0.74            118            188 234 
 SML  HZ EP       1646 18.66                             108   -0.50 8  255 346 
 SML  HE ES       1646 47.55                             108    0.06 8  255 346 
 SML  HZ I        1646 55.18        10.8 0.26            110            255 346 
 MON  HZ EP   4   1646 28.08                             102   -1.33 0  342 316 
 MON  HN ES   4   1647  4.11                             102   -1.62 0  342 316 
 MON  HZ I        1647  6.17         2.2 0.22            104            342 316 
                                                                                
