 2017  722 1108  3.0 L   6.687 -73.248130.8  RSN  4 0.4 1.5LRSN                1
 GAP=208        0.89       9.2     8.1  7.3  0.5561E+02 -0.6037E+01 -0.2372E+02E
 Epicentro: BARICHARA - SANTANDER                                              3
 ACTION:UPD 17-08-30 15:35 OP:rebc STATUS:               ID:20170722110803 L   I
 OLDACT:REG 17-07-22 19:03 OP:lv   STATUS:               ID:20170722105746     3
 2017-07-22-1058-00M.COL___383                                                 6
 STAT SP IPHASW D HRMM SECON CODA AMPLIT PERI AZIMU VELO AIN AR TRES W  DIS CAZ7
 BAR2 EZ EP       11 8 20.12                             174   -0.5510 12.7 145 
 BAR2 EZ ES       11 8 34.73                             174    0.3010 12.7 145 
 BAR2 EZ I        11 8 35.62         8.1 0.17            175           12.7 145 
 RUS  HZ EP       11 8 25.00                             144    0.4810 89.7 168 
 RUS  HN ES       11 8 40.99                             144   -0.2910 89.7 168 
 PTB  HZ EP   9   11 8 26.24                             131   -1.33 0  135 263 
 PTB  HN ES       11 8 45.56                                    0.1710  135 263 
 ZAR  HZ EP       11 8 34.19                             120    0.20 9  199 297 
 ZAR  HN ES       11 8 58.01                             120   -0.13 9  199 297 
                                                                                
