 2013  622 1659 44.9 L   6.769 -73.131142.4  RSN  6 0.3 1.9LRSN                1
 GAP=140        0.62       3.8     4.5  4.9 -0.6082E+01  0.4165E+01  0.2928E+01E
 Epicentro: LOS SANTOS - SANTANDER                                             3
 ACTION:UPD 14-01-08 09:56 OP:ep   STATUS:               ID:20130622165944 L   I
 OLDACT:UP  13-06-22 19:11 OP:cam  STATUS:               ID:20130622165848     3
 OLDACT:REG 13-06-22 19:06 OP:cam  STATUS:               ID:20130622165848     3
 2013-06-22-1658-48M.COL___232                                                 6
 STAT SP IPHASW D HRMM SECON CODA AMPLIT PERI AZIMU VELO AIN AR TRES W  DIS CAZ7
 BAR2 SZ IP     D 17 0  4.02                             171   -0.0610 20.3 196 
 BAR2 SZ I        17 0  4.27        23.7 0.18            167           20.3 196 
 BAR2 SZ ES   1   17 0 18.96                             171   -0.07 7 20.3 196 
 GIR2 SZ EP     C 17 0  4.18                             165   -0.1110 35.0 349 
 GIR2 SZ ES   1   17 0 19.15                             165   -0.26 7 35.0 349 
 BRR  HZ EP       17 0  5.66                             151   -0.2210 74.3 300 
 BRR  HZ I        17 0 13.86        17.5 0.42            144           74.3 300 
 BRR  HE ES   1   17 0 22.93                             151    0.69 7 74.3 300 
 PAM  SZ EP     D 17 0  7.03                             150    0.1610 79.1  37 
 PAM  SN ES       17 0 23.89                             150   -0.1210 79.1  37 
 PAM  SZ I        17 0 24.46        11.2 0.32            151           79.1  37 
 RUS  HZ EP   1   17 0  8.56                             144    0.49 7 97.0 177 
 RUS  HN ES   1   17 0 26.14                             144   -0.00 7 97.0 177 
 RUS  HZ I        17 0 27.69         6.3 0.34            143           97.0 177 
 NOR  HZ EP   1   17 0 20.35                             118   -0.02 6  234 235 
 NOR  HE ES   1   17 0 47.72                             118   -0.32 6  234 235 
 NOR  HZ I        17 0 54.86         8.7 0.20            115            234 235 
                                                                                
