 2012  222 1334 26.1 L   6.822 -73.198141.8  RSN  5 0.3 1.4LRSN                1
 GAP=172        0.40       5.0     5.1  5.7  0.7031E+01  0.5070E+01  0.4918E+01E
 ACTION:UP  12-03-07 16:33 OP:epov STATUS:               ID:20120222133426 L   I
 2012-02-22-1330-00M.COL___191                                                 6
 STAT SP IPHASW D HRMM SECON CODA AMPLIT PERI AZIMU VELO AIN AR TRES W  DIS CAZ7
 BAR2 SZ EP   2   1334 44.93                             169   -0.32 5 25.5 176 
 BAR2 SZ ES   2   1335  0.79                             169    0.56 5 25.5 176 
 BAR2 SZ I        1335  1.42         7.8 0.19                          25.5 176 
 GIR2 SZ EP   2   1334 45.33                             168    0.15 5 28.4   1 
 GIR2 SZ ES   2   1334 59.94                             168   -0.15 5 28.4   1 
 BRR  HZ EP   2   1334 46.46                             154    0.03 5 64.9 299 
 BRR  HN ES   2   1335  2.09                             154   -0.23 5 64.9 299 
 RUS  HZ EP   2   1334 49.72                             142    0.08 5  104 173 
 RUS  HE ES   2   1335  7.75                             142   -0.28 5  104 173 
 RUS  HZ I        1335  9.07         2.5 0.33                           104 173 
 PTB  HZ EP   2   1334 52.38                             132    0.15 5  143 257 
 PTB  HE ES   2   1335 12.66                             132    0.02 5  143 257 
                                                                                
