 2011  522 1207 54.0 L   5.896 -73.617120.0  RSN  5 0.1 1.9LRSN                1
 GAP=265        0.43       4.0     9.3  6.5  0.2474E+02  0.4644E+02  0.1296E+02E
 Epicentro: BARBOSA - SANTANDER                                                3
 ACTION:UP  11-06-29 08:55 OP:tino STATUS:               ID:20110522120754 L   I
 2011-05-22-1205-52S.COL___141                                                 6
 STAT SP IPHASW D HRMM SECON CODA AMPLIT PERI AZIMU VELO SNR AR TRES W  DIS CAZ7
 RUS  HZ EP       12 8 12.39                             152     0.010   59  90 
 RUS  HN ES   1   12 8 26.73                             152     0.0 7   59  90 
 RUS  HZ I        12 8 28.05         8.6 0.28                            59  90 
 BAR2 SZ EP       12 8 14.24                             141     0.110   91  32 
 BAR2 SZ ES   1   12 8 29.63                             141    -0.3 7   91  32 
 BAR2 SZ I        12 8 31.32        23.3 0.30                            91  32 
 BTL  SZ EP       12 8 16.62                             132     0.010  120  19 
 BTL  SZ ES   1   12 8 34.49                             132     0.3 7  120  19 
 BRR  HZ IP       12 8 17.71                             128     0.110  134 356 
 BRR  HZ I        12 8 29.82        16.3 0.34                           134 356 
 BRR  HN ES   1   12 8 36.02                             128    -0.1 7  134 356 
 GIR2 SZ EP       12 8 18.06                             127    -0.2 9  139  20 
 GIR2 SZ ES   2   12 8 37.37                             127     0.1 5  139  20 
                                                                                
