 2014  522 1501 57.0 L   6.871 -73.173146.9  RSN  5 0.5 1.6LRSN                1
 GAP=279        0.99      11.5     7.1  9.7 -0.6757E+01  0.2879E+02 -0.3341E+01E
 Epicentro: ZAPATOCA - SANTANDER                                               3
 ACTION:UPD 15-03-16 16:59 OP:nd   STATUS:               ID:20140522150157 L   I
 OLDACT:UP  14-05-22 23:52 OP:cam  STATUS:               ID:20140522145815     3
 OLDACT:REG 14-05-22 22:36 OP:cam  STATUS:               ID:20140522145815     3
 2014-05-22-1458-15M.COL___246                                                 6
 STAT SP IPHASW D HRMM SECON CODA AMPLIT PERI AZIMU VELO AIN AR TRES W  DIS CAZ7
 BAR2 SZ EP       15 2 17.16                             168    0.2310 30.8 182 
 BAR2 SZ ES       15 2 32.75                             168    0.2710 30.8 182 
 BAR2 SZ I        15 2 33.67        12.2 0.68            146           30.8 182 
 RUS  HE ES   1   15 2 39.99                             142   -0.52 7  109 175 
 PTB  HZ EP   1   15 2 24.12                             133    0.18 7  147 256 
 PTB  HE ES       15 2 44.36                             133   -0.60 9  147 256 
 PTB  HZ I        15 2 50.82         3.4 0.12            117            147 256 
 SPBC HZ EP   1   15 2 25.64                             128   -0.35 7  167 217 
 SPBC HZ I        15 2 54.97         4.1 0.16            111            167 217 
 NOR  HZ EP   1   15 2 32.67                             118   -0.36 6  237 232 
 NOR  HE ES       15 3  1.92                             118    0.79 8  237 232 
 NOR  HZ I        15 3  7.79         2.6 0.24            105            237 232 
                                                                                
