 2010 1022 1343 20.4 L   6.826 -73.087140.0  RSN 15 0.5 3.5LRSN                1
 GAP=141        1.10       4.3     6.1  6.9 -0.5173E+01  0.6419E+01  0.7138E+01E
 Epicentro: LOS SANTOS - SANTANDER                                             3
 ACTION:UP  11-02-18 11:11 OP:tino STATUS:               ID:20101022134320 L   I
 2010-10-22-1340-05S.COL___125                                                 6
 STAT SP IPHASW D HRMM SECON CODA AMPLIT PERI AZIMU VELO SNR AR TRES W  DIS CAZ7
 BAR2 SZ IP       1343 39.76                             168     0.310   28 202 
 BAR2 SZ ES   1   1343 54.41                             168     0.1 7   28 202 
 BAR2 SZ I        1343 55.87       663.0 0.34                            28 202 
 BRR  HZ IP     C 1343 41.54                             150     0.310   76 294 
 BRR  HE ES   1   1343 57.76                             150     0.3 7   76 294 
 BRR  HZ I        1344  1.84       454.0 0.33                            76 294 
 RUS  HZ IP     C 1343 43.70                             142    -0.110  103 180 
 RUS  HN ES   1   1344  1.77                             142    -0.3 7  103 180 
 RUS  HZ I        1344  4.33       323.2 0.38                           103 180 
 GRA  SZ EP       1343 44.52                             137    -0.210  121  15 
 GRA  SZ ES   1   1344  2.92                             137    -0.8 7  121  15 
 GRA  SZ I        1344  6.83       383.1 0.30                           121  15 
 OCA  SZ EP       1343 48.43                             129     0.3 9  158 351 
 YOP  SZ IP       1343 50.54                             125     0.5 9  179 156 
 NOR  SZ EP   1   1343 56.00                             116    -0.6 6  242 235 
 NOR  SN ES   2   1344 24.28                             116    -0.5 4  242 235 
 CHI  HZ EP   1   1343 58.00                             115    -0.3 6  253 196 
 CHI  HZ I        1344 34.96       145.5 0.81                           253 196 
 ROSC BZ EP   1   1343 59.65                             115     0.8 6  259 212 
 ROSC BN ES   2   1344 29.58                             115     0.7 4  259 212 
 ROSC BZ I        1344 34.43       232.7 0.40                           259 212 
 HEL  HZ EP   1   1344  1.73                             113     0.6 6  279 256 
 HEL  HN ES   1   1344 32.07                             113    -0.8 6  279 256 
 HEL  HZ I        1344 38.92       188.6 0.10                           279 256 
 VIL  SZ EP       1344  2.62                             111    -1.2 7  306 191 
 GUY  SZ EP       1344  4.84                             111     0.3 7  308 235 
 RREF HZ EP       1344  6.79                             109    -0.3 7  329 230 
 ANIL HZ EP   1   1344 11.29                             107     0.5 5  364 225 
 ANIL HN ES   2   1344 50.03                             107     0.0 3  364 225 
 ANIL HZ I        1344 56.21       326.0 0.32                           364 225 
 PRA  HZ EP   1   1344 14.06                             105    -0.4 4  398 210 
                                                                                
