 2010  822 1715 13.8 L   6.815 -73.113151.9  RSN  4 0.0 1.3LRSN                1
 GAP=187        0.29       5.7     5.2  3.0  0.1667E+02 -0.5905E+01 -0.2413E+01E
 Epicentro: LOS SANTOS - SANTANDER                                             3
 ACTION:UP  10-09-07 10:57 OP:vdl  STATUS:               ID:20100822171513 L   I
 2010-08-22-1713-40S.COL___120                                                 6
 STAT SP IPHASW D HRMM SECON CODA AMPLIT PERI AZIMU VELO SNR AR TRES W  DIS CAZ7
 BTL  SZ EP       1715 34.15                             172     0.010   21 304 
 BTL  SZ ES       1715 49.95                             172     0.010   21 304 
 BAR2 SZ EP       1715 34.15                             170    -0.110   26 198 
 BAR2 SZ I        1715 34.58         3.7 0.17                            26 198 
 BAR2 SZ ES   2   1715 50.20                             170     0.1 5   26 198 
 BRR  HZ EP       1715 35.77                             153     0.010   74 296 
 BRR  HN ES       1715 52.83                             153     0.010   74 296 
 BRR  HZ I        1715 53.52         8.1 0.32                            74 296 
 GUE  SZ EP   2   1715 38.88                             141     0.0 5  114  10 
 GUE  SZ I        1716  0.85         1.3 0.21                           114  10 
                                                                                
