 2012  922 1919 44.3 L   6.803 -73.137138.0  RSN 10 0.3 2.4LRSN                1
 GAP=137        0.57       2.5     3.0  4.4 -0.1472E-01  0.3594E+01  0.7231E+00E
 Epicentro: LOS SANTOS - SANTANDER                                             3
 ACTION:UPD 12-10-22 14:20 OP:ep   STATUS:               ID:20120922191944 L   I
 2012-09-22-1914-40M.COL___213                                                 6
 STAT SP IPHASW D HRMM SECON CODA AMPLIT PERI AZIMU VELO AIN AR TRES W  DIS CAZ7
 BAR2 SZ EP       1920  3.11                             170    0.1410 23.9 192 
 BAR2 SZ ES   1   1920 17.05                             170   -0.51 7 23.9 192 
 BAR2 SZ I        1920 19.08        40.7 0.26                          23.9 192 
 GIR2 SZ EP       1920  2.91                             167   -0.1010 31.1 348 
 BRR  HZ EP       1920  4.69                             151    0.0710 71.8 298 
 BRR  HE ES   1   1920 21.23                             151    0.74 7 71.8 298 
 BRR  HZ I        1920 23.75        45.0 0.20                          71.8 298 
 PAM  SZ EP       1920  5.60                             150   -0.0110 76.5  39 
 PAM  SE ES   1   1920 22.10                             150   -0.15 7 76.5  39 
 PAM  SZ I        1920 24.95        43.8 0.50                          76.5  39 
 RUS  HZ EP       1920  7.26                             142   -0.0210  101 177 
 RUS  HN ES       1920 25.34                             142    0.1110  101 177 
 PTB  HE ES   2   1920 31.09                             130   -0.23 5  149 259 
 ZAR  HZ EP   1   1920 16.22                             120   -0.07 6  205 292 
 ZAR  HE ES   1   1920 40.79                             120   -0.48 6  205 292 
 ZAR  HZ I        1920 46.58        37.5 0.46                           205 292 
 NOR  SN ES   1   1920 47.21                             117   -0.06 6  236 235 
 CHI  HZ EP   1   1920 21.73                             115    0.12 6  249 195 
 CHI  HN ES   1   1920 50.59                             115   -0.15 6  249 195 
 CHI  HZ I        1920 59.33        10.8 0.28                           249 195 
 HEL  HZ EP   1   1920 24.42                             113    0.22 6  273 256 
 HEL  HZ I        1921  2.11        16.2 0.27                           273 256 
                                                                                
