 2016  922 1745 45.3 L   6.829 -73.179146.0  RSN  4 0.1 1.4LRSN                1
 GAP=277        0.38       3.5     2.5  3.4  0.4494E+00  0.1364E+01 -0.4492E+00E
 Epicentro: ZAPATOCA - SANTANDER                                               3
 ACTION:UPD 17-08-17 21:15 OP:lp   STATUS:               ID:20160922174545 L   I
 OLDACT:DUP 16-09-23 01:46 OP:ar   STATUS:               ID:20160922173746d    3
 2016-09-22-1738-00M.COL___366                                                 6
 STAT SP IPHASW D HRMM SECON CODA AMPLIT PERI AZIMU VELO AIN AR TRES W  DIS CAZ7
 BAR2 EZ EP       1746  4.98                             169   -0.0110 26.2 181 
 BAR2 EZ ES       1746 20.50                             169    0.1310 26.2 181 
 BAR2 EZ I        1746 30.78         5.3 0.44            176           26.2 181 
 RUS  HZ EP       1746  9.28                             143   -0.0210  104 174 
 RUS  HE ES       1746 27.87                             143   -0.1710  104 174 
 RUS  HZ I        1746 29.65         2.0 0.26            155            104 174 
 PTB  HZ EP   2   1746 12.03                             133    0.04 5  145 257 
 PTB  HE ES       1746 32.68                             133   -0.15 9  145 257 
 PTB  HZ I        1746 40.31         4.3 0.38            138            145 257 
 SPBC HZ EP       1746 13.85                             129    0.04 9  163 217 
 SPBC HE ES       1746 36.25                             129    0.18 9  163 217 
 SPBC HZ I        1746 38.48         4.9 0.18            138            163 217 
                                                                                
