 2017  122 1248 30.2 L   6.399 -73.689108.1  RSN  5 0.2 1.2LRSN                1
 GAP=151        0.53       2.5     2.1  4.8  0.6016E+00  0.7532E+00  0.9214E+00E
 Epicentro: SANTA HELENA DEL OPON - SANTANDER                                  3
 ACTION:UPD 17-05-22 16:02 OP:jn   STATUS:               ID:20170122124830 L   I
 OLDACT:REG 17-01-22 20:43 OP:cog  STATUS:               ID:20170122124748     3
 2017-01-22-1248-00M.COL___346                                                 6
 STAT SP IPHASW D HRMM SECON CODA AMPLIT PERI AZIMU VELO AIN AR TRES W  DIS CAZ7
 BAR2 EZ EP       1248 47.14                             149    0.0810 59.9  69 
 BAR2 EZ ES       1248 59.89                             149   -0.2810 59.9  69 
 BAR2 EZ I        1249  1.68         4.0 0.34            151           59.9  69 
 BRR  HZ EP       1248 48.24                             141    0.2310 78.4 358 
 BRR  HN ES       1249  2.06                             141    0.2010 78.4 358 
 BRR  HZ I        1249  2.58         7.5 0.38            143           78.4 358 
 PTB  HZ EP       1248 48.41                             138   -0.2510 86.3 280 
 PTB  HN ES       1249  3.00                             138   -0.0210 86.3 280 
 PTB  HZ I        1249  4.30         2.6 0.10            140           86.3 280 
 RUS  HZ EP       1248 49.37                             138   -0.0310 87.3 130 
 RUS  HN ES       1249  4.52                             138    0.1810 87.3 130 
 RUS  HZ I        1249  5.02         2.3 0.22            141           87.3 130 
 PAM  EN ES       1249 14.87                             121   -0.13 9  151  46 
                                                                                
