 2016 1122 1459  2.5 L   6.800 -73.156149.3  RSN  8 0.3 1.9LRSN                1
 GAP=147        0.75       3.4     3.3  5.5 -0.1956E+01  0.1908E+01  0.8779E+01E
 Epicentro: LOS SANTOS - SANTANDER                                             3
 ACTION:UPD 17-10-26 21:10 OP:lp   STATUS:               ID:20161122145902 L   I
 OLDACT:UP  16-11-22 22:31 OP:dani STATUS:               ID:20161122145745     3
 OLDACT:REG 16-11-22 20:54 OP:dani STATUS:               ID:20161122145745     3
 2016-11-22-1458-00M.COL___349                                                 6
 STAT SP IPHASW D HRMM SECON CODA AMPLIT PERI AZIMU VELO AIN AR TRES W  DIS CAZ7
 BAR2 EZ EP       1459 22.40                             171   -0.1310 23.2 187 
 BAR2 HE ES   2   1459 37.87                             171   -0.30 5 23.2 187 
 BAR2 EZ I        1459 40.21        30.0 0.34            169           23.2 187 
 BRR  HZ EP       1459 24.37                             153    0.4210 70.2 299 
 BRR  HE ES       1459 40.77                             153    0.0710 70.2 299 
 BRR  HZ I        1459 43.63        14.5 0.15            153           70.2 299 
 PAM  EZ EP       1459 25.37                             151    0.2610 78.1  40 
 PAM  EE ES       1459 42.69                             151   -0.0810 78.1  40 
 PAM  EZ I        1459 44.26        11.1 0.66            157           78.1  40 
 PTB  HZ EP       1459 29.24                             133   -0.39 9  147 259 
 PTB  HN ES       1459 50.45                             133   -0.37 9  147 259 
 PTB  HZ I        1459 55.29         8.3 0.14            134            147 259 
 ZAR  HZ EP       1459 34.59                             123   -0.46 9  203 292 
 ZAR  HE ES       15 0  0.67                             123    0.22 9  203 292 
 ZAR  HZ I        15 0  5.62         9.5 0.24            125            203 292 
 NOR  HZ EP       1459 38.61                             119    0.29 8  234 234 
 NOR  HN ES       15 0  6.72                             119    0.45 8  234 234 
 NOR  HZ I        15 0 11.95         6.1 0.21            121            234 234 
 CHI  HZ EP       1459 39.81                             118   -0.53 8  248 195 
 CHI  HN ES       15 0 10.09                             118    0.21 8  248 195 
 CHI  HZ I        15 0 13.59         3.9 0.41            120            248 195 
 PRA  HZ EP       1459 56.39                             107    0.33 6  391 209 
 PRA  HE ES       15 0 37.76                             107   -0.09 6  391 209 
                                                                                
