 2013  722 1425 27.8 L   6.730 -73.180144.8  RSN  7 0.3 2.3LRSN                1
 GAP=228        0.67       3.6     3.7  6.2  0.1458E+01  0.4762E+01 -0.2623E+01E
 Epicentro: VILLANUEVA - SANTANDER                                             3
 ACTION:UP  13-08-12 10:39 OP:ep   STATUS:               ID:20130722142527 L   I
 OLDACT:UPD 13-08-08 14:49 OP:ep   STATUS:               ID:20130722142527 L   3
 OLDACT:REG 13-07-22 15:06 OP:mh   STATUS:               ID:20130722141959     3
 2013-07-22-1419-59M.COL___266                                                 6
 STAT SP IPHASW D HRMM SECON CODA AMPLIT PERI AZIMU VELO AIN AR TRES W  DIS CAZ7
 BAR2 SZ EP       1425 46.93                             174   -0.2910 15.2 181 
 BAR2 SZ ES   1   1426  2.12                             174   -0.21 7 15.2 181 
 BAR2 SZ I        1426  4.61        12.1 0.36            170           15.2 181 
 BRR  HZ EP       1425 48.97                             152    0.0310 72.1 305 
 BRR  HN ES   1   1426  5.98                             152    0.59 7 72.1 305 
 BRR  HN I        1426  7.08        52.3 0.28            149           72.1 305 
 RUS  HZ EP   1   1425 51.39                             146    0.41 7 93.2 173 
 RUS  HN ES   1   1426  9.07                             146    0.05 7 93.2 173 
 PTB  HZ EP   1   1425 53.87                             133   -0.41 7  143 262 
 PTB  HN ES       1426 14.82                             133   -0.08 9  143 262 
 PTB  HN I        1426 20.51        37.6 0.44            131            143 262 
 SPBC HE ES       1426 16.87                             130   -0.16 9  155 220 
 ZAR  HZ EP   1   1426  0.60                             122    0.41 6  204 295 
 ZAR  HE ES       1426 25.17                             122   -0.25 9  204 295 
 ZAR  HE I        1426 31.04        33.9 0.24            122            204 295 
 NOR  HN ES       1426 30.22                             119    0.32 8  227 236 
 NOR  HN I        1426 37.11        15.1 0.18            119            227 236 
                                                                                
