 2010  922 1019 50.2 L   6.787 -73.053143.8  RSN  6 0.3 1.6LRSN                1
 GAP=169        0.82       3.7     9.0  7.0 -0.7591E+01 -0.1131E+02  0.4478E+01E
 Epicentro: LOS SANTOS - SANTANDER                                             3
 ACTION:UP  11-02-18 11:04 OP:tino STATUS:               ID:20100922101950 L   I
 2010-09-22-1016-43S.COL___122                                                 6
 STAT SP IPHASW D HRMM SECON CODA AMPLIT PERI AZIMU VELO SNR AR TRES W  DIS CAZ7
 BAR2 SZ EP       1020  9.51                             169    -0.110   26 214 
 BAR2 SZ ES   1   1020 24.54                             169    -0.3 7   26 214 
 BAR2 SZ I        1020 26.35        13.1 0.23                            26 214 
 BTL  SZ EP       1020 10.14                             169     0.410   28 302 
 BRR  HZ EP       1020 11.49                             149    -0.210   81 296 
 BRR  HE ES   1   1020 28.67                             149     0.2 7   81 296 
 BRR  HZ I        1020 34.85        11.3 0.57                            81 296 
 RUS  HZ EP       1020 13.51                             144    -0.110   99 182 
 RUS  HZ I        1020 14.36         4.1 0.15                            99 182 
 RUS  HN ES   1   1020 32.23                             144     0.3 7   99 182 
 GRA  SZ EP       1020 15.50                             137     0.310  125  13 
 GRA  SZ ES   1   1020 34.20                             137    -0.4 7  125  13 
 GRA  SZ I        1020 39.71         3.3 0.66                           125  13 
 CHI  HZ EP       1020 27.64                             117    -0.3 8  250 198 
 CHI  HZ I        1020 28.19         2.8 0.20                           250 198 
 CHI  HN ES   1   1020 57.57                             117     0.2 6  250 198 
                                                                                
