 2010  822 1038 10.5 L   6.779 -73.055145.2  RSN  6 0.4 1.6LRSN                1
 GAP=175        0.80       5.1    13.4  8.3  0.3166E+02 -0.4685E+02 -0.1480E+02E
 Epicentro: LOS SANTOS - SANTANDER                                             3
 ACTION:UP  10-09-07 10:57 OP:vdl  STATUS:               ID:20100822103810 L   I
 2010-08-22-1035-05S.COL___120                                                 6
 STAT SP IPHASW D HRMM SECON CODA AMPLIT PERI AZIMU VELO SNR AR TRES W  DIS CAZ7
 BAR2 SZ EP       1038 30.01                             170    -0.110   25 214 
 BAR2 SZ ES   2   1038 45.65                             170     0.3 5   25 214 
 BAR2 SZ I        1038 58.72         5.8 0.69                            25 214 
 BTL  SZ EP       1038 30.33                             169     0.210   28 303 
 BTL  SZ ES   1   1038 44.95                             169    -0.6 7   28 303 
 BRR  HZ IP     D 1038 32.05                             149    -0.110   81 297 
 BRR  HZ I        1038 33.51        12.5 0.14                            81 297 
 BRR  HN ES   1   1038 49.06                             149     0.0 7   81 297 
 RUS  HZ EP   1   1038 34.10                             144     0.1 7   98 182 
 RUS  HN ES   1   1038 52.66                             144     0.3 7   98 182 
 RUS  HZ I        1038 53.50         2.9 0.41                            98 182 
 GUE  SZ EP   2   1038 34.36                             139    -0.9 5  117   7 
 OCA  SZ EP   1   1038 39.21                             129     0.1 7  164 350 
 OCA  SZ ES   1   1039  2.12                             129     0.7 7  164 350 
 OCA  SZ I        1039  6.34         8.5 0.26                           164 350 
                                                                                
