 2013 1122 1956 36.5 L   6.785 -73.161147.8  RSN  5 0.6 1.9LRSN                1
 GAP=210        1.37       8.8     9.1 10.3  0.1184E+02  0.9882E+01 -0.3159E+02E
 Epicentro: LOS SANTOS - SANTANDER                                             3
 ACTION:UPD 14-01-09 16:30 OP:ep   STATUS:               ID:20131122195636 L   I
 OLDACT:REG 13-11-22 16:35 OP:nd   STATUS:               ID:20131122195000     3
 2013-11-22-1950-00M.COL___282                                                 6
 STAT SP IPHASW D HRMM SECON CODA AMPLIT PERI AZIMU VELO AIN AR TRES W  DIS CAZ7
 BAR2 SZ EP       1956 56.32                             171   -0.0010 21.5 186 
 BAR2 SZ ES       1957 11.56                             171   -0.2410 21.5 186 
 BAR2 SZ I        1957 12.40        17.8 0.18            173           21.5 186 
 BRR  HZ EP       1956 58.45                             153    0.6410 70.5 300 
 BRR  HN ES       1957 14.96                             153    0.5110 70.5 300 
 BRR  HZ I        1957 16.26        16.8 0.28            149           70.5 300 
 PTB  HZ EP       1957  3.15                             133   -0.29 9  146 259 
 PTB  HN ES       1957 23.58                             133   -0.88 9  146 259 
 PTB  HZ I        1957 27.25         9.2 0.12            132            146 259 
 ZAR  HZ EP       1957  9.59                             123    0.63 9  203 293 
 ZAR  HN ES       1957 34.95                             123    0.65 9  203 293 
 ZAR  HZ I        1957 40.52         6.9 0.32            122            203 293 
 SML  HZ EP       1957 12.90                             118   -0.41 8  244 336 
 SML  HN ES       1957 41.15                             118   -0.88 8  244 336 
 SML  HZ I        1957 46.74         7.9 0.26            118            244 336 
                                                                                
