 2015 1222 1533 38.9 L   6.788 -73.106144.8  RSN  4 0.3 1.8LRSN                1
 GAP=258        0.76       6.6     7.2  8.1  0.8370E+00  0.1775E+02  0.2976E+02E
 Epicentro: LOS SANTOS - SANTANDER                                             3
 ACTION:UPD 16-02-04 15:06 OP:cam  STATUS:               ID:20151222153339 L   I
 OLDACT:UP  16-01-26 22:16 OP:nlst STATUS:               ID:20151222153339 L   3
 OLDACT:REG 15-12-22 21:36 OP:cara STATUS:               ID:20151222152746     3
 2015-12-22-1527-46M.COL___339                                                 6
 STAT SP IPHASW D HRMM SECON CODA AMPLIT PERI AZIMU VELO AIN AR TRES W  DIS CAZ7
 BAR2 EZ IP       1533 58.58                             171    0.1810 23.3 201 
 BAR2 EZ ES       1534 13.27                             171   -0.3510 23.3 201 
 BAR2 EZ I        1534 16.34        10.4 0.30            165           23.3 201 
 BRR  HN ES       1534 17.14                             151    0.3310 75.7 298 
 BRR  HZ I        1534 22.08        17.8 0.30            146           75.7 298 
 NOR  HZ EP       1534 14.50                             118   -0.37 8  238 235 
 NOR  HN ES       1534 42.76                             118   -0.17 8  238 235 
 NOR  HZ I        1534 50.01         4.2 0.14            118            238 235 
 CHI  HN ES   1   1534 46.44                             117    0.56 6  249 196 
                                                                                
