 2011  722 1806 31.2 L   6.847 -72.985142.0  RSN  6 0.3 2.2LRSN                1
 GAP=199        0.56       3.8    10.5  7.4  0.2082E+02 -0.4146E+02 -0.1329E+02E
 Epicentro: CEPITA - SANTANDER                                                 3
 ACTION:UPD 12-07-25 14:02 OP:epov STATUS:               ID:20110722180631 L   I
 2011-07-22-1804-56S.COL___140                                                 6
 STAT SP IPHASW D HRMM SECON CODA AMPLIT PERI AZIMU VELO AIN AR TRES W  DIS CAZ7
 BTL  SZ EP       18 6 50.89                             167    0.3310 32.2 284 
 GIR2 SZ EP   1   18 6 50.79                             166    0.32 7 34.5 318 
 BAR2 SZ EP   1   18 6 50.75                             165    0.09 7 35.7 218 
 BAR2 SZ ES   1   18 7  5.80                             165   -0.07 7 35.7 218 
 BAR2 SZ I        18 7  6.82        47.4 0.27                          35.7 218 
 BRR  HZ EP   1   18 6 52.52                             147   -0.26 7 85.3 290 
 BRR  HZ I        18 6 52.78        98.6 0.14                          85.3 290 
 BRR  HE ES   1   18 7  9.72                             147    0.08 7 85.3 290 
 RUS  HZ EP   1   18 6 55.00                             141    0.05 7  106 186 
 RUS  HN ES   1   18 7 13.16                             141   -0.36 7  106 186 
 RUS  HZ I        18 7 15.13         9.3 0.33                           106 186 
 OCA  SZ EP   1   18 6 58.55                             129   -0.44 7  158 347 
 OCA  SZ ES   1   18 7 20.59                             129   -0.11 7  158 347 
 OCA  SZ I        18 7 29.51        16.9 0.29                           158 347 
                                                                                
