 2016  922 1345 45.0 L   6.602 -73.524104.4  RSN 12 0.4 2.1LRSN                1
 GAP= 69        1.01       3.1     3.1  5.7 -0.2177E+00  0.7648E+01 -0.9138E+00E
 Epicentro: EL CARMEN - SANTANDER                                              3
 ACTION:UPD 17-08-17 21:15 OP:lp   STATUS:               ID:20160922134545 L   I
 OLDACT:UP  16-09-23 01:20 OP:edw  STATUS:               ID:20160922133742     3
 OLDACT:UP  16-09-23 01:13 OP:edw  STATUS:               ID:20160922133742     3
 OLDACT:REG 16-09-22 22:28 OP:edw  STATUS:               ID:20160922133742     3
 2016-09-22-1338-00M.COL___372                                                 6
 STAT SP IPHASW D HRMM SECON CODA AMPLIT PERI AZIMU VELO AIN AR TRES W  DIS CAZ7
 BAR2 EZ IP     D 1346  0.50                             158    0.2510 37.8  92 
 BAR2 EZ ES       1346 12.54                             158    0.4210 37.8  92 
 BAR2 EZ I        1346 13.64       144.2 0.21            162           37.8  92 
 BRR  HZ EP       1346  0.83                             148   -0.2710 59.6 340 
 BRR  HN ES       1346 13.12                             148   -0.5110 59.6 340 
 BRR  HZ I        1346 14.59        31.0 0.12            150           59.6 340 
 RUS  HZ EP       1346  4.48                             135    0.2010 92.4 148 
 RUS  HN ES       1346 19.92                             135    0.6210 92.4 148 
 RUS  HZ I        1346 21.09        28.5 0.28            138           92.4 148 
 PTB  HZ EP   9 C 1346  3.26                             132   -1.35 0  103 266 
 PTB  HN ES       1346 18.09                             131   -0.4410  103 266 
 PTB  HZ I        1346 22.54        15.0 0.14            133            103 266 
 SPBC HN ES       1346 22.58                             126   -0.5010  121 210 
 PAM  EZ EP       1346  6.57                             126   -0.4610  122  48 
 PAM  EN ES       1346 24.00                             126   -0.1810  122  48 
 PAM  EZ I        1346 24.99        22.8 0.18            130            122  48 
 ZAR  HZ EP       1346 12.49                             115    0.31 9  177 304 
 ZAR  HN ES       1346 34.02                             115    0.68 9  177 304 
 ZAR  HZ I        1346 36.23        11.8 0.09            117            177 304 
 NOR  HZ EP       1346 12.81                             114   -0.63 9  188 232 
 NOR  HN ES   4   1346 37.16                             114    1.57 0  188 232 
 NOR  HZ I        1346 38.02        11.8 0.16            115            188 232 
 HEL  HZ EP       1346 18.23                             109    0.04 8  226 259 
 HEL  HN ES       1346 43.98                             109   -0.08 8  226 259 
 GUY2CHZ EP   2   1346 21.86                             106    0.27 4  255 233 
 GUY2CHN ES   2   1346 50.36                             106    0.26 4  255 233 
 GUY2CHZ I        1346 57.79         5.2 0.56                           255 233 
 URE  HZ EP       1346 20.88                             106   -0.27 8  256 300 
 URE  HN ES   4   1346 46.70                             106   -2.62 0  256 300 
 URE  HZ I        1346 49.36        10.9 0.12            108            256 300 
 LCBC HE ES       1347 20.65                              97    0.53 6  401 309 
                                                                                
