 2013  622 1629 17.3 L   6.434 -73.602109.9  RSN  4 0.2 2.0LRSN                1
 GAP=208        0.44       5.4     2.8  5.3 -0.2162E+01  0.1587E+01  0.6743E+01E
 Epicentro: SANTA HELENA DEL OPON - SANTANDER                                  3
 ACTION:UPD 14-01-08 09:56 OP:ep   STATUS:               ID:20130622162917 L   I
 OLDACT:REG 13-06-22 19:05 OP:cam  STATUS:               ID:20130622162848     3
 2013-06-22-1628-48M.COL___232                                                 6
 STAT SP IPHASW D HRMM SECON CODA AMPLIT PERI AZIMU VELO AIN AR TRES W  DIS CAZ7
 BAR2 SZ EP       1629 33.88                             154    0.2010 49.6  69 
 BAR2 SZ ES   1   1629 46.30                             154   -0.17 7 49.6  69 
 BAR2 SZ I        1629 47.71        50.7 0.50            154           49.6  69 
 BRR  HZ EP     C 1629 34.78                             143   -0.2110 75.4 351 
 BRR  HN ES   1   1629 49.00                             143    0.20 7 75.4 351 
 BRR  HZ I        1629 56.41        17.8 0.30            137           75.4 351 
 GIR2 SZ EP   1   1629 35.80                             140   -0.07 7 84.3  32 
 PTB  HZ IP     C 1629 36.66                             136    0.0710 95.2 277 
 PTB  HN ES   1   1629 51.58                             136   -0.08 7 95.2 277 
 PTB  HZ I        1629 56.43        14.2 0.16            134           95.2 277 
                                                                                
