 2016 1122 1524  3.1 L   7.444 -73.171134.4  RSN  4 0.1 1.1LRSN                1
 GAP=191        0.41       3.7     2.3  5.2 -0.2074E+01  0.7238E+01 -0.4924E+01E
 Epicentro: EL PLAYON - SANTANDER                                              3
 ACTION:UPD 17-10-26 21:10 OP:lp   STATUS:               ID:20161122152403 L   I
 OLDACT:UP  16-11-22 22:40 OP:dani STATUS:               ID:20161122151748     3
 OLDACT:REG 16-11-22 20:55 OP:dani STATUS:               ID:20161122151748     3
 2016-11-22-1518-00M.COL___349                                                 6
 STAT SP IPHASW D HRMM SECON CODA AMPLIT PERI AZIMU VELO AIN AR TRES W  DIS CAZ7
 PAM  EZ EP       1524 22.84                             157    0.0910 53.3 103 
 PAM  EN ES       1524 38.12                             157    0.0210 53.3 103 
 PAM  EZ I        1524 40.62         2.3 0.22            160           53.3 103 
 BAR2 HN ES       1524 41.78                             143   -0.1310 94.2 181 
 PTB  HZ EP       1524 31.57                             124   -0.11 9  174 235 
 PTB  HE ES       1524 54.22                             124    0.23 9  174 235 
 PTB  HZ I        1524 56.49         1.7 0.14            127            174 235 
 ZAR  HE ES       1524 56.16                             122   -0.09 9  186 272 
                                                                                
