 2013  222 1420 23.1 L   6.801 -73.082151.9  RSN  7 1.0 1.9LRSN                1
 GAP=145        1.97       9.3    11.9 16.6  0.9521E+01  0.4560E+02  0.4318E+02E
 Epicentro: LOS SANTOS - SANTANDER                                             3
 ACTION:UPD 13-03-12 09:35 OP:ep   STATUS:               ID:20130222142023 L   I
 2013-02-22-1420-00M.COL___238                                                 6
 STAT SP IPHASW D HRMM SECON CODA AMPLIT PERI AZIMU VELO AIN AR TRES W  DIS CAZ7
 BAR2 SZ EP       1420 43.35                             170   -0.1510 25.6 206 
 BAR2 SZ I        1420 59.20        27.1 0.16            169           25.6 206 
 PAM  SZ EP       1420 46.35                             152    0.6310 73.0  35 
 PAM  SN ES       1421  3.48                             152    0.1210 73.0  35 
 BRR  HZ EP       1420 45.36                             151    0.1110 77.4 296 
 BRR  HN ES       1421  2.40                             151   -0.1410 77.4 296 
 RUS  HZ EP       1420 47.69                             145    0.2510  100 180 
 RUS  HN ES       1421  5.49                             145   -0.9410  100 180 
 RUS  HN I        1421  7.06         7.8 0.38            143            100 180 
 PTB  HZ EP       1420 50.25                             132   -0.94 9  155 259 
 PTB  HN ES   4   1421 10.95                             132   -2.15 0  155 259 
 PTB  HN I        1421 18.24        11.8 0.56            130            155 259 
 ZAR  HE ES   1   1421 23.47                             122    0.72 6  211 291 
 CHI  HZ EP   1   1421  0.12                             118   -1.23 6  251 197 
 CHI  HN ES   4   1421 34.07                             118    2.87 0  251 197 
 CHI  HN I   L1   1421 34.24         6.0 0.32            118    3.04 6  251 197 
                                                                                
