 2013  422 1757 10.6 L   6.170 -73.756109.2  RSN  5 0.5 1.5LRSN                1
 GAP=185        1.00       7.2     5.5 11.5  0.7706E+01  0.4008E+01  0.1573E+02E
 Epicentro: LANDAZURI - SANTANDER                                              3
 ACTION:UPD 13-05-22 14:40 OP:EP   STATUS:               ID:20130422175710 L   I
 2013-04-22-1750-00M.COL___250                                                 6
 STAT SP IPHASW D HRMM SECON CODA AMPLIT PERI AZIMU VELO AIN AR TRES W  DIS CAZ7
 BAR2 SZ EP       1757 28.67                             141   -0.1410 78.7  54 
 BAR2 SZ ES   1   1757 42.48                             141   -0.55 7 78.7  54 
 BAR2 SZ I        1757 44.02        27.1 0.36            139           78.7  54 
 RUS  HZ EP       1757 28.72                             141   -0.5810 80.6 112 
 RUS  HN ES   2   1757 45.44                             141    1.53 5 80.6 112 
 RUS  HZ I        1757 45.98         1.8 0.46            150           80.6 112 
 PTB  HZ EP     C 1757 29.46                             138    0.2710 87.6 298 
 PTB  HN ES   1   1757 43.44                             138   -0.27 7 87.6 298 
 PTB  HZ I        1757 47.44         6.0 0.24            138           87.6 298 
 BRR  HZ EP       1757 30.87                             132    0.3210  104   3 
 BRR  HN ES   1   1757 46.35                             132    0.23 7  104   3 
 BRR  HZ I        1758  9.95        15.4 0.36            130            104   3 
 GIR2 SZ EP       1757 32.18                             129    0.1110  118  32 
 GIR2 SZ ES   2   1757 48.73                             129   -0.10 5  118  32 
 GIR2 SZ I        1757 54.66         4.8 0.40            128            118  32 
                                                                                
