 2011  422 1340 49.8 L   6.745 -73.150148.4  RSN  4 0.4 1.4LRSN                1
 GAP=210        0.94      18.3    29.3 12.2  0.4495E+03 -0.1287E+03 -0.6156E+02E
 Epicentro: JORDAN - SANTANDER                                                 3
 ACTION:UP  11-06-22 15:32 OP:REBC STATUS:               ID:20110422134049 L   I
 2011-04-22-1339-25S.COL___139                                                 6
 STAT SP IPHASW D HRMM SECON CODA AMPLIT PERI AZIMU VELO SNR AR TRES W  DIS CAZ7
 BAR2 SZ EP   1   1341  9.20                             173    -0.4 7   17 192 
 BAR2 SZ I        1341 14.02         8.7 0.76                            17 192 
 BAR2 SZ ES   1   1341 24.81                             173    -0.3 7   17 192 
 BTL  SZ EP   1   1341 10.44                             171     0.7 7   23 326 
 BRR  HZ EP   1   1341 10.87                             152    -0.5 7   74 303 
 BRR  HN ES   1   1341 28.41                             152     0.2 7   74 303 
 BRR  HZ I        1341 31.42         5.3 0.19                            74 303 
 RUS  HZ EP   1   1341 13.52                             146     0.2 7   95 176 
 RUS  HN ES   2   1341 31.97                             146     0.2 5   95 176 
 RUS  HZ I        1341 32.70         2.7 0.33                            95 176 
                                                                                
