 2015  222 1240 29.4 L   6.747 -73.139151.1  RSN 10 0.5 2.0LRSN                1
 GAP=201        1.15       3.7     6.4  6.3 -0.1208E+01  0.9255E+01  0.1688E+01E
 Epicentro: LOS SANTOS - SANTANDER                                             3
 ACTION:UPD 15-04-30 21:28 OP:nd   STATUS:               ID:20150222124029 L   I
 OLDACT:REG 15-02-22 20:46 OP:fm   STATUS:               ID:20150222123744     3
 2015-02-22-1237-44M.COL___278                                                 6
 STAT SP IPHASW D HRMM SECON CODA AMPLIT PERI AZIMU VELO AIN AR TRES W  DIS CAZ7
 BAR2 EZ EP       1240 50.15                             173    0.6210 17.8 196 
 BAR2 EZ ES       1241  5.22                             173   -0.0510 17.8 196 
 BAR2 EZ I        1241  6.87        20.1 0.16            171           17.8 196 
 BRR  HZ EP       1240 52.01                             152    0.7310 74.8 302 
 BRR  HE ES       1241  8.87                             152    0.4810 74.8 302 
 BRR  HZ I        1241 13.34        23.8 0.36            151           74.8 302 
 RUS  HN ES       1241 11.35                             147   -0.5110 94.7 176 
 RUS  HZ I        1241 13.90         8.9 0.30            147           94.7 176 
 PTB  HZ EP       1240 56.84                             133    0.11 9  147 261 
 PTB  HN ES       1241 17.14                             133   -0.95 9  147 261 
 PTB  HZ I        1241 19.76        11.1 0.44            133            147 261 
 SPBC HZ EP       1240 57.79                             131   -0.10 9  159 221 
 SPBC HE ES       1241 20.12                             131   -0.04 9  159 221 
 SPBC HZ I        1241 27.45        14.7 0.40            131            159 221 
 NOR  HZ EP       1241  4.30                             120   -0.81 8  232 236 
 NOR  HN ES       1241 33.62                             120    0.63 8  232 236 
 NOR  HZ I        1241 36.69         5.7 0.16            120            232 236 
 CHI  HZ EP       1241  7.02                             119    0.25 8  243 196 
 CHI  HN ES       1241 35.69                             119   -0.27 8  243 196 
 CHI  HZ I        1241 39.78         5.2 0.36            120            243 196 
 SML  HZ EP       1241  6.47                             118   -0.42 8  249 336 
 SML  HN ES       1241 35.74                             118   -0.42 8  249 336 
 SML  HZ I        1241 41.97         8.0 0.10            119            249 336 
 GUY2CHZ EP       1241 12.78                             114   -0.13 7  298 236 
 GUY2CHN ES       1241 47.45                             114    0.57 7  298 236 
 GUY2CHZ I        1241 56.38         5.6 0.28                           298 236 
 PRA  HZ EP       1241 22.37                             108   -0.14 6  387 210 
 PRA  HE ES       1242  4.14                             108    0.16 6  387 210 
 PRA  HZ I        1242 14.98         4.5 0.30            108            387 210 
                                                                                
