 2012  322 1224 13.8 L   6.763 -73.163136.9  RSN  8 0.3 2.4LRSN                1
 GAP=136        0.65       3.7     3.5  5.7 -0.2369E+01  0.8007E+01 -0.1458E+01E
 ACTION:UP  12-03-31 23:21 OP:EP   STATUS:               ID:20120322122413 L   I
 2012-03-22-1220-00M.COL___202                                                 6
 STAT SP IPHASW D HRMM SECON CODA AMPLIT PERI AZIMU VELO SNR AR TRES W  DIS CAZ7
 BAR2 SZ EP       1224 32.29                             172     0.010   19 186 
 BAR2 SZ ES   1   1224 46.57                             172    -0.1 7   19 186 
 BAR2 SZ I        1224 48.38        65.0 0.22                            19 186 
 BRR  HZ EP       1224 34.28                             151     0.310   72 302 
 BRR  HZ I        1224 56.55        57.0 0.10                            72 302 
 PAM  SZ EP       1224 35.26                             148    -0.110   82  39 
 PAM  SN ES   1   1224 52.11                             148    -0.1 7   82  39 
 RUS  HZ EP   1   1224 36.35                             143     0.0 7   97 175 
 RUS  HN ES   1   1224 54.19                             143     0.2 7   97 175 
 RUS  HZ I        1224 55.93        28.1 0.31                            97 175 
 PTB  HZ EP   1   1224 39.02                             130    -0.8 7  145 260 
 PTB  HN ES   1   1224 59.93                             130    -0.2 7  145 260 
 ZAR  HZ EP   1   1224 45.39                             120    -0.3 6  204 293 
 ZAR  HN ES   1   1225 10.99                             120     0.5 6  204 293 
 NOR  SZ EP   1   1224 48.99                             117     0.4 6  231 235 
 NOR  SN ES   1   1225 15.58                             117    -0.1 6  231 235 
 PRA  HZ EP   1   1225  6.73                             105     0.2 4  387 210 
                                                                                
