 2016 1122 1529 13.8 L   6.797 -73.117142.9  RSN  6 0.2 1.6LRSN                1
 GAP=160        0.68       4.3     3.5  5.3 -0.3189E+01  0.4799E+01  0.5632E+01E
 Epicentro: LOS SANTOS - SANTANDER                                             3
 ACTION:UPD 17-10-26 21:10 OP:lp   STATUS:               ID:20161122152913 L   I
 OLDACT:UP  16-11-22 22:46 OP:dani STATUS:               ID:20161122152746     3
 OLDACT:UP  16-11-22 22:46 OP:dani STATUS:               ID:20161122152746     3
 OLDACT:UP  16-11-22 22:46 OP:dani STATUS:               ID:20161122152746     3
 OLDACT:UP  16-11-22 22:45 OP:dani STATUS:               ID:20161122152746     3
 OLDACT:REG 16-11-22 20:56 OP:dani STATUS:               ID:20161122152746     3
 2016-11-22-1528-00M.COL___349                                                 6
 STAT SP IPHASW D HRMM SECON CODA AMPLIT PERI AZIMU VELO AIN AR TRES W  DIS CAZ7
 BAR2 EZ EP       1529 32.95                             170   -0.1010 23.8 198 
 BAR2 EZ ES       1529 47.87                             170   -0.2310 23.8 198 
 BAR2 EZ I        1529 49.17         9.7 0.28            169           23.8 198 
 BRR  HZ EP       1529 34.85                             151    0.0810 74.2 298 
 BRR  HN ES       1529 51.64                             151    0.4810 74.2 298 
 BRR  HZ I        1529 52.33        13.2 0.35            149           74.2 298 
 PAM  EZ EP       1529 35.73                             151    0.1610 75.6  38 
 PAM  EN ES       1529 52.45                             151   -0.1210 75.6  38 
 PAM  EZ I        1529 54.08         4.2 0.30            152           75.6  38 
 ZAR  HZ EP   4   1529 49.42                             121    3.08 0  207 292 
 ZAR  HN ES       1530 11.33                             121   -0.42 8  207 292 
 ZAR  HZ I        1530 17.05         4.9 0.24            121            207 292 
 NOR  HZ EP       1529 49.53                             118   -0.06 8  237 235 
 NOR  HE ES       1530 17.65                             118    0.12 8  237 235 
 NOR  HZ I        1530 22.04         3.4 0.14            117            237 235 
 SJC  HZ EP   9   1530  7.45                             105   -2.02 0  411 327 
 SJC  HN ES       1530 50.29                             106   -0.61 6  411 327 
                                                                                
