 2017  122 1103 36.4 L   6.764 -74.056 80.6  RSN  5 0.3 1.1LRSN                1
 GAP=109        0.73       3.3     2.4  5.6  0.3164E+01 -0.7790E+00  0.1733E+01E
 Epicentro: PUERTO PARRA - SANTANDER                                           3
 ACTION:UPD 17-05-22 16:02 OP:jn   STATUS:               ID:20170122110336 L   I
 OLDACT:REG 17-01-22 20:33 OP:cog  STATUS:               ID:20170122105742     3
 2017-01-22-1058-00M.COL___334                                                 6
 STAT SP IPHASW D HRMM SECON CODA AMPLIT PERI AZIMU VELO AIN AR TRES W  DIS CAZ7
 PTB  HZ EP       11 3 49.25                             145   -0.2010 50.7 241 
 PTB  HN ES       11 3 59.57                             145   -0.0410 50.7 241 
 PTB  HZ I        11 4  1.17         3.5 0.16            148           50.7 241 
 BRR  HZ IP     D 11 3 49.35                             143   -0.2910 53.7  45 
 BRR  HN ES       11 4  0.24                             143    0.2810 53.7  45 
 BRR  HZ I        11 4  1.64         8.6 0.30            145           53.7  45 
 BAR2 EZ EP       11 3 53.70                             125   -0.2810 98.5 101 
 BAR2 EZ ES       11 4  7.46                             125   -0.2210 98.5 101 
 BAR2 EZ I        11 4 10.13         1.7 0.14            128           98.5 101 
 ZAR  HZ EP       11 3 55.79                             119   -0.1210  120 312 
 ZAR  HN ES       11 4 11.36                             119    0.2510  120 312 
 ZAR  HZ I        11 4 13.83         5.2 0.54            121            120 312 
 RUS  HZ EP       11 3 59.82                             114    0.55 9  144 132 
 RUS  HN ES       11 4 17.25                             114    0.16 9  144 132 
                                                                                
