 2012 1022 1147 43.4 L   6.785 -73.125148.2  RSN 12 0.4 2.5LRSN                1
 GAP= 67        0.75       3.0     3.2  4.1  0.7215E+00  0.2368E+01  0.1849E+01E
 Epicentro: LOS SANTOS - SANTANDER                                             3
 ACTION:UPD 12-11-22 17:05 OP:ep   STATUS:               ID:20121022114743 L   I
 2012-10-22-1140-00M.COL___231                                                 6
 STAT SP IPHASW D HRMM SECON CODA AMPLIT PERI AZIMU VELO AIN AR TRES W  DIS CAZ7
 BAR2 SZ IP       1148  3.35                             171    0.0010 22.2 197 
 BAR2 SZ ES       1148 18.47                             171   -0.4110 22.2 197 
 BAR2 SZ I        1148 20.00       101.8 0.21                          22.2 197 
 BRR  HZ EP       1148  5.21                             152    0.1910 74.1 299 
 BRR  HZ I        1148  6.60        64.7 0.15                          74.1 299 
 BRR  HE ES       1148 22.40                             152    0.5510 74.1 299 
 PAM  SZ EP       1148  6.13                             151    0.2110 77.3  37 
 PAM  SZ I        1148  6.57        43.8 0.23                          77.3  37 
 PAM  SN ES       1148 23.25                             151   -0.2010 77.3  37 
 RUS  HZ EP       1148  7.33                             145    0.0210 98.7 177 
 RUS  HN ES       1148 25.74                             145   -0.1810 98.7 177 
 RUS  HZ I        1148 27.26        24.5 0.30                          98.7 177 
 TAM  HZ EP       1148 11.55                             131    0.48 9  152 105 
 TAM  HZ I        1148 33.81        30.4 0.52                           152 105 
 OCA  HZ EP   1   1148 11.52                             130   -0.62 7  162 352 
 OCA  HZ I        1148 39.17        57.0 0.31                           162 352 
 YOP  SZ EP   1   1148 13.52                             127    0.10 7  176 154 
 YOP  SZ I        1148 14.43        20.2 0.08                           176 154 
 ZAR  HZ EP       1148 15.96                             122   -0.38 8  207 292 
 ZAR  HN ES   1   1148 41.67                             122   -0.33 6  207 292 
 ZAR  HZ I        1148 47.69        32.3 0.27                           207 292 
 CHI  HZ EP   1   1148 21.11                             118   -0.06 6  248 196 
 CHI  HZ I        1148 24.20        13.5 0.38                           248 196 
 CHI  HE ES   2   1148 50.75                             118    0.15 4  248 196 
 HEL  HZ EP   1   1148 24.29                             115    0.30 6  274 256 
 HEL  HN ES   1   1148 56.31                             115    0.70 6  274 256 
 HEL  HZ I        1149  2.95        20.2 0.43                           274 256 
 DBB  SZ EP   1   1148 30.75                             110   -0.55 5  342 275 
 PRA  HZ EP   1   1148 36.79                             107   -0.22 4  392 210 
 PRA  HN ES   1   1149 18.35                             107   -0.45 4  392 210 
 PRA  HZ I        1149 25.95        17.2 0.18                           392 210 
                                                                                
