 2016  322 1109 21.9 L   6.897 -73.265116.2  RSN  6 0.4 1.5LRSN                1
 GAP=113        0.78       3.7     5.1  7.6  0.6016E+01  0.6142E+01 -0.5244E+01E
 Epicentro: BETULIA - SANTANDER                                                3
 ACTION:UPD 16-05-13 21:26 OP:cam  STATUS:               ID:20160322110921 L   I
 OLDACT:REG 16-03-22 21:19 OP:dnl  STATUS:               ID:20160322110747     3
 2016-03-22-1107-47M.COL___298                                                 6
 STAT SP IPHASW D HRMM SECON CODA AMPLIT PERI AZIMU VELO AIN AR TRES W  DIS CAZ7
 BAR2 EZ EP     C 11 9 38.57                             162    0.2610 34.9 165 
 BAR2 EZ ES       11 9 51.32                             162    0.1810 34.9 165 
 BAR2 EZ I        11 9 53.18        33.1 0.20            166           34.9 165 
 PAM  EZ EP   2   11 9 42.04                             144    0.87 5 79.4  52 
 PAM  EE ES   4   11 9 57.97                             144    1.74 0 79.4  52 
 PAM  EZ I        1110  0.21         5.0 0.32            147           79.4  52 
 RUS  HZ EP       11 9 43.44                             133   -0.4610  113 170 
 RUS  HN ES   2   1110  0.93                             133   -0.16 5  113 170 
 RUS  HZ I        1110  2.23         3.2 0.30            138            113 170 
 PTB  HZ EP   9   11 9 43.88                             127   -1.69 0  137 253 
 PTB  HE ES   2   1110  1.58                                   -0.80 5  137 253 
 PTB  HZ I        1110  6.00         3.1 0.18            130            137 253 
 OCA  HZ EP   2   11 9 47.12                             124    0.26 5  149 358 
 OCA  HE ES       1110  5.96                             124   -0.39 9  149 358 
 OCA  HZ I        1110  7.56        12.7 0.26            127            149 358 
 ZAR  HZ EP   2   11 9 51.15                             117    0.36 4  188 291 
 ZAR  HE ES       1110 13.42                             117    0.06 9  188 291 
 ZAR  HZ I        1110 17.10         2.3 0.15            120            188 291 
                                                                                
