 2017  222 1143  6.1 L   6.791 -73.124141.4  RSN  7 0.3 1.4LRSN                1
 GAP=140        1.07       5.3     5.2  7.0  0.5586E+01  0.3361E+01 -0.3645E+01E
 Epicentro: LOS SANTOS - SANTANDER                                             3
 ACTION:UPD 17-05-24 15:39 OP:jn   STATUS:               ID:20170222114306 L   I
 OLDACT:UP  17-02-22 22:12 OP:edw  STATUS:               ID:20170222113741     3
 OLDACT:REG 17-02-22 19:42 OP:edw  STATUS:               ID:20170222113741     3
 2017-02-22-1138-00M.COL___370                                                 6
 STAT SP IPHASW D HRMM SECON CODA AMPLIT PERI AZIMU VELO AIN AR TRES W  DIS CAZ7
 BAR2 EZ EP     D 1143 24.97                             170   -0.2010 22.9 196 
 BAR2 EZ ES       1143 39.66                             170   -0.4010 22.9 196 
 BAR2 EZ I        1143 41.10         4.1 0.20            177           22.9 196 
 BRR  HZ EP       1143 26.88                             150   -0.0210 73.8 298 
 BRR  HN ES       1143 43.73                             150    0.5810 73.8 298 
 BRR  HZ I        1143 45.67         6.4 0.38            150           73.8 298 
 PAM  EZ EP       1143 27.86                             150    0.0810 76.6  38 
 PAM  EN ES       1143 44.46                             150   -0.2510 76.6  38 
 PAM  EZ I        1143 46.86         8.1 0.56            149           76.6  38 
 RUS  HZ EP       1143 29.17                             143   -0.1410 99.5 177 
 RUS  HN ES       1143 47.76                             143    0.3210 99.5 177 
 RUS  HZ I        1143 49.04         4.5 0.24            153           99.5 177 
 PTB  HZ EP   9   1143 31.77                             130   -1.12 0  150 259 
 PTB  HN ES       1143 51.70                             134   -0.99 9  150 259 
 PTB  HZ I        1143 57.79         2.3 0.60            135            150 259 
 ZAR  HZ EP       1143 38.86                             120    0.35 8  207 292 
 ZAR  HN ES       1144  3.52                             120   -0.29 8  207 292 
 CHI  HZ EP   4   1143 43.42                             116   -0.08 0  248 196 
 CHI  HN ES   4   1143 57.69                             116   -15.0 0  248 196 
 CHI  HZ I        1143 58.92         1.9 0.16            122            248 196 
                                                                                
