 2016  322 1311 32.3 L   6.774 -73.156138.6  RSN  7 0.3 2.0LRSN                1
 GAP=136        0.58       3.0     2.9  4.8  0.4438E+00  0.6246E+01 -0.7041E+00E
 Epicentro: LOS SANTOS - SANTANDER                                             3
 ACTION:UPD 16-05-13 21:26 OP:cam  STATUS:               ID:20160322131131 L   I
 OLDACT:UP  16-03-29 11:52 OP:dnl  STATUS:               ID:20160322131131 L   3
 OLDACT:DUP 16-03-22 22:34 OP:dnl  STATUS:               ID:20160322130749d    3
 2016-03-22-1307-48M.COL___307                                                 6
 STAT SP IPHASW D HRMM SECON CODA AMPLIT PERI AZIMU VELO AIN AR TRES W  DIS CAZ7
 BAR2 EZ EP       1311 51.06                             171    0.0110 20.3 188 
 BAR2 EZ ES       1312  5.66                             171    0.0110 20.3 188 
 BAR2 EZ I        1312  7.53        21.2 0.40            173           20.3 188 
 PAM  EZ EP   2   1311 54.02                             148    0.03 5 80.3  39 
 PAM  EN ES       1312 10.83                             148   -0.0310 80.3  39 
 PAM  EZ I        1312 13.52        22.0 0.33            150           80.3  39 
 RUS  HZ EP       1311 55.25                             143    0.0610 97.8 175 
 RUS  HN ES       1312 13.17                             143    0.1610 97.8 175 
 RUS  HZ I        1312 14.54         6.5 0.28            147           97.8 175 
 PTB  HZ EP   2   1311 58.23                             131   -0.36 5  146 260 
 PTB  HN ES       1312 18.59                             131   -0.47 9  146 260 
 PTB  HZ I        1312 20.95        14.2 0.11            132            146 260 
 ZAR  HZ EP       1312  4.28                             121   -0.06 9  204 293 
 ZAR  HN ES       1312 29.66                             121    0.36 9  204 293 
 ZAR  HZ I        1312 36.09        19.6 0.40            122            204 293 
 URE  HZ EP   4   1312 13.97                             112    0.89 0  284 293 
 URE  HE ES   4   1312 43.13                             112   -1.73 0  284 293 
 URE  HZ I        1312 45.71         7.0 0.12            114            284 293 
 GUY2CHZ EP   2   1312 14.86                             111   -0.48 4  299 235 
 GUY2CHN ES   2   1312 49.87                             111    0.99 4  299 235 
 GUY2CHZ I        1312 57.72         5.5 0.38                           299 235 
 SOCV BZ EP   4   1312 13.06                             110   -2.30 0  304  57 
 SOCV BN ES   4   1312 44.49                             110   -4.42 0  304  57 
                                                                                
