 2014  622 1115 49.1 L   6.713 -73.213136.2  RSN  7 0.4 1.7LRSN                1
 GAP=230        0.82       7.1     5.7 10.0  0.2073E+01  0.2785E+02 -0.2472E+02E
 Epicentro: VILLANUEVA - SANTANDER                                             3
 ACTION:UPD 14-07-01 22:55 OP:nd   STATUS:               ID:20140622111549 L   I
 OLDACT:REG 14-06-22 21:02 OP:mh   STATUS:               ID:20140622110818     3
 2014-06-22-1108-18M.COL___253                                                 6
 STAT SP IPHASW D HRMM SECON CODA AMPLIT PERI AZIMU VELO AIN AR TRES W  DIS CAZ7
 BAR2 SZ EP       1116  7.05                             174   -0.3310 13.8 166 
 BAR2 SZ ES   1   1116 21.87                             174    0.20 7 13.8 166 
 BAR2 SZ I        1116 23.23        13.8 0.13            170           13.8 166 
 RUS  HN ES   1   1116 28.82                             144    0.27 7 91.8 171 
 RUS  HZ I        1116 30.66         5.2 0.28            161           91.8 171 
 PTB  HZ EP   1   1116 13.73                             132   -0.71 7  139 262 
 PTB  HN ES   1   1116 34.02                             132   -0.22 7  139 262 
 PTB  HZ I        1116 37.70         5.5 0.18            136            139 262 
 ZAR  HZ EP       1116 21.25                             121    0.65 9  201 295 
 ZAR  HE ES   1   1116 45.06                             121   -0.13 6  201 295 
 NOR  HE ES   1   1116 49.42                             118   -0.04 6  223 235 
 CHI  HZ I        1116 40.06         9.1 0.05            128            237 194 
 HEL  HN ES   1   1116 58.30                             114    0.38 6  263 257 
 HEL  HZ I        1117  6.59         2.5 0.24            120            263 257 
                                                                                
