 2015  122 1039 30.7 L   6.780 -73.124143.5  RSN 14 0.4 1.9LRSN                1
 GAP=140        0.96       2.9     4.0  6.0 -0.2482E+01  0.7444E+01  0.1220E+00E
 Epicentro: LOS SANTOS - SANTANDER                                             3
 ACTION:UPD 15-03-02 15:41 OP:nd   STATUS:               ID:20150122103930 L   I
 OLDACT:DUP 15-01-22 21:41 OP:spq  STATUS:               ID:20150122102748d    3
 2015-01-22-1027-47M.COL___261                                                 6
 STAT SP IPHASW D HRMM SECON CODA AMPLIT PERI AZIMU VELO AIN AR TRES W  DIS CAZ7
 BAR2 EZ EP       1039 50.21                             171    0.1610 21.8 197 
 BAR2 EZ ES   1   1040  4.78                             171   -0.35 7 21.8 197 
 BAR2 EZ I        1040  6.42        21.7 0.18            169           21.8 197 
 BRR  HZ EP     D 1039 52.12                             151    0.3110 74.4 299 
 BRR  HN ES       1040  8.69                             151    0.4310 74.4 299 
 BRR  HZ I        1040 10.60        15.1 0.16            151           74.4 299 
 PAM  SZ EP       1039 53.01                             150    0.3010 77.6  37 
 PAM  SE ES       1040  9.88                             150    0.0210 77.6  37 
 PAM  SZ I        1040 12.35        20.9 0.54            153           77.6  37 
 RUS  HZ EP   1   1039 54.30                             144    0.22 7 98.3 177 
 RUS  HE ES   1   1040 12.30                             144   -0.01 7 98.3 177 
 RUS  HZ I        1040 13.38         7.7 0.24            144           98.3 177 
 PTB  HZ EP       1039 56.79                             131   -0.90 9  150 260 
 PTB  HE ES   1   1040 18.57                             131   -0.15 7  150 260 
 PTB  HZ I        1040 20.69        16.9 0.14            131            150 260 
 OCA  HN ES       1040 20.33                             129   -0.89 9  163 352 
 OCA  HZ I        1040 23.69        11.7 0.46            130            163 352 
 SPBC HZ EP       1039 59.28                             128    0.25 9  163 220 
 SPBC HN ES       1040 20.72                             128   -0.40 9  163 220 
 SPBC HZ I        1040 23.43         9.6 0.22            129            163 220 
 ZAR  HZ EP       1040  3.44                             121    0.10 8  207 292 
 ZAR  HN ES       1040 29.36                             121    0.58 8  207 292 
 ZAR  HZ I        1040 31.00         7.5 0.34            122            207 292 
 NOR  HZ EP   1   1040  6.10                             118   -0.30 6  235 235 
 NOR  HN ES       1040 34.70                             118    0.47 8  235 235 
 NOR  HZ I        1040 37.32         6.8 0.26            118            235 235 
 SML  HZ EP       1040  7.73                             117    0.18 8  247 335 
 SML  HE ES   1   1040 36.20                             117   -0.07 6  247 335 
 SML  HZ I        1040 37.90        10.9 0.06            118            247 335 
 CHI  HN ES   1   1040 37.20                             117   -0.12 6  247 196 
 CHI  HZ I        1040 45.02         2.0 0.28            117            247 196 
 HEL  HZ EP   4   1040 12.83                             114    1.81 0  274 256 
 HEL  HN ES   1   1040 42.00                             114   -0.46 6  274 256 
 HEL  HZ I        1040 49.28         5.1 0.32            115            274 256 
 GUY2CHZ EP   4   1040 16.78                             112    2.47 0  302 235 
 GUY2CHE ES   4   1040 51.73                             112    3.42 0  302 235 
 GUY2CHZ I        1040 58.01         3.2 0.40                           302 235 
 MON  HN ES   4   1040 57.02                             108   -1.44 0  357 308 
 MON  HZ I        1040 57.47         2.4 0.16            109            357 308 
                                                                                
