 2012 1222 1003 19.2 L   6.732 -73.192142.0  RSN  6 0.4 1.9LRSN                1
 GAP=227        0.83       6.6     7.0  6.5  0.2830E+02  0.1100E+02  0.1112E+02E
 Epicentro: VILLANUEVA - SANTANDER                                             3
 ACTION:UPD 13-01-04 14:29 OP:ep   STATUS:               ID:20121222100319 L   I
 2012-12-22-1000-00M.COL___238                                                 6
 STAT SP IPHASW D HRMM SECON CODA AMPLIT PERI AZIMU VELO AIN AR TRES W  DIS CAZ7
 BAR2 SZ EP       10 3 37.94                             173   -0.2810 15.5 176 
 BAR2 SZ ES   1   10 3 52.89                             173   -0.18 7 15.5 176 
 BAR2 SZ I        10 3 54.40        40.4 0.17                          15.5 176 
 BRR  HZ EP     C 10 3 39.75                             152   -0.1510 70.8 306 
 BRR  HN ES       10 3 56.59                             152    0.5310 70.8 306 
 RUS  HZ EP   1   10 3 41.89                             145   -0.17 7 93.7 173 
 RUS  HN ES   1   10 4  0.06                             145    0.15 7 93.7 173 
 RUS  HN I        10 4  1.77        21.0 0.20                          93.7 173 
 PTB  HZ EP       10 3 44.80                             133   -0.46 9  141 261 
 PTB  HN ES   1   10 4  5.29                             133   -0.31 7  141 261 
 PTB  HZ I        10 4  7.35         7.7 0.32                           141 261 
 ZAR  HZ EP   1   10 3 51.61                             122    0.42 6  202 295 
 ZAR  HE ES   1   10 4 16.11                             122   -0.06 6  202 295 
 ZAR  HZ I        10 4 22.01         6.4 0.23                           202 295 
 CHI  HZ EP       10 3 56.40                             117    0.66 8  240 194 
 CHI  HZ I        10 4 29.36         2.8 0.39                           240 194 
                                                                                
