 2010  822 1256 53.1 L   6.783 -73.023146.0  RSN  5 0.2 1.8LRSN                1
 GAP=179        0.58       6.1     9.6  5.8  0.2687E+02 -0.2402E+02 -0.1504E+02E
 Epicentro: CEPITA - SANTANDER                                                 3
 ACTION:UP  10-09-07 10:57 OP:vdl  STATUS:               ID:20100822125653 L   I
 2010-08-22-1254-05S.COL___120                                                 6
 STAT SP IPHASW D HRMM SECON CODA AMPLIT PERI AZIMU VELO SNR AR TRES W  DIS CAZ7
 BAR2 SZ EP       1257 12.96                             169     0.110   28 220 
 BAR2 SZ ES       1257 28.12                             169    -0.110   28 220 
 BAR2 SZ I        1257 29.54        18.9 0.22                            28 220 
 BTL  SZ EP       1257 13.06                             168     0.110   31 299 
 BTL  SZ ES   1   1257 28.63                             168     0.2 7   31 299 
 BRR  HZ EP       1257 14.78                             148    -0.310   84 295 
 BRR  HE ES   1   1257 32.28                             148     0.1 7   84 295 
 BRR  HZ I        1257 54.31        14.2 0.47                            84 295 
 RUS  HZ EP   2   1257 17.17                             145     0.5 5   99 184 
 RUS  HN ES   2   1257 34.72                             145    -0.4 5   99 184 
 RUS  HZ I        1257 36.64         4.3 0.37                            99 184 
 GUE  SZ EP   1   1257 17.60                             140    -0.2 7  116   5 
                                                                                
