 2012  522 1514 58.0 L   6.775 -73.131136.1  RSN  5 0.2 1.5LRSN                1
 GAP=140        0.55       3.7     3.0  5.7 -0.7411E+00  0.5589E+01 -0.1840E+01E
 Epicentro: LOS SANTOS - SANTANDER                                             3
 ACTION:UP  12-07-05 12:07 OP:pat  STATUS:               ID:20120522151458 L   I
 2012-05-22-1510-00M.COL___200                                                 6
 STAT SP IPHASW D HRMM SECON CODA AMPLIT PERI AZIMU VELO SNR AR TRES W  DIS CAZ7
 BAR2 SZ EP       1515 16.50                             171     0.110   21 196 
 BAR2 SZ ES   1   1515 30.51                             171    -0.3 7   21 196 
 BAR2 SZ I        1515 34.93        12.9 0.27                            21 196 
 PAM  SZ EP   1   1515 19.39                             149     0.1 7   79  37 
 PAM  SN ES   1   1515 35.91                             149     0.0 7   79  37 
 RUS  HZ EP   1   1515 20.64                             143     0.0 7   98 177 
 RUS  HZ I        1515 22.26         3.6 0.14                            98 177 
 RUS  HN ES   1   1515 38.51                             143     0.3 7   98 177 
 PTB  HZ EP       1515 23.98                             130    -0.3 9  149 260 
 PTB  HN ES       1515 44.89                             130     0.1 9  149 260 
 PTB  HZ I        1515 47.30         4.7 0.14                           149 260 
 ZAR  HN ES   1   1515 55.47                             120     0.3 6  207 293 
                                                                                
