 2012 1122 1407 47.1 L   6.864 -73.135141.7  RSN  5 0.3 1.4LRSN                1
 GAP=192        0.68       6.8     6.2  7.6  0.2250E+02  0.1952E+02  0.1275E+02E
 Epicentro: LOS SANTOS - SANTANDER                                             3
 ACTION:UPD 12-12-05 15:35 OP:}ep  STATUS:               ID:20121122140747 L   I
 2012-11-22-1400-00M.COL___233                                                 6
 STAT SP IPHASW D HRMM SECON CODA AMPLIT PERI AZIMU VELO AIN AR TRES W  DIS CAZ7
 GIR2 SZ ES   1   14 8 20.66                             170   -0.28 7 24.6 345 
 BAR2 SZ EP   1   14 8  6.80                             167    0.40 7 30.6 190 
 BAR2 SZ ES   1   14 8 21.42                             167   -0.04 7 30.6 190 
 BAR2 SZ I        14 8 29.60        10.2 0.42                          30.6 190 
 RUS  HZ EP   1   14 8 10.83                             141   -0.14 7  108 177 
 RUS  HE ES   1   14 8 29.88                             141    0.28 7  108 177 
 RUS  HZ I        14 8 31.71         2.7 0.32                           108 177 
 PTB  HZ EP   1   14 8 13.43                             130   -0.54 7  150 256 
 PTB  HE ES   1   14 8 34.75                             130   -0.19 7  150 256 
 PTB  HZ I        14 8 41.50         2.8 0.10                           150 256 
 ZAR  HN ES   1   14 8 44.66                             122    0.56 6  203 290 
                                                                                
