 2015  222 1202 45.4 L   6.646 -73.179144.0  RSN  6 0.4 1.8LRSN                1
 GAP=222        1.02       4.8     6.3  7.1  0.5297E+01  0.5159E+01  0.9410E+01E
 Epicentro: VILLANUEVA - SANTANDER                                             3
 ACTION:UPD 15-04-30 21:28 OP:nd   STATUS:               ID:20150222120245 L   I
 OLDACT:DUP 15-02-22 23:03 OP:fm   STATUS:               ID:20150222115751d    3
 2015-02-22-1157-49M.COL___275                                                 6
 STAT SP IPHASW D HRMM SECON CODA AMPLIT PERI AZIMU VELO AIN AR TRES W  DIS CAZ7
 BAR2 EZ EP       12 3  4.58                             178    0.0310 5.92 183 
 BAR2 EZ ES       12 3 19.63                             178    0.1110 5.92 183 
 BAR2 EZ I        12 3 21.32        16.1 0.16            170           5.92 183 
 BRR  HZ EP       12 3  6.62                             150   -0.1010 77.9 311 
 BRR  HE ES       12 3 23.36                             150   -0.0110 77.9 311 
 BRR  HZ I        12 3 25.10        21.8 0.44            150           77.9 311 
 RUS  HZ EP       12 3  6.92                             148   -0.8810 83.9 173 
 RUS  HN ES       12 3 25.72                             148    0.4210 83.9 173 
 RUS  HZ I        12 3 29.05         5.5 0.26            147           83.9 173 
 PTB  HZ EP   1   12 3 12.17                             133    0.53 7  142 265 
 PTB  HN ES       12 3 32.06                             133   -0.08 9  142 265 
 PTB  HZ I        12 3 38.87         8.6 0.18            132            142 265 
 SPBC HZ EP       12 3 12.94                             132    0.65 9  148 222 
 SPBC HE ES       12 3 32.80                             132   -0.49 9  148 222 
 SPBC HZ I        12 3 38.21        12.2 0.24            131            148 222 
 CHI  HZ EP       12 3 21.19                             119    0.11 8  231 195 
 CHI  HN ES       12 3 49.00                             119    0.06 8  231 195 
 CHI  HZ I        12 3 54.79         1.8 0.36            119            231 195 
                                                                                
