 2011  822 1557 26.4 L   6.790 -73.088150.4  RSN 14 0.4 3.2LRSN                1
 GAP=130        0.78       3.2     4.8  5.0 -0.6197E+01  0.3692E+01  0.7914E+00E
 Epicentro: LOS SANTOS - SANTANDER                                             3
 ACTION:UPD 12-07-13 15:53 OP:ep   STATUS:               ID:20110822155726 L   I
 2011-08-22-1555-54S.COL___158                                                 6
 STAT SP IPHASW D HRMM SECON CODA AMPLIT PERI AZIMU VELO AIN AR TRES W  DIS CAZ7
 BAR2 SZ EP   1   1557 46.61                             170    0.04 7 24.2 206 
 BAR2 SZ ES   1   1558  1.54                             170   -0.79 7 24.2 206 
 BAR2 SZ I        1558  3.58       238.5 0.37                          24.2 206 
 BRR  HZ IP     C 1557 48.54                             151    0.1710 77.4 297 
 BRR  HN ES   1   1558  6.25                             151    0.72 7 77.4 297 
 BRR  HZ I        1558  8.78       153.1 0.19                          77.4 297 
 RUS  HZ IP     D 1557 50.59                             145    0.1110 99.2 180 
 RUS  HN ES   1   1558  9.46                             145    0.18 7 99.2 180 
 RUS  HZ I        1558 12.05       153.7 0.38                          99.2 180 
 BRI  SZ EP   1   1557 51.24                             143    0.62 7  107  17 
 BRI  SZ ES   1   1558  9.16                             143   -0.38 7  107  17 
 OCA  SZ EP   1   1557 55.29                             130    0.07 7  162 351 
 NOR  SZ EP   1   1558  2.37                             119   -0.49 6  239 236 
 NOR  SN ES   1   1558 30.91                             119   -0.41 6  239 236 
 CHI  HZ EP   1   1558  4.37                             118   -0.02 6  249 197 
 CHI  HN ES   1   1558 33.82                             118   -0.24 6  249 197 
 CHI  HZ I        1558 39.57        58.2 0.33                           249 197 
 ROSC BZ EP   1   1558  5.48                             117    0.48 6  255 212 
 HEL  HZ EP   1   1558  7.79                             115    0.32 6  278 256 
 HEL  HN ES   1   1558 39.02                             115   -0.52 6  278 256 
 HEL  HZ I        1558 45.04        70.9 0.29                           278 256 
 RREF HZ EP   2   1558 13.12                             111   -0.06 3  326 230 
 RREF HZ I        1558 57.76        78.8 0.26                           326 230 
 COD  HZ EP       1558 14.61                             110   -0.52 6  350 354 
 COD  HZ I        1559  0.72        71.9 0.41                           350 354 
 SDV  BZ EP   1   1558 15.93                             109   -0.17 5  356  49 
 ANIL HZ EP   1   1558 16.01                             109   -0.77 5  361 225 
 ANIL HN ES   1   1558 56.66                             109    0.56 5  361 225 
 ANIL HZ I        1559  0.69       137.6 0.39                           361 225 
 PRA  HZ EP   1   1558 19.97                             107   -0.34 4  394 210 
 PRA  HN ES   1   1559  3.17                             107    0.79 4  394 210 
                                                                                
