 2016 1222 1412 12.8 L   7.359 -73.178132.7  RSN  5 0.1 1.2LRSN                1
 GAP=178        0.37       3.0     1.7  3.1 -0.6354E+00  0.1675E+01 -0.1123E+01E
 Epicentro: RIONEGRO - SANTANDER                                               3
 ACTION:UPD 17-01-11 20:17 OP:rebc STATUS:               ID:20161222141212 L   I
 OLDACT:DUP 16-12-23 02:25 OP:edw  STATUS:               ID:20161222140745d    3
 OLDACT:UP  16-12-23 02:23 OP:edw  STATUS:               ID:20161222140744     3
 OLDACT:REG 16-12-22 20:42 OP:edw  STATUS:               ID:20161222140744     3
 2016-12-22-1408-00M.COL___374                                                 6
 STAT SP IPHASW D HRMM SECON CODA AMPLIT PERI AZIMU VELO AIN AR TRES W  DIS CAZ7
 PAM  EZ EP       1412 32.27                             157    0.0510 52.8  92 
 PAM  EN ES       1412 47.26                             157   -0.1410 52.8  92 
 PAM  EZ I        1412 48.69         2.1 0.19            159           52.8  92 
 BRR  HZ EP       1412 32.10                             152   -0.0510 65.3 245 
 BRR  HE ES       1412 47.48                             152    0.2010 65.3 245 
 BAR2 EZ EP       1412 33.83                             146    0.1010 84.8 180 
 BAR2 EZ ES       1412 50.08                             146   -0.0110 84.8 180 
 BAR2 EZ I        1412 51.44         4.8 0.13            145           84.8 180 
 PTB  HZ EP       1412 40.67                             125    0.02 9  168 237 
 PTB  HN ES       1413  2.24                             125   -0.17 9  168 237 
 PTB  HZ I        1413  6.15         2.0 0.18            125            168 237 
 ZAR  HN ES       1413  5.66                             122   -0.03 9  186 275 
                                                                                
