 2010  222 1045 44.9 L   6.791 -73.041142.1  RSN  7 0.4 2.0LRSN                1
 GAP=194        0.78       4.1     9.5  7.4 -0.2822E+00  0.1294E+02  0.6085E+01E
 Epicentro: LOS SANTOS - SANTANDER                                             3
 ACTION:UP  10-08-24 09:50 OP:vdl  STATUS:               ID:20100222104544 L   I
 2010-02-22-1040-00S.COL___095                                                 6
 STAT SP IPHASW D HRMM SECON CODA AMPLIT PERI AZIMU VELO SNR AR TRES W  DIS CAZ7
 BAR2 SZ EP       1046  4.45                             169     0.310   27 216 
 BAR2 SZ ES   2   1046 18.82                             169    -0.4 5   27 216 
 BRR  HZ EP       1046  5.90                             148    -0.410   82 295 
 BRR  HZ I        1046  6.85        20.5 0.10                            82 295 
 BRR  HN ES   2   1046 23.29                             148     0.3 5   82 295 
 RUS  BZ IP       1046  8.32                             143     0.110   99 183 
 RUS  BE ES   2   1046 26.32                             143    -0.1 5   99 183 
 RUS  BZ I        1046 27.76         9.4 0.18                            99 183 
 OCA  SZ IP       1046 13.21                             128     0.0 9  163 349 
 OCA  SZ ES   2   1046 35.14                             128    -0.1 5  163 349 
 OCA  SZ I        1046 40.25        27.2 0.17                           163 349 
 CHI  HZ EP       1046 22.47                             116    -0.2 8  251 198 
 CHI  HN ES   3   1046 52.06                             116     0.0 2  251 198 
 CHI  HZ I        1047  0.81         2.9 0.41                           251 198 
 RREF BZ EP       1046 32.60                             109     0.8 7  330 231 
 RREF BN ES   2   1047  8.38                             109     0.0 3  330 231 
 RREF BZ I        1047 13.99         3.2 0.56                           330 231 
 PRA  HZ EP       1046 38.23                             106    -0.6 6  397 211 
 PRA  HE ES   3   1047 19.78                             106    -1.2 1  397 211 
 PRA  HZ I        1047 23.71         3.4 0.24                           397 211 
                                                                                
