 2016  422 1759 37.5 L   6.837 -73.165143.8  RSN 10 0.3 2.4LRSN                1
 GAP=132        0.84       3.6     3.6  5.8 -0.3111E+01  0.8942E+01 -0.1011E+01E
 Epicentro: LOS SANTOS - SANTANDER                                             3
 ACTION:UPD 16-05-05 14:23 OP:rebc STATUS:               ID:20160422175937 L   I
 OLDACT:UP  16-04-23 00:18 OP:ar   STATUS:               ID:20160422175747     3
 OLDACT:UP  16-04-23 00:18 OP:ar   STATUS:               ID:20160422175747     3
 OLDACT:ARG 16-04-22 20:27 OP:ar   STATUS:               ID:20160422175747     3
 2016-04-22-1757-47M.COL___319                                                 6
 STAT SP IPHASW D HRMM SECON CODA AMPLIT PERI AZIMU VELO AIN AR TRES W  DIS CAZ7
 BAR2 EZ EP       1759 56.76                             169   -0.1810 27.1 184 
 BAR2 EZ ES       18 0 12.58                             169    0.4510 27.1 184 
 BAR2 EZ I        18 0 17.47        36.4 0.22            169           27.1 184 
 PAM  EZ EP       1759 59.50                             151    0.1310 75.7  43 
 PAM  EE ES       18 0 16.53                             151    0.0710 75.7  43 
 PAM  EZ I        18 0 17.07        38.7 0.24            157           75.7  43 
 RUS  HZ EP       18 0  1.11                             142   -0.2210  105 175 
 RUS  HN ES       18 0 19.42                             142   -0.5310  105 175 
 RUS  HZ I        18 0 20.71        14.6 0.32            146            105 175 
 PTB  HZ EP       18 0  3.64                             132   -0.52 9  147 257 
 PTB  HN ES       18 0 24.75                             132   -0.23 9  147 257 
 PTB  HZ I        18 0 27.28        36.0 0.56            132            147 257 
 SPBC HZ EP       18 0  6.37                             128    0.38 9  165 218 
 SPBC HE ES       18 0 28.64                             128    0.40 9  165 218 
 SPBC HZ I        18 0 31.01        32.5 0.22            130            165 218 
 ZAR  HZ EP       18 0  9.90                             122    0.48 9  201 291 
 ZAR  HN ES       18 0 34.00                             122   -0.35 9  201 291 
 ZAR  HZ I        18 0 41.02        48.7 0.30            124            201 291 
 NOR  HZ EP       18 0 13.21                             118    0.06 8  235 233 
 NOR  HE ES       18 0 41.03                             118    0.04 8  235 233 
 NOR  HZ I        18 0 47.73        18.6 0.16            120            235 233 
 HEL  HZ EP   4   18 0 18.88                             114    1.42 0  271 255 
 HEL  HE ES   4   18 0 50.17                             114    1.51 0  271 255 
 HEL  HZ I        18 0 56.30        21.9 0.38            116            271 255 
 URE  HZ EP   4   18 0 19.96                             113    1.91 0  280 291 
 GUY2CHZ EP   4   18 0 22.66                             112    1.61 0  302 234 
 GUY2CHN ES       18 0 55.33                             112    0.28 7  302 234 
 GUY2CHZ I        18 1  5.73        14.1 0.68                           302 234 
 SJC  HZ EP   4   18 0 30.70                             106   -1.73 0  405 327 
 SJC  HN ES   4   18 1 11.16                             106   -4.14 0  405 327 
 SJC  HZ I        18 1 15.70         5.7 0.46            108            405 327 
                                                                                
