 2016  622 1309 16.3 L   6.812 -73.124145.7  RSN 18 0.6 2.5LRSN                1
 GAP= 72        1.29       3.7     3.5  5.7 -0.2076E+01  0.5303E+01  0.2833E+01E
 Epicentro: LOS SANTOS - SANTANDER                                             3
 ACTION:UPD 16-07-21 22:21 OP:rebc STATUS:               ID:20160622130916 L   I
 OLDACT:REG 16-06-22 20:23 OP:edw  STATUS:               ID:20160622130745     3
 2016-06-22-1307-45M.COL___334                                                 6
 STAT SP IPHASW D HRMM SECON CODA AMPLIT PERI AZIMU VELO AIN AR TRES W  DIS CAZ7
 BAR2 EZ IP     C 13 9 35.72                             170   -0.2610 25.1 195 
 BAR2 EZ ES       13 9 51.29                             170   -0.0210 25.1 195 
 BAR2 EZ I        13 9 54.11        45.9 0.44                          25.1 195 
 BRR  HZ EP     C 13 9 37.49                             152   -0.0610 72.7 297 
 BRR  HN ES       13 9 54.96                             152    0.8510 72.7 297 
 BRR  HZ I        1310  0.56        37.6 0.16                          72.7 297 
 PAM  EZ EP       13 9 38.44                             151    0.0610 74.8  39 
 PAM  EN ES       13 9 55.48                             151   -0.1010 74.8  39 
 PAM  EZ I        13 9 57.34        63.0 0.76                          74.8  39 
 RUS  HZ EP       13 9 39.81                             143   -0.3410  102 177 
 RUS  HN ES       13 9 58.66                             143   -0.0810  102 177 
 RUS  HZ I        13 9 59.48        28.3 0.24                           102 177 
 PTB  HZ EP       13 9 42.65                             131   -0.87 9  150 259 
 PTB  HN ES       1310  3.95                             131   -0.79 9  150 259 
 PTB  HZ I        1310  6.96        36.5 0.12                           150 259 
 TAM  HZ EP       13 9 43.83                             131    0.02 9  153 106 
 TAM  HN ES       1310  5.96                             131    0.71 9  153 106 
 TAM  HZ I        1310  6.10        18.1 0.34                           153 106 
 SPBC HZ EP       13 9 44.72                             128   -0.34 9  166 219 
 SPBC HE ES       1310  6.85                             128   -0.62 9  166 219 
 SPBC HZ I        1310 12.99        39.8 0.28                           166 219 
 ZAR  HZ EP       13 9 49.44                             122    0.49 8  206 292 
 ZAR  HE ES       1310 14.45                             122    0.06 8  206 292 
 ZAR  HZ I        1310 19.63        67.8 0.30                           206 292 
 NOR  HZ EP       13 9 51.53                             118   -0.81 8  237 235 
 NOR  HE ES       1310 19.77                             118   -0.66 8  237 235 
 NOR  HZ I        1310 25.70        18.1 0.22                           237 235 
 CHI  HZ EP       13 9 54.13                             117   -0.10 8  251 196 
 CHI  HE ES       1310 23.58                             117   -0.21 8  251 196 
 CHI  HZ I        1310 33.13         9.5 0.36                           251 196 
 HEL  HZ EP       13 9 57.87                             114    1.04 8  275 256 
 HEL  HN ES       1310 28.19                             114   -0.23 8  275 256 
 HEL  HZ I        1310 36.86        17.3 0.32                           275 256 
 URE  HZ EP       13 9 57.78                             113    0.19 7  286 291 
 URE  HE ES   4   1310 26.85                             113   -2.92 0  286 291 
 GUY2CHZ EP       1310  0.98                             112    0.74 7  304 235 
 GUY2CHE ES       1310 36.43                             112    1.94 7  304 235 
 GUY2CHZ I        1310 44.31        14.7 0.70                           304 235 
 PTGC HZ EP   4   13 9 58.72                             111   -1.50 0  309 159 
 PTGC HE ES   4   1310 31.88                             111   -2.57 0  309 159 
 ELA  HZ EP       1310  4.24                             110    0.76 7  332 230 
 ELA  HN ES   4   1310 41.84                             110    1.58 0  332 230 
 ANIL HZ EP       1310  6.84                             108    0.41 6  360 225 
 ANIL HE ES       1310 46.20                             108    0.69 6  360 225 
 ANIL HZ I        1310 53.75        30.6 0.28                           360 225 
 PRA  HZ EP       1310  9.86                             106   -0.26 6  394 210 
 PRA  HE ES       1310 52.16                             106    0.09 6  394 210 
 PRA  HZ I        1310 56.16         9.9 0.30                           394 210 
 ORTC HZ EP       1310  9.91                             106   -0.62 6  398 216 
 ORTC HE ES       1310 53.03                             106    0.22 6  398 216 
 ORTC HZ I        1310 59.90         4.9 0.25                           398 216 
 CRJC HZ EP       1310 18.02                             103   -0.63 5  466   3 
 CRJC HN ES       1311  7.05                             103   -0.21 5  466   3 
                                                                                
