 2010 1222 1517  6.6 L   6.755 -73.139142.9  RSN  9 0.5 2.2LRSN                1
 GAP=160        0.99       4.4     9.6  7.5 -0.1699E+02  0.1874E+02 -0.2439E+01E
 Epicentro: LOS SANTOS - SANTANDER                                             3
 ACTION:UP  11-01-14 15:26 OP:pat  STATUS:               ID:20101222151706 L   I
 2010-12-22-1500-00M.COL___135                                                 6
 STAT SP IPHASW D HRMM SECON CODA AMPLIT PERI AZIMU VELO SNR AR TRES W  DIS CAZ7
 BAR2 SZ EP       1517 25.57                             172    -0.210   19 195 
 BAR2 SZ ES   1   1517 40.59                             172    -0.2 7   19 195 
 BAR2 SZ I        1517 41.87        93.7 0.15                            19 195 
 BTL  SZ EP   1   1517 25.82                             170    -0.1 7   23 322 
 BTL  SZ ES   1   1517 40.87                             170    -0.1 7   23 322 
 RUS  HZ EP   1   1517 29.59                             145    -0.1 7   96 176 
 RUS  HE ES   1   1517 48.37                             145     0.6 7   96 176 
 RUS  HZ I        1517 49.21        20.2 0.36                            96 176 
 GRA  SZ EP       1517 31.43                             135    -0.610  130  16 
 GRA  SZ I        1517 52.09        14.7 0.24                           130  16 
 OCA  SZ EP   1   1517 35.59                             128     0.4 7  165 353 
 OCA  SZ ES   1   1517 58.36                             128     0.9 7  165 353 
 OCA  SZ I        1518  3.80        17.1 0.36                           165 353 
 NOR  SZ EP   1   1517 41.56                             118    -0.4 6  233 236 
 NOR  SN ES   1   1518  9.09                             118    -0.4 6  233 236 
 CHI  HZ EP   1   1517 43.85                             117     0.2 6  244 196 
 CHI  HE ES   1   1518 13.13                             117     0.6 6  244 196 
 CHI  HZ I        1518 20.69         9.8 0.35                           244 196 
 HEL  HZ EP   2   1517 47.35                             114     0.7 4  272 257 
 HEL  HZ I        1518 25.31        14.9 0.06                           272 257 
 PRA  HZ EP   2   1518  0.52                             106     0.9 3  388 210 
 PRA  HN ES   2   1518 39.93                             106    -1.0 3  388 210 
                                                                                
