 2012  222 1603 60.0 L   6.783 -73.113145.6  RSN 11 0.5 2.2LRSN                1
 GAP=142        0.77       4.3     5.3  6.5 -0.4032E+01  0.9143E+01  0.7771E+01E
 ACTION:UP  12-03-07 16:33 OP:epov STATUS:               ID:20120222160360 L   I
 2012-02-22-1600-00M.COL___191                                                 6
 STAT SP IPHASW D HRMM SECON CODA AMPLIT PERI AZIMU VELO AIN AR TRES W  DIS CAZ7
 BAR2 SZ EP   1   16 4 19.67                             171    0.11 7 22.5 200 
 BAR2 SZ ES   2   16 4 34.29                             171   -0.55 5 22.5 200 
 BAR2 SZ I        16 4 37.10        42.3 0.40                          22.5 200 
 GIR2 SZ EP   2   16 4 19.64                             166   -0.05 5 33.9 345 
 GIR2 SZ ES   2   16 4 34.35                             166   -0.73 5 33.9 345 
 BRR  HZ EP   1   16 4 21.64                             151    0.31 7 75.3 298 
 BRR  HN ES   1   16 4 38.89                             151    0.89 7 75.3 298 
 PAM  SZ EP   1   16 4 22.45                             151    0.33 7 76.6  37 
 PAM  SN ES   2   16 4 39.62                             151    0.22 5 76.6  37 
 RUS  HZ EP   1   16 4 23.59                             144    0.04 7 98.5 178 
 RUS  HE ES   1   16 4 41.87                             144   -0.08 7 98.5 178 
 RUS  HZ I        16 4 43.64        21.0 0.27                          98.5 178 
 PTB  HZ EP   1   16 4 26.44                             131   -0.77 7  151 260 
 PTB  HN ES   2   16 4 48.24                             131   -0.23 5  151 260 
 OCA  SZ ES   2   16 4 49.29                             129   -1.43 5  163 352 
 NOR  SZ EP   1   16 4 36.07                             118    0.18 6  237 235 
 NOR  SN ES   2   16 5  3.56                             118   -0.35 4  237 235 
 HEL  HZ EP   2   16 4 40.96                             114    0.45 4  275 256 
 HEL  HE ES   2   16 5 12.29                             114    0.15 4  275 256 
 HEL  HZ I        16 5 18.68         8.4 0.58                           275 256 
 RREF HZ EP   2   16 4 46.27                             111   -0.01 3  323 230 
 RREF HN ES   2   16 5 22.49                             111    0.08 3  323 230 
 RREF HZ I        16 5 33.64         9.4 0.38                           323 230 
 PRA  HZ EP   1   16 4 53.71                             106    0.21 4  392 210 
 PRA  HN ES   1   16 5 35.07                             106   -0.19 4  392 210 
                                                                                
