 2015  222 1203 39.7 L   6.718 -73.183137.0  RSN  9 0.4 2.0LRSN                1
 GAP=227        0.98       4.3     4.8  6.3  0.1139E+01  0.7917E+01  0.9126E+01E
 Epicentro: VILLANUEVA - SANTANDER                                             3
 ACTION:UPD 15-04-30 21:28 OP:nd   STATUS:               ID:20150222120339 L   I
 OLDACT:DUP 15-02-22 23:09 OP:fm   STATUS:               ID:20150222115752d    3
 2015-02-22-1157-49M.COL___275                                                 6
 STAT SP IPHASW D HRMM SECON CODA AMPLIT PERI AZIMU VELO AIN AR TRES W  DIS CAZ7
 BAR2 EZ EP       12 3 58.21                             174    0.0610 13.9 180 
 BAR2 EZ ES       12 4 12.34                             174   -0.1810 13.9 180 
 BAR2 EZ I        12 4 14.55        19.3 0.22            168           13.9 180 
 BRR  HZ EP       12 4  0.36                             150    0.3310 72.6 306 
 BRR  HN ES       12 4 16.03                             150    0.1810 72.6 306 
 BRR  HZ I        12 4 18.29        13.5 0.16            150           72.6 306 
 RUS  HZ EP       12 4  1.62                             144   -0.3910 91.9 173 
 RUS  HN ES       12 4 19.61                             144    0.2410 91.9 173 
 RUS  HZ I        12 4 22.07        13.2 0.24            144           91.9 173 
 PTB  HZ EP       12 4  5.07                             131   -0.42 9  142 262 
 PTB  HN ES       12 4 24.93                             131   -0.64 9  142 262 
 PTB  HZ I        12 4 33.09        12.7 0.64            130            142 262 
 SPBC HZ EP       12 4  6.90                             129    0.25 9  154 220 
 SPBC HN ES       12 4 28.08                             129    0.44 9  154 220 
 SPBC HZ I        12 4 31.90        17.7 0.40            128            154 220 
 NOR  HZ EP       12 4 13.74                             118   -0.30 8  226 236 
 NOR  HN ES       12 4 41.37                             118    0.58 8  226 236 
 NOR  HZ I        12 4 48.25        10.5 0.24            118            226 236 
 CHI  HZ EP       12 4 16.50                             116    0.62 8  239 195 
 CHI  HN ES       12 4 43.27                             116   -0.81 8  239 195 
 CHI  HZ I        12 4 49.35         6.5 0.48            117            239 195 
 GUY2CHN ES       12 4 55.06                             111    0.14 7  293 236 
 GUY2CHZ I        12 5  4.62         4.3 0.34                           293 236 
 PRA  HN ES       12 5 12.30                             105   -0.10 6  382 210 
 PRA  HZ I        12 5 20.33         3.0 0.32            107            382 210 
                                                                                
