 2013  322 1906 49.3 L   6.915 -73.302134.9  RSN  4 0.4 1.9LRSN                1
 GAP=131        0.96       8.6     4.9  9.3  0.6041E+01  0.3184E+01 -0.1463E+02E
 Epicentro: BETULIA - SANTANDER                                                3
 ACTION:UPD 13-04-09 14:04 OP:ep   STATUS:               ID:20130322190649 L   I
 2013-03-22-1900-00M.COL___241                                                 6
 STAT SP IPHASW D HRMM SECON CODA AMPLIT PERI AZIMU VELO AIN AR TRES W  DIS CAZ7
 BAR2 SZ EP       19 7  7.55                             163   -0.5310 38.1 160 
 BAR2 SZ ES       19 7 22.97                             163    0.2710 38.1 160 
 BAR2 SZ I        19 7 24.32        15.4 0.24            171           38.1 160 
 BRR  HZ EP   4   19 7 10.06                             158    1.85 0 50.0 295 
 BRR  HN ES       19 7 22.98                             158    0.0610 50.0 295 
 BRR  HN I        19 7 27.70        30.2 0.26            152           50.0 295 
 PAM  SZ EP       19 7 11.24                             147    0.5710 81.4  55 
 PAM  SN ES       19 7 26.97                             147   -0.3410 81.4  55 
 PAM  SN I        19 7 29.50        11.3 0.46            149           81.4  55 
 ZAR  HN ES       19 7 41.98                             123   -0.05 9  183 290 
 ZAR  HN I        19 7 51.99         7.5 0.44            121            183 290 
                                                                                
