 2010 1022 1537 46.3 L   6.778 -73.085142.7  RSN  7 0.5 1.9LRSN                1
 GAP=166        1.07       6.1    11.5 11.2 -0.2422E+02  0.1304E+01  0.1237E+02E
 Epicentro: LOS SANTOS - SANTANDER                                             3
 ACTION:UP  11-02-18 11:11 OP:tino STATUS:               ID:20101022153746 L   I
 2010-10-22-1534-17S.COL___125                                                 6
 STAT SP IPHASW D HRMM SECON CODA AMPLIT PERI AZIMU VELO SNR AR TRES W  DIS CAZ7
 BAR2 SZ IP     D 1538  5.75                             170     0.210   23 208 
 BAR2 SZ ES   2   1538 20.18                             170    -0.4 5   23 208 
 BAR2 SZ I        1538 21.83        25.7 0.26                            23 208 
 BRR  HZ EP   1   1538  7.56                             150     0.0 7   78 298 
 BRR  HE ES   2   1538 24.38                             150     0.2 5   78 298 
 BRR  HZ I        1538 25.50        25.4 0.40                            78 298 
 RUS  HZ EP       1538  9.51                             144    -0.110   98 180 
 RUS  HN ES   2   1538 28.09                             144     0.3 5   98 180 
 RUS  HZ I        1538 30.22        10.6 0.30                            98 180 
 GUE  SZ EP   1   1538 12.03                             138     1.2 7  118   9 
 GRA  SZ EP   1   1538 10.50                             136    -0.8 7  126  14 
 GRA  SZ ES   2   1538 30.25                             136    -0.6 5  126  14 
 GRA  SZ I        1538 32.80        10.1 0.47                           126  14 
 NOR  SZ EP   1   1538 21.78                             117    -0.6 6  239 236 
 NOR  SN ES   2   1538 50.68                             117     0.2 4  239 236 
 CHI  HZ EP       1538 23.96                             116     0.1 8  248 197 
 CHI  HN ES   2   1538 52.75                             116    -0.3 4  248 197 
 CHI  HZ I        1538 57.97         5.7 0.76                           248 197 
                                                                                
