 2016  922 1011  1.2 L   6.802 -73.152141.8  RSN  8 0.3 1.4LRSN                1
 GAP=136        0.76       2.8     3.2  4.8 -0.8038E-01  0.4019E+01  0.1268E+01E
 Epicentro: LOS SANTOS - SANTANDER                                             3
 ACTION:UPD 17-08-17 21:15 OP:lp   STATUS:               ID:20160922101101 L   I
 OLDACT:UP  16-09-22 23:10 OP:edw  STATUS:               ID:20160922100736     3
 OLDACT:UP  16-09-22 23:03 OP:edw  STATUS:               ID:20160922100736     3
 OLDACT:REG 16-09-22 21:08 OP:edw  STATUS:               ID:20160922100736     3
 2016-09-22-1008-00M.COL___360                                                 6
 STAT SP IPHASW D HRMM SECON CODA AMPLIT PERI AZIMU VELO AIN AR TRES W  DIS CAZ7
 BAR2 EZ IP     C 1011 20.23                             170   -0.1610 23.4 188 
 BAR2 EZ ES       1011 35.11                             170   -0.2310 23.4 188 
 BAR2 EZ I        1011 44.63         4.9 0.17            170           23.4 188 
 BRR  HZ EP       1011 22.00                             152    0.0810 70.4 299 
 BRR  HN ES       1011 38.47                             152    0.4210 70.4 299 
 PAM  EZ IP     D 1011 23.19                             150    0.1410 77.7  40 
 PAM  EE ES       1011 39.77                             150   -0.3010 77.7  40 
 PAM  EZ I        1011 40.59         5.5 0.18            156           77.7  40 
 RUS  HZ EP       1011 24.75                             143    0.1310  101 176 
 RUS  HN ES       1011 43.24                             143    0.3810  101 176 
 RUS  HZ I        1011 44.69         2.4 0.30            147            101 176 
 PTB  HZ EP       1011 27.23                             131   -0.59 9  147 259 
 PTB  HE ES       1011 48.50                             131   -0.06 9  147 259 
 PTB  HZ I        1011 51.89         3.8 0.20            134            147 259 
 SPBC HZ EP       1011 29.68                             128    0.27 9  163 219 
 SPBC HN ES       1011 50.91                             128   -0.47 9  163 219 
 SPBC HZ I        1011 54.81         3.3 0.20            132            163 219 
 ZAR  HZ EP       1011 33.42                             122    0.07 9  203 292 
 ZAR  HN ES       1011 58.58                             122    0.19 9  203 292 
 ZAR  HZ I        1012  3.68         4.0 0.19            125            203 292 
 CHI  HN ES       1012  8.10                             116    0.14 8  249 195 
                                                                                
