 2012 1222 1949 43.9 L   6.774 -73.132149.3  RSN  7 0.3 1.8LRSN                1
 GAP=139        0.76       5.1     4.4  7.4  0.1882E+01  0.3293E+01  0.5865E+01E
 Epicentro: LOS SANTOS - SANTANDER                                             3
 ACTION:UPD 13-01-04 14:29 OP:ep   STATUS:               ID:20121222194943 L   I
 2012-12-22-1944-35M.COL___224                                                 6
 STAT SP IPHASW D HRMM SECON CODA AMPLIT PERI AZIMU VELO AIN AR TRES W  DIS CAZ7
 BAR2 SZ EP   1   1950  4.19                             172    0.27 7 20.8 195 
 BAR2 SZ I        1950 19.96        17.8 0.31                          20.8 195 
 GIR2 SZ EP   1   1950  4.13                             166    0.04 7 34.4 349 
 BRR  HZ EP       1950  5.92                             152    0.3310 73.9 300 
 BRR  HN ES       1950 22.86                             152    0.3610 73.9 300 
 BRR  HZ I        1950 23.29        13.5 0.14                          73.9 300 
 PAM  SZ EP   1   1950  6.80                             151    0.22 7 78.7  37 
 PAM  SE ES   1   1950 23.59                             151   -0.67 7 78.7  37 
 PAM  SZ I        1950 26.09         7.4 0.46                          78.7  37 
 RUS  HZ EP   1   1950  7.89                             145    0.09 7 97.6 177 
 RUS  HE ES   1   1950 26.23                             145   -0.21 7 97.6 177 
 RUS  HZ I        1950 28.49         7.5 0.39                          97.6 177 
 PTB  HZ EP       1950 10.80                             133   -0.45 9  149 260 
 PTB  HE ES   1   1950 32.58                             133    0.01 7  149 260 
 PTB  HZ I        1950 34.30        12.4 0.11                           149 260 
 ZAR  HN ES   1   1950 42.12                             123   -0.40 6  207 293 
 ZAR  HZ I        1950 47.71         8.0 0.36                           207 293 
                                                                                
