 2017  622 1859 47.9 L   6.797 -73.124157.3  RSN  6 0.3 2.0LRSN                1
 GAP=282        0.63       4.3     7.9  6.7  0.5785E+01 -0.7860E+01  0.6632E+01E
 Epicentro: LOS SANTOS - SANTANDER                                             3
 ACTION:UPD 17-09-14 16:54 OP:jn   STATUS:               ID:20170622185947 L   I
 OLDACT:UP  17-06-23 01:09 OP:dnl  STATUS:               ID:20170622185735     3
 OLDACT:UP  17-06-23 01:09 OP:dnl  STATUS:               ID:20170622185735     3
 OLDACT:UP  17-06-23 01:09 OP:dnl  STATUS:               ID:20170622185735     3
 OLDACT:UP  17-06-23 01:08 OP:dnl  STATUS:               ID:20170622185735     3
 OLDACT:REG 17-06-22 18:54 OP:ar   STATUS:               ID:20170622185735     3
 2017-06-22-1858-00M.COL___350                                                 6
 STAT SP IPHASW D HRMM SECON CODA AMPLIT PERI AZIMU VELO AIN AR TRES W  DIS CAZ7
 BRR  HZ EP       19 0 10.61                             154    0.2210 73.5 298 
 BRR  HE ES       19 0 27.93                             154   -0.0310 73.5 298 
 BRR  HZ I        19 0 29.74        15.8 0.16            147           73.5 298 
 PTB  HZ EP       19 0 15.53                             134   -0.46 9  150 259 
 PTB  HE ES   4   19 0 36.67                             134   -1.26 0  150 259 
 PTB  HZ I        19 0 42.24         9.4 0.50            129            150 259 
 SPBC HZ EP       19 0 17.50                             131    0.12 9  164 220 
 SPBC HE ES       19 0 40.36                             131   -0.05 9  164 220 
 SPBC HZ I        19 0 44.91        18.3 0.24            128            164 220 
 ZAR  HZ EP   2   19 0 20.96                             125   -0.36 4  206 292 
 ZAR  HN ES       19 0 47.54                             125    0.12 8  206 292 
 ZAR  HZ I        19 0 52.81        12.3 0.30            122            206 292 
 GUY2CHZ EP   2   19 0 33.20                             114    0.98 4  303 235 
 GUY2CHE ES   4   19 1  9.08                             114    2.26 0  303 235 
 GUY2CHZ I        19 1 15.05         5.9 0.64                           303 235 
 SJC  HZ EP   4   19 0 43.03                             107   -0.98 0  411 327 
 SJC  HN ES   4   19 1 22.77                             107   -5.04 0  411 327 
 SJC  HZ I        19 1 27.56         1.5 0.42            108            411 327 
                                                                                
