 2010  822 1709 48.6 L   7.337 -73.072134.7  RSN  6 0.3 1.8LRSN                1
 GAP=154        0.73       3.9     7.9  8.5 -0.7709E+01 -0.2062E+02 -0.6306E+00E
 Epicentro: MATANZA - SANTANDER                                                3
 ACTION:UP  10-09-07 10:57 OP:vdl  STATUS:               ID:20100822170948 L   I
 2010-08-22-1707-40S.COL___120                                                 6
 STAT SP IPHASW D HRMM SECON CODA AMPLIT PERI AZIMU VELO SNR AR TRES W  DIS CAZ7
 GUE  SZ EP       1710  8.48                             156     0.210   57  17 
 GUE  SZ I        1710  8.76        15.3 0.13                            57  17 
 GRA  SZ EP       1710  8.84                             152     0.210   67  26 
 GRA  SZ I        1710 10.73        16.0 0.27                            67  26 
 GRA  SZ ES   2   1710 23.19                             152    -1.0 5   67  26 
 BRR  HZ EP       1710  8.65                             149    -0.210   75 250 
 BRR  HE ES   1   1710 24.65                             149     0.1 7   75 250 
 BRR  HZ I        1710 25.56        21.6 0.16                            75 250 
 BAR2 SZ EP   2   1710  9.48                             147    -0.2 5   83 189 
 BAR2 SZ ES   1   1710 26.31                             147     0.2 7   83 189 
 BAR2 SZ I        1710 27.15        13.6 0.92                            83 189 
 OCA  SZ EP   1   1710 10.84                             140    -0.2 7  103 345 
 OCA  SZ I        1710 11.44         7.8 0.12                           103 345 
 OCA  SZ ES   1   1710 28.68                             140     0.1 7  103 345 
 RUS  HZ EP   2   1710 16.07                             127    -0.4 5  160 180 
 RUS  HN ES   2   1710 38.41                             127     0.2 5  160 180 
 RUS  HZ I        1710 39.91         2.7 0.40                           160 180 
                                                                                
