 2016  122 1528 29.6 L   6.788 -73.137151.0  RSN  5 0.3 1.5LRSN                1
 GAP=139        0.86       5.3     5.0  9.3 -0.1109E+02  0.1533E+02 -0.1543E+01E
 Epicentro: LOS SANTOS - SANTANDER                                             3
 ACTION:UPD 16-03-09 23:27 OP:cam  STATUS:               ID:20160122152829 L   I
 OLDACT:UP  16-01-23 01:00 OP:mh   STATUS:               ID:20160122152745     3
 OLDACT:REG 16-01-22 22:39 OP:mh   STATUS:               ID:20160122152745     3
 2016-01-22-1527-45M.COL___324                                                 6
 STAT SP IPHASW D HRMM SECON CODA AMPLIT PERI AZIMU VELO AIN AR TRES W  DIS CAZ7
 PAM  EZ EP       1528 52.83                             152    0.4810 77.8  38 
 PAM  EN ES       1529  9.96                             152   -0.1710 77.8  38 
 PAM  EZ I        1529 11.99         5.6 0.52            155           77.8  38 
 RUS  HZ EP       1528 53.17                             145   -0.5510 99.2 177 
 RUS  HN ES       1529 12.78                             145    0.2110 99.2 177 
 RUS  HZ I        1529 16.31         2.4 0.34            147           99.2 177 
 PTB  HZ EP       1528 56.95                             133   -0.06 9  148 259 
 PTB  HN ES       1529 18.23                             133   -0.19 9  148 259 
 PTB  HZ I        1529 19.73         6.1 0.36            136            148 259 
 NOR  HN ES       1529 34.05                             120    0.36 8  235 235 
 GUY2CHZ EP   4   1529 15.51                             113    2.11 0  301 235 
 GUY2CHN ES   4   1529 51.61                             113    4.00 0  301 235 
 GUY2CHZ I        1529 59.02         2.2 0.44                           301 235 
                                                                                
