 2016  922 1825 33.9 L   5.958 -73.783106.1  RSN  8 0.4 1.8LRSN                1
 GAP=128        1.01       3.7     3.1  7.1 -0.2949E+01  0.1015E+01 -0.7688E+01E
 Epicentro: BOLIVAR - SANTANDER                                                3
 ACTION:UPD 17-08-17 21:15 OP:lp   STATUS:               ID:20160922182533 L   I
 OLDACT:REG 16-09-22 22:53 OP:edw  STATUS:               ID:20160922181658     3
 2016-09-22-1818-00M.COL___366                                                 6
 STAT SP IPHASW D HRMM SECON CODA AMPLIT PERI AZIMU VELO AIN AR TRES W  DIS CAZ7
 SPBC HZ EP       1825 49.54                             154    0.0010 46.6 223 
 SPBC HN ES       1826  1.98                             154    0.2610 46.6 223 
 SPBC HZ I        1826  3.72        22.1 0.38            159           46.6 223 
 RUS  HZ EP       1825 52.02                             141   -0.1310 77.8  95 
 RUS  HN ES       1826  6.22                             141   -0.1410 77.8  95 
 RUS  HZ I        1826  8.00         7.3 0.30            144           77.8  95 
 BAR2 EZ IP     D 1825 53.59                             134    0.2610 96.6  43 
 BAR2 EZ ES       1826  8.62                             134    0.1510 96.6  43 
 BAR2 EZ I        1826 10.82        25.0 0.46            136           96.6  43 
 PTB  HZ EP   2   1825 53.23                             134    0.04 5 98.4 311 
 PTB  HE ES       1826  7.17                             134   -1.0410 98.4 311 
 PTB  HZ I        1826  9.24         9.5 0.16            135           98.4 311 
 BRR  HZ EP       1825 55.73                             126   -0.1510  127   4 
 BRR  HE ES       1826 13.74                             126    0.7310  127   4 
 BRR  HZ I        1826 19.71        11.4 0.40            127            127   4 
 NOR  HZ EP       1825 56.03                             125    0.0010  128 250 
 NOR  HE ES       1826 13.47                             125    0.2110  128 250 
 NOR  HZ I        1826 15.12        20.0 0.26            130            128 250 
 PAM  EZ EP       1826  3.50                             114   -0.13 9  194  38 
 PAM  EE ES       1826 26.43                             114   -0.38 9  194  38 
 PAM  EZ I        1826 32.70         3.7 0.24            116            194  38 
 ZAR  HE ES       1826 28.72                             112    0.40 8  207 325 
                                                                                
