 2014  822 1158 28.6 L   6.806 -73.099141.6  RSN  5 0.3 1.1LRSN                1
 GAP=205        0.85       4.6     6.6  7.2  0.1500E+02 -0.1015E+02 -0.1417E+02E
 Epicentro: LOS SANTOS - SANTANDER                                             3
 ACTION:UPD 14-09-15 21:52 OP:nd   STATUS:               ID:20140822115828 L   I
 OLDACT:UP  14-08-22 20:59 OP:cam  STATUS:               ID:20140822115000     3
 OLDACT:REG 14-08-22 20:09 OP:cam  STATUS:               ID:20140822115000     3
 2014-08-22-1150-00M.COL___285                                                 6
 STAT SP IPHASW D HRMM SECON CODA AMPLIT PERI AZIMU VELO AIN AR TRES W  DIS CAZ7
 BAR2 SZ EP       1158 47.97                             169    0.1910 25.4 201 
 BAR2 SZ ES       1159  2.37                             169   -0.3710 25.4 201 
 BAR2 SZ I        1159  4.56         3.3 0.44            170           25.4 201 
 BRR  HN ES       1159  6.50                             150    0.6010 75.5 296 
 RUS  HZ EP       1158 52.28                             143    0.3010  101 179 
 RUS  HZ I        1158 52.62         2.2 0.32            144            101 179 
 RUS  HN ES       1159 10.00                             143   -0.2210  101 179 
 PTB  HE ES       1159 16.62                             130   -0.25 9  153 259 
 SML  HZ EP       1159  5.05                             116   -0.12 8  245 334 
 SML  HN ES       1159 33.36                             116   -0.34 8  245 334 
                                                                                
