 2015 1022 1709 34.9 L   6.783 -73.133146.0  RSN  9 0.5 1.9LRSN                1
 GAP=139        1.12       3.9     5.0  6.4 -0.1479E+01  0.1173E+02  0.2849E+01E
 Epicentro: LOS SANTOS - SANTANDER                                             3
 ACTION:UPD 15-12-22 20:42 OP:cam  STATUS:               ID:20151022170934 L   I
 OLDACT:REG 15-10-22 21:23 OP:dnl  STATUS:               ID:20151022170750     3
 2015-10-22-1707-50M.COL___313                                                 6
 STAT SP IPHASW D HRMM SECON CODA AMPLIT PERI AZIMU VELO AIN AR TRES W  DIS CAZ7
 BAR2 EZ EP       17 9 54.60                             171    0.0310 21.7 195 
 BAR2 EZ ES       1710  9.75                             171   -0.1310 21.7 195 
 BAR2 EZ I        1710 12.27        16.2 0.28            171           21.7 195 
 BRR  HZ EP       17 9 56.44                             152    0.2010 73.4 299 
 BRR  HN ES       1710 13.47                             152    0.6210 73.4 299 
 BRR  HZ I        1710 15.98        12.9 0.32            149           73.4 299 
 PAM  EZ EP       17 9 57.51                             151    0.2910 78.0  38 
 PAM  EE ES       1710 14.80                             151    0.2010 78.0  38 
 PAM  EZ I        1710 17.59        15.9 0.34            152           78.0  38 
 RUS  HZ EP       17 9 58.14                             144   -0.4410 98.6 177 
 RUS  HE ES       1710 16.72                             144   -0.2910 98.6 177 
 RUS  HZ I        1710 18.61         9.0 0.30            147           98.6 177 
 ZAR  HZ EP       1710  7.51                             122   -0.10 8  206 292 
 ZAR  HE ES       1710 32.40                             122   -0.70 8  206 292 
 ZAR  HZ I        1710 37.88         8.0 0.42            122            206 292 
 NOR  HZ EP       1710 11.07                             119    0.38 8  235 235 
 NOR  HN ES       1710 38.18                             119   -0.39 8  235 235 
 NOR  HZ I        1710 44.06         5.5 0.24            119            235 235 
 SML  HZ EP       1710 10.91                             117   -0.93 8  246 335 
 SML  HN ES   4   1710 38.85                             117   -1.76 0  246 335 
 SML  HZ I        1710 50.95        13.6 0.16            118            246 335 
 CHI  HZ EP       1710 12.97                             117    0.48 8  247 196 
 CHI  HE ES       1710 41.20                             117   -0.58 8  247 196 
 CHI  HZ I        1710 47.18         5.4 0.40            119            247 196 
 GUY2CHZ EP       1710 19.52                             112    0.95 7  301 235 
 GUY2CHE ES       1710 53.15                             112    0.56 7  301 235 
 GUY2CHZ I        1711  0.73         4.7 0.42                           301 235 
                                                                                
