 2016 1222 1450  6.5 L   6.771 -73.133144.9  RSN  7 0.5 2.0LRSN                1
 GAP=140        1.21       5.5     5.2  7.6 -0.6871E+00  0.1345E+02  0.3166E+01E
 Epicentro: LOS SANTOS - SANTANDER                                             3
 ACTION:UPD 17-01-11 20:17 OP:rebc STATUS:               ID:20161222145006 L   I
 OLDACT:REG 16-12-22 20:46 OP:edw  STATUS:               ID:20161222144747     3
 2016-12-22-1448-00M.COL___380                                                 6
 STAT SP IPHASW D HRMM SECON CODA AMPLIT PERI AZIMU VELO AIN AR TRES W  DIS CAZ7
 BAR2 EZ EP       1450 25.82                             172   -0.1710 20.5 196 
 BAR2 EZ ES       1450 40.91                             172   -0.2710 20.5 196 
 BAR2 EZ I        1450 43.46        32.0 0.32            170           20.5 196 
 BRR  HZ EP       1450 27.77                             151    0.0410 74.0 300 
 BRR  HN ES       1450 44.95                             151    0.6610 74.0 300 
 BRR  HZ I        1450 45.92        14.5 0.24            150           74.0 300 
 PAM  EZ IP     C 1450 28.60                             150   -0.1410 79.0  37 
 PAM  EN ES       1450 45.83                             150   -0.2410 79.0  37 
 PAM  EZ I        1450 47.90        13.7 0.50            154           79.0  37 
 RUS  HZ EP       1450 30.05                             145    0.1010 97.3 177 
 RUS  HN ES       1450 48.78                             145    0.5610 97.3 177 
 RUS  HZ I        1450 51.15         8.5 0.42            147           97.3 177 
 PTB  HZ EP       1450 32.81                             132   -0.68 9  149 260 
 PTB  HN ES       1450 53.63                             132   -0.90 9  149 260 
 PTB  HZ I        1451  0.97        20.5 0.38            132            149 260 
 ZAR  HZ EP       1450 39.17                             122    0.00 8  207 293 
 ZAR  HN ES       1451  5.34                             122    0.70 8  207 293 
 ZAR  HZ I        1451 11.94         8.4 0.26            123            207 293 
 GUY2CHZ EP       1450 50.88                             112    0.87 7  301 235 
 GUY2CHN ES       1451 23.67                             112   -0.26 7  301 235 
 GUY2CHZ I        1451 32.56         5.9 0.70                           301 235 
                                                                                
