 2012  422 1702  2.4 L   6.755 -73.101143.5  RSN 10 0.3 2.2LRSN                1
 GAP=144        0.74       3.0     3.7  4.5 -0.1305E+01  0.5153E+01  0.1800E+01E
 Epicentro: LOS SANTOS - SANTANDER                                             3
 ACTION:UPD 12-07-05 11:55 OP:tino STATUS:               ID:20120422170202 L   I
 2012-04-22-1700-00M.COL___186                                                 6
 STAT SP IPHASW D HRMM SECON CODA AMPLIT PERI AZIMU VELO AIN AR TRES W  DIS CAZ7
 BAR2 SZ EP       17 2 21.83                             172     0.110   20 207 
 BAR2 SZ I        17 2 22.18        46.0 0.05                            20 207 
 BAR2 SZ ES       17 2 36.59                             172    -0.210   20 207 
 BRR  HZ EP       17 2 23.76                             150     0.110   78 300 
 BRR  HZ I        17 2 24.11        49.6 0.10                            78 300 
 BRR  HE ES       17 2 40.58                             150     0.310   78 300 
 PAM  SZ EP       17 2 24.72                             150     0.310   78  34 
 PAM  SN ES       17 2 41.59                             150     0.010   78  34 
 RUS  HZ EP       17 2 25.68                             145     0.110   95 179 
 RUS  HN ES   1   17 2 43.20                             145    -0.4 7   95 179 
 RUS  HZ I        17 2 45.29        12.4 0.24                            95 179 
 OCA  SZ EP       17 2 30.81                             128    -0.3 9  166 352 
 ZAR  HZ EP   1   17 2 34.66                             121    -0.7 6  211 293 
 ZAR  HN ES   1   17 3  0.77                             121    -0.3 6  211 293 
 ZAR  HZ I        17 3  6.88        28.0 0.32                           211 293 
 NOR  SZ EP   1   17 2 38.09                             118     0.0 6  236 236 
 CHI  HZ EP   1   17 2 39.03                             117    -0.6 6  245 197 
 CHI  HE ES   1   17 3  8.84                             117     0.2 6  245 197 
 CHI  HZ I        17 3 14.64         7.2 0.26                           245 197 
 HEL  HZ EP   1   17 2 43.00                             114     0.1 6  276 257 
 HEL  HN ES   1   17 3 14.79                             114     0.3 6  276 257 
 HEL  HZ I        17 3 20.78         8.4 0.45                           276 257 
 RREF HZ EP   1   17 2 49.25                             110     0.7 5  322 231 
 RREF HN ES   1   17 3 24.37                             110    -0.1 5  322 231 
 RREF HZ I        17 3 29.39         7.4 0.45                           322 231 
                                                                                
