 2014 1022 1734 12.4 L   6.817 -73.158143.0  RSN 17 0.4 2.2LRSN                1
 GAP= 70        0.79       2.1     2.6  4.4 -0.5663E+00  0.3138E+01  0.1361E+01E
 Epicentro: LOS SANTOS - SANTANDER                                             3
 ACTION:UPD 14-11-29 23:54 OP:nd   STATUS:               ID:20141022173412 L   I
 OLDACT:DUP 14-10-25 15:05 OP:spq  STATUS:               ID:20141022172751d    3
 2014-10-22-1727-50M.COL___289                                                 6
 STAT SP IPHASW D HRMM SECON CODA AMPLIT PERI AZIMU VELO AIN AR TRES W  DIS CAZ7
 BAR2 SZ EP       1734 31.81                             170    0.1010 24.9 186 
 BAR2 SZ ES   1   1734 46.36                             170   -0.43 7 24.9 186 
 BAR2 SZ I        1734 49.56        44.6 0.18            169           24.9 186 
 PAM  SZ EP       1734 34.54                             150    0.2710 76.9  41 
 PAM  SN ES       1734 51.69                             150    0.3410 76.9  41 
 PAM  SZ I        1734 54.29        20.4 0.62            155           76.9  41 
 RUS  HZ EP       1734 35.62                             143   -0.3810  103 175 
 RUS  HN ES       1734 54.70                             143    0.2710  103 175 
 RUS  HZ I        1734 56.09        18.8 0.24            145            103 175 
 PTB  HZ EP       1734 38.63                             132   -0.41 9  147 258 
 PTB  HN ES       1734 59.61                             132   -0.21 9  147 258 
 PTB  HZ I        1735  7.14        17.5 0.34            132            147 258 
 TAM  HZ EP       1734 39.97                             129   -0.04 9  157 105 
 TAM  HN ES   1   1735  1.16                             129   -0.40 7  157 105 
 TAM  HZ I        1735  2.41        12.2 0.64            135            157 105 
 OCA  HZ EP   1   1734 39.73                             129   -0.56 7  158 354 
 OCA  HN ES       1735  2.53                             129    0.47 9  158 354 
 OCA  HZ I        1735  6.60        12.7 0.36            132            158 354 
 SPBC HZ EP       1734 40.68                             128   -0.04 9  164 218 
 SPBC HE ES       1735  2.73                             128   -0.10 9  164 218 
 SPBC HZ I        1735  5.54        29.6 0.22            130            164 218 
 ZAR  HZ EP       1734 44.39                             122   -0.06 9  202 292 
 ZAR  HE ES       1735  9.38                             122   -0.07 9  202 292 
 ZAR  HZ I        1735 16.08        13.4 0.26            123            202 292 
 SML  HZ EP   1   1734 48.01                             117   -0.60 6  241 335 
 SML  HE ES   1   1735 16.69                             117   -0.18 6  241 335 
 SML  HZ I        1735 21.99        17.0 0.04            119            241 335 
 CHI  HZ EP       1734 49.84                             116   -0.24 8  250 195 
 CHI  HN ES   1   1735 19.04                             116   -0.45 6  250 195 
 CHI  HZ I        1735 22.01         5.3 0.28            119            250 195 
 ROSC BZ EP   4   1734 51.70                             116    1.25 0  254 211 
 ROSC BE ES   4   1735 23.90                             116    3.76 0  254 211 
 ROSC BZ I        1735 27.49        13.6 0.35            118            254 211 
 HEL  HE ES   4   1735 24.71                             114    1.17 0  271 255 
 HEL  HZ I        1735 30.88        10.4 0.24            116            271 255 
 GUY2CHZ EP   1   1734 56.62                             112    0.76 5  301 234 
 GUY2CHE ES   1   1735 30.14                             112    0.38 5  301 234 
 GUY2CHZ I        1735 38.51         9.6 0.74                           301 234 
 TOL  SZ EP       1735  1.48                             109    0.91 7  344 224 
 TOL  SN ES   4   1735 40.16                             109    2.01 0  344 224 
 TOL  SZ I        1735 44.15        15.8 0.60            110            344 224 
 MON  HE ES   4   1735 37.65                             108   -1.31 0  351 308 
 MON  HZ I        1735 39.80         2.5 0.48            110            351 308 
 PRA  HZ EP       1735  6.50                             106    0.58 6  393 209 
 PRA  HE ES       1735 48.12                             106    0.45 6  393 209 
 PRA  HZ I        1735 52.45         4.7 0.50            108            393 209 
 ORTC HZ EP       1735  6.11                             106   -0.18 6  396 216 
 ORTC HN ES       1735 48.58                             106    0.25 6  396 216 
 ORTC HZ I        1735 54.70         5.7 0.42            108            396 216 
                                                                                
