 2015  222 1200 56.1 L   6.829 -73.148147.2  RSN 20 0.5 2.5LRSN                1
 GAP= 70        1.14       2.6     3.3  5.2 -0.1299E+01  0.5061E+01  0.1107E+01E
 Epicentro: LOS SANTOS - SANTANDER                                             3
 ACTION:UPD 15-04-30 21:28 OP:nd   STATUS:               ID:20150222120056 L   I
 OLDACT:DUP 15-02-22 22:53 OP:fm   STATUS:               ID:20150222115750d    3
 2015-02-22-1157-49M.COL___275                                                 6
 STAT SP IPHASW D HRMM SECON CODA AMPLIT PERI AZIMU VELO AIN AR TRES W  DIS CAZ7
 BAR2 EZ IP     D 12 1 16.29                             169    0.3510 26.4 188 
 BAR2 EZ ES       12 1 31.09                             169   -0.3510 26.4 188 
 BAR2 EZ I        12 1 32.97        60.7 0.20            169           26.4 188 
 BRR  HZ EP       12 1 18.04                             153    0.7610 69.5 296 
 BRR  HE ES       12 1 34.62                             153    0.8010 69.5 296 
 BRR  HZ I        12 1 39.09        59.5 0.44            150           69.5 296 
 PAM  SZ IP     D 12 1 19.27                             152    0.9610 75.2  41 
 PAM  SE ES       12 1 35.96                             152    0.3010 75.2  41 
 PAM  SZ I        12 1 38.42        76.6 0.52            155           75.2  41 
 RUS  HZ EP       12 1 20.50                             143    0.3010  104 176 
 RUS  HN ES       12 1 38.74                             143   -0.2710  104 176 
 RUS  HZ I        12 1 40.03        26.9 0.24            146            104 176 
 PTB  HZ EP       12 1 23.19                             132   -0.00 9  148 258 
 PTB  HE ES       12 1 43.85                             132   -0.49 9  148 258 
 PTB  HZ I        12 1 46.73        25.4 0.10            131            148 258 
 TAM  HE ES       12 1 44.93                             131   -0.80 9  156 106 
 OCA  HZ EP       12 1 24.18                             130   -0.02 9  157 353 
 OCA  HE ES       12 1 45.50                             130   -0.64 9  157 353 
 OCA  HZ I        12 1 50.87        32.0 0.42            131            157 353 
 SPBC HZ EP       12 1 25.27                             129    0.37 9  165 218 
 SPBC HE ES       12 1 47.28                             129   -0.10 9  165 218 
 SPBC HZ I        12 1 51.60        54.8 0.40            129            165 218 
 NOR  HZ EP       12 1 32.40                             119    0.34 8  236 234 
 NOR  HE ES       12 2  0.02                             119   -0.11 8  236 234 
 NOR  HZ I        12 2  6.21        23.4 0.22            119            236 234 
 SML  HZ EP       12 1 32.42                             118   -0.04 8  241 335 
 SML  HE ES       12 2  0.10                             118   -0.73 8  241 335 
 SML  HZ I        12 2  5.74        70.2 0.10            119            241 335 
 CHI  HZ EP     C 12 1 34.50                             117    0.32 8  252 195 
 CHI  HN ES       12 2  2.98                             117   -0.92 8  252 195 
 CHI  HZ I        12 2  7.31        24.6 0.58            119            252 195 
 ROSC BZ EP   4   12 1 33.89                             117   -0.66 0  255 211 
 ROSC BE ES       12 2  4.27                             117   -0.30 8  255 211 
 ROSC BZ I        12 2 10.63        44.3 0.45            118            255 211 
 URE  HE ES   1   12 2  8.77                             114   -0.25 6  282 291 
 URE  HZ I        12 2 19.00        18.1 0.20            114            282 291 
 GUY2CHZ EP       12 1 39.84                             112   -0.09 7  303 234 
 GUY2CHE ES       12 2 14.85                             112    0.71 7  303 234 
 GUY2CHZ I        12 2 22.55        14.9 0.34                           303 234 
 DBB  SZ ES       12 2 20.17                             110   -0.41 7  339 274 
 DBB  SZ I        12 2 21.89        38.9 0.30            110            339 274 
 MON  HE ES       12 2 22.29                             109   -0.65 6  351 308 
 MON  HZ I        12 2 37.24         6.3 0.58            109            351 308 
 SDV  BZ EP       12 1 45.22                             109   -0.74 6  359  51 
 SDV  BE ES   4   12 2 19.15                             109   -5.73 0  359  51 
 SDV  BZ I        12 2 20.33         7.4 0.35            111            359  51 
 PRA  HZ EP       12 1 50.36                             107    0.41 6  395 209 
 PRA  HE ES       12 2 31.77                             107   -0.20 6  395 209 
 PRA  HZ I        12 2 38.26        15.4 0.34            108            395 209 
 ORTC HZ EP       12 1 50.55                             106    0.22 6  398 216 
 ORTC HN ES       12 2 32.71                             106    0.07 6  398 216 
 ORTC HZ I        12 2 37.62        13.4 0.30            107            398 216 
 PAL  HZ EP       12 1 51.01                             106   -0.44 6  407 239 
 PAL  HN ES       12 2 34.50                             106   -0.13 6  407 239 
 PAL  HZ I        12 2 39.81         3.3 0.24            107            407 239 
                                                                                
