 2015  122 1134 57.0 L   6.679 -73.122146.8  RSN  6 0.2 1.6LRSN                1
 GAP=145        0.51       2.9     3.4  4.3  0.3750E+01  0.8054E+00 -0.1657E+01E
 Epicentro: VILLANUEVA - SANTANDER                                             3
 ACTION:UPD 15-03-02 15:41 OP:nd   STATUS:               ID:20150122113457 L   I
 OLDACT:REG 15-01-22 20:20 OP:spq  STATUS:               ID:20150122112748     3
 2015-01-22-1127-48M.COL___261                                                 6
 STAT SP IPHASW D HRMM SECON CODA AMPLIT PERI AZIMU VELO AIN AR TRES W  DIS CAZ7
 BAR2 EZ EP       1135 16.76                             175    0.1710 11.7 215 
 BAR2 EZ ES   1   1135 31.81                             175   -0.05 7 11.7 215 
 BAR2 EZ I        1135 32.35         7.3 0.22            177           11.7 215 
 BRR  HZ EP   1   1135 18.70                             150   -0.12 7 80.6 306 
 BRR  HN ES       1135 36.11                             150    0.2710 80.6 306 
 BRR  HZ I        1135 37.79        10.3 0.44            150           80.6 306 
 PAM  SZ EP   1   1135 19.80                             148   -0.11 7 86.7  33 
 PAM  SE ES   1   1135 37.58                             148   -0.19 7 86.7  33 
 PAM  SZ I        1135 39.90         3.2 0.38            147           86.7  33 
 RUS  HZ EP       1135 20.13                             148    0.2010 87.0 177 
 RUS  HE ES   1   1135 37.53                             148   -0.29 7 87.0 177 
 RUS  HZ I        1135 38.62         3.0 0.36            151           87.0 177 
 ZAR  HE ES       1135 56.00                             122   -0.32 8  212 295 
 ZAR  HZ I        1135 57.43         4.1 0.46            122            212 295 
 SML  HZ EP   1   1135 34.93                             116   -0.21 6  257 336 
 SML  HE ES   1   1136  5.13                             116    0.25 6  257 336 
 SML  HZ I        1136  8.20         5.1 0.10            117            257 336 
                                                                                
