 2014 1122 1156 54.6 L   6.805 -73.150144.1  RSN 11 0.6 2.0LRSN                1
 GAP=136        2.03       7.1     7.5 11.2 -0.1786E+01  0.2549E+02  0.1483E+02E
 Epicentro: LOS SANTOS - SANTANDER                                             3
 ACTION:UPD 14-12-19 15:46 OP:nd   STATUS:               ID:20141122115654 L   I
 OLDACT:ARG 14-11-22 21:32 OP:stll STATUS:               ID:20141122114743     3
 2014-11-22-1147-43M.COL___297                                                 6
 STAT SP IPHASW D HRMM SECON CODA AMPLIT PERI AZIMU VELO AIN AR TRES W  DIS CAZ7
 BAR2 SZ EP       1157 14.12                             170    0.0610 23.8 189 
 BAR2 SZ I        1157 14.50        10.1 0.24            166           23.8 189 
 BAR2 SZ ES       1157 29.26                             170    0.0410 23.8 189 
 BRR  HZ EP       1157 15.82                             153    0.2710 70.5 298 
 BRR  HN ES       1157 32.60                             153    0.7210 70.5 298 
 BRR  HZ I        1157 36.72        20.2 0.10            151           70.5 298 
 PAM  SZ EP       1157 16.78                             151    0.1310 77.3  40 
 PAM  SN ES       1157 33.32                             151   -0.5210 77.3  40 
 PAM  SZ I        1157 34.50         9.5 0.18            157           77.3  40 
 RUS  HZ EP       1157 18.21                             143   -0.0410  101 176 
 RUS  HZ I        1157 19.04         6.6 0.28            144            101 176 
 RUS  HN ES       1157 36.78                             143    0.1010  101 176 
 PTB  HZ EP       1157 20.71                             131   -0.71 9  147 259 
 PTB  HN ES       1157 41.16                             131   -1.16 9  147 259 
 PTB  HZ I        1157 44.94        17.3 0.36            131            147 259 
 SPBC HZ EP       1157 22.96                             128   -0.04 9  163 219 
 SPBC HN ES       1157 45.92                             128    0.78 9  163 219 
 SPBC HZ I        1157 52.56        20.7 0.22            128            163 219 
 ZAR  HZ EP       1157 26.71                             122   -0.18 9  203 292 
 ZAR  HN ES       1157 51.87                             122   -0.19 9  203 292 
 ZAR  HZ I        1157 58.68        14.6 0.42            123            203 292 
 NOR  HZ EP       1157 30.43                             118    0.19 8  235 234 
 NOR  HN ES       1157 57.84                             118   -0.19 8  235 234 
 NOR  HZ I        1158  6.53         8.9 0.18            119            235 234 
 CHI  HZ EP       1157 31.48                             116   -0.79 8  249 195 
 CHI  HN ES       1158  1.06                             116   -0.58 8  249 195 
 CHI  HZ I        1158  8.11         4.9 0.66            118            249 195 
 HEL  HZ EP       1157 36.11                             114    1.40 8  272 256 
 HEL  HN ES       1158  6.99                             114    1.01 8  272 256 
 HEL  HZ I        1158 13.91         7.8 0.28            115            272 256 
 SJC  HZ EP   9   1157 47.91                             105   -2.13 0  408 327 
 SJC  HZ I        1157 49.10         2.6 0.80            107            408 327 
 SJC  HN ES       1158 26.65                                   -4.49 6  408 327 
                                                                                
