 2010 1122 1914 50.4 L   6.534 -73.536110.4  RSN 17 0.4 3.2LRSN                1
 GAP= 64        0.85       2.4     3.6  5.3 -0.3087E+01  0.8141E+01  0.1526E+01E
 Epicentro: EL CARMEN DE CHUCURI - SANTANDER                                   3
 ACTION:UP  10-12-17 16:54 OP:REBC STATUS:               ID:20101122191450 L   I
 2010-11-22-1911-05S.COL___132                                                 6
 STAT SP IPHASW D HRMM SECON CODA AMPLIT PERI AZIMU VELO SNR AR TRES W  DIS CAZ7
 BAR2 SZ IP       1915  6.64                             159     0.310   39  81 
 BAR2 SZ ES   1   1915 18.78                             159    -0.1 7   39  81 
 BAR2 SZ I        1915 20.44      1446.0 0.44                            39  81 
 BRR  HZ IP     D 1915  7.46                             147    -0.110   66 343 
 BRR  HZ I        1915  7.73       235.3 0.15                            66 343 
 BRR  HN ES   1   1915 21.05                             147     0.2 7   66 343 
 GIR2 SZ IP       1915  8.20                             145     0.110   71  32 
 GIR2 SZ ES   1   1915 22.04                             145     0.2 7   71  32 
 RUS  HZ IP     D 1915  9.55                             139    -0.210   87 145 
 RUS  HE ES   1   1915 24.83                             139     0.0 7   87 145 
 RUS  HZ I        1915 26.43       170.9 0.44                            87 145 
 GUE  SZ EP       1915 16.78                             121     0.5 9  158  25 
 GRA  SZ EP   1   1915 17.04                             118    -0.2 7  170  28 
 GRA  SZ ES   1   1915 38.21                             118     0.0 7  170  28 
 GRA  SZ I        1915 42.39       268.3 0.31                           170  28 
 NOR  SZ IP       1915 18.07                             116    -0.5 9  183 234 
 NOR  SE ES   1   1915 39.51                             116    -0.9 7  183 234 
 OCA  SZ EP       1915 19.20                             115    -0.3 9  190   7 
 OCA  SZ ES   1   1915 41.78                             115    -0.3 7  190   7 
 OCA  SZ I        1915 48.23       337.7 0.42                           190   7 
 CHI  HZ EP   1   1915 21.77                             113    -0.4 6  212 186 
 CHI  HE ES   1   1915 47.18                             113     0.2 6  212 186 
 CHI  HZ I        1915 53.73        60.4 0.29                           212 186 
 HEL  HZ EP   1   1915 23.53                             111     0.0 6  224 260 
 HEL  HE ES   1   1915 49.24                             111    -0.1 6  224 260 
 GUY  SZ EP   1   1915 27.56                             109     1.0 6  249 235 
 GUY  SZ I        1916  1.26       178.9 0.44                           249 235 
 VIL  SZ EP   2   1915 28.10                             107    -0.2 4  268 182 
 VIL  SE ES   2   1915 57.40                             107    -0.5 4  268 182 
 VIL  SZ I        1916  7.16        64.0 0.44                           268 182 
 RREF HZ EP       1915 29.54                             107     0.4 8  270 228 
 RREF HN ES   1   1916  0.04                             107     0.6 6  270 228 
 RREF HZ I        1916  5.52        81.5 0.17                           270 228 
 TOL  SZ EP   1   1915 31.80                             105     0.3 5  292 223 
 DBB  SZ EP   1   1915 31.83                             104    -0.2 5  300 280 
 DBB  SZ I        1916  8.64        20.9 0.32                           300 280 
 PRA  HZ EP       1915 37.22                             102    -0.2 6  346 206 
 PRA  HE ES   1   1916 14.84                             102     0.7 5  346 206 
 PRA  HZ I        1916 17.37       213.0 0.14                           346 206 
 SJA  SZ EP   1   1915 39.13                             101    -0.5 5  364 187 
 SJA  SZ ES   2   1916 18.22                             101     0.2 3  364 187 
 SJA  SZ I        1916 23.18       142.6 0.85                           364 187 
                                                                                
