 2016 1222 1114 32.9 L   6.774 -73.082147.2  RSN  7 0.2 1.4LRSN                1
 GAP=242        0.58       3.2     5.3  4.1  0.6525E+01 -0.3592E+01  0.1700E+01E
 Epicentro: LOS SANTOS - SANTANDER                                             3
 ACTION:UPD 17-01-11 20:17 OP:rebc STATUS:               ID:20161222111432 L   I
 OLDACT:UP  16-12-22 23:41 OP:edw  STATUS:               ID:20161222110749     3
 OLDACT:UP  16-12-22 23:40 OP:edw  STATUS:               ID:20161222110749     3
 OLDACT:UP  16-12-22 23:35 OP:edw  STATUS:               ID:20161222110749     3
 OLDACT:REG 16-12-22 20:20 OP:edw  STATUS:               ID:20161222110749     3
 2016-12-22-1108-00M.COL___356                                                 6
 STAT SP IPHASW D HRMM SECON CODA AMPLIT PERI AZIMU VELO AIN AR TRES W  DIS CAZ7
 BAR2 EZ EP       1114 52.57                             171   -0.1110 23.0 209 
 BAR2 EZ ES       1115  7.89                             171   -0.2410 23.0 209 
 BAR2 EZ I        1115  9.58         6.7 0.22            162           23.0 209 
 BRR  HZ IP       1114 54.65                             150    0.0210 78.7 298 
 BRR  HN ES       1115 11.94                             150    0.3510 78.7 298 
 RUS  HZ EP       1114 56.43                             145   -0.1310 97.5 180 
 RUS  HN ES       1115 15.14                             145    0.1110 97.5 180 
 RUS  HZ I        1115 16.59         3.9 0.20            141           97.5 180 
 PTB  HZ EP   9   1114 59.77                             131   -0.78 0  154 260 
 PTB  HN ES       1115 20.97                             132   -0.38 9  154 260 
 PTB  HZ I        1115 25.89         2.1 0.14            126            154 260 
 ZAR  HZ EP   4   1115  9.76                             122    3.55 0  212 292 
 ZAR  HN ES   2   1115 31.67                             122   -0.53 4  212 292 
 ZAR  HZ I        1115 37.09         3.4 0.17            119            212 292 
 CHI  HZ EP       1115 10.73                             117    0.15 8  248 197 
 CHI  HN ES       1115 39.98                             117    0.00 8  248 197 
 CHI  HZ I        1115 46.05         0.9 0.22            115            248 197 
 GUY2CHZ EP   4   1115 18.39                             112    1.36 0  305 236 
 GUY2CHN ES   4   1115 52.89                             112    1.43 0  305 236 
 GUY2CHZ I        1115 59.13         1.1 0.30                           305 236 
                                                                                
