 2017  322 1312  1.4 L   6.717 -73.565113.1  RSN  7 0.4 1.8LRSN                1
 GAP= 97        1.34       7.1     6.3  9.5 -0.2276E+02  0.4243E+01  0.3351E+01E
 Epicentro: EL CARMEN - SANTANDER                                              3
 ACTION:UPD 17-05-25 18:43 OP:jn   STATUS:               ID:20170322131201 L   I
 OLDACT:UP  17-03-22 22:25 OP:cog  STATUS:               ID:20170322130749d    3
 OLDACT:UP  17-03-22 22:24 OP:cog  STATUS:               ID:20170322130749d    3
 OLDACT:DUP 17-03-22 22:19 OP:cog  STATUS:               ID:20170322130749d    3
 2017-03-22-1308-00M.COL___385                                                 6
 STAT SP IPHASW D HRMM SECON CODA AMPLIT PERI AZIMU VELO AIN AR TRES W  DIS CAZ7
 BAR2 EZ EP       1312 18.01                             156    0.1510 44.5 108 
 BAR2 EZ ES       1312 30.23                             156   -0.5010 44.5 108 
 BRR  HZ EP       1312 17.78                             155    0.2010 46.1 339 
 BRR  HN ES       1312 30.67                             155    0.4310 46.1 339 
 BRR  HZ I        1312 31.30        21.3 0.14            148           46.1 339 
 PTB  HZ EP   9   1312 20.72                             134   -0.67 0  100 259 
 PTB  HN ES       1312 35.16                             134   -1.1910  100 259 
 PTB  HZ I        1312 40.41        16.6 0.10            131            100 259 
 PAM  EZ EP       1312 23.61                             129    0.0210  118  54 
 PAM  EE ES       1312 40.55                             129   -0.3810  118  54 
 PAM  EZ I        1312 47.26         6.5 0.20            127            118  54 
 SPBC HZ EP   4   1312 26.49                             126    2.24 0  130 206 
 SPBC HE ES       1312 42.51                             126    0.4010  130 206 
 ZAR  HZ EP   3   1312 29.07                             119    1.24 2  167 301 
 ZAR  HE ES   4   1312 51.04                             119    2.57 0  167 301 
 ZAR  HZ I        1312 54.50         8.7 0.22            115            167 301 
 CBOC HZ EP   4   1312 44.31                             105    2.71 0  287 251 
 CBOC HN ES       1313 12.28                             105   -0.70 7  287 251 
                                                                                
