 2011 1122 1306 37.0 L   6.766 -73.150146.6  RSN  5 0.3 1.7LRSN                1
 GAP=137        0.67       5.3     5.7  7.5  0.1103E+02  0.4618E+00 -0.5440E+01E
 Epicentro: LOS SANTOS - SANTANDER                                             3
 ACTION:UPD 12-07-13 16:11 OP:ep   STATUS:               ID:20111122130637 L   I
 2011-11-22-1305-29S.COL___177                                                 6
 STAT SP IPHASW D HRMM SECON CODA AMPLIT PERI AZIMU VELO AIN AR TRES W  DIS CAZ7
 BAR2 SZ ES   1   13 7 11.77                             172   -0.25 7 19.5 190 
 BAR2 SZ I        13 7 13.44        20.8 0.23                          19.5 190 
 BRR  HZ EP   1   13 6 58.57                             152    0.22 7 72.6 301 
 BRR  HZ I        13 6 59.01        10.1 0.09                          72.6 301 
 BRR  HE ES   1   13 7 15.58                             152    0.60 7 72.6 301 
 PAM  SZ EP   1   13 6 59.60                             150    0.07 7 80.6  38 
 PAM  SZ I        13 6 59.78         6.6 0.17                          80.6  38 
 PAM  SE ES   2   13 7 16.68                             150   -0.40 5 80.6  38 
 RUS  HZ EP   1   13 7  0.63                             145    0.03 7 96.8 176 
 RUS  HN ES   1   13 7 18.93                             145   -0.05 7 96.8 176 
 RUS  HZ I        13 7 20.11         4.8 0.53                          96.8 176 
 ZAR  HN ES   1   13 7 34.45                             122   -0.61 6  205 293 
 ZAR  HZ I        13 7 40.89         3.7 0.20                           205 293 
                                                                                
