 2012  322 1329 56.5 L   6.800 -73.151149.5  RSN 11 0.5 2.8LRSN                1
 GAP=103        1.21       5.0     5.7  7.9 -0.3097E+01  0.2008E+01  0.1116E+01E
 ACTION:UP  12-03-31 23:21 OP:EP   STATUS:               ID:20120322132956 L   I
 2012-03-22-1330-00M.COL___202                                                 6
 STAT SP IPHASW D HRMM SECON CODA AMPLIT PERI AZIMU VELO SNR AR TRES W  DIS CAZ7
 BAR2 SZ EP       1330 16.58                             171     0.010   23 188 
 BAR2 SZ ES   1   1330 31.96                             171    -0.3 7   23 188 
 BAR2 SZ I        1330 32.89       321.4 0.31                            23 188 
 BRR  HZ IP     C 1330 18.44                             153     0.410   71 299 
 BRR  HE ES   1   1330 35.91                             153     1.1 7   71 299 
 BRR  HZ I        1330 37.62       185.1 0.22                            71 299 
 PAM  SZ IP       1330 19.37                             151     0.210   78  40 
 PAM  SN ES   1   1330 36.56                             151    -0.3 7   78  40 
 RUS  HZ EP       1330 20.49                             145    -0.110  101 176 
 RUS  HN ES   1   1330 38.83                             145    -0.6 7  101 176 
 RUS  HZ I        1330 40.50       117.7 0.38                           101 176 
 PTB  HZ EP       1330 23.07                             133    -0.7 9  147 259 
 PTB  HN ES   1   1330 44.29                             133    -0.7 7  147 259 
 PTB  HZ I        1330 50.56        80.7 0.33                           147 259 
 OCA  SZ EP   1   1330 24.98                             131    -0.1 7  160 353 
 YOP  SZ EP   1   1330 27.03                             127     0.2 7  179 153 
 YOP  SN ES   1   1330 51.62                             127     1.1 7  179 153 
 YOP  SZ I        1330 59.07        24.5 0.35                           179 153 
 NOR  SZ EP   1   1330 32.49                             119     0.1 6  234 234 
 NOR  SE ES   1   1331  0.52                             119     0.1 6  234 234 
 CHI  HZ EP   1   1330 34.65                             118     0.3 6  248 195 
 CHI  HN ES   1   1331  3.61                             118    -0.3 6  248 195 
 CHI  HZ I        1331  8.07        41.4 0.44                           248 195 
 DBB  SZ EP   1   1330 44.97                             110     0.9 5  339 274 
 SDV  BZ EP       1330 46.04                             109    -0.7 6  361  50 
                                                                                
