 2011  622 1244 32.5 L   6.835 -73.128134.9  RSN  4 0.2 1.3LRSN                1
 GAP=175        0.47       6.2     7.1  6.1  0.1005E+01 -0.1157E+02 -0.2064E+02E
 Epicentro: LOS SANTOS - SANTANDER                                             3
 ACTION:UP  11-07-14 19:07 OP:ep   STATUS:               ID:20110622124432 L   I
 2011-06-22-1241-51S.COL___140                                                 6
 STAT SP IPHASW D HRMM SECON CODA AMPLIT PERI AZIMU VELO SNR AR TRES W  DIS CAZ7
 BTL  SZ EP       1244 50.97                             172     0.210   18 301 
 BTL  SZ ES   2   1245  5.14                             172     0.2 5   18 301 
 BAR2 SZ IP       1244 50.78                             168    -0.110   27 193 
 BAR2 SZ ES   1   1245  5.22                             168    -0.1 7   27 193 
 BAR2 SZ I        1245  6.97         5.3 0.26                            27 193 
 BRR  HZ EP       1244 52.51                             150     0.010   71 295 
 BRR  HN ES   2   1245  7.79                             150    -0.3 5   71 295 
 GRA  SZ IP       1244 56.35                             135    -0.110  122  17 
 GRA  SZ I        1244 56.55         2.5 0.18                           122  17 
                                                                                
