 2012 1022 1744 49.1 L   6.770 -73.097140.7  RSN  4 0.1 1.5LRSN                1
 GAP=144        0.32       2.4     3.7  4.7  0.7615E+00 -0.5393E+01 -0.9068E+00E
 Epicentro: LOS SANTOS - SANTANDER                                             3
 ACTION:UPD 12-11-22 17:05 OP:ep   STATUS:               ID:20121022174449 L   I
 2012-10-22-1740-00M.COL___231                                                 6
 STAT SP IPHASW D HRMM SECON CODA AMPLIT PERI AZIMU VELO AIN AR TRES W  DIS CAZ7
 BAR2 SZ EP   2   1745  8.08                             171   -0.05 5 21.8 206 
 PAM  SZ EP       1745 10.89                             150    0.1110 76.8  35 
 PAM  SZ I        1745 11.29         7.0 0.23                          76.8  35 
 PAM  SN ES   2   1745 27.49                             150   -0.17 5 76.8  35 
 BRR  HZ EP   1   1745 10.00                             150   -0.12 7 77.5 299 
 BRR  HZ I        1745 13.96        12.3 0.28                          77.5 299 
 BRR  HN ES   1   1745 26.53                             150    0.04 7 77.5 299 
 RUS  HZ EP   1   1745 12.07                             144   -0.07 7 97.0 179 
 RUS  HN ES   1   1745 30.12                             144    0.05 7 97.0 179 
 RUS  HN I        1745 31.91         3.3 0.41                          97.0 179 
                                                                                
