 2013  222 1942 30.4 L   7.146 -73.032156.7  RSN  4 0.2 1.9LRSN                1
 GAP=187        0.57       8.5     4.1  6.8 -0.9314E+01  0.1181E+02  0.1570E+02E
 Epicentro: BUCARAMANGA - SANTANDER                                            3
 ACTION:UPD 13-03-12 09:35 OP:ep   STATUS:               ID:20130222194230 L   I
 2013-02-22-1940-00M.COL___225                                                 6
 STAT SP IPHASW D HRMM SECON CODA AMPLIT PERI AZIMU VELO AIN AR TRES W  DIS CAZ7
 PAM  SN ES       1943  9.10                             164   -0.1610 42.5  60 
 PAM  SN I        1943 10.00        10.7 0.24            169           42.5  60 
 BRR  HZ EP       1942 53.32                             153    0.3410 75.2 267 
 BRR  HN ES   1   1943 10.86                             153    0.29 7 75.2 267 
 BRR  HN I        1943 12.55        17.2 0.28            153           75.2 267 
 PTB  HZ EP       1943  0.23                             130   -0.19 9  171 247 
 PTB  HN ES       1943 23.72                             130   -0.09 9  171 247 
 PTB  HN I        1943 27.36         7.7 0.20            131            171 247 
 ZAR  HN ES       1943 29.54                             124   -0.16 8  205 281 
                                                                                
