 2016 1222 1545 29.7 L   6.835 -73.136151.5  RSN 18 0.5 2.5LRSN                1
 GAP= 74        1.19       3.9     3.6  5.7  0.9208E-01  0.4829E+01  0.5731E+01E
 Epicentro: LOS SANTOS - SANTANDER                                             3
 ACTION:UPD 17-01-11 20:17 OP:rebc STATUS:               ID:20161222154529 L   I
 OLDACT:UP  16-12-23 06:01 OP:ar   STATUS:               ID:20161222153750d    3
 OLDACT:UP  16-12-23 05:59 OP:ar   STATUS:               ID:20161222153750d    3
 OLDACT:UP  16-12-23 05:59 OP:ar   STATUS:               ID:20161222153750d    3
 OLDACT:DUP 16-12-23 03:40 OP:ar   STATUS:               ID:20161222153750d    3
 2016-12-22-1538-00M.COL___383                                                 6
 STAT SP IPHASW D HRMM SECON CODA AMPLIT PERI AZIMU VELO AIN AR TRES W  DIS CAZ7
 BAR2 EZ IP     D 1545 49.98                             169   -0.1210 27.3 191 
 BAR2 EZ ES       1546  5.62                             169   -0.4010 27.3 191 
 BAR2 EZ I        1546  5.73        82.3 0.38            172           27.3 191 
 BRR  HZ EP       1545 52.01                             154    0.5810 70.4 295 
 BRR  HE ES       1546  8.89                             154    0.5210 70.4 295 
 BRR  HZ I        1546 11.72        53.2 0.28            147           70.4 295 
 PAM  EZ EP       1545 52.75                             153    0.4210 73.8  41 
 PAM  EN ES       1546 10.17                             153    0.2010 73.8  41 
 PAM  EZ I        1546 12.07        49.9 0.52            142           73.8  41 
 RUS  HZ IP     D 1545 53.92                             144   -0.3710  104 177 
 RUS  HN ES       1546 12.89                             144   -0.5710  104 177 
 RUS  HZ I        1546 13.65        30.8 0.28            140            104 177 
 PTB  HZ EP       1545 56.66                             133   -0.64 9  150 257 
 PTB  HE ES       1546 18.42                             133   -0.41 9  150 257 
 PTB  HZ I        1546 19.58        37.5 0.42            126            150 257 
 TAM  HZ EP       1545 58.25                             132    0.41 9  155 106 
 TAM  HZ I        1546 19.26        19.2 0.36            123            155 106 
 TAM  HN ES       1546 20.02                             132    0.23 9  155 106 
 ZAR  HZ EP       1546  2.44                             124   -0.04 9  204 291 
 ZAR  HN ES       1546 27.75                             124   -0.30 9  204 291 
 ZAR  HZ I        1546 32.98        36.8 0.34            116            204 291 
 CHI  HZ EP       1546  8.16                             118    0.01 8  253 195 
 CHI  HN ES       1546 37.38                             118   -0.76 8  253 195 
 CHI  HZ I        1546 42.38        18.0 0.52            112            253 195 
 ROSC BZ EP   4   1546 10.49                             117    1.94 0  257 211 
 ROSC BN ES       1546 39.97                             117    1.12 8  257 211 
 ROSC BZ I        1546 44.51        54.8 0.40            111            257 211 
 GUY2CHZ EP       1546 14.13                             113    0.21 7  304 234 
 GUY2CHE ES   4   1546 52.25                             113    3.84 0  304 234 
 GUY2CHZ I        1546 56.07        18.2 0.36                           304 234 
 PTGC HZ EP       1546 13.21                             112   -0.97 7  312 159 
 PTGC HN ES   4   1546 45.29                             112   -3.58 0  312 159 
 ELA  HZ EP   4   1546 19.39                             111    2.22 0  332 229 
 ELA  HN ES   4   1546 55.78                             111    1.58 0  332 229 
 ELA  HZ I        1547  2.54        13.4 0.56            105            332 229 
 CBOC HZ EP       1546 17.86                             111    0.75 7  336 252 
 CBOC HN ES   4   1546 52.20                             111   -1.88 0  336 252 
 CBOC HZ I        1546 59.49         4.8 0.62            105            336 252 
 ANIL HZ EP       1546 19.87                             109   -0.26 6  361 224 
 ANIL HN ES       1547  0.42                             109    0.96 6  361 224 
 ORTC HZ EP       1546 24.30                             107    0.05 6  399 216 
 ORTC HN ES       1547  7.42                             107    0.62 6  399 216 
 ORTC HZ I        1547 11.30        12.7 0.22            102            399 216 
 SJC  HZ EP       1546 24.13                             107   -1.02 6  407 327 
 SJC  HZ I        1547  9.41         3.3 0.12            101            407 327 
 PAL  HZ EP   2   1546 25.40                             107    0.01 3  409 239 
 CRJC HZ EP   4   1546 30.36                             104   -1.55 0  464   3 
 CRJC HN ES   4   1547 17.78                             104   -2.65 0  464   3 
 CRJC HZ I        1547 22.42         5.5 0.19             98            464   3 
                                                                                
