 2013  822 1315 11.3 L   6.805 -73.170151.6  RSN  6 0.5 1.5LRSN                1
 GAP=235        1.34       8.4     8.2 10.2  0.3215E+02  0.1693E+02  0.1389E+02E
 Epicentro: LOS SANTOS - SANTANDER                                             3
 ACTION:UPD 14-01-14 09:05 OP:ep   STATUS:               ID:20130822131511 L   I
 OLDACT:REG 13-08-22 15:58 OP:stll STATUS:               ID:20130822130851     3
 2013-08-22-1308-51M.COL___211                                                 6
 STAT SP IPHASW D HRMM SECON CODA AMPLIT PERI AZIMU VELO AIN AR TRES W  DIS CAZ7
 BAR2 SZ EP       1315 31.40                             171   -0.2010 23.5 183 
 BAR2 SZ ES       1315 46.82                             171   -0.6410 23.5 183 
 BAR2 SZ I        1315 47.89         8.5 0.22            170           23.5 183 
 BRR  HN ES       1315 50.92                             154    1.1410 68.6 299 
 RUS  HZ EP       1315 35.66                             145    0.0210  101 175 
 RUS  HN ES       1315 54.56                             145   -0.1010  101 175 
 RUS  HZ I        1315 55.50         4.4 0.28            145            101 175 
 PTB  HZ EP       1315 38.41                             134   -0.08 9  145 258 
 PTB  HN ES       1315 59.18                             134   -0.54 9  145 258 
 PTB  HZ I        1316  1.43         4.7 0.40            134            145 258 
 SPBC HZ EP       1315 40.56                             131    0.46 9  162 218 
 SPBC HN ES       1316  2.99                             131    0.41 9  162 218 
 ZAR  HN ES       1316  8.67                             124   -0.55 9  201 292 
                                                                                
