 2017  822 1907  0.7 L   6.324 -73.644103.2  RSN 10 0.4 1.8LRSN                1
 GAP= 76        0.94       2.4     3.1  6.6 -0.1116E+01  0.1009E+02  0.3751E+01E
 Epicentro: SANTA HELENA DEL OPON - SANTANDER                                  3
 ACTION:UPD 17-09-04 20:23 OP:rebc STATUS:               ID:20170822190700 L   I
 OLDACT:UP  17-08-23 00:38 OP:edw  STATUS:               ID:20170822185739     3
 OLDACT:UP  17-08-23 00:37 OP:edw  STATUS:               ID:20170822185739     3
 OLDACT:REG 17-08-22 21:07 OP:edw  STATUS:               ID:20170822185739     3
 2017-08-22-1858-00M.COL___414                                                 6
 STAT SP IPHASW D HRMM SECON CODA AMPLIT PERI AZIMU VELO AIN AR TRES W  DIS CAZ7
 BAR2 EZ EP       19 7 17.26                             148    0.2810 59.0  60 
 BAR2 EZ ES       19 7 30.18                             148    0.5210 59.0  60 
 RUS  HZ EP     C 19 7 18.79                             140    0.0710 78.3 128 
 RUS  HN ES       19 7 32.10                             140   -0.6510 78.3 128 
 BRR  HZ EP       19 7 18.58                             136   -0.1510 86.9 355 
 BRR  HN ES       19 7 33.18                             136    0.4110 86.9 355 
 PAM  EZ EP       19 7 25.90                             119    0.07 9  153  43 
 PAM  EN ES       19 7 45.22                             119   -0.18 9  153  43 
 PAM  EZ I        19 7 47.08         7.4 0.18            120            153  43 
 NOR  HZ EP       19 7 26.23                             118    0.29 9  160 238 
 NOR  HN ES       19 7 45.31                             118   -0.29 9  160 238 
 NOR  HZ I        19 7 48.36         8.0 0.28            118            160 238 
 ZAR  HZ EP       19 7 28.45                             113   -0.36 9  186 314 
 ZAR  HN ES       19 7 50.09                             113   -0.62 9  186 314 
 ZAR  HZ I        19 7 53.42        12.7 0.52            114            186 314 
 CHI  HZ EP       19 7 28.98                             114   -0.51 9  188 183 
 CHI  HN ES       19 7 51.88                             114   -0.03 9  188 183 
 CHI  HZ I        19 7 54.54         5.2 0.22            114            188 183 
 GUY2CHZ EP       19 7 34.73                             109    0.79 8  226 238 
 GUY2CHN ES       19 7 59.80                             109   -0.04 8  226 238 
 PRA  HZ EP       19 7 44.52                             101    0.07 7  320 206 
 PRA  HN ES       19 8 18.71                             101    0.16 7  320 206 
 PRA  HZ I        19 8 24.00         3.9 0.28            101            320 206 
 ORTC HN ES       19 8 19.10                             101    0.36 7  321 214 
                                                                                
