 2017  322 2100  0.3 L   7.429 -73.219127.8  RSN  5 0.3 1.9LRSN                1
 GAP=187        0.70       4.1     3.3  6.4 -0.1412E+01  0.1119E+02 -0.1809E+01E
 Epicentro: EL PLAYON - SANTANDER                                              3
 ACTION:UPD 17-05-25 18:44 OP:jn   STATUS:               ID:20170322210000 L   I
 OLDACT:REG 17-03-23 03:58 OP:cara STATUS:               ID:20170322205748     3
 2017-03-22-2058-00M.COL___400                                                 6
 STAT SP IPHASW D HRMM SECON CODA AMPLIT PERI AZIMU VELO AIN AR TRES W  DIS CAZ7
 PAM  EZ EP       21 0 19.47                             154   -0.0410 58.2 100 
 PAM  EN ES       21 0 34.81                             154    0.3410 58.2 100 
 PAM  EZ I        21 0 35.52         5.2 0.12            159           58.2 100 
 BAR2 EZ EP       21 0 21.16                             142   -0.2210 92.6 178 
 BAR2 EZ ES       21 0 37.38                             142   -0.4210 92.6 178 
 BAR2 EZ I        21 0 39.37        18.1 0.46            142           92.6 178 
 PTB  HZ EP       21 0 27.71                             124   -0.23 9  168 234 
 PTB  HN ES       21 0 49.43                             124   -0.05 9  168 234 
 PTB  HZ I        21 0 51.06        11.8 0.34            124            168 234 
 ZAR  HZ EP       21 0 29.14                             121   -0.09 9  181 272 
 ZAR  HN ES       21 0 51.86                             121    0.08 9  181 272 
 ZAR  HZ I        21 0 56.91        10.3 0.28            122            181 272 
 SPBC HZ EP       21 0 33.60                             116    0.33 8  218 206 
 SPBC HN ES       21 0 59.47                             116    0.49 8  218 206 
 SPBC HZ I        21 1  7.13         8.8 0.22            117            218 206 
                                                                                
