 2011  222 2244 12.5 L   6.796 -73.057150.0  RSN  5 0.4 1.8LRSN                1
 GAP=242        0.97       9.3    12.3 10.9 -0.3942E+02  0.7443E+02 -0.1751E+02E
 Epicentro: LOS SANTOS - SANTANDER                                             3
 ACTION:UP  11-03-28 15:10 OP:jfem STATUS:               ID:20110222224412 L   I
 2011-02-22-2241-52S.COL___136                                                 6
 STAT SP IPHASW D HRMM SECON CODA AMPLIT PERI AZIMU VELO SNR AR TRES W  DIS CAZ7
 BAR2 SZ EP   1   2244 32.58                             169    -0.1 7   27 212 
 BAR2 SZ ES   2   2244 47.77                             169    -0.7 5   27 212 
 BAR2 SZ I        2244 50.43        13.6 0.22                            27 212 
 BTL  SZ EP   1   2244 33.09                             169     0.4 7   27 300 
 RUS  HZ EP   1   2244 36.86                             145     0.3 7  100 182 
 RUS  HN ES       2244 55.45                             145     0.110  100 182 
 RUS  HZ I        2244 56.90         7.1 0.22                           100 182 
 CHI  HZ EP       2244 50.62                             118     0.0 8  251 197 
 CHI  HN ES   2   2245 20.13                             118    -0.3 4  251 197 
 CHI  HZ I        2245 25.26         4.1 0.23                           251 197 
 RREF HZ EP       2244 58.66                             111    -0.9 7  329 231 
 RREF HN ES       2245 36.95                             111     0.6 7  329 231 
 RREF HZ I        2245 43.81         4.3 0.48                           329 231 
                                                                                
