 2015  122 2201 12.8 L   6.656 -73.045130.5  RSN  5 0.5 1.9LRSN                1
 GAP=212        1.16       9.3     6.2 11.4 -0.2939E+02 -0.1842E+01  0.5315E+02E
 Epicentro: ARATOCA - SANTANDER                                                3
 ACTION:UPD 15-03-02 15:41 OP:nd   STATUS:               ID:20150122220112 L   I
 OLDACT:UP  15-01-23 04:50 OP:mh   STATUS:               ID:20150122215744     3
 OLDACT:REG 15-01-23 02:32 OP:mh   STATUS:               ID:20150122215744     3
 2015-01-22-2157-44M.COL___259                                                 6
 STAT SP IPHASW D HRMM SECON CODA AMPLIT PERI AZIMU VELO AIN AR TRES W  DIS CAZ7
 PAM  SZ EP       22 1 34.33                             145    0.4710 84.6  27 
 PAM  SN ES       22 1 50.24                             145   -0.0810 84.6  27 
 PAM  SZ I        22 1 51.62         7.8 0.22            150           84.6  27 
 BRR  HZ EP       22 1 33.38                             143   -0.0910 89.0 304 
 BRR  HN ES       22 1 49.63                             143   -0.0010 89.0 304 
 BRR  HZ I        22 1 50.70        20.7 0.38            145           89.0 304 
 PTB  HZ EP       22 1 38.40                             126   -0.98 9  157 265 
 PTB  HN ES       22 1 59.72                             126   -0.43 9  157 265 
 PTB  HZ I        22 2  3.51         7.1 0.10            128            157 265 
 ZAR  HZ EP       22 1 45.77                             117   -0.27 8  221 295 
 ZAR  HN ES       22 2 12.68                             117    0.68 8  221 295 
 ZAR  HZ I        22 2 14.81        16.2 0.32            119            221 295 
 NOR  HZ EP       22 1 48.08                             115    0.36 8  235 239 
 NOR  HN ES       22 2 15.58                             115    0.60 8  235 239 
 NOR  HZ I        22 2 19.20         3.8 0.16            116            235 239 
                                                                                
