 2017  922 2256 50.7 L   6.394 -73.635106.8  RSN  9 0.3 1.5LRSN                1
 GAP= 66        0.68       2.0     2.1  5.0 -0.5867E+00  0.5581E+01  0.9537E+00E
 Epicentro: SANTA HELENA DEL OPON - SANTANDER                                  3
 ACTION:UPD 17-10-05 19:15 OP:rebc STATUS:               ID:20170922225650 L   I
 OLDACT:UP  17-09-23 09:55 OP:mg   STATUS:               ID:20170922224740     3
 OLDACT:REG 17-09-23 06:31 OP:mg   STATUS:               ID:20170922224740     3
 2017-09-22-2248-00M.COL___450                                                 6
 STAT SP IPHASW D HRMM SECON CODA AMPLIT PERI AZIMU VELO AIN AR TRES W  DIS CAZ7
 BAR2 EZ EP       2257  7.32                             151    0.2410 54.7  66 
 BAR2 EZ ES       2257 20.06                             151    0.2210 54.7  66 
 BRR  HZ IP     C 2257  7.98                             140   -0.4610 79.3 354 
 BRR  HN ES       2257 22.20                             140   -0.0610 79.3 354 
 BRR  HZ I        2257 22.72         5.7 0.14            141           79.3 354 
 RUS  HZ EP       2257  9.15                             140   -0.2310 82.5 132 
 RUS  HN ES       2257 23.72                             140   -0.2110 82.5 132 
 RUS  HZ I        2257 25.02         5.7 0.40            142           82.5 132 
 PAM  EZ EP       2257 15.53                             122    0.14 9  147  45 
 PAM  EN ES       2257 34.80                             122    0.18 9  147  45 
 PAM  EZ I        2257 36.38         3.1 0.14            123            147  45 
 NOR  HZ EP       2257 16.57                             118   -0.11 9  165 236 
 NOR  HN ES       2257 37.06                             118    0.14 9  165 236 
 NOR  HZ I        2257 37.95        10.2 0.34            119            165 236 
 ZAR  HZ EP       2257 18.22                             115   -0.26 9  182 312 
 ZAR  HN ES       2257 40.34                             115    0.21 9  182 312 
 ZAR  HZ I        2257 44.26        10.0 0.18            116            182 312 
 CHI  HE ES       2257 43.66                             114   -0.10 9  195 183 
 CHI  HZ I        2257 46.63         1.5 0.29            115            195 183 
 HEL  HZ EP       2257 22.25                             112    0.06 8  211 264 
 HEL  HN ES       2257 46.24                             112   -0.49 8  211 264 
 HEL  HZ I        2257 52.20         3.5 0.30            112            211 264 
 GUY2CHZ EP       2257 25.01                             109    0.36 8  231 236 
 GUY2CHN ES       2257 51.65                             109    0.53 8  231 236 
 GUY2CHZ I        2257 56.44         3.1 0.42                           231 236 
                                                                                
