 2011  222 2247  6.9 L   6.765 -73.031144.7  RSN  6 0.4 2.0LRSN                1
 GAP=172        0.96       6.5    17.0  9.4 -0.7484E+02  0.5790E+02 -0.1420E+02E
 Epicentro: CEPITA - SANTANDER                                                 3
 ACTION:UP  11-03-28 15:10 OP:jfem STATUS:               ID:20110222224706 L   I
 2011-02-22-2243-52S.COL___136                                                 6
 STAT SP IPHASW D HRMM SECON CODA AMPLIT PERI AZIMU VELO SNR AR TRES W  DIS CAZ7
 BAR2 SZ EP       2247 26.04                             170    -0.410   25 221 
 BAR2 SZ ES   1   2247 41.62                             170    -0.1 7   25 221 
 BAR2 SZ I        2247 42.28        30.6 0.40                            25 221 
 BTL  SZ EP       2247 26.48                             168    -0.110   31 303 
 RUS  HZ EP   2   2247 29.88                             144    -0.4 5   97 183 
 RUS  HE ES   1   2247 48.86                             144     0.4 7   97 183 
 RUS  HZ I        2247 49.88        11.2 0.17                            97 183 
 GRA  SZ IP       2247 32.78                             136     0.710  126  11 
 GRA  SZ I        2247 33.95        17.5 0.32                           126  11 
 GRA  SZ ES   1   2247 51.34                             136    -0.4 7  126  11 
 CHI  HZ EP   1   2247 44.02                             117    -0.5 6  249 198 
 CHI  HN ES   2   2248 14.14                             117     0.3 4  249 198 
 CHI  HZ I        2248 21.19         5.0 0.31                           249 198 
 RREF HZ EP   1   2247 54.08                             110     0.3 5  329 231 
 RREF HN ES   2   2248 30.72                             110     0.3 3  329 231 
 RREF HZ I        2248 38.21         5.9 0.37                           329 231 
                                                                                
