 2016  522 2211 41.6 L   6.806 -73.145153.2  RSN  6 0.3 1.5LRSN                1
 GAP=238        0.78       4.1     4.9  6.3  0.8890E+01  0.2647E+01  0.6301E+01E
 Epicentro: LOS SANTOS - SANTANDER                                             3
 ACTION:UPD 16-08-18 17:48 OP:cam  STATUS:               ID:20160522221141 L   I
 OLDACT:REG 16-05-23 03:04 OP:edw  STATUS:               ID:20160522220744     3
 2016-05-22-2207-44M.COL___304                                                 6
 STAT SP IPHASW D HRMM SECON CODA AMPLIT PERI AZIMU VELO AIN AR TRES W  DIS CAZ7
 BRR  HZ EP       2212  3.93                             154    0.4210 71.0 298 
 BRR  HN ES       2212 20.69                             154    0.0710 71.0 298 
 RUS  HZ EP       2212  5.95                             145   -0.1410  101 176 
 RUS  HE ES       2212 25.25                             145    0.0310  101 176 
 RUS  HZ I        2212 25.76         3.2 0.30            144            101 176 
 PTB  HZ EP       2212  8.87                             134   -0.29 9  148 259 
 PTB  HE ES       2212 30.15                             134   -0.54 9  148 259 
 PTB  HZ I        2212 34.63         3.8 0.40            131            148 259 
 ZAR  HN ES       2212 40.17                             124    0.00 9  204 292 
 NOR  HZ EP       2212 18.15                             120    0.37 8  235 234 
 NOR  HE ES       2212 46.46                             120    0.43 8  235 234 
 NOR  HZ I        2212 51.43         3.6 0.18            119            235 234 
 CHI  HZ EP       2212 19.30                             119   -0.45 8  249 195 
 CHI  HN ES       2212 49.70                             119    0.17 8  249 195 
                                                                                
