 2015  622 2328 22.6 L   6.860 -73.061145.7  RSN  6 0.5 1.6LRSN                1
 GAP=144        1.20       7.0     6.9  8.1  0.1145E+02  0.1384E+02 -0.3813E+01E
 Epicentro: LOS SANTOS - SANTANDER                                             3
 ACTION:UPD 15-09-10 22:14 OP:cam  STATUS:               ID:20150622232822 L   I
 OLDACT:UP  15-06-23 06:14 OP:STLL STATUS:               ID:20150622232822 L   3
 OLDACT:DUP 15-06-23 04:57 OP:stll STATUS:               ID:20150622231751d    3
 2015-06-22-2317-50M.COL___322                                                 6
 STAT SP IPHASW D HRMM SECON CODA AMPLIT PERI AZIMU VELO AIN AR TRES W  DIS CAZ7
 BAR2 EZ EP       2328 42.66                             166    0.2110 32.5 204 
 BAR2 EZ ES       2328 57.64                             166   -0.2810 32.5 204 
 BAR2 EZ I        2329  0.51         8.0 0.40            157           32.5 204 
 PAM  SZ EP   1   2328 44.79                             155    0.59 7 66.4  37 
 PAM  SN ES       2329  0.41                             155   -0.6310 66.4  37 
 PAM  SZ I        2329  3.38         2.7 0.46            151           66.4  37 
 BRR  HZ EP       2328 44.57                             150    0.4810 77.0 291 
 BRR  HN ES       2329  1.54                             150    0.7110 77.0 291 
 RUS  HZ EP       2328 46.85                             142    0.0310  107 181 
 RUS  HZ I        2329  6.17         4.1 0.22            130            107 181 
 ZAR  HZ EP       2328 54.75                             121   -0.96 8  210 290 
 ZAR  HE ES       2329 21.17                             121   -0.37 8  210 290 
 ZAR  HZ I        2329 27.40         5.4 0.36            116            210 290 
 SML  HZ EP       2328 59.13                             118    0.10 8  242 333 
 SML  HN ES   1   2329 27.54                             118    0.10 6  242 333 
 SML  HZ I        2329 35.04         5.0 0.10            112            242 333 
                                                                                
