 2014 1122 2233 31.9 L   7.391 -73.451105.9  RSN  5 0.5 1.6LRSN                1
 GAP=129        1.17       5.5     4.5  9.4 -0.9015E+01  0.1320E+02 -0.5086E+01E
 Epicentro: SABANA DE TORRES - SANTANDER                                       3
 ACTION:UPD 14-12-19 15:46 OP:nd   STATUS:               ID:20141122223331 L   I
 OLDACT:REG 14-11-23 03:01 OP:cam  STATUS:               ID:20141122222819     3
 2014-11-22-2228-19M.COL___299                                                 6
 STAT SP IPHASW D HRMM SECON CODA AMPLIT PERI AZIMU VELO AIN AR TRES W  DIS CAZ7
 BRR  HZ EP       2233 47.46                             156    0.2710 42.6 223 
 BRR  HN ES       2233 59.18                             156    0.0910 42.6 223 
 BRR  HZ I        2234  2.38        14.6 0.24            158           42.6 223 
 PAM  SZ EP       2233 51.15                             139    0.6010 83.2  94 
 PAM  SN ES       2234  5.14                             139    0.0710 83.2  94 
 PAM  SZ I        2234  6.60        11.4 0.22            144           83.2  94 
 OCA  HZ EP       2233 50.75                             135   -0.3210 94.9   9 
 OCA  HE ES       2234  5.54                             135   -0.4510 94.9   9 
 PTB  HZ EP       2233 55.19                             121   -0.59 9  146 230 
 PTB  HN ES       2234 13.74                             121   -0.63 9  146 230 
 PTB  HZ I        2234 13.77         5.0 0.28            125            146 230 
 ZAR  HZ EP       2233 57.02                             119    0.19 9  156 274 
 ZAR  HN ES       2234 17.01                             119    0.77 9  156 274 
 ZAR  HZ I        2234 18.59         8.6 0.34            123            156 274 
                                                                                
