 2015  222 2205  7.8 L   6.792 -73.158139.4  RSN  9 0.6 1.9LRSN                1
 GAP=100        1.39       5.5     5.5  7.9 -0.8343E+01  0.1846E+01  0.1244E+02E
 Epicentro: LOS SANTOS - SANTANDER                                             3
 ACTION:UPD 15-04-30 21:28 OP:nd   STATUS:               ID:20150222220507 L   I
 OLDACT:REG 15-02-23 03:12 OP:stll STATUS:               ID:20150222215744     3
 2015-02-22-2157-44M.COL___281                                                 6
 STAT SP IPHASW D HRMM SECON CODA AMPLIT PERI AZIMU VELO AIN AR TRES W  DIS CAZ7
 BAR2 EZ EP       22 5 26.72                             171    0.0410 22.3 187 
 BAR2 EZ ES       22 5 41.13                             171   -0.2510 22.3 187 
 BAR2 EZ I        22 5 43.24        28.8 0.24            170           22.3 187 
 BRR  HZ EP       22 5 28.56                             152    0.3110 70.4 300 
 BRR  HZ I        22 5 28.77        19.7 0.30            151           70.4 300 
 BRR  HN ES       22 5 44.66                             152    0.4810 70.4 300 
 PAM  SZ EP       22 5 29.40                             149   -0.0710 78.9  40 
 PAM  SZ I        22 5 29.69        24.8 0.24            152           78.9  40 
 PAM  SN ES       22 5 46.86                             149    0.5110 78.9  40 
 RUS  HZ EP       22 5 30.50                             143   -0.4110 99.8 175 
 RUS  HN ES       22 5 48.86                             143   -0.0510 99.8 175 
 RUS  HZ I        22 5 50.39        11.3 0.24            144           99.8 175 
 PTB  HZ EP       22 5 33.44                             131   -0.71 9  146 259 
 PTB  HN ES       22 5 53.61                             131   -1.06 9  146 259 
 PTB  HZ I        22 5 59.97         7.4 0.32            131            146 259 
 TAM  HZ EP       22 5 34.91                             129   -0.21 9  156 105 
 SPBC HZ EP       22 5 35.47                             128   -0.23 9  162 219 
 SPBC HN ES       22 5 57.10                             128   -0.34 9  162 219 
 SPBC HZ I        22 6  0.37        16.1 0.24            129            162 219 
 CHI  HZ EP       22 5 44.82                             116   -0.23 8  247 195 
 CHI  HZ I        22 5 45.20         3.8 0.18            117            247 195 
 CHI  HE ES       22 6 14.96                             116    0.87 8  247 195 
 GUY2CHZ EP       22 5 51.96                             111    0.99 7  300 235 
 GUY2CHE ES       22 6 26.01                             111    1.40 7  300 235 
 GUY2CHZ I        22 6 32.68         2.0 0.36                           300 235 
                                                                                
