 2017  122 2005 39.7 L   6.764 -73.158143.0  RSN  6 0.4 1.1LRSN                1
 GAP=137        0.60       5.1     3.9  5.2 -0.1066E+02  0.6304E+01 -0.2311E+01E
 Epicentro: LOS SANTOS - SANTANDER                                             3
 ACTION:UPD 17-05-22 16:02 OP:jn   STATUS:               ID:20170122200539 L   I
 OLDACT:UP  17-01-23 02:44 OP:and  STATUS:               ID:20170122195746     3
 OLDACT:UP  17-01-23 02:43 OP:and  STATUS:               ID:20170122195746     3
 OLDACT:REG 17-01-23 02:15 OP:y    STATUS:               ID:20170122195746     3
 2017-01-22-1958-00M.COL___355                                                 6
 STAT SP IPHASW D HRMM SECON CODA AMPLIT PERI AZIMU VELO AIN AR TRES W  DIS CAZ7
 BAR2 EZ EP       20 5 58.99                             172    0.1110 19.2 188 
 BAR2 EZ ES       20 6 13.94                             172    0.0710 19.2 188 
 BAR2 EZ I        20 6 19.47         2.5 0.19            169           19.2 188 
 BRR  HZ EP   2   20 6  0.87                             152    0.31 5 72.0 302 
 BRR  HE ES   3   20 6 18.25                             152    1.39 2 72.0 302 
 PAM  EZ EP       20 6  1.79                             149   -0.0410 81.3  38 
 PAM  EN ES       20 6 19.04                             149   -0.0710 81.3  38 
 PAM  EZ I        20 6 20.97         1.9 0.33            157           81.3  38 
 RUS  HZ EP   2   20 6  3.28                             144    0.42 5 96.7 175 
 RUS  HN ES   2   20 6 20.40                             144   -0.56 5 96.7 175 
 RUS  HZ I        20 6 23.82         1.1 0.20            147           96.7 175 
 PTB  HZ EP       20 6  5.94                             132   -0.28 9  146 260 
 PTB  HN ES       20 6 26.79                             132   -0.14 9  146 260 
 PTB  HZ I        20 6 34.06         2.0 0.24            133            146 260 
 NOR  HZ EP   2   20 6 15.49                             118    0.62 4  231 235 
 NOR  HE ES   3   20 6 43.88                             118    1.55 2  231 235 
 NOR  HZ I        20 6 48.23         1.6 0.24            121            231 235 
                                                                                
