 2014  422 2225 57.0 L   6.720 -73.112158.3  RSN  6 0.5 1.8LRSN                1
 GAP=144        1.12       5.2     6.0  9.3 -0.7199E+01  0.5000E+01 -0.2301E+01E
 Epicentro: JORDAN - SANTANDER                                                 3
 ACTION:UPD 14-05-13 23:10 OP:nd   STATUS:               ID:20140422222557 L   I
 OLDACT:UP  14-05-01 03:42 OP:STLL STATUS:               ID:20140422222557 L   3
 OLDACT:DUP 14-04-23 08:21 OP:stll STATUS:               ID:20140422221812d    3
 2014-04-22-2218-11M.COL___245                                                 6
 STAT SP IPHASW D HRMM SECON CODA AMPLIT PERI AZIMU VELO AIN AR TRES W  DIS CAZ7
 BRR  HZ EP       2226 20.28                             152    0.3710 79.0 303 
 BRR  HN ES       2226 38.60                             152    0.8010 79.0 303 
 PAM  SZ EP       2226 20.83                             151    0.0210 82.3  34 
 PAM  SZ I        2226 21.07         9.1 0.16            155           82.3  34 
 PAM  SN ES       2226 39.11                             151   -0.2910 82.3  34 
 RUS  HZ EP       2226 21.61                             149    0.2310 91.5 178 
 RUS  HN ES       2226 40.09                             149   -0.3210 91.5 178 
 RUS  HZ I        2226 41.83         6.5 0.28            147           91.5 178 
 PTB  HZ EP       2226 24.89                             134   -0.29 9  150 262 
 PTB  HN ES       2226 46.38                             134   -0.81 9  150 262 
 PTB  HZ I        2226 49.29         7.1 0.14            133            150 262 
 SPBC HN ES       2226 49.06                             133    0.30 9  159 222 
 SPBC HZ I        2226 57.24         6.8 0.30            131            159 222 
 SML  HZ EP   2   2226 35.70                             119    0.35 4  253 335 
 SML  HN ES   2   2227  4.19                             119   -1.10 4  253 335 
 SML  HZ I        2227  5.85         9.1 0.10            119            253 335 
                                                                                
