 2016  322 2343  4.3 L   6.771 -73.143144.7  RSN  7 0.2 1.7LRSN                1
 GAP=138        0.54       2.3     2.4  3.9 -0.1160E+01  0.3994E+01 -0.8224E+00E
 Epicentro: LOS SANTOS - SANTANDER                                             3
 ACTION:UPD 16-05-13 21:26 OP:cam  STATUS:               ID:20160322234304 L   I
 OLDACT:REG 16-03-23 04:24 OP:cara STATUS:               ID:20160322233743     3
 2016-03-22-2337-43M.COL___310                                                 6
 STAT SP IPHASW D HRMM SECON CODA AMPLIT PERI AZIMU VELO AIN AR TRES W  DIS CAZ7
 BAR2 EZ ES       2343 38.88                             172   -0.0010 20.3 192 
 BAR2 EZ I        2343 39.72         5.7 0.22            170           20.3 192 
 PAM  EZ EP       2343 26.39                             150   -0.1210 79.7  38 
 PAM  EZ I        2343 26.51        14.2 0.24            153           79.7  38 
 PAM  EN ES       2343 43.90                             150    0.0410 79.7  38 
 RUS  HZ EP       2343 27.75                             144    0.0610 97.4 176 
 RUS  HE ES       2343 45.95                             144   -0.0010 97.4 176 
 RUS  HZ I        2343 47.06         3.5 0.30            147           97.4 176 
 PTB  HZ EP       2343 30.93                             132   -0.20 9  147 260 
 PTB  HN ES       2343 51.65                             132   -0.43 9  147 260 
 PTB  HZ I        2343 57.23         5.7 0.38            131            147 260 
 SPBC HZ EP       2343 32.59                             129    0.12 9  161 220 
 SPBC HN ES       2343 54.73                             129    0.26 9  161 220 
 SPBC HZ I        2343 58.33         8.9 0.40            130            161 220 
 ZAR  HZ EP       2343 36.81                             122    0.01 8  206 293 
 ZAR  HN ES       2344  2.60                             122    0.42 8  206 293 
 ZAR  HZ I        2344  9.30         4.7 0.54            122            206 293 
 GUY2CHN ES       2344 21.39                             112   -0.10 7  300 235 
 GUY2CHZ I        2344 30.28         2.4 0.28                           300 235 
                                                                                
