 2014  222 2100 35.6 L   6.744 -73.147138.0  RSN  8 0.4 2.5LRSN                1
 GAP=139        0.80       4.6     4.6  7.1  0.6854E+01  0.4251E+01 -0.1394E+01E
 Epicentro: JORDAN - SANTANDER                                                 3
 ACTION:UPD 14-03-10 08:12 OP:ep   STATUS:               ID:20140222210035 L   I
 OLDACT:REG 14-02-22 21:39 OP:mh   STATUS:               ID:20140222210000     3
 2014-02-22-2100-00M.COL___215                                                 6
 STAT SP IPHASW D HRMM SECON CODA AMPLIT PERI AZIMU VELO AIN AR TRES W  DIS CAZ7
 BAR2 SZ EP   1   21 0 54.02                             173   -0.19 7 17.2 193 
 BAR2 SZ I        21 1  9.98        18.2 0.23            173           17.2 193 
 BRR  HZ EP   1   21 0 56.16                             150    0.03 7 74.3 303 
 BRR  HN ES       21 1 12.45                             150    0.3310 74.3 303 
 BRR  HZ I        21 1 18.66        13.4 0.09            150           74.3 303 
 PAM  SZ EP   1   21 0 57.14                             148   -0.20 7 82.3  37 
 RUS  HZ EP   1   21 0 58.51                             144    0.34 7 94.4 176 
 RUS  HN ES       21 1 15.71                             144   -0.0410 94.4 176 
 RUS  HZ I        21 1 17.46         3.5 0.26            145           94.4 176 
 PTB  HZ EP       21 1  1.56                             131   -0.30 9  147 261 
 PTB  HN ES   1   21 1 21.63                             131   -0.70 7  147 261 
 PTB  HZ I        21 1 25.26         8.0 0.12            131            147 261 
 ZAR  HZ EP   1   21 1  7.29                             120   -0.53 6  206 294 
 ZAR  HN ES       21 1 33.18                             120    0.25 8  206 294 
 ZAR  HZ I        21 1 41.42        13.7 0.05            121            206 294 
 NOR  HZ EP   1   21 1 11.44                             117    0.92 6  231 236 
 NOR  HN ES   1   21 1 37.83                             117    0.09 6  231 236 
 NOR  HZ I        21 1 46.50         2.6 0.10            118            231 236 
 SML  HZ EP   4   21 1 10.54                             115   -1.91 0  249 336 
 SML  HN ES   4   21 1 38.52                             115   -2.65 0  249 336 
 SML  HZ I        21 1 42.75      43.8e4 0.01            116            249 336 
                                                                                
