 2017  122 2058  0.6 L   6.833 -73.140144.6  RSN  5 0.2 1.6LRSN                1
 GAP=136        0.44       2.6     2.8  4.6 -0.8648E+00  0.6610E+01 -0.3124E+01E
 Epicentro: LOS SANTOS - SANTANDER                                             3
 ACTION:UPD 17-05-22 16:02 OP:jn   STATUS:               ID:20170122205800 L   I
 OLDACT:UP  17-01-23 02:50 OP:and  STATUS:               ID:20170122204721d    3
 OLDACT:DUP 17-01-23 02:48 OP:and  STATUS:               ID:20170122204721d    3
 2017-01-22-2048-00M.COL___355                                                 6
 STAT SP IPHASW D HRMM SECON CODA AMPLIT PERI AZIMU VELO AIN AR TRES W  DIS CAZ7
 BAR2 EZ ES       2058 35.37                             169   -0.0710 27.0 190 
 BAR2 EZ I        2058 36.56         8.6 0.18            170           27.0 190 
 PAM  EZ EP       2058 22.31                             152   -0.2010 74.2  41 
 PAM  EN ES       2058 39.71                             152    0.1210 74.2  41 
 PAM  EZ I        2058 41.43         3.9 0.21            153           74.2  41 
 RUS  HE ES       2058 43.16                             143    0.0210  104 177 
 RUS  HZ I        2058 44.63         6.4 0.28            146            104 177 
 PTB  HZ EP       2058 27.71                             131    0.12 9  149 258 
 PTB  HN ES   3   2058 47.66                             131   -0.98 2  149 258 
 PTB  HZ I        2058 49.73         4.2 0.13            132            149 258 
 ZAR  HN ES       2058 58.17                             122    0.10 9  203 291 
 ZAR  HZ I        2059  3.46         7.1 0.30            123            203 291 
                                                                                
