 2010 1222 2212 49.2 L   6.803 -73.260130.7  RSN  4 0.2 1.9LRSN                1
 GAP=189        0.67       3.0    15.1  7.2 -0.6043E+01  0.2469E+02 -0.7257E+01E
 Epicentro: ZAPATOCA - SANTANDER                                               3
 ACTION:UP  11-01-14 15:26 OP:pat  STATUS:               ID:20101222221249 L   I
 2010-12-22-2210-10S.COL___134                                                 6
 STAT SP IPHASW D HRMM SECON CODA AMPLIT PERI AZIMU VELO SNR AR TRES W  DIS CAZ7
 BAR2 SZ EP       2213  7.45                             169     0.410   25 160 
 BAR2 SZ ES   1   2213 20.92                             169    -0.1 7   25 160 
 RUS  HZ EP       2213 11.82                             140     0.210  103 169 
 RUS  HN ES   1   2213 28.83                             140    -0.3 7  103 169 
 RUS  HZ I        2213 31.37         6.0 0.51                           103 169 
 GRA  SZ EP       2213 13.34                             132    -0.210  130  23 
 GRA  SZ ES   1   2213 32.63                             132     0.2 7  130  23 
 GRA  SZ I        2213 33.87        17.9 0.32                           130  23 
 OCA  SZ EP       2213 16.00                             126    -0.3 9  159 358 
 OCA  SZ ES   1   2213 37.39                             126     0.0 7  159 358 
 OCA  SZ I        2213 41.11        19.4 0.42                           159 358 
                                                                                
