 2011  422 2021 50.8 L   6.297 -73.607109.6  RSN  6 0.1 1.3LRSN                1
 GAP=113        0.33       2.3     2.5  4.3  0.1001E+01  0.4249E+01  0.2642E+01E
 Epicentro: SANTA HELENA DEL OPON - SANTANDER                                  3
 ACTION:UP  11-06-22 15:32 OP:REBC STATUS:               ID:20110422202150 L   I
 2011-04-22-2019-26S.COL___139                                                 6
 STAT SP IPHASW D HRMM SECON CODA AMPLIT PERI AZIMU VELO SNR AR TRES W  DIS CAZ7
 BAR2 SZ EP   1   2022  7.73                             150     0.2 7   57  55 
 BAR2 SZ I        2022 17.80         6.4 0.29                            57  55 
 BAR2 SZ ES   1   2022 20.82                             150     0.1 7   57  55 
 RUS  HZ EP   1   2022  9.10                             144     0.1 7   73 128 
 RUS  HE ES   1   2022 23.06                             144    -0.1 7   73 128 
 RUS  HZ I        2022 26.10         2.9 0.27                            73 128 
 BTL  SZ EP   1   2022  8.93                             142    -0.1 7   78  29 
 BRR  HZ EP   3   2022  9.42                             137    -0.2 2   90 353 
 BRR  HZ I        2022 22.51         4.8 0.47                            90 353 
 BRR  HE ES   2   2022 24.13                             137    -0.2 5   90 353 
 NOR  SZ EP   2   2022 16.47                             120    -0.1 5  162 240 
 NOR  SN ES   2   2022 36.76                             120     0.1 5  162 240 
 YOP  SZ EP   2   2022 17.24                             118    -0.1 5  168 128 
 YOP  SN ES   2   2022 37.89                             118    -0.1 5  168 128 
 YOP  SZ I        2022 40.65         3.7 0.26                           168 128 
                                                                                
