 2010  622 2249  6.8 L   6.826 -73.055138.9  RSN  6 0.6 1.7LRSN                1
 GAP=166        1.34       7.4    15.6 13.4  0.2280E+01 -0.8533E+02 -0.2350E+02E
 Epicentro: LOS SANTOS - SANTANDER                                             3
 ACTION:UP  10-08-24 10:12 OP:vdl  STATUS:               ID:20100622224906 L   I
 2010-06-22-2248-18S.COL___117                                                 6
 STAT SP IPHASW D HRMM SECON CODA AMPLIT PERI AZIMU VELO SNR AR TRES W  DIS CAZ7
 BAR2 SZ IP       2249 25.67                             168    -0.110   30 209 
 BAR2 SZ ES   1   2249 40.85                             168     0.3 7   30 209 
 BTN  SZ EP   1   2249 26.86                             149    -1.2 7   77 356 
 BTN  SZ ES   1   2249 43.78                             149    -0.8 7   77 356 
 BRR  HZ EP       2249 27.52                             149    -0.210   79 293 
 BRR  HE ES   1   2249 44.37                             149     0.4 7   79 293 
 BRR  HZ I        2249 46.83        13.5 0.40                            79 293 
 BRI  SZ EP       2249 30.26                             141     0.710  102  16 
 RUS  HZ EP   1   2249 29.61                             142    -0.5 7  103 182 
 RUS  HN ES   1   2249 48.29                             142     0.1 7  103 182 
 RUS  HZ I        2249 49.65         6.6 0.34                           103 182 
 GRA  SZ EP       2249 31.47                             137     0.510  120  13 
                                                                                
