 2013  422 2056  9.9 L   6.834 -73.160143.8  RSN  6 0.4 1.8LRSN                1
 GAP=133        1.02       4.9     4.8  7.5 -0.8045E+01  0.3696E+01  0.8627E+00E
 Epicentro: LOS SANTOS - SANTANDER                                             3
 ACTION:UPD 13-05-22 14:40 OP:EP   STATUS:               ID:20130422205609 L   I
 2013-04-22-2048-51M.COL___218                                                 6
 STAT SP IPHASW D HRMM SECON CODA AMPLIT PERI AZIMU VELO AIN AR TRES W  DIS CAZ7
 BAR2 SZ EP       2056 29.40                             169    0.0410 26.9 185 
 BAR2 SZ ES       2056 44.63                             169    0.0810 26.9 185 
 BRR  HZ EP       2056 31.27                             153    0.6210 68.1 296 
 BRR  HN ES       2056 47.18                             153    0.3410 68.1 296 
 PAM  SZ EP       2056 32.34                             151    0.5610 75.5  42 
 PAM  SN ES       2056 48.59                             151   -0.2710 75.5  42 
 PAM  SZ I        2056 51.24         8.9 0.52            153           75.5  42 
 RUS  HZ EP       2056 33.46                             142   -0.2710  104 175 
 RUS  HN ES       2056 52.45                             142    0.1210  104 175 
 RUS  HN I        2056 53.76         9.9 0.26            144            104 175 
 CAPV BZ ES       2056 57.53                             132   -0.51 9  147  39 
 PTB  HZ EP       2056 36.32                             132   -0.30 9  147 257 
 PTB  HN ES       2056 56.90                             132   -0.58 9  147 257 
 PTB  HN I        2057  0.27        10.0 0.26            133            147 257 
                                                                                
