 2010  622 2343  3.5 L   6.819 -73.094137.0  RSN  6 0.5 1.7LRSN                1
 GAP=161        1.02       6.2    13.5 10.9 -0.2049E+02 -0.1376E+02 -0.2266E+02E
 Epicentro: LOS SANTOS - SANTANDER                                             3
 ACTION:UP  10-08-24 10:12 OP:vdl  STATUS:               ID:20100622234303 L   I
 2010-06-22-2341-57S.COL___118                                                 6
 STAT SP IPHASW D HRMM SECON CODA AMPLIT PERI AZIMU VELO SNR AR TRES W  DIS CAZ7
 BAR2 SZ EP       2343 22.44                             168     0.310   27 202 
 BAR2 SZ ES   1   2343 36.37                             168    -0.4 7   27 202 
 BRR  HZ EP   1   2343 23.13                             149    -0.8 7   75 295 
 BRR  HZ I        2343 24.45        24.1 0.24                            75 295 
 BRR  HN ES   2   2343 40.89                             149     1.0 5   75 295 
 RUS  HZ EP   2   2343 26.56                             141     0.0 5  102 179 
 RUS  HN ES   1   2343 44.56                             141     0.0 7  102 179 
 RUS  HZ I        2343 45.19         1.8 0.11                           102 179 
 BRI  SZ EP   1   2343 25.90                             140    -0.4 7  105  18 
 BRI  SZ ES   1   2343 43.83                             140    -0.2 7  105  18 
 GRA  SZ EP       2343 28.16                             136     0.510  122  15 
 OCA  SZ EP   2   2343 30.85                             128    -0.2 5  159 351 
 OCA  SZ I        2343 55.77         8.9 0.22                           159 351 
                                                                                
