 2010  922 2339 54.2 L   6.061 -73.716111.4  RSN 14 0.5 2.8LRSN                1
 GAP= 86        0.90       3.3     4.7  9.4 -0.7464E+01  0.1474E+02 -0.4302E+01E
 Epicentro: BOLIVAR - SANTANDER                                                3
 ACTION:UP  11-02-18 11:04 OP:tino STATUS:               ID:20100922233954 L   I
 2010-09-22-2339-58S.COL___122                                                 6
 STAT SP IPHASW D HRMM SECON CODA AMPLIT PERI AZIMU VELO SNR AR TRES W  DIS CAZ7
 RUS  HZ IP     D 2340 12.37                             145    -0.210   73 105 
 RUS  HE ES   2   2340 26.21                             145    -0.6 5   73 105 
 RUS  HZ I        2340 27.85        79.3 0.53                            73 105 
 BAR2 SZ IP     C 2340 13.13                             141     0.210   83  45 
 BAR2 SZ ES   2   2340 27.56                             141     0.0 5   83  45 
 BAR2 SZ I        2340 29.84       422.6 0.38                            83  45 
 BTL  SZ EP   1   2340 15.15                             133     0.2 7  107  28 
 BRR  HZ IP     D 2340 15.28                             130    -0.110  116   0 
 BRR  HE ES   2   2340 32.37                             130     0.4 5  116   0 
 BRR  HZ I        2340 35.38       114.8 0.15                           116   0 
 GIR2 SZ IP     C 2340 16.78                             128     0.110  126  27 
 GIR2 SZ ES   2   2340 34.63                             128     0.5 5  126  27 
 NOR  SZ EP   1   2340 17.07                             125    -0.7 7  139 247 
 NOR  SN ES   2   2340 35.48                             125    -0.7 5  139 247 
 ROSC BZ EP   1   2340 20.38                             122     1.0 7  151 206 
 ROSC BN ES   2   2340 39.40                             122     0.3 5  151 206 
 ROSC BZ I        2340 46.21        55.4 0.31                           151 206 
 CHI  HZ IP     C 2340 19.80                             121    -0.4 9  158 181 
 CHI  HE ES   2   2340 40.10                             121    -0.4 5  158 181 
 CHI  HZ I        2340 43.19        51.0 0.52                           158 181 
 CVER SZ EP   1   2340 22.54                             118     0.5 7  175 193 
 CVER SZ ES   2   2340 45.00                             118     1.2 4  175 193 
 CVER SZ I        2340 51.14        86.0 0.49                           175 193 
 HEL  HZ EP   1   2340 24.90                             114     0.1 6  201 274 
 HEL  HZ I        2340 26.95        53.4 0.61                           201 274 
 HEL  HN ES   2   2340 48.72                             114     0.1 4  201 274 
 GUE  SZ EP   1   2340 25.78                             113    -0.4 6  214  24 
 RREF HZ EP   1   2340 27.08                             112    -0.4 6  222 235 
 RREF HN ES   2   2340 53.82                             112     0.5 4  222 235 
 RREF HZ I        2340 57.50        49.1 0.25                           222 235 
 GRA  SZ EP   1   2340 27.21                             111     0.0 6  225  27 
 OCA  SZ EP   1   2340 29.33                             109    -0.1 6  245  10 
 OCA  SZ ES   2   2340 57.47                             109     0.5 4  245  10 
 OCA  SZ I        2341  6.43        58.4 0.23                           245  10 
                                                                                
