 2014  222 2002 42.5 L   6.873 -73.318125.8  RSN  8 0.4 1.6LRSN                1
 GAP=101        0.89       4.1     4.9  8.1 -0.3574E+01  0.2029E+02 -0.6430E+01E
 Epicentro: BETULIA - SANTANDER                                                3
 ACTION:UPD 14-03-10 08:12 OP:ep   STATUS:               ID:20140222200242 L   I
 OLDACT:DUP 14-02-22 22:43 OP:mh   STATUS:               ID:20140222200001d    3
 2014-02-22-2000-00M.COL___215                                                 6
 STAT SP IPHASW D HRMM SECON CODA AMPLIT PERI AZIMU VELO AIN AR TRES W  DIS CAZ7
 BAR2 SZ EP   1   20 2 59.96                             164   -0.08 7 34.5 154 
 BAR2 SZ ES       20 3 13.59                             164   -0.1410 34.5 154 
 BAR2 SZ I        20 3 14.92        50.5 0.27            156           34.5 154 
 BRR  HZ EP   1   20 3  0.61                             157    0.26 7 50.6 301 
 BRR  HZ I        20 3  4.33        20.3 0.34            151           50.6 301 
 BRR  HN ES   2   20 3 14.25                             157   -0.04 5 50.6 301 
 PAM  SZ EP       20 3  3.13                             144   -0.0510 85.6  53 
 PAM  SN ES   1   20 3 19.30                             144   -0.03 7 85.6  53 
 PAM  SZ I        20 3 21.41         3.5 0.21            141           85.6  53 
 RUS  HZ EP   1   20 3  5.86                             136    0.64 7  112 167 
 RUS  HN ES   1   20 3 23.12                             136    0.16 7  112 167 
 RUS  HZ I        20 3 30.25         1.4 0.31            126            112 167 
 PTB  HZ EP       20 3  5.37                             131   -0.9410  131 254 
 PTB  HZ I        20 3 27.65         7.3 0.08            121            131 254 
 ZAR  HZ EP   1   20 3 11.47                             121   -0.02 7  183 292 
 ZAR  HN ES   2   20 3 34.75                             121    0.62 4  183 292 
 ZAR  HZ I        20 3 38.03         4.2 0.05            113            183 292 
 NOR  HN ES       20 3 42.54                             115    0.38 8  225 230 
 SML  HN ES   1   20 3 43.35                             115    0.49 6  229 339 
                                                                                
