 2015  322 2243 19.9 L   6.814 -73.145150.0  RSN 18 0.4 2.2LRSN                1
 GAP= 71        0.97       2.9     3.0  5.1 -0.1310E+01  0.2757E+01  0.1385E+01E
 Epicentro: LOS SANTOS - SANTANDER                                             3
 ACTION:UPD 15-04-30 16:28 OP:nd   STATUS:               ID:20150322224319 L   I
 OLDACT:REG 15-03-23 02:18 OP:spq  STATUS:               ID:20150322223748     3
 2015-03-22-2237-48M.COL___284                                                 6
 STAT SP IPHASW D HRMM SECON CODA AMPLIT PERI AZIMU VELO AIN AR TRES W  DIS CAZ7
 BAR2 EZ EP       2243 39.81                             170   -0.2410 24.9 189 
 BAR2 EZ ES   1   2243 55.81                             170    0.02 7 24.9 189 
 BAR2 EZ I        2243 56.79        26.1 0.42            169           24.9 189 
 BRR  HZ EP     C 2243 41.87                             154    0.4210 70.5 297 
 BRR  HN ES       2243 59.31                             154    1.0310 70.5 297 
 BRR  HZ I        2244  5.41        17.1 0.14            151           70.5 297 
 PAM  SZ EP       2243 42.83                             152    0.3510 76.2  40 
 PAM  SN ES       2244  0.18                             152    0.0710 76.2  40 
 PAM  SZ I        2244  2.17        20.0 0.48            157           76.2  40 
 RUS  HZ EP       2243 43.76                             144   -0.4010  102 176 
 RUS  HN ES   1   2244  2.88                             144   -0.22 7  102 176 
 RUS  HZ I        2244  5.20        12.8 0.46            147            102 176 
 PTB  HZ EP       2243 46.83                             133   -0.40 9  148 258 
 PTB  HN ES       2244  7.80                             133   -0.76 9  148 258 
 PTB  HZ I        2244 13.80        19.5 0.26            133            148 258 
 TAM  HZ EP       2243 48.05                             132    0.12 9  155 106 
 TAM  HE ES   1   2244  9.56                             132   -0.25 7  155 106 
 OCA  HZ EP       2243 48.45                             131    0.07 9  159 353 
 OCA  HN ES       2244 10.00                             131   -0.61 9  159 353 
 OCA  HZ I        2244 16.02        34.4 0.20            134            159 353 
 SPBC HZ EP       2243 48.91                             130    0.08 9  164 219 
 SPBC HE ES       2244 11.48                             130    0.08 9  164 219 
 SPBC HZ I        2244 18.03        28.5 0.45            131            164 219 
 ZAR  HZ EP       2243 52.43                             123   -0.12 9  203 292 
 ZAR  HN ES       2244 18.33                             123    0.30 9  203 292 
 ZAR  HZ I        2244 24.50        19.1 0.46            124            203 292 
 NOR  HZ EP       2243 56.03                             119    0.07 8  236 234 
 NOR  HE ES       2244 24.01                             119   -0.09 8  236 234 
 NOR  HZ I        2244 31.24        13.7 0.18            121            236 234 
 SML  HZ EP       2243 56.34                             119   -0.26 8  242 335 
 SML  HN ES   1   2244 24.85                             119   -0.39 6  242 335 
 SML  HZ I        2244 29.74        28.9 0.10            121            242 335 
 HEL  HZ EP   4   2244  1.57                             116    1.21 0  272 255 
 HEL  HN ES   1   2244 31.29                             116   -0.64 6  272 255 
 HEL  HZ I        2244 38.67         8.1 0.32            117            272 255 
 GUY2CHZ EP   1   2244  4.36                             113    0.57 5  302 235 
 GUY2CHN ES   4   2244 42.32                             113    4.28 0  302 235 
 GUY2CHZ I        2244 46.40         8.2 0.28                           302 235 
 PTGC HZ EP   4   2244  2.71                             112   -1.39 0  310 159 
 PTGC HE ES   4   2244 35.82                             112   -2.76 0  310 159 
 PTGC HZ I        2244 37.47        14.4 0.18            115            310 159 
 TOL  SZ EP       2244  9.22                             110    0.78 7  345 224 
 TOL  SN ES   4   2244 48.58                             110    2.26 0  345 224 
 TOL  SZ I        2244 53.37         6.9 0.50            112            345 224 
 MON  HN ES   4   2244 44.01                             109   -3.20 0  353 308 
 MON  HZ I        2244 48.49         3.7 0.31            111            353 308 
 PAL  HZ EP       2244 15.38                             107    0.10 6  407 239 
 PAL  HN ES   1   2244 59.07                             107    0.57 4  407 239 
 PAL  HZ I        2245  5.21         3.1 0.14            108            407 239 
 SJC  HZ EP   4   2244 14.12                             106   -1.32 0  408 327 
 SJC  HE ES   4   2244 54.50                             106   -4.27 0  408 327 
 SJC  HZ I        2244 59.64         2.2 0.26            108            408 327 
                                                                                
