 2014  622 2127 20.6 L   6.763 -73.097148.7  RSN 12 0.5 1.8LRSN                1
 GAP=144        0.98       4.2     4.9  6.2 -0.8362E+01  0.8470E+01  0.1931E+01E
 Epicentro: LOS SANTOS - SANTANDER                                             3
 ACTION:UPD 14-07-01 22:55 OP:nd   STATUS:               ID:20140622212720 L   I
 OLDACT:REG 14-06-23 03:36 OP:fm   STATUS:               ID:20140622211807     3
 2014-06-22-2118-07M.COL___265                                                 6
 STAT SP IPHASW D HRMM SECON CODA AMPLIT PERI AZIMU VELO AIN AR TRES W  DIS CAZ7
 BAR2 SZ EP   1   2127 40.86                             172    0.29 7 21.1 206 
 BAR2 SZ ES   1   2127 56.53                             172    0.41 7 21.1 206 
 BAR2 SZ I        2127 58.41        13.4 0.28            169           21.1 206 
 PAM  SZ EP     C 2127 43.43                             151    0.2710 77.4  35 
 PAM  SN ES       2128  0.66                             151   -0.0710 77.4  35 
 PAM  SZ I        2128  2.87         6.2 0.44            155           77.4  35 
 BRR  HZ EP       2127 42.58                             151    0.1010 77.8 299 
 BRR  HN ES       2127 59.85                             151    0.3310 77.8 299 
 BRR  HZ I        2128  0.71         6.9 0.30            150           77.8 299 
 RUS  HZ EP       2127 43.70                             146   -0.6710 96.3 179 
 RUS  HN ES       2128  2.61                             146   -0.2710 96.3 179 
 RUS  HZ I        2128  6.13         6.9 0.36            147           96.3 179 
 PTB  HZ EP   1   2127 47.31                             132   -0.94 7  152 261 
 PTB  HE ES   1   2128  8.83                             132   -0.96 7  152 261 
 PTB  HZ I        2128 14.53         9.6 0.42            132            152 261 
 SPBC HZ EP       2127 49.74                             130    0.35 9  164 221 
 SPBC HE ES       2128 11.98                             130    0.17 9  164 221 
 SPBC HZ I        2128 17.51        10.9 0.48            130            164 221 
 OCA  HN ES   4   2128 10.22                             129   -2.00 0  165 351 
 OCA  HZ I        2128 16.40         6.6 0.40            131            165 351 
 NOR  HZ EP       2127 56.85                             119    0.10 8  237 236 
 NOR  HE ES       2128 24.73                             119   -0.19 8  237 236 
 NOR  HZ I        2128 28.37         5.5 0.22            120            237 236 
 SML  HZ EP   1   2127 57.94                             117   -0.12 6  250 335 
 SML  HN ES   4   2128 25.07                             117   -2.19 0  250 335 
 SML  HZ I        2128 27.65         8.7 0.10            119            250 335 
 HEL  HZ EP   1   2128  1.36                             115   -0.10 6  276 257 
 HEL  HN ES   4   2128 34.28                             115    0.97 0  276 257 
 HEL  HZ I        2128 38.98         3.5 0.32            116            276 257 
 GUY2CHZ EP   4   2128  5.49                             113    0.88 0  303 236 
 GUY2CHN ES       2128 39.59                             113    0.68 7  303 236 
 GUY2CHZ I        2128 47.54         3.7 0.76                           303 236 
 PRA  HZ EP   4   2128 15.60                             107    1.45 0  391 211 
 PRA  HN ES   1   2128 56.85                             107    0.95 4  391 211 
 PRA  HZ I        2129  3.08         3.7 0.76            108            391 211 
 SJC  HN ES   4   2128 56.43                             106   -4.59 0  416 327 
                                                                                
