 2012 1222 2029 43.3 L   7.319 -73.139  3.8  RSN  6 0.6 2.8LRSN 3.2WRSN        1
 SPEC AVERAGE  MO 13.9 ST  2.8 OM  4.1 f0 2.84 R0.5180 AL 1.56 WI 20.8 MW  3.2 3
 SPEC SD       MO  0.1 ST0.691 OM  1.6 f00.080 R0.0146 AL      WI      MW  0.1 3
 GAP=116        0.88       2.8     2.4  5.8 -0.1387E+01  0.3661E+01 -0.1393E+01E
 Epicentro: RIONEGRO - SANTANDER                                               3
 SPEC PTB HH N MO 13.8 ST  2.1 OM  2.3 f0 2.92 R0.5034 AL 1.27 WI 19.8 MW  3.1 3
 SPEC PTB HH N T203029 K 0.000 GD  130 VS 4.20 DE 3.00 Q0230.0 QA 0.60 VS 4.20 3
 SPEC OCA HH N MO 14.1 ST  3.5 OM  2.7 f0 2.76 R0.5326 AL 1.84 WI 21.7 MW  3.3 3
 SPEC OCA HH N T203011 K 0.000 GD  101 VS 4.20 DE 3.00 Q0230.0 QA 0.60 VS 4.20 3
 ACTION:UPD 13-01-04 14:29 OP:ep   STATUS:               ID:20121222202942 L   I
 2012-12-22-2028-29M.COL___094                                                 6
 STAT SP IPHASW D HRMM SECON CODA AMPLIT PERI AZIMU VELO AIN AR TRES W  DIS CAZ7
 PAM  SZ IP       2029 51.70                              47   -0.0710 48.5  87 
 PAM  SZ I        2029 51.85       253.4 0.18                          48.5  87 
 PAM  SN ES   1   2029 58.01                              47   -0.38 7 48.5  87 
 OCA  HZ EP       2029 59.64                              47   -0.1410  104 349 
 OCA  HN ES       2030 12.47                              47   -0.1710  104 349 
 OCA  HN I        2030 15.84       312.0 0.48                           104 349 
 PTB  HZ EP       2030  9.48                              47   -0.09 9  169 239 
 PTB  HN ES       2030 29.76                              47   -0.31 9  169 239 
 PTB  HN I        2030 30.68       128.1 0.22                           169 239 
 TAM  HN ES   3   2030 35.32                              37    2.89 2  178 123 
 TAM  HN I        2030 38.81        60.6 0.38                           178 123 
 ZAR  HZ EP       2030 12.97                              37    0.53 9  191 276 
 ZAR  HN ES       2030 35.12                              37   -0.06 9  191 276 
 SML  HZ EP       2030 13.29                              37    0.53 9  193 328 
 SML  HN I        2030 38.36       368.0 0.10                           193 328 
                                                                                
