 2013 1222 2143 10.7 L   6.840 -73.165143.3  RSN 14 0.5 2.2LRSN                1
 GAP=132        1.17       3.0     4.3  6.8 -0.2816E+01  0.1174E+02  0.1002E+01E
 Epicentro: LOS SANTOS - SANTANDER                                             3
 ACTION:UPD 14-01-13 10:20 OP:ep   STATUS:               ID:20131222214310 L   I
 OLDACT:REG 13-12-22 22:37 OP:carl STATUS:               ID:20131222214000     3
 2013-12-22-2140-00M.COL___285                                                 6
 STAT SP IPHASW D HRMM SECON CODA AMPLIT PERI AZIMU VELO AIN AR TRES W  DIS CAZ7
 BAR2 SZ EP       2143 30.01                             169   -0.0810 27.5 184 
 BAR2 SZ ES       2143 45.46                             169    0.2210 27.5 184 
 BAR2 SZ I        2143 46.32        59.0 0.58            169           27.5 184 
 PAM  SZ EP       2143 32.70                             151    0.2010 75.5  43 
 PAM  SN ES       2143 49.70                             151    0.1710 75.5  43 
 PAM  SZ I        2143 51.94        15.9 0.40            155           75.5  43 
 RUS  HZ EP       2143 34.04                             142   -0.4710  105 175 
 RUS  HE ES       2143 53.31                             142    0.2010  105 175 
 RUS  HZ I        2143 54.54        19.8 0.34            146            105 175 
 PTB  HZ EP       2143 36.56                             132   -0.76 9  147 257 
 PTB  HN ES       2143 56.90                             132   -1.22 9  147 257 
 PTB  HZ I        2144  2.63        24.6 0.16            132            147 257 
 OCA  HZ EP       2143 38.10                             130   -0.24 9  156 354 
 OCA  HN ES       2144  0.19                             130    0.26 9  156 354 
 OCA  HZ I        2144  8.92        16.6 0.36            132            156 354 
 SPBC HZ EP       2143 39.10                             128   -0.08 9  165 217 
 SPBC HN ES       2144  1.92                             128    0.50 9  165 217 
 SPBC HZ I        2144  7.06        26.3 0.20            130            165 217 
 ZAR  HZ EP   1   2143 42.79                             122    0.22 6  200 291 
 ZAR  HN ES       2144  8.13                             122    0.67 9  200 291 
 ZAR  HZ I        2144 15.84        22.3 0.20            123            200 291 
 NOR  HZ EP       2143 46.59                             118    0.24 8  236 233 
 NOR  HE ES       2144 13.97                             118   -0.21 8  236 233 
 NOR  HZ I        2144 21.00        11.7 0.16            120            236 233 
 SML  HN ES       2144 14.19                             117   -0.47 8  239 335 
 CHI  HZ EP       2143 48.35                             116   -0.28 8  252 194 
 CHI  HN ES       2144 17.92                             116   -0.33 8  252 194 
 CHI  HZ I        2144 20.91         7.1 0.28            119            252 194 
 HEL  HZ EP       2143 52.17                             114    1.52 8  271 255 
 HEL  HN ES       2144 21.62                             114   -0.21 8  271 255 
 HEL  HZ I        2144 28.65        10.7 0.34            116            271 255 
 GUY2CHZ EP   2   2143 54.38                             112    0.13 4  302 234 
 GUY2CHN ES       2144 28.82                             112    0.57 7  302 234 
 GUY2CHZ I        2144 36.42         7.3 0.40                           302 234 
 RREF HZ EP   2   2143 57.04                             110    0.19 3  323 229 
 RREF HE ES       2144 32.97                             110    0.10 7  323 229 
 RREF HZ I        2144 41.74         9.0 0.26            112            323 229 
 ORTC HN ES       2144 47.20                             106    0.22 6  398 216 
 SJC  HZ EP   4   2144  4.20                             105   -1.37 0  404 327 
 SJC  HN ES   4   2144 45.92                             105   -2.48 0  404 327 
                                                                                
