 2010  622 2301 39.8 L   6.751 -73.197151.7  RSN  4 0.2 1.6LRSN                1
 GAP=150        0.63       5.5     9.9  7.8  0.2840E+02 -0.4652E+02 -0.1947E+02E
 Epicentro: VILLANUEVA - SANTANDER                                             3
 ACTION:UP  10-08-24 10:12 OP:vdl  STATUS:               ID:20100622230139 L   I
 2010-06-22-2258-20S.COL___117                                                 6
 STAT SP IPHASW D HRMM SECON CODA AMPLIT PERI AZIMU VELO SNR AR TRES W  DIS CAZ7
 BAR2 SZ EP   1   23 1 59.88                             173    -0.2 7   18 175 
 BAR2 SZ ES   1   23 2 15.60                             173    -0.3 7   18 175 
 BRR  HZ EP   1   23 2  1.69                             154     0.2 7   69 305 
 BRR  HE ES       23 2 18.42                             154     0.010   69 305 
 BRR  HZ I        23 2 18.95         7.6 0.15                            69 305 
 RUS  HZ EP   1   23 2  3.49                             146    -0.3 7   96 172 
 RUS  HE ES   1   23 2 23.00                             146     0.4 7   96 172 
 RUS  HZ I        23 2 23.52         6.6 0.33                            96 172 
 BRI  SZ EP       23 2  4.96                             141     0.110  116  22 
                                                                                
