 2016  322 2037 45.5 L   6.837 -73.160144.0  RSN 18 0.4 3.3LRSN 3.6WRSN        1
 SPEC AVERAGE  MO 14.5 ST0.775 OM  2.6 f0 1.39 R1.5902 AL 0.00 WI 30.0 MW  3.6 3
 SPEC SD       MO  0.3 ST0.926 OM  0.3 f00.573 R0.5409 AL      WI      MW  0.2 3
 GAP= 69        0.83       2.2     2.3  4.3 -0.2729E+00  0.2995E+01  0.1383E+01E
 Epicentro: LOS SANTOS - SANTANDER                                             3
 SPEC PAM EH Z MO 14.3 ST0.349 OM  2.4 f0 1.39 R1.3842 AL-0.00 WI 30.0 MW  3.5 3
 SPEC PAM EH Z T203823 K 0.000 GD  162 VS 5.20 DE 3.50 Q0750.0 QA 1.50 VS 3.50 3
 SPEC OCA HH Z MO 14.5 ST  2.4 OM  2.5 f0 2.24 R0.8589 AL-0.00 WI 30.0 MW  3.6 3
 SPEC OCA HH Z T203833 K 0.000 GD  212 VS 5.20 DE 3.50 Q0750.0 QA 1.50 VS 3.50 3
 SPEC TAM HH Z MO 14.4 ST0.326 OM  2.4 f0 1.24 R1.5516 AL-0.00 WI 30.0 MW  3.6 3
 SPEC TAM HH Z T203833 K 0.000 GD  213 VS 5.20 DE 3.50 Q0750.0 QA 1.50 VS 3.50 3
 SPEC ZAR HH Z MO 14.4 ST  2.6 OM  2.3 f0 2.55 R0.7545 AL-0.00 WI 30.0 MW  3.5 3
 SPEC ZAR HH Z T203841 K 0.000 GD  247 VS 5.20 DE 3.50 Q0750.0 QA 1.50 VS 3.50 3
 SPEC CHI HH Z MO 14.3 ST0.143 OM  2.1 f0 1.07 R1.7981 AL-0.00 WI 30.0 MW  3.5 3
 SPEC CHI HH Z T203851 K 0.000 GD  290 VS 5.20 DE 3.50 Q0750.0 QA 1.50 VS 3.50 3
 SPECGUY2CHH Z MO 14.7 ST0.208 OM  2.5 f00.851 R2.2609 AL-0.00 WI 30.0 MW  3.8 3
 SPECGUY2CHH Z T2039 2 K 0.000 GD  334 VS 5.20 DE 3.50 Q0750.0 QA 1.50 Q1 0.00 3
 SPEC CBOCHH Z MO 14.7 ST0.147 OM  2.4 f00.797 R2.4141 AL-0.00 WI 30.0 MW  3.7 3
 SPEC CBOCHH Z T2039 7 K 0.000 GD  362 VS 5.20 DE 3.50 Q0750.0 QA 1.50 VS 3.50 3
 SPEC DBB SH Z MO 15.1 ST0.455 OM  2.8 f00.851 R2.2609 AL-0.00 WI 30.0 MW  4.0 3
 SPEC DBB SH Z T2039 8 K 0.000 GD  367 VS 5.20 DE 3.50 Q0750.0 QA 1.50 VS 3.50 3
 SPEC ORTCHH Z MO 14.4 ST0.265 OM  2.1 f0 1.16 R1.6586 AL-0.00 WI 30.0 MW  3.6 3
 SPEC ORTCHH Z T203920 K 0.000 GD  423 VS 5.20 DE 3.50 Q0750.0 QA 1.50 VS 3.50 3
 SPEC SJC HH Z MO 14.4 ST0.283 OM  2.1 f0 1.18 R1.6305 AL-0.00 WI 30.0 MW  3.6 3
 SPEC SJC HH Z T203918 K 0.000 GD  429 VS 5.20 DE 3.50 Q0750.0 QA 1.50 VS 3.50 3
 OLDACT:REG 16-03-23 03:57 OP:cara STATUS:               ID:20160322203444     3
 ACTION:UPD 16-05-13 21:26 OP:cam  STATUS:               ID:20160322203746dL   I
 OLDACT:UP  16-03-29 11:52 OP:dnl  STATUS:               ID:20160322203746dL   3
 OLDACT:UP  16-03-23 05:53 OP:cara STATUS:               ID:20160322203444     3
 2016-03-22-2034-44M.COL___308                                                 6
 STAT SP IPHASW D HRMM SECON CODA AMPLIT PERI AZIMU VELO AIN AR TRES W  DIS CAZ7
 BAR2 EZ IP     C 2038  5.14                             169    0.1010 27.1 185 
 BAR2 EZ ES       2038 20.16                             169   -0.0910 27.1 185 
 BAR2 EZ I        2038 21.93       205.9 0.38            167           27.1 185 
 PAM  EZ EP     C 2038  7.87                             151    0.4210 75.4  42 
 PAM  EZ I        2038  8.18       532.2 0.20            155           75.4  42 
 PAM  EN ES       2038 24.89                             151    0.3510 75.4  42 
 RUS  HZ EP     C 2038  9.16                             142   -0.2710  105 175 
 RUS  HN ES       2038 27.91                             142   -0.1410  105 175 
 RUS  HZ I        2038 29.63       101.0 0.16            143            105 175 
 PTB  HZ EP       2038 11.76                             132   -0.54 9  147 257 
 PTB  HN ES       2038 32.75                             132   -0.42 9  147 257 
 PTB  HZ I        2038 35.31       200.6 0.16            131            147 257 
 OCA  HZ EP       2038 12.53                             130   -0.79 9  156 354 
 OCA  HN ES       2038 34.58                             130   -0.41 9  156 354 
 OCA  HZ I        2038 38.00       468.4 0.20            131            156 354 
 TAM  HZ IP     D 2038 13.57                             130    0.24 9  158 106 
 TAM  HN ES       2038 35.19                             130    0.20 9  158 106 
 SPBC HZ EP       2038 14.04                             128   -0.08 9  165 218 
 SPBC HN ES       2038 36.64                             128    0.24 9  165 218 
 SPBC HZ I        2038 41.72       187.2 0.32            128            165 218 
 ZAR  HZ EP       2038 17.66                             122    0.09 9  201 291 
 ZAR  HE ES       2038 43.23                             122    0.68 9  201 291 
 ZAR  HZ I        2038 49.30       248.5 0.40            122            201 291 
 CHI  HZ EP       2038 23.65                             116    0.12 8  252 195 
 CHI  HN ES       2038 53.05                             116   -0.10 8  252 195 
 CHI  HZ I        2038 58.60        42.6 0.30            117            252 195 
 URE  HZ EP   9   2038 25.16                             113   -1.04 0  281 291 
 URE  HN ES       2038 56.93                             113    0.06 7  281 291 
 URE  HZ I        2039  6.33       139.5 0.24            114            281 291 
 GUY2CHZ EP   4   2038 30.43                             112    1.24 0  302 234 
 GUY2CHE ES       2039  3.63                             112    0.39 7  302 234 
 GUY2CHZ I        2039 13.74        86.4 0.54                           302 234 
 VIL  SZ EP       2038 29.01                             111   -0.28 7  307 191 
 VIL  SN ES       2039  3.19                             111   -0.23 7  307 191 
 CBOC HZ EP       2038 33.07                             110    0.71 7  333 251 
 CBOC HN ES       2039  8.61                             110   -0.26 7  333 251 
 CBOC HZ  AMP     2039 23.49       618.5 0.76                           333 251 
 DBB  SZ EP       2038 32.70                             109   -0.03 7  338 274 
 DBB  SZ ES       2039 10.05                             109    0.51 7  338 274 
 DBB  SZ I        2039 13.10       229.5 0.56            109            338 274 
 ANIL HZ EP   4   2038 36.78                             108    1.29 0  359 224 
 ANIL HN ES   4   2039 17.20                             108    2.76 0  359 224 
 ANIL HZ I        2039 21.62       144.4 0.34            108            359 224 
 ORTC HZ EP       2038 39.69                             106    0.01 6  398 216 
 ORTC HN ES       2039 22.04                             106    0.14 6  398 216 
 ORTC HZ I        2039 33.29        29.0 0.40            106            398 216 
 SJC  HZ EP   4   2038 38.77                             106   -1.78 0  405 327 
 SJC  HN ES   4   2039 20.34                             106   -3.11 0  405 327 
 SJC  HZ I        2039 23.75        38.4 0.36            106            405 327 
 CRJC HZ EP   4   2038 45.22                             103   -2.31 0  464   4 
 CRJC HN ES   4   2039 32.34                             103   -3.53 0  464   4 
 CRJC HZ I        2039 35.80        24.1 0.40            104            464   4 
                                                                                
