 2016 1222 2231 14.5 L   6.763 -73.143134.0  RSN  9 0.5 2.0LRSN                1
 GAP=139        1.20       4.3     4.8  6.9  0.3525E+00  0.1048E+02  0.6891E+01E
 Epicentro: LOS SANTOS - SANTANDER                                             3
 ACTION:UPD 17-01-11 20:17 OP:rebc STATUS:               ID:20161222223114 L   I
 OLDACT:UP  16-12-23 09:39 OP:ar   STATUS:               ID:20161222222750     3
 OLDACT:UP  16-12-23 09:38 OP:ar   STATUS:               ID:20161222222750     3
 OLDACT:REG 16-12-23 08:00 OP:ar   STATUS:               ID:20161222222750     3
 2016-12-22-2228-00M.COL___387                                                 6
 STAT SP IPHASW D HRMM SECON CODA AMPLIT PERI AZIMU VELO AIN AR TRES W  DIS CAZ7
 BAR2 EZ EP       2231 32.36                             171   -0.2810 19.4 193 
 BAR2 EZ ES       2231 46.77                             171   -0.0110 19.4 193 
 BAR2 EZ I        2231 47.83        42.6 0.34            172           19.4 193 
 BRR  HZ IP     C 2231 34.24                             149   -0.2910 73.5 301 
 BRR  HN ES       2231 51.16                             149    1.0110 73.5 301 
 BRR  HZ I        2231 54.07        15.5 0.27            148           73.5 301 
 PAM  EZ EP       2231 35.46                             148   -0.2110 80.4  38 
 PAM  EN ES       2231 52.13                             148   -0.0510 80.4  38 
 PAM  EZ I        2231 54.39        29.2 0.52            149           80.4  38 
 RUS  HZ EP       2231 36.83                             142    0.0210 96.5 176 
 RUS  HN ES       2231 54.10                             142   -0.1110 96.5 176 
 RUS  HZ I        2231 55.43        10.5 0.26            146           96.5 176 
 PTB  HZ EP   1   2231 39.24                             129   -1.25 7  147 260 
 PTB  HE ES       2232  0.25                             129   -0.52 9  147 260 
 PTB  HZ I        2232  2.24        21.7 0.20            130            147 260 
 ZAR  HZ EP       2231 46.48                             119    0.08 8  206 293 
 ZAR  HN ES       2232 11.39                             119    0.11 8  206 293 
 ZAR  HZ I        2232 18.82        12.1 0.50            120            206 293 
 NOR  HZ EP       2231 49.22                             116   -0.12 8  233 235 
 NOR  HN ES       2232 16.18                             116   -0.34 8  233 235 
 NOR  HZ I        2232 18.17         7.9 0.16            117            233 235 
 CHI  HZ EP       2231 52.10                             115    0.95 8  245 195 
 CHI  HN ES       2232 19.90                             115    0.16 8  245 195 
 GUY2CHZ EP       2231 58.20                             110    0.85 7  299 235 
 GUY2CHN ES   4   2232 32.66                             110    1.88 0  299 235 
 GUY2CHZ I        2232 37.66         5.0 0.26                           299 235 
 SJC  HZ EP   4   2232  7.15                             103   -2.97 0  413 327 
 SJC  HN ES   4   2232 47.91                             103   -5.59 0  413 327 
                                                                                
