 2012 1222 2128 34.1 L   6.800 -73.148146.7  RSN 10 0.6 2.7LRSN                1
 GAP=150        1.50       4.7     6.0  8.2 -0.6683E+01  0.1223E+02  0.3094E+01E
 Epicentro: LOS SANTOS - SANTANDER                                             3
 ACTION:UPD 13-01-04 14:29 OP:ep   STATUS:               ID:20121222212834 L   I
 2012-12-22-2127-59M.COL___221                                                 6
 STAT SP IPHASW D HRMM SECON CODA AMPLIT PERI AZIMU VELO AIN AR TRES W  DIS CAZ7
 BAR2 SZ EP       2128 53.88                             171    0.0110 23.3 189 
 BAR2 SZ ES       2129  9.12                             171   -0.1510 23.3 189 
 BAR2 SZ I        2129 10.65        59.5 0.48                          23.3 189 
 BRR  HZ EP       2128 55.86                             153    0.4910 71.0 299 
 BRR  HN ES       2129 12.99                             153    1.0610 71.0 299 
 BRR  HN I        2129 13.63       109.3 0.36                          71.0 299 
 PAM  SZ EP       2128 56.52                             151    0.0710 77.5  40 
 PAM  SN ES       2129 13.81                             151   -0.0510 77.5  40 
 PAM  SN I        2129 15.35        24.6 0.44                          77.5  40 
 PTB  HZ EP       2129  0.53                             132   -0.62 9  148 259 
 PTB  HN ES       2129 21.85                             132   -0.38 9  148 259 
 PTB  HN I        2129 27.55        78.7 0.38                           148 259 
 OCA  HZ EP       2129  2.05                             130   -0.45 9  160 353 
 OCA  HN ES       2129 24.03                             130   -0.61 9  160 353 
 OCA  HN I        2129 28.50       146.7 0.22                           160 353 
 ZAR  HZ EP       2129  8.37                             123    1.76 9  204 292 
 ZAR  HE ES       2129 31.83                             123   -0.12 9  204 292 
 ZAR  HN I        2129 37.34        87.9 0.48                           204 292 
 NOR  HZ EP       2129  9.68                             119   -0.21 8  235 234 
 NOR  HN ES       2129 37.61                             119   -0.18 8  235 234 
 NOR  HN I        2129 47.07        57.1 0.14                           235 234 
 SML  HZ EP       2129 10.36                             118   -0.43 8  244 335 
 SML  HN ES       2129 38.98                             118   -0.41 8  244 335 
 SML  HN I        2129 45.46        58.7 0.10                           244 335 
 CHI  HZ EP       2129 11.97                             117    0.10 8  249 195 
 CHI  HN ES       2129 41.01                             117   -0.30 8  249 195 
 HEL  HZ EP       2129 15.40                             115    1.04 8  272 256 
 HEL  HN ES       2129 44.80                             115   -0.95 8  272 256 
 HEL  HN I        2129 52.49        12.1 0.24                           272 256 
                                                                                
