 2010 1122 2333 49.9 L   6.287 -74.129 75.3  RSN  7 0.4 1.6LRSN                1
 GAP=121        0.75       3.9     3.4 15.7 -0.4127E+01  0.1099E+02  0.1741E+02E
 Epicentro: CIMITARRA - SANTANDER                                              3
 ACTION:UP  10-12-17 16:54 OP:REBC STATUS:               ID:20101122233349 L   I
 2010-11-22-2328-56S.COL___131                                                 6
 STAT SP IPHASW D HRMM SECON CODA AMPLIT PERI AZIMU VELO SNR AR TRES W  DIS CAZ7
 BRR  HZ IP     D 2334  7.08                             121     0.010  102  27 
 BRR  HE ES   2   2334 21.28                             121     0.7 5  102  27 
 BRR  HZ I        2334 22.63        30.7 0.11                           102  27 
 BAR2 SZ EP   1   2334  8.34                             119     0.1 7  110  72 
 BAR2 SZ I        2334  8.66        17.5 0.24                           110  72 
 BAR2 SZ ES   2   2334 22.56                             119    -0.1 5  110  72 
 NOR  SZ EP   1   2334  8.13                             118    -0.4 7  115 226 
 NOR  SN ES   2   2334 22.78                             118    -0.3 5  115 226 
 RUS  HZ EP   1   2334  9.56                             116    -0.5 7  124 111 
 RUS  HZ I        2334 12.20         4.0 0.00                           124 111 
 RUS  HN ES   2   2334 25.59                             116    -0.3 5  124 111 
 HEL  HZ EP   1   2334 13.40                             110    -0.1 7  155 266 
 HEL  HE ES   2   2334 32.15                             110     0.1 5  155 266 
 HEL  HZ I        2334 32.96         7.5 0.50                           155 266 
 CHI  HZ EP   1   2334 17.84                             106     0.3 7  188 166 
 CHI  HE ES   2   2334 40.00                             106     1.0 4  188 166 
 CHI  HZ I        2334 46.51         2.6 0.27                           188 166 
 RREF HZ EP   1   2334 19.94                             105     0.3 6  204 221 
 RREF HN ES   2   2334 43.13                             105     0.3 4  204 221 
 RREF HZ I        2334 48.23         4.2 0.22                           204 221 
                                                                                
