 2016 1122 2040 27.1 L   6.868 -73.174149.4  RSN  5 0.2 1.6LRSN                1
 GAP=149        0.60       5.5     4.3  5.2 -0.1402E+02  0.2283E+01  0.2922E+01E
 Epicentro: ZAPATOCA - SANTANDER                                               3
 ACTION:UPD 17-10-26 21:10 OP:lp   STATUS:               ID:20161122204027 L   I
 OLDACT:UP  16-11-23 04:13 OP:and  STATUS:               ID:20161122203749     3
 OLDACT:UP  16-11-23 04:11 OP:and  STATUS:               ID:20161122203749     3
 OLDACT:REG 16-11-23 03:00 OP:and  STATUS:               ID:20161122203749     3
 2016-11-22-2038-00M.COL___352                                                 6
 STAT SP IPHASW D HRMM SECON CODA AMPLIT PERI AZIMU VELO AIN AR TRES W  DIS CAZ7
 BAR2 EZ EP       2040 47.11                             168   -0.1810 30.5 182 
 BAR2 EZ ES       2041  2.99                             168   -0.0810 30.5 182 
 BAR2 EZ I        2041  3.28        10.7 0.14            167           30.5 182 
 PAM  EZ IP     C 2040 49.78                             153    0.3210 73.9  45 
 PTB  HZ EP       2040 53.78                             133   -0.42 9  146 256 
 PTB  HE ES       2041 15.48                             133    0.10 9  146 256 
 PTB  HZ I        2041 16.83         3.9 0.19            132            146 256 
 NOR  HN ES       2041 31.68                             119    0.26 8  237 233 
 NOR  HZ I        2041 34.44         2.8 0.19            119            237 233 
 PRA  HZ EP       2041 21.44                             107    0.14 6  397 209 
 PRA  HE ES       2042  3.59                             107   -0.02 6  397 209 
                                                                                
