 2010  322 2206 48.5 L   6.833 -72.972150.0  RSN  5 0.2 1.9LRSN                1
 GAP=201        0.43       3.2     8.6  4.6  0.1465E+02 -0.6923E+01  0.1236E+01E
 Epicentro: CEPITA - SANTANDER                                                 3
 ACTION:UP  10-08-24 09:55 OP:vdl  STATUS:               ID:20100322220648 L   I
 2010-03-22-2204-55S.COL___098                                                 6
 STAT SP IPHASW D HRMM SECON CODA AMPLIT PERI AZIMU VELO SNR AR TRES W  DIS CAZ7
 BAR2 SZ ES   2   22 7 24.67                             166    -0.2 5   35 221 
 BRR  HZ IP       22 7 11.04                             148     0.010   87 290 
 BRR  HZ I        22 7 11.21        20.5 0.10                            87 290 
 BRR  HN ES   1   22 7 28.61                             148     0.0 7   87 290 
 RUS  HZ EP   1   22 7 13.05                             144     0.1 7  105 187 
 RUS  HN ES   1   22 7 32.04                             144     0.0 7  105 187 
 RUS  HZ I        22 7 32.76         6.5 0.31                           105 187 
 OCA  SZ ES   2   22 7 39.70                             131     0.3 5  160 346 
 OCA  SZ I        22 7 43.61        11.9 0.20                           160 346 
 CHI  HZ IP       22 7 27.22                             117    -0.2 8  258 199 
 CHI  HE ES   2   22 7 58.30                             117     0.5 4  258 199 
 CHI  HZ I        22 8  0.30         3.0 0.49                           258 199 
                                                                                
