 2013  822 2304 10.1 L   6.395 -73.654108.9  RSN  4 0.1 1.1LRSN                1
 GAP=149        0.33       3.3     2.2  6.3 -0.4595E+00 -0.6269E+01  0.1107E+02E
 Epicentro: SANTA HELENA DEL OPON - SANTANDER                                  3
 ACTION:UPD 14-01-14 09:05 OP:ep   STATUS:               ID:20130822230410 L   I
 OLDACT:REG 13-08-22 22:18 OP:jn   STATUS:               ID:20130822225959     3
 2013-08-22-2259-59M.COL___270                                                 6
 STAT SP IPHASW D HRMM SECON CODA AMPLIT PERI AZIMU VELO AIN AR TRES W  DIS CAZ7
 BAR2 SZ EP   1   23 4 26.76                             151   -0.02 7 56.6  67 
 BRR  HZ EP   1   23 4 27.85                             141   -0.13 7 79.0 355 
 BRR  HN ES   1   23 4 42.01                             141    0.08 7 79.0 355 
 BRR  HZ I        23 4 49.40         5.5 0.50            158           79.0 355 
 RUS  HZ EP       23 4 29.07                             140    0.0110 84.1 131 
 RUS  HZ I        23 4 44.84         1.6 0.28            133           84.1 131 
 PTB  HZ EP       23 4 28.97                             137    0.0810 90.1 280 
 PTB  HN ES       23 4 43.50                             137   -0.0510 90.1 280 
 PTB  HZ I        23 4 44.84         3.3 0.12            165           90.1 280 
                                                                                
