 2014 1222 2218  8.2 L   6.545 -73.554107.0  RSN 19 0.5 2.2LRSN                1
 GAP= 61        1.21       2.6     3.1  6.1 -0.1637E+01  0.5906E+01 -0.1458E+00E
 Epicentro: EL CARMEN - SANTANDER                                              3
 ACTION:UPD 15-02-10 17:06 OP:nd   STATUS:               ID:20141222221808 L   I
 OLDACT:REG 14-12-23 02:57 OP:fm   STATUS:               ID:20141222220749     3
 2014-12-22-2207-49M.COL___289                                                 6
 STAT SP IPHASW D HRMM SECON CODA AMPLIT PERI AZIMU VELO AIN AR TRES W  DIS CAZ7
 BAR2 EZ IP     D 2218 24.38                             157    0.5210 41.5  83 
 BAR2 EZ ES   1   2218 36.85                             157    0.77 7 41.5  83 
 BRR  HZ EP       2218 25.26                             146    0.4110 64.6 344 
 BRR  HN ES       2218 38.72                             146    0.8810 64.6 344 
 BRR  HZ I        2218 40.77        22.2 0.14            143           64.6 344 
 RUS  HZ EP       2218 27.22                             138   -0.1610 89.0 144 
 RUS  HE ES       2218 42.04                             138   -0.3010 89.0 144 
 RUS  HZ I        2218 44.30        17.8 0.42            139           89.0 144 
 PTB  HZ IP     D 2218 27.13                             133   -0.5210 99.8 270 
 PTB  HN ES       2218 41.97                             133   -0.8510 99.8 270 
 PTB  HZ I        2218 43.21        43.3 0.32            130           99.8 270 
 SPBC HE ES       2218 45.49                             129    0.1410  114 210 
 SPBC HZ I        2218 48.65        44.3 0.28            128            114 210 
 PAM  SZ EP       2218 31.03                             126   -0.0010  129  47 
 PAM  SN ES       2218 48.17                             126   -0.6810  129  47 
 PAM  SZ I        2218 50.49        31.0 0.28            125            129  47 
 ZAR  HZ EP       2218 35.76                             116    0.20 9  178 306 
 ZAR  HE ES       2218 57.09                             116    0.18 9  178 306 
 ZAR  HZ I        2219  0.96        30.9 0.48            114            178 306 
 NOR  HZ EP       2218 35.90                             115   -0.10 9  182 233 
 NOR  HN ES       2218 57.13                             115   -0.55 9  182 233 
 NOR  HZ I        2218 59.92        19.8 0.14            114            182 233 
 OCA  HZ EP       2218 36.34                             114   -0.62 9  189   8 
 OCA  HN ES       2218 58.64                             114   -0.77 9  189   8 
 OCA  HZ I        2219  5.24        22.3 0.40            113            189   8 
 CHI  HZ EP       2218 40.11                             111    0.17 8  213 185 
 CHI  HN ES       2219  4.69                             111   -0.01 8  213 185 
 CHI  HZ I        2219  9.66         6.1 0.24            111            213 185 
 HEL  HZ EP       2218 41.92                             110    0.98 8  222 260 
 HEL  HN ES       2219  5.89                             110   -0.59 8  222 260 
 HEL  HZ I        2219 10.55        10.1 0.28            109            222 260 
 SML  HZ EP       2218 44.25                             107   -0.15 8  256 347 
 SML  HE ES       2219 13.27                             107    0.62 8  256 347 
 SML  HZ I        2219 16.23        24.4 0.12            105            256 347 
 URE  HN ES   4   2219 11.20                             107   -1.51 0  256 302 
 URE  HZ I        2219 22.18        10.1 0.16            105            256 302 
 CBOC HZ EP       2218 48.05                             105    0.34 7  282 255 
 CBOC HN ES       2219 18.40                             105   -0.13 7  282 255 
 CBOC HZ I        2219 23.41         4.8 0.52            103            282 255 
 TOL  SZ EP       2218 49.47                             104    0.42 7  292 222 
 TOL  SN ES       2219 21.31                             104    0.39 7  292 222 
 TOL  SZ I        2219 24.60        23.4 0.68            103            292 222 
 DBB  SZ ES   1   2219 22.01                             104    0.33 5  298 280 
 DBB  SZ I        2219 28.80        29.3 0.52            102            298 280 
 ANIL HN ES   4   2219 25.01                             103    1.25 0  306 222 
 ORTC HZ EP       2218 55.32                             101    0.13 6  347 213 
 ORTC HE ES   4   2219 29.15                             101   -2.71 0  347 213 
 ORTC HZ I        2219 38.48         3.5 0.18            100            347 213 
 SJC  HZ EP   4   2219  1.48                              98   -1.58 0  412 334 
 SJC  HE ES   4   2219 42.65                              98   -3.21 0  412 334 
 SJC  HZ I        2219 57.22         2.3 0.28             96            412 334 
 SDV  BZ EP   4   2219  2.47                              98   -0.95 0  413  51 
 SDV  BE ES   4   2219 40.95                              98   -5.55 0  413  51 
 SDV  BZ I        2219 47.14         2.6 0.30             97            413  51 
                                                                                
