 2010 1222 2354 43.0 L   6.674 -73.498119.3  RSN  7 0.4 2.3LRSN                1
 GAP=133        1.03       5.6     5.9  9.5 -0.5370E+01  0.2319E+02  0.2029E+01E
 Epicentro: EL CARMEN DE CHUCURI - SANTANDER                                   3
 ACTION:UP  11-01-14 15:26 OP:pat  STATUS:               ID:20101222235443 L   I
 2010-12-22-2340-00M.COL___126                                                 6
 STAT SP IPHASW D HRMM SECON CODA AMPLIT PERI AZIMU VELO SNR AR TRES W  DIS CAZ7
 BAR2 SZ IP       2354 59.78                             162    -0.110   36 105 
 BAR2 SZ ES   1   2355 13.38                             162     0.4 7   36 105 
 BAR2 SZ I        2355 15.08       124.8 0.03                            36 105 
 RUS  HZ EP       2355  3.57                             138    -0.510   98 152 
 RUS  HN ES   2   2355 20.15                             138    -0.3 5   98 152 
 RUS  HZ I        2355 21.88        26.6 0.43                            98 152 
 GRA  SZ EP       2355  8.55                             124    -0.2 9  154  30 
 GRA  SZ ES   2   2355 29.28                             124     0.4 5  154  30 
 GRA  SZ I        2355 30.76        23.4 0.31                           154  30 
 YOP  SZ EP       2355 12.49                             118     0.2 9  189 141 
 YOP  SN ES   2   2355 35.31                             118     0.1 4  189 141 
 YOP  SZ I        2355 37.70        23.7 0.42                           189 141 
 NOR  SZ EP       2355 12.38                             117    -0.6 9  195 231 
 NOR  SN ES   2   2355 35.77                             117    -0.6 4  195 231 
 CHI  HZ EP       2355 17.73                             113     0.7 8  228 187 
 HEL  HZ EP       2355 17.88                             113     0.6 8  231 257 
 HEL  HN ES   2   2355 44.53                             113     0.4 4  231 257 
 HEL  HZ I        2355 48.96        11.7 0.14                           231 257 
                                                                                
