 2012  322 2209 29.5 L   6.779 -73.138143.4  RSN 10 0.5 2.2LRSN                1
 GAP=139        1.10       5.2     5.5  8.0 -0.6110E+01  0.1346E+02  0.5651E+01E
 ACTION:UP  12-03-31 23:21 OP:EP   STATUS:               ID:20120322220929 L   I
 2012-03-22-2207-39M.COL___184                                                 6
 STAT SP IPHASW D HRMM SECON CODA AMPLIT PERI AZIMU VELO SNR AR TRES W  DIS CAZ7
 BAR2 SZ EP   1   22 9 48.74                             171     0.0 7   21 193 
 BAR2 SZ ES   1   2210  3.29                             171    -0.5 7   21 193 
 BAR2 SZ I        2210  4.88        53.4 0.33                            21 193 
 BRR  HZ EP   1   22 9 50.93                             151     0.5 7   73 300 
 BRR  HN ES       2210  7.67                             151     0.810   73 300 
 BRR  HZ I        2210  9.22        41.9 0.17                            73 300 
 PAM  SZ EP   1   22 9 51.90                             150     0.4 7   79  38 
 PAM  SZ I        22 9 52.25        23.8 0.20                            79  38 
 PAM  SN ES       2210  8.38                             150    -0.310   79  38 
 RUS  HZ EP   1   22 9 52.87                             144     0.1 7   98 176 
 RUS  HN ES   1   2210 11.24                             144     0.2 7   98 176 
 RUS  HZ I        2210 12.60        14.5 0.22                            98 176 
 PTB  HZ EP   1   22 9 55.94                             131    -0.3 7  148 260 
 PTB  HN ES   1   2210 16.20                             131    -1.0 7  148 260 
 PTB  HZ I        2210 19.20        16.8 0.21                           148 260 
 OCA  SZ EP   1   22 9 57.51                             129    -0.3 7  163 353 
 ZAR  HZ EP   1   2210  1.96                             122     0.0 6  206 293 
 ZAR  HN ES   1   2210 26.94                             122    -0.3 6  206 293 
 ZAR  HZ I        2210 33.81        14.4 0.22                           206 293 
 NOR  SZ EP   1   2210  4.95                             118     0.0 6  234 235 
 NOR  SN ES   1   2210 32.47                             118    -0.2 6  234 235 
 RREF HN ES   1   2210 52.18                             110     0.9 5  321 230 
 PRA  HN ES   1   2211  4.18                             106    -0.1 4  390 210 
                                                                                
