 2012  422 2342 15.8 L   6.772 -73.165147.0  RSN  4 0.2 1.2LRSN                1
 GAP=135        0.60       4.4     4.1  7.0 -0.2052E+01  0.2372E+01  0.3907E+01E
 Epicentro: LOS SANTOS - SANTANDER                                             3
 ACTION:UPD 12-07-05 11:55 OP:tino STATUS:               ID:20120422234215 L   I
 2012-04-22-2340-00M.COL___186                                                 6
 STAT SP IPHASW D HRMM SECON CODA AMPLIT PERI AZIMU VELO AIN AR TRES W  DIS CAZ7
 BRR  HZ EP   1   2342 37.33                             153     0.2 7   71 302 
 BRR  HZ I        2342 37.88         6.2 0.33                            71 302 
 BRR  HN ES   1   2342 54.08                             153     0.4 7   71 302 
 PAM  SZ EP   1   2342 38.46                             150     0.0 7   81  39 
 PAM  SN ES   1   2342 55.69                             150    -0.3 7   81  39 
 RUS  HZ EP   1   2342 39.59                             145     0.1 7   98 175 
 RUS  HZ I        2342 40.21         1.0 0.15                            98 175 
 RUS  HN ES   1   2342 58.02                             145     0.1 7   98 175 
 PTB  HZ EP   1   2342 42.54                             133    -0.1 7  145 260 
 PTB  HN ES   1   2343  3.23                             133    -0.4 7  145 260 
 PTB  HZ I        2343  9.31         2.3 0.32                           145 260 
                                                                                
