 2011  822 2017 56.0 L   6.787 -73.086140.5  RSN  8 0.3 2.0LRSN                1
 GAP=189        0.58       2.7     5.7  4.7  0.4850E+00  0.6547E+01  0.3000E+01E
 Epicentro: LOS SANTOS - SANTANDER                                             3
 ACTION:UPD 12-07-13 15:53 OP:ep   STATUS:               ID:20110822201756 L   I
 2011-08-22-2016-05S.COL___158                                                 6
 STAT SP IPHASW D HRMM SECON CODA AMPLIT PERI AZIMU VELO AIN AR TRES W  DIS CAZ7
 BAR2 SZ EP       2018 15.01                             170    0.0310 24.0 206 
 BAR2 SZ ES   1   2018 29.27                             170   -0.54 7 24.0 206 
 BAR2 SZ I        2018 32.86        14.8 0.31                          24.0 206 
 BRR  HZ EP   1   2018 16.84                             149   -0.10 7 77.8 297 
 BRR  HZ I        2018 17.83        23.0 0.11                          77.8 297 
 BRR  HE ES   1   2018 33.42                             149    0.11 7 77.8 297 
 RUS  HZ EP   1   2018 19.15                             143    0.07 7 98.9 180 
 RUS  HN ES   1   2018 37.58                             143    0.48 7 98.9 180 
 RUS  HZ I        2018 39.55        13.2 0.40                          98.9 180 
 OCA  SZ EP   2   2018 23.96                             128   -0.14 5  163 351 
 OCA  SZ ES   1   2018 46.25                             128    0.20 7  163 351 
 OCA  SZ I        2018 49.47        26.3 0.20                           163 351 
 NOR  SZ EP   1   2018 31.64                             117   -0.25 6  239 236 
 NOR  SN ES   2   2018 59.44                             117   -0.48 4  239 236 
 CHI  HZ EP   1   2018 33.18                             116   -0.24 6  249 197 
 CHI  HZ I        2018 35.95         5.7 0.53                           249 197 
 CHI  HE ES   1   2019  2.66                             116    0.02 6  249 197 
 RREF HZ EP   1   2018 43.03                             109    0.67 5  326 230 
 RREF HE ES   2   2019 19.13                             109    0.59 3  326 230 
 RREF HZ I        2019 27.33         6.5 0.18                           326 230 
 PRA  HZ EP   1   2018 49.01                             105   -0.54 4  394 211 
                                                                                
