 2017  622 2004 33.6 L   6.789 -73.140142.1  RSN 11 0.5 2.5LRSN                1
 GAP=212        1.01       4.0     4.1  6.8  0.5174E+01 -0.5901E+00  0.3562E+01E
 Epicentro: LOS SANTOS - SANTANDER                                             3
 ACTION:UPD 17-09-14 16:54 OP:jn   STATUS:               ID:20170622200433 L   I
 OLDACT:UP  17-06-23 05:34 OP:cog  STATUS:               ID:20170622195739     3
 OLDACT:REG 17-06-23 02:38 OP:cog  STATUS:               ID:20170622195739     3
 2017-06-22-1958-00M.COL___348                                                 6
 STAT SP IPHASW D HRMM SECON CODA AMPLIT PERI AZIMU VELO AIN AR TRES W  DIS CAZ7
 BRR  HZ IP     C 20 4 54.10                             151   -0.2710 72.3 299 
 BRR  HN ES       20 5 10.96                             151    0.3610 72.3 299 
 BRR  HZ I        20 5 15.26        74.6 0.12            152           72.3 299 
 PTB  HZ EP   9   20 4 59.28                             131   -0.98 0  148 259 
 PTB  HN ES       20 5 19.90                             130   -0.21 9  148 259 
 PTB  HZ I        20 5 25.18        28.5 0.14            132            148 259 
 SPBC HZ EP       20 5  1.40                             128   -0.32 9  163 219 
 SPBC HN ES       20 5 23.18                             128   -0.51 9  163 219 
 SPBC HZ I        20 5 27.16        66.6 0.20            129            163 219 
 YPLC HZ EP       20 5  2.77                             126   -0.18 9  175 151 
 YPLC HN ES       20 5 25.80                             126   -0.08 9  175 151 
 YPLC HZ I        20 5 29.21        45.5 0.28            129            175 151 
 ZAR  HZ EP       20 5  5.60                             121   -0.27 9  205 292 
 ZAR  HN ES       20 5 31.37                             121    0.30 9  205 292 
 ZAR  HZ I        20 5 36.66        62.9 0.62            124            205 292 
 NOR  HZ EP       20 5  8.48                             118   -0.57 8  235 235 
 NOR  HN ES       20 5 36.64                             118   -0.10 8  235 235 
 NOR  HZ I        20 5 41.41        23.1 0.34            119            235 235 
 CHI  HZ EP       20 5 10.71                             116   -0.23 8  248 195 
 CHI  HN ES       20 5 40.95                             116    0.84 8  248 195 
 CHI  HZ I        20 5 49.60        10.2 0.32            118            248 195 
 ROSC BZ EP   3   20 5 12.62                             116    1.22 2  252 211 
 ROSC BE ES       20 5 41.28                             116    0.36 8  252 211 
 ROSC BZ I        20 5 48.73        34.6 0.55            117            252 211 
 HEL  HZ EP       20 5 14.58                             114    0.96 8  272 256 
 HEL  HN ES       20 5 44.66                             114   -0.21 8  272 256 
 HEL  HZ I        20 5 51.59        21.9 0.28            116            272 256 
 GUY2CHZ EP       20 5 17.86                             112    0.88 7  301 235 
 GUY2CHE ES   4   20 5 53.64                             112    2.79 0  301 235 
 GUY2CHZ I        20 5 59.69        17.9 0.46                           301 235 
 ELA  HZ EP   4   20 5 22.08                             110    1.86 0  329 230 
 ELA  HN ES   4   20 5 55.35                             110   -1.27 0  329 230 
 CBOC HZ EP       20 5 20.43                             109    0.08 7  334 252 
 CBOC HN ES       20 5 56.12                             109   -0.72 7  334 252 
 CBOC HZ I        20 6  6.40         5.8 0.56            111            334 252 
                                                                                
