 2013  622 2251 25.8 L   6.801 -73.151140.8  RSN  7 0.5 2.1LRSN                1
 GAP=200        0.96       4.3     5.8  8.7  0.3161E+01  0.3179E+01 -0.4298E+01E
 Epicentro: LOS SANTOS - SANTANDER                                             3
 ACTION:UPD 14-01-08 09:56 OP:ep   STATUS:               ID:20130622225125 L   I
 OLDACT:UP  13-06-23 00:14 OP:mh   STATUS:               ID:20130622224959     3
 OLDACT:REG 13-06-22 21:44 OP:mh   STATUS:               ID:20130622224959     3
 2013-06-22-2249-59M.COL___267                                                 6
 STAT SP IPHASW D HRMM SECON CODA AMPLIT PERI AZIMU VELO AIN AR TRES W  DIS CAZ7
 BAR2 SZ EP   1   2251 44.41                             170   -0.39 7 23.3 188 
 BAR2 SZ I        2252  1.41        13.4 0.18            172           23.3 188 
 BRR  HZ IP     C 2251 46.91                             152    0.5710 70.6 299 
 BRR  HN ES   1   2252  3.25                             152    0.85 7 70.6 299 
 BRR  HN I        2252  6.75        25.4 0.18            153           70.6 299 
 RUS  HZ EP       2251 49.18                             143    0.1410  101 176 
 RUS  HN ES       2252  6.88                             143   -0.3210  101 176 
 RUS  HN I        2252  8.55         9.0 0.18            144            101 176 
 PTB  HZ EP       2251 51.92                             131   -0.36 9  147 259 
 PTB  HN ES       2252 12.61                             131   -0.35 9  147 259 
 PTB  HN I        2252 18.18        21.9 0.64            133            147 259 
 NOR  HN ES       2252 28.74                             118   -0.03 8  234 234 
 NOR  HN I        2252 35.10        14.3 0.16            119            234 234 
 SML  HZ EP   1   2252  2.33                             116    0.25 6  243 335 
 SML  HN ES   1   2252 29.64                             116   -0.76 6  243 335 
 SML  HN I        2252 34.17        21.1 0.30            117            243 335 
 PRA  HZ EP   1   2252 19.23                             106    0.14 4  392 209 
 PRA  HN ES   1   2253  1.43                             106    0.74 4  392 209 
 PRA  HN I        2253  5.63         3.2 0.34            106            392 209 
                                                                                
