 2012  922 2227 56.6 L   6.757 -73.085150.4  RSN  6 0.2 1.8LRSN                1
 GAP=146        0.39       2.8     3.5  4.2  0.1080E+01  0.5808E+00  0.2117E+01E
 Epicentro: LOS SANTOS - SANTANDER                                             3
 *COD-GIR2                                                                     3
 ACTION:UPD 12-10-22 14:20 OP:ep   STATUS:               ID:20120922222756 L   I
 2012-09-22-2220-00M.COL___221                                                 6
 STAT SP IPHASW D HRMM SECON CODA AMPLIT PERI AZIMU VELO AIN AR TRES W  DIS CAZ7
 BAR2 SZ EP   1   2228 16.70                             172   -0.01 7 21.2 210 
 BAR2 SZ I        2228 17.04        27.5 0.10                          21.2 210 
 GIR2 SZ EP   1   2228 16.78                             165   -0.18 7 37.5 341 
 GIR2 SZ ES   1   2228 33.04                             165    0.17 7 37.5 341 
 PAM  SZ EP   1   2228 19.54                             152    0.28 7 77.2  34 
 PAM  SZ I        2228 19.76         8.8 0.18                          77.2  34 
 PAM  SN ES   1   2228 36.74                             152   -0.23 7 77.2  34 
 BRR  HZ EP   1   2228 18.57                             151   -0.11 7 79.3 299 
 BRR  HE ES   1   2228 36.07                             151    0.14 7 79.3 299 
 RUS  HZ EP   1   2228 20.54                             146    0.11 7 95.6 180 
 RUS  HN ES   1   2228 38.95                             146   -0.09 7 95.6 180 
 RUS  HZ I        2228 42.17         4.9 0.32                          95.6 180 
 ZAR  HN ES   2   2228 56.07                             122   -0.24 4  212 293 
                                                                                
