 2013  522 2353 17.9 L   6.786 -73.170149.3  RSN  6 0.5 1.4LRSN                1
 GAP=179        0.97       5.4     8.3  8.2  0.1406E+02  0.1483E+02 -0.1199E+01E
 Epicentro: LOS SANTOS - SANTANDER                                             3
 ACTION:UPD 13-06-20 09:52 OP:ep   STATUS:               ID:20130522235317 L   I
 2013-05-22-2350-00M.COL___259                                                 6
 STAT SP IPHASW D HRMM SECON CODA AMPLIT PERI AZIMU VELO AIN AR TRES W  DIS CAZ7
 BAR2 SZ EP   1   2353 38.03                             171    0.07 7 21.4 184 
 BAR2 SZ ES   1   2353 53.64                             171    0.06 7 21.4 184 
 BAR2 SZ I        2353 53.83         4.8 0.10            173           21.4 184 
 GIR2 SZ EP   1   2353 38.09                             167    0.02 7 32.5 355 
 GIR2 SZ ES       2353 53.53                             167   -0.2410 32.5 355 
 GIR2 SZ I        2353 54.26         5.2 0.40            162           32.5 355 
 BRR  HZ EP   1   2353 40.26                             154    0.88 7 69.6 301 
 BRR  HZ I        2353 56.99         7.7 0.72            148           69.6 301 
 BRR  HE ES   1   2353 57.02                             154    0.91 7 69.6 301 
 RUS  HZ EP   1   2353 41.87                             145   -0.07 7 99.2 174 
 RUS  HE ES   1   2354  0.27                             145   -0.40 7 99.2 174 
 RUS  HZ I        2354  1.47         2.6 0.30            141           99.2 174 
 PTB  HZ EP   1   2353 45.01                             133    0.08 7  145 259 
 PTB  HN ES   1   2354  5.44                             133   -0.55 7  145 259 
 PTB  HZ I        2354  7.95         3.8 0.22            128            145 259 
 SML  HE ES       2354 22.98                             118   -0.57 8  244 336 
                                                                                
