 2012  622 2045 45.4 L   6.774 -73.156148.0  RSN  6 0.4 1.6LRSN                1
 GAP=136        0.78       5.3     4.7  8.8  0.2117E+01  0.6071E+01  0.3929E+01E
 Epicentro: LOS SANTOS - SANTANDER                                             3
 ACTION:UPD 12-08-06 17:51 OP:ep   STATUS:               ID:20120622204545 L   I
 2012-06-22-2040-00M.COL___198                                                 6
 STAT SP IPHASW D HRMM SECON CODA AMPLIT PERI AZIMU VELO AIN AR TRES W  DIS CAZ7
 BAR2 SZ EP   1   2046  5.20                             172   -0.09 7 20.3 188 
 BAR2 SZ I        2046 21.44         6.5 0.15                          20.3 188 
 BRR  HZ EP       2046  7.06                             153    0.2010 71.7 301 
 BRR  HZ I        2046  7.85        12.1 0.22                          71.7 301 
 BRR  HN ES   1   2046 24.02                             153    0.46 7 71.7 301 
 PAM  SZ EP   1   2046  8.13                             150    0.05 7 80.4  39 
 PAM  SN ES   1   2046 25.22                             150   -0.51 7 80.4  39 
 RUS  HZ EP   1   2046  9.57                             145    0.35 7 97.8 175 
 RUS  HN ES   1   2046 27.90                             145    0.14 7 97.8 175 
 RUS  HZ I        2046 29.55         3.3 0.57                          97.8 175 
 PTB  HZ EP   1   2046 11.87                             133   -0.58 7  146 260 
 PTB  HN ES   1   2046 32.87                             133   -0.63 7  146 260 
 PTB  HZ I        2046 35.92         3.3 0.16                           146 260 
 ZAR  HE ES   1   2046 43.86                             123    0.39 6  204 293 
 ZAR  HZ I        2046 48.96         5.0 0.18                           204 293 
                                                                                
