 2013 1022 2244 24.7 L   6.785 -73.155134.4  RSN  6 0.5 2.0LRSN                1
 GAP=200        0.99       6.2     8.0  8.7  0.2387E+02  0.4527E+01 -0.1955E+02E
 Epicentro: LOS SANTOS - SANTANDER                                             3
 ACTION:UPD 13-11-25 09:23 OP:ep   STATUS:               ID:20131022224425dL   I
 OLDACT:UP  13-10-22 23:35 OP:mh   STATUS:               ID:20131022223850     3
 OLDACT:UP  13-10-22 23:35 OP:mh   STATUS:               ID:20131022223850     3
 OLDACT:UP  13-10-22 23:35 OP:mh   STATUS:               ID:20131022223850     3
 OLDACT:REG 13-10-22 21:44 OP:y    STATUS:               ID:20131022223850     3
 2013-10-22-2238-50M.COL___230                                                 6
 STAT SP IPHASW D HRMM SECON CODA AMPLIT PERI AZIMU VELO AIN AR TRES W  DIS CAZ7
 BAR2 SZ EP       2244 43.43                             171    0.4810 21.5 188 
 BAR2 SZ ES   1   2244 56.96                             171   -0.21 7 21.5 188 
 BAR2 SZ I        2244 59.47        16.3 0.21            174           21.5 188 
 BRR  HZ EP   1   2244 44.15                             150   -0.49 7 71.1 300 
 BRR  HN ES   1   2245  0.70                             150    0.52 7 71.1 300 
 BRR  HZ I        2245  5.66         9.9 0.14            153           71.1 300 
 RUS  HZ EP   1   2244 47.26                             142    0.01 7 99.0 175 
 RUS  HN ES       2245  4.63                             142   -0.2010 99.0 175 
 RUS  HZ I        2245  7.77         3.5 0.18            148           99.0 175 
 PTB  HZ EP   1   2244 50.20                             129   -0.46 7  146 259 
 PTB  HN ES   1   2245 10.39                             129   -0.50 7  146 259 
 PTB  HZ I        2245 12.31         5.2 0.32            134            146 259 
 ZAR  HZ EP       2244 57.28                             120    0.87 9  204 293 
 ZAR  HN ES   2   2245 21.43                             120    0.30 4  204 293 
 ZAR  HZ  AMP     2245 23.55       279.2 0.11                           204 293 
 SML  HZ EP   1   2245  0.29                             115   -0.56 6  245 336 
 SML  HN ES   1   2245 28.46                             115   -0.57 6  245 336 
 SML  HZ I        2245 30.95         8.6 0.07            119            245 336 
                                                                                
