 2010  722 2231 44.9 L   6.767 -73.096140.0  RSN  4 0.2 1.7LRSN                1
 GAP=240        0.49       5.2     6.9  6.2  0.1854E+02 -0.5995E+01  0.5319E+01E
 Epicentro: LOS SANTOS - SANTANDER                                             3
 ACTION:UPD 10-12-01 15:19 OP:pat  STATUS:               ID:20100722223144 L   I
 2010-07-22-2229-56S.COL___123                                                 6
 STAT SP IPHASW D HRMM SECON CODA AMPLIT PERI AZIMU VELO AIN AR TRES W  DIS CAZ7
 BAR2 SZ EP       2232  3.92                             171     0.110   22 207 
 BAR2 SZ I        2232  4.48        16.7 0.43                            22 207 
 BAR2 SZ ES   2   2232 18.82                             171     0.3 5   22 207 
 BRR  HZ EP       2232  5.90                             149     0.110   78 299 
 BRR  HZ I        2232  6.38        17.4 0.03                            78 299 
 BRR  HN ES       2232 21.98                             149    -0.210   78 299 
 RUS  HZ EP   1   2232  7.53                             144    -0.3 7   97 179 
 RUS  HZ I        2232  9.23         5.8 1.16                            97 179 
 RUS  HE ES   2   2232 25.54                             144    -0.1 5   97 179 
 RREF HN ES   2   2233  7.09                             110     0.1 3  324 231 
 RREF HZ I        2233 15.04         2.0 0.25                           324 231 
                                                                                
