 2010  222 2117 22.4 L   6.779 -73.043148.9  RSN 13 0.4 3.0LRSN                1
 GAP=193        0.56       2.9     5.0  4.8 -0.3941E+01  0.7065E+01  0.3720E+01E
 Epicentro: LOS SANTOS - SANTANDER                                             3
 ACTION:UP  10-08-24 09:50 OP:vdl  STATUS:               ID:20100222211722 L   I
 2010-02-22-2114-21S.COL___094                                                 6
 STAT SP IPHASW D HRMM SECON CODA AMPLIT PERI AZIMU VELO SNR AR TRES W  DIS CAZ7
 BAR2 SZ EP   1   2117 42.48                             170     0.0 7   26 217 
 BAR2 SZ ES   2   2117 57.58                             170    -0.5 5   26 217 
 GIR2 SZ EP       2117 42.67                             165     0.110   37 333 
 GIR2 SZ ES   2   2117 58.99                             165     0.6 5   37 333 
 BRR  HZ IP       2117 44.37                             150    -0.210   82 296 
 BRR  HZ I        2117 44.56       207.4 0.15                            82 296 
 BRR  HE ES   2   2118  1.86                             150     0.1 5   82 296 
 RUS  BZ EP   1   2117 46.30                             145     0.0 7   98 183 
 RUS  BN ES   2   2118  4.88                             145     0.0 5   98 183 
 OCA  SZ EP   1   2117 51.33                             130     0.0 7  164 349 
 OCA  SZ ES   2   2118 13.86                             130     0.0 5  164 349 
 OCA  SZ I        2118 18.53       266.1 0.34                           164 349 
 CHI  HZ EP   1   2118  0.38                             118     0.0 6  250 198 
 CHI  HZ I        2118  2.93        29.8 0.85                           250 198 
 CHI  HN ES   2   2118 30.45                             118     0.4 4  250 198 
 ROSC BZ EP   1   2118  1.24                             117     0.1 6  257 213 
 ROSC BN ES   2   2118 30.50                             117    -0.8 4  257 213 
 ROSC BZ I        2118 37.16        45.4 0.53                           257 213 
 HEL  HZ EP   1   2118  3.77                             114    -0.2 6  283 257 
 HEL  HE ES   2   2118 35.75                             114    -0.6 4  283 257 
 HEL  HZ I        2118 41.98        30.7 0.19                           283 257 
 GUY  HZ EP   1   2118  7.07                             112     0.0 5  309 236 
 GUY  HN ES   2   2118 42.75                             112     0.8 4  309 236 
 RREF BZ EP   1   2118  9.31                             111    -0.2 5  329 231 
 RREF BE ES   2   2118 45.75                             111    -0.5 3  329 231 
 RREF BZ I        2118 51.60        36.3 0.45                           329 231 
 TOL  SZ EP   1   2118 11.79                             109     0.3 5  350 226 
 TOL  SZ ES   2   2118 50.15                             109     0.3 3  350 226 
 ANIL BZ EP   1   2118 13.68                             109     0.6 5  364 226 
 ANIL BN ES   2   2118 53.46                             109     0.9 3  364 226 
 ANIL BZ I        2119  2.53        75.7 0.44                           364 226 
 PRA  HZ EP   1   2118 15.86                             107    -0.6 4  396 211 
 PRA  HN ES   2   2118 58.26                             107    -0.4 3  396 211 
 PRA  HZ I        2119  3.88        28.7 0.65                           396 211 
                                                                                
