 2014  522 2349 41.5 L   6.830 -73.172143.9  RSN 12 0.5 2.2LRSN                1
 GAP=132        1.30       3.6     4.9  6.6 -0.1543E+01  0.9503E+01  0.2730E+01E
 Epicentro: LOS SANTOS - SANTANDER                                             3
 ACTION:UPD 15-03-16 16:59 OP:nd   STATUS:               ID:20140522234941 L   I
 OLDACT:REG 14-05-23 04:05 OP:carl STATUS:               ID:20140522234807     3
 2014-05-22-2348-07M.COL___258                                                 6
 STAT SP IPHASW D HRMM SECON CODA AMPLIT PERI AZIMU VELO AIN AR TRES W  DIS CAZ7
 BAR2 SZ EP       2350  1.00                             169    0.0310 26.3 183 
 BAR2 SZ ES       2350 15.46                             169   -0.7010 26.3 183 
 BAR2 SZ I        2350 16.92        50.5 0.30            170           26.3 183 
 BRR  HZ EP       2350  2.82                             154    0.6010 67.1 297 
 BRR  HN ES       2350 19.54                             154    1.1610 67.1 297 
 BRR  HZ I        2350 24.13        28.0 0.26            152           67.1 297 
 PAM  SZ EP       2350  3.84                             151    0.3510 76.8  43 
 PAM  SN ES       2350 20.69                             151    0.0610 76.8  43 
 PAM  SZ I        2350 22.83        28.9 0.52            154           76.8  43 
 RUS  HZ EP       2350  5.21                             142   -0.1210  104 175 
 RUS  HN ES       2350 24.11                             142    0.2010  104 175 
 RUS  HZ I        2350 25.59        17.9 0.18            145            104 175 
 PTB  HZ EP       2350  7.41                             132   -0.72 9  146 257 
 PTB  HN ES       2350 28.27                             132   -0.62 9  146 257 
 PTB  HZ I        2350 31.20        20.7 0.18            132            146 257 
 SPBC HZ EP       2350  9.83                             128   -0.11 9  164 217 
 SPBC HN ES       2350 31.55                             128   -0.56 9  164 217 
 SPBC HZ I        2350 36.97        20.5 0.30            130            164 217 
 ZAR  HZ EP       2350 13.77                             122    0.34 9  200 292 
 ZAR  HN ES       2350 38.59                             122    0.27 9  200 292 
 ZAR  HZ I        2350 44.31        14.1 0.24            123            200 292 
 NOR  HZ EP       2350 17.44                             118    0.36 8  234 233 
 NOR  HN ES       2350 45.46                             118    0.63 8  234 233 
 NOR  HZ I        2350 46.62         8.4 0.16            119            234 233 
 SML  HZ EP       2350 17.28                             117   -0.29 8  240 336 
 SML  HN ES       2350 44.38                             117   -1.33 8  240 336 
 SML  HZ I        2350 51.89        12.2 0.12            119            240 336 
 CHI  HZ EP       2350 19.58                             116    0.21 8  251 194 
 CHI  HN ES       2350 48.50                             116   -0.40 8  251 194 
 CHI  HZ I        2350 52.98         6.3 0.38            118            251 194 
 GUY2CHZ EP       2350 25.61                             112    0.63 7  301 234 
 GUY2CHN ES       2350 58.88                             112   -0.01 7  301 234 
 GUY2CHZ I        2351  8.79         6.9 0.54                           301 234 
 PRA  HZ EP       2350 35.02                             106   -0.11 6  393 209 
 PRA  HN ES       2351 16.74                             106   -0.22 6  393 209 
 PRA  HZ I        2351 23.57         7.3 0.26            107            393 209 
                                                                                
