 2015  222 2044  1.2 L   6.809 -73.159138.0  RSN 12 0.5 2.0LRSN                1
 GAP=134        1.18       3.0     4.8  6.0 -0.2907E+01  0.7640E+01  0.2044E+01E
 Epicentro: LOS SANTOS - SANTANDER                                             3
 ACTION:UPD 15-04-30 21:28 OP:nd   STATUS:               ID:20150222204401 L   I
 OLDACT:REG 15-02-23 03:09 OP:stll STATUS:               ID:20150222203749     3
 2015-02-22-2037-49M.COL___281                                                 6
 STAT SP IPHASW D HRMM SECON CODA AMPLIT PERI AZIMU VELO AIN AR TRES W  DIS CAZ7
 BAR2 EZ EP       2044 19.84                             170   -0.0310 24.1 186 
 BAR2 EZ ES       2044 34.72                             170    0.2510 24.1 186 
 BAR2 EZ I        2044 38.37        16.4 0.52            170           24.1 186 
 BRR  HZ EP       2044 22.12                             152    0.7510 69.4 298 
 BRR  HN ES       2044 37.83                             152    0.7010 69.4 298 
 BRR  HZ I        2044 39.58        16.5 0.14            149           69.4 298 
 PAM  SZ IP     D 2044 22.99                             149    0.4210 77.6  41 
 PAM  SZ I        2044 23.19        47.6 0.22            151           77.6  41 
 PAM  SE ES       2044 39.09                             149   -0.1810 77.6  41 
 RUS  HZ EP       2044 24.10                             142   -0.1310  102 175 
 RUS  HN ES       2044 41.76                             142   -0.4710  102 175 
 RUS  HZ I        2044 43.45         6.7 0.20            144            102 175 
 PTB  HZ EP       2044 26.78                             130   -0.60 9  146 258 
 PTB  HN ES       2044 47.69                             130   -0.15 9  146 258 
 PTB  HZ I        2044 49.87        12.7 0.62            129            146 258 
 OCA  HZ EP       2044 28.71                             128   -0.06 9  159 354 
 OCA  HN ES       2044 50.08                             128   -0.22 9  159 354 
 OCA  HZ I        2044 57.33        14.0 0.38            128            159 354 
 NOR  HZ EP       2044 36.83                             117    0.45 8  234 234 
 NOR  HN ES       2045  3.41                             117   -0.44 8  234 234 
 NOR  HZ I        2045  8.14         9.4 0.32            117            234 234 
 SML  HZ EP       2044 36.47                             116   -0.73 8  242 336 
 SML  HN ES       2045  4.57                             116   -0.74 8  242 336 
 CHI  HZ EP       2044 38.59                             115    0.10 8  249 195 
 CHI  HN ES       2045  7.05                             115   -0.57 8  249 195 
 CHI  HZ I        2045 13.43         3.7 0.28            116            249 195 
 GUY2CHZ EP       2044 45.69                             111    1.35 7  301 234 
 GUY2CHE ES       2045 18.04                             111    0.02 7  301 234 
 GUY2CHZ I        2045 25.32         5.1 0.30                           301 234 
 MON  HZ EP   9   2044 47.80                             107   -1.86 0  352 308 
 MON  HE ES       2045 25.56                                   -0.07 6  352 308 
 MON  HZ I        2045 41.44         3.2 0.38            107            352 308 
 PRA  HZ EP       2044 55.12                             105    0.69 6  392 209 
 PRA  HN ES       2045 35.53                             105   -0.45 6  392 209 
 PRA  HZ I        2045 42.17         5.9 0.32            106            392 209 
                                                                                
