 2011  622 2222 29.8 L   6.795 -73.090139.8  RSN  4 0.3 1.7LRSN                1
 GAP=144        0.68       4.1     6.7  9.0 -0.5459E+01 -0.3301E+01  0.6543E+01E
 Epicentro: LOS SANTOS - SANTANDER                                             3
 ACTION:UP  11-07-14 19:07 OP:ep   STATUS:               ID:20110622222229 L   I
 2011-06-22-2220-00M.COL___121                                                 6
 STAT SP IPHASW D HRMM SECON CODA AMPLIT PERI AZIMU VELO SNR AR TRES W  DIS CAZ7
 PAM  SZ EP   1   2222 51.39                             151     0.2 7   74  36 
 PAM  SN ES   1   2223  8.18                             151     0.3 7   74  36 
 BRR  HZ EP   1   2222 50.37                             150    -0.3 7   77 297 
 BRR  HN ES   1   2223  7.16                             150     0.2 7   77 297 
 RUS  HZ EP   1   2222 53.15                             143     0.2 7  100 180 
 RUS  HE ES   1   2223 10.68                             143    -0.3 7  100 180 
 RUS  HZ I        2223 10.73         6.9 0.78                           100 180 
 GRA  SZ EP   3   2222 54.81                             136     0.4 2  125  15 
 GRA  SZ ES   1   2223 13.10                             136    -0.5 7  125  15 
 GRA  SZ I        2223 16.68         7.8 0.38                           125  15 
                                                                                
