 2015  322 2307  0.4 L   6.815 -73.131150.8  RSN 11 0.4 1.9LRSN                1
 GAP=138        0.86       2.8     3.8  5.2 -0.1755E+01  0.4982E+01  0.3386E+00E
 Epicentro: LOS SANTOS - SANTANDER                                             3
 ACTION:UPD 15-04-30 16:28 OP:nd   STATUS:               ID:20150322230700 L   I
 OLDACT:DUP 15-03-23 07:00 OP:spq  STATUS:               ID:20150322225749d    3
 2015-03-22-2257-48M.COL___284                                                 6
 STAT SP IPHASW D HRMM SECON CODA AMPLIT PERI AZIMU VELO AIN AR TRES W  DIS CAZ7
 BAR2 EZ EP       23 7 20.63                             170   -0.0110 25.2 193 
 BAR2 EZ ES   1   23 7 36.57                             170    0.12 7 25.2 193 
 BAR2 EZ I        23 7 38.34         8.9 0.28            168           25.2 193 
 BRR  HZ EP     D 23 7 22.46                             153    0.3610 71.9 297 
 BRR  HN ES       23 7 39.63                             153    0.5910 71.9 297 
 BRR  HZ I        23 7 44.36         9.4 0.14            150           71.9 297 
 PAM  SZ EP       23 7 23.25                             152    0.2610 75.1  39 
 PAM  SN ES       23 7 40.49                             152   -0.1410 75.1  39 
 PAM  SZ I        23 7 41.32         9.3 0.22            158           75.1  39 
 RUS  HZ EP       23 7 24.44                             144   -0.2810  102 177 
 RUS  HN ES   1   23 7 43.56                             144   -0.16 7  102 177 
 RUS  HZ I        23 7 45.35         3.6 0.23            147            102 177 
 PTB  HZ EP       23 7 27.25                             133   -0.67 9  150 258 
 PTB  HN ES   1   23 7 48.72                             133   -0.68 7  150 258 
 PTB  HZ I        23 7 53.20        10.6 0.14            132            150 258 
 OCA  HZ EP   1   23 7 28.83                             131   -0.11 7  159 353 
 OCA  HE ES       23 7 50.95                             131   -0.28 9  159 353 
 OCA  HZ I        23 7 54.72        15.8 0.18            133            159 353 
 SPBC HZ EP       23 7 29.50                             130    0.04 9  165 219 
 SPBC HN ES   1   23 7 51.71                             130   -0.45 7  165 219 
 SPBC HZ I        23 7 56.88        24.3 0.10            131            165 219 
 ZAR  HZ EP       23 7 33.38                             123    0.15 9  205 292 
 ZAR  HN ES       23 7 58.66                             123   -0.21 9  205 292 
 ZAR  HZ I        23 8  5.15        12.7 0.40            124            205 292 
 NOR  HZ EP       23 7 36.97                             119    0.34 8  237 234 
 NOR  HN ES       23 8  5.47                             119    0.56 8  237 234 
 NOR  HZ I        23 8 10.19         7.7 0.30            121            237 234 
 SML  HZ EP       23 7 37.58                             119    0.39 8  243 335 
 SML  HN ES   1   23 8  5.42                             119   -0.50 6  243 335 
 SML  HZ I        23 8  8.33        11.4 0.10            120            243 335 
 HEL  HZ EP   4   23 7 42.45                             116    1.40 0  274 256 
 HEL  HN ES   4   23 8 15.02                             116    2.23 0  274 256 
 HEL  HZ I        23 8 19.34         4.1 0.28            117            274 256 
                                                                                
