 2010  622 2110  3.5 L   6.857 -73.063138.1  RSN  4 0.4 1.8LRSN                1
 GAP=190        0.97      15.5    23.4 18.2 -0.1827E+03 -0.1444E+03  0.1362E+03E
 Epicentro: LOS SANTOS - SANTANDER                                             3
 ACTION:UP  10-08-24 10:12 OP:vdl  STATUS:               ID:20100622211003 L   I
 2010-06-22-2106-24S.COL___118                                                 6
 STAT SP IPHASW D HRMM SECON CODA AMPLIT PERI AZIMU VELO SNR AR TRES W  DIS CAZ7
 BAR2 SZ EP   1   2110 22.56                             166     0.1 7   32 204 
 BTN  SZ IP       2110 23.80                             151    -0.610   74 357 
 BTN  SZ ES   1   2110 40.85                             151     0.1 7   74 357 
 BRR  HZ EP   1   2110 24.36                             149     0.2 7   77 291 
 BRR  HZ I        2110 40.17        12.3 0.43                            77 291 
 BRR  HN ES   3   2110 40.55                             149     0.3 2   77 291 
 GRA  SZ EP   1   2110 28.05                             137     0.7 7  117  14 
                                                                                
