 2017  122 2159 47.9 L   6.793 -73.133147.7  RSN 18 0.4 2.6LRSN                1
 GAP=121        0.75       2.4     2.7  3.6 -0.4282E+00  0.1562E+01  0.1690E+01E
 Epicentro: LOS SANTOS - SANTANDER                                             3
 ACTION:UPD 17-05-22 16:02 OP:jn   STATUS:               ID:20170122215947 L   I
 OLDACT:UP  17-01-23 03:30 OP:and  STATUS:               ID:20170122215741     3
 OLDACT:UP  17-01-23 03:30 OP:and  STATUS:               ID:20170122215741     3
 OLDACT:UP  17-01-23 03:27 OP:and  STATUS:               ID:20170122215741     3
 OLDACT:UP  17-01-23 03:27 OP:and  STATUS:               ID:20170122215741     3
 OLDACT:UP  17-01-23 03:25 OP:and  STATUS:               ID:20170122215741     3
 OLDACT:UP  17-01-23 03:25 OP:and  STATUS:               ID:20170122215741     3
 OLDACT:UP  17-01-23 03:23 OP:and  STATUS:               ID:20170122215741     3
 OLDACT:UP  17-01-23 03:23 OP:and  STATUS:               ID:20170122215741     3
 OLDACT:UP  17-01-23 03:22 OP:and  STATUS:               ID:20170122215741     3
 OLDACT:UP  17-01-23 03:19 OP:and  STATUS:               ID:20170122215741     3
 OLDACT:REG 17-01-23 02:29 OP:y    STATUS:               ID:20170122215741     3
 2017-01-22-2158-00M.COL___355                                                 6
 STAT SP IPHASW D HRMM SECON CODA AMPLIT PERI AZIMU VELO AIN AR TRES W  DIS CAZ7
 BAR2 EZ EP       22 0  7.78                             171    0.0710 22.8 194 
 BAR2 EZ ES       22 0 22.94                             171   -0.2610 22.8 194 
 BAR2 EZ I        22 0 25.62       124.6 0.32            165           22.8 194 
 BRR  HZ IP     C 22 0  9.59                             152    0.2810 72.8 299 
 BRR  HN ES       22 0 26.66                             152    0.6210 72.8 299 
 BRR  HZ I        22 0 30.67        63.2 0.24            151           72.8 299 
 PAM  EZ IP     C 22 0 10.64                             151    0.3810 77.1  38 
 PAM  EN ES       22 0 27.56                             151   -0.1810 77.1  38 
 PAM  EZ I        22 0 28.71        37.3 0.24            160           77.1  38 
 RUS  HZ IP     D 22 0 11.66                             144   -0.0710 99.7 177 
 RUS  HN ES       22 0 30.38                             144    0.0210 99.7 177 
 RUS  HZ I        22 0 31.92        56.5 0.30            143           99.7 177 
 PTB  HZ EP   2   22 0 14.93                             132   -0.16 5  149 259 
 PTB  HN ES       22 0 35.75                             132   -0.59 9  149 259 
 PTB  HZ I        22 0 42.01        38.4 0.29            131            149 259 
 ZAR  HZ EP       22 0 20.45                             123   -0.15 8  206 292 
 ZAR  HN ES       22 0 45.81                             123   -0.32 8  206 292 
 ZAR  HZ I        22 0 51.00        51.3 0.32            123            206 292 
 NOR  HZ IP     D 22 0 23.96                             119    0.19 8  235 235 
 NOR  HN ES       22 0 51.38                             119   -0.41 8  235 235 
 NOR  HZ I        22 0 58.69        23.1 0.24            119            235 235 
 CHI  HZ EP       22 0 25.87                             118    0.25 8  248 196 
 CHI  HN ES       22 0 55.20                             118    0.13 8  248 196 
 CHI  HZ I        22 0 58.82        27.5 0.64            118            248 196 
 ROSC BZ EP   9   22 0 28.31                             117    2.22 0  253 211 
 ROSC BN ES       22 0 58.37                             117    0.24 8  253 211 
 ROSC BZ I        22 1  2.51        74.2 0.40            117            253 211 
 PTGC HZ IP     D 22 0 30.97                             112   -0.68 7  307 159 
 PTGC HN ES   3   22 1  4.54                             112   -1.28 2  307 159 
 PTGC HZ I        22 1  7.24        12.4 0.42            114            307 159 
 LL6C HZ EP   9   22 0 14.02                             111   -19.7 0  326 357 
 LL6C HE ES       22 0 50.16                             111    0.35 7  326 357 
 LL6C HZ I        22 0 55.24        13.0 0.44            114            326 357 
 ELA  HZ EP   9   22 0 36.78                             111    1.93 0  330 230 
 ELA  HN ES       22 1 13.22                             111   -0.22 7  330 230 
 ELA  HZ I        22 1 20.52        19.8 0.56            111            330 230 
 CBOC HZ EP   9   22 0 36.10                             110    1.12 0  335 252 
 CBOC HN ES       22 1 13.02                             110    0.17 7  335 252 
 CBOC HZ I        22 1 22.82         5.5 0.26            111            335 252 
 DBB  EZ EP       22 0 35.73                             110    0.15 7  341 274 
 DBB  EN ES   4   22 1 11.64                             110   -1.17 0  341 274 
 DBB  EZ I        22 1 13.13        10.6 0.15            111            341 274 
 ARGC HN ES   4   22 1 19.63                             108    3.00 0  360 340 
 ORTC HZ EP       22 0 42.19                             107    0.33 6  396 216 
 ORTC HN ES       22 1 24.80                             107    0.81 6  396 216 
 ORTC HE ES   4   22 1 26.56                             107    2.57 0  396 216 
 ORTC HZ I        22 1 29.23        15.7 0.22            108            396 216 
 PAL  HZ EP       22 0 42.98                             106   -0.19 6  406 239 
 PAL  HN ES   2   22 1 26.83                             106    0.51 3  406 239 
 PAL  HZ I        22 1 31.45         7.5 0.10            107            406 239 
 CRJC HZ EP   9   22 0 48.17                             104   -2.33 0  468   3 
 CRJC HN ES       22 1 36.55                             103   -0.48 5  468   3 
 CRJC HZ I        22 1 43.15        12.4 0.35            106            468   3 
 SMAR HZ EP       22 0 53.37                             103   -0.54 4  498 346 
 SMAR HN ES   4   22 1 41.11                             103   -4.33 0  498 346 
 URI  HZ EP   4   22 0 58.45                             101   -2.51 0  557  13 
 URI  HN ES   4   22 1 53.35                             101   -4.63 0  557  13 
                                                                                
