 2012  522 2154 10.9 L   6.810 -73.158144.9  RSN  5 0.1 2.0LRSN                1
 GAP=134        0.36       2.7     2.8  4.8  0.3379E+00  0.2727E+01  0.1961E+01E
 Epicentro: LOS SANTOS - SANTANDER                                             3
 ACTION:UP  12-07-05 12:07 OP:pat  STATUS:               ID:20120522215410 L   I
 2012-05-22-2150-00M.COL___201                                                 6
 STAT SP IPHASW D HRMM SECON CODA AMPLIT PERI AZIMU VELO SNR AR TRES W  DIS CAZ7
 BAR2 SZ EP       2154 30.21                             170    -0.210   24 186 
 BAR2 SZ ES   2   2154 45.54                             170    -0.1 5   24 186 
 PAM  SZ EP       2154 32.96                             151     0.010   77  41 
 PAM  SE ES   1   2154 50.35                             151     0.1 7   77  41 
 RUS  HZ EP       2154 34.73                             143     0.110  102 175 
 RUS  HN ES   2   2154 53.22                             143     0.1 5  102 175 
 PTB  HN ES   3   2154 58.50                             132     0.0 2  147 258 
 ZAR  HN ES   1   2155  8.27                             122     0.1 6  202 292 
 ZAR  HZ I        2155 14.01         8.9 0.32                           202 292 
                                                                                
