 2010  722 2259  2.7 L   6.799 -73.024132.0  RSN  5 0.7 1.5LRSN                1
 GAP=172        1.84      10.0    19.1 24.8 -0.9109E+00 -0.2246E+03 -0.1690E+02E
 Epicentro: CEPITA - SANTANDER                                                 3
 ACTION:UPD 10-12-01 15:19 OP:pat  STATUS:               ID:20100722225902 L   I
 2010-07-22-2254-35S.COL___123                                                 6
 STAT SP IPHASW D HRMM SECON CODA AMPLIT PERI AZIMU VELO AIN AR TRES W  DIS CAZ7
 BAR2 SZ EP   1   2259 22.44                             167     1.6 7   29 218 
 BAR2 SZ I        2259 39.00         9.1 0.58                            29 218 
 BRR  HZ EP       2259 22.41                             146    -0.810   83 294 
 BRR  HN ES       2259 39.45                             146     0.310   83 294 
 BRR  HZ I        2259 44.21        13.9 0.79                            83 294 
 RUS  HZ EP   1   2259 24.61                             141    -0.5 7  100 184 
 RUS  HN ES   1   2259 42.37                             141    -0.3 7  100 184 
 RUS  HZ I        2259 44.48         2.8 0.03                           100 184 
 GUE  SZ EP   1   2259 26.57                             137     0.5 7  115   6 
 GRA  SZ EP   1   2259 26.64                             135     0.1 7  123  11 
 GRA  SZ ES   1   2259 44.46                             135    -0.6 7  123  11 
 GRA  SZ I        2259 47.32         4.6 0.30                           123  11 
                                                                                
