 2011  422 2304 17.7 L   6.738 -73.053145.7  RSN  6 0.4 1.7LRSN                1
 GAP=152        0.96       7.5    10.3  9.8 -0.4609E+01 -0.8154E+01  0.3649E+00E
 Epicentro: ARATOCA - SANTANDER                                                3
 ACTION:UP  11-06-22 15:32 OP:REBC STATUS:               ID:20110422230418dL   I
 2011-04-22-2304-25S.COL___138                                                 6
 STAT SP IPHASW D HRMM SECON CODA AMPLIT PERI AZIMU VELO SNR AR TRES W  DIS CAZ7
 BAR2 SZ EP   1   23 4 37.36                             171     0.1 7   22 222 
 BAR2 SZ ES   1   23 4 52.58                             171     0.0 7   22 222 
 BAR2 SZ I        23 4 55.09        13.8 0.56                            22 222 
 GIR2 SZ EP   1   23 4 38.53                             164     0.9 7   41 338 
 PAM  SZ EP   1   23 4 40.27                             151     0.4 7   77  30 
 PAM  SE ES   1   23 4 56.80                             151    -0.4 7   77  30 
 BRR  HZ EP   1   23 4 39.25                             148    -0.4 7   84 299 
 BRR  HE ES   1   23 4 56.65                             148     0.0 7   84 299 
 BRR  HZ I        23 4 58.53        11.2 0.14                            84 299 
 RUS  HZ EP   1   23 4 40.40                             146    -0.6 7   94 182 
 RUS  HE ES   2   23 4 59.56                             146     0.5 5   94 182 
 RUS  HZ I        23 5  2.96         2.8 0.45                            94 182 
 OCA  SZ EP   2   23 4 46.57                             128    -0.2 5  169 350 
 OCA  SZ I        23 5 26.84         9.2 0.29                           169 350 
                                                                                
