 2017  322 2255 34.6 L   6.894 -73.382111.1  RSN 18 0.4 2.7LRSN 3.2WRSN        1
 SPEC AVERAGE  MO 13.8 ST  1.5 OM  2.0 f0 2.75 R0.9852 AL 0.00 WI 30.0 MW  3.2 3
 SPEC SD       MO  0.2 ST  1.9 OM  0.3 f0 1.63 R0.5455 AL      WI      MW  0.1 3
 GAP=114        0.78       2.7     2.6  4.0 -0.1107E+01  0.3905E+01  0.2300E+01E
 Epicentro: SAN VICENTE DE CHUCURI - SANTANDER                                 3
 SPEC BRR HH Z MO 14.1 ST0.996 OM  2.3 f0 2.36 R0.8153 AL-0.00 WI 30.0 MW  3.3 3
 SPEC BRR HH Z T2256 1 K 0.000 GD  119 VS 5.20 DE 3.50 Q0750.0 QA 1.50 VS 5.20 3
 SPEC PAM EH Z MO 13.6 ST0.545 OM  1.7 f0 2.88 R0.6681 AL-0.00 WI 30.0 MW  3.0 3
 SPEC PAM EH Z T2256 8 K 0.000 GD  142 VS 5.20 DE 3.50 Q0750.0 QA 1.50 VS 5.20 3
 SPEC PTB HH Z MO 13.7 ST  4.9 OM  1.8 f0 5.25 R0.3665 AL-0.00 WI 30.0 MW  3.1 3
 SPEC PTB HH Z T225612 K 0.000 GD  167 VS 5.20 DE 3.50 Q0750.0 QA 1.50 VS 5.20 3
 SPEC SPBCHH Z MO 13.6 ST  6.2 OM  1.6 f0 6.33 R0.3039 AL-0.00 WI 30.0 MW  3.0 3
 SPEC SPBCHH Z T225618 K 0.000 GD  192 VS 5.20 DE 3.50 Q0750.0 QA 1.50 VS 5.20 3
 SPEC ZAR HH Z MO 13.9 ST  2.4 OM  1.9 f0 3.57 R0.5389 AL-0.00 WI 30.0 MW  3.2 3
 SPEC ZAR HH Z T225621 K 0.000 GD  208 VS 5.20 DE 3.50 Q0750.0 QA 1.50 VS 5.20 3
 SPEC NOR HH Z MO 13.7 ST0.855 OM  1.6 f0 3.01 R0.6392 AL-0.00 WI 30.0 MW  3.1 3
 SPEC NOR HH Z T225631 K 0.000 GD  247 VS 5.20 DE 3.50 Q0750.0 QA 1.50 VS 5.20 3
 SPEC ROSCBH Z MO 13.8 ST0.147 OM  1.7 f0 1.50 R1.2827 AL-0.00 WI 30.0 MW  3.2 3
 SPEC ROSCBH Z T225639 K 0.000 GD  273 VS 5.20 DE 3.50 Q0750.0 QA 1.50 VS 5.20 3
 SPEC URE HH Z MO 13.7 ST  1.0 OM  1.5 f0 3.33 R0.5778 AL-0.00 WI 30.0 MW  3.0 3
 SPEC URE HH Z T225635 K 0.000 GD  279 VS 5.20 DE 3.50 Q0750.0 QA 1.50 VS 5.20 3
 SPEC DBB EH Z MO 13.8 ST0.126 OM  1.6 f0 1.44 R1.3361 AL-0.00 WI 30.0 MW  3.2 3
 SPEC DBB EH Z T225649 K 0.000 GD  332 VS 5.20 DE 3.50 Q0750.0 QA 1.50 VS 5.20 3
 SPEC CBOCHH Z MO 14.1 ST0.089 OM  1.9 f0 1.02 R1.8863 AL-0.00 WI 30.0 MW  3.4 3
 SPEC CBOCHH Z T225651 K 0.000 GD  332 VS 5.20 DE 3.50 Q0750.0 QA 1.50 VS 5.20 3
 SPEC APACHH Z MO 14.2 ST0.107 OM  1.9 f0 1.03 R1.8680 AL-0.00 WI 30.0 MW  3.4 3
 SPEC APACHH Z T225659 K 0.000 GD  386 VS 5.20 DE 3.50 Q0750.0 QA 1.50 VS 5.20 3
 SPEC PRA HH Z MO 13.8 ST0.080 OM  1.5 f0 1.25 R1.5392 AL-0.00 WI 30.0 MW  3.2 3
 SPEC PRA HH Z T2257 6 K 0.000 GD  404 VS 5.20 DE 3.50 Q0750.0 QA 1.50 VS 5.20 3
 OLDACT:REG 17-03-23 04:07 OP:cara STATUS:               ID:20170322224745     3
 ACTION:UPD 17-05-25 18:44 OP:jn   STATUS:               ID:20170322225534 L   I
 OLDACT:UP  17-03-23 05:04 OP:cara STATUS:               ID:20170322224745     3
 2017-03-22-2248-00M.COL___400                                                 6
 STAT SP IPHASW D HRMM SECON CODA AMPLIT PERI AZIMU VELO AIN AR TRES W  DIS CAZ7
 BAR2 EZ IP     D 2255 50.82                             159    0.1610 40.0 147 
 BAR2 EZ ES       2256  2.66                             159   -0.5410 40.0 147 
 BRR  HZ EP     C 2255 50.77                             157    0.3010 43.4 303 
 BRR  HN ES       2256  3.01                             157    0.1610 43.4 303 
 BRR  HZ I        2256  5.07       208.5 0.34            141           43.4 303 
 PAM  EZ EP       2255 54.12                             138   -0.1210 90.0  57 
 PAM  EN ES       2256  9.99                             138    0.4310 90.0  57 
 PAM  EZ I        2256 12.05        62.5 0.24            117           90.0  57 
 PTB  HZ IP   4 C 2255 55.57                             128   -1.16 0  125 252 
 PTB  HN ES       2256 14.10                             128    0.1110  125 252 
 PTB  HZ I        2256 18.23       118.5 0.26            108            125 252 
 SPBC HZ EP       2255 59.46                             121   -0.60 9  157 209 
 SPBC HN ES       2256 19.60                             121   -0.32 9  157 209 
 SPBC HZ I        2256 25.67        83.9 0.20            103            157 209 
 ZAR  HZ EP       2256  1.90                             117   -0.06 9  176 292 
 ZAR  HN ES       2256 23.19                             117   -0.11 9  176 292 
 ZAR  HZ I        2256 27.27       150.0 0.26            101            176 292 
 NOR  HZ EP       2256  6.95                             112   -0.04 8  221 228 
 NOR  HZ ES       2256 32.64                             112    0.38 8  221 228 
 NOR  HZ I        2256 36.82        55.7 0.24             98            221 228 
 ROSC BZ EP       2256 10.57                             109   -0.17 8  250 205 
 ROSC BN ES   4   2256 41.29                             109    2.37 0  250 205 
 ROSC BZ I        2256 45.42        27.9 0.40             97            250 205 
 URE  HZ EP   4   2256  9.77                             108   -1.18 0  256 292 
 URE  HN ES   4   2256 36.95                             108   -2.36 0  256 292 
 URE  HZ I        2256 47.51        56.7 0.18             97            256 292 
 CBOC HZ I        2257  0.28        19.1 0.42             95            313 249 
 DBB  EZ EP       2256 17.59                             104   -0.15 7  313 273 
 DBB  EZ I        2256 55.92        20.9 0.20             95            313 273 
 CBOC HZ EP       2256 18.19                             104    0.38 7  313 249 
 CBOC HN ES   4   2256 52.54                             104    1.02 0  313 249 
 DBB  EN ES       2256 51.00                             104   -0.39 7  313 273 
 ELA  HZ EP       2256 19.18                             104    0.39 7  317 225 
 ELA  HN ES   4   2256 51.78                             104   -1.48 0  317 225 
 ELA  HZ I        2257  2.19        33.7 0.76             95            317 225 
 PTGC HZ EP   4   2256 17.18                             103   -2.32 0  329 155 
 PTGC HN ES   4   2256 50.39                             103   -4.13 0  329 155 
 PTGC HZ I        2257  2.15        27.6 0.26             95            329 155 
 ANIL HZ EP   4   2256 23.47                             102    1.35 0  347 220 
 ANIL HE ES       2256 59.70                             102    0.52 6  347 220 
 ANIL HZ I        2257 12.84        37.5 0.36             94            347 220 
 APAC HZ EP       2256 23.71                             101   -0.76 6  370 288 
 APAC HN ES   4   2257  0.86                             101   -2.51 0  370 288 
 APAC HZ I        2257  5.24        22.5 0.48             94            370 288 
 SJC  HZ EP   4   2256 24.89                             100   -1.63 0  387 329 
 SJC  HN ES   4   2257  1.89                             100   -5.13 0  387 329 
 SJC  HZ I        2257 20.86        12.5 0.58             94            387 329 
 PRA  HZ EP       2256 27.01                             100    0.21 6  389 205 
 PRA  HE ES       2257  8.03                             100    0.50 6  389 205 
 ORTC HZ EP   9   2256 28.18                             100    1.35 0  389 212 
 ORTC HZ I        2257 14.17         9.9 0.56             94            389 212 
 PRA  HZ I        2257 15.42        15.5 0.32             94            389 205 
 ORTC HN ES       2257  8.85                                   -0.07 6  389 212 
                                                                                
