 2016  822 2029 47.5 L   6.542 -73.132154.8  RSN  4 0.2 1.7LRSN                1
 GAP=221        0.48       5.0     3.8  4.4  0.1187E+02  0.3290E+01 -0.2083E+01E
 Epicentro: SAN GIL - SANTANDER                                                3
 ACTION:UPD 16-10-29 15:38 OP:rebc STATUS:               ID:20160822202947 L   I
 OLDACT:UP  16-08-23 03:51 OP:y    STATUS:               ID:20160822202759     3
 OLDACT:REG 16-08-23 02:56 OP:lv   STATUS:               ID:20160822202759     3
 2016-08-22-2027-59S.COL___349                                                 6
 STAT SP IPHASW D HRMM SECON CODA AMPLIT PERI AZIMU VELO AIN AR TRES W  DIS CAZ7
 BAR2 EZ EP       2030  8.01                             177    0.0010 7.85 314 
 BAR2 EZ ES       2030 23.87                             177   -0.1410 7.85 314 
 BAR2 EZ I        2030 26.91        13.2 0.18                          7.85 314 
 RUS  HZ EP       2030 10.46                             154    0.0810 72.1 176 
 RUS  HE ES       2030 28.40                             154    0.1610 72.1 176 
 RUS  HZ I        2030 32.74         2.7 0.18                          72.1 176 
 PTB  HZ EP       2030 14.88                             134   -0.22 9  147 270 
 PTB  HE ES       2030 36.51                             134   -0.12 9  147 270 
 PTB  HZ I        2030 38.27         8.9 0.07                           147 270 
 ZAR  HZ EP   4   2030 23.79                             122    1.86 0  218 299 
 ZAR  HE ES       2030 49.10                             122    0.30 8  218 299 
 ZAR  HZ I        2030 51.46         9.1 0.12                           218 299 
                                                                                
