 2013  522 2138 38.3 L   6.847 -73.148144.5  RSN 10 0.4 2.1LRSN                1
 GAP=134        0.84       3.6     3.7  5.7 -0.7526E+00  0.3978E+01  0.1819E+01E
 Epicentro: LOS SANTOS - SANTANDER                                             3
 ACTION:UPD 13-06-20 09:52 OP:ep   STATUS:               ID:20130522213838 L   I
 2013-05-22-2130-00M.COL___259                                                 6
 STAT SP IPHASW D HRMM SECON CODA AMPLIT PERI AZIMU VELO AIN AR TRES W  DIS CAZ7
 GIR2 SZ EP   1   2138 57.74                             169    0.00 7 26.1 349 
 GIR2 SZ ES   1   2139 13.13                             169    0.26 7 26.1 349 
 GIR2 SZ I        2139 14.35        13.9 0.30            169           26.1 349 
 BAR2 SZ EP   1   2138 58.29                             168    0.35 7 28.4 188 
 BAR2 SZ ES   1   2139 12.40                             168   -0.82 7 28.4 188 
 BAR2 SZ I        2139 13.84        23.6 0.34            169           28.4 188 
 BRR  HZ EP   1   2138 59.51                             153    0.30 7 68.6 295 
 BRR  HN ES   1   2139 16.28                             153    0.79 7 68.6 295 
 BRR  HZ I        2139 19.53        23.5 0.16            153           68.6 295 
 PAM  SZ EP       2139  0.55                             152    0.3510 73.6  42 
 PAM  SN ES   1   2139 17.11                             152   -0.14 7 73.6  42 
 PAM  SZ I        2139 19.42        33.6 0.40            153           73.6  42 
 RUS  HZ EP       2139  2.23                             142   -0.1310  106 176 
 RUS  HN ES   1   2139 20.85                             142   -0.24 7  106 176 
 RUS  HZ I        2139 22.93         8.8 0.32            144            106 176 
 PTB  HE ES       2139 26.41                             132    0.10 9  149 257 
 PTB  HZ I        2139 26.99        17.6 0.16            133            149 257 
 ZAR  HE ES       2139 35.51                             122   -0.05 9  202 291 
 NOR  HZ EP   1   2139 14.35                             118    0.04 6  238 233 
 NOR  HN ES       2139 42.11                             118   -0.25 8  238 233 
 NOR  HZ I        2139 45.43        13.6 0.20            119            238 233 
 SML  HZ EP   1   2139 13.66                             118   -0.72 6  239 335 
 SML  HN ES   1   2139 41.70                             118   -0.78 6  239 335 
 SML  HZ I        2139 45.26        40.8 0.10            119            239 335 
 PRA  HZ EP       2139 32.75                             106    0.41 6  396 209 
                                                                                
