 2016  522 2118 49.8 L   6.795 -73.103147.7  RSN 18 0.4 2.3LRSN                1
 GAP=123        0.97       2.5     3.2  4.6 -0.5324E+00  0.2797E+01  0.3421E+01E
 Epicentro: LOS SANTOS - SANTANDER                                             3
 ACTION:UPD 16-08-18 17:48 OP:cam  STATUS:               ID:20160522211849 L   I
 OLDACT:UP  16-05-24 15:34 OP:dnl  STATUS:               ID:20160522211849 L   3
 OLDACT:UP  16-05-23 03:47 OP:edw  STATUS:               ID:20160522211740     3
 OLDACT:REG 16-05-23 02:53 OP:edw  STATUS:               ID:20160522211740     3
 2016-05-22-2117-40M.COL___304                                                 6
 STAT SP IPHASW D HRMM SECON CODA AMPLIT PERI AZIMU VELO AIN AR TRES W  DIS CAZ7
 BAR2 EZ IP     C 2119  9.79                             170    0.1010 24.1 201 
 BAR2 EZ ES       2119 25.18                             170   -0.0210 24.1 201 
 BAR2 EZ I        2119 26.46        77.5 0.20            167           24.1 201 
 PAM  EZ EP       2119 12.59                             152    0.5010 74.9  36 
 PAM  EN ES       2119 29.66                             152    0.1910 74.9  36 
 PAM  EZ I        2119 32.03        29.9 0.52            156           74.9  36 
 BRR  HZ IP     C 2119 11.62                             151    0.1910 75.6 297 
 BRR  HN ES       2119 28.90                             151    0.6110 75.6 297 
 BRR  HZ I        2119 30.12        22.7 0.10            149           75.6 297 
 RUS  HZ EP       2119 13.84                             144    0.1410 99.8 179 
 RUS  HN ES       2119 32.19                             144   -0.1510 99.8 179 
 RUS  HZ I        2119 33.68        42.6 0.24            145           99.8 179 
 PTB  HZ EP       2119 16.93                             132   -0.42 9  152 259 
 PTB  HN ES       2119 38.66                             132   -0.18 9  152 259 
 PTB  HZ I        2119 43.41        16.7 0.21            130            152 259 
 OCA  HZ EP       2119 17.91                             130   -0.47 9  161 351 
 OCA  HE ES       2119 40.22                             130   -0.45 9  161 351 
 OCA  HZ I        2119 44.14        32.1 0.48            131            161 351 
 SPBC HZ EP       2119 18.76                             129    0.05 9  166 220 
 SPBC HN ES       2119 40.86                             129   -0.39 9  166 220 
 SPBC HZ I        2119 43.47        70.4 0.24            129            166 220 
 ZAR  HZ EP       2119 23.47                             122    0.61 8  209 292 
 ZAR  HN ES       2119 48.23                             122   -0.41 8  209 292 
 ZAR  HZ I        2119 53.60        20.2 0.28            122            209 292 
 NOR  HZ EP       2119 25.75                             119   -0.29 8  238 235 
 NOR  HN ES       2119 53.57                             119   -0.73 8  238 235 
 NOR  HZ I        2119 59.49        18.8 0.16            118            238 235 
 CHI  HZ EP       2119 27.93                             117    0.22 8  249 196 
 CHI  HN ES       2119 57.54                             117    0.28 8  249 196 
 CHI  HZ I        2120  2.82         9.1 0.32            118            249 196 
 ROSC BZ EP       2119 28.55                             117    0.29 8  255 212 
 ROSC BN ES   4   2120  0.03                             117    1.78 0  255 212 
 ROSC BZ I        2120  4.53        20.6 0.65            117            255 212 
 HEL  HZ EP   4   2119 31.57                             115    0.95 0  277 256 
 HEL  HN ES   4   2120  4.38                             115    1.93 0  277 256 
 HEL  HZ I        2120  8.84         8.7 0.24            115            277 256 
 PTGC HZ EP       2119 32.77                             112   -0.74 7  307 159 
 PTGC HN ES       2120  6.91                             112   -0.68 7  307 159 
 CBOC HZ EP       2119 37.49                             110    0.18 7  338 252 
 CBOC HN ES       2120 13.85                             110   -0.50 7  338 252 
 CBOC HZ I        2120 22.66         3.0 0.20            110            338 252 
 ANIL HE ES       2120 19.70                             109    0.49 6  360 225 
 PRA  HZ EP       2119 43.40                             107   -0.22 6  394 210 
 PRA  HN ES       2120 26.17                             107    0.57 6  394 210 
 PRA  HZ I        2120 31.84         9.5 0.38            107            394 210 
 ORTC HZ EP       2119 44.73                             107    0.65 6  398 217 
 ORTC HN ES       2120 27.45                             107    1.04 6  398 217 
 ORTC HZ I        2120 33.43         7.8 0.66            107            398 217 
 CRJC HZ EP   9   2119 50.17                             104   -2.23 0  468   3 
 CRJC HN ES       2120 38.29                             104   -0.70 5  468   3 
                                                                                
