 2017  822 2141 29.4 L   6.781 -73.113141.7  RSN  5 0.4 1.6LRSN                1
 GAP=142        0.82       4.2     4.6  6.7  0.3751E+01  0.4430E+01 -0.4839E+00E
 Epicentro: LOS SANTOS - SANTANDER                                             3
 ACTION:UPD 17-09-04 20:23 OP:rebc STATUS:               ID:20170822214129 L   I
 OLDACT:REG 17-08-23 03:31 OP:dnl  STATUS:               ID:20170822213736     3
 2017-08-22-2138-00M.COL___414                                                 6
 STAT SP IPHASW D HRMM SECON CODA AMPLIT PERI AZIMU VELO AIN AR TRES W  DIS CAZ7
 BAR2 EZ EP   2   2141 48.38                             171   -0.16 5 22.2 200 
 BAR2 EZ ES       2142  3.01                             171   -0.4410 22.2 200 
 BAR2 EZ I        2142  5.69         7.7 0.42            169           22.2 200 
 BRR  HZ EP   2   2141 50.22                             150   -0.16 5 75.4 299 
 BRR  HN ES       2142  7.34                             150    0.6110 75.4 299 
 BRR  HZ I        2142 15.13        13.3 0.40            147           75.4 299 
 PAM  EZ EP       2141 51.21                             150    0.0410 76.8  36 
 PAM  EN ES       2142  8.09                             150   -0.0410 76.8  36 
 PAM  EZ I        2142 10.12         9.0 0.50            154           76.8  36 
 RUS  HZ EP       2141 52.52                             144   -0.0910 98.2 178 
 RUS  HE ES       2142 10.92                             144    0.2410 98.2 178 
 RUS  HZ I        2142 11.81         3.8 0.34            148           98.2 178 
 ZAR  HZ EP   2   2142  2.73                             121    0.68 4  208 292 
 ZAR  HN ES       2142 26.99                             121   -0.50 8  208 292 
 ZAR  HZ I        2142 34.58         3.3 0.20            121            208 292 
                                                                                
