 2016  122 2107 37.7 L   6.765 -73.140137.5  RSN  7 0.4 1.7LRSN                1
 GAP=139        0.97       4.6     5.5  6.7 -0.6711E+01  0.1131E+02  0.4860E+01E
 Epicentro: LOS SANTOS - SANTANDER                                             3
 ACTION:UPD 16-03-09 23:27 OP:cam  STATUS:               ID:20160122210737 L   I
 OLDACT:REG 16-01-23 03:26 OP:drio STATUS:               ID:20160122205749     3
 2016-01-22-2057-49M.COL___324                                                 6
 STAT SP IPHASW D HRMM SECON CODA AMPLIT PERI AZIMU VELO AIN AR TRES W  DIS CAZ7
 BAR2 EZ ES       21 8 11.13                             171    0.4010 19.6 194 
 BAR2 EZ I        21 8 12.02        11.2 0.16            171           19.6 194 
 PAM  EZ EP       21 7 59.08                             148   -0.1210 80.0  37 
 PAM  EN ES       21 8 15.85                             148   -0.1210 80.0  37 
 PAM  EZ I        21 8 18.24        15.1 0.50            147           80.0  37 
 RUS  HZ EP       21 8  0.48                             143    0.1410 96.6 176 
 RUS  HE ES       21 8 17.92                             143   -0.0910 96.6 176 
 RUS  HZ I        21 8 19.25         5.9 0.52            142           96.6 176 
 PTB  HZ EP       21 8  4.02                             130    0.04 9  148 260 
 PTB  HN ES       21 8 24.09                             130   -0.41 9  148 260 
 PTB  HZ I        21 8 26.43         8.1 0.22            127            148 260 
 CHI  HZ EP       21 8 13.88                             116   -0.66 8  245 196 
 CHI  HN ES       21 8 43.20                             116   -0.09 8  245 196 
 CHI  HZ I        21 8 56.10         1.5 0.46            114            245 196 
 SML  HZ EP   4   21 8 13.13                             115   -1.15 0  248 336 
 SML  HN ES   4   21 8 41.61                             115   -1.22 0  248 336 
 SML  HZ I        21 8 50.79         8.4 0.26            113            248 336 
 GUY2CHZ EP       21 8 21.86                             111    1.13 7  299 235 
 GUY2CHE ES   4   21 8 57.39                             111    3.09 0  299 235 
 GUY2CHZ I        21 9  1.34         2.1 0.36                           299 235 
                                                                                
