 2017  422 2042  2.6 L   6.656 -73.930 84.5  RSN  5 0.4 1.7LRSN                1
 GAP=163        0.97       5.6     2.8  7.5  0.1730E+00 -0.1350E+01 -0.6868E+01E
 Epicentro: PUERTO PARRA - SANTANDER                                           3
 ACTION:UPD 17-05-30 21:15 OP:jn   STATUS:               ID:20170422204202 L   I
 OLDACT:REG 17-04-23 05:47 OP:edw  STATUS:               ID:20170422203740     3
 2017-04-22-2038-00M.COL___365                                                 6
 STAT SP IPHASW D HRMM SECON CODA AMPLIT PERI AZIMU VELO AIN AR TRES W  DIS CAZ7
 BRR  HZ IP     C 2042 16.40                             144    0.0610 55.4  26 
 BRR  HN ES       2042 26.98                             144   -0.0810 55.4  26 
 BRR  HZ I        2042 27.57        36.6 0.20            141           55.4  26 
 PTB  HZ EP     C 2042 16.70                             142    0.0210 59.6 258 
 PTB  HN ES       2042 27.17                             142   -0.4910 59.6 258 
 PTB  HZ I        2042 27.55        14.6 0.20            143           59.6 258 
 BAR2 EZ EP       2042 19.49                             132    0.5310 83.0  95 
 BAR2 EZ ES       2042 32.08                             132    0.3610 83.0  95 
 BAR2 EZ I        2042 33.33        10.8 0.20            131           83.0  95 
 ZAR  HZ EP       2042 24.19                             116   -0.14 9  138 312 
 ZAR  HN ES       2042 41.83                             116    0.55 9  138 312 
 ZAR  HZ I        2042 43.96        12.3 0.24            116            138 312 
 PAM  EZ EP       2042 26.37                             114   -0.53 9  156  61 
 PAM  EN ES       2042 45.48                             114   -0.37 9  156  61 
 PAM  EZ I        2042 48.92         4.4 0.18            113            156  61 
                                                                                
