 2015  222 2219 47.2 L   6.786 -73.156138.5  RSN 20 0.5 2.5LRSN                1
 GAP= 65        1.49       3.7     4.0  6.9 -0.1970E+01  0.6066E+01  0.4926E+01E
 Epicentro: LOS SANTOS - SANTANDER                                             3
 ACTION:UPD 15-04-30 21:28 OP:nd   STATUS:               ID:20150222221947 L   I
 OLDACT:REG 15-02-23 03:13 OP:stll STATUS:               ID:20150222221744     3
 2015-02-22-2217-44M.COL___281                                                 6
 STAT SP IPHASW D HRMM SECON CODA AMPLIT PERI AZIMU VELO AIN AR TRES W  DIS CAZ7
 BAR2 EZ IP     D 2220  6.18                             171    0.2510 21.6 188 
 BAR2 EZ ES       2220 20.64                             171    0.1110 21.6 188 
 BAR2 EZ I        2220 22.03        59.1 0.42            171           21.6 188 
 BRR  HZ EP       2220  8.07                             151    0.5110 70.9 300 
 BRR  HN ES       2220 24.25                             151    0.8110 70.9 300 
 BRR  HZ I        2220 29.25        74.5 0.30            151           70.9 300 
 PAM  SZ IP     D 2220  8.97                             149    0.1910 79.3  39 
 PAM  SZ I        2220  9.30       152.6 0.22            148           79.3  39 
 PAM  SN ES       2220 25.86                             149    0.2610 79.3  39 
 RUS  HZ EP       2220 10.20                             143    0.0610 99.1 175 
 RUS  HZ I        2220 29.17        23.1 0.44            143           99.1 175 
 PTB  HZ EP       2220 12.85                             131   -0.60 9  146 259 
 PTB  HN ES       2220 33.15                             131   -0.78 9  146 259 
 PTB  HZ I        2220 37.10        55.2 0.30            131            146 259 
 TAM  HZ IP     D 2220 14.52                             129    0.13 9  156 104 
 TAM  HE ES       2220 34.88                             129   -0.71 9  156 104 
 TAM  HZ I        2220 36.53        21.4 0.52            128            156 104 
 SPBC HZ EP       2220 15.22                             128    0.26 9  161 219 
 SPBC HN ES       2220 36.48                             128   -0.14 9  161 219 
 SPBC HZ I        2220 42.01        29.6 0.26            128            161 219 
 OCA  HZ EP       2220 14.71                             128   -0.39 9  162 354 
 OCA  HZ I        2220 39.41        70.4 0.34            127            162 354 
 ZAR  HZ EP       2220 19.16                             121    0.03 9  204 293 
 ZAR  HN ES       2220 44.57                             121    0.53 9  204 293 
 ZAR  HZ I        2220 51.03        50.6 0.30            121            204 293 
 NOR  HZ EP       2220 22.43                             117    0.11 8  233 235 
 NOR  HN ES       2220 49.89                             117    0.18 8  233 235 
 NOR  HZ I        2220 52.04        14.6 0.14            117            233 235 
 SML  HZ EP       2220 22.70                             116   -0.83 8  245 336 
 SML  HN ES       2220 50.69                             116   -1.18 8  245 336 
 SML  HZ I        2220 53.09        43.2 0.22            116            245 336 
 CHI  HZ EP       2220 24.47                             116    0.16 8  247 195 
 CHI  HE ES       2220 52.59                             116   -0.66 8  247 195 
 CHI  HZ I        2220 56.86         6.4 0.34            116            247 195 
 ROSC BZ EP       2220 25.33                             115    0.61 8  251 211 
 ROSC BN ES       2220 54.05                             115    0.06 8  251 211 
 ROSC BZ I        2221  2.25        18.3 0.55            115            251 211 
 GUY2CHZ EP       2220 30.92                             111    0.65 7  299 235 
 GUY2CHN ES       2221  4.20                             111    0.33 7  299 235 
 GUY2CHZ I        2221 11.50        10.6 0.26                           299 235 
 PTGC HZ EP   9   2220 29.33                             110   -1.30 0  308 158 
 PTGC HN ES       2221  0.59                                   -2.61 7  308 158 
 CBOC HZ EP       2220 34.24                             109    0.60 7  332 252 
 CBOC HN ES       2221  8.32                             109   -1.54 7  332 252 
 DBB  SZ EP       2220 34.28                             108    0.01 7  338 275 
 MON  HZ EP   9   2220 34.09                             107   -1.85 0  354 309 
 MON  HZ I        2220 34.15         6.7 0.16            107            354 309 
 MON  HE ES       2221 11.04                                   -1.06 6  354 309 
 PRA  HZ EP       2220 40.50                             105    0.25 6  390 210 
 PRA  HN ES       2221 21.78                             105    0.15 6  390 210 
 PRA  HZ I        2221 27.93         8.6 0.42            105            390 210 
 ORTC HZ EP       2220 41.34                             105    0.69 6  393 216 
 ORTC HN ES       2221 21.87                             105   -0.47 6  393 216 
 ORTC HZ I        2221 29.25         7.6 0.40            105            393 216 
                                                                                
