 2011  222 2325 57.1 L   6.771 -73.328140.2  RSN  4 0.3 1.3LRSN                1
 GAP=218        0.77       6.1    26.8  8.9 -0.5413E+02  0.6310E+02 -0.2227E+02E
 Epicentro: ZAPATOCA - SANTANDER                                               3
 ACTION:UP  11-03-28 15:10 OP:jfem STATUS:               ID:20110222232557 L   I
 2011-02-22-2321-49S.COL___136                                                 6
 STAT SP IPHASW D HRMM SECON CODA AMPLIT PERI AZIMU VELO SNR AR TRES W  DIS CAZ7
 BTL  SZ IP       2326 16.39                             173     0.410   18  22 
 BAR2 SZ EP   1   2326 15.75                             170    -0.4 7   26 141 
 BAR2 SZ ES       2326 30.76                             170    -0.210   26 141 
 BAR2 SZ I        2326 32.77         6.5 0.21                            26 141 
 RUS  HZ EP   1   2326 20.40                             143     0.0 7  101 164 
 RUS  HN ES   1   2326 38.66                             143     0.2 7  101 164 
 RUS  HZ I        2326 39.91         2.8 0.32                           101 164 
 GRA  SZ EP   1   2326 22.50                             133    -0.3 7  136  25 
 GRA  SZ ES   2   2326 43.25                             133     0.4 5  136  25 
 GRA  SZ I        2326 48.68         2.7 0.37                           136  25 
                                                                                
