 2011 1222 2105  2.4 L   6.759 -73.132146.0  RSN  5 0.4 1.6LRSN                1
 GAP=188        0.70       6.1     8.0  7.0  0.1896E+02  0.4801E+01  0.5340E+01E
 Epicentro: LOS SANTOS - SANTANDER                                             3
 ACTION:UPD 12-07-13 16:17 OP:ep   STATUS:               ID:20111222210502 L   I
 2011-12-22-2100-00M.COL___189                                                 6
 STAT SP IPHASW D HRMM SECON CODA AMPLIT PERI AZIMU VELO AIN AR TRES W  DIS CAZ7
 BAR2 SZ EP   1   21 5 21.77                             172   -0.19 7 19.3 197 
 BAR2 SZ ES   1   21 5 36.82                             172   -0.41 7 19.3 197 
 BAR2 SZ I        21 5 38.28         6.9 0.25                          19.3 197 
 GIR2 SZ EP   1   21 5 22.21                             165    0.00 7 36.0 349 
 GIR2 SZ ES   1   21 5 37.31                             165   -0.37 7 36.0 349 
 BRR  HZ EP   1   21 5 24.00                             151    0.25 7 74.8 301 
 BRR  HZ I        21 5 24.29        16.9 0.11                          74.8 301 
 BRR  HN ES   1   21 5 41.03                             151    0.60 7 74.8 301 
 RUS  HZ EP   1   21 5 25.82                             145    0.00 7 96.0 177 
 RUS  HN ES   1   21 5 44.57                             145    0.46 7 96.0 177 
 RUS  HZ I        21 5 45.52         4.8 0.29                          96.0 177 
 PTB  HZ EP   2   21 5 28.95                             132   -0.47 5  148 261 
 PTB  HN ES   2   21 5 50.07                             132   -0.45 5  148 261 
                                                                                
