 2011  622 2352 14.3 L   6.766 -73.115142.4  RSN  6 0.4 2.0LRSN                1
 GAP=142        1.11       5.8    10.3  9.8 -0.1115E+00 -0.1240E+02 -0.1515E+02E
 Epicentro: LOS SANTOS - SANTANDER                                             3
 ACTION:UP  11-07-14 19:07 OP:ep   STATUS:               ID:20110622235214 L   I
 2011-06-22-2351-11S.COL___140                                                 6
 STAT SP IPHASW D HRMM SECON CODA AMPLIT PERI AZIMU VELO SNR AR TRES W  DIS CAZ7
 BAR2 SZ EP   1   2352 33.56                             171     0.1 7   21 201 
 BAR2 SZ ES   1   2352 47.76                             171    -0.7 7   21 201 
 BAR2 SZ I        2352 49.66        26.1 0.29                            21 201 
 BRR  HZ EP       2352 35.29                             150    -0.110   76 300 
 BRR  HE ES   1   2352 52.01                             150     0.2 7   76 300 
 BRR  HZ I        2352 52.97        29.7 0.16                            76 300 
 PAM  SZ EP       2352 36.48                             150     0.210   78  36 
 PAM  SE ES   1   2352 53.30                             150     0.0 7   78  36 
 RUS  HZ EP   1   2352 37.96                             144     0.5 7   97 178 
 RUS  HZ I        2352 55.56        11.4 0.60                            97 178 
 RUS  HN ES   1   2352 55.70                             144     0.2 7   97 178 
 GRA  SZ EP       2352 39.27                             136    -0.210  128  16 
 GRA  SZ I        2353  3.28         8.5 0.38                           128  16 
 OCA  SZ EP   1   2352 41.88                             128    -0.9 7  164 352 
 OCA  SZ ES   1   2353  5.83                             128     0.9 7  164 352 
 OCA  SZ I        2353  6.97        13.6 0.13                           164 352 
                                                                                
