 2013  222 2151  2.3 L   6.685 -73.155127.8  RSN  6 0.4 2.0LRSN                1
 GAP=161        0.71       5.5     4.2  8.9 -0.7593E+00  0.1078E+02  0.2705E+02E
 Epicentro: VILLANUEVA - SANTANDER                                             3
 ACTION:UPD 13-03-12 09:35 OP:ep   STATUS:               ID:20130222215102 L   I
 2013-02-22-2150-00M.COL___223                                                 6
 STAT SP IPHASW D HRMM SECON CODA AMPLIT PERI AZIMU VELO AIN AR TRES W  DIS CAZ7
 BAR2 SZ EP   1   2151 19.95                             175    0.40 7 10.7 197 
 BAR2 SZ I        2151 35.63        20.8 0.32            166           10.7 197 
 BRR  HZ EP       2151 21.98                             147    0.0510 77.3 307 
 BRR  HN ES   1   2151 37.44                             147    0.20 7 77.3 307 
 BRR  HN I        2151 43.57        33.2 0.14            157           77.3 307 
 PAM  SZ EP   1   2151 23.07                             144   -0.31 7 88.2  35 
 PAM  SN ES       2151 39.74                             144   -0.0810 88.2  35 
 PAM  SN I        2151 40.72        31.9 0.48            153           88.2  35 
 PTB  HZ EP   1   2151 26.83                             128   -0.75 7  145 264 
 PTB  HN ES   2   2151 47.10                             128   -0.20 5  145 264 
 PTB  HN I        2151 49.76        19.9 0.26            134            145 264 
 ZAR  HZ EP   1   2151 34.81                             118    0.72 6  208 295 
 ZAR  HN ES   1   2151 58.71                             118   -0.19 6  208 295 
 ZAR  HN I        2152  0.44        12.7 0.12            125            208 295 
 CHI  HZ EP   1   2151 37.92                             114    0.26 6  236 196 
 CHI  HN ES   2   2152  5.02                             114   -0.22 4  236 196 
 CHI  HN I        2152 13.94         2.8 0.38            117            236 196 
                                                                                
