 2017  322 2033 31.9 L   6.731 -73.138140.1  RSN  7 0.4 1.9LRSN                1
 GAP=162        0.96       4.8     4.4  6.6 -0.7574E+01  0.7460E+01  0.2212E+01E
 Epicentro: JORDAN - SANTANDER                                                 3
 ACTION:UPD 17-05-25 18:44 OP:jn   STATUS:               ID:20170322203331 L   I
 OLDACT:REG 17-03-23 03:19 OP:cara STATUS:               ID:20170322202205     3
 2017-03-22-2028-00M.COL___403                                                 6
 STAT SP IPHASW D HRMM SECON CODA AMPLIT PERI AZIMU VELO AIN AR TRES W  DIS CAZ7
 BAR2 EZ EP       2033 50.92                             173    0.1810 16.1 198 
 BAR2 EZ ES       2034  5.04                             173   -0.3810 16.1 198 
 BAR2 EZ I        2034 10.14        11.7 0.19            172           16.1 198 
 BRR  HZ IP     D 2033 53.02                             150    0.2910 75.9 303 
 BRR  HN ES       2034  9.34                             150    0.3610 75.9 303 
 BRR  HZ I        2034 15.58        17.4 0.14            150           75.9 303 
 PAM  EZ EP       2033 53.87                             148   -0.0110 82.9  36 
 PAM  EE ES       2034 11.09                             148    0.0710 82.9  36 
 PAM  EZ I        2034 13.36         6.7 0.26            153           82.9  36 
 PTB  HZ EP       2033 57.81                             131   -0.58 9  147 262 
 PTB  HN ES       2034 19.07                             131    0.04 9  147 262 
 PTB  HZ I        2034 21.21        12.2 0.28            133            147 262 
 SPBC HZ EP       2033 59.96                             129    0.49 9  158 221 
 SPBC HN ES       2034 20.46                             129   -0.51 9  158 221 
 SPBC HZ I        2034 24.62        11.6 0.10            132            158 221 
 ZAR  HZ EP       2034  3.89                             121   -0.51 8  208 294 
 ZAR  HN ES       2034 29.56                             121   -0.17 8  208 294 
 ZAR  HZ I        2034 36.32        12.7 0.12            123            208 294 
 NOR  HN ES       2034 34.93                             118    0.70 8  231 236 
 NOR  HZ I        2034 40.30         4.4 0.36            121            231 236 
                                                                                
