 2012  522 2257 24.7 L   6.758 -73.209142.0  RSN  5 0.3 2.0LRSN                1
 GAP=237        0.71       8.9     6.2  7.1  0.2929E+02  0.1173E+02 -0.7474E+01E
 Epicentro: VILLANUEVA - SANTANDER                                             3
 ACTION:UP  12-07-05 12:07 OP:pat  STATUS:               ID:20120522225724 L   I
 2012-05-22-2250-00M.COL___201                                                 6
 STAT SP IPHASW D HRMM SECON CODA AMPLIT PERI AZIMU VELO SNR AR TRES W  DIS CAZ7
 BAR2 SZ EP       2257 43.61                             172    -0.210   19 171 
 BAR2 SZ ES   1   2257 58.92                             172     0.3 7   19 171 
 BAR2 SZ I        2257 59.43        27.8 0.26                            19 171 
 RUS  HZ EP       2257 47.72                             144    -0.110   97 172 
 RUS  HN ES   1   2258  5.91                             144     0.1 7   97 172 
 RUS  HZ I        2258  7.58         9.6 0.42                            97 172 
 PTB  HZ EP       2257 50.35                             133    -0.3 9  140 260 
 PTB  HN ES   1   2258 10.61                             133    -0.3 7  140 260 
 PTB  HZ I        2258 13.71        11.8 0.42                           140 260 
 ZAR  HZ EP   2   2257 56.57                             122     0.2 4  199 294 
 ZAR  HE ES   2   2258 21.45                             122     0.3 4  199 294 
 ZAR  HZ I        2258 24.33        10.8 0.20                           199 294 
 HEL  HZ EP       2258  4.37                             115     0.5 8  264 256 
 HEL  HZ I        2258 42.14         5.2 0.42                           264 256 
                                                                                
