 2015 1022 2347 55.7 L   6.777 -73.143149.1  RSN  9 0.5 1.6LRSN                1
 GAP=138        1.16       3.4     5.3  6.6 -0.4423E+00  0.1114E+02  0.7784E+00E
 Epicentro: LOS SANTOS - SANTANDER                                             3
 ACTION:UPD 15-12-22 20:42 OP:cam  STATUS:               ID:20151022234755 L   I
 OLDACT:DUP 15-10-23 05:21 OP:ak   STATUS:               ID:20151022233749d    3
 OLDACT:REG 15-10-23 03:49 OP:ak   STATUS:               ID:20151022233748     3
 2015-10-22-2337-48M.COL___316                                                 6
 STAT SP IPHASW D HRMM SECON CODA AMPLIT PERI AZIMU VELO AIN AR TRES W  DIS CAZ7
 BAR2 EZ EP       2348 15.47                             172   -0.2310 20.9 192 
 BAR2 EZ ES       2348 31.28                             172   -0.0010 20.9 192 
 BAR2 EZ I        2348 33.66        10.9 0.30            170           20.9 192 
 BRR  HZ EP       2348 17.84                             153    0.5410 72.7 300 
 BRR  HN ES       2348 34.63                             153    0.4910 72.7 300 
 PAM  EZ EP       2348 18.82                             151    0.4410 79.1  38 
 PAM  EN ES       2348 35.99                             151   -0.0810 79.1  38 
 PAM  EZ I        2348 38.96         5.6 0.32            154           79.1  38 
 RUS  HZ EP       2348 19.92                             145    0.3110 98.1 176 
 RUS  HN ES       2348 38.09                             145   -0.1710 98.1 176 
 SPBC HZ EP       2348 24.88                             130    0.58 9  161 220 
 SPBC HN ES       2348 45.93                             130   -0.68 9  161 220 
 SPBC HZ I        2348 51.13         6.0 0.06            131            161 220 
 ZAR  HZ EP       2348 28.86                             123    0.36 8  205 293 
 ZAR  HN ES       2348 53.63                             123   -0.45 8  205 293 
 ZAR  HZ I        2348 59.25         4.4 0.34            124            205 293 
 CHI  HZ EP       2348 32.81                             118   -0.53 8  246 195 
 CHI  HN ES       2349  2.07                             118   -0.63 8  246 195 
 CHI  HZ I        2349  9.64         2.1 0.32            119            246 195 
 SML  HZ EP       2348 31.99                             118   -0.79 8  246 335 
 SML  HN ES       2349  1.01                             118   -0.69 8  246 335 
 GUY2CHZ EP   1   2348 39.80                             113    0.46 5  300 235 
 GUY2CHN ES       2349 14.10                             113    0.73 7  300 235 
 GUY2CHZ I        2349 23.29         1.8 0.30                           300 235 
                                                                                
