 2010  222 2315 27.5 L   6.830 -72.987138.3  RSN  4 0.2 1.5LRSN                1
 GAP=255        0.42       5.4     9.8  6.3  0.1646E+02 -0.1147E+02  0.1151E+02E
 Epicentro: CEPITA - SANTANDER                                                 3
 ACTION:UP  10-08-24 09:50 OP:vdl  STATUS:               ID:20100222231526 L   I
 2010-02-22-2312-22S.COL___094                                                 6
 STAT SP IPHASW D HRMM SECON CODA AMPLIT PERI AZIMU VELO SNR AR TRES W  DIS CAZ7
 BAR2 SZ EP   1   2315 46.70                             166     0.2 7   34 220 
 BAR2 SZ ES   2   2316  1.59                             166     0.2 5   34 220 
 BRR  HZ I        2316  5.19         9.2 0.30                            86 291 
 BRR  HE ES   2   2316  5.23                             146    -0.2 5   86 291 
 RUS  BZ EP   1   2315 50.74                             141    -0.1 7  104 186 
 RUS  BZ I        2315 51.93         4.1 0.20                           104 186 
 RUS  BN ES   2   2316  8.66                             141    -0.3 5  104 186 
 CHI  HZ EP   1   2316  5.67                             115    -0.1 6  257 199 
 CHI  HN ES   2   2316 35.89                             115     0.3 4  257 199 
                                                                                
