 2014  622 2305 15.2 L   6.779 -73.150146.0  RSN 14 0.4 1.9LRSN                1
 GAP=137        0.87       2.6     3.9  5.3 -0.2006E+01  0.5513E+01  0.9124E+00E
 Epicentro: LOS SANTOS - SANTANDER                                             3
 ACTION:UPD 14-07-01 22:55 OP:nd   STATUS:               ID:20140622230515 L   I
 OLDACT:DUP 14-06-23 05:16 OP:fm   STATUS:               ID:20140622225817d    3
 2014-06-22-2258-16M.COL___262                                                 6
 STAT SP IPHASW D HRMM SECON CODA AMPLIT PERI AZIMU VELO AIN AR TRES W  DIS CAZ7
 BAR2 SZ EP       23 5 34.80                             171    0.0310 20.9 190 
 BAR2 SZ ES   1   23 5 49.96                             171   -0.11 7 20.9 190 
 BAR2 SZ I        23 5 51.38        18.0 0.24            167           20.9 190 
 BRR  HZ EP       23 5 36.77                             152    0.3910 72.0 300 
 BRR  HN ES       23 5 53.81                             152    0.8910 72.0 300 
 BRR  HZ I        23 5 57.67        10.0 0.16            147           72.0 300 
 PAM  SZ EP     D 23 5 37.68                             150    0.1510 79.5  39 
 PAM  SN ES       23 5 54.65                             150   -0.3210 79.5  39 
 PAM  SZ I        23 5 56.81        13.3 0.48            155           79.5  39 
 RUS  HZ EP       23 5 39.01                             144    0.2410 98.3 176 
 RUS  HN ES       23 5 56.96                             144   -0.2210 98.3 176 
 RUS  HZ I        23 5 58.19         4.8 0.46            146           98.3 176 
 PTB  HZ EP       23 5 41.97                             132   -0.10 9  147 260 
 PTB  HN ES       23 6  2.31                             132   -0.74 9  147 260 
 PTB  HZ I        23 6 10.09         8.6 0.48            130            147 260 
 SPBC HZ EP   1   23 5 43.66                             129    0.18 7  161 219 
 SPBC HE ES       23 6  5.36                             129   -0.20 9  161 219 
 SPBC HZ I        23 6 13.38         7.0 0.24            129            161 219 
 OCA  HN ES       23 6  5.71                             129   -0.26 9  163 353 
 OCA  HZ I        23 6 11.78        10.3 0.28            130            163 353 
 ZAR  HE ES   2   23 6 13.01                             122   -0.02 4  205 293 
 NOR  HZ EP       23 5 50.94                             119    0.22 8  233 235 
 NOR  HN ES   1   23 6 18.55                             119    0.10 6  233 235 
 NOR  HZ I        23 6 25.17         5.0 0.28            118            233 235 
 SML  HZ EP   1   23 5 51.10                             117   -0.91 6  246 336 
 SML  HN ES       23 6 20.78                             117    0.03 8  246 336 
 SML  HZ I        23 6 26.21         9.2 0.24            118            246 336 
 HEL  HZ EP   1   23 5 55.37                             115    0.10 6  271 256 
 HEL  HN ES   4   23 6 28.32                             115    1.76 0  271 256 
 HEL  HZ I        23 6 33.65         2.8 0.48            115            271 256 
 GUY2CHZ EP   4   23 6  0.23                             112    1.64 0  299 235 
 GUY2CHN ES   4   23 6 37.15                             112    4.69 0  299 235 
 GUY2CHZ I        23 6 41.49         4.2 0.54                           299 235 
 RREF HE ES   4   23 6 40.75                             111    3.82 0  320 230 
 RREF HZ I        23 6 45.39         3.6 0.38            111            320 230 
 PRA  HZ EP   1   23 6  8.36                             107   -0.07 4  390 210 
 PRA  HE ES       23 6 50.07                             107    0.10 6  390 210 
 PRA  HZ I        23 6 57.45         3.7 0.26            108            390 210 
                                                                                
