 2010 1222 2117 22.1 L   6.498 -73.713  3.8  RSN  8 0.5 2.3LRSN                1
 GAP=141        1.24       6.3     7.5 27.6 -0.1552E+02  0.7427E+02 -0.1471E+02E
 Epicentro: SANTA HELENA DEL OPON - SANTANDER                                  3
 ACTION:UP  11-01-14 15:26 OP:pat  STATUS:               ID:20101222211722 L   I
 2010-12-22-2116-40S.COL___135                                                 6
 STAT SP IPHASW D HRMM SECON CODA AMPLIT PERI AZIMU VELO SNR AR TRES W  DIS CAZ7
 BAR2 SZ IP       2117 31.71                              47    -0.310   59  80 
 BAR2 SZ I        2117 40.77       136.8 0.58                            59  80 
 RUS  HZ IP       2117 37.61                              47    -0.310   97 134 
 RUS  HZ I        2117 50.93        57.0 0.29                            97 134 
 NOR  SZ EP   2   2117 46.97                              47    -0.8 5  165 231 
 NOR  SZ I        2118  7.08        10.7 0.72                           165 231 
 GRA  SZ EP       2117 50.56                              37     0.0 9  183  33 
 GRA  SZ I        2118 15.00       103.2 0.38                           183  33 
 YOP  SN ES   3   2118 14.07                              37    -0.2 2  191 131 
 OCA  SZ EP   1   2117 52.61                              37     0.3 6  197  13 
 OCA  SZ I        2118 20.39        36.9 0.09                           197  13 
 CHI  HZ EP       2117 54.78                              37     1.0 8  207 181 
 CHI  HZ I        2118 26.78        22.7 0.53                           207 181 
 RREF HZ EP       2117 59.77                              37     0.0 8  253 226 
 RREF HN ES   3   2118 27.80                              37    -1.4 2  253 226 
                                                                                
