 2014 1122 2347 23.4 L   6.717 -73.074134.3  RSN  4 0.4 1.5LRSN                1
 GAP=190        0.95       8.0     7.9 13.0 -0.4130E+02 -0.3157E+02  0.4901E+02E
 Epicentro: JORDAN - SANTANDER                                                 3
 ACTION:UPD 14-12-19 15:46 OP:nd   STATUS:               ID:20141122234723 L   I
 OLDACT:REG 14-11-23 03:06 OP:cam  STATUS:               ID:20141122233817     3
 2014-11-22-2338-17M.COL___299                                                 6
 STAT SP IPHASW D HRMM SECON CODA AMPLIT PERI AZIMU VELO AIN AR TRES W  DIS CAZ7
 BAR2 SZ EP       2347 41.36                             172   -0.2010 18.3 221 
 PAM  SZ EP       2347 44.15                             148   -0.4510 80.3  31 
 PAM  SN ES       2348  1.48                             148    0.3410 80.3  31 
 PAM  SZ I        2348  3.44         6.0 0.56            149           80.3  31 
 BRR  HZ EP       2347 44.61                             146    0.5510 82.7 302 
 BRR  HN ES       2347 59.84                             146   -0.3310 82.7 302 
 SPBC HN ES       2348 12.41                             127    0.10 9  161 223 
                                                                                
