 2014 1223 0844 49.1 L   6.793 -73.100147.0  RSN  5 0.5 1.6LRSN                1
 GAP=211        1.17       7.5     8.5 10.2 -0.9776E+01  0.1524E+02 -0.2627E+01E
 Epicentro: LOS SANTOS - SANTANDER                                             3
 ACTION:UPD 15-02-10 17:06 OP:nd   STATUS:               ID:20141223084449 L   I
 OLDACT:UP  14-12-23 17:58 OP:mh   STATUS:               ID:20141223083750     3
 OLDACT:UP  14-12-23 17:58 OP:mh   STATUS:               ID:20141223083750     3
 OLDACT:REG 14-12-23 13:45 OP:mh   STATUS:               ID:20141223083750     3
 2014-12-23-0837-50M.COL___289                                                 6
 STAT SP IPHASW D HRMM SECON CODA AMPLIT PERI AZIMU VELO AIN AR TRES W  DIS CAZ7
 BAR2 EZ EP   1    845  9.57                             170    0.65 7 24.0 202 
 BAR2 EZ ES   1    845 23.84                             170   -0.51 7 24.0 202 
 BAR2 EZ I         845 27.91         6.9 0.33            170           24.0 202 
 BRR  HZ EP        845 11.00                             151    0.3210 76.0 297 
 BRR  HN ES        845 28.07                             151    0.5710 76.0 297 
 BRR  HZ I         845 29.21         9.1 0.20            151           76.0 297 
 PTB  HZ EP        845 15.81                             131   -0.82 9  153 259 
 PTB  HN ES        845 37.91                             131   -0.17 9  153 259 
 PTB  HZ I         845 39.23         4.7 0.18            133            153 259 
 OCA  HN ES        845 39.46                             130   -0.47 9  162 351 
 ZAR  HZ EP        845 22.62                             122    0.46 8  209 292 
 ZAR  HN ES        845 47.85                             122   -0.08 8  209 292 
 ZAR  HZ I         845 54.08         4.2 0.28            124            209 292 
                                                                                
