 2014  923 0831 33.5 L   6.814 -73.144146.4  RSN 11 0.4 1.7LRSN                1
 GAP=136        0.93       2.6     3.7  5.0  0.2815E+00  0.5590E+01  0.2341E+00E
 Epicentro: LOS SANTOS - SANTANDER                                             3
 ACTION:UPD 14-10-03 23:07 OP:nd   STATUS:               ID:20140923083133 L   I
 OLDACT:UP  14-09-23 15:31 OP:cam  STATUS:               ID:20140923083000     3
 OLDACT:UP  14-09-23 15:31 OP:cam  STATUS:               ID:20140923083000     3
 OLDACT:REG 14-09-23 13:06 OP:cam  STATUS:               ID:20140923083000     3
 2014-09-23-0830-00M.COL___252                                                 6
 STAT SP IPHASW D HRMM SECON CODA AMPLIT PERI AZIMU VELO AIN AR TRES W  DIS CAZ7
 BAR2 SZ EP        831 53.16                             170   -0.0910 24.9 190 
 BAR2 SZ ES        832  8.30                             170   -0.3510 24.9 190 
 BAR2 SZ I         832  9.82         9.3 0.24            169           24.9 190 
 BRR  HZ EP        831 55.30                             153    0.6110 70.6 297 
 BRR  HE ES        832 11.91                             153    0.6910 70.6 297 
 BRR  HZ I         832 17.30         7.2 0.14            153           70.6 297 
 PAM  SZ EP        831 56.03                             151    0.3210 76.1  40 
 PAM  SN ES        832 13.28                             151    0.2510 76.1  40 
 PAM  SZ I         832 15.10        14.0 0.58            156           76.1  40 
 RUS  HZ EP        831 57.03                             144   -0.4010  102 176 
 RUS  HE ES        832 15.87                             144   -0.2310  102 176 
 RUS  HZ I         832 18.47         4.0 0.44            146            102 176 
 PTB  HZ EP        832  0.49                             132   -0.08 9  148 258 
 PTB  HN ES        832 21.02                             132   -0.66 9  148 258 
 PTB  HZ I         832 26.97         5.8 0.28            134            148 258 
 SPBC HZ EP     D  832  2.15                             129   -0.03 9  165 219 
 SPBC HN ES        832 24.52                             129   -0.03 9  165 219 
 SPBC HZ I         832 29.88         9.3 0.24            131            165 219 
 ZAR  HZ EP        832  6.06                             123    0.11 9  204 292 
 ZAR  HN ES        832 31.18                             123   -0.07 9  204 292 
 SML  HZ EP        832  9.76                             118   -0.26 8  242 335 
 SML  HE ES        832 38.11                             118   -0.39 8  242 335 
 SML  HZ I         832 40.91         9.6 0.32            121            242 335 
 CHI  HZ EP        832 11.15                             117   -0.26 8  250 195 
 CHI  HN ES        832 40.87                             117   -0.11 8  250 195 
 CHI  HZ I         832 44.57         2.6 0.44            120            250 195 
 GUY2CHZ EP        832 17.73                             112    0.47 7  302 235 
 GUY2CHE ES        832 52.16                             112    0.77 7  302 235 
 GUY2CHZ I         832 59.72         3.3 0.48                           302 235 
 MON  HE ES        833  0.24                             109   -0.35 6  353 308 
 MON  HE I         833  1.12         1.3 0.52            111            353 308 
                                                                                
