 2010  723 0116 37.4 L   6.754 -73.431109.3  RSN 11 0.4 1.9LRSN                1
 GAP= 87        1.02       5.5     9.7  9.3 -0.2733E+02  0.4582E+02 -0.1237E+02E
 Epicentro: EL CARMEN DE CHUCURI - SANTANDER                                   3
 ACTION:UPD 10-12-01 15:19 OP:pat  STATUS:               ID:20100723011637 L   I
 2010-07-23-0115-04S.COL___123                                                 6
 STAT SP IPHASW D HRMM SECON CODA AMPLIT PERI AZIMU VELO AIN AR TRES W  DIS CAZ7
 BAR2 SZ IP        116 53.18                             162     0.210   33 123 
 BAR2 SZ ES   1    117  5.24                             162     0.1 7   33 123 
 BAR2 SZ I         117  6.26        72.1 0.17                            33 123 
 GIR2 SZ IP        116 53.48                             156     0.210   44  36 
 GIR2 SZ ES   1    117  5.51                             156    -0.2 7   44  36 
 BRR  HZ IP     C  116 53.16                             154    -0.210   50 321 
 BRR  HZ I         117  6.90        73.8 0.14                            50 321 
 RUS  HZ EP   1    116 57.81                             133    -0.1 7  103 158 
 RUS  HZ I         117 15.53        12.3 0.29                           103 158 
 GUE  SZ EP        117  0.99                             126     0.610  131  25 
 GUE  SZ I         117 19.81        13.7 0.08                           131  25 
 GRA  SZ EP   1    117  0.39                             123    -1.0 7  143  29 
 GRA  SZ ES   1    117 19.96                             123    -0.1 7  143  29 
 GRA  SZ I         117 21.66        11.1 0.41                           143  29 
 OCA  SZ EP   1    117  3.57                             119     0.0 7  165   4 
 OCA  SZ I         117 31.15         7.7 0.45                           165   4 
 CHI  HN ES   2    117 38.43                             109    -0.7 4  237 188 
 CHI  HZ I         117 53.72         2.7 0.50                           237 188 
 HEL  HZ EP   1    117 12.68                             109     0.3 6  240 255 
 HEL  HZ I         117 44.65         3.4 0.46                           240 255 
 RREF HN ES   2    117 51.06                             105    -0.5 4  295 226 
 RREF HZ I         117 55.32         3.1 0.59                           295 226 
 PRA  HN ES   2    118  7.51                             100     0.7 3  373 206 
 PRA  HZ I         118 14.25         2.7 0.41                           373 206 
                                                                                
