 2010  923 0917 24.9 L   6.739 -73.662105.8  RSN  4 0.1 1.5LRSN                1
 GAP=207        0.32       5.9     9.6  6.4  0.4690E+02  0.2404E+02  0.1571E+02E
 Epicentro: EL CARMEN DE CHUCURI - SANTANDER                                   3
 ACTION:UP  11-02-18 11:05 OP:tino STATUS:               ID:20100923091724 L   I
 2010-09-23-0915-01S.COL___122                                                 6
 STAT SP IPHASW D HRMM SECON CODA AMPLIT PERI AZIMU VELO SNR AR TRES W  DIS CAZ7
 BRR  HZ EP   1    917 39.96                             157    -0.1 7   41 352 
 BRR  HZ I         917 40.59        12.9 0.11                            41 352 
 BRR  HE ES   2    917 51.98                             157     0.1 5   41 352 
 BAR2 SZ ES   2    917 53.76                             150    -0.1 5   55 107 
 BAR2 SZ I         917 54.88         8.7 0.23                            55 107 
 GIR2 SZ EP   2    917 41.67                             146     0.1 5   64  54 
 RUS  HZ EP   2    917 46.19                             129     0.1 5  113 146 
 RUS  HE ES   2    918  2.74                             129     0.0 5  113 146 
 RUS  HZ I         918  4.46         4.3 0.35                           113 146 
                                                                                
