 2017  623 0859  8.4 L   6.705 -73.174158.0  RSN  5 0.4 1.3LRSN                1
 GAP=238        0.96       6.5     7.3  8.7  0.1670E+01  0.7948E+01 -0.7999E+01E
 Epicentro: VILLANUEVA - SANTANDER                                             3
 ACTION:UPD 17-09-14 16:54 OP:jn   STATUS:               ID:20170623085909 L   I
 OLDACT:UP  17-06-30 07:31 OP:dnl  STATUS:               ID:20170623085909 L   3
 OLDACT:REG 17-06-23 13:50 OP:lv   STATUS:               ID:20170623085731     3
 2017-06-23-0858-00M.COL___365                                                 6
 STAT SP IPHASW D HRMM SECON CODA AMPLIT PERI AZIMU VELO AIN AR TRES W  DIS CAZ7
 BAR2 EZ EP   1    859 29.38                             175   -0.00 7 12.5 184 
 BAR2 EZ ES   1    859 44.99                             175   -0.73 7 12.5 184 
 BAR2 EZ I         859 48.65         4.6 0.54            169           12.5 184 
 BRR  HZ EP        859 31.52                             154    0.4410 74.3 307 
 BRR  HN ES        859 49.14                             154    0.3910 74.3 307 
 PTB  HZ EP   1    859 36.43                             136    0.41 7  143 263 
 PTB  HN ES        859 57.65                             136    0.12 9  143 263 
 PTB  HZ I         9 0  4.80         1.8 0.42            135            143 263 
 SPBC HN ES        859 59.28                             134    0.01 9  153 221 
 SPBC HZ I         9 0  4.58         3.2 0.06            133            153 221 
 ZAR  HZ EP        859 41.15                             125   -0.70 8  205 295 
 ZAR  HN ES        9 0  7.59                             125   -0.32 8  205 295 
 ZAR  HZ I         9 0 10.53         1.4 0.08            126            205 295 
                                                                                
