 2014  323 0219 36.1 L   6.781 -73.146148.7  RSN  5 0.2 1.7LRSN                1
 GAP=137        0.45       2.5     2.3  4.2 -0.7287E+00  0.2965E+01 -0.7184E+00E
 Epicentro: LOS SANTOS - SANTANDER                                             3
 ACTION:UPD 14-04-09 23:19 OP:nd   STATUS:               ID:20140323021936 L   I
 OLDACT:REG 14-03-23 08:31 OP:mh   STATUS:               ID:20140323021814     3
 2014-03-23-0218-14M.COL___234                                                 6
 STAT SP IPHASW D HRMM SECON CODA AMPLIT PERI AZIMU VELO AIN AR TRES W  DIS CAZ7
 BAR2 SZ ES   1    220 11.94                             171    0.30 7 21.2 191 
 BAR2 SZ I         220 14.17         9.0 0.19            172           21.2 191 
 PAM  SZ EP        219 58.97                             151    0.2110 79.1  39 
 PAM  SN ES        220 16.21                             151   -0.2010 79.1  39 
 PAM  SZ I         220 18.78         3.9 0.65            154           79.1  39 
 RUS  HZ EP        219 59.91                             145   -0.1210 98.5 176 
 RUS  HN ES        220 18.66                             145   -0.0110 98.5 176 
 RUS  HZ I         220 21.32         2.5 0.20            149           98.5 176 
 PTB  HZ EP        220  3.34                             133    0.04 9  147 260 
 PTB  HN ES        220 24.38                             133   -0.11 9  147 260 
 PTB  HZ I         220 26.97        99.4 0.10            134            147 260 
 ZAR  HN ES   1    220 34.41                             123    0.05 6  205 293 
 ZAR  HZ I         220 40.36         3.5 0.25            124            205 293 
                                                                                
