 2012  423 0255 42.4 L   6.781 -73.142152.4  RSN  5 0.3 1.5LRSN                1
 GAP=138        0.70       5.3     5.0  8.1 -0.2852E+01  0.2432E+01  0.5905E+01E
 Epicentro: LOS SANTOS - SANTANDER                                             3
 ACTION:UPD 12-07-05 11:55 OP:tino STATUS:               ID:20120423025542 L   I
 2012-04-23-0250-00M.COL___186                                                 6
 STAT SP IPHASW D HRMM SECON CODA AMPLIT PERI AZIMU VELO AIN AR TRES W  DIS CAZ7
 BAR2 SZ EP   1    256  3.06                             172     0.2 7   21 192 
 BRR  HZ EP   1    256  4.77                             153     0.4 7   73 300 
 BRR  HN ES   1    256 21.82                             153     0.3 7   73 300 
 BRR  HZ I         256 26.20         7.3 0.09                            73 300 
 PAM  SZ EP   1    256  4.99                             151    -0.5 7   79  38 
 PAM  SN ES   1    256 23.26                             151    -0.1 7   79  38 
 RUS  HZ EP   1    256  6.92                             146     0.2 7   98 176 
 RUS  HN ES   1    256 25.51                             146    -0.1 7   98 176 
 RUS  HZ I         256 28.08         3.1 0.26                            98 176 
 PTB  HZ EP   1    256  9.80                             133    -0.2 7  148 260 
 PTB  HN ES   1    256 30.98                             133    -0.4 7  148 260 
 PTB  HZ I         256 32.53         3.5 0.27                           148 260 
                                                                                
