 2014  823 0642 39.1 L   6.761 -73.093146.7  RSN  6 0.4 1.4LRSN                1
 GAP=145        1.13       5.5     6.1  8.5 -0.7599E+01  0.4327E+01  0.8572E+01E
 Epicentro: LOS SANTOS - SANTANDER                                             3
 ACTION:UPD 14-09-15 21:52 OP:nd   STATUS:               ID:20140823064239 L   I
 OLDACT:REG 14-08-23 15:32 OP:stll STATUS:               ID:20140823063818     3
 2014-08-23-0638-18M.COL___253                                                 6
 STAT SP IPHASW D HRMM SECON CODA AMPLIT PERI AZIMU VELO AIN AR TRES W  DIS CAZ7
 BAR2 SZ EP        642 59.10                             171    0.2610 21.1 208 
 BAR2 SZ ES        643 14.30                             171    0.1010 21.1 208 
 BAR2 SZ I         643 15.14         5.5 0.28            173           21.1 208 
 PAM  SZ EP   1    643  1.52                             151    0.07 7 77.3  34 
 PAM  SN ES        643 18.68                             151   -0.1710 77.3  34 
 PAM  SZ I         643 21.20         4.6 0.52            151           77.3  34 
 BRR  HZ EP        643  1.17                             150    0.3710 78.3 299 
 BRR  HN ES        643 17.96                             150    0.2610 78.3 299 
 BRR  HZ I         643 22.21         4.4 0.42            149           78.3 299 
 RUS  HZ EP        643  1.94                             145   -0.7210 96.1 179 
 RUS  HN ES        643 20.95                             145   -0.0610 96.1 179 
 PTB  HN ES        643 27.14                             131   -0.93 9  153 261 
 SPBC HZ EP        643  8.03                             129    0.28 9  164 222 
 SPBC HZ I         643  8.44         3.8 0.10            131            164 222 
 SPBC HN ES        643 30.68                             129    0.61 9  164 222 
                                                                                
