 2012  723 0516  7.5 L   6.739 -73.428110.1  RSN  4 0.4 1.1LRSN                1
 GAP=159        0.68      17.5    15.0  8.5  0.2354E+03  0.4443E+02  0.3445E+02E
 Epicentro: EL CARMEN DE CHUCURI - SANTANDER                                   3
 ACTION:UPD 12-08-14 11:44 OP:ep   STATUS:               ID:20120723051607 L   I
 2012-07-23-0510-00M.COL___215                                                 6
 STAT SP IPHASW D HRMM SECON CODA AMPLIT PERI AZIMU VELO AIN AR TRES W  DIS CAZ7
 BAR2 SZ EP        516 23.21                             163     0.110   32 121 
 BAR2 SZ ES   1    516 35.46                             163     0.2 7   32 121 
 BAR2 SZ I         516 36.70         5.6 0.18            160             32 121 
 BRR  HZ EP        516 23.35                             153    -0.310   51 322 
 BRR  HZ I         516 23.44         3.0 0.10            153             51 322 
 BRR  HN ES   1    516 36.07                             153    -0.2 7   51 322 
 RUS  HN ES   3    516 43.00                             134    -0.9 2  101 158 
 ZAR  HZ EP   2    516 35.19                             117     0.2 4  179 298 
 ZAR  HN ES   2    516 57.28                             117     0.7 4  179 298 
 ZAR  HZ I         516 58.75         1.2 0.14            117            179 298 
