 2012  423 0623 38.7 L   6.782 -73.111147.1  RSN  4 0.3 1.1LRSN                1
 GAP=142        0.76       5.9     5.5  9.4 -0.1038E+02  0.1510E+02  0.1372E+01E
 Epicentro: LOS SANTOS - SANTANDER                                             3
 ACTION:UPD 12-07-05 11:55 OP:tino STATUS:               ID:20120423062338 L   I
 2012-04-23-0620-00M.COL___186                                                 6
 STAT SP IPHASW D HRMM SECON CODA AMPLIT PERI AZIMU VELO AIN AR TRES W  DIS CAZ7
 BRR  HZ EP   1    624  0.69                             151     0.4 7   76 298 
 BRR  HZ I         624  4.13         3.0 0.12                            76 298 
 BRR  HE ES   1    624 16.89                             151    -0.2 7   76 298 
 PAM  SZ EP   1    624  1.24                             151     0.2 7   77  36 
 PAM  SE ES        624 18.37                             151    -0.110   77  36 
 RUS  HN ES   1    624 20.97                             145     0.0 7   98 178 
 RUS  HZ I         624 23.08         1.8 0.36                            98 178 
 PTB  HZ EP   1    624  5.49                             132    -0.6 7  151 260 
 PTB  HE ES   1    624 27.80                             132     0.3 7  151 260 
 PTB  HZ I         624 29.15         1.3 0.10                           151 260 
                                                                                
