 2016 1123 0500 36.2 L   6.722 -73.135142.0  RSN  6 0.4 1.4LRSN                1
 GAP=165        0.77       8.3     4.0  9.9 -0.1087E+02  0.5299E+01  0.2974E+02E
 Epicentro: JORDAN - SANTANDER                                                 3
 ACTION:UPD 17-10-26 21:10 OP:lp   STATUS:               ID:20161123050036 L   I
 OLDACT:UP  16-11-23 15:44 OP:dani STATUS:               ID:20161123045648     3
 OLDACT:UP  16-11-23 15:44 OP:dani STATUS:               ID:20161123045648     3
 OLDACT:UP  16-11-23 15:44 OP:dani STATUS:               ID:20161123045648     3
 OLDACT:UP  16-11-23 15:43 OP:dani STATUS:               ID:20161123045648     3
 OLDACT:REG 16-11-23 12:53 OP:dani STATUS:               ID:20161123045648     3
 2016-11-23-0457-00M.COL___352                                                 6
 STAT SP IPHASW D HRMM SECON CODA AMPLIT PERI AZIMU VELO AIN AR TRES W  DIS CAZ7
 BAR2 EZ EP        5 0 55.69                             173    0.4610 15.2 200 
 BAR2 EZ I         5 1 12.78         3.7 0.22            163           15.2 200 
 BRR  HZ EP        5 0 57.36                             150    0.0910 76.7 304 
 BRR  HE ES   2    5 1 14.44                             150    0.75 5 76.7 304 
 BRR  HZ I         5 1 19.91         2.7 0.10            156           76.7 304 
 PAM  EZ EP        5 0 58.47                             148    0.0710 83.6  35 
 PAM  EE ES        5 1 15.36                             148   -0.3510 83.6  35 
 PAM  EZ I         5 1 16.00         2.7 0.23            155           83.6  35 
 PTB  HZ IP        5 1  2.41                             131   -0.43 9  147 262 
 PTB  HN ES        5 1 23.45                             131   -0.16 9  147 262 
 PTB  HZ I         5 1 25.83         4.6 0.38            132            147 262 
 ZAR  HZ EP   3    5 1  9.99                             121    1.12 2  209 294 
 ZAR  HE ES        5 1 34.36                             121    0.01 8  209 294 
 ZAR  HZ I         5 1 40.14         3.8 0.27            124            209 294 
 NOR  HE ES   4    5 1 40.79                             118    2.14 0  231 236 
 NOR  HZ I         5 1 43.50         2.0 0.30            118            231 236 
                                                                                
