 2016  923 0147 57.0 L   6.831 -73.120146.6  RSN  8 0.3 1.5LRSN                1
 GAP=247        0.77       4.2     4.1  5.5  0.5116E+01  0.5457E+01  0.2504E+01E
 Epicentro: LOS SANTOS - SANTANDER                                             3
 ACTION:UPD 17-08-17 21:15 OP:lp   STATUS:               ID:20160923014757 L   I
 OLDACT:UP  16-09-23 14:22 OP:and  STATUS:               ID:20160923013736     3
 OLDACT:UP  16-09-23 14:17 OP:and  STATUS:               ID:20160923013736     3
 OLDACT:UP  16-09-23 14:15 OP:and  STATUS:               ID:20160923013736     3
 OLDACT:REG 16-09-23 10:49 OP:and  STATUS:               ID:20160923013736     3
 2016-09-23-0138-00M.COL___333                                                 6
 STAT SP IPHASW D HRMM SECON CODA AMPLIT PERI AZIMU VELO AIN AR TRES W  DIS CAZ7
 BAR2 EZ EP        148 17.14                             169    0.2910 27.2 195 
 BAR2 EZ ES        148 32.48                             169    0.1810 27.2 195 
 RUS  HZ EP        148 20.82                             143   -0.2810  104 178 
 RUS  HE ES        148 39.85                             143   -0.0210  104 178 
 RUS  HZ I         148 42.64         3.0 0.22            145            104 178 
 PTB  HZ EP        148 24.06                             132   -0.32 9  151 258 
 PTB  HN ES        148 45.03                             132   -0.68 9  151 258 
 PTB  HZ I         148 52.19         6.7 0.20            131            151 258 
 SPBC HZ EP        148 25.98                             129   -0.03 9  168 219 
 SPBC HN ES        148 49.00                             129    0.38 9  168 219 
 ZAR  HZ EP   4    148 34.07                             122    4.40 0  205 291 
 ZAR  HE ES        148 55.41                             122    0.28 8  205 291 
 ZAR  HZ I         149  2.33         3.3 0.22            123            205 291 
 NOR  HZ EP        148 33.52                             118    0.25 8  239 234 
 NOR  HE ES        149  1.61                             118    0.08 8  239 234 
 CHI  HZ EP        148 35.40                             117    0.19 8  253 196 
 CHI  HN ES        149  4.61                             117   -0.38 8  253 196 
 CHI  HZ I         149 10.97         1.6 0.07            118            253 196 
 GUY2CHZ EP   4    148 43.33                             112    2.17 0  305 235 
 GUY2CHE ES   2    149 16.42                             112    0.84 4  305 235 
 GUY2CHZ I         149 23.87         1.8 0.22                           305 235 
                                                                                
