 2013  323 0340 54.8 L   6.742 -73.189158.4  RSN  4 0.2 1.6LRSN                1
 GAP=134        0.56       3.9     3.8  5.6  0.3468E+01 -0.5135E+01 -0.4111E+01E
 Epicentro: VILLANUEVA - SANTANDER                                             3
 ACTION:UPD 13-04-09 14:04 OP:ep   STATUS:               ID:20130323034054 L   I
 2013-03-23-0340-00M.COL___245                                                 6
 STAT SP IPHASW D HRMM SECON CODA AMPLIT PERI AZIMU VELO AIN AR TRES W  DIS CAZ7
 BRR  HZ EP        341 17.12                             155   -0.2110 70.5 305 
 BRR  HN ES        341 35.11                             155    0.2410 70.5 305 
 BRR  HN I         341 35.20        12.3 0.22            149           70.5 305 
 PAM  SZ EP        341 18.75                             150   -0.1310 85.4  39 
 PAM  SN I         341 39.55         6.2 0.44            136           85.4  39 
 RUS  HZ EP        341 19.63                             148    0.1710 94.7 173 
 RUS  HN ES        341 38.59                             148   -0.0710 94.7 173 
 RUS  HN I         341 39.61         3.9 0.22            147           94.7 173 
 PTB  HZ EP        341 22.61                             136    0.25 9  142 261 
 PTB  HN ES        341 43.58                             136   -0.24 9  142 261 
 PTB  HN I         341 48.93         3.2 0.42            134            142 261 
                                                                                
