 2012  723 0637 45.5 L   6.266 -73.185186.0  RSN  5 0.5 1.7LRSN                1
 GAP=164        0.85      14.0    13.8 16.3  0.1054E+03  0.6233E+02  0.6288E+02E
 Epicentro: CHARALA - SANTANDER                                                3
 ACTION:UPD 12-08-14 11:44 OP:ep   STATUS:               ID:20120723063745 L   I
 2012-07-23-0630-00M.COL___215                                                 6
 STAT SP IPHASW D HRMM SECON CODA AMPLIT PERI AZIMU VELO AIN AR TRES W  DIS CAZ7
 BAR2 SZ EP        638  9.87                             169    -0.410   36   0 
 BAR2 SZ I         638  9.89        17.3 0.10            170             36   0 
 BAR2 SZ ES   3    638 28.19                             169    -1.4 2   36   0 
 RUS  HZ EP        638 11.13                             167     0.310   43 165 
 RUS  HN ES   3    638 30.87                             167     0.3 2   43 165 
 RUS  HZ I         638 33.29         5.3 0.38            167             43 165 
 BRR  HZ EP        638 13.45                             148     0.210  110 328 
 BRR  HZ I         638 14.76        12.7 0.10            151            110 328 
 BRR  HN ES   2    638 35.76                             148     0.8 5  110 328 
 PTB  HZ EP        638 15.62                             141    -0.1 9  144 282 
 PTB  HN ES   3    638 38.89                             141    -0.4 2  144 282 
 PTB  HZ I         638 40.13         1.7 0.22            143            144 282 
 ZAR  HE ES   3    638 52.13                             127    -0.6 2  229 306 
