 2010  623 0514 52.0 L   6.776 -73.076142.1  RSN  9 0.4 1.9LRSN                1
 GAP=164        0.88       4.8     7.1  8.2 -0.1592E+02  0.1772E+02 -0.5478E+01E
 Epicentro: LOS SANTOS - SANTANDER                                             3
 ACTION:UP  10-08-24 10:12 OP:vdl  STATUS:               ID:20100623051452 L   I
 2010-06-23-0512-35S.COL___118                                                 6
 STAT SP IPHASW D HRMM SECON CODA AMPLIT PERI AZIMU VELO SNR AR TRES W  DIS CAZ7
 BAR2 SZ EP        515 11.01                             170    -0.210   24 210 
 BAR2 SZ ES   2    515 25.92                             170    -0.3 5   24 210 
 BRR  HZ EP        515 12.96                             149    -0.310   79 298 
 BRR  HZ I         515 13.35        30.6 0.08                            79 298 
 BRR  HN ES   2    515 30.44                             149     0.6 5   79 298 
 RUS  HZ EP        515 15.33                             144     0.110   98 180 
 RUS  HN ES   2    515 33.31                             144     0.0 5   98 180 
 RUS  HZ I         515 35.14         7.7 0.23                            98 180 
 BRI  SZ EP        515 15.67                             140     0.110  108  16 
 BRI  SZ ES   2    515 34.35                             140     0.4 5  108  16 
 GUE  SZ EP        515 17.12                             138     0.610  118   8 
 GRA  SZ EP        515 16.92                             136    -0.110  126  14 
 GRA  SZ ES   2    515 36.10                             136    -0.4 5  126  14 
 OCA  SZ EP        515 19.80                             128    -0.6 9  164 351 
 OCA  SZ I         515 47.52         6.3 0.21                           164 351 
 HEL  HZ EP        515 33.51                             113     0.7 7  279 257 
 HEL  HN ES   2    516  4.24                             113    -0.4 4  279 257 
 HEL  HZ I         516  9.43         5.0 0.42                           279 257 
 GUY  HZ EP        515 35.85                             111    -0.2 7  306 236 
 GUY  HE ES   3    516 10.20                             111    -0.2 2  306 236 
                                                                                
