 2012  423 0444 54.8 L   6.478 -72.999  4.0  RSN  4 0.6 0.9LRSN                1
 GAP=169        1.31       3.7     6.0 10.0 -0.1046E+01  0.1648E+02  0.2331E+01E
 Epicentro: MOGOTES - SANTANDER                                                3
 ACTION:UPD 12-07-05 11:55 OP:tino STATUS:               ID:20120423044454 L   I
 2012-04-23-0440-00M.COL___186                                                 6
 STAT SP IPHASW D HRMM SECON CODA AMPLIT PERI AZIMU VELO AIN AR TRES W  DIS CAZ7
 BAR2 SZ EP   1    444 59.50                             105     0.2 7   24 302 
 BAR2 SZ ES   1    445  2.75                             105     0.0 7   24 302 
 BAR2 SZ I         445  3.71        23.5 0.30                            24 302 
 RUS  HZ EP        445  6.00                              95     0.210   65 188 
 RUS  HN ES   1    445 13.86                              95    -0.5 7   65 188 
 RUS  HZ I         445 14.76         7.5 0.32                            65 188 
 PAM  SZ EP   1    445 12.02                              93     0.8 7  101  19 
 PAM  SN ES   1    445 23.05                              93    -0.9 7  101  19 
 PTB  HZ EP   1    445 20.46                              56     0.6 7  161 273 
 PTB  HN ES   1    445 38.76                              56    -0.6 7  161 273 
 PTB  HZ I         445 40.74         1.1 0.13                           161 273 
                                                                                
