 2016  523 0405 58.3 L   6.572 -73.563108.1  RSN 17 0.5 2.3LRSN                1
 GAP= 58        1.28       2.9     3.3  6.6 -0.1576E+01  0.8256E+01  0.4535E+00E
 Epicentro: EL CARMEN - SANTANDER                                              3
 ACTION:UPD 16-08-18 17:48 OP:cam  STATUS:               ID:20160523040558 L   I
 OLDACT:UP  16-05-23 13:39 OP:mh   STATUS:               ID:20160523035742     3
 OLDACT:UP  16-05-23 13:39 OP:mh   STATUS:               ID:20160523035742     3
 OLDACT:REG 16-05-23 12:21 OP:mh   STATUS:               ID:20160523035742     3
 2016-05-23-0357-42M.COL___301                                                 6
 STAT SP IPHASW D HRMM SECON CODA AMPLIT PERI AZIMU VELO AIN AR TRES W  DIS CAZ7
 BAR2 EZ IP     D  4 6 14.20                             157    0.0710 42.2  87 
 BAR2 EZ ES        4 6 26.20                             157   -0.2810 42.2  87 
 BAR2 EZ I         4 6 27.93       180.5 0.38            159           42.2  87 
 BRR  HZ IP     C  4 6 14.96                             148    0.1010 61.4 344 
 BRR  HN ES        4 6 28.48                             148    0.7010 61.4 344 
 BRR  HZ I         4 6 29.24        35.5 0.12            145           61.4 344 
 RUS  HZ EP   1    4 6 17.22                             137   -0.62 7 92.1 145 
 RUS  HN ES        4 6 33.67                             137    0.5810 92.1 145 
 RUS  HZ I         4 6 34.27        14.6 0.60            136           92.1 145 
 PTB  HZ IP     C  4 6 17.04                             134   -0.7210 98.8 268 
 PTB  HN ES        4 6 32.05                             134   -0.9010 98.8 268 
 PTB  HZ I         4 6 33.00        44.0 0.48            130           98.8 268 
 SPBC HZ EP        4 6 19.09                             129   -0.3710  116 209 
 SPBC HN ES        4 6 36.12                             129    0.1510  116 209 
 SPBC HZ I         4 6 41.38                             126            116 209 
 PAM  EZ EP        4 6 21.53                             126    0.4410  128  48 
 PAM  EN ES        4 6 38.62                             126   -0.2510  128  48 
 PAM  EZ I         4 6 39.37        38.7 0.40            126            128  48 
 ZAR  HZ EP   1    4 6 26.31                             117    0.87 7  176 305 
 ZAR  HN ES        4 6 47.80                             117    1.18 9  176 305 
 ZAR  HZ I         4 6 52.48        31.3 0.32            114            176 305 
 NOR  HN ES        4 6 47.59                             116   -0.51 9  183 232 
 NOR  HZ I         4 6 50.12        36.7 0.16            114            183 232 
 OCA  HZ EP        4 6 26.04                             115   -0.76 9  186   8 
 OCA  HN ES        4 6 48.86                             115   -0.18 9  186   8 
 OCA  HZ I         4 6 55.83        70.3 0.34            114            186   8 
 CHI  HZ EP   2    4 6 30.32                             111   -0.11 4  216 185 
 CHI  HN ES        4 6 55.62                             111    0.13 8  216 185 
 CHI  HZ I         4 7  5.03         7.3 0.50            111            216 185 
 HEL  HZ EP        4 6 31.44                             111    0.40 8  222 259 
 HEL  HN ES        4 6 56.15                             111   -0.43 8  222 259 
 HEL  HZ I         4 7  2.76        12.3 0.20            109            222 259 
 URE  HZ EP   1    4 6 33.59                             107   -0.70 6  254 301 
 URE  HN ES        4 7  2.43                             107    0.05 8  254 301 
 URE  HZ I         4 7  5.01        22.6 0.18            107            254 301 
 CBOC HZ EP        4 6 37.91                             105    0.09 7  282 254 
 CBOC HN ES        4 7  8.62                             105   -0.04 7  282 254 
 CBOC HZ I         4 7 29.75         5.6 0.14            105            282 254 
 ANIL HZ EP        4 6 41.66                             103    0.69 7  307 222 
 ANIL HE ES   4    4 7 16.75                             103    2.49 0  307 222 
 ANIL HZ I         4 7 21.46        30.4 0.13            104            307 222 
 ORTC HZ EP   1    4 6 45.49                             101   -0.08 5  349 212 
 ORTC HN ES        4 7 23.43                             101    0.99 6  349 212 
 ORTC HZ I         4 7 26.18         6.1 0.18            102            349 212 
 SJC  HZ EP   4    4 6 56.75                              98    3.96 0  408 334 
 SJC  HN ES   4    4 7 33.08                              98   -2.22 0  408 334 
 SJC  HZ I         4 7 54.67         3.1 0.60            100            408 334 
 SDV  BZ EP   4    4 6 52.06                              98   -1.34 0  412  52 
 SDV  BN ES   4    4 7 32.50                              98   -3.89 0  412  52 
 SDV  BZ I         4 7 36.60         4.8 0.35            100            412  52 
                                                                                
