 2010  323 0302  6.0 L   6.802 -73.036148.4  RSN  7 0.3 1.9LRSN                1
 GAP=194        0.55       2.6     8.0  5.7  0.4760E+01 -0.9418E+01  0.9742E+00E
 Epicentro: CEPITA - SANTANDER                                                 3
 ACTION:UP  10-08-24 09:55 OP:vdl  STATUS:               ID:20100323030206 L   I
 2010-03-23-0300-55S.COL___098                                                 6
 STAT SP IPHASW D HRMM SECON CODA AMPLIT PERI AZIMU VELO SNR AR TRES W  DIS CAZ7
 BAR2 SZ EP        3 2 26.05                             169     0.010   28 215 
 BRR  HZ EP        3 2 28.02                             150    -0.110   82 294 
 BRR  HE ES   1    3 2 45.32                             150     0.0 7   82 294 
 BRR  HZ I         3 2 49.93        16.9 0.11                            82 294 
 RUS  HZ EP        3 2 29.96                             144    -0.110  101 183 
 RUS  HE ES   1    3 2 49.13                             144     0.3 7  101 183 
 RUS  HZ I         3 2 51.55         7.5 0.50                           101 183 
 OCA  SZ EP        3 2 34.85                             130     0.1 9  162 349 
 OCA  SZ ES   1    3 2 56.95                             130    -0.1 7  162 349 
 CHI  HZ EP        3 2 44.18                             117    -0.1 8  252 198 
 CHI  HE ES   2    3 3 13.52                             117    -0.6 4  252 198 
 CHI  HZ I         3 3 21.41         3.3 0.58                           252 198 
 RREF BZ EP   2    3 2 54.35                             111     1.0 3  331 231 
 RREF BZ I         3 3 37.52         5.1 0.32                           331 231 
 PRA  HZ EP   2    3 3  0.10                             107    -0.3 3  398 211 
 PRA  HZ I         3 3 47.69         3.5 0.29                           398 211 
                                                                                
