 2013  923 0715 30.5 L   6.858 -73.180135.5  RSN  7 0.5 1.7LRSN                1
 GAP=186        1.03       4.9     7.7  9.6 -0.1189E+02  0.1562E+02 -0.8852E+01E
 Epicentro: ZAPATOCA - SANTANDER                                               3
 ACTION:UPD 13-10-22 09:24 OP:ep   STATUS:               ID:20130923071530 L   I
 OLDACT:UP  13-09-23 12:35 OP:mh   STATUS:               ID:20130923071000     3
 OLDACT:UP  13-09-23 12:35 OP:mh   STATUS:               ID:20130923071000     3
 OLDACT:REG 13-09-23 09:18 OP:mher STATUS:               ID:20130923071000     3
 2013-09-23-0710-00M.COL___268                                                 6
 STAT SP IPHASW D HRMM SECON CODA AMPLIT PERI AZIMU VELO AIN AR TRES W  DIS CAZ7
 BAR2 SZ EP   1    715 49.28                             167    0.20 7 29.4 181 
 BAR2 SZ ES   1    716  3.68                             167    0.14 7 29.4 181 
 BAR2 SZ I         716  5.03         9.4 0.32            166           29.4 181 
 BRR  HZ EP        715 51.02                             153    0.8110 64.9 295 
 BRR  HN ES   4    716  7.85                             153    2.29 0 64.9 295 
 BRR  HZ I         716 11.70         7.7 0.14            146           64.9 295 
 PTB  HZ EP   1    715 55.91                             130   -0.55 7  145 256 
 PTB  HN ES        716 16.18                             130   -0.51 9  145 256 
 PTB  HZ I         716 21.97         7.2 0.38            129            145 256 
 OCA  HZ EP   1    715 57.00                             128   -0.40 7  153 354 
 OCA  HN ES        716 17.86                             128   -0.50 9  153 354 
 OCA  HZ I         716 23.15         4.7 0.22            130            153 354 
 SPBC HZ EP        715 58.26                             126   -0.28 9  166 217 
 SPBC HN ES   2    716 20.27                             126   -0.11 5  166 217 
 SPBC HZ I         716 27.33         5.4 0.30            129            166 217 
 ZAR  HZ EP        716  2.41                             121    0.70 9  198 291 
 ZAR  HN ES   2    716 26.60                             121    0.58 4  198 291 
 ZAR  HZ I         716 33.05         7.3 0.54            121            198 291 
 SML  HZ EP   1    716  5.55                             116   -0.23 6  236 335 
 SML  HN ES   2    716 33.59                             116    0.31 4  236 335 
 SML  HZ I         716 43.92         6.4 0.26            117            236 335 
                                                                                
