 2016  523 0158 31.4 L   6.802 -73.134150.0  RSN  8 0.5 1.6LRSN                1
 GAP=184        1.11       3.8     6.3  8.9 -0.9615E+00 -0.9031E+01  0.6818E+01E
 Epicentro: LOS SANTOS - SANTANDER                                             3
 ACTION:UPD 16-08-18 17:48 OP:cam  STATUS:               ID:20160523015831 L   I
 OLDACT:REG 16-05-23 12:19 OP:mh   STATUS:               ID:20160523015744     3
 2016-05-23-0157-44M.COL___301                                                 6
 STAT SP IPHASW D HRMM SECON CODA AMPLIT PERI AZIMU VELO AIN AR TRES W  DIS CAZ7
 BRR  HZ EP        158 53.60                             153    0.5510 72.2 298 
 BRR  HN ES        159 10.72                             153    0.7710 72.2 298 
 BRR  HZ I         159 14.48                             155           72.2 298 
 RUS  HZ EP        158 55.38                             145   -0.1910  101 177 
 RUS  HN ES   1    159 14.22                             145   -0.21 7  101 177 
 RUS  HZ I         159 16.77         1.8 0.68            148            101 177 
 PTB  HZ EP        158 58.38                             133   -0.45 9  149 259 
 PTB  HN ES        159 19.49                             133   -0.73 9  149 259 
 PTB  HZ I         159 27.10         5.4 0.40            135            149 259 
 OCA  HZ EP        158 59.38                             131   -0.64 9  160 353 
 OCA  HN ES        159 22.24                             131   -0.12 9  160 353 
 OCA  HZ I         159 30.27         6.5 0.44            135            160 353 
 SPBC HZ EP        159  0.91                             130    0.60 9  164 219 
 SPBC HN ES   1    159 22.60                             130   -0.27 7  164 219 
 SPBC HZ I         159 25.36         5.0 0.24            133            164 219 
 ZAR  HN ES        159 29.75                             123   -0.09 9  205 292 
 NOR  HZ EP        159  7.92                             119    0.42 8  236 235 
 NOR  HN ES   1    159 36.06                             119    0.40 6  236 235 
 NOR  HZ I         159 41.49         2.3 0.18            122            236 235 
 CHI  HZ EP   1    159  9.58                             118    0.19 6  249 195 
 CHI  HN ES        159 38.82                             118   -0.21 8  249 195 
 CHI  HZ I         159 48.86         3.3 0.87            121            249 195 
                                                                                
