 2011  823 0135 22.1 L   6.727 -73.199153.3  RSN  4 0.2 1.5LRSN                1
 GAP=226        0.45       4.6     6.4  5.7  0.1400E+02  0.7026E+01  0.4591E+01E
 Epicentro: VILLANUEVA - SANTANDER                                             3
 ACTION:UPD 12-07-13 15:53 OP:ep   STATUS:               ID:20110823013522 L   I
 2011-08-23-0130-39S.COL___158                                                 6
 STAT SP IPHASW D HRMM SECON CODA AMPLIT PERI AZIMU VELO AIN AR TRES W  DIS CAZ7
 BAR2 SZ ES   1    135 58.12                             174   -0.29 7 15.0 173 
 BAR2 SZ I         135 59.72         8.2 0.29                          15.0 173 
 BRR  HZ EP   1    135 43.89                             154   -0.14 7 70.6 307 
 BRR  HZ I         135 44.18        10.8 0.17                          70.6 307 
 BRR  HE ES   1    136  1.37                             154    0.24 7 70.6 307 
 RUS  HZ EP   1    135 46.20                             147    0.11 7 93.2 172 
 RUS  HN ES   1    136  4.94                             147    0.13 7 93.2 172 
 RUS  HZ I         136  5.89         2.7 0.26                          93.2 172 
 NOR  SN ES   2    136 24.55                             121   -0.18 4  225 235 
                                                                                
