 2012  223 0320 27.4 L   6.966 -73.473  4.0  RSN  9 0.3 1.7LRSN                1
 GAP= 74        0.71       2.1     1.7  4.6 -0.5441E+00  0.2790E-01  0.4671E+00E
 ACTION:UP  12-03-07 16:33 OP:epov STATUS:               ID:20120223032027 L   I
 2012-02-23-0320-00M.COL___191                                                 6
 STAT SP IPHASW D HRMM SECON CODA AMPLIT PERI AZIMU VELO AIN AR TRES W  DIS CAZ7
 BRR  HZ IP     D  320 32.35                              47   -0.3310 30.6 301 
 GIR2 SZ EP        320 33.08                              47   -0.1610 33.3  68 
 GIR2 SZ ES   1    320 37.42                              47   -0.33 7 33.3  68 
 BAR2 SZ IP        320 36.31                              47    0.0810 52.4 142 
 BAR2 SZ ES   1    320 42.81                              47   -0.27 7 52.4 142 
 BAR2 SZ I         320 43.51        38.5 0.18                          52.4 142 
 PAM  SZ EP   1    320 43.06                              47    0.13 7 94.9  64 
 PTB  HZ EP        320 46.03                              47    0.0210  118 247 
 PTB  HN ES   1    321  0.07                              47   -0.41 7  118 247 
 RUS  HZ EP   1    320 48.24                              47    0.55 7  126 160 
 RUS  HZ I         321  4.50         8.7 0.22                           126 160 
 OCA  SZ ES   1    321  7.55                              47    0.54 7  142   7 
 NOR  SE ES   1    321 25.93                              37    0.30 6  219 225 
 HEL  HZ EP   1    321  4.07                              37    0.55 6  243 249 
 HEL  HZ I         321 35.88         6.4 0.45                           243 249 
                                                                                
