 2013  123 0627 14.4 L   6.683 -73.214149.3  RSN  5 0.2 1.6LRSN                1
 GAP=210        0.50       3.8     3.5  4.0  0.8086E+01  0.2414E+01  0.4461E+00E
 Epicentro: VILLANUEVA - SANTANDER                                             3
 ACTION:UPD 13-02-15 09:16 OP:ep   STATUS:               ID:20130123062714 L   I
 2013-01-23-0618-48M.COL___183                                                 6
 STAT SP IPHASW D HRMM SECON CODA AMPLIT PERI AZIMU VELO AIN AR TRES W  DIS CAZ7
 BAR2 SZ EP        627 34.13                             176   -0.1910 10.6 161 
 BAR2 SZ I         627 34.40         8.6 0.32            176           10.6 161 
 BAR2 SZ ES        627 49.55                             176   -0.2610 10.6 161 
 BRR  HZ EP        627 36.04                             153    0.0010 72.3 311 
 BRR  HN ES        627 53.19                             153    0.3110 72.3 311 
 BRR  HN I         627 55.94        10.0 0.18            154           72.3 311 
 RUS  HZ EP        627 37.87                             148    0.1410 88.6 171 
 RUS  HN ES        627 56.03                             148    0.1410 88.6 171 
 RUS  HN I         627 58.40         5.1 0.28            150           88.6 171 
 PTB  HZ EP        627 40.87                             135    0.00 9  138 263 
 PTB  HN ES        628  1.36                             135   -0.11 9  138 263 
 ZAR  HN ES        628 12.27                             123   -0.05 9  202 296 
                                                                                
