 2016 1123 0716  8.6 L   6.787 -73.142152.3  RSN 10 0.6 1.8LRSN                1
 GAP=120        1.15       5.0     4.8  6.9 -0.1478E+01  0.3870E+01  0.1354E+02E
 Epicentro: LOS SANTOS - SANTANDER                                             3
 ACTION:UPD 17-10-26 21:10 OP:lp   STATUS:               ID:20161123071608 L   I
 OLDACT:UP  16-11-23 17:09 OP:dani STATUS:               ID:20161123070647     3
 OLDACT:UP  16-11-23 17:09 OP:dani STATUS:               ID:20161123070647     3
 OLDACT:REG 16-11-23 16:55 OP:dani STATUS:               ID:20161123070647     3
 2016-11-23-0707-00M.COL___352                                                 6
 STAT SP IPHASW D HRMM SECON CODA AMPLIT PERI AZIMU VELO AIN AR TRES W  DIS CAZ7
 BAR2 EZ EP        716 28.90                             171   -0.0610 22.0 192 
 BAR2 EZ ES        716 44.80                             171   -0.0710 22.0 192 
 BAR2 EZ I         716 45.75        14.7 0.46            168           22.0 192 
 BRR  HZ EP        716 30.77                             153    0.2810 72.2 299 
 BRR  HN ES        716 48.31                             153    0.7310 72.2 299 
 BRR  HZ I         716 52.20         6.9 0.12            152           72.2 299 
 PAM  EZ EP        716 31.67                             151    0.1310 78.2  39 
 PAM  EN ES        716 49.11                             151   -0.3410 78.2  39 
 PAM  EZ I         716 50.23         4.8 0.27            156           78.2  39 
 PTB  HZ EP        716 35.50                             133   -0.59 9  148 259 
 PTB  HE ES        716 56.58                             133   -0.97 9  148 259 
 PTB  HZ I         716 59.33         6.6 0.15            132            148 259 
 ZAR  HZ EP        716 42.01                             123    0.47 9  205 292 
 ZAR  HE ES        717  7.27                             123    0.01 9  205 292 
 ZAR  HZ I         717 12.99         9.6 0.37            124            205 292 
 NOR  HZ EP        716 45.10                             120    0.46 8  234 235 
 NOR  HN ES        717 12.44                             120   -0.33 8  234 235 
 NOR  HZ I         717 20.22         4.5 0.17            120            234 235 
 CHI  HZ EP        716 47.13                             118    0.62 8  247 195 
 CHI  HN ES        717 16.57                             118    0.47 8  247 195 
 CHI  HZ I         717 22.13         2.5 0.31            119            247 195 
 URE  HZ EP   4    716 51.56                             115    1.50 0  285 292 
 URE  HN ES   4    717 19.78                             115   -2.65 0  285 292 
 PTGC HZ EP        716 51.70                             113   -0.87 7  307 159 
 PTGC HN ES   3    717 25.11                             113   -1.77 2  307 159 
 PTGC HZ I         717 29.62         4.6 0.52            114            307 159 
 PRA  HZ EP        717  2.56                             107    0.35 6  391 210 
 PRA  HE ES   3    717 45.79                             107    1.75 1  391 210 
 PRA  HZ I         717 50.54         2.0 0.44            108            391 210 
 SJC  HZ EP   2    717  3.02                             107   -1.50 3  411 327 
 SJC  HN ES   4    717 44.87                             107   -3.28 0  411 327 
 SJC  HZ I         717 51.00         1.2 0.27            107            411 327 
                                                                                
