 2016  623 0841  9.0 L   6.547 -73.814 94.4  RSN  5 0.2 1.0LRSN                1
 GAP=110        0.56       2.5     2.5  5.4 -0.1687E+01 -0.4568E+00  0.4154E+01E
 Epicentro: PUERTO PARRA - SANTANDER                                           3
 ACTION:UPD 16-07-21 22:22 OP:rebc STATUS:               ID:20160623084109 L   I
 OLDACT:REG 16-06-23 13:03 OP:ak   STATUS:               ID:20160623083746     3
 2016-06-23-0837-46M.COL___328                                                 6
 STAT SP IPHASW D HRMM SECON CODA AMPLIT PERI AZIMU VELO AIN AR TRES W  DIS CAZ7
 BRR  HZ EP        841 24.18                             144   -0.1310 63.0  10 
 BRR  HN ES        841 36.58                             144    0.3510 63.0  10 
 BRR  HZ I         841 38.27         4.5 0.13                          63.0  10 
 BAR2 EZ EP        841 25.30                             141    0.1210 70.0  86 
 BAR2 EZ ES        841 37.48                             141   -0.2910 70.0  86 
 BAR2 EZ I         841 38.30         4.1 0.24                          70.0  86 
 PTB  HZ EP        841 24.75                             140   -0.2010 71.1 269 
 PTB  HN ES        841 37.24                             140   -0.1310 71.1 269 
 PTB  HZ I         841 38.41         2.2 0.07                          71.1 269 
 SPBC HZ EP        841 28.03                             129    0.1610  103 196 
 SPBC HN ES        841 42.69                             129    0.1210  103 196 
 SPBC HZ I         841 44.75         2.5 0.16                           103 196 
 ZAR  HZ EP   9    841 35.35                             117    2.09 0  156 312 
 ZAR  HE ES   2    841 54.27                                    0.03 5  156 312 
 ZAR  HZ I         841 57.42         1.2 0.24                           156 312 
                                                                                
