 2012  923 0719  5.3 L   7.030 -73.477106.5  RSN  6 0.2 2.7LRSN                1
 GAP=140        0.41       3.3     2.6  3.9  0.4357E+01  0.1622E+01  0.6301E+00E
 Epicentro: SAN VICENTE DE CHUCURI - SANTANDER                                 3
 ACTION:UPD 12-10-22 14:20 OP:ep   STATUS:               ID:20120923071905 L   I
 2012-09-23-0710-00M.COL___221                                                 6
 STAT SP IPHASW D HRMM SECON CODA AMPLIT PERI AZIMU VELO AIN AR TRES W  DIS CAZ7
 BRR  HZ EP        719 19.71                             164   -0.2510 27.3 288 
 BRR  HN ES   1    719 31.47                             164    0.05 7 27.3 288 
 BRR  HN I         719 31.93       298.6 0.18                          27.3 288 
 GIR2 SZ EP        719 20.27                             162   -0.0610 31.8  80 
 BAR2 SZ EP        719 22.11                             149    0.3110 58.3 146 
 BAR2 SZ ES   1    719 34.67                             149   -0.04 7 58.3 146 
 PAM  SZ EP   2    719 24.68                             136   -0.01 5 92.5  68 
 PAM  SN ES   2    719 39.91                             136    0.06 5 92.5  68 
 RUS  HZ EP   1    719 28.42                             125   -0.06 7  133 161 
 RUS  HN ES   2    719 46.37                             125   -0.22 5  133 161 
 ZAR  HZ EP   1    719 30.70                             119   -0.03 7  161 289 
 ZAR  HN ES   1    719 50.75                             119    0.15 7  161 289 
 ZAR  HN I         719 52.30        39.8 0.40                           161 289 
                                                                                
