 2012  723 0600 42.9 L   6.792 -73.157149.2  RSN  9 0.4 2.0LRSN                1
 GAP=182        0.89       3.9     6.4  7.6 -0.1310E+01 -0.2744E+00  0.3619E+01E
 Epicentro: LOS SANTOS - SANTANDER                                             3
 ACTION:UPD 12-08-14 11:44 OP:ep   STATUS:               ID:20120723060042 L   I
 2012-07-23-0600-00M.COL___215                                                 6
 STAT SP IPHASW D HRMM SECON CODA AMPLIT PERI AZIMU VELO AIN AR TRES W  DIS CAZ7
 BAR2 SZ EP        6 1  2.69                             171    -0.310   22 187 
 BAR2 SZ ES   2    6 1 17.75                             171    -0.8 5   22 187 
 BAR2 SZ I         6 1 19.55        20.3 0.36            168             22 187 
 BRR  HZ IP     C  6 1  4.72                             153     0.310   71 300 
 BRR  HZ I         6 1  4.73        40.8 0.16            152             71 300 
 BRR  HN ES   1    6 1 21.82                             153     0.6 7   71 300 
 RUS  HZ EP        6 1  7.21                             145     0.210  100 175 
 RUS  HN ES   2    6 1 25.67                             145     0.0 5  100 175 
 RUS  HZ I         6 1 26.56         6.5 0.24            144            100 175 
 PTB  HZ EP        6 1  9.76                             133    -0.3 9  146 259 
 PTB  HN ES   1    6 1 30.68                             133    -0.5 7  146 259 
 PTB  HZ I         6 1 36.25        13.3 0.32            132            146 259 
 OCA  HZ EP        6 1 11.27                             130    -0.3 9  161 354 
 OCA  HN ES   1    6 1 34.19                             130     0.3 7  161 354 
 OCA  HZ I         6 1 36.27        17.6 0.26            132            161 354 
 ZAR  HZ EP   2    6 1 15.75                             123     0.2 4  203 293 
 ZAR  HN ES   3    6 1 41.15                             123     0.2 2  203 293 
 NOR  SZ EP        6 1 19.14                             119     0.4 8  233 234 
 NOR  SN ES   2    6 1 46.54                             119    -0.1 4  233 234 
 CHI  HZ EP   1    6 1 20.99                             118     0.3 6  247 195 
 CHI  HN ES   1    6 1 50.03                             118    -0.1 6  247 195 
 CHI  HZ I         6 1 59.66         4.2 0.28            118            247 195 
 SJC  HZ EP   2    6 1 37.08                             106    -1.5 3  409 327 
