 2016  823 0310 12.4 L   6.836 -73.188140.1  RSN 13 0.5 1.8LRSN                1
 GAP=130        1.11       3.5     4.6  6.4 -0.5295E+01  0.5584E+01  0.4069E+01E
 Epicentro: ZAPATOCA - SANTANDER                                               3
 ACTION:UPD 16-10-29 15:38 OP:rebc STATUS:               ID:20160823031012 L   I
 OLDACT:UP  16-08-23 16:31 OP:ak   STATUS:               ID:20160823030734     3
 OLDACT:REG 16-08-23 14:38 OP:ak   STATUS:               ID:20160823030734     3
 2016-08-23-0308-00M.COL___374                                                 6
 STAT SP IPHASW D HRMM SECON CODA AMPLIT PERI AZIMU VELO AIN AR TRES W  DIS CAZ7
 BAR2 EZ IP     C  310 31.39                             169   -0.0710 27.0 179 
 BAR2 EZ ES        310 46.37                             169    0.0710 27.0 179 
 BAR2 EZ I         310 47.62        14.7 0.24                          27.0 179 
 BRR  HZ IP     C  310 33.19                             154    0.5710 65.2 297 
 BRR  HN ES        310 49.25                             154    0.8610 65.2 297 
 BRR  HZ I         310 54.87         7.5 0.22                          65.2 297 
 PAM  EZ EP        310 34.36                             150    0.3210 77.5  44 
 PAM  EN ES        310 50.97                             150    0.0610 77.5  44 
 PAM  EZ I         310 53.52        12.7 0.30                          77.5  44 
 RUS  HZ EP   2    310 35.89                             141   -0.06 5  105 174 
 RUS  HN ES        310 53.85                             141   -0.4610  105 174 
 RUS  HZ I         311  3.25         3.1 0.24                           105 174 
 PTB  HZ EP   2    310 37.74                             131   -0.85 5  144 257 
 PTB  HN ES        310 58.67                             131   -0.34 9  144 257 
 OCA  HZ EP   2    310 39.72                             129   -0.15 5  156 355 
 OCA  HN ES        311  0.51                             129   -0.77 9  156 355 
 OCA  HZ I         311  4.56        12.9 0.28                           156 355 
 SPBC HZ EP   2    310 40.52                             128   -0.00 5  164 217 
 SPBC HN ES        311  1.68                             128   -0.76 9  164 217 
 SPBC HZ I         311  4.94         9.3 0.22                           164 217 
 ZAR  HZ EP   9    310 45.92                             122    2.02 0  198 292 
 ZAR  HE ES        311 10.52                             121    0.04 9  198 292 
 ZAR  HZ I         311 15.23         8.4 0.28                           198 292 
 NOR  HZ EP        310 47.64                             117   -0.04 8  233 233 
 NOR  HN ES        311 14.57                             117   -0.62 8  233 233 
 NOR  HZ I         311 19.52         4.7 0.27                           233 233 
 CHI  HZ EP   2    310 49.86                             116   -0.25 4  251 194 
 CHI  HN ES        311 20.26                             116    0.75 8  251 194 
 GUY2CHZ EP   2    310 56.60                             111    0.99 4  300 234 
 GUY2CHN ES        311 30.24                             111    0.94 7  300 234 
 GUY2CHZ I         311 37.76         2.7 0.34                           300 234 
 PRA  HZ EP   2    311  6.17                             105    0.27 3  393 209 
 PRA  HE ES        311 47.51                             105   -0.10 6  393 209 
 PRA  HZ I         311 53.92         2.1 0.30                           393 209 
 SJC  HZ EP   1    311  6.44                             105   -0.67 4  403 327 
 SJC  HN ES   4    311 47.11                             105   -2.65 0  403 327 
                                                                                
