 2013  123 0208  6.1 L   6.714 -73.292145.4  RSN  4 0.3 1.5LRSN                1
 GAP=213        0.69       5.3     5.6  6.1  0.1598E+02  0.1528E+01  0.7402E+01E
 Epicentro: GALAN - SANTANDER                                                  3
 ACTION:UPD 13-02-15 09:16 OP:ep   STATUS:               ID:20130123020806 L   I
 2013-01-23-0158-40M.COL___183                                                 6
 STAT SP IPHASW D HRMM SECON CODA AMPLIT PERI AZIMU VELO AIN AR TRES W  DIS CAZ7
 BRR  HZ EP        2 8 26.63                             155   -0.1810 63.6 313 
 BRR  HN ES        2 8 43.28                             155    0.3310 63.6 313 
 RUS  HZ EP        2 8 29.15                             146   -0.2010 93.7 166 
 RUS  HE ES        2 8 47.37                             146   -0.1010 93.7 166 
 RUS  HE I         2 8 49.47         4.2 0.50            145           93.7 166 
 PTB  HZ EP        2 8 31.40                             136   -0.1010  130 262 
 PTB  HE ES        2 8 51.15                             136   -0.1510  130 262 
 PTB  HN I         2 8 53.78         4.6 0.24            136            130 262 
 CHI  HZ EP        2 8 42.97                             118    0.58 8  236 192 
                                                                                
