 2015 1023 0950  8.5 L   6.817 -73.161142.7  RSN  7 0.3 1.6LRSN                1
 GAP=134        0.72       2.4     4.0  4.7  0.1842E+01  0.5316E+01  0.2824E+00E
 Epicentro: LOS SANTOS - SANTANDER                                             3
 ACTION:UPD 15-12-22 20:42 OP:cam  STATUS:               ID:20151023095008 L   I
 OLDACT:REG 15-10-23 13:48 OP:mh   STATUS:               ID:20151023094746     3
 2015-10-23-0947-46M.COL___307                                                 6
 STAT SP IPHASW D HRMM SECON CODA AMPLIT PERI AZIMU VELO AIN AR TRES W  DIS CAZ7
 BAR2 EZ EP        950 27.96                             170    0.1110 25.0 185 
 BAR2 EZ ES        950 42.90                             170    0.0010 25.0 185 
 BAR2 EZ I         950 44.30         7.7 0.30            167           25.0 185 
 BRR  HZ EP        950 29.50                             153    0.2710 68.8 298 
 BRR  HN ES   1    950 45.42                             153    0.05 7 68.8 298 
 BRR  HZ I         950 58.71        11.6 0.28            149           68.8 298 
 PAM  EZ EP        950 30.94                             150    0.5210 77.0  41 
 PAM  EN ES        950 46.95                             150   -0.5310 77.0  41 
 PAM  EZ I         950 50.10        10.6 0.52            158           77.0  41 
 RUS  HZ EP        950 32.03                             143   -0.1210  103 175 
 RUS  HN ES        950 50.78                             143    0.2310  103 175 
 RUS  HZ I         950 51.56         2.8 0.26            148            103 175 
 ZAR  HN ES        951  5.54                             122    0.01 9  202 292 
 ZAR  HZ I         951 12.92         3.6 0.32            123            202 292 
 SML  HZ EP        950 44.46                             117   -0.28 8  241 335 
 SML  HN ES        951 12.95                             117   -0.03 8  241 335 
 SML  HZ I         951 15.72         6.4 0.10            120            241 335 
 CHI  HZ EP        950 46.12                             116   -0.11 8  250 195 
 CHI  HN ES        951 15.20                             116   -0.42 8  250 195 
 CHI  HZ I         951 18.41         2.3 0.46            121            250 195 
                                                                                
