 2017  123 0256 30.2 L   6.756 -73.140134.0  RSN 13 0.5 2.1LRSN                1
 GAP=139        1.12       3.7     4.1  5.9  0.4683E+00  0.1021E+02  0.4258E+01E
 Epicentro: LOS SANTOS - SANTANDER                                             3
 ACTION:UPD 17-05-22 16:02 OP:jn   STATUS:               ID:20170123025630 L   I
 OLDACT:DUP 17-01-23 14:53 OP:lv   STATUS:               ID:20170123024744d    3
 2017-01-23-0248-00M.COL___352                                                 6
 STAT SP IPHASW D HRMM SECON CODA AMPLIT PERI AZIMU VELO AIN AR TRES W  DIS CAZ7
 BAR2 EZ IP     C  256 48.12                             172   -0.2510 18.7 194 
 BAR2 EZ ES        257  2.87                             172    0.3710 18.7 194 
 BAR2 EZ I         257  4.24        36.4 0.24            169           18.7 194 
 BRR  HZ IP     C  256 50.04                             149   -0.2710 74.2 302 
 BRR  HN ES        257  6.84                             149    0.8710 74.2 302 
 BRR  HZ I         257 10.92        22.8 0.14            150           74.2 302 
 PAM  EZ EP        256 51.11                             148   -0.3310 80.8  37 
 PAM  EN ES        257  7.73                             148   -0.2510 80.8  37 
 PAM  EZ I         257  8.69        24.6 0.35            153           80.8  37 
 RUS  HZ EP        256 52.14                             143   -0.3510 95.7 176 
 RUS  HN ES        257 10.01                             143    0.1710 95.7 176 
 RUS  HZ I         257 11.78        17.5 0.31            143           95.7 176 
 PTB  HZ EP   4    256 54.80                             129   -1.45 0  147 261 
 PTB  HN ES        257 15.73                             129   -0.81 9  147 261 
 PTB  HZ I         257 18.19        27.2 0.20            130            147 261 
 ZAR  HZ EP        257  2.81                             119    0.60 8  206 293 
 ZAR  HN ES        257 27.34                             119    0.20 8  206 293 
 ZAR  HZ I         257 34.04        13.3 0.32            121            206 293 
 NOR  HZ EP        257  4.75                             116   -0.31 8  232 236 
 NOR  HN ES        257 31.58                             116   -0.64 8  232 236 
 NOR  HZ I         257 34.12        11.5 0.16            117            232 236 
 CHI  HZ EP        257  6.58                             115   -0.23 8  244 196 
 CHI  HN ES        257 35.96                             115    0.62 8  244 196 
 CHI  HZ I         257 42.43         3.1 0.30            116            244 196 
 URE  HZ EP        257 11.80                             111    0.76 7  286 293 
 URE  HN ES   4    257 39.60                             111   -3.26 0  286 293 
 URE  HZ I         257 42.22         9.9 0.15            113            286 293 
 ELA  HN ES   4    257 50.25                             108   -1.99 0  326 230 
 ELA  HZ I         257 59.80         6.9 0.68            110            326 230 
 CBOC HZ EP        257 16.84                             108    0.25 7  333 253 
 CBOC HN ES        257 52.69                             108   -0.05 7  333 253 
 CBOC HZ I         257 55.92         3.5 0.31            109            333 253 
 DBB  EZ EP        257 17.27                             107   -0.11 7  340 275 
 DBB  EN ES        257 53.39                             107   -0.76 7  340 275 
 DBB  EZ I         257 54.69         4.5 0.24            109            340 275 
 ORTC HZ EP        257 23.93                             105    0.57 6  392 217 
 ORTC HN ES        258  5.43                             105    0.64 6  392 217 
 ORTC HZ I         258 10.24         2.9 0.40            106            392 217 
                                                                                
