 2015  423 0229 19.9 L   6.799 -73.157144.9  RSN 10 0.4 1.6LRSN                1
 GAP=135        0.91       3.4     3.7  5.4 -0.2047E+01  0.7312E+01 -0.3107E+01E
 Epicentro: LOS SANTOS - SANTANDER                                             3
 ACTION:UPD 15-06-03 16:56 OP:cam  STATUS:               ID:20150423022919 L   I
 OLDACT:REG 15-04-23 12:18 OP:ak   STATUS:               ID:20150423022746     3
 2015-04-23-0227-46M.COL___280                                                 6
 STAT SP IPHASW D HRMM SECON CODA AMPLIT PERI AZIMU VELO AIN AR TRES W  DIS CAZ7
 BAR2 EZ EP        229 39.42                             171   -0.0210 23.0 187 
 BAR2 EZ ES        229 54.29                             171   -0.3710 23.0 187 
 BAR2 EZ I         229 57.12         7.4 0.25            170           23.0 187 
 BRR  HZ IP     C  229 41.55                             153    0.6310 70.1 299 
 BRR  HE ES        229 57.88                             153    0.5910 70.1 299 
 BRR  HZ I         230  5.42         5.6 0.18            148           70.1 299 
 PAM  SZ IP        229 42.45                             150    0.3510 78.3  40 
 PAM  SE ES        229 59.16                             150   -0.2410 78.3  40 
 PAM  SZ I         230  3.93         3.4 0.18            154           78.3  40 
 RUS  HZ EP        229 43.84                             144    0.2610  101 175 
 RUS  HE ES        230  1.76                             144   -0.2810  101 175 
 RUS  HZ I         230  2.89         4.8 0.40            150            101 175 
 PTB  HZ EP        229 46.32                             132   -0.38 9  146 259 
 PTB  HN ES        230  7.83                             132    0.24 9  146 259 
 PTB  HZ I         230 12.93         6.8 0.40            132            146 259 
 ZAR  HZ EP   2    229 53.06                             122    0.87 4  203 292 
 ZAR  HE ES   2    230 17.61                             122    0.25 4  203 292 
 ZAR  HZ I         230 24.89         5.5 0.25            123            203 292 
 NOR  HZ EP   1    229 55.82                             118    0.34 6  234 234 
 NOR  HN ES        230 23.02                             118   -0.19 8  234 234 
 NOR  HZ I         230 28.59         3.5 0.48            121            234 234 
 SML  HZ EP        229 56.05                             117   -0.41 8  243 336 
 SML  HN ES        230 24.50                             117   -0.45 8  243 336 
 SML  HZ I         230 27.70         7.8 0.10            119            243 336 
 HEL  HZ EP   2    230  0.26                             115    0.31 4  271 256 
 HEL  HE ES        230 30.66                             115   -0.51 8  271 256 
 HEL  HZ I         230 37.85         2.7 0.34            117            271 256 
 MON  HZ EP        230  8.30                             108   -0.48 6  353 309 
 MON  HN ES   4    230 45.11                             108   -1.79 0  353 309 
 MON  HZ I         231  1.10         2.2 0.42            110            353 309 
                                                                                
