 2010  823 0735 16.3 L   5.867 -73.751113.7  RSN  9 0.3 1.7LRSN                1
 GAP= 91        0.59       2.4     4.1  6.5 -0.2869E+01  0.1470E+02 -0.2957E+01E
 Epicentro: JESUS MARIA - SANTANDER                                            3
 ACTION:UP  10-09-07 10:57 OP:vdl  STATUS:               ID:20100823073516 L   I
 2010-08-23-0732-11S.COL___120                                                 6
 STAT SP IPHASW D HRMM SECON CODA AMPLIT PERI AZIMU VELO SNR AR TRES W  DIS CAZ7
 RUS  HZ EP   1    735 34.96                             144     0.0 8   74  88 
 RUS  HN ES   1    735 49.50                             144    -0.1 8   74  88 
 RUS  HZ I         735 53.88         7.5 0.52                            74  88 
 BAR2 SZ IP        735 37.16                             134     0.310  102  38 
 BAR2 SZ ES   1    735 52.78                             134    -0.1 7  102  38 
 CHI  HZ EP   1    735 39.93                             125    -0.4 7  137 179 
 CHI  HN ES   1    735 59.20                             125     0.2 7  137 179 
 CHI  HZ I         736  3.40         4.3 0.25                           137 179 
 BRR  HZ IP     D  735 39.82                             125     0.0 9  137   2 
 BRR  HZ I         735 40.21        14.8 0.11                           137   2 
 BRR  HN ES   1    735 57.97                             125    -0.2 7  137   2 
 GIR2 SZ EP   2    735 41.20                             123     0.2 5  148  25 
 HEL  HZ EP   1    735 47.22                             115     0.3 6  200 280 
 HEL  HE ES   2    736 10.48                             115    -0.3 4  200 280 
 HEL  HZ I         736 15.31         5.7 0.38                           200 280 
 GUE  SZ IP        735 50.56                             110    -0.3 8  236  23 
 GUE  SZ I         735 50.77         3.0 0.10                           236  23 
 OCA  SZ EP   2    735 54.61                             107     0.4 4  267  10 
 OCA  SZ I         736 33.74         5.0 0.54                           267  10 
 PRA  HZ EP   2    735 53.70                             107    -0.7 4  269 208 
 PRA  HN ES   2    736 24.43                             107     0.4 4  269 208 
 PRA  HZ I         736 29.05         4.3 0.27                           269 208 
                                                                                
