 2012  123 0350  6.1 L   6.729 -73.098146.8  RSN  6 0.2 1.6LRSN                1
 GAP=146        0.47       2.8     4.0  4.7 -0.1650E+01  0.1060E+01 -0.1792E+01E
 Epicentro: JORDAN - SANTANDER                                                 3
 ACTION:UP  12-02-03 08:19 OP:REBC STATUS:               ID:20120123035006 L   I
 2012-01-23-0350-00M.COL___186                                                 6
 STAT SP IPHASW D HRMM SECON CODA AMPLIT PERI AZIMU VELO SNR AR TRES W  DIS CAZ7
 BAR2 SZ ES   2    350 40.69                             173    -0.4 5   18 211 
 BAR2 SZ I         350 44.80         6.6 0.81                            18 211 
 BRR  HZ EP        350 27.91                             150     0.110   80 302 
 BRR  HE ES   1    350 44.91                             150     0.1 7   80 302 
 BRR  HZ I         350 49.05         7.2 0.07                            80 302 
 PAM  SZ EP        350 28.83                             150     0.210   81  33 
 PAM  SN ES   1    350 46.06                             150    -0.1 7   81  33 
 RUS  HZ EP   1    350 29.15                             146    -0.2 7   93 179 
 RUS  HN ES   1    350 47.75                             146     0.2 7   93 179 
 OCA  SZ EP   1    350 35.03                             128    -0.3 7  169 352 
 OCA  SZ ES   2    350 58.13                             128     0.1 5  169 352 
 OCA  SZ I         351  1.27         6.6 0.31                           169 352 
 NOR  SN ES   2    351  9.74                             119    -0.1 4  235 237 
                                                                                
