 2011  923 0332 55.0 L   6.798 -73.081151.1  RSN  5 0.2 1.3LRSN                1
 GAP=202        0.45       5.2     9.7  6.7  0.3532E+02 -0.3487E+02 -0.1030E+02E
 Epicentro: LOS SANTOS - SANTANDER                                             3
 ACTION:UPD 12-07-13 15:59 OP:ep   STATUS:               ID:20110923033255 L   I
 2011-09-23-0320-00M.COL___167                                                 6
 STAT SP IPHASW D HRMM SECON CODA AMPLIT PERI AZIMU VELO AIN AR TRES W  DIS CAZ7
 BTL  SZ EP   1    333 15.44                             170    0.12 7 24.6 303 
 BAR2 SZ EP   2    333 14.65                             170   -0.68 5 25.4 206 
 BAR2 SZ I         333 15.61         3.0 0.20                          25.4 206 
 GIR2 SZ EP   1    333 15.63                             167    0.24 7 33.5 338 
 GIR2 SZ ES   2    333 31.13                             167   -0.14 5 33.5 338 
 BRR  HZ EP   1    333 17.07                             151   -0.05 7 77.7 296 
 BRR  HE ES        333 34.34                             151   -0.0110 77.7 296 
 BRR  HZ I         333 39.15         5.5 0.13                          77.7 296 
 RUS  HZ EP   1    333 19.27                             145    0.01 7  100 180 
 RUS  HE ES   1    333 38.24                             145    0.06 7  100 180 
                                                                                
