 2012  623 0555 34.3 L   6.712 -73.205154.0  RSN  5 0.3 1.2LRSN                1
 GAP=222        0.37       5.4     6.0  6.7  0.1509E+02 -0.9401E+01 -0.7765E+01E
 Epicentro: VILLANUEVA - SANTANDER                                             3
 ACTION:UPD 12-08-06 17:51 OP:ep   STATUS:               ID:20120623055534 L   I
 2012-06-23-0550-00M.COL___199                                                 6
 STAT SP IPHASW D HRMM SECON CODA AMPLIT PERI AZIMU VELO AIN AR TRES W  DIS CAZ7
 BAR2 SZ EP   2    555 54.59                             175   -0.19 5 13.5 170 
 BAR2 SZ I         556 10.91         4.4 0.24                          13.5 170 
 BRR  HZ EP        555 56.44                             154    0.0910 71.1 308 
 BRR  HZ I         555 56.63         4.1 0.32                          71.1 308 
 BRR  HN ES   1    556 13.52                             154   -0.02 7 71.1 308 
 RUS  HN ES   2    556 16.92                             148   -0.05 5 91.6 172 
 PTB  HZ EP   3    556  1.39                             135    0.12 2  140 262 
 PTB  HN ES   2    556 22.41                             135    0.12 5  140 262 
 PTB  HZ I         556 24.37         1.3 0.38                           140 262 
 ZAR  HN ES   3    556 31.63                             124   -1.05 2  202 295 
                                                                                
