 2013 1223 0256 58.8 L   6.821 -73.132144.1  RSN 12 0.5 2.1LRSN                1
 GAP=137        1.03       3.1     4.5  7.5 -0.3673E+01  0.9808E+01  0.1668E+01E
 Epicentro: LOS SANTOS - SANTANDER                                             3
 ACTION:UPD 14-01-13 10:20 OP:ep   STATUS:               ID:20131223025658 L   I
 OLDACT:UP  13-12-23 09:27 OP:mh   STATUS:               ID:20131223025000     3
 OLDACT:REG 13-12-23 08:04 OP:mh   STATUS:               ID:20131223025000     3
 2013-12-23-0250-00M.COL___285                                                 6
 STAT SP IPHASW D HRMM SECON CODA AMPLIT PERI AZIMU VELO AIN AR TRES W  DIS CAZ7
 BAR2 SZ EP        257 18.55                             169    0.2210 25.9 192 
 BAR2 SZ I         257 35.19        27.4 0.23            169           25.9 192 
 PAM  SZ EP   1    257 21.37                             151    0.65 7 74.6  40 
 PAM  SN ES        257 38.33                             151    0.5410 74.6  40 
 PAM  SZ I         257 39.18        16.0 0.19            154           74.6  40 
 RUS  HZ EP        257 22.49                             143   -0.1110  103 177 
 RUS  HN ES   1    257 40.82                             143   -0.31 7  103 177 
 RUS  HZ I         257 42.36        12.9 0.27            146            103 177 
 PTB  HZ EP        257 25.15                             131   -0.71 9  150 258 
 PTB  HN ES        257 46.66                             131   -0.26 9  150 258 
 PTB  HZ I         257 53.80        16.8 0.23            132            150 258 
 OCA  HZ EP        257 26.59                             130   -0.24 9  158 353 
 OCA  HN ES        257 48.32                             130   -0.34 9  158 353 
 OCA  HZ I         257 52.96        16.5 0.27            131            158 353 
 SPBC HZ EP        257 27.51                             128    0.03 9  166 219 
 SPBC HN ES        257 49.76                             128   -0.06 9  166 219 
 SPBC HZ I         257 52.50        28.5 0.24            129            166 219 
 ZAR  HZ EP   1    257 31.56                             122    0.32 6  205 291 
 ZAR  HN ES   2    257 56.77                             122    0.26 4  205 291 
 ZAR  HZ I         258  3.36        24.5 0.24            123            205 291 
 NOR  HZ EP   1    257 34.52                             118   -0.24 6  237 234 
 NOR  HN ES        258  2.72                             118   -0.05 8  237 234 
 NOR  HZ I         258  7.65        12.0 0.18            119            237 234 
 SML  HZ EP   1    257 34.98                             117   -0.24 6  242 335 
 SML  HN ES   1    258  2.93                             117   -0.66 6  242 335 
 SML  HZ I         258 10.48        37.6 0.05            119            242 335 
 CHI  HZ EP        257 36.77                             116    0.03 8  251 195 
 CHI  HN ES        258  5.68                             116   -0.62 8  251 195 
 CHI  HZ I         258 13.72         3.2 0.22            118            251 195 
 ROSC BZ EP   4    257 38.72                             116    1.54 0  256 211 
 HEL  HZ EP   4    257 41.10                             114    1.90 0  274 255 
 HEL  HN ES        258 11.71                             114    1.03 8  274 255 
 HEL  HZ I         258 18.69         5.4 0.21            115            274 255 
 GUY2CHZ EP        257 43.74                             112    1.07 7  304 235 
 GUY2CHN ES   4    258 19.10                             112    2.25 0  304 235 
                                                                                
