 2015  723 0621 34.5 L   6.779 -73.116147.7  RSN 14 0.4 2.0LRSN                1
 GAP=186        0.85       2.2     3.7  5.0 -0.1135E+01  0.7834E+01 -0.3902E-01E
 Epicentro: LOS SANTOS - SANTANDER                                             3
 ACTION:UPD 15-09-08 21:50 OP:cam  STATUS:               ID:20150723062134 L   I
 OLDACT:REG 15-07-23 14:29 OP:ak   STATUS:               ID:20150723061639     3
 2015-07-23-0616-39M.COL___334                                                 6
 STAT SP IPHASW D HRMM SECON CODA AMPLIT PERI AZIMU VELO AIN AR TRES W  DIS CAZ7
 BAR2 EZ EP        621 54.58                             171    0.3010 21.9 199 
 BAR2 EZ ES        622  9.88                             171    0.1310 21.9 199 
 BAR2 EZ I         622 12.88         9.6 0.31            168           21.9 199 
 RUS  HZ EP        621 57.87                             145   -0.3410 98.1 178 
 RUS  HN ES        622 16.59                             145   -0.1610 98.1 178 
 RUS  HZ I         622 18.78         5.3 0.19            148           98.1 178 
 OCA  HZ EP        622  3.22                             130    0.05 9  163 352 
 OCA  HN ES        622 25.56                             130   -0.00 9  163 352 
 OCA  HZ I         622 29.70        26.9 0.15            132            163 352 
 ZAR  HZ EP        622  7.09                             122   -0.33 8  208 292 
 ZAR  HN ES        622 33.59                             122    0.45 8  208 292 
 ZAR  HZ I         622 39.10         9.8 0.06            123            208 292 
 NOR  HZ EP   1    622 10.45                             119    0.02 6  236 235 
 NOR  HE ES        622 38.25                             119   -0.25 8  236 235 
 NOR  HZ I         622 42.30        11.3 0.16            120            236 235 
 CHI  HZ EP        622 12.00                             118   -0.11 8  247 196 
 CHI  HN ES        622 41.36                             118   -0.12 8  247 196 
 SML  HZ EP        622 11.74                             117    0.18 8  247 335 
 SML  HN ES        622 39.61                             117   -0.89 8  247 335 
 SML  HZ I         622 44.96        16.4 0.07            120            247 335 
 ROSC BZ EP   1    622 13.45                             117    0.80 6  252 212 
 ROSC BN ES        622 42.70                             117    0.27 8  252 212 
 ROSC BZ I         622 52.36         8.3 0.46            119            252 212 
 HEL  HZ EP        622 15.74                             115    0.69 8  275 256 
 HEL  HN ES        622 47.60                             115    0.89 8  275 256 
 HEL  HZ I         622 54.37         4.4 0.30            116            275 256 
 GUY2CHZ EP        622 18.48                             113    0.18 7  303 235 
 GUY2CHN ES        622 51.89                             113   -0.61 7  303 235 
 GUY2CHZ I         622 59.54         5.4 0.32                           303 235 
 CBOC HZ EP        622 21.98                             110    0.26 7  336 253 
 CBOC HN ES        622 58.30                             110   -0.29 7  336 253 
 CBOC HZ I         623  5.65         1.6 0.35            112            336 253 
 TOL  SZ EP        622 23.12                             110    0.26 7  344 225 
 TOL  SN ES        623  0.36                             110   -0.26 7  344 225 
 TOL  SZ I         623  6.28         2.9 0.28            111            344 225 
 ORTC HZ EP        622 28.46                             107    0.02 6  395 217 
 ORTC HN ES        623 10.41                             107   -0.15 6  395 217 
 ORTC HZ I         623 17.57         2.1 0.35            109            395 217 
 PAL  HZ EP        622 29.60                             106   -0.26 6  407 240 
 PAL  HN ES        623 12.17                             106   -0.91 6  407 240 
 PAL  HZ I         623 17.72         1.6 0.14            108            407 240 
 SJC  HZ EP   4    622 28.65                             106   -1.86 0  413 327 
 SJC  HN ES   4    623  7.82                             106   -6.42 0  413 327 
                                                                                
