 2010  623 0400 50.9 L   6.813 -73.076135.9  RSN 10 0.5 2.2LRSN                1
 GAP=163        1.02       3.8     7.1  7.3 -0.1232E+02  0.6325E+01 -0.5715E-01E
 Epicentro: LOS SANTOS - SANTANDER                                             3
 ACTION:UP  10-08-24 10:12 OP:vdl  STATUS:               ID:20100623040050 L   I
 2010-06-23-0357-28S.COL___118                                                 6
 STAT SP IPHASW D HRMM SECON CODA AMPLIT PERI AZIMU VELO SNR AR TRES W  DIS CAZ7
 BAR2 SZ IP        4 1  9.56                             168     0.110   27 206 
 BAR2 SZ ES   1    4 1 23.63                             168    -0.3 7   27 206 
 BRR  HZ IP        4 1 11.40                             148     0.010   78 295 
 BRR  HZ I         4 1 11.78        58.0 0.10                            78 295 
 BRR  HN ES   1    4 1 28.07                             148     0.7 7   78 295 
 RUS  HZ EP        4 1 13.63                             141    -0.210  102 180 
 RUS  HE ES   1    4 1 31.42                             141    -0.2 7  102 180 
 BRI  SZ EP        4 1 13.11                             140    -0.510  105  17 
 BRI  SZ ES   2    4 1 30.74                             140    -0.5 5  105  17 
 GUE  SZ EP        4 1 14.55                             138     0.110  114   8 
 GRA  SZ IP        4 1 15.47                             136     0.510  122  14 
 GRA  SZ ES   1    4 1 34.65                             136     0.9 7  122  14 
 OCA  SZ EP        4 1 18.19                             127    -0.3 9  160 350 
 OCA  SZ ES   1    4 1 38.93                             127    -1.0 7  160 350 
 OCA  SZ I         4 1 43.01        17.3 0.29                           160 350 
 ROSC BZ EP        4 1 29.63                             114     0.5 8  258 212 
 ROSC BE ES   1    4 1 58.84                             114     0.0 6  258 212 
 ROSC BZ I         4 2  6.08         7.0 0.71                           258 212 
 HEL  HZ EP   1    4 1 31.70                             112     0.2 6  280 256 
 HEL  HE ES   3    4 2  1.24                             112    -2.0 2  280 256 
 HEL  HZ I         4 2  9.40         6.9 0.38                           280 256 
 GUY  HZ EP   2    4 1 35.05                             110     0.1 4  308 235 
 GUY  HN ES   1    4 2  8.73                             110    -0.5 5  308 235 
                                                                                
