 2012  323 0754  5.9 L   6.771 -73.143144.7  RSN  7 0.4 1.5LRSN                1
 GAP=138        0.76       5.9     5.5  9.4  0.4965E+00  0.4309E+01  0.5453E+01E
 ACTION:UP  12-03-31 23:22 OP:EP   STATUS:               ID:20120323075405 L   I
 2012-03-23-0750-00M.COL___198                                                 6
 STAT SP IPHASW D HRMM SECON CODA AMPLIT PERI AZIMU VELO SNR AR TRES W  DIS CAZ7
 BAR2 SZ EP        754 25.41                             171     0.110   20 192 
 BAR2 SZ ES   2    754 39.92                             171    -0.6 5   20 192 
 BAR2 SZ I         754 41.17         9.3 0.28                            20 192 
 BRR  HZ EP        754 27.07                             152     0.010   73 301 
 BRR  HE ES   2    754 44.32                             152     0.8 5   73 301 
 BRR  HZ I         754 45.14         6.5 0.11                            73 301 
 PAM  SZ EP   1    754 28.04                             150    -0.1 7   80  38 
 PAM  SE ES   2    754 44.90                             150    -0.6 5   80  38 
 RUS  HZ EP        754 29.38                             144     0.110   97 176 
 RUS  HE ES   2    754 48.20                             144     0.6 5   97 176 
 RUS  HZ I         754 49.51         4.2 0.45                            97 176 
 PTB  HZ EP   2    754 32.45                             132    -0.3 5  147 260 
 PTB  HN ES   2    754 52.99                             132    -0.7 5  147 260 
 PTB  HZ I         754 54.41         2.9 0.39                           147 260 
 ZAR  HN ES   2    755  4.26                             122     0.5 4  206 293 
 ZAR  HZ I         755 10.11         3.1 0.34                           206 293 
 NOR  SN ES   2    755  8.64                             118    -0.4 4  233 235 
                                                                                
