 2016  623 0815  4.3 L   6.791 -73.131150.0  RSN  7 0.4 1.3LRSN                1
 GAP=139        1.04       5.7     4.9  7.4 -0.6690E+01  0.6019E+01  0.6543E+01E
 Epicentro: LOS SANTOS - SANTANDER                                             3
 ACTION:UPD 16-07-21 22:22 OP:rebc STATUS:               ID:20160623081504 L   I
 OLDACT:DUP 16-06-23 16:35 OP:ak   STATUS:               ID:20160623080740d    3
 OLDACT:REG 16-06-23 13:01 OP:ak   STATUS:               ID:20160623080739     3
 2016-06-23-0807-39M.COL___331                                                 6
 STAT SP IPHASW D HRMM SECON CODA AMPLIT PERI AZIMU VELO AIN AR TRES W  DIS CAZ7
 BAR2 EZ EP        815 24.59                             171    0.1510 22.7 194 
 BAR2 EZ ES        815 39.94                             171   -0.2010 22.7 194 
 BAR2 EZ I         815 42.35         4.3 0.40                          22.7 194 
 BRR  HZ EP        815 26.41                             152    0.3910 73.1 299 
 BRR  HN ES        815 43.73                             152    0.7710 73.1 299 
 PAM  EZ EP        815 27.19                             151    0.2310 77.1  38 
 PAM  EN ES        815 44.07                             151   -0.5610 77.1  38 
 PAM  EZ I         815 46.98         2.0 0.42                          77.1  38 
 RUS  HZ EP   2    815 27.82                             145   -0.58 5 99.5 177 
 PTB  HZ EP        815 31.54                             132   -0.21 9  149 259 
 PTB  HN ES        815 52.59                             132   -0.57 9  149 259 
 PTB  HZ I         815 57.50         2.3 0.30                           149 259 
 SPBC HZ EP        815 33.59                             130    0.43 9  163 220 
 SPBC HN ES        815 55.67                             130    0.00 9  163 220 
 SPBC HZ I         815 57.29         3.1 0.08                           163 220 
 ZAR  HZ EP   2    815 36.34                             123   -0.88 4  206 292 
 ZAR  HN ES        816  2.67                             123   -0.23 8  206 292 
 ZAR  HZ I         816  8.75         1.6 0.60                           206 292 
                                                                                
