 2015  323 0633  6.2 L   6.688 -73.164143.2  RSN  6 0.4 1.3LRSN                1
 GAP=227        1.11       6.5     7.6 11.8  0.5577E+01  0.1925E+02 -0.4254E+01E
 Epicentro: VILLANUEVA - SANTANDER                                             3
 ACTION:UPD 15-04-30 16:28 OP:nd   STATUS:               ID:20150323063306 L   I
 OLDACT:DUP 15-03-23 15:54 OP:stll STATUS:               ID:20150323062749d    3
 OLDACT:REG 15-03-23 13:08 OP:stll STATUS:               ID:20150323062748     3
 2015-03-23-0627-48M.COL___275                                                 6
 STAT SP IPHASW D HRMM SECON CODA AMPLIT PERI AZIMU VELO AIN AR TRES W  DIS CAZ7
 BAR2 EZ EP        633 25.31                             175   -0.0110 10.8 191 
 BAR2 EZ ES        633 39.51                             175   -0.7410 10.8 191 
 BAR2 EZ I         633 43.05         4.1 0.18            146           10.8 191 
 BRR  HZ EP        633 27.21                             150   -0.1510 76.2 307 
 BRR  HZ I         633 27.59         7.2 0.26            134           76.2 307 
 BRR  HN ES        633 44.45                             150    0.5810 76.2 307 
 RUS  HN ES        633 47.06                             147    0.5610 88.4 174 
 RUS  HZ I         633 49.24         1.7 0.24            128           88.4 174 
 PAM  SZ I         633 28.54         6.8 0.22            167           88.5  35 
 PTB  HE ES        633 53.07                             132   -0.11 9  144 264 
 PTB  HZ I         634  0.69         2.5 0.34            116            144 264 
 SPBC HN ES        633 54.59                             130   -0.17 9  152 221 
                                                                                
