 2014  823 0703 32.9 L   6.795 -73.155142.2  RSN  7 0.3 1.4LRSN                1
 GAP=136        0.84       3.1     4.2  6.1 -0.3136E+01  0.1604E+01  0.1841E+01E
 Epicentro: LOS SANTOS - SANTANDER                                             3
 ACTION:UPD 14-09-15 21:52 OP:nd   STATUS:               ID:20140823070332 L   I
 OLDACT:REG 14-08-23 15:33 OP:stll STATUS:               ID:20140823065812     3
 2014-08-23-0658-12M.COL___257                                                 6
 STAT SP IPHASW D HRMM SECON CODA AMPLIT PERI AZIMU VELO AIN AR TRES W  DIS CAZ7
 BAR2 SZ EP        7 3 52.10                             171    0.0310 22.7 188 
 BAR2 SZ ES        7 4  6.94                             171   -0.1010 22.7 188 
 BAR2 SZ I         7 4  8.49         5.8 0.50            170           22.7 188 
 BRR  HZ EP        7 3 54.07                             152    0.4610 70.5 299 
 BRR  HZ I         7 3 54.38         4.2 0.46            148           70.5 299 
 BRR  HN ES        7 4 10.35                             152    0.5810 70.5 299 
 PAM  SZ EP        7 3 55.08                             150    0.3010 78.4  40 
 PAM  SZ I         7 3 55.26         6.2 0.26            151           78.4  40 
 PAM  SN ES        7 4 11.74                             150   -0.1310 78.4  40 
 RUS  HZ EP        7 3 56.19                             143   -0.0610  100 175 
 RUS  HZ I         7 3 56.78         2.2 0.18            145            100 175 
 RUS  HN ES        7 4 14.43                             143   -0.0510  100 175 
 PTB  HN ES        7 4 19.89                             131   -0.29 9  147 259 
 PTB  HZ I         7 4 26.04         3.9 0.32            130            147 259 
 OCA  HN ES        7 4 22.20                             129   -0.65 9  161 354 
 OCA  HZ I         7 4 27.45         3.6 0.34            128            161 354 
 SPBC HZ EP        7 4  0.91                             128   -0.10 9  162 219 
 SPBC HN ES        7 4 22.76                             128   -0.18 9  162 219 
 SPBC HZ I         7 4 25.66         3.9 0.16            128            162 219 
                                                                                
