 2011  323 0603 27.3 L   6.802 -73.154125.6  RSN  6 0.4 1.8LRSN                1
 GAP=170        1.00       4.4     8.0  9.8 -0.1791E+02  0.2549E+02 -0.1386E+01E
 Epicentro: LOS SANTOS - SANTANDER                                             3
 ACTION:UP  11-06-16 14:35 OP:jfem STATUS:               ID:20110323060327 L   I
 2011-03-23-0600-00M.COL___138                                                 6
 STAT SP IPHASW D HRMM SECON CODA AMPLIT PERI AZIMU VELO SNR AR TRES W  DIS CAZ7
 BAR2 SZ EP        6 3 44.50                             169     0.010   23 188 
 BAR2 SZ ES   1    6 3 58.04                             169     0.1 7   23 188 
 BAR2 SZ I         6 4  0.32        14.1 0.24                            23 188 
 GRA  SZ EP        6 3 50.07                             132    -0.810  126  18 
 GRA  SZ ES   1    6 4  9.20                             132     0.0 7  126  18 
 GRA  SZ I         6 4 10.94        13.0 0.40                           126  18 
 OCA  SZ EP   1    6 3 54.73                             125     0.6 7  160 353 
 OCA  SZ ES   1    6 4 15.36                             125     0.4 7  160 353 
 OCA  SZ I         6 4 19.53        10.0 0.38                           160 353 
 NOR  SN ES   1    6 4 28.71                             114    -0.2 6  234 234 
 CHI  HZ EP   1    6 4  4.19                             113     0.2 6  249 195 
 CHI  HN ES        6 4 32.80                             113     0.2 8  249 195 
 CHI  HZ I         6 4 35.08         3.0 0.70                           249 195 
 HEL  HZ EP   1    6 4  7.05                             111     0.6 6  271 256 
 HEL  HN ES   1    6 4 36.54                             111    -0.5 6  271 256 
 HEL  HZ I         6 4 43.79         4.2 0.32                           271 256 
                                                                                
