 2012  623 0946  5.5 L   6.768 -73.158141.9  RSN  6 0.4 1.8LRSN                1
 GAP=181        0.54       5.4     6.8  6.9  0.1925E+02 -0.3379E+01 -0.6662E+01E
 Epicentro: LOS SANTOS - SANTANDER                                             3
 ACTION:UPD 12-08-06 17:51 OP:ep   STATUS:               ID:20120623094605 L   I
 2012-06-23-0940-00M.COL___199                                                 6
 STAT SP IPHASW D HRMM SECON CODA AMPLIT PERI AZIMU VELO AIN AR TRES W  DIS CAZ7
 BAR2 SZ EP        946 24.60                             172    0.0510 19.6 188 
 BAR2 SZ ES   2    946 38.85                             172   -0.59 5 19.6 188 
 BAR2 SZ I         946 41.13        10.8 0.22                          19.6 188 
 BRR  HZ EP        946 26.44                             152    0.2210 71.8 301 
 BRR  HN ES   1    946 42.63                             152    0.21 7 71.8 301 
 BRR  HZ I         946 46.49        12.7 0.16                          71.8 301 
 RUS  HZ EP   2    946 28.48                             144   -0.10 5 97.2 175 
 RUS  HN ES   1    946 46.69                             144    0.08 7 97.2 175 
 PTB  HZ EP   2    946 31.37                             132   -0.56 5  146 260 
 PTB  HN ES   2    946 52.28                             132   -0.30 5  146 260 
 PTB  HZ I         946 55.69         3.8 0.20                           146 260 
 OCA  HN ES   3    946 54.55                             128   -1.33 2  164 354 
 OCA  HZ I         946 59.49         9.0 0.26                           164 354 
 ZAR  HZ EP   3    946 37.42                             121   -0.24 2  204 293 
 ZAR  HZ I         947  9.11         7.4 0.30                           204 293 
                                                                                
