 2012 1123 0518 23.8 L   6.819 -73.152141.3  RSN  4 0.4 1.0LRSN                1
 GAP=135        0.65       4.9     4.6  9.6 -0.3252E+01  0.1472E+02 -0.1277E+00E
 Epicentro: LOS SANTOS - SANTANDER                                             3
 ACTION:UPD 12-12-05 15:35 OP:}ep  STATUS:               ID:20121123051823 L   I
 2012-11-23-0515-50M.COL___206                                                 6
 STAT SP IPHASW D HRMM SECON CODA AMPLIT PERI AZIMU VELO AIN AR TRES W  DIS CAZ7
 PAM  SZ EP   1    518 45.85                             150    0.42 7 76.2  41 
 PAM  SE ES   1    519  2.03                             150   -0.30 7 76.2  41 
 PAM  SZ I         519  7.62         1.7 0.66                          76.2  41 
 RUS  HZ EP   1    518 47.17                             142   -0.06 7  103 176 
 RUS  HZ I         519  4.91         1.8 0.50                           103 176 
 RUS  HN ES   1    519  5.77                             142    0.22 7  103 176 
 PTB  HZ EP   1    518 49.94                             131   -0.40 7  148 258 
 PTB  HN ES   1    519 10.88                             131   -0.20 7  148 258 
 PTB  HZ I         519 16.99         1.9 0.38                           148 258 
 ZAR  HN ES   2    519 21.48                             121    0.75 4  203 292 
                                                                                
