 2010  223 0031 22.9 L   6.792 -73.051143.2  RSN  6 0.3 1.6LRSN                1
 GAP=208        0.61       5.7     8.7  7.8  0.2360E+01  0.6240E+01  0.2239E+02E
 Epicentro: LOS SANTOS - SANTANDER                                             3
 ACTION:UP  10-08-24 09:50 OP:vdl  STATUS:               ID:20100223003122 L   I
 2010-02-23-0028-45S.COL___094                                                 6
 STAT SP IPHASW D HRMM SECON CODA AMPLIT PERI AZIMU VELO SNR AR TRES W  DIS CAZ7
 BAR2 SZ EP        031 42.00                             169    -0.310   27 214 
 BAR2 SZ ES   2    031 57.29                             169    -0.1 5   27 214 
 GIR2 SZ EP   1    031 42.61                             165     0.2 7   35 334 
 GIR2 SZ ES   2    031 58.29                             165     0.7 5   35 334 
 BRR  HZ IP        031 44.35                             149     0.010   81 296 
 BRR  HZ I         031 44.74        14.7 0.10                            81 296 
 BRR  HE ES   2    032  0.73                             149    -0.4 5   81 296 
 RUS  BZ EP   1    031 46.36                             144     0.0 7   99 182 
 RUS  BZ I         032  5.90         4.3 0.21                            99 182 
 CHI  HZ EP   1    032  0.61                             116    -0.1 6  251 198 
 CHI  HZ I         032  4.34         1.2 0.59                           251 198 
 CHI  HE ES   2    032 30.48                             116     0.3 4  251 198 
 RREF BZ EP   2    032 10.65                             110     0.9 3  329 231 
 RREF BN ES   2    032 46.21                             110    -0.1 3  329 231 
 RREF BZ I         032 51.76         2.6 0.16                           329 231 
                                                                                
