 2013  323 0305  3.8 L   7.091 -73.497108.8  RSN 17 0.5 3.0LRSN 3.4WRSN        1
 SPEC AVERAGE  MO 14.1 ST 27.8 OM  2.5 f0 5.02 R0.3709 AL 2.51 WI 35.9 MW  3.4 3
 SPEC SD       MO  0.4 ST 39.4 OM  0.6 f00.775 R0.0561 AL      WI      MW  0.2 3
 GAP= 64        1.13       3.6     3.2  5.9  0.9128E+00  0.6364E+01  0.2774E+00E
 Epicentro: SAN VICENTE DE CHUCURI - SANTANDER                                 3
 SPEC PRA HH N MO 13.7 ST  2.7 OM  1.4 f0 4.22 R0.4313 AL 1.83 WI 41.3 MW  3.1 3
 SPEC PRA HH N T 3 641 K 0.050 GD  418 VS 5.20 DE 3.20 Q0750.0 QA 1.50 VS 5.20 3
 SPEC OCA HH N MO 14.8 ST106.2 OM  2.9 f0 6.14 R0.2964 AL 2.79 WI 28.8 MW  3.8 3
 SPEC OCA HH N T 3 540 K 0.050 GD  167 VS 5.20 DE 3.20 Q0750.0 QA 1.50 VS 5.20 3
 SPEC PAM SH E MO 13.9 ST 11.1 OM  2.1 f0 5.65 R0.3221 AL 1.94 WI 27.3 MW  3.2 3
 SPEC PAM SH E T 3 534 K 0.050 GD  142 VS 5.20 DE 3.20 Q0750.0 QA 1.50 VS 5.20 3
 SPEC CHI HH N MO 14.1 ST 12.1 OM  2.0 f0 4.93 R0.3692 AL 3.66 WI 48.6 MW  3.4 3
 SPEC CHI HH N T 3 6 6 K 0.050 GD  293 VS 5.20 DE 3.20 Q0750.0 QA 1.50 VS 5.20 3
 SPEC HEL HH N MO 14.1 ST  6.8 OM  2.0 f0 4.18 R0.4354 AL 2.35 WI 33.5 MW  3.3 3
 SPEC HEL HH N T 3 6 4 K 0.050 GD  268 VS 5.20 DE 3.20 Q0750.0 QA 1.50 VS 5.20 3
 ACTION:UPD 13-04-09 14:04 OP:ep   STATUS:               ID:20130323030503 L   I
 2013-03-23-0300-00M.COL___245                                                 6
 STAT SP IPHASW D HRMM SECON CODA AMPLIT PERI AZIMU VELO AIN AR TRES W  DIS CAZ7
 BRR  HZ IP     C  3 5 18.65                             167    0.0010 23.8 274 
 BRR  HE ES        3 5 30.58                             167    0.3410 23.8 274 
 BRR  HE I         3 5 31.97       448.2 0.24            159           23.8 274 
 GIR2 SZ EP        3 5 19.17                             162   -0.0210 33.6  92 
 BAR2 SZ EP        3 5 20.89                             147   -0.1310 65.2 148 
 BAR2 SZ ES        3 5 34.03                             147   -0.4310 65.2 148 
 BAR2 SZ I         3 5 35.22       801.3 0.22            139           65.2 148 
 PAM  SZ EP        3 5 23.51                             137    0.1010 92.3  73 
 PAM  SN ES        3 5 38.43                             137   -0.2910 92.3  73 
 PAM  SN I         3 5 41.06        90.4 0.16            132           92.3  73 
 PTB  HZ IP   4 C  3 5 24.33                             128   -1.15 0  122 240 
 OCA  HZ EP        3 5 26.37                             126    0.1010  128   9 
 OCA  HN ES        3 5 43.72                             126   -0.0810  128   9 
 RUS  HZ EP   4    3 5 27.04                             124   -0.85 0  140 161 
 RUS  HN ES   4    3 5 45.37                             124   -1.31 0  140 161 
 RUS  HN I         3 5 47.72        72.0 0.26            116            140 161 
 ZAR  HZ EP   1    3 5 29.26                             120    0.30 7  157 287 
 ZAR  HN ES   4    3 5 50.65                             120    2.07 0  157 287 
 ZAR  HN I         3 5 53.04       298.4 0.14            113            157 287 
 SML  HZ EP   1    3 5 33.16                             113   -0.44 6  199 342 
 SML  HN ES   1    3 5 57.95                             113    1.10 6  199 342 
 SML  HZ I         3 6  1.22       224.4 0.09            108            199 342 
 TAM  HZ EP        3 5 34.10                             113    0.14 9  202 111 
 TAM  HN ES        3 5 58.04                             113    0.56 9  202 111 
 TAM  HN I         3 5 59.01        65.1 0.50            108            202 111 
 NOR  HZ EP        3 5 35.91                             110   -0.90 8  227 222 
 NOR  HN ES   4    3 6  0.00                             110   -2.56 0  227 222 
 URE  HZ EP        3 5 37.17                             109   -0.64 8  236 288 
 URE  HN ES        3 6  3.82                             109   -0.52 8  236 288 
 URE  HN I         3 6  9.51       167.0 0.26            105            236 288 
 HEL  HZ EP        3 5 40.60                             108    1.26 8  246 246 
 HEL  HN ES        3 6  7.58                             108    0.51 8  246 246 
 HEL  HN I         3 6 11.51        54.8 0.48            104            246 246 
 CHI  HZ EP   4    3 5 41.80                             106   -0.83 0  273 185 
 CHI  HE ES   4    3 6 15.69                             106    2.77 0  273 185 
 CHI  HE I         3 6 19.64        39.2 0.22            102            273 185 
 COD  HN I         3 6 27.75        44.9 0.40            101            315   1 
 VIL  SZ EP   4    3 5 48.80                             102   -0.19 0  330 184 
 VIL  SE ES   4    3 6 28.79                             102    4.55 0  330 184 
 VIL  SE I         3 6 31.86       111.3 0.50            100            330 184 
 SJC  HZ EP        3 5 52.00                             100   -0.64 6  361 329 
 SJC  HN ES   4    3 6 29.49                             100   -1.25 0  361 329 
 SJC  HN I         3 6 42.67        42.9 0.36             99            361 329 
 PRA  HZ EP        3 5 57.70                              99   -0.03 6  404 202 
 PRA  HN I         3 6 47.13        14.6 0.32             98            404 202 
                                                                                
