 2016  623 0018 29.9 L   6.321 -73.567108.6  RSN  4 0.4 1.2LRSN                1
 GAP=229        0.99       9.6     5.2  9.6  0.9694E+01  0.2264E+02  0.9367E+01E
 Epicentro: SANTA HELENA DEL OPON - SANTANDER                                  3
 ACTION:UPD 16-07-21 22:21 OP:rebc STATUS:               ID:20160623001829 L   I
 OLDACT:REG 16-06-23 12:10 OP:ak   STATUS:               ID:20160623001741     3
 2016-06-23-0017-41M.COL___337                                                 6
 STAT SP IPHASW D HRMM SECON CODA AMPLIT PERI AZIMU VELO AIN AR TRES W  DIS CAZ7
 BAR2 EZ EP        018 45.84                             153   -0.4110 52.1  55 
 BAR2 EZ ES        018 59.58                             153    0.5410 52.1  55 
 BAR2 EZ I         019  0.54         6.8 0.24                          52.1  55 
 BRR  HZ EP   2    018 48.26                             138   -0.19 5 88.3 350 
 BRR  HN ES   1    019  2.18                             138   -0.78 7 88.3 350 
 PTB  HZ EP        018 49.74                             134    0.1610  101 284 
 PTB  HN ES        019  4.73                             134   -0.2310  101 284 
 PTB  HZ I         019  7.87         2.3 0.16                           101 284 
 ZAR  HZ EP        018 58.96                             114    0.05 9  193 312 
 ZAR  HN ES        019 22.09                             114    0.52 9  193 312 
                                                                                
