 2010  823 0935 58.8 L   6.760 -73.044148.8  RSN 10 0.4 1.9LRSN                1
 GAP=171        0.73       4.1     8.6  6.7 -0.1242E+02  0.6447E+01  0.5997E+01E
 Epicentro: LOS SANTOS - SANTANDER                                             3
 ACTION:UP  10-09-07 10:57 OP:vdl  STATUS:               ID:20100823093558 L   I
 2010-08-23-0933-48S.COL___120                                                 6
 STAT SP IPHASW D HRMM SECON CODA AMPLIT PERI AZIMU VELO SNR AR TRES W  DIS CAZ7
 BAR2 SZ EP   1    936 18.95                             170     0.1 7   24 220 
 BAR2 SZ ES   2    936 34.10                             170    -0.4 5   24 220 
 BAR2 SZ I         936 35.69        23.4 0.39                            24 220 
 BTL  SZ EP   1    936 19.11                             168     0.1 7   30 305 
 GIR2 SZ EP   1    936 19.28                             165     0.2 7   39 335 
 GIR2 SZ ES   2    936 34.92                             165     0.0 5   39 335 
 BRR  HZ IP     C  936 20.84                             149    -0.210   83 298 
 BRR  HZ I         936 21.14        43.8 0.16                            83 298 
 BRR  HE ES   2    936 38.17                             149    -0.2 5   83 298 
 RUS  HZ EP   1    936 22.82                             146     0.3 7   96 183 
 RUS  HN ES   2    936 41.68                             146     0.6 5   96 183 
 RUS  HZ I         936 43.31         7.3 0.37                            96 183 
 GUE  SZ EP   1    936 23.99                             140     0.0 7  119   6 
 GUE  SZ ES   2    936 44.29                             140     0.6 5  119   6 
 GRA  SZ EP   1    936 23.83                             138    -0.6 7  127  12 
 GRA  SZ ES   2    936 44.37                             138    -0.1 5  127  12 
 GRA  SZ I         936 45.72        12.3 0.46                           127  12 
 CHI  HZ EP   1    936 36.16                             118    -0.4 6  248 198 
 CHI  HE ES   2    937  5.62                             118    -0.4 4  248 198 
 CHI  HZ I         937 15.57         2.1 0.77                           248 198 
 HEL  HZ EP   1    936 40.95                             115     0.7 6  282 257 
 HEL  HZ I         937 17.93         4.3 0.46                           282 257 
 PRA  HZ EP   1    936 53.18                             107     0.5 4  394 211 
 PRA  HN ES   2    937 33.67                             107    -1.0 3  394 211 
 PRA  HZ I         937 41.63         1.9 0.28                           394 211 
                                                                                
