 2012 1123 0453 42.4 L   6.777 -73.217145.5  RSN  5 0.2 1.0LRSN                1
 GAP=127        0.42       3.5     3.4  4.9 -0.9761E+00  0.8476E+00 -0.3268E+00E
 Epicentro: ZAPATOCA - SANTANDER                                               3
 ACTION:UPD 12-12-05 15:35 OP:}ep  STATUS:               ID:20121123045342 L   I
 2012-11-23-0450-00M.COL___233                                                 6
 STAT SP IPHASW D HRMM SECON CODA AMPLIT PERI AZIMU VELO AIN AR TRES W  DIS CAZ7
 BAR2 SZ EP   1    454  1.99                             171    0.00 7 20.7 169 
 GIR2 SZ EP   1    454  1.94                             166   -0.21 7 33.5   4 
 GIR2 SZ ES   1    454 17.73                             166    0.21 7 33.5   4 
 GIR2 SZ I         454 20.17         2.8 0.60                          33.5   4 
 PAM  SZ EP   1    454  4.93                             148   -0.14 7 84.5  43 
 PAM  SZ I         454 22.76         2.0 0.20                          84.5  43 
 RUS  HZ EP   1    454  6.24                             144    0.20 7 98.9 171 
 RUS  HN ES   1    454 24.34                             144   -0.11 7 98.9 171 
 RUS  HZ I         454 25.27         1.0 0.32                          98.9 171 
 PTB  HZ EP   1    454  8.88                             134    0.23 7  140 259 
 PTB  HN ES   1    454 28.93                             134   -0.17 7  140 259 
                                                                                
