 2010  623 0445 26.2 L   6.806 -73.091139.9  RSN  6 0.4 1.2LRSN                1
 GAP=162        0.97       6.4    12.5 13.4 -0.1684E+02 -0.9534E+02  0.3422E+01E
 Epicentro: LOS SANTOS - SANTANDER                                             3
 ACTION:UP  10-08-24 10:12 OP:vdl  STATUS:               ID:20100623044526 L   I
 2010-06-23-0443-49S.COL___118                                                 6
 STAT SP IPHASW D HRMM SECON CODA AMPLIT PERI AZIMU VELO SNR AR TRES W  DIS CAZ7
 BAR2 SZ EP        445 45.15                             169     0.010   26 203 
 BAR2 SZ ES   2    446  0.04                             169     0.0 5   26 203 
 BRR  HZ EP        445 47.07                             150     0.010   76 296 
 BRR  HE ES   1    446  3.33                             150     0.0 7   76 296 
 BRR  HZ I         446  6.01         4.9 0.19                            76 296 
 RUS  HZ EP        445 49.40                             142     0.010  101 179 
 RUS  HZ I         446  9.50         2.1 0.33                           101 179 
 BRI  SZ EP        445 49.95                             141     0.610  106  18 
 GUE  SZ EP        445 49.49                             139    -0.810  115   9 
 GRA  SZ EP        445 50.95                             136     0.210  123  15 
 GRA  SZ ES   2    446  9.68                             136    -0.2 5  123  15 
                                                                                
