 2014 1023 0735 44.2 L   6.718 -73.158149.4  RSN  4 0.4 1.0LRSN                1
 GAP=230        0.90       8.1     7.4  8.4  0.2461E+02  0.5321E+01  0.4023E+01E
 Epicentro: VILLANUEVA - SANTANDER                                             3
 ACTION:UPD 14-11-29 23:55 OP:nd   STATUS:               ID:20141023073544 L   I
 OLDACT:DUP 14-10-26 18:26 OP:spq  STATUS:               ID:20141023072745d    3
 2014-10-23-0727-43M.COL___271                                                 6
 STAT SP IPHASW D HRMM SECON CODA AMPLIT PERI AZIMU VELO AIN AR TRES W  DIS CAZ7
 BAR2 SZ EP   1    736  3.67                             174   -0.46 7 14.1 191 
 BAR2 SZ ES   1    736 19.00                             174   -0.66 7 14.1 191 
 BAR2 SZ I         736 20.40         3.3 0.64            171           14.1 191 
 BRR  HZ EP        736  5.99                             152    0.0410 74.9 305 
 BRR  HN ES        736 23.34                             152    0.4210 74.9 305 
 BRR  HZ I         736 28.94         1.9 0.50            150           74.9 305 
 RUS  HZ EP   1    736  8.35                             147    0.65 7 91.6 175 
 RUS  HN ES   1    736 26.29                             147    0.27 7 91.6 175 
 RUS  HZ I         736 28.11         0.8 0.44            150           91.6 175 
 PTB  HZ EP        736 10.93                             134   -0.29 9  145 262 
 PTB  HN ES        736 32.18                             134   -0.11 9  145 262 
 PTB  HZ I         736 37.87         1.7 0.41            133            145 262 
                                                                                
