 2012  223 0131 32.2 L   6.368 -73.616106.9  RSN 11 0.3 2.0LRSN                1
 GAP= 88        0.67       2.3     3.1  5.6 -0.2275E+01  0.7441E+01  0.1154E+01E
 ACTION:UP  12-03-07 16:33 OP:epov STATUS:               ID:20120223013132 L   I
 2012-02-23-0130-00M.COL___191                                                 6
 STAT SP IPHASW D HRMM SECON CODA AMPLIT PERI AZIMU VELO AIN AR TRES W  DIS CAZ7
 BAR2 SZ IP        131 48.82                             151    0.2710 54.0  63 
 BAR2 SZ ES   1    132  1.64                             151    0.37 7 54.0  63 
 RUS  HZ EP   1    131 50.75                             141    0.14 7 79.0 132 
 RUS  HE ES   1    132  4.98                             141    0.03 7 79.0 132 
 RUS  HZ I         132  6.59        20.5 0.38                          79.0 132 
 BRR  HZ EP   1    131 49.80                             139   -0.39 7 82.4 353 
 BRR  HZ I         131 58.34        31.1 0.15                          82.4 353 
 BRR  HN ES   1    132  3.82                             139   -0.38 7 82.4 353 
 GIR2 SZ EP   1    131 51.30                             136    0.18 7 91.4  31 
 GIR2 SZ ES   1    132  6.06                             136    0.20 7 91.4  31 
 PAM  SZ EP   1    131 57.06                             122    0.11 7  148  43 
 PAM  SZ I         131 59.40         9.8 0.13                           148  43 
 PAM  SN ES   1    132 15.35                             122   -0.89 7  148  43 
 NOR  SZ EP   1    131 57.89                             118   -0.32 7  165 237 
 NOR  SE ES   1    132 18.52                             118    0.05 7  165 237 
 ROSC BZ EP   1    132  0.83                             115   -0.13 7  186 205 
 ROSC BZ I         132 32.36        11.7 0.32                           186 205 
 CHI  HZ EP   1    132  1.75                             114    0.03 7  193 184 
 CHI  HN ES   1    132 24.30                             114   -0.42 7  193 184 
 CHI  HZ I         132 28.51         8.1 0.27                           193 184 
 OCA  SZ EP   1    132  3.36                             112    0.08 6  209   9 
 OCA  SZ ES   1    132 27.94                             112    0.45 6  209   9 
 HEL  HZ EP   1    132  3.61                             111   -0.29 6  213 265 
 HEL  HN ES   1    132 28.76                             111    0.15 6  213 265 
 HEL  HZ I         132 32.00        13.0 0.24                           213 265 
 RREF HZ EP   1    132  9.31                             108    0.63 6  251 230 
 RREF HZ I         132 43.10         9.0 0.42                           251 230 
                                                                                
