 2012  723 0145 16.3 L   6.825 -73.130144.0  RSN  9 0.5 2.1LRSN                1
 GAP=114        1.08       5.2     6.0  9.0  0.8617E+01 -0.9631E+01  0.7381E+01E
 Epicentro: LOS SANTOS - SANTANDER                                             3
 ACTION:UPD 12-08-14 11:46 OP:ep   STATUS:               ID:20120723014516 L   I
 2012-07-23-0140-00M.COL___215                                                 6
 STAT SP IPHASW D HRMM SECON CODA AMPLIT PERI AZIMU VELO AIN AR TRES W  DIS CAZ7
 BAR2 SZ EP        145 35.34                             169    -0.410   26 193 
 BAR2 SZ ES   3    145 49.95                             169    -1.0 2   26 193 
 BAR2 SZ I         145 51.72        22.6 0.22            171             26 193 
 BRR  HZ EP        145 37.63                             152     0.410   71 296 
 BRR  HN ES        145 54.19                             152     0.610   71 296 
 BRR  HZ I         145 58.81        30.6 0.14            153             71 296 
 RUS  HZ EP        145 40.13                             143     0.110  103 177 
 RUS  HE ES   1    145 58.18                             143    -0.4 7  103 177 
 RUS  HZ I         145 59.78        12.8 0.28            146            103 177 
 PTB  HZ EP        145 42.63                             131    -0.6 9  150 258 
 PTB  HE ES   3    146  3.36                             131    -1.0 2  150 258 
 PTB  HZ I         146  6.44         9.5 0.24            134            150 258 
 TAM  HZ EP        145 44.07                             130     0.4 9  154 106 
 TAM  HZ I         145 44.30        29.9 0.38            134            154 106 
 OCA  HZ EP   1    145 43.88                             130    -0.3 7  158 352 
 OCA  HN ES   1    146  5.28                             130    -0.7 7  158 352 
 OCA  HZ I         146  8.88        28.3 0.38            132            158 352 
 YOP  SZ EP        145 46.44                             126     0.1 9  181 154 
 YOP  SN ES   2    146  9.84                             126     0.0 4  181 154 
 ZAR  HN ES   2    146 14.52                             122     0.6 4  205 291 
 NOR  SZ EP        145 52.50                             118     0.3 8  238 234 
 NOR  SN ES   2    146 19.82                             118    -0.4 4  238 234 
