 2012  123 0527 35.0 L   6.740 -73.161137.0  RSN 14 0.5 3.3LRSN                1
 GAP=137        1.10       3.4     4.6  6.1 -0.2136E+01  0.9740E+01  0.3412E+01E
 Epicentro: VILLANUEVA - SANTANDER                                             3
 ACTION:UP  12-02-03 08:19 OP:REBC STATUS:               ID:20120123052735 L   I
 2012-01-23-0520-00M.COL___186                                                 6
 STAT SP IPHASW D HRMM SECON CODA AMPLIT PERI AZIMU VELO SNR AR TRES W  DIS CAZ7
 BAR2 SZ EP        527 53.46                             173     0.010   17 188 
 BAR2 SZ ES        528  7.64                             173    -0.210   17 188 
 BAR2 SZ I         528  9.18       885.9 0.37                            17 188 
 BRR  HZ IP     C  527 55.44                             150     0.110   73 304 
 BRR  HN ES   1    528 11.86                             150     0.7 7   73 304 
 PAM  SZ EP        527 56.38                             147    -0.310   84  38 
 PAM  SE ES        528 12.94                             147    -0.710   84  38 
 RUS  HZ EP        527 57.44                             144     0.010   94 175 
 RUS  HN ES        528 15.40                             144     0.510   94 175 
 RUS  HZ I         528 17.85       179.7 0.29                            94 175 
 PTB  HZ EP        528  0.22                             130    -0.8 9  145 261 
 PTB  HN ES   1    528 20.95                             130    -0.4 7  145 261 
 OCA  SZ EP        528  4.24                             126     1.0 9  167 354 
 OCA  SZ ES   1    528 26.01                             126     0.7 7  167 354 
 ZAR  HZ EP   1    528  6.63                             120    -0.4 6  205 294 
 ZAR  HN ES   1    528 32.08                             120     0.1 6  205 294 
 ZAR  HZ I         528 37.74       384.1 0.26                           205 294 
 NOR  SZ EP   1    528 10.15                             117     0.5 6  230 236 
 NOR  SN ES   1    528 36.80                             117     0.1 6  230 236 
 CHI  HZ EP        528 11.76                             116     0.3 8  242 195 
 CHI  HN ES   1    528 40.27                             116     0.3 6  242 195 
 CHI  HZ I         528 46.47        64.6 0.78                           242 195 
 HEL  HZ EP   1    528 13.86                             113    -0.6 6  269 257 
 HEL  HN ES   1    528 44.94                             113    -0.2 6  269 257 
 HEL  HZ I         528 52.54       174.0 0.42                           269 257 
 VIL  SZ EP   1    528 16.96                             111    -0.3 5  297 192 
 VIL  SN ES   1    528 50.31                             111     0.1 5  297 192 
 VIL  SZ I         528 56.86        66.4 0.72                           297 192 
 RREF HZ EP   1    528 20.17                             109     0.0 5  316 230 
 RREF HN ES   1    528 55.91                             109     0.6 5  316 230 
 RREF HZ I         529  5.67        80.0 0.44                           316 230 
 TOL  SZ EP   1    528 22.84                             108     0.6 5  338 225 
 PRA  HZ EP   1    528 27.06                             105    -0.4 4  385 210 
 PRA  HN ES   1    529  7.61                             105    -0.8 4  385 210 
                                                                                
