 2017  123 0911 35.1 L   6.789 -73.189144.7  RSN  4 0.2 0.7LRSN                1
 GAP=143        0.55       3.4     3.2  4.7 -0.3350E+01  0.4036E+01 -0.1573E+01E
 Epicentro: ZAPATOCA - SANTANDER                                               3
 ACTION:UPD 17-05-22 16:02 OP:jn   STATUS:               ID:20170123091135 L   I
 OLDACT:DUP 17-01-23 18:09 OP:lv   STATUS:               ID:20170123090743d    3
 2017-01-23-0908-00M.COL___331                                                 6
 STAT SP IPHASW D HRMM SECON CODA AMPLIT PERI AZIMU VELO AIN AR TRES W  DIS CAZ7
 BAR2 EZ EP        911 54.33                             171   -0.2710 21.8 178 
 BAR2 EZ ES        912  9.55                             171   -0.2410 21.8 178 
 PAM  EZ EP        911 57.30                             149   -0.1810 81.4  42 
 PAM  EN ES        912 15.19                             149    0.2810 81.4  42 
 PAM  EZ I         912 16.43         1.6 0.32            152           81.4  42 
 RUS  HZ EP        911 58.85                             144    0.1310 99.8 173 
 RUS  HE ES        912 17.25                             144    0.1310 99.8 173 
 RUS  HZ I         912 18.16         0.6 0.30            147           99.8 173 
 PTB  HZ EP        912  1.69                             133    0.12 9  143 259 
 PTB  HN ES        912 22.23                             133    0.05 9  143 259 
 PTB  HZ I         912 26.66         0.4 0.19            133            143 259 
                                                                                
