 2011 1223 0229 57.3 L   6.773 -73.225146.9  RSN  5 0.2 1.5LRSN                1
 GAP=124        0.42       5.1     4.8  5.1  0.4681E+01  0.4772E+01 -0.3381E+01E
 Epicentro: ZAPATOCA - SANTANDER                                               3
 ACTION:UPD 12-07-13 16:17 OP:ep   STATUS:               ID:20111223022957 L   I
 2011-12-23-0224-45S.COL___152                                                 6
 STAT SP IPHASW D HRMM SECON CODA AMPLIT PERI AZIMU VELO AIN AR TRES W  DIS CAZ7
 BAR2 SZ ES   1    230 32.17                             172   -0.27 7 20.6 167 
 BAR2 SZ I         230 33.82         4.9 0.30                          20.6 167 
 BRR  HZ EP   1    230 18.39                             155    0.10 7 65.2 304 
 BRR  HZ I         230 21.31         8.8 0.49                          65.2 304 
 BRR  HN ES   1    230 34.74                             155    0.11 7 65.2 304 
 PAM  SZ EP   2    230 20.31                             148    0.14 5 85.4  43 
 RUS  HE ES   2    230 39.88                             145    0.31 5 98.6 171 
 PTB  HZ EP   1    230 23.35                             134   -0.23 7  139 259 
 PTB  HE ES   2    230 44.22                             134    0.16 5  139 259 
                                                                                
