 2017  423 0055 30.3 L   6.354 -73.685103.6  RSN  7 0.5 1.5LRSN                1
 GAP= 83        1.25       4.0     3.7  8.5  0.9888E+00 -0.2831E+01  0.1277E+01E
 Epicentro: SANTA HELENA DEL OPON - SANTANDER                                  3
 ACTION:UPD 17-05-30 21:15 OP:jn   STATUS:               ID:20170423005530 L   I
 OLDACT:REG 17-04-23 12:25 OP:lv   STATUS:               ID:20170423004738     3
 2017-04-23-0048-00M.COL___365                                                 6
 STAT SP IPHASW D HRMM SECON CODA AMPLIT PERI AZIMU VELO AIN AR TRES W  DIS CAZ7
 BAR2 EZ EP        055 46.80                             147    0.0310 61.5  65 
 BAR2 EZ ES        055 59.70                             147    0.1010 61.5  65 
 BRR  HZ EP        055 47.77                             138   -0.2910 83.3 358 
 BRR  HN ES        056  2.59                             138    0.7010 83.3 358 
 PTB  HZ EP        055 47.85                             136   -0.6010 87.7 284 
 PTB  HN ES        056  1.93                             136   -0.6610 87.7 284 
 SPBC HZ EP        055 49.08                             136    0.4510 88.7 209 
 SPBC HN ES        056  2.78                             136   -0.1310 88.7 209 
 SPBC HZ I         056  5.75        11.8 0.15            135           88.7 209 
 PAM  EZ EP        055 55.14                             119   -0.38 9  154  45 
 PAM  EN ES        056 14.54                             119   -0.63 9  154  45 
 PAM  EZ I         056 15.81         1.7 0.31            120            154  45 
 YPLC HZ EP        055 57.96                             115    0.25 9  179 126 
 YPLC HN ES        056 19.43                             115    0.35 9  179 126 
 YPLC HZ I         056 21.81         5.5 0.28            115            179 126 
 ZAR  HZ EP        055 57.80                             114    0.00 9  181 314 
 ZAR  HN ES        056 20.22                             114    0.99 9  181 314 
 ZAR  HZ I         056 24.25         5.3 0.23            114            181 314 
                                                                                
