 2012  723 0245 43.8 L   6.765 -73.124148.0  RSN  7 0.5 1.6LRSN                1
 GAP=185        0.90       6.6     7.3  9.3  0.4721E+01  0.4188E+00 -0.1208E+02E
 Epicentro: LOS SANTOS - SANTANDER                                             3
 ACTION:UPD 12-08-14 11:46 OP:ep   STATUS:               ID:20120723024543 L   I
 2012-07-23-0240-00M.COL___215                                                 6
 STAT SP IPHASW D HRMM SECON CODA AMPLIT PERI AZIMU VELO AIN AR TRES W  DIS CAZ7
 BAR2 SZ EP        246  3.65                             172     0.010   20 199 
 BAR2 SZ ES   2    246 18.90                             172    -0.2 5   20 199 
 BAR2 SZ I         246 22.92         5.8 0.26            151             20 199 
 BRR  HZ EP        246  5.62                             152     0.210   75 300 
 BRR  HZ I         246  7.05        13.9 0.10            131             75 300 
 BRR  HE ES   1    246 22.92                             152     0.6 7   75 300 
 RUS  HZ EP   3    246  7.51                             146     0.0 2   97 177 
 RUS  HZ I         246  9.12         3.0 0.18            127             97 177 
 RUS  HN ES   2    246 26.01                             146     0.0 5   97 177 
 PTB  HZ EP        246 10.73                             132    -0.4 9  149 260 
 PTB  HN ES   2    246 31.73                             132    -0.7 5  149 260 
 PTB  HZ I         246 39.07         4.6 0.42            113            149 260 
 OCA  HZ EP        246 12.59                             130    -0.1 9  164 352 
 OCA  HN ES   2    246 34.68                             130    -0.5 5  164 352 
 OCA  HZ I         246 39.64        15.4 0.22            117            164 352 
 ZAR  HN ES   1    246 42.40                             123    -0.1 6  208 293 
 HEL  HZ EP   2    246 25.76                             115     1.5 4  273 257 
 HEL  HZ I         247  4.35         2.0 0.42            101            273 257 
