 2013  123 0420 27.1 L   5.854 -73.796110.0  RSN  7 0.5 1.8LRSN                1
 GAP=104        1.23       3.7     5.0 10.0 -0.6350E+00  0.1014E+02  0.5704E+00E
 Epicentro: JESUS MARIA - SANTANDER                                            3
 ACTION:UPD 13-02-15 09:16 OP:ep   STATUS:               ID:20130123042027 L   I
 2013-01-23-0418-48M.COL___183                                                 6
 STAT SP IPHASW D HRMM SECON CODA AMPLIT PERI AZIMU VELO AIN AR TRES W  DIS CAZ7
 RUS  HZ EP        420 45.47                             142   -0.3110 79.1  87 
 RUS  HZ I         420 46.05         6.8 0.10            143           79.1  87 
 RUS  HN ES        421  0.03                             142   -0.3210 79.1  87 
 PTB  HZ EP        420 47.01                             133   -0.2810  105 316 
 PTB  HN ES        421  2.53                             133   -0.5110  105 316 
 BAR2 SZ EP        420 47.51                             133   -0.1610  106  40 
 BAR2 SZ ES        421  3.93                             133    0.2110  106  40 
 BAR2 SZ I         421  4.99        35.7 0.50            133            106  40 
 CHI  HZ EP        420 50.64                             125   -0.06 9  136 177 
 CHI  HZ I         420 51.70         4.7 0.10            127            136 177 
 CHI  HN ES        421  9.65                             125    0.53 9  136 177 
 BRR  HZ EP        420 50.16                             124   -0.32 9  139   4 
 BRR  HN ES        421  9.52                             124    0.80 9  139   4 
 BRR  HN I         421 12.59        17.0 0.18            125            139   4 
 HEL  HZ EP   1    420 58.16                             115    1.18 6  195 281 
 PAM  SZ EP        420 57.47                             114   -0.64 9  204  36 
 PAM  SN ES        421 22.95                             114    0.64 9  204  36 
                                                                                
