 2011 1123 0434 14.9 L   6.767 -73.170139.8  RSN  5 0.2 1.2LRSN                1
 GAP=135        0.41       2.7     4.7  6.4 -0.2204E+01  0.1507E+02 -0.1167E+01E
 Epicentro: LOS SANTOS - SANTANDER                                             3
 ACTION:UPD 12-07-13 16:11 OP:ep   STATUS:               ID:20111123043414 L   I
 2011-11-23-0432-45S.COL___178                                                 6
 STAT SP IPHASW D HRMM SECON CODA AMPLIT PERI AZIMU VELO AIN AR TRES W  DIS CAZ7
 BRR  HZ EP   2    434 35.94                             152    0.53 5 70.7 302 
 PAM  SZ EP   1    434 36.63                             148   -0.17 7 82.0  39 
 PAM  SE ES        434 53.89                             148    0.0310 82.0  39 
 RUS  HZ EP   1    434 37.90                             143    0.05 7 97.1 174 
 RUS  HN ES   1    434 55.65                             143   -0.07 7 97.1 174 
 RUS  HZ I         434 57.29         2.3 0.21                          97.1 174 
 OCA  SZ EP   2    434 43.06                             128   -0.05 5  164 354 
 OCA  SZ I         435  8.95         2.5 0.23                           164 354 
 ZAR  HN ES   2    435 11.53                             121   -0.27 4  203 293 
                                                                                
