 2010  323 0748 13.9 L   6.829 -73.055139.8  RSN  6 0.2 1.8LRSN                1
 GAP=192        0.47       2.6     6.3  4.1  0.4687E+01 -0.4430E+01 -0.1364E+01E
 Epicentro: LOS SANTOS - SANTANDER                                             3
 ACTION:UP  10-08-24 09:55 OP:vdl  STATUS:               ID:20100323074813 L   I
 2010-03-23-0745-57S.COL___098                                                 6
 STAT SP IPHASW D HRMM SECON CODA AMPLIT PERI AZIMU VELO SNR AR TRES W  DIS CAZ7
 BAR2 SZ EP        748 33.06                             167     0.110   30 208 
 BAR2 SZ ES   1    748 47.43                             167    -0.4 7   30 208 
 BRR  HZ EP        748 34.90                             149     0.110   79 293 
 BRR  HE ES   1    748 51.35                             149     0.1 7   79 293 
 BRR  HZ I         748 55.95        14.5 0.24                            79 293 
 RUS  HZ EP        748 37.38                             141     0.110  104 182 
 RUS  HE ES   1    748 55.52                             141     0.0 7  104 182 
 RUS  HZ I         748 57.05         6.9 0.49                           104 182 
 OCA  SZ EP        748 41.46                             128    -0.1 9  159 349 
 CHI  HZ EP   2    748 51.89                             115     0.0 4  254 197 
 CHI  HN ES   2    749 21.94                             115     0.4 4  254 197 
 PRA  HZ EP   1    749  7.86                             105    -0.3 4  400 211 
 PRA  HN ES   2    749 49.71                             105    -0.7 3  400 211 
 PRA  HZ I         749 54.91         2.8 0.61                           400 211 
                                                                                
