 2013  423 0554 40.6 L   6.674 -73.265144.0  RSN  4 0.3 1.3LRSN                1
 GAP=181        0.54       7.0     4.9  8.6  0.2012E+02 -0.2901E+01 -0.1918E+02E
 Epicentro: GALAN - SANTANDER                                                  3
 ACTION:UPD 13-05-22 14:40 OP:EP   STATUS:               ID:20130423055440 L   I
 2013-04-23-0550-00M.COL___249                                                 6
 STAT SP IPHASW D HRMM SECON CODA AMPLIT PERI AZIMU VELO AIN AR TRES W  DIS CAZ7
 BAR2 SZ EP   1    554 59.44                             175   -0.36 7 12.8 135 
 BRR  HN ES   2    555 17.93                             153    0.31 5 68.9 314 
 BRR  HN I         555 24.89         4.8 0.24            152           68.9 314 
 RUS  HZ EP   2    555  3.31                             147    0.01 5 88.7 167 
 RUS  HN ES        555 21.11                             147    0.0710 88.7 167 
 RUS  HN I         555 23.41         2.8 0.24            160           88.7 167 
 PTB  HZ EP   1    555  6.42                             135    0.39 7  133 264 
 PTB  HN ES        555 25.75                             135   -0.1510  133 264 
 PTB  HN I         555 27.28         2.2 0.24            145            133 264 
                                                                                
