 2013  223 0310  9.2 L   6.794 -73.176143.6  RSN 11 0.4 2.5LRSN                1
 GAP= 77        0.79       3.7     3.4  6.0 -0.9061E+00  0.5246E+01  0.2768E+01E
 Epicentro: LOS SANTOS - SANTANDER                                             3
 ACTION:UPD 13-03-12 09:35 OP:ep   STATUS:               ID:20130223031009 L   I
 2013-02-23-0310-00M.COL___225                                                 6
 STAT SP IPHASW D HRMM SECON CODA AMPLIT PERI AZIMU VELO AIN AR TRES W  DIS CAZ7
 BAR2 SZ EP        310 28.71                             171    0.1510 22.3 182 
 BAR2 SZ ES   1    310 43.27                             171   -0.38 7 22.3 182 
 BAR2 SZ I         310 47.27       115.1 0.22            168           22.3 182 
 BRR  HZ EP        310 30.65                             153    0.6710 68.6 300 
 BRR  HE ES   4    310 47.81                             153    1.63 0 68.6 300 
 BRR  HZ I         310 49.85        42.2 0.12            144           68.6 300 
 PAM  SZ EP   1    310 31.51                             150    0.15 7 80.1  41 
 PAM  SN ES   1    310 48.64                             150    0.00 7 80.1  41 
 PAM  SZ I         310 51.04        52.1 0.46            147           80.1  41 
 PTB  HZ EP        310 35.25                             132   -0.44 9  144 259 
 PTB  HN ES   1    310 56.31                             132   -0.03 7  144 259 
 PTB  HZ I         310 58.89        46.3 0.22            124            144 259 
 TAM  HZ EP        310 36.82                             129   -0.19 9  158 104 
 OCA  HZ EP   1    310 37.08                             129   -0.31 7  161 354 
 OCA  HN ES   1    310 59.30                             129   -0.06 7  161 354 
 OCA  HZ I         311  3.24        35.6 0.18            123            161 354 
 ZAR  HZ EP        310 41.23                             122    0.01 9  201 293 
 ZAR  HE ES   1    311  6.37                             122    0.18 6  201 293 
 ZAR  HZ I         311 13.41        34.6 0.15            116            201 293 
 CHI  HZ EP   1    310 46.65                             117    0.03 6  247 194 
 CHI  HE ES   1    311 15.92                             117    0.12 6  247 194 
 CHI  HZ I         311 25.62        10.4 0.36            112            247 194 
 HEL  HZ EP   1    310 49.96                             115    1.03 6  269 256 
 HEL  HN ES   1    311 19.59                             115   -0.32 6  269 256 
 HEL  HZ I         311 27.51        16.5 0.30            109            269 256 
 URE  HZ EP   1    310 48.95                             113   -0.91 6  281 292 
 URE  HZ I         311 30.76        31.7 0.22            108            281 292 
 DBB  SZ EP   1    310 56.07                             109   -0.15 5  336 274 
 SJC  HN EP   4    311  3.44                             105   -1.12 0  408 327 
 SJC  HN ES   4    311 44.13                             105   -3.60 0  408 327 
                                                                                
