 2013  523 0327 15.7 L   6.779 -73.184144.8  RSN  6 0.4 2.0LRSN                1
 GAP=133        1.18       6.0     6.0  7.8 -0.4162E+01  0.5336E+01  0.5491E+01E
 Epicentro: LOS SANTOS - SANTANDER                                             3
 ACTION:UPD 13-06-20 09:52 OP:ep   STATUS:               ID:20130523032715 L   I
 2013-05-23-0318-50M.COL___210                                                 6
 STAT SP IPHASW D HRMM SECON CODA AMPLIT PERI AZIMU VELO AIN AR TRES W  DIS CAZ7
 BAR2 SZ EP        327 35.40                             171    0.2410 20.7 179 
 BAR2 SZ ES        327 49.82                             171   -0.5310 20.7 179 
 BAR2 SZ I         327 51.07        19.3 0.34            172           20.7 179 
 GIR2 SZ EP        327 35.31                             166    0.0010 33.1 358 
 GIR2 SZ ES        327 50.46                             166   -0.1510 33.1 358 
 BRR  HZ IP     D  327 36.97                             153    0.3710 68.7 302 
 BRR  HN ES        327 53.80                             153    0.8910 68.7 302 
 BRR  HN I         327 54.56        34.1 0.36            152           68.7 302 
 PAM  SZ EP        327 38.07                             149   -0.0210 81.9  41 
 PAM  SN ES        327 55.17                             149   -0.3810 81.9  41 
 PAM  SN I         327 56.01        18.2 0.44            151           81.9  41 
 RUS  HZ EP        327 39.61                             144    0.3910 98.7 174 
 RUS  HN ES        327 57.76                             144    0.1910 98.7 174 
 PTB  HZ EP        327 41.33                             133   -0.84 9  143 259 
 PTB  HN ES        328  2.52                             133   -0.30 9  143 259 
 PTB  HE I         328  5.32        11.0 0.38            132            143 259 
                                                                                
