 2012  123 0112 12.3 L   6.750 -73.159147.1  RSN  6 0.3 1.4LRSN                1
 GAP=137        0.60       4.5     4.6  6.2  0.1140E+01 -0.4814E+01  0.6633E+00E
 Epicentro: LOS SANTOS - SANTANDER                                             3
 ACTION:UP  12-02-03 08:19 OP:REBC STATUS:               ID:20120123011212 L   I
 2012-01-23-0110-00M.COL___186                                                 6
 STAT SP IPHASW D HRMM SECON CODA AMPLIT PERI AZIMU VELO SNR AR TRES W  DIS CAZ7
 BAR2 SZ ES   2    112 47.16                             173    -0.2 5   18 189 
 BAR2 SZ I         112 48.84         8.2 0.15                            18 189 
 BRR  HZ EP   2    112 33.87                             152     0.2 5   73 303 
 BRR  HZ I         112 42.98         5.6 0.38                            73 303 
 BRR  HN ES   1    112 50.73                             152     0.4 7   73 303 
 PAM  SZ EP        112 34.93                             149    -0.110   83  38 
 RUS  HZ EP   1    112 35.54                             146    -0.3 7   95 175 
 RUS  HN ES   1    112 54.24                             146     0.1 7   95 175 
 RUS  HZ I         112 56.03         1.9 0.53                            95 175 
 PTB  HZ EP   1    112 39.04                             133    -0.1 7  145 261 
 PTB  HN ES   1    112 59.83                             133    -0.3 7  145 261 
 CHI  HZ EP   1    112 50.03                             118     0.6 6  243 195 
                                                                                
