 2014  123 0447  6.8 L   6.815 -73.157142.3  RSN 15 0.5 2.0LRSN                1
 GAP=134        1.09       2.7     4.2  5.8 -0.1400E+01  0.9549E+01  0.3141E+00E
 Epicentro: LOS SANTOS - SANTANDER                                             3
 ACTION:UPD 14-03-13 09:57 OP:ep   STATUS:               ID:20140123044706 L   I
 OLDACT:REG 14-01-23 08:37 OP:nd   STATUS:               ID:20140123044000     3
 2014-01-23-0440-00M.COL___285                                                 6
 STAT SP IPHASW D HRMM SECON CODA AMPLIT PERI AZIMU VELO AIN AR TRES W  DIS CAZ7
 BAR2 SZ EP     C  447 26.18                             170    0.1210 24.7 187 
 BAR2 SZ ES        447 41.24                             170    0.1710 24.7 187 
 BAR2 SZ I         447 42.38        24.9 0.28            167           24.7 187 
 PAM  SZ EP        447 28.92                             150    0.2810 76.9  41 
 PAM  SN ES        447 46.29                             150    0.6410 76.9  41 
 PAM  SZ I         447 48.37        16.3 0.48            156           76.9  41 
 RUS  HZ EP        447 29.99                             143   -0.3610  102 175 
 RUS  HN ES        447 48.50                             143   -0.2110  102 175 
 RUS  HZ I         447 50.23         7.3 0.38            145            102 175 
 PTB  HZ EP        447 33.10                             131   -0.33 9  147 258 
 PTB  HN ES        447 53.92                             131   -0.26 9  147 258 
 PTB  HZ I         448  0.16        13.4 0.52            131            147 258 
 OCA  HZ EP        447 34.92                             129    0.22 9  159 354 
 OCA  HN ES        447 55.21                             129   -1.23 9  159 354 
 OCA  HZ I         448  4.61        10.9 0.36            132            159 354 
 SPBC HZ EP        447 35.12                             128    0.02 9  164 218 
 SPBC HN ES        447 57.22                             128    0.06 9  164 218 
 SPBC HZ I         448  2.28        17.2 0.20            129            164 218 
 ZAR  HZ EP        447 38.29                             122   -0.57 9  202 292 
 ZAR  HN ES        448  4.57                             122    0.72 9  202 292 
 ZAR  HZ I         448 10.54        13.4 0.30            122            202 292 
 SML  HZ EP        447 43.04                             117    0.00 8  242 335 
 SML  HN ES        448 11.46                             117    0.17 8  242 335 
 SML  HZ I         448 15.91        18.5 0.10            119            242 335 
 CHI  HZ EP        447 44.21                             116   -0.25 8  250 195 
 CHI  HN ES        448 13.27                             116   -0.55 8  250 195 
 CHI  HZ I         448 22.21         3.7 0.58            118            250 195 
 ROSC BZ EP        447 45.84                             116    1.01 8  254 211 
 ROSC BN ES   4    448 15.84                             116    1.35 0  254 211 
 HEL  HZ EP        447 47.06                             114    0.29 8  271 255 
 HEL  HN ES   2    448 18.61                             114    0.68 4  271 255 
 HEL  HZ I         448 24.89         4.7 0.38            115            271 255 
 RREF BZ EP   4    447 53.95                             110    1.12 0  322 229 
 RREF BN ES   4    448 30.38                             110    1.67 0  322 229 
 RREF BZ I         448 38.85         5.7 0.46            112            322 229 
 CBOC HZ EP        447 53.90                             109    0.38 7  333 252 
 CBOC HN ES        448 29.50                             109   -0.44 7  333 252 
 CBOC HZ I         448 39.30         1.9 0.42            110            333 252 
 PRA  HZ EP        448  0.45                             106    0.13 6  393 209 
 PRA  HN ES        448 42.12                             106    0.08 6  393 209 
 PRA  HZ I         448 48.03         5.9 0.34            108            393 209 
 SJC  HZ EP   4    448  0.19                             105   -1.84 0  407 327 
 SJC  HN ES   4    448 40.35                             105   -4.75 0  407 327 
 SJC  HZ I         448 42.51         1.7 0.52            107            407 327 
                                                                                
