 2011  423 0904 19.2 L   6.810 -73.136142.4  RSN  5 0.3 1.5LRSN                1
 GAP=189        0.54      11.4    18.8  9.3  0.1599E+03  0.2365E+02  0.2798E+02E
 Epicentro: LOS SANTOS - SANTANDER                                             3
 ACTION:UP  11-06-22 15:32 OP:REBC STATUS:               ID:20110423090419 L   I
 2011-04-23-0900-00M.COL___140                                                 6
 STAT SP IPHASW D HRMM SECON CODA AMPLIT PERI AZIMU VELO SNR AR TRES W  DIS CAZ7
 BTL  SZ EP        9 4 38.30                             172     0.010   19 309 
 BTL  SZ ES   2    9 4 53.77                             172     0.5 5   19 309 
 BAR2 SZ EP        9 4 38.21                             168    -0.210   25 192 
 GIR2 SZ EP   3    9 4 38.16                             168    -0.3 2   30 348 
 GIR2 SZ ES   3    9 4 53.41                             168     0.0 2   30 348 
 BRR  HZ EP        9 4 40.01                             151     0.010   72 297 
 BRR  HZ I         9 4 55.22        12.9 0.12                            72 297 
 BRR  HN ES   3    9 4 56.36                             151     0.1 2   72 297 
 RUS  HZ EP   1    9 4 43.10                             142     0.4 7  102 177 
 RUS  HN ES   3    9 5  0.25                             142    -0.8 2  102 177 
 RUS  HZ I         9 5  2.33         2.7 0.38                           102 177 
                                                                                
