 2015  323 0033 21.4 L   6.822 -73.139157.3  RSN  5 0.5 1.0LRSN                1
 GAP=202        1.28       6.0     9.9 13.0  0.1799E+02 -0.1827E+02 -0.1698E+02E
 Epicentro: LOS SANTOS - SANTANDER                                             3
 ACTION:UPD 15-04-30 16:28 OP:nd   STATUS:               ID:20150323003321 L   I
 OLDACT:DUP 15-03-23 13:23 OP:stll STATUS:               ID:20150323002749d    3
 2015-03-23-0027-48M.COL___278                                                 6
 STAT SP IPHASW D HRMM SECON CODA AMPLIT PERI AZIMU VELO AIN AR TRES W  DIS CAZ7
 BRR  HZ EP        033 44.37                             155    0.5910 70.7 296 
 BRR  HN ES        034  1.90                             155    0.6610 70.7 296 
 RUS  HZ EP        033 46.56                             145    0.0910  103 177 
 RUS  HZ I         033 47.32         0.9 0.40            143            103 177 
 RUS  HN ES        034  5.44                             145   -0.5810  103 177 
 PTB  HZ EP        033 49.60                             134    0.17 9  149 258 
 PTB  HN ES        034 10.74                             134   -0.56 9  149 258 
 PTB  HZ I         034 18.14         2.4 0.36            130            149 258 
 SPBC HN ES        034 14.27                             131    0.14 9  166 219 
 SML  HN ES        034 26.57                             120   -0.85 8  242 335 
                                                                                
