 2015  923 0038 42.3 L   6.772 -73.154147.7  RSN  7 0.3 1.5LRSN                1
 GAP=150        0.81       3.8     3.8  5.6 -0.6655E+00  0.4492E+01  0.5489E+01E
 Epicentro: LOS SANTOS - SANTANDER                                             3
 ACTION:UPD 15-10-28 16:27 OP:cam  STATUS:               ID:20150923003842 L   I
 OLDACT:UP  15-09-23 13:42 OP:mh   STATUS:               ID:20150923002749d    3
 OLDACT:DUP 15-09-23 13:32 OP:mh   STATUS:               ID:20150923002749d    3
 OLDACT:REG 15-09-23 12:37 OP:mh   STATUS:               ID:20150923002748     3
 2015-09-23-0027-48M.COL___355                                                 6
 STAT SP IPHASW D HRMM SECON CODA AMPLIT PERI AZIMU VELO AIN AR TRES W  DIS CAZ7
 BAR2 EZ ES        039 17.74                             172    0.1710 20.2 189 
 BAR2 EZ I         039 18.05        12.4 0.12            168           20.2 189 
 BRR  HZ EP        039  3.90                             153    0.1810 71.9 301 
 BRR  HN ES        039 20.56                             153    0.1510 71.9 301 
 PAM  EZ EP        039  4.73                             150   -0.1910 80.3  39 
 PAM  EN ES        039 22.38                             150   -0.1610 80.3  39 
 PAM  EZ I         039 24.29         4.9 0.62            151           80.3  39 
 PTB  HZ EP   1    039  8.64                             133   -0.67 7  146 260 
 PTB  HN ES        039 30.02                             133   -0.35 9  146 260 
 PTB  HZ I         039 31.72         4.1 0.16            132            146 260 
 ZAR  HZ EP        039 15.66                             123    0.74 9  204 293 
 ZAR  HN ES        039 40.22                             123   -0.13 9  204 293 
 CHI  HZ EP        039 19.57                             118   -0.21 8  245 195 
 CHI  HE ES        039 49.27                             118    0.27 8  245 195 
 CHI  HZ I         039 59.12         0.9 0.08            116            245 195 
 SML  HZ EP   4    039 21.03                             118    1.72 0  246 336 
 SML  HN ES   4    039 46.06                             118   -2.10 0  246 336 
 SML  HZ I         039 50.94         5.0 0.14            117            246 336 
                                                                                
