 2013  423 0626 21.7 L   6.787 -73.135142.3  RSN 10 0.5 2.4LRSN                1
 GAP=139        1.27       4.9     5.9  8.0  0.3444E+01  0.5540E+01 -0.3835E+01E
 Epicentro: LOS SANTOS - SANTANDER                                             3
 ACTION:UPD 13-05-22 14:40 OP:EP   STATUS:               ID:20130423062621 L   I
 2013-04-23-0620-00M.COL___249                                                 6
 STAT SP IPHASW D HRMM SECON CODA AMPLIT PERI AZIMU VELO AIN AR TRES W  DIS CAZ7
 BAR2 SZ EP        626 41.11                             171    0.1910 22.1 194 
 BAR2 SZ ES        626 55.41                             171   -0.4810 22.1 194 
 BAR2 SZ I         626 56.87        21.7 0.20            169           22.1 194 
 GIR2 SZ EP        626 41.23                             166    0.1910 32.9 349 
 GIR2 SZ ES        626 56.14                             166    0.0410 32.9 349 
 BRR  HZ IP     C  626 43.04                             151    0.4410 72.9 299 
 BRR  HN ES        626 59.54                             151    0.6510 72.9 299 
 PAM  SZ EP        626 44.10                             150    0.5010 77.8  38 
 PAM  SN ES   2    627  0.60                             150   -0.06 5 77.8  38 
 PAM  SN I         627  1.69        69.4 0.48            151           77.8  38 
 RUS  HZ EP     C  626 45.12                             143    0.0910 99.0 177 
 RUS  HN ES        627  3.15                             143   -0.0510 99.0 177 
 RUS  HN I         627  4.33        17.0 0.18            144           99.0 177 
 PTB  HZ IP     D  626 47.78                             131   -0.72 9  149 259 
 PTB  HN ES        627  8.71                             131   -0.66 9  149 259 
 PTB  HN I         627 10.94        28.6 0.22            129            149 259 
 OCA  HN ES        627 10.96                             128   -0.96 9  162 353 
 OCA  HN I         627 11.83        56.8 0.16            128            162 353 
 ZAR  HN ES        627 20.32                             121    0.93 8  206 292 
 SML  HZ EP   1    626 57.79                             116   -0.57 6  246 335 
 SML  HN ES   2    627 26.64                             116   -0.30 4  246 335 
 SML  HN I         627 28.89        19.3 0.10            116            246 335 
 URE  HZ EP   4    627  2.74                             113   -0.08 0  285 292 
 URE  HN ES   4    627 33.25                             113   -1.62 0  285 292 
 URE  HN I         627 44.94        14.3 0.28            112            285 292 
                                                                                
