 2015 1123 0347 38.1 L   6.747 -73.118144.0  RSN  5 0.2 1.3LRSN                1
 GAP=142        0.51       2.6     3.8  3.9 -0.4131E+01  0.2319E+01  0.3756E+00E
 Epicentro: LOS SANTOS - SANTANDER                                             3
 ACTION:UPD 15-12-28 16:12 OP:cam  STATUS:               ID:20151123033749dL   I
 OLDACT:UP  15-12-09 14:13 OP:cam  STATUS:               ID:20151123033749dL   3
 OLDACT:UP  15-12-01 10:58 OP:ak   STATUS:               ID:20151123033749dL   3
 OLDACT:DUP 15-11-23 16:20 OP:drio STATUS:               ID:20151123033749dL   3
 2015-11-23-0337-48M.COL___211                                                 6
 STAT SP IPHASW D HRMM SECON CODA AMPLIT PERI AZIMU VELO AIN AR TRES W  DIS CAZ7
 BAR2 EZ EP        347 57.40                             172   -0.0310 18.5 202 
 BAR2 EZ ES        348 12.47                             172   -0.0310 18.5 202 
 BAR2 EZ I         348 13.84         5.7 0.22            172           18.5 202 
 BRR  HZ EP        347 59.32                             150   -0.0610 76.7 301 
 BRR  HN ES   1    348 16.39                             150    0.41 7 76.7 301 
 BRR  HN I         348 20.24         7.0 0.20            150           76.7 301 
 PAM  EZ EP        348  0.35                             150    0.0510 80.2  35 
 PAM  EE ES        348 17.39                             150   -0.2210 80.2  35 
 PAM  EZ I         348 19.27         2.3 0.38            153           80.2  35 
 RUS  HZ EP        348  1.38                             145    0.1310 94.6 178 
 RUS  HE ES        348 19.46                             145    0.1610 94.6 178 
 RUS  HZ I         348 21.97         1.0 0.32            148           94.6 178 
 SPBC HZ EP        348  6.30                             129    0.08 9  161 221 
 SPBC HE ES        348 27.80                             129   -0.36 9  161 221 
 SPBC HZ I         348 30.09         3.9 0.12            131            161 221 
                                                                                
