 2010  323 0848 49.7 L   6.819 -73.017145.5  RSN  6 0.2 1.8LRSN                1
 GAP=196        0.38       2.3     5.9  3.8  0.5043E+01 -0.5712E+01 -0.8378E+00E
 Epicentro: CEPITA - SANTANDER                                                 3
 ACTION:UP  10-08-24 09:55 OP:vdl  STATUS:               ID:20100323084849 L   I
 2010-03-23-0846-59S.COL___098                                                 6
 STAT SP IPHASW D HRMM SECON CODA AMPLIT PERI AZIMU VELO SNR AR TRES W  DIS CAZ7
 BAR2 SZ EP        849  9.54                             167     0.110   31 216 
 BAR2 SZ ES   1    849 24.72                             167    -0.2 7   31 216 
 BRR  HZ IP        849 11.44                             149    -0.110   83 293 
 BRR  HE ES   1    849 28.55                             149     0.0 7   83 293 
 BRR  HZ I         849 30.22        14.7 0.10                            83 293 
 RUS  HZ EP        849 13.42                             143    -0.110  103 184 
 RUS  HE ES   2    849 32.56                             143     0.4 5  103 184 
 RUS  HZ I         849 33.36         2.4 0.32                           103 184 
 OCA  SZ EP   1    849 18.02                             129     0.1 7  160 348 
 OCA  SZ ES   1    849 40.07                             129     0.0 7  160 348 
 RREF BZ EP   2    849 37.46                             110     0.3 3  334 231 
 RREF BZ I         850 22.03         5.0 0.18                           334 231 
 PRA  HZ EP   2    849 43.98                             106    -0.2 3  401 211 
 PRA  HZ I         850 28.35         2.8 0.37                           401 211 
                                                                                
