 2016  323 0222 29.6 L   6.829 -73.155147.4  RSN 21 0.5 2.3LRSN                1
 GAP= 70        1.00       2.6     2.6  4.7 -0.1004E+01  0.3788E+01  0.1794E+00E
 Epicentro: LOS SANTOS - SANTANDER                                             3
 ACTION:UPD 16-05-13 21:26 OP:cam  STATUS:               ID:20160323022229 L   I
 OLDACT:UP  16-03-29 11:52 OP:dnl  STATUS:               ID:20160323022229 L   3
 OLDACT:REG 16-03-23 12:27 OP:ak   STATUS:               ID:20160323021746     3
 2016-03-23-0217-46M.COL___310                                                 6
 STAT SP IPHASW D HRMM SECON CODA AMPLIT PERI AZIMU VELO AIN AR TRES W  DIS CAZ7
 BAR2 EZ EP        222 49.61                             169    0.1410 26.3 187 
 BAR2 EZ ES        223  4.92                             169   -0.0610 26.3 187 
 BAR2 EZ I         223  7.33        31.5 0.22            169           26.3 187 
 PAM  EZ EP        222 52.49                             151    0.6210 75.6  42 
 PAM  EN ES        223  9.84                             151    0.5910 75.6  42 
 PAM  EZ I         223 11.80        24.6 0.22            156           75.6  42 
 RUS  HZ EP        222 53.49                             143   -0.2310  104 176 
 RUS  HN ES        223 12.26                             143   -0.3010  104 176 
 RUS  HZ I         223 13.20        20.9 0.30            147            104 176 
 PTB  HZ EP        222 56.21                             132   -0.44 9  147 258 
 PTB  HN ES        223 17.67                             132   -0.09 9  147 258 
 PTB  HZ I         223 25.16        33.4 0.46            133            147 258 
 OCA  HZ EP        222 57.80                             130    0.09 9  157 353 
 OCA  HN ES        223 19.90                             130    0.25 9  157 353 
 OCA  HZ I         223 25.62        61.7 0.16            132            157 353 
 TAM  HZ IP     C  222 57.74                             130    0.18 9  157 106 
 TAM  HN ES        223 18.79                             130   -0.59 9  157 106 
 TAM  HZ I         223 20.58        11.7 0.40            137            157 106 
 SPBC HZ EP        222 58.47                             129    0.09 9  165 218 
 SPBC HN ES        223 21.01                             129    0.17 9  165 218 
 SPBC HZ I         223 27.63        38.5 0.12            131            165 218 
 ZAR  HZ EP        223  2.42                             123    0.51 9  202 291 
 ZAR  HN ES        223 26.36                             123   -0.77 9  202 291 
 ZAR  HZ I         223 33.73        37.2 0.36            124            202 291 
 NOR  HZ EP        223  5.53                             119    0.02 8  236 234 
 NOR  HE ES        223 33.16                             119   -0.38 8  236 234 
 NOR  HZ I         223 40.85        18.2 0.28            120            236 234 
 CHI  HZ EP        223  7.56                             117   -0.11 8  251 195 
 CHI  HN ES        223 37.01                             117   -0.37 8  251 195 
 CHI  HZ I         223 40.98        11.0 0.40            120            251 195 
 ROSC BZ EP        223  8.38                             117    0.35 8  255 210 
 ROSC BN ES   4    223 40.77                             117    2.75 0  255 210 
 ROSC BZ I         223 43.00        22.2 0.35            119            255 210 
 HEL  HZ EP        223  9.36                             115   -0.49 8  272 255 
 HEL  HN ES        223 40.79                             115   -0.47 8  272 255 
 HEL  HZ I         223 48.46         8.7 0.36            116            272 255 
 URE  HZ EP        223 10.44                             114   -0.05 7  282 291 
 URE  HN ES   4    223 40.35                             114   -2.05 0  282 291 
 URE  HZ I         223 53.78        14.6 0.30            115            282 291 
 SOCV BZ EP   4    223 10.04                             112   -2.56 0  300  57 
 SOCV BN ES   4    223 41.60                             112   -4.56 0  300  57 
 GUY2CHZ EP        223 14.37                             112    0.99 7  302 234 
 GUY2CHE ES        223 48.39                             112    0.85 7  302 234 
 GUY2CHZ I         223 56.07        11.9 0.30                           302 234 
 PTGC HZ EP   4    223 12.39                             112   -1.50 0  312 159 
 PTGC HN ES   4    223 45.60                             112   -2.85 0  312 159 
 CBOC HZ EP        223 17.26                             110    0.70 7  334 252 
 CBOC HN ES        223 53.62                             110    0.41 7  334 252 
 CBOC HZ I         224  1.98         2.9 0.18            112            334 252 
 MON  HZ EP   4    223 16.57                             109   -1.75 0  351 308 
 MON  HN ES        223 55.45                             109   -0.89 6  351 308 
 MON  HZ I         223 58.02         4.6 0.21            110            351 308 
 SDV  BZ EP        223 18.77                             108   -0.77 6  359  51 
 SDV  BE ES   4    223 56.83                             108   -1.68 0  359  51 
 ORTC HZ EP        223 23.20                             106   -0.58 6  397 216 
 ORTC HN ES        224  6.47                             106    0.41 6  397 216 
 ORTC HZ I         224 10.69         5.3 0.46            108            397 216 
 SJC  HZ EP   9    223 23.39                             106   -1.43 0  406 327 
 SJC  HE ES        224  6.20                                   -0.27 6  406 327 
 SJC  HZ I         224 15.61         3.8 0.34            108            406 327 
 CRJC HZ EP   9    223 29.62                             104   -2.14 0  465   4 
 CRJC HN ES        224 18.07                                   -0.05 5  465   4 
 CRJC HZ I         224 23.23         7.0 0.22            105            465   4 
 SMAR HZ EP        223 34.63                             103   -0.47 4  494 346 
 SMAR HN ES   4    224 23.16                             103   -3.04 0  494 346 
                                                                                
