 2013  223 0636 33.9 L   5.748 -73.941 94.0  RSN  7 0.4 1.5LRSN                1
 GAP=127        0.82       3.1     5.3 11.5  0.1134E+01  0.4757E+01 -0.2813E+01E
 Epicentro: ALBANIA - SANTANDER                                                3
 ACTION:UPD 13-03-12 09:35 OP:ep   STATUS:               ID:20130223063633 L   I
 2013-02-23-0630-00M.COL___225                                                 6
 STAT SP IPHASW D HRMM SECON CODA AMPLIT PERI AZIMU VELO AIN AR TRES W  DIS CAZ7
 PTB  HZ EP   1    636 52.27                             128   -0.50 8  104 327 
 PTB  HN ES   1    637  7.34                             128   -0.13 8  104 327 
 PTB  HZ I         637  8.85         6.3 0.16            101            104 327 
 CHI  HN ES   1    637 12.31                             123    0.07 8  126 169 
 CHI  HZ I         637 17.69         5.8 0.42             56            126 169 
 BAR2 SZ EP   1    636 54.80                             123   -0.38 8  126  42 
 BAR2 SZ ES   1    637 11.68                             123   -0.09 8  126  42 
 CHI  HZ EP   1    636 55.33                             123   -0.12 8  126 169 
 BRR  HZ EP     C  636 58.38                             117    0.6410  152  10 
 BRR  HE ES   1    637 16.79                             117    0.46 7  152  10 
 HEL  HZ EP   2    637  2.61                             113    1.03 5  182 286 
 HEL  HZ I         637 26.73         4.3 0.22             56            182 286 
 ZAR  HZ EP   1    637  4.63                             109   -0.58 7  218 332 
 ZAR  HN ES   2    637 29.65                             109    0.03 4  218 332 
 ZAR  HZ I         637 35.26         3.1 0.30             56            218 332 
 OCA  HE ES   1    637 43.45                             104   -0.41 6  284  14 
                                                                                
