 2013 1123 0513 10.8 L   6.785 -73.151138.6  RSN 15 0.4 2.1LRSN                1
 GAP= 85        0.97       3.1     3.1  5.4 -0.1939E+01  0.2748E+01  0.3215E+01E
 Epicentro: LOS SANTOS - SANTANDER                                             3
 ACTION:UPD 14-01-09 16:30 OP:ep   STATUS:               ID:20131123051310 L   I
 OLDACT:UP  13-11-23 10:43 OP:mh   STATUS:               ID:20131123051000     3
 OLDACT:REG 13-11-23 07:48 OP:mh   STATUS:               ID:20131123051000     3
 2013-11-23-0510-00M.COL___282                                                 6
 STAT SP IPHASW D HRMM SECON CODA AMPLIT PERI AZIMU VELO AIN AR TRES W  DIS CAZ7
 BAR2 SZ IP     C  513 29.72                             171    0.1510 21.6 189 
 BAR2 SZ ES   1    513 44.22                             171    0.04 7 21.6 189 
 BAR2 SZ I         513 45.78                             173           21.6 189 
 BRR  HZ EP   1    513 31.58                             151    0.34 7 71.5 300 
 BRR  HN ES   1    513 47.95                             151    0.80 7 71.5 300 
 BRR  HZ I         513 49.51        17.8 0.11            145           71.5 300 
 PAM  SZ EP   1    513 32.61                             149    0.21 7 79.0  39 
 PAM  SN ES        513 49.45                             149    0.2410 79.0  39 
 PAM  SZ I         513 51.71        36.3 0.45            144           79.0  39 
 PTB  HZ EP        513 36.85                             130   -0.30 9  147 259 
 PTB  HN ES        513 57.04                             130   -0.63 9  147 259 
 PTB  HZ I         514  0.53        20.9 0.09            126            147 259 
 TAM  HZ EP        513 38.11                             129    0.14 9  155 104 
 TAM  HN ES   1    513 58.82                             129   -0.31 7  155 104 
 OCA  HZ EP        513 38.17                             128   -0.58 9  162 353 
 OCA  HN ES   1    513 59.88                             128   -0.65 7  162 353 
 OCA  HZ I         514  3.21        18.6 0.24            122            162 353 
 SPBC HZ EP        513 38.71                             128    0.07 9  162 219 
 SPBC HN ES        513 59.81                             128   -0.51 9  162 219 
 SPBC HZ I         514  3.03        23.0 0.28            125            162 219 
 ZAR  HZ EP   1    513 42.79                             121   -0.05 6  204 293 
 ZAR  HN ES        514  8.53                             121    0.73 9  204 293 
 ZAR  HZ I         514 15.17        13.2 0.31            116            204 293 
 NOR  HZ EP        513 45.70                             117   -0.31 8  233 235 
 NOR  HN ES        514 13.26                             117   -0.18 8  233 235 
 NOR  HZ I         514 20.96        11.3 0.18            114            233 235 
 SML  HZ EP        513 46.73                             116   -0.48 8  245 336 
 SML  HN ES   4    514 12.85                             116   -2.74 0  245 336 
 SML  HZ I         514 19.00        27.5 0.10            112            245 336 
 CHI  HZ EP        513 48.20                             116    0.24 8  247 195 
 CHI  HN ES        514 16.87                             116   -0.04 8  247 195 
 CHI  HZ I         514 20.48         4.8 0.25            114            247 195 
 HEL  HZ EP   4    513 52.07                             113    1.48 0  271 256 
 HEL  HN ES   4    514 22.94                             113    1.34 0  271 256 
 HEL  HZ I         514 26.90         5.3 0.26            110            271 256 
 GUY2CHZ EP        513 54.73                             111    0.77 7  300 235 
 GUY2CHN ES   4    514 30.12                             111    2.52 0  300 235 
 GUY2CHZ I         514 36.48         6.3 0.42                           300 235 
 CBOC HZ EP        513 58.25                             109    0.90 7  333 252 
 CBOC HN ES   1    514 33.23                             109   -0.39 5  333 252 
 CBOC HZ I         514 38.42         2.5 0.25            106            333 252 
 ORTC HZ EP        514  4.63                             105    0.31 6  394 216 
 ORTC HN ES   4    514 48.19                             105    2.15 0  394 216 
 ORTC HZ I         514 52.70         3.6 0.29            103            394 216 
 SJC  HZ EP   4    514  4.67                             104   -1.63 0  410 327 
 SJC  HN ES   4    514 45.69                             104   -3.88 0  410 327 
                                                                                
