 2013  923 0223 27.1 L   6.777 -73.148148.0  RSN 10 0.5 2.0LRSN                1
 GAP=137        0.96       2.9     5.1  6.6 -0.2381E+01  0.6274E+01  0.4112E+01E
 Epicentro: LOS SANTOS - SANTANDER                                             3
 ACTION:UPD 13-10-22 09:24 OP:ep   STATUS:               ID:20130923022327 L   I
 OLDACT:REG 13-09-23 07:36 OP:mher STATUS:               ID:20130923022000     3
 2013-09-23-0220-00M.COL___268                                                 6
 STAT SP IPHASW D HRMM SECON CODA AMPLIT PERI AZIMU VELO AIN AR TRES W  DIS CAZ7
 BRR  HZ EP   1    223 48.80                             153    0.20 7 72.2 300 
 BRR  HN ES        224  6.02                             153    0.7010 72.2 300 
 BRR  HZ I         224  9.00        12.6 0.22            151           72.2 300 
 PAM  SZ EP   1    223 49.70                             151   -0.03 7 79.5  39 
 PAM  SN ES        224  7.15                             151   -0.1910 79.5  39 
 PAM  SZ I         224  8.90        11.1 0.58            157           79.5  39 
 RUS  HN ES   1    224  9.40                             145   -0.11 7 98.1 176 
 RUS  HZ I         224 11.83         8.9 0.52            147           98.1 176 
 PTB  HZ EP   1    223 53.39                             133   -0.85 7  147 260 
 PTB  HN ES   1    224 14.81                             133   -0.55 7  147 260 
 PTB  HZ I         224 21.94        13.4 0.56            132            147 260 
 SPBC HZ EP   1    223 55.74                             130    0.12 7  161 219 
 SPBC HN ES   1    224 17.46                             130   -0.37 7  161 219 
 SPBC HZ I         224 25.06        10.8 0.46            130            161 219 
 OCA  HZ EP   1    223 55.32                             130   -0.54 7  163 353 
 OCA  HN ES        224 18.56                             130    0.30 9  163 353 
 OCA  HZ I         224 20.83        11.3 0.18            133            163 353 
 ZAR  HZ EP   1    224  0.25                             123    0.44 6  205 293 
 ZAR  HN ES   1    224 24.79                             123   -0.50 6  205 293 
 ZAR  HZ I         224 30.65        14.2 0.38            124            205 293 
 SML  HZ EP   1    224  3.21                             118   -0.92 6  246 336 
 SML  HN ES   1    224 33.31                             118    0.33 6  246 336 
 SML  HZ I         224 36.40        15.1 0.24            120            246 336 
 CHI  HZ EP        224  5.02                             118    0.32 8  246 195 
 CHI  HN ES        224 33.77                             118   -0.23 8  246 195 
 CHI  HZ I         224 40.03         3.6 0.36            120            246 195 
 URE  HZ EP   4    224  6.96                             114   -1.45 0  285 292 
 URE  HN ES   4    224 37.72                             114   -2.87 0  285 292 
 PRA  HZ EP   1    224 21.30                             107    0.82 4  390 210 
 PRA  HN ES        225  2.89                             107    0.81 6  390 210 
 PRA  HZ I         225  7.46         3.7 0.44            109            390 210 
                                                                                
