 2016  123 0812 21.3 L   6.815 -73.177144.4  RSN  8 0.4 1.7LRSN                1
 GAP=139        0.89       3.2     4.9  6.3 -0.6906E+01  0.1148E+02 -0.1300E+01E
 Epicentro: ZAPATOCA - SANTANDER                                               3
 ACTION:UPD 16-03-09 23:27 OP:cam  STATUS:               ID:20160123081221 L   I
 OLDACT:UP  16-01-23 15:11 OP:mh   STATUS:               ID:20160123080748d    3
 OLDACT:UP  16-01-23 15:11 OP:mh   STATUS:               ID:20160123080748d    3
 OLDACT:DUP 16-01-23 15:07 OP:mh   STATUS:               ID:20160123080748d    3
 OLDACT:UP  16-01-23 15:04 OP:mh   STATUS:               ID:20160123080747     3
 OLDACT:REG 16-01-23 13:42 OP:mh   STATUS:               ID:20160123080747     3
 2016-01-23-0807-47M.COL___288                                                 6
 STAT SP IPHASW D HRMM SECON CODA AMPLIT PERI AZIMU VELO AIN AR TRES W  DIS CAZ7
 BAR2 EZ EP        812 40.71                             170   -0.1210 24.6 181 
 BAR2 EZ ES        812 56.06                             170    0.0310 24.6 181 
 BAR2 EZ I         812 56.67         6.0 0.08            172           24.6 181 
 PAM  EZ EP        812 43.63                             150    0.1610 78.4  42 
 PAM  EZ I         812 43.78        11.9 0.28            146           78.4  42 
 PAM  EN ES        813  0.99                             150    0.2610 78.4  42 
 PTB  HZ EP        812 48.16                             132    0.24 9  145 258 
 PTB  HN ES        813  8.31                             132   -0.33 9  145 258 
 PTB  HZ I         813 11.94         3.0 0.14            131            145 258 
 OCA  HN ES        813 10.33                             130   -0.87 9  158 354 
 OCA  HZ I         813 39.30        10.3 0.32            125            158 354 
 SPBC HZ EP   1    812 49.30                             129   -0.35 7  162 218 
 SPBC HN ES   1    813 12.24                             129    0.51 7  162 218 
 NOR  HN ES        813 24.69                             118    0.25 8  233 234 
 SML  HZ EP        812 57.58                             117    0.01 8  241 336 
 SML  HN ES        813 26.49                             117    0.66 8  241 336 
 SML  HZ I         813 30.81         4.8 0.10            115            241 336 
 PRA  HZ EP        813 14.80                             106    0.02 6  392 209 
 PRA  HN ES        813 55.93                             106   -0.54 6  392 209 
                                                                                
