 2010  223 0153 36.9 L   6.803 -73.078146.0  RSN  5 0.3 2.2LRSN                1
 GAP=245        0.57       4.5     8.4  7.6  0.5474E+01  0.1131E+02  0.1652E+02E
 Epicentro: LOS SANTOS - SANTANDER                                             3
 ACTION:UP  10-08-24 09:50 OP:vdl  STATUS:               ID:20100223015336 L   I
 2010-02-23-0140-00S.COL___097                                                 6
 STAT SP IPHASW D HRMM SECON CODA AMPLIT PERI AZIMU VELO SNR AR TRES W  DIS CAZ7
 BRR  HZ EP        153 58.47                             150     0.010   78 296 
 BRR  HZ I         153 58.78        16.8 0.11                            78 296 
 BRR  HE ES   2    154 15.40                             150     0.1 5   78 296 
 RUS  BZ EP        154  0.67                             144     0.010  101 180 
 RUS  BE ES   2    154 19.53                             144     0.3 5  101 180 
 CHI  HZ EP        154 14.99                             117     0.1 8  251 197 
 CHI  HN ES   2    154 44.00                             117    -0.5 4  251 197 
 CHI  HZ I         154 52.44         2.4 0.52                           251 197 
 ROSC BZ EP        154 15.14                             116    -0.4 8  257 212 
 ROSC BZ I         154 55.14        77.0 0.03                           257 212 
 PRA  HZ EP        154 31.48                             106     0.6 6  396 210 
 PRA  HN ES        155 13.15                             106     0.1 6  396 210 
                                                                                
