 2015  823 0754 36.0 L   6.825 -73.087148.0  RSN  6 0.4 1.4LRSN                1
 GAP=189        0.75       3.3     8.8  6.7  0.7864E+01 -0.1452E+01 -0.3083E+00E
 Epicentro: LOS SANTOS - SANTANDER                                             3
 ACTION:UPD 15-09-15 23:04 OP:cam  STATUS:               ID:20150823075436 L   I
 OLDACT:REG 15-08-23 14:52 OP:ar   STATUS:               ID:20150823074748     3
 2015-08-23-0747-48M.COL___337                                                 6
 STAT SP IPHASW D HRMM SECON CODA AMPLIT PERI AZIMU VELO AIN AR TRES W  DIS CAZ7
 BAR2 EZ EP        754 56.30                             169    0.3110 27.8 202 
 BAR2 EZ ES        755 11.37                             169   -0.2210 27.8 202 
 BAR2 EZ I         755 13.77         7.3 0.24            164           27.8 202 
 BRR  HZ EP        754 58.05                             151    0.4010 75.8 294 
 BRR  HN ES        755 14.80                             151    0.2610 75.8 294 
 BRR  HZ I         755 19.14         3.7 0.46            147           75.8 294 
 RUS  HZ EP   2    755  0.09                             143   -0.06 5  103 180 
 RUS  HN ES        755 18.98                             143   -0.0110  103 180 
 RUS  HZ I         755 23.33         1.5 0.36            144            103 180 
 OCA  HE ES        755 25.82                             130   -0.57 9  158 351 
 OCA  HZ I         755 30.80         5.3 0.46            132            158 351 
 SPBC HZ EP   2    755  5.08                             128   -0.18 5  169 220 
 SPBC HN ES   2    755 27.23                             128   -0.86 5  169 220 
 SPBC HZ I         755 34.16         4.7 0.16            127            169 220 
 CHI  HZ EP   2    755 14.27                             117   -0.03 4  253 196 
 CHI  HN ES   2    755 43.99                             117   -0.19 4  253 196 
 CHI  HZ I         755 46.13         2.0 0.30            118            253 196 
                                                                                
