 2011 1223 0406 45.0 L   6.328 -73.763 94.2  RSN  4 0.2 1.4LRSN                1
 GAP=170        0.47       4.5     3.2  7.5 -0.4885E+01  0.4746E+01  0.6675E+01E
 Epicentro: LANDAZURI - SANTANDER                                              3
 ACTION:UPD 12-07-13 16:17 OP:ep   STATUS:               ID:20111223040645 L   I
 2011-12-23-0400-00M.COL___188                                                 6
 STAT SP IPHASW D HRMM SECON CODA AMPLIT PERI AZIMU VELO AIN AR TRES W  DIS CAZ7
 BAR2 SZ EP   1    4 7  1.51                             140    0.33 7 70.6  65 
 BAR2 SZ ES   1    4 7 13.58                             140   -0.22 7 70.6  65 
 BAR2 SZ I         4 7 16.78         8.2 0.56                          70.6  65 
 PTB  HZ EP   1    4 7  1.42                             136   -0.24 7 80.2 287 
 PTB  HN ES   2    4 7 14.66                             136    0.02 5 80.2 287 
 BRR  HZ EP        4 7  2.09                             134   -0.0810 86.4   4 
 BRR  HE ES   1    4 7 15.76                             134    0.20 7 86.4   4 
 BRR  HZ I         4 7 22.30         7.1 0.50                          86.4   4 
 NOR  SN ES   2    4 7 27.06                             118    0.20 5  149 235 
                                                                                
