 2013  723 0416 29.0 L   6.728 -73.140151.9  RSN  4 0.3 1.2LRSN                1
 GAP=232        0.58       5.9     6.3  7.1  0.1962E+02 -0.5063E+01  0.2409E+01E
 Epicentro: JORDAN - SANTANDER                                                 3
 ACTION:UPD 13-08-12 10:39 OP:ep   STATUS:               ID:20130723041000 L   I
 OLDACT:UP  13-07-23 10:26 OP:cam  STATUS:               ID:20130723041000 L   3
 OLDACT:UPD 13-07-23 09:12 OP:stll STATUS:               ID:20130723041000 L   3
 2013-07-23-0410-00M.COL___263                                                 6
 STAT SP IPHASW D HRMM SECON CODA AMPLIT PERI AZIMU VELO AIN AR TRES W  DIS CAZ7
 BAR2 SZ EP   1    416 49.10                             174   -0.16 7 15.7 197 
 BRR  HZ EP   1    416 51.00                             152   -0.09 7 75.8 304 
 BRR  HN ES        417  8.37                             152    0.0710 75.8 304 
 RUS  HZ EP   1    416 53.36                             147    0.53 7 92.5 176 
 RUS  HN ES   1    417 11.15                             147   -0.25 7 92.5 176 
 RUS  HZ I         417 12.96         1.4 0.38            142           92.5 176 
 PTB  HZ EP   1    416 56.08                             133   -0.34 7  147 262 
 PTB  HN ES   1    417 17.95                             133    0.16 7  147 262 
 PTB  HZ I         417 24.20         3.4 0.40            128            147 262 
                                                                                
