 2010  223 0827 14.0 L   6.798 -73.064150.1  RSN  4 0.1 1.4LRSN                1
 GAP=206        0.36       3.7     7.8  3.0  0.1585E+02 -0.5569E+00  0.1321E+01E
 Epicentro: LOS SANTOS - SANTANDER                                             3
 ACTION:UP  10-08-24 09:50 OP:vdl  STATUS:               ID:20100223082714 L   I
 2010-02-23-0824-23S.COL___094                                                 6
 STAT SP IPHASW D HRMM SECON CODA AMPLIT PERI AZIMU VELO SNR AR TRES W  DIS CAZ7
 BAR2 SZ EP        827 34.14                             169    -0.110   26 210 
 BAR2 SZ ES        827 49.99                             169     0.010   26 210 
 GIR2 SZ EP        827 34.17                             167    -0.110   34 335 
 GIR2 SZ ES        827 50.15                             167     0.110   34 335 
 BRR  HZ EP        827 36.24                             150     0.110   79 296 
 BRR  HZ I         827 51.31         7.2 0.08                            79 296 
 BRR  HE ES   2    827 53.09                             150    -0.2 5   79 296 
 RUS  BZ EP        827 38.19                             145     0.010  100 181 
 RUS  BZ I         827 39.17         2.0 0.20                           100 181 
 RUS  BN ES   2    827 57.08                             145     0.1 5  100 181 
                                                                                
