 2010  523 0602 41.6 L   6.774 -73.017142.6  RSN  8 0.3 1.8LRSN                1
 GAP=150        0.65       4.4     9.3  7.2 -0.2823E+02 -0.2688E+01  0.3337E+01E
 Epicentro: CEPITA - SANTANDER                                                 3
 *CHI-ROSC-RREF                                                                3
 ACTION:UP  10-08-24 10:06 OP:vdl  STATUS:               ID:20100523060252dL   I
 2010-05-23-0602-51S.COL___111                                                 6
 STAT SP IPHASW D HRMM SECON CODA AMPLIT PERI AZIMU VELO SNR AR TRES W  DIS CAZ7
 BAR2 SZ EP        6 3  0.87                             168     0.010   27 223 
 BAR2 SZ ES   2    6 3 15.61                             168    -0.4 5   27 223 
 GUE  SZ EP        6 3  5.98                             139    -0.110  117   5 
 GRA  SZ EP        6 3  6.75                             137     0.310  125  11 
 GRA  SZ ES   1    6 3 26.31                             137     0.4 7  125  11 
 OCA  SZ EP        6 3  9.68                             128    -0.4 9  165 348 
 OCA  SZ ES   2    6 3 32.25                             128    -0.1 5  165 348 
 OCA  SZ I         6 3 35.38         8.9 0.15                           165 348 
 CHI  HZ EP   2    6 3 18.49                             116    -0.7 4  250 199 
 CHI  HZ I         6 3 20.02         2.0 0.12                           250 199 
 CHI  HN ES   2    6 3 48.92                             116     0.3 4  250 199 
 ROSC BZ EP   2    6 3 20.33                             116     0.2 4  258 214 
 ROSC BN ES   2    6 3 50.71                             116     0.6 4  258 214 
 ROSC BZ I         6 3 56.69         5.1 0.43                           258 214 
 RREF BZ EP   2    6 3 29.10                             110     0.5 3  331 231 
 RREF BE ES   2    6 4  5.54                             110     0.2 3  331 231 
 RREF BZ I         6 4 10.48         4.1 0.31                           331 231 
 SDV  BZ EP   1    6 3 30.37                             108    -0.1 5  351  48 
 SDV  BZ I         6 4 10.05         1.5 0.47                           351  48 
                                                                                
