 2012  423 0241  1.1 L   6.744 -73.162146.2  RSN  5 0.3 1.2LRSN                1
 GAP=137        0.71       5.5     5.2  8.7  0.8730E+00 -0.2295E+01  0.5008E+00E
 Epicentro: VILLANUEVA - SANTANDER                                             3
 ACTION:UPD 12-07-05 11:55 OP:tino STATUS:               ID:20120423024101 L   I
 2012-04-23-0240-00M.COL___186                                                 6
 STAT SP IPHASW D HRMM SECON CODA AMPLIT PERI AZIMU VELO AIN AR TRES W  DIS CAZ7
 BAR2 SZ EP   1    241 20.62                             173    -0.1 7   17 188 
 BRR  HZ EP   1    241 22.91                             152     0.5 7   73 303 
 BRR  HN ES   1    241 39.29                             152     0.3 7   73 303 
 BRR  HZ I         241 44.44         6.2 0.12                            73 303 
 PAM  SZ EP   1    241 23.83                             149     0.1 7   83  38 
 PAM  SN ES   2    241 40.65                             149    -0.7 5   83  38 
 RUS  HZ EP   1    241 24.50                             146     0.0 7   95 175 
 RUS  HN ES   1    241 42.84                             146     0.1 7   95 175 
 RUS  HZ I         241 44.63         2.1 0.36                            95 175 
 PTB  HZ EP   1    241 27.59                             133    -0.3 7  145 261 
 PTB  HN ES   1    241 48.35                             133    -0.4 7  145 261 
 PTB  HZ I         241 53.60         1.0 0.07                           145 261 
                                                                                
