 2013  223 0734 34.9 L   6.698 -73.165144.3  RSN  5 0.2 1.3LRSN                1
 GAP=153        0.50       6.7     3.6  5.6  0.2291E+01  0.5703E+00 -0.5229E+01E
 Epicentro: VILLANUEVA - SANTANDER                                             3
 ACTION:UPD 13-03-12 09:35 OP:ep   STATUS:               ID:20130223073434 L   I
 2013-02-23-0730-00M.COL___225                                                 6
 STAT SP IPHASW D HRMM SECON CODA AMPLIT PERI AZIMU VELO AIN AR TRES W  DIS CAZ7
 BAR2 SZ EP   1    734 54.46                             175    0.31 7 11.9 189 
 BAR2 SZ ES   1    735  8.88                             175   -0.30 7 11.9 189 
 BAR2 SZ I         735 11.78         7.0 0.28            164           11.9 189 
 BRR  HZ EP   1    734 56.18                             151    0.07 7 75.4 307 
 BRR  HN ES   1    735 13.01                             151    0.34 7 75.4 307 
 BRR  HZ I         735 15.55         3.8 0.38            143           75.4 307 
 PAM  SZ EP   1    734 57.39                             147   -0.18 7 87.6  36 
 PAM  SZ I         735 16.25         2.8 0.52            128           87.6  36 
 PTB  HZ EP   1    735  1.35                             132   -0.01 7  144 263 
 PTB  HN ES   1    735 22.00                             132   -0.02 7  144 263 
 PTB  HZ I         735 24.39         2.0 0.23            129            144 263 
 ZAR  HN ES   1    735 32.63                             122   -0.29 6  207 295 
                                                                                
