 2012  923 0721 26.8 L   6.737 -73.152148.0  RSN  7 0.5 1.8LRSN                1
 GAP=139        1.04       7.6     6.1 10.6 -0.1359E+01  0.4482E+01 -0.1851E+02E
 Epicentro: JORDAN - SANTANDER                                                 3
 ACTION:UPD 12-10-22 14:20 OP:ep   STATUS:               ID:20120923072126 L   I
 2012-09-23-0720-00M.COL___221                                                 6
 STAT SP IPHASW D HRMM SECON CODA AMPLIT PERI AZIMU VELO AIN AR TRES W  DIS CAZ7
 BAR2 SZ EP   1    721 46.68                             173    0.08 7 16.4 192 
 BAR2 SZ ES   1    722  2.28                             173    0.25 7 16.4 192 
 BAR2 SZ I         722  2.72        13.5 0.18                          16.4 192 
 GIR2 SZ EP   1    721 46.07                             165   -0.88 7 38.1 353 
 GIR2 SZ ES   2    722  1.85                             165   -0.81 5 38.1 353 
 BRR  HZ EP   1    721 48.78                             152    0.40 7 74.2 304 
 BRR  HZ I         721 50.67        10.1 0.30                          74.2 304 
 BRR  HN ES   1    722  5.99                             152    0.79 7 74.2 304 
 PAM  SZ EP        721 49.79                             149    0.1610 83.3  37 
 PAM  SE ES   1    722  7.16                             149   -0.26 7 83.3  37 
 RUS  HN ES   1    722  8.87                             146    0.24 7 93.7 175 
 PTB  HN ES   1    722 13.95                             133   -0.90 7  146 261 
 PTB  HN I         722 16.43         4.9 0.14                           146 261 
 ZAR  HN ES   1    722 25.53                             123    0.31 6  206 294 
 ZAR  HN I         722 28.61        12.0 0.12                           206 294 
                                                                                
