 2017  123 0903 22.4 L   7.378 -73.112  9.7  RSN  6 0.4 1.0LRSN                1
 GAP=181        0.98       3.5     2.2  4.5 -0.4227E+00  0.4207E+01 -0.4383E+00E
 Epicentro: MATANZA - SANTANDER                                                3
 ACTION:UPD 17-05-22 16:02 OP:jn   STATUS:               ID:20170123090322 L   I
 OLDACT:REG 17-01-23 12:58 OP:lv   STATUS:               ID:20170123085743     3
 2017-01-23-0858-00M.COL___331                                                 6
 STAT SP IPHASW D HRMM SECON CODA AMPLIT PERI AZIMU VELO AIN AR TRES W  DIS CAZ7
 PAM  EZ IP     D  9 3 30.79                              99    0.2510 45.7  95 
 PAM  EE ES        9 3 36.31                              99   -0.5310 45.7  95 
 PAM  EZ I         9 3 37.70         6.4 0.16             93           45.7  95 
 BRR  HZ EP        9 3 34.20                              95    0.1010 72.7 246 
 BRR  HN ES        9 3 43.18                              95   -0.0010 72.7 246 
 BAR2 EZ EP        9 3 36.76                              94    0.2310 87.2 185 
 BAR2 EZ ES        9 3 47.16                              94   -0.3510 87.2 185 
 RUS  HZ EP        9 3 49.25                              56    0.91 9  164 179 
 RUS  HN ES        9 4  8.46                              56   -0.07 9  164 179 
 RUS  HZ I         9 4 13.52         1.5 0.16             91            164 179 
 PTB  HZ EP        9 3 49.09                              56   -0.03 9  175 238 
 PTB  HE ES        9 4  9.71                              56   -0.22 9  175 238 
 PTB  HZ I         9 4 11.32         1.1 0.16             56            175 238 
 ZAR  HZ EP        9 3 51.67                              56    0.30 9  193 274 
 ZAR  HN ES        9 4 13.39                              56   -0.55 9  193 274 
 ZAR  HZ I         9 4 14.87         2.9 0.32             56            193 274 
                                                                                
