 2016  823 0613 31.2 L   6.160 -73.583113.5  RSN 13 0.5 1.6LRSN                1
 GAP= 75        1.31       3.1     3.7  6.8 -0.1934E+01  0.9077E+01  0.4322E+00E
 Epicentro: LA PAZ - SANTANDER                                                 3
 ACTION:UPD 16-10-29 15:38 OP:rebc STATUS:               ID:20160823061331 L   I
 OLDACT:UP  16-08-23 17:44 OP:ak   STATUS:               ID:20160823060732     3
 OLDACT:REG 16-08-23 15:05 OP:ak   STATUS:               ID:20160823060732     3
 2016-08-23-0608-00M.COL___362                                                 6
 STAT SP IPHASW D HRMM SECON CODA AMPLIT PERI AZIMU VELO AIN AR TRES W  DIS CAZ7
 RUS  HZ EP        613 49.06                             149   -0.0610 62.8 118 
 RUS  HE ES        614  2.58                             149   -0.5210 62.8 118 
 RUS  HZ I         614  4.86         3.7 0.34                          62.8 118 
 BAR2 EZ EP        613 49.41                             148    0.5010 65.2  43 
 BAR2 EZ ES        614  3.31                             148    0.5810 65.2  43 
 BAR2 EZ I         614  5.94         7.6 0.48                          65.2  43 
 SPBC HZ EP        613 49.67                             143    0.0810 78.0 224 
 SPBC HN ES        614  3.91                             143   -0.0210 78.0 224 
 SPBC HZ I         614  6.41        18.3 0.10                          78.0 224 
 PTB  HZ EP        613 50.88                             134   -0.8210  105 294 
 PTB  HE ES        614  6.89                             134   -0.8010  105 294 
 PTB  HZ I         614  9.90        10.5 0.42                           105 294 
 BRR  HZ EP        613 51.88                             134    0.1710  106 352 
 BRR  HN ES        614  8.65                             134    0.9410  106 352 
 BRR  HZ I         614 11.68         4.7 0.20                           106 352 
 NOR  HZ EP        613 56.93                             122    0.18 9  157 245 
 NOR  HE ES        614 17.06                             122    0.38 9  157 245 
 NOR  HZ I         614 20.91        14.3 0.16                           157 245 
 CHI  HZ EP        613 58.51                             120   -0.08 9  170 186 
 CHI  HN ES        614 19.20                             120   -0.76 9  170 186 
 CHI  HZ I         614 24.37         5.3 0.48                           170 186 
 ZAR  HZ EP        614  1.39                             114   -0.36 9  204 316 
 ZAR  HN ES        614 24.68                             114   -0.90 9  204 316 
 ZAR  HZ I         614 30.76         3.7 0.34                           204 316 
 HEL  HZ EP        614  3.91                             113    0.41 8  215 271 
 HEL  HE ES        614 28.32                             113   -0.37 8  215 271 
 HEL  HZ I         614 32.79         3.9 0.22                           215 271 
 GUY2CHZ EP        614  5.23                             112    0.75 8  223 242 
 GUY2CHE ES        614 31.15                             112    0.72 8  223 242 
 GUY2CHZ I         614 37.09         6.3 0.24                           223 242 
 OCA  HZ EP        614  4.40                             111   -0.68 8  232   7 
 OCA  HE ES        614 31.63                             111    0.13 8  232   7 
 CBOC HZ EP        614 10.01                             107    0.40 8  271 263 
 CBOC HN ES        614 39.80                             107    0.23 8  271 263 
 CBOC HZ I         614 42.41         1.3 0.42                           271 263 
 PRA  HZ EP        614 13.21                             105   -0.43 7  307 208 
 PRA  HN ES        614 47.21                             105    0.47 7  307 208 
 PRA  HZ I         614 50.54         3.3 0.34                           307 208 
                                                                                
