 2017  523 0106 39.3 L   6.791 -73.174148.1  RSN  6 0.4 1.6LRSN                1
 GAP=210        0.90       5.2     5.1  7.6  0.1650E+02 -0.5966E+01 -0.1723E+01E
 Epicentro: LOS SANTOS - SANTANDER                                             3
 ACTION:UPD 17-06-16 13:38 OP:jn   STATUS:               ID:20170523010639 L   I
 OLDACT:UP  17-05-23 13:21 OP:ar   STATUS:               ID:20170523005735     3
 OLDACT:REG 17-05-23 12:06 OP:ar   STATUS:               ID:20170523005735     3
 2017-05-23-0058-00M.COL___341                                                 6
 STAT SP IPHASW D HRMM SECON CODA AMPLIT PERI AZIMU VELO AIN AR TRES W  DIS CAZ7
 BRR  HZ IP     C  1 7  0.66                             154    0.0410 69.0 300 
 BRR  HN ES        1 7 17.62                             154    0.4110 69.0 300 
 BRR  HZ I         1 7 20.91        11.0 0.32            154           69.0 300 
 RUS  HZ EP        1 7  2.84                             144   -0.4310 99.9 174 
 RUS  HN ES        1 7 21.69                             144   -0.2510 99.9 174 
 RUS  HZ I         1 7 22.45         3.0 0.30            146           99.9 174 
 PTB  HZ EP        1 7  6.69                             133    0.48 9  145 259 
 PTB  HN ES        1 7 26.62                             133   -0.55 9  145 259 
 PTB  HZ I         1 7 33.90         6.9 0.40            134            145 259 
 SPBC HZ EP        1 7  8.02                             130    0.26 9  160 218 
 SPBC HN ES        1 7 30.34                             130    0.40 9  160 218 
 SPBC HZ I         1 7 32.68         6.2 0.54            131            160 218 
 YPLC HZ EP        1 7  9.24                             127   -0.13 9  178 150 
 YPLC HE ES        1 7 32.94                             127    0.15 9  178 150 
 YPLC HZ I         1 7 39.50         3.3 0.44            130            178 150 
 ZAR  HZ EP   4    1 7 14.40                             123    2.72 0  202 293 
 ZAR  HE ES        1 7 36.52                             123   -0.38 9  202 293 
 ZAR  HZ I         1 7 43.34         6.4 0.52            125            202 293 
                                                                                
