 2015  523 0335 39.0 L   6.843 -73.033149.2  RSN  7 0.3 1.5LRSN                1
 GAP=195        0.70       4.3     7.4  7.2  0.1907E+02 -0.1103E+02 -0.6389E+01E
 Epicentro: CEPITA - SANTANDER                                                 3
 ACTION:UPD 15-09-10 22:06 OP:cam  STATUS:               ID:20150523033539 L   I
 OLDACT:DUP 15-05-23 14:26 OP:spq  STATUS:               ID:20150523032748d    3
 2015-05-23-0327-47M.COL___297                                                 6
 STAT SP IPHASW D HRMM SECON CODA AMPLIT PERI AZIMU VELO AIN AR TRES W  DIS CAZ7
 BAR2 EZ EP        335 59.24                             167   -0.0410 32.3 211 
 BAR2 EZ ES   1    336 14.96                             167   -0.12 7 32.3 211 
 BAR2 EZ I         336 16.94         5.4 0.28            172           32.3 211 
 BRR  HZ EP        336  1.36                             150    0.2710 80.5 291 
 BRR  HN ES        336 18.66                             150    0.3610 80.5 291 
 BRR  HZ I         336 22.84         3.9 0.28            151           80.5 291 
 RUS  HZ EP        336  3.63                             143    0.1710  105 183 
 RUS  HE ES   1    336 21.90                             143   -0.61 7  105 183 
 RUS  HZ I         336 23.28         1.7 0.43            150            105 183 
 OCA  HN ES   1    336 29.36                             131   -0.09 7  158 348 
 OCA  HZ I         336 35.56         5.4 0.30            132            158 348 
 ZAR  HE ES   1    336 38.65                             122   -0.35 6  214 290 
 ZAR  HZ I         336 43.77         3.6 0.12            124            214 290 
 SML  HE ES   1    336 44.35                             118   -0.46 6  245 332 
 SML  HZ I         336 48.19         5.5 0.08            120            245 332 
 MON  HZ EP   4    336 30.55                             109    1.58 0  361 307 
 MON  HN ES   4    337  5.57                             109   -2.35 0  361 307 
 MON  HZ I         337  6.45         1.0 0.70            111            361 307 
                                                                                
