 2012 1023 0245 59.3 L   6.837 -73.117148.6  RSN  4 0.2 1.5LRSN                1
 GAP=138        0.44       4.8     5.8  7.1  0.1294E+02 -0.2069E+02 -0.3229E+01E
 Epicentro: LOS SANTOS - SANTANDER                                             3
 ACTION:UPD 12-11-22 17:05 OP:ep   STATUS:               ID:20121023024559 L   I
 2012-10-23-0240-00M.COL___234                                                 6
 STAT SP IPHASW D HRMM SECON CODA AMPLIT PERI AZIMU VELO AIN AR TRES W  DIS CAZ7
 BRR  HZ EP   1    246 20.43                             153   -0.34 7 72.2 294 
 PAM  SZ EP   1    246 21.70                             153    0.22 7 72.2  40 
 PAM  SN I         246 40.57         9.0 0.70                          72.2  40 
 BRR  HZ I         246 21.11         5.1 0.19                          72.2 294 
 BRR  HN ES        246 37.54                             153   -0.0110 72.2 294 
 RUS  HZ EP   1    246 23.59                             144    0.02 7  104 178 
 RUS  HN ES   2    246 42.58                             144    0.05 5  104 178 
 RUS  HN I         246 44.21         3.8 0.36                           104 178 
 ZAR  HN ES   2    246 57.86                             123    0.26 4  205 291 
                                                                                
