 2012 1223 0754 32.6 L   6.757 -73.155149.2  RSN  8 0.4 1.7LRSN                1
 GAP=137        0.88       4.5     5.1  6.6  0.1926E+01  0.8671E+01  0.6028E+01E
 Epicentro: LOS SANTOS - SANTANDER                                             3
 ACTION:UPD 13-01-04 14:29 OP:ep   STATUS:               ID:20121223075432 L   I
 2012-12-23-0750-00M.COL___243                                                 6
 STAT SP IPHASW D HRMM SECON CODA AMPLIT PERI AZIMU VELO AIN AR TRES W  DIS CAZ7
 BAR2 SZ EP   1    754 52.54                             173    0.02 7 18.5 189 
 BAR2 SZ ES   1    755  7.68                             173   -0.41 7 18.5 189 
 BAR2 SZ I         755 11.15        15.4 0.18                          18.5 189 
 GIR2 SZ EP   1    754 52.22                             166   -0.55 7 35.8 353 
 GIR2 SZ ES   1    755  8.54                             166    0.01 7 35.8 353 
 GIR2 SZ I         755  9.22         5.2 0.30                          35.8 353 
 BRR  HZ EP     C  754 54.45                             153    0.2810 72.7 302 
 BRR  HE ES   1    755 11.91                             153    0.89 7 72.7 302 
 BRR  HZ I         755 14.97         7.7 0.46                          72.7 302 
 PAM  SZ EP   1    754 55.46                             150    0.05 7 81.7  38 
 PAM  SE ES   1    755 12.77                             150   -0.45 7 81.7  38 
 PAM  SZ I         755 14.84        12.8 0.58                          81.7  38 
 RUS  HZ EP   1    754 56.45                             146    0.12 7 96.0 175 
 RUS  HN ES   1    755 15.43                             146    0.56 7 96.0 175 
 RUS  HZ I         755 17.81         7.4 0.52                          96.0 175 
 PTB  HZ EP   1    754 59.48                             133   -0.17 7  146 261 
 PTB  HN ES   1    755 20.43                             133   -0.34 7  146 261 
 PTB  HZ I         755 23.49         9.7 0.10                           146 261 
 ZAR  HZ EP   1    755  5.53                             123    0.21 6  205 293 
 ZAR  HN ES   1    755 30.44                             123   -0.44 6  205 293 
 ZAR  HZ I         755 38.01         6.5 0.50                           205 293 
 CHI  HZ EP   1    755 10.56                             118    0.62 6  244 195 
 CHI  HN ES   1    755 38.26                             118   -0.82 6  244 195 
 CHI  HZ I         755 45.33         2.6 0.30                           244 195 
                                                                                
