 2014  623 0300 41.1 L   6.756 -73.147122.3  RSN  4 0.4 1.0LRSN                1
 GAP=234        0.97       6.9     7.1  8.8  0.2504E+02  0.9491E+01  0.1661E+01E
 Epicentro: LOS SANTOS - SANTANDER                                             3
 ACTION:UPD 14-07-01 22:55 OP:nd   STATUS:               ID:20140623030041 L   I
 OLDACT:DUP 14-06-23 16:35 OP:spq  STATUS:               ID:20140623025817d    3
 2014-06-23-0258-16M.COL___262                                                 6
 STAT SP IPHASW D HRMM SECON CODA AMPLIT PERI AZIMU VELO AIN AR TRES W  DIS CAZ7
 BAR2 SZ EP        3 0 58.31                             171    0.4610 18.5 192 
 BAR2 SZ ES   1    3 1 10.61                             171   -0.27 7 18.5 192 
 BAR2 SZ I         3 1 17.74         1.9 0.11            175           18.5 192 
 BRR  HZ EP        3 1  0.19                             147    0.2310 73.5 302 
 BRR  HN ES        3 1 14.44                             147   -0.2010 73.5 302 
 BRR  HZ I         3 1 22.87         3.6 0.19            152           73.5 302 
 RUS  HZ EP   1    3 1  2.33                             140    0.06 7 95.7 176 
 RUS  HE ES        3 1 18.67                             140   -0.0910 95.7 176 
 RUS  HZ I         3 1 22.09         0.8 0.25            150           95.7 176 
 PTB  HZ EP        3 1  5.43                             126   -0.77 9  147 261 
 PTB  HN ES        3 1 26.20                             126    0.45 9  147 261 
 PTB  HZ I         3 1 29.32         2.3 0.13            135            147 261 
                                                                                
