 2014  923 0920 31.8 L   6.819 -73.141149.9  RSN  7 0.2 1.4LRSN                1
 GAP=136        0.63       2.6     2.9  4.0  0.7120E+00  0.2808E+01 -0.2364E+01E
 Epicentro: LOS SANTOS - SANTANDER                                             3
 ACTION:UPD 14-10-03 23:07 OP:nd   STATUS:               ID:20140923092031 L   I
 OLDACT:UP  14-09-23 15:42 OP:cam  STATUS:               ID:20140923092000     3
 OLDACT:REG 14-09-23 13:09 OP:cam  STATUS:               ID:20140923092000     3
 2014-09-23-0920-00M.COL___252                                                 6
 STAT SP IPHASW D HRMM SECON CODA AMPLIT PERI AZIMU VELO AIN AR TRES W  DIS CAZ7
 BAR2 SZ ES        921  7.69                             170   -0.0310 25.5 190 
 BRR  HZ EP        920 53.68                             153    0.3010 70.7 297 
 BRR  HN ES        921 10.25                             153    0.0410 70.7 297 
 BRR  HZ I         921 11.05         5.8 0.30            151           70.7 297 
 PAM  SZ EP     C  920 54.77                             152    0.4110 75.4  40 
 PAM  SN ES        921 11.85                             152   -0.0910 75.4  40 
 PAM  SZ I         921 13.43         2.8 0.16            154           75.4  40 
 RUS  HZ EP        920 56.01                             144   -0.1110  103 176 
 RUS  HN ES        921 14.95                             144   -0.1310  103 176 
 RUS  HZ I         921 16.44         2.4 0.44            146            103 176 
 PTB  HZ EP        920 58.76                             133   -0.45 9  149 258 
 PTB  HN ES        921 20.67                             133    0.10 9  149 258 
 PTB  HZ I         921 25.31         2.2 0.36            132            149 258 
 ZAR  HZ EP        921  4.69                             123    0.19 9  204 292 
 ZAR  HN ES        921 30.17                             123    0.17 9  204 292 
 ZAR  HZ I         921 35.28         2.1 0.36            123            204 292 
 SML  HZ EP        921  8.36                             118   -0.13 8  242 335 
 SML  HE ES        921 36.68                             118   -0.42 8  242 335 
 SML  HZ I         921 42.25         2.7 0.10            119            242 335 
                                                                                
