 2014  923 0316 13.4 L   6.765 -73.152138.6  RSN 10 0.5 1.8LRSN                1
 GAP=137        1.25       4.3     5.1  6.9  0.2758E+00  0.9239E+01  0.6474E+01E
 Epicentro: LOS SANTOS - SANTANDER                                             3
 ACTION:UPD 14-10-03 23:07 OP:nd   STATUS:               ID:20140923031613 L   I
 OLDACT:UP  14-09-23 13:55 OP:cam  STATUS:               ID:20140923031001d    3
 OLDACT:DUP 14-09-23 13:52 OP:cam  STATUS:               ID:20140923031001d    3
 OLDACT:UP  14-09-23 13:51 OP:cam  STATUS:               ID:20140923031000     3
 OLDACT:REG 14-09-23 12:40 OP:cam  STATUS:               ID:20140923031000     3
 2014-09-23-0310-00M.COL___252                                                 6
 STAT SP IPHASW D HRMM SECON CODA AMPLIT PERI AZIMU VELO AIN AR TRES W  DIS CAZ7
 BAR2 SZ EP     C  316 31.99                             172   -0.0610 19.3 190 
 BAR2 SZ ES        316 45.95                             172   -0.6810 19.3 190 
 BAR2 SZ I         316 48.06        11.8 0.38            171           19.3 190 
 BRR  HZ EP     D  316 33.92                             151    0.1110 72.5 302 
 BRR  HN ES        316 50.69                             151    0.9210 72.5 302 
 BRR  HZ I         316 51.95        11.6 0.18            150           72.5 302 
 PAM  SZ EP        316 34.99                             148   -0.0510 80.9  38 
 PAM  SN ES        316 51.85                             148   -0.1010 80.9  38 
 PAM  SZ I         316 54.29        15.1 0.70            152           80.9  38 
 RUS  HZ EP        316 35.95                             143   -0.1810 96.7 175 
 RUS  HN ES        316 54.41                             143    0.5210 96.7 175 
 RUS  HZ I         316 56.00         9.2 0.42            145           96.7 175 
 PTB  HZ EP        316 38.87                             131   -0.75 9  146 260 
 PTB  HN ES        316 59.75                             131   -0.35 9  146 260 
 PTB  HZ I         317  5.07         8.5 0.16            131            146 260 
 SPBC HZ EP     C  316 40.98                             128    0.00 9  160 220 
 SPBC HN ES        317  2.15                             128   -0.37 9  160 220 
 SPBC HZ I         317  5.31        13.5 0.28            129            160 220 
 ZAR  HZ EP        316 46.36                             121    0.93 9  205 293 
 ZAR  HE ES        317 10.10                             121   -0.35 9  205 293 
 ZAR  HZ I         317 17.02         6.9 0.30            122            205 293 
 CHI  HZ EP        316 49.75                             116   -0.48 8  245 195 
 CHI  HN ES        317 19.90                             116    0.91 8  245 195 
 CHI  HZ I         317 22.51         2.9 0.40            118            245 195 
 GUY2CHZ EP        316 56.64                             111    0.32 7  298 235 
 PRA  HZ EP        317  6.03                             105   -0.16 6  388 210 
                                                                                
