 2012 1223 0017 32.9 L   6.783 -73.136151.1  RSN 10 0.5 1.7LRSN                1
 GAP=139        1.02       4.2     6.1  8.7  0.1993E+01  0.9246E+01  0.4131E+01E
 Epicentro: LOS SANTOS - SANTANDER                                             3
 ACTION:UPD 13-01-04 14:29 OP:ep   STATUS:               ID:20121223001732 L   I
 2012-12-23-0010-00M.COL___243                                                 6
 STAT SP IPHASW D HRMM SECON CODA AMPLIT PERI AZIMU VELO AIN AR TRES W  DIS CAZ7
 BAR2 SZ EP   1    017 53.23                             171    0.14 7 21.7 194 
 BAR2 SZ ES   1    018  9.06                             171    0.18 7 21.7 194 
 BAR2 SZ I         018 12.32        15.1 0.40                          21.7 194 
 GIR2 SZ EP   1    017 52.77                             167   -0.44 7 33.3 349 
 GIR2 SZ I         018 10.42         7.1 0.28                          33.3 349 
 BRR  HZ EP   1    017 55.17                             153    0.49 7 73.1 299 
 BRR  HN ES   1    018 12.45                             153    0.74 7 73.1 299 
 BRR  HZ I         018 16.98        16.6 0.30                          73.1 299 
 PAM  SZ EP   1    017 56.13                             151    0.45 7 78.2  38 
 PAM  SN ES   1    018 12.93                             151   -0.56 7 78.2  38 
 PAM  SZ I         018 15.45         6.6 0.20                          78.2  38 
 RUS  HZ EP   1    017 57.10                             145    0.10 7 98.6 177 
 RUS  HN ES   1    018 15.85                             145    0.02 7 98.6 177 
 RUS  HZ I         018 16.84         4.5 0.32                          98.6 177 
 PTB  HZ EP   1    018  0.08                             133   -0.25 7  148 260 
 PTB  HN ES   1    018 21.06                             133   -0.69 7  148 260 
 PTB  HZ I         018 27.14         8.1 0.18                           148 260 
 OCA  HN ES   1    018 24.32                             130    0.00 7  162 353 
 OCA  HZ I         018 28.25         8.2 0.26                           162 353 
 ZAR  HN ES   1    018 32.16                             123    0.62 6  206 293 
 SML  HN ES   1    018 37.99                             118   -1.01 6  246 335 
 CHI  HZ EP   1    018 11.50                             118    0.81 6  247 196 
 CHI  HN ES   1    018 39.19                             118   -1.01 6  247 196 
 CHI  HZ I         018 48.39         3.4 0.66                           247 196 
                                                                                
