 2012 1023 0541 11.8 L   6.736 -73.119144.2  RSN  4 0.2 1.6LRSN                1
 GAP=235        0.49       6.2     7.3  6.5  0.3884E+02 -0.6006E+01 -0.8039E+01E
 Epicentro: JORDAN - SANTANDER                                                 3
 ACTION:UPD 12-11-22 17:05 OP:ep   STATUS:               ID:20121023054111 L   I
 2012-10-23-0540-00M.COL___234                                                 6
 STAT SP IPHASW D HRMM SECON CODA AMPLIT PERI AZIMU VELO AIN AR TRES W  DIS CAZ7
 BAR2 SZ EP   1    541 31.20                             173    0.04 7 17.3 204 
 BRR  HZ EP   1    541 32.83                             150   -0.34 7 77.4 302 
 BRR  HN ES        541 49.93                             150    0.1110 77.4 302 
 BRR  HN I         541 50.41        12.0 0.22                          77.4 302 
 RUS  HZ EP   1    541 35.24                             146    0.33 7 93.3 178 
 RUS  HN ES        541 52.80                             146   -0.1210 93.3 178 
 RUS  HN I         541 55.17         2.8 0.22                          93.3 178 
 ZAR  HN ES        542 10.41                             121   -0.01 8  210 294 
 ZAR  HN I         542 11.07         3.7 0.13                           210 294 
                                                                                
