 2010  323 0236  1.5 L   6.836 -73.015139.3  RSN  8 0.3 2.2LRSN                1
 GAP=196        0.69       2.9     8.0  5.4  0.2560E+01  0.7532E+00  0.1242E+01E
 Epicentro: CEPITA - SANTANDER                                                 3
 ACTION:UP  10-08-24 09:55 OP:vdl  STATUS:               ID:20100323023601 L   I
 2010-03-23-0232-49S.COL___098                                                 6
 STAT SP IPHASW D HRMM SECON CODA AMPLIT PERI AZIMU VELO SNR AR TRES W  DIS CAZ7
 BAR2 SZ IP        236 20.73                             166     0.210   33 215 
 BAR2 SZ ES   1    236 34.99                             166    -0.5 7   33 215 
 BRR  HZ IP        236 22.58                             147     0.010   83 291 
 BRR  HE ES   1    236 39.27                             147     0.1 7   83 291 
 BRR  HZ I         236 42.03        28.2 0.26                            83 291 
 RUS  HZ IP        236 24.76                             141    -0.110  105 184 
 RUS  HN ES   1    236 43.18                             141     0.0 7  105 184 
 RUS  HZ I         236 44.49        16.1 0.31                           105 184 
 OCA  SZ EP        236 29.36                             128     0.2 9  159 348 
 OCA  SZ ES   1    236 50.51                             128    -0.2 7  159 348 
 OCA  SZ I         236 55.06        37.0 0.32                           159 348 
 CHI  HZ EP   1    236 39.49                             115    -0.2 6  257 198 
 CHI  HN ES   1    237 10.22                             115     0.7 6  257 198 
 CHI  HZ I         237 19.15         5.1 0.53                           257 198 
 HEL  HZ EP   2    236 42.60                             112    -0.4 4  287 256 
 HEL  HZ I         237 21.42         7.6 0.18                           287 256 
 RREF BZ EP   1    236 49.24                             108     0.3 5  335 230 
 RREF BZ I         237 33.07         8.8 0.40                           335 230 
 PRA  HZ EP   1    236 55.59                             105    -0.4 4  403 211 
 PRA  HN ES   2    237 37.73                             105    -0.9 3  403 211 
 PRA  HZ I         237 41.10         4.9 0.31                           403 211 
                                                                                
