 2016 1123 0558 54.9 L   6.684 -73.147146.3  RSN  4 0.2 1.0LRSN                1
 GAP=167        0.49       5.9     3.2  4.2 -0.4320E+01 -0.6714E+00 -0.1135E+01E
 Epicentro: VILLANUEVA - SANTANDER                                             3
 ACTION:UPD 17-10-26 21:10 OP:lp   STATUS:               ID:20161123055854 L   I
 OLDACT:UP  16-11-23 16:15 OP:dani STATUS:               ID:20161123055747     3
 OLDACT:REG 16-11-23 12:58 OP:dani STATUS:               ID:20161123055747     3
 2016-11-23-0558-00M.COL___352                                                 6
 STAT SP IPHASW D HRMM SECON CODA AMPLIT PERI AZIMU VELO AIN AR TRES W  DIS CAZ7
 BAR2 EZ EP        559 14.70                             176    0.2810 10.9 201 
 BAR2 EZ ES        559 29.53                             176   -0.1010 10.9 201 
 BRR  HZ EP        559 16.49                             150   -0.0210 78.0 307 
 BRR  HN ES        559 33.52                             150    0.1610 78.0 307 
 BRR  HZ I         559 36.59         2.5 0.16            147           78.0 307 
 PAM  EZ EP        559 17.63                             148   -0.2010 87.8  34 
 PTB  HZ EP        559 21.77                             133    0.04 9  146 264 
 PTB  HN ES        559 42.48                             133   -0.17 9  146 264 
 PTB  HZ I         559 44.74         1.1 0.16            132            146 264 
                                                                                
