 2013  923 0137 11.8 L   6.785 -73.138145.6  RSN 10 0.5 1.9LRSN                1
 GAP=138        1.03       4.0     5.1  7.7 -0.3648E+01  0.9373E+01  0.3773E+01E
 Epicentro: LOS SANTOS - SANTANDER                                             3
 ACTION:UPD 13-10-22 09:24 OP:ep   STATUS:               ID:20130923013711 L   I
 OLDACT:REG 13-09-23 07:35 OP:mher STATUS:               ID:20130923013000     3
 2013-09-23-0130-00M.COL___268                                                 6
 STAT SP IPHASW D HRMM SECON CODA AMPLIT PERI AZIMU VELO AIN AR TRES W  DIS CAZ7
 BAR2 SZ EP   1    137 31.51                             171    0.16 7 21.9 193 
 BRR  HZ IP     C  137 33.42                             152    0.4410 72.7 299 
 BRR  HN ES        137 50.10                             152    0.5610 72.7 299 
 BRR  HZ I         137 50.81        14.3 0.32            150           72.7 299 
 PAM  SN ES        137 51.43                             150    0.0710 78.1  38 
 PAM  SZ I         137 52.83        12.5 0.22            152           78.1  38 
 RUS  HZ EP   1    137 35.52                             144    0.14 7 98.9 176 
 RUS  HN ES        137 53.37                             144   -0.4310 98.9 176 
 RUS  HZ I         137 54.69         7.1 0.20            146           98.9 176 
 PTB  HZ EP        137 38.19                             132   -0.58 9  148 260 
 PTB  HN ES        137 59.09                             132   -0.74 9  148 260 
 OCA  HZ I         138  4.90         8.1 0.26            129            162 353 
 SPBC HZ I         138  4.98        12.3 0.20            129            162 220 
 OCA  HZ EP   1    137 40.23                             129    0.00 7  162 353 
 OCA  HN ES   1    138  1.53                             129   -0.90 7  162 353 
 SPBC HZ EP   1    137 40.52                             129    0.34 7  162 220 
 SPBC HN ES        138  2.75                             129    0.41 9  162 220 
 ZAR  HZ EP   4    137 46.18                             122    1.84 0  205 292 
 ZAR  HN ES   1    138 10.38                             122    0.62 6  205 292 
 ZAR  HZ I         138 16.25        10.0 0.26            122            205 292 
 NOR  HZ EP   1    137 47.38                             118   -0.08 6  234 235 
 NOR  HN ES   1    138 15.08                             118   -0.21 6  234 235 
 NOR  HZ I         138 19.40         7.8 0.50            119            234 235 
 PRA  HZ EP   1    138  5.69                             107    0.53 4  391 210 
 PRA  HE ES   4    138 48.81                             107    2.00 0  391 210 
                                                                                
