 2013  223 0537  6.9 L   6.828 -73.092147.8  RSN  5 0.4 1.2LRSN                1
 GAP=205        0.76       5.7     8.9  8.1 -0.7701E+01  0.2571E+01  0.9539E+01E
 Epicentro: LOS SANTOS - SANTANDER                                             3
 ACTION:UPD 13-03-12 09:35 OP:ep   STATUS:               ID:20130223053706 L   I
 2013-02-23-0530-00M.COL___225                                                 6
 STAT SP IPHASW D HRMM SECON CODA AMPLIT PERI AZIMU VELO AIN AR TRES W  DIS CAZ7
 BAR2 SZ ES   1    537 42.21                             169   -0.29 7 27.9 201 
 BRR  HZ EP   1    537 28.38                             152   -0.15 7 75.1 294 
 BRR  HN ES   1    537 46.13                             152    0.75 7 75.1 294 
 BRR  HZ I         537 50.73         2.8 0.58            150           75.1 294 
 PTB  HZ EP   1    537 34.67                             131    0.01 7  154 258 
 PTB  HN ES   1    537 55.82                             131   -0.46 7  154 258 
 PTB  HZ I         537 58.65         1.7 0.13            132            154 258 
 OCA  HN ES   1    537 57.04                             130   -0.20 7  158 351 
 CHI  HZ EP   1    537 45.64                             117    0.39 6  253 196 
                                                                                
