 2015 1223 0715 41.1 L   6.741 -73.145143.3  RSN  8 0.5 1.9LRSN                1
 GAP=182        0.94       5.0     5.5  6.8  0.3741E+01  0.8485E+01  0.5955E+01E
 Epicentro: LOS SANTOS - SANTANDER                                             3
 ACTION:UPD 16-02-04 15:06 OP:cam  STATUS:               ID:20151223071541 L   I
 OLDACT:DUP 15-12-23 18:03 OP:dnl  STATUS:               ID:20151223070749d    3
 OLDACT:REG 15-12-23 12:56 OP:dnl  STATUS:               ID:20151223070748     3
 2015-12-23-0707-48M.COL___330                                                 6
 STAT SP IPHASW D HRMM SECON CODA AMPLIT PERI AZIMU VELO AIN AR TRES W  DIS CAZ7
 BAR2 EZ EP        716  0.25                             173   -0.1110 16.9 194 
 BAR2 EZ ES        716 14.61                             173   -0.7410 16.9 194 
 BAR2 EZ I         716 16.80        18.5 0.29            172           16.9 194 
 BRR  HZ EP   2    716  2.19                             151   -0.03 5 74.7 303 
 BRR  HE ES        716 19.40                             151    0.7310 74.7 303 
 BRR  HZ I         716 20.02         9.2 0.13            150           74.7 303 
 RUS  HZ EP   2    716  4.59                             145    0.41 5 94.0 176 
 RUS  HN ES   2    716 23.18                             145    1.03 5 94.0 176 
 RUS  HZ I         716 23.96        10.2 0.18            146           94.0 176 
 PTB  HZ EP   2    716  7.23                             131   -0.58 5  147 261 
 PTB  HN ES        716 28.30                             131   -0.32 9  147 261 
 PTB  HZ I         716 29.83         7.5 0.20            131            147 261 
 SPBC HZ EP        716  9.17                             129    0.20 9  158 221 
 SPBC HN ES        716 30.60                             129   -0.09 9  158 221 
 SPBC HZ I         716 33.91        18.9 0.15            130            158 221 
 OCA  HZ EP   2    716  9.35                             127   -0.53 5  167 353 
 OCA  HN ES   4    716 30.26                             127   -2.04 0  167 353 
 OCA  HZ I         716 33.50        17.5 0.12            129            167 353 
 ZAR  HZ EP   2    716 13.60                             121   -0.10 4  207 294 
 ZAR  HN ES        716 39.09                             121   -0.01 8  207 294 
 ZAR  HZ I         716 44.35         4.8 0.09            122            207 294 
 NOR  HZ EP        716 16.69                             118    0.36 8  231 236 
 NOR  HE ES   1    716 43.67                             118   -0.11 6  231 236 
 NOR  HZ I         716 45.54         6.9 0.08            119            231 236 
                                                                                
