 2012  923 0712 46.7 L   6.791 -73.131147.6  RSN 18 0.5 3.2LRSN 3.3WRSN        1
 SPEC AVERAGE  MO 14.1 ST 19.1 OM  2.7 f0 4.64 R0.3324 AL 2.30 WI  7.8 MW  3.3 3
 SPEC SD       MO  0.1 ST 11.8 OM  0.4 f00.958 R0.0773 AL      WI      MW  0.1 3
 GAP= 55        0.93       3.4     3.0  5.1 -0.7875E+00  0.1606E+01  0.4884E+01E
 Epicentro: LOS SANTOS - SANTANDER                                             3
 SPEC ZAR HH N MO 14.2 ST 45.4 OM  2.4 f0 6.05 R0.2430 AL 1.72 WI  9.1 MW  3.4 3
 SPEC ZAR HH N T 71342 K 0.000 GD  253 VS 4.20 DE 3.00 Q0230.0 QA 0.60 VS 4.20 3
 SPEC TAM HH N MO 14.3 ST  7.3 OM  2.6 f0 2.99 R0.4916 AL 2.09 WI  5.7 MW  3.5 3
 SPEC TAM HH N T 71335 K 0.000 GD  212 VS 4.20 DE 3.00 Q0230.0 QA 0.60 VS 4.20 3
 SPEC PRA HH N MO 14.0 ST 23.3 OM  2.0 f0 5.57 R0.2639 AL 1.66 WI  4.3 MW  3.3 3
 SPEC PRA HH N T 71422 K 0.000 GD  418 VS 4.20 DE 3.00 Q0230.0 QA 0.60 VS 4.20 3
 SPEC PTB HH N MO 13.9 ST 14.4 OM  2.2 f0 5.12 R0.2871 AL 2.42 WI  5.3 MW  3.2 3
 SPEC PTB HH N T 71333 K 0.000 GD  209 VS 4.20 DE 3.00 Q0230.0 QA 0.60 VS 4.20 3
 SPEC PAM SH N MO 14.2 ST 13.0 OM  2.6 f0 3.93 R0.3740 AL 3.45 WI  8.5 MW  3.4 3
 SPEC PAM SH N T 71325 K 0.000 GD  166 VS 4.20 DE 3.00 Q0230.0 QA 0.60 VS 4.20 3
 SPEC HEL HH N MO 14.0 ST 11.0 OM  2.1 f0 4.43 R0.3318 AL 1.55 WI 13.3 MW  3.3 3
 SPEC HEL HH N T 71358 K 0.000 GD  310 VS 4.20 DE 3.00 Q0230.0 QA 0.60 VS 4.20 3
 SPEC CHI HH N MO 14.2 ST 19.6 OM  2.4 f0 4.38 R0.3356 AL 3.22 WI  8.3 MW  3.4 3
 SPEC CHI HH N T 71352 K 0.000 GD  288 VS 4.20 DE 3.00 Q0230.0 QA 0.60 VS 4.20 3
 ACTION:UPD 12-10-22 14:20 OP:ep   STATUS:               ID:20120923071246 L   I
 2012-09-23-0710-00M.COL___221                                                 6
 STAT SP IPHASW D HRMM SECON CODA AMPLIT PERI AZIMU VELO AIN AR TRES W  DIS CAZ7
 BAR2 SZ IP        713  6.50                             171    0.0010 22.7 194 
 BAR2 SZ ES   1    713 21.69                             171   -0.28 7 22.7 194 
 GIR2 SZ IP        713  6.56                             167   -0.0310 32.6 348 
 GIR2 SZ ES   2    713 22.14                             167    0.02 5 32.6 348 
 BRR  HZ IP     C  713  8.35                             152    0.2310 73.1 299 
 BRR  HN ES   1    713 25.67                             152    0.82 7 73.1 299 
 BRR  HN I         713 26.22       653.8 0.22                          73.1 299 
 PAM  SZ IP        713  9.25                             151    0.1910 77.2  38 
 PAM  SZ I         713  9.54       347.1 0.20                          77.2  38 
 PAM  SN ES   1    713 26.62                             151    0.09 7 77.2  38 
 RUS  HZ IP     D  713 10.29                             144   -0.2310 99.5 177 
 RUS  HN ES   1    713 28.35                             144   -0.77 7 99.5 177 
 RUS  HZ I         713 30.33        86.0 0.42                          99.5 177 
 PTB  HN ES   1    713 34.04                             132   -1.11 7  149 259 
 PTB  HN I         713 39.95       287.6 0.46                           149 259 
 TAM  HZ IP     C  713 14.65                             131    0.33 9  153 105 
 TAM  HZ I         713 35.51        87.5 0.40                           153 105 
 TAM  HE ES   1    713 36.28                             131    0.39 7  153 105 
 YOP  SZ EP        713 16.90                             127    0.22 9  177 154 
 YOP  SN ES   2    713 39.83                             127   -0.26 4  177 154 
 YOP  SN I         713 44.32       141.3 0.36                           177 154 
 ZAR  HZ EP        713 19.10                             122   -0.32 8  206 292 
 ZAR  HN ES   1    713 44.83                             122   -0.14 6  206 292 
 ZAR  HN I         713 50.91       179.0 0.20                           206 292 
 NOR  SZ EP   1    713 22.20                             119   -0.38 6  235 235 
 NOR  SN ES   1    713 49.99                             119   -0.60 6  235 235 
 NOR  SN I         713 56.66       249.9 0.16                           235 235 
 CHI  HZ EP        713 24.41                             117    0.00 8  248 196 
 CHI  HN ES   1    713 53.75                             117   -0.09 6  248 196 
 ROSC BZ EP        713 25.94                             117    1.06 8  253 211 
 ROSC BE ES   2    713 55.25                             117    0.56 4  253 211 
 ROSC BZ I         714  4.27       146.7 0.45                           253 211 
 HEL  HZ EP        713 27.59                             115    0.47 8  273 256 
 HEL  HN ES   1    713 58.97                             115    0.30 6  273 256 
 HEL  HN I         714  6.51        56.3 0.38                           273 256 
 VIL  SZ EP        713 29.69                             112   -0.40 7  303 192 
 VIL  SN ES   2    714  4.19                             112    0.23 4  303 192 
 GUY  SN ES   2    714  6.06                             112    1.00 4  304 235 
 RREF HZ EP   1    713 32.85                             111   -0.10 5  322 230 
 RREF HN ES   2    714  9.66                             111    0.61 3  322 230 
 RREF HZ I         714 15.01        68.5 0.28                           322 230 
 SDV  BZ EP        713 35.65                             108   -1.06 6  360  50 
 PRA  HZ EP   1    713 39.45                             107   -0.79 4  392 210 
 PRA  HE ES   1    714 22.03                             107    0.00 4  392 210 
 PRA  HE I         714 27.46        63.5 0.24                           392 210 
                                                                                
