 2010 1023 0340 56.3 L   6.772 -73.058142.3  RSN 13 0.4 2.2LRSN                1
 GAP=169        0.91       3.8     7.1  6.7 -0.1161E+02  0.4210E+01  0.2265E+01E
 Epicentro: LOS SANTOS - SANTANDER                                             3
 ACTION:UP  11-02-18 11:11 OP:tino STATUS:               ID:20101023034056 L   I
 2010-10-23-0337-23S.COL___127                                                 6
 STAT SP IPHASW D HRMM SECON CODA AMPLIT PERI AZIMU VELO SNR AR TRES W  DIS CAZ7
 BAR2 SZ IP        341 15.52                             170     0.010   24 215 
 BAR2 SZ ES   1    341 30.62                             170     0.1 7   24 215 
 BAR2 SZ I         341 32.16        48.8 0.18                            24 215 
 BTL  SZ EP        341 15.94                             168     0.310   28 305 
 BRR  HZ IP     D  341 17.39                             149    -0.310   81 297 
 BRR  HZ I         341 17.55        71.7 0.18                            81 297 
 BRR  HN ES   1    341 34.60                             149     0.2 7   81 297 
 RUS  HZ EP   1    341 19.41                             144    -0.1 7   97 182 
 RUS  HN ES   1    341 37.46                             144    -0.1 7   97 182 
 RUS  HZ I         341 39.63        22.0 0.36                            97 182 
 GUE  SZ EP   1    341 21.04                             138     0.2 7  118   7 
 GRA  SZ IP        341 21.34                             136     0.110  126  13 
 GRA  SZ ES   1    341 40.89                             136     0.1 7  126  13 
 GRA  SZ I         341 42.21        14.6 0.69                           126  13 
 OCA  SZ EP   1    341 24.07                             128    -0.7 7  165 350 
 OCA  SZ ES   2    341 47.09                             128     0.1 5  165 350 
 OCA  SZ I         341 51.25        14.6 0.22                           165 350 
 NOR  SZ EP   2    341 33.23                             117     0.7 4  241 237 
 NOR  SN ES   1    341 59.90                             117    -0.9 6  241 237 
 CHI  HZ EP   1    341 33.51                             116    -0.3 6  248 198 
 CHI  HE ES   2    342  2.39                             116    -0.6 4  248 198 
 CHI  HZ I         342  8.65         3.4 0.34                           248 198 
 ROSC BZ EP   1    341 35.57                             116     1.0 6  255 213 
 ROSC BZ I         342 10.16         8.0 0.53                           255 213 
 HEL  HZ EP   2    341 38.33                             113     1.0 4  281 257 
 HEL  HZ I         342 14.65         4.2 0.29                           281 257 
 RREF HN ES   2    342 19.65                             110     0.4 3  327 231 
 RREF HZ I         342 26.92         7.2 0.03                           327 231 
 PRA  HZ EP   1    341 49.34                             106    -0.6 4  394 211 
 PRA  HN ES   1    342 32.06                             106     0.2 4  394 211 
 PRA  HZ I         342 35.56         8.2 0.51                           394 211 
                                                                                
