 2014  123 0300 23.7 L   6.820 -73.174139.8  RSN 10 0.5 1.7LRSN                1
 GAP=132        1.12       3.6     5.2  6.8 -0.5089E+01  0.1409E+02 -0.1857E+01E
 Epicentro: LOS SANTOS - SANTANDER                                             3
 ACTION:UPD 14-03-13 09:57 OP:ep   STATUS:               ID:20140123030023 L   I
 OLDACT:REG 14-01-23 08:31 OP:nd   STATUS:               ID:20140123030000     3
 2014-01-23-0300-00M.COL___285                                                 6
 STAT SP IPHASW D HRMM SECON CODA AMPLIT PERI AZIMU VELO AIN AR TRES W  DIS CAZ7
 BAR2 SZ EP     C  3 0 43.01                             169    0.3210 25.2 182 
 BAR2 SZ ES        3 0 56.56                             169   -0.9210 25.2 182 
 BAR2 SZ I         3 1  0.72        12.3 0.36            167           25.2 182 
 PAM  SZ EP        3 0 45.72                             149    0.3810 77.7  42 
 PAM  SN ES        3 1  2.83                             149    0.6410 77.7  42 
 PAM  SZ I         3 1  5.38         8.6 0.42            156           77.7  42 
 RUS  HZ EP        3 0 46.83                             142   -0.2610  103 174 
 RUS  HN ES        3 1  5.44                             142    0.1310  103 174 
 RUS  HZ I         3 1  6.64         3.0 0.24            145            103 174 
 PTB  HZ EP        3 0 49.70                             131   -0.28 9  145 258 
 PTB  HN ES        3 1 10.73                             131    0.28 9  145 258 
 PTB  HZ I         3 1 18.20         9.6 0.38            130            145 258 
 SPBC HZ EP        3 0 51.86                             128    0.10 9  163 218 
 SPBC HN ES        3 1 13.92                             128    0.29 9  163 218 
 SPBC HZ I         3 1 22.89         6.3 0.20            128            163 218 
 NOR  HZ EP        3 0 59.09                             117    0.10 8  233 234 
 NOR  HN ES        3 1 27.09                             117    0.60 8  233 234 
 NOR  HZ I         3 1 33.08         4.4 0.14            118            233 234 
 SML  HZ EP        3 0 59.33                             116   -0.33 8  240 336 
 SML  HN ES        3 1 27.04                             116   -0.65 8  240 336 
 SML  HZ I         3 1 38.55         6.5 0.28            118            240 336 
 CHI  HZ EP        3 1  1.26                             116    0.00 8  250 194 
 CHI  HN ES        3 1 29.64                             116   -0.89 8  250 194 
 CHI  HZ I         3 1 40.31         1.8 0.36            118            250 194 
 GUY2CHZ EP        3 1  7.12                             111    0.19 7  300 234 
 GUY2CHN ES   4    3 1 43.70                             111    3.08 0  300 234 
 GUY2CHZ I         3 1 51.79         2.6 0.54                           300 234 
 RREF BZ EP   4    3 1 10.90                             110    1.38 0  321 229 
 RREF BN ES   4    3 1 45.79                             110    0.56 0  321 229 
 RREF BZ I         3 1 54.69         3.2 0.32            111            321 229 
                                                                                
