 2014 1223 0338 59.7 L   6.800 -73.185140.9  RSN  7 0.3 1.6LRSN                1
 GAP=185        0.69       2.9     4.3  5.2 -0.3503E+01 -0.1220E+01 -0.6118E+00E
 Epicentro: ZAPATOCA - SANTANDER                                               3
 ACTION:UPD 15-02-10 17:06 OP:nd   STATUS:               ID:20141223033859 L   I
 OLDACT:UP  14-12-23 16:37 OP:mh   STATUS:               ID:20141223033749     3
 OLDACT:REG 14-12-23 13:23 OP:mh   STATUS:               ID:20141223033749     3
 2014-12-23-0337-49M.COL___289                                                 6
 STAT SP IPHASW D HRMM SECON CODA AMPLIT PERI AZIMU VELO AIN AR TRES W  DIS CAZ7
 BAR2 EZ EP   1    339 18.54                             170   -0.24 7 22.9 179 
 BAR2 EZ ES   1    339 33.55                             170   -0.08 7 22.9 179 
 BAR2 EZ I         339 34.65        10.6 0.36            170           22.9 179 
 BRR  HZ EP        339 20.12                             153   -0.0310 67.4 300 
 BRR  HN ES        339 36.23                             153    0.1610 67.4 300 
 BRR  HZ I         339 40.94         6.6 0.18            151           67.4 300 
 PTB  HZ EP        339 25.71                             132   -0.21 9  143 259 
 PTB  HN ES        339 45.88                             132   -0.46 9  143 259 
 PTB  HZ I         339 52.43         3.9 0.21            132            143 259 
 OCA  HZ EP        339 27.64                             129    0.01 9  160 355 
 OCA  HZ I         339 49.10         5.9 0.45            131            160 355 
 OCA  HE ES        339 49.50                             129    0.11 9  160 355 
 SPBC HZ EP        339 28.18                             128    0.58 9  160 218 
 SPBC HN ES        339 49.38                             128    0.04 9  160 218 
 ZAR  HN ES        339 56.49                             122    0.30 9  200 293 
 SML  HZ EP   1    339 35.38                             117   -0.52 6  242 336 
 SML  HN ES   4    340  6.40                             117    2.29 0  242 336 
                                                                                
