 2015  523 0339 43.9 L   6.814 -73.126149.9  RSN 16 0.3 1.9LRSN                1
 GAP= 72        0.83       2.4     3.3  4.8 -0.8827E+00  0.2251E+01  0.1181E+01E
 Epicentro: LOS SANTOS - SANTANDER                                             3
 ACTION:UPD 15-09-10 22:06 OP:cam  STATUS:               ID:20150523033943 L   I
 OLDACT:REG 15-05-23 12:26 OP:spq  STATUS:               ID:20150523033747     3
 2015-05-23-0337-47M.COL___297                                                 6
 STAT SP IPHASW D HRMM SECON CODA AMPLIT PERI AZIMU VELO AIN AR TRES W  DIS CAZ7
 BAR2 EZ EP        340  3.94                             170   -0.1310 25.4 194 
 BAR2 EZ ES   1    340 19.76                             170   -0.04 7 25.4 194 
 BAR2 EZ I         340 20.61         9.0 0.23            168           25.4 194 
 BRR  HZ EP        340  5.91                             153    0.3410 72.4 297 
 BRR  HE ES        340 23.18                             153    0.7210 72.4 297 
 BRR  HZ I         340 26.14        11.2 0.16            150           72.4 297 
 PAM  SZ EP        340  6.81                             152    0.4010 74.8  39 
 PAM  SN ES        340 23.98                             152    0.0210 74.8  39 
 PAM  SZ I         340 26.09        26.4 0.54            156           74.8  39 
 RUS  HZ EP        340  7.91                             144   -0.2610  102 177 
 RUS  HN ES        340 26.78                             144   -0.3110  102 177 
 RUS  HZ I         340 28.36         7.3 0.10            145            102 177 
 TAM  HZ EP   1    340 12.09                             132    0.33 7  153 106 
 OCA  HZ EP   1    340 12.46                             131    0.04 7  159 352 
 OCA  HN ES        340 34.04                             131   -0.62 9  159 352 
 OCA  HZ I         340 39.64        25.5 0.18            132            159 352 
 SPBC HZ EP        340 13.05                             129    0.08 9  166 219 
 SPBC HN ES        340 35.26                             129   -0.38 9  166 219 
 SPBC HZ I         340 39.03        17.3 0.20            129            166 219 
 ZAR  HN ES        340 41.84                             123   -0.56 8  205 292 
 ZAR  HZ I         340 50.92         7.1 0.32            122            205 292 
 NOR  HN ES        340 48.83                             119    0.38 8  237 234 
 NOR  HZ I         340 53.26         7.0 0.18            119            237 234 
 SML  HZ EP        340 20.48                             118   -0.23 8  243 335 
 SML  HE ES   1    340 49.43                             118    0.01 6  243 335 
 CHI  HZ EP        340 22.18                             118    0.12 8  251 196 
 CHI  HN ES   1    340 51.61                             118   -0.22 6  251 196 
 CHI  HZ I         340 57.73         3.5 0.58            118            251 196 
 HEL  HE ES   1    340 56.71                             115    0.36 6  275 256 
 HEL  HZ I         341  2.25         2.9 0.19            115            275 256 
 GUY2CHZ EP   4    340 29.26                             113    1.25 0  304 235 
 GUY2CHE ES   4    341  4.96                             113    2.55 0  304 235 
 GUY2CHZ I         341 10.62         4.4 0.74                           304 235 
 MON  HZ EP   4    340 31.59                             109   -1.56 0  354 308 
 MON  HE ES   4    341  9.59                             109   -1.98 0  354 308 
 MON  HZ I         341 10.61         1.3 0.25            109            354 308 
 ORTC HZ EP        340 38.31                             107    0.04 6  398 216 
 ORTC HE ES   4    341 24.24                             107    3.57 0  398 216 
 ORTC HZ I         341 28.65         2.9 0.24            107            398 216 
 SJC  HZ EP   4    340 37.80                             106   -1.79 0  409 327 
 SJC  HN ES   4    341 20.20                             106   -2.82 0  409 327 
 SJC  HZ I         341 26.45         2.3 0.45            107            409 327 
                                                                                
