 2012 1223 0243 55.8 L   7.419 -73.231116.1  RSN  5 0.5 1.3LRSN                1
 GAP=205        1.00       6.5     9.4 13.6  0.1604E+02 -0.5077E+00 -0.2266E+02E
 Epicentro: EL PLAYON - SANTANDER                                              3
 ACTION:UPD 13-01-04 14:29 OP:ep   STATUS:               ID:20121223024355 L   I
 2012-12-23-0240-00M.COL___242                                                 6
 STAT SP IPHASW D HRMM SECON CODA AMPLIT PERI AZIMU VELO AIN AR TRES W  DIS CAZ7
 GIR2 SZ EP   1    244 12.76                             161    0.59 7 37.8 174 
 BRR  HZ EP   1    244 13.54                             149    0.26 7 63.3 237 
 BRR  HN ES   1    244 27.33                             149    0.39 7 63.3 237 
 BRR  HZ I         244 28.00         6.9 0.16                          63.3 237 
 BAR2 SZ EP   1    244 16.02                             139    0.38 7 91.6 177 
 BAR2 SZ ES   1    244 30.21                             139   -0.93 7 91.6 177 
 BAR2 SZ I         244 33.20         5.6 0.28                          91.6 177 
 PTB  HZ EP   1    244 21.85                             121   -0.59 7  167 234 
 PTB  HN ES   1    244 43.41                             121    0.16 7  167 234 
 PTB  HZ I         244 44.40         1.6 0.22                           167 234 
 SML  HE ES   1    244 45.05                             119   -0.43 7  179 329 
                                                                                
