 2010  323 0926 49.6 L   6.839 -73.000150.1  RSN  4 0.2 1.2LRSN                1
 GAP=254        0.47       7.8    14.6  6.5  0.8124E+02 -0.1471E+02  0.1366E+01E
 Epicentro: CEPITA - SANTANDER                                                 3
 ACTION:UP  10-08-24 09:55 OP:vdl  STATUS:               ID:20100323092649 L   I
 2010-03-23-0923-33S.COL___098                                                 6
 STAT SP IPHASW D HRMM SECON CODA AMPLIT PERI AZIMU VELO SNR AR TRES W  DIS CAZ7
 BAR2 SZ EP   1    927 10.00                             167     0.0 7   34 217 
 BAR2 SZ ES   2    927 26.43                             167     0.5 5   34 217 
 BRR  HZ EP   1    927 12.05                             149     0.1 7   84 291 
 BRR  HN ES   2    927 29.16                             149    -0.3 5   84 291 
 RUS  HZ EP   1    927 13.91                             143    -0.2 7  105 185 
 RUS  HN ES   2    927 32.98                             143    -0.2 5  105 185 
 RUS  HZ I         927 33.87         2.2 0.55                           105 185 
 CHI  HZ EP   1    927 28.75                             117     0.3 6  257 198 
                                                                                
