 2015  623 0146 59.5 L   6.800 -73.104144.0  RSN  9 0.4 2.2LRSN                1
 GAP=142        0.96       3.4     4.8  6.2  0.6269E+00  0.1454E+02 -0.5538E+00E
 Epicentro: LOS SANTOS - SANTANDER                                             3
 ACTION:UPD 15-09-10 22:14 OP:cam  STATUS:               ID:20150623014659 L   I
 OLDACT:UP  15-06-23 15:08 OP:mh   STATUS:               ID:20150623013751d    3
 OLDACT:DUP 15-06-23 15:01 OP:mh   STATUS:               ID:20150623013751d    3
 2015-06-23-0137-50M.COL___319                                                 6
 STAT SP IPHASW D HRMM SECON CODA AMPLIT PERI AZIMU VELO AIN AR TRES W  DIS CAZ7
 BAR2 EZ EP   1    147 19.01                             170    0.09 7 24.5 201 
 BAR2 EZ ES        147 33.39                             170   -0.7010 24.5 201 
 BAR2 EZ I         147 34.70        34.7 0.18            169           24.5 201 
 PAM  SN ES        147 38.75                             152    0.3610 74.5  37 
 PAM  SZ I         147 41.27        30.5 0.58            153           74.5  37 
 BRR  HZ EP   1    147 20.84                             151    0.16 7 75.3 297 
 BRR  HN ES        147 37.82                             151    0.6110 75.3 297 
 BRR  HZ I         147 40.53        27.1 0.14            147           75.3 297 
 RUS  HZ EP        147 22.59                             144   -0.4510  100 179 
 RUS  HN ES        147 41.71                             144    0.3010  100 179 
 OCA  HN ES   1    147 49.49                             129   -0.25 7  161 352 
 OCA  HZ I         147 52.50        28.4 0.46            129            161 352 
 ZAR  HZ EP   1    147 32.29                             121    0.03 6  208 292 
 ZAR  HN ES        147 57.59                             121   -0.23 8  208 292 
 ZAR  HZ I         148  5.74        14.5 0.32            121            208 292 
 SML  HZ EP        147 35.78                             117   -0.44 8  246 334 
 SML  HE ES        148  4.77                             117   -0.11 8  246 334 
 SML  HZ I         148  9.14        17.1 0.28            117            246 334 
 HEL  HZ EP        147 40.84                             114    0.74 7  277 256 
 HEL  HN ES        148 11.42                             114   -0.36 7  277 256 
 HEL  HZ I         148 19.49         6.4 0.26            115            277 256 
 GUY2CHZ EP   1    147 43.95                             112    0.52 5  305 235 
 GUY2CHN ES   1    148 17.70                             112   -0.02 5  305 235 
 GUY2CHZ I         148 25.42         6.9 0.48                           305 235 
                                                                                
