 2017  223 0250 25.7 L   5.943 -74.080  4.0  RSN  4 0.5 1.0LRSN                1
 GAP=151        1.27       3.6     2.8  8.2 -0.1276E+01  0.8577E+00 -0.4384E+01E
 Epicentro: LA BELLEZA - SANTANDER                                             3
 ACTION:UPD 17-05-24 15:39 OP:jn   STATUS:               ID:20170223025025 L   I
 OLDACT:REG 17-02-23 12:56 OP:edw  STATUS:               ID:20170223024742     3
 2017-02-23-0248-00M.COL___385                                                 6
 STAT SP IPHASW D HRMM SECON CODA AMPLIT PERI AZIMU VELO AIN AR TRES W  DIS CAZ7
 PTB  HZ EP        250 38.29                              47    0.1510 77.9 328 
 PTB  HN ES        250 47.84                              47    0.0110 77.9 328 
 PTB  HZ I         250 48.09         9.8 0.18             47           77.9 328 
 NOR  HZ EP        250 41.58                              47    0.5210 96.9 244 
 NOR  HN ES        250 52.36                              47   -0.6610 96.9 244 
 NOR  HZ I         250 54.51         3.6 0.16             47           96.9 244 
 RUS  HZ EP     D  250 44.03                              47    0.4610  111  93 
 RUS  HN ES        250 57.03                              47   -0.4610  111  93 
 RUS  HZ I         250 58.58         2.5 0.23             47            111  93 
 BRR  HZ EP        250 47.38                              47    0.6210  135  18 
 BRR  HN ES        251  2.54                              47   -0.6410  135  18 
                                                                                
