 2014  923 0959 24.6 L   6.773 -73.142149.3  RSN  8 0.3 1.3LRSN                1
 GAP=138        0.73       3.0     3.5  5.2  0.1467E+01  0.1184E+01  0.8054E+00E
 Epicentro: LOS SANTOS - SANTANDER                                             3
 ACTION:UPD 14-10-03 23:07 OP:nd   STATUS:               ID:20140923095924 L   I
 OLDACT:REG 14-09-23 20:08 OP:spq  STATUS:               ID:20140923095818     3
 2014-09-23-0958-18M.COL___284                                                 6
 STAT SP IPHASW D HRMM SECON CODA AMPLIT PERI AZIMU VELO AIN AR TRES W  DIS CAZ7
 BAR2 SZ EP        959 45.01                             172    0.4210 20.4 193 
 BAR2 SZ ES   1    959 59.57                             172   -0.62 7 20.4 193 
 BAR2 SZ I        10 0  1.12         4.6 0.23            172           20.4 193 
 BRR  HZ EP        959 46.26                             153    0.0410 73.1 300 
 BRR  HN ES       10 0  3.47                             153    0.3710 73.1 300 
 BRR  HZ I        10 0  9.72         4.8 0.32            152           73.1 300 
 PAM  SZ EP        959 47.30                             151   -0.0010 79.5  38 
 PAM  SN ES   1   10 0  4.78                             151   -0.24 7 79.5  38 
 PAM  SZ I        10 0  6.62         2.6 0.44            153           79.5  38 
 RUS  HZ EP        959 48.66                             145    0.1910 97.5 176 
 RUS  HE ES   1   10 0  7.21                             145    0.11 7 97.5 176 
 RUS  HZ I        10 0  8.87         2.6 0.46            148           97.5 176 
 PTB  HZ EP        959 51.23                             133   -0.60 9  148 260 
 PTB  HE ES       10 0 12.88                             133   -0.21 9  148 260 
 PTB  HZ I        10 0 14.31         2.3 0.16            134            148 260 
 ZAR  HN ES       10 0 23.25                             123    0.21 8  206 293 
 ZAR  HZ I        10 0 27.65         2.1 0.24            124            206 293 
 CHI  HZ EP   1   10 0  2.27                             118    0.09 6  246 195 
 CHI  HN ES   1   10 0 31.58                             118    0.08 6  246 195 
 CHI  HZ I        10 0 34.06         1.7 0.34            120            246 195 
 SML  HZ EP   1   10 0  1.44                             118   -0.29 6  247 335 
 SML  HE ES   1   10 0 30.70                             118    0.00 6  247 335 
 SML  HZ I        10 0 34.59         1.4 0.32            119            247 335 
 SML  HN E        10 1 23.77                                            247 335 
                                                                                
