 2014  423 0534  8.0 L   6.846 -73.100135.3  RSN  6 0.2 1.5LRSN                1
 GAP=205        0.54       2.3     3.5  5.6  0.3313E+01 -0.7913E-01 -0.2080E+01E
 Epicentro: LOS SANTOS - SANTANDER                                             3
 ACTION:UPD 14-05-13 23:10 OP:nd   STATUS:               ID:20140423053408 L   I
 OLDACT:REG 14-04-23 12:52 OP:fm   STATUS:               ID:20140423052816     3
 2014-04-23-0528-16M.COL___239                                                 6
 STAT SP IPHASW D HRMM SECON CODA AMPLIT PERI AZIMU VELO AIN AR TRES W  DIS CAZ7
 RUS  HZ EP        534 31.12                             140    0.0310  105 179 
 RUS  HN ES        534 49.07                             140   -0.0510  105 179 
 PTB  HZ EP        534 34.48                             128   -0.21 9  154 257 
 PTB  HN ES        534 55.22                             128   -0.30 9  154 257 
 PTB  HZ I         535  3.03         3.3 0.36            125            154 257 
 SPBC HZ EP        534 36.51                             125    0.11 9  170 219 
 SPBC HN ES        534 58.78                             125    0.21 9  170 219 
 SPBC HZ I         535  3.51         3.9 0.38            123            170 219 
 ZAR  HN ES        535  5.21                             119    0.10 9  207 290 
 ZAR  HZ I         535 11.74         3.0 0.32            118            207 290 
 SML  HN ES        535 11.92                             115    0.22 8  241 334 
 PRA  HZ EP        535  1.49                             104   -0.48 6  399 210 
 PRA  HN ES        535 44.55                             104    0.46 6  399 210 
 PRA  HZ I         535 50.22         1.5 0.18            105            399 210 
                                                                                
