 2012  423 0204 48.6 L   6.765 -73.142150.1  RSN  7 0.4 1.8LRSN                1
 GAP=139        0.90       6.1     5.4  9.4  0.2255E+01  0.1090E+02  0.8189E+01E
 Epicentro: LOS SANTOS - SANTANDER                                             3
 ACTION:UPD 12-07-05 11:55 OP:tino STATUS:               ID:20120423020448 L   I
 2012-04-23-0200-00M.COL___186                                                 6
 STAT SP IPHASW D HRMM SECON CODA AMPLIT PERI AZIMU VELO AIN AR TRES W  DIS CAZ7
 BAR2 SZ EP   1    2 5  8.41                             172    -0.2 7   20 193 
 BAR2 SZ I         2 5 25.00        14.4 0.75                            20 193 
 BRR  HZ EP        2 5 10.68                             152     0.410   73 301 
 BRR  HN ES   1    2 5 27.97                             152     0.7 7   73 301 
 BRR  HZ I         2 5 30.37        15.0 0.15                            73 301 
 PAM  SZ EP   1    2 5 11.49                             151     0.1 7   80  38 
 PAM  SN ES   1    2 5 28.67                             151    -0.5 7   80  38 
 RUS  HZ EP   1    2 5 12.61                             146     0.1 7   97 176 
 RUS  HN ES   1    2 5 31.15                             146     0.0 7   97 176 
 RUS  HZ I         2 5 34.80         3.5 0.33                            97 176 
 PTB  HZ EP        2 5 15.63                             133    -0.2 9  147 260 
 PTB  HN ES   1    2 5 36.64                             133    -0.5 7  147 260 
 PTB  HZ I         2 5 42.68         8.4 0.26                           147 260 
 ZAR  HN ES   1    2 5 46.95                             123    -0.2 6  206 293 
 ZAR  HZ I         2 5 53.20        13.0 0.28                           206 293 
 NOR  SZ EP   2    2 5 24.53                             120     0.2 4  233 235 
                                                                                
