 2014  923 0551 48.9 L   6.407 -73.667108.0  RSN 14 0.5 1.9LRSN                1
 GAP= 62        1.12       2.8     3.2  5.8 -0.1067E+01  0.6975E+01 -0.2931E+01E
 Epicentro: SANTA HELENA DEL OPON - SANTANDER                                  3
 ACTION:UPD 14-10-03 23:07 OP:nd   STATUS:               ID:20140923055148 L   I
 OLDACT:UP  14-09-23 14:46 OP:cam  STATUS:               ID:20140923055000     3
 OLDACT:REG 14-09-23 12:53 OP:cam  STATUS:               ID:20140923055000     3
 2014-09-23-0550-00M.COL___252                                                 6
 STAT SP IPHASW D HRMM SECON CODA AMPLIT PERI AZIMU VELO AIN AR TRES W  DIS CAZ7
 BAR2 SZ EP     C  552  5.80                             150    0.2610 57.4  69 
 BAR2 SZ ES        552 18.34                             150   -0.1910 57.4  69 
 BAR2 SZ I         552 19.95        48.4 0.42            153           57.4  69 
 BRR  HZ EP        552  6.79                             141    0.2010 77.6 356 
 BRR  HE ES        552 21.08                             141    0.6910 77.6 356 
 BRR  HZ I         552 29.23        10.1 0.20            142           77.6 356 
 RUS  HZ EP        552  7.68                             139   -0.2710 86.1 131 
 RUS  HE ES        552 22.22                             139   -0.5810 86.1 131 
 RUS  HZ I         552 24.94         9.1 0.44            146           86.1 131 
 PTB  HZ EP        552  6.84                             137   -0.6510 88.5 280 
 PTB  HN ES        552 21.32                             137   -0.6610 88.5 280 
 PTB  HZ I         552 23.55        29.2 0.18            140           88.5 280 
 SPBC HZ EP        552  7.87                             135   -0.2410 94.8 208 
 SPBC HN ES        552 23.69                             135    0.5910 94.8 208 
 SPBC HZ I         552 24.61        21.6 0.16            142           94.8 208 
 PAM  SZ EP        552 13.89                             122    0.10 9  149  46 
 PAM  SE ES        552 33.24                             122    0.04 9  149  46 
 PAM  SZ I         552 37.46         7.8 0.28            125            149  46 
 ZAR  HZ EP        552 16.92                             116    0.60 9  178 312 
 ZAR  HE ES   4    552 38.13                             116    0.42 0  178 312 
 ZAR  HZ I         552 43.00        11.2 0.28            119            178 312 
 CHI  HZ EP        552 19.14                             114    0.24 9  197 182 
 GUY2CHZ EP        552 22.93                             110    0.29 8  229 235 
 GUY2CHN ES        552 49.54                             110    0.58 8  229 235 
 GUY2CHZ I         552 54.19         4.8 0.64                           229 235 
 URE  HN ES        552 52.98                             107   -0.10 8  254 306 
 CBOC HZ EP        552 26.72                             106    0.13 8  266 257 
 SML  HZ EP        552 26.37                             106   -0.24 8  268 350 
 SML  HE ES        552 56.60                             106    0.58 8  268 350 
 SML  HZ I         553  2.00        10.4 0.10            109            268 350 
 MON  HZ EP        552 34.56                             101   -0.84 7  343 320 
 MON  HN ES        553 10.76                             101   -0.90 7  343 320 
 MON  HZ I         553 13.34         1.2 0.22            104            343 320 
 SJC  HZ EP        552 44.96                              98    0.13 5  420 337 
                                                                                
