 2011 1123 0202 23.9 L   6.790 -73.109147.1  RSN 11 0.4 2.3LRSN                1
 GAP=142        0.72       3.2     4.4  5.2 -0.1500E+01  0.6552E+01  0.3828E+00E
 Epicentro: LOS SANTOS - SANTANDER                                             3
 ACTION:UPD 12-07-13 16:11 OP:ep   STATUS:               ID:20111123020224dL   I
 2011-11-23-0200-51S.COL___178                                                 6
 STAT SP IPHASW D HRMM SECON CODA AMPLIT PERI AZIMU VELO AIN AR TRES W  DIS CAZ7
 BAR2 SZ EP        2 2 43.88                             171    0.1910 23.4 200 
 BAR2 SZ ES   1    2 2 59.10                             171   -0.02 7 23.4 200 
 BAR2 SZ I         2 3  1.52        53.5 0.34                          23.4 200 
 BRR  HZ EP   1    2 2 45.81                             151    0.39 7 75.2 298 
 BRR  HN ES   1    2 3  2.66                             151    0.45 7 75.2 298 
 BRR  HZ I         2 3  5.44        31.5 0.09                          75.2 298 
 PAM  SZ EP   1    2 2 46.48                             152    0.32 7 75.7  37 
 PAM  SN ES   1    2 3  3.23                             152   -0.29 7 75.7  37 
 RUS  HZ EP   1    2 2 47.58                             144   -0.11 7 99.3 178 
 RUS  HE ES   1    2 3  5.95                             144   -0.30 7 99.3 178 
 RUS  HZ I         2 3  7.53        21.6 0.30                          99.3 178 
 OCA  SZ EP   1    2 2 52.16                             130   -0.30 7  162 352 
 OCA  SZ ES   1    2 3 14.81                             130    0.07 7  162 352 
 OCA  SZ I         2 3 18.50        30.3 0.22                           162 352 
 ZAR  HZ EP   2    2 2 56.55                             122   -0.30 4  208 292 
 ZAR  HE ES   1    2 3 22.02                             122   -0.54 6  208 292 
 ZAR  HZ I         2 3 28.97        19.6 0.25                           208 292 
 NOR  SZ EP   1    2 2 59.38                             118   -0.61 6  237 235 
 NOR  SN ES   1    2 3 27.90                             118   -0.24 6  237 235 
 CHI  HZ EP   2    2 3  1.49                             117   -0.19 4  249 196 
 CHI  HZ I         2 3 39.99         6.2 0.37                           249 196 
 HEL  HZ EP   1    2 3  5.52                             115    0.94 6  276 256 
 HEL  HZ I         2 3 42.79        14.5 0.31                           276 256 
 COD  HZ EP   1    2 3 11.87                             109   -0.62 5  350 354 
 PRA  HZ EP   1    2 3 18.24                             107    0.65 4  393 210 
                                                                                
