 2017  623 0651 43.6 L   6.784 -73.183143.0  RSN  5 0.4 1.6LRSN                1
 GAP=238        1.00       5.9     6.5  7.3  0.6668E+01  0.1045E+02  0.1743E+01E
 Epicentro: LOS SANTOS - SANTANDER                                             3
 ACTION:UPD 17-09-14 16:54 OP:jn   STATUS:               ID:20170623065143 L   I
 OLDACT:REG 17-06-23 13:35 OP:lv   STATUS:               ID:20170623064736     3
 2017-06-23-0648-00M.COL___368                                                 6
 STAT SP IPHASW D HRMM SECON CODA AMPLIT PERI AZIMU VELO AIN AR TRES W  DIS CAZ7
 BAR2 EZ EP        652  2.77                             171   -0.0810 21.3 180 
 BAR2 EZ ES        652 17.50                             171   -0.3710 21.3 180 
 BAR2 EZ I         652 20.68        10.5 0.29            170           21.3 180 
 BRR  HZ EP        652  4.56                             153    0.2710 68.5 301 
 BRR  HN ES        652 20.88                             153    0.4510 68.5 301 
 PTB  HZ EP        652  9.10                             132   -0.83 9  143 259 
 PTB  HN ES        652 30.19                             132   -0.29 9  143 259 
 PTB  HZ I         652 34.13         2.4 0.21            131            143 259 
 SPBC HZ EP        652 11.93                             129    0.43 9  159 218 
 SPBC HN ES        652 33.62                             129    0.34 9  159 218 
 SPBC HZ I         652 36.41         8.2 0.30            130            159 218 
 ZAR  HZ EP        652 15.68                             122    0.15 9  201 293 
 ZAR  HN ES        652 40.39                             122   -0.05 9  201 293 
 ZAR  HZ I         652 49.60         2.5 0.29            122            201 293 
                                                                                
