 2013  323 0856 53.2 L   6.802 -73.159146.0  RSN  9 0.5 2.4LRSN                1
 GAP=135        1.14       5.0     4.8  6.9  0.2078E+01  0.9520E+01  0.4332E+01E
 Epicentro: LOS SANTOS - SANTANDER                                             3
 ACTION:UPD 13-04-09 14:04 OP:ep   STATUS:               ID:20130323085653 L   I
 2013-03-23-0850-00M.COL___245                                                 6
 STAT SP IPHASW D HRMM SECON CODA AMPLIT PERI AZIMU VELO AIN AR TRES W  DIS CAZ7
 BAR2 SZ EP        857 12.63                             170   -0.2410 23.4 186 
 BAR2 SZ ES        857 28.31                             170    0.1110 23.4 186 
 BAR2 SZ I         857 29.94        36.7 0.24            172           23.4 186 
 BRR  HZ IP     C  857 14.51                             153    0.2110 69.8 299 
 BRR  HN ES        857 31.60                             153    0.8410 69.8 299 
 BRR  HN I         857 35.00        63.1 0.16            150           69.8 299 
 PAM  SZ EP        857 15.68                             151    0.1910 78.1  40 
 PAM  SN ES        857 32.68                             151   -0.1910 78.1  40 
 PAM  SN I         857 33.81        17.7 0.26            153           78.1  40 
 RUS  HZ EP     C  857 16.70                             144   -0.3110  101 175 
 RUS  HN ES        857 35.76                             144    0.1910  101 175 
 RUS  HN I         857 36.08        30.6 0.22            148            101 175 
 PTB  HZ EP        857 19.23                             133   -0.84 9  146 259 
 PTB  HN ES        857 40.50                             133   -0.52 9  146 259 
 PTB  HN I         857 45.63        56.0 0.58            132            146 259 
 OCA  HE ES   2    857 42.79                             130   -0.77 5  160 354 
 OCA  HE I         857 49.22        61.7 0.30            130            160 354 
 ZAR  HZ EP        857 25.31                             123   -0.21 9  203 292 
 ZAR  HN ES        857 50.72                             123    0.00 9  203 292 
 ZAR  HN I         857 55.50        25.6 0.32            123            203 292 
 CHI  HZ EP        857 31.17                             117    0.26 8  249 195 
 HEL  HZ EP   1    857 34.81                             115    1.53 6  271 256 
 HEL  HN ES   1    858  4.67                             115    0.13 6  271 256 
 HEL  HN I         858 10.55         9.6 0.32            116            271 256 
                                                                                
