 2013  223 0657 18.9 L   6.706 -73.115144.2  RSN  5 0.3 1.3LRSN                1
 GAP=177        0.67       9.0     5.5  7.2 -0.2469E+02  0.2868E+01  0.7512E+01E
 Epicentro: JORDAN - SANTANDER                                                 3
 ACTION:UPD 13-03-12 09:35 OP:ep   STATUS:               ID:20130223065718 L   I
 2013-02-23-0650-00M.COL___225                                                 6
 STAT SP IPHASW D HRMM SECON CODA AMPLIT PERI AZIMU VELO AIN AR TRES W  DIS CAZ7
 BAR2 SZ EP   1    657 38.60                             174    0.37 7 14.6 211 
 BAR2 SZ ES   1    657 53.20                             174   -0.08 7 14.6 211 
 BAR2 SZ I         657 56.14         5.1 0.26            173           14.6 211 
 BRR  HZ EP   1    657 40.21                             149   -0.20 7 79.5 304 
 BRR  HN ES   1    657 57.62                             149    0.47 7 79.5 304 
 BRR  HZ I         657 59.51         3.0 0.50            152           79.5 304 
 PAM  SZ EP   1    657 41.70                             148    0.32 7 83.8  33 
 PAM  SN ES   1    657 58.43                             148   -0.45 7 83.8  33 
 PTB  HZ EP   1    657 45.64                             131   -0.29 7  149 263 
 PTB  HN ES   1    658  6.80                             131   -0.19 7  149 263 
 PTB  HZ I         658  8.39         2.7 0.52            134            149 263 
 PTLC HZ E         651  8.45                                            783 194 
                                                                                
