 2017  123 0237 31.6 L   7.368 -73.177132.2  RSN 11 0.2 1.9LRSN                1
 GAP=174        0.85       4.1     3.2  5.4  0.1565E+00  0.5745E+01 -0.8162E+00E
 Epicentro: RIONEGRO - SANTANDER                                               3
 ACTION:UPD 17-05-22 16:02 OP:jn   STATUS:               ID:20170123023731 L   I
 OLDACT:UP  17-01-23 14:46 OP:lv   STATUS:               ID:20170123022742     3
 OLDACT:REG 17-01-23 12:38 OP:lv   STATUS:               ID:20170123022742     3
 2017-01-23-0228-00M.COL___352                                                 6
 STAT SP IPHASW D HRMM SECON CODA AMPLIT PERI AZIMU VELO AIN AR TRES W  DIS CAZ7
 PAM  EZ EP        237 51.12                             157    0.1210 52.8  93 
 PAM  EN ES        238  6.09                             157   -0.0510 52.8  93 
 PAM  EZ I         238  9.23        27.9 0.33            157           52.8  93 
 BRR  HZ IP     D  237 50.91                             152   -0.0610 65.8 244 
 BRR  HE ES        238  6.18                             152    0.1010 65.8 244 
 BRR  HZ I         238  6.63        17.3 0.13            147           65.8 244 
 BAR2 EZ EP        237 52.85                             145    0.2610 85.8 180 
 BAR2 EZ ES        238  8.95                             145   -0.0110 85.8 180 
 BAR2 EZ I         238 10.19        30.1 0.11            140           85.8 180 
 RUS  HZ EP        237 59.80                             126    0.15 9  163 176 
 RUS  HN ES        238 20.88                             126   -0.65 9  163 176 
 RUS  HZ I         238 23.55         2.8 0.26            122            163 176 
 PTB  HZ EP        237 59.69                             125    0.17 9  168 237 
 PTB  HN ES        238 21.61                             125    0.31 9  168 237 
 PTB  HZ I         238 25.00         9.4 0.10            122            168 237 
 ZAR  HZ EP        238  0.90                             122   -0.41 9  186 274 
 ZAR  HN ES        238 24.55                             122    0.07 9  186 274 
 ZAR  HZ I         238 26.06        15.1 0.08            120            186 274 
 URE  HZ EP   9    238  8.04                             112   -1.69 0  263 279 
 URE  HN ES        238 36.94                                   -0.84 8  263 279 
 URE  HZ I         238 39.24        11.8 0.18            111            263 279 
 NOR  HZ EP   4    238 12.80                             112    1.87 0  274 223 
 NOR  HE ES        238 41.43                             112   -0.17 8  274 223 
 NOR  HZ I         238 48.12         4.4 0.16            110            274 223 
 CHI  HZ EP   9    238 17.64                             109    2.21 0  309 192 
 CHI  HE ES        238 52.82                                    0.99 7  309 192 
 CHI  HZ I         239  0.26         2.2 0.28            107            309 192 
 DBB  EZ EP        238 18.35                             107    0.06 7  337 264 
 DBB  EN ES   4    238 52.50                             107   -2.22 0  337 264 
 DBB  EZ I         238 55.94         4.0 0.18            106            337 264 
 CBOC HZ EP   4    238 21.66                             106    1.19 0  355 242 
 CBOC HN ES        238 58.57                             106   -0.02 6  355 242 
 CBOC HZ I         239  9.95         0.9 0.19            105            355 242 
 SJC  HZ EP   4    238 19.06                             106   -1.41 0  356 322 
 SJC  HN ES   4    238 54.91                             106   -3.69 0  356 322 
                                                                                
