 2016  223 0500 38.6 L   5.918 -73.914101.0  RSN  6 0.6 1.1LRSN                1
 GAP=119        1.34       5.5     4.8 10.0 -0.8266E+01  0.8946E+01 -0.7664E+01E
 Epicentro: LA BELLEZA - SANTANDER                                             3
 ACTION:UPD 16-03-04 21:28 OP:rebc STATUS:               ID:20160223050038 L   I
 OLDACT:UP  16-02-23 17:55 OP:mh   STATUS:               ID:20160223045746     3
 OLDACT:REG 16-02-23 13:10 OP:mh   STATUS:               ID:20160223045746     3
 2016-02-23-0457-46M.COL___319                                                 6
 STAT SP IPHASW D HRMM SECON CODA AMPLIT PERI AZIMU VELO AIN AR TRES W  DIS CAZ7
 SPBC HZ EP   1    5 0 53.03                             160   -0.00 7 34.2 211 
 SPBC HN ES        5 1  4.77                             160    0.4610 34.2 211 
 SPBC HZ I         5 1  6.62         5.7 0.08            164           34.2 211 
 PTB  HZ EP   1    5 0 56.03                             134   -0.76 7 91.3 319 
 PTB  HE ES        5 1 10.30                             134   -0.6910 91.3 319 
 PTB  HZ I         5 1 14.39         2.0 0.22            138           91.3 319 
 RUS  HZ EP   1    5 0 57.25                             134   -0.25 7 92.0  92 
 RUS  HE ES        5 1 11.73                             134   -0.5310 92.0  92 
 RUS  HZ I         5 1 16.70         1.5 0.44            138           92.0  92 
 BAR2 EZ EP   1    5 0 58.95                             129    0.14 7  110  47 
 BAR2 EZ ES   1    5 1 15.12                             129    0.53 7  110  47 
 BRR  HZ EP        5 1  0.35                             122   -0.4710  133  10 
 BRR  HN ES        5 1 19.06                             122    0.9010  133  10 
 BRR  HZ I         5 1 20.92         4.0 0.12            126            133  10 
 GUY2CHZ EP        5 1  7.08                             114    0.84 9  178 245 
 GUY2CHN ES        5 1 27.70                             114   -0.12 9  178 245 
 GUY2CHZ I         5 1 34.11         1.7 0.44                           178 245 
                                                                                
