 2014  523 0851 43.2 L   6.789 -73.512 98.2  RSN 12 0.4 1.5LRSN                1
 GAP= 71        0.99       2.9     2.8  7.8 -0.8715E+00  0.9264E+01 -0.6983E+00E
 Epicentro: EL CARMEN DE CHUCURI - SANTANDER                                   3
 ACTION:UPD 15-03-16 17:00 OP:nd   STATUS:               ID:20140523085143 L   I
 OLDACT:UP  14-05-23 18:24 OP:spq  STATUS:               ID:20140523084812     3
 OLDACT:UP  14-05-23 18:15 OP:spq  STATUS:               ID:20140523084812     3
 OLDACT:REG 14-05-23 13:19 OP:spq  STATUS:               ID:20140523084812     3
 2014-05-23-0848-12M.COL___252                                                 6
 STAT SP IPHASW D HRMM SECON CODA AMPLIT PERI AZIMU VELO AIN AR TRES W  DIS CAZ7
 BAR2 SZ EP        851 58.52                             155    0.6310 42.5 121 
 BAR2 SZ ES   1    852 10.17                             155    0.78 7 42.5 121 
 PTB  HZ IP     C  852  2.30                             129   -0.3710  108 255 
 PTB  HE ES        852 17.54                             129   -0.3610  108 255 
 PTB  HZ I         852 22.47         5.9 0.22            126            108 255 
 PAM  SZ EP        852  3.28                             129   -0.0610  108  56 
 PAM  SN ES        852 18.70                             129   -0.3910  108  56 
 PAM  SZ I         852 23.49         3.9 0.24            131            108  56 
 RUS  HZ EP        852  3.29                             129   -0.2010  110 154 
 RUS  HE ES        852 19.46                             129    0.1010  110 154 
 RUS  HZ I         852 20.86         6.5 0.28            130            110 154 
 SPBC HZ EP        852  5.70                             121   -0.33 9  140 206 
 SPBC HE ES        852 23.38                             121   -0.50 9  140 206 
 SPBC HZ I         852 31.70         4.7 0.22            120            140 206 
 ZAR  HZ EP   4    852 10.15                             116    1.23 0  168 298 
 ZAR  HN ES        852 29.23                             116    0.21 9  168 298 
 ZAR  HZ I         852 32.06         9.9 0.20            114            168 298 
 NOR  HZ EP        852 13.50                             112    0.62 9  202 228 
 NOR  HE ES        852 35.72                             112   -0.35 9  202 228 
 NOR  HZ I         852 41.50         4.2 0.20            110            202 228 
 SML  HE ES   1    852 41.15                             109   -0.68 6  231 345 
 SML  HZ I         852 50.72         5.4 0.28            107            231 345 
 HEL  HN ES   1    852 43.17                             109    0.13 6  233 254 
 HEL  HZ I         852 51.28         2.0 0.36            106            233 254 
 URE  HE ES        852 45.87                             107    0.59 8  247 296 
 URE  HZ I         852 53.39         3.2 0.18            105            247 296 
 GUY2CHZ EP        852 21.45                             106    0.32 8  268 230 
 GUY2CHE ES   1    852 51.15                             106    0.39 6  268 230 
 GUY2CHZ I         852 58.56         1.7 0.36                           268 230 
 RREF HN ES   1    852 56.30                             105    0.32 5  291 224 
 RREF HZ I         853  7.29         1.5 0.44            102            291 224 
                                                                                
