 2016  723 0444 45.0 L   6.802 -73.116148.2  RSN  5 0.3 1.5LRSN                1
 GAP=241        0.78       4.6     5.8  6.2  0.1257E+02  0.5489E+01  0.2613E+01E
 Epicentro: LOS SANTOS - SANTANDER                                             3
 ACTION:UPD 17-03-29 16:53 OP:lp   STATUS:               ID:20160723044445 L   I
 OLDACT:REG 16-07-23 14:34 OP:ar   STATUS:               ID:20160723043759     3
 2016-07-23-0437-59S.COL___322                                                 6
 STAT SP IPHASW D HRMM SECON CODA AMPLIT PERI AZIMU VELO AIN AR TRES W  DIS CAZ7
 BAR2 EZ EP        445  5.00                             170    0.0610 24.3 197 
 BAR2 EZ ES        445 20.10                             170   -0.4010 24.3 197 
 BRR  HZ EP        445  6.75                             152    0.1910 74.0 297 
 BRR  HN ES        445 23.89                             152    0.5010 74.0 297 
 BRR  HZ I         445 26.15         5.1 0.34            149           74.0 297 
 RUS  HZ EP        445  8.89                             144   -0.1010  101 178 
 RUS  HE ES        445 27.67                             144   -0.0410  101 178 
 RUS  HZ I         445 28.93         2.8 0.24            144            101 178 
 SPBC HZ EP        445 13.93                             129    0.04 9  165 220 
 SPBC HN ES        445 36.64                             129    0.20 9  165 220 
 SPBC HZ I         445 40.59         5.2 0.18            128            165 220 
 ZAR  HZ EP   4    445 14.50                             122   -3.40 0  207 292 
 ZAR  HN ES        445 42.99                             122   -0.57 8  207 292 
 ZAR  HZ I         445 47.88         4.3 0.32            122            207 292 
                                                                                
