 2012  623 0141  1.2 L   6.896 -73.479 11.3  RSN  5 0.5 1.6LRSN                1
 GAP=183        0.59       4.2     4.6  5.2  0.1072E+02  0.7608E+01  0.4797E+01E
 Epicentro: SAN VICENTE DE CHUCURI - SANTANDER                                 3
 ACTION:UPD 12-08-06 17:51 OP:ep   STATUS:               ID:20120623014101 L   I
 2012-06-23-0140-00M.COL___199                                                 6
 STAT SP IPHASW D HRMM SECON CODA AMPLIT PERI AZIMU VELO AIN AR TRES W  DIS CAZ7
 BRR  HZ IP     D  141  7.04                             103   -0.1310 34.7 312 
 BRR  HN ES   1    141 11.84                             103    0.00 7 34.7 312 
 BRR  HZ I         141 12.49        88.0 0.52                          34.7 312 
 BAR2 SZ EP   2    141  9.58                              99    0.33 5 47.0 136 
 BAR2 SZ I         141 18.17        10.5 0.20                          47.0 136 
 PTB  HZ EP   3    141 17.40                              94   -1.85 2  115 250 
 PTB  HN ES   2    141 33.79                              94    0.44 5  115 250 
 PTB  HZ I         141 36.25        14.1 0.32                           115 250 
 RUS  HE ES   3    141 35.04                              94   -0.36 2  119 158 
 ZAR  HZ EP   3    141 27.40                              56    0.84 2  166 293 
 ZAR  HN ES   1    141 46.42                              56    0.06 7  166 293 
 ZAR  HZ I         141 48.19        10.9 0.58                           166 293 
                                                                                
