 2013 1023 0424 22.3 L   6.068 -73.712117.5  RSN  7 0.4 1.9LRSN                1
 GAP=115        0.97       3.6     3.4  7.1 -0.1264E+01  0.7061E+01 -0.3674E+01E
 Epicentro: BOLIVAR - SANTANDER                                                3
 ACTION:UPD 13-11-25 09:23 OP:ep   STATUS:               ID:20131023042422 L   I
 OLDACT:REG 13-10-23 08:26 OP:carl STATUS:               ID:20131023041840     3
 2013-10-23-0418-40M.COL___226                                                 6
 STAT SP IPHASW D HRMM SECON CODA AMPLIT PERI AZIMU VELO AIN AR TRES W  DIS CAZ7
 SPBC HZ EP        424 40.04                             151    0.0910 60.8 221 
 SPBC HN ES        424 53.88                             151    0.1610 60.8 221 
 SPBC HZ I         424 55.29        19.9 0.42            153           60.8 221 
 RUS  HZ EP        424 41.13                             147   -0.1210 72.2 106 
 RUS  HN ES        424 55.81                             147   -0.2210 72.2 106 
 BAR2 SZ EP        424 41.91                             143    0.3010 82.4  45 
 BAR2 SZ ES        424 56.72                             143    0.0510 82.4  45 
 BAR2 SZ I         424 57.41        48.5 0.12            145           82.4  45 
 PTB  HZ EP        424 41.61                             137   -0.8710 97.5 302 
 PTB  HE ES        424 57.67                             137   -0.5510 97.5 302 
 PTB  HZ I         424 59.90         8.6 0.48            138           97.5 302 
 BRR  HN ES        425  1.29                             132    0.4210  115 360 
 BRR  HN I         425  4.69        17.7 0.18            134            115 360 
 NOR  HZ EP        424 46.51                             126    0.12 9  140 247 
 NOR  HN ES        425  5.60                             126    0.43 9  140 247 
 NOR  HZ I         425  7.29        18.7 0.16            128            140 247 
 ZAR  HZ EP        424 52.95                             116    0.08 9  202 321 
 ZAR  HN ES        425 16.99                             116    0.27 9  202 321 
 ZAR  HZ I         425 18.28         6.3 0.12            117            202 321 
                                                                                
