 2011 1023 0553 45.6 L   6.841 -73.047156.3  RSN  4 0.3 1.2LRSN                1
 GAP=214        0.46      11.0    20.8 11.7  0.1851E+03 -0.1502E+03 -0.5402E+02E
 Epicentro: LOS SANTOS - SANTANDER                                             3
 ACTION:UPD 12-07-13 16:05 OP:ep   STATUS:               ID:20111023055345 L   I
 2011-10-23-0551-34S.COL___171                                                 6
 STAT SP IPHASW D HRMM SECON CODA AMPLIT PERI AZIMU VELO AIN AR TRES W  DIS CAZ7
 GIR2 SZ ES   3    554 23.31                             168    0.45 2 30.8 328 
 BAR2 SZ EP   1    554  6.41                             167   -0.30 7 31.4 209 
 BAR2 SZ I         554 21.39         4.0 0.75                          31.4 209 
 BRR  HZ EP   2    554  8.79                             151    0.42 5 79.1 292 
 BRR  HN ES   2    554 25.92                             151   -0.18 5 79.1 292 
 BRR  HZ I         554 28.71         2.7 0.22                          79.1 292 
 RUS  HZ EP   1    554 10.85                             144    0.11 7  105 182 
 RUS  HZ I         554 27.91         2.2 0.46                           105 182 
 RUS  HN ES   2    554 30.39                             144    0.07 5  105 182 
                                                                                
