 2011 1023 0249 26.8 L   6.778 -73.109151.6  RSN  9 0.3 1.9LRSN                1
 GAP=142        0.48       3.0     3.7  4.9 -0.9929E+00  0.1437E+01 -0.9567E-01E
 Epicentro: LOS SANTOS - SANTANDER                                             3
 ACTION:UPD 12-07-13 16:05 OP:ep   STATUS:               ID:20111023024926 L   I
 2011-10-23-0247-55S.COL___171                                                 6
 STAT SP IPHASW D HRMM SECON CODA AMPLIT PERI AZIMU VELO AIN AR TRES W  DIS CAZ7
 BAR2 SZ EP   1    249 47.08                             171   -0.02 7 22.1 202 
 BAR2 SZ ES   2    250  2.79                             171   -0.15 5 22.1 202 
 BAR2 SZ I         250  3.79        16.7 0.32                          22.1 202 
 GIR2 SZ EP   3    249 47.07                             167   -0.17 2 34.6 344 
 GIR2 SZ ES   3    250  3.32                             167    0.12 2 34.6 344 
 BRR  HZ IP     C  249 48.84                             152    0.0010 76.0 299 
 BRR  HZ I         249 49.12        22.2 0.17                          76.0 299 
 BRR  HN ES   1    250  6.39                             152    0.35 7 76.0 299 
 PAM  SZ EP   1    249 49.76                             152    0.17 7 76.8  36 
 PAM  SN ES   2    250  7.11                             152   -0.27 5 76.8  36 
 RUS  HZ EP   1    249 51.32                             146    0.39 7 97.9 178 
 RUS  HN ES   2    250  9.28                             146   -0.48 5 97.9 178 
 RUS  HZ I         250 10.41         6.3 0.53                          97.9 178 
 OCA  SZ EP   1    249 55.32                             130   -0.51 7  163 352 
 OCA  SZ ES   2    250 18.73                             130    0.24 5  163 352 
 OCA  SZ I         250 23.68         6.9 0.24                           163 352 
 ZAR  HZ EP   2    250  0.13                             123    0.03 4  209 292 
 ZAR  HN ES   2    250 25.81                             123   -0.28 4  209 292 
 ZAR  HZ I         250 31.59         7.2 0.25                           209 292 
 NOR  SN ES   2    250 31.03                             120   -0.33 4  237 236 
 RREF HN ES   2    250 49.77                             112    0.08 3  323 230 
 RREF HZ I         250 55.35         2.8 0.28                           323 230 
                                                                                
