 2016  623 0630 55.4 L   6.385 -73.720 98.8  RSN  6 0.4 1.1LRSN                1
 GAP=137        1.09       4.2     4.4  9.6 -0.5389E+01  0.1457E+02 -0.8186E+01E
 Epicentro: SANTA HELENA DEL OPON - SANTANDER                                  3
 ACTION:UPD 16-07-21 22:21 OP:rebc STATUS:               ID:20160623063055 L   I
 OLDACT:REG 16-06-23 12:48 OP:ak   STATUS:               ID:20160623062744     3
 2016-06-23-0627-44M.COL___331                                                 6
 STAT SP IPHASW D HRMM SECON CODA AMPLIT PERI AZIMU VELO AIN AR TRES W  DIS CAZ7
 BAR2 EZ EP        631 11.49                             145    0.0110 63.7  69 
 BAR2 EZ ES        631 24.03                             145   -0.0110 63.7  69 
 BRR  HZ EP        631 12.35                             138   -0.0310 79.8   1 
 BRR  HE ES        631 26.08                             138    0.4310 79.8   1 
 BRR  HZ I         631 28.13         2.6 0.23                          79.8   1 
 PTB  HZ EP        631 11.83                             137   -0.8610 83.3 282 
 PTB  HN ES        631 25.77                             137   -0.4310 83.3 282 
 PTB  HZ I         631 28.67         3.1 0.14                          83.3 282 
 SPBC HE ES        631 27.37                             135   -0.0410 90.0 206 
 SPBC HZ I         631 28.86         3.1 0.10                          90.0 206 
 NOR  HN ES        631 39.92                             118    0.75 9  156 235 
 ZAR  HZ EP        631 22.20                             115    0.17 9  176 314 
 ZAR  HN ES        631 43.04                             115    0.21 9  176 314 
 ZAR  HZ I         631 48.05         3.3 0.30                           176 314 
                                                                                
