 2016  223 0255 18.4 L   6.793 -73.159144.2  RSN 13 0.4 1.9LRSN                1
 GAP=135        1.01       3.0     3.9  5.9 -0.1110E+01  0.4667E+01  0.2665E+01E
 Epicentro: LOS SANTOS - SANTANDER                                             3
 ACTION:UPD 16-03-04 21:28 OP:rebc STATUS:               ID:20160223025518 L   I
 OLDACT:UP  16-02-23 14:07 OP:mh   STATUS:               ID:20160223024749     3
 OLDACT:REG 16-02-23 13:04 OP:mh   STATUS:               ID:20160223024749     3
 2016-02-23-0247-49M.COL___328                                                 6
 STAT SP IPHASW D HRMM SECON CODA AMPLIT PERI AZIMU VELO AIN AR TRES W  DIS CAZ7
 BAR2 EZ EP        255 37.91                             171    0.0810 22.3 187 
 BAR2 EZ ES        255 52.64                             171   -0.3410 22.3 187 
 BAR2 EZ I         255 53.89        21.8 0.16            169           22.3 187 
 BRR  HZ EP        255 39.83                             153    0.4910 70.3 300 
 BRR  HN ES        255 56.56                             153    0.8910 70.3 300 
 BRR  HZ I         255 59.30         9.7 0.14            148           70.3 300 
 PAM  EN EP   1    255 40.95                             150    0.40 7 78.9  40 
 PAM  EZ ES        255 57.82                             150   -0.0110 78.9  40 
 PAM  EN I         255 58.73        33.2 0.46            153           78.9  40 
 RUS  HZ IP     D  255 41.92                             144   -0.0410 99.9 175 
 RUS  HN ES        256  0.35                             144    0.0310 99.9 175 
 RUS  HZ I         256  1.09         8.2 0.32            145           99.9 175 
 PTB  HZ EP   1    255 44.85                             132   -0.26 7  146 259 
 PTB  HN ES        256  5.36                             132   -0.57 9  146 259 
 PTB  HZ I         256 11.55         7.2 0.30            129            146 259 
 OCA  HZ EP   1    255 46.17                             129   -0.49 7  161 354 
 OCA  HE ES        256  7.80                             129   -0.90 9  161 354 
 OCA  HZ I         256 12.58        19.0 0.16            129            161 354 
 SPBC HZ EP   1    255 46.84                             129    0.20 7  162 219 
 SPBC HN ES        256  8.73                             129    0.07 9  162 219 
 SPBC HZ I         256 16.00        14.8 0.22            128            162 219 
 ZAR  HZ EP   1    255 50.81                             122    0.16 6  203 293 
 ZAR  HE ES        256 16.21                             122    0.42 9  203 293 
 ZAR  HZ I         256 22.48        12.1 0.34            121            203 293 
 NOR  HZ EP   1    255 54.44                             118    0.57 6  233 234 
 NOR  HN ES        256 21.01                             118   -0.52 8  233 234 
 NOR  HZ I         256 23.30         7.9 0.14            118            233 234 
 CHI  HZ EP   1    255 56.03                             117    0.14 6  247 195 
 CHI  HN ES        256 25.00                             117   -0.13 8  247 195 
 CHI  HZ I         256 31.02         3.0 0.26            117            247 195 
 URE  HZ EP   9    255 58.93                             113   -0.36 0  283 292 
 URE  HN ES   1    256 29.90                                   -0.91 6  283 292 
 URE  HZ I         256 42.21         6.1 0.26            113            283 292 
 GUY2CHZ EP   1    256  1.46                             112   -0.30 5  300 235 
 GUY2CHN ES   4    256 35.89                             112    0.32 0  300 235 
 GUY2CHZ I         256 43.10         3.3 0.24                           300 235 
 MON  HZ EP   9    256  5.37                             108   -1.91 0  353 309 
 MON  HN ES        256 43.52                                    0.03 6  353 309 
 MON  HZ I         256 49.27         1.8 0.48            108            353 309 
                                                                                
