 2015  123 0513 59.2 L   6.781 -73.164153.6  RSN  5 0.3 1.4LRSN                1
 GAP=234        0.86       5.3     5.6  6.9  0.6374E+01  0.2621E+01 -0.3151E+00E
 Epicentro: LOS SANTOS - SANTANDER                                             3
 ACTION:UPD 15-03-02 15:41 OP:nd   STATUS:               ID:20150123051359 L   I
 OLDACT:REG 15-01-23 14:40 OP:carl STATUS:               ID:20150123050743     3
 2015-01-23-0507-43M.COL___262                                                 6
 STAT SP IPHASW D HRMM SECON CODA AMPLIT PERI AZIMU VELO AIN AR TRES W  DIS CAZ7
 BAR2 EZ EP        514 19.83                             172    0.1010 21.0 185 
 BAR2 EZ ES        514 35.36                             172   -0.3910 21.0 185 
 BAR2 EZ I         514 36.20         5.5 0.22            167           21.0 185 
 BRR  HZ EP        514 20.59                             154   -0.5710 70.4 301 
 BRR  HN ES        514 38.81                             154    0.5210 70.4 301 
 BRR  HZ I         514 40.54         3.7 0.50            154           70.4 301 
 RUS  HZ EP        514 23.80                             146    0.2010 98.7 175 
 RUS  HN ES        514 42.79                             146    0.1610 98.7 175 
 RUS  HZ I         514 45.12         2.0 0.30            144           98.7 175 
 PTB  HZ EP        514 26.85                             134    0.24 9  145 259 
 PTB  HN ES        514 47.83                             134   -0.15 9  145 259 
 PTB  HZ I         514 49.14         2.4 0.10            133            145 259 
 SPBC HN ES        514 50.42                             131   -0.12 9  160 219 
 SPBC HZ I         514 56.88         5.1 0.22            130            160 219 
                                                                                
