 2010  723 0006 17.2 L   6.575 -73.273142.0  RSN  4 0.7 1.5LRSN                1
 GAP=127        1.40      33.2    63.1 27.8  0.1847E+04 -0.2523E+03 -0.1012E+03E
 Epicentro: CABRERA - SANTANDER                                                3
 ACTION:UPD 10-12-01 15:19 OP:pat  STATUS:               ID:20100723000617 L   I
 2010-07-23-0000-00S.COL___154                                                 6
 STAT SP IPHASW D HRMM SECON CODA AMPLIT PERI AZIMU VELO AIN AR TRES W  DIS CAZ7
 BAR2 SZ EP   1    0 6 36.50                             174     0.3 7   10  80 
 BAR2 SZ I         0 6 50.45        18.3 0.20                            10  80 
 BRR  HZ EP   1    0 6 37.41                             151    -0.9 7   76 321 
 BRR  HE ES   2    0 6 55.67                             151     1.0 5   76 321 
 BRR  HZ I         0 6 57.18         6.7 0.09                            76 321 
 RUS  HZ EP   1    0 6 39.65                             150     0.5 7   78 164 
 RUS  HN ES   2    0 6 55.27                             150    -0.9 5   78 164 
 RUS  HZ I         0 7  3.10         2.3 0.35                            78 164 
 CHI  HZ EP   3    0 6 52.21                             120     0.5 2  221 193 
 CHI  HZ I         0 6 54.40         2.4 0.09                           221 193 
                                                                                
