 2014  723 0607 19.8 L   6.617 -73.281148.0  RSN  5 0.3 1.0LRSN                1
 GAP=206        0.65       4.0     5.4  7.0  0.1034E+02  0.1028E+02  0.2993E+00E
 Epicentro: GALAN - SANTANDER                                                  3
 ACTION:UPD 15-03-16 20:46 OP:nd   STATUS:               ID:20140723060719 L   I
 OLDACT:DUP 14-07-23 15:14 OP:spq  STATUS:               ID:20140723055812d    3
 2014-07-23-0558-09M.COL___266                                                 6
 STAT SP IPHASW D HRMM SECON CODA AMPLIT PERI AZIMU VELO AIN AR TRES W  DIS CAZ7
 BRR  HZ EP        6 7 41.02                             153   -0.2310 72.1 319 
 BRR  HE ES        6 7 58.06                             153    0.0910 72.1 319 
 BRR  HZ I         6 8  2.18         2.3 0.58            149           72.1 319 
 RUS  HN ES        6 8  0.44                             149    0.0510 83.1 165 
 RUS  HZ I         6 8  2.46         0.9 0.32            149           83.1 165 
 PTB  HZ EP   1    6 7 45.14                             136   -0.29 7  130 266 
 PTB  HN ES   1    6 8  4.89                             136   -0.52 7  130 266 
 PTB  HZ I         6 8  9.76         1.1 0.12            133            130 266 
 SPBC HZ EP   1    6 7 46.61                             135    0.41 7  138 219 
 SPBC HN ES   1    6 8  6.87                             135    0.08 7  138 219 
 SPBC HZ I         6 8 16.14         1.4 0.28            132            138 219 
 ZAR  HE ES        6 8 17.30                             124    0.35 9  199 299 
 ZAR  HZ I         6 8 26.69         1.1 0.22            124            199 299 
                                                                                
