 2010  923 0315 19.2 L   6.795 -73.127138.6  RSN  5 0.3 1.3LRSN                1
 GAP=161        0.51       6.4    26.6 11.4  0.3450E+01 -0.9880E+02 -0.4046E+02E
 Epicentro: LOS SANTOS - SANTANDER                                             3
 ACTION:UP  11-02-18 11:04 OP:tino STATUS:               ID:20100923031519 L   I
 2010-09-23-0310-51S.COL___122                                                 6
 STAT SP IPHASW D HRMM SECON CODA AMPLIT PERI AZIMU VELO SNR AR TRES W  DIS CAZ7
 BTL  SZ EP        315 37.93                             171     0.110   21 311 
 BAR2 SZ EP   2    315 37.48                             170    -0.4 5   23 196 
 BAR2 SZ ES   2    315 52.46                             170    -0.1 5   23 196 
 BAR2 SZ I         315 53.62         5.7 0.36                            23 196 
 RUS  HZ EP   2    315 42.17                             142     0.0 5  100 177 
 RUS  HN ES   2    316  0.24                             142     0.2 5  100 177 
 RUS  HZ I         316  1.88         2.4 0.37                           100 177 
 GUE  SZ EP   2    315 43.68                             138     0.5 5  117  11 
 GRA  SZ EP   2    315 43.39                             135    -0.4 5  126  16 
 GRA  SZ I         315 53.96         3.6 0.20                           126  16 
                                                                                
