 2012  223 0650  2.8 L   6.716 -73.193149.3  RSN  5 0.4 1.0LRSN                1
 GAP=172        0.85       7.1     7.4  8.1  0.1379E+02  0.1020E+02  0.8446E+01E
 ACTION:UP  12-03-07 16:33 OP:epov STATUS:               ID:20120223065002 L   I
 2012-02-23-0650-00M.COL___191                                                 6
 STAT SP IPHASW D HRMM SECON CODA AMPLIT PERI AZIMU VELO AIN AR TRES W  DIS CAZ7
 BAR2 SZ EP   1    650 22.60                             174   -0.11 7 13.8 175 
 BAR2 SZ ES   1    650 37.70                             174   -0.53 7 13.8 175 
 BAR2 SZ I         650 38.66         2.5 0.29                          13.8 175 
 GIR2 SZ EP   1    650 22.93                             164   -0.23 7 40.1 360 
 GIR2 SZ ES   1    650 38.70                             164   -0.33 7 40.1 360 
 BRR  HZ EP   1    650 24.79                             153    0.42 7 71.8 307 
 BRR  HZ I         650 25.52         3.0 0.10                          71.8 307 
 BRR  HN ES   1    650 42.01                             153    0.83 7 71.8 307 
 RUS  HZ EP   1    650 26.50                             147    0.19 7 91.9 172 
 RUS  HE ES   1    650 45.04                             147    0.40 7 91.9 172 
 RUS  HZ I         650 46.02         1.1 0.27                          91.9 172 
 PTB  HZ EP   1    650 29.09                             134   -0.38 7  141 262 
 PTB  HN ES   1    650 49.92                             134   -0.34 7  141 262 
                                                                                
