 2012  923 0519 55.5 L   6.810 -73.150148.0  RSN  8 0.4 2.0LRSN                1
 GAP=135        0.64       4.2     4.5  7.9  0.4293E+01  0.3527E+01  0.5120E+01E
 Epicentro: LOS SANTOS - SANTANDER                                             3
 ACTION:UPD 12-10-22 14:20 OP:ep   STATUS:               ID:20120923051955 L   I
 2012-09-23-0520-00M.COL___221                                                 6
 STAT SP IPHASW D HRMM SECON CODA AMPLIT PERI AZIMU VELO AIN AR TRES W  DIS CAZ7
 GIR2 SZ EP   1    520 14.89                             168   -0.50 7 30.1 351 
 BRR  HZ EP        520 17.05                             153    0.2310 70.2 298 
 BRR  HN ES   1    520 34.03                             153    0.57 7 70.2 298 
 BRR  HN I         520 38.40        26.3 0.16                          70.2 298 
 PAM  SZ EP   2    520 18.12                             152    0.22 5 76.8  40 
 PAM  SN ES   2    520 34.97                             152   -0.42 5 76.8  40 
 RUS  HZ EP   1    520 19.48                             144   -0.05 7  102 176 
 RUS  HN ES   1    520 38.38                             144    0.09 7  102 176 
 PTB  HN ES   2    520 42.96                             133   -0.81 5  148 258 
 PTB  HN I         520 48.12        11.4 0.38                           148 258 
 ZAR  HN ES   1    520 53.05                             123   -0.28 6  203 292 
 ZAR  HN I         521  0.78        10.6 0.28                           203 292 
 CHI  HZ EP   2    520 33.71                             118    0.30 4  250 195 
 CHI  HN ES   2    521  2.84                             118   -0.15 4  250 195 
 CHI  HN I         521  8.18         5.0 0.26                           250 195 
 HEL  HE ES   2    521  7.38                             115    0.16 4  272 256 
                                                                                
