 2014 1223 0720 21.9 L   6.808 -73.086148.7  RSN  8 0.4 1.7LRSN                1
 GAP=213        1.02       4.4     6.2  7.4 -0.6624E+01  0.1282E+02  0.1295E+01E
 Epicentro: LOS SANTOS - SANTANDER                                             3
 ACTION:UPD 15-02-10 17:06 OP:nd   STATUS:               ID:20141223072021 L   I
 OLDACT:UP  14-12-23 17:47 OP:mh   STATUS:               ID:20141223071748     3
 OLDACT:UP  14-12-23 17:47 OP:mh   STATUS:               ID:20141223071748     3
 OLDACT:UP  14-12-23 17:47 OP:mh   STATUS:               ID:20141223071748     3
 OLDACT:REG 14-12-23 13:37 OP:mh   STATUS:               ID:20141223071748     3
 2014-12-23-0717-48M.COL___289                                                 6
 STAT SP IPHASW D HRMM SECON CODA AMPLIT PERI AZIMU VELO AIN AR TRES W  DIS CAZ7
 BAR2 EZ EP   1    720 42.59                             170    0.65 7 26.1 204 
 BAR2 EZ ES        720 57.11                             170   -0.4610 26.1 204 
 BAR2 EZ I         720 58.94                             165           26.1 204 
 BRR  HZ EP        720 44.35                             151    0.6710 76.7 296 
 BRR  HN ES        721  1.11                             151    0.4510 76.7 296 
 BRR  HZ I         721  2.10         7.1 0.16            148           76.7 296 
 PTB  HZ EP   1    720 49.30                             131   -0.41 7  154 259 
 PTB  HN ES        721 11.40                             131   -0.00 9  154 259 
 PTB  HZ I         721 13.21         6.2 0.38            129            154 259 
 OCA  HN ES        721 12.36                             130   -0.35 9  160 351 
 SPBC HZ EP        720 50.68                             129   -0.41 9  168 221 
 SPBC HN ES        721 13.93                             129    0.08 9  168 221 
 SPBC HZ I         721 20.33        10.4 0.24            127            168 221 
 ZAR  HZ EP        720 55.22                             122    0.08 8  210 291 
 ZAR  HN ES        721 20.52                             122   -0.54 8  210 291 
 ZAR  HZ I         721 26.10         5.7 0.44            121            210 291 
 NOR  HN ES        721 26.63                             118   -0.30 8  241 235 
 NOR  HZ I         721 31.80         4.0 0.09            118            241 235 
 HEL  HZ EP   1    721  2.60                             115   -0.40 6  279 256 
 HEL  HN ES        721 35.71                             115    0.66 7  279 256 
 HEL  HZ I         721 42.88         2.2 0.50            114            279 256 
                                                                                
