 2012  923 0603  9.5 L   6.766 -73.149150.9  RSN  7 0.4 2.3LRSN                1
 GAP=138        0.71       4.8     4.3  6.2  0.2129E+01  0.4765E+01 -0.2178E+01E
 Epicentro: LOS SANTOS - SANTANDER                                             3
 ACTION:UPD 12-10-22 14:20 OP:ep   STATUS:               ID:20120923060309 L   I
 2012-09-23-0600-00M.COL___221                                                 6
 STAT SP IPHASW D HRMM SECON CODA AMPLIT PERI AZIMU VELO AIN AR TRES W  DIS CAZ7
 BAR2 SZ EP   1    6 3 29.57                             172   -0.13 7 19.6 191 
 BAR2 SZ ES   1    6 3 45.33                             172   -0.11 7 19.6 191 
 GIR2 SZ EP   1    6 3 29.88                             166   -0.02 7 34.9 352 
 GIR2 SZ ES   2    6 3 45.62                             166   -0.19 5 34.9 352 
 BRR  HZ EP        6 3 31.52                             153    0.2110 72.7 301 
 BRR  HN ES   1    6 3 49.07                             153    0.76 7 72.7 301 
 BRR  HN I         6 3 49.67        53.2 0.20                          72.7 301 
 PAM  SZ EP   1    6 3 32.42                             151   -0.05 7 80.6  38 
 PAM  SN ES   1    6 3 50.00                             151   -0.38 7 80.6  38 
 PAM  SN I         6 3 50.92        29.1 0.50                          80.6  38 
 RUS  HZ EP   1    6 3 33.42                             146   -0.10 7 96.9 176 
 RUS  HN ES   1    6 3 52.59                             146    0.35 7 96.9 176 
 PTB  HN ES   1    6 3 57.33                             133   -0.77 7  147 260 
 PTB  HN I         6 4  3.04        20.9 0.54                           147 260 
 ZAR  HZ EP   1    6 3 42.57                             123    0.16 6  205 293 
 ZAR  HN ES   1    6 4  8.01                             123   -0.06 6  205 293 
 ZAR  HN I         6 4 14.60        16.5 0.36                           205 293 
                                                                                
