 2012 1023 0634 51.8 L   6.864 -73.289120.0  RSN  5 0.2 1.9LRSN                1
 GAP=135        0.47       4.5     6.6  5.9  0.2124E+02  0.8509E+00 -0.3285E+01E
 Epicentro: ZAPATOCA - SANTANDER                                               3
 ACTION:UPD 12-11-22 17:05 OP:ep   STATUS:               ID:20121023063451 L   I
 2012-10-23-0630-00M.COL___234                                                 6
 STAT SP IPHASW D HRMM SECON CODA AMPLIT PERI AZIMU VELO AIN AR TRES W  DIS CAZ7
 GIR2 SZ EP   1    635  8.40                             167    0.12 8 26.0  24 
 BAR2 SZ EP   1    635  8.79                             164    0.18 8 32.2 159 
 BAR2 SZ ES   1    635 21.38                             164   -0.33 8 32.2 159 
 BAR2 SZ I         635 23.51        34.5 0.25                          32.2 159 
 BRR  HZ EP   1    635  9.16                             154   -0.05 8 54.0 300 
 BRR  HN ES   2    635 23.03                             154    0.26 5 54.0 300 
 BRR  HN I         635 23.88        30.8 0.18                          54.0 300 
 RUS  HZ EP   1    635 13.61                             135   -0.29 7  110 168 
 RUS  HN ES        635 31.29                             135    0.1610  110 168 
 ZAR  HN ES   2    635 43.35                             118   -0.14 4  187 292 
 ZAR  HN I         635 47.70         5.4 0.28                           187 292 
                                                                                
