 2015  923 0035 49.5 L   6.823 -73.149144.0  RSN  7 0.5 1.6LRSN                1
 GAP=147        1.14       4.3     5.1  6.9 -0.2807E-01  0.8224E+01  0.1550E+01E
 Epicentro: LOS SANTOS - SANTANDER                                             3
 ACTION:UPD 15-10-28 16:27 OP:cam  STATUS:               ID:20150923003549 L   I
 OLDACT:REG 15-09-23 12:37 OP:mh   STATUS:               ID:20150923002748     3
 2015-09-23-0027-48M.COL___355                                                 6
 STAT SP IPHASW D HRMM SECON CODA AMPLIT PERI AZIMU VELO AIN AR TRES W  DIS CAZ7
 BAR2 EZ EP        036  8.74                             169   -0.1910 25.8 188 
 BAR2 EZ ES        036 23.74                             169   -0.3810 25.8 188 
 BAR2 EZ I         036 26.68         9.4 0.28            165           25.8 188 
 BRR  HZ EP        036 11.17                             153    0.8310 69.7 297 
 BRR  HN ES        036 26.81                             153    0.1910 69.7 297 
 BRR  HZ I         037  9.06        11.2 0.30            149           69.7 297 
 PAM  EZ EP        036 11.77                             151    0.3810 75.6  41 
 PAM  EN ES        036 28.44                             151   -0.0410 75.6  41 
 PAM  EZ I         036 31.16         5.3 0.50            162           75.6  41 
 PTB  HZ EP        036 15.78                             132   -0.52 9  148 258 
 PTB  HN ES        036 36.77                             132   -0.47 9  148 258 
 PTB  HZ I         036 43.80         6.0 0.34            135            148 258 
 ZAR  HZ EP        036 22.04                             122    0.38 9  203 291 
 ZAR  HN ES        036 47.34                             122    0.56 9  203 291 
 ZAR  HZ I         036 54.88         3.0 0.58            127            203 291 
 SML  HZ EP        036 25.29                             117   -0.43 8  241 335 
 SML  HN ES        036 53.40                             117   -0.60 8  241 335 
 SML  HZ I         036 59.32         4.7 0.10            125            241 335 
 CHI  HZ EP        036 26.88                             116   -0.45 8  251 195 
 CHI  HE ES        036 57.37                             116    0.51 8  251 195 
 CHI  HZ I         037  0.01         1.5 0.24            127            251 195 
                                                                                
