 2011 1023 0803 28.4 L   6.817 -73.104148.9  RSN 19 0.3 3.5LRSN                1
 GAP=117        0.58       2.3     2.8  3.9  0.2095E+00  0.3095E+01  0.3339E+01E
 Epicentro: LOS SANTOS - SANTANDER                                             3
 ACTION:UPD 12-07-13 16:05 OP:ep   STATUS:               ID:20111023080328 L   I
 2011-10-23-0801-55S.COL___171                                                 6
 STAT SP IPHASW D HRMM SECON CODA AMPLIT PERI AZIMU VELO AIN AR TRES W  DIS CAZ7
 BAR2 SZ IP        8 3 48.32                             170   -0.1710 26.3 199 
 GIR2 SZ EP   1    8 3 48.37                             168   -0.08 7 30.6 341 
 GIR2 SZ ES   1    8 4  4.09                             168    0.01 7 30.6 341 
 PAM  SZ EP        8 3 51.15                             152    0.4210 73.1  38 
 PAM  SN ES   2    8 4  8.05                             152   -0.07 5 73.1  38 
 BRR  HZ IP     C  8 3 50.07                             152   -0.0310 74.5 296 
 BRR  HZ I         8 3 50.38       655.4 0.13                          74.5 296 
 BRR  HE ES   1    8 4  7.07                             152    0.06 7 74.5 296 
 RUS  HZ IP     D  8 3 52.28                             144   -0.3210  102 179 
 RUS  HN ES   1    8 4 11.27                             144   -0.19 7  102 179 
 RUS  HZ I         8 4 12.35       181.0 0.31                           102 179 
 OCA  SZ EP   1    8 3 56.68                             130   -0.19 7  159 351 
 OCA  SZ ES   2    8 4 19.03                             130   -0.03 5  159 351 
 OCA  SZ I         8 4 23.68       369.2 0.36                           159 351 
 YOP  SZ IP        8 3 59.11                             127    0.45 9  179 155 
 YOP  SE ES   2    8 4 22.25                             127    0.01 4  179 155 
 YOP  SZ I         8 4 24.15       182.7 0.33                           179 155 
 ZAR  HZ EP   1    8 4  1.25                             122   -0.20 6  208 291 
 ZAR  HN ES   2    8 4 27.11                             122   -0.10 4  208 291 
 NOR  SZ EP   1    8 4  4.22                             118   -0.63 6  240 235 
 NOR  SN ES   2    8 4 33.44                             118    0.17 4  240 235 
 ROSC BZ IP     D  8 4  8.07                             117    0.92 8  257 212 
 ROSC BN ES   2    8 4 37.55                             117    0.20 4  257 212 
 ROSC BZ I         8 4 42.49       336.2 0.49                           257 212 
 HEL  HZ EP   1    8 4  9.04                             115   -0.30 6  277 256 
 HEL  HN ES   2    8 4 41.29                             115    0.03 4  277 256 
 HEL  HZ I         8 4 48.49       210.7 0.44                           277 256 
 VIL  SZ EP   1    8 4 11.81                             112   -0.49 5  306 192 
 VIL  SN ES   2    8 4 46.02                             112   -0.50 4  306 192 
 VIL  SZ I         8 4 49.55       102.7 0.27                           306 192 
 GUY  SZ EP   1    8 4 12.89                             112   -0.10 5  308 235 
 GUY  SN ES   2    8 4 47.87                             112    0.12 4  308 235 
 GUY  SZ I         8 4 54.68       249.6 0.55                           308 235 
 RREF HZ EP   2    8 4 15.27                             111    0.03 3  326 230 
 RREF HN ES   2    8 4 51.99                             111    0.23 3  326 230 
 RREF HZ I         8 5  0.13       200.3 0.49                           326 230 
 DBB  SZ EP   1    8 4 16.22                             110   -0.32 5  344 274 
 DBB  SZ ES   2    8 4 54.09                             110    0.01 3  344 274 
 TOL  SZ EP   1    8 4 17.72                             109    0.39 5  348 225 
 TOL  SZ ES   2    8 4 55.71                             109    0.23 3  348 225 
 ANIL HZ EP   1    8 4 19.31                             109    0.43 5  362 225 
 ANIL HN ES   2    8 4 58.09                             109   -0.14 3  362 225 
 ANIL HZ I         8 5 11.44       274.5 0.36                           362 225 
 PRA  HZ EP   1    8 4 21.85                             107   -0.66 4  396 210 
 PRA  HN ES   2    8 5  4.79                             107    0.10 3  396 210 
 GUA  SZ EP   2    8 4 31.20                             103   -0.61 2  475 174 
 GUA  SZ ES   2    8 5 20.70                             103   -0.56 2  475 174 
                                                                                
