 2015  423 0104 22.4 L   6.799 -73.113138.2  RSN  5 0.5 1.4LRSN                1
 GAP=204        1.20       7.5     8.8 10.7  0.3305E+02 -0.1546E+02 -0.3366E+02E
 Epicentro: LOS SANTOS - SANTANDER                                             3
 ACTION:UPD 15-06-03 16:56 OP:cam  STATUS:               ID:20150423010422 L   I
 OLDACT:REG 15-04-23 12:10 OP:ak   STATUS:               ID:20150423005746     3
 2015-04-23-0057-46M.COL___280                                                 6
 STAT SP IPHASW D HRMM SECON CODA AMPLIT PERI AZIMU VELO AIN AR TRES W  DIS CAZ7
 BRR  HZ EP        1 4 43.26                             150    0.3310 74.4 297 
 BRR  HN ES        1 4 59.53                             150    0.5910 74.4 297 
 RUS  HZ EP   1    1 4 46.11                             143    0.72 7  100 178 
 RUS  HE ES        1 5  2.63                             143   -0.6910  100 178 
 RUS  HZ I         1 5  4.97         1.3 0.28            149            100 178 
 PTB  HZ EP        1 4 49.30                             130    0.21 9  151 259 
 PTB  HN ES        1 5  9.60                             130   -0.30 9  151 259 
 PTB  HZ I         1 5 11.22         3.2 0.12            133            151 259 
 ZAR  HZ EP        1 4 55.18                             120    0.46 8  207 292 
 ZAR  HN ES        1 5 19.47                             120   -0.46 8  207 292 
 ZAR  HZ I         1 5 23.48         2.9 0.38            122            207 292 
 SML  HZ EP        1 4 58.07                             116   -0.73 8  245 335 
 SML  HN ES   2    1 5 26.61                             116   -0.58 4  245 335 
 SML  HZ I         1 5 35.00         3.1 0.24            117            245 335 
                                                                                
