 2010  623 0107 56.0 L   7.101 -73.392  4.2  RSN  6 0.5 1.4LRSN                1
 GAP=121        1.02       2.9     3.7  9.1 -0.2517E+01 -0.2178E+01  0.2487E+01E
 Epicentro: LEBRIJA - SANTANDER                                                3
 ACTION:UP  10-08-24 10:12 OP:vdl  STATUS:               ID:20100623010756 L   I
 2010-06-23-0104-13S.COL___118                                                 6
 STAT SP IPHASW D HRMM SECON CODA AMPLIT PERI AZIMU VELO SNR AR TRES W  DIS CAZ7
 BRR  HZ EP        1 8  1.94                              47     0.010   35 271 
 BRR  HE ES   2    1 8  6.30                              47    -0.3 5   35 271 
 BRR  HZ I         1 8  6.89        54.2 0.31                            35 271 
 BAR2 SZ EP        1 8  5.84                              47    -0.210   61 158 
 BAR2 SZ ES   2    1 8 14.68                              47     0.8 5   61 158 
 BRI  SZ EP        1 8 10.60                              47    -0.510   95  44 
 BRI  SZ ES   2    1 8 22.10                              47    -0.8 5   95  44 
 GUE  SZ EP        1 8 11.80                              47     0.410   96  33 
 GRA  SZ EP        1 8 13.73                              47     0.610  108  37 
 GRA  SZ ES   2    1 8 26.38                              47    -0.2 5  108  37 
 RUS  HZ EP        1 8 18.23                              47     0.2 9  138 166 
 RUS  HN ES   2    1 8 34.28                              47    -0.9 5  138 166 
 RUS  HZ I         1 8 40.52         4.8 0.34                           138 166 
                                                                                
