 2014 1123 0257 35.0 L   6.881 -73.333119.5  RSN 28 0.6 2.7LRSN                1
 GAP= 53        1.75       3.3     3.8  7.1 -0.5069E+00  0.8731E+01  0.2775E+01E
 Epicentro: BETULIA - SANTANDER                                                3
       5.0      17.0    -102.0  4.0  2.0  9.0  0.0  0.1           RSN FPFIT    F
 ACTION:UPD 14-12-19 15:46 OP:nd   STATUS:               ID:20141123025735 L   I
 OLDACT:ARG 14-11-23 12:58 OP:stll STATUS:               ID:20141123024743     3
 2014-11-23-0247-43M.COL___297                                                 6
 STAT SP IPHASW D HRMM SECON CODA AMPLIT PERI AZIMU VELO AIN AR TRES W  DIS CAZ7
 BAR2 SZ EP        257 52.25                             162    0.3410 36.0 152 
 BAR2 SZ ES        258  5.37                             162    0.3010 36.0 152 
 BRR  HZ IP     D  257 52.63                             156    0.5210 48.8 301 
 BRR  HN ES        258  6.21                             156    0.7810 48.8 301 
 BRR  HZ I         258  7.57       202.3 0.14            156           48.8 301 
 PAM  SZ IP     C  257 55.33                             142    0.1410 86.4  54 
 PAM  SN ES        258 11.12                             142    0.2210 86.4  54 
 PAM  SZ I         258 14.16       124.0 0.50            146           86.4  54 
 RUS  HZ EP     C  257 56.85                             134   -0.4910  113 166 
 RUS  HN ES        258 14.60                             134   -0.1410  113 166 
 RUS  HZ I         258 16.66        65.4 0.32            135            113 166 
 PTB  HZ IP     D  257 57.58                             129   -0.6810  130 253 
 PTB  HE ES        258 16.09                             129   -0.2810  130 253 
 PTB  HZ I         258 23.47        79.8 0.36            129            130 253 
 OCA  HZ EP        258  0.35                             125   -0.08 9  150   1 
 OCA  HN ES        258 20.01                             125   -0.22 9  150   1 
 OCA  HZ I         258 21.40       227.8 0.30            128            150   1 
 SPBC HZ EP        258  0.89                             123   -0.31 9  159 211 
 SPBC HN ES        258 21.55                             123   -0.05 9  159 211 
 SPBC HZ I         258 28.43        89.5 0.22            124            159 211 
 TAM  HZ IP     C  258  3.13                             120    0.04 9  177 106 
 TAM  HE ES        258 23.40                             120   -1.58 9  177 106 
 TAM  HZ I         258 30.05        80.9 0.62            122            177 106 
 ZAR  HZ IP     D  258  3.89                             119    0.41 9  181 292 
 ZAR  HE ES        258 25.73                             119    0.07 9  181 292 
 ZAR  HZ I         258 30.74       110.6 0.32            120            181 292 
 NOR  HZ EP        258  7.64                             113   -0.54 8  224 229 
 NOR  HE ES        258 33.94                             113   -0.08 8  224 229 
 NOR  HZ I         258 38.08        29.0 0.50            114            224 229 
 ROSC BZ EP   1    258 11.88                             111    0.24 6  251 206 
 ROSC BE ES        258 40.81                             111    0.62 8  251 206 
 ROSC BZ I         258 48.13        18.1 0.40            112            251 206 
 CHI  HZ EP        258 12.21                             111    0.30 8  253 190 
 CHI  HE ES        258 41.08                             111    0.42 8  253 190 
 CHI  HZ I         258 46.54        23.3 0.42            112            253 190 
 HEL  HZ EP        258 13.12                             110    1.07 8  255 253 
 HEL  HN ES        258 40.95                             110    0.04 8  255 253 
 HEL  HZ I         258 46.61        39.8 0.24            112            255 253 
 URE  HZ EP        258 11.72                             110   -0.65 8  261 292 
 URE  HE ES        258 40.51                             110   -0.97 8  261 292 
 URE  HZ I         258 51.80        60.3 0.16            111            261 292 
 GUY2CHZ EP        258 16.82                             107    0.54 7  290 231 
 GUY2CHN ES        258 47.70                             107   -0.74 7  290 231 
 GUY2CHZ I         258 56.08        24.0 0.46                           290 231 
 VIL  SZ EP        258 17.96                             106   -0.07 7  309 187 
 VIL  SN ES        258 50.65                             106   -0.91 7  309 187 
 VIL  SZ I         258 58.62        40.1 0.32            107            309 187 
 RREF HZ EP   9    258 20.20                             106    1.10 0  313 226 
 RREF HN ES        258 53.94                                   -0.63 7  313 226 
 RREF HZ I         259  2.18        21.5 0.28            107            313 226 
 CBOC HZ EP        258 20.09                             105    1.04 7  317 249 
 CBOC HN ES        258 52.75                             105   -0.62 7  317 249 
 CBOC HZ I         258 56.98         9.6 0.24            107            317 249 
 DBB  SZ EP        258 19.48                             105    0.40 7  318 273 
 PTGC HZ EP   9    258 18.31                             105   -1.46 0  325 156 
 PTGC HE ES        258 51.74                                   -1.46 7  325 156 
 PTGC HZ I         259  0.74        26.4 0.32            106            325 156 
 MON  HZ IP   9 C  258 19.49                             104   -1.09 0  332 309 
 MON  HN ES        258 54.04                                   -0.97 7  332 309 
 MON  HZ I         259  1.71        14.7 0.36            106            332 309 
 TOL  SZ EP        258 22.06                             104    0.58 7  336 221 
 TOL  SN ES        258 57.37                             104   -0.34 7  336 221 
 ARGC HZ EP        258 23.35                             104    1.31 7  344 343 
 ARGC HE ES        258 58.01                             104   -0.70 7  344 343 
 ANIL HZ EP        258 24.79                             104    1.72 6  350 221 
 ANIL HE ES        258 59.76                             104   -0.78 6  350 221 
 ORTC HZ EP        258 27.74                             102    0.08 6  391 213 
 ORTC HN ES        259  8.65                             102   -0.06 6  391 213 
 ORTC HZ I         259 16.38        10.2 0.30            103            391 213 
 SJC  HZ IP   9 D  258 26.38                             102   -1.25 0  391 329 
 SJC  HZ I         258 27.08        13.2 0.14            103            391 329 
 SJC  HN ES        259  3.88                                   -3.52 6  391 329 
 LCBC HZ EP        258 27.96                             101   -0.67 6  400 303 
 LCBC HE ES        259 10.61                             101    0.18 6  400 303 
 LCBC HZ I         259 14.77        22.3 0.26            103            400 303 
 SMAR HZ EP   9    258 39.22                              98    0.48 0  484 348 
 SMAR HN ES        259 24.77                                   -4.13 5  484 348 
                                                                                
