 2012  223 0516  0.2 L   6.837 -73.471112.1  RSN  5 0.4 1.2LRSN                1
 GAP= 96        0.73       6.2     5.2  8.0  0.1290E+02  0.7190E+01  0.1152E+02E
 ACTION:UP  12-03-07 16:33 OP:epov STATUS:               ID:20120223051600 L   I
 2012-02-23-0510-00M.COL___191                                                 6
 STAT SP IPHASW D HRMM SECON CODA AMPLIT PERI AZIMU VELO AIN AR TRES W  DIS CAZ7
 BRR  HZ EP   1    516 16.24                             159    0.23 7 40.0 318 
 BRR  HZ I         516 16.34        10.4 0.12                          40.0 318 
 BRR  HE ES   1    516 28.82                             159    0.46 7 40.0 318 
 GIR2 SZ EP   2    516 15.92                             158   -0.33 5 40.7  49 
 BAR2 SZ EP   1    516 16.54                             158    0.09 7 41.9 130 
 BAR2 SZ ES   1    516 28.44                             158   -0.70 7 41.9 130 
 BAR2 SZ I         516 30.17         5.2 0.15                          41.9 130 
 RUS  HZ EP   1    516 21.97                             132    0.08 7  113 158 
 RUS  HN ES   1    516 39.27                             132    0.45 7  113 158 
 RUS  HZ I         516 39.89         1.2 0.36                           113 158 
 PTB  HZ EP   1    516 20.98                             131   -0.34 7  114 253 
 PTB  HN ES   1    516 37.70                             131   -0.12 7  114 253 
                                                                                
