 2013  123 0536 41.7 L   6.806 -73.141145.3  RSN  9 0.5 2.5LRSN 3.0WRSN        1
 SPEC AVERAGE  MO 13.6 ST  8.1 OM  1.8 f0 4.81 R0.3279 AL 1.99 WI 17.7 MW  3.0 3
 SPEC SD       MO  0.2 ST  7.4 OM  0.5 f0 1.22 R0.0903 AL      WI      MW  0.1 3
 GAP=137        1.32       4.5     5.3  8.7  0.3486E+00  0.1108E+02  0.8477E+01E
 Epicentro: LOS SANTOS - SANTANDER                                             3
 SPEC RUS HH Z MO 13.3 ST  4.6 OM  0.9 f0 5.56 R0.2644 AL 1.14 WI 14.2 MW  2.8 3
 SPEC RUS HH Z T 537 5 K 0.000 GD  176 VP 7.60 DE 3.00 Q0230.0 QA 0.60 VS 4.20 3
 SPEC OCA HH N MO 13.9 ST 14.6 OM  2.2 f0 5.09 R0.2888 AL 2.15 WI 25.5 MW  3.2 3
 SPEC OCA HH N T 53730 K 0.000 GD  216 VS 4.20 DE 3.00 Q0230.0 QA 0.60 VS 4.20 3
 SPEC PTB HH N MO 13.5 ST  2.4 OM  1.8 f0 3.82 R0.3848 AL 1.19 WI 15.4 MW  2.9 3
 SPEC PTB HH N T 53728 K 0.000 GD  207 VS 4.20 DE 3.00 Q0230.0 QA 0.60 VS 4.20 3
 SPEC PAM SH Z MO 13.5 ST  4.3 OM  1.1 f0 4.76 R0.3088 AL 2.11 WI 14.3 MW  2.9 3
 SPEC PAM SH Z T 537 4 K 0.000 GD  164 VP 7.60 DE 3.00 Q0230.0 QA 0.60 VS 4.20 3
 SPEC HEL HH N MO 13.5 ST  2.0 OM  1.6 f0 3.69 R0.3984 AL 2.24 WI 20.4 MW  2.9 3
 SPEC HEL HH N T 53753 K 0.000 GD  309 VS 4.20 DE 3.00 Q0230.0 QA 0.60 VS 4.20 3
 SPEC CHI HH N MO 13.5 ST  1.1 OM  1.7 f0 2.89 R0.5087 AL 1.89 WI 16.9 MW  3.0 3
 SPEC CHI HH N T 53747 K 0.000 GD  288 VS 4.20 DE 3.00 Q0230.0 QA 0.60 VS 4.20 3
 SPEC BRR HH N MO 13.7 ST 12.2 OM  2.1 f0 5.71 R0.2574 AL 3.30 WI 20.5 MW  3.1 3
 SPEC BRR HH N T 53719 K 0.000 GD  161 VS 4.20 DE 3.00 Q0230.0 QA 0.60 VS 4.20 3
 SPEC BAR2SH Z MO 13.7 ST 23.5 OM  1.4 f0 6.93 R0.2121 AL 1.89 WI 14.7 MW  3.1 3
 SPEC BAR2SH Z T 537 1 K 0.000 GD  147 VP 7.60 DE 3.00 Q0230.0 QA 0.60 VS 4.20 3
 ACTION:UPD 13-02-15 09:16 OP:ep   STATUS:               ID:20130123053641 L   I
 2013-01-23-0528-48M.COL___183                                                 6
 STAT SP IPHASW D HRMM SECON CODA AMPLIT PERI AZIMU VELO AIN AR TRES W  DIS CAZ7
 BAR2 SZ IP     D  537  1.46                             170    0.1210 24.1 191 
 BAR2 SZ I         537  1.95        62.3 0.14            169           24.1 191 
 BAR2 SZ ES        537 17.04                             170    0.4210 24.1 191 
 BRR  HZ IP     C  537  3.25                             152    0.4010 71.4 298 
 BRR  HZ I         537  3.52        45.9 0.28            149           71.4 298 
 BRR  HN ES        537 20.02                             152    0.7010 71.4 298 
 PAM  SZ EP        537  4.28                             151    0.4210 76.5  40 
 PAM  SZ I         537  4.57        29.4 0.22            153           76.5  40 
 PAM  SN ES        537 21.04                             151   -0.0710 76.5  40 
 RUS  HZ EP        537  5.44                             144   -0.0610  101 176 
 RUS  HN ES        537 23.56                             144   -0.4610  101 176 
 RUS  HN I         537 25.72        32.5 0.30            144            101 176 
 PTB  HZ EP        537  8.41                             132   -0.33 9  148 259 
 PTB  HN ES        537 29.09                             132   -0.70 9  148 259 
 PTB  HN I         537 34.55        56.1 0.36            130            148 259 
 OCA  HN ES        537 31.08                             130   -0.89 9  160 353 
 OCA  HN I         537 34.76        61.6 0.20            129            160 353 
 ZAR  HN ES        537 39.04                             122   -0.45 9  204 292 
 ZAR  HE I         537 45.76        97.8 0.48            121            204 292 
 CHI  HZ EP        537 19.90                             117    0.40 8  249 195 
 CHI  HN ES        537 48.33                             117   -0.63 8  249 195 
 CHI  HN I         537 51.99        22.1 0.32            117            249 195 
 HEL  HN ES        537 54.51                             115    1.09 8  273 256 
 HEL  HN I         537 59.41        12.1 0.28            114            273 256 
                                                                                
