 2015  523 0748 48.3 L   6.772 -73.085160.3  RSN  4 0.1 1.4LRSN                1
 GAP=234        0.31       3.7     3.6  3.6  0.5488E+01 -0.4171E+01 -0.4382E+01E
 Epicentro: LOS SANTOS - SANTANDER                                             3
 ACTION:UPD 15-09-10 22:06 OP:cam  STATUS:               ID:20150523074848 L   I
 OLDACT:REG 15-05-23 12:40 OP:spq  STATUS:               ID:20150523074750     3
 2015-05-23-0747-50M.COL___297                                                 6
 STAT SP IPHASW D HRMM SECON CODA AMPLIT PERI AZIMU VELO AIN AR TRES W  DIS CAZ7
 BAR2 EZ EP   1    749  9.66                             172    0.01 7 22.6 208 
 BRR  HZ EP   1    749 11.57                             153    0.15 7 78.6 298 
 BRR  HN ES        749 29.41                             153   -0.0510 78.6 298 
 BRR  HZ I         749 31.98         2.8 0.44            148           78.6 298 
 ZAR  HZ EP   1    749 22.40                             124   -0.06 6  211 292 
 ZAR  HE ES        749 49.13                             124    0.02 8  211 292 
 ZAR  HZ I         749 53.72         2.1 0.38            124            211 292 
 SML  HZ EP        749 26.27                             120   -0.10 8  249 334 
 SML  HE ES   1    749 56.16                             120    0.10 6  249 334 
 SML  HZ I         750  1.28         2.5 0.10            119            249 334 
                                                                                
