 2015  323 0939 44.5 L   6.767 -73.205130.9  RSN  9 0.5 1.5LRSN                1
 GAP=131        1.33       4.1     5.3  8.4 -0.1503E+01  0.1238E+02 -0.7706E+01E
 Epicentro: ZAPATOCA - SANTANDER                                               3
 ACTION:UPD 15-04-30 16:28 OP:nd   STATUS:               ID:20150323093944 L   I
 OLDACT:DUP 15-03-23 17:14 OP:stll STATUS:               ID:20150323092738d    3
 2015-03-23-0927-35M.COL___269                                                 6
 STAT SP IPHASW D HRMM SECON CODA AMPLIT PERI AZIMU VELO AIN AR TRES W  DIS CAZ7
 BAR2 EZ EP        940  2.16                             171   -0.1010 19.4 173 
 BAR2 EZ ES        940 16.44                             171    0.3310 19.4 173 
 BAR2 EZ I         940 19.08         7.8 0.34            171           19.4 173 
 BRR  HZ EP        940  4.71                             151    0.8810 67.5 304 
 BRR  HE ES        940 19.01                             151    0.0910 67.5 304 
 PAM  SZ EP        940  5.87                             145    0.2510 84.4  41 
 PAM  SE ES        940 22.22                             145    0.1210 84.4  41 
 PAM  SZ I         940 25.00         6.6 0.56            149           84.4  41 
 RUS  HZ EP        940  7.17                             141    0.5910 97.6 172 
 RUS  HE ES        940 23.12                             141   -0.6910 97.6 172 
 RUS  HZ I         940 26.01         3.0 0.28            144           97.6 172 
 PTB  HZ EP        940  9.66                             130    0.04 9  141 260 
 PTB  HN ES        940 29.44                             130    0.22 9  141 260 
 PTB  HZ I         940 32.82         4.0 0.20            131            141 260 
 SPBC HN ES        940 31.08                             127   -0.97 9  156 218 
 SPBC HZ I         940 37.46         4.2 0.28            128            156 218 
 OCA  HN ES        940 32.64                             125   -0.80 9  163 356 
 ZAR  HZ EP        940 15.92                             119    0.39 9  199 294 
 ZAR  HN ES        940 40.10                             119    0.36 9  199 294 
 ZAR  HZ I         940 44.30         2.1 0.18            121            199 294 
 SML  HZ EP        940 19.71                             114   -0.70 8  244 337 
 SML  HN ES        940 47.88                             114   -0.55 8  244 337 
 SML  HZ I         940 50.92         4.7 0.28            116            244 337 
                                                                                
