 2013  323 0232 12.0 L   6.769 -73.153154.9  RSN  5 0.3 1.8LRSN                1
 GAP=137        0.72       4.6     3.9  5.8 -0.3034E+01  0.9221E+00  0.4691E+01E
 Epicentro: LOS SANTOS - SANTANDER                                             3
 ACTION:UPD 13-04-09 14:04 OP:ep   STATUS:               ID:20130323023212 L   I
 2013-03-23-0230-00M.COL___245                                                 6
 STAT SP IPHASW D HRMM SECON CODA AMPLIT PERI AZIMU VELO AIN AR TRES W  DIS CAZ7
 BAR2 SZ EP        232 32.81                             172    0.1110 19.8 190 
 BAR2 SZ ES   1    232 48.53                             172   -0.29 7 19.8 190 
 BAR2 SZ I         232 48.74        10.0 0.26            171           19.8 190 
 BRR  HZ EP        232 34.46                             154    0.2310 72.3 301 
 BRR  HE ES        232 52.03                             154    0.4810 72.3 301 
 BRR  HE I         232 54.17        13.7 0.16            151           72.3 301 
 PAM  SZ EP        232 35.48                             151    0.0710 80.5  38 
 PAM  SN ES        232 53.30                             151   -0.3510 80.5  38 
 PAM  SN I         232 53.59         7.5 0.54            154           80.5  38 
 RUS  HZ EP        232 36.48                             147    0.0210 97.2 175 
 RUS  HE ES   1    232 55.79                             147    0.27 7 97.2 175 
 RUS  HE I         232 56.11         5.0 0.46            148           97.2 175 
 PTB  HZ EP        232 39.37                             134   -0.27 9  146 260 
 PTB  HN ES        233  0.82                             134   -0.35 9  146 260 
 PTB  HN I         233  5.99        18.3 0.32            133            146 260 
                                                                                
