 2015  223 0152 19.8 L   6.796 -73.146145.6  RSN  8 0.4 1.7LRSN                1
 GAP=137        0.97       4.0     5.2  6.6 -0.8885E+01  0.1065E+02 -0.5930E+00E
 Epicentro: LOS SANTOS - SANTANDER                                             3
 ACTION:UPD 15-04-30 21:28 OP:nd   STATUS:               ID:20150223015219 L   I
 OLDACT:REG 15-02-23 12:47 OP:mh   STATUS:               ID:20150223014748     3
 2015-02-23-0147-48M.COL___278                                                 6
 STAT SP IPHASW D HRMM SECON CODA AMPLIT PERI AZIMU VELO AIN AR TRES W  DIS CAZ7
 BAR2 EZ EP   1    152 39.44                             171    0.07 7 22.9 190 
 BAR2 EZ ES        152 54.31                             171   -0.3410 22.9 190 
 BAR2 EZ I         152 56.62        10.2 0.18            169           22.9 190 
 PAM  SZ EP        152 41.93                             151   -0.0610 77.8  39 
 PAM  SN ES   1    152 59.54                             151    0.22 7 77.8  39 
 PAM  SZ I         153  1.52         4.2 0.20            157           77.8  39 
 RUS  HZ EP        152 43.51                             144    0.0410  100 176 
 RUS  HN ES   1    153  2.00                             144    0.05 7  100 176 
 RUS  HZ I         153  4.59         3.4 0.52            146            100 176 
 PTB  HZ EP        152 46.20                             132   -0.51 9  148 259 
 PTB  HN ES        153  7.42                             132   -0.29 9  148 259 
 PTB  HZ I         153 13.29         8.4 0.38            133            148 259 
 OCA  HZ EP   1    152 47.41                             129   -0.70 7  161 353 
 OCA  HN ES        153 10.80                             129    0.59 9  161 353 
 SPBC HZ EP        152 48.51                             129    0.30 9  163 219 
 SPBC HN ES   1    153 10.97                             129    0.57 7  163 219 
 SPBC HZ I         153 17.31        16.0 0.26            131            163 219 
 NOR  HZ EP        152 54.81                             118   -0.64 8  234 235 
 NOR  HN ES        153 23.55                             118    0.27 8  234 235 
 NOR  HZ I         153 27.10         5.4 0.20            121            234 235 
 GUY2CHZ EP        153  4.19                             112    0.86 7  301 235 
 GUY2CHN ES   4    153 41.48                             112    4.17 0  301 235 
 GUY2CHZ I         153 46.67         3.6 0.56                           301 235 
                                                                                
