 2017  423 0829 59.9 L   7.468 -73.216136.6  RSN  4 0.2 1.3LRSN                1
 GAP=193        0.57       7.5     3.0  5.6 -0.8586E+01  0.5625E+01 -0.4706E+01E
 Epicentro: EL PLAYON - SANTANDER                                              3
 ACTION:UPD 17-05-30 21:15 OP:jn   STATUS:               ID:20170423082959 L   I
 OLDACT:UP  17-04-23 16:36 OP:lv   STATUS:               ID:20170423082731     3
 OLDACT:REG 17-04-23 12:47 OP:lv   STATUS:               ID:20170423082731     3
 2017-04-23-0828-00M.COL___365                                                 6
 STAT SP IPHASW D HRMM SECON CODA AMPLIT PERI AZIMU VELO AIN AR TRES W  DIS CAZ7
 PAM  EZ EP        830 20.09                             156    0.0410 58.8 104 
 PAM  EN ES        830 35.60                             156   -0.2010 58.8 104 
 PAM  EZ I         830 36.79                             156           58.8 104 
 BRR  HZ EP        830 19.88                             152    0.0510 67.8 234 
 BRR  HE ES        830 35.74                             152    0.3410 67.8 234 
 BRR  HZ I         830 40.24         5.3 0.34            149           67.8 234 
 PTB  HZ EP        830 28.53                             125    0.16 9  171 233 
 PTB  HN ES        830 50.30                             125   -0.31 9  171 233 
 PTB  HZ I         830 54.73         2.2 0.28            126            171 233 
 ZAR  HE ES        830 52.23                             124   -0.15 9  181 271 
                                                                                
