 2017  423 0924  4.0 L   6.823 -73.105146.0  RSN  6 0.4 1.4LRSN                1
 GAP=160        1.11       6.3     6.0  8.3 -0.8469E+01  0.1236E+02  0.8416E+01E
 Epicentro: LOS SANTOS - SANTANDER                                             3
 ACTION:UPD 17-05-30 21:15 OP:jn   STATUS:               ID:20170423092404 L   I
 OLDACT:REG 17-04-23 12:49 OP:lv   STATUS:               ID:20170423090422d    3
 2017-04-23-0918-00M.COL___365                                                 6
 STAT SP IPHASW D HRMM SECON CODA AMPLIT PERI AZIMU VELO AIN AR TRES W  DIS CAZ7
 BAR2 EZ EP        924 23.52                             169   -0.1810 26.9 198 
 BAR2 EZ ES        924 38.61                             169   -0.4810 26.9 198 
 PAM  EZ EP        924 26.66                             152    0.7410 72.6  38 
 PAM  EN ES        924 42.79                             152   -0.2610 72.6  38 
 PAM  EZ I         924 45.68         4.4 0.13            158           72.6  38 
 BRR  HZ EP        924 25.38                             152    0.0810 74.0 295 
 BRR  HE ES        924 42.37                             152    0.4310 74.0 295 
 BRR  HZ I         924 43.46         4.7 0.16            152           74.0 295 
 PTB  HZ EP        924 30.86                             131   -0.53 9  153 258 
 PTB  HN ES   4    924 51.26                             131   -1.53 0  153 258 
 PTB  HZ I         924 58.70         2.5 0.31            132            153 258 
 SPBC HZ EP        924 32.68                             128   -0.26 9  168 220 
 SPBC HN ES        924 56.17                             128    0.63 9  168 220 
 SPBC HZ I         925  0.43         4.7 0.10            129            168 220 
 ZAR  HE ES        925  2.09                             122   -0.24 8  207 291 
                                                                                
