 2010  923 0831 59.7 L   7.089 -72.943166.4  RSN  7 0.2 2.0LRSN                1
 GAP=177        0.56       3.3     6.8  6.2 -0.2978E+01 -0.1040E+02 -0.2440E+01E
 Epicentro: SANTA BARBARA - SANTANDER                                          3
 ACTION:UP  11-02-18 11:04 OP:tino STATUS:               ID:20100923083159 L   I
 2010-09-23-0828-53S.COL___122                                                 6
 STAT SP IPHASW D HRMM SECON CODA AMPLIT PERI AZIMU VELO SNR AR TRES W  DIS CAZ7
 BAR2 SZ EP   2    832 22.61                             159    -0.4 5   61 206 
 BAR2 SZ ES   2    832 41.01                             159    -0.1 5   61 206 
 BAR2 SZ I         832 42.79        22.7 0.18                            61 206 
 GUE  SZ EP        832 24.36                             153     0.210   82   1 
 BRR  HZ EP        832 23.58                             152    -0.310   85 271 
 BRR  HZ I         832 23.95        22.4 0.09                            85 271 
 BRR  HE ES   1    832 42.92                             152     0.2 7   85 271 
 GRA  SZ EP   1    832 24.42                             150     0.1 7   89  10 
 GRA  SZ ES   2    832 43.01                             150    -0.5 5   89  10 
 GRA  SZ I         832 46.25        16.3 0.34                            89  10 
 RUS  HZ EP   1    832 28.02                             140     0.1 7  133 187 
 RUS  HN ES   1    832 49.98                             140     0.1 7  133 187 
 RUS  HZ I         832 52.50         4.0 0.33                           133 187 
 OCA  SZ EP   1    832 27.48                             139     0.0 7  134 342 
 OCA  SZ ES   2    832 49.35                             139     0.2 5  134 342 
 OCA  SZ I         832 55.03        13.0 0.46                           134 342 
 HEL  HZ EP   2    832 44.14                             116    -0.2 4  303 251 
 HEL  HZ I         833 18.57         2.7 0.26                           303 251 
                                                                                
