 2016  723 0353  8.9 L   6.799 -73.140147.8  RSN 21 0.4 2.7LRSN                1
 GAP= 71        0.95       2.5     2.6  4.3  0.3008E+00  0.4200E+01  0.1336E+01E
 Epicentro: LOS SANTOS - SANTANDER                                             3
 ACTION:UPD 17-03-29 16:53 OP:lp   STATUS:               ID:20160723035308 L   I
 OLDACT:UP  16-07-23 16:56 OP:ar   STATUS:               ID:20160723034760d    3
 OLDACT:DUP 16-07-23 16:43 OP:ar   STATUS:               ID:20160723034760d    3
 2016-07-23-0347-59S.COL___328                                                 6
 STAT SP IPHASW D HRMM SECON CODA AMPLIT PERI AZIMU VELO AIN AR TRES W  DIS CAZ7
 BAR2 EZ IP     C  353 28.58                             171   -0.2410 23.3 192 
 BAR2 EZ ES        353 44.15                             171   -0.1810 23.3 192 
 BRR  HZ IP     C  353 30.59                             153    0.2410 71.8 298 
 BRR  HN ES        353 47.76                             153    0.7110 71.8 298 
 BRR  HZ I         353 49.29       101.2 0.18            150           71.8 298 
 PAM  EZ EP        353 31.56                             151    0.2010 77.1  39 
 PAM  EN ES        353 49.08                             151    0.2310 77.1  39 
 PAM  EZ I         353 51.34        41.6 0.50            154           77.1  39 
 RUS  HZ EP        353 32.48                             144   -0.4110  100 176 
 RUS  HN ES        353 51.10                             144   -0.4610  100 176 
 RUS  HZ I         353 51.71        32.3 0.30            145            100 176 
 TAM  HZ IP     C  353 36.82                             131    0.09 9  154 105 
 TAM  HN ES        353 58.28                             131   -0.12 9  154 105 
 TAM  HZ I         353 58.94        36.2 0.20            134            154 105 
 SPBC HZ EP        353 37.49                             129   -0.14 9  163 219 
 SPBC HN ES        353 59.70                             129   -0.30 9  163 219 
 SPBC HZ I         354  5.20        97.2 0.18            129            163 219 
 ZAR  HZ EP        353 41.78                             123    0.19 9  205 292 
 ZAR  HN ES        354  7.33                             123    0.28 9  205 292 
 ZAR  HZ I         354 13.37       114.7 0.24            122            205 292 
 NOR  HZ EP        353 44.92                             119    0.08 8  235 235 
 NOR  HN ES        354 12.80                             119   -0.04 8  235 235 
 NOR  HZ I         354 18.71        60.2 0.22            118            235 235 
 CHI  HZ EP        353 47.16                             118    0.40 8  249 195 
 CHI  HN ES        354 16.12                             118   -0.14 8  249 195 
 CHI  HZ I         354 26.30        11.0 0.56            118            249 195 
 HEL  HZ EP        353 50.42                             115    1.09 8  273 256 
 HEL  HN ES        354 20.94                             115    0.12 8  273 256 
 HEL  HZ I         354 26.93        38.5 0.38            115            273 256 
 URE  HZ EP        353 49.61                             114   -0.57 7  284 292 
 URE  HN ES        354 20.95                             114   -1.40 7  284 292 
 URE  HZ I         354 29.40        62.3 0.24            114            284 292 
 GUY2CHZ EP        353 52.95                             113    0.25 7  302 235 
 GUY2CHN ES   4    354 29.08                             113    2.26 0  302 235 
 GUY2CHZ I         354 37.35        30.8 0.74                           302 235 
 VIL  EZ EP        353 52.66                             112    0.20 7  303 192 
 VIL  EN ES        354 26.58                             112    0.19 7  303 192 
 VIL  EZ I         354 33.44        16.2 0.24            113            303 192 
 PTGC HZ EP   4    353 51.37                             112   -1.48 0  308 159 
 PTGC HN ES   4    354 24.61                             112   -2.49 0  308 159 
 PTGC HZ I         354 25.78        13.8 0.24            113            308 159 
 CBOC HZ EP        353 56.56                             110    0.55 7  334 252 
 CBOC HN ES        354 32.46                             110   -0.26 7  334 252 
 CBOC HZ I         354 40.86        12.8 0.41            110            334 252 
 DBB  EZ EP        353 56.56                             110   -0.02 7  340 274 
 DBB  EZ ES        354 33.65                             110   -0.08 7  340 274 
 DBB  EZ I         354 36.63        13.4 0.32            110            340 274 
 ANIL HZ EP   4    354  0.12                             109    1.25 0  358 225 
 ANIL HN ES   4    354 41.09                             109    3.28 0  358 225 
 ANIL HZ I         354 44.58        45.5 0.32            109            358 225 
 ARGC HZ EP   4    354  0.65                             108    1.93 0  360 340 
 ARGC HN ES        354 37.70                             108    0.16 6  360 340 
 ARGC HZ I         354 53.45         5.9 0.20            109            360 340 
 PRA  HZ EP        354  2.01                             107   -0.55 6  392 210 
 PRA  HN ES        354 44.58                             107    0.20 6  392 210 
 PRA  HZ I         354 51.51        17.5 0.34            107            392 210 
 PAL  HZ EP        354  4.39                             106    0.16 6  406 239 
 PAL  HN ES        354 47.56                             106    0.21 6  406 239 
 PAL  HZ I         354 50.52        11.0 0.26            106            406 239 
 SJC  HZ EP        354  3.53                             106   -1.10 6  410 327 
 SJC  HN ES   4    354 44.51                             106   -3.55 0  410 327 
 SJC  HZ I         354 48.92         9.8 0.46            106            410 327 
                                                                                
