 2010  723 0028  8.2 L   6.585 -73.503116.9  RSN  6 0.4 1.9LRSN                1
 GAP=111        0.76       5.6     6.6 10.1  0.8752E+01  0.2652E+02  0.3717E+02E
 Epicentro: EL CARMEN DE CHUCURI - SANTANDER                                   3
 ACTION:UPD 10-12-01 15:19 OP:pat  STATUS:               ID:20100723002808 L   I
 2010-07-23-0020-00S.COL___149                                                 6
 STAT SP IPHASW D HRMM SECON CODA AMPLIT PERI AZIMU VELO AIN AR TRES W  DIS CAZ7
 BAR2 SZ IP        028 24.97                             162     0.210   35  89 
 BAR2 SZ I         028 25.42        83.7 0.26                            35  89 
 BAR2 SZ ES   1    028 37.47                             162    -0.2 7   35  89 
 BRR  HZ EP        028 25.76                             150     0.010   62 338 
 BRR  HN ES   1    028 39.66                             150     0.2 7   62 338 
 BRR  HZ I         028 46.26        22.9 0.06                            62 338 
 RUS  HZ EP        028 28.15                             140    -0.210   90 149 
 RUS  HZ I         028 44.68        10.5 0.67                            90 149 
 CHI  HZ EP   2    028 41.97                             114     1.0 4  218 187 
 CHI  HN ES   2    029  7.27                             114     0.7 4  218 187 
 CHI  HZ I         029 11.31         3.0 0.26                           218 187 
 HEL  HN ES   2    029  8.28                             112    -0.3 4  228 259 
 HEL  HZ I         029 11.87         4.9 0.22                           228 259 
 PRA  HZ EP   2    028 55.48                             103    -0.7 3  353 206 
 PRA  HN ES   1    029 33.30                             103    -0.3 5  353 206 
 PRA  HZ I         029 41.54         2.9 0.43                           353 206 
                                                                                
