 2015 1023 0859 31.0 L   6.784 -73.117146.7  RSN  9 0.4 1.7LRSN                1
 GAP=141        0.98       3.4     4.7  5.8 -0.2257E+01  0.7944E+01 -0.2085E+01E
 Epicentro: LOS SANTOS - SANTANDER                                             3
 ACTION:UPD 15-12-22 20:42 OP:cam  STATUS:               ID:20151023085931 L   I
 OLDACT:REG 15-10-23 13:47 OP:mh   STATUS:               ID:20151023085745     3
 2015-10-23-0857-45M.COL___307                                                 6
 STAT SP IPHASW D HRMM SECON CODA AMPLIT PERI AZIMU VELO AIN AR TRES W  DIS CAZ7
 BAR2 EZ EP        859 50.98                             171    0.2110 22.4 199 
 BAR2 EZ ES        9 0  5.93                             171   -0.2210 22.4 199 
 BAR2 EZ I         9 0  6.63        11.3 0.32            169           22.4 199 
 BRR  HZ EP   1    859 51.83                             151   -0.67 7 74.8 299 
 BRR  HN ES        9 0  9.96                             151    0.7310 74.8 299 
 BRR  HZ I         9 0 14.42         4.9 0.28            147           74.8 299 
 PAM  EZ EP        859 53.80                             151    0.4810 76.8  37 
 PAM  EN ES        9 0 10.63                             151   -0.0710 76.8  37 
 PAM  EZ I         9 0 12.78         7.0 0.64            154           76.8  37 
 RUS  HZ EP        859 54.68                             145   -0.0710 98.7 178 
 RUS  HN ES        9 0 13.28                             145    0.0410 98.7 178 
 RUS  HZ I         9 0 13.76         5.7 0.20            148           98.7 178 
 OCA  HZ EP   1    859 59.10                             129   -0.53 7  162 352 
 OCA  HN ES   1    9 0 21.18                             129   -0.74 7  162 352 
 OCA  HZ I         9 0 25.66         9.2 0.39            130            162 352 
 SPBC HZ EP        859 59.82                             129    0.14 9  164 220 
 SPBC HN ES        9 0 21.39                             129   -0.62 9  164 220 
 SPBC HZ I         9 0 23.75         7.5 0.36            130            164 220 
 ZAR  HZ EP        9 0  4.47                             122    0.55 8  208 292 
 ZAR  HN ES        9 0 29.60                             122    0.04 8  208 292 
 ZAR  HZ I         9 0 37.35         4.9 0.24            122            208 292 
 NOR  HZ EP   1    9 0  7.35                             119    0.36 6  236 235 
 NOR  HN ES   1    9 0 34.77                             119   -0.27 6  236 235 
 NOR  HZ I         9 0 41.59         4.9 0.14            119            236 235 
 SML  HZ IPg       9 0  7.73                             117   -0.31 8  247 335 
                                                                                
