 2017  123 0511 31.1 L   6.755 -73.141149.8  RSN  5 0.3 0.9LRSN                1
 GAP=139        0.87       4.8     4.6  6.4 -0.2069E+01  0.3421E+01  0.1062E+01E
 Epicentro: LOS SANTOS - SANTANDER                                             3
 ACTION:UPD 17-05-22 16:02 OP:jn   STATUS:               ID:20170123051131 L   I
 OLDACT:DUP 17-01-23 16:45 OP:lv   STATUS:               ID:20170123050741d    3
 2017-01-23-0508-00M.COL___349                                                 6
 STAT SP IPHASW D HRMM SECON CODA AMPLIT PERI AZIMU VELO AIN AR TRES W  DIS CAZ7
 BAR2 EZ EP        511 51.24                             173    0.1010 18.6 194 
 BAR2 EZ ES        512  6.67                             173   -0.1010 18.6 194 
 BAR2 EZ I         512  7.64         2.6 0.19            173           18.6 194 
 BRR  HZ EP        511 52.68                             152   -0.1810 74.1 302 
 BRR  HN ES        512 10.52                             152    0.6910 74.1 302 
 PAM  EZ EP        511 53.88                             150   -0.0910 80.9  37 
 PAM  EN ES        512 11.52                             150   -0.2810 80.9  37 
 PAM  EZ I         512 13.36         1.1 0.19            152           80.9  37 
 RUS  HZ EP        511 55.12                             146    0.2110 95.6 176 
 RUS  HN ES        512 13.50                             146    0.0210 95.6 176 
 RUS  HZ I         512 14.44         1.0 0.26            147           95.6 176 
 PTB  HZ EP        511 58.58                             133    0.20 9  147 261 
 PTB  HN ES        512 19.02                             133   -0.63 9  147 261 
 PTB  HZ I         512 21.82         1.1 0.15            134            147 261 
                                                                                
