 2017  423 0252 10.2 L   6.865 -73.168138.8  RSN 11 0.5 1.7LRSN                1
 GAP=138        1.20       4.7     4.8  7.0 -0.4877E+01  0.1134E+02  0.7292E+01E
 Epicentro: ZAPATOCA - SANTANDER                                               3
 ACTION:UPD 17-05-30 21:15 OP:jn   STATUS:               ID:20170423025210 L   I
 OLDACT:UP  17-04-23 14:18 OP:lv   STATUS:               ID:20170423024601d    3
 OLDACT:DUP 17-04-23 14:12 OP:lv   STATUS:               ID:20170423024601d    3
 2017-04-23-0248-00M.COL___365                                                 6
 STAT SP IPHASW D HRMM SECON CODA AMPLIT PERI AZIMU VELO AIN AR TRES W  DIS CAZ7
 BAR2 EZ EP        252 28.74                             167   -0.3910 30.2 183 
 BAR2 EZ ES        252 44.02                             167    0.0910 30.2 183 
 BRR  HZ EP        252 30.26                             153   -0.0010 65.8 294 
 BRR  HN ES        252 46.79                             153    0.8510 65.8 294 
 PAM  EZ EP        252 31.30                             151   -0.1310 73.7  45 
 PAM  EN ES        252 47.97                             151   -0.0410 73.7  45 
 PAM  EZ I         252 50.00        14.8 0.23            154           73.7  45 
 PTB  HZ EP        252 35.65                             131   -0.85 9  147 256 
 PTB  HN ES        252 56.33                             131   -0.71 9  147 256 
 PTB  HZ I         252 57.83         5.8 0.25            130            147 256 
 SPBC HN ES        253  0.18                             127   -0.51 9  167 217 
 SPBC HZ I         253  4.53         4.8 0.16            126            167 217 
 ZAR  HZ EP        252 41.90                             122    0.24 9  199 290 
 ZAR  HN ES        253  6.09                             122   -0.13 9  199 290 
 ZAR  HZ I         253 11.33         8.1 0.30            122            199 290 
 NOR  HZ EP        252 46.55                             117    0.80 8  237 233 
 NOR  HN ES        253 13.98                             117    0.47 8  237 233 
 NOR  HZ I         253 17.48         5.5 0.24            117            237 233 
 CHI  HN ES        253 18.10                             115    0.25 8  255 194 
 CHI  HZ I         253 21.30         1.8 0.17            115            255 194 
 HEL  HZ EP        252 49.55                             113   -0.43 8  272 254 
 HEL  HN ES        253 21.84                             113    0.81 8  272 254 
 HEL  HZ I         253 24.28         2.3 0.12            114            272 254 
 CBOC HZ EP        252 57.33                             109    0.53 7  334 251 
 CBOC HE ES        253 32.35                             109   -0.82 7  334 251 
 CBOC HZ I         253 39.64         1.3 0.12            109            334 251 
 PRA  HZ EP        253  4.26                             105    0.20 6  397 209 
 PRA  HN ES        253 46.65                             105    0.56 6  397 209 
 PRA  HZ I         253 51.23         2.7 0.28            105            397 209 
 SJC  HZ EP   4    253  2.72                             105   -1.92 0  402 327 
 SJC  HN ES   4    253 42.80                             105   -4.32 0  402 327 
                                                                                
