 2011 1023 0937 27.4 L   6.733 -73.086148.1  RSN  7 0.2 1.5LRSN                1
 GAP=147        0.35       2.9     3.1  4.1  0.7678E+00  0.8764E+00  0.1883E+01E
 Epicentro: JORDAN - SANTANDER                                                 3
 ACTION:UPD 12-07-13 16:05 OP:ep   STATUS:               ID:20111023093727 L   I
 2011-10-23-0934-52S.COL___171                                                 6
 STAT SP IPHASW D HRMM SECON CODA AMPLIT PERI AZIMU VELO AIN AR TRES W  DIS CAZ7
 BAR2 SZ EP   1    937 47.27                             172    0.04 7 18.8 214 
 BAR2 SZ ES   2    938  2.27                             172   -0.42 5 18.8 214 
 BAR2 SZ I         938  5.24         5.1 0.43                          18.8 214 
 GIR2 SZ ES   3    938  3.68                             164    0.31 2 40.0 343 
 PAM  SZ EP   1    937 50.12                             150    0.13 7 79.5  32 
 PAM  SN ES   2    938  7.53                             150   -0.08 5 79.5  32 
 BRR  HZ EP   2    937 49.20                             150   -0.15 5 80.6 301 
 BRR  HE ES   1    938  6.67                             150    0.20 7 80.6 301 
 BRR  HZ I         938  8.95         9.7 0.30                          80.6 301 
 RUS  HZ EP   1    937 50.80                             146   -0.05 7 92.9 180 
 RUS  HZ I         937 55.21         1.6 0.52                          92.9 180 
 RUS  HN ES   2    938  9.17                             146    0.04 5 92.9 180 
 ZAR  HZ EP   2    938  0.73                             122   -0.19 4  213 293 
 ZAR  HN ES   2    938 26.73                             122   -0.33 4  213 293 
 ZAR  HZ I         938 31.24         3.4 0.69                           213 293 
 RREF HN ES   2    938 50.12                             111    0.35 3  322 231 
 RREF HZ I         938 59.83         1.9 0.52                           322 231 
                                                                                
