 2017  423 0917  2.1 L   6.771 -73.194145.6  RSN  4 0.3 1.2LRSN                1
 GAP=233        0.75       8.5     5.4  6.8  0.1819E+02  0.9096E+01  0.2030E+01E
 Epicentro: ZAPATOCA - SANTANDER                                               3
 ACTION:UPD 17-05-30 21:15 OP:jn   STATUS:               ID:20170423091702 L   I
 OLDACT:DUP 17-04-23 16:51 OP:lv   STATUS:               ID:20170423090424d    3
 2017-04-23-0908-00M.COL___365                                                 6
 STAT SP IPHASW D HRMM SECON CODA AMPLIT PERI AZIMU VELO AIN AR TRES W  DIS CAZ7
 BAR2 EZ EP        917 21.47                             172   -0.1510 19.9 176 
 BAR2 EZ ES        917 36.62                             172   -0.2410 19.9 176 
 BAR2 EZ I         917 38.05         4.6 0.48            175           19.9 176 
 BRR  HZ EP        917 23.45                             153    0.4110 68.2 303 
 BRR  HN ES        917 39.61                             153    0.2210 68.2 303 
 BRR  HZ I         917 42.05         2.2 0.37            154           68.2 303 
 PTB  HZ EP        917 28.40                             133   -0.10 9  142 260 
 PTB  HN ES        917 49.35                             133    0.24 9  142 260 
 ZAR  HN ES        917 58.63                             123   -0.50 9  200 294 
                                                                                
