 2011 1023 0715  5.7 L   6.379 -73.614111.7  RSN  8 0.3 1.5LRSN                1
 GAP= 97        0.49       3.4     3.3  7.3  0.5408E+00  0.1201E+02  0.7228E+00E
 Epicentro: SANTA HELENA DEL OPON - SANTANDER                                  3
 ACTION:UPD 12-07-13 16:05 OP:ep   STATUS:               ID:20111023071505 L   I
 2011-10-23-0712-51S.COL___171                                                 6
 STAT SP IPHASW D HRMM SECON CODA AMPLIT PERI AZIMU VELO AIN AR TRES W  DIS CAZ7
 BAR2 SZ EP   1    715 22.61                             153    0.09 7 53.2  64 
 BAR2 SZ ES   2    715 35.99                             153    0.37 5 53.2  64 
 BAR2 SZ I         715 36.69        32.3 0.11                          53.2  64 
 RUS  HZ EP   1    715 24.52                             142   -0.10 7 79.6 132 
 RUS  HZ I         715 24.99         6.6 0.39                          79.6 132 
 RUS  HN ES   2    715 39.49                             142    0.13 5 79.6 132 
 BRR  HZ EP   1    715 23.79                             141   -0.26 7 81.2 352 
 BRR  HZ I         715 32.29         6.0 0.07                          81.2 352 
 BRR  HN ES   2    715 37.96                             141   -0.38 5 81.2 352 
 GIR2 SZ EP   3    715 25.17                             138    0.21 2 90.2  31 
 PAM  SZ EP   2    715 30.66                             123    0.00 5  147  44 
 PAM  SN ES   2    715 49.70                             123   -0.41 5  147  44 
 ZAR  HZ EP   1    715 34.47                             116    0.41 7  185 312 
 ZAR  HN ES   2    715 56.80                             116    0.65 4  185 312 
 ZAR  HZ I         716  0.45         3.8 0.39                           185 312 
 HEL  HZ EP   3    715 37.30                             113   -0.36 2  213 264 
 HEL  HN ES   2    716  1.96                             113   -0.62 4  213 264 
 HEL  HZ I         716  4.89         2.3 0.32                           213 264 
 RREF HN ES   2    716 11.25                             109    0.11 4  252 230 
 RREF HZ I         716 16.31         1.5 0.48                           252 230 
                                                                                
