 2015  323 0746 28.0 L   6.807 -73.174146.6  RSN  7 0.5 1.4LRSN                1
 GAP=133        1.34       4.8     6.6  8.5 -0.8271E+01  0.7341E+01 -0.1357E+01E
 Epicentro: LOS SANTOS - SANTANDER                                             3
 ACTION:UPD 15-04-30 16:28 OP:nd   STATUS:               ID:20150323074628 L   I
 OLDACT:DUP 15-03-23 16:36 OP:stll STATUS:               ID:20150323073742d    3
 OLDACT:REG 15-03-23 13:10 OP:stll STATUS:               ID:20150323073741     3
 2015-03-23-0737-41M.COL___275                                                 6
 STAT SP IPHASW D HRMM SECON CODA AMPLIT PERI AZIMU VELO AIN AR TRES W  DIS CAZ7
 BAR2 EZ EP        746 48.02                             170    0.2710 23.8 182 
 BAR2 EZ I         746 48.49         8.9 0.10            170           23.8 182 
 BAR2 EZ ES        747  3.29                             170    0.1510 23.8 182 
 BRR  HZ EP        746 48.47                             154   -0.6110 68.1 299 
 BRR  HZ I         746 50.18         6.8 0.30            150           68.1 299 
 BRR  HN ES        747  6.44                             154    0.9310 68.1 299 
 PAM  SZ EP        746 51.14                             150    0.7510 78.8  42 
 PAM  SZ I         746 51.22         3.4 0.24            152           78.8  42 
 PAM  SN ES        747  7.49                             150   -0.3610 78.8  42 
 RUS  HZ EP        746 52.25                             144    0.3310  102 174 
 RUS  HZ I         746 53.12         1.7 0.16            145            102 174 
 RUS  HN ES        747  9.90                             144   -0.6610  102 174 
 PTB  HZ EP        746 55.18                             133    0.39 9  145 258 
 PTB  HN ES        747 15.09                             133   -0.58 9  145 258 
 PTB  HZ I         747 21.82         2.9 0.40            131            145 258 
 OCA  HZ EP        746 55.61                             130   -0.67 9  159 354 
 OCA  HN ES        747 18.10                             130   -0.22 9  159 354 
 OCA  HZ I         747 21.98         3.0 0.22            129            159 354 
 SPBC HZ EP        746 56.61                             129    0.16 9  162 218 
 SPBC HN ES        747 18.59                             129   -0.04 9  162 218 
 SPBC HZ I         747 21.78         4.5 0.22            129            162 218 
                                                                                
