 2016  623 0323 57.6 L   6.761 -73.169154.0  RSN  7 0.5 1.4LRSN                1
 GAP=232        1.23       6.4     7.2  9.6  0.9547E+01  0.2395E+02  0.5979E+01E
 Epicentro: LOS SANTOS - SANTANDER                                             3
 ACTION:UPD 16-07-21 22:21 OP:rebc STATUS:               ID:20160623032357 L   I
 OLDACT:REG 16-06-23 12:22 OP:ak   STATUS:               ID:20160623031744     3
 2016-06-23-0317-44M.COL___337                                                 6
 STAT SP IPHASW D HRMM SECON CODA AMPLIT PERI AZIMU VELO AIN AR TRES W  DIS CAZ7
 BAR2 EZ EP        324 18.16                             173    0.0110 18.8 184 
 BAR2 EZ ES        324 33.86                             173   -0.3110 18.8 184 
 BAR2 EZ I         324 36.53         3.5 0.32                          18.8 184 
 BRR  HZ IP     C  324 20.03                             154    0.3810 71.1 303 
 BRR  HN ES        324 37.54                             154    0.7010 71.1 303 
 BRR  HZ I         324 40.42         4.5 0.42                          71.1 303 
 RUS  HN ES        324 40.47                             147   -0.3810 96.5 174 
 PTB  HZ EP        324 24.05                             135   -0.91 9  144 260 
 PTB  HN ES        324 46.07                             135   -0.23 9  144 260 
 PTB  HZ I         324 51.31         2.4 0.43                           144 260 
 SPBC HZ EP        324 26.95                             132    0.66 9  158 219 
 SPBC HN ES        324 49.06                             132    0.39 9  158 219 
 SPBC HZ I         324 51.95         3.9 0.11                           158 219 
 ZAR  HN ES        324 55.72                             124   -0.48 9  203 294 
 GUY2CHE ES        325 15.15                             114    0.14 7  297 235 
                                                                                
