 2012  823 0705 45.0 L   6.744 -73.161144.0  RSN  6 0.4 1.6LRSN                1
 GAP=137        0.69       4.8     4.9  7.7  0.1145E+01  0.1230E+02 -0.7303E+01E
 Epicentro: VILLANUEVA - SANTANDER                                             3
 ACTION:UPD 12-09-10 11:57 OP:ep   STATUS:               ID:20120823070545 L   I
 2012-08-23-0700-00M.COL___217                                                 6
 STAT SP IPHASW D HRMM SECON CODA AMPLIT PERI AZIMU VELO AIN AR TRES W  DIS CAZ7
 BAR2 SZ EP   1    7 6  4.34                             173    0.06 7 16.9 188 
 BAR2 SZ ES   1    7 6 20.00                             173    0.66 7 16.9 188 
 BAR2 SZ I         7 6 21.19        17.1 0.18                          16.9 188 
 BRR  HZ EP        7 6  6.23                             152    0.2010 72.9 303 
 PAM  SZ EP   1    7 6  7.19                             149   -0.18 7 83.3  38 
 PAM  SN ES   1    7 6 24.54                             149   -0.29 7 83.3  38 
 PAM  SZ I         7 6 26.58         7.1 0.18                          83.3  38 
 RUS  HZ EP   1    7 6  8.13                             145    0.01 7 94.5 175 
 RUS  HE ES   1    7 6 25.78                             145   -0.40 7 94.5 175 
 RUS  HZ I         7 6 28.20         2.2 0.29                          94.5 175 
 PTB  HN ES   2    7 6 31.83                             132   -0.44 5  145 261 
 ZAR  HZ EP   2    7 6 18.02                             122    0.63 4  205 294 
 ZAR  HE ES   1    7 6 42.33                             122   -0.35 6  205 294 
 ZAR  HZ I         7 6 53.21         4.4 0.30                           205 294 
                                                                                
