 2016  523 0453 58.7 L   6.800 -73.120147.1  RSN 12 0.4 1.8LRSN                1
 GAP=128        0.94       2.8     4.1  5.4 -0.2269E+00 -0.1230E+01  0.1221E+01E
 Epicentro: LOS SANTOS - SANTANDER                                             3
 ACTION:UPD 16-08-18 17:48 OP:cam  STATUS:               ID:20160523045358 L   I
 OLDACT:UP  16-05-24 15:34 OP:dnl  STATUS:               ID:20160523045358 L   3
 OLDACT:UP  16-05-23 13:58 OP:mh   STATUS:               ID:20160523044746     3
 OLDACT:REG 16-05-23 12:22 OP:mh   STATUS:               ID:20160523044746     3
 2016-05-23-0447-46M.COL___298                                                 6
 STAT SP IPHASW D HRMM SECON CODA AMPLIT PERI AZIMU VELO AIN AR TRES W  DIS CAZ7
 BAR2 EZ EP        454 18.53                             170    0.0710 24.0 197 
 BAR2 EZ ES   1    454 33.34                             170   -0.56 7 24.0 197 
 BAR2 EZ I         454 37.86         5.9 0.26            169           24.0 197 
 BRR  HZ EP        454 19.31                             152   -0.7810 73.7 297 
 BRR  HN ES        454 37.72                             152    0.9110 73.7 297 
 BRR  HZ I         454 42.48         6.9 0.44            152           73.7 297 
 RUS  HZ EP        454 22.25                             144   -0.2810  100 178 
 RUS  HN ES        454 41.12                             144   -0.0210  100 178 
 RUS  HZ I         454 42.36         4.3 0.36            146            100 178 
 PTB  HE EP        454 25.93                             132   -0.06 9  151 259 
 PTB  HZ ES        454 46.83                             132   -0.47 9  151 259 
 PTB  HE I         454 52.90        11.6 0.50            133            151 259 
 OCA  HZ EP        454 27.22                             130    0.11 9  161 352 
 OCA  HN ES        454 49.57                             130    0.27 9  161 352 
 OCA  HZ I         454 54.55        15.9 0.32            133            161 352 
 SPBC HZ EP        454 27.69                             129    0.26 9  165 220 
 SPBC HN ES        454 50.34                             129    0.47 9  165 220 
 SPBC HZ I         454 55.29        11.8 0.34            131            165 220 
 ZAR  HZ EP        454 31.33                             122   -0.13 8  207 292 
 ZAR  HN ES        454 56.77                             122   -0.28 8  207 292 
 ZAR  HZ I         455  2.36         6.7 0.34            124            207 292 
 NOR  HZ EP   1    454 34.66                             119   -0.05 6  237 235 
 NOR  HN ES        455  2.58                             119   -0.25 8  237 235 
 CHI  HZ EP        454 36.50                             117   -0.01 8  249 196 
 CHI  HN ES        455  6.26                             117    0.23 8  249 196 
 CHI  HZ I         455 16.30         1.9 0.25            120            249 196 
 URE  HZ EP   9    454 39.04                             114   -1.05 0  286 292 
 URE  HN ES        455 11.14                             114   -0.22 7  286 292 
 SDV  BZ EP   1    454 48.54                             109    0.04 5  358  50 
 PRA  HZ EP        454 53.08                             107    0.69 6  393 210 
 PRA  HN ES   1    455 34.53                             107    0.23 4  393 210 
 PRA  HZ I         455 39.56         2.3 0.60            109            393 210 
                                                                                
