 2011  523 0114 59.0 L   6.746 -73.065148.3  RSN  7 0.4 1.7LRSN                1
 GAP=166        1.00       6.3    10.5 10.0 -0.1849E+02 -0.1899E+02 -0.7738E+01E
 Epicentro: JORDAN - SANTANDER                                                 3
 ACTION:UP  11-06-29 08:55 OP:tino STATUS:               ID:20110523011459 L   I
 2011-05-23-0113-25S.COL___139                                                 6
 STAT SP IPHASW D HRMM SECON CODA AMPLIT PERI AZIMU VELO SNR AR TRES W  DIS CAZ7
 BAR2 SZ EP   1    115 18.92                             171     0.0 7   21 217 
 BAR2 SZ ES   1    115 33.82                             171    -0.6 7   21 217 
 BAR2 SZ I         115 35.73        10.1 0.26                            21 217 
 BRR  HZ EP   1    115 21.22                             149     0.2 7   82 299 
 BRR  HN ES   1    115 38.40                             149     0.2 7   82 299 
 BRR  HZ I         115 39.60        12.5 0.13                            82 299 
 RUS  HZ EP   1    115 22.91                             146     0.3 7   94 181 
 RUS  HN ES   2    115 41.52                             146     0.6 5   94 181 
 RUS  HZ I         115 42.78         5.0 0.43                            94 181 
 BRI  SZ EP   1    115 22.39                             141    -1.0 7  111  15 
 GRA  SZ EP   1    115 25.00                             137     0.2 7  129  13 
 GRA  SZ ES   1    115 45.27                             137     0.4 7  129  13 
 GRA  SZ I         115 47.43         5.9 0.32                           129  13 
 OCA  SZ EP   1    115 28.28                             129     0.1 7  167 350 
 OCA  SZ I         115 55.00         5.6 0.23                           167 350 
 NOR  SN ES   2    116  3.25                             118    -0.4 4  239 237 
                                                                                
