 2012  823 0325 50.5 L   7.240 -74.295 61.4  RSN  9 0.3 2.0LRSN                1
 GAP=110        0.58       2.4     1.6  6.0  0.6312E+00 -0.4722E+00  0.4915E+00E
 Epicentro: PUERTO WILCHES - SANTANDER                                         3
 ACTION:UPD 12-09-10 11:57 OP:ep   STATUS:               ID:20120823032550 L   I
 2012-08-23-0320-00M.COL___217                                                 6
 STAT SP IPHASW D HRMM SECON CODA AMPLIT PERI AZIMU VELO AIN AR TRES W  DIS CAZ7
 BRR  HZ EP        326  2.90                             127   -0.1710 66.0 103 
 BRR  HE ES   1    326 13.25                             127    0.34 7 66.0 103 
 ZAR  HZ EP   1    326  3.21                             126   -0.09 7 68.1 294 
 ZAR  HN ES   1    326 13.38                             126    0.07 7 68.1 294 
 ZAR  HZ I         326 14.73        58.8 0.36                          68.1 294 
 PTB  HZ EP        326  4.12                             121   -0.3510 79.5 193 
 PTB  HN ES   1    326 15.12                             121   -0.29 7 79.5 193 
 PTB  HZ I         326 15.81        28.5 0.13                          79.5 193 
 BAR2 SZ ES   1    326 29.09                             105    0.42 7  142 120 
 BAR2 SZ I         326 30.52        60.8 0.31                           142 120 
 URE  HZ EP   1    326 11.97                             105   -0.35 7  148 293 
 URE  HN ES   1    326 29.78                             105    0.41 7  148 293 
 URE  HZ I         326 33.21        16.5 0.26                           148 293 
 OCA  HN ES   2    326 30.53                             104   -0.50 5  154  44 
 PAM  SZ EP   1    326 16.58                             102    0.24 7  177  86 
 PAM  SN ES   1    326 36.45                             102   -0.08 7  177  86 
 PAM  SZ I         326 38.73        21.3 0.55                           177  86 
 HEL  HZ EP   1    326 16.82                             101    0.32 7  179 230 
 HEL  HE ES   1    326 37.13                             101    0.31 7  179 230 
 HEL  HZ I         326 41.41         7.2 0.17                           179 230 
 RUS  HZ EP   1    326 19.34                             100    0.10 6  200 138 
 RUS  HN ES   1    326 41.65                             100   -0.04 6  200 138 
 RUS  HZ I         326 43.26         4.1 0.33                           200 138 
                                                                                
