 2017  623 0914 56.4 L   6.867 -73.137140.0  RSN  4 0.4 1.2LRSN                1
 GAP=259        0.89       6.8     6.3  8.6  0.8399E+01  0.1615E+02 -0.9897E+01E
 Epicentro: LOS SANTOS - SANTANDER                                             3
 ACTION:UPD 17-09-14 16:54 OP:jn   STATUS:               ID:20170623091456 L   I
 OLDACT:REG 17-06-23 13:53 OP:lv   STATUS:               ID:20170623090743     3
 2017-06-23-0908-00M.COL___365                                                 6
 STAT SP IPHASW D HRMM SECON CODA AMPLIT PERI AZIMU VELO AIN AR TRES W  DIS CAZ7
 BAR2 EZ EP        915 15.83                             167    0.3210 30.8 189 
 BAR2 EZ ES        915 30.18                             167   -0.2410 30.8 189 
 BAR2 EZ I         915 33.59         5.6 0.36            167           30.8 189 
 PTB  HZ EP        915 23.19                             130    0.06 9  150 256 
 PTB  HN ES        915 43.56                             130   -0.42 9  150 256 
 PTB  HZ I         915 45.98         1.1 0.15            132            150 256 
 SPBC HZ EP   1    915 25.05                             126   -0.03 7  170 218 
 SPBC HE ES        915 47.71                             126    0.26 9  170 218 
 SPBC HZ I         915 50.68         2.7 0.06            129            170 218 
 ZAR  HZ EP   1    915 27.42                             121   -0.86 6  202 290 
 ZAR  HE ES        915 53.68                             121    0.53 9  202 290 
 ZAR  HZ I         915 56.82         1.6 0.10            123            202 290 
                                                                                
