 2011 1223 0210 13.8 L   6.768 -73.175145.7  RSN  5 0.3 1.4LRSN                1
 GAP=232        0.59       5.5     5.9  6.1  0.1543E+02  0.7322E+00  0.3725E+01E
 Epicentro: LOS SANTOS - SANTANDER                                             3
 ACTION:UPD 12-07-13 16:17 OP:ep   STATUS:               ID:20111223021013 L   I
 2011-12-23-0210-00M.COL___188                                                 6
 STAT SP IPHASW D HRMM SECON CODA AMPLIT PERI AZIMU VELO AIN AR TRES W  DIS CAZ7
 BAR2 SZ EP   1    210 33.29                             172   -0.07 7 19.4 183 
 BAR2 SZ ES   2    210 47.95                             172   -0.66 5 19.4 183 
 BAR2 SZ I         210 49.72         5.5 0.10                          19.4 183 
 BRR  HZ EP        210 34.95                             153    0.0510 70.3 302 
 BRR  HZ I         210 35.21         6.5 0.14                          70.3 302 
 BRR  HE ES   1    210 51.76                             153    0.41 7 70.3 302 
 RUS  HZ EP   1    210 37.15                             145   -0.17 7 97.3 174 
 RUS  HE ES   1    210 55.93                             145    0.27 7 97.3 174 
 RUS  HZ I         210 57.06         2.6 0.30                          97.3 174 
 PTB  HZ EP   1    210 40.06                             133   -0.37 7  144 260 
 PTB  HE ES   1    211  1.06                             133   -0.14 7  144 260 
 CHI  HZ EP   1    210 51.40                             118    0.36 6  244 195 
                                                                                
