 2013  723 0312 48.6 L   6.426 -73.569 37.0  RSN  4 0.2 0.7LRSN                1
 GAP=140        0.46       2.9     2.7 13.0  0.4275E+01  0.2739E+02  0.1934E+02E
 Epicentro: SANTA HELENA DEL OPON - SANTANDER                                  3
 ACTION:UPD 13-08-12 10:39 OP:ep   STATUS:               ID:20130723031000 L   I
 OLDACT:UP  13-07-23 10:15 OP:cam  STATUS:               ID:20130723031000 L   3
 OLDACT:UPD 13-07-23 09:12 OP:stll STATUS:               ID:20130723031000 L   3
 2013-07-23-0310-00M.COL___263                                                 6
 STAT SP IPHASW D HRMM SECON CODA AMPLIT PERI AZIMU VELO AIN AR TRES W  DIS CAZ7
 BAR2 SZ EP   1    312 58.12                             116    0.27 7 46.6  67 
 BAR2 SZ ES   1    313  4.97                             116   -0.13 7 46.6  67 
 BAR2 SZ I         313  6.59         5.8 0.46             47           46.6  67 
 BRR  HZ EP        313  1.17                              99   -0.0410 77.0 348 
 BRR  HZ I         313 17.78         3.4 0.40             47           77.0 348 
 RUS  HZ EP   1    313  2.38                              99    0.23 7 79.8 138 
 RUS  HN ES   1    313 12.59                              99   -0.16 7 79.8 138 
 RUS  HZ I         313 15.50         1.6 0.18             47           79.8 138 
 PTB  HZ EP        313  3.76                              95   -0.1910 98.9 277 
 PTB  HN ES   1    313 16.15                              95    0.19 7 98.9 277 
 PTB  HZ I         313 19.95         1.5 0.32             47           98.9 277 
                                                                                
