 2015  223 0004 56.9 L   6.826 -73.167144.4  RSN 18 0.4 2.6LRSN                1
 GAP= 69        0.97       2.3     2.7  4.5 -0.5810E+00  0.2638E+01  0.1200E+01E
 Epicentro: LOS SANTOS - SANTANDER                                             3
 ACTION:UPD 15-04-30 21:28 OP:nd   STATUS:               ID:20150223000456 L   I
 OLDACT:UP  15-02-23 16:31 OP:mh   STATUS:               ID:20150223000000     3
 OLDACT:REG 15-02-23 12:24 OP:mher STATUS:               ID:20150223000000     3
 2015-02-23-0000-00M.COL___278                                                 6
 STAT SP IPHASW D HRMM SECON CODA AMPLIT PERI AZIMU VELO AIN AR TRES W  DIS CAZ7
 BAR2 EZ EP        0 5 16.62                             169    0.1910 25.9 184 
 BAR2 EZ ES        0 5 31.79                             169    0.1310 25.9 184 
 BAR2 EZ I         0 5 33.07        74.8 0.32            167           25.9 184 
 BRR  HZ EP        0 5 18.24                             153    0.5310 67.7 297 
 BRR  HN ES        0 5 34.57                             153    0.6210 67.7 297 
 BRR  HZ I         0 5 38.88       101.5 0.20            153           67.7 297 
 PAM  SZ EP        0 5 19.35                             151    0.4110 76.8  42 
 PAM  SN ES   1    0 5 35.98                             151   -0.15 7 76.8  42 
 PAM  SZ I         0 5 38.67        60.2 0.31            156           76.8  42 
 RUS  HZ EP     C  0 5 20.69                             143   -0.0610  104 175 
 RUS  HE ES        0 5 38.44                             143   -0.9010  104 175 
 RUS  HZ I         0 5 41.52        30.5 0.26            143            104 175 
 PTB  HZ EP        0 5 23.17                             132   -0.43 9  146 258 
 PTB  HN ES        0 5 44.13                             132   -0.30 9  146 258 
 PTB  HZ I         0 5 48.80        51.1 0.14            132            146 258 
 OCA  HZ EP        0 5 24.33                             130   -0.49 9  157 354 
 OCA  HN ES        0 5 46.25                             130   -0.34 9  157 354 
 OCA  HZ I         0 5 49.57        57.6 0.18            133            157 354 
 TAM  HZ IP     D  0 5 25.08                             130    0.32 9  158 106 
 TAM  HN ES        0 5 46.49                             130   -0.00 9  158 106 
 TAM  HZ I         0 5 47.04        22.3 0.64            134            158 106 
 SPBC HZ EP     C  0 5 25.53                             129    0.16 9  164 218 
 SPBC HN ES        0 5 47.68                             129    0.10 9  164 218 
 SPBC HZ I         0 5 54.79        44.8 0.24            129            164 218 
 ZAR  HZ EP        0 5 29.10                             123    0.18 9  201 292 
 ZAR  HN ES        0 5 54.34                             123    0.44 9  201 292 
 ZAR  HZ I         0 6  2.03        43.9 0.34            124            201 292 
 NOR  HZ EP        0 5 32.43                             118   -0.10 8  234 234 
 NOR  HN ES        0 6  0.61                             118    0.30 8  234 234 
 NOR  HZ I         0 6  7.25        31.4 0.16            119            234 234 
 SML  HZ EP        0 5 32.73                             118   -0.33 8  240 336 
 SML  HN ES        0 6  0.71                             118   -0.56 8  240 336 
 SML  HZ I         0 6  3.31        30.8 0.19            120            240 336 
 CHI  HZ EP        0 5 35.06                             117    0.30 8  251 194 
 CHI  HN ES        0 6  4.31                             117    0.02 8  251 194 
 CHI  HZ I         0 6 13.23        16.9 0.34            118            251 194 
 ROSC BZ EP   4    0 5 35.58                             116    0.49 0  254 210 
 ROSC BN ES   4    0 6  6.12                             116    1.25 0  254 210 
 ROSC BZ I         0 6 12.11        37.4 0.27            117            254 210 
 URE  HZ EP   4    0 5 40.35                             114    2.81 0  281 292 
 URE  HN ES   4    0 6 13.75                             114    4.51 0  281 292 
 GUY2CHZ EP        0 5 40.39                             112   -0.03 7  301 234 
 GUY2CHN ES        0 6 14.15                             112   -0.21 7  301 234 
 GUY2CHZ I         0 6 24.74        24.4 0.49                           301 234 
 PTGC HZ EP   4    0 5 39.21                             111   -1.89 0  312 158 
 PTGC HN ES   4    0 6 13.40                             111   -2.18 0  312 158 
 PTGC HZ I         0 6 19.42        22.3 0.42            113            312 158 
 PRA  HZ EP        0 5 49.61                             106   -0.92 6  393 209 
 PRA  HN ES   1    0 6 32.53                             106    0.17 4  393 209 
 PRA  HZ I         0 6 38.05        15.9 0.28            107            393 209 
 ORTC HZ EP        0 5 51.76                             106    0.88 6  396 216 
 ORTC HN ES   1    0 6 32.91                             106   -0.08 4  396 216 
 ORTC HZ I         0 6 40.46        12.8 0.38            107            396 216 
 PAL  HZ EP        0 5 52.63                             106    0.68 6  405 239 
 PAL  HN ES        0 6 33.95                             106   -0.94 6  405 239 
 PAL  HZ I         0 6 40.31         7.2 0.26            107            405 239 
                                                                                
