 2011  623 0906 46.9 L   6.524 -73.771 88.6  RSN  4 0.2 1.2LRSN                1
 GAP=233        0.53       8.5    14.6 13.8  0.1045E+03  0.1368E+03  0.8038E+02E
 Epicentro: SANTA HELENA DEL OPON - SANTANDER                                  3
 ACTION:UP  11-07-14 19:07 OP:ep   STATUS:               ID:20110623090646 L   I
 2011-06-23-0900-00M.COL___121                                                 6
 STAT SP IPHASW D HRMM SECON CODA AMPLIT PERI AZIMU VELO SNR AR TRES W  DIS CAZ7
 BRR  HZ EP   1    9 7  1.42                             141    -0.3 7   65   6 
 BRR  HZ I         9 7  1.74         5.1 0.06                            65   6 
 BRR  HE ES   2    9 7 13.73                             141     0.4 5   65   6 
 BAR2 SZ EP   2    9 7  2.12                             141     0.0 5   66  83 
 BAR2 SZ ES   2    9 7 13.87                             141    -0.2 5   66  83 
 BAR2 SZ I         9 7 15.89         9.9 0.19                            66  83 
 BTL  SZ EP   1    9 7  2.68                             138     0.1 7   71  52 
 RUS  HZ EP   1    9 7  6.09                             127     0.2 7  103 133 
 RUS  HE ES   2    9 7 20.44                             127    -0.2 5  103 133 
 RUS  HZ I         9 7 22.15         2.1 0.35                           103 133 
                                                                                
