 2015  823 0002 17.1 L   6.793 -73.100142.1  RSN  6 0.4 1.7LRSN                1
 GAP=143        1.11       4.6     6.2  8.8  0.4626E+01  0.6509E+01 -0.2157E+01E
 Epicentro: LOS SANTOS - SANTANDER                                             3
 ACTION:UPD 15-09-15 23:04 OP:cam  STATUS:               ID:20150823000217 L   I
 OLDACT:REG 15-08-23 13:20 OP:ar   STATUS:               ID:20150823000005     3
 2015-08-23-0000-05M.COL___343                                                 6
 STAT SP IPHASW D HRMM SECON CODA AMPLIT PERI AZIMU VELO AIN AR TRES W  DIS CAZ7
 BAR2 EZ EP        0 2 36.31                             170    0.0110 24.0 202 
 BAR2 EZ ES        0 2 51.10                             170   -0.1810 24.0 202 
 BAR2 EZ I         0 2 51.88        10.2 0.22            169           24.0 202 
 PAM  EZ EP        0 2 39.30                             151    0.5310 74.9  36 
 PAM  EN ES        0 2 55.97                             151    0.2910 74.9  36 
 PAM  EZ I         0 2 58.23         8.2 0.44            155           74.9  36 
 BRR  HZ IP     C  0 2 38.20                             150    0.0710 76.0 297 
 BRR  HE ES        0 2 55.11                             150    0.5710 76.0 297 
 BRR  HZ I         0 2 59.18         9.3 0.48            149           76.0 297 
 RUS  HZ EP        0 2 40.41                             143   -0.0110 99.6 179 
 RUS  HN ES        0 2 58.16                             143   -0.4510 99.6 179 
 RUS  HZ I         0 3  1.83         2.8 0.32            145           99.6 179 
 OCA  HE ES        0 3  6.24                             128   -0.98 9  162 351 
 OCA  HZ I         0 3  7.49        14.2 0.26            131            162 351 
 ZAR  HE ES        0 3 15.33                             121   -0.01 8  209 292 
 ZAR  HZ I         0 3 20.27         6.7 0.46            122            209 292 
                                                                                
