 2016  123 0941  4.3 L   6.811 -73.173147.1  RSN  7 0.3 1.4LRSN                1
 GAP=133        0.70       2.7     3.2  5.0  0.2553E+00  0.5730E+01 -0.1215E+01E
 Epicentro: LOS SANTOS - SANTANDER                                             3
 ACTION:UPD 16-03-09 23:27 OP:cam  STATUS:               ID:20160123094104 L   I
 OLDACT:UP  16-01-23 15:35 OP:mh   STATUS:               ID:20160123093741d    3
 OLDACT:DUP 16-01-23 15:35 OP:mh   STATUS:               ID:20160123093741d    3
 OLDACT:REG 16-01-23 13:49 OP:mh   STATUS:               ID:20160123093740     3
 2016-01-23-0937-40M.COL___288                                                 6
 STAT SP IPHASW D HRMM SECON CODA AMPLIT PERI AZIMU VELO AIN AR TRES W  DIS CAZ7
 BAR2 EZ EP        941 24.03                             170   -0.0610 24.2 182 
 BAR2 EZ ES        941 39.70                             170    0.1610 24.2 182 
 BAR2 EZ I         941 40.59         7.4 0.16            171           24.2 182 
 PAM  EZ EP        941 27.30                             151    0.5910 78.5  42 
 PAM  EN ES        941 43.69                             151   -0.5010 78.5  42 
 PAM  EZ I         941 46.96         2.5 0.60            153           78.5  42 
 RUS  HZ EP   1    941 28.34                             144    0.07 7  102 174 
 RUS  HN ES   1    941 47.17                             144    0.20 7  102 174 
 RUS  HZ I         941 47.99         2.9 0.28            146            102 174 
 PTB  HZ EP        941 30.93                             133   -0.18 9  145 258 
 PTB  HN ES        941 52.06                             133    0.02 9  145 258 
 PTB  HZ I         941 56.89         2.5 0.52            133            145 258 
 ZAR  HZ EP        941 36.60                             123    0.12 9  201 292 
 ZAR  HN ES        942  1.78                             123    0.19 9  201 292 
 ZAR  HZ I         942  4.36         2.7 0.28            124            201 292 
 SML  HZ EP   1    941 40.70                             118   -0.03 6  241 336 
 SML  HN ES        942  8.93                             118   -0.23 8  241 336 
 SML  HZ I         942 13.15         4.2 0.26            119            241 336 
 CHI  HZ EP   1    941 41.84                             117   -0.26 6  249 194 
 CHI  HN ES   1    942 11.08                             117   -0.51 6  249 194 
 CHI  HZ I         942 14.05         2.0 0.36            119            249 194 
                                                                                
