 2015  423 0253 47.5 L   6.796 -73.175148.3  RSN  9 0.4 1.6LRSN                1
 GAP=133        0.93       3.4     4.0  6.1 -0.5391E+00  0.7220E+01 -0.4287E+01E
 Epicentro: LOS SANTOS - SANTANDER                                             3
 ACTION:UPD 15-06-03 16:56 OP:cam  STATUS:               ID:20150423025347 L   I
 OLDACT:REG 15-04-23 12:20 OP:ak   STATUS:               ID:20150423024740     3
 2015-04-23-0247-40M.COL___280                                                 6
 STAT SP IPHASW D HRMM SECON CODA AMPLIT PERI AZIMU VELO AIN AR TRES W  DIS CAZ7
 BAR2 EZ EP   1    254  7.19                             171   -0.18 7 22.5 182 
 BAR2 EZ ES        254 22.21                             171   -0.6910 22.5 182 
 BAR2 EZ I         254 23.61         7.0 0.20            173           22.5 182 
 BRR  HZ IP     C  254  9.36                             154    0.6310 68.6 300 
 BRR  HN ES        254 25.98                             154    0.6510 68.6 300 
 BRR  HZ I         254 28.30         6.1 0.20            152           68.6 300 
 PAM  SZ IP     D  254 10.34                             150    0.2610 79.8  41 
 PAM  SN ES        254 27.62                             150   -0.1110 79.8  41 
 PAM  SZ I         254 29.30         7.0 0.76            152           79.8  41 
 RUS  HZ EP        254 11.44                             144    0.0010  100 174 
 RUS  HN ES        254 30.06                             144   -0.0910  100 174 
 RUS  HZ I         254 32.18         2.3 0.36            148            100 174 
 PTB  HZ EP   1    254 14.15                             133   -0.19 7  145 259 
 PTB  HN ES        254 35.29                             133   -0.02 9  145 259 
 PTB  HZ I         254 37.13         4.9 0.20            134            145 259 
 ZAR  HN ES   2    254 45.37                             123    0.38 4  201 293 
 ZAR  HZ I         254 51.71         4.7 0.29            124            201 293 
 NOR  HZ EP   2    254 23.10                             119    0.08 4  232 234 
 NOR  HE ES        254 50.82                             119    0.05 8  232 234 
 SML  HZ EP        254 24.06                             118   -0.06 8  243 336 
 SML  HN ES        254 52.52                             118   -0.20 8  243 336 
 SML  HZ I         254 56.99         5.9 0.10            119            243 336 
 MON  HZ EP   4    254 34.81                             109   -1.49 0  351 309 
 MON  HN ES        255 13.44                             109   -0.95 6  351 309 
                                                                                
