 2016  823 0329 11.3 L   6.675 -73.076140.8  RSN  5 0.4 1.2LRSN                1
 GAP=280        0.93       6.1     6.6  8.9  0.8484E+01  0.1677E+02  0.1429E+02E
 Epicentro: ARATOCA - SANTANDER                                                3
 ACTION:UPD 16-10-29 15:38 OP:rebc STATUS:               ID:20160823032911 L   I
 OLDACT:REG 16-08-23 14:39 OP:ak   STATUS:               ID:20160823032734     3
 2016-08-23-0328-00M.COL___374                                                 6
 STAT SP IPHASW D HRMM SECON CODA AMPLIT PERI AZIMU VELO AIN AR TRES W  DIS CAZ7
 BAR2 EZ EP        329 30.07                             174   -0.0910 14.8 232 
 BAR2 EZ ES        329 45.06                             174    0.1710 14.8 232 
 BAR2 EZ I         329 47.55         3.8 0.42                          14.8 232 
 BRR  HZ EP   2    329 31.85                             147   -0.90 5 85.0 304 
 BRR  HE ES        329 49.45                             147   -0.0410 85.0 304 
 PTB  HZ EP   4    329 36.32                             130   -2.04 0  153 264 
 PTB  HE ES        329 58.82                             130   -0.67 9  153 264 
 SPBC HZ EP        329 39.15                             129    0.26 9  158 224 
 SPBC HN ES        330  0.58                             129    0.15 9  158 224 
 ZAR  HE ES        330 11.43                             119    0.62 8  217 295 
                                                                                
