 2010  623 0938 36.0 L   6.795 -73.047130.8  RSN  7 0.3 1.2LRSN                1
 GAP=167        0.59       3.6     7.5  7.2 -0.7624E+01 -0.1921E+02  0.9359E+00E
 Epicentro: LOS SANTOS - SANTANDER                                             3
 ACTION:UP  10-08-24 10:12 OP:vdl  STATUS:               ID:20100623093836 L   I
 2010-06-23-0937-26S.COL___118                                                 6
 STAT SP IPHASW D HRMM SECON CODA AMPLIT PERI AZIMU VELO SNR AR TRES W  DIS CAZ7
 BAR2 SZ EP        938 54.07                             168     0.110   27 214 
 BAR2 SZ ES   2    939  7.68                             168    -0.2 5   27 214 
 BRR  HZ EP        938 55.82                             146    -0.410   81 295 
 BRR  HE ES   2    939 12.54                             146     0.6 5   81 295 
 BRR  HZ I         939 15.33         5.6 0.28                            81 295 
 BTN  SZ EP   2    938 56.84                             147     0.2 5   81 356 
 BTN  SZ ES   2    939 12.47                             147    -0.2 5   81 356 
 RUS  HZ EP        938 58.27                             141     0.010  100 182 
 RUS  HZ I         938 59.01         2.0 0.10                           100 182 
 RUS  HE ES   3    939 16.04                             141     0.4 2  100 182 
 BRI  SZ EP        938 58.06                             139    -0.210  106  15 
 BRI  SZ ES   2    939 15.41                             139    -0.2 5  106  15 
 GUE  SZ EP        938 59.55                             136     0.310  115   7 
 GRA  SZ EP        938 59.84                             134     0.110  123  13 
                                                                                
