 2012  523 0916 50.3 L   6.807 -73.192144.0  RSN  7 0.2 1.9LRSN                1
 GAP=178        0.39       2.8     2.7  3.9  0.1062E+01  0.2963E+01  0.4910E+00E
 Epicentro: ZAPATOCA - SANTANDER                                               3
 ACTION:UP  12-07-05 12:07 OP:pat  STATUS:               ID:20120523091650 L   I
 2012-05-23-0910-00M.COL___200                                                 6
 STAT SP IPHASW D HRMM SECON CODA AMPLIT PERI AZIMU VELO SNR AR TRES W  DIS CAZ7
 BAR2 SZ EP        917  9.75                             170     0.010   24 177 
 BAR2 SZ ES   1    917 25.12                             170     0.3 7   24 177 
 BAR2 SZ I         917 26.37        17.0 0.31                            24 177 
 RUS  HZ EP        917 13.79                             143    -0.210  102 173 
 RUS  HZ I         917 14.96         4.5 0.08                           102 173 
 RUS  HN ES   1    917 32.30                             143    -0.1 7  102 173 
 PTB  HZ EP        917 16.70                             133     0.0 9  143 258 
 PTB  HN ES   1    917 37.09                             133    -0.1 7  143 258 
 OCA  HN ES   2    917 39.99                             130    -0.2 5  159 355 
 OCA  HZ I         917 45.08        20.1 0.41                           159 355 
 ZAR  HE ES   2    917 46.97                             123     0.1 4  199 292 
 ZAR  HZ I         917 54.01         6.6 0.04                           199 292 
 NOR  SZ EP   2    917 25.80                             119     0.3 4  231 234 
 NOR  SE ES   1    917 52.95                             119     0.0 6  231 234 
 PRA  HZ EP   1    917 43.76                             106     0.2 4  390 209 
                                                                                
