 2013  123 0306 26.5 L   6.735 -73.152147.9  RSN  4 0.3 1.2LRSN                1
 GAP=232        0.76       6.3     6.3  6.3  0.2149E+02  0.7300E+01  0.3016E+01E
 Epicentro: JORDAN - SANTANDER                                                 3
 ACTION:UPD 13-02-15 09:16 OP:ep   STATUS:               ID:20130123030626 L   I
 2013-01-23-0258-40M.COL___183                                                 6
 STAT SP IPHASW D HRMM SECON CODA AMPLIT PERI AZIMU VELO AIN AR TRES W  DIS CAZ7
 BAR2 SZ ES        3 7  1.25                             173   -0.4110 16.2 192 
 BRR  HZ EP        3 6 48.03                             152   -0.0110 74.3 304 
 BRR  HN ES        3 7  5.18                             152    0.3310 74.3 304 
 BRR  HN I         3 7  5.95         5.6 0.26            154           74.3 304 
 RUS  HZ EP        3 6 50.27                             146    0.3210 93.5 175 
 RUS  HN ES        3 7  8.34                             146    0.0810 93.5 175 
 RUS  HN I         3 7 11.94         1.4 0.32            146           93.5 175 
 PTB  HZ EP        3 6 53.03                             133   -0.43 9  146 262 
 PTB  HN ES        3 7 14.56                             133    0.07 9  146 262 
                                                                                
