 2017  323 0258 29.8 L   6.741 -73.167143.9  RSN  4 0.2 1.6LRSN                1
 GAP=148        0.62       5.6     3.2  5.9 -0.6113E+01  0.6973E+01 -0.4769E+01E
 Epicentro: LOS SANTOS - SANTANDER                                             3
 ACTION:UPD 17-05-25 18:44 OP:jn   STATUS:               ID:20170323025829 L   I
 OLDACT:REG 17-03-23 12:32 OP:lv   STATUS:               ID:20170323024745     3
 2017-03-23-0248-00M.COL___397                                                 6
 STAT SP IPHASW D HRMM SECON CODA AMPLIT PERI AZIMU VELO AIN AR TRES W  DIS CAZ7
 BAR2 EZ EP        258 49.33                             173    0.2810 16.6 186 
 BAR2 EZ ES        259  4.24                             173    0.1510 16.6 186 
 BAR2 EZ I         259  5.95        12.5 0.15            176           16.6 186 
 BRR  HN ES   4    259  5.42                             152   -1.76 0 72.6 304 
 PAM  EZ EP        258 52.22                             148    0.0410 83.9  38 
 PAM  EN ES        259  9.43                             148   -0.2410 83.9  38 
 PAM  EZ I         259 12.52         3.6 0.25            147           83.9  38 
 PTB  HZ EP        258 56.00                             132   -0.26 9  144 261 
 PTB  HN ES        259 16.69                             132   -0.25 9  144 261 
 ZAR  HZ EP   4    259  4.86                             122    2.74 0  204 294 
 ZAR  HN ES        259 27.66                             122    0.29 9  204 294 
 ZAR  HZ I         259 33.17         4.5 0.17            122            204 294 
                                                                                
