 2016  823 0959 47.3 L   6.539 -73.575103.4  RSN  4 0.5 1.3LRSN                1
 GAP=188        1.39      10.8     6.8 12.2  0.1556E+02  0.3693E+02  0.7931E+01E
 Epicentro: EL CARMEN - SANTANDER                                              3
 ACTION:UPD 16-10-29 15:38 OP:rebc STATUS:               ID:20160823095947 L   I
 OLDACT:REG 16-08-23 20:29 OP:ar   STATUS:               ID:20160823095731     3
 2016-08-23-0958-00M.COL___371                                                 6
 STAT SP IPHASW D HRMM SECON CODA AMPLIT PERI AZIMU VELO AIN AR TRES W  DIS CAZ7
 BAR2 EZ EP       10 0  2.65                             155    0.0110 43.8  82 
 BAR2 EZ ES       10 0 15.27                             155    0.6310 43.8  82 
 BAR2 EZ I        10 0 16.24        16.5 0.54                          43.8  82 
 BRR  HZ EP       10 0  3.44                             145   -0.1210 64.7 346 
 BRR  HE ES       10 0 15.49                             145   -0.7910 64.7 346 
 PTB  HZ EP       10 0  5.44                             133   -0.7810 97.5 270 
 PTB  HE ES       10 0 21.14                             133    0.1310 97.5 270 
 PTB  HZ I        10 0 23.84         2.1 0.16                          97.5 270 
 ZAR  HZ EP       10 0 14.66                             115    0.37 9  177 307 
 ZAR  HE ES       10 0 36.15                             115    0.78 9  177 307 
 ZAR  HZ I        10 0 39.46         2.0 0.08                           177 307 
                                                                                
