 2017  223 0641 55.8 L   6.786 -73.138150.4  RSN  9 0.5 1.6LRSN                1
 GAP=138        1.13       4.4     6.0  6.3 -0.5672E+01  0.5470E+01  0.6229E+01E
 Epicentro: LOS SANTOS - SANTANDER                                             3
 ACTION:UPD 17-05-24 15:39 OP:jn   STATUS:               ID:20170223064155 L   I
 OLDACT:UP  17-02-23 18:15 OP:edw  STATUS:               ID:20170223063749     3
 OLDACT:REG 17-02-23 13:36 OP:edw  STATUS:               ID:20170223063749     3
 2017-02-23-0638-00M.COL___376                                                 6
 STAT SP IPHASW D HRMM SECON CODA AMPLIT PERI AZIMU VELO AIN AR TRES W  DIS CAZ7
 BAR2 EZ EP     D  642 15.93                             171   -0.0410 22.0 193 
 BAR2 EZ ES        642 31.60                             171   -0.1010 22.0 193 
 BAR2 EZ I         642 32.20        12.0 0.24            169           22.0 193 
 BRR  HZ EP        642 17.81                             152    0.2710 72.7 299 
 BRR  HN ES        642 34.91                             152    0.4210 72.7 299 
 BRR  HZ I         642 37.27         4.8 0.24            150           72.7 299 
 PAM  EZ EP     D  642 18.97                             151    0.4210 78.0  38 
 PAM  EN ES        642 36.06                             151   -0.2310 78.0  38 
 PAM  EZ I         642 39.21         5.2 0.44            155           78.0  38 
 RUS  HZ EP        642 20.00                             145    0.0910 99.0 177 
 RUS  HN ES        642 37.96                             145   -0.7510 99.0 177 
 RUS  HZ I         642 41.48         5.6 0.40            145           99.0 177 
 PTB  HZ EP   9    642 22.58                             133   -0.63 0  148 259 
 PTB  HN ES        642 43.52                             133   -0.43 9  148 259 
 PTB  HZ I         642 48.77         3.9 0.22            131            148 259 
 CHI  HZ EP        642 34.26                             118    0.62 8  247 195 
 CHI  HN ES        643  3.31                             118    0.17 8  247 195 
 CHI  HZ I         643  8.59         2.9 0.36            118            247 195 
 CBOC HZ EP   4    642 44.44                             110    1.48 0  334 252 
 CBOC HN ES        643 19.59                             110   -0.15 7  334 252 
 CBOC HZ I         643 28.80         0.9 0.60            110            334 252 
 PRA  HZ EP        642 49.99                             107    0.60 6  391 210 
 PRA  HN ES        643 30.61                             107   -0.57 6  391 210 
 PRA  HZ I         643 36.20         2.1 0.30            107            391 210 
 SJC  HZ EP        642 50.05                             106   -1.68 6  411 327 
 SJC  HN ES   4    643 30.33                             106   -5.01 0  411 327 
                                                                                
