 2017  723 0655 55.8 L   6.785 -73.128141.7  RSN 12 0.3 1.6LRSN                1
 GAP=220        1.10       4.5     4.7  6.1  0.1760E+01  0.7645E+01  0.2310E+01E
 Epicentro: LOS SANTOS - SANTANDER                                             3
 ACTION:UPD 17-08-30 15:35 OP:rebc STATUS:               ID:20170723065555 L   I
 OLDACT:DUP 17-07-23 17:17 OP:lv   STATUS:               ID:20170723064738d    3
 2017-07-23-0648-00M.COL___374                                                 6
 STAT SP IPHASW D HRMM SECON CODA AMPLIT PERI AZIMU VELO AIN AR TRES W  DIS CAZ7
 BAR2 EZ EP        656 14.74                             171   -0.1910 22.2 196 
 BAR2 EZ ES        656 30.05                             171    0.2110 22.2 196 
 BAR2 EZ I         656 32.92         6.0 0.36            168           22.2 196 
 BRR  HZ EP        656 16.82                             151    0.1510 73.7 299 
 BRR  HE ES        656 33.05                             151    0.1110 73.7 299 
 BRR  HZ I         656 35.57         5.0 0.08            149           73.7 299 
 RUS  HZ EP        656 19.12                             143    0.0810 98.8 177 
 RUS  HN ES        656 37.29                             143    0.1410 98.8 177 
 PTB  HZ EP   9    656 21.45                             131   -1.15 0  149 260 
 PTB  HN ES        656 42.35                                    0.01 9  149 260 
 PTB  HZ I         656 45.21         4.0 0.09            130            149 260 
 SPBC HZ EP        656 23.89                             128   -0.11 9  163 220 
 SPBC HN ES        656 45.73                             128   -0.26 9  163 220 
 SPBC HZ I         656 48.69        11.6 0.20            128            163 220 
 ZAR  HZ EP        656 28.31                             121    0.06 8  206 292 
 ZAR  HN ES        656 53.36                             121   -0.19 8  206 292 
 NOR  HZ EP        656 30.82                             117   -0.56 8  235 235 
 NOR  HN ES        656 59.02                             117   -0.10 8  235 235 
 NOR  HZ I         657  4.60         3.9 0.10            118            235 235 
 HEL  HZ EP   4    656 37.21                             114    1.22 0  274 256 
 HEL  HN ES        657  7.00                             114   -0.33 8  274 256 
 HEL  HZ I         657 14.05         3.4 0.27            114            274 256 
 GUY2CHZ EP        656 39.87                             111    0.56 7  302 235 
 GUY2CHN ES        657 13.46                             111    0.22 7  302 235 
 GUY2CHZ I         657 18.98         1.7 0.57                           302 235 
 PTGC HZ EP   9    656 37.83                             111   -1.40 0  306 159 
 PTGC HN ES        657 10.67                                   -1.03 7  306 159 
 CBOC HZ EP   9    656 43.08                             109    0.36 0  335 252 
 CBOC HN ES        657 17.66                                   -2.01 7  335 252 
 CBOC HZ I         657 24.08         1.1 0.42            109            335 252 
 ORTC HN ES        657 31.93                             106    0.42 6  395 217 
 ORTC HZ I         657 33.74         2.7 0.14            106            395 217 
                                                                                
