 2011  423 0944 36.1 L   6.785 -73.129142.0  RSN 19 0.4 2.6LRSN                1
 GAP=116        1.02       3.4     5.1  6.3 -0.4526E+01  0.9179E+01  0.2280E+01E
 Epicentro: LOS SANTOS - SANTANDER                                             3
 ACTION:UP  11-06-22 15:32 OP:REBC STATUS:               ID:20110423094436 L   I
 2011-04-23-0943-31S.COL___139                                                 6
 STAT SP IPHASW D HRMM SECON CODA AMPLIT PERI AZIMU VELO SNR AR TRES W  DIS CAZ7
 BTL  SZ IP        944 55.29                             171     0.010   21 314 
 BAR2 SZ IP        944 55.27                             171     0.010   22 195 
 BAR2 SZ I         944 55.61       103.5 0.08                            22 195 
 BAR2 SZ ES   1    945  9.89                             171    -0.3 7   22 195 
 GIR2 SZ IP        944 56.28                             166     0.910   33 348 
 BRR  HZ IP     C  944 57.05                             151     0.010   74 299 
 BRR  HZ I         944 57.32       163.0 0.16                            74 299 
 BRR  HN ES   1    945 13.59                             151     0.3 7   74 299 
 PAM  SZ EP        944 58.21                             150     0.310   78  38 
 PAM  SN ES   1    945 15.12                             150     0.1 7   78  38 
 PAM  SZ I         945 17.59        29.7 0.56                            78  38 
 RUS  HZ IP        944 59.20                             144    -0.210   99 177 
 RUS  HZ I         945  0.50        39.3 0.09                            99 177 
 RUS  HN ES   1    945 17.70                             144     0.2 7   99 177 
 BRI  SZ EP        944 59.82                             140     0.110  109  20 
 BRI  SZ ES   1    945 17.97                             140    -0.2 7  109  20 
 GRA  SZ EP        945  0.99                             136    -0.110  127  16 
 GRA  SZ ES   1    945 20.46                             136    -0.2 7  127  16 
 GRA  SZ I         945 23.34        44.8 0.39                           127  16 
 OCA  SZ EP        945  3.57                             128    -0.8 9  162 353 
 OCA  SZ I         945 28.59        49.2 0.05                           162 353 
 YOP  SZ EP        945  6.01                             126     0.3 9  177 154 
 YOP  SN ES   1    945 27.86                             126    -0.9 7  177 154 
 NOR  SZ EP        945 11.23                             118    -0.5 8  235 235 
 NOR  SN ES   1    945 39.19                             118    -0.3 6  235 235 
 CHI  HZ EP   3    945 13.77                             116     0.3 2  248 196 
 ROSC BZ EP   4    945 15.13                             116     1.1 0  252 212 
 ROSC BN ES   1    945 43.67                             116     0.1 6  252 212 
 ROSC BZ I         945 49.19        40.7 0.24                           252 212 
 HEL  HZ EP        945 16.14                             114    -0.2 8  273 256 
 HEL  HZ I         945 53.60        28.1 0.39                           273 256 
 VIL  SN ES   3    945 52.28                             112    -0.6 2  302 192 
 GUY  SZ EP   3    945 20.96                             112     1.1 2  304 236 
 DBB  SZ EP   1    945 23.20                             109    -0.5 5  341 275 
 TOL  SZ EP        945 25.18                             109     0.9 7  344 225 
 MON  HZ EP   4    945 22.52                             108    -2.8 0  356 308 
 SJA  SZ EP   3    945 30.12                             106    -0.3 1  399 193 
 SJA  SZ I         946 22.44        26.6 0.00                           399 193 
                                                                                
