 2016 1223 0011 52.9 L   6.340 -73.621105.9  RSN 10 0.3 2.0LRSN                1
 GAP= 70        0.74       2.4     2.2  4.7 -0.1953E+00  0.3379E+01  0.1714E+01E
 Epicentro: SANTA HELENA DEL OPON - SANTANDER                                  3
 ACTION:UPD 17-01-11 20:17 OP:rebc STATUS:               ID:20161223001152 L   I
 OLDACT:UP  16-12-23 13:57 OP:cog  STATUS:               ID:20161223000745     3
 OLDACT:REG 16-12-23 12:36 OP:y    STATUS:               ID:20161223000745     3
 2016-12-23-0008-00M.COL___393                                                 6
 STAT SP IPHASW D HRMM SECON CODA AMPLIT PERI AZIMU VELO AIN AR TRES W  DIS CAZ7
 BAR2 EZ IP     C  012  9.67                             150    0.4110 56.0  60 
 BAR2 EZ ES        012 21.94                             150   -0.0710 56.0  60 
 RUS  HZ EP        012 11.00                             141   -0.1010 77.4 130 
 RUS  HN ES        012 25.27                             141    0.0010 77.4 130 
 RUS  HZ I         012 26.84        29.2 0.20            146           77.4 130 
 BRR  HZ EP        012 11.19                             138    0.1510 85.5 353 
 BRR  HE ES        012 25.44                             138    0.2610 85.5 353 
 BRR  HZ I         012 32.90        20.5 0.28            139           85.5 353 
 PTB  HZ IP        012 11.40                             135   -0.4710 95.0 284 
 PTB  HN ES        012 26.52                             135   -0.1310 95.0 284 
 PTB  HZ I         012 28.71        35.5 0.16            136           95.0 284 
 PAM  EZ EP        012 17.64                             121   -0.23 9  150  43 
 PAM  EN ES        012 37.16                             121   -0.17 9  150  43 
 PAM  EZ I         012 42.63        12.6 0.24            124            150  43 
 NOR  HZ EP        012 19.14                             118    0.53 9  163 238 
 NOR  HE ES        012 38.64                             118   -0.01 9  163 238 
 NOR  HZ I         012 41.40        16.9 0.26            121            163 238 
 ROSC BZ EP   4    011 52.41                             115   -28.9 0  183 205 
 ROSC BN ES   4    012 44.51                             115    1.14 0  183 205 
 ZAR  HZ EP        012 21.21                             114    0.00 9  187 313 
 ZAR  HN ES        012 42.93                             114   -0.34 9  187 313 
 ZAR  HZ I         012 49.27        35.6 0.28            116            187 313 
 CHI  HZ EP        012 21.85                             114   -0.16 9  189 184 
 CHI  HN ES   3    012 43.01                             114   -1.69 2  189 184 
 CHI  HZ I         012 50.12         6.1 0.58            117            189 184 
 TAM  HN ES   4    012 44.76                             112   -1.75 0  203  87 
 GUY2CHZ EP   4    012 27.84                             109    1.25 0  229 238 
 GUY2CHN ES   4    012 53.42                             109    0.58 0  229 238 
 GUY2CHZ I         013  0.89         9.6 0.58                           229 238 
 ELA  HZ EP   4    012 32.51                             107    2.73 0  256 230 
 ELA  HN ES   4    013  0.30                             107    1.77 0  256 230 
 CBOC HZ EP        012 31.49                             105    0.55 8  270 259 
 CBOC HE ES   4    012 58.64                             105   -1.96 0  270 259 
 CBOC HZ I         013  4.34         3.1 0.22            108            270 259 
                                                                                
