 2011 1223 0239 57.3 L   7.408 -73.208127.4  RSN 12 0.3 2.3LRSN                1
 GAP=110        0.53       2.1     2.8  3.2 -0.1735E+01  0.2816E+01 -0.2201E+00E
 Epicentro: EL PLAYON - SANTANDER                                              3
 ACTION:UPD 12-07-13 16:17 OP:ep   STATUS:               ID:20111223023957 L   I
 2011-12-23-0240-00M.COL___188                                                 6
 STAT SP IPHASW D HRMM SECON CODA AMPLIT PERI AZIMU VELO AIN AR TRES W  DIS CAZ7
 GIR2 SZ EP        240 14.98                             163   -0.0210 36.4 177 
 PAM  SZ EP        240 16.43                             155    0.0310 56.6  98 
 PAM  SN ES        240 31.15                             155   -0.1210 56.6  98 
 BRR  HZ EP        240 16.17                             151    0.0310 64.8 239 
 BRR  HN ES        240 30.91                             151    0.1010 64.8 239 
 BRR  HZ I         240 32.43        65.4 0.09                          64.8 239 
 BAR2 SZ EP        240 18.08                             143   -0.1010 90.3 178 
 BAR2 SZ ES   1    240 34.66                             143    0.22 7 90.3 178 
 BAR2 SZ I         240 36.08        22.0 0.27                          90.3 178 
 OCA  SZ EP        240 18.10                             142   -0.1510 92.7 352 
 OCA  SZ ES   1    240 34.95                             142    0.40 7 92.7 352 
 OCA  SZ I         240 37.07        45.6 0.23                          92.7 352 
 PTB  HE ES   1    240 46.15                             124   -0.23 7  168 235 
 RUS  HZ EP   2    240 24.98                             124   -0.54 5  168 175 
 RUS  HN ES   2    240 47.17                             124   -0.34 5  168 175 
 PTB  HZ EP        240 24.72                             124   -0.17 9  168 235 
 NOR  SZ EP   1    240 36.46                             111   -0.10 6  275 222 
 NOR  SN ES   1    241  7.07                             111   -0.09 6  275 222 
 COD  HZ EP        240 37.09                             110   -0.10 7  281 355 
 COD  HZ I         241 10.71        17.6 0.47                           281 355 
 HEL  HZ EP   1    240 38.66                             109   -0.04 5  290 242 
 HEL  HZ I         241 19.07        10.9 0.31                           290 242 
 CHI  HZ EP   1    240 42.25                             108    0.84 5  313 191 
 CHI  HE ES   2    241 15.97                             108    0.18 3  313 191 
 CHI  HZ I         241 23.20         4.6 0.53                           313 191 
 RREF HZ EP   1    240 48.64                             105    0.87 5  365 221 
 RREF HZ I         241 34.77         7.1 0.37                           365 221 
                                                                                
