 2012  823 0855  8.0 L   6.748 -73.126147.2  RSN  4 0.3 1.5LRSN                1
 GAP=141        0.63       4.6     4.4  7.4 -0.2237E+01  0.3120E+01  0.3899E+01E
 Epicentro: LOS SANTOS - SANTANDER                                             3
 ACTION:UPD 12-09-10 11:57 OP:ep   STATUS:               ID:20120823085508 L   I
 2012-08-23-0850-00M.COL___217                                                 6
 STAT SP IPHASW D HRMM SECON CODA AMPLIT PERI AZIMU VELO AIN AR TRES W  DIS CAZ7
 BRR  HZ EP   1    855 29.57                             151   -0.01 7 76.0 302 
 BRR  HZ I         855 43.72        11.3 0.30                          76.0 302 
 BRR  HN ES   1    855 46.98                             151    0.56 7 76.0 302 
 PAM  SZ EP   1    855 30.60                             150    0.03 7 80.6  36 
 PAM  SZ I         855 30.85         4.8 0.18                          80.6  36 
 PAM  SN ES   1    855 47.82                             150   -0.35 7 80.6  36 
 RUS  HZ EP   1    855 31.71                             146    0.22 7 94.7 177 
 RUS  HN ES   1    855 49.78                             146   -0.02 7 94.7 177 
 PTB  HZ EP   1    855 35.19                             132    0.00 7  149 261 
 PTB  HN ES   1    855 55.91                             132   -0.49 7  149 261 
 PTB  HZ I         856  1.68         2.5 0.28                           149 261 
                                                                                
