 2012  623 0513 29.8 L   7.462 -73.365112.0  RSN  4 0.3 1.5LRSN                1
 GAP=257        0.48      13.7     9.9 10.0  0.9997E+02 -0.5041E+02 -0.9290E+02E
 Epicentro: EL PLAYON - SANTANDER                                              3
 ACTION:UPD 12-08-06 17:51 OP:ep   STATUS:               ID:20120623051329 L   I
 2012-06-23-0510-00M.COL___199                                                 6
 STAT SP IPHASW D HRMM SECON CODA AMPLIT PERI AZIMU VELO AIN AR TRES W  DIS CAZ7
 BRR  HZ EP        513 46.40                             152   -0.0210 54.8 224 
 BRR  HN ES   1    513 59.49                             152    0.15 7 54.8 224 
 BRR  HZ I         514  0.40         8.2 0.12                          54.8 224 
 BAR2 SZ EP   2    513 50.37                             136    0.47 5 98.2 168 
 BAR2 SZ ES   2    514  5.02                             136   -0.53 5 98.2 168 
 PTB  HE ES   3    514 15.68                             121    0.44 2  158 230 
 ZAR  HZ EP   2    513 55.81                             120   -0.25 5  165 271 
 ZAR  HN ES   3    514 16.09                             120   -0.43 2  165 271 
                                                                                
