 2013 1123 0737 12.0 L   6.369 -73.610109.3  RSN  7 0.4 1.4LRSN                1
 GAP=110        0.85       4.7     4.1  8.3  0.3709E+00  0.8573E+01 -0.1069E+02E
 Epicentro: SANTA HELENA DEL OPON - SANTANDER                                  3
 ACTION:UPD 14-01-09 16:30 OP:ep   STATUS:               ID:20131123073712 L   I
 OLDACT:UP  13-11-23 11:56 OP:mh   STATUS:               ID:20131123073000     3
 OLDACT:REG 13-11-23 07:52 OP:mh   STATUS:               ID:20131123073000     3
 2013-11-23-0730-00M.COL___282                                                 6
 STAT SP IPHASW D HRMM SECON CODA AMPLIT PERI AZIMU VELO AIN AR TRES W  DIS CAZ7
 BAR2 SZ EP        737 29.00                             152    0.4110 53.3  62 
 RUS  HN ES        737 44.80                             142   -0.3210 78.6 132 
 SPBC HZ EP        737 31.28                             136   -0.0610 94.4 213 
 SPBC HN ES        737 46.84                             136    0.4610 94.4 213 
 SPBC HZ I         737 51.98         5.6 0.16            137           94.4 213 
 PTB  HZ EP        737 31.10                             136   -0.2310 95.5 281 
 PTB  HN ES   1    737 45.88                             136   -0.50 7 95.5 281 
 PTB  HZ I         737 48.94        11.1 0.12            135           95.5 281 
 NOR  HZ EP   1    737 37.74                             119   -0.49 7  165 237 
 NOR  HN ES   1    737 58.87                             119    0.21 7  165 237 
 NOR  HZ I         738  1.51         5.9 0.08            120            165 237 
 ZAR  HZ EP   1    737 40.97                             116    0.60 7  186 312 
 ZAR  HN ES   4    738  4.17                             116    1.72 0  186 312 
 ZAR  HZ I         738  8.52         2.7 0.11            117            186 312 
 CHI  HZ EP   1    737 41.25                             115   -0.43 7  193 184 
 CHI  HN ES   2    738  5.19                             115    0.40 4  193 184 
 CHI  HZ I         738  8.86         0.8 0.18            117            193 184 
 GUY2CHZ EP   4    737 44.57                             110   -1.60 0  232 237 
 GUY2CHN ES   4    738 14.22                             110    1.43 0  232 237 
                                                                                
