 2016  123 0142 46.8 L   6.801 -73.125147.5  RSN 12 0.4 2.0LRSN                1
 GAP=139        0.81       2.5     3.2  6.6 -0.1615E+01  0.7532E+01  0.2843E+01E
 Epicentro: LOS SANTOS - SANTANDER                                             3
 ACTION:UPD 16-03-09 23:27 OP:cam  STATUS:               ID:20160123014246 L   I
 OLDACT:UP  16-02-23 20:54 OP:AR   STATUS:               ID:20160123014246 L   3
 OLDACT:UP  16-01-23 14:08 OP:mh   STATUS:               ID:20160123013745     3
 OLDACT:UP  16-01-23 14:07 OP:mh   STATUS:               ID:20160123013745     3
 OLDACT:REG 16-01-23 12:33 OP:mh   STATUS:               ID:20160123013745     3
 2016-01-23-0137-45M.COL___321                                                 6
 STAT SP IPHASW D HRMM SECON CODA AMPLIT PERI AZIMU VELO AIN AR TRES W  DIS CAZ7
 BAR2 EZ EP        143  6.68                             170    0.0610 23.9 195 
 BAR2 EZ I         143 23.96        12.4 0.26            170           23.9 195 
 PAM  EZ EP        143  9.52                             151    0.4410 75.9  38 
 PAM  EN ES        143 26.82                             151    0.3310 75.9  38 
 PAM  EZ I         143 28.99        21.9 0.58            154           75.9  38 
 RUS  HZ EP     C  143 10.71                             144    0.0210  101 177 
 RUS  HN ES        143 29.08                             144   -0.2810  101 177 
 RUS  HZ I         143 32.31         6.7 0.42            146            101 177 
 PTB  HZ EP   1    143 13.36                             132   -0.73 7  150 259 
 PTB  HN ES        143 34.97                             132   -0.42 9  150 259 
 PTB  HZ I         143 41.69        19.9 0.42            133            150 259 
 OCA  HE ES        143 37.00                             130   -0.43 9  160 352 
 OCA  HZ I         143 41.46        18.6 0.11            132            160 352 
 SPBC HZ EP   1    143 15.69                             129    0.14 7  165 220 
 SPBC HN ES        143 38.04                             129    0.04 9  165 220 
 SPBC HZ I         143 45.72        13.7 0.38            130            165 220 
 ZAR  HZ EP   1    143 19.21                             122   -0.33 6  206 292 
 ZAR  HE ES        143 45.40                             122    0.30 8  206 292 
 ZAR  HZ I         143 51.55        20.3 0.28            124            206 292 
 NOR  HZ EP   1    143 22.70                             119   -0.11 6  237 235 
 NOR  HN ES        143 50.56                             119   -0.36 8  237 235 
 NOR  HZ I         143 58.21         9.1 0.26            120            237 235 
 CHI  HZ EP   1    143 24.36                             117   -0.28 6  249 196 
 CHI  HN ES        143 53.90                             117   -0.29 8  249 196 
 CHI  HZ I         144  1.77         5.5 0.30            119            249 196 
 ROSC BZ EP   4    143 27.24                             117    2.11 0  254 211 
 ROSC BN ES        143 55.60                             117    0.56 8  254 211 
 HEL  HN ES        143 59.32                             115    0.37 8  274 256 
 HEL  HZ I         144  5.64         6.9 0.28            116            274 256 
 GUY2CHZ EP   1    143 30.64                             112   -0.04 5  303 235 
 GUY2CHE ES        144  5.61                             112    0.68 7  303 235 
 GUY2CHZ I         144 11.39         5.1 0.30                           303 235 
                                                                                
