 2011  123 0806 11.1 L   6.800 -73.060136.0  RSN  5 0.5 1.3LRSN                1
 GAP=192        0.78       4.8    13.1 10.7 -0.1037E+02  0.3307E+02 -0.1324E+02E
 Epicentro: LOS SANTOS - SANTANDER                                             3
 ACTION:UP  11-02-08 08:42 OP:pat  STATUS:               ID:20110123080611 L   I
 2011-01-23-0804-09S.COL___138                                                 6
 STAT SP IPHASW D HRMM SECON CODA AMPLIT PERI AZIMU VELO SNR AR TRES W  DIS CAZ7
 BAR2 SZ EP   1    8 6 29.54                             168    -0.1 7   27 211 
 BAR2 SZ I         8 6 29.96         6.0 0.14                            27 211 
 BAR2 SZ ES   2    8 6 43.48                             168    -0.6 5   27 211 
 RUS  HZ EP   1    8 6 33.62                             142    -0.2 7  100 181 
 RUS  HE ES   1    8 6 51.97                             142     0.3 7  100 181 
 RUS  HZ I         8 6 54.37         2.1 0.35                           100 181 
 OCA  SZ EP   1    8 6 38.65                             127    -0.1 7  162 350 
 OCA  SZ ES   2    8 7  1.22                             127     0.8 5  162 350 
 OCA  SZ I         8 7  4.32         3.9 0.34                           162 350 
 NOR  SE ES   2    8 7 14.98                             116    -0.3 4  243 236 
 CHI  HZ EP   2    8 6 48.11                             115    -0.4 4  251 197 
 CHI  HN ES   2    8 7 18.67                             115     0.9 4  251 197 
 CHI  HZ I         8 7 21.54         1.0 0.35                           251 197 
                                                                                
