 2014 1123 0152 23.2 L   6.677 -73.228148.0  RSN  4 0.2 1.2LRSN                1
 GAP=200        0.47       3.7     3.4  3.8  0.6075E+01  0.1852E+01  0.8039E+00E
 Epicentro: BARICHARA - SANTANDER                                              3
 ACTION:UPD 14-12-19 15:46 OP:nd   STATUS:               ID:20141123015223 L   I
 OLDACT:DUP 14-11-23 15:16 OP:stll STATUS:               ID:20141123014748d    3
 2014-11-23-0147-47M.COL___297                                                 6
 STAT SP IPHASW D HRMM SECON CODA AMPLIT PERI AZIMU VELO AIN AR TRES W  DIS CAZ7
 BAR2 SZ EP        152 42.69                             176   -0.2610 10.6 152 
 BAR2 SZ ES        152 58.36                             176    0.0410 10.6 152 
 BRR  HZ EP        152 44.53                             153   -0.1210 71.6 312 
 BRR  HN ES        153  1.50                             153    0.1510 71.6 312 
 BRR  HZ I         153  5.88         5.0 0.22            153           71.6 312 
 RUS  HZ EP        152 46.56                             148    0.2010 88.2 170 
 RUS  HN ES        153  4.35                             148   -0.0410 88.2 170 
 RUS  HZ I         153  5.99         1.9 0.50            152           88.2 170 
 PTB  HZ EP        152 49.58                             135    0.17 9  137 264 
 PTB  HN ES        153  9.69                             135   -0.14 9  137 264 
                                                                                
