 2014  623 0337 44.1 L   6.752 -73.069138.9  RSN  8 0.5 1.4LRSN                1
 GAP=191        1.11       3.8     6.6  7.6  0.5599E+00  0.5469E+01 -0.4880E+01E
 Epicentro: LOS SANTOS - SANTANDER                                             3
 ACTION:UPD 14-07-01 22:55 OP:nd   STATUS:               ID:20140623033744 L   I
 OLDACT:DUP 14-06-23 16:58 OP:spq  STATUS:               ID:20140623032819d    3
 OLDACT:REG 14-06-23 13:10 OP:spq  STATUS:               ID:20140623032818     3
 2014-06-23-0328-18M.COL___259                                                 6
 STAT SP IPHASW D HRMM SECON CODA AMPLIT PERI AZIMU VELO AIN AR TRES W  DIS CAZ7
 BAR2 SZ EP        338  3.65                             171    0.7910 21.7 215 
 BAR2 SZ ES        338 16.99                             171   -0.5210 21.7 215 
 BAR2 SZ I         338 20.36         4.4 0.22            168           21.7 215 
 BRR  HZ IP     C  338  5.54                             148    0.4210 81.2 299 
 BRR  HN ES        338 21.99                             148    0.4610 81.2 299 
 BRR  HZ I         338 28.32         4.7 0.27            147           81.2 299 
 RUS  HZ EP   1    338  7.40                             144    0.63 7 95.1 181 
 RUS  HN ES   1    338 24.09                             144   -0.37 7 95.1 181 
 RUS  HZ I         338 27.27         2.5 0.32            147           95.1 181 
 PTB  HZ EP        338 10.53                             129   -0.68 9  155 261 
 PTB  HN ES        338 32.50                             129    0.14 9  155 261 
 PTB  HZ I         338 34.92         2.6 0.14            130            155 261 
 SPBC HZ EP        338 11.83                             127   -0.39 9  165 222 
 SPBC HE ES        338 34.01                             127   -0.15 9  165 222 
 SPBC HZ I         338 40.99         4.1 0.18            129            165 222 
 OCA  HN ES        338 34.30                             127   -0.36 9  167 350 
 OCA  HZ I         338 36.96         1.9 0.14            129            167 350 
 ZAR  HE ES   1    338 43.24                             119    0.32 6  214 293 
 ZAR  HZ I         338 48.68         4.1 0.30            121            214 293 
 SML  HZ EP        338 21.17                             115   -0.10 8  252 334 
 SML  HE ES        338 50.01                             115   -0.26 8  252 334 
 SML  HZ I         338 55.99         4.2 0.08            117            252 334 
                                                                                
