 2013  723 0427 10.4 L   6.752 -73.179159.6  RSN  4 0.2 1.1LRSN                1
 GAP=197        0.45       3.1     4.8  4.5  0.6219E+01 -0.3421E+01 -0.3154E+01E
 Epicentro: VILLANUEVA - SANTANDER                                             3
 ACTION:UPD 13-08-12 10:39 OP:ep   STATUS:               ID:20130723042000 L   I
 OLDACT:UP  13-07-23 10:29 OP:cam  STATUS:               ID:20130723042000 L   3
 OLDACT:UPD 13-07-23 09:12 OP:stll STATUS:               ID:20130723042000 L   3
 2013-07-23-0420-00M.COL___263                                                 6
 STAT SP IPHASW D HRMM SECON CODA AMPLIT PERI AZIMU VELO AIN AR TRES W  DIS CAZ7
 BRR  HZ EP   1    427 32.78                             155   -0.24 7 70.8 304 
 BRR  HN ES        427 50.81                             155    0.1310 70.8 304 
 RUS  HZ EP   1    427 35.36                             148    0.17 7 95.6 174 
 RUS  HN ES   1    427 54.39                             148   -0.15 7 95.6 174 
 RUS  HZ I         427 56.48         1.2 0.48            147           95.6 174 
 PTB  HZ EP        427 38.33                             136    0.21 9  143 261 
 PTB  HN ES   1    427 59.54                             136   -0.22 7  143 261 
 PTB  HZ I         428  1.55         2.2 0.16            136            143 261 
 SML  HZ EP   1    427 47.92                             120   -0.25 6  247 337 
 SML  HE ES   1    428 17.68                             120    0.03 6  247 337 
                                                                                
