 2016 1223 0452 27.7 L   7.435 -73.198131.9  RSN  9 0.5 1.8LRSN                1
 GAP=189        1.29       6.1     4.4  7.9  0.4193E+01  0.9085E+01  0.8434E+01E
 Epicentro: EL PLAYON - SANTANDER                                              3
 ACTION:UPD 17-01-11 20:18 OP:rebc STATUS:               ID:20161223045227 L   I
 OLDACT:DUP 16-12-23 18:25 OP:cog  STATUS:               ID:20161223044741d    3
 2016-12-23-0448-00M.COL___381                                                 6
 STAT SP IPHASW D HRMM SECON CODA AMPLIT PERI AZIMU VELO AIN AR TRES W  DIS CAZ7
 PAM  EZ EP        452 47.44                             156    0.1510 56.1 101 
 PAM  EN ES        453  2.74                             156    0.2110 56.1 101 
 PAM  EZ I         453  5.92        16.6 0.38            156           56.1 101 
 BRR  HZ EP        452 47.21                             151    0.0310 67.3 237 
 BRR  HN ES        453  2.31                             151   -0.0310 67.3 237 
 BRR  HZ I         453  3.28        27.6 0.12            150           67.3 237 
 BAR2 EZ EP        452 49.29                             143    0.0410 93.2 179 
 BAR2 EZ ES        453  6.22                             143    0.1910 93.2 179 
 PTB  HZ EP        452 55.74                             124   -0.13 9  171 235 
 PTB  HN ES        453 17.90                             124    0.09 9  171 235 
 PTB  HZ I         453 20.50         8.6 0.09            125            171 235 
 RUS  HZ EP        452 56.60                             125    0.06 9  171 176 
 RUS  HE ES        453 17.73                             125   -1.27 9  171 176 
 RUS  HZ I         453 25.92         2.3 0.20            125            171 176 
 ZAR  HZ EP        452 55.82                             122   -1.33 9  183 272 
 ZAR  HE ES        453 20.71                             122    0.63 9  183 272 
 TAM  HE ES        453 21.52                             121   -0.03 9  191 125 
 NOR  HZ EP        453  8.14                             111    0.64 7  277 222 
 NOR  HE ES        453 38.44                             111   -0.07 7  277 222 
 NOR  HZ I         453 45.43         4.3 0.48            112            277 222 
 CHI  HZ EP        453 13.08                             108    0.72 7  316 191 
 CHI  HN ES        453 47.84                             108    0.68 7  316 191 
 GUY2CHZ EP   4    453 17.26                             107    1.73 0  342 225 
 GUY2CHN ES   4    453 51.45                             107   -1.34 0  342 225 
                                                                                
