 2010  923 0302 15.8 L   6.846 -73.070147.9  RSN  4 0.1 1.3LRSN                1
 GAP=249        0.36       7.7    14.7  7.2  0.9175E+02 -0.5972E+02 -0.2523E+02E
 Epicentro: LOS SANTOS - SANTANDER                                             3
 ACTION:UP  11-02-18 11:04 OP:tino STATUS:               ID:20100923030215 L   I
 2010-09-23-0258-52S.COL___122                                                 6
 STAT SP IPHASW D HRMM SECON CODA AMPLIT PERI AZIMU VELO SNR AR TRES W  DIS CAZ7
 BTL  SZ EP   1    3 2 35.88                             171     0.2 7   23 290 
 BAR2 SZ EP   2    3 2 35.70                             168    -0.2 5   31 204 
 BAR2 SZ ES   2    3 2 51.35                             168    -0.2 5   31 204 
 BAR2 SZ I         3 2 53.09         3.8 0.35                            31 204 
 BRR  HZ EP   2    3 2 37.30                             151    -0.2 5   77 292 
 BRR  HN ES   2    3 2 54.49                             151     0.1 5   77 292 
 BRR  HZ I         3 2 58.29         6.6 0.43                            77 292 
 RUS  HZ EP   1    3 2 40.13                             143     0.0 7  105 181 
 RUS  HN ES   2    3 2 59.16                             143     0.1 5  105 181 
 RUS  HZ I         3 2 59.61         2.0 0.45                           105 181 
                                                                                
