 2016 1223 0918 52.3 L   6.780 -73.171138.8  RSN  4 0.3 0.9LRSN                1
 GAP=241        0.72       6.8     5.3  6.4  0.2316E+02  0.2880E+01 -0.1263E+02E
 Epicentro: LOS SANTOS - SANTANDER                                             3
 ACTION:UPD 17-01-11 20:18 OP:rebc STATUS:               ID:20161223091852 L   I
 OLDACT:DUP 16-12-23 16:56 OP:cog  STATUS:               ID:20161223091745d    3
 2016-12-23-0918-00M.COL___378                                                 6
 STAT SP IPHASW D HRMM SECON CODA AMPLIT PERI AZIMU VELO AIN AR TRES W  DIS CAZ7
 BAR2 EZ EP        919 11.20                             171    0.1610 20.7 184 
 BAR2 EZ ES        919 25.65                             171   -0.0010 20.7 184 
 BAR2 EZ I         919 27.32         4.7 0.32            166           20.7 184 
 RUS  HZ EP        919 15.63                             143    0.4110 98.6 174 
 RUS  HN ES        919 32.72                             143   -0.3810 98.6 174 
 RUS  HZ I         919 34.43         1.0 0.34            142           98.6 174 
 PTB  HZ EP        919 18.10                             131   -0.32 9  145 259 
 PTB  HN ES        919 39.11                             131    0.33 9  145 259 
 PTB  HZ I         919 44.62         0.8 0.33            130            145 259 
 ZAR  HZ EP        919 23.93                             121   -0.19 9  202 293 
 ZAR  HN ES        919 48.87                             121   -0.07 9  202 293 
                                                                                
