 2017  223 0840 32.1 L   6.767 -73.157147.0  RSN  5 0.3 1.3LRSN                1
 GAP=137        0.76       4.1     3.9  5.5 -0.1481E+01  0.2592E+01  0.8663E+00E
 Epicentro: LOS SANTOS - SANTANDER                                             3
 ACTION:UPD 17-05-24 15:39 OP:jn   STATUS:               ID:20170223084032 L   I
 OLDACT:REG 17-02-23 13:47 OP:edw  STATUS:               ID:20170223083229     3
 2017-02-23-0838-00M.COL___367                                                 6
 STAT SP IPHASW D HRMM SECON CODA AMPLIT PERI AZIMU VELO AIN AR TRES W  DIS CAZ7
 BAR2 EZ EP        840 51.77                             172   -0.0610 19.5 188 
 BAR2 EZ ES        841  6.96                             172   -0.2410 19.5 188 
 BAR2 EZ I         841  8.39         9.3 0.26            172           19.5 188 
 BRR  HZ EP        840 53.67                             152    0.2310 72.0 302 
 BRR  HN ES        841 10.63                             152    0.5610 72.0 302 
 BRR  HZ I         841 14.66         4.9 0.26            151           72.0 302 
 PAM  EZ EP        840 54.72                             150    0.0410 81.0  39 
 PAM  EE ES        841 11.97                             150   -0.3110 81.0  39 
 PAM  EZ I         841 15.07         2.3 0.46            153           81.0  39 
 RUS  HZ EP        840 55.78                             145    0.0410 97.0 175 
 RUS  HE ES        841 14.38                             145    0.2210 97.0 175 
 RUS  HZ I         841 15.70         2.6 0.32            149           97.0 175 
 PTB  HZ EP        840 58.92                             133   -0.10 9  146 260 
 PTB  HN ES        841 19.54                             133   -0.45 9  146 260 
 PTB  HZ I         841 26.68         1.8 0.24            133            146 260 
                                                                                
