 2017  323 0145 46.8 L   6.779 -73.206145.5  RSN  5 0.5 1.7LRSN                1
 GAP=131        1.24       8.7     7.4  9.7 -0.3528E+02 -0.5336E+00  0.2225E+02E
 Epicentro: ZAPATOCA - SANTANDER                                               3
 ACTION:UPD 17-05-25 18:44 OP:jn   STATUS:               ID:20170323014546 L   I
 OLDACT:REG 17-03-23 12:22 OP:lv   STATUS:               ID:20170323013721     3
 2017-03-23-0138-00M.COL___391                                                 6
 STAT SP IPHASW D HRMM SECON CODA AMPLIT PERI AZIMU VELO AIN AR TRES W  DIS CAZ7
 BAR2 EZ EP        146  6.28                             171   -0.0810 20.8 173 
 BAR2 EZ ES        146 21.49                             171   -0.1210 20.8 173 
 BAR2 EZ I         146 23.91         6.0 0.41            169           20.8 173 
 BRR  HN ES        146 24.82                             154    0.8610 66.6 303 
 PAM  EZ EP        146  9.12                             149   -0.2510 83.5  42 
 PAM  EN ES        146 26.81                             149   -0.1710 83.5  42 
 PTB  HZ EP        146 13.14                             133    0.01 9  141 259 
 PTB  HN ES        146 32.71                             133   -0.95 9  141 259 
 PTB  HZ I         146 36.39         9.8 0.04            134            141 259 
 SPBC HZ EP        146 15.35                             130    0.62 9  157 218 
 SPBC HN ES        146 36.58                             130    0.08 9  157 218 
 SPBC HZ I         146 40.09         5.7 0.09            130            157 218 
                                                                                
