 2017  923 0545 59.5 L   6.781 -73.100146.1  RSN  8 0.3 2.0LRSN                1
 GAP=143        0.75       3.2     5.3  4.8 -0.3945E+01  0.5239E+01  0.5259E+01E
 Epicentro: LOS SANTOS - SANTANDER                                             3
 ACTION:UPD 17-10-05 19:15 OP:rebc STATUS:               ID:20170923054559 L   I
 OLDACT:UP  17-09-23 17:35 OP:leo  STATUS:               ID:20170923053742d    3
 OLDACT:DUP 17-09-23 17:31 OP:leo  STATUS:               ID:20170923053742d    3
 2017-09-23-0538-00M.COL___450                                                 6
 STAT SP IPHASW D HRMM SECON CODA AMPLIT PERI AZIMU VELO AIN AR TRES W  DIS CAZ7
 BAR2 EZ EP        546 19.00                             171   -0.1910 22.8 204 
 BAR2 EZ ES        546 33.99                             171   -0.5410 22.8 204 
 BAR2 EZ I         546 35.26        35.8 0.26            168           22.8 204 
 PAM  EZ EP        546 22.09                             151    0.3910 75.9  36 
 PAM  EN ES        546 39.02                             151    0.0310 75.9  36 
 PAM  EZ I         546 41.42         5.6 0.21            154           75.9  36 
 BRR  HZ IP     D  546 20.75                             151   -0.2810 76.6 298 
 BRR  HN ES        546 38.22                             151    0.4110 76.6 298 
 BRR  HZ I         546 40.95        20.7 0.36            148           76.6 298 
 RUS  HZ EP        546 22.96                             144   -0.1910 98.3 179 
 RUS  HN ES        546 41.84                             144    0.2610 98.3 179 
 NOR  HZ EP        546 35.35                             118   -0.25 8  238 236 
 NOR  HN ES   4    547  2.84                             118   -0.89 0  238 236 
 NOR  HZ I         547  8.38         6.7 0.16            118            238 236 
 CHI  HZ EP        546 37.38                             117    0.20 8  248 196 
 CHI  HN ES        547  6.78                             117    0.23 8  248 196 
 CHI  HZ I         547  8.91         4.9 0.40            118            248 196 
 GUY2CHZ EP   4    546 45.27                             112    1.78 0  304 236 
 GUY2CHN ES   4    547 22.62                             112    4.84 0  304 236 
 GUY2CHZ I         547 27.38         4.9 0.42                           304 236 
 PRA  HZ EP        546 53.00                             106   -0.15 6  393 210 
 PRA  HN ES     D  547 35.15                             106    0.18 6  393 210 
 PRA  HZ I         547 41.19         4.2 0.72            107            393 210 
                                                                                
