 2011  323 0034 24.2 L   6.799 -73.160145.8  RSN 13 0.4 3.5LRSN                1
 GAP=135        0.84       2.8     4.1  5.7 -0.1325E+01  0.8079E+01  0.4346E+01E
 Epicentro: LOS SANTOS - SANTANDER                                             3
 ACTION:UP  11-06-16 14:35 OP:jfem STATUS:               ID:20110323003424 L   I
 2011-03-23-0032-50S.COL___137                                                 6
 STAT SP IPHASW D HRMM SECON CODA AMPLIT PERI AZIMU VELO SNR AR TRES W  DIS CAZ7
 BAR2 SZ IP        034 43.86                             171     0.110   23 186 
 BAR2 SZ ES   1    034 59.31                             171     0.2 7   23 186 
 BAR2 SZ I         035  1.93       601.8 0.28                            23 186 
 GIR2 SZ IP        034 43.96                             167     0.110   31 353 
 GIR2 SZ ES   1    034 59.14                             167    -0.1 7   31 353 
 GRA  SZ EP        034 49.66                             137     0.210  126  18 
 GRA  SZ ES   1    035  9.54                             137     0.3 7  126  18 
 GRA  SZ I         035 11.67       473.0 0.28                           126  18 
 OCA  SZ EP        034 52.33                             130    -0.2 9  160 354 
 OCA  SZ ES   1    035 13.98                             130    -0.6 7  160 354 
 OCA  SZ I         035 19.40       695.7 0.37                           160 354 
 YOP  SZ IP        034 54.20                             126    -0.1 9  180 153 
 YOP  SZ I         034 55.63       187.1 0.60                           180 153 
 YOP  SN ES   1    035 17.22                             126    -0.6 7  180 153 
 NOR  SZ EP        034 59.59                             119    -0.2 8  233 234 
 NOR  SN ES   1    035 27.05                             119    -0.5 6  233 234 
 CHI  HZ EP   1    035  1.50                             117    -0.3 6  248 195 
 CHI  HN ES   1    035 31.42                             117     0.2 6  248 195 
 CHI  HZ I         035 39.07       162.3 0.29                           248 195 
 ROSC BZ EP   1    035  3.20                             117     1.0 6  252 211 
 ROSC BZ I         035 41.65       485.8 0.40                           252 211 
 HEL  HZ EP   1    035  4.52                             115     0.3 6  270 256 
 HEL  HE ES   1    035 35.65                             115     0.2 6  270 256 
 HEL  HZ I         035 44.48       193.4 0.31                           270 256 
 VIL  SZ EP   1    035  6.76                             112    -0.8 5  303 191 
 VIL  SN ES   1    035 41.88                             112     0.5 5  303 191 
 VIL  SZ I         035 51.05       133.0 0.44                           303 191 
 RREF HZ EP        035 10.66                             111     0.5 7  320 229 
 RREF HZ I         035 52.38       222.5 0.24                           320 229 
 DBB  SZ IP        035 11.74                             110     0.3 7  338 274 
 DBB  SZ ES   1    035 47.70                             110    -0.7 5  338 274 
 DBB  SZ I         036  1.44        32.2 0.51                           338 274 
 PRA  HZ EP        035 17.23                             106    -0.4 6  391 209 
 PRA  HE ES   1    035 59.15                             106    -0.1 4  391 209 
                                                                                
