 2012 1023 0517 25.5 L   6.863 -73.120146.0  RSN  7 0.4 2.4LRSN                1
 GAP=136        0.77       5.0     5.1  6.5 -0.5399E+01  0.1045E+02  0.1491E+01E
 Epicentro: LOS SANTOS - SANTANDER                                             3
 ACTION:UPD 12-11-22 17:05 OP:ep   STATUS:               ID:20121023051726dL   I
 2012-10-23-0510-00M.COL___234                                                 6
 STAT SP IPHASW D HRMM SECON CODA AMPLIT PERI AZIMU VELO AIN AR TRES W  DIS CAZ7
 GIR2 SZ EP   1    517 44.70                             170   -0.37 7 25.2 341 
 GIR2 SZ ES   2    518  0.03                             170   -0.29 5 25.2 341 
 PAM  SZ EP   1    517 47.51                             153    0.16 7 70.3  41 
 PAM  SE ES        518  4.68                             153    0.3010 70.3  41 
 PAM  SN I         518  5.49        31.3 0.43                          70.3  41 
 BRR  HZ EP   1    517 46.47                             153   -0.20 7 70.7 292 
 BRR  HZ I         517 46.87        24.7 0.13                          70.7 292 
 BRR  HN ES        518  3.46                             153    0.3010 70.7 292 
 RUS  HN ES   2    518  7.90                             142   -0.83 5  107 178 
 OCA  HZ EP   1    517 53.43                             131    0.19 7  154 352 
 OCA  HN ES        518 14.61                             131   -0.25 9  154 352 
 OCA  HN I         518 18.05        66.9 0.21                           154 352 
 ZAR  HZ EP   1    517 57.54                             122   -0.45 6  204 290 
 ZAR  HN ES   2    518 22.55                             122   -0.77 4  204 290 
 ZAR  HN I         518 30.19        21.2 0.11                           204 290 
 HEL  HZ EP   1    518  6.97                             114    0.73 6  277 255 
 HEL  HN ES   2    518 38.86                             114    0.86 4  277 255 
                                                                                
