 2011  223 0421 16.2 L   7.502 -73.046151.5  RSN  8 0.3 2.0LRSN                1
 GAP=121        0.65       5.4     5.9  6.9 -0.1423E+02  0.1156E+02  0.3567E+01E
 Epicentro: SURATA - SANTANDER                                                 3
 ACTION:UP  11-03-28 15:10 OP:jfem STATUS:               ID:20110223042116 L   I
 2011-02-23-0416-39S.COL___136                                                 6
 STAT SP IPHASW D HRMM SECON CODA AMPLIT PERI AZIMU VELO SNR AR TRES W  DIS CAZ7
 GRA  SZ EP   1    421 37.61                             161     0.4 7   50  32 
 GRA  SZ ES   1    421 53.25                             161    -0.3 7   50  32 
 GRA  SZ I         421 56.29        30.6 0.33                            50  32 
 BTL  SZ EP   1    421 38.36                             154     0.2 7   69 201 
 OCA  SZ EP   1    421 39.18                             149     0.1 7   87 340 
 OCA  SZ I         421 58.35        12.5 0.31                            87 340 
 BAR2 SZ EP   1    421 40.40                             144     0.2 7  102 189 
 BAR2 SZ ES   2    421 58.56                             144    -0.4 5  102 189 
 BAR2 SZ I         422  2.72        25.2 0.14                           102 189 
 RUS  HZ EP   1    421 46.99                             128    -0.1 7  178 181 
 RUS  HZ I         421 47.65        11.1 0.16                           178 181 
 SDV  BZ EP   1    421 59.93                             113    -0.4 5  307  60 
 HEL  HZ EP   1    422  0.91                             113     0.0 5  310 242 
 HEL  HZ I         422  4.36         1.8 0.33                           310 242 
 HEL  HN ES   1    422 36.00                             113     0.1 5  310 242 
 DBB  SZ EP   1    422  4.81                             109    -0.7 5  353 261 
                                                                                
