 2012  323 0318 29.2 L   6.512 -73.561114.0  RSN  6 0.4 1.4LRSN                1
 GAP=130        0.73       6.4     4.9 10.1  0.7165E+01  0.8189E+01 -0.4017E+01E
 ACTION:UP  12-03-31 23:21 OP:EP   STATUS:               ID:20120323031829 L   I
 2012-03-23-0310-00M.COL___202                                                 6
 STAT SP IPHASW D HRMM SECON CODA AMPLIT PERI AZIMU VELO SNR AR TRES W  DIS CAZ7
 BAR2 SZ EP        318 46.12                             158     0.310   43  78 
 BAR2 SZ ES   2    318 58.49                             158    -0.2 5   43  78 
 BAR2 SZ I         318 59.97        17.6 0.47                            43  78 
 BRR  HZ EP   2    318 46.55                             147    -0.3 5   68 346 
 BRR  HZ I         318 58.49         6.6 0.42                            68 346 
 BRR  HE ES   2    319  1.03                             147     0.5 5   68 346 
 RUS  HZ EP   2    318 49.12                             140     0.2 5   87 142 
 RUS  HN ES   2    319  4.21                             140     0.0 5   87 142 
 RUS  HZ I         319  5.95         2.2 0.53                            87 142 
 PTB  HZ EP   2    318 48.69                             136    -0.6 5   99 272 
 PTB  HE ES   2    319  4.22                             136    -0.6 5   99 272 
 PTB  HZ I         319 10.76         2.8 0.08                            99 272 
 PAM  SZ EP   2    318 52.29                             127    -0.6 5  132  46 
 PAM  SN ES   2    319 10.83                             127    -0.5 5  132  46 
 ZAR  HZ EP   2    318 57.54                             118     0.4 4  180 307 
 ZAR  HE ES   2    319 19.26                             118     0.3 4  180 307 
 ZAR  HZ I         319 22.27         5.9 0.32                           180 307 
                                                                                
