 2013  623 0547 29.5 L   6.776 -73.161150.6  RSN 11 0.5 2.0LRSN                1
 GAP=136        1.03       4.5     5.2  7.3 -0.2260E+01  0.1069E+02 -0.2661E+01E
 Epicentro: LOS SANTOS - SANTANDER                                             3
 ACTION:UPD 14-01-08 09:56 OP:ep   STATUS:               ID:20130623054729 L   I
 OLDACT:REG 13-06-23 10:23 OP:carl STATUS:               ID:20130623053959     3
 2013-06-23-0539-59M.COL___267                                                 6
 STAT SP IPHASW D HRMM SECON CODA AMPLIT PERI AZIMU VELO AIN AR TRES W  DIS CAZ7
 BAR2 SZ EP        547 49.78                             172    0.1010 20.5 187 
 BAR2 SZ ES   1    548  4.62                             172   -0.78 7 20.5 187 
 BAR2 SZ I         548  7.58        15.5 0.38            170           20.5 187 
 GIR2 SZ EP        547 49.82                             167   -0.0110 33.6 354 
 BRR  HZ EP        547 51.64                             153    0.4610 71.0 301 
 BRR  HN ES   1    548  9.11                             153    1.03 7 71.0 301 
 BRR  HZ I         548 14.73        11.0 0.22            150           71.0 301 
 PAM  SZ EP   1    547 52.61                             151    0.18 7 80.5  39 
 PAM  SN ES   1    548 10.33                             151    0.03 7 80.5  39 
 PAM  SZ I         548 11.89        17.4 0.58            156           80.5  39 
 RUS  HZ EP        547 54.12                             145    0.5510 98.1 175 
 RUS  HN ES   1    548 11.76                             145   -0.58 7 98.1 175 
 RUS  HZ I         548 13.43         9.6 0.26            151           98.1 175 
 PTB  HZ EP        547 56.22                             134   -0.47 9  146 260 
 PTB  HN ES   1    548 17.65                             134   -0.24 7  146 260 
 PTB  HZ I         548 25.19        10.7 0.34            134            146 260 
 OCA  HZ EP   1    547 58.67                             130    0.24 7  163 354 
 OCA  HE ES   4    548 20.15                             130   -0.83 0  163 354 
 OCA  HZ I         548 25.46        16.2 0.32            133            163 354 
 ZAR  HZ EP   1    548  2.02                             124   -0.20 6  204 293 
 ZAR  HE ES   1    548 27.86                             124    0.12 6  204 293 
 ZAR  HZ I         548 34.86        11.8 0.34            125            204 293 
 NOR  HZ EP   1    548  4.18                             120   -1.04 6  232 235 
 NOR  HE ES   1    548 33.40                             120    0.33 6  232 235 
 NOR  HZ I         548 39.00         9.9 0.28            122            232 235 
 SML  HZ EP   1    548  6.27                             118   -0.33 6  245 336 
 SML  HN ES   1    548 34.55                             118   -0.97 6  245 336 
 SML  HZ I         548 38.27        24.4 0.10            121            245 336 
 HEL  HZ EP   4    548 12.62                             116    2.89 0  270 256 
 HEL  HN ES   4    548 42.06                             116    0.96 0  270 256 
 GUY2CHZ EP   1    548 13.29                             113    0.26 5  298 235 
 GUY2CHN ES   2    548 47.49                             113    0.52 4  298 235 
 GUY2CHZ I         548 55.05         4.6 0.26                           298 235 
                                                                                
