 2010  523 0827 48.5 L   7.135 -73.456113.7  RSN  5 0.3 1.3LRSN                1
 GAP=214        0.47       3.2    11.1  9.1 -0.1187E+02  0.5155E+02 -0.7216E+01E
 Epicentro: SAN VICENTE DE CHUCURI - SANTANDER                                 3
 ACTION:UP  10-08-24 10:06 OP:vdl  STATUS:               ID:20100523082748 L   I
 2010-05-23-0826-09S.COL___111                                                 6
 STAT SP IPHASW D HRMM SECON CODA AMPLIT PERI AZIMU VELO SNR AR TRES W  DIS CAZ7
 BAR2 SZ EP        828  6.43                             147     0.110   67 153 
 BAR2 SZ ES   2    828 20.22                             147    -0.1 5   67 153 
 GUE  SZ EP   2    828  9.07                             137     0.4 5   97  37 
 GUE  SZ ES   2    828 24.04                             137    -0.4 5   97  37 
 BRI  SZ EP   1    828  8.30                             137    -0.2 7   97  48 
 GRA  SZ EP   2    828  9.91                             133     0.3 5  110  41 
 GRA  SZ ES   2    828 26.38                             133     0.3 5  110  41 
 OCA  SZ EP   1    828 10.64                             129    -0.2 7  123   7 
 OCA  SZ ES   2    828 28.48                             129     0.2 5  123   7 
 OCA  SZ I         828 29.26         3.6 0.29                           123   7 
                                                                                
