 2016 1123 0825  0.5 L   6.785 -73.162149.8  RSN  6 0.3 1.6LRSN                1
 GAP=146        0.80       5.2     4.4  6.0 -0.2210E+00  0.1284E+01  0.8326E+01E
 Epicentro: LOS SANTOS - SANTANDER                                             3
 ACTION:UPD 17-10-26 21:10 OP:lp   STATUS:               ID:20161123082500 L   I
 OLDACT:UP  16-11-23 17:38 OP:dani STATUS:               ID:20161123081744     3
 OLDACT:REG 16-11-23 16:58 OP:dani STATUS:               ID:20161123081744     3
 2016-11-23-0818-00M.COL___352                                                 6
 STAT SP IPHASW D HRMM SECON CODA AMPLIT PERI AZIMU VELO AIN AR TRES W  DIS CAZ7
 BAR2 EZ EP        825 20.35                             172   -0.2310 21.4 186 
 BAR2 EZ ES        825 36.10                             172   -0.1410 21.4 186 
 BAR2 EZ I         825 38.18        10.7 0.34            167           21.4 186 
 BRR  HZ EP        825 22.13                             153    0.0910 70.5 300 
 BRR  HE ES        825 39.32                             153    0.4710 70.5 300 
 BRR  HZ I         825 39.83         5.4 0.10            151           70.5 300 
 PAM  EZ EP        825 23.35                             151    0.0610 79.8  40 
 PTB  HZ EP        825 27.18                             133   -0.43 9  146 259 
 PTB  HN ES        825 48.33                             133   -0.43 9  146 259 
 PTB  HZ I         825 54.19         2.4 0.17            131            146 259 
 ZAR  HZ EP   4    825 36.04                             123    2.93 0  203 293 
 ZAR  HE ES        825 58.71                             123    0.17 9  203 293 
 ZAR  HZ I         826  3.74         2.9 0.31            123            203 293 
 PRA  HZ EP        825 54.33                             107    0.45 6  390 209 
 PRA  HN ES        826 36.17                             107    0.65 6  390 209 
 PRA  HZ I         826 42.67         1.7 0.36            107            390 209 
                                                                                
