 2012  223 0943 31.4 L   6.812 -73.172142.8  RSN  5 0.3 1.3LRSN                1
 GAP=236        0.66       6.5     6.5  6.3  0.2157E+02  0.5375E+01  0.8122E+01E
 ACTION:UP  12-03-07 16:33 OP:epov STATUS:               ID:20120223094331 L   I
 2012-02-23-0940-59S.COL___194                                                 6
 STAT SP IPHASW D HRMM SECON CODA AMPLIT PERI AZIMU VELO AIN AR TRES W  DIS CAZ7
 BAR2 SZ EP   1    943 50.64                             170   -0.03 7 24.3 183 
 BAR2 SZ ES   1    944  5.19                             170   -0.53 7 24.3 183 
 BAR2 SZ I         944  6.54         4.6 0.27                          24.3 183 
 BRR  HZ EP   1    943 52.36                             153    0.33 7 68.0 299 
 BRR  HN ES   1    944  8.44                             153    0.31 7 68.0 299 
 RUS  HZ EP   1    943 54.90                             143   -0.06 7  102 174 
 RUS  HN ES   1    944 13.68                             143    0.34 7  102 174 
 RUS  HZ I         944 15.69         3.3 0.33                           102 174 
 PTB  HZ EP   1    943 57.33                             132   -0.54 7  145 258 
 PTB  HN ES   1    944 18.55                             132    0.02 7  145 258 
 CHI  HZ EP   1    944  9.15                             116    0.18 6  249 194 
                                                                                
