 2016 1223 0832 50.9 L   6.779 -73.174152.0  RSN  4 0.5 1.3LRSN                1
 GAP=233        1.38      11.2    10.5 11.0  0.5776E+02  0.7986E+01  0.6571E+00E
 Epicentro: LOS SANTOS - SANTANDER                                             3
 ACTION:UPD 17-01-11 20:18 OP:rebc STATUS:               ID:20161223083250 L   I
 OLDACT:DUP 16-12-23 16:44 OP:cog  STATUS:               ID:20161223082746d    3
 2016-12-23-0828-00M.COL___381                                                 6
 STAT SP IPHASW D HRMM SECON CODA AMPLIT PERI AZIMU VELO AIN AR TRES W  DIS CAZ7
 BAR2 EZ EP        833 10.42                             172   -0.7910 20.7 182 
 BAR2 EZ ES        833 26.45                             172   -0.6210 20.7 182 
 BAR2 EZ I         833 29.54        12.2 0.94            168           20.7 182 
 BRR  HZ EP        833 12.78                             154    0.1610 69.6 301 
 BRR  HN ES        833 30.32                             154    0.7410 69.6 301 
 BRR  HZ I         833 31.80         3.0 0.56            152           69.6 301 
 RUS  HZ EP        833 15.42                             146    0.3110 98.5 174 
 RUS  HN ES        833 34.52                             146    0.5210 98.5 174 
 RUS  HZ I         833 35.47         2.3 0.40            146           98.5 174 
 PTB  HZ EP        833 18.22                             134    0.16 9  144 259 
 PTB  HE ES        833 38.73                             134   -0.52 9  144 259 
 PTB  HZ I         833 44.81         1.2 0.20            133            144 259 
                                                                                
