 2014  623 0946  9.4 L   6.813 -73.144146.3  RSN  5 0.3 1.4LRSN                1
 GAP=197        0.75       3.8     4.9  6.6 -0.2443E+01  0.1029E+02 -0.8828E+01E
 Epicentro: LOS SANTOS - SANTANDER                                             3
 ACTION:UPD 14-07-01 22:56 OP:nd   STATUS:               ID:20140623094609 L   I
 OLDACT:DUP 14-06-24 00:08 OP:carl STATUS:               ID:20140623093812d    3
 2014-06-23-0938-10M.COL___256                                                 6
 STAT SP IPHASW D HRMM SECON CODA AMPLIT PERI AZIMU VELO AIN AR TRES W  DIS CAZ7
 BAR2 SZ EP        946 29.47                             170    0.3410 24.8 190 
 BAR2 SZ ES        946 44.32                             170   -0.1910 24.8 190 
 BAR2 SZ I         946 45.62         3.0 0.26            172           24.8 190 
 PTB  HZ EP        946 36.02                             132   -0.43 9  148 258 
 PTB  HN ES        946 57.53                             132   -0.02 9  148 258 
 PTB  HZ I         947  0.39         3.3 0.12            133            148 258 
 OCA  HN ES        946 59.86                             130    0.22 9  159 353 
 OCA  HZ I         947  4.59         3.1 0.22            131            159 353 
 ZAR  HZ EP        946 42.13                             122    0.29 9  204 292 
 ZAR  HN ES        947  7.48                             122    0.33 9  204 292 
 ZAR  HZ I         947 13.29         1.6 0.26            123            204 292 
 SML  HZ EP        946 45.78                             118   -0.15 8  242 335 
 SML  HE ES        947 13.93                             118   -0.48 8  242 335 
 SML  HZ I         947 17.56         2.8 0.10            119            242 335 
                                                                                
