 2010  523 0056 38.0 L   6.796 -73.235136.7  RSN  5 0.3 1.7LRSN                1
 GAP=191        0.50      15.0    29.6 13.8 -0.2601E+03  0.2531E+03 -0.7816E+02E
 Epicentro: ZAPATOCA - SANTANDER                                               3
 ACTION:UP  10-08-24 10:06 OP:vdl  STATUS:               ID:20100523005638 L   I
 2010-05-23-0054-37S.COL___111                                                 6
 STAT SP IPHASW D HRMM SECON CODA AMPLIT PERI AZIMU VELO SNR AR TRES W  DIS CAZ7
 BAR2 SZ ES   3    057 11.15                             169     0.1 2   23 166 
 BRI  SZ EP   2    057  1.67                             138     0.3 5  113  25 
 BRI  SZ ES   2    057 19.45                             138    -0.2 5  113  25 
 GUE  SZ EP   2    057  1.44                             137    -0.7 5  119  17 
 GRA  SZ EP   1    057  2.94                             134     0.2 7  129  22 
 GRA  SZ ES   3    057 22.56                             134     0.5 2  129  22 
 OCA  SZ EP   2    057  5.71                             128     0.1 5  160 357 
 OCA  SZ I         057  6.86         6.5 0.33                           160 357 
                                                                                
