 2010  523 0245 14.2 L   6.861 -73.411138.5  RSN  8 0.5 2.2LRSN                1
 GAP=111        0.89       5.4     6.3 11.4 -0.1700E+02  0.1492E+02  0.1046E+02E
 Epicentro: SAN VICENTE DE CHUCURI - SANTANDER                                 3
 ACTION:UP  10-08-24 10:06 OP:vdl  STATUS:               ID:20100523024514 L   I
 2010-05-23-0242-59S.COL___111                                                 6
 STAT SP IPHASW D HRMM SECON CODA AMPLIT PERI AZIMU VELO SNR AR TRES W  DIS CAZ7
 BAR2 SZ EP        245 33.18                             163    -0.210   39 140 
 BAR2 SZ ES   2    245 48.29                             163    -0.1 5   39 140 
 BRI  SZ EP   1    245 38.80                             137     0.7 7  116  36 
 BRI  SZ ES   2    245 56.99                             137     0.3 5  116  36 
 GUE  SZ EP   2    245 37.43                             137    -1.1 5  120  27 
 GRA  SZ EP   1    245 39.00                             134    -0.3 7  132  31 
 GRA  SZ ES   2    245 58.63                             134    -0.3 5  132  31 
 OCA  SZ EP   2    245 41.91                             129     0.7 5  153   4 
 OCA  SZ ES   2    246  3.03                             129     0.7 5  153   4 
 OCA  SZ I         246  8.15        16.7 0.30                           153   4 
 HEL  HE ES        246 19.75                             116    -0.2 8  246 253 
 HEL  HZ I         246 33.57         8.8 0.39                           246 253 
 CHI  HZ EP   1    245 51.33                             115    -0.3 6  249 188 
 CHI  HZ I         245 51.85         8.8 0.23                           249 188 
 CHI  HN ES   2    246 21.62                             115     0.9 4  249 188 
 PRA  HZ EP   1    246  6.82                             105     0.2 4  384 205 
 PRA  HE ES   2    246 48.20                             105     0.7 3  384 205 
 PRA  HZ I         246 55.33         9.3 0.29                           384 205 
                                                                                
