 2016 1223 0312 42.5 L   6.510 -73.694 96.5  RSN 12 0.6 2.3LRSN                1
 GAP= 52        1.53       4.3     3.5  8.7 -0.1492E+01  0.4969E+01  0.1162E+02E
 Epicentro: SANTA HELENA DEL OPON - SANTANDER                                  3
 ACTION:UPD 17-01-11 20:17 OP:rebc STATUS:               ID:20161223031242 L   I
 OLDACT:UP  16-12-23 15:11 OP:cog  STATUS:               ID:20161223030746     3
 OLDACT:REG 16-12-23 12:50 OP:y    STATUS:               ID:20161223030746     3
 2016-12-23-0308-00M.COL___393                                                 6
 STAT SP IPHASW D HRMM SECON CODA AMPLIT PERI AZIMU VELO AIN AR TRES W  DIS CAZ7
 BAR2 HZ EP        312 58.28                             147    0.2910 57.3  81 
 BAR2 HZ ES        313 10.93                             147    0.9010 57.3  81 
 BAR2 HZ I         313 11.95       153.5 0.26            149           57.3  81 
 BRR  HZ EP        312 58.23                             143   -0.0410 66.1 358 
 BRR  HE ES        313 11.44                             143    0.9110 66.1 358 
 BRR  HZ I         313 12.41        39.9 0.16            144           66.1 358 
 PTB  HZ EP        312 58.75                             136   -1.0110 84.3 272 
 PTB  HN ES        313 11.82                             136   -1.3710 84.3 272 
 PTB  HZ I         313 12.33        72.6 0.10            135           84.3 272 
 RUS  HZ EP        313  1.25                             132   -0.2010 96.1 135 
 RUS  HN ES        313 15.89                             132   -0.3110 96.1 135 
 RUS  HZ I         313 17.36        22.2 0.32            132           96.1 135 
 PAM  EZ EP        313  6.07                             120   -0.09 9  143  50 
 PAM  EN ES        313 24.43                             120   -0.14 9  143  50 
 PAM  EZ I         313 25.78        49.9 0.20            121            143  50 
 NOR  HZ EP        313  8.02                             116   -0.17 9  167 231 
 NOR  HN ES        313 28.06                             116   -0.13 9  167 231 
 NOR  HZ I         313 31.06        23.2 0.14            116            167 231 
 ZAR  HZ EP        313  8.28                             116   -0.01 9  168 310 
 ZAR  HN ES        313 28.82                             116    0.46 9  168 310 
 ZAR  HZ I         313 31.39        26.6 0.34            116            168 310 
 TAM  HZ EP        313 13.27                             110    0.12 8  211  92 
 TAM  HE ES        313 36.12                             110   -0.89 8  211  92 
 TAM  HZ I         313 38.97        17.5 0.46            111            211  92 
 GUY2CHZ EP        313 16.35                             108    0.02 8  233 233 
 GUY2CHE ES   4    313 40.57                             108   -2.11 0  233 233 
 GUY2CHZ I         313 50.09        17.6 0.58                           233 233 
 ELA  HZ EP     C  313 20.66                             106    0.81 8  263 226 
 ELA  HE ES        313 49.91                             106    0.96 8  263 226 
 ELA  HZ I         313 55.98        10.0 0.34            106            263 226 
 VIL  EN ES        313 48.94                             106    0.33 8  265 180 
 ANIL HZ EP        313 23.54                             104    0.39 7  293 220 
 ANIL HE ES   4    313 57.50                             104    2.68 0  293 220 
 ANIL HZ I         314  1.42        32.5 0.32            104            293 220 
                                                                                
