 2012 1223 0549 34.2 L   6.878 -73.321121.7  RSN 11 0.5 1.9LRSN                1
 GAP=101        1.01       3.5     5.5  6.9 -0.4224E+00  0.1777E+02  0.9375E+00E
 Epicentro: BETULIA - SANTANDER                                                3
 ACTION:UPD 13-01-04 14:29 OP:ep   STATUS:               ID:20121223054934 L   I
 2012-12-23-0547-48M.COL___209                                                 6
 STAT SP IPHASW D HRMM SECON CODA AMPLIT PERI AZIMU VELO AIN AR TRES W  DIS CAZ7
 GIR2 SZ EP   1    549 50.92                             167    0.07 7 26.3  32 
 GIR2 SZ ES   1    550  3.45                             167   -0.40 7 26.3  32 
 GIR2 SZ I         550  5.35        21.8 0.42                          26.3  32 
 BAR2 SZ EP   1    549 51.41                             163    0.14 7 35.1 154 
 BAR2 SZ ES   1    550  4.25                             163   -0.36 7 35.1 154 
 BAR2 SZ I         550  5.74       100.8 0.30                          35.1 154 
 BRR  HZ EP     C  549 51.72                             156    0.1610 50.0 300 
 BRR  HE ES   1    550  5.69                             156    0.58 7 50.0 300 
 BRR  HZ I         550  7.40        22.6 0.15                          50.0 300 
 PAM  SZ EP   1    549 54.80                             143    0.33 7 85.6  53 
 PAM  SE ES   1    550 10.82                             143    0.52 7 85.6  53 
 PAM  SZ I         550 13.18         9.5 0.24                          85.6  53 
 RUS  HZ EP   1    549 56.35                             135   -0.26 7  112 166 
 RUS  HN ES   1    550 13.98                             135   -0.13 7  112 166 
 RUS  HZ I         550 15.04         5.0 0.28                           112 166 
 PTB  HZ EP        549 56.64                             130   -1.0310  131 253 
 PTB  HZ I         550 19.61        11.0 0.13                           131 253 
 OCA  HZ EP   1    549 59.39                             125   -0.36 7  150   0 
 OCA  HN ES   1    550 19.39                             125   -0.31 7  150   0 
 OCA  HZ I         550 23.08        14.0 0.26                           150   0 
 ZAR  HZ EP   1    550  3.55                             120    0.66 7  183 292 
 ZAR  HZ I         550 29.20         9.4 0.28                           183 292 
 SML  HZ EP   1    550  7.17                             114   -0.66 6  228 339 
 SML  HN ES   1    550 34.41                             114    0.34 6  228 339 
 CHI  HZ EP   1    550 11.35                             111    0.22 6  253 190 
 CHI  HN ES   1    550 40.55                             111    0.60 6  253 190 
 CHI  HZ I         550 45.35         2.7 0.38                           253 190 
 HEL  HZ EP   1    550 12.51                             111    1.10 6  256 253 
 HEL  HN ES   1    550 40.47                             111    0.02 6  256 253 
 HEL  HZ I         550 46.55         5.0 0.58                           256 253 
                                                                                
