 2017  623 0947 17.8 L   6.987 -73.152139.8  RSN  5 0.4 1.4LRSN                1
 GAP=258        0.90       6.6     5.7  6.7  0.6149E+01  0.1085E+02  0.4491E+01E
 Epicentro: GIRON - SANTANDER                                                  3
 ACTION:UPD 17-09-14 16:54 OP:jn   STATUS:               ID:20170623094717 L   I
 OLDACT:REG 17-06-23 13:55 OP:lv   STATUS:               ID:20170623093734     3
 2017-06-23-0938-00M.COL___365                                                 6
 STAT SP IPHASW D HRMM SECON CODA AMPLIT PERI AZIMU VELO AIN AR TRES W  DIS CAZ7
 BAR2 EZ EP        947 36.92                             162   -0.3910 43.8 184 
 BAR2 EZ ES        947 52.88                             162    0.3410 43.8 184 
 BAR2 EZ I         947 53.48         7.2 0.32            159           43.8 184 
 BRR  HZ EP        947 38.28                             154    0.4310 63.2 282 
 BRR  HN ES        947 53.29                             154   -0.2110 63.2 282 
 BRR  HZ I         947 54.61         6.4 0.46            152           63.2 282 
 PTB  HZ EP        947 44.12                             130   -0.59 9  152 251 
 PTB  HN ES        948  5.37                             130   -0.34 9  152 251 
 PTB  HZ I         948  7.00         1.7 0.10            128            152 251 
 ZAR  HZ EP   1    947 49.08                             122    0.02 6  196 287 
 ZAR  HN ES        948 13.76                             122    0.30 9  196 287 
 ZAR  HZ I         948 15.53         2.3 0.10            122            196 287 
 NOR  HZ EP        947 54.91                             116    0.42 8  247 230 
 NOR  HN ES        948 23.33                             116    0.21 8  247 230 
 NOR  HZ I         948 27.96         1.7 0.14            115            247 230 
                                                                                
