 2011  123 0317 26.5 L   6.802 -73.087146.0  RSN 17 0.4 2.6LRSN                1
 GAP=106        0.81       2.6     4.1  5.4 -0.3299E+01  0.5832E+01  0.9872E-01E
 Epicentro: LOS SANTOS - SANTANDER                                             3
 ACTION:UP  11-02-08 08:42 OP:pat  STATUS:               ID:20110123031726 L   I
 2011-01-23-0312-52S.COL___138                                                 6
 STAT SP IPHASW D HRMM SECON CODA AMPLIT PERI AZIMU VELO SNR AR TRES W  DIS CAZ7
 BTL  SZ IP        317 46.48                             170     0.310   24 303 
 BAR2 SZ IP        317 46.25                             170     0.010   26 205 
 BAR2 SZ I         317 46.52        97.8 0.18                            26 205 
 BAR2 SZ ES   1    318  1.45                             170    -0.1 7   26 205 
 GIR2 SZ EP   1    317 46.29                             167     0.0 7   33 339 
 RUS  HZ IP     D  317 50.11                             144    -0.210  101 180 
 RUS  HE ES   1    318  8.85                             144     0.0 7  101 180 
 RUS  HZ I         318  9.53        36.0 0.36                           101 180 
 GRA  SZ IP        317 52.02                             137     0.410  124  15 
 GRA  SZ ES   1    318 11.26                             137     0.1 7  124  15 
 GRA  SZ I         318 12.72       110.5 0.32                           124  15 
 OCA  SZ IP        317 54.60                             129    -0.3 9  161 351 
 OCA  SZ ES   1    318 16.65                             129    -0.4 7  161 351 
 OCA  SZ I         318 18.56        46.3 0.07                           161 351 
 YOP  SZ EP   1    317 56.79                             127     0.5 7  176 155 
 YOP  SE ES   1    318 19.71                             127     0.1 7  176 155 
 YOP  SZ I         318 22.13        24.1 0.65                           176 155 
 NOR  SZ EP   1    318  2.24                             118    -0.6 6  240 235 
 NOR  SE ES   1    318 31.00                             118    -0.2 6  240 235 
 CHI  HZ EP   1    318  4.32                             117    -0.1 6  251 197 
 CHI  HZ I         318  6.61        11.5 0.13                           251 197 
 CHI  HE ES   1    318 33.44                             117    -0.6 6  251 197 
 ROSC BZ EP   1    318  5.63                             116     0.6 6  256 212 
 ROSC BN ES   1    318 34.37                             116    -0.7 6  256 212 
 HEL  HZ EP   1    318  7.40                             114     0.0 6  278 256 
 HEL  HE ES   1    318 39.94                             114     0.6 6  278 256 
 HEL  HZ I         318 46.44        18.1 0.30                           278 256 
 VIL  SZ EP   2    318 10.30                             112     0.4 4  303 191 
 VIL  SZ I         318 49.71        12.6 0.27                           303 191 
 RREF HZ EP        318 13.39                             110     0.2 7  327 230 
 RREF HE ES   1    318 50.18                             110     0.5 5  327 230 
 RREF HZ I         318 54.48        30.9 0.41                           327 230 
 DBB  SZ EP   1    318 14.52                             109    -0.2 5  346 274 
 TOL  SZ EP   1    318 15.95                             109     0.6 5  348 225 
 SDV  BZ EP        318 15.54                             108    -0.4 6  355  50 
 SDV  BZ I         318 54.78         7.1 0.19                           355  50 
 SJA  SZ EP   2    318 20.02                             106    -1.2 3  402 194 
 SJA  SZ I         319  9.59        25.1 0.44                           402 194 
                                                                                
