 2011  323 0712 54.7 L   6.785 -73.200135.0  RSN  8 0.3 2.5LRSN                1
 GAP=132        0.69       2.6     4.9  6.2 -0.2509E+01  0.9328E+01  0.2730E+01E
 Epicentro: ZAPATOCA - SANTANDER                                               3
 ACTION:UP  11-06-16 14:35 OP:jfem STATUS:               ID:20110323071254 L   I
 2011-03-23-0710-04S.COL___137                                                 6
 STAT SP IPHASW D HRMM SECON CODA AMPLIT PERI AZIMU VELO SNR AR TRES W  DIS CAZ7
 BAR2 SZ IP        713 13.40                             170     0.410   21 175 
 BAR2 SZ ES   1    713 26.89                             170    -0.4 7   21 175 
 BAR2 SZ I         713 31.14        94.4 0.32                            21 175 
 GIR2 SZ EP   1    713 13.57                             166     0.4 7   32   1 
 GRA  SZ IP        713 19.21                             134    -0.110  129  20 
 GRA  SZ ES        713 38.71                             134     0.210  129  20 
 GRA  SZ I         713 41.61        44.1 0.33                           129  20 
 OCA  SZ EP   1    713 22.06                             127    -0.3 7  161 355 
 OCA  SZ ES   1    713 43.54                             127    -0.3 7  161 355 
 OCA  SZ I         713 48.71        70.4 0.25                           161 355 
 YOP  SZ EP   1    713 23.81                             123    -0.4 7  180 151 
 YOP  SN ES   1    713 47.00                             123    -0.1 7  180 151 
 YOP  SZ I         713 48.68        25.2 0.35                           180 151 
 NOR  SZ EP   1    713 29.33                             117     0.1 6  229 234 
 NOR  SN ES   1    713 55.93                             117    -0.2 6  229 234 
 CHI  HZ EP        713 31.38                             115    -0.1 8  246 194 
 CHI  HN ES   2    714  0.98                             115     0.8 4  246 194 
 CHI  HZ I         714  6.58        18.2 0.44                           246 194 
 DBB  SZ EP   1    713 41.20                             108     0.1 5  334 275 
                                                                                
