 2014 1123 0011 45.7 L   6.800 -73.126141.1  RSN 13 0.6 2.0LRSN                1
 GAP=139        1.44       4.1     5.1  7.3 -0.4361E+01  0.1049E+02  0.2885E+01E
 Epicentro: LOS SANTOS - SANTANDER                                             3
 ACTION:UPD 14-12-19 15:46 OP:nd   STATUS:               ID:20141123001145 L   I
 OLDACT:ARG 14-11-23 12:58 OP:stll STATUS:               ID:20141123000738     3
 2014-11-23-0007-38M.COL___297                                                 6
 STAT SP IPHASW D HRMM SECON CODA AMPLIT PERI AZIMU VELO AIN AR TRES W  DIS CAZ7
 BAR2 SZ EP        012  5.02                             170    0.2310 23.8 195 
 BAR2 SZ ES        012 19.06                             170   -0.6010 23.8 195 
 BAR2 SZ I         012 21.59        14.2 0.42            169           23.8 195 
 BRR  HZ EP        012  7.03                             151    0.5610 73.1 298 
 BRR  HN ES        012 23.50                             151    0.8510 73.1 298 
 PAM  SZ EP        012  7.76                             151    0.4110 76.1  38 
 PAM  SN ES        012 24.54                             151    0.3110 76.1  38 
 PAM  SZ I         012 27.14        10.1 0.20            154           76.1  38 
 RUS  HZ EP        012  8.77                             143   -0.2310  100 177 
 RUS  HN ES        012 27.05                             143   -0.1010  100 177 
 RUS  HZ I         012 28.77         6.4 0.38            146            100 177 
 PTB  HZ EP        012 11.74                             130   -0.76 9  150 259 
 PTB  HN ES        012 32.40                             130   -0.99 9  150 259 
 PTB  HZ I         012 38.92        13.7 0.40            130            150 259 
 OCA  HZ EP        012 14.13                             129    0.44 9  161 352 
 OCA  HN ES        012 34.78                             129   -0.73 9  161 352 
 OCA  HZ I         012 41.55        12.9 0.20            130            161 352 
 SPBC HZ EP        012 14.04                             128    0.05 9  165 220 
 SPBC HE ES        012 36.57                             128    0.53 9  165 220 
 SPBC HZ I         012 43.19        25.0 0.34            129            165 220 
 ZAR  HZ EP        012 17.87                             121   -0.20 8  206 292 
 ZAR  HN ES        012 42.83                             121   -0.47 8  206 292 
 ZAR  HZ I         012 49.48        12.3 0.24            122            206 292 
 NOR  HZ EP        012 21.01                             117   -0.35 8  236 235 
 NOR  HE ES        012 48.92                             117   -0.25 8  236 235 
 NOR  HZ I         012 52.73        10.4 0.20            118            236 235 
 CHI  HZ EP        012 22.63                             116   -0.59 8  249 196 
 CHI  HZ I         012 24.56         3.9 0.42            118            249 196 
 CHI  HN ES        012 52.07                             116   -0.40 8  249 196 
 HEL  HZ EP        012 25.65                             114   -0.27 8  274 256 
 HEL  HE ES        012 58.00                             114    0.71 8  274 256 
 HEL  HZ I         013  5.73         3.5 0.28            115            274 256 
 GUY2CHZ EP        012 30.08                             111    0.77 7  303 235 
 GUY2CHE ES        013  4.65                             111    1.34 7  303 235 
 GUY2CHZ I         013 12.22         5.6 0.28                           303 235 
 RREF HZ EP   9    012 31.42                             110   -0.42 0  323 230 
 RREF HE ES        013  8.72                                    1.32 7  323 230 
 RREF HZ I         013 13.69         6.7 0.26            111            323 230 
                                                                                
