 2016  423 0051 45.8 L   6.808 -73.174141.4  RSN  7 0.3 1.9LRSN                1
 GAP=143        0.73       4.0     3.8  5.0 -0.7998E+01  0.7727E+01 -0.1093E+01E
 Epicentro: LOS SANTOS - SANTANDER                                             3
 ACTION:UPD 16-05-05 14:23 OP:rebc STATUS:               ID:20160423005145 L   I
 OLDACT:ARG 16-04-23 12:40 OP:cara STATUS:               ID:20160423004748     3
 2016-04-23-0047-48M.COL___319                                                 6
 STAT SP IPHASW D HRMM SECON CODA AMPLIT PERI AZIMU VELO AIN AR TRES W  DIS CAZ7
 BAR2 EZ IP     C  052  4.85                             170   -0.1110 23.9 182 
 BAR2 EZ ES        052 19.60                             170   -0.2710 23.9 182 
 BAR2 EZ I         052 21.08        34.5 0.18            170           23.9 182 
 PAM  EZ IP     C  052  7.85                             150    0.1710 78.8  42 
 PAM  EN ES        052 24.97                             150    0.2610 78.8  42 
 PAM  EZ I         052 26.46         7.7 0.38            153           78.8  42 
 RUS  HZ EP        052  8.85                             143   -0.4010  102 174 
 RUS  HN ES        052 27.58                             143    0.0710  102 174 
 RUS  HZ I         052 28.40         8.6 0.20            144            102 174 
 PTB  HZ EP        052 11.96                             132   -0.23 9  145 258 
 PTB  HN ES        052 32.66                             132   -0.08 9  145 258 
 PTB  HZ I         052 34.92        12.4 0.30            132            145 258 
 SPBC HZ IP        052 13.99                             128    0.10 9  162 218 
 SPBC HN ES        052 36.30                             128    0.54 9  162 218 
 SPBC HZ I         052 40.03        13.5 0.22            129            162 218 
 NOR  HZ EP        052 20.82                             118   -0.29 8  233 234 
 NOR  HN ES        052 48.27                             118   -0.34 8  233 234 
 NOR  HZ I         052 52.72         7.9 0.60            119            233 234 
 GUY2CHZ EP        052 29.49                             112    0.47 7  299 234 
 GUY2CHN ES        053  3.09                             112    0.39 7  299 234 
 GUY2CHZ I         053 11.50         4.6 0.36                           299 234 
                                                                                
