 2010  123 0530 46.3 L   6.819 -73.031149.6  RSN  5 0.5 1.4LRSN                1
 GAP=195        0.99       5.4    26.8 10.5  0.1265E+02  0.5499E+02  0.4923E+01E
 Epicentro: CEPITA - SANTANDER                                                 3
 ACTION:UP  10-08-24 09:45 OP:vdl  STATUS:               ID:20100123053046 L   I
 2010-01-23-0528-22S.COL___095                                                 6
 STAT SP IPHASW D HRMM SECON CODA AMPLIT PERI AZIMU VELO SNR AR TRES W  DIS CAZ7
 BAR2 SZ EP        531  6.49                             168    -0.110   30 214 
 BAR2 SZ ES   1    531 21.61                             168    -0.8 7   30 214 
 RUS  BZ EP        531 10.59                             144     0.010  103 183 
 RUS  BN ES        531 30.00                             144     0.410  103 183 
 RUS  BZ I         531 30.58         3.2 0.67                           103 183 
 OCA  SZ ES   1    531 37.75                             130     0.5 7  160 349 
 CHI  HZ EP   1    531 24.26                             117    -0.6 6  254 198 
 CHI  HN ES   2    531 55.70                             117     0.8 4  254 198 
 CHI  HZ I         532  1.31         2.1 0.78                           254 198 
 PRA  HN ES   2    532 23.78                             107     0.2 3  400 211 
                                                                                
