 2013  123 0642 40.6 L   6.786 -73.168144.0  RSN  5 0.4 1.7LRSN                1
 GAP=134        1.15       6.1     5.8  8.4 -0.3280E+01  0.6007E+01  0.2282E+01E
 Epicentro: LOS SANTOS - SANTANDER                                             3
 ACTION:UPD 13-02-15 09:16 OP:ep   STATUS:               ID:20130123064240 L   I
 2013-01-23-0638-36M.COL___180                                                 6
 STAT SP IPHASW D HRMM SECON CODA AMPLIT PERI AZIMU VELO AIN AR TRES W  DIS CAZ7
 BAR2 SZ EP        642 59.77                             171   -0.2510 21.5 184 
 BAR2 SZ ES        643 14.65                             171   -0.4910 21.5 184 
 BAR2 SZ I         643 15.86         7.6 0.30            170           21.5 184 
 BRR  HZ EP        643  1.83                             153    0.3210 69.8 301 
 BRR  HN ES        643 18.67                             153    0.8710 69.8 301 
 BRR  HN I         643 19.35        35.8 0.18            151           69.8 301 
 PAM  SZ EP        643  2.83                             150    0.0010 80.2  40 
 PAM  SN ES        643 19.81                             150   -0.3410 80.2  40 
 PAM  SN I         643 21.02         9.4 0.40            153           80.2  40 
 RUS  HZ EP        643  4.43                             144    0.3210 99.2 175 
 RUS  HN ES        643 22.76                             144    0.3310 99.2 175 
 RUS  HN I         643 23.81         3.2 0.26            145           99.2 175 
 PTB  HZ EP        643  6.92                             132   -0.29 9  145 259 
 PTB  HN ES        643 27.36                             132   -0.58 9  145 259 
 PTB  HN I         643 33.14         5.6 0.42            132            145 259 
                                                                                
