 2013  423 0738 49.5 L   6.805 -73.153138.5  RSN  5 0.4 1.2LRSN                1
 GAP=135        0.77       7.1     6.7 11.8 -0.4557E+01  0.7073E+01  0.1280E+02E
 Epicentro: LOS SANTOS - SANTANDER                                             3
 ACTION:UPD 13-05-22 14:40 OP:EP   STATUS:               ID:20130423073849 L   I
 2013-04-23-0737-37M.COL___211                                                 6
 STAT SP IPHASW D HRMM SECON CODA AMPLIT PERI AZIMU VELO AIN AR TRES W  DIS CAZ7
 BAR2 SZ EP   1    739  7.87                             170   -0.36 7 23.7 188 
 BRR  HZ EP   1    739 10.24                             151    0.47 7 70.2 298 
 BRR  HN ES   2    739 25.94                             151    0.32 5 70.2 298 
 BRR  HN I         739 32.08         4.9 0.16            152           70.2 298 
 PAM  SZ EP   1    739 11.43                             149    0.51 7 77.5  40 
 PAM  SN ES   2    739 26.86                             149   -0.79 5 77.5  40 
 PAM  SN I         739 29.02         4.0 0.24            156           77.5  40 
 RUS  HZ EP   1    739 12.62                             142    0.07 7  101 176 
 RUS  HN ES   2    739 30.70                             142    0.14 5  101 176 
 RUS  HN I         739 32.76         1.2 0.32            149            101 176 
 PTB  HZ EP   1    739 15.17                             130   -0.61 7  147 259 
 PTB  HN ES   2    739 36.28                             130   -0.03 5  147 259 
 PTB  HZ I         739 39.78         2.0 0.16            134            147 259 
                                                                                
