 2013  323 0210 54.7 L   7.236 -74.117  3.9  RSN  4 0.4 1.2LRSN                1
 GAP=179        0.96       3.8     2.3  6.4  0.2333E+01  0.9931E+00  0.3962E+01E
 Epicentro: PUERTO WILCHES - SANTANDER                                         3
 ACTION:UPD 13-04-09 14:04 OP:ep   STATUS:               ID:20130323021054 L   I
 2013-03-23-0210-00M.COL___245                                                 6
 STAT SP IPHASW D HRMM SECON CODA AMPLIT PERI AZIMU VELO AIN AR TRES W  DIS CAZ7
 BRR  HZ EP        211  2.12                              47   -0.3310 47.0 108 
 BRR  HN I         211  8.07        25.2 0.22             90           47.0 108 
 BRR  HN ES        211  8.12                              47   -0.3610 47.0 108 
 PTB  HZ EP     C  211  8.32                              47   -0.0110 85.7 206 
 PTB  HN ES        211 18.61                              47   -0.3410 85.7 206 
 PTB  HN I         211 18.96         4.3 0.50             90           85.7 206 
 ZAR  HZ EP   2    211  8.58                              47    0.13 5 86.5 289 
 ZAR  HN ES        211 19.17                              47    0.0110 86.5 289 
 RUS  HZ EP        211 24.80                              37    0.77 9  188 142 
 RUS  HN ES        211 47.42                              37    0.53 9  188 142 
 RUS  HN I         211 49.04         1.9 0.32             56            188 142 
                                                                                
