 2016  923 0657 23.2 L   6.829 -73.153150.6  RSN 26 0.5 2.4LRSN                1
 GAP= 70        1.05       2.6     2.7  4.6 -0.1709E+01  0.5724E+00 -0.4598E+00E
 Epicentro: LOS SANTOS - SANTANDER                                             3
 ACTION:UPD 17-08-17 21:15 OP:lp   STATUS:               ID:20160923065723 L   I
 OLDACT:UP  16-09-23 21:32 OP:edw  STATUS:               ID:20160923064730     3
 OLDACT:UP  16-09-23 21:31 OP:edw  STATUS:               ID:20160923064730     3
 OLDACT:UP  16-09-23 21:30 OP:edw  STATUS:               ID:20160923064730     3
 OLDACT:UP  16-09-23 21:04 OP:and  STATUS:               ID:20160923064730     3
 OLDACT:UP  16-09-23 21:04 OP:and  STATUS:               ID:20160923064730     3
 OLDACT:UP  16-09-23 20:56 OP:and  STATUS:               ID:20160923064730     3
 OLDACT:UP  16-09-23 20:52 OP:and  STATUS:               ID:20160923064730     3
 OLDACT:REG 16-09-23 11:18 OP:and  STATUS:               ID:20160923064730     3
 2016-09-23-0648-00M.COL___342                                                 6
 STAT SP IPHASW D HRMM SECON CODA AMPLIT PERI AZIMU VELO AIN AR TRES W  DIS CAZ7
 BAR2 EZ IP        657 43.50                             170   -0.0210 26.4 187 
 BAR2 EZ ES        657 59.33                             170   -0.0010 26.4 187 
 BAR2 EZ I         657 59.73        90.5 0.30            167           26.4 187 
 BRR  HZ IP     C  657 45.28                             154    0.4910 68.9 297 
 BRR  HE ES        658  2.38                             154    0.7810 68.9 297 
 BRR  HZ I         658  7.23        43.5 0.14            149           68.9 297 
 PAM  EZ EP        657 46.32                             152    0.4610 75.5  42 
 PAM  EN ES        658  3.47                             152   -0.0410 75.5  42 
 PAM  EZ I         658  5.87        22.3 0.30            155           75.5  42 
 RUS  HZ EP        657 47.58                             144   -0.1210  104 176 
 RUS  HN ES        658  6.26                             144   -0.5310  104 176 
 RUS  HZ I         658  7.12        26.7 0.28            143            104 176 
 PTB  HZ EP        657 50.02                             133   -0.57 9  148 258 
 PTB  HN ES        658 11.23                             133   -0.70 9  148 258 
 PTB  HZ I         658 16.93        30.7 0.13            130            148 258 
 OCA  HZ EP        657 51.87                             131    0.24 9  157 353 
 OCA  HN ES        658 13.51                             131   -0.26 9  157 353 
 OCA  HZ I         658 17.35        53.2 0.21            130            157 353 
 TAM  HZ IP     D  657 51.93                             131    0.47 9  157 106 
 TAM  HN ES        658 13.74                             131    0.27 9  157 106 
 SPBC HZ EP        657 52.47                             130    0.17 9  165 218 
 SPBC HN ES        658 14.74                             130   -0.23 9  165 218 
 SPBC HZ I         658 16.93        45.1 0.30            128            165 218 
 ZAR  HZ EP   4    657 57.04                             124    1.24 0  202 291 
 ZAR  HE ES        658 21.50                             124    0.30 9  202 291 
 ZAR  HZ I         658 26.39        25.2 0.10            121            202 291 
 NOR  HZ EP        657 59.93                             119    0.55 8  236 234 
 NOR  HN ES        658 27.10                             119   -0.47 8  236 234 
 NOR  HZ I         658 33.24        14.8 0.22            118            236 234 
 CHI  HZ EP        658  1.87                             118    0.35 8  252 195 
 CHI  HN ES        658 31.43                             118    0.05 8  252 195 
 CHI  HZ I         658 33.36        14.7 0.36            117            252 195 
 ROSC BZ EP   9    658  4.28                             117    2.40 0  255 210 
 ROSC BN ES        658 33.98                             116   -0.44 8  255 210 
 ROSC BZ I         658 38.19        33.1 0.40            116            255 210 
 HEL  HZ EP   9    658  5.52                             116    1.82 0  272 255 
 HEL  HE ES        658 36.45                                   -0.63 8  272 255 
 HEL  HZ I         658 43.69         9.6 0.22            114            272 255 
 URE  HZ EP        658  4.17                             115   -0.16 7  282 291 
 URE  HE ES   4    658 34.86                             115   -1.52 0  282 291 
 URE  HZ I         658 44.85        21.1 0.32            113            282 291 
 SOCV BZ EP        658  6.40                             113    0.00 7  300  57 
 SOCV BN ES        658 38.49                             113   -1.57 7  300  57 
 GUY2CHZ EP   4    658  8.92                             113    1.71 0  302 234 
 GUY2CHN ES   4    658 42.89                             113    1.39 0  302 234 
 GUY2CHZ I         658 52.06         9.1 0.38                           302 234 
 VIL  EZ EP        658  7.48                             113    0.26 7  306 191 
 VIL  EN ES   4    658 41.26                             113   -0.26 0  306 191 
 VIL  EZ I         658 44.92        11.9 0.27            112            306 191 
 PTGC HZ EP   4    658  6.67                             112   -1.02 0  312 159 
 PTGC HN ES   4    658 40.12                             112   -2.24 0  312 159 
 PTGC HZ I         658 45.59         6.8 0.32            112            312 159 
 LL6C HZ EP        658  8.91                             111    0.13 7  322 358 
 LL6C HE ES        658 44.07                             111   -0.23 7  322 358 
 ELA  HN ES   4    658 52.84                             111    5.54 0  331 229 
 ELA  HZ I         658 54.73         9.4 0.42            110            331 229 
 CBOC HZ EP   4    658 12.32                             111    1.94 0  334 252 
 CBOC HE ES        658 46.62                             111   -0.53 7  334 252 
 CBOC HZ I         659  2.98         2.6 0.32            109            334 252 
 ANIL HZ EP   4    658 16.03                             109    2.60 0  359 224 
 ANIL HN ES   4    658 54.60                             109    2.02 0  359 224 
 ANIL HZ I         658 59.69        22.4 0.38            108            359 224 
 SJC  HZ EP   4    658 17.69                             106   -0.90 0  406 327 
 SJC  HN ES   4    658 58.08                             106   -3.69 0  406 327 
 SJC  HZ I         659  5.37         3.2 0.34            106            406 327 
 PAL  HZ EP   4    658 20.35                             106    1.68 0  407 239 
 PAL  HN ES        659  2.04                             106    0.13 6  407 239 
 PAL  HZ I         659  8.23         2.1 0.28            106            407 239 
 CRJC HZ EP   9    658 24.40                             104   -1.10 0  464   4 
 CRJC HN ES        659 12.48                             104   -0.48 5  464   4 
 SMAR HZ EP        658 28.87                             103    0.03 4  494 346 
 SMAR HN ES   4    659 16.41                             103   -3.60 0  494 346 
                                                                                
