 2012  723 0809  6.3 L   6.760 -73.201150.0  RSN  4 0.2 1.6LRSN                1
 GAP=228        0.63       6.2     6.0  7.6  0.1818E+02 -0.5081E+01 -0.2859E+01E
 Epicentro: VILLANUEVA - SANTANDER                                             3
 ACTION:UPD 12-08-14 11:44 OP:ep   STATUS:               ID:20120723080906 L   I
 2012-07-23-0807-45M.COL___205                                                 6
 STAT SP IPHASW D HRMM SECON CODA AMPLIT PERI AZIMU VELO AIN AR TRES W  DIS CAZ7
 BAR2 SZ EP        8 9 26.05                             173    -0.310   19 174 
 BAR2 SZ I         8 9 43.29         6.9 0.22            161             19 174 
 BRR  HZ EP        8 9 27.86                             154     0.110   68 304 
 BRR  HN ES   1    8 9 44.66                             154     0.2 7   68 304 
 BRR  HZ I         8 9 49.94         7.7 0.22            152             68 304 
 RUS  HZ EP        8 9 30.56                             146     0.310   97 172 
 RUS  HN ES   1    8 9 48.74                             146    -0.1 7   97 172 
 PTB  HZ EP        8 9 32.88                             134    -0.2 9  141 260 
 PTB  HE ES   1    8 9 53.90                             134     0.0 7  141 260 
