 2011 1123 0639 51.0 L   6.791 -73.132141.7  RSN  6 0.2 1.8LRSN                1
 GAP=139        0.38       1.9     3.0  3.4 -0.1277E+00 -0.6814E+00 -0.4613E+00E
 Epicentro: LOS SANTOS - SANTANDER                                             3
 ACTION:UPD 12-07-13 16:11 OP:ep   STATUS:               ID:20111123063951 L   I
 2011-11-23-0638-18S.COL___178                                                 6
 STAT SP IPHASW D HRMM SECON CODA AMPLIT PERI AZIMU VELO AIN AR TRES W  DIS CAZ7
 BAR2 SZ EP   1    640 10.01                             170   -0.10 7 22.7 194 
 BAR2 SZ ES   1    640 24.76                             170   -0.27 7 22.7 194 
 BAR2 SZ I         640 26.41        14.0 0.20                          22.7 194 
 BRR  HZ EP   1    640 11.79                             151    0.00 7 72.9 299 
 BRR  HZ I         640 12.38        13.1 0.14                          72.9 299 
 BRR  HN ES        640 28.07                             151    0.0410 72.9 299 
 PAM  SZ EP   1    640 12.81                             150    0.06 7 77.2  38 
 PAM  SN ES   1    640 29.61                             150   -0.13 7 77.2  38 
 RUS  HZ EP   1    640 14.30                             143    0.04 7 99.5 177 
 RUS  HN ES   1    640 32.70                             143    0.29 7 99.5 177 
 OCA  SZ EP   1    640 18.98                             128   -0.11 7  161 353 
 OCA  SZ ES   1    640 41.24                             128    0.23 7  161 353 
 OCA  SZ I         640 43.91         5.2 0.25                           161 353 
 NOR  SN ES   2    640 54.04                             117   -0.25 4  235 235 
                                                                                
