 2010  923 0858 13.6 L   6.788 -73.051147.4  RSN  7 0.3 1.8LRSN                1
 GAP=169        0.57       3.2     8.0  5.6  0.3149E+01 -0.1489E+02 -0.1512E+01E
 Epicentro: LOS SANTOS - SANTANDER                                             3
 ACTION:UP  11-02-18 11:04 OP:tino STATUS:               ID:20100923085813 L   I
 2010-09-23-0854-54S.COL___122                                                 6
 STAT SP IPHASW D HRMM SECON CODA AMPLIT PERI AZIMU VELO SNR AR TRES W  DIS CAZ7
 BAR2 SZ EP        858 33.49                             170     0.110   26 214 
 BAR2 SZ ES   1    858 48.65                             170    -0.3 7   26 214 
 BAR2 SZ I         858 50.21        19.5 0.24                            26 214 
 GIR2 SZ EP   2    858 33.54                             166     0.0 5   36 334 
 BRR  HZ IP     C  858 35.30                             150    -0.210   81 296 
 BRR  HZ I         858 35.66        19.8 0.12                            81 296 
 BRR  HE ES   1    858 52.74                             150     0.2 7   81 296 
 RUS  HZ EP   1    858 37.41                             145     0.0 7   99 182 
 RUS  HN ES   2    858 56.05                             145     0.1 5   99 182 
 RUS  HZ I         858 57.37         6.7 0.22                            99 182 
 GRA  SZ EP   1    858 39.22                             138     0.4 7  124  13 
 OCA  SZ EP   1    858 41.97                             129    -0.3 7  163 350 
 OCA  SZ ES   2    859  4.78                             129     0.1 5  163 350 
 OCA  SZ I         859 10.23         6.4 0.29                           163 350 
 CHI  HZ EP   1    858 51.26                             117    -0.3 6  250 198 
 CHI  HE ES   2    859 21.84                             117     0.7 4  250 198 
 CHI  HZ I         859 28.59         3.3 0.45                           250 198 
                                                                                
