 2015  323 0840 19.1 L   6.471 -73.785 89.7  RSN  4 0.2 0.8LRSN                1
 GAP=146        0.63       3.3     2.5  6.4  0.2685E+01  0.1516E+01  0.6537E+01E
 Epicentro: SANTA HELENA DEL OPON - SANTANDER                                  3
 ACTION:UPD 15-04-30 16:28 OP:nd   STATUS:               ID:20150323084019 L   I
 OLDACT:DUP 15-03-23 16:53 OP:stll STATUS:               ID:20150323082749d    3
 OLDACT:UP  15-03-23 16:52 OP:stll STATUS:               ID:20150323082748     3
 OLDACT:REG 15-03-23 13:11 OP:stll STATUS:               ID:20150323082748     3
 2015-03-23-0827-48M.COL___275                                                 6
 STAT SP IPHASW D HRMM SECON CODA AMPLIT PERI AZIMU VELO AIN AR TRES W  DIS CAZ7
 BAR2 EZ EP        840 34.43                             140   -0.1810 68.0  79 
 BAR2 EZ ES        840 46.89                             140    0.1510 68.0  79 
 BAR2 EZ I         840 48.46         5.1 0.22            141           68.0  79 
 BRR  HZ EP        840 34.18                             139   -0.3210 70.8   7 
 BRR  HZ I         840 34.70         1.6 0.18            142           70.8   7 
 BRR  HN ES        840 46.69                             139    0.1410 70.8   7 
 PTB  HZ EP        840 35.02                             137    0.1810 74.6 276 
 PTB  HZ I         840 35.60         1.4 0.18            140           74.6 276 
 PTB  HN ES        840 47.06                             137   -0.0910 74.6 276 
 RUS  HZ EP        840 38.20                             128    0.3510  101 129 
 RUS  HN ES        840 52.28                             128   -0.2310  101 129 
 RUS  HZ I         840 54.78         0.9 0.26            129            101 129 
                                                                                
