 2013 1023 0639 51.9 L   6.824 -73.126146.6  RSN 13 0.5 2.2LRSN                1
 GAP=138        1.28       3.2     5.4  6.5 -0.2608E+01  0.1175E+02  0.1630E+01E
 Epicentro: LOS SANTOS - SANTANDER                                             3
 ACTION:UPD 13-11-25 09:23 OP:ep   STATUS:               ID:20131023063951 L   I
 OLDACT:REG 13-10-23 08:29 OP:carl STATUS:               ID:20131023063839     3
 2013-10-23-0638-39M.COL___226                                                 6
 STAT SP IPHASW D HRMM SECON CODA AMPLIT PERI AZIMU VELO AIN AR TRES W  DIS CAZ7
 BAR2 SZ EP        640 11.87                             169    0.2210 26.4 194 
 BAR2 SZ ES        640 26.33                             169   -0.7610 26.4 194 
 BAR2 SZ I         640 27.88        52.6 0.24            170           26.4 194 
 BRR  HZ EP        640 13.58                             152    0.4510 71.9 296 
 BRR  HN ES        640 30.81                             152    1.0810 71.9 296 
 BRR  HZ I         640 31.55        16.1 0.20            152           71.9 296 
 PAM  SZ EP        640 14.63                             152    0.6810 73.9  40 
 PAM  SN ES        640 31.36                             152    0.1710 73.9  40 
 PAM  SZ I         640 33.83        29.4 0.46            153           73.9  40 
 RUS  HZ EP        640 15.92                             143    0.0510  103 177 
 RUS  HE ES        640 34.63                             143    0.0310  103 177 
 RUS  HZ I         640 35.44        18.7 0.26            144            103 177 
 PTB  HZ EP        640 18.59                             132   -0.54 9  150 258 
 PTB  HN ES   4    640 39.21                             132   -1.20 0  150 258 
 PTB  HZ I         640 41.50        13.7 0.16            132            150 258 
 OCA  HZ EP        640 19.94                             130   -0.06 9  158 352 
 OCA  HN ES        640 41.60                             130   -0.36 9  158 352 
 OCA  HZ I         640 45.01        11.4 0.18            131            158 352 
 SPBC HZ EP        640 20.43                             129   -0.31 9  167 219 
 SPBC HN ES        640 42.51                             129   -0.77 9  167 219 
 SPBC HZ I         640 45.09        23.2 0.30            129            167 219 
 ZAR  HZ EP        640 24.28                             122   -0.18 9  205 291 
 ZAR  HN ES        640 49.36                             122   -0.53 9  205 291 
 NOR  HZ EP        640 28.03                             118    0.04 8  238 234 
 NOR  HN ES        640 56.72                             118    0.54 8  238 234 
 NOR  HZ I         640 58.19        11.3 0.18            119            238 234 
 SML  HZ EP        640 28.05                             118   -0.31 8  242 335 
 SML  HN ES        640 56.20                             118   -0.64 8  242 335 
 SML  HZ I         641  0.70        16.7 0.10            118            242 335 
 CHI  HZ EP        640 29.91                             117   -0.03 8  252 195 
 CHI  HN ES        640 59.11                             117   -0.54 8  252 195 
 CHI  HZ I         641  2.68         8.2 0.52            118            252 195 
 GUY2CHZ EP        640 36.87                             112    0.99 7  305 235 
 GUY2CHN ES        641 11.28                             112    1.06 7  305 235 
 GUY2CHZ I         641 17.81         5.9 0.26                           305 235 
 PRA  HZ EP        640 45.52                             106   -0.28 6  395 210 
 PRA  HE ES        641 27.70                             106   -0.18 6  395 210 
 PRA  HZ I         641 33.97         4.4 0.58            107            395 210 
                                                                                
