 2010 1023 0046 43.3 L   6.785 -73.072145.6  RSN  4 0.2 1.5LRSN                1
 GAP=167        0.57       3.5     7.3  8.3 -0.1343E+01 -0.1958E+02 -0.1078E+01E
 Epicentro: LOS SANTOS - SANTANDER                                             3
 ACTION:UP  11-02-18 11:11 OP:tino STATUS:               ID:20101023004643 L   I
 2010-10-23-0043-29S.COL___127                                                 6
 STAT SP IPHASW D HRMM SECON CODA AMPLIT PERI AZIMU VELO SNR AR TRES W  DIS CAZ7
 BTL  SZ EP   1    047  3.46                             169     0.4 7   26 304 
 BRR  HZ EP   1    047  4.79                             150    -0.2 7   79 297 
 BRR  HN ES   1    047 21.78                             150     0.0 7   79 297 
 BRR  HZ I         047 25.26        12.9 0.51                            79 297 
 RUS  HZ EP   1    047  6.67                             144    -0.3 7   99 181 
 RUS  HN ES   1    047 25.41                             144     0.1 7   99 181 
 RUS  HZ I         047 28.44         1.7 0.36                            99 181 
 GRA  SZ EP   1    047  8.66                             137     0.1 7  125  14 
 GRA  SZ ES   1    047 28.01                             137    -0.2 7  125  14 
 GRA  SZ I         047 29.91         6.1 0.35                           125  14 
                                                                                
