 2013  923 0823 32.8 L   6.586 -73.462119.0  RSN  4 0.4 1.4LRSN                1
 GAP=179        0.72       5.9     4.6  8.8 -0.3043E+01  0.9720E+01 -0.3051E+02E
 Epicentro: EL CARMEN DE CHUCURI - SANTANDER                                   3
 ACTION:UPD 13-10-22 09:24 OP:ep   STATUS:               ID:20130923082332 L   I
 OLDACT:REG 13-09-23 09:22 OP:mher STATUS:               ID:20130923082000     3
 2013-09-23-0820-00M.COL___268                                                 6
 STAT SP IPHASW D HRMM SECON CODA AMPLIT PERI AZIMU VELO AIN AR TRES W  DIS CAZ7
 BAR2 SZ EP   1    823 49.35                             164   -0.08 8 30.9  89 
 BAR2 SZ ES   1    824  2.56                             164    0.15 8 30.9  89 
 BAR2 SZ I         824  3.52         3.9 0.40            171           30.9  89 
 PTB  HZ EP   1    823 53.98                             134   -0.19 7  110 267 
 PTB  HE ES        824 10.70                             134   -0.1510  110 267 
 PTB  HZ I         824 33.06         3.3 0.72            130            110 267 
 ZAR  HZ EP   1    824  2.41                             119    0.94 7  184 303 
 ZAR  HN ES   1    824 23.86                             119    0.03 7  184 303 
 ZAR  HZ I         824 28.74         2.5 0.32            120            184 303 
 SML  HZ EP   1    824  8.70                             110   -0.55 6  254 345 
 SML  HN ES        824 37.64                             110   -0.04 8  254 345 
 SML  HN I         824 44.36         5.4 0.10            116            254 345 
                                                                                
