 2011 1123 0946 17.7 L   6.052 -73.728 98.0  RSN  4 0.6 1.6LRSN                1
 GAP=158        1.04      10.9     7.5 18.0 -0.5241E+02  0.6238E+02 -0.6298E+01E
 Epicentro: BOLIVAR - SANTANDER                                                3
 ACTION:UPD 12-07-13 16:11 OP:ep   STATUS:               ID:20111123094617 L   I
 2011-11-23-0940-00M.COL___179                                                 6
 STAT SP IPHASW D HRMM SECON CODA AMPLIT PERI AZIMU VELO AIN AR TRES W  DIS CAZ7
 RUS  HZ EP   1    946 35.13                             141    0.35 7 73.6 104 
 RUS  HN ES   1    946 48.11                             141   -0.03 7 73.6 104 
 BAR2 SZ EP   1    946 35.18                             136   -0.17 7 84.9  45 
 BAR2 SZ ES   1    946 48.96                             136   -0.20 7 84.9  45 
 BAR2 SZ I         946 50.70        15.5 0.63                          84.9  45 
 NOR  SN ES   1    946 58.46                             122    0.71 7  137 247 
 RREF HZ EP   2    946 51.01                             110    0.87 4  220 235 
 RREF HN ES   1    947 14.24                             110   -1.24 6  220 235 
 RREF HZ I         947 20.95         2.6 0.26                           220 235 
                                                                                
