 2012  223 0123 44.8 L   6.779 -73.111150.0  RSN  6 0.3 1.5LRSN                1
 GAP=142        0.63       4.4     4.6  6.2 -0.2275E+01  0.5384E+00  0.2760E+01E
 ACTION:UP  12-03-07 16:33 OP:epov STATUS:               ID:20120223012344 L   I
 2012-02-23-0120-00M.COL___191                                                 6
 STAT SP IPHASW D HRMM SECON CODA AMPLIT PERI AZIMU VELO AIN AR TRES W  DIS CAZ7
 BAR2 SZ ES   2    124 20.19                             171   -0.37 5 22.1 201 
 BAR2 SZ I         124 21.52         8.9 0.26                          22.1 201 
 GIR2 SZ EP   1    124  4.89                             166   -0.12 7 34.4 345 
 GIR2 SZ ES   1    124 21.20                             166    0.39 7 34.4 345 
 BRR  HZ EP        124  6.60                             152   -0.0110 75.7 299 
 BRR  HZ I         124  7.00         7.3 0.11                          75.7 299 
 BRR  HE ES   1    124 24.06                             152    0.40 7 75.7 299 
 PAM  SZ EP   1    124  7.59                             152    0.20 7 76.9  36 
 PAM  SZ I         124  7.79         6.8 0.18                          76.9  36 
 PAM  SE ES   1    124 24.53                             152   -0.51 7 76.9  36 
 RUS  HZ EP   1    124  8.89                             145    0.15 7 98.1 178 
 RUS  HN ES   1    124 27.52                             145    0.06 7 98.1 178 
 RUS  HZ I         124 28.23         2.8 0.33                          98.1 178 
 PTB  HN ES   1    124 33.45                             132   -0.45 7  151 260 
                                                                                
