 2011  823 0453 31.2 L   6.724 -73.174140.0  RSN  8 0.5 1.9LRSN                1
 GAP=228        0.81       6.6     7.8  7.2  0.1432E+02  0.2497E+02  0.1876E+02E
 Epicentro: VILLANUEVA - SANTANDER                                             3
 ACTION:UPD 12-07-13 15:53 OP:ep   STATUS:               ID:20110823045331 L   I
 2011-08-23-0451-58S.COL___158                                                 6
 STAT SP IPHASW D HRMM SECON CODA AMPLIT PERI AZIMU VELO AIN AR TRES W  DIS CAZ7
 BAR2 SZ EP   1    453 49.43                             174   -0.52 7 14.6 183 
 BAR2 SZ ES   1    454  5.02                             174    0.41 7 14.6 183 
 BAR2 SZ I         454  6.63        13.9 0.18                          14.6 183 
 BRR  HZ EP   1    453 51.17                             151   -0.63 7 73.0 306 
 BRR  HE ES   1    454  8.16                             151    0.27 7 73.0 306 
 BRR  HZ I         454 11.41        37.0 0.12                          73.0 306 
 RUS  HZ EP   1    453 54.01                             145    0.24 7 92.5 174 
 RUS  HN ES   1    454 11.26                             145   -0.14 7 92.5 174 
 RUS  HZ I         454 13.61         6.8 0.55                          92.5 174 
 NOR  SZ EP   1    454  5.66                             118   -0.11 6  227 236 
 NOR  SN ES   1    454 32.11                             118   -0.64 6  227 236 
 CHI  HZ EP   1    454  7.70                             117    0.13 6  240 195 
 CHI  HZ I         454 45.06         6.9 0.41                           240 195 
 HEL  HZ EP   1    454 11.35                             114    0.82 6  267 257 
 HEL  HZ I         454 48.06         4.6 0.29                           267 257 
 RREF HZ EP   1    454 16.81                             110    0.65 5  314 230 
 PRA  HZ EP   1    454 23.46                             106    0.01 4  383 210 
                                                                                
