 2014  823 0344 10.2 L   6.767 -73.137137.0  RSN 10 0.5 1.7LRSN                1
 GAP= 97        1.29       5.6     4.8  7.0 -0.9201E+01  0.5434E+01  0.7170E+01E
 Epicentro: LOS SANTOS - SANTANDER                                             3
 ACTION:UPD 14-09-15 21:52 OP:nd   STATUS:               ID:20140823034410 L   I
 OLDACT:REG 14-08-23 15:18 OP:stll STATUS:               ID:20140823033818     3
 2014-08-23-0338-18M.COL___250                                                 6
 STAT SP IPHASW D HRMM SECON CODA AMPLIT PERI AZIMU VELO AIN AR TRES W  DIS CAZ7
 BAR2 SZ EP        344 28.83                             171    0.0810 19.9 195 
 BAR2 SZ ES        344 43.81                             171    0.6210 19.9 195 
 BAR2 SZ I         344 45.51         9.0 0.26            168           19.9 195 
 BRR  HZ EP        344 30.80                             150    0.1910 73.9 301 
 BRR  HN ES        344 47.11                             150    0.6110 73.9 301 
 BRR  HZ I         344 52.98         7.7 0.14            141           73.9 301 
 PAM  SZ EP        344 31.93                             148    0.2510 79.6  37 
 PAM  SN ES        344 47.62                             148   -0.7810 79.6  37 
 PAM  SZ I         344 50.75         5.5 0.54            147           79.6  37 
 RUS  HZ EP        344 33.04                             143    0.1810 96.8 176 
 RUS  HN ES        344 50.08                             143   -0.4310 96.8 176 
 RUS  HZ I         344 54.31         3.2 0.32            142           96.8 176 
 PTB  HZ EP        344 35.83                             130   -0.71 9  148 260 
 PTB  HN ES        344 56.24                             130   -0.81 9  148 260 
 PTB  HZ I         345  2.81         7.6 0.38            124            148 260 
 TAM  HZ EP        344 36.93                             129   -0.13 9  153 104 
 SPBC HZ EP        344 37.95                             127    0.08 9  161 220 
 SPBC HE ES        345  0.13                             127    0.71 9  161 220 
 SPBC HZ I         345  6.85        11.8 0.24            123            161 220 
 NOR  HZ EP        344 45.07                             117   -0.27 8  233 235 
 NOR  HN ES        345 12.11                             117   -0.60 8  233 235 
 NOR  HZ I         345 16.38         4.2 0.20            113            233 235 
 HEL  HZ EP        344 50.94                             113    0.90 8  272 257 
 HEL  HZ I         345 29.41         2.7 0.28            109            272 257 
 GUY2CHZ EP        344 53.78                             111    0.47 7  300 235 
 GUY2CHN ES        345 26.68                             111   -0.23 7  300 235 
 GUY2CHZ I         345 35.50         4.5 0.80                           300 235 
                                                                                
