 2012 1023 0715  8.3 L   6.824 -73.175150.1  RSN  5 0.3 2.0LRSN                1
 GAP=180        0.69       3.6     5.8  9.6  0.8632E+01  0.1331E+02 -0.3452E+01E
 Epicentro: LOS SANTOS - SANTANDER                                             3
 ACTION:UPD 12-11-22 17:05 OP:ep   STATUS:               ID:20121023071508 L   I
 2012-10-23-0710-00M.COL___235                                                 6
 STAT SP IPHASW D HRMM SECON CODA AMPLIT PERI AZIMU VELO AIN AR TRES W  DIS CAZ7
 BAR2 SZ EP   1    715 28.46                             170   -0.07 8 25.7 182 
 BRR  HZ EP   1    715 30.24                             154    0.52 8 67.1 298 
 BRR  HN ES   2    715 47.20                             154    0.78 5 67.1 298 
 BRR  HN I         715 48.08        44.1 0.23                          67.1 298 
 RUS  HZ EP   1    715 32.99                             143    0.28 7  104 174 
 RUS  HN ES        715 51.50                             143   -0.2410  104 174 
 RUS  HE I         715 53.30         9.8 0.29                           104 174 
 OCA  HN ES        715 58.62                             131   -0.21 9  157 354 
 ZAR  HZ EP   1    715 40.65                             124    0.00 6  200 292 
 ZAR  HN ES        716  5.60                             124   -0.26 9  200 292 
 ZAR  HN I         716  8.69         6.6 0.17                           200 292 
                                                                                
