 2015 1023 0421 21.0 L   6.825 -73.126149.3  RSN  8 0.4 1.9LRSN                1
 GAP=138        1.06       3.3     5.2  6.5  0.1033E+00  0.8985E+01 -0.3099E+01E
 Epicentro: LOS SANTOS - SANTANDER                                             3
 ACTION:UPD 15-12-22 20:42 OP:cam  STATUS:               ID:20151023042121 L   I
 OLDACT:REG 15-10-23 13:37 OP:mh   STATUS:               ID:20151023041748     3
 2015-10-23-0417-48M.COL___314                                                 6
 STAT SP IPHASW D HRMM SECON CODA AMPLIT PERI AZIMU VELO AIN AR TRES W  DIS CAZ7
 BAR2 EZ EP   1    421 41.79                             169    0.67 7 26.5 194 
 BAR2 EZ ES        421 56.30                             169   -0.5210 26.5 194 
 BAR2 EZ I         421 57.63         7.8 0.24            169           26.5 194 
 BRR  HZ EP     C  421 42.88                             153    0.3110 71.9 296 
 BRR  HN ES        422  0.15                             153    0.7510 71.9 296 
 BRR  HZ I         422  2.61        13.1 0.44            149           71.9 296 
 PAM  EZ EP        421 43.77                             152    0.3810 73.8  40 
 PAM  EN ES        422  0.73                             152   -0.1210 73.8  40 
 PAM  EZ I         422  2.68        15.6 0.48            155           73.8  40 
 RUS  HZ EP        421 45.38                             144    0.0910  103 177 
 RUS  HN ES        422  4.08                             144   -0.1610  103 177 
 OCA  HZ EP   1    421 48.84                             131   -0.52 7  158 352 
 OCA  HN ES        422 11.22                             131   -0.25 9  158 352 
 OCA  HZ I         422 14.58        20.3 0.18            131            158 352 
 SPBC HZ EP        421 50.11                             129    0.00 9  167 219 
 SPBC HN ES        422 12.40                             129   -0.41 9  167 219 
 SPBC HZ I         422 19.29         5.1 0.12            130            167 219 
 ZAR  HZ EP        421 54.30                             123    0.52 9  205 291 
 ZAR  HN ES        422 18.96                             123   -0.39 9  205 291 
 ZAR  HZ I         422 24.39         8.1 0.28            122            205 291 
 SML  HZ EP        421 56.86                             118   -0.79 8  242 335 
 SML  HN ES        422 26.38                             118    0.14 8  242 335 
 SML  HZ I         422 34.08         9.4 0.10            119            242 335 
                                                                                
