 2013  423 0745 56.8 L   6.810 -73.170147.3  RSN 10 0.4 2.1LRSN                1
 GAP=133        0.94       4.4     4.9  6.0  0.2351E+01  0.7165E+01  0.3396E+00E
 Epicentro: LOS SANTOS - SANTANDER                                             3
 ACTION:UPD 13-05-22 14:40 OP:EP   STATUS:               ID:20130423074556 L   I
 2013-04-23-0740-00M.COL___249                                                 6
 STAT SP IPHASW D HRMM SECON CODA AMPLIT PERI AZIMU VELO AIN AR TRES W  DIS CAZ7
 BAR2 SZ EP        746 16.75                             170    0.1010 24.1 183 
 BAR2 SZ ES        746 31.46                             170   -0.6610 24.1 183 
 BAR2 SZ I         746 32.89        16.1 0.24            170           24.1 183 
 GIR2 SZ EP   1    746 16.66                             168    0.02 7 29.9 355 
 GIR2 SZ ES   1    746 32.25                             168    0.15 7 29.9 355 
 GIR2 SZ I         746 33.27         8.8 0.28            166           29.9 355 
 BRR  HZ IP     C  746 18.57                             154    0.5910 68.3 299 
 BRR  HN ES        746 35.09                             154    0.6110 68.3 299 
 BRR  HN I         746 36.30        47.5 0.24            150           68.3 299 
 PAM  SZ EP   1    746 19.72                             151    0.46 7 78.3  42 
 PAM  SN ES   1    746 36.51                             151   -0.24 7 78.3  42 
 PAM  SN I         746 38.01        11.9 0.34            153           78.3  42 
 RUS  HZ EP        746 20.78                             144   -0.0410  102 175 
 RUS  HN ES        746 39.62                             144    0.0910  102 175 
 RUS  HN I         746 40.94        17.9 0.38            145            102 175 
 PTB  HZ EP        746 23.28                             133   -0.42 9  145 258 
 PTB  HN ES   1    746 44.50                             133   -0.16 7  145 258 
 PTB  HN I         746 49.84        18.0 0.56            131            145 258 
 ZAR  HN ES   1    746 54.06                             123   -0.17 6  201 292 
 NOR  HZ EP   1    746 32.85                             119    0.37 6  233 234 
 NOR  HE ES   2    746 59.88                             119   -0.41 4  233 234 
 NOR  HE I         747  6.78        13.1 0.18            118            233 234 
 SML  HZ EP   1    746 32.44                             118   -0.87 6  242 336 
 SML  HN ES   2    747  0.90                             118   -0.87 4  242 336 
 SML  HN I         747  9.29        15.6 0.10            118            242 336 
 SJC  HZ EP   4    746 50.92                             106   -1.24 0  407 327 
 SJC  HN ES   4    747 32.09                             106   -3.23 0  407 327 
 SJC  HN I         747 37.64         2.8 0.38            106            407 327 
                                                                                
