 2016 1223 0155 37.9 L   6.169 -73.627121.9  RSN  4 0.1 0.8LRSN                1
 GAP=177        0.41       2.9     2.4  4.2  0.3608E+01  0.6171E+00 -0.5781E+00E
 Epicentro: LA PAZ - SANTANDER                                                 3
 ACTION:UPD 17-01-11 20:17 OP:rebc STATUS:               ID:20161223015537 L   I
 OLDACT:UP  16-12-23 17:15 OP:y    STATUS:               ID:20161223014748d    3
 OLDACT:DUP 16-12-23 14:58 OP:cog  STATUS:               ID:20161223014748d    3
 2016-12-23-0148-00M.COL___393                                                 6
 STAT SP IPHASW D HRMM SECON CODA AMPLIT PERI AZIMU VELO AIN AR TRES W  DIS CAZ7
 RUS  HZ EP        155 57.00                             149    0.0510 67.5 117 
 RUS  HN ES        156 11.79                             149   -0.0610 67.5 117 
 RUS  HZ I         156 12.12         0.7 0.32            150           67.5 117 
 BAR2 EZ EP        155 56.71                             149    0.1010 67.9  46 
 PTB  HZ EP        155 58.46                             138   -0.2210  101 294 
 PTB  HN ES        156 15.06                             138    0.1410  101 294 
 PTB  HZ I         156 15.57         3.3 0.18            138            101 294 
 BRR  HZ EP        155 59.05                             137    0.0910  104 355 
 BRR  HN ES        156 15.32                             137   -0.1010  104 355 
                                                                                
