 2014  923 0557  2.8 L   6.817 -73.175150.0  RSN 14 0.5 2.3LRSN                1
 GAP=132        1.17       3.3     4.4  6.1 -0.1205E-01  0.8816E+01 -0.1411E+01E
 Epicentro: ZAPATOCA - SANTANDER                                               3
 ACTION:UPD 14-10-03 23:07 OP:nd   STATUS:               ID:20140923055702 L   I
 OLDACT:UP  14-09-23 14:55 OP:cam  STATUS:               ID:20140923055001d    3
 OLDACT:UP  14-09-23 14:54 OP:cam  STATUS:               ID:20140923055001d    3
 OLDACT:DUP 14-09-23 14:46 OP:cam  STATUS:               ID:20140923055001d    3
 OLDACT:UP  14-09-23 14:46 OP:cam  STATUS:               ID:20140923055000     3
 OLDACT:REG 14-09-23 12:53 OP:cam  STATUS:               ID:20140923055000     3
 2014-09-23-0550-00M.COL___252                                                 6
 STAT SP IPHASW D HRMM SECON CODA AMPLIT PERI AZIMU VELO AIN AR TRES W  DIS CAZ7
 BAR2 SZ IP     C  557 22.97                             170   -0.0410 24.9 182 
 BAR2 SZ ES        557 37.56                             170   -1.1910 24.9 182 
 BAR2 SZ I         557 39.49        44.6 0.20            169           24.9 182 
 BRR  HZ IP     D  557 24.72                             154    0.4710 67.5 298 
 BRR  HE ES        557 41.95                             154    1.0010 67.5 298 
 BRR  HZ I         557 45.71        33.9 0.30            150           67.5 298 
 PAM  SZ EP        557 25.90                             151    0.3510 78.1  42 
 PAM  SE ES        557 43.21                             151   -0.0510 78.1  42 
 PAM  SZ I         557 45.01        32.7 0.52            155           78.1  42 
 RUS  HZ EP        557 26.96                             144   -0.2010  103 174 
 RUS  HE ES        557 46.29                             144    0.1510  103 174 
 RUS  HZ I         557 47.50        22.0 0.24            147            103 174 
 PTB  HZ EP        557 29.39                             133   -0.52 9  145 258 
 PTB  HN ES        557 50.81                             133   -0.22 9  145 258 
 PTB  HZ I         557 52.53        33.4 0.16            132            145 258 
 SPBC HZ EP        557 31.92                             130    0.30 9  163 218 
 SPBC HN ES        557 53.99                             130   -0.08 9  163 218 
 SPBC HZ I         558  0.82        32.6 0.20            130            163 218 
 ZAR  HZ EP        557 35.11                             124   -0.08 9  200 292 
 ZAR  HE ES        558  0.61                             124    0.19 9  200 292 
 ZAR  HZ I         558 11.05        16.0 0.30            123            200 292 
 SML  HZ EP        557 39.65                             119    0.27 8  241 336 
 SML  HE ES        558  7.88                             119    0.00 8  241 336 
 SML  HZ I         558 11.21        38.6 0.26            119            241 336 
 CHI  HZ EP        557 41.25                             118    0.37 8  250 194 
 CHI  HE ES        558 10.50                             118   -0.06 8  250 194 
 CHI  HZ I         558 16.42         8.6 0.70            119            250 194 
 URE  HZ EP        557 43.59                             115   -0.12 7  280 292 
 URE  HE ES   4    558 14.15                             115   -1.44 0  280 292 
 URE  HZ I         558 25.40        14.5 0.20            114            280 292 
 GUY2CHZ EP   4    557 48.39                             113    1.92 0  300 234 
 GUY2CHN ES        558 20.65                             113    0.14 7  300 234 
 GUY2CHZ I         558 33.20        11.6 0.48                           300 234 
 CBOC HZ EP   4    557 50.91                             111    1.26 0  331 252 
 CBOC HE ES        558 26.68                             111    0.52 7  331 252 
 CBOC HZ I         558 30.33         3.0 0.22            111            331 252 
 TOL  SZ EP   4    557 52.87                             110    1.70 0  343 224 
 MON  HZ EP   4    557 49.89                             109   -1.69 0  350 308 
 MON  HN ES        558 28.63                             109   -0.97 6  350 308 
 MON  HZ I         558 44.87         4.6 0.34            110            350 308 
 SJC  HZ EP     D  557 57.15                             106   -1.00 6  406 327 
 SJC  HN ES   4    558 38.13                             106   -3.17 0  406 327 
 SJC  HZ I         558 45.73         4.0 0.28            107            406 327 
                                                                                
