 2010  323 0118  0.6 L   6.780 -73.042147.5  RSN  5 0.2 1.7LRSN                1
 GAP=193        0.49       4.3    10.0  5.2  0.2610E+02 -0.8532E+01 -0.1819E+00E
 Epicentro: LOS SANTOS - SANTANDER                                             3
 ACTION:UP  10-08-24 09:55 OP:vdl  STATUS:               ID:20100323011800 L   I
 2010-03-23-0114-35S.COL___098                                                 6
 STAT SP IPHASW D HRMM SECON CODA AMPLIT PERI AZIMU VELO SNR AR TRES W  DIS CAZ7
 BAR2 SZ EP   1    118 20.33                             169    -0.2 7   26 217 
 BAR2 SZ ES   1    118 35.85                             169    -0.2 7   26 217 
 BRR  HZ EP   1    118 22.84                             149     0.2 7   82 296 
 BRR  HN ES   1    118 39.71                             149    -0.1 7   82 296 
 BRR  HZ I         118 43.25        18.4 0.32                            82 296 
 RUS  HZ EP   1    118 24.27                             145    -0.1 7   98 183 
 RUS  HE ES   1    118 43.24                             145     0.3 7   98 183 
 RUS  HZ I         118 44.16         4.2 0.31                            98 183 
 OCA  SZ ES   2    118 52.19                             129     0.3 5  164 349 
 CHI  HZ EP   1    118 38.50                             117    -0.1 6  250 198 
 CHI  HZ I         119 11.23         2.4 0.55                           250 198 
                                                                                
