 2013  223 0425  8.1 L   6.736 -73.126142.0  RSN  5 0.4 1.5LRSN                1
 GAP=209        0.82       6.7     7.1 10.3 -0.4093E+01  0.1976E+02 -0.1182E+02E
 Epicentro: JORDAN - SANTANDER                                                 3
 ACTION:UPD 13-03-12 09:35 OP:ep   STATUS:               ID:20130223042508 L   I
 2013-02-23-0420-00M.COL___225                                                 6
 STAT SP IPHASW D HRMM SECON CODA AMPLIT PERI AZIMU VELO AIN AR TRES W  DIS CAZ7
 BAR2 SZ EP   1    425 27.64                             173    0.44 7 17.0 201 
 BAR2 SZ ES   1    425 41.48                             173   -0.59 7 17.0 201 
 BAR2 SZ I         425 43.76         7.1 0.38            172           17.0 201 
 BRR  HZ EP     C  425 29.41                             150    0.2010 76.7 302 
 BRR  HN ES   2    425 46.61                             150    0.97 5 76.7 302 
 BRR  HZ I         425 48.58         4.5 0.56            146           76.7 302 
 PTB  HZ EP   1    425 34.49                             131   -0.40 7  149 262 
 PTB  HN ES   1    425 55.89                             131    0.14 7  149 262 
 PTB  HZ I         425 58.55         6.1 0.74            132            149 262 
 OCA  HN ES   1    425 59.05                             127   -0.22 7  168 353 
 OCA  HZ I         426  3.69         3.6 0.15            127            168 353 
 ZAR  HN ES   1    426  6.03                             121   -0.32 6  209 294 
 ZAR  HZ I         426 11.62         2.7 0.31            121            209 294 
                                                                                
