 2016  423 0353 34.0 L   6.822 -73.166143.8  RSN  9 0.3 1.8LRSN                1
 GAP=133        0.67       2.2     2.8  4.3 -0.1980E+01  0.4476E+01 -0.3632E+00E
 Epicentro: LOS SANTOS - SANTANDER                                             3
 ACTION:UPD 16-05-05 14:23 OP:rebc STATUS:               ID:20160423035334 L   I
 OLDACT:ARG 16-04-23 12:40 OP:cara STATUS:               ID:20160423034750     3
 2016-04-23-0347-50M.COL___309                                                 6
 STAT SP IPHASW D HRMM SECON CODA AMPLIT PERI AZIMU VELO AIN AR TRES W  DIS CAZ7
 BAR2 EZ IP        353 53.52                             169    0.0610 25.5 184 
 BAR2 EZ ES        354  8.68                             169    0.0610 25.5 184 
 BAR2 EZ I         354 10.10         9.9 0.24            169           25.5 184 
 PAM  EZ EP        353 56.26                             151    0.2510 77.0  42 
 PAM  EZ I         353 56.49        22.4 0.22            154           77.0  42 
 PAM  EE ES        354 13.11                             151   -0.0510 77.0  42 
 RUS  HZ EP        353 57.73                             143   -0.0410  103 175 
 RUS  HN ES        354 15.95                             143   -0.3410  103 175 
 RUS  HZ I         354 16.87         5.7 0.44            146            103 175 
 PTB  HZ EP        354  0.03                             132   -0.64 9  146 258 
 PTB  HN ES        354 21.45                             132   -0.01 9  146 258 
 PTB  HZ I         354 27.70         5.2 0.22            131            146 258 
 OCA  HZ EP        354  2.01                             130    0.08 9  158 354 
 OCA  HN ES        354 23.64                             130   -0.06 9  158 354 
 OCA  HZ I         354 27.66        16.1 0.16            131            158 354 
 SPBC HZ EP        354  2.89                             128    0.48 9  164 218 
 SPBC HE ES        354 24.98                             128    0.42 9  164 218 
 SPBC HZ I         354 26.41         9.7 0.24            130            164 218 
 ZAR  HN ES        354 31.07                             122    0.08 9  201 292 
 ZAR  HZ I         354 37.53         8.5 0.30            122            201 292 
 NOR  HZ EP        354  9.25                             118   -0.34 8  234 234 
 NOR  HE ES        354 37.37                             118    0.03 8  234 234 
 NOR  HZ I         354 45.57         3.4 0.54            119            234 234 
 GUY2CHZ EP        354 17.54                             112    0.05 7  301 234 
 GUY2CHN ES        354 51.35                             112   -0.04 7  301 234 
 GUY2CHZ I         355  1.41         2.6 0.68                           301 234 
                                                                                
