 2013  823 0902 26.8 L   6.802 -73.114145.4  RSN  7 0.4 1.6LRSN                1
 GAP=206        1.01       4.0     6.1  7.0 -0.5007E+01  0.4905E+01 -0.7990E+01E
 Epicentro: LOS SANTOS - SANTANDER                                             3
 ACTION:UPD 14-01-14 09:05 OP:ep   STATUS:               ID:20130823090226 L   I
 OLDACT:REG 13-08-23 09:03 OP:nd   STATUS:               ID:20130823085959     3
 2013-08-23-0859-59M.COL___270                                                 6
 STAT SP IPHASW D HRMM SECON CODA AMPLIT PERI AZIMU VELO AIN AR TRES W  DIS CAZ7
 BAR2 SZ EP        9 2 46.51                             170    0.0510 24.4 198 
 BAR2 SZ ES        9 3  1.49                             170   -0.2710 24.4 198 
 BAR2 SZ I         9 3  2.85         7.0 0.20            169           24.4 198 
 BRR  HZ EP   2    9 2 48.97                             151    0.83 5 74.2 297 
 BRR  HN ES        9 3  5.46                             151    0.7210 74.2 297 
 BRR  HZ I         9 3  7.55         7.4 0.28            149           74.2 297 
 PTB  HZ EP        9 2 53.88                             131   -0.23 9  151 259 
 PTB  HN ES        9 3 14.49                             131   -0.88 9  151 259 
 PTB  HZ I         9 3 17.54         5.0 0.11            131            151 259 
 OCA  HZ EP        9 2 54.99                             129   -0.17 9  161 352 
 OCA  HN ES        9 3 16.98                             129   -0.25 9  161 352 
 OCA  HZ I         9 3 21.41         5.7 0.36            130            161 352 
 SPBC HZ EP   2    9 2 55.89                             129    0.34 5  166 220 
 SPBC HN ES        9 3 18.10                             129    0.16 9  166 220 
 SPBC HZ I         9 3 22.17         2.3 0.20            129            166 220 
 ZAR  HZ EP        9 3  0.22                             122    0.62 8  207 292 
 ZAR  HN ES        9 3 25.25                             122    0.10 8  207 292 
 ZAR  HZ I         9 3 31.97         4.1 0.32            122            207 292 
 SML  HZ EP        9 3  3.31                             117   -0.29 8  245 335 
 SML  HE ES        9 3 32.36                             117    0.10 8  245 335 
 SML  HZ I         9 3 33.18         4.1 0.07            118            245 335 
                                                                                
