 2010  823 0752 21.1 L   6.800 -73.123152.5  RSN  8 0.4 2.2LRSN                1
 GAP=161        0.77       3.8     6.7  7.1 -0.1073E+02 -0.7672E+01  0.3506E+01E
 Epicentro: LOS SANTOS - SANTANDER                                             3
 ACTION:UP  10-09-07 10:57 OP:vdl  STATUS:               ID:20100823075221 L   I
 2010-08-23-0748-31S.COL___120                                                 6
 STAT SP IPHASW D HRMM SECON CODA AMPLIT PERI AZIMU VELO SNR AR TRES W  DIS CAZ7
 BRR  HZ IP     C  752 43.15                             152     0.110   73 298 
 BRR  HZ I         752 43.39        43.7 0.13                            73 298 
 BRR  HE ES        753  0.61                             152     0.410   73 298 
 RUS  HE ES   1    753  4.12                             145    -0.4 7  100 177 
 GUE  SZ EP   1    752 46.56                             141     0.2 7  116  11 
 GRA  SZ EP        752 46.99                                     0.110  125  16 
 GRA  SZ ES   1    753  6.50                             138    -0.5 7  125  16 
 GRA  SZ I         753  7.96         9.5 0.37                           125  16 
 OCA  SZ EP   1    752 49.89                             131    -0.1 7  161 352 
 OCA  SZ ES   1    753 12.40                             131    -0.1 7  161 352 
 OCA  SZ I         753 17.55        14.3 0.42                           161 352 
 ROSC BN ES   2    753 30.48                             118     0.6 4  254 212 
 ROSC BZ I         753 34.94        12.5 0.49                           254 212 
 HEL  HE ES   2    753 32.68                             116    -1.1 4  275 256 
 PRA  HZ EP   1    753 15.03                             107     0.1 4  393 210 
 PRA  HE ES   1    753 56.54                             107    -0.5 4  393 210 
 PRA  HZ I         754  0.95         9.9 0.44                           393 210 
                                                                                
