 2014  423 0052 17.4 L   6.822 -73.148143.4  RSN 19 0.4 2.4LRSN                1
 GAP= 70        0.88       2.6     3.5  5.7 -0.1162E+01  0.6529E+01  0.2341E+01E
 Epicentro: LOS SANTOS - SANTANDER                                             3
 OLDACT:REG 14-04-23 12:22 OP:fm   STATUS:               ID:20140423004810     3
 ACTION:UPD 14-05-13 23:10 OP:nd   STATUS:               ID:20140423005217 L   I
 OLDACT:UP  14-04-23 13:39 OP:fm   STATUS:               ID:20140423004810     3
 2014-04-23-0048-10M.COL___233                                                 6
 STAT SP IPHASW D HRMM SECON CODA AMPLIT PERI AZIMU VELO AIN AR TRES W  DIS CAZ7
 PAM  SZ EP        052 39.40                             151    0.1610 75.7  41 
 PAM  SN ES        052 56.21                             151   -0.0810 75.7  41 
 PAM  SZ I         052 57.87        23.9 0.38            154           75.7  41 
 RUS  HZ EP        052 40.68                             143   -0.3910  103 176 
 RUS  HN ES        052 59.81                             143    0.2510  103 176 
 PTB  HZ EP        052 43.47                             131   -0.69 9  148 258 
 PTB  HN ES        053  4.44                             131   -0.63 9  148 258 
 PTB  SZ I         053  9.24        29.2 0.14            128            148 258 
 TAM  HE ES   2    053  6.30                             130   -0.17 5  156 106 
 OCA  HZ EP   2    052 45.44                             130    0.17 5  158 353 
 OCA  HN ES   1    053  7.39                             130    0.37 7  158 353 
 OCA  SZ I         053 10.68        27.7 0.28            129            158 353 
 SPBC HZ EP        052 45.69                             128   -0.16 9  165 218 
 SPBC HE ES        053  8.00                             128   -0.07 9  165 218 
 SPBC SZ I         053 11.75        22.3 0.18            126            165 218 
 ZAR  HZ EP        052 49.44                             122   -0.10 9  203 292 
 ZAR  HN ES        053 15.00                             122    0.37 9  203 292 
 ZAR  SZ I         053 19.41        27.2 0.50            120            203 292 
 NOR  HZ EP        052 52.83                             118   -0.26 8  236 234 
 NOR  HE ES        053 21.63                             118    0.68 8  236 234 
 NOR  SZ I         053 26.86        15.7 0.16            116            236 234 
 SML  HZ EP   2    052 53.94                             117    0.33 4  241 335 
 SML  HE ES   2    053 22.80                             117    0.93 4  241 335 
 SML  SZ I         053 25.54        22.6 0.08            116            241 335 
 CHI  HZ EP        052 54.90                             116   -0.29 8  251 195 
 CHI  HN ES        053 25.34                             116    0.65 8  251 195 
 CHI  SZ I         053 34.95         9.8 0.48            116            251 195 
 ROSC BZ EP   4    052 57.15                             116    1.57 0  255 211 
 ROSC BE ES   1    053 25.15                             116   -0.23 6  255 211 
 ROSC SZ I         053 36.60        10.1 0.30            115            255 211 
 HEL  HZ EP   1    052 56.90                             114   -0.60 6  272 255 
 HEL  HE ES   4    053 31.96                             114    3.16 0  272 255 
 HEL  SZ I         053 36.11        10.6 0.34            113            272 255 
 URE  HZ EP   4    052 56.57                             113   -1.62 0  283 291 
 URE  HE ES   4    053 27.26                             113   -2.77 0  283 291 
 URE  SZ I         053 32.17        19.1 0.12            112            283 291 
 GUY2CHZ EP        053  1.97                             112    0.97 7  302 234 
 GUY2CHN ES   4    053 36.95                             112    1.91 0  302 234 
 GUY2CSZ I         053 44.45        15.7 0.54                           302 234 
 RREF HZ EP   1    053  3.53                             110   -0.04 5  323 229 
 RREF HN ES   4    053 43.00                             110    3.40 0  323 229 
 RREF SZ I         053 48.02        13.0 0.62            109            323 229 
 PRA  HZ EP        053 11.08                             106    0.04 6  394 209 
 PRA  HN ES        053 53.15                             106    0.24 6  394 209 
 PRA  SZ I         053 57.16        14.6 0.84            106            394 209 
 ORTC HZ EP        053 11.52                             106    0.10 6  397 216 
 ORTC HN ES   4    053 56.01                             106    2.43 0  397 216 
 ORTC SZ I         054  0.60         7.7 0.38            105            397 216 
 SJC  HZ EP   4    053 10.87                             105   -1.72 0  407 327 
 SJC  HN ES   4    053 51.97                             105   -3.70 0  407 327 
 SJC  SZ I         054 17.97         5.3 3.08            105            407 327 
 MACC HZ EP   4    053 23.52                             101   -2.79 0  523 189 
 MACC HN ES   4    054 16.36                             101   -3.72 0  523 189 
 MACC SZ I         054 29.61         4.9 3.00            101            523 189 
                                                                                
