 2017  623 0734 44.8 L   6.680 -73.144142.9  RSN  4 0.3 1.1LRSN                1
 GAP=257        0.65       8.1     5.8  5.7  0.2028E+02  0.8723E+01  0.4373E+01E
 Epicentro: VILLANUEVA - SANTANDER                                             3
 ACTION:UPD 17-09-14 16:54 OP:jn   STATUS:               ID:20170623073444 L   I
 OLDACT:UP  17-07-06 19:36 OP:nlst STATUS:               ID:20170623073444 L   3
 OLDACT:DUP 17-06-23 19:13 OP:dhb  STATUS:               ID:20170623072744d    3
 2017-06-23-0728-00M.COL___368                                                 6
 STAT SP IPHASW D HRMM SECON CODA AMPLIT PERI AZIMU VELO AIN AR TRES W  DIS CAZ7
 BAR2 EZ EP   1    735  3.76                             176   -0.11 7 10.6 204 
 BAR2 EZ ES   1    735 18.76                             176    0.00 7 10.6 204 
 BAR2 EZ I         735 20.06         4.1 0.28            164           10.6 204 
 BRR  HZ EP        735  5.75                             150   -0.3010 78.6 307 
 BRR  HE ES        735 22.87                             150    0.2210 78.6 307 
 BRR  HZ I         735 24.95         2.4 0.22            144           78.6 307 
 PTB  HZ EP        735 11.36                             132    0.01 9  146 264 
 PTB  HN ES   1    735 32.10                             132    0.03 7  146 264 
 PTB  HZ I         735 38.59         0.7 0.10            128            146 264 
 ZAR  HZ EP        735 18.13                             121    0.52 8  210 295 
 ZAR  HE ES        735 42.87                             121   -0.36 8  210 295 
 ZAR  HZ I         735 51.46         1.7 0.33            120            210 295 
                                                                                
