 2010  723 0340 39.4 L   6.777 -73.140146.4  RSN  5 0.4 1.5LRSN                1
 GAP=165        0.93      11.0    20.3 12.3  0.1570E+03 -0.1223E+03 -0.5932E+02E
 Epicentro: LOS SANTOS - SANTANDER                                             3
 ACTION:UPD 10-12-01 15:19 OP:pat  STATUS:               ID:20100723034039 L   I
 2010-07-23-0337-41S.COL___123                                                 6
 STAT SP IPHASW D HRMM SECON CODA AMPLIT PERI AZIMU VELO AIN AR TRES W  DIS CAZ7
 BAR2 SZ IP        340 58.83                             171    -0.310   21 193 
 BAR2 SZ ES   1    341 13.91                             171    -0.5 7   21 193 
 BAR2 SZ I         341 14.74         8.9 0.28                            21 193 
 GIR2 SZ EP   3    340 59.32                             166     0.1 2   34 350 
 BRR  HZ EP   1    341  0.70                             152    -0.1 7   73 300 
 BRR  HN ES   1    341 17.63                             152     0.2 7   73 300 
 BRR  HZ I         341 18.25         5.5 0.03                            73 300 
 RUS  HZ EP   1    341  2.92                             144    -0.2 7   98 176 
 RUS  HE ES   1    341 22.14                             144     0.6 7   98 176 
 RUS  HZ I         341 23.31         3.5 0.24                            98 176 
 GUE  SZ EP   2    341  5.31                             139     0.9 5  119  12 
                                                                                
