 2016 1023 0253 32.4 L   6.810 -73.153148.7  RSN 24 0.5 2.3LRSN                1
 GAP= 65        1.02       2.8     3.0  4.9 -0.2121E+01  0.2180E+01  0.2423E+01E
 Epicentro: LOS SANTOS - SANTANDER                                             3
 ACTION:UPD 16-11-09 19:21 OP:rebc STATUS:               ID:20161023025332 L   I
 OLDACT:UP  16-10-23 15:09 OP:e    STATUS:               ID:20161023024745d    3
 OLDACT:UP  16-10-23 15:03 OP:e    STATUS:               ID:20161023024745d    3
 OLDACT:DUP 16-10-23 14:45 OP:e    STATUS:               ID:20161023024745d    3
 2016-10-23-0248-00M.COL___353                                                 6
 STAT SP IPHASW D HRMM SECON CODA AMPLIT PERI AZIMU VELO AIN AR TRES W  DIS CAZ7
 BAR2 EZ EP        253 52.41                             170   -0.0110 24.3 188 
 BAR2 EZ ES        254  7.83                             170   -0.1910 24.3 188 
 BAR2 EZ I         254  9.00        32.3 0.18            169           24.3 188 
 BRR  HZ IP     D  253 54.22                             153    0.4010 70.0 298 
 BRR  HN ES        254 11.52                             153    1.0110 70.0 298 
 BRR  HZ I         254 15.33        17.3 0.13            150           70.0 298 
 PAM  EZ EP        253 55.33                             151    0.4010 77.0  40 
 PAM  EN ES        254 12.30                             151   -0.1810 77.0  40 
 PAM  EZ I         254 14.64        50.2 0.46            154           77.0  40 
 RUS  HZ EP        253 56.43                             144   -0.1110  102 176 
 RUS  HN ES        254 15.45                             144    0.1010  102 176 
 RUS  HZ I         254 16.17        24.5 0.22            145            102 176 
 PTB  HZ EP        253 59.13                             133   -0.45 9  147 258 
 PTB  HN ES        254 19.98                             133   -0.78 9  147 258 
 PTB  HZ I         254 23.88        16.6 0.20            131            147 258 
 TAM  HZ IP     D  254  0.86                             131    0.44 9  156 105 
 TAM  HN ES        254 22.37                             131    0.10 9  156 105 
 OCA  HZ EP        254  0.69                             130   -0.16 9  159 353 
 OCA  HN ES        254 22.82                             130   -0.20 9  159 353 
 OCA  HZ I         254 27.79        42.5 0.45            130            159 353 
 SPBC HZ EP        254  0.19                             130   -0.99 9  164 219 
 SPBC HN ES        254 23.06                             130   -0.55 9  164 219 
 SPBC HZ I         254 25.97        51.9 0.36            129            164 219 
 TABC EZ EP   4    254  9.88                             120    1.48 0  230 210 
 TABC EZ ES        254 36.02                             120   -0.45 8  230 210 
 TABC EZ I         254 43.01        14.3 0.32            119            230 210 
 NOR  HZ EP   2    254  8.43                             119    0.11 4  235 234 
 NOR  HN ES        254 36.86                             119    0.54 8  235 234 
 NOR  HZ I         254 38.93        20.5 0.16            118            235 234 
 CHI  HZ EP        254 10.54                             118    0.17 8  249 195 
 CHI  HN ES        254 39.87                             118   -0.11 8  249 195 
 CHI  HZ I         254 43.44        13.1 0.42            118            249 195 
 ROSC BZ EP   9    254 12.63                             117    1.87 0  253 211 
 ROSC BN ES        254 42.07                                   -0.46 8  253 211 
 HEL  HZ EP   2    254 13.22                             115    0.49 4  272 256 
 HEL  HN ES        254 43.61                             115   -0.56 8  272 256 
 HEL  HZ I         254 50.01         9.9 0.50            115            272 256 
 GUY2CHZ EP   2    254 16.87                             113    0.70 4  301 235 
 GUY2CHN ES   4    254 52.18                             113    1.89 0  301 235 
 GUY2CHZ I         254 58.31        10.7 0.48                           301 235 
 PTGC HZ EP   3    254 15.65                             112   -0.91 2  310 159 
 PTGC HN ES   4    254 49.10                             112   -1.88 0  310 159 
 PTGC HZ I         254 50.78        14.3 0.30            113            310 159 
 LL6C HZ EP   9    253 58.43                             111   -19.7 0  324 358 
 LL6C HE ES        254 34.02                                   -0.05 7  324 358 
 ELA  HZ EP   4    254 22.30                             111    2.89 0  329 229 
 ELA  HN ES   4    254 57.85                             111    1.79 0  329 229 
 ELA  HZ I         255 11.82         6.6 0.46            110            329 229 
 CBOC HZ EP   2    254 19.25                             110   -0.16 3  333 252 
 CBOC HN ES        254 57.01                             110    0.94 7  333 252 
 CBOC HZ I         255  2.58         3.1 0.49            110            333 252 
 PRA  HZ EP        254 26.41                             107    0.30 6  393 209 
 PRA  HE ES   2    255  8.21                             107    0.22 3  393 209 
 PRA  HN ES        255  9.02                             107    1.03 6  393 209 
 PRA  HZ I         255 12.41         6.8 0.20            107            393 209 
 ORTC HZ EP        254 26.44                             107   -0.05 6  396 216 
 ORTC HN ES   2    255  9.53                             107    0.86 3  396 216 
 ORTC HZ I         255 13.75         5.8 0.34            107            396 216 
 PAL  HZ EP   2    254 28.06                             106    0.39 3  406 239 
 SJC  HZ EP   2    254 26.62                             106   -1.30 3  408 327 
 SJC  HN ES   4    255  7.59                             106   -3.62 0  408 327 
 SJC  HZ I         255 15.29         4.3 0.35            106            408 327 
 CRJC HZ EP   9    254 32.67                             104   -2.21 0  467   4 
 CRJC HN ES        255 20.91                                   -0.48 5  467   4 
 CRJC HZ I         255 24.99         6.2 0.42            104            467   4 
 URI  HZ EP   2    254 45.21                             101   -0.18 2  556  13 
 URI  HN ES   2    255 41.75                             101   -0.55 2  556  13 
                                                                                
