 2017  823 0840 41.7 L   7.501 -73.103122.0  RSN 13 0.4 1.9LRSN                1
 GAP=152        1.02       4.9     4.9  5.9  0.1091E+02 -0.7208E+00 -0.3932E+01E
 Epicentro: EL PLAYON - SANTANDER                                              3
 ACTION:UPD 17-09-04 20:23 OP:rebc STATUS:               ID:20170823084041 L   I
 OLDACT:UP  17-08-23 17:16 OP:osc  STATUS:               ID:20170823083743     3
 OLDACT:REG 17-08-23 13:29 OP:osc  STATUS:               ID:20170823083743     3
 2017-08-23-0838-00M.COL___396                                                 6
 STAT SP IPHASW D HRMM SECON CODA AMPLIT PERI AZIMU VELO AIN AR TRES W  DIS CAZ7
 PAM  EZ EP   9    841  1.46                             158    1.69 0 48.0 112 
 PAM  EE ES        841 16.57                                    1.0410 48.0 112 
 PAM  EZ I         841 17.52        20.8 0.18            158           48.0 112 
 BRR  HZ IP     D  841  1.11                             145    0.1410 80.1 237 
 BRR  HE ES        841 16.37                             145    0.3910 80.1 237 
 BRR  HZ I         841 17.10        25.6 0.10            144           80.1 237 
 BAR2 EZ EP        841  3.08                             139    0.1810  101 185 
 BAR2 EZ ES        841 19.29                             139   -0.1310  101 185 
 BAR2 EZ I         841 20.58        40.7 0.12            137            101 185 
 RUS  HZ EP        841 10.24                             122   -0.34 9  178 179 
 RUS  HN ES        841 32.19                             122   -0.88 9  178 179 
 RUS  HZ I         841 33.82         2.9 0.28            121            178 179 
 ZAR  HZ EP        841 11.26                             119   -0.37 9  194 270 
 ZAR  HE ES        841 35.20                             119    0.26 9  194 270 
 ZAR  HZ I         841 36.04         9.4 0.28            119            194 270 
 SPBC HZ EP   4    841 17.33                             114    1.51 0  231 208 
 SPBC HE ES        841 42.21                             114   -0.19 8  231 208 
 SPBC HZ I         841 48.87         6.4 0.09            114            231 208 
 YPLC HZ EP        841 17.78                             113    0.26 8  246 161 
 YPLC HN ES        841 45.85                             113    0.42 8  246 161 
 YPLC HZ I         841 49.01         5.7 0.34            112            246 161 
 NOR  HZ EP   4    841 20.23                             109   -2.29 0  290 222 
 NOR  HE ES        841 54.36                             109    0.03 7  290 222 
 HEL  HE ES        841 58.04                             108   -0.06 7  305 242 
 HEL  HZ I         842  3.83         3.7 0.28            108            305 242 
 CHI  HZ EP        841 27.13                             106    0.06 7  325 192 
 CHI  HE ES   4    842  4.41                             106    1.98 0  325 192 
 CHI  HZ I         842  8.43         1.8 0.40            106            325 192 
 DBB  EN ES   4    842  4.16                             105   -2.18 0  347 261 
 SJC  HZ EP        841 29.02                             105   -0.53 6  350 319 
 SJC  HN ES   4    842  3.72                             105   -3.12 0  350 319 
 SJC  HZ I         842  7.57         2.2 0.40            105            350 319 
 GUY2CHZ EP        841 31.15                             105    0.48 6  355 225 
 GUY2CHN ES   4    842 10.79                             105    1.95 0  355 225 
 GUY2CHZ I         842 17.61         3.3 0.62                           355 225 
 PRA  HZ EP        841 43.18                             100    0.14 5  463 205 
 PRA  HE ES        842 31.50                             100    0.63 5  463 205 
 PRA  HZ I         842 34.88         2.2 0.30            100            463 205 
                                                                                
