 2012 1123 0717 13.1 L   6.776 -73.328120.5  RSN  7 0.5 1.8LRSN                1
 GAP=118        0.85       5.5     6.0  7.6  0.3554E+00  0.2050E+02 -0.6651E+01E
 Epicentro: ZAPATOCA - SANTANDER                                               3
 ACTION:UPD 12-12-05 15:35 OP:}ep  STATUS:               ID:20121123071713 L   I
 2012-11-23-0715-35M.COL___203                                                 6
 STAT SP IPHASW D HRMM SECON CODA AMPLIT PERI AZIMU VELO AIN AR TRES W  DIS CAZ7
 BAR2 SZ EP   1    717 29.90                             167    0.18 7 25.9 142 
 BAR2 SZ ES   1    717 42.86                             167    0.14 7 25.9 142 
 BAR2 SZ I         717 44.18        32.0 0.30                          25.9 142 
 GIR2 SZ EP   1    717 30.11                             162    0.19 7 36.6  24 
 GIR2 SZ ES   1    717 43.03                             162   -0.05 7 36.6  24 
 GIR2 SZ I         717 45.10        10.0 0.34                          36.6  24 
 RUS  HZ EP   1    717 34.29                             137   -0.19 7  101 165 
 RUS  HN ES   1    717 51.26                             137    0.07 7  101 165 
 PTB  HZ EP   1    717 35.09                             130   -1.04 7  128 258 
 PTB  HN ES   1    717 54.05                             130   -0.09 7  128 258 
 OCA  HZ EP   1    717 39.39                             123   -0.29 7  162   0 
 ZAR  HZ EP   1    717 42.59                             119    0.48 7  187 295 
 HEL  HZ EP   1    717 50.72                             111    0.92 6  252 255 
                                                                                
