 2011 1023 0320 33.1 L   6.793 -73.210146.0  RSN  8 0.1 1.7LRSN                1
 GAP=129        0.28       1.9     2.4  3.5 -0.2357E+00  0.5256E+00 -0.7629E-01E
 Epicentro: ZAPATOCA - SANTANDER                                               3
 ACTION:UPD 12-07-13 16:05 OP:ep   STATUS:               ID:20111023032033 L   I
 2011-10-23-0319-24S.COL___171                                                 6
 STAT SP IPHASW D HRMM SECON CODA AMPLIT PERI AZIMU VELO AIN AR TRES W  DIS CAZ7
 BAR2 SZ EP   2    320 52.80                             171    0.04 5 22.4 172 
 BAR2 SZ ES   2    321  8.00                             171   -0.08 5 22.4 172 
 BAR2 SZ I         321  9.24        12.7 0.30                          22.4 172 
 GIR2 SZ EP   1    320 52.96                             167    0.13 7 31.6   3 
 GIR2 SZ ES   3    321  8.31                             167    0.10 2 31.6   3 
 BRR  HZ EP   2    320 53.94                             154   -0.05 5 65.5 302 
 BRR  HZ I         320 55.24        15.3 0.08                          65.5 302 
 BRR  HN ES   2    321 10.33                             154    0.07 5 65.5 302 
 PAM  SZ EP   1    320 55.71                             149    0.03 7 82.6  43 
 PAM  SN ES   2    321 13.05                             149   -0.23 5 82.6  43 
 RUS  HZ EP   1    320 56.89                             144   -0.01 7  101 172 
 RUS  HN ES   2    321 15.60                             144    0.16 5  101 172 
 RUS  HZ I         321 16.26         2.3 0.34                           101 172 
 OCA  SZ EP   2    321  1.38                             130   -0.08 5  160 356 
 OCA  SZ ES   2    321 23.46                             130   -0.10 5  160 356 
 OCA  SZ I         321 28.14         8.8 0.51                           160 356 
 ZAR  HE ES   2    321 29.99                             123    0.22 4  198 293 
 ZAR  HZ I         321 37.30         5.0 0.32                           198 293 
 NOR  SN ES   2    321 35.17                             119   -0.41 4  229 234 
                                                                                
