 2013 1223 0730 45.2 L   7.321 -73.429114.2  RSN  7 0.2 1.6LRSN                1
 GAP=104        0.55       1.6     2.7  4.8 -0.3263E-01  0.6357E+01  0.5161E-01E
 Epicentro: SABANA DE TORRES - SANTANDER                                       3
 ACTION:UPD 14-01-13 10:20 OP:ep   STATUS:               ID:20131223073045 L   I
 OLDACT:UP  13-12-23 09:44 OP:mh   STATUS:               ID:20131223073000     3
 OLDACT:REG 13-12-23 08:14 OP:mh   STATUS:               ID:20131223073000     3
 2013-12-23-0730-00M.COL___285                                                 6
 STAT SP IPHASW D HRMM SECON CODA AMPLIT PERI AZIMU VELO AIN AR TRES W  DIS CAZ7
 PAM  SZ EP   1    731  4.56                             143    0.18 7 80.5  88 
 PAM  SN ES        731 19.43                             143    0.0710 80.5  88 
 PAM  SZ I         731 21.96         7.8 0.24            146           80.5  88 
 BAR2 SZ EP        731  4.56                             141    0.1910 85.0 161 
 BAR2 SZ ES        731 19.09                             141   -0.2510 85.0 161 
 BAR2 SZ I         731 20.64        18.4 0.11            142           85.0 161 
 OCA  HZ EP        731  5.65                             135   -0.0110  102   7 
 OCA  HN ES        731 21.82                             135    0.1810  102   7 
 OCA  HZ I         731 24.45        11.0 0.16            140            102   7 
 PTB  HZ EP        731  9.20                             125   -0.07 9  143 233 
 PTB  HN ES        731 28.36                             125    0.30 9  143 233 
 PTB  HZ I         731 30.71         6.5 0.10            126            143 233 
 RUS  HZ EP   1    731 11.97                             121    0.05 7  162 166 
 RUS  HN ES        731 32.50                             121   -0.28 9  162 166 
 RUS  HZ I         731 41.87         1.0 0.12            123            162 166 
 SML  HZ EP        731 12.90                             118   -0.06 9  178 337 
 SML  HN ES   1    731 34.02                             118   -0.62 7  178 337 
 SML  HZ I         731 36.60        15.2 0.08            121            178 337 
 SPBC HZ EP        731 15.27                             115    0.07 9  198 201 
 SPBC HN ES   4    731 40.97                             115    2.36 0  198 201 
 SPBC HZ I         731 45.50         4.3 0.26            117            198 201 
                                                                                
