 2013  523 0321 45.6 L   6.806 -73.131135.9  RSN 13 0.5 2.2LRSN                1
 GAP= 72        1.28       4.0     3.8  5.9 -0.4046E+01  0.4211E+01  0.2054E+01E
 Epicentro: LOS SANTOS - SANTANDER                                             3
 ACTION:UPD 13-06-20 09:52 OP:ep   STATUS:               ID:20130523032145 L   I
 2013-05-23-0318-50M.COL___210                                                 6
 STAT SP IPHASW D HRMM SECON CODA AMPLIT PERI AZIMU VELO AIN AR TRES W  DIS CAZ7
 BAR2 SZ IP        322  4.08                             169    0.0610 24.3 193 
 BAR2 SZ ES        322 18.41                             169   -0.0110 24.3 193 
 BAR2 SZ I         322 21.02        30.3 0.22            163           24.3 193 
 GIR2 SZ EP        322  4.11                             166    0.0710 30.9 347 
 GIR2 SZ ES        322 18.01                             166   -0.4510 30.9 347 
 BRR  HZ IP     C  322  5.91                             150    0.2010 72.3 297 
 BRR  HZ I         322  6.18        27.3 0.26            148           72.3 297 
 BRR  HN ES        322 22.51                             150    1.0810 72.3 297 
 PAM  SZ EP        322  6.99                             149    0.3610 75.8  39 
 PAM  SZ E         322  7.02                                           75.8  39 
 PAM  SN ES        322 23.56                             149    0.4910 75.8  39 
 PAM  SN I         322 24.72        65.1 0.48            151           75.8  39 
 RUS  HZ EP        322  8.13                             141   -0.2610  101 177 
 RUS  HN ES        322 25.88                             141   -0.3310  101 177 
 RUS  HN I         322 28.05        16.1 0.34            135            101 177 
 CAPV BZ IP        322 12.17                             130    0.15 9  148  38 
 CAPV BZ ES        322 32.56                             130   -0.10 9  148  38 
 PTB  HZ EP        322 11.01                             129   -0.88 9  149 259 
 PTB  HN ES        322 31.64                             129   -0.80 9  149 259 
 PTB  HN I         322 36.84        20.6 0.26            125            149 259 
 TAM  HZ IP     D  322 12.48                             128    0.14 9  154 105 
 OCA  HZ EP        322 12.46                             127   -0.61 9  160 353 
 OCA  HN ES        322 33.80                             127   -0.73 9  160 353 
 OCA  HN I         322 34.51        37.5 0.16            126            160 353 
 ZAR  HZ EP        322 18.13                             120    0.63 8  205 292 
 ZAR  HN ES        322 42.50                             120    0.08 8  205 292 
 ZAR  HN I         322 49.04        34.1 0.18            117            205 292 
 HEL  HZ EP        322 26.11                             113    0.64 8  274 256 
 HEL  HN ES        322 56.25                             113   -0.36 8  274 256 
 HEL  HE I         323  1.16         7.0 0.28            109            274 256 
 GUY2CHZ EP        322 29.01                             110    0.09 7  303 235 
 GUY2CHE ES        323  3.83                             110    1.09 7  303 235 
 GUY2CHN I         323  9.07         7.8 0.60                           303 235 
 PRA  HZ EP        322 38.69                             105   -0.22 6  393 210 
 PRA  HN I         323 25.66         3.4 0.24            102            393 210 
                                                                                
