 2011 1023 0720 16.6 L   6.795 -73.109142.0  RSN 10 0.3 1.9LRSN                1
 GAP=141        0.42       2.5     3.2  4.3 -0.9696E+00  0.4372E+01  0.7228E+00E
 Epicentro: LOS SANTOS - SANTANDER                                             3
 ACTION:UPD 12-07-13 16:05 OP:ep   STATUS:               ID:20111023072016 L   I
 2011-10-23-0718-44S.COL___171                                                 6
 STAT SP IPHASW D HRMM SECON CODA AMPLIT PERI AZIMU VELO AIN AR TRES W  DIS CAZ7
 BAR2 SZ EP   1    720 35.80                             170    0.02 7 23.8 200 
 BAR2 SZ ES   2    720 50.62                             170   -0.13 5 23.8 200 
 BAR2 SZ I         720 52.00        24.5 0.37                          23.8 200 
 GIR2 SZ EP   3    720 35.83                             166   -0.03 2 32.8 343 
 GIR2 SZ ES   3    720 50.76                             166   -0.13 2 32.8 343 
 BRR  HZ IP     C  720 37.55                             151   -0.0210 75.1 297 
 BRR  HN ES   2    720 54.63                             151    0.71 5 75.1 297 
 BRR  HZ I         720 58.59        19.3 0.15                          75.1 297 
 PAM  SZ EP   1    720 38.52                             151    0.23 7 75.3  37 
 PAM  SN ES   2    720 55.13                             151   -0.08 5 75.3  37 
 RUS  HZ EP   1    720 39.83                             143   -0.09 7 99.8 178 
 RUS  HN ES   2    720 57.99                             143   -0.12 5 99.8 178 
 RUS  HZ I         720 59.83         6.3 0.37                          99.8 178 
 OCA  SZ EP   1    720 44.31                             129   -0.41 7  161 352 
 OCA  SZ ES   2    721  6.73                             129    0.07 5  161 352 
 OCA  SZ I         721 10.54        11.7 0.60                           161 352 
 ZAR  HZ EP   2    720 49.27                             121    0.06 4  208 292 
 ZAR  HN ES   2    721 14.54                             121   -0.11 4  208 292 
 ZAR  HZ I         721 22.47         5.9 0.48                           208 292 
 HEL  HZ EP   2    720 57.21                             114    0.17 4  276 256 
 HEL  HE ES   2    721 27.86                             114   -0.73 4  276 256 
 HEL  HZ I         721 34.32         3.3 0.37                           276 256 
 RREF HZ EP   2    721  3.54                             110    0.65 3  324 230 
 RREF HN ES   2    721 39.16                             110    0.17 3  324 230 
 RREF HZ I         721 47.25         3.3 0.19                           324 230 
 PRA  HZ EP   2    721 10.52                             106    0.36 3  394 210 
 PRA  HN ES   2    721 51.76                             106   -0.19 3  394 210 
                                                                                
