 2017  323 0457  3.9 L   6.841 -73.226140.9  RSN  7 0.4 1.5LRSN                1
 GAP=123        0.88       4.2     4.9  6.0 -0.8487E+01  0.7997E+01  0.4009E+01E
 Epicentro: ZAPATOCA - SANTANDER                                               3
 ACTION:UPD 17-05-25 18:44 OP:jn   STATUS:               ID:20170323045703 L   I
 OLDACT:REG 17-03-23 12:56 OP:lv   STATUS:               ID:20170323044600     3
 2017-03-23-0448-00M.COL___388                                                 6
 STAT SP IPHASW D HRMM SECON CODA AMPLIT PERI AZIMU VELO AIN AR TRES W  DIS CAZ7
 BAR2 EZ EP        457 23.04                             168    0.0210 27.9 170 
 BAR2 EZ ES        457 37.74                             168   -0.2210 27.9 170 
 BAR2 EZ I         457 40.77        10.0 0.23            171           27.9 170 
 PAM  EZ EP        457 25.81                             149    0.0710 80.1  47 
 PAM  EN ES        457 42.79                             149   -0.0110 80.1  47 
 PAM  EZ I         457 45.23         5.5 0.39            153           80.1  47 
 PTB  HZ EP        457 29.42                             132   -0.32 9  140 256 
 PTB  HN ES        457 49.80                             132   -0.12 9  140 256 
 PTB  HZ I         457 56.18         2.2 0.25            132            140 256 
 SPBC HZ EP        457 31.82                             128   -0.01 9  161 216 
 SPBC HN ES        457 53.83                             128    0.19 9  161 216 
 SPBC HZ I         457 55.57         5.7 0.25            130            161 216 
 ZAR  HZ EP        457 35.56                             123    0.59 9  194 292 
 ZAR  HN ES   4    458  1.39                             123    2.16 0  194 292 
 ZAR  HZ I         458  6.06         2.8 0.24            123            194 292 
 CHI  HZ EP        457 41.23                             116   -0.32 8  251 193 
 CHI  HN ES        458 11.83                             116    0.89 8  251 193 
 PRA  HZ EP        457 56.99                             106   -0.20 6  392 208 
 PRA  HN ES        458 37.79                             106   -0.99 6  392 208 
 PRA  HZ I         458 43.27         1.4 0.34            108            392 208 
                                                                                
