 2015 1123 0358 11.2 L   6.779 -73.156139.7  RSN  8 0.4 1.6LRSN                1
 GAP=136        0.97       3.1     4.3  5.9 -0.2576E+01  0.8035E+01 -0.6875E+00E
 Epicentro: LOS SANTOS - SANTANDER                                             3
 ACTION:UPD 15-12-28 16:12 OP:cam  STATUS:               ID:20151123033753dL   I
 OLDACT:DUP 15-11-23 17:14 OP:drio STATUS:               ID:20151123033753dL   3
 OLDACT:DUP 15-11-23 17:09 OP:drio STATUS:               ID:20151123033752dL   3
 OLDACT:DUP 15-11-23 16:40 OP:drio STATUS:               ID:20151123033750dL   3
 2015-11-23-0337-48M.COL___211                                                 6
 STAT SP IPHASW D HRMM SECON CODA AMPLIT PERI AZIMU VELO AIN AR TRES W  DIS CAZ7
 BAR2 EZ EP        358 30.21                             171    0.1210 20.8 188 
 BAR2 EZ ES        358 44.72                             171   -0.0710 20.8 188 
 BAR2 EZ I         358 46.36         9.7 0.38            170           20.8 188 
 BRR  HZ EP        358 32.12                             151    0.3810 71.4 301 
 BRR  HN ES        358 48.00                             151    0.2710 71.4 301 
 BRR  HZ I         358 53.68         6.8 0.38            148           71.4 301 
 PAM  EZ EP        358 33.27                             149    0.3010 79.9  39 
 PAM  EN ES        358 50.21                             149    0.3010 79.9  39 
 PAM  EZ I         358 52.31         5.7 0.56            153           79.9  39 
 RUS  HZ EP        358 33.92                             143   -0.3110 98.3 175 
 RUS  HE ES        358 52.26                             143    0.1010 98.3 175 
 RUS  HZ I         358 53.77         4.1 0.30            147           98.3 175 
 SPBC HZ EP        358 38.79                             128   -0.24 9  161 219 
 SPBC HE ES        359  0.15                             128   -0.56 9  161 219 
 SPBC HZ I         359  4.52         7.1 0.24            130            161 219 
 OCA  HZ EP        358 38.78                             128   -0.51 9  162 354 
 OCA  HN ES        359  0.34                             128   -0.84 9  162 354 
 OCA  HZ I         359  5.48         8.4 0.20            130            162 354 
 ZAR  HZ EP        358 43.91                             121    0.63 9  204 293 
 ZAR  HN ES        359  8.30                             121    0.03 9  204 293 
 ZAR  HZ I         359 15.46         3.6 0.28            122            204 293 
 NOR  HZ EP        358 46.78                             117    0.41 8  232 235 
 NOR  HE ES        359 13.70                             117   -0.08 8  232 235 
 NOR  HZ I         359 21.42         3.0 0.56            119            232 235 
                                                                                
