 2014  623 0919 39.0 L   6.748 -73.394116.5  RSN  5 0.4 1.4LRSN                1
 GAP=145        0.92       5.5     5.3  9.7 -0.1320E+00  0.2338E+02 -0.2095E+02E
 Epicentro: EL CARMEN DE CHUCURI - SANTANDER                                   3
 ACTION:UPD 14-07-01 22:56 OP:nd   STATUS:               ID:20140623091939 L   I
 OLDACT:UP  14-06-23 14:35 OP:spq  STATUS:               ID:20140623091820     3
 OLDACT:REG 14-06-23 14:00 OP:spq  STATUS:               ID:20140623091820     3
 2014-06-23-0918-20M.COL___256                                                 6
 STAT SP IPHASW D HRMM SECON CODA AMPLIT PERI AZIMU VELO AIN AR TRES W  DIS CAZ7
 BAR2 SZ EP        919 55.55                             165    0.2710 29.0 126 
 BAR2 SZ ES        920  7.93                             165   -0.0510 29.0 126 
 BAR2 SZ I         920  9.85         9.9 0.34            166           29.0 126 
 PTB  HZ EP        920  0.82                             131   -0.2210  120 259 
 PTB  HN ES        920 17.89                             131   -0.3410  120 259 
 PTB  HZ I         920 22.75         3.4 0.34            128            120 259 
 SPBC HN ES   1    920 21.99                             125   -0.32 7  143 212 
 SPBC HZ I         920 32.84         2.3 0.15            123            143 212 
 ZAR  HZ EP        920  7.54                             118    0.28 9  182 297 
 ZAR  HN ES        920 29.99                             118    0.68 9  182 297 
 ZAR  HZ I         920 36.19         1.8 0.13            118            182 297 
 SML  HZ EP   4    920 12.22                             111   -1.41 0  239 342 
 SML  HN ES   1    920 39.85                             111   -0.79 6  239 342 
 SML  HZ I         920 42.67         3.3 0.24            113            239 342 
                                                                                
