 2015  323 0858 21.5 L   6.486 -74.001 32.0  RSN  8 0.5 1.4LRSN                1
 GAP= 74        1.19       2.7     2.3  5.5 -0.1104E+01 -0.3128E+01  0.2021E+01E
 Epicentro: PUERTO PARRA - SANTANDER                                           3
 ACTION:UPD 15-04-30 16:28 OP:nd   STATUS:               ID:20150323085821 L   I
 OLDACT:REG 15-03-23 13:11 OP:stll STATUS:               ID:20150323084747     3
 2015-03-23-0847-47M.COL___269                                                 6
 STAT SP IPHASW D HRMM SECON CODA AMPLIT PERI AZIMU VELO AIN AR TRES W  DIS CAZ7
 PTB  HZ IP     D  858 30.65                             105   -0.1910 50.7 277 
 PTB  HN ES        858 38.03                             105   -0.1010 50.7 277 
 BRR  HZ IP     D  858 33.73                              93   -0.2210 75.8  25 
 BRR  HE ES        858 43.41                              93   -0.2510 75.8  25 
 BRR  HZ I         858 44.72        15.0 0.10            101           75.8  25 
 BAR2 EZ IP     D  858 36.08                              92   -0.1010 91.3  83 
 BAR2 EZ I         858 36.16        12.0 0.24            100           91.3  83 
 BAR2 EZ ES        858 46.56                              92   -1.0610 91.3  83 
 SPBC HZ EP        858 36.06                              91   -0.1010 92.5 185 
 SPBC HE ES        858 47.62                              91    0.0410 92.5 185 
 SPBC HZ I         858 48.96         9.6 0.30            100           92.5 185 
 RUS  HZ EP        858 40.58                              61    0.3910  121 123 
 RUS  HE ES        858 54.78                              61    0.0210  121 123 
 RUS  HZ I         858 55.70         5.9 0.18             98            121 123 
 ZAR  HZ EP        858 42.80                              61    0.04 9  146 320 
 ZAR  HZ I         858 55.57         3.2 0.42             56            146 320 
 PAM  SZ EP        858 47.65                              61    1.07 9  172  57 
 PAM  SE ES        859  6.88                              61    0.75 9  172  57 
 PAM  SZ I         859  8.66        13.7 0.34             56            172  57 
 HEL  HZ EP        858 46.65                              61    0.20 9  172 259 
 HEL  HZ I         858 46.99         3.2 0.14             56            172 259 
 HEL  HE ES        859  5.83                              61   -0.08 9  172 259 
                                                                                
