 2010  823 0147 24.4 L   6.799 -73.083140.5  RSN  7 0.3 1.5LRSN                1
 GAP=166        0.48       2.8     6.7  6.4 -0.2180E+01  0.3242E+00 -0.2078E+01E
 Epicentro: LOS SANTOS - SANTANDER                                             3
 ACTION:UP  10-09-07 10:57 OP:vdl  STATUS:               ID:20100823014724 L   I
 2010-08-23-0144-24S.COL___120                                                 6
 STAT SP IPHASW D HRMM SECON CODA AMPLIT PERI AZIMU VELO SNR AR TRES W  DIS CAZ7
 BAR2 SZ EP   2    147 43.46                             169     0.0 5   25 206 
 BAR2 SZ I         147 59.03         6.1 0.27                            25 206 
 BRR  HZ EP        147 45.33                                    -0.110   77 296 
 BRR  HE ES   2    148  1.90                             149     0.2 5   77 296 
 BRR  HZ I         148  6.58        10.3 0.19                            77 296 
 RUS  HZ EP   2    147 47.47                             143    -0.2 5  100 180 
 RUS  HE ES   1    148  5.67                             143    -0.1 7  100 180 
 RUS  HZ I         148  8.01         4.5 0.37                           100 180 
 GRA  SZ EP   1    147 49.09                             136     0.0 7  124  14 
 GRA  SZ ES   2    148  8.67                             136     0.4 5  124  14 
 GRA  SZ I         148 10.02         3.5 0.35                           124  14 
 OCA  SZ EP   2    147 52.02                             128    -0.4 5  161 351 
 OCA  SZ I         148 17.71         4.1 0.37                           161 351 
 CHI  HZ EP   2    148  2.72                             116     0.7 4  250 197 
 CHI  HE ES   2    148 31.43                             116     0.0 4  250 197 
 CHI  HZ I         148 34.29         1.7 0.47                           250 197 
 PRA  HZ EP   2    148 18.37                             105     0.2 3  395 210 
 PRA  HZ I         148 19.50         1.0 0.27                           395 210 
                                                                                
