 2011  123 0557 43.7 L   6.793 -73.178139.2  RSN  4 0.2 1.4LRSN                1
 GAP=173        0.49       2.5    12.3  6.3 -0.3388E+01  0.7429E+01 -0.4949E+01E
 Epicentro: LOS SANTOS - SANTANDER                                             3
 ACTION:UP  11-02-08 08:42 OP:pat  STATUS:               ID:20110123055743 L   I
 2011-01-23-0555-00S.COL___138                                                 6
 STAT SP IPHASW D HRMM SECON CODA AMPLIT PERI AZIMU VELO SNR AR TRES W  DIS CAZ7
 BAR2 SZ ES   2    558 17.46                             170     0.3 5   22 182 
 BAR2 SZ I         558 18.26         7.7 0.20                            22 182 
 RUS  HZ EP   1    558  6.60                             142    -0.1 8  100 174 
 RUS  HE ES   1    558 24.67                             142    -0.1 8  100 174 
 RUS  HZ I         558 26.08         2.3 0.45                           100 174 
 GRA  SZ IP        558  8.71                             135     0.210  128  19 
 GRA  SZ ES   1    558 27.63                             135    -0.2 7  128  19 
 GRA  SZ I         558 29.19         3.1 0.38                           128  19 
 OCA  SZ EP   1    558 11.48                             128     0.0 7  161 354 
 OCA  SZ ES   1    558 33.13                             128    -0.1 7  161 354 
 OCA  SZ I         558 35.15         4.6 0.24                           161 354 
                                                                                
