 2015 1023 0603 52.9 L   6.809 -73.102147.2  RSN 10 0.4 2.0LRSN                1
 GAP=142        0.99       3.7     4.6  6.7 -0.1954E+01  0.1181E+02  0.3321E+01E
 Epicentro: LOS SANTOS - SANTANDER                                             3
 ACTION:UPD 15-12-22 20:42 OP:cam  STATUS:               ID:20151023060352 L   I
 OLDACT:UP  15-10-23 16:20 OP:mh   STATUS:               ID:20151023055748     3
 OLDACT:REG 15-10-23 13:43 OP:mh   STATUS:               ID:20151023055748     3
 2015-10-23-0557-48M.COL___307                                                 6
 STAT SP IPHASW D HRMM SECON CODA AMPLIT PERI AZIMU VELO AIN AR TRES W  DIS CAZ7
 BAR2 EZ EP     D  6 4 12.76                             170    0.0210 25.6 200 
 BAR2 EZ ES        6 4 27.81                             170   -0.4110 25.6 200 
 BAR2 EZ I         6 4 30.43        12.3 0.24            167           25.6 200 
 PAM  EZ EP   1    6 4 15.59                             152    0.55 7 73.6  37 
 PAM  EN ES        6 4 32.69                             152    0.3710 73.6  37 
 PAM  EZ I         6 4 33.19        10.7 0.34            155           73.6  37 
 BRR  HZ IP     D  6 4 14.70                             151    0.2910 75.0 296 
 BRR  HN ES        6 4 31.75                             151    0.5610 75.0 296 
 BRR  HZ I         6 4 34.91        11.9 0.16            147           75.0 296 
 RUS  HZ EP        6 4 17.00                             144    0.1610  101 179 
 RUS  HN ES   1    6 4 35.15                             144   -0.37 7  101 179 
 RUS  HZ I         6 4 35.63         6.2 0.26            147            101 179 
 OCA  HN ES        6 4 42.58                             130   -0.84 9  160 351 
 OCA  HZ I         6 4 48.18        16.1 0.16            130            160 351 
 SPBC HZ EP   1    6 4 21.59                             129   -0.27 7  167 220 
 SPBC HN ES        6 4 44.17                             129   -0.29 9  167 220 
 SPBC HZ I         6 4 50.25        12.3 0.24            129            167 220 
 ZAR  HZ EP   1    6 4 25.28                             122   -0.56 6  208 291 
 ZAR  HN ES        6 4 51.33                             122   -0.22 8  208 291 
 ZAR  HZ I         6 4 56.66        15.2 0.28            121            208 291 
 HEL  HZ EP   1    6 4 34.32                             115    0.61 6  277 256 
 HEL  HN ES        6 5  6.15                             115    0.59 7  277 256 
 HEL  HZ I         6 5 11.47         6.0 0.78            115            277 256 
 URE  HZ EP   4    6 4 36.35                             113    1.87 0  288 291 
 URE  HN ES   4    6 5  5.77                             113   -1.15 0  288 291 
 URE  HZ I         6 5 16.62         6.5 0.20            113            288 291 
 GUY2CHZ EP   1    6 4 36.47                             112   -0.60 5  306 235 
 GUY2CHN ES   1    6 5 11.54                             112    0.01 5  306 235 
 GUY2CHZ I         6 5 19.22         7.7 0.38                           306 235 
                                                                                
