 2012  223 0804 21.8 L   6.454 -73.469 22.4  RSN  5 0.3 1.2LRSN                1
 GAP=130        0.54       1.8     2.1  2.9  0.7712E+00  0.3167E+01  0.1747E+00E
 ACTION:UP  12-03-07 16:33 OP:epov STATUS:               ID:20120223080421 L   I
 2012-02-23-0800-00M.COL___191                                                 6
 STAT SP IPHASW D HRMM SECON CODA AMPLIT PERI AZIMU VELO AIN AR TRES W  DIS CAZ7
 BAR2 SZ EP   1    8 4 29.07                             121    0.28 7 35.2  64 
 BAR2 SZ ES   1    8 4 34.00                             121   -0.21 7 35.2  64 
 BAR2 SZ I         8 4 35.15        18.5 0.19                          35.2  64 
 RUS  HZ EP   1    8 4 35.01                             105    0.29 7 75.3 145 
 RUS  HN ES   1    8 4 44.44                             105   -0.32 7 75.3 145 
 RUS  HZ I         8 4 45.65         6.5 0.25                          75.3 145 
 BRR  HZ EP   1    8 4 34.69                             104    0.24 7 77.1 340 
 BRR  HN ES   1    8 4 44.07                             104   -0.22 7 77.1 340 
 BRR  HZ I         8 4 45.58        10.2 0.09                          77.1 340 
 PTB  HZ EP   1    8 4 39.49                              56    0.25 7  110 275 
 PTB  HN ES   1    8 4 52.54                              56   -0.28 7  110 275 
 PAM  SE ES   1    8 4 58.27                              56   -0.03 7  130  41 
                                                                                
