 2012  723 0335 49.2 L   6.821 -73.173154.0  RSN  5 0.4 1.9LRSN                1
 GAP=180        0.87       7.0    10.6 11.6  0.1370E+02 -0.3352E+02  0.2496E+00E
 Epicentro: LOS SANTOS - SANTANDER                                             3
 ACTION:UPD 12-08-14 11:46 OP:ep   STATUS:               ID:20120723033549 L   I
 2012-07-23-0330-00M.COL___215                                                 6
 STAT SP IPHASW D HRMM SECON CODA AMPLIT PERI AZIMU VELO AIN AR TRES W  DIS CAZ7
 BAR2 SZ EP        336  9.66                             170    -0.210   25 182 
 BAR2 SZ I         336 26.28        21.3 0.16            171             25 182 
 BRR  HZ EP        336 11.48                             156     0.410   67 298 
 BRR  HN ES   1    336 28.51                             156     0.4 7   67 298 
 BRR  HZ I         336 31.30        17.1 0.14            160             67 298 
 RUS  HZ EP        336 14.23                             145     0.210  103 174 
 RUS  HN ES   3    336 32.35                             145    -0.9 2  103 174 
 RUS  HZ I         336 33.39         8.1 0.28            147            103 174 
 PTB  HZ EP        336 16.33                             135    -0.3 9  145 258 
 PTB  HN ES   3    336 37.34                             135    -0.7 2  145 258 
 PTB  HZ I         336 40.37         7.3 0.16            140            145 258 
 OCA  HZ EP        336 17.76                             133    -0.2 9  158 354 
 OCA  HE ES   3    336 39.72                             133    -0.6 2  158 354 
 OCA  HZ I         336 44.60        18.2 0.34            133            158 354 
