 2010 1123 0251 33.7 L   6.780 -73.035141.7  RSN  6 0.2 1.7LRSN                1
 GAP=171        0.54       2.6     5.9  4.8 -0.4045E+01 -0.3552E+01  0.1233E+01E
 Epicentro: CEPITA - SANTANDER                                                 3
 ACTION:UP  10-12-17 16:54 OP:REBC STATUS:               ID:20101123025133 L   I
 2010-11-23-0249-15S.COL___129                                                 6
 STAT SP IPHASW D HRMM SECON CODA AMPLIT PERI AZIMU VELO SNR AR TRES W  DIS CAZ7
 BAR2 SZ EP   2    251 53.01                             169     0.1 5   27 218 
 BAR2 SZ ES   1    252  7.88                             169     0.0 8   27 218 
 BAR2 SZ I         252 10.78        10.7 0.42                            27 218 
 BRR  HZ EP   1    251 54.91                             148    -0.3 8   83 296 
 BRR  HE ES   1    252 11.99                             148     0.1 8   83 296 
 RUS  HZ EP   1    251 56.82                             144    -0.1 8   98 183 
 RUS  HN ES   1    252 14.91                             144    -0.1 8   98 183 
 RUS  HZ I         252 16.94         5.4 0.12                            98 183 
 GRA  SZ EP        251 58.76                             136     0.210  125  12 
 GRA  SZ ES   1    252 17.81                             136    -0.1 7  125  12 
 GRA  SZ I         252 20.93         6.7 0.23                           125  12 
 CHI  HZ EP   1    252 10.96                             116    -0.4 6  250 198 
 CHI  HE ES   1    252 41.25                             116     0.5 6  250 198 
 CHI  HZ I         252 46.17         3.1 0.26                           250 198 
 HEL  HZ EP   2    252 15.08                             113     0.1 4  283 257 
 HEL  HZ I         252 50.00         3.2 0.78                           283 257 
                                                                                
