 2010  623 0508 27.2 L   6.772 -73.088137.5  RSN  8 0.4 1.5LRSN                1
 GAP=163        0.78       5.2     9.8  9.6 -0.1254E+02 -0.2195E+02 -0.1221E+02E
 Epicentro: LOS SANTOS - SANTANDER                                             3
 ACTION:UP  10-08-24 10:12 OP:vdl  STATUS:               ID:20100623050827 L   I
 2010-06-23-0505-44S.COL___118                                                 6
 STAT SP IPHASW D HRMM SECON CODA AMPLIT PERI AZIMU VELO SNR AR TRES W  DIS CAZ7
 BAR2 SZ EP        5 8 45.87                             170     0.110   23 208 
 BAR2 SZ ES   2    5 9  0.59                             170     0.3 5   23 208 
 BRR  HZ EP        5 8 47.81                             149    -0.110   78 298 
 BRR  HE ES   2    5 9  4.59                             149     0.6 5   78 298 
 BRR  HZ I         5 9  9.92         9.1 0.31                            78 298 
 BTN  SZ EP        5 8 48.31                             147    -0.310   83 359 
 RUS  HZ EP   3    5 8 50.12                             143     0.3 2   97 180 
 RUS  HE ES   2    5 9  6.71                             143    -0.9 5   97 180 
 RUS  HZ I         5 9  9.76         2.7 0.07                            97 180 
 BRI  SZ EP        5 8 50.77                             139     0.410  109  17 
 BRI  SZ ES   3    5 9  8.66                             139     0.2 2  109  17 
 GUE  SZ EP        5 8 51.18                             137    -0.110  118   9 
 GUE  SZ ES   2    5 9 10.46                             137     0.4 5  118   9 
 GRA  SZ EP        5 8 52.04                             135     0.210  127  14 
 GRA  SZ ES   2    5 9 10.53                             135    -0.5 5  127  14 
 OCA  SZ EP   3    5 8 54.64                             127    -0.6 2  164 351 
 OCA  SZ ES   2    5 9 16.03                             127    -1.1 5  164 351 
 OCA  SZ I         5 9 20.38         5.0 0.31                           164 351 
                                                                                
