 2012  823 0010  7.4 L   6.863 -73.191146.1  RSN  5 0.2 1.4LRSN                1
 GAP=128        0.54       7.3     3.5  7.2 -0.7855E+01 -0.2539E+00  0.2504E+02E
 Epicentro: ZAPATOCA - SANTANDER                                               3
 ACTION:UPD 12-09-10 11:57 OP:ep   STATUS:               ID:20120823001007 L   I
 2012-08-23-0010-00M.COL___217                                                 6
 STAT SP IPHASW D HRMM SECON CODA AMPLIT PERI AZIMU VELO AIN AR TRES W  DIS CAZ7
 BRR  HZ EP        010 28.58                             155    0.3910 63.6 295 
 BRR  HZ I         010 29.09         6.8 0.13                          63.6 295 
 BRR  HN ES   1    010 44.46                             155    0.07 7 63.6 295 
 PAM  SZ EP   1    010 29.61                             151    0.05 7 75.6  46 
 PAM  SN ES   1    010 46.59                             151   -0.24 7 75.6  46 
 PAM  SZ I         010 47.85         5.2 0.14                          75.6  46 
 RUS  HZ EP   2    010 31.60                             142   -0.15 5  108 174 
 PTB  HZ EP        010 33.87                             133   -0.24 9  144 256 
 PTB  HN ES   1    010 55.01                             133    0.08 7  144 256 
 PTB  HZ I         010 57.47         1.9 0.12                           144 256 
 ZAR  HZ I         010 41.83         3.0 0.23                           197 291 
 ZAR  HN ES   1    011  3.64                             123   -0.25 6  197 291 
                                                                                
