 2014 1123 0344 22.9 L   6.783 -73.400120.6  RSN  4 0.3 0.9LRSN                1
 GAP=175        0.69       4.8     4.3  6.4  0.8866E+01  0.9038E+01  0.4199E+01E
 Epicentro: SAN VICENTE DE CHUCURI - SANTANDER                                 3
 ACTION:UPD 14-12-19 15:46 OP:nd   STATUS:               ID:20141123034422 L   I
 OLDACT:ARG 14-11-23 12:58 OP:stll STATUS:               ID:20141123033747     3
 2014-11-23-0337-47M.COL___297                                                 6
 STAT SP IPHASW D HRMM SECON CODA AMPLIT PERI AZIMU VELO AIN AR TRES W  DIS CAZ7
 BAR2 SZ EP        344 39.52                             164   -0.2510 32.0 131 
 BAR2 SZ ES        344 52.90                             164   -0.0210 32.0 131 
 BRR  HZ EP        344 39.96                             156   -0.2010 49.8 316 
 BRR  HZ I         344 40.16         4.4 0.48            158           49.8 316 
 BRR  HN ES        344 53.85                             156    0.2410 49.8 316 
 RUS  HN ES        345  1.64                             137    0.1210  104 160 
 RUS  HZ I         345  6.02         0.6 0.64            134            104 160 
 PTB  HZ EP        344 45.73                             132    0.4310  120 257 
 PTB  HN ES        345  2.46                             132   -0.3010  120 257 
 PTB  HZ I         345  6.82         1.7 0.22            130            120 257 
                                                                                
