 2011  123 0833 40.3 L   6.300 -73.603108.0  RSN  6 0.1 1.5LRSN                1
 GAP=101        0.39       1.9     2.7  4.5 -0.1869E+01  0.7349E+01 -0.2108E+01E
 Epicentro: SANTA HELENA DEL OPON - SANTANDER                                  3
 ACTION:UP  11-02-08 08:42 OP:pat  STATUS:               ID:20110123083340 L   I
 2011-01-23-0829-19S.COL___138                                                 6
 STAT SP IPHASW D HRMM SECON CODA AMPLIT PERI AZIMU VELO SNR AR TRES W  DIS CAZ7
 BAR2 SZ EP   1    833 56.73                             150    -0.1 7   56  55 
 BAR2 SZ ES   1    834  9.78                             150     0.0 7   56  55 
 BAR2 SZ I         834 11.12        51.9 0.39                            56  55 
 RUS  HZ IP     C  833 58.08                             144    -0.210   73 128 
 RUS  HE ES   1    834 12.57                             144     0.2 7   73 128 
 RUS  HZ I         834 13.36         3.8 0.27                            73 128 
 NOR  SZ EP   1    834  6.05                             119     0.0 7  162 240 
 NOR  SE ES   1    834 26.05                             119    -0.1 7  162 240 
 CHI  HZ EP   1    834  9.06                             115     0.1 7  185 184 
 CHI  HN ES   2    834 31.65                             115     0.3 4  185 184 
 CHI  HZ I         834 34.18         1.8 0.30                           185 184 
 HEL  HZ EP   1    834 12.16                             112     0.1 6  214 267 
 HEL  HZ I         834 40.01         2.0 0.54                           214 267 
 OCA  SZ EP   1    834 12.33                             111     0.2 6  217   8 
 OCA  SZ ES   1    834 37.14                             111     0.1 6  217   8 
 OCA  SZ I         834 39.34         4.7 0.35                           217   8 
                                                                                
