 2013  523 0527 29.2 L   6.756 -73.135148.5  RSN  7 0.4 2.2LRSN                1
 GAP=184        0.91       3.8     5.1  5.9 -0.1334E+01  0.7451E+01  0.3255E+01E
 Epicentro: LOS SANTOS - SANTANDER                                             3
 ACTION:UPD 13-06-20 09:52 OP:ep   STATUS:               ID:20130523052729 L   I
 2013-05-23-0518-52M.COL___206                                                 6
 STAT SP IPHASW D HRMM SECON CODA AMPLIT PERI AZIMU VELO AIN AR TRES W  DIS CAZ7
 BAR2 SZ EP        527 48.92                             172   -0.1910 18.8 196 
 BAR2 SZ ES        528  4.54                             172   -0.0710 18.8 196 
 BAR2 SZ I         528  5.70        12.9 0.48            169           18.8 196 
 GIR2 SZ EP        527 49.17                             166   -0.2010 36.3 350 
 GIR2 SZ ES        528  4.88                             166   -0.2010 36.3 350 
 BRR  HZ EP        527 50.95                             152    0.0810 74.7 301 
 BRR  HN ES        528  8.37                             152    0.6210 74.7 301 
 BRR  HN I         528 12.53        29.3 0.20            148           74.7 301 
 RUS  HZ EP        527 53.11                             146    0.2110 95.6 177 
 RUS  HN ES        528 11.40                             146    0.0410 95.6 177 
 RUS  HN I         528 13.24        23.8 0.40            147           95.6 177 
 PTB  HZ EP        527 56.10                             133   -0.35 9  148 261 
 PTB  HN ES        528 16.93                             133   -0.75 9  148 261 
 PTB  HN I         528 22.75        18.5 0.22            131            148 261 
 OCA  HN ES        528 21.02                             129    0.18 9  165 353 
 OCA  HN I         528 24.51        41.0 0.20            130            165 353 
 NOR  HZ EP        528  5.07                             119    0.15 8  233 236 
 NOR  HE ES        528 33.41                             119    0.64 8  233 236 
 NOR  HE I         528 40.93        13.7 0.20            119            233 236 
                                                                                
