 2012  223 0255 16.5 L   6.815 -73.173138.8  RSN  5 0.4 1.3LRSN                1
 GAP=179        0.72       5.9     6.2  7.2  0.1046E+02  0.4743E+01  0.6684E+01E
 ACTION:UP  12-03-07 16:33 OP:epov STATUS:               ID:20120223025516 L   I
 2012-02-23-0250-00M.COL___191                                                 6
 STAT SP IPHASW D HRMM SECON CODA AMPLIT PERI AZIMU VELO AIN AR TRES W  DIS CAZ7
 BAR2 SZ EP   1    255 34.89                             169   -0.41 7 24.7 183 
 BAR2 SZ ES   1    255 50.28                             169    0.31 7 24.7 183 
 BAR2 SZ I         255 51.38         6.3 0.30                          24.7 183 
 GIR2 SZ EP   1    255 35.30                             168    0.04 7 29.2 355 
 GIR2 SZ ES   1    255 49.33                             168   -0.58 7 29.2 355 
 BRR  HZ EP   1    255 37.01                             152    0.33 7 67.8 298 
 BRR  HE ES   1    255 52.95                             152    0.52 7 67.8 298 
 RUS  HZ EP   1    255 39.67                             142   -0.02 7  103 174 
 RUS  HN ES   1    255 57.95                             142    0.15 7  103 174 
 RUS  HZ I         255 59.39         2.1 0.24                           103 174 
 PTB  HZ EP   2    255 42.85                             131    0.20 5  145 258 
 PTB  HE ES   1    256  2.59                             131   -0.47 7  145 258 
                                                                                
