 2013  223 0733 42.3 L   6.821 -73.222  4.0  RSN  4 0.3 0.8LRSN                1
 GAP=125        0.56       1.9     1.9  5.4 -0.2729E+00  0.1087E+01 -0.1189E+01E
 Epicentro: ZAPATOCA - SANTANDER                                               3
 ACTION:UPD 13-03-12 09:35 OP:ep   STATUS:               ID:20130223073342 L   I
 2013-02-23-0730-00M.COL___225                                                 6
 STAT SP IPHASW D HRMM SECON CODA AMPLIT PERI AZIMU VELO AIN AR TRES W  DIS CAZ7
 BAR2 SZ EP   1    733 47.01                              47   -0.04 7 25.6 170 
 BAR2 SZ ES   1    733 50.73                              47   -0.01 7 25.6 170 
 BAR2 SZ I         733 51.30        10.4 0.12             47           25.6 170 
 BRR  HE ES   1    734  0.23                              47   -0.06 7 62.7 300 
 BRR  HZ I         734  1.18         4.1 0.42             47           62.7 300 
 PAM  SZ EP   1    733 55.37                              47   -0.39 7 81.4  45 
 PAM  SN ES   1    734  6.48                              47    0.25 7 81.4  45 
 PAM  SZ I         734  7.21         3.5 0.10             47           81.4  45 
 PTB  HZ EP   1    734  4.59                              47    0.45 7  140 257 
 PTB  HN ES   2    734 20.78                              47   -0.38 5  140 257 
 PTB  HZ I         734 22.85         1.3 0.24             47            140 257 
                                                                                
