 2016  623 0623 49.5 L   6.798 -73.118148.1  RSN 17 0.5 2.1LRSN                1
 GAP=122        1.04       3.4     3.4  5.0 -0.9578E+00  0.4862E+01  0.4967E+01E
 Epicentro: LOS SANTOS - SANTANDER                                             3
 ACTION:UPD 16-07-21 22:21 OP:rebc STATUS:               ID:20160623062349 L   I
 OLDACT:REG 16-06-23 12:48 OP:ak   STATUS:               ID:20160623061746     3
 2016-06-23-0617-46M.COL___331                                                 6
 STAT SP IPHASW D HRMM SECON CODA AMPLIT PERI AZIMU VELO AIN AR TRES W  DIS CAZ7
 BAR2 EZ EP        624  9.54                             170    0.0910 23.8 197 
 BAR2 EZ ES        624 24.66                             170   -0.3310 23.8 197 
 BAR2 EZ I         624 27.13        35.4 0.26                          23.8 197 
 BRR  HZ IP     D  624 11.32                             152    0.2310 74.0 298 
 BRR  HN ES        624 28.34                             152    0.4410 74.0 298 
 BRR  HZ I         624 29.37        12.6 0.12                          74.0 298 
 PAM  EZ EP        624 12.31                             152    0.4210 75.6  38 
 PAM  EN ES        624 29.45                             152    0.1210 75.6  38 
 PAM  EZ I         624 31.86        15.9 0.54                          75.6  38 
 RUS  HZ EP        624 13.70                             144    0.2210  100 178 
 RUS  HN ES        624 32.17                             144    0.0110  100 178 
 RUS  HZ I         624 33.76        12.5 0.26                           100 178 
 PTB  HZ EP        624 16.04                             132   -0.91 9  151 259 
 PTB  HN ES        624 37.43                             132   -0.91 9  151 259 
 PTB  HZ I         624 40.60        53.5 0.04                           151 259 
 SPBC HZ EP        624 18.41                             129    0.04 9  165 220 
 SPBC HN ES        624 40.91                             129    0.04 9  165 220 
 SPBC HZ I         624 45.67        21.2 0.10                           165 220 
 ZAR  HZ EP        624 22.39                             122   -0.03 8  207 292 
 ZAR  HN ES        624 47.97                             122   -0.11 8  207 292 
 ZAR  HZ I         624 53.67        11.3 0.32                           207 292 
 NOR  HZ EP        624 24.97                             119   -0.67 8  237 235 
 NOR  HN ES        624 53.36                             119   -0.46 8  237 235 
 NOR  HZ I         624 54.76         9.7 0.16                           237 235 
 CHI  HZ EP        624 27.52                             117    0.10 8  249 196 
 CHI  HN ES        624 57.34                             117    0.36 8  249 196 
 CHI  HZ I         625  0.17         4.0 0.18                           249 196 
 ROSC BZ EP   4    624 29.44                             117    1.52 0  254 212 
 ROSC BN ES   4    625  1.76                             117    3.88 0  254 212 
 ROSC BZ I         625  5.40        12.4 0.35                           254 212 
 HEL  HZ EP        624 30.24                             115    0.06 8  275 256 
 HEL  HN ES        625  2.50                             115    0.61 8  275 256 
 HEL  HZ I         625 11.16         4.8 0.54                           275 256 
 GUY2CHZ EP   2    624 34.15                             113    0.64 4  304 235 
 GUY2CHE ES        625  8.65                             113    0.83 7  304 235 
 GUY2CHZ I         625 15.87         8.7 0.34                           304 235 
 PTGC HZ EP        624 32.36                             112   -0.98 7  307 159 
 PTGC HN ES   4    625  5.77                             112   -1.74 0  307 159 
 PTGC HZ I         625 14.44         5.1 0.32                           307 159 
 CBOC HZ EP        624 37.25                             110    0.39 7  336 252 
 CBOC HN ES        625 13.35                             110   -0.43 7  336 252 
 CBOC HZ I         625 19.96         2.0 0.58                           336 252 
 PRA  HZ EP        624 42.69                             107   -0.59 6  393 210 
 PRA  HN ES        625 25.30                             107    0.09 6  393 210 
 PRA  HZ I         625 32.00         6.7 0.66                           393 210 
 ORTC HZ EP        624 44.40                             107    0.69 6  397 217 
 ORTC HN ES        625 26.79                             107    0.81 6  397 217 
 ORTC HZ I         625 32.59         4.3 0.44                           397 217 
 PAL  HZ EP        624 45.56                             106    0.50 6  408 239 
 PAL  HN ES        625 28.35                             106   -0.02 6  408 239 
 PAL  HZ I         625 34.13         2.9 0.46                           408 239 
                                                                                
