 2015 1023 0850 47.2 L   6.805 -73.126147.8  RSN  9 0.4 1.9LRSN                1
 GAP=139        1.03       3.6     4.9  6.2 -0.4631E+01  0.8459E+01 -0.8579E+00E
 Epicentro: LOS SANTOS - SANTANDER                                             3
 ACTION:UPD 15-12-22 20:42 OP:cam  STATUS:               ID:20151023085047 L   I
 OLDACT:REG 15-10-23 13:47 OP:mh   STATUS:               ID:20151023084746     3
 2015-10-23-0847-46M.COL___307                                                 6
 STAT SP IPHASW D HRMM SECON CODA AMPLIT PERI AZIMU VELO AIN AR TRES W  DIS CAZ7
 BAR2 EZ EP        851  7.05                             170   -0.0610 24.3 195 
 BAR2 EZ ES        851 22.14                             170   -0.4910 24.3 195 
 BAR2 EZ I         851 23.94        10.7 0.42            170           24.3 195 
 BRR  HZ EP        851  8.85                             152    0.1710 72.8 297 
 BRR  HN ES        851 26.27                             152    0.8510 72.8 297 
 BRR  HZ I         851 31.37        20.4 0.05            149           72.8 297 
 PAM  EZ EP        851  9.99                             152    0.4510 75.6  39 
 PAM  EN ES        851 26.81                             152   -0.1510 75.6  39 
 PAM  EZ I         851 29.17         5.2 0.50            155           75.6  39 
 RUS  HZ EP   1    851 11.04                             144   -0.16 7  101 177 
 RUS  HN ES   1    851 30.19                             144    0.28 7  101 177 
 RUS  HZ I         851 30.68         7.1 0.26            148            101 177 
 OCA  HZ EP        851 16.09                             130    0.43 9  160 352 
 OCA  HN ES        851 37.05                             130   -0.79 9  160 352 
 OCA  HZ I         851 44.00        13.4 0.20            131            160 352 
 SPBC HZ EP        851 16.15                             129    0.11 9  165 219 
 SPBC HN ES        851 38.30                             129   -0.22 9  165 219 
 SPBC HZ I         851 42.72        13.5 0.12            131            165 219 
 ZAR  HZ EP   1    851 20.46                             122    0.49 6  206 292 
 ZAR  HN ES        851 45.32                             122   -0.21 8  206 292 
 ZAR  HZ I         851 51.13        13.2 0.36            123            206 292 
 NOR  HZ EP        851 22.76                             119   -0.52 8  237 235 
 NOR  HN ES        851 51.44                             119    0.02 8  237 235 
 NOR  HZ I         851 56.02         5.0 0.34            120            237 235 
 SML  HZ EP   1    851 23.51                             118   -0.49 6  244 335 
                                                                                
