 2014  423 0943 33.3 L   6.840 -73.184139.1  RSN  8 0.5 1.6LRSN                1
 GAP=179        1.17       3.3     6.3 11.1  0.1477E+01  0.8835E+01 -0.5721E+01E
 Epicentro: ZAPATOCA - SANTANDER                                               3
 ACTION:UPD 14-05-13 23:10 OP:nd   STATUS:               ID:20140423094333 L   I
 OLDACT:DUP 14-04-23 14:42 OP:carl STATUS:               ID:20140423093812d    3
 2014-04-23-0938-11M.COL___239                                                 6
 STAT SP IPHASW D HRMM SECON CODA AMPLIT PERI AZIMU VELO AIN AR TRES W  DIS CAZ7
 RUS  HZ EP        943 57.11                             141    0.3010  105 174 
 RUS  HN ES        944 14.91                             141   -0.2010  105 174 
 RUS  HZ I         944 16.52         3.3 0.60            144            105 174 
 PTB  HZ EP        943 58.53                             131   -0.95 9  145 257 
 PTB  HN ES        944 19.66                             131   -0.20 9  145 257 
 PTB  HZ I         944 23.31         3.2 0.26            132            145 257 
 OCA  HE ES        944 22.54                             129    0.54 9  155 355 
 OCA  HZ I         944 25.77         4.4 0.20            131            155 355 
 SPBC HZ EP        944  1.58                             127    0.16 9  164 217 
 SPBC HN ES        944 23.22                             127   -0.11 9  164 217 
 SPBC HZ I         944 27.10         4.4 0.26            129            164 217 
 ZAR  HZ EP        944  5.64                             122    0.86 9  198 291 
 ZAR  HE ES        944 29.72                             122    0.42 9  198 291 
 ZAR  HZ I         944 35.57         4.3 0.34            123            198 291 
 SML  HZ EP        944  8.47                             117   -0.50 8  238 336 
 SML  HN ES        944 36.06                             117   -0.70 8  238 336 
 SML  HZ I         944 39.01         4.8 0.28            119            238 336 
 CHI  HN ES        944 40.57                             115    0.13 8  252 194 
 RREF HN ES        944 55.26                             109    0.34 7  321 228 
 RREF HZ I         945  2.28         2.1 0.32            111            321 228 
                                                                                
