 2017  123 0805 33.1 L   6.785 -73.189144.0  RSN  8 0.4 1.5LRSN                1
 GAP=132        0.94       3.8     3.7  6.2  0.7619E+00  0.3016E+01  0.5464E+01E
 Epicentro: ZAPATOCA - SANTANDER                                               3
 ACTION:UPD 17-05-22 16:02 OP:jn   STATUS:               ID:20170123080533 L   I
 OLDACT:REG 17-01-23 12:56 OP:lv   STATUS:               ID:20170123075739     3
 2017-01-23-0758-00M.COL___331                                                 6
 STAT SP IPHASW D HRMM SECON CODA AMPLIT PERI AZIMU VELO AIN AR TRES W  DIS CAZ7
 BAR2 EZ EP        8 5 52.43                             171   -0.0710 21.3 178 
 BAR2 EZ ES        8 6  7.62                             171    0.0110 21.3 178 
 BAR2 EZ I         8 6  9.01        12.5 0.26            169           21.3 178 
 BRR  HZ EP        8 5 54.28                             153    0.3910 67.9 302 
 BRR  HN ES        8 6 10.49                             153    0.3910 67.9 302 
 BRR  HZ I         8 6 11.92         7.5 0.13            149           67.9 302 
 PAM  EZ EP        8 5 55.34                             149   -0.0710 81.7  41 
 PAM  EN ES        8 6 12.41                             149   -0.3910 81.7  41 
 PAM  EZ I         8 6 14.56         6.3 0.54            153           81.7  41 
 RUS  HZ EP        8 5 56.42                             144   -0.1910 99.4 173 
 RUS  HN ES        8 6 15.38                             144    0.4510 99.4 173 
 RUS  HZ I         8 6 16.19         2.7 0.18            143           99.4 173 
 PTB  HZ EP        8 5 59.10                             133   -0.39 9  143 259 
 PTB  HN ISg       8 6 19.51                             133   -0.55 9  143 259 
 PTB  HN ES        8 6 19.65                             133   -0.41 9  143 259 
 PTB  HZ I         8 6 27.01         4.2 0.21            130            143 259 
 ZAR  HZ EP   4    8 6  7.88                             122    2.82 0  200 293 
 ZAR  HN ES        8 6 30.63                             122    0.65 9  200 293 
 ZAR  HZ I         8 6 35.67         3.8 0.15            121            200 293 
 CHI  HZ EP        8 6 10.82                             117    0.40 8  246 194 
 CHI  HE ES        8 6 39.44                             117   -0.07 8  246 194 
 CHI  HZ I         8 6 43.95         2.2 0.44            116            246 194 
 CBOC HZ EP   4    8 6 20.91                             110    1.53 0  329 252 
 CBOC HN ES   4    8 6 57.74                             110    2.27 0  329 252 
 CBOC HZ I         8 7  8.83         0.7 0.48            109            329 252 
                                                                                
