 2016 1023 0233 11.9 L   6.787 -73.147143.2  RSN 12 0.3 1.8LRSN                1
 GAP= 71        1.24       3.8     4.6  6.8 -0.4630E+01 -0.6747E+00  0.4065E+01E
 Epicentro: LOS SANTOS - SANTANDER                                             3
 ACTION:UPD 16-11-09 19:21 OP:rebc STATUS:               ID:20161023023311 L   I
 OLDACT:UP  16-10-23 14:31 OP:e    STATUS:               ID:20161023022744     3
 OLDACT:UP  16-10-23 14:28 OP:e    STATUS:               ID:20161023022744     3
 OLDACT:UP  16-10-23 14:26 OP:e    STATUS:               ID:20161023022744     3
 OLDACT:REG 16-10-23 12:39 OP:and  STATUS:               ID:20161023022744     3
 2016-10-23-0228-00M.COL___353                                                 6
 STAT SP IPHASW D HRMM SECON CODA AMPLIT PERI AZIMU VELO AIN AR TRES W  DIS CAZ7
 BAR2 EZ EP        233 30.99                             171   -0.1710 21.9 190 
 BAR2 EZ ES        233 45.84                             171   -0.3710 21.9 190 
 BAR2 EZ I         233 49.00        15.9 0.32            166           21.9 190 
 BRR  HZ IP     D  233 32.92                             152    0.1410 71.8 300 
 BRR  HN ES        233 49.65                             152    0.5710 71.8 300 
 BRR  HZ I         233 53.09        11.4 0.26            147           71.8 300 
 PAM  EZ IP     D  233 34.02                             151    0.1310 78.6  39 
 PAM  EN ES        233 51.09                             151    0.0310 78.6  39 
 PAM  EZ I         233 54.10         6.7 0.30            151           78.6  39 
 RUS  HZ EP        233 34.96                             144   -0.3110 99.2 176 
 RUS  HE ES        233 53.73                             144    0.2110 99.2 176 
 RUS  HZ I         233 55.72         6.2 0.26            139           99.2 176 
 PTB  HZ EP        233 37.82                             132   -0.77 9  147 259 
 PTB  HN ES        233 59.11                             132   -0.32 9  147 259 
 PTB  HZ I         234  3.91         6.8 0.14            126            147 259 
 TAM  HZ IP     C  233 39.43                             131    0.10 9  155 104 
 TAM  HE ES   2    234  1.43                             131    0.69 5  155 104 
 SPBC HZ EP        233 39.96                             129   -0.10 9  162 219 
 SPBC HN ES        234  2.12                             129    0.08 9  162 219 
 SPBC HZ I         234  6.98        11.0 0.17            124            162 219 
 OCA  HZ EP        233 39.93                             129   -0.19 9  162 353 
 OCA  HE ES        234  2.23                             129    0.08 9  162 353 
 OCA  HZ I         234  5.49        11.0 0.19            126            162 353 
 NOR  HZ EP   2    233 47.37                             118    0.02 4  234 235 
 NOR  HN ES        234 15.47                             118    0.45 8  234 235 
 NOR  HZ I         234 22.47         6.5 0.14            114            234 235 
 CHI  HZ EP     C  233 49.35                             117    0.08 8  247 195 
 CHI  HN ES        234 18.77                             117    0.32 8  247 195 
 CHI  HZ I         234 28.45         2.9 0.36            113            247 195 
 HEL  HZ EP   9    233 51.44                             115   -0.46 0  272 256 
 HEL  HN ES        234 24.88                                    2.22 8  272 256 
 HEL  HZ I         234 31.32         4.2 0.38            111            272 256 
 GUY2CHZ EP   3    233 56.39                             112    1.14 2  300 235 
 GUY2CHN ES   4    234 33.48                             112    4.39 0  300 235 
 GUY2CHZ I         234 37.22         4.1 0.34                           300 235 
                                                                                
