 2017  623 0310 29.5 L   6.781 -73.144150.4  RSN  4 0.3 1.3LRSN                1
 GAP=252        0.75       8.8     5.6  6.8  0.1982E+02  0.7923E+01  0.8107E+00E
 Epicentro: LOS SANTOS - SANTANDER                                             3
 ACTION:UPD 17-09-14 16:54 OP:jn   STATUS:               ID:20170623031029 L   I
 OLDACT:UP  17-07-06 19:35 OP:nlst STATUS:               ID:20170623031029 L   3
 OLDACT:UP  17-06-23 19:17 OP:lv   STATUS:               ID:20170623030742     3
 OLDACT:REG 17-06-23 19:14 OP:lv   STATUS:               ID:20170623030742     3
 2017-06-23-0308-00M.COL___374                                                 6
 STAT SP IPHASW D HRMM SECON CODA AMPLIT PERI AZIMU VELO AIN AR TRES W  DIS CAZ7
 BAR2 EZ EP        310 49.61                             172   -0.0810 21.3 192 
 BAR2 EZ ES        311  5.09                             172   -0.3110 21.3 192 
 BAR2 EZ I         311  6.90         3.8 0.32            172           21.3 192 
 BRR  HZ EP        310 51.48                             153    0.2310 72.4 300 
 BRR  HN ES        311  8.56                             153    0.3710 72.4 300 
 BRR  HZ I         311 10.67         6.4 0.21            153           72.4 300 
 PTB  HZ EP        310 56.90                             133    0.03 9  148 260 
 PTB  HN ES        311 18.37                             133    0.18 9  148 260 
 PTB  HZ I         311 20.05         1.3 0.14            134            148 260 
 ZAR  HE ES        311 27.47                             123   -0.54 9  205 293 
                                                                                
