 2012 1123 0517 21.3 L   6.779 -73.154147.1  RSN  5 0.4 1.1LRSN                1
 GAP=136        0.81       5.6     5.1  9.2 -0.6832E+00  0.1361E+02  0.5982E+01E
 Epicentro: LOS SANTOS - SANTANDER                                             3
 ACTION:UPD 12-12-05 15:35 OP:}ep  STATUS:               ID:20121123051721 L   I
 2012-11-23-0515-50M.COL___206                                                 6
 STAT SP IPHASW D HRMM SECON CODA AMPLIT PERI AZIMU VELO AIN AR TRES W  DIS CAZ7
 GIR2 SZ EP   1    517 40.81                             167   -0.37 7 33.4 353 
 GIR2 SZ ES   1    517 57.26                             167    0.57 7 33.4 353 
 GIR2 SZ I         517 59.29         5.1 0.42                          33.4 353 
 PAM  SZ EP   1    517 43.77                             150   -0.02 7 79.8  39 
 PAM  SN ES   1    518  1.01                             150   -0.33 7 79.8  39 
 PAM  SZ I         518  3.04         2.5 0.46                          79.8  39 
 RUS  HZ EP   1    517 45.00                             145   -0.01 7 98.3 175 
 RUS  HN ES   1    518  3.64                             145    0.13 7 98.3 175 
 RUS  HZ I         518  4.55         1.5 0.32                          98.3 175 
 PTB  HZ EP   1    517 48.81                             133    0.57 7  146 260 
 PTB  HN ES   1    518  8.51                             133   -0.75 7  146 260 
 PTB  HZ I         518  9.82         1.4 0.16                           146 260 
 ZAR  HN ES   1    518 19.49                             123    0.29 6  204 293 
                                                                                
