 2017  423 0741 58.9 L   5.831 -73.888111.3  RSN  6 0.4 1.3LRSN                1
 GAP=120        1.11       5.0     5.4  8.7  0.4762E+01 -0.1469E+02 -0.9891E+01E
 Epicentro: ALBANIA - SANTANDER                                                3
 ACTION:UPD 17-05-30 21:15 OP:jn   STATUS:               ID:20170423074158 L   I
 OLDACT:REG 17-04-23 12:44 OP:lv   STATUS:               ID:20170423073741     3
 2017-04-23-0738-00M.COL___365                                                 6
 STAT SP IPHASW D HRMM SECON CODA AMPLIT PERI AZIMU VELO AIN AR TRES W  DIS CAZ7
 SPBC HZ EP        742 14.48                             165    0.1610 28.4 226 
 SPBC HN ES        742 26.71                             165    0.3510 28.4 226 
 PTB  HZ EP        742 18.08                             135   -0.6910  100 321 
 PTB  HN ES        742 33.67                             135   -0.6210  100 321 
 BAR2 EZ EP        742 20.37                             131    0.0110  115  43 
 BAR2 EZ ES        742 36.94                             131   -0.1810  115  43 
 BAR2 EZ I         742 37.57         4.2 0.09            131            115  43 
 BRR  HZ EP        742 22.80                             124    0.07 9  142   8 
 BRR  HE ES        742 41.50                             124    0.16 9  142   8 
 YPLC HZ EP        742 26.21                             118    0.10 9  174 106 
 PAM  EZ EP   4    742 32.46                             113    1.57 0  212  38 
 ZAR  HE ES        742 55.80                             113    0.95 8  213 330 
                                                                                
