 2012 1123 0806 40.1 L   6.522 -73.618113.3  RSN  5 0.2 1.2LRSN                1
 GAP=133        0.49       5.0     3.4  5.9  0.1028E+02  0.4741E+01 -0.2902E+01E
 Epicentro: SANTA HELENA DEL OPON - SANTANDER                                  3
 ACTION:UPD 12-12-05 15:35 OP:}ep  STATUS:               ID:20121123080640 L   I
 2012-11-23-0800-00M.COL___233                                                 6
 STAT SP IPHASW D HRMM SECON CODA AMPLIT PERI AZIMU VELO AIN AR TRES W  DIS CAZ7
 BAR2 SZ EP   1    8 6 56.74                             155   -0.09 7 48.8  81 
 BAR2 SZ ES   1    8 7  9.76                             155   -0.12 7 48.8  81 
 BAR2 SZ I         8 7 10.23         8.8 0.20                          48.8  81 
 RUS  HZ EP   1    8 6 59.78                             139   -0.27 7 91.4 140 
 RUS  HE ES   1    8 7 16.02                             139    0.40 7 91.4 140 
 RUS  HZ I         8 7 17.62         1.2 0.36                          91.4 140 
 PTB  HZ EP   1    8 6 59.53                             138    0.03 7 92.7 271 
 PTB  HN ES   1    8 7 14.41                             138   -0.23 7 92.7 271 
 PTB  HZ I         8 7 15.97         4.8 0.08                          92.7 271 
 ZAR  HZ EP   1    8 7  7.44                             119    0.07 7  174 308 
 ZAR  HN ES   1    8 7 28.92                             119    0.27 7  174 308 
 ZAR  HZ I         8 7 33.60         2.4 0.54                           174 308 
 HEL  HZ I         8 7 43.10         2.3 0.50                           215 260 
                                                                                
