 2012  623 0651  3.5 L   6.705 -73.211143.3  RSN  4 0.5 1.1LRSN                1
 GAP=217        0.48      17.5    12.2 13.9  0.3991E+02  0.4274E+02  0.2883E+02E
 Epicentro: VILLANUEVA - SANTANDER                                             3
 ACTION:UPD 12-08-06 17:51 OP:ep   STATUS:               ID:20120623065103 L   I
 2012-06-23-0650-00M.COL___199                                                 6
 STAT SP IPHASW D HRMM SECON CODA AMPLIT PERI AZIMU VELO AIN AR TRES W  DIS CAZ7
 BAR2 SZ EP   3    651 22.83                             174    0.17 2 12.9 166 
 BAR2 SZ ES   3    651 37.61                             174    0.00 2 12.9 166 
 BRR  HZ EP   2    651 23.86                             152   -0.51 5 71.0 309 
 BRR  HZ I         651 27.46         2.6 0.42                          71.0 309 
 BRR  HN ES   3    651 41.23                             152    0.58 2 71.0 309 
 PTB  HZ EP   2    651 29.92                             133    0.46 5  139 262 
 PTB  HN ES   3    651 49.00                             133   -0.72 2  139 262 
 ZAR  HN ES   3    652  0.93                             122    0.40 2  202 296 
                                                                                
