 2014  823 0137 36.7 L   6.782 -73.163138.9  RSN  5 0.4 1.4LRSN                1
 GAP=135        1.07       5.5     5.4  7.9 -0.2685E+01  0.5559E+01  0.2021E+01E
 Epicentro: LOS SANTOS - SANTANDER                                             3
 ACTION:UPD 14-09-15 21:52 OP:nd   STATUS:               ID:20140823013736 L   I
 OLDACT:DUP 14-08-23 16:18 OP:stll STATUS:               ID:20140823012823d    3
 2014-08-23-0128-21M.COL___224                                                 6
 STAT SP IPHASW D HRMM SECON CODA AMPLIT PERI AZIMU VELO AIN AR TRES W  DIS CAZ7
 BAR2 SZ EP        137 55.48                             171   -0.0110 21.1 186 
 BAR2 SZ ES        138  9.41                             171   -0.7210 21.1 186 
 BAR2 SZ I         138 11.56         7.4 0.32            172           21.1 186 
 BRR  HZ EP        137 57.21                             151    0.1110 70.6 301 
 BRR  HN ES        138 13.77                             151    0.7710 70.6 301 
 BRR  HZ I         138 16.22         5.1 0.32            151           70.6 301 
 PAM  SZ EP        137 58.20                             149   -0.1910 80.1  40 
 PAM  SN ES        138 15.23                             149   -0.0610 80.1  40 
 PAM  SZ I         138 17.50         4.5 0.54            150           80.1  40 
 RUS  HZ EP        137 59.77                             143    0.0910 98.8 175 
 RUS  HZ I         138  0.89         2.5 0.10            145           98.8 175 
 RUS  HN ES        138 18.05                             143    0.4710 98.8 175 
 PTB  HZ EP        138  2.89                             131   -0.05 9  146 259 
 PTB  HN ES        138 22.90                             131   -0.49 9  146 259 
 PTB  HZ I         138 26.00         3.2 0.10            132            146 259 
                                                                                
