 2013  323 0125 26.2 L   6.723 -73.147141.8  RSN  7 0.4 1.8LRSN                1
 GAP=140        1.15       4.6     5.1  8.3  0.5331E+00  0.8393E+01 -0.1749E+01E
 Epicentro: JORDAN - SANTANDER                                                 3
 ACTION:UPD 13-04-09 14:04 OP:ep   STATUS:               ID:20130323012526 L   I
 2013-03-23-0120-00M.COL___245                                                 6
 STAT SP IPHASW D HRMM SECON CODA AMPLIT PERI AZIMU VELO AIN AR TRES W  DIS CAZ7
 BAR2 SZ EP        125 45.15                             174   -0.0310 15.0 195 
 BAR2 SZ ES        125 59.79                             174   -0.2210 15.0 195 
 BAR2 SZ I         126  0.75        18.8 0.24            173           15.0 195 
 BRR  HZ EP        125 47.30                             150    0.1510 75.5 304 
 BRR  HE ES        126  3.99                             150    0.4810 75.5 304 
 BRR  HE I         126  8.91        20.1 0.18            150           75.5 304 
 PAM  SZ EP        125 48.07                             148   -0.3210 84.1  36 
 PAM  SN ES        126  5.03                             148   -0.6910 84.1  36 
 PAM  SN I         126  6.24        20.4 0.44            151           84.1  36 
 RUS  HZ EP        125 49.12                             145    0.1910 92.1 176 
 RUS  HN ES        126  7.27                             145    0.5810 92.1 176 
 RUS  HN I         126  8.01         5.4 0.22            148           92.1 176 
 PTB  HZ EP        125 52.48                             131   -0.20 9  146 262 
 PTB  HN ES        126 12.67                             131   -0.69 9  146 262 
 PTB  HN I         126 16.84         7.4 0.22            132            146 262 
 OCA  HN ES        126 18.21                             127    0.75 9  169 354 
 ZAR  HN ES        126 24.10                             121    0.03 8  207 294 
 ZAR  HN I         126 25.33         4.9 0.14            123            207 294 
                                                                                
