 2016  223 0920 19.8 L   6.831 -73.208151.6  RSN  7 0.2 1.3LRSN                1
 GAP=127        0.59       2.9     2.9  4.6  0.1379E+01  0.6239E+01  0.4735E+01E
 Epicentro: ZAPATOCA - SANTANDER                                               3
 ACTION:UPD 16-03-04 21:28 OP:rebc STATUS:               ID:20160223092019 L   I
 OLDACT:REG 16-02-23 13:30 OP:mh   STATUS:               ID:20160223091743     3
 2016-02-23-0917-43M.COL___315                                                 6
 STAT SP IPHASW D HRMM SECON CODA AMPLIT PERI AZIMU VELO AIN AR TRES W  DIS CAZ7
 BAR2 EZ ES        920 56.13                             170    0.0410 26.6 174 
 BAR2 EZ  AMP      920 57.01        13.2 0.07                          26.6 174 
 PAM  EE ES        921  0.64                             151   -0.0110 79.5  45 
 PAM  EZ I         921  2.53         3.0 0.54            152           79.5  45 
 RUS  HZ EP        920 44.58                             144    0.1810  105 172 
 RUS  HN ES        921  3.51                             144   -0.0910  105 172 
 RUS  HZ I         921  4.08         2.4 0.22            144            105 172 
 PTB  HZ EP        920 47.03                             134    0.34 9  142 257 
 PTB  HN ES        921  7.62                             134   -0.07 9  142 257 
 PTB  HZ I         921 10.04         2.0 0.36            135            142 257 
 ZAR  HE ES        921 16.58                             125   -0.25 9  196 292 
 CHI  HZ EP        920 57.98                             118    0.00 8  250 193 
 CHI  HE ES        921 27.46                             118   -0.32 8  250 193 
 CHI  HZ I         921 33.03         1.2 0.26            118            250 193 
 GUY2CHZ EP        921  2.82                             114   -0.44 7  298 233 
 GUY2CHE ES        921 37.65                             114    0.48 7  298 233 
 GUY2CHZ I         921 44.58         0.8 0.32                           298 233 
                                                                                
