 2016  223 0403 49.3 L   6.812 -73.214133.4  RSN  8 0.3 1.7LRSN                1
 GAP=128        0.73       2.9     4.2  5.9 -0.5939E+01  0.1488E+02 -0.3063E+01E
 Epicentro: ZAPATOCA - SANTANDER                                               3
 ACTION:UPD 16-03-04 21:28 OP:rebc STATUS:               ID:20160223040349 L   I
 OLDACT:UP  16-02-23 17:44 OP:mh   STATUS:               ID:20160223035740     3
 OLDACT:UP  16-02-23 17:44 OP:mh   STATUS:               ID:20160223035740     3
 OLDACT:REG 16-02-23 13:08 OP:mh   STATUS:               ID:20160223035740     3
 2016-02-23-0357-40M.COL___328                                                 6
 STAT SP IPHASW D HRMM SECON CODA AMPLIT PERI AZIMU VELO AIN AR TRES W  DIS CAZ7
 BAR2 EZ EP   1    4 4  7.51                             169    0.01 7 24.5 172 
 BAR2 EZ ES        4 4 21.80                             169    0.1210 24.5 172 
 BAR2 EZ I         4 4 23.37        17.1 0.14            171           24.5 172 
 PAM  EZ EP     C  4 4 10.63                             147    0.1210 81.4  44 
 PAM  EN ES        4 4 27.39                             147    0.3610 81.4  44 
 PAM  EZ I         4 4 29.53         9.3 0.54            151           81.4  44 
 RUS  HZ EP   1    4 4 11.75                             140   -0.30 7  103 172 
 RUS  HN ES        4 4 29.37                             140   -0.4010  103 172 
 RUS  HZ I         4 4 30.86         5.3 0.28            147            103 172 
 OCA  HN ES        4 4 37.30                             127   -0.41 9  158 356 
 OCA  HZ I    1    4 4 45.17        14.6 0.48            128            158 356 
 SPBC HZ EP   1    4 4 16.53                             127   -0.03 7  160 217 
 SPBC HN ES        4 4 38.04                             127    0.24 9  160 217 
 SPBC HZ I         4 4 39.86         6.5 0.26            129            160 217 
 NOR  HZ EP   1    4 4 24.03                             116    0.24 6  229 233 
 NOR  HN ES   1    4 4 50.06                             116   -0.61 6  229 233 
 NOR  HZ I         4 4 55.40         2.9 0.20            118            229 233 
 HEL  HZ EP   1    4 4 28.55                             113    0.39 6  265 255 
 HEL  HN ES        4 4 58.27                             113   -0.17 8  265 255 
 HEL  HZ I         4 5  8.31         1.8 0.54            114            265 255 
 GUY2CHZ EP        4 4 31.69                             110   -0.09 7  296 234 
 GUY2CHN ES   1    4 5  5.81                             110    0.92 5  296 234 
 GUY2CHZ I         4 5 12.51         2.5 0.26                           296 234 
                                                                                
