 2013  123 0944 56.3 L   6.787 -73.159146.2  RSN  6 0.4 1.8LRSN                1
 GAP=135        1.16       5.2     6.0  9.3 -0.3694E+01  0.2485E+01  0.1642E+02E
 Epicentro: LOS SANTOS - SANTANDER                                             3
 ACTION:UPD 13-02-15 09:16 OP:ep   STATUS:               ID:20130123094456 L   I
 2013-01-23-0938-41M.COL___177                                                 6
 STAT SP IPHASW D HRMM SECON CODA AMPLIT PERI AZIMU VELO AIN AR TRES W  DIS CAZ7
 BAR2 SZ EP        945 15.87                             171   -0.1110 21.7 187 
 BAR2 SZ I         945 33.38        19.0 0.26            169           21.7 187 
 BRR  HZ EP        945 17.85                             153    0.3610 70.6 300 
 BRR  HN ES        945 34.83                             153    0.8310 70.6 300 
 BRR  HN I         945 38.20        11.3 0.20            155           70.6 300 
 PAM  SZ EP        945 18.92                             150    0.2110 79.4  40 
 PAM  SZ I         945 19.13         8.5 0.22            151           79.4  40 
 PAM  SN ES        945 35.47                             150   -0.7010 79.4  40 
 RUS  HZ EP        945 20.41                             144    0.3810 99.3 175 
 RUS  HN ES        945 38.51                             144    0.0010 99.3 175 
 PTB  HZ EP        945 22.75                             132   -0.43 9  146 259 
 PTB  HN ES        945 43.45                             132   -0.67 9  146 259 
 PTB  HN I         945 46.21         9.7 0.20            133            146 259 
 CHI  HZ EP        945 33.75                             117   -0.11 8  247 195 
 CHI  HN ES        946  3.19                             117    0.06 8  247 195 
 CHI  HN I         946  9.89         3.1 0.28            117            247 195 
                                                                                
