 2010 1223 0749  1.2 L   6.774 -73.152144.1  RSN 11 0.5 2.3LRSN                1
 GAP=135        0.96       3.8     6.8  7.7 -0.1208E+02  0.1960E+02 -0.2771E+00E
 Epicentro: LOS SANTOS - SANTANDER                                             3
 ACTION:UP  11-01-14 15:26 OP:pat  STATUS:               ID:20101223074901 L   I
 2010-12-23-0743-52S.COL___135                                                 6
 STAT SP IPHASW D HRMM SECON CODA AMPLIT PERI AZIMU VELO SNR AR TRES W  DIS CAZ7
 BAR2 SZ IP        749 20.41                             172    -0.210   20 190 
 BAR2 SZ ES   1    749 35.93                             172     0.2 7   20 190 
 BAR2 SZ I         749 38.43        57.3 0.38                            20 190 
 RUS  HZ IP     D  749 24.26                             144    -0.310   98 176 
 RUS  HN ES   1    749 42.74                             144    -0.1 7   98 176 
 RUS  HZ I         749 44.26        15.8 0.19                            98 176 
 GRA  SZ IP        749 27.23                             136     0.710  129  17 
 GRA  SZ I         749 28.70        21.5 0.35                           129  17 
 GRA  SZ ES   1    749 46.42                             136     0.1 7  129  17 
 OCA  SZ EP   1    749 28.76                             129    -0.9 7  163 354 
 OCA  SZ ES   1    749 51.69                             129    -0.1 7  163 354 
 OCA  SZ I         749 55.59        22.1 0.28                           163 354 
 YOP  SZ EP   2    749 31.01                             126     0.1 4  177 153 
 YOP  SZ I         749 33.00         8.6 0.31                           177 153 
 NOR  SZ EP   1    749 36.12                             118    -0.5 6  233 235 
 NOR  SN ES   1    750  4.12                             118    -0.1 6  233 235 
 CHI  HZ EP   1    749 38.21                             117    -0.3 6  246 195 
 CHI  HE ES   2    750  6.59                             117    -1.0 4  246 195 
 CHI  HZ I         750 11.38         8.9 0.45                           246 195 
 ROSC BZ EP   1    749 39.23                             117     0.3 6  250 211 
 ROSC BE ES   1    750  9.00                             117     0.7 6  250 211 
 ROSC BZ I         750 16.42        22.8 0.56                           250 211 
 HEL  HZ EP   1    749 41.48                             114     0.3 6  271 256 
 HEL  HN ES   2    750 11.81                             114    -0.5 4  271 256 
 HEL  HZ I         750 18.81         8.8 0.24                           271 256 
 RREF HZ EP   1    749 47.56                             111     0.6 5  319 230 
 RREF HN ES   1    750 22.82                             111     0.1 5  319 230 
 RREF HZ I         750 32.69        12.8 0.17                           319 230 
 PRA  HZ EP   1    749 54.24                             106    -0.1 4  389 210 
 PRA  HE ES   1    750 36.58                             106     0.8 4  389 210 
 PRA  HZ I         750 39.28        25.1 0.22                           389 210 
                                                                                
