 2010  723 0704  6.5 L   7.380 -73.129132.0  RSN  7 0.4 2.0LRSN                1
 GAP=151        1.08       5.8    10.4  9.2 -0.2257E+02 -0.1517E+01 -0.2179E+01E
 Epicentro: RIONEGRO - SANTANDER                                               3
 ACTION:UPD 10-12-01 15:19 OP:pat  STATUS:               ID:20100723070406 L   I
 2010-07-23-0702-32S.COL___123                                                 6
 STAT SP IPHASW D HRMM SECON CODA AMPLIT PERI AZIMU VELO AIN AR TRES W  DIS CAZ7
 GIR2 SZ EP   1    7 4 24.74                             165     0.1 7   34 192 
 GIR2 SZ ES   1    7 4 39.04                             165     0.2 7   34 192 
 GUE  SZ EP        7 4 25.01                             156    -0.810   55  24 
 GUE  SZ I         7 4 25.29        24.1 0.08                            55  24 
 GRA  SZ IP        7 4 26.60                             152     0.410   66  33 
 GRA  SZ ES   1    7 4 41.49                             152     0.0 7   66  33 
 GRA  SZ I         7 4 42.63        17.8 0.26                            66  33 
 BRR  HZ EP        7 4 26.07                             150    -0.110   71 245 
 BRR  HE ES   1    7 4 41.35                             150    -0.2 7   71 245 
 BRR  HZ I         7 4 42.19        31.5 0.02                            71 245 
 BAR2 SZ EP        7 4 27.90                             145     0.310   87 184 
 BAR2 SZ ES   1    7 4 43.92                             145    -0.2 7   87 184 
 BAR2 SZ I         7 4 45.22        25.9 0.14                            87 184 
 OCA  SZ EP   1    7 4 27.84                             142    -0.4 7   97 348 
 OCA  SZ ES   1    7 4 45.72                             142     0.6 7   97 348 
 OCA  SZ I         7 4 46.86        11.2 0.06                            97 348 
 HEL  HZ EP   2    7 4 49.58                             110     0.8 4  296 244 
 HEL  HZ I         7 5  7.79         3.4 0.41                           296 244 
                                                                                
