 2013  823 0614  5.2 L   6.776 -73.148140.4  RSN  8 0.5 1.9LRSN                1
 GAP=137        1.08       3.3     4.7  8.1 -0.2463E+01  0.1074E+02 -0.5388E+01E
 Epicentro: LOS SANTOS - SANTANDER                                             3
 ACTION:UPD 14-01-14 09:05 OP:ep   STATUS:               ID:20130823061405 L   I
 OLDACT:REG 13-08-23 08:50 OP:nd   STATUS:               ID:20130823060959     3
 2013-08-23-0609-59M.COL___270                                                 6
 STAT SP IPHASW D HRMM SECON CODA AMPLIT PERI AZIMU VELO AIN AR TRES W  DIS CAZ7
 BRR  HZ IP     C  614 25.98                             151    0.1910 72.3 300 
 BRR  HN ES   2    614 42.20                             151    0.31 5 72.3 300 
 BRR  HZ I         614 46.43         7.6 0.38            150           72.3 300 
 PAM  SZ EP        614 26.77                             149   -0.1710 79.5  38 
 PAM  SN ES        614 43.87                             149   -0.0610 79.5  38 
 PAM  SZ I         614 46.58         9.3 0.64            154           79.5  38 
 RUS  HZ EP        614 28.37                             143    0.1810 98.0 176 
 RUS  HN ES        614 45.98                             143   -0.1810 98.0 176 
 RUS  HZ I         614 47.76         4.5 0.36            150           98.0 176 
 PTB  HZ EP        614 31.08                             131   -0.55 9  147 260 
 PTB  HN ES        614 52.08                             131   -0.19 9  147 260 
 PTB  HZ I         614 59.54         8.2 0.40            133            147 260 
 SPBC HZ EP        614 33.08                             128    0.04 9  161 220 
 SPBC HN ES        614 54.95                             128    0.16 9  161 220 
 SPBC HZ I         614 56.48         7.1 0.20            132            161 220 
 OCA  HZ EP        614 34.18                             128    0.88 9  163 353 
 OCA  HN ES        614 55.20                             128   -0.06 9  163 353 
 OCA  HZ I         615  0.60         6.8 0.34            131            163 353 
 ZAR  HZ EP        614 38.13                             121    0.79 9  205 293 
 ZAR  HN ES        615  2.41                             121   -0.03 9  205 293 
 ZAR  HZ I         615  9.18         7.5 0.34            124            205 293 
 SML  HZ EP        614 40.51                             116   -1.23 8  246 336 
 SML  HE ES        615 10.26                             116   -0.01 8  246 336 
 SML  HZ I         615 13.31        11.4 0.05            120            246 336 
 SML  HN I         615 13.52        23.4 0.10                           246 336 
                                                                                
