 2016  823 0413  1.1 L   7.428 -73.179128.0  RSN  9 0.4 1.7LRSN                1
 GAP=190        0.77       2.8     4.2  5.5 -0.1908E+01  0.5168E+01  0.2649E+01E
 Epicentro: EL PLAYON - SANTANDER                                              3
 ACTION:UPD 16-10-29 15:38 OP:rebc STATUS:               ID:20160823041301 L   I
 OLDACT:REG 16-08-23 14:41 OP:ak   STATUS:               ID:20160823040737     3
 2016-08-23-0408-00M.COL___371                                                 6
 STAT SP IPHASW D HRMM SECON CODA AMPLIT PERI AZIMU VELO AIN AR TRES W  DIS CAZ7
 BRR  HZ IP     D  413 20.22                             150   -0.0010 68.7 239 
 BRR  HE ES        413 35.41                             150    0.2910 68.7 239 
 BRR  HZ I         413 36.29        16.6 0.19                          68.7 239 
 OCA  HZ EP        413 21.98                             143    0.0110 91.0 350 
 OCA  HN ES        413 38.31                             143    0.0910 91.0 350 
 OCA  HZ I         413 40.86        17.5 0.17                          91.0 350 
 BAR2 EZ EP        413 22.20                             142    0.0210 92.4 180 
 BAR2 EZ ES        413 38.52                             142   -0.0910 92.4 180 
 BAR2 EZ I         413 40.86         6.1 0.21                          92.4 180 
 PTB  HZ EP        413 28.76                             123   -0.35 9  172 235 
 PTB  HN ES        413 50.15                             123   -0.79 9  172 235 
 PTB  HZ I         413 51.98         8.1 0.18                           172 235 
 ZAR  HZ EP        413 30.17                             121   -0.33 9  185 272 
 ZAR  HN ES        413 53.82                             121    0.41 9  185 272 
 ZAR  HZ I         413 56.69         5.3 0.15                           185 272 
 SPBC HZ EP   2    413 33.63                             116   -0.66 4  220 207 
 SPBC HE ES        414  0.60                             116    0.44 8  220 207 
 SPBC HZ I         414  7.79         3.9 0.22                           220 207 
 HEL  HN ES   2    414 16.10                             109    0.53 4  294 242 
 GUY2CHZ EP   2    413 49.52                             106    0.65 3  343 225 
 GUY2CHN ES        414 26.14                             106    0.02 7  343 225 
 GUY2CHZ I         414 36.69         1.5 0.08                           343 225 
 SJC  HE ES   4    414 24.71                             106   -2.05 0  351 321 
 PRA  HZ EP   2    414  1.88                             101    0.63 2  452 205 
 PRA  HE ES        414 48.79                             101    0.64 5  452 205 
                                                                                
