 2013  823 0355 31.2 L   6.710 -73.161151.7  RSN  4 0.4 1.3LRSN                1
 GAP=229        0.93       5.7     6.9  8.4  0.1167E+02 -0.2892E+01  0.3868E+00E
 Epicentro: VILLANUEVA - SANTANDER                                             3
 ACTION:UPD 14-01-14 09:05 OP:ep   STATUS:               ID:20130823035531 L   I
 OLDACT:REG 13-08-23 08:38 OP:nd   STATUS:               ID:20130823034959     3
 2013-08-23-0349-59M.COL___270                                                 6
 STAT SP IPHASW D HRMM SECON CODA AMPLIT PERI AZIMU VELO AIN AR TRES W  DIS CAZ7
 BRR  HZ IP     C  355 53.13                             152   -0.1110 75.1 306 
 BRR  HN ES        356 10.72                             152    0.3110 75.1 306 
 BRR  HZ I         356 22.59         3.0 0.50            152           75.1 306 
 RUS  HZ EP        355 55.40                             148    0.4910 90.8 175 
 RUS  HN ES        356 12.89                             148   -0.5010 90.8 175 
 RUS  HZ I         356 15.53         2.1 0.42            158           90.8 175 
 PTB  HZ EP        355 58.03                             134   -0.37 9  145 263 
 PTB  HN ES        356 19.34                             134   -0.26 9  145 263 
 PTB  HZ I         356 26.52         3.0 0.42            138            145 263 
 SPBC HZ EP        355 59.37                             132   -0.03 9  154 221 
 SPBC HN ES        356 21.83                             132    0.47 9  154 221 
 SPBC HZ I         356 25.05         3.2 0.34            139            154 221 
                                                                                
