 2017  923 0940 28.5 L   6.770 -73.150149.3  RSN  6 0.4 1.5LRSN                1
 GAP=137        0.91       4.2     5.9  6.1  0.1025E+02  0.4001E+01  0.1521E+01E
 Epicentro: LOS SANTOS - SANTANDER                                             3
 ACTION:UPD 17-10-05 19:15 OP:rebc STATUS:               ID:20170923094028 L   I
 OLDACT:UP  17-09-23 21:14 OP:leo  STATUS:               ID:20170923093411d    3
 OLDACT:DUP 17-09-23 21:08 OP:leo  STATUS:               ID:20170923093411d    3
 2017-09-23-0938-00M.COL___444                                                 6
 STAT SP IPHASW D HRMM SECON CODA AMPLIT PERI AZIMU VELO AIN AR TRES W  DIS CAZ7
 BAR2 EZ EP        940 48.25                             172   -0.2410 19.9 190 
 BAR2 EZ ES        941  3.99                             172   -0.0910 19.9 190 
 BAR2 EZ I         941  4.78         9.9 0.18            166           19.9 190 
 BRR  HZ EP        940 50.14                             153    0.0410 72.5 301 
 BRR  HN ES        941  7.16                             153    0.2110 72.5 301 
 PAM  EZ EP        940 51.22                             150   -0.0410 80.3  38 
 RUS  HZ EP        940 52.69                             145    0.3310 97.3 176 
 RUS  HN ES        941 10.92                             145   -0.0610 97.3 176 
 RUS  HZ I         941 12.14         5.2 0.36            143           97.3 176 
 ZAR  HZ EP        941  1.93                             123    0.67 9  205 293 
 ZAR  HE ES        941 26.30                             123   -0.52 9  205 293 
 ZAR  HZ I         941 32.82         2.8 0.34            121            205 293 
 CHI  HZ EP        941  5.24                             118   -0.79 8  245 195 
 CHI  HN ES        941 35.69                             118    0.39 8  245 195 
 CHI  HZ I         941 41.83         1.5 0.26            116            245 195 
                                                                                
