 2017  723 1500 51.7 L   6.762 -73.153147.0  RSN  5 0.5 1.3LRSN                1
 GAP=234        1.22       8.1     7.9  9.4  0.1703E+02  0.1243E+02  0.1650E+02E
 Epicentro: LOS SANTOS - SANTANDER                                             3
 ACTION:UPD 17-08-30 15:35 OP:rebc STATUS:               ID:20170723150051 L   I
 OLDACT:REG 17-07-23 20:42 OP:ar   STATUS:               ID:20170723145737     3
 2017-07-23-1458-00M.COL___390                                                 6
 STAT SP IPHASW D HRMM SECON CODA AMPLIT PERI AZIMU VELO AIN AR TRES W  DIS CAZ7
 BAR2 EZ EP       15 1 11.26                             172   -0.1810 19.0 190 
 BAR2 EZ ES       15 1 26.23                             172   -0.5810 19.0 190 
 BAR2 EZ I        15 1 27.10         6.6 0.28            171           19.0 190 
 BRR  HE ES       15 1 30.27                             152    0.5110 72.6 302 
 RUS  HZ EP       15 1 16.24                             145    0.9210 96.4 175 
 RUS  HN ES       15 1 33.64                             145   -0.0710 96.4 175 
 RUS  HZ I        15 1 34.99         3.3 0.30            145           96.4 175 
 PTB  HZ EP       15 1 18.21                             133   -0.45 9  146 260 
 PTB  HN ES       15 1 39.68                             133    0.02 9  146 260 
 PTB  HZ I        15 1 42.45         1.8 0.18            132            146 260 
 SPBC HZ EP       15 1 19.48                             130   -0.49 9  159 220 
 SPBC HN ES       15 1 42.23                             130    0.23 9  159 220 
                                                                                
