 2012 1123 1655 40.7 L   6.811 -73.180140.0  RSN  8 0.3 2.0LRSN                1
 GAP=132        0.61       2.8     3.2  4.4 -0.8712E+00  0.5256E+01  0.2390E+01E
 Epicentro: LOS SANTOS - SANTANDER                                             3
 ACTION:UPD 12-12-05 15:35 OP:}ep  STATUS:               ID:20121123165540 L   I
 2012-11-23-1650-00M.COL___233                                                 6
 STAT SP IPHASW D HRMM SECON CODA AMPLIT PERI AZIMU VELO AIN AR TRES W  DIS CAZ7
 BAR2 SZ EP       1655 59.68                             170   -0.0210 24.2 181 
 BAR2 SZ ES       1656 14.82                             170    0.3410 24.2 181 
 BAR2 SZ I        1656 16.22        29.2 0.18                          24.2 181 
 GIR2 SZ EP   1   1655 59.72                             167    0.03 7 29.7 357 
 PAM  SZ EP       1656  2.51                             149    0.0610 78.9  42 
 PAM  SN ES       1656 19.35                             149   -0.0210 78.9  42 
 PAM  SZ I        1656 21.23        13.8 0.17                          78.9  42 
 RUS  HZ EP       1656  3.78                             142   -0.2610  102 174 
 RUS  HZ I        1656  4.94        10.7 0.14                           102 174 
 RUS  HE ES   1   1656 21.84                             142   -0.38 7  102 174 
 PTB  HZ EP       1656  6.56                             131   -0.37 9  144 258 
 PTB  HN ES   1   1656 27.07                             131   -0.28 7  144 258 
 PTB  HZ I        1656 32.43        13.5 0.13                           144 258 
 ZAR  HZ EP   1   1656 12.88                             122    0.47 6  200 292 
 ZAR  HE ES   1   1656 37.22                             122    0.11 6  200 292 
 ZAR  HZ I        1656 43.10        10.7 0.31                           200 292 
 CHI  HZ EP       1656 18.19                             116    0.04 8  249 194 
 CHI  HN ES   1   1656 47.85                             116    0.53 6  249 194 
 CHI  HZ I        1656 55.24         5.2 0.43                           249 194 
 PRA  HZ EP   1   1656 33.93                             106   -0.05 4  391 209 
 PRA  HE ES   1   1657 16.11                             106    0.61 4  391 209 
 PRA  HZ I        1657 22.57         7.5 0.25                           391 209 
                                                                                
