 2014  523 1946 28.5 L   6.782 -73.152146.0  RSN  6 0.4 1.5LRSN                1
 GAP=137        1.04       4.0     5.1  8.2 -0.2843E+01  0.6135E+01  0.1497E+01E
 Epicentro: LOS SANTOS - SANTANDER                                             3
 ACTION:UPD 15-03-16 17:00 OP:nd   STATUS:               ID:20140523194628 L   I
 OLDACT:UP  14-05-24 00:45 OP:cam  STATUS:               ID:20140523194000     3
 OLDACT:REG 14-05-23 22:55 OP:cam  STATUS:               ID:20140523194000     3
 2014-05-23-1940-00M.COL___276                                                 6
 STAT SP IPHASW D HRMM SECON CODA AMPLIT PERI AZIMU VELO AIN AR TRES W  DIS CAZ7
 BRR  HZ EP   1   1946 50.20                             152    0.56 7 71.6 300 
 BRR  HN ES       1947  6.65                             152    0.4710 71.6 300 
 PAM  SZ EP     C 1946 50.97                             150    0.1610 79.3  39 
 PAM  SN ES       1947  7.90                             150   -0.3410 79.3  39 
 PAM  SZ I        1947  8.43         7.3 0.20            154           79.3  39 
 RUS  HZ EP       1946 52.15                             144    0.0610 98.7 176 
 RUS  HE ES       1947 10.33                             144   -0.1910 98.7 176 
 RUS  HZ I        1947 13.53         2.6 0.20            145           98.7 176 
 PTB  HZ EP       1946 54.71                             132   -0.63 9  147 260 
 PTB  HN ES       1947 15.66                             132   -0.66 9  147 260 
 PTB  HZ I        1947 19.90         5.2 0.20            133            147 260 
 SPBC HZ EP       1946 56.85                             129    0.07 9  161 219 
 SPBC HE ES       1947 19.50                             129    0.62 9  161 219 
 SPBC HZ I        1947 22.38         5.0 0.10            130            161 219 
 SML  HE ES       1947 34.08                             117    0.12 8  245 336 
                                                                                
