 2016 1123 1929 58.8 L   6.761 -73.107148.0  RSN  7 0.2 1.6LRSN                1
 GAP=169        0.72       5.1     3.6  4.6 -0.1707E+01  0.2421E+01  0.4049E+01E
 Epicentro: LOS SANTOS - SANTANDER                                             3
 ACTION:UPD 17-10-26 21:11 OP:lp   STATUS:               ID:20161123192958 L   I
 OLDACT:UP  16-11-24 01:30 OP:edw  STATUS:               ID:20161123192746     3
 OLDACT:UP  16-11-24 01:28 OP:edw  STATUS:               ID:20161123192746     3
 OLDACT:REG 16-11-23 21:13 OP:edw  STATUS:               ID:20161123192746     3
 2016-11-23-1928-00M.COL___355                                                 6
 STAT SP IPHASW D HRMM SECON CODA AMPLIT PERI AZIMU VELO AIN AR TRES W  DIS CAZ7
 BAR2 EZ EP       1930 18.47                             172   -0.1910 20.5 204 
 BAR2 EZ ES       1930 34.20                             172    0.0610 20.5 204 
 BAR2 EZ I        1930 34.63         5.3 0.06            169           20.5 204 
 BRR  HZ EP       1930 20.47                             151   -0.0710 77.0 300 
 BRR  HN ES       1930 37.77                             151    0.2910 77.0 300 
 PAM  EZ EP       1930 21.53                             150    0.2110 78.2  35 
 PAM  EN ES       1930 38.56                             150   -0.3110 78.2  35 
 PAM  EZ I        1930 39.58         4.7 0.20            152           78.2  35 
 PTB  HZ EP   9   1930 25.83                             131   -0.45 0  151 261 
 PTB  HN ES       1930 46.49                             132   -0.76 9  151 261 
 PTB  HZ I        1930 48.26         4.7 0.24            129            151 261 
 ZAR  HZ EP       1930 32.00                             122    0.02 8  210 293 
 ZAR  HN ES       1930 57.90                             122    0.05 8  210 293 
 ZAR  HZ I        1931  3.60         7.1 0.32            120            210 293 
 NOR  HZ EP   2   1930 34.53                             118   -0.26 4  236 236 
 NOR  HN ES   2   1931  2.46                             118   -0.38 4  236 236 
 NOR  HZ I        1931  4.55         3.5 0.14            117            236 236 
 PRA  HZ EP       1930 52.47                             107    0.24 6  390 210 
 PRA  HE ES   4   1931 34.97                             107    1.08 0  390 210 
 PRA  HZ I        1931 43.18         2.0 0.36            106            390 210 
                                                                                
