 2010 1123 1253 21.4 L   6.796 -73.078137.3  RSN 10 0.4 2.1LRSN                1
 GAP=166        1.04       3.9     8.7  7.9 -0.1192E+02  0.3429E+01  0.5518E+01E
 Epicentro: LOS SANTOS - SANTANDER                                             3
 ACTION:UP  10-12-17 16:54 OP:REBC STATUS:               ID:20101123125321 L   I
 2010-11-23-1252-20S.COL___131                                                 6
 STAT SP IPHASW D HRMM SECON CODA AMPLIT PERI AZIMU VELO SNR AR TRES W  DIS CAZ7
 BAR2 SZ IP       1253 39.99                             169    -0.110   25 207 
 BAR2 SZ I        1253 40.32        22.7 0.04                            25 207 
 BAR2 SZ ES   2   1253 54.55                             169    -0.1 5   25 207 
 GIR2 SZ EP   1   1253 39.94                             165    -0.2 7   34 338 
 GIR2 SZ ES   3   1253 54.71                             165    -0.1 2   34 338 
 BRR  HZ IP     C 1253 41.77                             149    -0.310   78 296 
 BRR  HN ES   1   1253 58.46                             149     0.2 7   78 296 
 BRR  HZ I        1253 59.42        53.9 0.06                            78 296 
 RUS  HZ EP       1253 44.02                             142    -0.310  100 180 
 RUS  HZ I        1253 44.76        11.7 0.37                           100 180 
 RUS  HE ES   1   1254  2.27                             142     0.1 7  100 180 
 GUE  SZ EP       1253 46.04                             138     0.710  116   8 
 GRA  SZ EP       1253 45.81                             135     0.010  124  14 
 GRA  SZ ES   1   1254  5.36                             135     0.6 7  124  14 
 GRA  SZ I        1254  6.44        17.1 0.29                           124  14 
 OCA  SZ EP   1   1253 48.71                             127    -0.5 7  162 351 
 OCA  SZ ES   1   1254 10.17                             127    -0.8 7  162 351 
 OCA  SZ I        1254 15.06        18.7 0.20                           162 351 
 CHI  HZ EP   1   1253 58.52                             115    -0.3 6  250 197 
 CHI  HE ES   2   1254 28.12                             115     0.1 4  250 197 
 CHI  HZ I        1254 31.67         4.6 0.54                           250 197 
 RREF HZ EP       1254  8.87                             109     1.0 7  327 230 
 RREF HN ES   2   1254 44.18                             109     0.1 3  327 230 
 RREF HZ I        1254 51.74         4.3 0.37                           327 230 
 PRA  HZ EP       1254 14.83                             105    -0.2 6  395 211 
 PRA  HE ES   1   1254 57.03                             105     0.1 4  395 211 
 PRA  HZ I        1254 59.17        15.1 0.21                           395 211 
                                                                                
