 2010  423 1218 32.6 L   6.790 -73.082144.0  RSN  8 0.5 2.1LRSN                1
 GAP=180        1.05       9.0    14.4 16.1 -0.1018E+03 -0.1614E+03  0.9834E+02E
 Epicentro: LOS SANTOS - SANTANDER                                             3
 ACTION:UPD 10-08-24 10:00 OP:vdl  STATUS:               ID:20100423121844 L   I
 2010-04-23-1214-07S.COL___104                                                 6
 STAT SP IPHASW D HRMM SECON CODA AMPLIT PERI AZIMU VELO AIN AR TRES W  DIS CAZ7
 GIR2 SZ EP   1   1218 51.50                             165    -0.7 7   34 339 
 BRR  HZ EP       1218 53.72                             149    -0.310   78 297 
 BRR  HN ES       1219 10.77                             149     0.110   78 297 
 BRR  HZ I        1219 13.63        43.3 0.08                            78 297 
 BRI  SZ EP       1218 56.93                             141     0.710  107  17 
 BRI  SZ ES   2   1219 14.70                             141     0.0 5  107  17 
 GUE  SZ EP   1   1218 57.36                             139     0.2 7  116   9 
 GUE  SZ ES   2   1219 16.57                             139     0.3 5  116   9 
 GRA  SZ EP       1218 57.17                             136    -0.510  125  14 
 CHI  HN ES   1   1219 39.99                             116     0.3 6  250 197 
 CHI  HZ I        1219 46.91         5.1 0.81                           250 197 
 RREF BN ES   2   1219 56.62                             110     1.0 3  326 230 
 RREF BZ I        1220  1.69         4.8 0.07                           326 230 
 PRA  HN ES   1   1220  7.91                             106    -0.4 4  395 211 
 PRA  HZ I        1220 12.16         5.0 0.47                           395 211 
                                                                                
