 2013  723 1703 51.4 L   6.739 -73.177125.7  RSN  4 0.3 1.6LRSN                1
 GAP=229        0.69       7.4     6.9  9.7  0.3592E+02  0.9694E+01  0.6290E+01E
 Epicentro: VILLANUEVA - SANTANDER                                             3
 ACTION:UPD 13-08-12 10:39 OP:ep   STATUS:               ID:20130723170351 L   I
 OLDACT:UP  13-07-23 15:37 OP:mh   STATUS:               ID:20130723170000     3
 OLDACT:REG 13-07-23 14:43 OP:mh   STATUS:               ID:20130723170000     3
 2013-07-23-1700-00M.COL___263                                                 6
 STAT SP IPHASW D HRMM SECON CODA AMPLIT PERI AZIMU VELO AIN AR TRES W  DIS CAZ7
 BRR  HN ES   1   17 4 25.31                             148   -0.03 8 71.8 305 
 RUS  HZ EP   1   17 4 13.25                             141    0.49 8 94.2 174 
 RUS  HN ES   1   17 4 29.13                             141   -0.27 8 94.2 174 
 RUS  HN I        17 4 33.29         4.2 0.34            136           94.2 174 
 PTB  HZ EP   1   17 4 15.81                             128   -0.58 7  143 261 
 PTB  HN ES       17 4 36.04                             128    0.1710  143 261 
 PTB  HZ I        17 4 44.20         4.4 0.44            123            143 261 
 ZAR  HE ES   1   17 4 46.97                             118    0.07 7  204 294 
 ZAR  HE I        17 4 54.58         7.1 0.16            116            204 294 
                                                                                
