 2013 1123 1810 24.4 L   6.794 -73.160138.6  RSN  4 0.6 1.6LRSN                1
 GAP=193        1.13      11.6    13.2 12.2 -0.1928E+01  0.6816E+02 -0.2467E+02E
 Epicentro: LOS SANTOS - SANTANDER                                             3
 ACTION:UPD 14-01-09 16:30 OP:ep   STATUS:               ID:20131123181024 L   I
 OLDACT:REG 13-11-23 14:19 OP:nd   STATUS:               ID:20131123181000     3
 2013-11-23-1810-00M.COL___282                                                 6
 STAT SP IPHASW D HRMM SECON CODA AMPLIT PERI AZIMU VELO AIN AR TRES W  DIS CAZ7
 BAR2 SZ EP       1810 43.16                             170    0.0310 22.5 186 
 BAR2 SZ ES       1810 57.52                             170   -0.2310 22.5 186 
 BAR2 SZ I        1810 59.38        10.3 0.20            173           22.5 186 
 BRR  HZ EP       1810 45.48                             151    0.7910 70.2 300 
 BRR  HN ES   2   1811  1.07                             151    0.53 5 70.2 300 
 BRR  HZ I        1811  4.45         6.2 0.36            150           70.2 300 
 PTB  HZ EP       1810 50.07                             130   -0.55 9  146 259 
 PTB  HN ES   2   1811 11.13                             130    0.05 5  146 259 
 PTB  HZ I        1811 12.00         4.3 0.10            133            146 259 
 OCA  HZ EP   4   1810 46.10                             128   -6.08 0  161 354 
 OCA  HN ES   2   1811 12.69                             128   -1.18 5  161 354 
 OCA  HZ I        1811 15.16         8.9 0.16            130            161 354 
                                                                                
