 2011  223 1415 24.2 L   6.806 -73.071137.1  RSN  5 0.1 1.5LRSN                1
 GAP=167        0.39       3.3    15.1  5.7 -0.1846E+02 -0.4243E+02 -0.1772E+01E
 Epicentro: LOS SANTOS - SANTANDER                                             3
 ACTION:UP  11-03-28 15:10 OP:jfem STATUS:               ID:20110223141524 L   I
 2011-02-23-1412-24S.COL___135                                                 6
 STAT SP IPHASW D HRMM SECON CODA AMPLIT PERI AZIMU VELO SNR AR TRES W  DIS CAZ7
 BTL  SZ EP       1415 42.99                             168     0.210   25 300 
 BAR2 SZ EP       1415 42.66                             168    -0.210   27 208 
 BAR2 SZ ES   1   1415 57.33                             168    -0.1 7   27 208 
 BAR2 SZ I        1415 58.97         9.8 0.26                            27 208 
 GIR2 SZ EP   3   1415 42.79                             165    -0.1 2   33 336 
 RUS  HZ EP       1415 47.15                             142     0.010  101 181 
 RUS  HN ES   2   1416  5.11                             142     0.1 5  101 181 
 RUS  HZ I        1416  6.71         4.8 0.24                           101 181 
 GRA  SZ EP       1415 48.39                             136     0.010  123  14 
 GRA  SZ ES   3   1416  7.46                             136     0.1 2  123  14 
 GRA  SZ I        1416  8.65         4.4 0.33                           123  14 
                                                                                
