 2010  923 1437  8.6 L   6.817 -73.124150.0  RSN 14 0.5 2.9LRSN                1
 GAP=178        1.19       6.2     9.7 10.6 -0.3829E+02 -0.8948E+01  0.2855E+02E
 Epicentro: LOS SANTOS - SANTANDER                                             3
 ACTION:UP  11-02-18 11:05 OP:tino STATUS:               ID:20100923143708 L   I
 2010-09-23-1435-01S.COL___122                                                 6
 STAT SP IPHASW D HRMM SECON CODA AMPLIT PERI AZIMU VELO SNR AR TRES W  DIS CAZ7
 BAR2 SZ IP       1437 28.55                             170    -0.210   26 195 
 BAR2 SZ I        1437 44.91       197.3 0.16                            26 195 
 GIR2 SZ EP       1437 28.60                             168    -0.110   30 345 
 URB  SZ EP       1437 29.34                             160     0.010   52 334 
 BRR  HZ IP     C 1437 30.42                             153     0.210   73 296 
 BRR  HN ES   1   1437 47.76                             153     0.6 7   73 296 
 BRR  HZ I        1437 49.80       130.1 0.21                            73 296 
 GUE  SZ EP       1437 32.59                             141    -0.910  114  11 
 GRA  SZ EP       1437 34.34                             139     0.410  123  17 
 GRA  SZ ES   1   1437 54.01                             139     0.2 7  123  17 
 GRA  SZ I        1437 55.33        95.7 0.32                           123  17 
 OCA  SZ EP       1437 37.18                             131     0.1 9  159 352 
 OCA  SZ I        1438  3.65        78.3 0.49                           159 352 
 NOR  SZ EP       1437 44.57                             119    -0.3 8  238 235 
 NOR  SN ES   1   1438 12.37                             119    -0.8 6  238 235 
 CHI  HZ EP       1437 46.65                             118    -0.1 8  251 196 
 CHI  HE ES   1   1438 15.95                             118    -0.6 6  251 196 
 CHI  HZ I        1438 20.47        35.2 0.34                           251 196 
 ROSC BZ EP       1437 48.05                             117     0.8 8  256 211 
 ROSC BN ES   1   1438 17.59                             117     0.2 6  256 211 
 ROSC BZ I        1438 24.00        43.7 0.63                           256 211 
 HEL  HZ EP       1437 48.66                             115    -0.6 8  275 256 
 HEL  HZ I        1438 27.45        38.8 0.21                           275 256 
 CVER SZ EP       1437 49.75                             115     0.3 8  275 203 
 RREF HZ EP       1437 55.64                             111     0.4 7  325 229 
 RREF HN ES   2   1438 31.04                             111    -0.6 3  325 229 
 RREF HZ I        1438 40.83        64.9 0.57                           325 229 
 TOL  SZ EP       1437 58.07                             110     0.7 6  347 225 
                                                                                
