 2016  423 1042 52.9 L   5.947 -73.801107.9  RSN  9 0.5 1.7LRSN                1
 GAP= 83        1.13       3.4     3.2  7.3 -0.2829E+01  0.7487E+01 -0.5987E+01E
 Epicentro: SUCRE - SANTANDER                                                  3
 ACTION:UPD 16-05-05 14:23 OP:rebc STATUS:               ID:20160423104252 L   I
 OLDACT:REG 16-04-23 21:00 OP:ar   STATUS:               ID:20160423103744     3
 2016-04-23-1037-44M.COL___294                                                 6
 STAT SP IPHASW D HRMM SECON CODA AMPLIT PERI AZIMU VELO AIN AR TRES W  DIS CAZ7
 SPBC HZ EP       1043  8.43                             156   -0.1510 44.4 223 
 SPBC HN ES       1043 21.00                             156    0.1810 44.4 223 
 SPBC HZ I        1043 22.76        26.2 0.12            157           44.4 223 
 RUS  HZ EP       1043 11.01                             142   -0.4010 79.7  94 
 RUS  HE ES       1043 26.29                             142    0.4210 79.7  94 
 PTB  HZ EP   2   1043 11.09                             134   -1.14 5 97.7 312 
 PTB  HN ES   2   1043 26.52                             134   -0.81 5 97.7 312 
 PTB  HZ I        1043 28.92         7.3 0.38            135           97.7 312 
 BAR2 EZ EP       1043 12.57                             135   -0.0610 98.8  44 
 BAR2 EZ ES       1043 27.98                             135   -0.0610 98.8  44 
 CHI  HZ EP       1043 16.86                             123   -0.53 9  146 177 
 CHI  HN ES       1043 36.06                             123   -0.46 9  146 177 
 CHI  HZ I        1043 38.56         4.6 0.34            125            146 177 
 GUY2CHZ EP       1043 22.58                             115    0.28 9  191 245 
 GUY2CHN ES       1043 45.87                             115    0.63 9  191 245 
 GUY2CHZ I        1043 50.58         4.3 0.46                           191 245 
 HEL  HZ EP       1043 22.24                             114   -0.18 9  193 278 
 HEL  HN ES       1043 46.19                             114    0.73 9  193 278 
 HEL  HZ I        1043 47.76         4.1 0.26            116            193 278 
 PAM  EZ EP       1043 23.87                             114    0.95 9  196  38 
 PAM  EN ES       1043 46.55                             114    0.20 9  196  38 
 PAM  EZ I        1043 49.15         4.6 0.18            116            196  38 
 ZAR  HZ EP       1043 23.36                             112   -0.15 8  207 326 
 ZAR  HE ES       1043 46.80                             112   -0.60 8  207 326 
 ZAR  HZ I        1043 49.49         8.5 0.40            114            207 326 
 URE  HN ES   4   1043 58.95                             106   -2.76 0  276 316 
                                                                                
