 2011  123 1421 31.4 L   7.394 -73.146129.3  RSN  9 0.2 2.0LRSN                1
 GAP=143        0.57       3.1     6.7  5.3 -0.1043E+02  0.1650E+02 -0.2076E+01E
 Epicentro: EL PLAYON - SANTANDER                                              3
 ACTION:UP  11-02-08 08:42 OP:pat  STATUS:               ID:20110123142131 L   I
 2011-01-23-1420-12S.COL___138                                                 6
 STAT SP IPHASW D HRMM SECON CODA AMPLIT PERI AZIMU VELO SNR AR TRES W  DIS CAZ7
 GIR2 SZ EP   1   1421 49.54                             164     0.3 7   35 189 
 GIR2 SZ ES   1   1422  3.19                             164     0.0 7   35 189 
 BTL  SZ EP       1421 50.40                             156     0.210   54 194 
 GRA  SZ IP       1421 50.36                             151    -0.410   66  35 
 GRA  SZ ES   1   1422  5.70                             151    -0.1 7   66  35 
 GRA  SZ I        1422  6.73        63.8 0.30                            66  35 
 BAR2 SZ EP       1421 52.62                             143     0.310   89 183 
 BAR2 SZ ES   1   1422  8.52                             143    -0.1 7   89 183 
 BAR2 SZ I        1422 10.16        90.9 0.13                            89 183 
 OCA  SZ EP   1   1421 52.82                             141     0.1 7   95 348 
 OCA  SZ I        1422 11.53        14.8 0.11                            95 348 
 RUS  HZ EP   1   1421 59.46                             125    -0.1 7  166 178 
 RUS  HE ES   1   1422 21.31                             125    -0.2 7  166 178 
 RUS  HZ I        1422 22.82         6.8 0.31                           166 178 
 NOR  SZ EP   1   1422 11.05                             111    -0.1 6  278 223 
 NOR  SN ES   1   1422 41.72                             111    -0.4 6  278 223 
 HEL  HZ EP   2   1422 13.68                             109     0.2 4  295 243 
 HEL  HZ I        1422 25.19         2.4 0.44                           295 243 
 CHI  HZ EP   2   1422 15.44                             108    -0.1 3  313 192 
 CHI  HZ I        1423  0.79         2.1 0.26                           313 192 
                                                                                
