 2010  423 1711 34.0 L   6.793 -72.862136.7  RSN  4 0.3 2.0LRSN                1
 GAP=272        0.64       6.1     9.9  8.1 -0.1022E+02 -0.1340E+02  0.3010E+02E
 Epicentro: SAN ANDRES - SANTANDER                                             3
 ACTION:UPD 10-08-24 10:00 OP:vdl  STATUS:               ID:20100423171144 L   I
 2010-04-23-1709-39S.COL___104                                                 6
 STAT SP IPHASW D HRMM SECON CODA AMPLIT PERI AZIMU VELO AIN AR TRES W  DIS CAZ7
 BAR2 SZ ES   2   1712  8.49                             162     0.6 5   42 238 
 BRR  HZ EP       1711 56.20                             143     0.110  100 290 
 BRR  HN ES       1712 13.12                             143    -0.210  100 290 
 BRR  HZ I        1712 13.29        26.6 0.88                           100 290 
 CHI  HZ EP   2   1712 11.71                             115    -0.5 4  258 202 
 CHI  HN ES   2   1712 41.49                             115    -0.5 4  258 202 
 CHI  HZ I        1712 45.79         4.3 0.29                           258 202 
 RREF BZ EP       1712 22.62                             108     0.1 6  346 233 
 RREF BN ES       1713  0.58                             108     0.2 6  346 233 
 RREF BZ I        1713  6.08         3.7 0.62                           346 233 
                                                                                
