 2014  823 1247 41.1 L   6.796 -73.233149.8  RSN  4 0.2 1.5LRSN                1
 GAP=189        0.61       3.4     4.3  5.5  0.4589E+01  0.1793E+01 -0.8287E+01E
 Epicentro: ZAPATOCA - SANTANDER                                               3
 ACTION:UPD 14-09-15 21:52 OP:nd   STATUS:               ID:20140823124741 L   I
 OLDACT:REG 14-08-23 20:46 OP:cam  STATUS:               ID:20140823124000     3
 2014-08-23-1240-00M.COL___285                                                 6
 STAT SP IPHASW D HRMM SECON CODA AMPLIT PERI AZIMU VELO AIN AR TRES W  DIS CAZ7
 BAR2 SZ EP       1248  1.33                             171    0.0910 23.2 166 
 BAR2 SZ ES       1248 17.18                             171    0.2510 23.2 166 
 BAR2 SZ I        1248 17.47         5.1 0.22            173           23.2 166 
 RUS  HZ EP       1248  5.51                             144    0.1810  101 171 
 RUS  HN ES       1248 23.77                             144   -0.4310  101 171 
 RUS  HZ I        1248 25.11         3.7 0.32            147            101 171 
 PTB  HZ EP       1248  7.80                             135    0.21 9  138 258 
 PTB  HN ES       1248 28.14                             135   -0.08 9  138 258 
 PTB  HZ I        1248 31.58         3.2 0.10            135            138 258 
 SML  HZ EP       1248 17.39                             119   -0.22 8  240 337 
 SML  HN ES       1248 45.97                             119   -0.10 8  240 337 
 SML  HZ I        1248 49.62         4.0 0.26            119            240 337 
                                                                                
