 2011  523 1938 32.4 L   6.786 -73.065145.3  RSN  5 0.3 1.5LRSN                1
 GAP=148        0.68       5.5     7.4  8.4 -0.4594E+01 -0.9208E+01 -0.3353E+00E
 Epicentro: LOS SANTOS - SANTANDER                                             3
 ACTION:UP  11-06-29 08:55 OP:tino STATUS:               ID:20110523193832 L   I
 2011-05-23-1933-55S.COL___139                                                 6
 STAT SP IPHASW D HRMM SECON CODA AMPLIT PERI AZIMU VELO SNR AR TRES W  DIS CAZ7
 BAR2 SZ EP   1   1938 51.67                             170    -0.3 7   25 211 
 BAR2 SZ ES   2   1939  7.81                             170     0.5 5   25 211 
 BAR2 SZ I        1939  9.75         7.9 0.26                            25 211 
 PAM  SZ EP   1   1938 54.76                             152     0.5 7   73  33 
 PAM  SN ES   2   1939 11.19                             152    -0.2 5   73  33 
 BRR  HZ EP       1938 53.82                             150    -0.210   80 296 
 BRR  HN ES   1   1939 10.97                             150     0.1 7   80 296 
 BRR  HZ I        1939 11.96        16.5 0.33                            80 296 
 RUS  HZ EP   2   1938 56.38                             144     0.4 5   99 181 
 RUS  HE ES   2   1939 13.85                             144    -0.5 5   99 181 
 RUS  HZ I        1939 16.40         3.3 0.40                            99 181 
 GRA  SZ EP   2   1938 57.51                             137     0.0 5  125  13 
 GRA  SZ ES   2   1939 16.74                             137    -0.4 5  125  13 
 GRA  SZ I        1939 18.22         3.3 0.06                           125  13 
                                                                                
