 2012 1023 1048 22.0 L   6.850 -73.205148.8  RSN  8 0.3 2.6LRSN                1
 GAP=127        0.83       3.3     4.6  5.0  0.1390E+01  0.6447E+01  0.8404E+00E
 Epicentro: ZAPATOCA - SANTANDER                                               3
 ACTION:UPD 12-11-22 17:05 OP:ep   STATUS:               ID:20121023104822 L   I
 2012-10-23-1040-00M.COL___231                                                 6
 STAT SP IPHASW D HRMM SECON CODA AMPLIT PERI AZIMU VELO AIN AR TRES W  DIS CAZ7
 BAR2 SZ EP       1048 42.11                             169   -0.0410 28.6 175 
 BAR2 SZ I        1048 42.48       181.8 0.09                          28.6 175 
 BAR2 SZ ES       1048 57.72                             169   -0.1210 28.6 175 
 BRR  HZ IP     C 1048 43.32                             156    0.2410 62.8 297 
 BRR  HZ I        1048 44.26       113.2 0.14                          62.8 297 
 BRR  HN ES       1049  0.10                             156    0.6110 62.8 297 
 PAM  SZ EP       1048 44.82                             151    0.2210 77.7  46 
 PAM  SE ES       1049  2.18                             151   -0.0210 77.7  46 
 PAM  SZ I        1049  3.15        99.5 0.30                          77.7  46 
 RUS  HZ EP       1048 46.35                             143   -0.1910  107 173 
 RUS  HN ES       1049  5.15                             143   -0.5010  107 173 
 RUS  HZ I        1049  7.19        38.5 0.31                           107 173 
 OCA  HZ EP       1048 49.86                             131   -0.15 9  154 355 
 OCA  HZ I        1049 13.82        35.0 0.20                           154 355 
 ZAR  HZ EP       1048 53.51                             124   -0.35 9  196 291 
 ZAR  HE ES   1   1049 17.98                             124   -0.69 6  196 291 
 ZAR  HZ I        1049 24.81        41.3 0.36                           196 291 
 CHI  HZ EP       1049  0.60                             117    0.28 8  252 193 
 CHI  HE ES   1   1049 30.55                             117    0.38 6  252 193 
 HEL  HZ EP   1   1049  2.33                             116    0.46 6  267 254 
 HEL  HZ I        1049 39.99        16.3 0.45                           267 254 
                                                                                
