 2016 1223 1815 31.7 L   6.793 -73.110147.1  RSN  9 0.3 1.7LRSN                1
 GAP=141        0.68       2.9     4.1  4.7 -0.1873E+01 -0.1630E+01  0.2811E+01E
 Epicentro: LOS SANTOS - SANTANDER                                             3
 ACTION:UPD 17-01-11 20:18 OP:rebc STATUS:               ID:20161223181531 L   I
 OLDACT:UP  16-12-23 22:55 OP:edw  STATUS:               ID:20161223180748     3
 OLDACT:UP  16-12-23 22:55 OP:edw  STATUS:               ID:20161223180748     3
 OLDACT:REG 16-12-23 21:43 OP:edw  STATUS:               ID:20161223180748     3
 2016-12-23-1808-00M.COL___387                                                 6
 STAT SP IPHASW D HRMM SECON CODA AMPLIT PERI AZIMU VELO AIN AR TRES W  DIS CAZ7
 BAR2 EZ EP     C 1815 51.29                             170   -0.2310 23.6 200 
 BAR2 EZ ES       1816  6.60                             170   -0.3610 23.6 200 
 BAR2 EZ I        1816  7.83        14.2 0.42            168           23.6 200 
 BRR  HZ EP       1815 53.30                             151    0.0710 75.0 298 
 BRR  HE ES       1816 10.14                             151    0.1310 75.0 298 
 PAM  EZ EP       1815 54.18                             152    0.2110 75.5  37 
 PAM  EN ES       1816 11.50                             152    0.1710 75.5  37 
 PAM  EZ I        1816 12.31         4.5 0.16            153           75.5  37 
 RUS  HZ EP       1815 55.58                             144    0.0410 99.7 178 
 RUS  HN ES       1816 13.99                             144   -0.1310 99.7 178 
 RUS  HZ I        1816 14.71        11.0 0.20            143           99.7 178 
 PTB  HZ EP   9   1815 58.07                             132   -1.06 0  151 259 
 PTB  HN ES       1816 19.74                             130    0.29 9  151 259 
 PTB  HZ I        1816 22.33         4.7 0.14            129            151 259 
 ZAR  HZ EP   4   1816  6.70                             122    2.05 0  208 292 
 ZAR  HN ES   2   1816 29.81                             122   -0.53 4  208 292 
 ZAR  HZ I        1816 35.76         5.2 0.19            120            208 292 
 NOR  HN ES   2   1816 35.64                             118   -0.35 4  237 235 
 CHI  HZ EP   2   1816  8.68                             117   -0.85 4  249 196 
 CHI  HE ES       1816 39.62                             117    0.60 8  249 196 
 CHI  HZ I        1816 44.73         1.4 0.22            116            249 196 
 GUY2CHZ EP   4   1816 18.04                             112    2.33 0  304 235 
 GUY2CHN ES   4   1816 52.37                             112    2.36 0  304 235 
 GUY2CHZ I        1816 57.90         3.7 0.50                           304 235 
 SJC  HZ EP   4   1816 24.50                             106   -3.15 0  412 327 
                                                                                
