 2015  323 1434  3.4 L   6.835 -73.191142.1  RSN  5 0.4 1.6LRSN                1
 GAP=134        0.87       5.1     4.2  7.6 -0.4734E+01  0.1349E+02 -0.1207E+02E
 Epicentro: ZAPATOCA - SANTANDER                                               3
 ACTION:UPD 15-04-30 16:28 OP:nd   STATUS:               ID:20150323143403 L   I
 OLDACT:REG 15-03-23 20:50 OP:fm   STATUS:               ID:20150323142748     3
 2015-03-23-1427-48M.COL___271                                                 6
 STAT SP IPHASW D HRMM SECON CODA AMPLIT PERI AZIMU VELO AIN AR TRES W  DIS CAZ7
 BAR2 EZ EP       1434 22.64                             169   -0.0010 26.8 178 
 BAR2 EZ ES   1   1434 38.28                             169    0.61 7 26.8 178 
 BAR2 EZ I        1434 39.16         9.0 0.36            172           26.8 178 
 PAM  SZ EP       1434 25.25                             150    0.0210 77.9  44 
 PAM  SN ES       1434 42.03                             150   -0.2510 77.9  44 
 PAM  SZ I        1434 44.68         5.7 0.46            153           77.9  44 
 PTB  HZ EP       1434 29.30                             132   -0.37 9  144 257 
 PTB  HN ES       1434 49.74                             132   -0.45 9  144 257 
 PTB  HZ I        1434 52.03         4.5 0.20            134            144 257 
 ZAR  HZ EP       1434 35.25                             122    0.30 9  198 292 
 ZAR  HN ES       1435  0.12                             122    0.53 9  198 292 
 ZAR  HZ I        1435  7.51         6.6 0.34            124            198 292 
 SML  HZ EP       1434 39.57                             117    0.38 8  238 336 
 SML  HN ES       1435  6.75                             117   -0.38 8  238 336 
                                                                                
