 2014  723 1003  0.9 L   6.812 -73.080148.5  RSN  9 0.5 1.8LRSN                1
 GAP=207        0.95       4.5     5.7  7.7  0.5883E+01  0.8923E+01 -0.2802E+01E
 Epicentro: LOS SANTOS - SANTANDER                                             3
 ACTION:UPD 15-03-16 20:46 OP:nd   STATUS:               ID:20140723100300 L   I
 OLDACT:REG 14-07-23 20:26 OP:fm   STATUS:               ID:20140723095807     3
 2014-07-23-0958-07M.COL___263                                                 6
 STAT SP IPHASW D HRMM SECON CODA AMPLIT PERI AZIMU VELO AIN AR TRES W  DIS CAZ7
 BAR2 SZ EP       10 3 21.26                             169    0.3410 26.8 205 
 BAR2 SZ ES   1   10 3 37.01                             169    0.46 7 26.8 205 
 BAR2 SZ I        10 3 38.10         7.1 0.48            165           26.8 205 
 RUS  HZ EP   1   10 3 24.74                             144   -0.25 7  102 180 
 RUS  HN ES   1   10 3 43.48                             144   -0.31 7  102 180 
 RUS  HZ I        10 3 45.03         4.3 0.64            144            102 180 
 PTB  HZ EP       10 3 28.15                             131   -0.60 9  155 259 
 PTB  HE ES       10 3 49.85                             131   -0.63 9  155 259 
 PTB  HZ I        10 3 55.28         7.6 0.56            129            155 259 
 SPBC HZ EP       10 3 30.26                             129    0.13 9  169 221 
 SPBC HN ES       10 3 53.03                             129    0.08 9  169 221 
 SPBC HZ I        10 3 59.30        10.5 0.26            128            169 221 
 ZAR  HZ EP       10 3 33.68                             122   -0.47 8  210 291 
 ZAR  HN ES       10 4  0.25                             122    0.15 8  210 291 
 ZAR  HZ I        10 4  5.78         7.5 0.52            122            210 291 
 SML  HN ES   1   10 4  7.14                             118    0.41 6  246 334 
 SML  HZ I        10 4 11.05         9.2 0.10            119            246 334 
 HEL  HZ EP   1   10 3 42.63                             115    0.58 6  279 256 
 HEL  HN ES   1   10 4 15.30                             115    1.14 6  279 256 
 HEL  HZ I        10 4 19.94         3.2 0.30            115            279 256 
 GUY2CHZ EP   4   10 3 43.48                             112   -1.90 0  308 235 
 GUY2CHE ES   4   10 4 23.41                             112    3.33 0  308 235 
 GUY2CHZ I        10 4 27.73         3.0 0.34                           308 235 
 PRA  HZ EP   1   10 3 55.74                             107    0.68 4  397 210 
 PRA  HN ES       10 4 37.36                             107    0.04 6  397 210 
 PRA  HZ I        10 4 45.39         3.7 0.56            107            397 210 
                                                                                
