 2010 1223 1222 13.9 L   6.732 -73.150142.6  RSN 15 0.5 2.7LRSN                1
 GAP=135        1.07       3.5     6.5  8.5 -0.6632E+01  0.2367E+02  0.2733E+01E
 Epicentro: JORDAN - SANTANDER                                                 3
 ACTION:UP  11-01-14 15:26 OP:pat  STATUS:               ID:20101223122213 L   I
 2010-12-23-1220-12S.COL___135                                                 6
 STAT SP IPHASW D HRMM SECON CODA AMPLIT PERI AZIMU VELO SNR AR TRES W  DIS CAZ7
 BAR2 SZ IP       1222 32.58                             173    -0.510   16 194 
 BAR2 SZ ES   1   1222 47.75                             173    -0.2 7   16 194 
 BAR2 SZ I        1222 48.47       149.8 0.52                            16 194 
 BTL  SZ EP   1   1222 32.06                             170    -1.1 7   24 328 
 RUS  HZ EP       1222 36.50                             145    -0.310   93 175 
 RUS  HE ES   1   1222 54.86                             145     0.1 7   93 175 
 RUS  HZ I        1222 55.93        46.9 0.23                            93 175 
 GRA  SZ IP       1222 39.75                             134     0.210  133  17 
 GRA  SZ ES       1222 59.89                             134     0.410  133  17 
 GRA  SZ I        1223  3.72        70.6 0.07                           133  17 
 OCA  SZ ES   1   1223  5.66                             127     0.5 7  168 354 
 OCA  SZ I        1223  8.28       105.6 0.17                           168 354 
 YOP  SZ EP   1   1222 43.14                             127     0.0 7  173 152 
 YOP  SE ES   1   1223  6.42                             127     0.5 7  173 152 
 YOP  SZ I        1223  8.17        21.7 0.21                           173 152 
 NOR  SZ EP       1222 48.67                             118    -0.3 8  230 236 
 NOR  SE ES   1   1223 16.71                             118     0.4 6  230 236 
 CHI  HZ EP   1   1222 50.35                             117    -0.3 6  241 196 
 CHI  HN ES   1   1223 19.79                             117     0.5 6  241 196 
 CHI  HZ I        1223 26.51        17.8 0.28                           241 196 
 ROSC BE ES   1   1223 20.60                             117     0.4 6  246 212 
 ROSC BZ I        1223 28.34        41.0 0.33                           246 212 
 HEL  HZ EP   1   1222 53.91                             114     0.2 6  270 257 
 HEL  HZ I        1223 30.95        17.2 0.30                           270 257 
 RREF HE ES   1   1223 34.81                             111     0.0 5  317 230 
 RREF HZ I        1223 43.76        27.2 0.56                           317 230 
 TOL  SZ EP   1   1223  2.32                             109     0.9 5  338 225 
 DBB  SZ EP   1   1223  0.71                             109    -0.6 5  340 276 
 PRA  HZ EP   1   1223  7.11                             106     0.6 4  385 210 
 PRA  HN ES   1   1223 48.12                             106     0.5 4  385 210 
 SJA  SZ ES   2   1223 48.68                             106    -0.6 3  393 193 
 SJA  SZ I        1223 58.70        31.8 0.08                           393 193 
                                                                                
