 2010  223 1837  3.3 L   7.401 -73.104126.3  RSN  4 0.2 2.1LRSN                1
 GAP=194        0.52       3.0     9.4  8.4  0.5261E+01 -0.5271E+02 -0.1943E+01E
 Epicentro: MATANZA - SANTANDER                                                3
 ACTION:UP  10-08-24 09:50 OP:vdl  STATUS:               ID:20100223183703 L   I
 2010-02-23-1833-50S.COL___094                                                 6
 STAT SP IPHASW D HRMM SECON CODA AMPLIT PERI AZIMU VELO SNR AR TRES W  DIS CAZ7
 BRR  HZ IP       1837 22.58                             147     0.010   75 244 
 BRR  HE ES   1   1837 37.61                             147     0.0 7   75 244 
 BRR  HZ I        1837 40.83        18.4 0.49                            75 244 
 BAR2 SZ EP       1837 24.20                             142     0.210   90 186 
 BAR2 SZ ES   2   1837 40.52                             142     0.4 5   90 186 
 OCA  SZ EP       1837 24.35                             141     0.010   96 346 
 OCA  SZ I        1837 24.65        36.4 0.15                            96 346 
 OCA  SZ ES   2   1837 40.44                             141    -0.3 5   96 346 
 RUS  BZ EP       1837 31.15                             124    -0.1 9  167 179 
 RUS  BE ES   2   1837 52.43                             124    -0.7 5  167 179 
                                                                                
