 2015  223 1848 41.8 L   6.824 -73.172151.1  RSN  5 0.4 1.9LRSN                1
 GAP=145        0.99       5.8     5.5  8.7 -0.1573E+02  0.1554E+02 -0.1334E+01E
 Epicentro: ZAPATOCA - SANTANDER                                               3
 ACTION:UPD 15-04-30 21:28 OP:nd   STATUS:               ID:20150223184841 L   I
 OLDACT:REG 15-02-23 21:28 OP:carl STATUS:               ID:20150223184738     3
 2015-02-23-1847-38M.COL___284                                                 6
 STAT SP IPHASW D HRMM SECON CODA AMPLIT PERI AZIMU VELO AIN AR TRES W  DIS CAZ7
 PAM  SZ EP       1849  4.95                             152    0.3610 77.2  42 
 PAM  SN ES       1849 22.37                             152    0.0110 77.2  42 
 PAM  SZ I        1849 24.15         9.1 0.56            157           77.2  42 
 RUS  HZ EP       1849  6.45                             144    0.1510  104 175 
 RUS  HN ES       1849 25.07                             144   -0.3310  104 175 
 RUS  HZ I        1849 27.35        10.2 0.50            145            104 175 
 PTB  HZ EP       1849  8.08                             134   -0.94 9  146 258 
 PTB  HN ES       1849 30.36                             134    0.11 9  146 258 
 SPBC HZ EP       1849 11.13                             130    0.37 9  164 218 
 SPBC HN ES       1849 33.36                             130    0.02 9  164 218 
 SPBC HZ I        1849 39.90        13.9 0.40            132            164 218 
 NOR  HZ EP       1849 17.60                             120   -0.18 8  234 234 
 NOR  HE ES       1849 46.36                             120    0.52 8  234 234 
 NOR  HZ I        1849 50.40         7.3 0.18            122            234 234 
                                                                                
