 2010 1223 1818  8.0 L   6.836 -73.134134.0  RSN  9 0.4 2.0LRSN                1
 GAP=159        0.88       3.9     9.0  9.8 -0.1507E+02  0.3925E+02 -0.3519E+01E
 Epicentro: LOS SANTOS - SANTANDER                                             3
 ACTION:UP  11-01-14 15:26 OP:pat  STATUS:               ID:20101223181808 L   I
 2010-12-23-1817-32S.COL___135                                                 6
 STAT SP IPHASW D HRMM SECON CODA AMPLIT PERI AZIMU VELO SNR AR TRES W  DIS CAZ7
 BTL  SZ EP       1818 26.37                             172     0.310   17 302 
 BAR2 SZ EP       1818 26.31                             168     0.010   28 191 
 BAR2 SZ ES   2   1818 40.28                             168    -0.3 5   28 191 
 BAR2 SZ I        1818 43.83        17.4 0.36                            28 191 
 RUS  HZ EP   1   1818 30.55                             140    -0.3 7  104 177 
 RUS  HN ES   1   1818 48.66                             140    -0.1 7  104 177 
 RUS  HZ I        1818 50.60         7.4 0.49                           104 177 
 GRA  SZ EP   1   1818 31.74                             135    -0.1 7  122  17 
 GRA  SZ ES   1   1818 50.98                             135     0.6 7  122  17 
 GRA  SZ I        1818 52.18        31.7 0.44                           122  17 
 OCA  SZ EP   1   1818 34.33                             127    -0.7 7  157 353 
 OCA  SZ ES   1   1818 55.70                             127    -0.4 7  157 353 
 OCA  SZ I        1819  1.08        10.6 0.39                           157 353 
 NOR  SZ EP   1   1818 44.07                             115     0.7 6  238 234 
 NOR  SN ES   1   1819 10.72                             115    -0.3 6  238 234 
 CHI  HZ EP   1   1818 45.32                             114    -0.2 6  253 195 
 CHI  HZ I        1819 20.35         4.8 0.25                           253 195 
 HEL  HZ EP   2   1818 48.88                             112     1.0 4  274 255 
 HEL  HZ I        1819 26.46         8.7 0.74                           274 255 
 PRA  HN ES   2   1819 43.38                             104     0.0 3  396 209 
                                                                                
