 2017  123 1451 54.7 L   6.852 -73.366110.7  RSN  6 0.3 1.5LRSN                1
 GAP=130        0.70       3.2     3.1  5.0  0.2914E+01  0.3799E+01  0.2753E-01E
 Epicentro: SAN VICENTE DE CHUCURI - SANTANDER                                 3
 ACTION:UPD 17-05-22 16:02 OP:jn   STATUS:               ID:20170123145154 L   I
 OLDACT:REG 17-01-23 20:25 OP:dnl  STATUS:               ID:20170123144742     3
 2017-01-23-1448-00M.COL___349                                                 6
 STAT SP IPHASW D HRMM SECON CODA AMPLIT PERI AZIMU VELO AIN AR TRES W  DIS CAZ7
 BAR2 EZ EP       1452 10.64                             161    0.1210 35.2 145 
 BAR2 EZ ES       1452 22.73                             161   -0.1310 35.2 145 
 BAR2 EZ I        1452 23.98        30.1 0.16            162           35.2 145 
 BRR  HZ IP     C 1452 10.28                             155   -0.4510 47.5 306 
 BRR  HN ES       1452 23.06                             155   -0.1710 47.5 306 
 BRR  HZ I        1452 23.77        14.8 0.12            155           47.5 306 
 PAM  EZ EP       1452 14.27                             138   -0.1310 91.3  54 
 PAM  EN ES       1452 30.07                             138    0.3010 91.3  54 
 PAM  EZ I        1452 31.38         3.8 0.14            139           91.3  54 
 RUS  HZ EP       1452 16.06                             132   -0.0210  111 164 
 RUS  HN ES       1452 32.95                             132    0.1910  111 164 
 RUS  HZ I        1452 34.10         2.8 0.32            133            111 164 
 PTB  HZ IP   4   1452 15.02                             128   -1.81 0  125 254 
 PTB  HN ES   4   1452 31.27                             128   -2.82 0  125 254 
 PTB  HZ I        1452 35.46         5.2 0.16            128            125 254 
 ZAR  HZ EP       1452 22.26                             117   -0.14 9  179 293 
 ZAR  HE ES       1452 44.54                             117    0.53 9  179 293 
 ZAR  HZ I        1452 45.96         6.1 0.48            118            179 293 
                                                                                
