 2017  823 1822 11.2 L   6.749 -73.141142.0  RSN  5 0.4 1.8LRSN                1
 GAP=234        0.74       6.6     7.8  5.9  0.3890E+02  0.1534E+02  0.9493E+01E
 Epicentro: LOS SANTOS - SANTANDER                                             3
 ACTION:UPD 17-09-04 20:23 OP:rebc STATUS:               ID:20170823182211 L   I
 OLDACT:UP  17-08-23 23:30 OP:and  STATUS:               ID:20170823181749     3
 OLDACT:UP  17-08-23 23:30 OP:and  STATUS:               ID:20170823181749     3
 OLDACT:UP  17-08-23 23:30 OP:and  STATUS:               ID:20170823181749     3
 OLDACT:UP  17-08-23 23:29 OP:and  STATUS:               ID:20170823181749     3
 OLDACT:REG 17-08-23 21:00 OP:and  STATUS:               ID:20170823181749     3
 2017-08-23-1818-00M.COL___419                                                 6
 STAT SP IPHASW D HRMM SECON CODA AMPLIT PERI AZIMU VELO AIN AR TRES W  DIS CAZ7
 BAR2 EZ EP       1822 29.93                             172   -0.3410 18.0 195 
 BAR2 EZ ES       1822 45.55                             172    0.4010 18.0 195 
 BAR2 EZ I        1822 47.37        11.0 0.38            168           18.0 195 
 BRR  HZ EP       1822 31.92                             151   -0.2010 74.5 302 
 BRR  HN ES       1822 48.65                             151    0.2010 74.5 302 
 RUS  HZ EP       1822 34.22                             145    0.0610 95.0 176 
 RUS  HN ES       1822 51.93                             145   -0.1610 95.0 176 
 RUS  HZ I        1822 53.22         8.0 0.26            145           95.0 176 
 ZAR  HZ EP   3   1822 45.80                             122    2.14 2  207 294 
 ZAR  HN ES       1823  8.76                             122   -0.23 8  207 294 
 ZAR  HZ I        1823 14.04        10.8 0.36            121            207 294 
 NOR  HZ EP       1822 46.55                             118    0.15 8  232 236 
                                                                                
