 2012  123 1019 59.4 L   6.798 -73.180143.4  RSN  8 0.5 1.8LRSN                1
 GAP=132        1.08       5.1     6.7  8.9 -0.4543E+01  0.1117E+02 -0.4940E+01E
 Epicentro: LOS SANTOS - SANTANDER                                             3
 ACTION:UP  12-02-03 08:19 OP:REBC STATUS:               ID:20120123101959 L   I
 2012-01-23-1020-00M.COL___186                                                 6
 STAT SP IPHASW D HRMM SECON CODA AMPLIT PERI AZIMU VELO SNR AR TRES W  DIS CAZ7
 BAR2 SZ IP       1020 18.87                             171     0.110   23 181 
 BAR2 SZ I        1020 19.00        20.0 0.40                            23 181 
 BAR2 SZ ES   1   1020 33.85                             171     0.0 7   23 181 
 BRR  HZ EP       1020 20.82                             153     0.710   68 300 
 BRR  HN ES   2   1020 37.55                             153     1.2 5   68 300 
 BRR  HZ I        1020 40.72        13.0 0.12                            68 300 
 PAM  SZ IP       1020 21.95                             149     0.410   80  41 
 PAM  SN ES   1   1020 38.47                             149    -0.3 7   80  41 
 RUS  HZ EP       1020 22.84                             143    -0.110  101 174 
 RUS  HE ES   1   1020 41.01                             143    -0.3 7  101 174 
 RUS  HZ I        1020 42.33         8.6 0.38                           101 174 
 PTB  HZ EP       1020 25.60                             132    -0.3 9  144 259 
 PTB  HN ES   1   1020 46.00                             132    -0.5 7  144 259 
 PTB  HZ I        1020 52.33         4.1 0.32                           144 259 
 OCA  SZ EP       1020 27.23                             129    -0.3 9  160 354 
 OCA  SZ ES   1   1020 48.86                             129    -0.6 7  160 354 
 OCA  SZ I        1020 52.13        10.8 0.53                           160 354 
 ZAR  HZ EP   3   1020 31.83                             122     0.4 2  201 293 
 ZAR  HN ES   3   1020 56.83                             122     0.5 2  201 293 
 ZAR  HZ I        1021  2.82         8.2 0.46                           201 293 
 CHI  HZ EP   2   1020 37.17                             117     0.3 4  247 194 
 CHI  HZ I        1021 10.37         1.9 0.32                           247 194 
                                                                                
