 2011  623 1007 24.2 L   6.780 -73.086139.9  RSN 14 0.4 2.0LRSN                1
 GAP=163        0.75       3.1     5.4  4.5 -0.6566E+01  0.2841E+01  0.1747E+01E
 Epicentro: LOS SANTOS - SANTANDER                                             3
 ACTION:UP  11-07-14 19:07 OP:ep   STATUS:               ID:20110623100724 L   I
 2011-06-23-1005-21S.COL___140                                                 6
 STAT SP IPHASW D HRMM SECON CODA AMPLIT PERI AZIMU VELO SNR AR TRES W  DIS CAZ7
 BAR2 SZ EP       10 7 43.18                             170     0.010   23 207 
 BAR2 SZ ES   1   10 7 57.77                             170    -0.1 7   23 207 
 BAR2 SZ I        10 7 59.48        31.8 0.21                            23 207 
 BTL  SZ IP       10 7 43.41                             169     0.210   25 307 
 BTL  SZ ES   1   10 7 57.91                             169    -0.1 7   25 307 
 GIR2 SZ EP       10 7 43.18                             165    -0.110   35 340 
 GIR2 SZ ES   2   10 7 57.89                             165    -0.3 5   35 340 
 BRR  HZ EP       10 7 44.97                             149    -0.210   78 298 
 BRR  HN ES   1   10 8  1.73                             149     0.3 7   78 298 
 BRR  HZ I        10 8  5.68        23.8 0.13                            78 298 
 RUS  HZ EP       10 7 47.23                             143     0.010   98 180 
 RUS  HZ I        10 7 48.39        10.1 0.15                            98 180 
 RUS  HN ES   2   10 8  5.32                             143     0.2 5   98 180 
 BRI  SZ EP       10 7 47.69                             140     0.110  108  17 
 BRI  SZ ES   3   10 8  5.55                             140    -0.2 2  108  17 
 GRA  SZ IP       10 7 48.94                             135     0.010  126  14 
 GRA  SZ ES   2   10 8  7.23                             135    -1.0 5  126  14 
 GRA  SZ I        10 8 12.75         7.5 0.39                           126  14 
 OCA  SZ EP       10 7 52.51                             128     0.1 9  163 351 
 OCA  SZ ES   1   10 8 14.67                             128     0.3 7  163 351 
 NOR  SZ EP       10 7 59.42                             117    -0.6 8  239 236 
 NOR  SN ES   2   10 8 27.31                             117    -0.7 4  239 236 
 CHI  HZ EP   2   10 8  1.56                             116     0.0 4  248 197 
 CHI  HN ES   2   10 8 31.65                             116     1.0 4  248 197 
 HEL  HZ EP       10 8  5.34                             113     0.6 7  278 257 
 GUY  SZ EP   2   10 8  6.70                             111    -1.6 4  308 236 
 GUY  SZ I        10 8 50.15         7.3 0.37                           308 236 
 RREF HZ EP   2   10 8 10.40                             109    -0.1 3  325 230 
 RREF HN ES   2   10 8 47.34                             109     0.7 3  325 230 
 RREF HZ I        10 8 57.33         3.8 0.36                           325 230 
 PRA  HZ EP       10 8 17.78                             105     0.1 6  393 211 
 PRA  HN ES   3   10 8 59.40                             105     0.0 1  393 211 
                                                                                
