 2016  323 1338 14.6 L   6.765 -73.222145.5  RSN  4 0.4 1.4LRSN                1
 GAP=233        0.57      10.0     5.7  9.9  0.3111E+02 -0.6303E+01 -0.4098E+02E
 Epicentro: ZAPATOCA - SANTANDER                                               3
 ACTION:UPD 16-05-13 21:26 OP:cam  STATUS:               ID:20160323133814 L   I
 OLDACT:DUP 16-03-23 23:31 OP:dnl  STATUS:               ID:20160323133745d    3
 OLDACT:UP  16-03-23 23:24 OP:dnl  STATUS:               ID:20160323133744     3
 OLDACT:REG 16-03-23 20:37 OP:dnl  STATUS:               ID:20160323133744     3
 2016-03-23-1337-44M.COL___309                                                 6
 STAT SP IPHASW D HRMM SECON CODA AMPLIT PERI AZIMU VELO AIN AR TRES W  DIS CAZ7
 BAR2 EZ EP   2   1338 33.98                             172   -0.16 5 19.6 167 
 BAR2 EZ ES   2   1338 49.80                             172    0.43 5 19.6 167 
 BAR2 EZ I        1338 51.49         3.8 0.17            172           19.6 167 
 RUS  HZ EP   2   1338 38.40                             145    0.27 5 97.7 171 
 RUS  HE ES   2   1338 55.80                             145   -0.67 5 97.7 171 
 PTB  HZ EP   2   1338 40.97                             134    0.22 5  139 260 
 PTB  HN ES       1339  1.25                             134    0.1110  139 260 
 PTB  HZ I        1339  9.27         2.9 0.26            133            139 260 
 ZAR  HZ EP   2   1338 46.50                             123    0.11 5  198 294 
 ZAR  HN ES   2   1339 10.43                             123   -0.76 5  198 294 
 ZAR  HZ I        1339 18.41         3.5 0.17            123            198 294 
                                                                                
