 2011  123 1034 44.1 L   6.799 -73.035136.1  RSN  4 0.1 1.3LRSN                1
 GAP=171        0.36       2.6    12.4  5.9 -0.1190E+02 -0.2685E+02 -0.8724E+00E
 Epicentro: CEPITA - SANTANDER                                                 3
 ACTION:UP  11-02-08 08:42 OP:pat  STATUS:               ID:20110123103444 L   I
 2011-01-23-1032-26S.COL___138                                                 6
 STAT SP IPHASW D HRMM SECON CODA AMPLIT PERI AZIMU VELO SNR AR TRES W  DIS CAZ7
 BAR2 SZ EP   1   1035  2.45                             168    -0.2 7   28 216 
 BAR2 SZ I        1035 18.49         6.0 0.14                            28 216 
 BTL  SZ EP   1   1035  2.71                             167     0.0 7   29 297 
 BTL  SZ ES   2   1035 17.31                             167     0.1 5   29 297 
 RUS  HZ EP   1   1035  7.00                             142     0.1 7  100 183 
 RUS  HE ES   1   1035 24.64                             142     0.0 7  100 183 
 RUS  HZ I        1035 26.09         2.4 0.31                           100 183 
 GRA  SZ EP   1   1035  8.28                             135     0.1 7  123  12 
 GRA  SZ ES   2   1035 26.99                             135     0.0 5  123  12 
 GRA  SZ I        1035 29.65         2.8 0.28                           123  12 
                                                                                
