 2016  323 1727 18.9 L   6.786 -73.169134.0  RSN  5 0.3 1.3LRSN                1
 GAP=134        0.60       4.5     3.5  6.9 -0.2440E+01  0.8396E+01  0.7385E+01E
 Epicentro: LOS SANTOS - SANTANDER                                             3
 ACTION:UPD 16-05-13 21:26 OP:cam  STATUS:               ID:20160323172718 L   I
 OLDACT:REG 16-03-23 20:42 OP:dnl  STATUS:               ID:20160323171747     3
 2016-03-23-1717-47M.COL___307                                                 6
 STAT SP IPHASW D HRMM SECON CODA AMPLIT PERI AZIMU VELO AIN AR TRES W  DIS CAZ7
 BAR2 EZ EP   2   1727 36.82                             170   -0.22 5 21.4 184 
 BAR2 EZ ES   2   1727 51.49                             170    0.27 5 21.4 184 
 BAR2 EZ I        1727 54.45         3.8 0.14            172           21.4 184 
 PAM  EZ EP   2   1727 40.00                             148   -0.03 5 80.3  40 
 PAM  EN ES       1727 56.54                             148    0.0110 80.3  40 
 PAM  EZ I        1727 59.08         5.4 0.32            152           80.3  40 
 RUS  HZ EP       1727 41.41                             142    0.0410 99.2 175 
 RUS  HE ES   2   1727 59.06                             142    0.13 5 99.2 175 
 RUS  HZ I        1728  0.44         1.2 0.23            148           99.2 175 
 PTB  HZ EP       1727 44.19                             130   -0.44 9  145 259 
 PTB  HE ES       1728  4.89                             130    0.16 9  145 259 
 PTB  HZ I        1728  7.37         3.7 0.10            132            145 259 
 ZAR  HZ EP   2   1727 51.47                             120    1.09 4  202 293 
 ZAR  HN ES   2   1728 14.79                             120   -0.18 4  202 293 
 ZAR  HZ I        1728 21.41         3.2 0.12            122            202 293 
                                                                                
