 2015  323 1442 52.8 L   6.821 -73.163146.7  RSN  7 0.4 1.9LRSN                1
 GAP=200        0.96       4.1     5.5  6.5  0.8133E+01  0.4973E+01 -0.2947E+01E
 Epicentro: LOS SANTOS - SANTANDER                                             3
 ACTION:UPD 15-04-30 16:28 OP:nd   STATUS:               ID:20150323144252 L   I
 OLDACT:REG 15-03-23 20:50 OP:fm   STATUS:               ID:20150323143737     3
 2015-03-23-1437-37M.COL___272                                                 6
 STAT SP IPHASW D HRMM SECON CODA AMPLIT PERI AZIMU VELO AIN AR TRES W  DIS CAZ7
 BAR2 EZ EP       1443 12.70                             170    0.0910 25.4 185 
 BAR2 EZ ES       1443 27.86                             170   -0.1810 25.4 185 
 BAR2 EZ I        1443 30.34        14.4 0.22            169           25.4 185 
 BRR  HZ EP       1443 14.62                             154    0.7010 68.4 298 
 BRR  HN ES       1443 30.79                             154    0.4210 68.4 298 
 BRR  HZ I        1443 35.70         8.9 0.26            150           68.4 298 
 RUS  HZ EP       1443 16.58                             143   -0.2610  103 175 
 RUS  HN ES       1443 35.49                             143   -0.0910  103 175 
 RUS  HZ I        1443 36.56         8.7 0.22            147            103 175 
 PTB  HZ EP       1443 19.85                             132    0.11 9  146 258 
 PTB  HE ES       1443 40.69                             132   -0.04 9  146 258 
 PTB  HZ I        1443 47.86         6.6 0.44            132            146 258 
 SPBC HZ EP       1443 21.63                             129    0.18 9  164 218 
 SPBC HN ES       1443 43.33                             129   -0.46 9  164 218 
 SPBC HZ I        1443 46.34        15.0 0.28            131            164 218 
 ZAR  HZ EP       1443 25.25                             123    0.20 9  201 292 
 ZAR  HN ES       1443 50.12                             123   -0.07 9  201 292 
 ZAR  HZ I        1443 56.88         4.4 0.28            124            201 292 
 SML  HE ES       1443 56.59                             118   -0.95 8  241 335 
 SML  HZ I        1444  1.89        15.4 0.10            120            241 335 
                                                                                
