 2012  223 1448 29.1 L   6.777 -73.030146.1  RSN  5 0.4 1.5LRSN                1
 GAP=212        0.67       8.3     8.9  8.8  0.2273E+02  0.1913E+01  0.1009E+01E
 ACTION:UP  12-03-07 16:33 OP:epov STATUS:               ID:20120223144829 L   I
 2012-02-23-1440-00M.COL___191                                                 6
 STAT SP IPHASW D HRMM SECON CODA AMPLIT PERI AZIMU VELO AIN AR TRES W  DIS CAZ7
 BAR2 SZ EP   1   1448 48.49                             169   -0.34 7 26.5 220 
 BAR2 SZ ES   2   1449  4.67                             169    0.45 5 26.5 220 
 BAR2 SZ I        1449  5.36         3.2 0.28                          26.5 220 
 GIR2 SZ EP   2   1448 49.14                             165    0.14 5 38.0 332 
 GIR2 SZ ES   2   1449  3.85                             165   -0.68 5 38.0 332 
 BRR  HZ EP   1   1448 51.06                             149    0.03 7 83.8 296 
 BRR  HN ES   1   1449  8.54                             149    0.40 7 83.8 296 
 BRR  HZ I        1449 13.18        10.2 0.46                          83.8 296 
 RUS  HE ES   2   1449 11.33                             145    0.24 5 98.0 183 
 PTB  HZ EP   2   1448 57.62                             130    0.41 5  160 261 
 PTB  HE ES   2   1449 18.32                             130   -0.82 5  160 261 
                                                                                
