 2016  723 1232 48.9 L   6.897 -73.219127.5  RSN  4 0.5 1.6LRSN                1
 GAP=239        1.20      13.1    14.2 10.7  0.1585E+03  0.8791E+01  0.1816E+01E
 Epicentro: BETULIA - SANTANDER                                                3
 ACTION:UPD 17-03-29 16:54 OP:lp   STATUS:               ID:20160723123248 L   I
 OLDACT:UP  16-07-23 21:39 OP:lv   STATUS:               ID:20160723122759     3
 OLDACT:REG 16-07-23 20:23 OP:lv   STATUS:               ID:20160723122759     3
 2016-07-23-1227-59S.COL___328                                                 6
 STAT SP IPHASW D HRMM SECON CODA AMPLIT PERI AZIMU VELO AIN AR TRES W  DIS CAZ7
 BAR2 EZ EP       1233  7.20                             164    0.6010 33.9 173 
 BAR2 EZ ES       1233 20.09                             164   -0.3510 33.9 173 
 BRR  HZ EP       1233  7.62                             153    0.2510 59.3 293 
 BRR  HN ES       1233 21.68                             153   -0.1310 59.3 293 
 BRR  HZ I        1233 22.53        15.2 0.16            150           59.3 293 
 RUS  HZ EP       1233 10.95                             136   -0.8510  112 172 
 RUS  HN ES       1233 30.18                             136    0.4810  112 172 
 ZAR  HN ES       1233 42.45                             120   -0.01 9  193 290 
 ZAR  HZ I        1233 45.03         2.8 0.09            118            193 290 
                                                                                
