 2017  423 1721  9.3 L   6.764 -73.122138.0  RSN  7 0.5 2.0LRSN                1
 GAP=115        1.10       4.7     4.9  7.2  0.2790E-01  0.7058E+01  0.1396E+02E
 Epicentro: LOS SANTOS - SANTANDER                                             3
 ACTION:UPD 17-05-30 21:15 OP:jn   STATUS:               ID:20170423172109 L   I
 OLDACT:REG 17-04-23 21:15 OP:dani STATUS:               ID:20170423171740     3
 2017-04-23-1718-00M.COL___371                                                 6
 STAT SP IPHASW D HRMM SECON CODA AMPLIT PERI AZIMU VELO AIN AR TRES W  DIS CAZ7
 BAR2 EZ EP       1721 27.61                             171   -0.3510 20.2 199 
 BAR2 EZ ES       1721 42.34                             171   -0.1510 20.2 199 
 BAR2 EZ I        1721 43.92        31.6 0.22            168           20.2 199 
 BRR  HZ EP       1721 29.64                             150   -0.2610 75.4 300 
 BRR  HE ES       1721 46.56                             150    0.6210 75.4 300 
 BRR  HZ I        1721 51.20        17.9 0.16            150           75.4 300 
 PAM  EZ IP     C 1721 30.61                             149   -0.2110 78.9  36 
 PAM  EN ES       1721 47.69                             149    0.1110 78.9  36 
 PAM  EZ I        1721 50.05        17.4 0.52            155           78.9  36 
 YPLC HZ EP       1721 37.92                             126   -0.18 9  172 151 
 ZAR  HZ EP       1721 42.30                             120    0.61 8  208 293 
 ZAR  HE ES       1722  6.61                             120   -0.32 8  208 293 
 ZAR  HZ I        1722 12.74        17.5 0.31            122            208 293 
 NOR  HZ EP       1721 44.92                             117    0.32 8  235 236 
 NOR  HN ES       1722 11.16                             117   -0.96 8  235 236 
 NOR  HZ I        1722 15.88         4.7 0.16            118            235 236 
 CHI  HZ EP       1721 46.35                             116    0.08 8  246 196 
 CHI  HN ES       1722 15.93                             116    0.85 8  246 196 
 CHI  HZ I        1722 25.25         2.8 0.36            117            246 196 
                                                                                
