 2014  423 1348 58.2 L   6.821 -73.161141.7  RSN 10 0.5 2.3LRSN                1
 GAP=134        0.97       3.0     4.4  6.5 -0.3966E+01  0.1047E+02  0.3300E+00E
 Epicentro: LOS SANTOS - SANTANDER                                             3
 ACTION:UPD 14-05-13 23:10 OP:nd   STATUS:               ID:20140423134858 L   I
 OLDACT:REG 14-04-23 20:47 OP:nd   STATUS:               ID:20140423134042     3
 2014-04-23-1340-42M.COL___242                                                 6
 STAT SP IPHASW D HRMM SECON CODA AMPLIT PERI AZIMU VELO AIN AR TRES W  DIS CAZ7
 PAM  SZ EP       1349 20.16                             150    0.2410 76.7  42 
 PAM  SN ES       1349 36.86                             150   -0.0210 76.7  42 
 RUS  HZ EP       1349 21.66                             142   -0.0510  103 175 
 RUS  HN ES       1349 40.43                             142    0.3610  103 175 
 PTB  HZ EP       1349 24.42                             131   -0.28 9  147 258 
 PTB  HN ES       1349 45.24                             131   -0.16 9  147 258 
 PTB  HZ I        1349 51.34        16.9 0.40            131            147 258 
 SPBC HZ EP       1349 26.42                             128   -0.02 9  164 218 
 SPBC HN ES       1349 48.52                             128    0.03 9  164 218 
 SPBC HZ I        1349 55.57        22.2 0.28            129            164 218 
 NOR  HZ EP       1349 33.41                             118   -0.26 8  235 234 
 NOR  HN ES       1350  1.40                             118    0.04 8  235 234 
 NOR  HZ I        1350  5.66        16.5 0.24            119            235 234 
 SML  HZ EP       1349 34.37                             117    0.11 8  241 335 
 SML  HN ES       1350  2.14                             117   -0.27 8  241 335 
 SML  HZ I        1350  4.71        17.4 0.26            119            241 335 
 CHI  HZ EP       1349 35.13                             116   -0.72 8  250 195 
 CHI  HN ES       1350  4.47                             116   -0.77 8  250 195 
 GUY2CHZ EP       1349 42.43                             111    0.83 7  301 234 
 GUY2CHN ES   1   1350 15.41                             111   -0.05 5  301 234 
 GUY2CHZ I        1350 22.36         8.5 0.36                           301 234 
 RREF HZ EP       1349 45.46                             110    1.29 7  322 229 
 RREF HN ES   1   1350 20.06                             110    0.01 5  322 229 
 RREF HZ I        1350 26.05         8.7 0.26            112            322 229 
 PRA  HZ EP       1349 51.07                             106   -0.63 6  393 209 
 PRA  HN ES       1350 34.10                             106    0.65 6  393 209 
 PRA  HZ I        1350 39.16         6.4 0.30            108            393 209 
                                                                                
