 2012  223 1403 22.4 L   6.791 -73.131145.6  RSN 17 0.4 3.3LRSN                1
 GAP=104        0.73       2.8     3.5  4.2 -0.2280E+01  0.2216E+01  0.3393E+01E
 ACTION:UP  12-03-07 16:33 OP:epov STATUS:               ID:20120223140322 L   I
 2012-02-23-1400-00M.COL___191                                                 6
 STAT SP IPHASW D HRMM SECON CODA AMPLIT PERI AZIMU VELO AIN AR TRES W  DIS CAZ7
 BAR2 SZ IP       14 3 42.02                             171   -0.0110 22.7 194 
 BAR2 SZ I        14 3 42.60       387.0 0.17                          22.7 194 
 BAR2 SZ ES   1   14 3 57.14                             171   -0.18 7 22.7 194 
 GIR2 SZ IP       14 3 42.06                             167   -0.0610 32.5 348 
 GIR2 SZ ES   1   14 3 57.85                             167    0.38 7 32.5 348 
 BRR  HZ IP     C 14 3 43.87                             152    0.2010 73.1 299 
 BRR  HZ I        14 3 44.18       513.0 0.20                          73.1 299 
 BRR  HN ES   1   14 4  0.85                             152    0.62 7 73.1 299 
 PAM  SZ IP       14 3 44.82                             151    0.2110 77.1  38 
 PAM  SE ES   1   14 4  1.63                             151   -0.28 7 77.1  38 
 RUS  HZ IP     C 14 3 45.94                             144   -0.1510 99.5 177 
 RUS  HN ES   1   14 4  4.19                             144   -0.36 7 99.5 177 
 RUS  HZ I        14 4  6.14       203.2 0.25                          99.5 177 
 PTB  HZ EP       14 3 48.59                             132   -0.92 9  149 259 
 PTB  HE ES   2   14 4 10.55                             132   -0.09 5  149 259 
 YOP  SZ EP   1   14 3 52.86                             126    0.56 7  177 154 
 YOP  SN ES   2   14 4 15.73                             126    0.12 4  177 154 
 NOR  SZ EP   1   14 3 58.15                             118   -0.08 6  235 235 
 NOR  SE ES   1   14 4 26.02                             118   -0.14 6  235 235 
 CHI  HZ EP   1   14 4  0.36                             117    0.30 6  248 196 
 CHI  HE ES   1   14 4 29.22                             117   -0.20 6  248 196 
 CHI  HZ I        14 4 37.11        76.1 0.41                           248 196 
 ROSC BZ EP   1   14 4  1.58                             117    1.04 6  253 211 
 ROSC BN ES   2   14 4 30.02                             117   -0.25 4  253 211 
 ROSC BZ I        14 4 39.89       192.0 0.36                           253 211 
 HEL  HZ EP   1   14 4  2.80                             115    0.02 6  273 256 
 HEL  HN ES   2   14 4 34.43                             115    0.18 4  273 256 
 HEL  HZ I        14 4 41.19       154.4 0.36                           273 256 
 VIL  SZ EP   1   14 4  6.25                             112    0.48 5  303 192 
 VIL  SN ES   2   14 4 38.88                             112   -0.70 4  303 192 
 VIL  SZ I        14 4 45.91        58.7 0.34                           303 192 
 RREF HZ EP   1   14 4  8.93                             111    0.30 5  322 230 
 RREF HE ES   1   14 4 44.39                             111   -0.28 5  322 230 
 RREF HZ I        14 4 56.13        80.8 0.47                           322 230 
 COD  HZ EP   2   14 4 10.83                             109   -0.09 3  349 354 
 COD  HN ES   2   14 4 48.62                             109   -0.13 3  349 354 
 SDV  BZ EP   1   14 4 11.65                             108   -0.74 5  360  50 
 SDV  BZ I        14 4 50.90        41.3 0.39                           360  50 
 PRA  HZ EP   1   14 4 16.41                             106    0.47 4  392 210 
 PRA  HN ES   1   14 4 57.76                             106    0.08 4  392 210 
 SJA  SZ EP   1   14 4 16.68                             106   -0.23 4  400 193 
 SJA  SZ I        14 5  5.06        98.1 0.48                           400 193 
                                                                                
