 2011  723 1131 31.9 L   6.753 -73.108145.4  RSN 14 0.3 2.4LRSN                1
 GAP=129        0.51       2.1     3.4  2.8 -0.3281E+01  0.5353E+00  0.7453E+00E
 Epicentro: LOS SANTOS - SANTANDER                                             3
 ACTION:UPD 12-07-25 14:02 OP:epov STATUS:               ID:20110723113132 L   I
 2011-07-23-1129-52S.COL___143                                                 6
 STAT SP IPHASW D HRMM SECON CODA AMPLIT PERI AZIMU VELO AIN AR TRES W  DIS CAZ7
 BAR2 SZ EP       1131 51.40                             172   -0.0610 19.5 205 
 BAR2 SZ ES   1   1132  6.14                             172   -0.54 7 19.5 205 
 BAR2 SZ I        1132  7.21        46.3 0.15                          19.5 205 
 BTL  SZ EP   1   1131 51.68                             170    0.11 7 25.4 316 
 BTL  SZ ES   1   1132  7.14                             170    0.26 7 25.4 316 
 GIR2 SZ EP       1131 51.58                             165   -0.1610 37.3 345 
 GIR2 SZ ES   1   1132  6.90                             165   -0.29 7 37.3 345 
 BRR  HZ EP   1   1131 53.44                             150    0.03 7 77.4 300 
 BRR  HE ES   1   1132 10.40                             150    0.25 7 77.4 300 
 BRR  HZ I        1132 15.71        58.4 0.14                          77.4 300 
 PAM  SZ EP   1   1131 54.50                             150    0.28 7 79.1  35 
 PAM  SE ES   1   1132 11.70                             150    0.11 7 79.1  35 
 RUS  HZ EP   1   1131 55.32                             145    0.05 7 95.2 178 
 RUS  HN ES   1   1132 13.40                             145   -0.07 7 95.2 178 
 RUS  HZ I        1132 14.97        25.6 0.34                          95.2 178 
 BRI  SZ EP   1   1131 56.27                             140    0.20 7  112  18 
 BRI  SZ ES   1   1132 15.15                             140    0.26 7  112  18 
 BRI  SZ I        1132 16.71        40.7 0.25                           112  18 
 GRA  SZ IP       1131 57.57                             136    0.0910  130  15 
 GRA  SZ ES   1   1132 17.53                             136    0.14 7  130  15 
 GRA  SZ I        1132 18.19        44.2 0.37                           130  15 
 OCA  SZ EP   1   1132  0.30                             128   -0.46 7  166 352 
 OCA  SZ ES   1   1132 23.07                             128   -0.18 7  166 352 
 OCA  SZ I        1132 27.03        48.0 0.28                           166 352 
 NOR  SZ EP   1   1132  7.65                             118   -0.04 6  235 236 
 NOR  SE ES   1   1132 35.48                             118   -0.10 6  235 236 
 CHI  HZ EP   1   1132  9.54                             117    0.35 6  245 196 
 CHI  HZ I        1132 12.05         8.4 0.28                           245 196 
 HEL  HZ EP   1   1132 12.37                             114   -0.07 6  275 257 
 SDV  BZ EP   1   1132 21.34                             108   -0.65 5  361  49 
 SDV  BZ I        1133  2.72         6.4 0.61                           361  49 
 PRA  HZ EP   1   1132 25.66                             106    0.50 4  390 210 
                                                                                
