 2015  123 1510 20.2 L   6.786 -73.130150.0  RSN  8 0.4 1.9LRSN                1
 GAP=139        1.03       5.5     5.2  7.2 -0.1019E+02  0.2075E+01  0.8212E+01E
 Epicentro: LOS SANTOS - SANTANDER                                             3
 ACTION:UPD 15-03-02 15:41 OP:nd   STATUS:               ID:20150123151020 L   I
 OLDACT:REG 15-01-23 23:01 OP:spq  STATUS:               ID:20150123150747     3
 2015-01-23-1507-47M.COL___265                                                 6
 STAT SP IPHASW D HRMM SECON CODA AMPLIT PERI AZIMU VELO AIN AR TRES W  DIS CAZ7
 BAR2 EZ EP       1510 40.19                             171   -0.1210 22.1 195 
 BAR2 EZ ES   1   1510 56.33                             171    0.33 7 22.1 195 
 BAR2 EZ I        1510 57.92        16.2 0.34            171           22.1 195 
 BRR  HZ EP       1510 42.23                             153    0.3010 73.5 299 
 BRR  HE ES       1510 59.35                             153    0.4710 73.5 299 
 BRR  HZ I        1511  3.47        13.6 0.38            153           73.5 299 
 PAM  SZ EP       1510 42.97                             152    0.1010 77.5  38 
 PAM  SE ES   1   1511  0.34                             152   -0.22 7 77.5  38 
 PAM  SZ I        1511  2.55         7.8 0.52            155           77.5  38 
 RUS  HZ EP       1510 43.94                             145   -0.3010 98.9 177 
 RUS  HE ES   1   1511  2.98                             145   -0.02 7 98.9 177 
 RUS  HZ I        1511  4.34         6.4 0.32            147           98.9 177 
 PTB  HZ EP       1510 47.14                             133   -0.50 9  149 260 
 PTB  HN ES       1511  8.08                             133   -0.96 9  149 260 
 PTB  HZ I        1511  9.44         8.5 0.12            134            149 260 
 SPBC HZ EP       1510 48.96                             130   -0.05 9  163 220 
 SPBC HE ES       1511 11.54                             130    0.06 9  163 220 
 SPBC HZ I        1511 13.92        12.4 0.27            132            163 220 
 NOR  HZ EP   1   1510 56.28                             119    0.05 6  235 235 
 NOR  HE ES       1511 25.14                             119    0.81 8  235 235 
 NOR  HZ I        1511 29.75         7.5 0.36            121            235 235 
 GUY2CHZ EP   1   1511  4.83                             113    0.77 5  302 235 
 GUY2CHE ES   4   1511 41.48                             113    3.21 0  302 235 
 GUY2CHZ I        1511 46.68         4.9 0.34                           302 235 
                                                                                
