 2014 1223 1227 36.0 L   6.808 -73.151141.3  RSN 14 0.5 2.4LRSN                1
 GAP= 71        1.11       3.0     3.5  6.0  0.2841E+00  0.7867E+01  0.3662E+01E
 Epicentro: LOS SANTOS - SANTANDER                                             3
 ACTION:UPD 15-02-10 17:06 OP:nd   STATUS:               ID:20141223122736 L   I
 OLDACT:REG 14-12-23 20:26 OP:carl STATUS:               ID:20141223121749     3
 2014-12-23-1217-49M.COL___295                                                 6
 STAT SP IPHASW D HRMM SECON CODA AMPLIT PERI AZIMU VELO AIN AR TRES W  DIS CAZ7
 BAR2 EZ IP     C 1227 55.27                             170    0.2110 24.1 188 
 BAR2 EZ ES       1228 10.00                             170    0.0310 24.1 188 
 BAR2 EZ I        1228 12.52        32.6 0.20            169           24.1 188 
 BRR  HZ IP       1227 57.12                             152    0.5510 70.3 298 
 BRR  HN ES       1228 12.89                             152    0.2410 70.3 298 
 BRR  HZ I        1228 14.52        41.8 0.12            150           70.3 298 
 PAM  SN ES       1228 15.03                             150    0.4110 77.1  40 
 RUS  HZ EP       1227 59.01                             143   -0.3210  101 176 
 RUS  HE ES       1228 17.23                             143   -0.3410  101 176 
 RUS  HZ I        1228 18.66        17.4 0.20            144            101 176 
 PTB  HZ EP       1228  1.88                             131   -0.64 9  147 258 
 PTB  HN ES       1228 22.80                             131   -0.45 9  147 258 
 PTB  HZ I        1228 25.32        26.5 0.10            130            147 258 
 TAM  HN ES       1228 24.58                             129   -0.14 9  156 105 
 OCA  HN ES       1228 25.38                             129   -0.20 9  159 353 
 OCA  HZ I        1228 31.32        23.7 0.24            129            159 353 
 SPBC HZ EP       1228  4.20                             128    0.06 9  163 219 
 SPBC HN ES       1228 26.72                             128    0.59 9  163 219 
 SPBC HZ I        1228 28.84        49.0 0.12            128            163 219 
 ZAR  HZ EP       1228  7.46                             121   -0.56 9  203 292 
 ZAR  HN ES       1228 33.27                             121    0.23 9  203 292 
 ZAR  HZ I        1228 39.05        28.1 0.28            121            203 292 
 NOR  HZ EP       1228 11.41                             117   -0.02 8  235 234 
 NOR  HN ES       1228 38.75                             117   -0.35 8  235 234 
 NOR  HZ I        1228 43.14        24.1 0.60            117            235 234 
 SML  HN ES       1228 39.82                             117   -0.69 8  243 335 
 SML  HZ I        1228 45.85        23.1 0.10            117            243 335 
 CHI  HZ EP       1228 13.47                             116   -0.01 8  249 195 
 CHI  HN ES       1228 42.23                             116   -0.52 8  249 195 
 CHI  HZ I        1228 48.56         6.8 0.26            116            249 195 
 HEL  HZ EP       1228 17.31                             114    1.41 8  272 256 
 HEL  HE ES       1228 46.97                             114   -0.09 8  272 256 
 HEL  HZ I        1228 53.55        15.6 0.32            114            272 256 
 TOL  SZ EP       1228 24.89                             108    0.84 7  344 224 
 TOL  SE ES       1229  1.73                             108    0.16 7  344 224 
 TOL  SZ I        1229 11.62        20.6 0.32            109            344 224 
                                                                                
