 2017  423 1010 59.7 L   6.828 -73.171137.9  RSN  5 0.3 1.3LRSN                1
 GAP=140        0.69       5.7     3.2  6.2 -0.3600E+01  0.4140E+01 -0.5181E+01E
 Epicentro: ZAPATOCA - SANTANDER                                               3
 ACTION:UPD 17-05-30 21:15 OP:jn   STATUS:               ID:20170423101059 L   I
 OLDACT:UP  17-04-23 21:41 OP:dani STATUS:               ID:20170423100737     3
 OLDACT:UP  17-04-23 21:41 OP:dani STATUS:               ID:20170423100737     3
 OLDACT:UP  17-04-23 21:41 OP:dani STATUS:               ID:20170423100737     3
 OLDACT:REG 17-04-23 20:51 OP:dani STATUS:               ID:20170423100737     3
 2017-04-23-1008-00M.COL___365                                                 6
 STAT SP IPHASW D HRMM SECON CODA AMPLIT PERI AZIMU VELO AIN AR TRES W  DIS CAZ7
 BAR2 EZ EP       1011 18.15                             169   -0.2810 26.1 183 
 BAR2 EZ ES       1011 33.45                             169    0.4010 26.1 183 
 BAR2 EZ I        1011 34.19         6.0 0.38            175           26.1 183 
 BRR  HZ EP       1011 19.97                             152    0.2010 67.3 297 
 BRR  HN ES       1011 35.24                             152   -0.1810 67.3 297 
 BRR  HZ I        1011 39.32         6.0 0.42            149           67.3 297 
 PAM  EZ EP       1011 21.15                             149    0.1110 76.9  43 
 PAM  EN ES       1011 37.50                             149   -0.1910 76.9  43 
 PAM  EZ I        1011 40.29         1.7 0.64            149           76.9  43 
 PTB  HN ES       1011 45.93                             131   -0.29 9  146 257 
 ZAR  HZ EP   4   1011 33.16                             121    1.91 0  200 292 
 ZAR  HN ES       1011 56.13                             121    0.27 9  200 292 
 ZAR  HZ I        1012  1.66         1.5 0.33            121            200 292 
                                                                                
