 2012  823 1431 50.5 L   6.742 -73.172149.3  RSN  5 0.4 1.5LRSN                1
 GAP=136        0.88       6.3     6.1  8.5 -0.3502E+01  0.5910E+01  0.1706E+01E
 Epicentro: VILLANUEVA - SANTANDER                                             3
 ACTION:UPD 12-09-10 11:58 OP:ep   STATUS:               ID:20120823143150 L   I
 2012-08-23-1430-00M.COL___218                                                 6
 STAT SP IPHASW D HRMM SECON CODA AMPLIT PERI AZIMU VELO AIN AR TRES W  DIS CAZ7
 BAR2 SZ EP   1   1432 10.30                             173   -0.10 7 16.6 184 
 BAR2 SZ ES   1   1432 25.69                             173   -0.27 7 16.6 184 
 BAR2 SZ I        1432 26.70        11.8 0.26                          16.6 184 
 BRR  HZ EP   1   1432 12.57                             153    0.53 7 72.1 304 
 BRR  HZ I        1432 14.07         7.6 0.13                          72.1 304 
 BRR  HN ES   1   1432 29.64                             153    0.77 7 72.1 304 
 PAM  SZ EP   1   1432 13.35                             149   -0.11 7 84.2  38 
 PAM  SZ I        1432 13.69         5.5 0.18                          84.2  38 
 PAM  SN ES   1   1432 30.98                             149   -0.43 7 84.2  38 
 RUS  HZ EP   1   1432 14.14                             146    0.00 7 94.5 174 
 RUS  HN ES   1   1432 32.95                             146    0.34 7 94.5 174 
 RUS  HZ I        1432 34.34         4.2 0.27                          94.5 174 
 PTB  HZ EP   1   1432 17.35                             134   -0.02 7  144 261 
 PTB  HN ES   1   1432 37.54                             134   -0.81 7  144 261 
 PTB  HZ I        1432 40.61         2.7 0.17                           144 261 
                                                                                
