 2017  423 1129 32.8 L   6.810 -73.116141.6  RSN  4 0.1 1.5LRSN                1
 GAP=159        0.38       4.3     2.5  3.3 -0.2402E+01 -0.1613E+00 -0.1859E+01E
 Epicentro: LOS SANTOS - SANTANDER                                             3
 ACTION:UPD 17-05-30 21:15 OP:jn   STATUS:               ID:20170423112932 L   I
 OLDACT:REG 17-04-23 20:55 OP:dani STATUS:               ID:20170423112738     3
 2017-04-23-1128-00M.COL___365                                                 6
 STAT SP IPHASW D HRMM SECON CODA AMPLIT PERI AZIMU VELO AIN AR TRES W  DIS CAZ7
 BAR2 EZ EP       1129 52.10                             169    0.1010 25.2 197 
 BAR2 EZ ES       1130  6.90                             169   -0.0510 25.2 197 
 BAR2 EZ I        1130 10.04        12.6 0.90            165           25.2 197 
 BRR  HZ EP       1129 53.50                             151   -0.1710 73.6 297 
 BRR  HN ES       1130 10.04                             151    0.1110 73.6 297 
 BRR  HZ I        1130 10.21         7.7 0.19            153           73.6 297 
 PAM  EZ EP       1129 54.40                             151   -0.0310 74.4  38 
 PTB  HZ EP       1129 59.90                             130    0.12 9  151 259 
 PTB  HN ES       1130 20.71                             130   -0.09 9  151 259 
 PTB  HZ I        1130 23.63         1.6 0.42            131            151 259 
                                                                                
