 2016  223 1830 50.7 L   6.808 -73.147155.0  RSN 14 0.4 2.3LRSN                1
 GAP=136        0.99       2.9     4.0  5.1 -0.1617E+01  0.5042E+01  0.9389E-01E
 Epicentro: LOS SANTOS - SANTANDER                                             3
 ACTION:UPD 16-03-04 21:28 OP:rebc STATUS:               ID:20160223183050 L   I
 OLDACT:UP  16-02-24 00:49 OP:drio STATUS:               ID:20160223182748     3
 OLDACT:UP  16-02-24 00:48 OP:drio STATUS:               ID:20160223182748     3
 OLDACT:REG 16-02-23 20:45 OP:drio STATUS:               ID:20160223182748     3
 2016-02-23-1827-48M.COL___316                                                 6
 STAT SP IPHASW D HRMM SECON CODA AMPLIT PERI AZIMU VELO AIN AR TRES W  DIS CAZ7
 BAR2 EZ EP       1831 11.51                             171    0.0710 24.2 189 
 BAR2 EZ ES       1831 27.27                             171   -0.3610 24.2 189 
 BAR2 EZ I        1831 29.02        33.6 0.42            170           24.2 189 
 BRR  HZ IP     C 1831 13.39                             154    0.5810 70.6 298 
 BRR  HE ES       1831 30.75                             154    0.6910 70.6 298 
 BRR  HZ I        1831 32.58        29.5 0.14            152           70.6 298 
 PAM  EZ EP       1831 14.33                             152    0.4710 76.8  40 
 PAM  EN ES       1831 31.68                             152   -0.2510 76.8  40 
 PAM  EZ I        1831 36.44        15.0 0.48            156           76.8  40 
 RUS  HZ EP       1831 15.47                             145    0.0510  101 176 
 RUS  HE ES       1831 34.28                             145   -0.4210  101 176 
 RUS  HZ I        1831 37.56        16.9 0.20            147            101 176 
 PTB  HZ EP       1831 18.06                             134   -0.36 9  148 258 
 PTB  HN ES       1831 39.75                             134   -0.30 9  148 258 
 PTB  HZ I        1831 42.99        26.8 0.12            134            148 258 
 OCA  HZ EP       1831 19.91                             132    0.26 9  159 353 
 OCA  HN ES       1831 41.63                             132   -0.60 9  159 353 
 OCA  HZ I        1831 46.52        72.0 0.16            133            159 353 
 SPBC HZ EP       1831 20.28                             131    0.32 9  164 219 
 SPBC HE ES       1831 42.84                             131    0.05 9  164 219 
 SPBC HZ I        1831 45.36        57.3 0.26            131            164 219 
 ZAR  HZ EP       1831 23.51                             124   -0.19 9  204 292 
 ZAR  HE ES       1831 49.93                             124    0.49 9  204 292 
 ZAR  HZ I        1831 55.38        27.0 0.42            125            204 292 
 NOR  HZ EP       1831 27.25                             120    0.24 8  235 234 
 NOR  HE ES       1831 55.07                             120   -0.26 8  235 234 
 NOR  HZ I        1831 58.80        20.5 0.18            121            235 234 
 CHI  HZ EP       1831 29.15                             119    0.15 8  249 195 
 CHI  HN ES       1831 58.98                             119    0.10 8  249 195 
 CHI  HZ I        1832  7.12         5.4 0.36            120            249 195 
 HEL  HZ EP   4   1831 33.74                             116    2.35 0  272 256 
 HEL  HN ES   4   1832  4.26                             116    1.13 0  272 256 
 HEL  HZ I        1832 11.12        12.9 0.28            117            272 256 
 URE  HZ EP       1831 31.34                             115   -0.82 7  283 292 
 URE  HN ES   4   1832  1.49                             115   -3.02 0  283 292 
 URE  HZ I        1832 12.33        15.7 0.14            116            283 292 
 GUY2CHZ EP   4   1831 37.75                             114    2.97 0  302 235 
 GUY2CHN ES   4   1832 10.94                             114    1.78 0  302 235 
 GUY2CHZ I        1832 17.74        10.2 0.32                           302 235 
 SJC  HZ EP       1831 45.81                             107   -0.66 6  408 327 
 SJC  HN ES   4   1832 26.30                             107   -3.67 0  408 327 
 SJC  HZ I        1832 31.71         4.6 0.40            108            408 327 
                                                                                
