 2011 1223 1224  2.8 L   6.768 -73.144144.7  RSN 14 0.4 2.9LRSN                1
 GAP=138        0.74       2.9     4.1  4.6 -0.2760E+01  0.4003E+01  0.4655E+01E
 Epicentro: LOS SANTOS - SANTANDER                                             3
 ACTION:UPD 12-07-13 16:17 OP:ep   STATUS:               ID:20111223122402 L   I
 2011-12-23-1220-00M.COL___188                                                 6
 STAT SP IPHASW D HRMM SECON CODA AMPLIT PERI AZIMU VELO AIN AR TRES W  DIS CAZ7
 BAR2 SZ IP       1224 22.24                             172    0.0110 19.9 192 
 BAR2 SZ ES   1   1224 37.13                             172   -0.26 7 19.9 192 
 BAR2 SZ I        1224 40.30       260.2 0.34                          19.9 192 
 GIR2 SZ EP       1224 22.38                             166   -0.0610 34.8 351 
 GIR2 SZ ES   1   1224 37.71                             166   -0.05 7 34.8 351 
 BRR  HZ EP       1224 24.16                             152    0.2310 73.1 301 
 BRR  HN ES   1   1224 41.21                             152    0.79 7 73.1 301 
 BRR  HZ I        1224 43.92       161.2 0.31                          73.1 301 
 PAM  SZ EP   1   1224 25.07                             150    0.02 7 80.0  38 
 PAM  SZ I        1224 25.35       113.4 0.18                          80.0  38 
 PAM  SN ES   1   1224 42.55                             150    0.13 7 80.0  38 
 RUS  HZ EP       1224 26.10                             145   -0.0810 97.0 176 
 RUS  HN ES   1   1224 44.62                             145    0.19 7 97.0 176 
 RUS  HZ I        1224 46.17        73.0 0.23                          97.0 176 
 PTB  HZ EP   1   1224 28.77                             132   -0.86 7  147 260 
 PTB  HN ES   1   1224 50.04                             132   -0.52 7  147 260 
 OCA  SZ EP   1   1224 30.94                             129   -0.41 7  164 353 
 OCA  SZ ES   1   1224 53.43                             129   -0.20 7  164 353 
 OCA  SZ I        1224 57.75       109.9 0.29                           164 353 
 NOR  SZ EP   1   1224 38.26                             118    0.00 6  233 235 
 NOR  SE ES   1   1225  5.36                             118   -0.56 6  233 235 
 CHI  HZ EP       1224 40.24                             117    0.18 8  245 195 
 CHI  HZ I        1225 17.86        38.8 0.33                           245 195 
 HEL  HZ EP   1   1224 43.51                             115    0.63 6  271 257 
 HEL  HZ I        1225 20.67        44.2 0.24                           271 257 
 VIL  SZ EP   1   1224 45.73                             112   -0.04 5  300 192 
 VIL  SN ES   1   1225 18.55                             112   -0.74 5  300 192 
 VIL  SZ I        1225 24.84        30.3 0.50                           300 192 
 RREF HZ EP   1   1224 49.16                             111    0.52 5  320 230 
 TOL  SZ EP   1   1224 51.27                             109    0.54 5  341 225 
 TOL  SZ ES   1   1225 28.85                             109    0.73 5  341 225 
 PRA  HZ EP       1224 55.91                             106   -0.01 6  389 210 
 PRA  HN ES   1   1225 37.73                             106    0.36 4  389 210 
                                                                                
