 2016  323 1837 17.9 L   6.814 -73.174142.0  RSN  6 0.3 1.7LRSN                1
 GAP=132        0.54       3.4     3.8  5.9 -0.6235E+01  0.5826E+01  0.8873E+00E
 Epicentro: LOS SANTOS - SANTANDER                                             3
 ACTION:UPD 16-05-13 21:26 OP:cam  STATUS:               ID:20160323183717 L   I
 OLDACT:REG 16-03-23 20:45 OP:dnl  STATUS:               ID:20160323182747     3
 2016-03-23-1827-47M.COL___307                                                 6
 STAT SP IPHASW D HRMM SECON CODA AMPLIT PERI AZIMU VELO AIN AR TRES W  DIS CAZ7
 BAR2 EZ ES   2   1837 51.41                             170   -0.66 5 24.5 182 
 BAR2 EZ I        1837 54.93         9.7 0.16            171           24.5 182 
 PAM  EZ EP       1837 39.73                             150   -0.0310 78.3  42 
 PAM  EN ES       1837 56.99                             150    0.1710 78.3  42 
 PAM  EZ I        1837 59.40         7.0 0.49            155           78.3  42 
 RUS  HZ EP       1837 41.26                             143   -0.1410  102 174 
 RUS  HN ES   2   1837 59.98                             143    0.24 5  102 174 
 RUS  HZ I        1838  0.89         6.1 0.32            147            102 174 
 PTB  HZ EP   2   1837 44.06                             132   -0.23 5  145 258 
 PTB  HN ES   2   1838  4.38                             132   -0.51 5  145 258 
 PTB  HZ I        1838  8.45         5.9 0.20            134            145 258 
 SPBC HZ EP   2   1837 46.17                             128    0.15 5  162 218 
 SPBC HN ES       1838  8.22                             128    0.25 9  162 218 
 SPBC HZ I        1838 10.92        10.6 0.18            132            162 218 
 ZAR  HZ EP   2   1837 49.35                             122   -0.38 4  201 292 
 ZAR  HE ES   2   1838 15.10                             122    0.54 4  201 292 
 ZAR  HZ I        1838 17.79         5.2 0.18            125            201 292 
                                                                                
