 2014 1223 1133 56.8 L   6.817 -73.183148.7  RSN  9 0.4 2.0LRSN                1
 GAP=185        1.00       2.9     5.3  6.0 -0.2535E+01 -0.4398E-01  0.1090E+01E
 Epicentro: ZAPATOCA - SANTANDER                                               3
 ACTION:UPD 15-02-10 17:06 OP:nd   STATUS:               ID:20141223113356 L   I
 OLDACT:REG 14-12-23 20:25 OP:carl STATUS:               ID:20141223112748     3
 2014-12-23-1127-48M.COL___295                                                 6
 STAT SP IPHASW D HRMM SECON CODA AMPLIT PERI AZIMU VELO AIN AR TRES W  DIS CAZ7
 BAR2 EZ EP       1134 16.54                             170   -0.2710 24.9 180 
 BAR2 EZ ES       1134 32.11                             170   -0.3110 24.9 180 
 BAR2 EZ I        1134 32.99        13.2 0.20            169           24.9 180 
 BRR  HZ EP       1134 18.51                             154    0.4910 66.7 299 
 BRR  HN ES       1134 35.38                             154    0.8110 66.7 299 
 PTB  HZ EP       1134 23.10                             133   -0.58 9  144 258 
 PTB  HN ES       1134 44.27                             133   -0.38 9  144 258 
 PTB  HZ I        1134 46.26         9.2 0.14            131            144 258 
 OCA  HZ EP       1134 25.50                             131    0.37 9  158 355 
 OCA  HN ES       1134 47.11                             131   -0.11 9  158 355 
 OCA  HZ I        1134 50.12        10.5 0.18            130            158 355 
 SPBC HZ EP       1134 25.46                             130    0.03 9  162 217 
 SPBC HN ES       1134 47.19                             130   -0.56 9  162 217 
 SPBC HZ I        1134 55.15        11.0 0.20            129            162 217 
 ZAR  HN ES       1134 54.20                             124    0.13 9  200 292 
 ZAR  HZ I        1134 59.62        12.7 0.56            122            200 292 
 NOR  HZ EP       1134 32.42                             119   -0.05 8  232 233 
 NOR  HN ES       1135  0.77                             119    0.49 8  232 233 
 NOR  HZ I        1135  6.57         7.2 0.18            118            232 233 
 SML  HZ EP       1134 33.19                             118   -0.04 8  240 336 
 SML  HN ES       1135  1.14                             118   -0.49 8  240 336 
 SML  HZ I        1135  9.41        14.3 0.26            118            240 336 
 CHI  HZ EP       1134 34.96                             118    0.21 8  249 194 
 CHI  HN ES       1135  4.62                             118    0.27 8  249 194 
 CHI  HZ I        1135  8.74         4.0 0.26            117            249 194 
                                                                                
