 2016  223 1212 46.0 L   6.758 -73.123149.5  RSN 16 0.5 2.2LRSN                1
 GAP=141        1.10       3.8     4.2  5.8 -0.1030E+01  0.7488E+01  0.2835E+01E
 Epicentro: LOS SANTOS - SANTANDER                                             3
 ACTION:UPD 16-03-04 21:28 OP:rebc STATUS:               ID:20160223121246 L   I
 OLDACT:UP  16-02-23 23:23 OP:drio STATUS:               ID:20160223120748     3
 OLDACT:UP  16-02-23 23:23 OP:drio STATUS:               ID:20160223120748     3
 OLDACT:REG 16-02-23 20:25 OP:drio STATUS:               ID:20160223120748     3
 2016-02-23-1207-48M.COL___318                                                 6
 STAT SP IPHASW D HRMM SECON CODA AMPLIT PERI AZIMU VELO AIN AR TRES W  DIS CAZ7
 BAR2 EZ EP     D 1213  5.88                             172   -0.1110 19.5 200 
 BAR2 EZ ES       1213 21.76                             172    0.1610 19.5 200 
 BAR2 EZ I        1213 31.72        17.2 0.24            171           19.5 200 
 BRR  HZ EP       1213  7.92                             152    0.1410 75.7 301 
 BRR  HE ES       1213 25.38                             152    0.5910 75.7 301 
 BRR  HZ I        1213 26.19        41.1 0.16            148           75.7 301 
 PAM  EZ EP       1213  8.94                             151    0.2310 79.5  36 
 PAM  EN ES       1213 26.46                             151    0.0110 79.5  36 
 PAM  EZ I        1213 29.13        17.0 0.18            151           79.5  36 
 RUS  HZ EP       1213  9.78                             146    0.0210 95.9 177 
 RUS  HE ES       1213 27.85                             146   -0.4710 95.9 177 
 RUS  HZ I        1213 29.46        24.8 0.32            148           95.9 177 
 PTB  HZ EP       1213 12.69                             132   -0.71 9  149 261 
 PTB  HE ES       1213 33.76                             132   -1.03 9  149 261 
 PTB  HZ I        1213 36.55        26.8 0.30            131            149 261 
 SPBC HZ EP       1213 14.79                             130    0.21 9  161 221 
 SPBC HE ES       1213 36.72                             130   -0.18 9  161 221 
 SPBC HZ I        1213 41.47        46.7 0.14            130            161 221 
 ZAR  HZ EP       1213 19.00                             123   -0.08 8  208 293 
 ZAR  HE ES       1213 45.06                             123    0.15 8  208 293 
 ZAR  HZ I        1213 50.10        36.4 0.36            121            208 293 
 NOR  HZ EP       1213 22.04                             119    0.18 8  234 236 
 NOR  HN ES       1213 50.36                             119    0.50 8  234 236 
 NOR  HZ I        1213 56.35        19.7 0.16            119            234 236 
 CHI  HZ EP       1213 23.80                             118    0.32 8  245 196 
 CHI  HN ES       1213 52.82                             118    0.09 8  245 196 
 CHI  HZ I        1213 58.47         6.1 0.38            119            245 196 
 HEL  HZ EP   4   1213 27.70                             115    1.17 0  273 257 
 HEL  HN ES       1213 58.90                             115    0.74 8  273 257 
 HEL  HZ I        1214  1.73         8.7 0.20            115            273 257 
 URE  HZ EP       1213 26.69                             114   -0.99 7  288 293 
 URE  HE ES   4   1213 57.70                             114   -2.51 0  288 293 
 URE  HZ I        1214  6.64        16.6 0.36            113            288 293 
 GUY2CHZ EP       1213 30.24                             113    0.55 7  301 236 
 GUY2CHN ES   4   1214  8.31                             113    4.51 0  301 236 
 GUY2CHZ I        1214 12.08        11.2 0.78                           301 236 
 SOCV BZ EP   4   1213 27.95                             113   -1.29 0  302  56 
 SOCV BE ES   4   1214  0.31                             113   -2.68 0  302  56 
 ELA  HZ EP   4   1213 34.86                             111    1.99 0  328 230 
 ELA  HN ES   4   1214 15.38                             111    5.93 0  328 230 
 ELA  HZ I        1214 18.64         9.6 0.40            111            328 230 
 CBOC HZ EP   4   1213 34.42                             110    1.26 0  335 253 
 CBOC HN ES   4   1214  8.54                             110   -1.43 0  335 253 
 CBOC HZ I        1214 13.72         3.3 0.52            110            335 253 
 MON  HZ EP   4   1213 32.94                             109   -2.74 0  359 309 
 MON  HN ES   4   1214 11.37                             109   -3.08 0  359 309 
 MON  HZ I        1214 28.25         6.1 0.54            108            359 309 
 SJC  HZ EP   4   1213 40.18                             106   -2.09 0  414 327 
 SJC  HZ I        1214  4.47         2.0 0.62            106            414 327 
 SJC  HN ES   4   1214 21.38                             106   -4.80 0  414 327 
                                                                                
