 2013  523 1609 34.5 L   6.778 -73.148147.1  RSN 10 0.3 2.3LRSN                1
 GAP=137        0.73       3.1     4.0  4.8  0.2232E+01  0.3349E+01  0.1243E+01E
 Epicentro: LOS SANTOS - SANTANDER                                             3
 ACTION:UPD 13-06-20 09:53 OP:ep   STATUS:               ID:20130523160934 L   I
 2013-05-23-1607-50M.COL___206                                                 6
 STAT SP IPHASW D HRMM SECON CODA AMPLIT PERI AZIMU VELO AIN AR TRES W  DIS CAZ7
 BAR2 SZ EP       16 9 54.35                             172    0.1010 20.9 191 
 BAR2 SZ ES   1   1610  9.07                             172   -0.57 7 20.9 191 
 BAR2 SZ I        1610 11.18        25.1 0.48            164           20.9 191 
 GIR2 SZ EP   1   16 9 54.62                             166    0.22 7 33.7 351 
 GIR2 SZ ES       1610 10.09                             166    0.1710 33.7 351 
 GIR2 SZ I        1610 11.87        23.2 0.12            165           33.7 351 
 BRR  HZ EP       16 9 56.27                             152    0.4210 72.2 300 
 BRR  HN ES       1610 12.87                             152    0.3710 72.2 300 
 BRR  HZ I        1610 16.17        31.1 0.16            145           72.2 300 
 PAM  SZ EP   1   16 9 56.72                             150   -0.26 7 79.4  39 
 RUS  HZ EP       16 9 58.38                             145    0.1710 98.2 176 
 RUS  HN ES       1610 16.43                             145   -0.2710 98.2 176 
 RUS  HZ I        1610 17.99        16.8 0.30            137           98.2 176 
 PTB  HZ EP       1610  1.26                             132   -0.26 9  147 260 
 PTB  HN ES       1610 22.49                             132   -0.10 9  147 260 
 PTB  HZ I        1610 24.49        28.5 0.10            124            147 260 
 OCA  HN ES   1   1610 25.48                             129   -0.00 7  163 353 
 ZAR  HN ES   1   1610 32.36                             122   -0.18 6  205 293 
 ZAR  HZ I        1610 38.53        24.0 0.16            116            205 293 
 NOR  HZ EP       1610 10.26                             119    0.12 8  233 235 
 NOR  HZ I        1610 36.45        31.1 0.42            112            233 235 
 SML  HE ES   1   1610 39.39                             117   -0.85 6  246 336 
                                                                                
