 2015 1023 1445 41.3 L   6.819 -73.133142.5  RSN 10 0.4 1.9LRSN                1
 GAP=137        0.87       2.5     3.7  4.9 -0.7389E+00  0.6182E+01  0.5644E+00E
 Epicentro: LOS SANTOS - SANTANDER                                             3
 ACTION:UPD 15-12-22 20:42 OP:cam  STATUS:               ID:20151023144541 L   I
 OLDACT:UP  15-10-23 23:05 OP:drio STATUS:               ID:20151023143747     3
 OLDACT:REG 15-10-23 21:11 OP:drio STATUS:               ID:20151023143747     3
 2015-10-23-1437-47M.COL___310                                                 6
 STAT SP IPHASW D HRMM SECON CODA AMPLIT PERI AZIMU VELO AIN AR TRES W  DIS CAZ7
 BAR2 EZ EP       1446  0.66                             169    0.0910 25.7 192 
 BAR2 EZ ES       1446 15.35                             169   -0.2710 25.7 192 
 BAR2 EZ I        1446 18.39        16.3 0.18            167           25.7 192 
 BRR  HZ EP       1446  2.61                             152    0.5110 71.5 296 
 BRR  HN ES       1446 18.36                             152    0.0310 71.5 296 
 PAM  EZ EP       1446  3.52                             151    0.5210 74.8  40 
 PAM  EN ES       1446 19.96                             151    0.0210 74.8  40 
 PAM  EZ I        1446 22.82        18.3 0.54            156           74.8  40 
 RUS  HZ EP       1446  4.45                             143   -0.4210  103 177 
 RUS  HE ES       1446 23.39                             143    0.1310  103 177 
 RUS  HZ I        1446 25.58         5.0 0.30            143            103 177 
 SPBC HZ EP       1446  9.60                             128   -0.18 9  166 219 
 SPBC HN ES       1446 32.32                             128    0.32 9  166 219 
 SPBC HZ I        1446 38.15        12.7 0.26            128            166 219 
 ZAR  HZ EP       1446 13.79                             122    0.22 9  205 291 
 ZAR  HE ES       1446 38.87                             122    0.12 9  205 291 
 ZAR  HZ I        1446 44.79        13.4 0.34            123            205 291 
 NOR  HE ES       1446 44.67                             118   -0.34 8  237 234 
 NOR  HZ I        1446 50.75         7.5 0.16            118            237 234 
 SML  HZ EP       1446 16.91                             117   -0.67 8  242 335 
 SML  HN ES       1446 45.37                             117   -0.52 8  242 335 
 CHI  HZ EP       1446 18.94                             116   -0.13 8  251 195 
 CHI  HN ES       1446 48.08                             116   -0.46 8  251 195 
 CHI  HZ I        1446 57.91         3.0 0.36            117            251 195 
 GUY2CHZ EP       1446 25.75                             111    0.74 7  304 235 
 GUY2CHE ES       1446 59.13                             111    0.01 7  304 235 
 GUY2CHZ I        1447  5.93         4.5 0.44                           304 235 
                                                                                
