 2012  723 1410 17.2 L   6.772 -73.134145.8  RSN  6 0.4 2.1LRSN                1
 GAP=184        1.02       6.2     7.8  9.4  0.1473E+02  0.1538E+02 -0.4216E+01E
 Epicentro: LOS SANTOS - SANTANDER                                             3
 ACTION:UPD 12-08-14 11:44 OP:ep   STATUS:               ID:20120723141017 L   I
 2012-07-23-1410-00M.COL___208                                                 6
 STAT SP IPHASW D HRMM SECON CODA AMPLIT PERI AZIMU VELO AIN AR TRES W  DIS CAZ7
 BAR2 SZ EP   1   1410 37.00                             172     0.2 7   21 195 
 BAR2 SZ ES   1   1410 51.93                             172    -0.2 7   21 195 
 BAR2 SZ I        1410 53.83        31.9 0.23            169             21 195 
 BRR  HZ IP     C 1410 38.92                             152     0.410   74 300 
 BRR  HZ I        1410 39.24        54.0 0.22            150             74 300 
 BRR  HN ES   1   1410 55.69                             152     0.5 7   74 300 
 RUS  HZ EP   1   1410 40.76                             145     0.0 7   97 177 
 RUS  HN ES   1   1410 59.06                             145     0.0 7   97 177 
 RUS  HZ I        1411  1.37        12.5 0.39            146             97 177 
 PTB  HZ EP       1410 43.64                             132    -0.6 9  149 260 
 PTB  HN ES   1   1411  5.06                             132    -0.3 7  149 260 
 PTB  HZ I        1411  7.18        10.3 0.11            131            149 260 
 OCA  HN ES   1   1411  7.53                             129    -0.6 7  163 353 
 ZAR  HZ EP   1   1410 50.54                             122     0.6 6  206 293 
 ZAR  HN ES   1   1411 15.53                             122     0.1 6  206 293 
 ZAR  HZ I        1411 22.14        18.9 0.36            122            206 293 
