 2010  123 1036 51.8 L   6.843 -72.940135.7  RSN  5 0.2 1.6LRSN                1
 GAP=204        0.51       2.2    15.2  4.7  0.3417E+01 -0.1930E+02 -0.2656E+01E
 Epicentro: CEPITA - SANTANDER                                                 3
 ACTION:UP  10-08-24 09:45 OP:vdl  STATUS:               ID:20100123103651 L   I
 2010-01-23-1032-17S.COL___095                                                 6
 STAT SP IPHASW D HRMM SECON CODA AMPLIT PERI AZIMU VELO SNR AR TRES W  DIS CAZ7
 GIR2 SZ IP       1037 10.66                             164     0.110   38 313 
 BAR2 SZ IP       1037 10.58                             164    -0.110   39 224 
 BAR2 SZ ES       1037 25.38                             164     0.010   39 224 
 RUS  BZ IP       1037 15.19                             140     0.110  106 189 
 RUS  BE ES       1037 33.16                             140     0.010  106 189 
 RUS  BZ I        1037 34.61         3.2 0.33                           106 189 
 OCA  SZ IP       1037 19.08                             127    -0.3 9  160 345 
 OCA  SZ ES   1   1037 41.15                             127     0.3 7  160 345 
 OCA  SZ I        1037 43.89        21.9 0.46                           160 345 
 CHI  HZ EP   2   1037 30.69                             114     0.4 4  260 200 
 CHI  HE ES   1   1038  0.08                             114    -0.2 6  260 200 
 CHI  HZ I        1038  6.12         1.2 0.33                           260 200 
                                                                                
