 2010 1023 1136 45.1 L   6.826 -73.009136.3  RSN  4 0.2 1.6LRSN                1
 GAP=253        0.52      10.7    20.4 15.4  0.1826E+03 -0.2125E+03 -0.9491E+02E
 Epicentro: CEPITA - SANTANDER                                                 3
 ACTION:UP  11-02-18 11:11 OP:tino STATUS:               ID:20101023113645 L   I
 2010-10-23-1134-47S.COL___127                                                 6
 STAT SP IPHASW D HRMM SECON CODA AMPLIT PERI AZIMU VELO SNR AR TRES W  DIS CAZ7
 BTL  SZ EP   1   1137  3.54                             167    -0.2 7   30 290 
 BAR2 SZ EP   1   1137  4.12                             166     0.3 7   32 217 
 BRR  HZ EP   1   1137  5.87                             146    -0.2 7   84 292 
 BRR  HZ I        1137  8.57        17.3 0.47                            84 292 
 BRR  HE ES   2   1137 22.57                             146     0.2 5   84 292 
 RUS  HZ EP   1   1137  8.27                             141     0.1 7  104 185 
 RUS  HN ES   2   1137 25.86                             141    -0.3 5  104 185 
 RUS  HZ I        1137 29.08         3.5 0.31                           104 185 
                                                                                
