 2011 1223 1055 47.0 L   6.684 -73.079142.6  RSN  6 0.5 1.4LRSN                1
 GAP=150        0.79       7.3     7.6  9.7  0.8343E+01  0.8973E+01  0.1456E+02E
 Epicentro: JORDAN - SANTANDER                                                 3
 ACTION:UPD 12-07-13 16:17 OP:ep   STATUS:               ID:20111223105547 L   I
 2011-12-23-1050-00M.COL___188                                                 6
 STAT SP IPHASW D HRMM SECON CODA AMPLIT PERI AZIMU VELO AIN AR TRES W  DIS CAZ7
 BAR2 SZ EP   1   1056  5.72                             174   -0.35 7 15.3 228 
 BAR2 SZ ES   2   1056 21.63                             174    0.65 5 15.3 228 
 BAR2 SZ I        1056 22.83         8.2 0.12                          15.3 228 
 GIR2 SZ EP   1   1056  6.92                             162    0.19 7 45.4 344 
 PAM  SN ES   2   1056 25.96                             148   -0.65 5 83.7  30 
 BRR  HZ EP   1   1056  8.65                             148    0.09 7 84.1 304 
 BRR  HZ I        1056 12.36         8.4 0.18                          84.1 304 
 BRR  HE ES   1   1056 25.60                             148    0.19 7 84.1 304 
 RUS  HZ EP   1   1056 10.18                             147    0.69 7 87.6 180 
 RUS  HE ES   2   1056 26.30                             147   -0.77 5 87.6 180 
 RUS  HZ I        1056 31.94         2.8 0.34                          87.6 180 
 PTB  HZ EP   1   1056 13.73                             130   -0.44 7  153 264 
 PTB  HE ES   2   1056 35.17                             130   -0.22 5  153 264 
 PTB  HZ I        1056 37.79         2.6 0.13                           153 264 
                                                                                
