 2016 1223 1406  5.3 L   6.807 -73.201144.1  RSN  8 0.3 1.6LRSN                1
 GAP=129        0.73       3.1     3.5  4.5 -0.1758E+01  0.1885E+01  0.3520E+01E
 Epicentro: ZAPATOCA - SANTANDER                                               3
 ACTION:UPD 17-01-11 20:18 OP:rebc STATUS:               ID:20161223140605 L   I
 OLDACT:UP  16-12-23 23:26 OP:dani STATUS:               ID:20161223135751d    3
 OLDACT:DUP 16-12-23 23:21 OP:dani STATUS:               ID:20161223135751d    3
 OLDACT:UP  16-12-23 23:20 OP:dani STATUS:               ID:20161223135750     3
 OLDACT:UP  16-12-23 23:20 OP:dani STATUS:               ID:20161223135750     3
 OLDACT:UP  16-12-23 23:19 OP:dani STATUS:               ID:20161223135750     3
 OLDACT:REG 16-12-23 21:06 OP:edw  STATUS:               ID:20161223135750     3
 2016-12-23-1358-00M.COL___390                                                 6
 STAT SP IPHASW D HRMM SECON CODA AMPLIT PERI AZIMU VELO AIN AR TRES W  DIS CAZ7
 BAR2 EZ EP       14 6 24.59                             170   -0.1610 23.8 175 
 BAR2 EZ ES       14 6 39.83                             170   -0.0910 23.8 175 
 BAR2 EZ I        14 6 40.82        11.0 0.20            168           23.8 175 
 BRR  HZ EP       14 6 26.46                             154    0.4910 65.5 300 
 BRR  HE ES       14 6 41.98                             154   -0.1110 65.5 300 
 PAM  EZ EP       14 6 27.59                             149    0.0310 80.8  43 
 PAM  EE ES       14 6 44.73                             149   -0.1910 80.8  43 
 PAM  EZ I        14 6 46.71         7.5 0.48            153           80.8  43 
 RUS  HZ EP       14 6 28.74                             143   -0.2610  102 173 
 RUS  HE ES       14 6 47.93                             143    0.4510  102 173 
 RUS  HZ I        14 6 48.37         5.4 0.22            143            102 173 
 PTB  HZ EP       14 6 31.35                             133   -0.27 9  142 258 
 PTB  HN ES       14 6 52.19                             133    0.05 9  142 258 
 PTB  HZ I        14 6 54.37         4.6 0.18            132            142 258 
 NOR  HZ EP       14 6 40.70                             119    0.23 8  230 233 
 NOR  HN ES   3   14 7  7.30                             119   -0.59 2  230 233 
 NOR  HZ I        14 7 16.42         3.0 0.19            118            230 233 
 CHI  HZ EP       14 6 42.90                             117    0.07 8  248 194 
 CHI  HN ES       14 7 11.89                             117   -0.21 8  248 194 
 CHI  HZ I        14 7 15.39         2.3 0.58            117            248 194 
 GUY2CHZ EP   9   14 6 51.48                             112    3.14 0  297 234 
 GUY2CHE ES       14 7 25.79                             111    0.75 7  297 234 
 GUY2CHZ I        14 7 34.81         1.8 0.53                           297 234 
                                                                                
