 2011 1023 1134 37.9 L   7.383 -73.182128.3  RSN  5 0.2 1.6LRSN                1
 GAP=181        0.36       4.4     2.8  4.7 -0.9869E+00  0.1494E+01 -0.2479E+01E
 Epicentro: EL PLAYON - SANTANDER                                              3
 ACTION:UPD 12-07-13 16:05 OP:ep   STATUS:               ID:20111023113437 L   I
 2011-10-23-1132-58S.COL___171                                                 6
 STAT SP IPHASW D HRMM SECON CODA AMPLIT PERI AZIMU VELO AIN AR TRES W  DIS CAZ7
 PAM  SZ EP   1   1134 57.08                             156    0.20 7 53.5  95 
 PAM  SN ES   1   1135 11.57                             156   -0.14 7 53.5  95 
 BRR  HZ EP   2   1134 56.93                             151    0.08 5 66.0 243 
 BRR  HE ES   1   1135 11.82                             151    0.17 7 66.0 243 
 BRR  HZ I        1135 13.18        14.5 0.47                          66.0 243 
 BAR2 SZ EP   1   1134 58.46                             144   -0.15 7 87.5 180 
 BAR2 SZ ES   1   1135 14.73                             144   -0.04 7 87.5 180 
 BAR2 SZ I        1135 16.27         6.2 0.09                          87.5 180 
 RUS  HZ EP   3   1135  5.97                             125    0.14 2  165 176 
 ZAR  HE ES   2   1135 29.94                             121   -0.26 4  185 274 
                                                                                
