 2015  723 1637 25.0 L   6.837 -73.140137.1  RSN 20 0.5 3.0LRSN 3.3WRSN        1
 SPEC AVERAGE  MO 14.0 ST  1.0 OM  2.1 f0 2.28 R1.0056 AL 0.00 WI 40.0 MW  3.3 3
 SPEC SD       MO  0.2 ST  1.1 OM  0.3 f0 1.05 R0.3791 AL      WI      MW  0.1 3
 GAP=184        1.06       2.3     4.1  5.4 -0.1710E+01  0.6267E+01 -0.3001E+00E
 Epicentro: LOS SANTOS - SANTANDER                                             3
 SPEC BAR2EH Z MO 13.9 ST  1.7 OM  2.0 f0 3.37 R0.5709 AL-0.00 WI 40.0 MW  3.2 3
 SPEC BAR2EH Z T163757 K 0.000 GD  139 VS 5.20 DE 3.50 Q0750.0 QA 1.50 Q1 0.00 3
 SPEC RUS HH Z MO 13.7 ST0.653 OM  1.8 f0 2.66 R0.7233 AL-0.00 WI 40.0 MW  3.1 3
 SPEC RUS HH Z T1638 4 K 0.000 GD  172 VS 5.20 DE 3.50 Q0750.0 QA 1.50 Q1 0.00 3
 SPEC OCA HH Z MO 14.2 ST  1.9 OM  2.2 f0 2.63 R0.7316 AL-0.00 WI 40.0 MW  3.4 3
 SPEC OCA HH Z T163812 K 0.000 GD  207 VS 5.20 DE 3.50 Q0750.0 QA 1.50 Q1 0.00 3
 SPEC ZAR HH Z MO 13.8 ST  4.0 OM  1.7 f0 4.68 R0.4111 AL-0.00 WI 40.0 MW  3.1 3
 SPEC ZAR HH Z T163820 K 0.000 GD  244 VS 5.20 DE 3.50 Q0750.0 QA 1.50 Q1 0.00 3
 SPEC NOR HH Z MO 13.9 ST  2.6 OM  1.7 f0 3.90 R0.4933 AL-0.00 WI 40.0 MW  3.2 3
 SPEC NOR HH Z T163826 K 0.000 GD  274 VS 5.20 DE 3.50 Q0750.0 QA 1.50 Q1 0.00 3
 SPEC CHI HH Z MO 14.0 ST0.237 OM  1.8 f0 1.60 R1.2025 AL-0.00 WI 40.0 MW  3.3 3
 SPEC CHI HH Z T163829 K 0.000 GD  287 VS 5.20 DE 3.50 Q0750.0 QA 1.50 Q1 0.00 3
 SPEC HEL HH Z MO 13.9 ST0.285 OM  1.7 f0 1.80 R1.0689 AL-0.00 WI 40.0 MW  3.2 3
 SPEC HEL HH Z T163834 K 0.000 GD  306 VS 5.20 DE 3.50 Q0750.0 QA 1.50 Q1 0.00 3
 SPECGUY2CHH Z MO 14.3 ST0.173 OM  2.1 f0 1.09 R1.7651 AL-0.00 WI 40.0 MW  3.5 3
 SPECGUY2CHH Z T163841 K 0.000 GD  333 VS 5.20 DE 3.50 Q0750.0 QA 1.50 Q1 0.00 3
 SPEC CBOCHH Z MO 14.0 ST0.192 OM  1.7 f0 1.49 R1.2913 AL-0.00 WI 40.0 MW  3.3 3
 SPEC CBOCHH Z T163847 K 0.000 GD  362 VS 5.20 DE 3.50 Q0750.0 QA 1.50 Q1 0.00 3
 SPEC TOL SH Z MO 14.2 ST0.318 OM  1.9 f0 1.50 R1.2827 AL-0.00 WI 40.0 MW  3.4 3
 SPEC TOL SH Z T163849 K 0.000 GD  373 VS 5.20 DE 3.50 Q0750.0 QA 1.50 Q1 0.00 3
 SPEC MON HH Z MO 14.0 ST0.323 OM  1.7 f0 1.75 R1.0994 AL-0.00 WI 40.0 MW  3.3 3
 SPEC MON HH Z T163846 K 0.000 GD  377 VS 5.20 DE 3.50 Q0750.0 QA 1.50 Q1 0.00 3
 SPEC ANILHH Z MO 14.3 ST0.682 OM  2.0 f0 1.77 R1.0870 AL-0.00 WI 40.0 MW  3.5 3
 SPEC ANILHH Z T163853 K 0.000 GD  386 VS 5.20 DE 3.50 Q0750.0 QA 1.50 Q1 0.00 3
 SPEC ORTCHH Z MO 14.0 ST0.197 OM  1.7 f0 1.43 R1.3455 AL-0.00 WI 40.0 MW  3.3 3
 SPEC ORTCHH Z T163859 K 0.000 GD  421 VS 5.20 DE 3.50 Q0750.0 QA 1.50 Q1 0.00 3
 OLDACT:REG 15-07-23 22:41 OP:stll STATUS:               ID:20150723162748     3
 ACTION:UPD 15-09-08 21:50 OP:cam  STATUS:               ID:20150723163725 L   I
 OLDACT:UP  15-07-24 00:36 OP:stll STATUS:               ID:20150723162748     3
 2015-07-23-1627-48M.COL___337                                                 6
 STAT SP IPHASW D HRMM SECON CODA AMPLIT PERI AZIMU VELO AIN AR TRES W  DIS CAZ7
 BAR2 EZ IP     C 1637 44.17                             168    0.4710 27.5 190 
 BAR2 EZ ES       1637 59.07                             168    0.7910 27.5 190 
 BAR2 EZ I        1638  0.03       177.8 0.40            165           27.5 190 
 RUS  HZ EP     C 1637 48.06                             141   -0.1810  105 177 
 RUS  HN ES       1638  5.88                             141   -0.4710  105 177 
 RUS  HZ I        1638  7.24        79.3 0.44            137            105 177 
 CPBEREZ EP       1637 50.94                             130   -0.49 9  149 257 
 CPBEREN ES       1638 11.43                             130   -0.61 9  149 257 
 OCA  HZ EP       1637 52.45                             128    0.17 9  156 353 
 OCA  HE ES       1638 13.86                             128    0.32 9  156 353 
 OCA  HZ I        1638 18.80       263.0 0.26            122            156 353 
 ZAR  HZ EP       1637 56.81                             120   -0.00 9  203 291 
 ZAR  HN ES       1638 21.82                             120    0.20 9  203 291 
 ZAR  HZ I        1638 28.51        84.3 0.56            114            203 291 
 NOR  HZ EP       1638  0.23                             116   -0.35 8  238 234 
 NOR  HN ES       1638 27.62                             116   -0.70 8  238 234 
 NOR  HZ I        1638 30.40        83.0 0.42            111            238 234 
 SML  HZ EP       1638  0.37                             116   -0.42 8  240 335 
 SML  HN ES       1638 28.33                             116   -0.36 8  240 335 
 SML  HZ I        1638 36.69        81.3 0.48            110            240 335 
 CHI  HZ EP       1638  2.10                             115   -0.61 8  253 195 
 CHI  HN ES       1638 31.30                             115   -0.81 8  253 195 
 CHI  HZ I        1638 37.51        38.3 0.26            110            253 195 
 ROSC BZ EP       1638  3.78                             114    0.67 8  257 211 
 ROSC BN ES       1638 32.97                             114    0.15 8  257 211 
 ROSC BZ I        1638 41.71        66.7 0.40            110            257 211 
 HEL  HZ EP       1638  5.56                             113    0.57 8  274 255 
 HEL  HN ES       1638 35.85                             113   -0.32 8  274 255 
 HEL  HZ I        1638 43.84        44.0 0.24            107            274 255 
 URE  HZ EP   4   1638  4.37                             112   -1.20 0  283 291 
 URE  HN ES   4   1638 34.15                             112   -3.06 0  283 291 
 URE  HZ I        1638 38.10        56.2 0.12            106            283 291 
 GUY2CHZ EP       1638  8.47                             110   -0.10 7  304 234 
 GUY2CHN ES       1638 42.92                             110    0.37 7  304 234 
 GUY2CHZ I        1638 51.62        42.0 0.34                           304 234 
 LL4C HZ EP       1638  9.78                             109    0.08 7  319 352 
 LL4C HE ES       1638 44.33                             109   -0.23 7  319 352 
 ELA  HZ EP       1638 12.59                             108    0.71 7  332 229 
 ELA  HN ES       1638 48.86                             108    0.42 7  332 229 
 CBOC HZ EP       1638 12.16                             108    0.36 7  336 251 
 CBOC HZ I        1638 51.27        14.3 0.48            103            336 251 
 DBB  SZ EP     D 1638 12.00                             108   -0.19 7  340 274 
 DBB  SZ I        1638 57.71        99.0 0.46            103            340 274 
 TOL  SZ EP       1638 13.34                             107    0.01 6  347 224 
 TOL  SN ES       1638 51.33                             107    0.31 6  347 224 
 TOL  SZ I        1638 57.70        37.3 0.26            103            347 224 
 MON  HZ EP   9   1638 11.60                             107   -1.85 0  352 308 
 MON  HE ES       1638 48.26                                   -1.12 6  352 308 
 MON  HZ I        1639  6.18        26.9 0.56            102            352 308 
 ANIL HZ EP       1638 15.48                             107    0.58 6  361 224 
 ANIL HE ES       1638 54.70                             107    0.89 6  361 224 
 ANIL HZ I        1639  5.89        79.7 0.30            102            361 224 
 ORTC HZ EP       1638 18.33                             105   -0.76 6  399 216 
 ORTC HN ES       1639  1.42                             105    0.15 6  399 216 
 ORTC HZ I        1639  8.25        28.1 0.30            101            399 216 
                                                                                
