 2013  823 1037 12.1 L   6.804 -73.134151.6  RSN  7 0.4 1.6LRSN                1
 GAP=202        1.02       4.4     6.7  6.8  0.7113E+01  0.4566E+01  0.1329E+00E
 Epicentro: LOS SANTOS - SANTANDER                                             3
 ACTION:UPD 14-01-14 09:05 OP:ep   STATUS:               ID:20130823103712 L   I
 OLDACT:REG 13-08-23 15:32 OP:stll STATUS:               ID:20130823102848     3
 2013-08-23-1028-48M.COL___220                                                 6
 STAT SP IPHASW D HRMM SECON CODA AMPLIT PERI AZIMU VELO AIN AR TRES W  DIS CAZ7
 BAR2 SZ EP       1037 32.22                             171   -0.2410 24.1 193 
 BAR2 SZ ES       1037 47.89                             171   -0.4410 24.1 193 
 BAR2 SZ I        1037 49.31         6.6 0.42            163           24.1 193 
 BRR  HZ EP       1037 34.08                             153    0.1310 72.2 298 
 BRR  HN ES       1037 51.80                             153    0.8210 72.2 298 
 BRR  HZ I        1037 52.31         6.8 0.36            147           72.2 298 
 RUS  HZ EP       1037 36.60                             145    0.1310  101 177 
 RUS  HN ES       1037 55.58                             145    0.1110  101 177 
 RUS  HZ I        1037 56.81         2.9 0.26            134            101 177 
 PTB  HZ EP       1037 39.07                             133   -0.62 9  149 259 
 PTB  HN ES       1038  0.92                             133   -0.28 9  149 259 
 PTB  HZ I        1038  4.02         4.5 0.14            124            149 259 
 SPBC HZ EP       1037 41.51                             130    0.33 9  164 219 
 SPBC HZ I        1037 41.89         5.3 0.20            120            164 219 
 SPBC HN ES       1038  3.72                             130   -0.13 9  164 219 
 SML  HN ES       1038 17.70                             119   -0.23 8  244 335 
 PRA  HZ EP       1038  6.71                             107    0.74 6  393 210 
 PRA  HZ I        1038 52.35         1.8 0.30            101            393 210 
                                                                                
