 2013  623 1040 57.6 L   6.829 -73.143145.0  RSN  8 0.4 1.7LRSN                1
 GAP=183        0.94       3.4     7.0  6.7  0.3329E+01  0.1139E+02  0.3291E+00E
 Epicentro: LOS SANTOS - SANTANDER                                             3
 ACTION:UPD 14-01-08 09:56 OP:ep   STATUS:               ID:20130623104057 L   I
 OLDACT:REG 13-06-23 15:20 OP:cam  STATUS:               ID:20130623103959     3
 2013-06-23-1039-59M.COL___267                                                 6
 STAT SP IPHASW D HRMM SECON CODA AMPLIT PERI AZIMU VELO AIN AR TRES W  DIS CAZ7
 GIR2 SZ EP       1041 17.11                             169   -0.0210 28.2 349 
 GIR2 SZ ES   1   1041 32.03                             169   -0.31 7 28.2 349 
 BRR  HZ EP     C 1041 19.02                             153    0.3910 70.0 296 
 BRR  HN ES       1041 35.67                             153    0.6610 70.0 296 
 BRR  HZ I        1041 36.79         8.9 0.26            138           70.0 296 
 RUS  HZ EP   1   1041 21.43                             143   -0.11 7  104 176 
 RUS  HN ES       1041 40.15                             143   -0.0410  104 176 
 RUS  HZ I        1041 41.23         2.9 0.32            132            104 176 
 PTB  HZ EP       1041 23.98                             132   -0.64 9  149 258 
 PTB  HN ES   1   1041 45.18                             132   -0.50 7  149 258 
 PTB  HZ I        1041 47.57        10.2 0.12            117            149 258 
 OCA  HN ES       1041 47.21                             130   -0.18 9  157 353 
 ZAR  HZ EP       1041 30.57                             122    0.63 9  203 291 
 ZAR  HZ I        1042  2.04         6.6 0.26            110            203 291 
 SML  HZ EP   1   1041 33.86                             118   -0.06 6  241 335 
 SML  HN ES       1042  1.69                             118   -0.52 8  241 335 
 SML  HZ I        1042  5.08         8.6 0.26            107            241 335 
 PRA  HZ EP   1   1041 51.92                             106    0.45 4  395 209 
 PRA  HN ES   1   1042 33.48                             106    0.01 4  395 209 
 PRA  HZ I        1042 39.08         1.3 0.22             98            395 209 
                                                                                
