 2010  323 1259 17.9 L   6.803 -73.026148.0  RSN  8 0.4 2.1LRSN                1
 GAP=250        0.72       6.4     8.2  7.8  0.1016E+02  0.2142E+02  0.1870E+02E
 Epicentro: CEPITA - SANTANDER                                                 3
 ACTION:UP  10-08-24 09:55 OP:vdl  STATUS:               ID:20100323125917 L   I
 2010-03-23-1256-56S.COL___098                                                 6
 STAT SP IPHASW D HRMM SECON CODA AMPLIT PERI AZIMU VELO SNR AR TRES W  DIS CAZ7
 BAR2 SZ EP   1   1259 38.01                             168     0.1 7   29 217 
 BAR2 SZ ES   2   1259 53.45                             168    -0.1 5   29 217 
 BRR  HZ EP   1   1259 39.48                             149    -0.5 7   83 294 
 BRR  HN ES   2   1259 57.67                             149     0.4 5   83 294 
 BRR  HZ I        1259 59.47        15.2 0.21                            83 294 
 RUS  HZ EP   1   1259 41.97                             144     0.1 7  101 184 
 RUS  HN ES   2   13 0  0.93                             144     0.3 5  101 184 
 RUS  HZ I        13 0  2.36        15.1 0.48                           101 184 
 CHI  HZ EP   1   1259 55.91                             117    -0.3 6  253 198 
 CHI  HE ES   2   13 0 25.40                             117    -0.6 4  253 198 
 CHI  HZ I        13 0 33.50         5.7 0.57                           253 198 
 ROSC BZ EP   1   1259 57.27                             116     0.3 6  260 214 
 HEL  HZ EP   1   1259 59.89                             114     0.2 6  285 256 
 HEL  HN ES   2   13 0 31.47                             114    -0.8 4  285 256 
 HEL  HZ I        13 0 36.01         7.6 0.29                           285 256 
 RREF BZ EP   1   13 0  6.12                             111     0.8 5  332 231 
 RREF BE ES   2   13 0 43.02                             111     0.7 3  332 231 
 RREF BZ I        13 0 49.93         7.2 0.43                           332 231 
 PRA  HZ EP   1   13 0 11.80                             107    -0.5 4  399 211 
 PRA  HN ES   2   13 0 54.61                             107    -0.2 3  399 211 
 PRA  HZ I        13 0 59.74         6.3 0.33                           399 211 
                                                                                
