 2010  123 1011  2.6 L   6.786 -72.957149.3  RSN  6 0.4 2.1LRSN                1
 GAP=202        0.80       3.9    10.7  6.2 -0.1142E+02  0.1491E+02  0.2457E+01E
 Epicentro: CEPITA - SANTANDER                                                 3
 ACTION:UP  10-08-24 09:45 OP:vdl  STATUS:               ID:20100123101102 L   I
 2010-01-23-1008-40S.COL___095                                                 6
 STAT SP IPHASW D HRMM SECON CODA AMPLIT PERI AZIMU VELO SNR AR TRES W  DIS CAZ7
 BAR2 SZ IP       1011 22.98                             167     0.110   33 229 
 BAR2 SZ ES       1011 38.41                             167    -0.310   33 229 
 RUS  BZ IP       1011 26.86                             145     0.210  100 188 
 RUS  BN ES   1   1011 45.73                             145     0.3 7  100 188 
 RUS  BZ I        1011 46.72        12.3 0.25                           100 188 
 OCA  SZ EP   1   1011 31.81                             129     0.1 7  166 346 
 OCA  SZ ES   1   1011 54.21                             129    -0.2 7  166 346 
 OCA  SZ I        1011 59.04        15.6 0.19                           166 346 
 CHI  HZ IP       1011 41.09                             117     0.1 8  253 200 
 CHI  HE ES   1   1012 10.47                             117    -0.5 6  253 200 
 CHI  HZ I        1012 16.18         4.4 0.50                           253 200 
 RREF BN ES   1   1012 28.94                             110     0.9 5  337 232 
 RREF BZ I        1012 34.04         5.3 0.27                           337 232 
 PRA  HZ IP       1011 56.78                             106    -0.6 6  401 212 
 PRA  HN ES   1   1012 39.55                             106    -0.5 4  401 212 
 PRA  HZ I        1012 44.60         5.2 0.44                           401 212 
                                                                                
