 2013  823 1407 50.2 L   6.791 -73.086152.0  RSN  5 0.6 1.4LRSN                1
 GAP=248        1.42      11.2    10.2 12.5  0.3156E+02  0.2486E+02 -0.1288E+02E
 Epicentro: LOS SANTOS - SANTANDER                                             3
 ACTION:UPD 14-01-14 09:05 OP:ep   STATUS:               ID:20130823140750 L   I
 OLDACT:DUP 13-08-23 19:50 OP:stll STATUS:               ID:20130823135849d    3
 2013-08-23-1358-48M.COL___220                                                 6
 STAT SP IPHASW D HRMM SECON CODA AMPLIT PERI AZIMU VELO AIN AR TRES W  DIS CAZ7
 BAR2 SZ EP       14 8 11.01                             171    0.3810 24.4 206 
 BAR2 SZ ES       14 8 26.61                             171    0.0710 24.4 206 
 BAR2 SZ I        14 8 27.48         5.0 0.12            165           24.4 206 
 RUS  HZ EP       14 8 13.26                             146   -1.2410 99.3 180 
 RUS  HN ES       14 8 33.86                             146    0.4210 99.3 180 
 RUS  HZ I        14 8 34.82         2.4 0.24            143           99.3 180 
 PTB  HZ EP   1   14 8 18.38                             132    0.10 7  154 260 
 PTB  HN ES   1   14 8 39.54                             132   -0.61 7  154 260 
 PTB  HZ I        14 8 41.24         3.3 0.16            131            154 260 
 SPBC HZ EP       14 8 20.35                             130    0.82 9  167 221 
 SPBC HN ES       14 8 42.28                             130   -0.11 9  167 221 
 SPBC HZ I        14 8 47.54         4.4 0.20            128            167 221 
 ZAR  HN ES   1   14 8 50.00                             123    0.10 6  211 292 
                                                                                
