 2014  523 1230 35.1 L   6.784 -73.150138.0  RSN 12 0.5 2.6LRSN                1
 GAP= 99        1.17       5.3     3.3  6.6 -0.2897E+01  0.5730E+01  0.1250E+02E
 Epicentro: LOS SANTOS - SANTANDER                                             3
 ACTION:UPD 15-03-16 17:00 OP:nd   STATUS:               ID:20140523123035 L   I
 OLDACT:REG 14-05-23 22:31 OP:cam  STATUS:               ID:20140523123000     3
 2014-05-23-1230-00M.COL___252                                                 6
 STAT SP IPHASW D HRMM SECON CODA AMPLIT PERI AZIMU VELO AIN AR TRES W  DIS CAZ7
 BAR2 SZ IP     D 1230 53.59                             171   -0.1510 21.5 190 
 BAR2 SZ ES       1231  8.28                             171   -0.0110 21.5 190 
 BAR2 SZ I        1231  9.36       207.4 0.36            168           21.5 190 
 BRR  HZ EP       1230 55.56                             151    0.1410 71.7 300 
 BRR  HN ES       1231 12.26                             151    0.9810 71.7 300 
 BRR  HZ I        1231 16.68       104.8 0.12            152           71.7 300 
 PAM  SZ EP       1230 56.45                             149   -0.1210 79.0  39 
 PAM  SN ES       1231 13.28                             149   -0.0610 79.0  39 
 PAM  SZ I        1231 15.44       101.5 0.48            148           79.0  39 
 PTB  HZ EP       1231  0.49                             130   -0.86 9  147 259 
 PTB  HN ES       1231 21.36                             130   -0.48 9  147 259 
 PTB  HZ I        1231 23.31        46.2 0.20            130            147 259 
 TAM  HZ IP       1231  1.98                             129   -0.17 9  155 104 
 TAM  HZ I        1231 18.63        27.3 0.32            126            155 104 
 TAM  HE ES       1231 23.24                             129   -0.03 9  155 104 
 NOR  HZ EP     C 1231 10.26                             117    0.05 8  233 235 
 NOR  HN ES       1231 37.48                             117   -0.14 8  233 235 
 NOR  HZ I        1231 42.93        33.8 0.16            116            233 235 
 CHI  HZ EP   1   1231 11.81                             116   -0.34 6  247 195 
 CHI  HN ES       1231 41.03                             116   -0.04 8  247 195 
 CHI  HZ I        1231 44.21        20.0 0.34            114            247 195 
 HEL  HZ EP   1   1231 15.54                             113    0.73 6  271 256 
 HEL  HN ES       1231 44.92                             113   -0.88 8  271 256 
 HEL  HZ I        1231 52.55        21.7 0.30            112            271 256 
 GUY2CHZ EP       1231 18.25                             111    0.07 7  300 235 
 GUY2CHN ES   4   1231 53.24                             111    1.44 0  300 235 
 GUY2CHZ I        1231 58.80        29.5 0.28                           300 235 
 RREF HZ EP   4   1231 21.59                             110    0.87 0  320 230 
 CBOC HZ EP       1231 21.89                             109    0.32 7  333 252 
 CBOC HN ES       1231 57.69                             109   -0.14 7  333 252 
 CBOC HZ I        1232  1.32         8.8 0.40            108            333 252 
 DBB  SZ EP       1231 22.87                             108    0.66 7  339 275 
 DBB  SZ ES       1231 58.39                             108   -0.59 7  339 275 
 TOL  SZ EP   1   1231 23.74                             108    0.89 5  342 225 
 TOL  SZ ES       1232  1.67                             108    1.56 7  342 225 
 TOL  SZ I        1232  9.33         9.7 0.55            107            342 225 
 PRA  HZ EP   4   1231 27.97                             105   -0.16 0  390 210 
                                                                                
