 2013  923 1057 31.3 L   6.806 -73.185144.2  RSN  8 0.4 1.8LRSN                1
 GAP=140        0.92       3.6     4.8  6.4  0.1367E+01 -0.3877E+01 -0.3354E+01E
 Epicentro: ZAPATOCA - SANTANDER                                               3
 ACTION:UPD 13-10-22 09:24 OP:ep   STATUS:               ID:20130923105731 L   I
 OLDACT:DUP 13-09-23 16:50 OP:stll STATUS:               ID:20130923104840d    3
 2013-09-23-1048-38M.COL___241                                                 6
 STAT SP IPHASW D HRMM SECON CODA AMPLIT PERI AZIMU VELO AIN AR TRES W  DIS CAZ7
 BAR2 SZ EP       1057 50.55                             170   -0.1910 23.7 179 
 BAR2 SZ ES       1058  5.46                             170   -0.4510 23.7 179 
 BAR2 SZ I        1058  7.49         4.2 0.26            172           23.7 179 
 BRR  HZ EP       1057 52.74                             154    0.7010 67.1 300 
 BRR  HE ES       1058  8.81                             154    0.5810 67.1 300 
 BRR  HN I        1058 10.70        24.5 0.28            150           67.1 300 
 PTB  HN ES       1058 18.16                             132   -0.24 9  144 258 
 PTB  HN I        1058 24.28        17.1 0.34            131            144 258 
 CAPV BZ EP       1057 58.75                             131   -0.01 9  151  39 
 SPBC HZ EP       1057 59.55                             129    0.08 9  161 218 
 SPBC HZ I        1057 59.84         5.3 0.20            130            161 218 
 ZAR  HN ES       1058 27.87                             123   -0.21 9  200 292 
 SML  HZ EP       1058  7.32                             117   -0.25 8  241 336 
 SML  HE ES       1058 35.56                             117   -0.30 8  241 336 
 SML  HZ I        1058 45.39         4.3 0.24            117            241 336 
 CHI  HN ES       1058 38.20                             117    0.04 8  248 194 
                                                                                
