 2013  323 1528 36.2 L   6.780 -73.102148.0  RSN  4 0.1 1.6LRSN                1
 GAP=167        0.43       6.4     2.5  5.6  0.1429E+01  0.2258E+01  0.1802E+02E
 Epicentro: LOS SANTOS - SANTANDER                                             3
 ACTION:UPD 13-04-09 14:04 OP:ep   STATUS:               ID:20130323152836 L   I
 2013-03-23-1527-48M.COL___212                                                 6
 STAT SP IPHASW D HRMM SECON CODA AMPLIT PERI AZIMU VELO AIN AR TRES W  DIS CAZ7
 BAR2 SZ EP       1528 55.96                             171   -0.1410 22.6 203 
 BAR2 SZ I        1529 25.17         7.0 0.48             47           22.6 203 
 PAM  SZ EP       1528 58.66                             152    0.0610 76.2  36 
 PAM  SN ES       1529 15.97                             152   -0.0910 76.2  36 
 PAM  SN I        1529 17.05         5.5 0.44             47           76.2  36 
 BRR  HZ EP       1528 58.08                             151    0.1710 76.5 298 
 BRR  HN ES       1529 14.95                             151    0.1210 76.5 298 
 BRR  HN I        1529 18.16        12.2 0.18             47           76.5 298 
 ZAR  HN ES       1529 35.01                             122   -0.18 8  209 292 
 ZAR  HN I        1529 41.69         4.6 0.20             37            209 292 
                                                                                
