 2011  323 1539 18.0 L   6.778 -73.127151.3  RSN 11 0.5 2.5LRSN                1
 GAP=137        1.01       4.6     6.7 13.9 -0.3205E+01  0.4204E+02  0.1058E+02E
 Epicentro: LOS SANTOS - SANTANDER                                             3
 ACTION:UP  11-06-16 14:35 OP:jfem STATUS:               ID:20110323153918 L   I
 2011-03-23-1537-36S.COL___138                                                 6
 STAT SP IPHASW D HRMM SECON CODA AMPLIT PERI AZIMU VELO SNR AR TRES W  DIS CAZ7
 BAR2 SZ IP       1539 37.81                             172    -0.510   22 197 
 BTL  SZ EP       1539 38.88                             171     0.610   22 315 
 BAR2 SZ I        1539 53.68        81.1 0.13                            22 197 
 GRA  SZ EP   1   1539 43.58                             138    -0.3 7  127  16 
 GRA  SZ I        1540  4.06        34.5 0.28                           127  16 
 OCA  SZ EP   1   1539 46.61                             131    -0.4 7  163 353 
 OCA  SZ ES   1   1540  9.97                             131     0.3 7  163 353 
 OCA  SZ I        1540 13.04        49.0 0.45                           163 353 
 YOP  SZ EP   1   1539 48.22                             128     0.0 7  176 154 
 YOP  SN ES   1   1540 11.99                             128     0.3 7  176 154 
 YOP  SZ I        1540 14.58        34.8 0.43                           176 154 
 NOR  SZ EP   1   1539 53.70                             120    -0.5 6  235 235 
 NOR  SN ES   1   1540 21.90                             120    -0.4 6  235 235 
 HEL  HZ EP   1   1539 58.97                             116     0.3 6  274 256 
 HEL  HN ES   2   1540 31.20                             116     0.8 4  274 256 
 HEL  HZ I        1540 36.42        26.4 0.46                           274 256 
 RREF HE ES   1   1540 40.69                             112     0.1 5  322 230 
 RREF HZ I        1540 49.94        23.4 0.32                           322 230 
 DBB  SZ EP       1540  5.89                             110    -0.1 7  342 275 
 DBB  SZ I        1540 47.96         4.6 0.30                           342 275 
 TOL  SZ EP   1   1540  7.61                             110     1.1 5  343 225 
 PRA  HZ EP   1   1540 12.17                             108     0.5 4  391 210 
 PRA  HN ES   1   1540 52.60                             108    -0.8 4  391 210 
                                                                                
