 2013 1123 1520 57.0 L   6.829 -73.172138.4  RSN 10 0.4 2.0LRSN                1
 GAP=140        0.92       4.6     4.1  5.9 -0.6220E+01  0.6371E+01  0.4923E+01E
 Epicentro: LOS SANTOS - SANTANDER                                             3
 ACTION:UPD 14-01-09 16:30 OP:ep   STATUS:               ID:20131123152057 L   I
 OLDACT:REG 13-11-23 14:14 OP:nd   STATUS:               ID:20131123152000     3
 2013-11-23-1520-00M.COL___282                                                 6
 STAT SP IPHASW D HRMM SECON CODA AMPLIT PERI AZIMU VELO AIN AR TRES W  DIS CAZ7
 BAR2 SZ EP       1521 15.62                             169   -0.2310 26.2 182 
 BAR2 SZ ES       1521 30.63                             169    0.1210 26.2 182 
 BAR2 SZ I        1521 32.06        29.9 0.30            167           26.2 182 
 BRR  HZ EP       1521 17.16                             153    0.0010 67.1 297 
 BRR  HN ES       1521 32.91                             153    0.0610 67.1 297 
 BRR  HZ I        1521 36.12        13.2 0.20            151           67.1 297 
 PAM  SZ IP     D 1521 18.58                             150    0.1410 76.9  43 
 PAM  SN ES       1521 35.11                             150   -0.0310 76.9  43 
 PAM  SZ I        1521 35.97        16.7 0.24            156           76.9  43 
 PTB  HZ EP       1521 22.49                             131   -0.72 9  146 257 
 PTB  HN ES       1521 43.21                             131   -0.41 9  146 257 
 PTB  HZ I        1521 46.86        11.7 0.10            131            146 257 
 SPBC HZ EP       1521 24.85                             127   -0.20 9  164 217 
 SPBC HN ES       1521 47.63                             127    0.73 9  164 217 
 SPBC HZ I        1521 54.60        15.4 0.20            128            164 217 
 ZAR  HZ EP   2   1521 28.91                             121    0.30 4  200 292 
 ZAR  HN ES       1521 53.47                             121    0.24 9  200 292 
 ZAR  HZ I        1521 59.55        11.1 0.64            122            200 292 
 NOR  HZ EP       1521 32.18                             117   -0.12 8  234 233 
 NOR  HN ES       1521 59.45                             117   -0.35 8  234 233 
 NOR  HZ I        1522  3.73        10.0 0.22            118            234 233 
 HEL  HZ EP       1521 37.58                             113    0.92 8  270 255 
 HEL  HN ES   2   1522  7.80                             113    0.24 4  270 255 
 HEL  HZ I        1522 13.82         7.2 0.28            114            270 255 
 GUY2CHZ EP   4   1521 40.96                             111    0.70 0  301 234 
 GUY2CHN ES   4   1522 14.83                             111    0.86 0  301 234 
 GUY2CHZ I        1522 24.26         6.9 0.36                           301 234 
 SJC  HZ EP   4   1521 50.00                             105   -1.87 0  405 327 
 SJC  HN ES   4   1522 30.93                             105   -3.70 0  405 327 
 SJC  HZ I        1522 34.89         2.9 0.28            106            405 327 
                                                                                
