 2013 1123 1228  1.0 L   6.703 -73.165144.0  RSN  4 0.2 1.6LRSN                1
 GAP=242        0.49       5.4     3.9  4.0  0.5794E+01  0.5026E+01 -0.1726E+01E
 Epicentro: VILLANUEVA - SANTANDER                                             3
 ACTION:UPD 14-01-09 16:30 OP:ep   STATUS:               ID:20131123122801 L   I
 OLDACT:REG 13-11-23 14:10 OP:nd   STATUS:               ID:20131123122000     3
 2013-11-23-1220-00M.COL___282                                                 6
 STAT SP IPHASW D HRMM SECON CODA AMPLIT PERI AZIMU VELO AIN AR TRES W  DIS CAZ7
 BAR2 SZ EP   2   1228 21.01                             175    0.73 5 12.4 189 
 BAR2 SZ ES       1228 35.12                             175   -0.1710 12.4 189 
 BAR2 SZ I        1228 36.49         9.4 0.28            174           12.4 189 
 BRR  HZ EP       1228 22.08                             151   -0.1410 75.1 307 
 BRR  HN ES       1228 38.85                             151    0.1010 75.1 307 
 BRR  HZ I        1228 41.30        11.9 0.40            148           75.1 307 
 PTB  HZ EP       1228 27.56                             132    0.05 9  144 263 
 PTB  HN ES       1228 48.21                             132    0.05 9  144 263 
 PTB  HZ I        1228 50.70         2.9 0.18            132            144 263 
 ZAR  HZ EP       1228 33.49                             122   -0.12 8  206 295 
 ZAR  HN ES       1228 59.04                             122    0.03 8  206 295 
 ZAR  HZ I        1229  4.10         3.7 0.24            122            206 295 
                                                                                
