 2014  123 1956 41.4 L   6.777 -73.137143.3  RSN 11 0.6 2.2LRSN                1
 GAP=139        1.48       5.0     5.7  7.9 -0.2984E+01  0.1281E+02  0.9868E+01E
 Epicentro: LOS SANTOS - SANTANDER                                             3
 ACTION:UPD 14-03-13 09:57 OP:ep   STATUS:               ID:20140123195641 L   I
 OLDACT:REG 14-01-23 15:42 OP:stll STATUS:               ID:20140123194819     3
 2014-01-23-1948-19M.COL___237                                                 6
 STAT SP IPHASW D HRMM SECON CODA AMPLIT PERI AZIMU VELO AIN AR TRES W  DIS CAZ7
 BAR2 SZ IP     C 1957  0.88                             171    0.2210 21.1 194 
 BAR2 SZ ES       1957 14.73                             171   -0.9710 21.1 194 
 BAR2 SZ I        1957 17.49        40.9 0.28            171           21.1 194 
 BRR  HZ IP     C 1957  2.82                             151    0.4410 73.3 300 
 BRR  HE ES       1957 19.72                             151    0.9610 73.3 300 
 BRR  HZ I        1957 24.90        28.0 0.24            151           73.3 300 
 PAM  SZ EP       1957  3.75                             150    0.3410 78.7  38 
 PAM  SN ES       1957 20.69                             150    0.1010 78.7  38 
 PAM  SZ I        1957 23.03        18.9 0.50            153           78.7  38 
 RUS  HZ EP       1957  4.62                             144   -0.0710 98.0 177 
 RUS  HN ES       1957 22.75                             144   -0.1310 98.0 177 
 PTB  HZ EP       1957  7.61                             131   -0.58 9  148 260 
 PTB  HN ES       1957 28.30                             131   -0.80 9  148 260 
 PTB  HZ I        1957 34.81        26.4 0.38            132            148 260 
 SPBC HZ EP       1957  9.82                             129    0.26 9  162 220 
 SPBC HE ES       1957 32.29                             129    0.75 9  162 220 
 ZAR  HZ EP       1957 13.32                             121   -0.53 8  206 293 
 ZAR  HE ES       1957 38.26                             121   -0.93 8  206 293 
 NOR  HZ EP       1957 16.87                             118   -0.02 8  234 235 
 NOR  HN ES       1957 45.38                             118    0.79 8  234 235 
 NOR  HZ I        1957 48.48        14.0 0.20            120            234 235 
 CHI  HZ EP       1957 18.85                             117    0.15 8  246 196 
 CHI  HZ I        1957 20.35         4.2 0.34            119            246 196 
 CHI  HN ES       1957 47.25                             117   -0.56 8  246 196 
 GUY2CHZ EP       1957 25.07                             112    0.27 7  301 235 
 GUY2CHE ES       1957 59.96                             112    1.29 7  301 235 
 GUY2CHZ I        1958  7.88         9.4 0.36                           301 235 
 PRA  HZ EP       1957 34.26                             106   -0.35 6  390 210 
 PRA  HN ES       1958 14.97                             106   -1.17 6  390 210 
 PRA  HZ I        1958 22.53         9.1 0.36            108            390 210 
                                                                                
