 2016 1023 1445 56.1 L   6.812 -73.138146.2  RSN 19 0.4 3.6LRSN 3.9WRSN        1
 SPEC AVERAGE  MO 14.9 ST  3.7 OM  3.0 f0 1.64 R1.8292 AL 0.00 WI 30.0 MW  3.9 3
 SPEC SD       MO  0.4 ST  6.4 OM  0.4 f0 1.33 R0.9746 AL      WI      MW  0.2 3
 GAP= 71        0.95       2.6     2.6  4.5 -0.1467E+01  0.2662E+01  0.2878E+01E
 Epicentro: LOS SANTOS - SANTANDER                                             3
 SPEC RUS HH Z MO 15.2 ST0.442 OM  3.2 f00.789 R2.4385 AL-0.00 WI 30.0 MW  4.1 3
 SPEC RUS HH Z T144637 K 0.000 GD  178 VS 5.20 DE 3.50 Q0750.0 QA 1.50 VS 3.50 3
 SPEC PTB HH Z MO 14.5 ST  7.4 OM  2.5 f0 3.28 R0.5866 AL-0.00 WI 30.0 MW  3.6 3
 SPEC PTB HH Z T144642 K 0.000 GD  208 VS 5.20 DE 3.50 Q0750.0 QA 1.50 VS 3.50 3
 SPEC OCA HH Z MO 14.8 ST  5.5 OM  2.8 f0 2.33 R0.8258 AL-0.00 WI 30.0 MW  3.8 3
 SPEC OCA HH Z T144644 K 0.000 GD  215 VS 5.20 DE 3.50 Q0750.0 QA 1.50 VS 3.50 3
 SPEC SPBCHH Z MO 14.6 ST 22.8 OM  2.5 f0 4.68 R0.4111 AL-0.00 WI 30.0 MW  3.6 3
 SPEC SPBCHH Z T144645 K 0.000 GD  220 VS 5.20 DE 3.50 Q0750.0 QA 1.50 VS 3.50 3
 SPEC NOR HH Z MO 14.6 ST  2.5 OM  2.4 f0 2.24 R0.8589 AL-0.00 WI 30.0 MW  3.6 3
 SPEC NOR HH Z T144658 K 0.000 GD  277 VS 5.20 DE 3.50 Q0750.0 QA 1.50 VS 3.50 3
 SPEC CHI HH Z MO 15.3 ST0.269 OM  3.1 f00.614 R3.1336 AL-0.00 WI 30.0 MW  4.1 3
 SPEC CHI HH Z T1447 1 K 0.000 GD  289 VS 5.20 DE 3.50 Q0750.0 QA 1.50 VS 3.50 3
 SPEC HEL HH Z MO 15.0 ST0.446 OM  2.8 f00.895 R2.1497 AL-0.00 WI 30.0 MW  3.9 3
 SPEC HEL HH Z T1447 6 K 0.000 GD  309 VS 5.20 DE 3.50 Q0750.0 QA 1.50 VS 3.50 3
 SPECGUY2CHH Z MO 15.2 ST0.178 OM  3.0 f00.550 R3.4982 AL-0.00 WI 30.0 MW  4.1 3
 SPECGUY2CHH Z T144713 K 0.000 GD  336 VS 5.20 DE 3.50 Q0750.0 QA 1.50 Q1 0.00 3
 SPEC ELA HH Z MO 15.2 ST0.463 OM  2.9 f00.797 R2.4141 AL-0.00 WI 30.0 MW  4.1 3
 SPEC ELA HH Z T144718 K 0.000 GD  361 VS 5.20 DE 3.50 Q0750.0 QA 1.50 VS 3.50 3
 SPEC CBOCHH Z MO 15.0 ST0.229 OM  2.7 f00.732 R2.6284 AL-0.00 WI 30.0 MW  3.9 3
 SPEC CBOCHH Z T144718 K 0.000 GD  365 VS 5.20 DE 3.50 Q0750.0 QA 1.50 VS 3.50 3
 SPEC PRA HH Z MO 15.1 ST0.427 OM  2.8 f00.797 R2.4141 AL-0.00 WI 30.0 MW  4.0 3
 SPEC PRA HH Z T144730 K 0.000 GD  420 VS 5.20 DE 3.50 Q0750.0 QA 1.50 VS 3.50 3
 SPEC SJC HH Z MO 15.0 ST0.427 OM  2.7 f00.851 R2.2609 AL-0.00 WI 30.0 MW  4.0 3
 SPEC SJC HH Z T144729 K 0.000 GD  434 VS 5.20 DE 3.50 Q0750.0 QA 1.50 VS 3.50 3
 OLDACT:REG 16-10-23 20:35 OP:cara STATUS:               ID:20161023143749     3
 ACTION:UPD 16-11-09 19:22 OP:rebc STATUS:               ID:20161023144556 L   I
 OLDACT:UP  16-10-24 00:02 OP:cara STATUS:               ID:20161023143749     3
 2016-10-23-1438-00M.COL___358                                                 6
 STAT SP IPHASW D HRMM SECON CODA AMPLIT PERI AZIMU VELO AIN AR TRES W  DIS CAZ7
 BAR2 EZ EP       1446 15.84                             170    0.0210 24.8 191 
 BAR2 EZ ES       1446 30.96                             170   -0.2410 24.8 191 
 BAR2 EZ I        1446 32.98       910.8 0.28            169           24.8 191 
 BRR  HZ IP     C 1446 17.64                             153    0.3310 71.3 297 
 BRR  HN ES       1446 34.26                             153    0.4110 71.3 297 
 BRR  HZ I        1446 38.67       354.2 0.34            150           71.3 297 
 PAM  EZ EP       1446 18.68                             151    0.4010 75.9  40 
 PAM  HN ES       1446 35.69                             151    0.1110 75.9  40 
 PAM  EZ I        1446 38.01      1196.3 0.48            154           75.9  40 
 RUS  HZ EP       1446 19.77                             143   -0.2210  102 177 
 RUS  HN ES       1446 38.62                             143   -0.0010  102 177 
 RUS  HZ I        1446 39.71       620.5 0.30            145            102 177 
 PTB  HZ EP       1446 22.85                             132   -0.36 9  149 258 
 PTB  HN ES       1446 43.70                             132   -0.64 9  149 258 
 PTB  HZ I        1446 50.66       382.6 0.60            131            149 258 
 TAM  HZ IP       1446 24.21                             131    0.43 9  155 106 
 TAM  HN ES       1446 45.64                             131    0.28 9  155 106 
 OCA  HZ EP       1446 23.95                             130   -0.39 9  159 353 
 OCA  HN ES       1446 45.85                             130   -0.51 9  159 353 
 OCA  HZ I        1446 49.05       682.6 0.50            130            159 353 
 SPBC HZ EP       1446 24.51                             129   -0.27 9  165 219 
 SPBC HE ES       1446 47.01                             129   -0.14 9  165 219 
 SPBC HZ I        1446 49.28       671.9 0.28            129            165 219 
 NOR  HZ EP       1446 31.94                             118   -0.07 8  236 234 
 NOR  HN ES       1447  0.37                             118    0.35 8  236 234 
 NOR  HZ I        1447  4.96       374.5 0.44            118            236 234 
 CHI  HZ EP       1446 33.85                             117   -0.14 8  250 195 
 CHI  HE ES       1447  3.05                             117   -0.49 8  250 195 
 CHI  HZ I        1447  6.62       255.8 0.44            118            250 195 
 ROSC BZ EP   4   1446 35.51                             117    1.09 0  254 211 
 ROSC BE ES   4   1447  5.15                             117    0.85 0  254 211 
 HEL  HZ EP       1446 37.16                             115    0.70 8  273 256 
 HEL  HN ES       1447  7.65                             115   -0.29 8  273 256 
 HEL  HZ I        1447 14.68       213.3 0.36            115            273 256 
 GUY2CHZ EP       1446 40.01                             112    0.12 7  303 235 
 GUY2CHN ES       1447 15.33                             112    1.28 7  303 235 
 GUY2CHZ I        1447 21.09       181.7 0.28                           303 235 
 VIL  HZ EP       1446 39.20                             112   -0.51 7  305 192 
 VIL  HN ES       1447 13.68                             112   -0.03 7  305 192 
 LL1C HZ EP   4   1446 40.92                             112    1.33 0  305 351 
 LL1C HE ES   4   1447 15.02                             112    1.52 0  305 351 
 PTGC HZ EP   4   1446 38.96                             111   -1.13 0  310 159 
 PTGC HN ES   4   1447 11.42                             111   -2.97 0  310 159 
 PTGC HZ I        1447 17.31       300.2 0.30            113            310 159 
 ELA  HZ EP   4   1446 44.47                             110    1.33 0  331 229 
 ELA  HN ES       1447 19.96                             110    0.13 7  331 229 
 ELA  HZ I        1447 35.33       169.3 0.48            111            331 229 
 CBOC HZ EP       1446 43.64                             110    0.47 7  335 252 
 CBOC HE ES       1447 20.24                             110    0.35 7  335 252 
 CBOC HZ I        1447 23.87        67.8 0.46            110            335 252 
 ARGC HN EP   4   1446 47.07                             108    1.40 0  358 340 
 ARGC HE ES   4   1447 24.38                             108    0.05 0  358 340 
 ARGC HZ I        1447 36.04        72.9 0.26            109            358 340 
 PRA  HZ EP       1446 48.95                             106   -0.87 6  394 210 
 PRA  HE ES       1447 31.63                             106   -0.09 6  394 210 
 PRA  HZ I        1447 36.13       114.4 0.22            107            394 210 
 SJC  HZ IP   4   1446 50.04                             106   -1.57 0  409 327 
 SJC  HE ES   4   1447 30.62                             106   -4.28 0  409 327 
 SJC  HZ I        1447 35.53        75.4 0.60            106            409 327 
                                                                                
