 2012  123 1755 58.2 L   6.079 -73.716116.9  RSN  4 0.1 1.2LRSN                1
 GAP=196        0.32       5.1     3.2  7.7  0.7993E+01  0.1563E+02  0.2290E+02E
 Epicentro: BOLIVAR - SANTANDER                                                3
 ACTION:UP  12-02-03 08:19 OP:REBC STATUS:               ID:20120123175558 L   I
 2012-01-23-1750-00M.COL___186                                                 6
 STAT SP IPHASW D HRMM SECON CODA AMPLIT PERI AZIMU VELO SNR AR TRES W  DIS CAZ7
 RUS  HZ EP       1756 17.10                             146     0.010   73 106 
 RUS  HZ I        1756 17.53         3.7 0.28                            73 106 
 RUS  HE ES   3   1756 32.04                             146     0.1 2   73 106 
 BAR2 SZ EP       1756 17.33                             143    -0.110   82  46 
 BAR2 SZ ES   1   1756 32.39                             143     0.0 7   82  46 
 BAR2 SZ I        1756 33.93         6.7 0.48                            82  46 
 PTB  HZ EP       1756 18.29                             138     0.110   96 302 
 PTB  HN ES   3   1756 33.56                             138    -0.3 2   96 302 
 PTB  HZ I        1756 40.25         1.9 0.24                            96 302 
 ZAR  HN ES   3   1756 51.93                             116    -0.3 2  201 321 
                                                                                
