 2014  523 1844 43.2 L   6.794 -73.156141.3  RSN 14 0.5 2.5LRSN                1
 GAP= 71        1.10       3.6     3.3  6.5 -0.3720E+00  0.5952E+01 -0.1402E+01E
 Epicentro: LOS SANTOS - SANTANDER                                             3
 ACTION:UPD 15-03-16 17:00 OP:nd   STATUS:               ID:20140523184443 L   I
 OLDACT:UP  14-05-24 01:22 OP:nlst STATUS:               ID:20140523184443 L   3
 OLDACT:UP  14-05-24 00:20 OP:cam  STATUS:               ID:20140523184000     3
 OLDACT:REG 14-05-23 22:53 OP:cam  STATUS:               ID:20140523184000     3
 2014-05-23-1840-00M.COL___276                                                 6
 STAT SP IPHASW D HRMM SECON CODA AMPLIT PERI AZIMU VELO AIN AR TRES W  DIS CAZ7
 BAR2 SZ IP     D 1845  2.22                             171   -0.0710 22.5 187 
 BAR2 SZ ES       1845 16.97                             171   -0.1910 22.5 187 
 BAR2 SZ I        1845 18.09        78.8 0.34            171           22.5 187 
 BRR  HZ IP     C 1845  4.14                             152    0.3010 70.5 299 
 BRR  HE ES   4   1845 21.29                             152    1.37 0 70.5 299 
 BRR  HZ I        1845 25.57        83.1 0.12            149           70.5 299 
 PAM  SZ IP     C 1845  5.13                             149    0.1010 78.6  40 
 PAM  SN ES       1845 22.15                             149    0.1110 78.6  40 
 PAM  SZ I        1845 25.08        40.3 0.34            152           78.6  40 
 RUS  HZ EP       1845  6.21                             143   -0.2710100.0 175 
 RUS  HE ES       1845 24.73                             143    0.1010100.0 175 
 RUS  HZ I        1845 25.59        33.1 0.30            146          100.0 175 
 PTB  HZ EP       1845  8.88                             131   -0.82 9  147 259 
 PTB  HN ES       1845 29.75                             131   -0.61 9  147 259 
 PTB  HZ I        1845 32.39        50.2 0.10            131            147 259 
 TAM  HZ EP     C 1845 10.53                             129   -0.10 9  156 105 
 TAM  HE ES       1845 32.53                             129    0.52 9  156 105 
 TAM  HZ I        1845 32.57        23.6 0.18            133            156 105 
 SPBC HZ EP       1845 11.23                             128   -0.02 9  162 219 
 SPBC HN ES       1845 32.84                             128   -0.28 9  162 219 
 SPBC HZ I        1845 35.33        43.2 0.38            129            162 219 
 ZAR  HZ EP       1845 15.59                             121    0.30 9  203 292 
 ZAR  HN ES       1845 40.95                             121    0.65 9  203 292 
 ZAR  HZ I        1845 45.98        44.4 0.22            121            203 292 
 NOR  HZ EP   4 C 1845 18.88                             118    0.34 0  233 234 
 NOR  HE ES   4   1845 44.99                             118   -1.11 0  233 234 
 NOR  HZ I        1845 52.18        24.9 0.20            118            233 234 
 SML  HZ EP   1   1845 18.88                             116   -0.73 6  244 336 
 SML  HE ES   1   1845 47.27                             116   -0.72 6  244 336 
 SML  HZ I        1845 55.41        46.4 0.24            117            244 336 
 CHI  HZ EP   1   1845 21.00                             116    0.44 6  248 195 
 CHI  HN ES       1845 49.38                             116   -0.31 8  248 195 
 CHI  HZ I        1845 53.73         6.5 0.24            118            248 195 
 HEL  HZ EP   1   1845 23.66                             114    0.60 6  271 256 
 HEL  HE ES       1845 55.40                             114    1.26 8  271 256 
 HEL  HZ I        1846  1.39        17.5 0.36            114            271 256 
 GUY2CHZ EP   4   1845 28.09                             111    1.62 0  300 235 
 RREF HZ EP   4   1845 30.56                             110    1.55 0  320 229 
 RREF HN ES   4   1846  4.76                             110    0.02 0  320 229 
 RREF HZ I        1846 10.73        15.7 0.34            111            320 229 
 SDV  BZ EP   4   1845 32.21                             107   -1.03 0  362  50 
 SDV  BE ES   4   1846  8.89                             107   -3.37 0  362  50 
 SDV  BZ I        1846 12.13         6.8 0.30            109            362  50 
 PRA  HN ES   4   1846 16.20                             106   -1.77 0  391 209 
                                                                                
