 2015  523 1058 59.3 L   6.824 -73.137139.2  RSN  8 0.4 1.9LRSN                1
 GAP=184        0.97       3.0     5.5  7.9  0.4630E+00  0.9138E+01 -0.5126E+01E
 Epicentro: LOS SANTOS - SANTANDER                                             3
 ACTION:UPD 15-09-10 22:06 OP:cam  STATUS:               ID:20150523105859 L   I
 OLDACT:UP  15-05-23 21:16 OP:mh   STATUS:               ID:20150523105749     3
 OLDACT:REG 15-05-23 19:51 OP:mh   STATUS:               ID:20150523105749     3
 2015-05-23-1057-49M.COL___294                                                 6
 STAT SP IPHASW D HRMM SECON CODA AMPLIT PERI AZIMU VELO AIN AR TRES W  DIS CAZ7
 BAR2 EZ EP   1   1059 18.28                             169    0.12 7 26.1 191 
 BAR2 EZ ES   1   1059 32.87                             169   -0.03 7 26.1 191 
 BAR2 EZ I        1059 34.24        11.0 0.29            169           26.1 191 
 BRR  HZ EP       1059 19.96                             152    0.2810 70.9 296 
 BRR  HN ES   1   1059 36.18                             152    0.57 7 70.9 296 
 BRR  HZ I        1059 40.34        11.8 0.44            149           70.9 296 
 RUS  HZ EP       1059 22.09                             142   -0.4710  103 177 
 RUS  HN ES       1059 41.25                             142    0.5210  103 177 
 RUS  HZ I        1059 42.75         5.6 0.20            146            103 177 
 OCA  HZ EP   1   1059 27.22                             129    0.39 7  158 353 
 OCA  HN ES       1059 47.70                             129   -0.63 9  158 353 
 OCA  HZ I        1059 50.78        16.6 0.22            130            158 353 
 SPBC HZ EP   1   1059 27.55                             127    0.03 7  166 219 
 SPBC HN ES       1059 48.84                             127   -0.72 9  166 219 
 SPBC HZ I        1059 55.88         9.0 0.42            129            166 219 
 ZAR  HZ EP   1   1059 31.71                             121    0.43 6  204 291 
 ZAR  HN ES       1059 56.22                             121   -0.03 9  204 291 
 ZAR  HZ I        11 0  1.57         8.4 0.34            122            204 291 
 NOR  HN ES       11 0  2.72                             117    0.08 8  237 234 
 NOR  HZ I        11 0  4.10         4.3 0.40            119            237 234 
 SML  HZ EP   1   1059 35.98                             116    0.67 6  242 335 
 SML  HE ES       11 0  3.08                             116   -0.35 8  242 335 
 SML  HZ I        11 0 11.75        11.4 0.26            118            242 335 
                                                                                
