 2014  423 1024 51.4 L   6.787 -73.145145.0  RSN 10 0.5 2.4LRSN                1
 GAP=137        1.14       2.9     5.0  7.7 -0.1689E+01  0.1013E+02  0.5013E+00E
 Epicentro: LOS SANTOS - SANTANDER                                             3
 ACTION:UPD 14-05-13 23:10 OP:nd   STATUS:               ID:20140423102451 L   I
 OLDACT:DUP 14-04-23 21:30 OP:nd   STATUS:               ID:20140423102045d    3
 2014-04-23-1020-44M.COL___242                                                 6
 STAT SP IPHASW D HRMM SECON CODA AMPLIT PERI AZIMU VELO AIN AR TRES W  DIS CAZ7
 PAM  SZ EP     C 1025 14.05                             150    0.4910 78.5  39 
 PAM  SN ES       1025 30.92                             150    0.0510 78.5  39 
 PAM  SZ I        1025 33.58        58.0 0.66            154           78.5  39 
 RUS  HZ EP       1025 15.08                             144    0.1510 99.1 176 
 RUS  HN ES       1025 33.66                             144    0.3510 99.1 176 
 RUS  HZ I        1025 34.41        22.0 0.30            147           99.1 176 
 PTB  HZ EP       1025 17.95                             132   -0.30 9  148 259 
 PTB  HN ES       1025 38.50                             132   -0.72 9  148 259 
 PTB  HZ I        1025 44.67        22.2 0.56            132            148 259 
 SPBC HZ EP       1025 20.02                             129    0.32 9  162 219 
 SPBC HN ES       1025 41.92                             129    0.12 9  162 219 
 SPBC HZ I        1025 44.43        23.4 0.30            131            162 219 
 OCA  HZ EP       1025 19.57                             129   -0.19 9  162 353 
 OCA  HN ES       1025 41.26                             129   -0.64 9  162 353 
 OCA  HZ I        1025 46.02        24.1 0.14            131            162 353 
 ZAR  HZ EP       1025 24.16                             122    0.33 9  205 293 
 ZAR  HN ES       1025 50.30                             122    1.15 9  205 293 
 ZAR  HZ I        1025 56.09        36.7 0.34            123            205 293 
 SML  HZ EP       1025 27.82                             117   -0.28 8  245 335 
 SML  HN ES       1025 56.54                             117   -0.21 8  245 335 
 CHI  HZ EP       1025 28.79                             117   -0.08 8  247 195 
 CHI  HN ES       1025 57.15                             117   -0.97 8  247 195 
 URE  HZ EP   4   1025 35.28                             113    2.81 0  284 292 
 URE  HN ES   4   1026  2.74                             113   -1.79 0  284 292 
 URE  HZ I        1026  8.55        14.9 0.12            115            284 292 
 PRA  HZ EP       1025 45.01                             106    0.29 6  391 210 
 PRA  HN ES       1026 26.28                             106   -0.05 6  391 210 
 PRA  HZ I        1026 33.66         8.5 0.46            108            391 210 
                                                                                
