 2014  823 1332 42.1 L   6.829 -73.184144.3  RSN 16 0.4 2.5LRSN                1
 GAP=130        1.02       2.8     3.7  5.0  0.3050E+00  0.6161E+01  0.1166E+01E
 Epicentro: ZAPATOCA - SANTANDER                                               3
 ACTION:UPD 14-09-15 21:52 OP:nd   STATUS:               ID:20140823133242 L   I
 OLDACT:UP  14-08-23 22:19 OP:cam  STATUS:               ID:20140823133000     3
 OLDACT:UP  14-08-23 22:18 OP:cam  STATUS:               ID:20140823133000     3
 OLDACT:REG 14-08-23 20:48 OP:cam  STATUS:               ID:20140823133000     3
 2014-08-23-1330-00M.COL___285                                                 6
 STAT SP IPHASW D HRMM SECON CODA AMPLIT PERI AZIMU VELO AIN AR TRES W  DIS CAZ7
 BAR2 SZ EP     D 1333  1.54                             169   -0.1010 26.2 180 
 BAR2 SZ ES       1333 17.60                             169    0.7410 26.2 180 
 BAR2 SZ I        1333 17.89        53.8 0.24            167           26.2 180 
 BRR  HZ EP     C 1333  3.29                             154    0.4610 66.0 298 
 BRR  HN ES       1333 18.86                             154   -0.1110 66.0 298 
 BRR  HZ I        1333 22.79        42.1 0.28            151           66.0 298 
 PAM  SZ EP       1333  4.19                             150   -0.0210 77.8  43 
 PAM  SN ES       1333 21.22                             150   -0.2110 77.8  43 
 PAM  SZ I        1333 23.70        38.1 0.54            157           77.8  43 
 RUS  HZ EP     C 1333  5.59                             143   -0.4010  104 174 
 RUS  HN ES       1333 24.42                             143   -0.1910  104 174 
 RUS  HZ I        1333 26.55        23.9 0.30            144            104 174 
 PTB  HZ EP       1333  8.43                             132   -0.23 9  144 257 
 PTB  HN ES       1333 29.22                             132   -0.14 9  144 257 
 PTB  HZ I        1333 34.99        37.2 0.14            131            144 257 
 SPBC HZ EP       1333 10.49                             129   -0.01 9  163 217 
 SPBC HN ES       1333 32.55                             129   -0.09 9  163 217 
 SPBC HZ I        1333 39.76        61.4 0.22            129            163 217 
 ZAR  HZ EP       1333 14.02                             123    0.07 9  199 292 
 ZAR  HN ES       1333 39.46                             123    0.69 9  199 292 
 ZAR  HZ I        1333 45.14        29.1 0.28            123            199 292 
 NOR  HZ EP       1333 18.14                             118    0.53 8  233 233 
 NOR  HN ES       1333 44.51                             118   -0.77 8  233 233 
 NOR  HZ I        1333 50.97        25.7 0.22            119            233 233 
 SML  HZ EP       1333 17.86                             118   -0.30 8  239 336 
 SML  HE ES       1333 46.12                             118   -0.15 8  239 336 
 SML  HZ I        1333 51.70        39.5 0.10            119            239 336 
 CHI  HZ EP       1333 19.81                             117   -0.15 8  251 194 
 CHI  HN ES       1333 49.10                             117   -0.38 8  251 194 
 CHI  HZ I        1333 55.27        13.4 0.28            118            251 194 
 ROSC BZ EP   4   1333 21.84                             116    1.61 0  253 210 
 ROSC BE ES   4   1333 53.39                             116    3.43 0  253 210 
 ROSC BZ I        1333 56.45        22.9 0.35            117            253 210 
 HEL  HZ EP       1333 23.00                             115    1.10 8  269 255 
 URE  HZ EP       1333 22.21                             114   -0.34 7  279 292 
 URE  HN ES       1333 53.35                             114   -0.74 7  279 292 
 URE  HZ I        1334  6.88        22.3 0.16            114            279 292 
 GUY2CHZ EP   4   1333 26.70                             112    1.21 0  300 234 
 PRA  HZ EP       1333 35.50                             106   -0.18 6  393 209 
 PRA  HN ES   4   1334 16.92                             106   -0.53 0  393 209 
 PRA  HZ I        1334 22.00        14.3 0.24            107            393 209 
 ORTC HZ EP       1333 36.76                             106    0.75 6  396 215 
 ORTC HE ES       1334 18.67                             106    0.63 6  396 215 
 ORTC HZ I        1334 24.14         7.7 0.40            107            396 215 
 SJC  HZ EP   4   1333 35.74                             106   -1.31 0  404 327 
 SJC  HN ES   4   1334 16.85                             106   -3.05 0  404 327 
 SJC  HZ I        1334 19.96         6.1 0.38            107            404 327 
                                                                                
