 2011 1023 1729 28.2 L   6.730 -73.120140.9  RSN  4 0.1 1.5LRSN                1
 GAP=143        0.31       2.9     4.6  5.6 -0.1301E+01 -0.4329E+01  0.2632E+01E
 Epicentro: JORDAN - SANTANDER                                                 3
 ACTION:UPD 12-07-13 16:05 OP:ep   STATUS:               ID:20111023172928 L   I
 2011-10-23-1726-47S.COL___171                                                 6
 STAT SP IPHASW D HRMM SECON CODA AMPLIT PERI AZIMU VELO AIN AR TRES W  DIS CAZ7
 BAR2 SZ EP   1   1729 47.03                             173   -0.06 7 16.7 204 
 BAR2 SZ I        1730  3.03         7.2 0.39                          16.7 204 
 BRR  HZ EP   2   1729 49.18                             149    0.01 5 77.5 303 
 BRR  HZ I        1729 54.98        14.2 0.36                          77.5 303 
 BRR  HN ES   2   1730  5.57                             149    0.02 5 77.5 303 
 PAM  SZ EP   1   1729 50.26                             148    0.12 7 81.8  35 
 PAM  SN ES   2   1730  7.15                             148   -0.13 5 81.8  35 
 RUS  HZ EP   1   1729 50.79                             145   -0.08 7 92.7 177 
 RUS  HZ I        1729 52.05         2.8 0.22                          92.7 177 
 RUS  HN ES   2   1730  8.73                             145    0.14 5 92.7 177 
                                                                                
