 2017  223 1028  5.2 L   6.776 -73.128146.7  RSN  6 0.3 1.3LRSN                1
 GAP=140        0.71       3.6     3.2  5.1  0.9589E+00  0.3203E+01  0.2368E+00E
 Epicentro: LOS SANTOS - SANTANDER                                             3
 ACTION:UPD 17-05-24 15:39 OP:jn   STATUS:               ID:20170223102805 L   I
 OLDACT:REG 17-02-23 20:08 OP:cog  STATUS:               ID:20170223101741     3
 2017-02-23-1018-00M.COL___379                                                 6
 STAT SP IPHASW D HRMM SECON CODA AMPLIT PERI AZIMU VELO AIN AR TRES W  DIS CAZ7
 BAR2 EZ EP       1028 24.97                             171    0.0810 21.2 197 
 BAR2 EZ ES       1028 40.06                             171   -0.2010 21.2 197 
 BAR2 EZ I        1028 41.50         6.0 0.24            173           21.2 197 
 BRR  HZ EP       1028 26.73                             152    0.1210 74.2 300 
 BRR  HN ES       1028 43.65                             152    0.3310 74.2 300 
 BRR  HZ I        1028 52.46         6.0 0.54            151           74.2 300 
 PAM  EZ EP       1028 27.83                             151    0.2810 78.2  37 
 PAM  EN ES       1028 44.77                             151   -0.2210 78.2  37 
 PAM  EZ I        1028 47.06         3.2 0.56            153           78.2  37 
 RUS  HZ EP       1028 28.82                             145   -0.0210 97.9 177 
 RUS  HN ES       1028 47.16                             145   -0.1210 97.9 177 
 PTB  HZ EP       1028 32.12                             132   -0.24 9  149 260 
 PTB  HN ES       1028 53.95                             132    0.39 9  149 260 
 PTB  HZ I        1028 55.67         1.8 0.34            134            149 260 
 ZAR  HE ES       1029  3.02                             122   -0.54 8  207 293 
                                                                                
