 2013  423 1435 18.8 L   6.789 -73.184145.7  RSN  7 0.4 2.0LRSN                1
 GAP=132        0.91       4.6     5.0  7.2  0.2254E+01  0.6935E+01 -0.6718E+01E
 Epicentro: LOS SANTOS - SANTANDER                                             3
 ACTION:UPD 13-05-22 14:40 OP:EP   STATUS:               ID:20130423143518 L   I
 2013-04-23-1430-00M.COL___249                                                 6
 STAT SP IPHASW D HRMM SECON CODA AMPLIT PERI AZIMU VELO AIN AR TRES W  DIS CAZ7
 BAR2 SZ IP     D 1435 38.40                             171    0.0510 21.8 180 
 BAR2 SZ ES   1   1435 53.21                             171   -0.42 7 21.8 180 
 BAR2 SZ I        1435 54.75        28.2 0.22            172           21.8 180 
 BRR  HZ IP     C 1435 40.26                             154    0.5310 68.1 301 
 BRR  HN ES   1   1435 56.13                             154    0.04 7 68.1 301 
 BRR  HZ I        1436  0.33        13.2 0.33            150           68.1 301 
 PAM  SZ IP     D 1435 41.31                             150    0.1210 81.0  41 
 PAM  SN ES   1   1435 58.43                             150   -0.26 7 81.0  41 
 PAM  SZ I        1436  0.03        18.4 0.72            152           81.0  41 
 RUS  HZ EP       1435 42.66                             144    0.2210 99.8 174 
 RUS  HN ES   1   1436  0.96                             144    0.04 7 99.8 174 
 RUS  HZ I        1436  1.81         6.7 0.20            149           99.8 174 
 PTB  HZ EP       1435 45.09                             133   -0.23 9  143 259 
 PTB  HN ES   1   1436  5.86                             133   -0.19 7  143 259 
 PTB  HZ I        1436  8.24        12.0 0.20            133            143 259 
 SML  HZ EP       1435 54.32                             117   -0.99 8  243 336 
 SML  HN ES   1   1436 24.68                             117    0.86 6  243 336 
 SML  HZ I        1436 28.06        10.7 0.22            118            243 336 
 URE  HZ EP   4   1436  2.85                             114    3.42 0  280 292 
 URE  HN ES   1   1436 31.25                             114    0.08 6  280 292 
 URE  HZ I        1436 40.14         5.2 0.28            114            280 292 
                                                                                
