 2012  323 1703  9.8 L   6.843 -73.317125.5  RSN  5 0.4 1.7LRSN                1
 GAP=107        0.89       5.8     5.2  8.7 -0.2471E+01  0.4302E+01  0.4377E+01E
 ACTION:UP  12-03-31 23:22 OP:EP   STATUS:               ID:20120323170309 L   I
 2012-03-23-1700-00M.COL___199                                                 6
 STAT SP IPHASW D HRMM SECON CODA AMPLIT PERI AZIMU VELO SNR AR TRES W  DIS CAZ7
 BAR2 SZ EP       17 3 27.31                             165     0.110   32 152 
 BAR2 SZ ES   1   17 3 40.35                             165    -0.4 7   32 152 
 BAR2 SZ I        17 3 41.81        51.5 0.42                            32 152 
 BRR  HZ EP   1   17 3 27.83                             156     0.1 7   53 304 
 BRR  HN ES   1   17 3 41.54                             156    -0.1 7   53 304 
 BRR  HZ I        17 3 42.51        18.4 0.14                            53 304 
 PAM  SZ EP   1   17 3 30.76                             143     0.2 7   88  51 
 PAM  SN ES   1   17 3 46.93                             143     0.1 7   88  51 
 RUS  HZ EP   1   17 3 32.30                             137     0.1 7  108 166 
 RUS  HN ES   1   17 3 49.84                             137     0.1 7  108 166 
 RUS  HZ I        17 3 51.98         2.6 0.10                           108 166 
 PTB  HZ EP   1   17 3 32.66                             131    -0.9 7  130 255 
 PTB  HN ES   1   17 3 52.68                             131     0.6 7  130 255 
 PTB  HZ I        17 3 54.73         5.0 0.24                           130 255 
                                                                                
