 2016 1123 1412 41.6 L   6.691 -73.407122.3  RSN  4 0.2 1.3LRSN                1
 GAP=150        0.48       8.3     4.8  4.2  0.3210E+02 -0.3316E+01 -0.9729E+01E
 Epicentro: EL CARMEN - SANTANDER                                              3
 ACTION:UPD 17-10-26 21:10 OP:lp   STATUS:               ID:20161123141241 L   I
 OLDACT:UP  16-11-23 23:55 OP:edw  STATUS:               ID:20161123140747     3
 OLDACT:REG 16-11-23 20:32 OP:edw  STATUS:               ID:20161123140747     3
 2016-11-23-1408-00M.COL___355                                                 6
 STAT SP IPHASW D HRMM SECON CODA AMPLIT PERI AZIMU VELO AIN AR TRES W  DIS CAZ7
 BAR2 EZ EP       1412 58.54                             167    0.0410 27.1 114 
 BAR2 EZ ES       1413 11.80                             167    0.1010 27.1 114 
 BAR2 EZ I        1413 12.95        12.1 0.34            164           27.1 114 
 BRR  HZ EP       1412 59.14                             153   -0.2610 57.1 324 
 BRR  HE ES       1413 13.28                             153   -0.0210 57.1 324 
 BRR  HZ I        1413 14.45         5.3 0.07            155           57.1 324 
 PTB  HZ EP   9   1413  3.86                             133   -0.01 0  117 262 
 PTB  HN ES       1413 21.07                             134   -0.1810  117 262 
 PTB  HZ I        1413 25.66         2.0 0.10            129            117 262 
 ZAR  HN ES       1413 33.01                             120    0.18 9  183 299 
                                                                                
