 2016 1023 1559 55.9 L   6.789 -73.156140.7  RSN  7 0.3 1.6LRSN                1
 GAP=136        0.78       3.3     3.7  5.2 -0.1886E+01  0.3544E+01  0.5030E+01E
 Epicentro: LOS SANTOS - SANTANDER                                             3
 ACTION:UPD 16-11-09 19:22 OP:rebc STATUS:               ID:20161023155955 L   I
 OLDACT:REG 16-10-23 20:39 OP:cara STATUS:               ID:20161023155745     3
 2016-10-23-1558-00M.COL___359                                                 6
 STAT SP IPHASW D HRMM SECON CODA AMPLIT PERI AZIMU VELO AIN AR TRES W  DIS CAZ7
 BAR2 HE ES       16 0 29.41                             171   -0.2710 21.9 188 
 BAR2 EZ I        16 0 32.35        15.3 0.32            169           21.9 188 
 BRR  HZ EP       16 0 16.64                             152    0.1910 70.8 300 
 BRR  HN ES       16 0 32.96                             152    0.4510 70.8 300 
 PAM  EZ EP       16 0 17.74                             149    0.0910 79.1  40 
 PAM  EN ES       16 0 34.66                             149    0.0210 79.1  40 
 PAM  EZ I        16 0 37.39         3.9 0.58            152           79.1  40 
 RUS  HZ EP       16 0 18.82                             143   -0.2210 99.4 175 
 RUS  HN ES       16 0 37.13                             143    0.0210 99.4 175 
 RUS  HZ I        16 0 38.52         3.4 0.36            143           99.4 175 
 PTB  HZ EP       16 0 22.07                             131   -0.23 9  146 259 
 PTB  HN ES       16 0 42.34                             131   -0.58 9  146 259 
 PTB  HZ I        16 0 45.60         5.2 0.50            133            146 259 
 CHI  HZ EP       16 0 32.98                             116   -0.14 8  247 195 
 CHI  HN ES       16 1  2.66                             116    0.47 8  247 195 
 CHI  HZ I        16 1  9.12         1.9 0.24            117            247 195 
 GUY2CHZ EP   4   16 0 39.91                             111    0.85 0  300 235 
 GUY2CHE ES       16 1 13.19                             111    0.44 7  300 235 
 GUY2CHZ I        16 1 21.36         4.6 0.36                           300 235 
                                                                                
