 2010  723 1005 17.7 L   6.798 -73.062148.4  RSN  7 0.4 1.7LRSN                1
 GAP=174        0.82       4.1    11.3  7.4  0.5335E+01 -0.1429E+02 -0.2452E+01E
 Epicentro: LOS SANTOS - SANTANDER                                             3
 ACTION:UPD 10-12-01 15:19 OP:pat  STATUS:               ID:20100723100517 L   I
 2010-07-23-1001-16S.COL___123                                                 6
 STAT SP IPHASW D HRMM SECON CODA AMPLIT PERI AZIMU VELO AIN AR TRES W  DIS CAZ7
 BAR2 SZ EP   1   10 5 37.43                             170    -0.3 7   27 211 
 BAR2 SZ ES   1   10 5 53.80                             170     0.5 7   27 211 
 BAR2 SZ I        10 5 55.60         8.4 0.25                            27 211 
 BRR  HZ EP   1   10 5 39.53                             150    -0.1 7   80 295 
 BRR  HN ES   1   10 5 56.77                             150     0.0 7   80 295 
 BRR  HZ I        10 5 59.08        14.2 0.19                            80 295 
 RUS  HZ EP   1   10 5 41.20                             145    -0.5 7  100 181 
 RUS  HE ES   1   10 6  0.38                             145     0.0 7  100 181 
 RUS  HZ I        10 6  1.27         4.0 0.36                           100 181 
 GUE  SZ EP   1   10 5 43.17                             140     0.6 7  115   8 
 GUE  SZ I        10 5 44.51         3.1 0.10                           115   8 
 OCA  SZ EP   1   10 5 46.48                             130     0.1 7  162 350 
 OCA  SZ ES   1   10 6  8.27                             130    -0.5 7  162 350 
 OCA  SZ I        10 6 10.97         5.3 0.35                           162 350 
 CHI  HZ EP   2   10 5 55.68                             118    -0.1 4  251 197 
 CHI  HZ I        10 6 34.53         3.0 0.42                           251 197 
 PRA  HZ EP   1   10 6 12.41                             107     0.6 4  397 211 
 PRA  HE ES   2   10 6 54.08                             107     0.0 3  397 211 
 PRA  HZ I        10 6 57.55         3.6 0.45                           397 211 
                                                                                
