 2014  323 1719 32.5 L   6.529 -73.567107.0  RSN 13 0.5 1.8LRSN                1
 GAP= 62        1.03       3.1     3.6  7.4 -0.1509E+01  0.4026E+01  0.1635E+01E
 Epicentro: EL CARMEN DE CHUCURI - SANTANDER                                   3
 OLDACT:REG 14-03-23 15:43 OP:fm   STATUS:               ID:20140323171813     3
 ACTION:UPD 14-04-09 23:20 OP:nd   STATUS:               ID:20140323171932 L   I
 OLDACT:UP  14-03-23 17:23 OP:fm   STATUS:               ID:20140323171813     3
 2014-03-23-1718-13M.COL___246                                                 6
 STAT SP IPHASW D HRMM SECON CODA AMPLIT PERI AZIMU VELO AIN AR TRES W  DIS CAZ7
 BAR2 SZ IP     C 1719 48.41                             156    0.1510 43.1  81 
 BAR2 SZ ES   1   1720  0.60                             156    0.06 7 43.1  81 
 BAR2 SZ I        1720  1.58        49.6 0.46            153           43.1  81 
 BRR  HZ EP       1719 49.26                             146    0.0110 65.9 346 
 BRR  HN ES   1   1720  3.11                             146    0.79 7 65.9 346 
 BRR  SZ I        1720  8.76        10.8 0.42            146           65.9 346 
 RUS  HZ EP       1719 51.35                             138   -0.3010 88.4 143 
 RUS  HN ES   2   1720  6.97                             138    0.39 5 88.4 143 
 RUS  SZ I        1720 10.65         4.2 0.64            131           88.4 143 
 PTB  HZ IP     C 1719 51.18                             134   -0.6610 98.3 271 
 PTB  HN ES       1720  6.09                             134   -0.8310 98.3 271 
 PTB  SZ I        1720  7.14        14.5 0.14            130           98.3 271 
 SPBC HZ EP   1   1719 53.19                             130    0.02 7  112 210 
 SPBC HE ES   1   1720  9.87                             130    0.57 7  112 210 
 SPBC SZ I        1720 13.74         9.5 0.20            124            112 210 
 PAM  SZ EP   1   1719 55.00                             125   -0.57 7  131  47 
 PAM  SN ES   1   1720 13.16                             125   -0.40 7  131  47 
 PAM  SZ I        1720 13.83         8.0 0.16            122            131  47 
 ZAR  HZ EP   1   1720  0.13                             116    0.26 7  178 307 
 ZAR  HN ES   1   1720 21.46                             116    0.26 7  178 307 
 ZAR  SZ I        1720 24.94        11.1 0.42            114            178 307 
 NOR  HZ EP   1   1719 59.81                             116   -0.26 7  179 234 
 NOR  HN ES   1   1720 21.71                             116    0.13 7  179 234 
 NOR  SZ I        1720 25.13         7.7 0.18            113            179 234 
 OCA  HN ES   1   1720 24.38                             114    0.28 7  191   8 
 CHI  HZ EP   1   1720  4.12                             112    0.07 6  211 185 
 CHI  SZ I        1720 27.92         4.5 1.18            109            211 185 
 CHI  HN ES   1   1720 29.36                             112    0.71 6  211 185 
 HEL  HZ EP   1   1720  5.93                             110    0.87 6  220 260 
 HEL  HN ES   4   1720 32.08                             110    1.63 0  220 260 
 HEL  SZ I        1720 32.92         3.3 0.68            109            220 260 
 GUY2CHZ EP   4   1720  9.71                             108    1.57 0  246 234 
 GUY2CHN ES   4   1720 38.65                             108    2.71 0  246 234 
 GUY2CSZ I        1720 39.46         5.0 1.86                           246 234 
 SML  HZ EP   4   1720  7.86                             107   -1.02 0  257 348 
 SML  HE ES   1   1720 38.10                             107    0.85 6  257 348 
 SML  SZ I        1720 40.48        14.1 0.10            106            257 348 
                                                                                
