 2016 1023 1908 12.6 L   6.035 -73.663116.6  RSN  4 0.2 1.5LRSN                1
 GAP=152        0.61       5.6     3.7  6.7 -0.1167E+02  0.1289E+02 -0.1352E+01E
 Epicentro: VELEZ - SANTANDER                                                  3
 ACTION:UPD 16-11-09 19:22 OP:rebc STATUS:               ID:20161023190812 L   I
 OLDACT:REG 16-10-23 21:08 OP:cara STATUS:               ID:20161023185744     3
 2016-10-23-1858-00M.COL___353                                                 6
 STAT SP IPHASW D HRMM SECON CODA AMPLIT PERI AZIMU VELO AIN AR TRES W  DIS CAZ7
 RUS  HZ EP       19 8 30.73                             149   -0.3110 66.1 104 
 RUS  HN ES       19 8 45.61                             149    0.1710 66.1 104 
 RUS  HZ I        19 8 47.11         2.9 0.68            152           66.1 104 
 BAR2 EZ EP       19 8 31.72                             143   -0.0110 81.4  41 
 BAR2 EZ ES       19 8 46.71                             143    0.0510 81.4  41 
 BAR2 EZ I        19 8 48.16        25.0 0.32            146           81.4  41 
 NOR  HZ EP       19 8 36.84                             125   -0.13 9  143 249 
 NOR  HN ES       19 8 55.84                             125   -0.14 9  143 249 
 NOR  HZ I        19 8 57.49         3.6 0.18            128            143 249 
 GUY2CHZ EP       19 8 44.92                             115    0.48 8  209 245 
                                                                                
