 2012  823 1806 16.7 L   6.756 -73.159144.8  RSN  7 0.4 1.6LRSN                1
 GAP=137        0.72       4.6     4.3  7.5 -0.3037E+01  0.4762E+01  0.2634E+01E
 Epicentro: LOS SANTOS - SANTANDER                                             3
 ACTION:UPD 12-09-10 11:58 OP:ep   STATUS:               ID:20120823180616 L   I
 2012-08-23-1800-00M.COL___218                                                 6
 STAT SP IPHASW D HRMM SECON CODA AMPLIT PERI AZIMU VELO AIN AR TRES W  DIS CAZ7
 BAR2 SZ EP   1   18 6 35.80                             172   -0.29 7 18.2 188 
 BAR2 SZ ES   1   18 6 51.03                             172   -0.22 7 18.2 188 
 BAR2 SZ I        18 6 52.07        12.3 0.17                          18.2 188 
 BRR  HZ EP   1   18 6 37.77                             152   -0.02 7 72.4 302 
 BRR  HZ I        18 6 54.16        19.6 0.39                          72.4 302 
 BRR  HN ES   1   18 6 55.03                             152    0.77 7 72.4 302 
 PAM  SZ EP   1   18 6 39.03                             149   -0.04 7 82.1  38 
 PAM  SZ I        18 6 39.26         8.7 0.25                          82.1  38 
 PAM  SN ES   1   18 6 56.29                             149   -0.26 7 82.1  38 
 RUS  HZ EP   1   18 6 40.45                             145    0.46 7 95.8 175 
 RUS  HN ES   1   18 6 58.26                             145    0.08 7 95.8 175 
 RUS  HZ I        18 6 59.88         4.9 0.36                          95.8 175 
 PTB  HN ES   1   18 7  3.58                             132   -0.58 7  145 261 
 PTB  HZ I        18 7  5.55         2.5 0.16                           145 261 
 ZAR  HN ES   2   18 7 14.47                             122    0.05 4  205 294 
 NOR  SN ES   1   18 7 19.41                             119    0.01 6  231 235 
 NOR  SZ I        18 7 21.87         3.4 0.18                           231 235 
                                                                                
