 2013  623 1652 33.2 L   6.826 -73.045147.8  RSN  4 0.1 1.4LRSN                1
 GAP=210        0.39       4.7     9.4  4.3  0.3871E+02 -0.2499E+02 -0.1307E+02E
 Epicentro: LOS SANTOS - SANTANDER                                             3
 ACTION:UPD 14-01-08 09:56 OP:ep   STATUS:               ID:20130623165233 L   I
 OLDACT:UP  13-06-23 16:36 OP:cam  STATUS:               ID:20130623164959     3
 OLDACT:UP  13-06-23 16:35 OP:cam  STATUS:               ID:20130623164959     3
 OLDACT:REG 13-06-23 15:49 OP:cam  STATUS:               ID:20130623164959     3
 2013-06-23-1649-59M.COL___267                                                 6
 STAT SP IPHASW D HRMM SECON CODA AMPLIT PERI AZIMU VELO AIN AR TRES W  DIS CAZ7
 BAR2 SZ EP       1652 53.30                             168    0.0410 30.0 210 
 BAR2 SZ I        1652 53.67         5.5 0.10            165           30.0 210 
 BAR2 SZ ES       1653  8.88                             168    0.0010 30.0 210 
 BRR  HZ EP       1652 55.21                             150    0.0910 80.0 293 
 BRR  HN ES       1653 12.16                             150   -0.0210 80.0 293 
 BRR  HZ I        1653 13.41         6.4 0.44            148           80.0 293 
 RUS  HZ EP       1652 57.51                             143    0.1310  103 182 
 RUS  HN ES   1   1653 15.98                             143   -0.24 7  103 182 
 RUS  HZ I        1653 16.83         2.3 0.34            142            103 182 
 SML  HZ EP   1   1653  9.86                             117   -0.37 6  246 333 
 SML  HN ES   1   1653 39.16                             117    0.08 6  246 333 
                                                                                
