 2016  723 1414  4.9 L   6.935 -74.260 22.1  RSN  9 0.4 1.9LRSN                1
 GAP=122        1.04       3.2     2.2  5.8  0.3946E+00 -0.3232E+01  0.1147E+02E
 Epicentro: PUERTO PARRA - SANTANDER                                           3
 ACTION:UPD 17-03-29 16:54 OP:lp   STATUS:               ID:20160723141404 L   I
 OLDACT:DUP 16-07-23 22:18 OP:lv   STATUS:               ID:20160723140760d    3
 2016-07-23-1407-59S.COL___328                                                 6
 STAT SP IPHASW D HRMM SECON CODA AMPLIT PERI AZIMU VELO AIN AR TRES W  DIS CAZ7
 ZAR  HZ EP       1414 19.32                             102   -0.1410 90.3 313 
 ZAR  HE ES       1414 31.46                             102    0.6310 90.3 313 
 ZAR  HZ I        1414 33.68        30.6 0.12            100           90.3 313 
 BAR2 EZ EP       1414 24.74                              56    0.2410  125 108 
 BAR2 EZ ES       1414 40.25                              56    0.4510  125 108 
 SPBC HN ES       1414 43.42                              56   -0.16 9  143 172 
 SPBC HZ I        1414 46.89        12.4 0.20             56            143 172 
 HEL  HZ EP       1414 29.19                              56   -0.19 9  163 240 
 HEL  HN ES       1414 48.21                              56   -0.27 9  163 240 
 HEL  HZ I        1414 51.09        11.1 0.22             56            163 240 
 NOR  HZ EP       1414 29.03                              56   -0.38 9  166 204 
 NOR  HN ES       1414 49.31                              56    0.77 9  166 204 
 NOR  HZ I        1414 50.30        18.5 0.16             56            166 204 
 URE  HZ EP       1414 28.82                              56   -0.67 9  167 303 
 URE  HE ES       1414 48.72                              56    0.04 9  167 303 
 URE  HZ I        1414 50.74        23.7 0.12             56            167 303 
 RUS  HZ EP       1414 30.79                              56   -0.13 9  174 131 
 RUS  HN ES       1414 50.93                              56   -0.29 9  174 131 
 RUS  HZ I        1414 52.85         7.9 0.18             56            174 131 
 PAM  EZ EP       1414 31.19                              56   -0.24 9  178  75 
 PAM  EN ES       1414 52.29                              56    0.15 9  178  75 
 PAM  EZ I        1414 54.11        24.7 0.18             56            178  75 
 GUY2CHZ EP   9   1414 38.67                              56    1.34 0  225 213 
 GUY2CHE ES       1415  4.78                                    0.80 8  225 213 
                                                                                
