 2013  923 1158 36.5 L   6.862 -73.206159.8  RSN  5 0.5 1.6LRSN                1
 GAP=134        1.19       7.5     7.3 11.3 -0.2252E+02  0.7575E+00 -0.5066E+01E
 Epicentro: ZAPATOCA - SANTANDER                                               3
 ACTION:UPD 13-10-22 09:24 OP:ep   STATUS:               ID:20130923115836 L   I
 OLDACT:REG 13-09-23 15:31 OP:stll STATUS:               ID:20130923114838     3
 2013-09-23-1148-38M.COL___241                                                 6
 STAT SP IPHASW D HRMM SECON CODA AMPLIT PERI AZIMU VELO AIN AR TRES W  DIS CAZ7
 BAR2 SZ EP       1158 57.45                             169   -0.5210 30.0 175 
 BAR2 SZ I        1158 57.99         6.1 0.16            170           30.0 175 
 BRR  HZ EP       1158 59.42                             158    0.6710 62.2 296 
 BRR  HZ I        1158 59.58        10.1 0.28            154           62.2 296 
 BRR  HN ES       1159 16.53                             158    0.4410 62.2 296 
 PTB  HZ EP       1159  4.10                             136   -0.14 9  143 256 
 PTB  HN ES       1159 25.53                             136   -0.33 9  143 256 
 PTB  HZ I        1159 30.42         2.1 0.30            135            143 256 
 CAPV BZ ES       1159 27.06                             135   -0.14 9  148  42 
 SML  HZ EP       1159 13.65                             121    0.63 8  235 336 
 SML  HN ES       1159 40.78                             121   -0.71 8  235 336 
 SML  HZ I        1159 45.70         5.3 0.10            121            235 336 
                                                                                
