 2013  423 1820  7.2 L   6.777 -73.154146.7  RSN  6 0.4 1.8LRSN                1
 GAP=137        0.84       5.4     5.2  7.4 -0.2632E+01  0.3948E+01  0.7096E+01E
 Epicentro: LOS SANTOS - SANTANDER                                             3
 ACTION:UPD 13-05-22 14:40 OP:EP   STATUS:               ID:20130423182007 L   I
 2013-04-23-1820-00M.COL___249                                                 6
 STAT SP IPHASW D HRMM SECON CODA AMPLIT PERI AZIMU VELO AIN AR TRES W  DIS CAZ7
 BAR2 SZ EP       1820 26.91                             172   -0.0210 20.6 189 
 BAR2 SZ I        1820 42.98        18.3 0.10            171           20.6 189 
 GIR2 SZ IP     D 1820 27.02                             166   -0.0710 33.7 353 
 GIR2 SZ ES   1   1820 42.22                             166   -0.35 7 33.7 353 
 GIR2 SZ I        1820 43.20        11.2 0.14            166           33.7 353 
 BRR  HZ IP     C 1820 28.77                             152    0.2510 71.7 301 
 BRR  HZ EP       1820 28.85                             152    0.3310 71.7 301 
 BRR  HN ES   1   1820 45.82                             152    0.71 7 71.7 301 
 BRR  HZ I        1820 55.54        16.4 0.30            151           71.7 301 
 PAM  SZ IP     C 1820 29.84                             150    0.1310 79.9  39 
 PAM  SN ES   1   1820 46.69                             150   -0.54 7 79.9  39 
 PAM  SZ I        1820 48.36         9.7 0.42            153           79.9  39 
 RUS  HZ EP       1820 31.03                             145    0.1210 98.1 175 
 RUS  HN ES   1   1820 49.52                             145    0.16 7 98.1 175 
 RUS  HZ I        1820 50.36         5.3 0.24            146           98.1 175 
 PTB  HZ EP       1820 33.54                             132   -0.62 9  146 260 
 PTB  HN ES   1   1820 54.80                             132   -0.36 7  146 260 
 PTB  HZ I        1820 57.35         7.2 0.30            132            146 260 
                                                                                
