 2011  823 1011  2.8 L   6.809 -73.060138.8  RSN  6 0.3 1.9LRSN                1
 GAP=192        0.66       3.2     8.6  5.6  0.4988E+01 -0.3019E+00  0.1394E+01E
 Epicentro: LOS SANTOS - SANTANDER                                             3
 ACTION:UPD 12-07-13 15:53 OP:ep   STATUS:               ID:20110823101102 L   I
 2011-08-23-1009-07S.COL___158                                                 6
 STAT SP IPHASW D HRMM SECON CODA AMPLIT PERI AZIMU VELO AIN AR TRES W  DIS CAZ7
 BAR2 SZ EP       1011 21.90                             168    0.2010 27.5 210 
 BAR2 SZ ES   1   1011 35.88                             168   -0.55 7 27.5 210 
 BAR2 SZ I        1011 38.15        13.2 0.24                          27.5 210 
 BRR  HZ EP       1011 23.95                             148    0.2410 79.3 295 
 BRR  HZ I        1011 24.20        15.1 0.12                          79.3 295 
 BRR  HN ES   1   1011 40.24                             148    0.24 7 79.3 295 
 RUS  HZ EP   1   1011 25.97                             142    0.03 7  101 181 
 RUS  HN ES   1   1011 44.27                             142    0.29 7  101 181 
 RUS  HZ I        1011 47.34         4.9 0.28                           101 181 
 OCA  SZ EP   1   1011 30.30                             128   -0.34 7  161 350 
 OCA  SZ ES   1   1011 52.10                             128   -0.24 7  161 350 
 CHI  HZ EP   1   1011 40.20                             115   -0.33 6  252 197 
 PRA  HZ EP   1   1011 57.24                             105    0.48 4  398 211 
 PRA  HN ES   1   1012 38.09                             105   -0.75 4  398 211 
 PRA  HZ I        1012 44.65        13.2 0.24                           398 211 
                                                                                
