 2012 1023 1408 38.2 L   6.791 -73.103138.1  RSN  5 0.3 2.0LRSN                1
 GAP=142        0.73       3.7     4.4  5.8  0.2031E+01  0.1769E+01  0.7188E-01E
 Epicentro: LOS SANTOS - SANTANDER                                             3
 ACTION:UPD 12-11-22 17:05 OP:ep   STATUS:               ID:20121023140838 L   I
 2012-10-23-1400-00M.COL___231                                                 6
 STAT SP IPHASW D HRMM SECON CODA AMPLIT PERI AZIMU VELO AIN AR TRES W  DIS CAZ7
 BAR2 SZ EP       14 8 56.80                             170   -0.0910 23.6 202 
 BAR2 SZ ES       14 9 11.03                             170   -0.4510 23.6 202 
 BAR2 SZ I        14 9 13.25        43.7 0.16                          23.6 202 
 PAM  SZ EP       14 8 59.69                             150    0.2410 75.3  36 
 PAM  SE ES       14 9 16.00                             150   -0.0410 75.3  36 
 PAM  SZ I        14 9 18.74        22.7 0.49                          75.3  36 
 BRR  HZ EP       14 8 58.80                             149    0.0210 75.8 298 
 BRR  HN ES       14 9 15.11                             149    0.2710 75.8 298 
 BRR  HZ I        14 9 17.39        17.5 0.15                          75.8 298 
 RUS  HZ EP       14 9  0.79                             142   -0.3010 99.3 179 
 RUS  HE ES       14 9 19.38                             142    0.4310 99.3 179 
 RUS  HE I        14 9 21.08        16.9 0.31                          99.3 179 
 ZAR  HN ES   1   14 9 35.75                             120   -0.19 6  209 292 
 ZAR  HZ I        14 9 40.63         8.5 0.19                           209 292 
                                                                                
