 2015 1123 1310 51.4 L   6.845 -73.123146.9  RSN  6 0.3 2.0LRSN                1
 GAP=153        0.73       4.9     4.0  5.4  0.2272E+01  0.5517E+01 -0.8149E+01E
 Epicentro: LOS SANTOS - SANTANDER                                             3
 ACTION:UPD 15-12-28 16:13 OP:cam  STATUS:               ID:20151123131051 L   I
 OLDACT:REG 15-11-23 21:13 OP:ak   STATUS:               ID:20151123130750     3
 2015-11-23-1307-50M.COL___211                                                 6
 STAT SP IPHASW D HRMM SECON CODA AMPLIT PERI AZIMU VELO AIN AR TRES W  DIS CAZ7
 BAR2 EZ EP       1311 11.19                             168   -0.1210 28.7 193 
 BAR2 EZ ES       1311 26.46                             168   -0.3610 28.7 193 
 BAR2 EZ I        1311 27.80        14.4 0.18            169           28.7 193 
 BRR  HZ EP       1311 13.04                             153    0.3510 71.2 294 
 BRR  HN ES       1311 29.64                             153    0.3510 71.2 294 
 BRR  HZ I        1311 33.83        18.1 0.10            150           71.2 294 
 PAM  EZ EP       1311 13.78                             153    0.3410 72.0  41 
 PAM  EN ES       1311 30.51                             153   -0.1110 72.0  41 
 PAM  EZ I        1311 32.48        17.5 0.20            156           72.0  41 
 ZAR  HZ EP       1311 24.04                             122    0.05 9  205 291 
 ZAR  HN ES       1311 49.23                             122   -0.17 9  205 291 
 ZAR  HZ I        1311 56.43        13.0 0.30            124            205 291 
 SML  HZ EP       1311 27.23                             118   -0.51 8  240 334 
 SML  HN ES       1311 56.02                             118   -0.05 8  240 334 
 SJC  HZ EP   4   1311 44.76                             106   -1.93 0  406 326 
 SJC  HN ES   4   1312 26.37                             106   -3.44 0  406 326 
 SJC  HZ I        1312 30.33         2.2 0.72            108            406 326 
                                                                                
