 2011  223 1938  3.4 L   6.781 -73.109146.2  RSN  4 0.2 1.3LRSN                1
 GAP=228        0.42       4.8    15.4  5.3 -0.1512E+02 -0.1386E+02  0.1605E+02E
 Epicentro: LOS SANTOS - SANTANDER                                             3
 ACTION:UP  11-03-28 15:10 OP:jfem STATUS:               ID:20110223193803 L   I
 2011-02-23-1937-26S.COL___137                                                 6
 STAT SP IPHASW D HRMM SECON CODA AMPLIT PERI AZIMU VELO SNR AR TRES W  DIS CAZ7
 BAR2 SZ ES   2   1938 38.14                             171    -0.3 5   23 202 
 BAR2 SZ I        1938 39.45         6.2 0.25                            23 202 
 BTL  SZ EP       1938 23.26                             170     0.210   23 311 
 BTL  SZ ES   1   1938 38.45                             170     0.0 7   23 311 
 RUS  HZ EP       1938 27.03                             145     0.010   98 178 
 RUS  HN ES   3   1938 45.70                             145     0.2 2   98 178 
 RUS  HZ I        1938 47.26         2.3 0.48                            98 178 
 CHI  HZ EP       1938 40.87                             117    -0.2 8  248 196 
 CHI  HZ I        1938 41.31         1.4 0.49                           248 196 
 CHI  HN ES   2   1939 10.62                             117     0.2 4  248 196 
                                                                                
