 2016  523 1434 46.0 L   6.792 -73.139146.2  RSN  5 0.4 1.7LRSN                1
 GAP=253        0.83       6.2     6.7  7.8  0.1150E+02  0.1760E+02  0.5251E+01E
 Epicentro: LOS SANTOS - SANTANDER                                             3
 ACTION:UPD 16-08-18 17:48 OP:cam  STATUS:               ID:20160523143446 L   I
 OLDACT:REG 16-05-23 21:03 OP:dnl  STATUS:               ID:20160523142746     3
 2016-05-23-1427-46M.COL___298                                                 6
 STAT SP IPHASW D HRMM SECON CODA AMPLIT PERI AZIMU VELO AIN AR TRES W  DIS CAZ7
 BAR2 EZ EP   2   1435  5.75                             171    0.06 5 22.6 192 
 BAR2 EZ ES       1435 20.84                             171   -0.2010 22.6 192 
 BAR2 EZ I        1435 22.17        15.2 0.16            159           22.6 192 
 BRR  HZ EP   2   1435  7.67                             152    0.39 5 72.3 299 
 BRR  HN ES   2   1435 24.36                             152    0.50 5 72.3 299 
 PTB  HZ EP       1435 12.53                             132   -0.55 9  148 259 
 PTB  HE ES       1435 33.75                             132   -0.43 9  148 259 
 PTB  HZ I        1435 39.97         3.4 0.18            130            148 259 
 SPBC HZ EP       1435 14.77                             129    0.24 9  163 219 
 SPBC HE ES       1435 37.16                             129    0.39 9  163 219 
 SPBC HZ I        1435 43.88         7.1 0.30            126            163 219 
 ZAR  HZ I        1435 40.67         6.2 0.10            124            205 292 
 ZAR  HE ES       1435 44.41                             122    0.40 9  205 292 
                                                                                
