 2017  123 1158 59.5 L   6.767 -73.119146.0  RSN  6 0.3 1.7LRSN                1
 GAP=141        0.73       3.8     3.7  5.7 -0.4872E+00  0.1382E+01  0.4099E+00E
 Epicentro: LOS SANTOS - SANTANDER                                             3
 ACTION:UPD 17-05-22 16:02 OP:jn   STATUS:               ID:20170123115859 L   I
 OLDACT:REG 17-01-23 20:21 OP:dnl  STATUS:               ID:20170123115740     3
 2017-01-23-1158-00M.COL___343                                                 6
 STAT SP IPHASW D HRMM SECON CODA AMPLIT PERI AZIMU VELO AIN AR TRES W  DIS CAZ7
 BAR2 EZ IP     C 1159 19.06                             172   -0.0710 20.6 200 
 BAR2 EZ ES       1159 33.98                             172   -0.4510 20.6 200 
 BAR2 EZ I        1159 35.40        22.5 0.24            171           20.6 200 
 BRR  HZ EP       1159 21.19                             151    0.2410 75.5 300 
 BRR  HE ES       1159 38.02                             151    0.3610 75.5 300 
 BRR  HZ I        1159 38.97        11.0 0.18            149           75.5 300 
 PAM  EZ EP     C 1159 21.99                             150    0.1610 78.4  36 
 PAM  EN ES       1159 39.06                             150   -0.1710 78.4  36 
 PAM  EZ I        1159 39.62         6.5 0.20            151           78.4  36 
 RUS  HZ IP     C 1159 23.07                             145    0.0410 96.8 178 
 RUS  HN ES       1159 41.63                             145    0.2610 96.8 178 
 RUS  HZ I        1159 43.04         4.4 0.22            146           96.8 178 
 PTB  HZ EP   2   1159 25.69                             131   -1.03 5  150 260 
 PTB  HE ES       1159 47.83                             131   -0.10 9  150 260 
 PTB  HZ I        1159 48.74         6.2 0.44            131            150 260 
 ZAR  HZ EP   4   1159 29.91                             122   -2.50 0  208 293 
 ZAR  HE ES   2   1159 57.73                             122   -0.33 4  208 293 
 ZAR  HZ I        12 0  3.16         5.4 0.18            121            208 293 
                                                                                
