 2013  323 1956  3.9 L   6.814 -73.148146.0  RSN 15 0.4 3.3LRSN 3.5WRSN        1
 SPEC AVERAGE  MO 14.3 ST 17.2 OM  2.7 f0 3.42 R0.4779 AL 2.48 WI 30.1 MW  3.5 3
 SPEC SD       MO  0.2 ST 20.7 OM  0.4 f0 1.12 R0.1542 AL      WI      MW  0.2 3
 GAP= 83        1.00       2.8     3.2  4.8 -0.1139E+01  0.2798E+01  0.2624E+01E
 Epicentro: LOS SANTOS - SANTANDER                                             3
 SPEC ZAR HH N MO 14.2 ST 10.6 OM  2.4 f0 3.66 R0.4016 AL 1.91 WI 27.5 MW  3.4 3
 SPEC ZAR HH N T195658 K 0.000 GD  250 VS 4.20 DE 3.20 Q0300.0 QA 0.60 VS 4.20 3
 SPEC TAM HH N MO 14.3 ST  2.3 OM  2.6 f0 1.99 R0.7387 AL 2.22 WI 21.9 MW  3.5 3
 SPEC TAM HH N T195651 K 0.000 GD  213 VS 4.20 DE 3.20 Q0300.0 QA 0.60 VS 4.20 3
 SPEC PTB HH N MO 14.2 ST  6.7 OM  2.5 f0 3.10 R0.4742 AL 1.94 WI 25.5 MW  3.4 3
 SPEC PTB HH N T195648 K 0.000 GD  207 VS 4.20 DE 3.20 Q0300.0 QA 0.60 VS 4.20 3
 SPEC PRA HH N MO 14.1 ST  2.1 OM  2.1 f0 2.27 R0.6476 AL 1.67 WI 29.7 MW  3.4 3
 SPEC PRA HH N T195734 K 0.000 GD  419 VS 4.20 DE 3.20 Q0300.0 QA 0.60 VS 4.20 3
 SPEC HEL HH N MO 13.9 ST  2.8 OM  2.0 f0 2.98 R0.4933 AL 2.46 WI 48.9 MW  3.2 3
 SPEC HEL HH N T1957 9 K 0.000 GD  308 VS 4.20 DE 3.20 Q0300.0 QA 0.60 VS 4.20 3
 SPEC NOR HH N MO 14.4 ST 68.3 OM  2.6 f0 5.65 R0.2602 AL 3.95 WI 36.8 MW  3.6 3
 SPEC NOR HH N T1957 4 K 0.000 GD  276 VS 4.20 DE 3.20 Q0300.0 QA 0.60 VS 4.20 3
 SPEC OCA HH N MO 14.8 ST 41.5 OM  3.1 f0 3.54 R0.4153 AL 2.29 WI 22.9 MW  3.8 3
 SPEC OCA HH N T195652 K 0.000 GD  215 VS 4.20 DE 3.20 Q0300.0 QA 0.60 VS 4.20 3
 SPEC PAM SH N MO 14.4 ST  3.6 OM  2.8 f0 2.16 R0.6806 AL 2.66 WI 21.3 MW  3.6 3
 SPEC PAM SH N T195642 K 0.000 GD  164 VS 4.20 DE 3.20 Q0300.0 QA 0.60 VS 4.20 3
 SPEC CHI HH N MO 14.1 ST 11.1 OM  2.2 f0 4.13 R0.3559 AL 3.25 WI 35.4 MW  3.3 3
 SPEC CHI HH N T1957 8 K 0.000 GD  289 VS 4.20 DE 3.20 Q0300.0 QA 0.60 VS 4.20 3
 SPEC BRR HH N MO 14.2 ST 23.3 OM  2.6 f0 4.72 R0.3114 AL 2.49 WI 30.9 MW  3.4 3
 SPEC BRR HH N T195639 K 0.000 GD  162 VS 4.20 DE 3.20 Q0300.0 QA 0.60 VS 4.20 3
 ACTION:UPD 13-04-09 14:04 OP:ep   STATUS:               ID:20130323195603 L   I
 2013-03-23-1950-00M.COL___245                                                 6
 STAT SP IPHASW D HRMM SECON CODA AMPLIT PERI AZIMU VELO AIN AR TRES W  DIS CAZ7
 BAR2 SZ EP       1956 23.57                             170   -0.0210 24.8 189 
 BAR2 SZ ES       1956 38.43                             170   -0.5210 24.8 189 
 BAR2 SZ I        1956 39.67       387.8 0.46            166           24.8 189 
 BRR  HZ EP       1956 25.57                             153    0.5510 70.2 298 
 BRR  HN ES       1956 41.97                             153    0.4710 70.2 298 
 BRR  HN I        1956 46.13       323.8 0.16            155           70.2 298 
 PAM  SZ EP       1956 26.50                             151    0.4110 76.4  40 
 PAM  SN ES       1956 43.36                             151   -0.0310 76.4  40 
 PAM  SN I        1956 44.64       514.8 0.46            150           76.4  40 
 PTB  HZ EP       1956 30.62                             132   -0.27 9  148 258 
 PTB  HN ES       1956 51.55                             132   -0.39 9  148 258 
 PTB  HN I        1956 53.75       364.8 0.28            131            148 258 
 TAM  HZ EP       1956 31.97                             130    0.30 9  156 105 
 TAM  HN I        1956 53.89       337.2 0.56            127            156 105 
 OCA  HZ EP       1956 32.01                             130   -0.08 9  159 353 
 OCA  HN ES       1956 53.62                             130   -0.45 9  159 353 
 OCA  HN I        1956 57.22      1222.3 0.38            130            159 353 
 ZAR  HZ EP       1956 36.76                             122    0.48 9  203 292 
 ZAR  HN ES       1957  2.30                             122    0.77 9  203 292 
 ZAR  HN I        1957  5.25       233.1 0.12            122            203 292 
 NOR  HZ EP       1956 39.91                             118    0.19 8  235 234 
 NOR  HN ES       1957  8.02                             118    0.37 8  235 234 
 NOR  HN I        1957 16.25       198.9 0.14            117            235 234 
 SML  HZ EP       1956 40.10                             117   -0.28 8  242 335 
 SML  HN ES       1957  8.14                             117   -0.69 8  242 335 
 SML  HN I        1957 12.30       233.9 0.28            117            242 335 
 CHI  HZ EP       1956 41.89                             117    0.12 8  250 195 
 CHI  HN ES       1957 10.77                             117   -0.53 8  250 195 
 CHI  HN I        1957 18.43        61.9 0.60            115            250 195 
 HEL  HZ EP       1956 44.24                             115    0.10 8  272 255 
 HEL  HN ES       1957 14.81                             115   -0.71 8  272 255 
 HEL  HN I        1957 23.47        37.0 0.50            114            272 255 
 VIL  SZ EP       1956 47.53                             112    0.04 7  305 191 
 VIL  SN ES   4   1957 17.08                             112   -4.41 0  305 191 
 VIL  SN I        1957 29.16       157.3 0.46            110            305 191 
 DBB  SZ EP       1956 51.95                             109    0.61 7  339 274 
 DBB  SZ ES       1957 28.48                             109    0.14 7  339 274 
 DBB  SZ I        1957 32.36        45.8 0.42            108            339 274 
 PRA  HZ EP       1956 57.53                             106   -0.04 6  393 209 
 PRA  HN ES       1957 39.01                             106   -0.42 6  393 209 
 PRA  HN I        1957 44.44        28.3 0.32            105            393 209 
 SJC  HZ EP       1956 58.20                             106   -1.11 6  408 327 
 SJC  HN ES   4   1957 39.24                             106   -3.28 0  408 327 
 SJC  HN I        1957 43.17        80.3 0.48            105            408 327 
                                                                                
