 2012 1223 1044 43.8 L   6.803 -73.177146.4  RSN  5 0.3 1.2LRSN                1
 GAP=178        0.57       5.7     5.6  7.7  0.1368E+02  0.2363E+02  0.7009E+01E
 Epicentro: LOS SANTOS - SANTANDER                                             3
 ACTION:UPD 13-01-04 14:29 OP:ep   STATUS:               ID:20121223104443 L   I
 2012-12-23-1040-00M.COL___243                                                 6
 STAT SP IPHASW D HRMM SECON CODA AMPLIT PERI AZIMU VELO AIN AR TRES W  DIS CAZ7
 BAR2 SZ EP   1   1045  3.16                             171   -0.35 7 23.3 182 
 BAR2 SZ ES   1   1045 18.54                             171   -0.34 7 23.3 182 
 BAR2 SZ I        1045 20.10         5.4 0.26                          23.3 182 
 GIR2 SZ ES   1   1045 19.22                             168    0.29 7 30.6 356 
 RUS  HN ES   1   1045 26.58                             144    0.31 7  101 174 
 RUS  HZ I        1045 27.75         1.9 0.28                           101 174 
 PTB  HZ EP   1   1045 10.72                             133    0.19 7  144 258 
 PTB  HN ES   1   1045 31.21                             133   -0.16 7  144 258 
 PTB  HZ I        1045 32.63         1.6 0.26                           144 258 
 ZAR  HN ES   1   1045 41.13                             123    0.10 6  201 292 
                                                                                
