 2012 1123 1216 56.8 L   6.728 -73.216150.1  RSN  4 0.1 1.7LRSN                1
 GAP=265        0.35       4.5     3.5  3.5  0.7671E+01  0.2094E+01  0.1418E+00E
 Epicentro: VILLANUEVA - SANTANDER                                             3
 ACTION:UPD 12-12-05 15:35 OP:}ep  STATUS:               ID:20121123121656 L   I
 2012-11-23-1210-00M.COL___233                                                 6
 STAT SP IPHASW D HRMM SECON CODA AMPLIT PERI AZIMU VELO AIN AR TRES W  DIS CAZ7
 BAR2 SZ EP   1   1217 16.67                             174   -0.16 7 15.5 166 
 BAR2 SZ ES   1   1217 32.57                             174    0.12 7 15.5 166 
 BAR2 SZ I        1217 33.23        13.5 0.32                          15.5 166 
 RUS  HZ EP       1217 20.46                             147   -0.0510 93.6 171 
 RUS  HE ES       1217 38.99                             147    0.0010 93.6 171 
 RUS  HE I        1217 40.37         9.3 0.58                          93.6 171 
 PTB  HZ EP   1   1217 23.54                             135    0.20 7  139 261 
 PTB  HN ES   1   1217 43.92                             135   -0.12 7  139 261 
 PTB  HZ I        1217 46.54         7.6 0.14                           139 261 
 CHI  HZ EP   1   1217 33.78                             119    0.06 6  239 194 
 CHI  HZ I        1218  9.95         2.0 0.34                           239 194 
                                                                                
