 2014 1123 1153 10.8 L   6.793 -73.082152.0  RSN 14 0.5 1.9LRSN                1
 GAP=145        1.23       3.8     4.6  6.6 -0.3443E+01  0.8320E+01  0.7296E+01E
 Epicentro: LOS SANTOS - SANTANDER                                             3
 ACTION:UPD 14-12-19 15:46 OP:nd   STATUS:               ID:20141123115310 L   I
 OLDACT:REG 14-11-23 22:41 OP:fm   STATUS:               ID:20141123114744     3
 2014-11-23-1147-44M.COL___297                                                 6
 STAT SP IPHASW D HRMM SECON CODA AMPLIT PERI AZIMU VELO AIN AR TRES W  DIS CAZ7
 BAR2 SZ EP       1153 31.28                             170    0.0310 24.8 206 
 BAR2 SZ ES       1153 47.45                             170    0.2810 24.8 206 
 BAR2 SZ I        1153 49.55        16.4 0.28            168           24.8 206 
 PAM  SZ EP       1153 34.62                             153    1.1010 73.8  35 
 PAM  SN ES       1153 51.29                             153    0.0810 73.8  35 
 PAM  SZ I        1153 54.01        11.1 0.18            157           73.8  35 
 BRR  HZ EP       1153 32.20                             151   -0.8410 77.7 297 
 BRR  HN ES       1153 51.15                             151    0.8010 77.7 297 
 BRR  HZ I        1153 53.93        10.3 0.14            149           77.7 297 
 RUS  HZ EP       1153 34.48                             145   -0.6610 99.6 180 
 RUS  HN ES       1153 53.63                             145   -0.4610 99.6 180 
 RUS  HZ I        1153 55.66         5.2 0.28            148           99.6 180 
 PTB  HZ EP       1153 38.02                             132   -0.91 9  154 260 
 PTB  HE ES       1154  0.60                             132   -0.24 9  154 260 
 PTB  HZ I        1154  7.22        12.7 0.50            132            154 260 
 OCA  HE ES       1154  1.81                             131   -0.59 9  162 351 
 OCA  HZ I        1154  6.12         7.3 0.14            133            162 351 
 SPBC HZ EP       1153 40.49                             130    0.30 9  167 221 
 SPBC HN ES       1154  3.11                             130    0.03 9  167 221 
 SPBC HZ I        1154  8.65        15.6 0.12            131            167 221 
 ZAR  HN ES       1154 10.30                             123   -0.26 8  211 292 
 ZAR  HZ I        1154 19.80         7.4 0.44            123            211 292 
 NOR  HZ EP       1153 47.83                             119    0.33 8  240 236 
 NOR  HE ES       1154 15.95                             119   -0.15 8  240 236 
 NOR  HZ I        1154 19.50         8.1 0.20            120            240 236 
 CHI  HZ EP       1153 49.18                             118    0.16 8  250 197 
 CHI  HN ES       1154 18.67                             118   -0.13 8  250 197 
 CHI  HZ I        1154 23.92         2.1 0.24            120            250 197 
 HEL  HN ES       1154 24.90                             115    0.61 7  279 256 
 HEL  HZ I        1154 30.01         3.2 0.30            116            279 256 
 GUY2CHZ EP       1153 55.46                             113    0.12 7  306 236 
 GUY2CHE ES       1154 30.15                             113    0.10 7  306 236 
 GUY2CHZ I        1154 38.52         4.8 0.32                           306 236 
 RREF HZ EP       1153 57.96                             112    0.15 7  327 230 
 RREF HN ES       1154 34.54                             112    0.10 7  327 230 
 RREF HZ I        1154 40.45         3.9 0.24            113            327 230 
 TOL  SZ EP       1154  0.48                             110    0.62 6  348 226 
 TOL  SN ES       1154 38.38                             110    0.29 6  348 226 
 TOL  SZ I        1154 45.84         7.8 0.28            112            348 226 
                                                                                
