 2011  523 1055  6.1 L   6.824 -73.049133.0  RSN  7 0.2 1.5LRSN                1
 GAP=148        0.59       3.2     5.9  6.1 -0.3411E+01 -0.6824E+01 -0.1848E+01E
 Epicentro: LOS SANTOS - SANTANDER                                             3
 ACTION:UP  11-06-29 08:55 OP:tino STATUS:               ID:20110523105506 L   I
 2011-05-23-1054-16S.COL___141                                                 6
 STAT SP IPHASW D HRMM SECON CODA AMPLIT PERI AZIMU VELO SNR AR TRES W  DIS CAZ7
 BTL  SZ EP       1055 24.29                             168     0.110   26 293 
 BAR2 SZ ES   1   1055 38.38                             167    -0.2 7   30 210 
 BAR2 SZ I        1055 39.74         7.3 0.09                            30 210 
 GIR2 SZ EP   1   1055 24.08                             165    -0.2 7   32 330 
 PAM  SZ EP   1   1055 26.36                             151     0.0 7   69  34 
 PAM  SE ES   2   1055 42.57                             151     0.3 5   69  34 
 BRR  HZ EP   1   1055 25.93                             147    -0.4 7   80 293 
 BRR  HE ES   1   1055 42.54                             147     0.3 7   80 293 
 BRR  HZ I        1055 44.76        10.4 0.43                            80 293 
 RUS  HZ EP   1   1055 29.04                             140     0.3 7  103 182 
 RUS  HE ES   1   1055 46.36                             140    -0.1 7  103 182 
 RUS  HZ I        1055 47.34         3.5 0.40                           103 182 
 GRA  SZ EP   1   1055 29.99                             135     0.3 7  120  13 
 GRA  SZ ES   1   1055 47.95                             135    -0.2 7  120  13 
 GRA  SZ I        1055 50.76         3.8 0.39                           120  13 
                                                                                
