 2011  223 1153  0.8 L   6.851 -72.914134.1  RSN  5 0.4 1.4LRSN                1
 GAP=184        0.67       4.4    19.0  9.5 -0.4068E+02 -0.8292E+02  0.1227E+02E
 Epicentro: GUACA - SANTANDER                                                  3
 ACTION:UP  11-03-28 15:10 OP:jfem STATUS:               ID:20110223115300 L   I
 2011-02-23-1151-21S.COL___136                                                 6
 STAT SP IPHASW D HRMM SECON CODA AMPLIT PERI AZIMU VELO SNR AR TRES W  DIS CAZ7
 BTL  SZ EP       1153 19.59                             162     0.110   40 281 
 BTL  SZ ES   2   1153 34.42                             162     0.3 5   40 281 
 GIR2 SZ EP   2   1153 18.73                             162    -0.6 5   40 309 
 GIR2 SZ ES   3   1153 34.35                             162     0.5 2   40 309 
 BAR2 SZ ES   2   1153 33.85                             162    -0.4 5   41 226 
 BAR2 SZ I        1153 35.76         8.6 0.49                            41 226 
 RUS  HZ EP       1153 23.86                             139    -0.110  108 190 
 RUS  HN ES   1   1153 42.24                             139     0.2 7  108 190 
 RUS  HZ I        1153 44.39         2.1 0.34                           108 190 
 GRA  SZ EP   2   1153 24.93                             137     0.8 5  115   6 
 GRA  SZ ES   1   1153 42.10                             137    -0.2 7  115   6 
 GRA  SZ I        1153 47.49         5.3 0.32                           115   6 
                                                                                
