 2011  923 1739 57.3 L   6.804 -73.076140.0  RSN  8 0.5 2.0LRSN                1
 GAP=145        1.05       5.5     7.8  9.1 -0.2211E+01  0.1369E+01  0.1554E+01E
 Epicentro: LOS SANTOS - SANTANDER                                             3
 ACTION:UPD 12-07-13 15:59 OP:ep   STATUS:               ID:20110923173957 L   I
 2011-09-23-1738-23S.COL___165                                                 6
 STAT SP IPHASW D HRMM SECON CODA AMPLIT PERI AZIMU VELO AIN AR TRES W  DIS CAZ7
 BTL  SZ EP       1740 16.40                             169    0.1710 24.6 301 
 BAR2 SZ EP       1740 16.13                             169   -0.1310 26.2 207 
 BAR2 SZ ES   1   1740 30.88                             169   -0.20 7 26.2 207 
 BAR2 SZ I        1740 32.20        17.4 0.18                          26.2 207 
 PAM  SZ EP       1740 19.23                             151    0.6610 72.4  35 
 BRR  HZ EP       1740 18.00                             149   -0.1910 77.8 296 
 BRR  HN ES   1   1740 35.01                             149    0.50 7 77.8 296 
 BRR  HZ I        1740 36.10        27.0 0.22                          77.8 296 
 RUS  HZ EP       1740 19.88                             142   -0.5910  101 180 
 RUS  HE ES   3   1740 38.48                             142   -0.08 2  101 180 
 OCA  SZ EP       1740 24.83                             128   -0.36 9  161 350 
 OCA  SZ ES   1   1740 46.69                             128   -0.29 7  161 350 
 OCA  SZ I        1740 50.06        15.2 0.43                           161 350 
 ZAR  HZ EP   2   1740 29.44                             120   -0.63 4  211 291 
 ZAR  HN ES   2   1740 55.06                             120   -0.60 4  211 291 
 ZAR  HZ I        1741  3.02        10.1 0.30                           211 291 
 NOR  SZ EP       1740 34.44                             116    1.07 8  241 235 
 NOR  SE ES   2   1741  0.85                             116   -0.69 4  241 235 
                                                                                
