 2011  723 1906 21.8 L   6.212 -73.847 96.6  RSN  9 0.2 2.0LRSN                1
 GAP=131        0.44       2.5     2.7  5.3 -0.2329E+01  0.1126E+01 -0.2254E+01E
 Epicentro: LANDAZURI - SANTANDER                                              3
 ACTION:UPD 12-07-25 14:02 OP:epov STATUS:               ID:20110723190621 L   I
 2011-07-23-1902-35S.COL___143                                                 6
 STAT SP IPHASW D HRMM SECON CODA AMPLIT PERI AZIMU VELO AIN AR TRES W  DIS CAZ7
 BAR2 SZ EP   1   19 6 39.56                             136    0.18 7 84.7  60 
 BAR2 SZ ES   1   19 6 53.04                             136   -0.03 7 84.7  60 
 BAR2 SZ I        19 6 55.25        43.3 0.39                          84.7  60 
 RUS  HZ EP   1   19 6 40.17                             134   -0.17 7 91.6 113 
 RUS  HN ES   2   19 6 54.57                             134   -0.20 5 91.6 113 
 RUS  HZ I        19 6 55.85        13.1 0.20                          91.6 113 
 BRR  HZ EP   1   19 6 40.51                             131    0.06 7  100   9 
 BRR  HZ I        19 6 40.68        35.6 0.12                           100   9 
 BRR  HE ES   1   19 6 55.12                             131    0.15 7  100   9 
 BTL  SZ EP   1   19 6 41.14                             131    0.28 7  101  39 
 GIR2 SZ EP   1   19 6 42.62                             125    0.04 7  120  37 
 NOR  SN ES   1   19 7  1.05                             122   -0.08 7  134 238 
 PAM  SZ EP   1   19 6 49.15                             114   -0.09 7  178  45 
 BRI  SZ EP   1   19 6 51.87                             111    0.17 6  203  35 
 BRI  SZ I        19 7 22.87         7.2 0.30                           203  35 
 OCA  SZ ES   1   19 7 20.29                             108   -0.60 6  232  15 
                                                                                
