 2011 1123 1259  0.7 L   6.793 -73.145148.2  RSN  6 0.4 2.1LRSN                1
 GAP=137        0.72       4.8     5.0  6.7  0.3450E+01  0.5036E+01 -0.8006E+00E
 Epicentro: LOS SANTOS - SANTANDER                                             3
 ACTION:UPD 12-07-13 16:11 OP:ep   STATUS:               ID:20111123125900 L   I
 2011-11-23-1256-28S.COL___178                                                 6
 STAT SP IPHASW D HRMM SECON CODA AMPLIT PERI AZIMU VELO AIN AR TRES W  DIS CAZ7
 BAR2 SZ EP   1   1259 20.48                             171   -0.09 7 22.6 190 
 BAR2 SZ ES   1   1259 35.72                             171   -0.38 7 22.6 190 
 BAR2 SZ I        1259 37.53        30.8 0.34                          22.6 190 
 BRR  HZ EP   1   1259 22.34                             153    0.24 7 71.6 299 
 BRR  HE ES   1   1259 39.59                             153    0.77 7 71.6 299 
 BRR  HZ I        1259 42.43        34.2 0.36                          71.6 299 
 PAM  SZ EP       1259 23.22                             151    0.0510 77.9  39 
 PAM  SN ES   1   1259 40.63                             151   -0.10 7 77.9  39 
 PAM  SZ I        1259 42.60         9.1 0.53                          77.9  39 
 RUS  HZ EP   1   1259 24.58                             145   -0.02 7 99.8 176 
 RUS  HE ES   1   1259 43.25                             145   -0.02 7 99.8 176 
 RUS  HZ I        1259 44.84        14.5 0.30                          99.8 176 
 ZAR  HZ EP   2   1259 32.66                             123   -0.65 4  204 292 
 ZAR  HN ES   1   1259 58.18                             123   -0.58 6  204 292 
 ZAR  HZ I        13 0  4.13        17.6 0.42                           204 292 
 RREF HZ EP   2   1259 47.60                             111    0.73 3  321 229 
                                                                                
