 2016  223 1257 35.3 L   6.805 -73.122142.0  RSN 14 0.5 2.3LRSN                1
 GAP=139        1.22       4.1     4.7  6.4 -0.1551E+01  0.1031E+02  0.3581E+01E
 Epicentro: LOS SANTOS - SANTANDER                                             3
 ACTION:UPD 16-03-04 21:28 OP:rebc STATUS:               ID:20160223125735 L   I
 OLDACT:UP  16-02-23 23:36 OP:drio STATUS:               ID:20160223124748     3
 OLDACT:UP  16-02-23 23:36 OP:drio STATUS:               ID:20160223124748     3
 OLDACT:REG 16-02-23 20:26 OP:drio STATUS:               ID:20160223124748     3
 2016-02-23-1247-48M.COL___321                                                 6
 STAT SP IPHASW D HRMM SECON CODA AMPLIT PERI AZIMU VELO AIN AR TRES W  DIS CAZ7
 BAR2 EZ IP     D 1257 54.41                             170   -0.0810 24.5 196 
 BAR2 EZ ES       1258  9.18                             170   -0.2910 24.5 196 
 BAR2 EZ I        1258 10.80        43.2 0.62            167           24.5 196 
 BRR  HZ EP     D 1257 56.20                             151    0.0410 73.3 297 
 BRR  HE ES       1258 13.16                             151    0.7310 73.3 297 
 BRR  HZ I        1258 16.16        52.7 0.38            148           73.3 297 
 PAM  EZ EP       1257 57.21                             151    0.2310 75.3  38 
 PAM  EN ES       1258 13.79                             151   -0.1110 75.3  38 
 PAM  EZ I        1258 16.15        30.0 0.40            155           75.3  38 
 RUS  HZ EP       1257 58.52                             143   -0.1810  101 178 
 RUS  HN ES       1258 17.55                             143    0.5810  101 178 
 RUS  HZ I        1258 18.71        30.5 0.30            145            101 178 
 PTB  HZ EP       1258  1.13                             131   -1.07 9  150 259 
 PTB  HE ES       1258 22.61                             131   -0.59 9  150 259 
 PTB  HZ I        1258 27.86        33.4 0.20            129            150 259 
 SPBC HZ EP       1258  3.58                             128   -0.13 9  165 220 
 SPBC HE ES       1258 25.39                             128   -0.48 9  165 220 
 SPBC HZ I        1258 30.51        28.9 0.10            128            165 220 
 ZAR  HZ EP       1258  7.27                             121   -0.46 8  206 292 
 ZAR  HE ES       1258 33.12                             121    0.09 8  206 292 
 ZAR  HZ I        1258 39.25        33.9 0.22            121            206 292 
 NOR  HZ EP       1258 11.04                             117   -0.03 8  237 235 
 NOR  HE ES       1258 38.79                             117   -0.19 8  237 235 
 NOR  HZ I        1258 42.18        20.6 0.40            118            237 235 
 CHI  HZ EP       1258 12.62                             116   -0.30 8  250 196 
 CHI  HE ES       1258 42.33                             116    0.06 8  250 196 
 CHI  HZ I        1258 49.85         6.9 0.42            117            250 196 
 ROSC BZ EP   4   1258 15.01                             116    1.60 0  255 211 
 ROSC BN ES   4   1258 46.03                             116    2.88 0  255 211 
 ROSC BZ I        1258 46.80        16.6 0.35            117            255 211 
 HEL  HZ EP       1258 15.78                             114    0.16 8  275 256 
 HEL  HE ES   4   1258 49.03                             114    1.96 0  275 256 
 HEL  HZ I        1258 54.91        10.3 0.30            114            275 256 
 URE  HZ EP       1258 16.98                             113    0.55 7  286 292 
 URE  HN ES   4   1258 46.09                             113   -2.43 0  286 292 
 URE  HZ I        1258 51.50        19.8 0.36            113            286 292 
 GUY2CHZ EP       1258 20.05                             111    1.04 7  304 235 
 GUY2CHE ES       1258 54.41                             111    1.30 7  304 235 
 GUY2CHZ I        1259  1.58        10.4 0.58                           304 235 
 MON  HZ EP   4   1258 21.45                             108   -2.90 0  355 308 
 MON  HN ES   4   1258 58.75                             108   -3.87 0  355 308 
 MON  HZ I        1259 15.56         5.0 0.52            108            355 308 
 SJC  HZ EP   4   1258 29.12                             105   -1.73 0  410 327 
 SJC  HE ES   4   1259  9.34                             105   -4.84 0  410 327 
                                                                                
