 2012  123 1753  2.4 L   6.832 -73.105142.8  RSN  8 0.5 2.2LRSN                1
 GAP=187        1.00       6.0     9.8  7.6  0.2235E+02  0.1047E+02 -0.2674E+01E
 Epicentro: LOS SANTOS - SANTANDER                                             3
 ACTION:UP  12-02-03 08:19 OP:REBC STATUS:               ID:20120123175302 L   I
 2012-01-23-1750-00M.COL___186                                                 6
 STAT SP IPHASW D HRMM SECON CODA AMPLIT PERI AZIMU VELO SNR AR TRES W  DIS CAZ7
 BAR2 SZ EP       1753 21.90                             168     0.210   28 198 
 BAR2 SZ ES   1   1753 36.58                             168    -0.3 7   28 198 
 BAR2 SZ I        1753 37.85        34.9 0.30                            28 198 
 BRR  HZ EP       1753 23.66                             151     0.310   74 294 
 BRR  HE ES   1   1753 40.28                             151     0.6 7   74 294 
 BRR  HZ I        1753 41.40        36.2 0.46                            74 294 
 RUS  HZ EP       1753 26.23                             142     0.210  104 179 
 RUS  HN ES   1   1753 44.42                             142    -0.1 7  104 179 
 RUS  HZ I        1753 46.39        14.7 0.26                           104 179 
 PTB  HZ EP   1   1753 28.81                             130    -0.8 7  153 258 
 PTB  HN ES   3   1753 49.13                             130    -1.6 2  153 258 
 PTB  HZ I        1753 51.77        14.9 0.38                           153 258 
 OCA  SZ EP       1753 29.67                             130    -0.5 9  157 351 
 OCA  SZ I        1753 58.36        20.5 0.27                           157 351 
 ZAR  HZ EP       1753 35.26                             121     0.3 8  207 291 
 ZAR  HN ES   3   1753 59.00                             121    -1.3 2  207 291 
 ZAR  HZ I        1754  5.81        15.0 0.28                           207 291 
 NOR  SZ EP   1   1753 38.36                             117    -0.2 6  240 234 
 CHI  HZ EP       1753 40.47                             116     0.1 8  253 196 
                                                                                
