 2012 1023 1728 31.9 L   6.767 -73.128139.2  RSN 11 0.2 2.9LRSN                1
 GAP= 67        0.60       2.4     2.0  3.3  0.1245E+01  0.1475E+01  0.1614E+01E
 Epicentro: LOS SANTOS - SANTANDER                                             3
 ACTION:UPD 12-11-22 17:05 OP:ep   STATUS:               ID:20121023172831 L   I
 2012-10-23-1721-48M.COL___200                                                 6
 STAT SP IPHASW D HRMM SECON CODA AMPLIT PERI AZIMU VELO AIN AR TRES W  DIS CAZ7
 BAR2 SZ IP       1728 50.71                             171   -0.0110 20.2 197 
 BAR2 SZ I        1728 50.88       213.7 0.21                          20.2 197 
 BAR2 SZ ES       1729  5.25                             171   -0.1110 20.2 197 
 GIR2 SZ IP       1728 50.83                             165   -0.1210 35.2 348 
 BRR  HZ IP     C 1728 52.63                             150    0.0410 74.7 300 
 BRR  HZ I        1728 52.93       117.5 0.30                          74.7 300 
 BRR  HN ES       1729  9.26                             150    0.5710 74.7 300 
 PAM  SZ EP       1728 53.60                             149    0.0410 79.1  37 
 PAM  SZ I        1728 54.09       223.9 0.24                          79.1  37 
 PAM  SN ES       1729 10.06                             149   -0.3710 79.1  37 
 RUS  HZ EP       1728 54.72                             143   -0.0510 96.8 177 
 RUS  HE ES       1729 12.30                             143   -0.2810 96.8 177 
 RUS  HE I        1729 14.48       139.8 0.29                          96.8 177 
 TAM  HZ EP       1728 59.05                             130    0.21 9  152 104 
 TAM  HZ I        1728 59.37       112.5 0.22                           152 104 
 TAM  HE ES       1729 20.09                             130    0.27 9  152 104 
 YOP  SZ EP       1729  1.22                             125    0.11 9  175 153 
 YOP  SE ES   1   1729 23.99                             125    0.14 7  175 153 
 ZAR  HZ EP       1729  3.86                             120   -0.44 8  207 293 
 ZAR  HE ES       1729 29.52                             120   -0.02 8  207 293 
 ZAR  HZ I        1729 39.24        61.3 0.42                           207 293 
 HEL  HZ EP       1729 11.95                             113    0.01 8  273 257 
 HEL  HN ES   1   1729 43.47                             113    0.33 6  273 257 
 HEL  HZ I        1729 50.12        38.8 0.33                           273 257 
 RREF HZ EP   2   1729 18.08                             110    0.37 3  321 230 
 RREF HZ I        1729 58.79        25.5 0.43                           321 230 
 PRA  HZ EP   1   1729 24.79                             105   -0.19 4  390 210 
 PRA  HE ES   1   1730  6.11                             105   -0.24 4  390 210 
 PRA  HZ I        1730 12.57        18.1 0.25                           390 210 
                                                                                
