 2014  923 1042 35.3 L   6.519 -73.560112.1  RSN  8 0.4 1.5LRSN                1
 GAP= 68        0.85       3.5     3.5  6.8  0.5476E+00  0.4205E+01 -0.7530E+01E
 Epicentro: EL CARMEN - SANTANDER                                              3
 ACTION:UPD 14-10-03 23:07 OP:nd   STATUS:               ID:20140923104235 L   I
 OLDACT:REG 14-09-23 20:49 OP:spq  STATUS:               ID:20140923103818     3
 2014-09-23-1038-18M.COL___284                                                 6
 STAT SP IPHASW D HRMM SECON CODA AMPLIT PERI AZIMU VELO AIN AR TRES W  DIS CAZ7
 BAR2 SZ EP     C 1042 51.86                             158    0.2810 42.5  79 
 BAR2 SZ ES   1   1043  4.19                             158   -0.10 7 42.5  79 
 BAR2 SZ I        1043  5.70        23.7 0.32            164           42.5  79 
 BRR  HZ EP   1   1042 52.66                             147    0.03 7 67.1 346 
 BRR  HE ES   1   1043  6.79                             147    0.62 7 67.1 346 
 BRR  HZ I        1043 12.08         7.0 0.35            148           67.1 346 
 RUS  HZ EP       1042 54.99                             140    0.2010 87.1 143 
 RUS  HE ES       1043  9.89                             140   -0.1110 87.1 143 
 RUS  HZ I        1043 11.97         2.4 0.36            148           87.1 143 
 PTB  HZ EP       1042 54.75                             135   -0.3710 99.2 271 
 PTB  HE ES       1043 10.15                             135   -0.4510 99.2 271 
 PTB  HZ I        1043 14.32         3.8 0.08            138           99.2 271 
 SPBC HN ES   1   1043 13.27                             132    0.56 7  111 211 
 SPBC HZ I        1043 16.63         5.2 0.44            137            111 211 
 PAM  SN ES   1   1043 16.38                             127   -0.64 7  131  46 
 PAM  SZ I        1043 19.07         7.5 0.68            133            131  46 
 ZAR  HZ EP   1   1043  3.41                             117    0.35 7  179 307 
 ZAR  HE ES   4   1043 27.01                             117    2.28 0  179 307 
 ZAR  HZ I        1043 29.14         5.2 0.50            121            179 307 
 SML  HZ EP       1043 11.73                             108   -0.25 8  259 347 
 SML  HN ES   1   1043 41.08                             108    0.47 6  259 347 
 SML  HZ I        1043 44.72         2.9 0.10            112            259 347 
                                                                                
