 2014  723 1700 17.9 L   6.819 -73.143164.7  RSN  4 0.4 1.9LRSN                1
 GAP=297        0.87      11.1    12.1 12.9 -0.3686E+02 -0.2321E+02  0.7927E+02E
 Epicentro: LOS SANTOS - SANTANDER                                             3
 ACTION:UPD 15-03-16 20:46 OP:nd   STATUS:               ID:20140723170017 L   I
 OLDACT:REG 14-07-23 21:14 OP:fm   STATUS:               ID:20140723165819     3
 2014-07-23-1658-19M.COL___271                                                 6
 STAT SP IPHASW D HRMM SECON CODA AMPLIT PERI AZIMU VELO AIN AR TRES W  DIS CAZ7
 BRR  HZ EP       17 0 41.49                             155    0.3810 70.5 297 
 BRR  HN ES       17 0 58.96                             155   -0.2410 70.5 297 
 BRR  HZ I        17 1  2.74        11.9 0.46            146           70.5 297 
 PTB  HN ES   4   17 1  7.60                             136   -1.29 0  148 258 
 PTB  HZ I        17 1 11.05         9.4 0.10            129            148 258 
 ZAR  HN ES   1   17 1 17.95                             126    0.04 6  204 292 
 ZAR  HZ I        17 1 24.94         6.2 0.26            122            204 292 
 NOR  HZ EP   1   17 0 54.11                             122   -0.87 6  236 234 
 NOR  HN ES   1   17 1 24.32                             122    0.45 6  236 234 
 NOR  HZ I        17 1 30.60         3.9 0.22            119            236 234 
                                                                                
