 2017  223 1246 37.3 L   6.829 -73.311124.3  RSN  6 0.4 2.2LRSN                1
 GAP=105        0.94       4.5     4.0  6.9  0.4523E+01  0.1041E+02  0.2687E+01E
 Epicentro: ZAPATOCA - SANTANDER                                               3
 ACTION:UPD 17-05-24 15:39 OP:jn   STATUS:               ID:20170223124637 L   I
 OLDACT:REG 17-02-23 20:17 OP:cog  STATUS:               ID:20170223123749     3
 2017-02-23-1238-00M.COL___373                                                 6
 STAT SP IPHASW D HRMM SECON CODA AMPLIT PERI AZIMU VELO AIN AR TRES W  DIS CAZ7
 BAR2 EZ EP       1246 54.77                             166    0.2010 29.8 151 
 BAR2 EZ ES       1247  7.68                             166   -0.3210 29.8 151 
 BAR2 EZ I        1247  9.19        87.2 0.30            166           29.8 151 
 BRR  HZ EP       1246 55.25                             155    0.0510 53.9 305 
 BRR  HN ES       1247  9.09                             155   -0.0510 53.9 305 
 BRR  HZ I        1247 10.07        25.7 0.30            155           53.9 305 
 PAM  EN ES       1247 14.22                             143   -0.0310 88.1  50 
 RUS  HZ EP       1246 59.82                             137    0.2910  107 166 
 RUS  HE ES       1247 17.09                             137    0.2510  107 166 
 PTB  HZ EP       1247  0.10                             130   -0.9010  131 256 
 PTB  HN ES       1247 19.49                             130    0.0310  131 256 
 PTB  HZ I        1247 22.39        16.1 0.40            131            131 256 
 ZAR  HZ EP       1247  6.46                             120   -0.08 9  186 293 
 ZAR  HN ES       1247 29.93                             120    0.62 9  186 293 
                                                                                
