 2017  123 1114  3.3 L   6.790 -73.155144.0  RSN  8 0.4 1.9LRSN                1
 GAP=136        1.03       4.2     4.5  6.8  0.1962E+01  0.8081E+01  0.3783E+01E
 Epicentro: LOS SANTOS - SANTANDER                                             3
 ACTION:UPD 17-05-22 16:02 OP:jn   STATUS:               ID:20170123111403 L   I
 OLDACT:REG 17-01-23 20:20 OP:dnl  STATUS:               ID:20170123110742     3
 2017-01-23-1108-00M.COL___337                                                 6
 STAT SP IPHASW D HRMM SECON CODA AMPLIT PERI AZIMU VELO AIN AR TRES W  DIS CAZ7
 BAR2 EZ EP       1114 22.60                             171   -0.1110 22.1 188 
 BAR2 EZ ES       1114 37.62                             171   -0.2110 22.1 188 
 BAR2 EZ I        1114 38.68        15.7 0.24            170           22.1 188 
 BRR  HN ES       1114 41.33                             152    0.7510 70.8 300 
 BRR  HZ I        1114 41.88        21.6 0.30            152           70.8 300 
 PAM  EZ EP       1114 25.40                             150   -0.0410 78.9  40 
 PAM  EE ES       1114 42.54                             150   -0.1510 78.9  40 
 PAM  EZ I        1114 44.45        14.3 0.52            152           78.9  40 
 RUS  HZ EP       1114 26.78                             144   -0.0410 99.5 175 
 RUS  HN ES       1114 45.25                             144    0.1010 99.5 175 
 RUS  HZ I        1114 47.53         8.2 0.30            144           99.5 175 
 PTB  HZ EP       1114 29.28                             132   -0.74 9  146 259 
 PTB  HN ES       1114 50.37                             132   -0.48 9  146 259 
 PTB  HZ I        1114 52.91         8.7 0.16            132            146 259 
 ZAR  HZ EP       1114 36.30                             122    0.72 9  203 293 
 ZAR  HE ES       1115  0.62                             122   -0.14 9  203 293 
 ZAR  HZ I        1115  2.99         8.6 0.18            122            203 293 
 CHI  HZ EP   2   1114 40.89                             117    0.12 4  247 195 
 CHI  HN ES       1115 10.47                             117    0.49 8  247 195 
 CHI  HZ I        1115 13.88         3.0 0.52            117            247 195 
 URE  HZ EP   4   1114 46.75                             113    2.52 0  283 292 
 URE  HN ES   4   1115 13.50                             113   -2.65 0  283 292 
 URE  HZ I        1115 19.61         5.0 0.12            114            283 292 
                                                                                
