 2017  823 1007 56.8 L   6.789 -73.098144.5  RSN 13 0.4 1.7LRSN                1
 GAP=117        0.68       2.7     3.9  4.1 -0.8774E+00 -0.1249E+01  0.2948E+01E
 Epicentro: LOS SANTOS - SANTANDER                                             3
 ACTION:UPD 17-09-04 20:23 OP:rebc STATUS:               ID:20170823100756 L   I
 OLDACT:UP  17-08-23 21:17 OP:and  STATUS:               ID:20170823095739     3
 OLDACT:UP  17-08-23 21:16 OP:and  STATUS:               ID:20170823095739     3
 OLDACT:UP  17-08-23 21:15 OP:and  STATUS:               ID:20170823095739     3
 OLDACT:UP  17-08-23 21:13 OP:and  STATUS:               ID:20170823095739     3
 OLDACT:UP  17-08-23 21:13 OP:and  STATUS:               ID:20170823095739     3
 OLDACT:REG 17-08-23 19:51 OP:and  STATUS:               ID:20170823095739     3
 2017-08-23-0958-00M.COL___399                                                 6
 STAT SP IPHASW D HRMM SECON CODA AMPLIT PERI AZIMU VELO AIN AR TRES W  DIS CAZ7
 BAR2 EZ EP       10 8 15.90                             170   -0.3610 23.7 203 
 BAR2 EZ ES       10 8 31.28                             170   -0.1810 23.7 203 
 BAR2 EZ I        10 8 32.12        14.1 0.38            166           23.7 203 
 PAM  EZ IP     C 10 8 19.07                             151    0.3510 75.1  36 
 PAM  EN ES   2   10 8 35.59                             151   -0.25 5 75.1  36 
 PAM  EZ I        10 8 38.21         9.8 0.56            153           75.1  36 
 BRR  HZ IP     C 10 8 18.02                             151   -0.0810 76.4 297 
 BRR  HN ES       10 8 34.83                             151    0.1110 76.4 297 
 BRR  HZ I        10 8 36.28         7.8 0.14            145           76.4 297 
 RUS  HZ EP       10 8 20.45                             144    0.1510 99.1 179 
 RUS  HN ES       10 8 38.89                             144    0.2410 99.1 179 
 RUS  HZ I        10 8 39.95         2.7 0.39            144           99.1 179 
 SPBC HZ EP   2   10 8 25.19                             128   -0.22 5  166 221 
 SPBC HN ES       10 8 47.58                             128   -0.17 9  166 221 
 SPBC HZ I        10 8 53.50         6.8 0.18            126            166 221 
 YPLC HZ IP     C 10 8 26.52                             127    0.39 9  173 153 
 ZAR  HZ EP   1   10 8 29.87                             121    0.17 6  209 292 
 ZAR  HN ES   3   10 8 54.02                             121   -1.35 2  209 292 
 ZAR  HZ I        10 9  0.81         5.1 0.38            119            209 292 
 NOR  HZ EP   2   10 8 32.89                             118    0.07 4  238 235 
 NOR  HN ES   4   10 9  2.89                             118    1.95 0  238 235 
 CHI  HZ EP   2   10 8 34.48                             117    0.05 4  249 196 
 CHI  HN ES       10 9  3.77                             117   -0.04 8  249 196 
 CHI  HZ I        10 9  7.06         2.9 0.50            116            249 196 
 URE  HE ES   4   10 9  7.26                             113   -3.58 0  289 292 
 URE  HZ I        10 9 19.95         2.8 0.18            111            289 292 
 GUY2CHZ EP   3   10 8 41.90                             112    1.16 2  305 236 
 GUY2CHN ES   4   10 9 18.33                             112    3.30 0  305 236 
 GUY2CHZ I        10 9 22.31         2.1 0.36                           305 236 
 PTGC HZ IP     D 10 8 39.29                             111   -0.94 7  306 159 
 PRA  HZ EP     D 10 8 50.42                             106   -0.02 6  394 210 
 PRA  HE ES       10 9 32.73                             106    0.43 6  394 210 
 PRA  HZ I        10 9 38.39         1.9 0.28            106            394 210 
                                                                                
