 2013  123 1846 35.0 L   6.812 -73.156142.7  RSN  6 0.3 1.5LRSN                1
 GAP=135        0.66       4.1     5.0  8.2 -0.4239E+01  0.1123E+02  0.5956E+01E
 Epicentro: LOS SANTOS - SANTANDER                                             3
 *CHI-RUS                                                                      3
 ACTION:UPD 13-02-15 09:16 OP:ep   STATUS:               ID:20130123184635 L   I
 2013-01-23-1840-00M.COL___241                                                 6
 STAT SP IPHASW D HRMM SECON CODA AMPLIT PERI AZIMU VELO AIN AR TRES W  DIS CAZ7
 BAR2 SZ EP   1   1846 53.94                             170   -0.36 7 24.4 187 
 BRR  HZ EP   1   1846 56.32                             152    0.58 7 69.6 298 
 BRR  HZ I        1847 16.74        17.3 0.38                          69.6 298 
 PAM  SZ EP   1   1846 57.11                             150    0.22 7 77.1  41 
 PAM  SN ES   1   1847 13.95                             150   -0.01 7 77.1  41 
 PAM  SZ I        1847 16.24         5.5 0.52            140           77.1  41 
 RUS  HZ EP   1   1846 58.27                             143   -0.30 7  102 175 
 RUS  HN ES   1   1847 16.86                             143   -0.08 7  102 175 
 RUS  HZ I        1847 17.93         3.7 0.24            141            102 175 
 PTB  HZ EP   1   1847  1.34                             131   -0.31 7  147 258 
 PTB  HN ES   1   1847 22.32                             131   -0.11 7  147 258 
 PTB  HZ I        1847 25.63         4.3 0.10            121            147 258 
 CHI  HZ EP   1   1847 12.51                             116   -0.14 6  250 195 
 CHI  HN ES   1   1847 42.67                             116    0.67 6  250 195 
 CHI  HZ I        1847 47.08         1.6 0.38            110            250 195 
                                                                                
