 2016  223 1757 40.5 L   5.911 -73.756109.6  RSN  5 0.3 1.4LRSN                1
 GAP= 88        0.90       3.6     3.2  9.3 -0.1098E+01  0.5048E+01  0.1120E+02E
 Epicentro: SUCRE - SANTANDER                                                  3
 ACTION:UPD 16-03-04 21:28 OP:rebc STATUS:               ID:20160223175740 L   I
 OLDACT:DUP 16-02-24 00:24 OP:drio STATUS:               ID:20160223174749d    3
 2016-02-23-1747-48M.COL___325                                                 6
 STAT SP IPHASW D HRMM SECON CODA AMPLIT PERI AZIMU VELO AIN AR TRES W  DIS CAZ7
 RUS  HZ EP       1757 58.79                             144   -0.0410 74.5  92 
 RUS  HE ES       1758 13.12                             144    0.0110 74.5  92 
 BAR2 EZ EP       1758  0.39                             135    0.0010 98.5  40 
 BAR2 EZ ES       1758 16.23                             135    0.3410 98.5  40 
 BAR2 EZ I        1758 17.47        10.5 0.38            142           98.5  40 
 PTB  HN ES       1758 15.60                             133   -0.6310  104 312 
 PTB  HZ I        1758 16.99         3.7 0.24            140            104 312 
 NOR  HZ EP       1758  3.01                             126    0.0310  129 253 
 NOR  HN ES       1758 21.16                             126    0.6510  129 253 
 NOR  HZ I        1758 22.40         9.3 0.20            131            129 253 
 CHI  HZ EP       1758  4.69                             124   -0.02 9  142 179 
 CHI  HE ES       1758 23.24                             124   -0.34 9  142 179 
 CHI  HZ I        1758 31.19         1.6 0.42            126            142 179 
                                                                                
