 2017  123 1030 55.3 L   6.785 -73.122149.3  RSN  7 0.4 1.5LRSN                1
 GAP=140        0.79       3.4     4.8  5.7 -0.6346E+00  0.3751E+01  0.3308E+01E
 Epicentro: LOS SANTOS - SANTANDER                                             3
 ACTION:UPD 17-05-22 16:02 OP:jn   STATUS:               ID:20170123103055 L   I
 OLDACT:REG 17-01-23 20:18 OP:dnl  STATUS:               ID:20170123102748     3
 2017-01-23-1028-00M.COL___337                                                 6
 STAT SP IPHASW D HRMM SECON CODA AMPLIT PERI AZIMU VELO AIN AR TRES W  DIS CAZ7
 BAR2 EZ IP     D 1031 15.18                             171   -0.1110 22.3 197 
 BAR2 EZ ES       1031 30.37                             171   -0.5510 22.3 197 
 BAR2 EZ I        1031 33.02        10.0 0.32            166           22.3 197 
 BRR  HZ EP       1031 17.14                             152    0.1810 74.3 299 
 BRR  HN ES       1031 34.41                             152    0.5210 74.3 299 
 BRR  HZ I        1031 38.76         6.6 0.28            148           74.3 299 
 PAM  EZ EP       1031 17.99                             151    0.1610 77.1  37 
 PAM  EE ES       1031 35.40                             151   -0.0410 77.1  37 
 PAM  EZ I        1031 35.88         5.4 0.22            158           77.1  37 
 RUS  HZ EP       1031 19.12                             145   -0.1110 98.8 177 
 RUS  HN ES       1031 38.02                             145    0.0910 98.8 177 
 RUS  HZ I        1031 41.24         2.6 0.20            145           98.8 177 
 PTB  HZ EP   2   1031 21.75                             132   -0.97 5  150 260 
 PTB  HE ES   2   1031 43.91                             132   -0.23 5  150 260 
 PTB  HZ I        1031 50.53         6.6 0.46            130            150 260 
 ZAR  HZ EP   2   1031 28.39                             123    0.15 4  207 292 
 ZAR  HN ES   2   1031 53.16                             123   -0.82 4  207 292 
 ZAR  HZ I        1031 59.54         4.3 0.34            122            207 292 
 CHI  HZ EP   2   1031 32.83                             118   -0.22 4  248 196 
 CHI  HE ES       1032  3.00                             118    0.46 8  248 196 
 CHI  HZ I        1032  8.66         1.3 0.36            119            248 196 
                                                                                
