 2015  323 1354 47.0 L   6.875 -73.174146.9  RSN  4 0.5 1.5LRSN                1
 GAP=279        1.09      10.7     7.5 10.8  0.1596E+02  0.8652E+01 -0.2849E+02E
 Epicentro: BETULIA - SANTANDER                                                3
 ACTION:UPD 15-04-30 16:28 OP:nd   STATUS:               ID:20150323135447 L   I
 OLDACT:DUP 15-03-23 22:07 OP:fm   STATUS:               ID:20150323134749d    3
 2015-03-23-1347-48M.COL___272                                                 6
 STAT SP IPHASW D HRMM SECON CODA AMPLIT PERI AZIMU VELO AIN AR TRES W  DIS CAZ7
 BAR2 EZ EP   1   1355  7.24                             167    0.24 8 31.2 182 
 BAR2 EZ ES   1   1355 23.07                             167    0.51 8 31.2 182 
 BAR2 EZ I        1355 25.19         5.9 0.28            163           31.2 182 
 RUS  HZ EP       1355 11.68                             142    0.1510  109 175 
 RUS  HN ES       1355 29.91                             142   -0.7210  109 175 
 RUS  HZ I        1355 36.27         2.3 0.28            142            109 175 
 PTB  HZ EP       1355 13.42                             132   -0.58 9  147 255 
 PTB  HN ES       1355 34.91                             132   -0.11 9  147 255 
 PTB  HZ I        1355 41.34         5.1 0.22            133            147 255 
 SPBC HZ EP       1355 16.43                             128    0.36 9  168 216 
 SPBC HE ES       1355 39.24                             128    0.53 9  168 216 
 SPBC HZ I        1355 44.28         7.1 0.12            129            168 216 
                                                                                
