 2015  123 1741 27.9 L   6.783 -73.122155.0  RSN  5 0.4 1.2LRSN                1
 GAP=140        0.89       6.2     5.7  7.4 -0.3123E+01  0.2185E+01  0.2173E+01E
 Epicentro: LOS SANTOS - SANTANDER                                             3
 ACTION:UPD 15-03-02 15:41 OP:nd   STATUS:               ID:20150123174127 L   I
 OLDACT:DUP 15-01-24 01:47 OP:spq  STATUS:               ID:20150123173747d    3
 2015-01-23-1737-46M.COL___265                                                 6
 STAT SP IPHASW D HRMM SECON CODA AMPLIT PERI AZIMU VELO AIN AR TRES W  DIS CAZ7
 BAR2 EZ EP   1   1741 48.53                             172   -0.14 7 22.1 198 
 BAR2 EZ ES   1   1742  4.52                             172   -0.31 7 22.1 198 
 BAR2 EZ I        1742  6.08         4.1 0.32            172           22.1 198 
 BRR  HZ EP       1741 50.54                             153    0.2610 74.4 299 
 BRR  HZ I        1742  8.23         6.3 0.48            146           74.4 299 
 BRR  HE ES       1742  8.25                             153    0.5510 74.4 299 
 PAM  SZ EP       1741 51.27                             152    0.1210 77.3  37 
 PAM  SN ES   1   1742  8.60                             152   -0.64 7 77.3  37 
 PAM  SZ I        1742 10.62         2.8 0.54            147           77.3  37 
 RUS  HZ EP   1   1741 52.79                             146    0.31 7 98.5 178 
 RUS  HE ES   1   1742 11.84                             146    0.23 7 98.5 178 
 RUS  HZ I        1742 13.83         1.2 0.32            144           98.5 178 
 PTB  HZ EP       1741 55.43                             134   -0.45 9  150 260 
 PTB  HE ES   1   1742 17.17                             134   -0.50 7  150 260 
 PTB  HZ I        1742 19.82         2.1 0.36            128            150 260 
                                                                                
