 2013  123 1141 19.1 L   6.532 -73.576110.2  RSN  4 0.3 1.4LRSN                1
 GAP=137        0.66       5.7     3.8 10.8 -0.4426E+01  0.1402E+02 -0.1708E+02E
 Epicentro: EL CARMEN DE CHUCURI - SANTANDER                                   3
 ACTION:UPD 13-02-15 09:16 OP:ep   STATUS:               ID:20130123114119 L   I
 2013-01-23-1140-00M.COL___241                                                 6
 STAT SP IPHASW D HRMM SECON CODA AMPLIT PERI AZIMU VELO AIN AR TRES W  DIS CAZ7
 BAR2 SZ EP   1   1141 35.72                             157    0.42 7 44.0  81 
 BAR2 SZ ES   1   1141 48.28                             157    0.37 7 44.0  81 
 BAR2 SZ I        1141 49.38        14.7 0.24            146           44.0  81 
 RUS  HN ES   1   1141 53.56                             138   -0.31 7 89.3 142 
 PTB  HZ EP   1   1141 38.76                             135    0.09 7 97.4 271 
 PTB  HN ES   1   1141 53.70                             135   -0.20 7 97.4 271 
 PTB  HZ I        1141 54.39         4.1 0.64            134           97.4 271 
 PAM  SN ES   1   1142  0.30                             126   -0.40 7  132  47 
 PAM  SZ I        1142 10.45         2.3 0.42            119            132  47 
                                                                                
