 2012  123 1140  6.9 L   6.796 -73.146142.0  RSN 13 0.4 2.4LRSN                1
 GAP=137        1.05       4.2     5.1  6.5 -0.1898E+01  0.9147E+01  0.4488E+01E
 Epicentro: LOS SANTOS - SANTANDER                                             3
 ACTION:UP  12-02-03 08:19 OP:REBC STATUS:               ID:20120123114006 L   I
 2012-01-23-1140-00M.COL___186                                                 6
 STAT SP IPHASW D HRMM SECON CODA AMPLIT PERI AZIMU VELO SNR AR TRES W  DIS CAZ7
 BAR2 SZ IP       1140 26.14                             170     0.110   23 190 
 BAR2 SZ ES   1   1140 41.19                             170     0.2 7   23 190 
 BAR2 SZ I        1140 45.07        39.6 0.30                            23 190 
 BRR  HZ EP       1140 27.95                             152     0.310   71 299 
 BRR  HN ES   1   1140 44.76                             152     1.0 7   71 299 
 BRR  HZ I        1140 47.94        49.5 0.32                            71 299 
 PAM  SZ EP       1140 28.88                             150     0.210   78  39 
 PAM  SN ES   1   1140 45.47                             150    -0.3 7   78  39 
 RUS  HZ EP       1140 30.08                             143    -0.110  100 176 
 RUS  HN ES   1   1140 47.90                             143    -0.5 7  100 176 
 RUS  HZ I        1140 50.17        22.1 0.24                           100 176 
 PTB  HZ EP       1140 32.87                             131    -0.6 9  148 259 
 PTB  HN ES   1   1140 53.69                             131    -0.6 7  148 259 
 PTB  HZ I        1140 56.14        29.2 0.38                           148 259 
 OCA  SZ EP       1140 34.33                             129    -0.6 9  161 353 
 OCA  SZ I        1141  2.46        29.4 0.37                           161 353 
 ZAR  HZ EP       1140 39.25                             121     0.2 9  204 292 
 ZAR  HN ES   1   1141  3.89                             121    -0.3 6  204 292 
 ZAR  HZ I        1141 10.55        37.4 0.32                           204 292 
 NOR  SZ EP       1140 42.50                             118     0.2 8  234 235 
 NOR  SN ES   1   1141  9.77                             118    -0.2 6  234 235 
 CHI  HZ EP       1140 44.41                             116     0.1 8  248 195 
 CHI  HE ES   1   1141 13.62                             116     0.1 6  248 195 
 CHI  HZ I        1141 20.86        12.3 0.50                           248 195 
 HEL  HZ EP   2   1140 46.93                             114     0.1 4  272 256 
 HEL  HZ I        1141 24.34        16.5 0.30                           272 256 
 GUY  SZ EP   1   1140 50.83                             111     0.3 5  303 235 
 GUY  SZ I        1141 33.27        12.5 0.34                           303 235 
 RREF HZ EP       1140 53.65                             110     0.8 7  321 229 
 RREF HZ I        1141 38.78         9.0 0.26                           321 229 
 PRA  HZ EP       1141  0.16                             106     0.0 6  392 210 
 PRA  HN ES   2   1141 41.70                             106    -0.1 3  392 210 
                                                                                
