 2012 1123 1622 28.1 L   6.775 -73.175142.0  RSN  5 0.2 1.8LRSN                1
 GAP=134        0.47       2.9     3.8  4.7  0.1071E+00  0.4004E+01  0.1245E+01E
 Epicentro: LOS SANTOS - SANTANDER                                             3
 ACTION:UPD 12-12-05 15:35 OP:}ep  STATUS:               ID:20121123162228 L   I
 2012-11-23-1620-00M.COL___233                                                 6
 STAT SP IPHASW D HRMM SECON CODA AMPLIT PERI AZIMU VELO AIN AR TRES W  DIS CAZ7
 BAR2 SZ EP       1622 47.34                             171    0.0910 20.2 182 
 BAR2 SZ ES   1   1623  1.95                             171   -0.22 7 20.2 182 
 BAR2 SZ I        1623  4.05        16.6 0.37                          20.2 182 
 PAM  SZ EP       1622 50.10                             149   -0.1110 81.6  40 
 PAM  SZ I        1622 50.27         9.2 0.23                          81.6  40 
 PAM  SN ES   1   1623  7.68                             149    0.25 7 81.6  40 
 RUS  HZ EP       1622 51.12                             144   -0.2210 98.1 174 
 RUS  HN ES   1   1623  9.62                             144    0.18 7 98.1 174 
 RUS  HN I        1623 11.64         8.7 0.22                          98.1 174 
 ZAR  HN ES   1   1623 25.12                             122    0.03 6  202 293 
 ZAR  HZ I        1623 32.40         6.2 0.34                           202 293 
 CHI  HZ EP   1   1623  5.58                             117    0.33 6  245 195 
                                                                                
