 2010 1123 1845 55.5 L   6.767 -73.053143.9  RSN  9 0.5 2.2LRSN                1
 GAP=169        0.97       3.9     9.5  7.5 -0.1328E+02  0.1683E+02  0.2378E+01E
 Epicentro: LOS SANTOS - SANTANDER                                             3
 ACTION:UP  10-12-17 16:54 OP:REBC STATUS:               ID:20101123184555 L   I
 2010-11-23-1842-37S.COL___130                                                 6
 STAT SP IPHASW D HRMM SECON CODA AMPLIT PERI AZIMU VELO SNR AR TRES W  DIS CAZ7
 BAR2 SZ EP       1846 14.86                             170     0.010   24 217 
 BAR2 SZ ES   1   1846 30.03                             170     0.0 7   24 217 
 BAR2 SZ I        1846 31.58        38.7 0.33                            24 217 
 BRR  HZ IP     C 1846 16.71                             149    -0.410   82 297 
 BRR  HZ I        1846 17.01        55.8 0.20                            82 297 
 BRR  HN ES   2   1846 33.29                             149    -0.6 5   82 297 
 RUS  HZ EP       1846 18.77                             144     0.010   97 182 
 RUS  HN ES   1   1846 37.13                             144     0.2 7   97 182 
 RUS  HZ I        1846 38.73        14.1 0.46                            97 182 
 GRA  SZ EP       1846 20.60                             136     0.010  127  13 
 GRA  SZ I        1846 21.74        20.5 0.26                           127  13 
 GRA  SZ ES   1   1846 40.54                             136     0.3 7  127  13 
 OCA  SZ EP   1   1846 23.30                             128    -0.8 7  165 350 
 OCA  SZ ES   1   1846 47.17                             128     0.7 7  165 350 
 OCA  SZ I        1846 51.32        22.3 0.36                           165 350 
 NOR  SE ES   3   1846 59.83                             117    -0.3 2  241 237 
 CHI  HZ EP   1   1846 32.75                             117    -0.2 6  248 198 
 CHI  HE ES   2   1847  2.01                             117    -0.3 4  248 198 
 CHI  HZ I        1847  8.25         4.2 0.56                           248 198 
 RREF HZ EP       1846 43.05                             110     0.9 7  327 231 
 RREF HN ES   2   1847 19.64                             110     1.1 3  327 231 
 RREF HZ I        1847 26.46         6.5 0.42                           327 231 
 PRA  HZ EP       1846 49.45                             106     0.3 6  394 211 
 PRA  HE ES   1   1847 30.18                             106    -0.9 4  394 211 
                                                                                
