 2016  323 1028  5.9 L   6.810 -73.158142.0  RSN 16 0.4 2.2LRSN                1
 GAP=112        0.72       2.4     2.3  4.4  0.7750E-01  0.3275E+01 -0.1302E+01E
 Epicentro: LOS SANTOS - SANTANDER                                             3
 ACTION:UPD 16-05-13 21:26 OP:cam  STATUS:               ID:20160323102805 L   I
 OLDACT:UP  16-03-29 11:52 OP:dnl  STATUS:               ID:20160323102805 L   3
 OLDACT:REG 16-03-23 20:31 OP:y    STATUS:               ID:20160323101748     3
 2016-03-23-1017-48M.COL___301                                                 6
 STAT SP IPHASW D HRMM SECON CODA AMPLIT PERI AZIMU VELO AIN AR TRES W  DIS CAZ7
 BAR2 EZ EP     C 1028 25.34                             170    0.2110 24.2 186 
 BAR2 EZ ES       1028 40.12                             170    0.0210 24.2 186 
 BAR2 EZ I        1028 41.21        31.9 0.18            168           24.2 186 
 RUS  HZ EP       1028 29.20                             143   -0.2010  102 175 
 RUS  HE ES       1028 47.91                             143    0.2010  102 175 
 RUS  HZ I        1028 49.18        18.4 0.26            143            102 175 
 PTB  HZ IP       1028 32.01                             131   -0.48 9  147 258 
 PTB  HE ES       1028 53.10                             131   -0.10 9  147 258 
 PTB  HZ I        1028 56.24        18.2 0.12            129            147 258 
 TAM  HZ EP   2   1028 33.70                             129    0.23 5  157 105 
 TAM  HE ES       1028 54.94                             129   -0.00 9  157 105 
 TAM  HZ I        1028 55.75        13.3 0.27            132            157 105 
 OCA  HZ IP       1028 33.88                             129    0.04 9  159 354 
 OCA  HN ES       1028 55.48                             129   -0.12 9  159 354 
 OCA  HZ I        1028 57.73        32.6 0.20            129            159 354 
 SPBC HZ EP       1028 34.34                             128    0.20 9  163 218 
 SPBC HN ES       1028 55.75                             128   -0.39 9  163 218 
 SPBC HZ I        1029  1.01        22.8 0.20            127            163 218 
 ZAR  HZ EP       1028 38.34                             122    0.38 9  202 292 
 ZAR  HE ES       1029  3.41                             122    0.47 9  202 292 
 ZAR  HZ I        1029 10.18        35.3 0.30            120            202 292 
 NOR  HZ IP       1028 41.16                             118   -0.23 8  234 234 
 NOR  HN ES   2   1029  8.73                             118   -0.32 4  234 234 
 NOR  HZ I        1029 10.70        15.3 0.20            117            234 234 
 CHI  HZ EP   2   1028 43.29                             116   -0.21 4  249 195 
 CHI  HN ES   4   1029  9.78                             116   -3.02 0  249 195 
 CHI  HZ I        1029 20.78         6.7 0.50            116            249 195 
 HEL  HZ EP   2   1028 46.78                             114    0.94 4  271 256 
 HEL  HN ES   2   1029 16.52                             114   -0.44 4  271 256 
 HEL  HZ I        1029 25.48        10.0 0.48            113            271 256 
 URE  HZ EP       1028 45.80                             113   -0.83 7  282 292 
 URE  HZ ES   2   1029 18.17                             113   -0.21 4  282 292 
 URE  HZ I        1029 31.66        10.9 0.26            112            282 292 
 GUY2CHZ EP   4   1028 50.34                             112    1.03 0  301 234 
 GUY2CHE ES   2   1029 23.26                             112    0.12 4  301 234 
 GUY2CHZ I        1029 33.86         9.8 0.52                           301 234 
 CBOC HZ EP   2   1028 53.46                             109    0.88 3  333 252 
 CBOC HE ES       1029 29.77                             109    0.81 7  333 252 
 CBOC HZ I        1029 33.23         4.1 0.24            108            333 252 
 MON  HZ EP   9   1028 53.34                             108   -1.25 0  352 308 
 MON  HN ES       1029 30.88                             108   -0.41 6  352 308 
 MON  HZ I        1029 39.46         2.5 0.21            107            352 308 
 ORTC HZ EP   2   1029  0.07                             106    0.34 3  395 216 
 ORTC HE ES   2   1029 42.11                             106    0.42 3  395 216 
 ORTC HZ I        1029 46.36         4.2 0.30            105            395 216 
 PAL  HZ EP   4   1029  1.33                             105    0.44 0  405 239 
 PAL  HN ES   2   1029 43.22                             105   -0.54 3  405 239 
 PAL  HZ I        1029 50.05         3.3 0.22            105            405 239 
                                                                                
