 2016  423 1423 36.0 L   6.828 -73.150140.0  RSN 19 0.6 2.8LRSN                1
 GAP= 70        1.40       4.0     4.1  6.8 -0.3011E+01  0.7901E+01 -0.6646E+00E
 Epicentro: LOS SANTOS - SANTANDER                                             3
 ACTION:UPD 16-05-05 14:23 OP:rebc STATUS:               ID:20160423142336 L   I
 OLDACT:UP  16-04-24 00:55 OP:ar   STATUS:               ID:20160423141746     3
 OLDACT:REG 16-04-23 21:30 OP:ar   STATUS:               ID:20160423141746     3
 2016-04-23-1417-46M.COL___318                                                 6
 STAT SP IPHASW D HRMM SECON CODA AMPLIT PERI AZIMU VELO AIN AR TRES W  DIS CAZ7
 BAR2 EZ IP     C 1423 55.08                             169    0.1010 26.3 188 
 BAR2 EZ ES       1424  9.74                             169   -0.0610 26.3 188 
 BAR2 EZ I        1424 10.99       186.0 0.16            168           26.3 188 
 PAM  EZ IP     C 1423 57.97                             150    0.5210 75.3  41 
 PAM  EN ES       1424 14.87                             150    0.6610 75.3  41 
 PAM  EZ I        1424 16.99        87.3 0.50            151           75.3  41 
 RUS  HZ EP       1423 59.25                             142   -0.1510  104 176 
 RUS  HN ES       1424 17.21                             142   -0.4610  104 176 
 RUS  HZ I        1424 18.25        77.6 0.24            142            104 176 
 PTB  HZ EP       1424  1.78                             130   -0.71 9  148 258 
 PTB  HN ES       1424 22.47                             130   -0.70 9  148 258 
 PTB  HZ I        1424 26.30        68.0 0.14            128            148 258 
 TAM  HZ IP     C 1424  3.42                             129    0.10 9  156 106 
 TAM  HE ES       1424 24.39                             129   -0.27 9  156 106 
 TAM  HZ I        1424 25.99        46.9 0.22            131            156 106 
 OCA  HZ EP       1424  3.49                             129   -0.05 9  157 353 
 OCA  HN ES       1424 24.97                             129   -0.07 9  157 353 
 OCA  HZ I        1424 27.53       172.2 0.20            127            157 353 
 SPBC HZ EP       1424  4.18                             127   -0.06 9  165 218 
 SPBC HE ES       1424 25.91                             127   -0.38 9  165 218 
 SPBC HZ I        1424 27.01        89.0 0.20            126            165 218 
 ZAR  HZ EP       1424  8.19                             121    0.32 9  202 291 
 ZAR  HN ES       1424 33.64                             121    0.88 9  202 291 
 ZAR  HZ I        1424 39.32       113.6 0.58            119            202 291 
 NOR  HZ EP       1424 11.67                             117    0.15 8  236 234 
 NOR  HN ES       1424 38.80                             117   -0.46 8  236 234 
 NOR  HZ I        1424 42.66        34.5 0.22            116            236 234 
 ROSC BZ EP       1424 14.38                             115    0.33 8  255 211 
 ROSC BN ES   4   1424 46.73                             115    2.98 0  255 211 
 ROSC BZ I        1424 51.37        25.6 0.60            114            255 211 
 HEL  HZ EP   4   1424 18.61                             113    2.68 0  272 255 
 HEL  HN ES   4   1424 45.50                             113   -1.59 0  272 255 
 HEL  HZ I        1424 55.62        19.8 0.26            112            272 255 
 URE  HZ EP       1424 15.49                             112   -1.09 7  282 291 
 URE  HN ES   4   1424 46.43                             112   -1.83 0  282 291 
 URE  HZ I        1425  1.21        53.6 0.26            111            282 291 
 GUY2CHZ EP       1424 21.55                             111    2.08 7  303 234 
 GUY2CHN ES   4   1424 56.46                             111    3.05 0  303 234 
 GUY2CHZ I        1425  1.80        19.3 0.68                           303 234 
 ELA  HZ EP   4   1424 28.48                             109    5.71 0  331 229 
 ELA  HN ES   4   1425  2.71                             109    3.43 0  331 229 
 ELA  HZ I        1425  8.17        19.3 0.42            108            331 229 
 SDV  BZ EP       1424 24.80                             107   -0.81 6  359  51 
 SDV  BE ES   4   1425  2.12                             107   -2.21 0  359  51 
 SDV  BZ I        1425  4.91        11.8 0.40            107            359  51 
 ANIL HZ EP       1424 26.33                             107    0.55 6  359 224 
 ANIL HN ES   4   1425  4.76                             107    0.13 0  359 224 
 ANIL HZ I        1425 12.98        44.7 0.34            107            359 224 
 ORTC HZ EP       1424 30.04                             105    0.08 6  398 216 
 ORTC HN ES       1425 12.97                             105    0.90 6  398 216 
 ORTC HZ I        1425 17.12        12.3 0.26            105            398 216 
 SJC  HZ EP       1424 29.87                             105   -1.13 6  406 327 
 SJC  HN ES   4   1425 11.51                             105   -2.42 0  406 327 
 SJC  HZ I        1425 14.95        19.0 0.62            104            406 327 
 CRJC HZ EP   4   1424 30.72                             102   -7.22 0  465   4 
 CRJC HN ES   4   1425 22.53                             102   -3.75 0  465   4 
 CRJC HZ I        1425 43.41        13.9 0.20            102            465   4 
                                                                                
