 2011  523 1119 27.2 L   7.408 -73.175126.7  RSN  8 0.3 1.6LRSN                1
 GAP=109        0.75       4.4     6.5  7.8 -0.9923E+01 -0.6012E+01  0.6158E+01E
 Epicentro: EL PLAYON - SANTANDER                                              3
 ACTION:UP  11-06-29 08:55 OP:tino STATUS:               ID:20110523111927 L   I
 2011-05-23-1117-53S.COL___141                                                 6
 STAT SP IPHASW D HRMM SECON CODA AMPLIT PERI AZIMU VELO SNR AR TRES W  DIS CAZ7
 GIR2 SZ EP       1119 44.83                             163     0.010   37 183 
 PAM  SZ EP   1   1119 46.14                             156     0.1 7   53  98 
 PAM  SE ES   2   1120  0.19                             156    -0.5 5   53  98 
 BRI  SZ EP       1119 45.90                             156     0.310   54  51 
 BTL  SZ EP       1119 45.80                             155     0.010   55 191 
 GRA  SZ EP       1119 46.45                             151     0.210   67  38 
 GRA  SZ ES   1   1120  1.12                             151     0.0 7   67  38 
 GRA  SZ I        1120  2.95        11.7 0.26                            67  38 
 BRR  HZ EP   1   1119 45.96                             150    -0.2 7   68 241 
 BRR  HN ES   1   1120  1.24                             150     0.3 7   68 241 
 BRR  HZ I        1120  2.22        12.5 0.12                            68 241 
 BAR2 SZ EP   1   1119 47.21                             142    -0.8 7   90 181 
 BAR2 SZ ES   2   1120  4.58                             142     0.4 5   90 181 
 BAR2 SZ I        1120  9.33         7.6 0.47                            90 181 
 OCA  SZ EP   1   1119 48.16                             141     0.1 7   93 350 
 OCA  SZ ES   1   1120  3.99                             141    -0.4 7   93 350 
 OCA  SZ I        1120  6.03         7.2 0.25                            93 350 
                                                                                
