 2017  723 1821 20.2 L   6.777 -73.082153.6  RSN  5 0.2 1.5LRSN                1
 GAP=146        0.62       3.3     4.0  4.9 -0.3622E+01  0.1953E+01  0.1676E+01E
 Epicentro: LOS SANTOS - SANTANDER                                             3
 ACTION:UPD 17-08-30 15:35 OP:rebc STATUS:               ID:20170723182119 L   I
 OLDACT:UP  17-08-16 15:50 OP:nlst STATUS:               ID:20170723182119 L   3
 OLDACT:REG 17-07-23 20:55 OP:ar   STATUS:               ID:20170723181745     3
 2017-07-23-1818-00M.COL___395                                                 6
 STAT SP IPHASW D HRMM SECON CODA AMPLIT PERI AZIMU VELO AIN AR TRES W  DIS CAZ7
 BAR2 EZ EP       1821 40.48                             171   -0.3010 23.3 208 
 BAR2 EZ ES       1821 56.75                             171   -0.0810 23.3 208 
 BAR2 EZ I        1821 57.88         6.9 0.22            168           23.3 208 
 PAM  EZ EP       1821 43.43                             153    0.2910 75.2  34 
 PAM  EN ES       1822  1.24                             153    0.2210 75.2  34 
 PAM  EZ I        1822  3.44         8.0 0.60            157           75.2  34 
 BRR  HZ EP       1821 42.48                             151   -0.1410 78.6 298 
 BRR  HE ES       1821 59.94                             151   -0.1710 78.6 298 
 BRR  HZ I        1822  3.12         8.5 0.62            151           78.6 298 
 RUS  HZ EP       1821 44.38                             146   -0.1710 97.8 180 
 RUS  HE ES       1822  3.58                             146    0.0510 97.8 180 
 RUS  HZ I        1822  7.07         1.5 0.30            146           97.8 180 
 NOR  HE ES       1822 25.90                             120    0.45 8  239 236 
 NOR  HZ I        1822 32.05         2.8 0.44            120            239 236 
                                                                                
