 2014  723 1504 39.4 L   6.817 -73.130139.2  RSN 22 0.5 2.5LRSN                1
 GAP= 71        1.16       2.9     3.2  5.5 -0.1016E+01  0.5409E+01  0.1304E+01E
 Epicentro: LOS SANTOS - SANTANDER                                             3
 ACTION:UPD 15-03-16 20:46 OP:nd   STATUS:               ID:20140723150439 L   I
 OLDACT:REG 14-07-23 20:53 OP:fm   STATUS:               ID:20140723145819     3
 2014-07-23-1458-19M.COL___272                                                 6
 STAT SP IPHASW D HRMM SECON CODA AMPLIT PERI AZIMU VELO AIN AR TRES W  DIS CAZ7
 BAR2 SZ EP       15 4 58.45                             169    0.1410 25.5 193 
 BAR2 SZ ES   1   15 5 13.04                             169   -0.00 7 25.5 193 
 BAR2 SZ I        15 5 14.61        94.2 0.20            167           25.5 193 
 BRR  HZ IP     C 15 5  0.38                             151    0.4710 71.9 297 
 BRR  HE ES       15 5 16.52                             151    0.6410 71.9 297 
 BRR  HZ I        15 5 20.32        49.3 0.34            150           71.9 297 
 PAM  SZ EP       15 5  1.48                             150    0.6910 74.8  39 
 PAM  SN ES       15 5 18.08                             150    0.6310 74.8  39 
 PAM  SZ I        15 5 20.62       120.7 0.56            154           74.8  39 
 RUS  HZ EP       15 5  2.63                             142   -0.0410  102 177 
 RUS  HE ES       15 5 20.19                             142   -0.6110  102 177 
 RUS  HZ I        15 5 22.59        18.5 0.26            143            102 177 
 PTB  HZ EP       15 5  5.27                             130   -0.79 9  150 258 
 PTB  HE ES       15 5 26.54                             130   -0.29 9  150 258 
 PTB  HZ I        15 5 28.40        56.5 0.18            130            150 258 
 TAM  HZ EP       15 5  6.89                             129    0.41 9  154 106 
 TAM  HN ES       15 5 26.75                             129   -0.83 9  154 106 
 TAM  HZ I        15 5 28.92        16.0 0.26            132            154 106 
 OCA  HZ EP       15 5  6.54                             128   -0.54 9  159 352 
 OCA  HN ES       15 5 28.28                             128   -0.36 9  159 352 
 OCA  HZ I        15 5 32.14        55.0 0.46            130            159 352 
 SPBC HZ EP       15 5  7.62                             127   -0.06 9  166 219 
 SPBC HN ES       15 5 29.52                             127   -0.19 9  166 219 
 SPBC HZ I        15 5 31.35        21.0 0.20            127            166 219 
 ZAR  HZ EP       15 5 11.52                             121   -0.03 9  205 291 
 ZAR  HN ES       15 5 36.58                             121   -0.02 9  205 291 
 ZAR  HZ I        15 5 42.65        39.6 0.26            121            205 291 
 NOR  HZ EP   4   15 5 12.99                             117   -2.07 0  237 234 
 NOR  HE ES       15 5 42.17                             117   -0.67 8  237 234 
 NOR  HZ I        15 5 47.80        20.0 0.20            117            237 234 
 SML  HZ EP       15 5 15.05                             116   -0.54 8  243 335 
 SML  HN ES       15 5 43.71                             116   -0.08 8  243 335 
 SML  HZ I        15 5 46.54        45.4 0.30            118            243 335 
 HEL  HZ EP       15 5 20.46                             113    0.91 8  274 256 
 HEL  HE ES   4   15 5 49.67                             113   -1.18 0  274 256 
 HEL  HZ I        15 5 57.59        15.4 0.32            114            274 256 
 URE  HZ EP       15 5 19.40                             112   -0.89 7  285 291 
 URE  HN ES   4   15 5 50.62                             112   -1.54 0  285 291 
 URE  HZ I        15 5 52.36        42.8 0.38            113            285 291 
 GUY2CHZ EP       15 5 23.63                             111    0.61 7  304 235 
 GUY2CHN ES       15 5 57.05                             111    0.02 7  304 235 
 GUY2CHZ I        15 6  6.43        12.2 0.28                           304 235 
 RREF HZ EP   1   15 5 26.52                             109    0.94 5  324 229 
 RREF HN ES   4   15 6  4.19                             109    2.61 0  324 229 
 RREF HZ I        15 6  9.49         9.7 0.28            110            324 229 
 CBOC HZ EP   1   15 5 26.50                             108    0.16 5  336 252 
 CBOC HN ES       15 6  3.00                             108    0.08 7  336 252 
 CBOC HZ I        15 6  7.56         5.9 0.24            109            336 252 
 DBB  SZ EP       15 5 26.67                             108   -0.16 7  341 274 
 DBB  SZ ES   4   15 6  0.49                             108   -3.31 0  341 274 
 TOL  SZ EP   4   15 5 24.90                             108   -2.82 0  346 225 
 TOL  SN ES   4   15 6  7.02                             108    1.63 0  346 225 
 TOL  SZ I        15 6 15.30        15.9 0.68            109            346 225 
 ANIL HN ES   4   15 6 10.40                             107    2.23 0  360 225 
 ANIL HZ I        15 6 15.76        21.6 0.32            108            360 225 
 PRA  HZ EP       15 5 33.07                             105    0.05 6  394 210 
 PRA  HN ES       15 6 15.84                             105    1.02 6  394 210 
 PRA  HZ I        15 6 20.71         8.3 0.42            106            394 210 
 ORTC HZ EP       15 5 33.62                             105    0.19 6  398 216 
 ORTC HN ES       15 6 16.07                             105    0.52 6  398 216 
 ORTC HZ I        15 6 21.60         7.8 0.58            106            398 216 
 SJC  HN ES   4   15 6 13.97                             105   -3.86 0  409 327 
 SJC  HZ I        15 6 18.88         7.3 0.34            106            409 327 
                                                                                
