 2011  423 1138 58.5 L   6.792 -73.101148.6  RSN  8 0.4 1.9LRSN                1
 GAP=143        0.96       5.3     7.9  8.5 -0.1708E+02  0.7820E+01 -0.4741E+01E
 Epicentro: LOS SANTOS - SANTANDER                                             3
 ACTION:UP  11-06-22 15:32 OP:REBC STATUS:               ID:20110423113858 L   I
 2011-04-23-1134-02S.COL___139                                                 6
 STAT SP IPHASW D HRMM SECON CODA AMPLIT PERI AZIMU VELO SNR AR TRES W  DIS CAZ7
 BTL  SZ EP   1   1139 18.63                             171     0.2 7   23 307 
 BAR2 SZ EP   1   1139 18.63                             170     0.2 7   24 202 
 BAR2 SZ ES   1   1139 33.88                             170    -0.1 7   24 202 
 PAM  SZ EP   1   1139 21.29                             152     0.4 7   75  36 
 PAM  SN ES   1   1139 37.64                             152    -0.7 7   75  36 
 BRR  HZ EP   1   1139 20.41                             151     0.2 7   76 297 
 BRR  HN ES   1   1139 37.59                             151     0.5 7   76 297 
 BRR  HZ I        1139 38.31        17.6 0.14                            76 297 
 RUS  HZ EP   1   1139 22.69                             145     0.3 7   99 179 
 RUS  HN ES   1   1139 41.17                             145     0.1 7   99 179 
 RUS  HZ I        1139 42.76         8.0 0.26                            99 179 
 GRA  SZ EP   1   1139 23.02                             138    -0.9 7  125  15 
 GRA  SZ ES   1   1139 44.02                             138     0.3 7  125  15 
 GRA  SZ I        1139 45.41        15.0 0.25                           125  15 
 OCA  SZ EP   1   1139 27.22                             130     0.1 7  162 351 
 NOR  SN ES   1   1140  2.16                             119    -0.9 6  238 235 
                                                                                
