 2011  523 1232 48.2 L   6.802 -73.064140.8  RSN  8 0.3 1.6LRSN                1
 GAP=147        0.80       4.4     7.8  7.6 -0.9637E+01 -0.1678E+00  0.4483E+01E
 Epicentro: LOS SANTOS - SANTANDER                                             3
 ACTION:UP  11-06-29 08:55 OP:tino STATUS:               ID:20110523123248 L   I
 2011-05-23-1231-49S.COL___141                                                 6
 STAT SP IPHASW D HRMM SECON CODA AMPLIT PERI AZIMU VELO SNR AR TRES W  DIS CAZ7
 BTL  SZ EP       1233  7.36                             169     0.110   26 300 
 BAR2 SZ EP       1233  7.01                             169    -0.310   27 209 
 BAR2 SZ I        1233  7.44        10.9 0.28                            27 209 
 BAR2 SZ ES   2   1233 22.32                             169     0.1 5   27 209 
 GIR2 SZ EP   1   1233  7.57                             166     0.2 7   34 335 
 PAM  SZ EP   1   1233  9.60                             152     0.1 7   72  34 
 PAM  SE ES   1   1233 26.29                             152     0.1 7   72  34 
 BRR  HZ EP   1   1233  9.06                             149    -0.2 7   79 295 
 BRR  HZ I        1233 11.60        12.2 0.26                            79 295 
 BRR  HE ES   1   1233 25.89                             149     0.2 7   79 295 
 RUS  HZ EP   1   1233 11.35                             143    -0.1 7  101 181 
 RUS  HE ES   1   1233 29.67                             143     0.1 7  101 181 
 RUS  HZ I        1233 31.09         3.7 0.23                           101 181 
 GRA  SZ EP   1   1233 13.59                             136     0.8 7  123  13 
 GRA  SZ ES   1   1233 31.20                             136    -0.7 7  123  13 
 GRA  SZ I        1233 35.75         7.3 0.43                           123  13 
 PRA  HZ EP   1   1233 41.76                             105    -0.3 4  397 211 
                                                                                
