 2012  723 1613 34.8 L   6.791 -73.155143.2  RSN  7 0.4 2.0LRSN                1
 GAP=136        0.85       5.3     4.8  7.5  0.1050E+01  0.9647E+01 -0.1428E+01E
 Epicentro: LOS SANTOS - SANTANDER                                             3
 ACTION:UPD 12-08-14 11:44 OP:ep   STATUS:               ID:20120723161334 L   I
 2012-07-23-1610-00M.COL___209                                                 6
 STAT SP IPHASW D HRMM SECON CODA AMPLIT PERI AZIMU VELO AIN AR TRES W  DIS CAZ7
 BAR2 SZ EP       1613 54.25                             171     0.110   22 188 
 BAR2 SZ ES   1   1614  8.67                             171    -0.5 7   22 188 
 BAR2 SZ I        1614 12.98        18.5 0.32            171             22 188 
 BRR  HZ EP       1613 55.98                             152     0.310   71 300 
 BRR  HN ES   1   1614 12.65                             152     0.7 7   71 300 
 BRR  HZ I        1614 16.89        37.3 0.13            152             71 300 
 PAM  SZ EP   1   1613 56.86                             150     0.0 7   79  40 
 PAM  SN ES   1   1614 13.68                             150    -0.3 7   79  40 
 RUS  HZ EP   1   1613 58.26                             144     0.0 7  100 175 
 RUS  HN ES   1   1614 16.73                             144     0.2 7  100 175 
 RUS  HZ I        1614 18.85         6.7 0.29            148            100 175 
 PTB  HZ EP   1   1614  1.17                             132    -0.3 7  147 259 
 PTB  HN ES   1   1614 21.71                             132    -0.5 7  147 259 
 PTB  HZ I        1614 25.02        15.7 0.22            134            147 259 
 ZAR  HZ EP   1   1614  6.64                             122    -0.4 6  203 292 
 ZAR  HN ES   1   1614 32.10                             122    -0.1 6  203 292 
 ZAR  HZ I        1614 37.51        19.1 0.46            125            203 292 
 NOR  SN ES   2   1614 38.15                             118     0.3 4  233 235 
