 2015  823 1553  9.9 L   6.748 -73.089143.2  RSN  6 0.3 1.8LRSN                1
 GAP=146        0.79       3.3     4.0  5.6 -0.2236E+00  0.5947E+01  0.5456E+00E
 Epicentro: LOS SANTOS - SANTANDER                                             3
 ACTION:UPD 15-09-15 23:04 OP:cam  STATUS:               ID:20150823155309 L   I
 OLDACT:DUP 15-08-24 01:11 OP:spq  STATUS:               ID:20150823154750d    3
 2015-08-23-1547-49M.COL___343                                                 6
 STAT SP IPHASW D HRMM SECON CODA AMPLIT PERI AZIMU VELO AIN AR TRES W  DIS CAZ7
 BAR2 EZ EP       1553 28.99                             172   -0.1610 20.1 211 
 BAR2 EZ ES   1   1553 44.02                             172   -0.15 7 20.1 211 
 BAR2 EZ I        1553 49.38        14.7 0.42            168           20.1 211 
 PAM  EZ EP       1553 32.01                             150    0.1310 78.3  33 
 PAM  EE ES       1553 48.99                             150   -0.0510 78.3  33 
 PAM  EZ I        1553 49.52         9.8 0.36            156           78.3  33 
 BRR  HZ IP     C 1553 30.96                             149   -0.2910 79.5 300 
 BRR  HE ES       1553 48.19                             149    0.2710 79.5 300 
 BRR  HZ I        1553 51.80        11.8 0.32            148           79.5 300 
 RUS  HZ EP       1553 32.90                             145   -0.0610 94.6 180 
 RUS  HE ES       1553 51.15                             145    0.1910 94.6 180 
 RUS  HZ I        1553 52.24         6.8 0.38            148           94.6 180 
 SPBC HZ EP       1553 37.78                             129   -0.38 9  163 222 
 SPBC HE ES       1554  0.34                             129    0.12 9  163 222 
 SPBC HZ I        1554  4.95         9.6 0.10            130            163 222 
 ZAR  HZ EP       1553 43.80                             121    0.81 8  212 293 
 ZAR  HN ES       1554  8.38                             121   -0.44 8  212 293 
 ZAR  HZ I        1554 15.93         8.1 0.48            122            212 293 
                                                                                
