 2011  923 1226 41.1 L   6.745 -73.139139.9  RSN  5 0.1 1.6LRSN                1
 GAP=213        0.32       4.8     7.9  6.0  0.2944E+02 -0.1378E+02 -0.6360E+01E
 Epicentro: JORDAN - SANTANDER                                                 3
 ACTION:UPD 12-07-13 15:59 OP:ep   STATUS:               ID:20110923122641 L   I
 2011-09-23-1223-28S.COL___165                                                 6
 STAT SP IPHASW D HRMM SECON CODA AMPLIT PERI AZIMU VELO AIN AR TRES W  DIS CAZ7
 BAR2 SZ EP       1226 59.84                             172   -0.1010 17.5 196 
 BAR2 SZ I        1227  0.13         5.3 0.20                          17.5 196 
 BAR2 SZ ES   3   1227 15.02                             172    0.40 2 17.5 196 
 BTL  SZ EP       1227  0.10                             170    0.0410 23.9 324 
 BRR  HZ EP       1227  1.96                             150    0.1010 74.9 302 
 BRR  HZ I        1227  3.24        15.0 0.30                          74.9 302 
 BRR  HN ES   2   1227 17.80                             150   -0.24 5 74.9 302 
 RUS  HZ EP       1227  3.86                             144    0.0010 94.4 176 
 RUS  HN ES   2   1227 21.58                             144   -0.01 5 94.4 176 
 ZAR  HN ES   3   1227 38.84                             120    0.07 2  207 294 
 ZAR  HZ I        1227 45.03         3.5 0.44                           207 294 
                                                                                
