 2012  223 1017 30.1 L   7.306 -74.181 63.3  RSN 10 0.4 2.0LRSN                1
 GAP=172        0.63       2.8     2.9  6.6 -0.4397E+01  0.3888E+01 -0.2300E+01E
 ACTION:UP  12-03-07 16:33 OP:epov STATUS:               ID:20120223101730 L   I
 2012-02-23-1010-00M.COL___191                                                 6
 STAT SP IPHASW D HRMM SECON CODA AMPLIT PERI AZIMU VELO AIN AR TRES W  DIS CAZ7
 BRR  HZ EP   1   1017 41.63                             133   -0.28 7 56.2 113 
 BRR  HE ES   1   1017 51.75                             133    0.61 7 56.2 113 
 BRR  HZ I        1017 53.34        33.1 0.22                          56.2 113 
 PTB  HZ EP   1   1017 44.91                             118   -0.43 7 90.0 200 
 PTB  HE ES   1   1017 57.16                             118   -0.09 7 90.0 200 
 GIR2 SZ EP   1   1017 47.95                             112    0.02 7  112 103 
 GIR2 SZ ES   2   1018  1.33                             112   -0.54 5  112 103 
 BAR2 SZ EP   1   1017 50.72                             108   -0.09 7  136 126 
 BAR2 SZ ES   1   1018  6.68                             108   -0.32 7  136 126 
 BAR2 SZ I        1018  8.06        50.1 0.49                           136 126 
 OCA  SZ EP   1   1017 51.33                             107    0.07 7  140  43 
 OCA  SZ ES   1   1018  7.64                             107   -0.14 7  140  43 
 PAM  SZ EP   1   1017 54.60                             104    0.15 7  164  89 
 PAM  SN ES   1   1018 13.58                             104    0.12 7  164  89 
 HEL  HN ES   2   1018 19.67                             101    0.07 4  193 230 
 RUS  HZ EP   1   1017 58.36                             101   -0.22 6  198 142 
 RUS  HN ES   1   1018 20.98                             101    0.15 6  198 142 
 RUS  HZ I        1018 23.16         7.8 0.19                           198 142 
 NOR  SZ EP   1   1017 59.65                             100    0.47 6  207 202 
 NOR  SE ES   1   1018 21.59                             100   -0.29 6  207 202 
 CHI  HZ EP   1   1018 11.97                              96    0.99 5  300 170 
 CHI  HE ES   2   1018 42.92                              96    0.03 4  300 170 
 CHI  HZ I        1018 54.10         3.8 0.53                           300 170 
                                                                                
