 2015  723 1205  4.5 L   6.818 -73.162139.6  RSN  8 0.5 2.0LRSN                1
 GAP=191        1.22       3.8     6.6  8.3 -0.2645E+01  0.1380E+02  0.1988E+01E
 Epicentro: LOS SANTOS - SANTANDER                                             3
 ACTION:UPD 15-09-08 21:50 OP:cam  STATUS:               ID:20150723120504 L   I
 OLDACT:REG 15-07-23 22:19 OP:stll STATUS:               ID:20150723115748     3
 2015-07-23-1157-48M.COL___337                                                 6
 STAT SP IPHASW D HRMM SECON CODA AMPLIT PERI AZIMU VELO AIN AR TRES W  DIS CAZ7
 BAR2 EZ EP       12 5 24.00                             169    0.5610 25.1 185 
 BAR2 EZ ES       12 5 38.56                             169    0.3510 25.1 185 
 BAR2 EZ I        12 5 41.28        12.0 0.18            169           25.1 185 
 CPBEREZ EP       12 5 30.84                             131   -0.02 9  146 258 
 CPBEREN ES       12 5 50.71                             131   -0.70 9  146 258 
 OCA  HN ES       12 5 53.20                             129   -0.49 9  158 354 
 ZAR  HZ EP       12 5 37.13                             121    0.82 9  202 292 
 ZAR  HE ES       12 6  1.46                             121    0.35 9  202 292 
 ZAR  HZ I        12 6  7.85        13.0 0.36            123            202 292 
 NOR  HZ EP       12 5 40.50                             117    0.64 8  234 234 
 NOR  HE ES       12 6  6.90                             117   -0.53 8  234 234 
 NOR  HZ I        12 6 10.60         5.8 0.30            119            234 234 
 SML  HZ EP       12 5 40.36                             116   -0.16 8  241 335 
 SML  HE ES       12 6  8.34                             116   -0.26 8  241 335 
 SML  HZ I        12 6 12.08        13.6 0.10            118            241 335 
 CHI  HZ EP       12 5 41.03                             116   -1.01 8  250 195 
 CHI  HE ES       12 6 11.11                             116   -0.20 8  250 195 
 CHI  HZ I        12 6 17.20         5.5 0.40            117            250 195 
 GUY2CHZ EP       12 5 47.65                             111   -0.16 7  301 234 
 GUY2CHE ES       12 6 22.20                             111    0.62 7  301 234 
 GUY2CHZ I        12 6 31.70         4.6 0.58                           301 234 
                                                                                
