 2016 1223 1941 58.4 L   6.811 -73.124148.6  RSN  9 0.3 1.8LRSN                1
 GAP=241        0.70       3.3     4.0  4.2  0.4884E+01  0.2556E+01  0.1864E+01E
 Epicentro: LOS SANTOS - SANTANDER                                             3
 ACTION:UPD 17-01-11 20:18 OP:rebc STATUS:               ID:20161223194158 L   I
 OLDACT:UP  16-12-23 22:06 OP:edw  STATUS:               ID:20161223193749d    3
 OLDACT:UP  16-12-23 22:05 OP:edw  STATUS:               ID:20161223193749d    3
 OLDACT:DUP 16-12-23 22:00 OP:edw  STATUS:               ID:20161223193749d    3
 2016-12-23-1938-00M.COL___360                                                 6
 STAT SP IPHASW D HRMM SECON CODA AMPLIT PERI AZIMU VELO AIN AR TRES W  DIS CAZ7
 BAR2 EZ EP       1942 18.24                             170   -0.1110 25.0 195 
 BAR2 EZ ES       1942 33.72                             170   -0.2310 25.0 195 
 BAR2 EZ I        1942 34.81        15.0 0.20            167           25.0 195 
 BRR  HZ EP       1942 20.06                             152    0.1710 72.8 297 
 BRR  HE ES       1942 37.30                             152    0.6110 72.8 297 
 RUS  HZ EP       1942 22.20                             144   -0.2510  102 177 
 RUS  HN ES       1942 41.12                             144   -0.1310  102 177 
 RUS  HZ I        1942 42.94        10.6 0.22            143            102 177 
 PTB  HZ EP   9   1942 25.01                             132   -0.77 0  150 259 
 PTB  HN ES       1942 46.25                             131   -0.15 9  150 259 
 PTB  HZ I        1942 47.09         7.9 0.17            130            150 259 
 ZAR  HZ EP       1942 31.10                             123   -0.06 8  206 292 
 ZAR  HE ES       1942 56.27                             123   -0.48 8  206 292 
 ZAR  HZ I        1943  3.42         5.2 0.09            122            206 292 
 NOR  HZ EP       1942 34.81                             119    0.29 8  237 235 
 NOR  HN ES       1943  2.62                             119   -0.12 8  237 235 
 NOR  HZ I        1943  6.90         5.9 0.28            118            237 235 
 CHI  HZ EP       1942 36.52                             117    0.12 8  250 196 
 CHI  HN ES       1943  6.37                             117    0.30 8  250 196 
 CHI  HZ I        1943  9.60         2.7 0.38            117            250 196 
 ROSC BZ EP   4   1942 38.86                             117    1.99 0  255 211 
 ROSC BN ES   4   1943  8.84                             117    1.93 0  255 211 
 GUY2CHZ EP   4   1942 44.34                             113    1.96 0  304 235 
 GUY2CHE ES   4   1943 19.39                             113    2.66 0  304 235 
 GUY2CHZ I        1943 23.42         3.7 0.56                           304 235 
 CBOC HZ EP   2   1942 45.25                             110   -0.43 3  336 252 
 CBOC HN ES   4   1943 21.96                             110   -0.64 0  336 252 
                                                                                
