 2012  523 1328 34.9 L   6.815 -73.177146.6  RSN  4 0.2 1.4LRSN                1
 GAP=144        0.47       5.0     4.1  5.9  0.6780E+00  0.7479E+01 -0.1186E+00E
 Epicentro: LOS SANTOS - SANTANDER                                             3
 ACTION:UP  12-07-05 12:07 OP:pat  STATUS:               ID:20120523132834 L   I
 2012-05-23-1320-00M.COL___200                                                 6
 STAT SP IPHASW D HRMM SECON CODA AMPLIT PERI AZIMU VELO SNR AR TRES W  DIS CAZ7
 BAR2 SZ EP   1   1328 54.88                             170     0.2 7   25 181 
 BAR2 SZ I        1328 55.14         7.9 0.18                            25 181 
 BAR2 SZ ES   1   1329  9.83                             170    -0.3 7   25 181 
 PAM  SN ES   2   1329 14.88                             151     0.1 5   78  42 
 RUS  HZ EP   1   1328 58.72                             143    -0.2 7  103 174 
 RUS  HE ES   1   1329 17.77                             143     0.2 7  103 174 
 RUS  HZ I        1329 18.68         3.8 0.28                           103 174 
 PTB  HZ EP   1   1329  1.58                             133    -0.1 7  145 258 
 PTB  HN ES   1   1329 22.67                             133     0.1 7  145 258 
 PTB  HZ I        1329 25.29         2.7 0.09                           145 258 
                                                                                
