 2010 1123 1959  3.8 L   6.776 -73.140147.2  RSN  7 0.5 2.0LRSN                1
 GAP=159        1.22       6.1    11.2  9.0 -0.1502E+02  0.1275E+02  0.1098E+02E
 Epicentro: LOS SANTOS - SANTANDER                                             3
 ACTION:UP  10-12-17 16:54 OP:REBC STATUS:               ID:20101123195903 L   I
 2010-11-23-1956-26S.COL___129                                                 6
 STAT SP IPHASW D HRMM SECON CODA AMPLIT PERI AZIMU VELO SNR AR TRES W  DIS CAZ7
 BAR2 SZ EP       1959 23.54                             172     0.010   21 193 
 BAR2 SZ ES   1   1959 38.24                             172    -0.7 7   21 193 
 BAR2 SZ I        1959 40.33        17.7 0.17                            21 193 
 BRR  HZ EP       1959 25.52                             152     0.310   73 300 
 BRR  HE ES   1   1959 42.33                             152     0.4 7   73 300 
 BRR  HZ I        1959 44.74        24.6 0.31                            73 300 
 RUS  HZ EP       1959 27.43                             145     0.010   98 176 
 RUS  HN ES   1   1959 46.32                             145     0.4 7   98 176 
 RUS  HZ I        1959 47.80         8.4 0.19                            98 176 
 GRA  SZ EP       1959 29.31                             137     0.010  128  17 
 GRA  SZ ES   2   1959 48.71                             137    -0.6 5  128  17 
 GRA  SZ I        1959 50.12        15.3 0.21                           128  17 
 CHI  HZ EP       1959 41.62                             118     0.3 8  246 195 
 CHI  HN ES   2   20 0 10.28                             118    -0.3 4  246 195 
 CHI  HZ I        20 0 18.77         4.3 0.48                           246 195 
 RREF HZ IP     C 1959 48.39                             111    -1.4 7  320 230 
 RREF HZ I        1959 49.51         8.7 0.18                           320 230 
 RREF HE ES   2   20 0 25.81                             111     0.1 3  320 230 
 PRA  HZ EP       1959 57.97                             107     0.9 6  390 210 
 PRA  HN ES   2   20 0 38.24                             107    -0.5 3  390 210 
                                                                                
