 2011  923 1055 28.8 L   6.777 -73.091139.1  RSN  6 0.4 1.7LRSN                1
 GAP=145        0.66       5.0     7.1  7.1  0.1191E+01 -0.2691E+01 -0.1897E+01E
 Epicentro: LOS SANTOS - SANTANDER                                             3
 ACTION:UPD 12-07-13 15:59 OP:ep   STATUS:               ID:20110923105528 L   I
 2011-09-23-1053-20S.COL___165                                                 6
 STAT SP IPHASW D HRMM SECON CODA AMPLIT PERI AZIMU VELO AIN AR TRES W  DIS CAZ7
 BAR2 SZ EP       1055 47.50                             170   -0.1210 22.8 206 
 BAR2 SZ ES   1   1056  1.95                             170   -0.34 7 22.8 206 
 BTL  SZ EP       1055 47.90                             169    0.2310 25.0 309 
 PAM  SZ EP       1055 50.45                             150    0.2310 75.8  35 
 PAM  SN ES   2   1056  6.50                             150   -0.41 5 75.8  35 
 BRR  HZ EP       1055 49.56                             149   -0.0710 77.7 298 
 BRR  HN ES   2   1056  6.30                             149    0.43 5 77.7 298 
 BRR  HZ I        1056 12.01        10.6 0.34                          77.7 298 
 RUS  HZ EP       1055 51.46                             143   -0.2410 97.8 179 
 RUS  HE ES   2   1056 10.36                             143    0.81 5 97.8 179 
 ZAR  HN ES   3   1056 25.94                             120   -1.08 2  211 292 
 ZAR  HZ I        1056 32.59         3.3 0.46                           211 292 
                                                                                
