 2016  823 1227 18.1 L   6.289 -73.735 98.7  RSN  5 0.4 1.8LRSN                1
 GAP=147        1.03       4.2     4.2  8.7 -0.3647E+01  0.1060E+02 -0.6087E+01E
 Epicentro: LANDAZURI - SANTANDER                                              3
 ACTION:UPD 16-10-29 15:38 OP:rebc STATUS:               ID:20160823122718 L   I
 OLDACT:DUP 16-08-23 23:16 OP:ar   STATUS:               ID:20160823121747d    3
 OLDACT:UP  16-08-23 23:14 OP:ar   STATUS:               ID:20160823121746d    3
 OLDACT:DUP 16-08-23 22:23 OP:ar   STATUS:               ID:20160823121746d    3
 2016-08-23-1218-00M.COL___374                                                 6
 STAT SP IPHASW D HRMM SECON CODA AMPLIT PERI AZIMU VELO AIN AR TRES W  DIS CAZ7
 BAR2 EZ EP       1227 34.81                             142    0.1610 69.7  61 
 BAR2 EZ ES       1227 47.44                             142   -0.1110 69.7  61 
 BAR2 EZ I        1227 48.97        17.8 0.14                          69.7  61 
 SPBC HZ EP       1227 35.43                             138    0.2010 79.7 208 
 SPBC HN ES       1227 48.94                             138    0.3610 79.7 208 
 SPBC HZ I        1227 53.14        17.0 0.26                          79.7 208 
 PTB  HZ EP       1227 34.85                             136   -0.6710 84.4 289 
 PTB  HE ES       1227 48.72                             136   -0.3810 84.4 289 
 PTB  HZ I        1227 49.58        10.5 0.16                          84.4 289 
 NOR  HZ EP       1227 41.34                             119   -0.57 9  149 237 
 NOR  HE ES       1228  0.71                             119    0.23 9  149 237 
 NOR  HZ I        1228  3.47        12.6 0.12                           149 237 
 ZAR  HZ EP       1227 45.87                             114    0.39 9  182 317 
 ZAR  HN ES       1228  7.37                             114    0.54 9  182 317 
 ZAR  HZ I        1228 12.86         7.4 0.36                           182 317 
                                                                                
