 2015  823 1050 59.4 L   6.793 -73.150153.8  RSN  7 0.4 1.6LRSN                1
 GAP=182        0.83       3.4     6.5  6.8  0.9399E+01  0.4621E+00  0.8815E+00E
 Epicentro: LOS SANTOS - SANTANDER                                             3
 ACTION:UPD 15-09-15 23:04 OP:cam  STATUS:               ID:20150823105059 L   I
 OLDACT:REG 15-08-23 20:14 OP:spq  STATUS:               ID:20150823104750     3
 2015-08-23-1047-50M.COL___340                                                 6
 STAT SP IPHASW D HRMM SECON CODA AMPLIT PERI AZIMU VELO AIN AR TRES W  DIS CAZ7
 BAR2 EZ EP       1051 19.69                             171   -0.3110 22.5 189 
 BAR2 EZ ES   1   1051 35.74                             171   -0.32 7 22.5 189 
 BAR2 EZ I        1051 36.61         5.4 0.36            168           22.5 189 
 BRR  HZ EP       1051 21.84                             154    0.4010 71.1 299 
 BRR  HN ES       1051 39.22                             154    0.6010 71.1 299 
 BRR  HZ I        1051 40.40         6.3 0.48            149           71.1 299 
 RUS  HZ EP       1051 24.08                             146    0.1610 99.9 176 
 RUS  HE ES   1   1051 42.66                             146   -0.38 7 99.9 176 
 RUS  HZ I        1051 44.17         3.9 0.54            144           99.9 176 
 OCA  HE ES       1051 51.04                             131   -0.01 9  161 353 
 OCA  HZ I        1051 54.64         7.0 0.30            130            161 353 
 ZAR  HE ES       1051 57.69                             124   -0.41 9  204 292 
 ZAR  HZ I        1052  4.38         3.6 0.48            121            204 292 
 SML  HZ EP   1   1051 36.57                             119    0.01 6  244 335 
 SML  HE ES   1   1052  4.96                             119   -0.57 6  244 335 
 SML  HZ I        1052 10.04         5.2 0.24            117            244 335 
 CHI  HZ EP   1   1051 37.93                             119    0.44 6  248 195 
 CHI  HE ES   1   1052  6.92                             119   -0.26 6  248 195 
 CHI  HZ I        1052 13.09         1.9 0.19            117            248 195 
                                                                                
