 2012  523 1145 20.8 L   6.751 -73.158136.4  RSN  6 0.3 1.9LRSN                1
 GAP=137        0.56       3.9     3.3  6.6 -0.1023E+01  0.6767E+01 -0.3612E+01E
 Epicentro: LOS SANTOS - SANTANDER                                             3
 ACTION:UP  12-07-05 12:07 OP:pat  STATUS:               ID:20120523114520 L   I
 2012-05-23-1140-00M.COL___200                                                 6
 STAT SP IPHASW D HRMM SECON CODA AMPLIT PERI AZIMU VELO SNR AR TRES W  DIS CAZ7
 BAR2 SZ EP   1   1145 39.41                             172     0.2 7   18 189 
 BAR2 SZ I        1145 39.78        22.3 0.10                            18 189 
 BAR2 SZ ES   1   1145 53.50                             172     0.0 7   18 189 
 PAM  SZ EP   1   1145 42.08                             147    -0.2 7   82  38 
 PAM  SN ES   2   1145 59.09                             147     0.0 5   82  38 
 RUS  HZ EP   1   1145 43.38                             143     0.2 7   95 175 
 RUS  HN ES   1   1146  0.80                             143     0.1 7   95 175 
 RUS  HZ I        1146  3.06         9.5 0.42                            95 175 
 PTB  HZ EP   2   1145 46.33                             130    -0.4 5  146 261 
 PTB  HN ES   1   1146  6.67                             130    -0.4 7  146 261 
 PTB  HZ I        1146  9.87        11.2 0.16                           146 261 
 ZAR  HN ES   1   1146 18.10                             120     0.5 6  205 294 
 NOR  SN ES   1   1146 22.63                             117     0.0 6  231 235 
                                                                                
