 2014  823 1357 18.1 L   6.810 -73.176144.4  RSN 12 0.3 2.2LRSN                1
 GAP=132        0.82       2.3     3.1  4.3 -0.5817E+00  0.3602E+01  0.7008E+00E
 Epicentro: LOS SANTOS - SANTANDER                                             3
 ACTION:UPD 14-09-15 21:52 OP:nd   STATUS:               ID:20140823135718 L   I
 OLDACT:UP  14-08-23 22:25 OP:cam  STATUS:               ID:20140823135000     3
 OLDACT:REG 14-08-23 20:49 OP:cam  STATUS:               ID:20140823135000     3
 2014-08-23-1350-00M.COL___285                                                 6
 STAT SP IPHASW D HRMM SECON CODA AMPLIT PERI AZIMU VELO AIN AR TRES W  DIS CAZ7
 BAR2 SZ EP     C 1357 37.59                             170   -0.0310 24.1 182 
 BAR2 SZ ES       1357 52.40                             170   -0.4210 24.1 182 
 BAR2 SZ I        1357 53.83        45.6 0.24            171           24.1 182 
 BRR  HZ EP     D 1357 39.47                             153    0.5310 67.7 299 
 BRR  HN ES       1357 55.46                             153    0.2810 67.7 299 
 BRR  HZ I        1358  0.35        20.9 0.36            152           67.7 299 
 PAM  SZ EP     D 1357 40.52                             150    0.2410 78.7  42 
 PAM  SN ES       1357 57.82                             150    0.2610 78.7  42 
 PAM  SZ I        1357 59.83        31.3 0.46            153           78.7  42 
 RUS  HZ EP     C 1357 41.54                             143   -0.3110  102 174 
 RUS  HE ES       1358  0.51                             143    0.1510  102 174 
 RUS  HZ I        1358  2.00        20.7 0.40            146            102 174 
 PTB  HZ EP       1357 44.64                             132   -0.07 9  145 258 
 PTB  HN ES       1358  5.10                             132   -0.35 9  145 258 
 PTB  HZ I        1358  7.32        14.5 0.14            133            145 258 
 SPBC HZ EP       1357 46.47                             129    0.06 9  162 218 
 SPBC HN ES       1358  7.86                             129   -0.61 9  162 218 
 SPBC HZ I        1358 13.11        28.2 0.42            131            162 218 
 ZAR  HZ EP       1357 49.99                             123   -0.14 9  201 292 
 ZAR  HN ES       1358 15.25                             123    0.17 9  201 292 
 ZAR  HZ I        1358 22.32         9.4 0.28            124            201 292 
 NOR  HZ EP     C 1357 53.46                             118   -0.10 8  233 234 
 NOR  HE ES       1358 22.01                             118    0.81 8  233 234 
 NOR  HZ I        1358 24.96         8.7 0.20            120            233 234 
 SML  HZ EP       1357 54.21                             117   -0.21 8  241 336 
 SML  HN ES       1358 22.18                             117   -0.55 8  241 336 
 SML  HZ I        1358 26.85        17.0 0.24            119            241 336 
 CHI  HZ EP       1357 55.79                             117    0.01 8  249 194 
 CHI  HN ES       1358 25.15                             117    0.00 8  249 194 
 CHI  HN I        1358 27.43        17.2 0.34            119            249 194 
 GUY2CHE ES       1358 35.42                             112    0.19 7  299 234 
 GUY2CHZ I        1358 43.81         5.9 0.32                           299 234 
 PRA  HZ EP       1358 11.59                             106    0.06 6  391 209 
                                                                                
