 2017  923 1432 54.8 L   6.757 -73.120138.9  RSN  6 0.5 1.7LRSN                1
 GAP=142        1.32       5.8     6.3  8.9 -0.2895E+00  0.2054E+02  0.3053E+01E
 Epicentro: LOS SANTOS - SANTANDER                                             3
 ACTION:UPD 17-10-05 19:15 OP:rebc STATUS:               ID:20170923143254 L   I
 OLDACT:REG 17-09-23 20:40 OP:lv   STATUS:               ID:20170923142741     3
 2017-09-23-1428-00M.COL___441                                                 6
 STAT SP IPHASW D HRMM SECON CODA AMPLIT PERI AZIMU VELO AIN AR TRES W  DIS CAZ7
 BAR2 EZ EP       1433 13.54                             172    0.0210 19.5 201 
 BAR2 EZ ES       1433 26.98                             172   -1.1510 19.5 201 
 BAR2 EZ I        1433 29.57        18.1 0.28            169           19.5 201 
 BRR  HZ EP       1433 15.42                             150   -0.0710 76.0 301 
 BRR  HN ES       1433 32.50                             150    0.8610 76.0 301 
 BRR  HZ I        1433 35.95        13.3 0.50            147           76.0 301 
 PAM  EZ EP       1433 16.58                             149    0.1810 79.4  36 
 PAM  EN ES       1433 33.44                             149    0.1810 79.4  36 
 PAM  EZ I        1433 35.40        11.6 0.64            153           79.4  36 
 RUS  HZ EP       1433 17.63                             144    0.1210 95.7 178 
 RUS  HN ES       1433 35.52                             144    0.2810 95.7 178 
 RUS  HZ I        1433 36.78         4.4 0.26            147           95.7 178 
 ZAR  HZ EP       1433 26.35                             120   -0.91 8  209 293 
 ZAR  HN ES       1433 52.46                             120   -0.13 8  209 293 
 ZAR  HZ I        1433 59.46         4.4 0.13            121            209 293 
 NOR  HZ EP       1433 30.39                             117    0.30 8  234 236 
 NOR  HN ES       1433 57.79                             117    0.17 8  234 236 
 NOR  HZ I        1434  3.40         2.1 0.22            118            234 236 
                                                                                
