 2016  623 1214 26.2 L   6.783 -73.123136.0  RSN  9 0.5 2.0LRSN                1
 GAP=140        1.14       4.2     4.7  6.7 -0.2061E+01  0.1047E+02  0.4280E+01E
 Epicentro: LOS SANTOS - SANTANDER                                             3
 ACTION:UPD 16-07-21 22:22 OP:rebc STATUS:               ID:20160623121426 L   I
 OLDACT:REG 16-06-23 20:45 OP:ar   STATUS:               ID:20160623120745     3
 2016-06-23-1207-45M.COL___325                                                 6
 STAT SP IPHASW D HRMM SECON CODA AMPLIT PERI AZIMU VELO AIN AR TRES W  DIS CAZ7
 BAR2 EZ EP       1214 44.32                             170   -0.3110 22.1 197 
 BAR2 EZ ES       1214 59.43                             170    0.4310 22.1 197 
 BAR2 EZ I        1215  0.08        21.3 0.32                          22.1 197 
 BRR  HZ EP       1214 46.18                             150   -0.3110 74.3 299 
 BRR  HN ES       1215  3.09                             150    0.7810 74.3 299 
 BRR  HZ I        1215  7.63        18.4 0.44                          74.3 299 
 PAM  EZ EP       1214 47.17                             149   -0.2110 77.3  37 
 PAM  EZ ES       1215  4.06                             149    0.1610 77.3  37 
 PAM  EZ I        1215  6.15        21.3 0.66                          77.3  37 
 RUS  HZ EP       1214 48.65                             143   -0.2010 98.5 177 
 RUS  HN ES       1215  6.50                             143   -0.0110 98.5 177 
 RUS  HZ I        1215  7.04         5.5 0.48                          98.5 177 
 PTB  HZ EP       1214 52.71                             129    0.13 9  150 260 
 PTB  HN ES       1215 12.65                             129   -0.51 9  150 260 
 PTB  HZ I        1215 14.13        15.5 0.14                           150 260 
 SPBC HZ EP       1214 53.39                             127   -0.59 9  163 220 
 SPBC HN ES       1215 15.10                             127   -0.54 9  163 220 
 SPBC HZ I        1215 17.31         9.3 0.10                           163 220 
 ZAR  HZ EP       1214 58.72                             120    0.37 8  207 292 
 ZAR  HN ES       1215 22.77                             120   -0.65 8  207 292 
 ZAR  HZ I        1215 31.04        18.7 0.48                           207 292 
 GUY2CHE EP       1215 10.19                             111    0.71 7  302 235 
 GUY2CHN ES       1215 44.15                             111    0.91 7  302 235 
 PRA  HN EP   2   1215 19.92                             105    0.57 3  392 210 
 PRA  HN ES       1216  1.56                             105    0.76 6  392 210 
                                                                                
