 2011 1123 1658 21.1 L   6.776 -73.102139.9  RSN  5 0.3 1.6LRSN                1
 GAP=143        0.57       4.3     5.4  6.5  0.6038E+01 -0.4405E+01 -0.2560E+01E
 Epicentro: LOS SANTOS - SANTANDER                                             3
 ACTION:UPD 12-07-13 16:11 OP:ep   STATUS:               ID:20111123165821 L   I
 2011-11-23-1654-11S.COL___178                                                 6
 STAT SP IPHASW D HRMM SECON CODA AMPLIT PERI AZIMU VELO AIN AR TRES W  DIS CAZ7
 BAR2 SZ EP   1   1658 39.65                             170   -0.31 7 22.2 204 
 BAR2 SZ ES   1   1658 54.36                             170   -0.35 7 22.2 204 
 BAR2 SZ I        1659  1.83        10.3 0.49                          22.2 204 
 PAM  SZ EP   1   1658 42.85                             150    0.25 7 76.5  35 
 PAM  SZ I        1658 43.03         2.7 0.14                          76.5  35 
 PAM  SN ES   2   1658 59.24                             150   -0.16 5 76.5  35 
 BRR  HZ EP   2   1658 41.56                             149   -0.35 5 76.7 299 
 BRR  HZ I        1658 42.30        16.9 0.47                          76.7 299 
 BRR  HE ES   1   1658 58.59                             149    0.42 7 76.7 299 
 RUS  HZ EP   1   1658 44.21                             143    0.18 7 97.8 179 
 RUS  HN ES   1   1659  2.10                             143    0.15 7 97.8 179 
 RUS  HZ I        1659  4.67         3.7 0.34                          97.8 179 
 ZAR  HN ES   2   1659 18.81                             120   -0.36 4  210 292 
 ZAR  HZ I        1659 24.41         4.6 0.49                           210 292 
                                                                                
