 2010  623 1656  5.2 L   5.735 -74.021107.8  RSN  4 0.1 1.4LRSN                1
 GAP=206        0.31       3.5     2.3  7.9 -0.3277E+00  0.1145E+02  0.7320E+01E
 Epicentro: FLORIAN - SANTANDER                                                3
 ACTION:UP  10-08-24 10:12 OP:vdl  STATUS:               ID:20100623165605 L   I
 2010-06-23-1652-11S.COL___118                                                 6
 STAT SP IPHASW D HRMM SECON CODA AMPLIT PERI AZIMU VELO SNR AR TRES W  DIS CAZ7
 RUS  HZ EP   1   1656 25.89                             132     0.0 8  105  80 
 RUS  HN ES   2   1656 41.91                             132    -0.1 5  105  80 
 RUS  HZ I        1656 45.74         2.1 0.35                           105  80 
 BAR2 SZ ES       1656 46.01                             125     0.010  133  44 
 BRR  HZ EP   1   1656 30.24                             120     0.1 7  156  13 
 BRR  HN ES   2   1656 49.51                             120    -0.1 5  156  13 
 HEL  HZ EP   1   1656 32.55                             117    -0.1 7  174 287 
 HEL  HN ES   2   1656 54.22                             117     0.1 5  174 287 
 HEL  HZ I        1656 58.73         7.1 0.27                           174 287 
                                                                                
