 2014  823 1812 27.6 L   6.784 -73.151144.0  RSN 17 0.4 2.5LRSN                1
 GAP=137        0.88       2.4     3.4  4.2 -0.4624E+00  0.4359E+01  0.1425E+01E
 Epicentro: LOS SANTOS - SANTANDER                                             3
 ACTION:UPD 14-09-15 21:52 OP:nd   STATUS:               ID:20140823181227 L   I
 OLDACT:UP  14-08-23 23:32 OP:cam  STATUS:               ID:20140823181000     3
 OLDACT:UP  14-08-23 23:32 OP:cam  STATUS:               ID:20140823181000     3
 OLDACT:UP  14-08-23 23:31 OP:cam  STATUS:               ID:20140823181000     3
 OLDACT:REG 14-08-23 21:46 OP:cam  STATUS:               ID:20140823181000     3
 2014-08-23-1810-00M.COL___288                                                 6
 STAT SP IPHASW D HRMM SECON CODA AMPLIT PERI AZIMU VELO AIN AR TRES W  DIS CAZ7
 BAR2 SZ IP     D 1812 46.91                             171   -0.0610 21.5 189 
 BAR2 SZ ES       1813  1.87                             171   -0.2210 21.5 189 
 BAR2 SZ I        1813  3.11       133.4 0.16            168           21.5 189 
 BRR  HZ EP       1812 48.95                             152    0.3810 71.6 300 
 BRR  HE ES       1813  5.71                             152    0.7710 71.6 300 
 BRR  HZ I        1813  8.01        41.9 0.28            150           71.6 300 
 PAM  SZ EP     D 1812 49.76                             150    0.0410 79.1  39 
 PAM  SN ES       1813  6.92                             150   -0.0710 79.1  39 
 PAM  SZ I        1813  9.23        35.6 0.56            155           79.1  39 
 RUS  HZ EP     C 1812 50.86                             144   -0.1910 98.9 176 
 RUS  HN ES       1813  9.45                             144    0.1110 98.9 176 
 RUS  HZ I        1813 10.62        30.5 0.30            145           98.9 176 
 PTB  HZ EP     C 1812 53.98                             132   -0.36 9  147 259 
 PTB  HN ES       1813 14.36                             132   -0.84 9  147 259 
 PTB  HZ I        1813 21.96        36.3 0.24            131            147 259 
 SPBC HZ EP       1812 55.81                             129    0.02 9  161 219 
 SPBC HE ES       1813 17.83                             129    0.04 9  161 219 
 SPBC HZ I        1813 22.45        39.4 0.32            129            161 219 
 ZAR  HZ EP       1812 59.82                             122   -0.12 9  204 293 
 ZAR  HE ES       1813 25.70                             122    0.53 9  204 293 
 ZAR  HZ I        1813 31.88        32.2 0.34            123            204 293 
 NOR  HZ EP       1813  2.82                             118   -0.24 8  233 235 
 NOR  HN ES       1813 30.49                             118   -0.24 8  233 235 
 NOR  HZ I        1813 34.42        22.9 0.20            119            233 235 
 SML  HZ EP       1813  3.78                             117   -0.49 8  245 336 
 SML  HE ES       1813 32.79                             117   -0.09 8  245 336 
 SML  HZ I        1813 35.98        34.5 0.10            119            245 336 
 CHI  HZ EP       1813  5.13                             117    0.14 8  247 195 
 CHI  HN ES       1813 34.02                             117   -0.14 8  247 195 
 CHI  HZ I        1813 40.78        11.0 0.28            118            247 195 
 ROSC BZ EP   4   1813  6.92                             117    1.50 0  251 211 
 HEL  HZ EP       1813  7.32                             115   -0.29 8  271 256 
 GUY2CHZ EP       1813 11.16                             112    0.20 7  300 235 
 TOL  SZ EP       1813 16.12                             109    0.53 7  342 225 
 MON  HZ EP   4   1813 14.46                             108   -2.14 0  354 309 
 MON  HN ES   4   1813 53.48                             108   -1.35 0  354 309 
 MON  HZ I        1813 55.49         5.9 0.20            109            354 309 
 PRA  HZ EP       1813 20.80                             106   -0.04 6  390 210 
 PRA  HE ES       1814  3.36                             106    0.99 6  390 210 
 PRA  HZ I        1814  8.62        16.9 0.28            107            390 210 
 ORTC HZ EP       1813 21.65                             106    0.40 6  394 216 
 ORTC HN ES   4   1814  5.45                             106    2.35 0  394 216 
 ORTC HZ I        1814 10.90         8.7 0.54            107            394 216 
 SJC  HZ EP   4   1813 21.23                             105   -2.01 0  410 327 
 SJC  HN ES   4   1814  2.84                             105   -3.80 0  410 327 
 SJC  HZ I        1814  6.75         7.3 0.46            107            410 327 
                                                                                
