 2015  823 1504  8.4 L   6.830 -73.143144.0  RSN 23 0.4 2.5LRSN                1
 GAP= 70        0.82       2.1     2.3  4.1 -0.5467E+00  0.3042E+01  0.1596E+01E
 Epicentro: LOS SANTOS - SANTANDER                                             3
 ACTION:UPD 15-09-15 23:04 OP:cam  STATUS:               ID:20150823150408 L   I
 OLDACT:UP  15-08-24 00:52 OP:spq  STATUS:               ID:20150823145744     3
 OLDACT:REG 15-08-23 20:28 OP:spq  STATUS:               ID:20150823145744     3
 2015-08-23-1457-44M.COL___343                                                 6
 STAT SP IPHASW D HRMM SECON CODA AMPLIT PERI AZIMU VELO AIN AR TRES W  DIS CAZ7
 BAR2 EZ IP     C 15 4 27.68                             169   -0.1810 26.7 189 
 BAR2 EZ ES   1   15 4 42.73                             169   -0.34 7 26.7 189 
 BAR2 EZ I        15 4 44.08        55.0 0.20            167           26.7 189 
 BRR  HZ IP     C 15 4 29.46                             153    0.2010 69.9 296 
 BRR  HN ES       15 4 46.31                             153    0.7610 69.9 296 
 BRR  HZ I        15 4 47.23        54.1 0.30            149           69.9 296 
 PAM  EZ EP     C 15 4 30.42                             152    0.1810 74.6  41 
 PAM  EN ES       15 4 47.62                             152    0.3310 74.6  41 
 PAM  EZ I        15 4 48.19        43.4 0.20            154           74.6  41 
 RUS  HZ EP       15 4 31.69                             143   -0.5110  104 176 
 RUS  HN ES   1   15 4 50.50                             143   -0.28 7  104 176 
 RUS  HZ I        15 4 51.59        17.2 0.24            143            104 176 
 TAM  HZ EP       15 4 36.11                             130    0.14 9  156 106 
 TAM  HN ES       15 4 57.68                             130    0.18 9  156 106 
 TAM  HZ I        15 4 58.25        34.2 0.36            133            156 106 
 OCA  HN ES       15 4 57.47                             130   -0.50 9  157 353 
 OCA  HZ I        15 5  0.73        77.5 0.24            130            157 353 
 SPBC HZ EP       15 4 36.69                             128   -0.31 9  166 218 
 SPBC HN ES       15 4 59.30                             128   -0.03 9  166 218 
 SPBC HZ I        15 5  4.92        44.0 0.30            127            166 218 
 ZAR  HZ EP       15 4 40.30                             122   -0.30 9  203 291 
 ZAR  HN ES       15 5  5.61                             122   -0.13 9  203 291 
 ZAR  HZ I        15 5 11.45        45.6 0.62            121            203 291 
 NOR  HZ EP       15 4 44.16                             118   -0.07 8  237 234 
 NOR  HE ES       15 5 12.10                             118   -0.11 8  237 234 
 NOR  HZ I        15 5 17.75        29.3 0.18            117            237 234 
 SML  HZ EP       15 4 44.33                             118   -0.25 8  241 335 
 SML  HN ES   1   15 5 12.46                             118   -0.36 6  241 335 
 SML  HZ I        15 5 17.44        26.7 0.40            117            241 335 
 CHI  HZ EP       15 4 46.11                             117   -0.23 8  252 195 
 CHI  HN ES       15 5 15.75                             117   -0.20 8  252 195 
 CHI  HZ I        15 5 20.51        10.8 0.24            116            252 195 
 ROSC BZ EP   4   15 4 47.90                             116    1.17 0  256 211 
 ROSC BN ES   4   15 5 19.09                             116    2.45 0  256 211 
 ROSC BZ I        15 5 21.64        23.9 0.40            116            256 211 
 HEL  HZ EP       15 4 48.53                             114   -0.09 8  273 255 
 HEL  HE ES       15 5 20.35                             114    0.34 8  273 255 
 HEL  HZ I        15 5 25.96        16.4 0.28            113            273 255 
 URE  HE ES   4   15 5 18.44                             113   -2.68 0  283 291 
 URE  HZ I        15 5 30.54        20.6 0.22            112            283 291 
 LL2C HZ EP   1   15 4 51.94                             112    0.44 5  303 354 
 LL2C HN ES   4   15 5 27.46                             112    2.32 0  303 354 
 LL2C HZ I        15 5 34.29        38.3 0.68            112            303 354 
 GUY2CHZ EP       15 4 52.25                             112    0.11 7  303 234 
 GUY2CHN ES       15 5 26.92                             112    0.64 7  303 234 
 GUY2CHZ I        15 5 35.52        12.0 0.62                           303 234 
 PTGC HZ EP   4   15 4 51.05                             111   -1.45 0  312 159 
 PTGC HN ES   4   15 5 24.70                             111   -2.21 0  312 159 
 PTGC HZ I        15 5 29.71        25.0 0.42            112            312 159 
 ELA  HN ES   1   15 5 31.45                             110   -0.67 5  332 229 
 ELA  HZ I        15 5 39.56        11.9 0.62            109            332 229 
 CBOC HZ EP       15 4 55.81                             110    0.45 7  335 252 
 CBOC HE ES   1   15 5 31.29                             110   -0.72 5  335 252 
 CBOC HZ I        15 5 40.81         4.9 0.50            109            335 252 
 DBB  SZ EP       15 4 55.39                             109   -0.39 7  340 274 
 DBB  SZ ES   4   15 5 31.32                             109   -1.44 0  340 274 
 DBB  SZ I        15 5 40.03        28.4 0.38            109            340 274 
 TOL  SZ EP       15 4 57.66                             109    0.80 6  346 224 
 TOL  SN ES   4   15 5 35.82                             109    1.15 0  346 224 
 TOL  SZ I        15 5 42.06        14.7 0.44            108            346 224 
 ORTC HZ EP       15 5  2.87                             106    0.30 6  398 216 
 ORTC HN ES       15 5 45.44                             106    0.60 6  398 216 
 ORTC HZ I        15 5 50.33         8.8 0.20            106            398 216 
 SJC  HZ EP   4   15 5  2.00                             106   -1.56 0  407 327 
 SJC  HE ES   4   15 5 43.34                             106   -3.27 0  407 327 
 SJC  HZ I        15 5 47.56         3.2 0.49            105            407 327 
                                                                                
