 2011  123 1319 17.3 L   6.812 -73.153142.3  RSN 16 0.4 2.8LRSN                1
 GAP=135        0.89       2.8     4.6  5.2 -0.2332E+01  0.7441E+01  0.2975E+01E
 Epicentro: LOS SANTOS - SANTANDER                                             3
 ACTION:UP  11-02-08 08:42 OP:pat  STATUS:               ID:20110123131917 L   I
 2011-01-23-1317-36S.COL___138                                                 6
 STAT SP IPHASW D HRMM SECON CODA AMPLIT PERI AZIMU VELO SNR AR TRES W  DIS CAZ7
 BTL  SZ IP       1319 36.79                             173     0.310   17 313 
 BTL  SZ ES   1   1319 52.02                             173     0.7 7   17 313 
 BAR2 SZ IP       1319 36.74                             170     0.210   25 188 
 BAR2 SZ ES   1   1319 51.03                             170    -0.5 7   25 188 
 BAR2 SZ I        1319 54.52       110.3 0.25                            25 188 
 GIR2 SZ EP       1319 36.83                             168     0.310   30 351 
 GIR2 SZ ES   1   1319 51.52                             168     0.0 7   30 351 
 RUS  HZ IP     D 1319 40.78                             143    -0.110  102 176 
 RUS  HN ES   1   1319 59.01                             143    -0.2 7  102 176 
 RUS  HZ I        1320  1.70        82.2 0.31                           102 176 
 GRA  SZ EP       1319 41.55                             137    -0.610  125  18 
 GRA  SZ ES   1   1320  1.43                             137    -0.1 7  125  18 
 GRA  SZ I        1320  8.39        66.0 0.29                           125  18 
 OCA  SZ EP   1   1319 45.24                             129     0.0 7  159 353 
 OCA  SZ ES   1   1320  6.86                             129    -0.1 7  159 353 
 OCA  SZ I        1320 11.61       122.9 0.32                           159 353 
 YOP  SZ EP   1   1319 47.02                             125    -0.3 7  181 153 
 YOP  SN ES   1   1320 11.12                             125     0.5 7  181 153 
 YOP  SZ I        1320 12.61        76.8 0.27                           181 153 
 NOR  SZ EP   1   1319 52.63                             118    -0.3 6  235 234 
 NOR  SE ES   1   1320 21.07                             118     0.4 6  235 234 
 CHI  HZ EP   1   1319 55.12                             116     0.2 6  250 195 
 CHI  HN ES   1   1320 24.29                             116     0.0 6  250 195 
 CHI  HZ I        1320 27.84        38.5 0.30                           250 195 
 ROSC BZ EP   1   1319 56.04                             116     0.7 6  253 211 
 ROSC BE ES   1   1320 24.44                             116    -0.6 6  253 211 
 ROSC BZ I        1320 32.15        59.5 0.46                           253 211 
 HEL  HZ EP   1   1319 57.48                             114     0.2 6  272 255 
 HEL  HN ES   1   1320 28.03                             114    -0.5 6  272 255 
 HEL  HZ I        1320 35.65        50.2 0.25                           272 255 
 VIL  SZ EP   1   1320  0.33                             111    -0.2 5  303 190 
 VIL  SN ES   1   1320 33.42                             111    -0.8 5  303 190 
 VIL  SZ I        1320 46.70        27.2 0.40                           303 190 
 RREF HN ES   1   1320 39.06                             110    -0.2 5  322 229 
 RREF HZ I        1320 48.69        49.5 0.29                           322 229 
 DBB  SZ EP       1320  4.61                             109     0.0 7  339 274 
 TOL  SZ EP   1   1320  6.58                             109     1.1 5  344 224 
 SJA  SZ EP   1   1320 11.91                             106     0.0 4  401 193 
                                                                                
