 2012  323 1420 58.8 L   6.810 -73.150142.6  RSN 14 0.5 2.7LRSN                1
 GAP=103        1.03       4.4     4.7  6.6  0.1635E+01  0.7608E+01  0.6762E+01E
 ACTION:UP  12-03-31 23:22 OP:EP   STATUS:               ID:20120323142058 L   I
 2012-03-23-1420-00M.COL___202                                                 6
 STAT SP IPHASW D HRMM SECON CODA AMPLIT PERI AZIMU VELO SNR AR TRES W  DIS CAZ7
 BAR2 SZ EP       1421 18.03                             170     0.010   24 188 
 BAR2 SZ ES   1   1421 33.00                             170    -0.1 7   24 188 
 BAR2 SZ I        1421 34.00       122.6 0.30                            24 188 
 BRR  HZ EP       1421 19.85                             152     0.310   70 298 
 BRR  HN ES   1   1421 36.46                             152     0.7 7   70 298 
 BRR  HZ I        1421 40.98       169.6 0.12                            70 298 
 PAM  SZ EP   1   1421 20.80                             150     0.1 7   77  40 
 PAM  SE ES   1   1421 37.66                             150     0.0 7   77  40 
 RUS  HZ EP   1   1421 22.05                             143    -0.3 7  102 176 
 RUS  HN ES   1   1421 40.29                             143    -0.4 7  102 176 
 RUS  HZ I        1421 41.72        66.7 0.35                           102 176 
 PTB  HZ EP   1   1421 24.58                             131    -0.9 7  147 258 
 PTB  HN ES   1   1421 45.87                             131    -0.4 7  147 258 
 PTB  HZ I        1421 49.95        47.6 0.13                           147 258 
 YOP  SN ES   1   1421 52.58                             125     0.5 7  180 153 
 YOP  SZ I        1421 53.14        51.4 0.26                           180 153 
 ZAR  HZ EP   1   1421 30.94                             122     0.0 6  203 292 
 ZAR  HN ES   1   1421 56.04                             122     0.0 6  203 292 
 ZAR  HZ I        1422  1.85        48.8 0.13                           203 292 
 CTAU SZ EP       1421 32.08                             122     0.4 9  203 209 
 CTAU SZ I        1422  5.24        48.3 0.40                           203 209 
 NOR  SZ EP   1   1421 34.08                             118    -0.3 6  235 234 
 NOR  SN ES   1   1422  1.31                             118    -0.8 6  235 234 
 CHI  HZ EP   1   1421 36.18                             116    -0.3 6  250 195 
 CHI  HN ES   1   1422  5.86                             116     0.1 6  250 195 
 HEL  HZ EP   1   1421 39.67                             114     0.8 6  272 256 
 HEL  HZ I        1422 16.76        37.5 0.52                           272 256 
 TOL  SZ EP   1   1421 47.56                             109     0.6 5  344 224 
 SDV  BZ EP   1   1421 47.65                             108    -1.0 5  360  50 
 SDV  BZ I        1422 29.41        14.4 0.40                           360  50 
 PRA  HZ EP       1421 52.83                             106     0.5 6  393 209 
                                                                                
