 2010  823 1056 34.2 L   6.784 -73.030144.0  RSN 14 0.4 2.3LRSN                1
 GAP=169        0.82       3.2     5.6  5.1 -0.7426E+01 -0.1243E+01  0.4157E+01E
 Epicentro: CEPITA - SANTANDER                                                 3
 ACTION:UP  10-09-07 10:57 OP:vdl  STATUS:               ID:20100823105634 L   I
 2010-08-23-1052-50S.COL___120                                                 6
 STAT SP IPHASW D HRMM SECON CODA AMPLIT PERI AZIMU VELO SNR AR TRES W  DIS CAZ7
 BAR2 SZ EP       1056 53.65                             168     0.010   27 219 
 BAR2 SZ ES   1   1057  8.75                             168    -0.1 7   27 219 
 BAR2 SZ I        1057 10.00        41.2 0.35                            27 219 
 BTL  SZ EP       1056 53.91                             167     0.210   30 300 
 GIR2 SZ EP   1   1056 53.83                             164     0.0 7   37 331 
 GIR2 SZ ES   1   1057  9.37                             164     0.2 7   37 331 
 BRR  HZ IP     C 1056 55.54                             148    -0.310   84 295 
 BRR  HZ I        1056 55.84       114.3 0.11                            84 295 
 BRR  HN ES       1057 12.89                             148     0.110   84 295 
 RUS  HZ EP       1056 57.42                             144    -0.210   99 183 
 RUS  HN ES   2   1057 15.99                             144     0.1 5   99 183 
 RUS  HZ I        1057 17.59        14.9 0.08                            99 183 
 BRI  SZ EP   2   1056 58.24                             142     0.5 5  106  14 
 BRI  SZ ES   2   1057 16.07                             142     0.0 5  106  14 
 BRI  SZ I        1057 21.94         5.1 0.62                           106  14 
 GUE  SZ EP       1056 58.70                             139     0.010  116   6 
 GUE  SZ I        1057  0.67        13.1 0.06                           116   6 
 GRA  SZ EP       1056 59.41                             137     0.310  124  12 
 GRA  SZ ES   1   1057 19.04                             137     0.4 7  124  12 
 GRA  SZ I        1057 21.35        37.6 0.37                           124  12 
 OCA  SZ EP       1057  2.06                             128    -0.6 9  164 349 
 OCA  SZ ES   1   1057 24.88                             128    -0.1 7  164 349 
 OCA  SZ I        1057 29.91        48.8 0.52                           164 349 
 CHI  HZ EP   1   1057 11.48                             116    -0.5 6  251 198 
 CHI  HZ I        1057 14.37        10.6 0.45                           251 198 
 CHI  HN ES   2   1057 41.75                             116     0.3 4  251 198 
 HEL  HZ EP   1   1057 15.87                             113     0.2 6  284 257 
 HEL  HE ES   2   1057 47.07                                    -0.9 4  284 257 
 HEL  HZ I        1057 51.47        19.8 0.47                           284 257 
 RREF HZ EP   1   1057 22.37                             110     1.1 5  330 231 
 RREF HN ES   1   1057 58.72                             110     0.8 5  330 231 
 RREF HZ I        1058  6.05        15.9 1.21                           330 231 
 TOL  SZ EP   2   1057 23.30                             108     0.0 3  351 226 
 PRA  HZ EP   1   1057 28.07                             106    -0.1 4  397 211 
 PRA  HN ES   1   1058 10.14                             106    -0.2 4  397 211 
 PRA  HZ I        1058 15.52         8.5 0.10                           397 211 
                                                                                
