 2016  923 1350 36.4 L   6.795 -73.150134.7  RSN  6 0.5 1.7LRSN                1
 GAP=150        1.25       6.5     6.1  9.2 -0.1623E+02  0.2303E+02 -0.1993E+01E
 Epicentro: LOS SANTOS - SANTANDER                                             3
 ACTION:UPD 17-08-17 21:15 OP:lp   STATUS:               ID:20160923135036 L   I
 OLDACT:UP  16-09-23 22:42 OP:aar  STATUS:               ID:20160923134734     3
 OLDACT:REG 16-09-23 20:50 OP:ar   STATUS:               ID:20160923134734     3
 2016-09-23-1348-00M.COL___339                                                 6
 STAT SP IPHASW D HRMM SECON CODA AMPLIT PERI AZIMU VELO AIN AR TRES W  DIS CAZ7
 BAR2 EZ EP       1350 54.10                             170   -0.6410 22.7 189 
 BAR2 EZ ES       1351  9.15                             170    0.1510 22.7 189 
 BAR2 EZ I        1351 10.79         9.6 0.46            166           22.7 189 
 PAM  EE EP       1350 58.56                             148    1.0110 78.1  40 
 PAM  EZ ES       1351 13.69                             148   -0.3110 78.1  40 
 PTB  HZ EP       1351  2.05                             129   -0.44 9  147 259 
 PTB  HE ES       1351 22.80                             129    0.01 9  147 259 
 PTB  HZ I        1351 29.33         5.7 0.38            129            147 259 
 SPBC HZ EP       1351  3.29                             126   -0.76 9  162 219 
 SPBC HN ES       1351 25.90                             126    0.32 9  162 219 
 SPBC HZ I        1351 32.79         6.5 0.36            127            162 219 
 ZAR  HZ EP       1351  8.06                             120   -0.12 9  204 292 
 ZAR  HN ES       1351 32.97                             120    0.04 9  204 292 
 ZAR  HZ I        1351 38.22         5.5 0.36            121            204 292 
 NOR  HZ EP       1351 12.10                             116    0.62 8  234 235 
 NOR  HE ES       1351 39.08                             116    0.27 8  234 235 
 NOR  HZ I        1351 46.74         3.8 0.24            117            234 235 
                                                                                
