 2012  423 1955 25.5 L   5.755 -73.900102.2  RSN  5 0.3 1.5LRSN                1
 GAP=179        0.73       4.8     3.3 10.0 -0.4211E+01  0.1406E+01 -0.6168E+00E
 Epicentro: ALBANIA - SANTANDER                                                3
 ACTION:UPD 12-07-05 11:55 OP:tino STATUS:               ID:20120423195525 L   I
 2012-04-23-1950-00M.COL___186                                                 6
 STAT SP IPHASW D HRMM SECON CODA AMPLIT PERI AZIMU VELO AIN AR TRES W  DIS CAZ7
 RUS  HZ EP   1   1955 44.56                             135     0.0 7   92  80 
 RUS  HN ES   1   1955 59.11                             135    -0.3 7   92  80 
 PTB  HZ EP   1   1955 44.46                             130    -0.8 7  106 325 
 PTB  HN ES   1   1956  0.38                             130    -0.2 7  106 325 
 PTB  HZ I        1956  3.13         2.7 0.10                           106 325 
 NOR  SZ EP   1   1955 45.84                             129     0.3 7  109 259 
 NOR  SN ES   1   1956  1.37                             129     0.2 7  109 259 
 BAR2 SZ EP   1   1955 47.00                             126     0.0 7  122  41 
 BAR2 SZ ES   1   1956  4.08                             126     0.3 7  122  41 
 BAR2 SZ I        1956  6.60         8.3 0.27                           122  41 
 BRR  HZ EP   1   1955 49.86                             119     0.2 7  151   8 
 BRR  HN ES   1   1956  8.83                             119     0.3 7  151   8 
 BRR  HZ I        1956 24.72         8.1 0.52                           151   8 
                                                                                
