 2016  223 1347 21.1 L   6.809 -73.157145.4  RSN  9 0.3 1.9LRSN                1
 GAP=135        0.85       3.2     3.5  5.4 -0.1553E+01  0.6666E+01  0.1287E+01E
 Epicentro: LOS SANTOS - SANTANDER                                             3
 ACTION:UPD 16-03-04 21:28 OP:rebc STATUS:               ID:20160223134721 L   I
 OLDACT:REG 16-02-23 20:29 OP:drio STATUS:               ID:20160223133748     3
 2016-02-23-1337-48M.COL___321                                                 6
 STAT SP IPHASW D HRMM SECON CODA AMPLIT PERI AZIMU VELO AIN AR TRES W  DIS CAZ7
 BAR2 EZ EP       1347 40.61                             170   -0.1210 24.2 187 
 BAR2 EZ ES       1347 55.73                             170   -0.2810 24.2 187 
 BAR2 EZ I        1347 57.34        19.7 0.14            169           24.2 187 
 PAM  EZ EP       1347 43.41                             151    0.1110 77.4  41 
 PAM  EE ES       1348  0.77                             151    0.1710 77.4  41 
 PAM  EZ I        1348  2.61        11.9 0.54            156           77.4  41 
 RUS  HZ EP       1347 44.86                             143   -0.0610  102 175 
 RUS  HE ES       1348  3.61                             143    0.1310  102 175 
 RUS  HZ I        1348  4.32         9.1 0.22            146            102 175 
 PTB  HZ EP       1347 47.43                             132   -0.54 9  147 258 
 PTB  HN ES       1348  8.15                             132   -0.75 9  147 258 
 PTB  HZ I        1348 14.98         9.0 0.42            132            147 258 
 SPBC HZ EP       1347 49.82                             129    0.22 9  163 218 
 SPBC HE ES       1348 12.39                             129    0.59 9  163 218 
 SPBC HZ I        1348 17.89        14.9 0.20            130            163 218 
 ZAR  HZ EP       1347 53.37                             122   -0.01 9  202 292 
 ZAR  HE ES       1348 19.24                             122    0.70 9  202 292 
 ZAR  HZ I        1348 27.66         9.0 0.36            123            202 292 
 NOR  HZ EP       1347 56.81                             118    0.02 8  234 234 
 NOR  HN ES       1348 24.60                             118    0.00 8  234 234 
 NOR  HZ I        1348 30.07        10.9 0.18            120            234 234 
 CHI  HZ EP       1347 58.75                             117   -0.13 8  249 195 
 CHI  HN ES       1348 28.35                             117    0.03 8  249 195 
 CHI  HZ I        1348 32.21         2.8 0.52            119            249 195 
 GUY2CHZ EP   4   1348  6.03                             112    1.36 0  301 234 
 GUY2CHE ES   2   1348 39.08                             112    0.45 4  301 234 
 GUY2CHZ I        1348 47.48         6.1 0.32                           301 234 
 SOCV BZ EP   4   1348  1.94                             112   -2.28 0  302  57 
 SOCV BN ES   4   1348 33.53                             112   -4.29 0  302  57 
                                                                                
