 2011 1223 1631 58.1 L   6.772 -73.131145.7  RSN 14 0.4 2.4LRSN                1
 GAP=140        0.74       2.9     4.1  4.9 -0.3030E+01  0.4897E+01  0.3139E+01E
 Epicentro: LOS SANTOS - SANTANDER                                             3
 ACTION:UPD 12-07-13 16:18 OP:ep   STATUS:               ID:20111223163158 L   I
 2011-12-23-1630-00M.COL___190                                                 6
 STAT SP IPHASW D HRMM SECON CODA AMPLIT PERI AZIMU VELO AIN AR TRES W  DIS CAZ7
 BAR2 SZ EP       1632 17.63                             171   -0.0910 20.7 196 
 BAR2 SZ ES   1   1632 32.23                             171   -0.76 7 20.7 196 
 BAR2 SZ I        1632 34.37        69.1 0.28                          20.7 196 
 GIR2 SZ EP   1   1632 18.12                             166    0.22 7 34.6 348 
 GIR2 SZ ES   1   1632 33.67                             166    0.35 7 34.6 348 
 BRR  HZ EP   1   1632 19.63                             152    0.18 7 74.1 300 
 BRR  HE ES   1   1632 36.80                             152    0.72 7 74.1 300 
 PAM  SN ES   1   1632 37.66                             150   -0.16 7 78.8  37 
 PAM  SZ I        1632 40.15        31.1 0.33                          78.8  37 
 RUS  HZ EP   1   1632 21.60                             145   -0.06 7 97.4 177 
 RUS  HE ES   1   1632 40.47                             145    0.46 7 97.4 177 
 RUS  HZ I        1632 42.01        35.7 0.23                          97.4 177 
 BRI  SZ EP   1   1632 22.19                             141   -0.01 7  111  19 
 PTB  HZ EP   1   1632 24.35                             132   -0.85 7  149 260 
 PTB  HE ES   1   1632 46.02                             132   -0.29 7  149 260 
 OCA  SZ EP   1   1632 26.53                             129   -0.22 7  163 353 
 OCA  SZ ES   1   1632 48.98                             129   -0.09 7  163 353 
 OCA  SZ I        1632 53.33        33.3 0.36                           163 353 
 NOR  SZ EP   1   1632 33.77                             119   -0.05 6  234 235 
 NOR  SN ES   1   1633  1.17                             119   -0.48 6  234 235 
 CHI  HZ EP   1   1632 35.68                             117    0.12 6  246 196 
 CHI  HN ES   1   1633  4.75                             117    0.00 6  246 196 
 CHI  HZ I        1633 11.02        19.8 0.56                           246 196 
 HEL  HZ EP   1   1632 39.21                             115    0.76 6  273 257 
 HEL  HN ES   1   1633  9.88                             115    0.00 6  273 257 
 HEL  HZ I        1633 16.10        19.3 0.53                           273 257 
 VIL  SN ES   2   1633 14.63                             112   -0.26 4  301 192 
 VIL  SZ I        1633 22.74        11.7 0.49                           301 192 
 RREF HZ EP   2   1632 44.72                             111    0.52 3  321 230 
 PRA  HZ EP   1   1632 51.46                             107    0.02 4  390 210 
 PRA  HE ES   1   1633 33.76                             107    0.74 4  390 210 
                                                                                
