 2011  523 1200 21.4 L   6.783 -73.130137.8  RSN 12 0.2 2.5LRSN                1
 GAP=139        0.57       2.2     3.2  4.0 -0.3216E+01  0.2954E+01  0.3163E+00E
 Epicentro: LOS SANTOS - SANTANDER                                             3
 ACTION:UP  11-06-29 08:55 OP:tino STATUS:               ID:20110523120021 L   I
 2011-05-23-1157-03S.COL___141                                                 6
 STAT SP IPHASW D HRMM SECON CODA AMPLIT PERI AZIMU VELO SNR AR TRES W  DIS CAZ7
 BTL  SZ EP       12 0 40.22                             171     0.210   21 315 
 BAR2 SZ EP       12 0 40.03                             170     0.010   22 195 
 BAR2 SZ ES   1   12 0 54.27                             170    -0.3 7   22 195 
 BAR2 SZ I        12 0 56.21       116.2 0.30                            22 195 
 GIR2 SZ EP       12 0 40.09                             166     0.010   33 348 
 BRR  HZ IP     D 12 0 41.93                             150     0.110   74 299 
 BRR  HZ I        12 0 42.34       106.9 0.09                            74 299 
 BRR  HE ES   1   12 0 58.04                             150     0.3 7   74 299 
 PAM  SZ EP       12 0 42.98                             149     0.210   78  38 
 PAM  SE ES   1   12 0 58.87                             149    -0.6 7   78  38 
 RUS  HZ EP       12 0 44.25                             143     0.110   99 177 
 RUS  HE ES   1   12 1  2.03                             143     0.1 7   99 177 
 RUS  HZ I        12 1  5.06        52.2 0.32                            99 177 
 BRI  SZ EP       12 0 44.54                             139     0.010  110  20 
 GRA  SZ IP       12 0 45.85                             135    -0.210  127  16 
 GRA  SZ ES       12 1  5.34                             135     0.110  127  16 
 GRA  SZ I        12 1  6.20        36.6 0.38                           127  16 
 OCA  SZ EP   1   12 0 48.79                             127    -0.5 7  162 353 
 OCA  SZ ES   1   12 1 11.06                             127     0.0 7  162 353 
 OCA  SZ I        12 1 14.79        45.4 0.11                           162 353 
 NOR  SZ EP   1   12 0 56.68                             117     0.0 6  235 235 
 NOR  SE ES   1   12 1 24.03                             117    -0.2 6  235 235 
 HEL  HZ EP   1   12 1  1.59                             113     0.3 6  273 256 
 HEL  HN ES   1   12 1 32.06                             113    -0.4 6  273 256 
 HEL  HZ I        12 1 38.84        15.7 0.29                           273 256 
 PRA  HZ EP   1   12 1 14.14                             105    -0.4 4  391 210 
 PRA  HE ES   1   12 1 56.08                             105     0.1 4  391 210 
                                                                                
