 2012  523 1700 51.0 L   6.801 -73.174143.7  RSN  5 0.2 1.5LRSN                1
 GAP=133        0.47       3.3     2.9  5.0 -0.2183E+00  0.5109E+01 -0.1171E+01E
 Epicentro: LOS SANTOS - SANTANDER                                             3
 ACTION:UP  12-07-05 12:07 OP:pat  STATUS:               ID:20120523170051 L   I
 2012-05-23-1700-00M.COL___200                                                 6
 STAT SP IPHASW D HRMM SECON CODA AMPLIT PERI AZIMU VELO SNR AR TRES W  DIS CAZ7
 BAR2 SZ EP   1   17 1 10.48                             170     0.1 8   23 182 
 BAR2 SZ ES   1   17 1 25.40                             170    -0.1 8   23 182 
 BAR2 SZ I        17 1 26.96         8.8 0.21                            23 182 
 PAM  SZ EP   1   17 1 13.32                             150     0.2 8   79  41 
 PAM  SN ES   1   17 1 30.27                             150    -0.1 8   79  41 
 RUS  HZ EP   1   17 1 14.71                             143     0.1 8  101 174 
 RUS  HN ES   1   17 1 32.99                             143     0.0 8  101 174 
 RUS  HZ I        17 1 34.96         3.8 0.35                           101 174 
 PTB  HZ EP       17 1 17.23                             132    -0.310  145 259 
 PTB  HN ES   1   17 1 38.45                             132     0.2 7  145 259 
 PTB  HZ I        17 1 40.88         3.4 0.09                           145 259 
 ZAR  HN ES   1   17 1 48.09                             122     0.1 7  201 292 
                                                                                
