 2016  223 1201 40.5 L   6.714 -73.175139.6  RSN  6 0.4 1.4LRSN                1
 GAP=227        1.05       6.3     6.0  7.2  0.9754E+01  0.1171E+02  0.1363E+02E
 Epicentro: VILLANUEVA - SANTANDER                                             3
 ACTION:UPD 16-03-04 21:28 OP:rebc STATUS:               ID:20160223120140 L   I
 OLDACT:REG 16-02-23 20:25 OP:drio STATUS:               ID:20160223115748     3
 2016-02-23-1157-48M.COL___318                                                 6
 STAT SP IPHASW D HRMM SECON CODA AMPLIT PERI AZIMU VELO AIN AR TRES W  DIS CAZ7
 BAR2 EZ EP       12 1 58.95                             174   -0.3210 13.5 184 
 BAR2 EZ ES       12 2 13.22                             174   -0.6610 13.5 184 
 BAR2 EZ I        12 2 18.94         6.1 0.40            167           13.5 184 
 BRR  HZ EP       12 2  1.02                             151   -0.1510 73.6 306 
 BRR  HN ES       12 2 17.96                             151    0.7010 73.6 306 
 RUS  HZ EP       12 2  2.97                             145   -0.0710 91.4 174 
 RUS  HN ES       12 2 21.10                             145    0.5210 91.4 174 
 PTB  HZ EP       12 2  6.50                             132   -0.08 9  143 262 
 PTB  HN ES       12 2 26.89                             132   -0.00 9  143 262 
 PTB  HZ I        12 2 31.61         3.2 0.26            132            143 262 
 NOR  HZ EP       12 2 15.25                             118    0.20 8  227 236 
 NOR  HE ES       12 2 41.42                             118   -0.55 8  227 236 
 NOR  HZ I        12 2 47.81         3.5 0.20            119            227 236 
 CHI  HZ EP       12 2 17.26                             117    0.44 8  239 195 
 CHI  HN ES   4   12 2 48.66                             117    3.55 0  239 195 
 CHI  HZ I        12 2 50.66         1.2 0.30            118            239 195 
                                                                                
