 2011  723 1512 18.6 L   6.790 -73.171147.2  RSN  5 0.3 1.7LRSN                1
 GAP=152        0.58       3.9     5.7  6.0 -0.1020E+02  0.9037E+01 -0.6492E+00E
 Epicentro: LOS SANTOS - SANTANDER                                             3
 ACTION:UPD 12-07-25 14:02 OP:epov STATUS:               ID:20110723151218 L   I
 2011-07-23-1509-30S.COL___143                                                 6
 STAT SP IPHASW D HRMM SECON CODA AMPLIT PERI AZIMU VELO AIN AR TRES W  DIS CAZ7
 BAR2 SZ EP   1   1512 37.70                             171   -0.63 7 22.0 183 
 BAR2 SZ ES   1   1512 53.73                             171   -0.03 7 22.0 183 
 BAR2 SZ I        1512 56.12        16.6 0.33                          22.0 183 
 BRR  HN ES   2   1512 56.44                             153    0.15 5 69.3 300 
 RUS  HZ EP   1   1512 42.87                             144    0.48 7 99.8 174 
 RUS  HE ES   1   1513  0.95                             144   -0.03 7 99.8 174 
 RUS  HZ I        1513  2.01         6.2 0.25                          99.8 174 
 BRI  SZ EP   1   1512 42.73                             141   -0.01 7  110  22 
 BRI  SZ ES   1   1513  1.73                             141    0.13 7  110  22 
 BRI  SZ I        1513  8.21         5.2 0.71                           110  22 
 NOR  SZ EP   1   1512 54.05                             119   -0.01 6  232 234 
 NOR  SN ES   1   1513 21.80                             119    0.05 6  232 234 
                                                                                
