 2010  923 1249 34.4 L   6.787 -73.093139.1  RSN 16 0.4 2.7LRSN                1
 GAP=165        1.04       3.9     6.7  6.4 -0.1075E+02  0.1287E+02  0.7641E+00E
 Epicentro: LOS SANTOS - SANTANDER                                             3
 ACTION:UP  11-02-18 11:05 OP:tino STATUS:               ID:20100923124934 L   I
 2010-09-23-1247-55S.COL___122                                                 6
 STAT SP IPHASW D HRMM SECON CODA AMPLIT PERI AZIMU VELO SNR AR TRES W  DIS CAZ7
 BAR2 SZ IP       1249 53.32                             170     0.110   24 205 
 BAR2 SZ ES   1   1250  7.44                             170    -0.4 7   24 205 
 BAR2 SZ I        1250  9.36       199.0 0.27                            24 205 
 BTL  SZ EP       1249 53.85                             170     0.610   24 307 
 GIR2 SZ ES   2   1250  7.85                             165    -0.3 5   34 341 
 URB  SZ EP       1249 53.81                             157    -0.310   56 332 
 BRR  HZ IP     D 1249 55.10                             149     0.010   77 297 
 BRR  HZ I        1249 55.54       163.3 0.10                            77 297 
 BRR  HN ES   1   1250 12.25                             149     0.9 7   77 297 
 RUS  HZ IP     C 1249 57.37                             143     0.010   99 179 
 RUS  HN ES   1   1250 15.19                             143    -0.1 7   99 179 
 RUS  HZ I        1250 17.82        73.1 0.25                            99 179 
 GUE  SZ EP       1249 58.30                             138    -0.210  117   9 
 GRA  SZ IP       1249 59.09                             136     0.110  125  15 
 GRA  SZ ES   1   1250 18.20                             136     0.0 7  125  15 
 GRA  SZ I        1250 20.91        86.7 0.23                           125  15 
 OCA  SZ EP       1250  1.93                             128    -0.4 9  162 351 
 OCA  SZ I        1250 26.79       105.6 0.32                           162 351 
 NOR  SZ EP       1250  9.41                             117    -0.7 8  239 236 
 NOR  SE ES   1   1250 37.27                             117    -0.8 6  239 236 
 CHI  HZ EP       1250 11.60                             116    -0.1 8  249 197 
 CHI  HN ES   1   1250 40.95                             116     0.1 6  249 197 
 CHI  HZ I        1250 44.89        16.1 0.72                           249 197 
 ROSC BZ EP   2   1250 12.60                             115     0.3 4  255 212 
 ROSC BZ I        1250 48.64        22.2 0.50                           255 212 
 HEL  HZ EP       1250 14.79                             113     0.0 7  277 256 
 HEL  HZ I        1250 53.50        27.2 0.28                           277 256 
 RREF HZ EP       1250 21.50                             109     0.9 7  325 230 
 RREF HE ES   1   1250 56.64                             109    -0.1 5  325 230 
 RREF HZ I        1251  5.28        22.0 0.32                           325 230 
 DBB  SZ EP       1250 22.33                             108     0.1 7  345 274 
 TOL  SZ EP       1250 23.14                             108     0.4 6  347 225 
                                                                                
