 2011  323 1951 24.3 L   6.774 -73.069144.0  RSN  6 0.4 2.0LRSN                1
 GAP=199        0.84       8.3    10.7  8.3 -0.6381E+02  0.2351E+02  0.4837E+00E
 Epicentro: LOS SANTOS - SANTANDER                                             3
 ACTION:UP  11-06-16 14:35 OP:jfem STATUS:               ID:20110323195124 L   I
 2011-03-23-1940-00M.COL___140                                                 6
 STAT SP IPHASW D HRMM SECON CODA AMPLIT PERI AZIMU VELO SNR AR TRES W  DIS CAZ7
 BAR2 SZ EP       1951 43.74                             170     0.010   24 212 
 BAR2 SZ ES   1   1951 59.02                             170     0.2 7   24 212 
 BAR2 SZ I        1952  1.74        16.4 0.16                            24 212 
 BRR  HN ES   2   1952  2.89                             150     0.4 5   80 297 
 GRA  SZ EP   1   1951 49.70                             137     0.3 7  126  13 
 GRA  SZ ES   1   1952  8.55                             137    -0.5 7  126  13 
 GRA  SZ I        1952 10.35        13.8 0.25                           126  13 
 NOR  SZ EP   1   1951 59.69                             118    -0.8 6  240 236 
 NOR  SN ES   1   1952 28.40                             118    -0.3 6  240 236 
 HEL  HZ EP   1   1952  5.57                             114     0.3 6  280 257 
 HEL  HZ I        1952 42.33         7.0 0.45                           280 257 
 RREF HZ EP   1   1952 11.46                             110     0.6 5  326 231 
 RREF HZ I        1952 53.39         6.6 0.31                           326 231 
                                                                                
