 2015 1123 1142 15.8 L   6.776 -73.149148.7  RSN 11 0.5 2.1LRSN                1
 GAP=137        1.15       3.6     4.7  6.6 -0.1217E+01  0.1193E+02 -0.5402E+01E
 Epicentro: LOS SANTOS - SANTANDER                                             3
 ACTION:UPD 15-12-28 16:13 OP:cam  STATUS:               ID:20151123114215 L   I
 OLDACT:UP  15-11-23 22:56 OP:ak   STATUS:               ID:20151123113750     3
 OLDACT:REG 15-11-23 21:02 OP:ak   STATUS:               ID:20151123113750     3
 2015-11-23-1137-50M.COL___208                                                 6
 STAT SP IPHASW D HRMM SECON CODA AMPLIT PERI AZIMU VELO AIN AR TRES W  DIS CAZ7
 BAR2 EZ EP     C 1142 35.95                             172    0.2010 20.7 190 
 BAR2 EZ ES       1142 50.49                             172   -0.8110 20.7 190 
 BAR2 EZ I        1142 51.67        33.9 0.18            169           20.7 190 
 BRR  HZ EP       1142 38.06                             152    0.7210 72.2 300 
 BRR  HE ES       1142 54.44                             152    0.3210 72.2 300 
 BRR  HZ I        1142 55.85        24.2 0.20            150           72.2 300 
 PAM  EZ EP     C 1142 38.98                             150    0.5010 79.6  39 
 PAM  EN ES       1142 56.00                             150   -0.1510 79.6  39 
 PAM  EZ I        1142 58.32        22.7 0.60            154           79.6  39 
 RUS  HZ EP       1142 39.85                             145    0.1710 98.0 176 
 RUS  HN ES       1142 57.99                             145   -0.2910 98.0 176 
 RUS  HZ I        1142 59.17        15.4 0.32            146           98.0 176 
 OCA  HZ EP       1142 44.91                             130    0.32 9  163 353 
 OCA  HN ES       1143  6.61                             130   -0.43 9  163 353 
 ZAR  HZ EP       1142 48.85                             123    0.33 9  205 293 
 ZAR  HN ES       1143 14.80                             123    0.77 9  205 293 
 ZAR  HZ I        1143 20.02        13.1 0.24            122            205 293 
 NOR  HZ EP   1   1142 51.19                             119   -0.34 6  233 235 
 NOR  HE ES       1143 19.05                             119   -0.33 8  233 235 
 NOR  HZ I        1143 27.04                             119            233 235 
 SML  HZ EP       1142 52.60                             118   -0.25 8  246 336 
 SML  HE ES       1143 21.71                             118   -0.02 8  246 336 
 SML  HZ I        1143 24.59        16.7 0.11            118            246 336 
 HEL  HZ EP   4   1142 59.80                             115    3.73 0  271 256 
 HEL  HN ES       1143 27.70                             115    0.23 8  271 256 
 HEL  HZ I        1143 34.80         3.7 0.30            115            271 256 
 MON  HZ EP       1143  4.04                             109   -1.05 6  355 309 
 MON  HN ES       1143 42.89                             109   -0.63 6  355 309 
 MON  HZ I        1143 43.52         1.7 0.23            109            355 309 
 SJC  HZ EP       1143 10.72                             106   -0.99 6  411 327 
 SJC  HE ES   4   1143 53.62                             106   -1.69 0  411 327 
 SJC  HZ I        1143 56.74         2.4 0.65            107            411 327 
                                                                                
