 2010  123 1922  1.2 L   6.852 -73.118144.8  RSN 11 0.4 3.3LRSN                1
 GAP=186        1.10       3.7    10.3  7.4 -0.5204E+01  0.4390E+02  0.1467E+01E
 Epicentro: LOS SANTOS - SANTANDER                                             3
 ACTION:UP  10-08-24 09:45 OP:vdl  STATUS:               ID:20100123192201 L   I
 2010-01-23-1920-20S.COL___095                                                 6
 STAT SP IPHASW D HRMM SECON CODA AMPLIT PERI AZIMU VELO SNR AR TRES W  DIS CAZ7
 GIR2 SZ IP       1922 21.59                             169     0.910   26 342 
 GIR2 SZ ES   1   1922 36.39                             169     0.6 7   26 342 
 BAR2 SZ IP       1922 20.81                             168    -0.110   30 194 
 BAR2 SZ ES       1922 35.66                             168    -0.610   30 194 
 RUS  BZ IP       1922 24.96                             142    -0.310  106 178 
 RUS  BN ES       1922 44.08                             142     0.010  106 178 
 RUS  BZ I        1922 45.61       116.1 0.23                           106 178 
 OCA  SZ IP       1922 28.70                             130    -0.3 9  155 352 
 OCA  SZ ES       1922 50.28                             130    -0.3 9  155 352 
 OCA  SZ I        1922 55.27       678.6 0.20                           155 352 
 CHI  HZ IP       1922 39.57                             116     0.0 8  255 195 
 CHI  HN ES       1923  9.75                             116     0.3 8  255 195 
 CHI  HZ I        1923 13.51        91.1 0.68                           255 195 
 HEL  HZ EP   1   1922 42.28                             114     0.4 6  276 255 
 HEL  HZ I        1923 19.45       139.2 0.36                           276 255 
 GUY  HN ES   1   1923 19.90                             112    -0.1 5  307 234 
 RREF BZ IP       1922 48.59                             110     0.6 7  328 229 
 RREF BZ I        1923 32.45        79.1 0.18                           328 229 
 DBB  SZ EP       1922 48.74                             109    -0.2 7  342 273 
 TOL  SZ IP       1922 50.00                             109    -0.2 6  350 224 
 PRA  HZ IP       1922 54.89                             106    -0.6 6  398 210 
 PRA  HE ES   1   1923 37.42                             106    -0.4 4  398 210 
 PRA  HZ I        1923 46.47       117.8 0.35                           398 210 
                                                                                
