 2012  323 1556 47.8 L   6.767 -73.164145.5  RSN  5 0.4 1.7LRSN                1
 GAP=136        0.95       6.6     6.4  8.9 -0.2965E+01  0.7395E+01  0.6974E+00E
 ACTION:UP  12-03-31 23:22 OP:EP   STATUS:               ID:20120323155647 L   I
 2012-03-23-1550-00M.COL___202                                                 6
 STAT SP IPHASW D HRMM SECON CODA AMPLIT PERI AZIMU VELO SNR AR TRES W  DIS CAZ7
 BAR2 SZ EP       1557  7.34                             172     0.010   19 186 
 BAR2 SZ ES   1   1557 22.78                             172     0.3 7   19 186 
 BAR2 SZ I        1557 24.32        13.2 0.19                            19 186 
 BRR  HZ EP       1557  9.25                             152     0.310   71 302 
 BRR  HN ES   1   1557 25.84                             152     0.5 7   71 302 
 BRR  HZ I        1557 31.13        15.0 0.11                            71 302 
 PAM  SZ EP   1   1557 10.42                             149     0.2 7   82  39 
 PAM  SE ES   1   1557 26.96                             149    -0.8 7   82  39 
 RUS  HZ EP   1   1557 11.34                             145     0.1 7   97 175 
 RUS  HN ES   1   1557 29.49                             145    -0.1 7   97 175 
 RUS  HZ I        1557 33.03         4.3 0.38                            97 175 
 PTB  HZ EP   1   1557 14.01                             132    -0.5 7  145 260 
 PTB  HN ES   1   1557 34.78                             132    -0.5 7  145 260 
 PTB  HZ I        1557 37.33         8.2 0.15                           145 260 
                                                                                
