 2016 1023 1609 36.0 L   6.780 -73.133149.1  RSN  8 0.3 1.7LRSN                1
 GAP=139        0.84       3.0     4.0  5.2 -0.4042E+01  0.3976E+01 -0.2266E+00E
 Epicentro: LOS SANTOS - SANTANDER                                             3
 ACTION:UPD 16-11-09 19:22 OP:rebc STATUS:               ID:20161023160936 L   I
 OLDACT:REG 16-10-23 20:41 OP:cara STATUS:               ID:20161023160745     3
 2016-10-23-1608-00M.COL___359                                                 6
 STAT SP IPHASW D HRMM SECON CODA AMPLIT PERI AZIMU VELO AIN AR TRES W  DIS CAZ7
 BAR2 EZ EP       16 9 56.20                             171    0.1810 21.5 195 
 BAR2 EZ ES       1610 11.84                             171    0.2210 21.5 195 
 BAR2 EZ I        1610 13.04        15.0 0.32            171           21.5 195 
 BRR  HZ EP       16 9 57.85                             152    0.1910 73.5 300 
 BRR  HN ES       1610 15.00                             152    0.4610 73.5 300 
 BRR  HZ I        1610 16.19         9.6 0.28            152           73.5 300 
 PAM  EZ EP       16 9 58.45                             151   -0.2010 78.2  38 
 PAM  EN ES       1610 16.29                             151   -0.0010 78.2  38 
 PAM  EZ I        1610 17.29         4.5 0.16            153           78.2  38 
 RUS  HZ EP       1610  0.34                             145    0.3910 98.3 177 
 RUS  HN ES       1610 18.07                             145   -0.5410 98.3 177 
 RUS  HZ I        1610 19.75         6.2 0.30            147           98.3 177 
 PTB  HZ EP       1610  3.13                             133   -0.22 9  149 260 
 PTB  HN ES       1610 24.23                             133   -0.44 9  149 260 
 PTB  HZ I        1610 28.89         8.3 0.46            133            149 260 
 SPBC HZ EP       1610  5.15                             130    0.44 9  162 220 
 SPBC HN ES       1610 26.86                             130   -0.22 9  162 220 
 OCA  HZ EP       1610  4.40                             130   -0.41 9  163 353 
 OCA  HN ES       1610 27.18                             130   -0.09 9  163 353 
 GUY2CHZ EP   4   1610 21.01                             113    1.23 0  301 235 
 GUY2CHN ES       1610 54.12                             113    0.22 7  301 235 
 GUY2CHZ I        1611  1.66         2.7 0.56                           301 235 
                                                                                
