 2017  223 1259 26.3 L   6.905 -73.133152.4  RSN  6 0.5 1.4LRSN                1
 GAP=132        1.09       5.9     7.5  7.4 -0.1953E+01  0.9552E+01  0.9230E+01E
 Epicentro: PIEDECUESTA - SANTANDER                                            3
 ACTION:UPD 17-05-24 15:39 OP:jn   STATUS:               ID:20170223125926 L   I
 OLDACT:REG 17-02-23 20:19 OP:cog  STATUS:               ID:20170223125741     3
 2017-02-23-1258-00M.COL___373                                                 6
 STAT SP IPHASW D HRMM SECON CODA AMPLIT PERI AZIMU VELO AIN AR TRES W  DIS CAZ7
 BAR2 EZ EP       1259 46.71                             166   -0.2610 35.0 189 
 BAR2 EZ ES       13 0  3.62                             166    0.5010 35.0 189 
 BAR2 EZ I        13 0 15.51         2.7 0.30            164           35.0 189 
 BRR  HZ EP       1259 48.11                             155    0.1510 67.8 289 
 BRR  HN ES       13 0  5.22                             155    0.3510 67.8 289 
 PAM  EZ EP       1259 48.99                             155    0.3210 67.8  45 
 PAM  EE ES       13 0  5.65                             155   -0.5010 67.8  45 
 PAM  EZ I        13 0  6.80         8.8 0.20            164           67.8  45 
 RUS  HZ EP       1259 51.77                             142    0.2610  112 177 
 RUS  HN ES       13 0 10.66                             142   -0.5310  112 177 
 PTB  HZ EP       1259 53.40                             132   -0.74 9  152 255 
 PTB  HN ES   3   13 0 14.89                             132   -1.00 2  152 255 
 PTB  HZ I        13 0 19.65         3.2 0.42            136            152 255 
 CHI  HZ EP       13 0  6.18                             117    0.59 8  260 195 
 CHI  HN ES   3   13 0 37.51                             117    1.25 2  260 195 
                                                                                
