 2013  223 1049  2.6 L   6.738 -73.518110.2  RSN 11 0.6 2.4LRSN                1
 GAP= 69        1.31       4.1     3.7  7.3  0.2809E+01  0.7971E+01  0.4399E+01E
 Epicentro: EL CARMEN DE CHUCURI - SANTANDER                                   3
 ACTION:UPD 13-03-12 09:35 OP:ep   STATUS:               ID:20130223104902 L   I
 2013-02-23-1047-50M.COL___196                                                 6
 STAT SP IPHASW D HRMM SECON CODA AMPLIT PERI AZIMU VELO AIN AR TRES W  DIS CAZ7
 BAR2 SZ EP       1049 18.62                             158    0.0510 40.5 113 
 BAR2 SZ ES       1049 30.95                             158   -0.0910 40.5 113 
 BAR2 SZ I        1049 31.76       132.9 0.26            158           40.5 113 
 BRR  HZ EP       1049 18.33                             155   -0.1610 46.1 332 
 BRR  HE ES       1049 31.19                             155    0.3010 46.1 332 
 BRR  HE I        1049 31.58       147.9 0.28            155           46.1 332 
 RUS  HZ EP       1049 23.17                             133   -0.2610  105 153 
 RUS  HN ES       1049 39.24                             133   -0.4510  105 153 
 RUS  HN I        1049 39.92        37.1 0.26            131            105 153 
 PTB  HZ IP     C 1049 21.58                             133   -1.2910  106 258 
 PTB  HN ES   4   1049 36.14                             133   -2.55 0  106 258 
 PTB  HN I        1049 40.33        61.2 0.38            130            106 258 
 PAM  SZ EP       1049 24.08                             131    0.0110  112  54 
 PAM  SN ES       1049 41.06                             131    0.2310  112  54 
 PAM  SN I        1049 41.34        21.3 0.14            130            112  54 
 OCA  HZ EP   2   1049 28.77                             119   -0.39 5  167   8 
 OCA  HN ES       1049 49.51                             119   -0.38 9  167   8 
 OCA  HN I        1049 55.39        80.4 0.22            117            167   8 
 ZAR  HZ EP       1049 29.52                             118    0.28 9  170 299 
 ZAR  HN ES       1049 50.99                             118    0.96 9  170 299 
 ZAR  HN I        1049 53.14        46.3 0.18            116            170 299 
 TAM  HZ EP       1049 32.07                             115    0.17 9  194 100 
 TAM  HN ES       1049 55.26                             115    0.49 9  194 100 
 TAM  HN I        1049 59.70        15.5 0.40            113            194 100 
 HEL  HZ EP       1049 36.99                             110    0.54 8  231 255 
 HEL  HN ES   1   1050  3.00                             110    0.14 6  231 255 
 HEL  HN I        1050  9.23        11.2 0.36            109            231 255 
 CHI  HZ EP       1049 37.73                             110    0.79 8  234 186 
 CHI  HN ES   2   1050  4.92                             110    1.18 4  234 186 
 CHI  HN I        1050 12.19         8.9 0.34            108            234 186 
 URE  HZ EP       1049 37.20                             108   -0.94 8  249 297 
 URE  HN ES   4   1050  3.39                             108   -2.49 0  249 297 
 URE  HN I        1050  7.27        29.1 0.26            107            249 297 
                                                                                
