 2011  423 1948 40.3 L   6.902 -73.520121.3  RSN  4 0.2 1.4LRSN                1
 GAP=160        0.59       3.6     8.1  7.9 -0.1018E+02 -0.1383E+01  0.1785E+01E
 Epicentro: SAN VICENTE DE CHUCURI - SANTANDER                                 3
 ACTION:UP  11-06-22 15:32 OP:REBC STATUS:               ID:20110423194840 L   I
 2011-04-23-1947-05S.COL___137                                                 6
 STAT SP IPHASW D HRMM SECON CODA AMPLIT PERI AZIMU VELO SNR AR TRES W  DIS CAZ7
 BRR  HN ES   2   1949  9.81                             165     0.0 5   31 317 
 BRR  HZ I        1949 15.67         8.9 0.24                            31 317 
 PAM  SZ EP   1   1949  1.92                             137     0.0 7  103  62 
 PAM  SN ES   1   1949 18.81                             137     0.0 7  103  62 
 RUS  HZ EP   1   1949  3.22                             132    -0.4 7  122 157 
 RUS  HN ES   1   1949 21.94                             132     0.2 7  122 157 
 RUS  HZ I        1949 23.67         2.7 0.26                           122 157 
 GRA  SZ EP   1   1949  4.73                             129     0.4 7  134  36 
 GRA  SZ I        1949  5.92         6.3 0.30                           134  36 
 GRA  SZ ES   1   1949 22.80                             129    -0.2 7  134  36 
                                                                                
