 2014 1023 1930 34.0 L   6.790 -73.174144.5  RSN  6 0.4 1.7LRSN                1
 GAP=133        0.92       3.9     4.9  7.4 -0.6196E+01  0.1256E+02 -0.5971E+01E
 Epicentro: LOS SANTOS - SANTANDER                                             3
 ACTION:UPD 14-11-29 23:55 OP:nd   STATUS:               ID:20141023193034 L   I
 OLDACT:REG 14-10-27 01:48 OP:mh   STATUS:               ID:20141023192748     3
 2014-10-23-1927-48M.COL___280                                                 6
 STAT SP IPHASW D HRMM SECON CODA AMPLIT PERI AZIMU VELO AIN AR TRES W  DIS CAZ7
 BAR2 SZ EP       1930 53.47                             171    0.0610 21.9 183 
 BAR2 SZ ES   1   1931  8.56                             171   -0.03 7 21.9 183 
 BAR2 SZ I        1931 11.83         6.9 0.34            172           21.9 183 
 PAM  SZ EP       1930 56.52                             149    0.3010 80.2  41 
 PAM  SN ES       1931 13.67                             149    0.0910 80.2  41 
 PAM  SZ I        1931 16.17         9.6 0.62            153           80.2  41 
 RUS  HZ EP       1930 58.00                             144    0.4710 99.8 174 
 RUS  HN ES       1931 15.13                             144   -0.7810 99.8 174 
 RUS  HZ I        1931 19.03         4.5 0.32            147           99.8 174 
 PTB  HZ EP       1931  0.61                             132    0.08 9  145 259 
 PTB  HN ES       1931 21.54                             132    0.28 9  145 259 
 PTB  HZ I        1931 23.75         4.9 0.16            135            145 259 
 SPBC HZ EP       1931  1.76                             129   -0.34 9  160 218 
 SPBC HN ES       1931 24.32                             129    0.27 9  160 218 
 SPBC HZ I        1931 27.15         9.1 0.24            132            160 218 
 SML  HZ EP   1   1931 10.07                             117   -0.42 6  243 336 
 SML  HN ES   1   1931 38.34                             117   -0.64 6  243 336 
 SML  HZ I        1931 41.75        11.4 0.10            120            243 336 
                                                                                
