 2012  723 1110  6.1 L   7.484 -73.553108.2  RSN  4 0.3 1.6LRSN                1
 GAP=247        0.78       9.4     5.7  8.9  0.2951E+02 -0.3611E+01 -0.2619E+02E
 Epicentro: SABANA DE TORRES - SANTANDER                                       3
 ACTION:UPD 12-08-14 11:44 OP:ep   STATUS:               ID:20120723111006 L   I
 2012-07-23-1110-00M.COL___215                                                 6
 STAT SP IPHASW D HRMM SECON CODA AMPLIT PERI AZIMU VELO AIN AR TRES W  DIS CAZ7
 BRR  HZ EP   1   1110 21.20                             156    -0.5 8   45 203 
 BRR  HN ES   1   1110 33.71                             156    -0.2 8   45 203 
 BAR2 SZ EP       1110 26.60                             132     0.010  107 157 
 BAR2 SZ ES   1   1110 43.06                             132     0.5 7  107 157 
 BAR2 SZ I        1110 43.93        22.5 0.30            131            107 157 
 ZAR  HZ EP   1   1110 29.98                             122     0.1 7  144 270 
 ZAR  HE ES   1   1110 48.94                             122     0.5 7  144 270 
 ZAR  HZ I        1110 50.23         6.1 0.29            122            144 270 
 PTB  HZ EP       1110 29.88                             122    -0.1 9  144 224 
 PTB  HE ES   1   1110 48.30                             122    -0.3 7  144 224 
 PTB  HZ I        1110 51.23         3.4 0.20            121            144 224 
