 2012  123 1119 16.2 L   6.796 -73.161145.8  RSN  8 0.3 2.0LRSN                1
 GAP=135        0.80       4.5     4.4  7.3  0.1041E+01  0.4093E+01  0.1130E+02E
 Epicentro: LOS SANTOS - SANTANDER                                             3
 ACTION:UP  12-02-03 08:19 OP:REBC STATUS:               ID:20120123111916 L   I
 2012-01-23-1117-59S.COL___186                                                 6
 STAT SP IPHASW D HRMM SECON CODA AMPLIT PERI AZIMU VELO SNR AR TRES W  DIS CAZ7
 BAR2 SZ EP       1119 35.78                             171    -0.110   23 186 
 BAR2 SZ I        1119 52.97        18.8 0.24                            23 186 
 BRR  HZ EP       1119 37.57                             153     0.310   70 299 
 BRR  HE ES   1   1119 54.50                             153     0.7 7   70 299 
 BRR  HZ I        1119 55.02        24.8 0.58                            70 299 
 PAM  SZ EP       1119 38.57                             150     0.010   79  40 
 PAM  SN ES   1   1119 55.51                             150    -0.4 7   79  40 
 RUS  HZ EP       1119 40.05                             144     0.110  100 175 
 RUS  HN ES   1   1119 58.39                             144    -0.1 7  100 175 
 RUS  HZ I        1119 59.82        14.5 0.26                           100 175 
 PTB  HZ EP       1119 42.67                             132    -0.4 9  146 259 
 PTB  HE ES   1   1120  3.54                             132    -0.4 7  146 259 
 PTB  HZ I        1120  6.81         7.8 0.14                           146 259 
 ZAR  HN ES   1   1120 13.59                             123    -0.1 6  203 292 
 ZAR  HZ I        1120 20.23        15.4 0.28                           203 292 
 CHI  HZ EP   1   1119 53.98                             117     0.1 6  248 195 
 CHI  HN ES   2   1120 23.22                             117     0.0 4  248 195 
 CHI  HZ I        1120 30.35         4.3 0.38                           248 195 
 PRA  HZ EP       1120  9.95                             107     0.3 6  391 209 
                                                                                
