 2014  723 1742 56.4 L   7.506 -73.314122.0  RSN 16 0.5 2.5LRSN                1
 GAP=106        1.09       3.7     4.3  6.9 -0.3317E+01  0.1118E+02 -0.1065E+01E
 Epicentro: EL PLAYON - SANTANDER                                              3
 ACTION:UPD 15-03-16 20:46 OP:nd   STATUS:               ID:20140723174256 L   I
 OLDACT:REG 14-07-23 21:28 OP:fm   STATUS:               ID:20140723173817     3
 2014-07-23-1738-17M.COL___271                                                 6
 STAT SP IPHASW D HRMM SECON CODA AMPLIT PERI AZIMU VELO AIN AR TRES W  DIS CAZ7
 BRR  HZ IP     C 1743 14.62                             151    0.1110 62.3 225 
 BRR  HN ES       1743 28.71                             151    0.1010 62.3 225 
 BRR  HZ I        1743 29.54       111.9 0.16            139           62.3 225 
 PAM  SZ EP       1743 16.11                             149    0.4010 70.2 105 
 PAM  SE ES       1743 31.00                             149    0.2610 70.2 105 
 PAM  SZ I        1743 32.67        31.8 0.20            141           70.2 105 
 OCA  HZ EP       1743 15.77                             144   -0.2010 81.1 360 
 OCA  HN ES       1743 31.05                             144   -0.1510 81.1 360 
 OCA  HZ I        1743 34.50        42.2 0.18            129           81.1 360 
 BAR2 SZ EP     D 1743 17.77                             138    0.0710  102 172 
 BAR2 SZ ES   1   1743 33.57                             138   -0.72 7  102 172 
 BAR2 SZ I        1743 35.06       115.8 0.40            127            102 172 
 PTB  HZ EP       1743 22.87                             123   -0.49 9  165 230 
 PTB  HN ES       1743 43.78                             123   -0.57 9  165 230 
 PTB  HZ I        1743 45.91        37.3 0.24            111            165 230 
 SML  HZ EP       1743 22.87                             123   -0.50 9  166 330 
 SML  HE ES   4   1743 43.47                             123   -0.91 0  166 330 
 SML  HZ I        1743 50.99        77.0 0.10            110            166 330 
 ZAR  HZ EP       1743 24.09                             122    0.22 9  170 270 
 ZAR  HN ES       1743 46.27                             122    1.00 9  170 270 
 ZAR  HZ I        1743 49.47        47.6 0.26            110            170 270 
 SPBC HN ES   1   1743 55.65                             115    0.41 6  221 202 
 SPBC HZ I        1744  2.52        26.6 0.28            106            221 202 
 URE  HZ EP   4   1743 30.48                             112   -1.69 0  246 276 
 URE  HZ I        1744  9.35        32.7 0.20            103            246 276 
 NOR  HZ EP       1743 35.67                             109    0.16 8  275 219 
 NOR  HE ES   4   1744  3.95                             109   -2.04 0  275 219 
 NOR  HZ I        1744 10.60        14.4 0.20            102            275 219 
 ARGC HZ EP   1   1743 35.92                             109   -0.04 6  280 339 
 ARGC HN ES   4   1744  9.66                             109    2.86 0  280 339 
 ARGC HZ I        1744 17.83        24.5 0.26            101            280 339 
 HEL  HN ES   1   1744  7.51                             109   -1.16 6  285 239 
 HEL  HZ I        1744 18.39         9.1 0.28            101            285 239 
 GUY2CHZ EP   4   1743 45.07                             105    1.55 0  339 222 
 GUY2CHN ES   4   1744 21.78                             105    1.52 0  339 222 
 GUY2CHZ I        1744 31.21        10.8 0.48                           339 222 
 RREF HZ EP   4   1743 48.76                             104    1.94 0  366 218 
 RREF HN ES   1   1744 27.14                             104    1.02 5  366 218 
 RREF HZ I        1744 35.96        11.8 0.24             99            366 218 
 TOL  SZ EP   4   1743 51.51                             102    1.92 0  392 215 
 TOL  SE ES   4   1744 35.02                             102    3.97 0  392 215 
 TOL  SZ I        1744 40.54        27.0 0.46             98            392 215 
 ORTC HN ES   4   1744 46.68                             100    3.56 0  452 208 
 ORTC HZ I        1744 55.47         6.6 0.64             97            452 208 
                                                                                
