 2016  723 1738 32.1 L   6.782 -73.147142.0  RSN  5 0.3 1.6LRSN                1
 GAP=137        0.58       3.0     3.5  5.6 -0.4085E-01  0.1023E+02  0.2193E+01E
 Epicentro: LOS SANTOS - SANTANDER                                             3
 ACTION:UPD 17-03-29 16:54 OP:lp   STATUS:               ID:20160723173832 L   I
 OLDACT:DUP 16-07-23 21:50 OP:dnl  STATUS:               ID:20160723173760d    3
 2016-07-23-1737-59S.COL___328                                                 6
 STAT SP IPHASW D HRMM SECON CODA AMPLIT PERI AZIMU VELO AIN AR TRES W  DIS CAZ7
 BAR2 EZ EP       1738 51.26                             171    0.0710 21.4 190 
 BAR2 EZ ES       1739  6.28                             171    0.1610 21.4 190 
 PAM  EZ EP   2   1738 53.70                             150   -0.27 5 79.0  39 
 PAM  EN ES       1739 11.23                             150    0.1710 79.0  39 
 PAM  EZ I        1739 13.40         9.2 0.56            149           79.0  39 
 RUS  HZ EP       1738 55.19                             144   -0.1110 98.6 176 
 RUS  HN ES       1739 13.15                             144   -0.2710 98.6 176 
 ZAR  HN ES       1739 29.16                             121   -0.32 9  205 293 
 ZAR  HZ I        1739 34.99         2.6 0.15            121            205 293 
 GUY2CHZ EP   2   1739 15.72                             112    0.37 4  300 235 
 GUY2CHN ES       1739 49.58                             112    0.47 7  300 235 
 GUY2CHZ I        1739 58.14         2.2 0.72                           300 235 
                                                                                
