 2013 1123 1008 20.4 L   6.772 -73.187150.0  RSN  6 0.3 1.4LRSN                1
 GAP=197        0.71       3.8     4.5  5.2  0.8454E+01 -0.1111E+01 -0.7250E+01E
 Epicentro: VILLANUEVA - SANTANDER                                             3
 ACTION:UPD 14-01-09 16:30 OP:ep   STATUS:               ID:20131123100820 L   I
 OLDACT:REG 13-11-23 14:05 OP:nd   STATUS:               ID:20131123100000     3
 2013-11-23-1000-00M.COL___282                                                 6
 STAT SP IPHASW D HRMM SECON CODA AMPLIT PERI AZIMU VELO AIN AR TRES W  DIS CAZ7
 BAR2 SZ EP       10 8 40.38                             172   -0.1010 19.9 178 
 BAR2 SZ ES       10 8 55.64                             172   -0.5010 19.9 178 
 BAR2 SZ I        10 8 56.84         6.1 0.28            167           19.9 178 
 BRR  HZ EP       10 8 42.34                             154    0.4610 68.8 303 
 BRR  HN ES       10 8 58.73                             154    0.1010 68.8 303 
 BRR  HZ I        10 9  0.65         5.6 0.48            149           68.8 303 
 RUS  HZ EP       10 8 44.35                             145   -0.0310 97.9 173 
 RUS  HN ES       10 9  3.47                             145    0.3810 97.9 173 
 RUS  HZ I        10 9  4.73         1.5 0.46            144           97.9 173 
 PTB  HZ EP   2   10 8 46.88                             134   -0.39 5  143 260 
 PTB  HN ES       10 9  8.06                             134   -0.16 9  143 260 
 PTB  HZ I        10 9 15.53         4.5 0.26            130            143 260 
 ZAR  HZ EP       10 8 52.74                             124   -0.08 9  201 293 
 ZAR  HN ES       10 9 18.18                             124    0.08 9  201 293 
 ZAR  HZ I        10 9 25.18         2.8 0.30            122            201 293 
 SML  HZ EP       10 8 57.02                             118   -0.35 8  245 337 
 SML  HN ES       10 9 26.42                             118    0.22 8  245 337 
 SML  HZ I        10 9 28.21         3.4 0.10            118            245 337 
                                                                                
