 2016 1023 1016  2.1 L   6.775 -73.125142.0  RSN  5 0.2 1.5LRSN                1
 GAP=140        0.54       2.3     3.6  4.4 -0.2772E+01  0.4789E-01  0.3679E+01E
 Epicentro: LOS SANTOS - SANTANDER                                             3
 ACTION:UPD 16-11-09 19:22 OP:rebc STATUS:               ID:20161023101602 L   I
 OLDACT:DUP 16-10-23 22:40 OP:cara STATUS:               ID:20161023100743d    3
 OLDACT:REG 16-10-23 22:36 OP:cara STATUS:               ID:20161023100742     3
 2016-10-23-1008-00M.COL___353                                                 6
 STAT SP IPHASW D HRMM SECON CODA AMPLIT PERI AZIMU VELO AIN AR TRES W  DIS CAZ7
 BRR  HZ EP       1016 22.77                             151   -0.2410 74.5 300 
 BRR  HN ES       1016 39.55                             151    0.2110 74.5 300 
 BRR  HZ I        1016 43.48         9.8 0.48            151           74.5 300 
 PAM  EZ IP       1016 23.85                             150   -0.0910 78.1  37 
 PAM  EN ES       1016 41.04                             150    0.0510 78.1  37 
 PAM  EZ I        1016 43.47         5.8 0.48            156           78.1  37 
 RUS  HZ EP       1016 25.61                             144    0.3610 97.7 177 
 RUS  HE ES       1016 43.07                             144   -0.2610 97.7 177 
 RUS  HZ I        1016 44.90         3.4 0.30            146           97.7 177 
 SPBC HZ EP       1016 30.14                             128   -0.09 9  163 220 
 SPBC HN ES       1016 52.08                             128   -0.10 9  163 220 
 SPBC HZ I        1016 59.13         4.5 0.46            130            163 220 
 CHI  HZ EP       1016 39.35                             116    0.00 8  247 196 
 CHI  HN ES       1017  8.62                             116    0.20 8  247 196 
 CHI  HZ I        1017 13.05         1.7 0.24            119            247 196 
                                                                                
