 2013  123 1601 54.2 L   6.674 -73.217154.8  RSN  5 0.3 1.4LRSN                1
 GAP=206        0.64       6.8     6.1  7.6  0.2571E+02  0.1820E+01 -0.3315E+01E
 Epicentro: BARICHARA - SANTANDER                                              3
 ACTION:UPD 13-02-15 09:16 OP:ep   STATUS:               ID:20130123160154 L   I
 2013-01-23-1600-00M.COL___241                                                 6
 STAT SP IPHASW D HRMM SECON CODA AMPLIT PERI AZIMU VELO AIN AR TRES W  DIS CAZ7
 BAR2 SZ EP   1   16 2 14.34                             176   -0.43 7 9.82 157 
 BAR2 SZ ES   1   16 2 30.46                             176   -0.32 7 9.82 157 
 BRR  HZ EP   1   16 2 16.53                             153    0.08 7 72.7 311 
 BRR  HE ES   1   16 2 34.26                             153    0.49 7 72.7 311 
 RUS  HZ EP   1   16 2 18.41                             149    0.38 7 87.7 170 
 RUS  HN ES   1   16 2 36.62                             149    0.03 7 87.7 170 
 RUS  HZ I        16 2 38.20         2.4 0.34            148           87.7 170 
 PTB  HN ES   1   16 2 42.01                             136   -0.04 7  138 264 
 ZAR  HN ES   1   16 2 52.54                             124   -0.27 6  203 297 
 ZAR  HZ I        16 2 58.83         4.5 0.36            122            203 297 
                                                                                
