 2013  123 1641 53.5 L   6.803 -73.060137.5  RSN  4 0.3 1.0LRSN                1
 GAP=148        0.62       4.8     9.3  8.2 -0.1610E+02 -0.1903E+02  0.6674E+01E
 Epicentro: LOS SANTOS - SANTANDER                                             3
 ACTION:UPD 13-02-15 09:16 OP:ep   STATUS:               ID:20130123164153 L   I
 2013-01-23-1640-00M.COL___241                                                 6
 STAT SP IPHASW D HRMM SECON CODA AMPLIT PERI AZIMU VELO AIN AR TRES W  DIS CAZ7
 BAR2 SZ ES   1   1642 26.72                             168   -0.14 7 27.0 210 
 PAM  SZ EP   1   1642 14.90                             151    0.39 7 71.4  34 
 PAM  SN ES   1   1642 30.71                             151   -0.17 7 71.4  34 
 PAM  SZ I        1642 34.44         3.1 0.52            150           71.4  34 
 BRR  HN ES   2   1642 30.59                             148    0.08 5 79.5 295 
 RUS  HZ EP   1   1642 16.04                             142   -0.45 7  101 181 
 RUS  HN ES   1   1642 34.73                             142    0.33 7  101 181 
 RUS  HZ I        1642 36.77         1.0 0.24            144            101 181 
                                                                                
