 2016  323 1848 50.3 L   6.803 -73.197137.1  RSN  5 0.4 1.2LRSN                1
 GAP=130        0.53       4.6     4.5  8.6 -0.5071E+01  0.1779E+02  0.3619E+01E
 Epicentro: ZAPATOCA - SANTANDER                                               3
 ACTION:UPD 16-05-13 21:26 OP:cam  STATUS:               ID:20160323184850 L   I
 OLDACT:REG 16-03-23 20:46 OP:dnl  STATUS:               ID:20160323183745     3
 2016-03-23-1837-45M.COL___307                                                 6
 STAT SP IPHASW D HRMM SECON CODA AMPLIT PERI AZIMU VELO AIN AR TRES W  DIS CAZ7
 BAR2 EZ EP   2   1849  8.92                             170    0.05 5 23.3 176 
 BAR2 EZ ES   2   1849 22.84                             170   -0.53 5 23.3 176 
 BAR2 EZ I        1849 23.92         4.2 0.10            171           23.3 176 
 PAM  EZ EP   2   1849 11.73                             148   -0.08 5 80.9  43 
 PAM  EN ES       1849 28.70                             148    0.1010 80.9  43 
 PAM  EZ I        1849 31.02         4.4 0.20            152           80.9  43 
 RUS  HZ EP   2   1849 12.74                             142   -0.52 5  101 173 
 RUS  HE ES   2   1849 31.50                             142    0.33 5  101 173 
 RUS  HZ I        1849 32.65         1.9 0.22            146            101 173 
 PTB  HZ EP   2   1849 16.51                             131    0.46 5  142 258 
 PTB  HN ES   2   1849 36.49                             131    0.35 5  142 258 
 PTB  HZ I        1849 40.73         2.1 0.09            130            142 258 
 ZAR  HN ES   2   1849 45.57                             121   -0.48 4  199 293 
 ZAR  HZ I        1849 52.64         1.9 0.15            121            199 293 
                                                                                
