 2010  223 1443 29.2 L   6.797 -73.091142.3  RSN 14 0.5 2.7LRSN                1
 GAP=188        0.79       3.8     6.3  5.9 -0.5636E+00  0.1313E+02  0.6176E+01E
 Epicentro: LOS SANTOS - SANTANDER                                             3
 ACTION:UP  10-08-24 09:50 OP:vdl  STATUS:               ID:20100223144329 L   I
 2010-02-23-1441-21S.COL___094                                                 6
 STAT SP IPHASW D HRMM SECON CODA AMPLIT PERI AZIMU VELO SNR AR TRES W  DIS CAZ7
 BAR2 SZ IP       1443 48.66                             169     0.210   25 204 
 BAR2 SZ ES   2   1444  2.85                             169    -0.7 5   25 204 
 GIR2 SZ IP       1443 48.72                             166     0.210   33 340 
 GIR2 SZ ES   2   1444  3.25                             166    -0.4 5   33 340 
 BRR  HZ IP       1443 50.52                             150     0.210   77 297 
 BRR  HZ I        1443 50.91       129.8 0.11                            77 297 
 BRR  HE ES   1   1444  7.52                             150     0.7 7   77 297 
 RUS  BZ IP       1443 52.65                             143     0.010  100 180 
 RUS  BN ES   2   1444 10.90                             143     0.1 5  100 180 
 OCA  SZ EP       1443 56.94                             129    -0.4 9  161 351 
 OCA  SZ ES   2   1444 19.03                             129    -0.3 5  161 351 
 OCA  SZ I        1444 24.19        77.3 0.22                           161 351 
 CHI  HZ EP   1   1444  6.88                             117     0.0 6  250 197 
 CHI  HE ES   2   1444 35.95                             117    -0.3 4  250 197 
 ROSC BZ EP   3   1444  7.31                             116    -0.2 2  256 212 
 ROSC BN ES   3   1444 37.22                             116    -0.1 2  256 212 
 ROSC BZ I        1444 44.39        21.6 0.24                           256 212 
 HEL  HZ EP       1444  9.86                             114    -0.1 7  278 256 
 HEL  HN ES   2   1444 41.04                             114    -0.6 4  278 256 
 HEL  HZ I        1444 46.90        27.1 0.15                           278 256 
 GUY  HZ EP       1444 14.01                             112     0.8 7  306 236 
 RREF BZ EP       1444 15.75                             110     0.0 7  326 230 
 RREF BN ES   3   1444 51.46                             110    -0.6 2  326 230 
 RREF BZ I        1444 57.22        15.8 0.52                           326 230 
 DBB  SZ IP       1444 16.65                             109    -0.6 6  346 274 
 TOL  SZ EP   2   1444 18.87                             109     1.0 3  348 225 
 ANIL BZ EP   3   1444 20.31                             108     0.9 2  361 225 
 ANIL BN ES   3   1444 57.87                             108    -0.6 2  361 225 
 ANIL BZ I        1445 10.40        32.6 0.56                           361 225 
 PRA  HZ EP       1444 22.28                             106    -0.7 6  395 210 
 PRA  HN ES   2   1445  4.19                             106    -0.7 3  395 210 
 PRA  HZ I        1445  8.03        12.1 0.43                           395 210 
                                                                                
