 2011  223 1305 56.6 L   5.948 -73.915102.0  RSN  4 0.2 1.2LRSN                1
 GAP=222        0.41       3.3    15.5 16.2 -0.1319E+02  0.2266E+03 -0.7790E+01E
 Epicentro: SUCRE - SANTANDER                                                  3
 ACTION:UP  11-03-28 15:10 OP:jfem STATUS:               ID:20110223130556 L   I
 2011-02-23-1301-29S.COL___136                                                 6
 STAT SP IPHASW D HRMM SECON CODA AMPLIT PERI AZIMU VELO SNR AR TRES W  DIS CAZ7
 RUS  HZ EP       13 6 15.57                             137    -0.110   92  94 
 RUS  HE ES   2   13 6 30.54                             137     0.0 5   92  94 
 RUS  HZ I        13 6 31.20         1.6 0.19                            92  94 
 BAR2 SZ EP       13 6 16.60                             131    -0.110  108  49 
 BAR2 SZ ES   1   13 6 32.58                             131     0.2 7  108  49 
 BAR2 SZ I        13 6 34.45        13.8 0.85                           108  49 
 BTL  SZ EP       13 6 18.87                             125     0.110  129  34 
 BTL  SZ ES   2   13 6 35.82                             125    -0.3 5  129  34 
 CHI  HZ EP   2   13 6 21.21                             121     0.3 5  147 172 
 CHI  HZ I        13 6 29.41         1.6 0.42                           147 172 
 CHI  HN ES   3   13 6 39.48                             121    -0.4 2  147 172 
                                                                                
