 2013  123 1215 44.1 L   6.793 -73.467124.2  RSN  4 0.3 1.3LRSN                1
 GAP=163        0.70       8.0     5.8 10.2  0.1728E+02  0.2763E-01 -0.1349E+02E
 Epicentro: EL CARMEN DE CHUCURI - SANTANDER                                   3
 ACTION:UPD 13-02-15 09:16 OP:ep   STATUS:               ID:20130123121544 L   I
 2013-01-23-1210-00M.COL___241                                                 6
 STAT SP IPHASW D HRMM SECON CODA AMPLIT PERI AZIMU VELO AIN AR TRES W  DIS CAZ7
 BAR2 SZ EP   1   1216  1.74                             162    0.11 7 38.5 125 
 BAR2 SZ ES   1   1216 14.97                             162   -0.32 7 38.5 125 
 BRR  HZ EP   1   1216  1.83                             159    0.33 7 44.0 322 
 BRR  HZ I        1216 16.21        10.4 0.34            131           44.0 322 
 RUS  HZ EP   1   1216  5.93                             137   -0.51 7  108 157 
 RUS  HN ES   1   1216 24.32                             137    0.47 7  108 157 
 PTB  HN ES   1   1216 23.31                             135   -0.09 7  113 256 
 PTB  HZ I        1216 27.72         2.2 0.24            121            113 256 
                                                                                
