 2012  323 1426 46.7 L   6.789 -73.134145.9  RSN 10 0.5 2.8LRSN                1
 GAP=139        1.13       5.3     5.3  7.9 -0.6622E+00  0.1202E+02  0.9934E+01E
 ACTION:UP  12-03-31 23:22 OP:EP   STATUS:               ID:20120323142646 L   I
 2012-03-23-1420-00M.COL___202                                                 6
 STAT SP IPHASW D HRMM SECON CODA AMPLIT PERI AZIMU VELO SNR AR TRES W  DIS CAZ7
 BAR2 SZ EP       1427  6.31                             171     0.010   22 194 
 BAR2 SZ ES   1   1427 21.41                             171    -0.2 7   22 194 
 BAR2 SZ I        1427 23.99        76.2 0.28                            22 194 
 BRR  HZ EP       1427  8.18                             152     0.210   73 299 
 BRR  HN ES   1   1427 25.52                             152     1.0 7   73 299 
 BRR  HZ I        1427 29.40       136.7 0.21                            73 299 
 PAM  SZ EP       1427  9.07                             151     0.110   78  38 
 PAM  SN ES   1   1427 26.05                             151    -0.2 7   78  38 
 RUS  HZ EP       1427 10.24                             144    -0.110   99 177 
 RUS  HN ES   1   1427 28.82                             144     0.0 7   99 177 
 RUS  HZ I        1427 30.08        45.8 0.35                            99 177 
 PTB  HZ EP       1427 13.00                             132    -0.8 9  149 259 
 PTB  HE ES   1   1427 34.09                             132    -0.8 7  149 259 
 PTB  HZ I        1427 41.67        95.0 0.21                           149 259 
 CTAU SZ EP       1427 20.34                             123     0.7 9  202 210 
 CTAU SZ I        1427 53.39        91.8 0.47                           202 210 
 ZAR  HZ EP   1   1427 19.06                             122    -0.3 6  206 292 
 ZAR  HE ES   1   1427 44.48                             122    -0.3 6  206 292 
 ZAR  HZ I        1427 50.35       145.9 0.41                           206 292 
 NOR  SZ EP       1427 22.29                             118    -0.2 8  235 235 
 NOR  SN ES   1   1427 50.31                             118    -0.1 6  235 235 
 CHI  HZ EP   1   1427 24.38                             117     0.1 6  248 196 
 CHI  HN ES   1   1427 53.60                             117    -0.1 6  248 196 
 CHI  HZ I        1428  3.62        29.9 0.31                           248 196 
 HEL  HZ EP   1   1427 27.60                             115     0.6 6  273 256 
 HEL  HE ES   1   1427 59.30                             115     0.8 6  273 256 
 HEL  HZ I        1428  5.31        44.7 0.44                           273 256 
                                                                                
