 2010 1023 1832  8.7 L   6.781 -73.091142.7  RSN 14 0.4 2.7LRSN                1
 GAP=165        0.82       4.2     7.1  6.7 -0.1387E+02  0.1202E+02  0.3438E+01E
 Epicentro: LOS SANTOS - SANTANDER                                             3
 ACTION:UP  11-02-18 11:11 OP:tino STATUS:               ID:20101023183208 L   I
 2010-10-23-1828-32S.COL___128                                                 6
 STAT SP IPHASW D HRMM SECON CODA AMPLIT PERI AZIMU VELO SNR AR TRES W  DIS CAZ7
 BAR2 SZ IP     C 1832 27.95                             170    -0.110   23 206 
 BAR2 SZ I        1832 28.31        96.9 0.13                            23 206 
 BAR2 SZ ES   2   1832 42.87                             170    -0.2 5   23 206 
 BTL  SZ EP   1   1832 28.31                             170     0.3 7   25 308 
 GIR2 SZ IP     C 1832 28.02                             166    -0.110   35 341 
 GIR2 SZ ES   2   1832 43.83                             166     0.5 5   35 341 
 BRR  HZ IP     D 1832 29.82                             150    -0.110   78 298 
 BRR  HZ I        1832 30.25       132.6 0.15                            78 298 
 BRR  HN ES   2   1832 46.80                             150     0.3 5   78 298 
 RUS  HZ EP   1   1832 31.89                             144    -0.1 7   98 179 
 RUS  HN ES   2   1832 49.85                             144    -0.3 5   98 179 
 RUS  HZ I        1832 51.34        39.5 0.20                            98 179 
 GUE  SZ EP   1   1832 34.10                             138     0.8 7  118   9 
 GRA  SZ IP     D 1832 33.86                             136     0.110  126  15 
 GRA  SZ ES   2   1832 52.29                             136    -1.0 5  126  15 
 OCA  SZ EP   1   1832 36.44                             128    -0.7 7  163 351 
 OCA  SZ ES   2   1832 59.68                             128     0.5 5  163 351 
 OCA  SZ I        1833  4.41        90.5 0.25                           163 351 
 NOR  SZ IP     C 1832 44.44                             117    -0.3 8  239 236 
 NOR  SN ES   2   1833 11.95                             117    -0.8 4  239 236 
 CHI  HZ EP   1   1832 46.62                             116     0.4 6  248 197 
 CHI  HZ I        1833 22.09        16.1 0.22                           248 197 
 HEL  HZ EP   1   1832 49.23                             114    -0.2 6  277 257 
 HEL  HZ I        1833 27.19        28.3 0.43                           277 257 
 GUY  SZ EP   1   1832 52.77                             111     0.1 5  305 236 
 GUY  SZ I        1833 34.45        22.7 0.36                           305 236 
 RREF HZ EP   1   1832 55.32                             110     0.2 5  325 230 
 RREF HN ES   2   1833 32.19                             110     0.9 3  325 230 
 RREF HZ I        1833 37.86        20.8 0.29                           325 230 
 PRA  HZ EP   1   1833  2.33                             106     0.0 4  393 210 
 PRA  HN ES   2   1833 44.83                             106     0.8 3  393 210 
 PRA  HZ I        1833 47.80        42.6 0.17                           393 210 
                                                                                
