 2011  723 1834 41.5 L   6.759 -73.098149.8  RSN  6 0.2 1.7LRSN                1
 GAP=162        0.41       2.5     3.8  4.3 -0.1219E+01 -0.1770E+01 -0.1963E+01E
 Epicentro: LOS SANTOS - SANTANDER                                             3
 ACTION:UPD 12-07-25 14:02 OP:epov STATUS:               ID:20110723183441 L   I
 2011-07-23-1829-30S.COL___143                                                 6
 STAT SP IPHASW D HRMM SECON CODA AMPLIT PERI AZIMU VELO AIN AR TRES W  DIS CAZ7
 BAR2 SZ EP   1   1835  1.55                             172   -0.03 8 20.6 207 
 BAR2 SZ ES   1   1835 17.00                             172   -0.22 8 20.6 207 
 BAR2 SZ I        1835 18.31        15.9 0.22                          20.6 207 
 BRR  HZ EP   1   1835  3.39                             151   -0.10 8 78.0 300 
 BRR  HZ I        1835  3.76        15.3 0.11                          78.0 300 
 BRR  HE ES   1   1835 20.89                             151    0.26 8 78.0 300 
 RUS  HZ EP   1   1835  5.63                             146    0.30 8 95.8 179 
 RUS  HN ES   1   1835 23.92                             146    0.02 8 95.8 179 
 RUS  HZ I        1835 25.40         4.1 0.33                          95.8 179 
 BRI  SZ EP       1835  5.90                             142   -0.0810  111  17 
 OCA  SZ ES   2   1835 33.40                             130    0.06 5  166 352 
 OCA  SZ I        1835 37.20         6.0 0.49                           166 352 
 NOR  SN ES   1   1835 45.68                             119   -0.18 6  236 236 
                                                                                
