 2015  423 1649  7.8 L   7.129 -73.323  4.0  RSN  6 0.3 1.4LRSN                1
 GAP=242        0.68       4.8     3.1  5.4  0.7103E+01  0.5550E+00 -0.7997E+01E
 Epicentro: LEBRIJA - SANTANDER                                                3
 ACTION:UPD 15-06-03 16:57 OP:cam  STATUS:               ID:20150423164907 L   I
 OLDACT:REG 15-04-23 20:51 OP:spq  STATUS:               ID:20150423164750     3
 2015-04-23-1647-50M.COL___272                                                 6
 STAT SP IPHASW D HRMM SECON CODA AMPLIT PERI AZIMU VELO AIN AR TRES W  DIS CAZ7
 BRR  HZ EP   1   1649 14.67                              91   -0.25 7 43.1 267 
 BRR  HE ES   1   1649 20.69                              91    0.22 7 43.1 267 
 BRR  HZ I        1649 26.95        16.0 0.52             47           43.1 267 
 BAR2 EZ EP       1649 17.63                              91   -0.3110 61.3 165 
 RUS  HZ EP   1   1649 30.40                              90    0.40 7  139 169 
 PTB  HZ EP       1649 29.96                              90    0.15 9  141 243 
 PTB  HN ES       1649 46.88                              90   -0.10 9  141 243 
 PTB  HZ I        1649 48.87        10.9 0.18             47            141 243 
 ZAR  HZ EP   1   1649 35.35                              56    0.55 7  174 283 
 ZAR  HN ES   1   1649 55.34                              56   -0.52 7  174 283 
 ZAR  HZ I        1649 57.48         5.4 0.30             37            174 283 
 NOR  HE ES   1   1650 11.61                              56    0.18 6  243 225 
 NOR  HZ I        1650 18.08         2.3 0.30             37            243 225 
                                                                                
