 2010  423 1206 12.0 L   6.776 -73.022143.5  RSN  6 0.7 2.3LRSN                1
 GAP=185        1.48      16.0    22.8 22.7 -0.3914E+02 -0.2820E+03 -0.7940E+02E
 Epicentro: CEPITA - SANTANDER                                                 3
 ACTION:UPD 10-08-24 10:00 OP:vdl  STATUS:               ID:20100423120610 L   I
 2010-04-23-1201-04S.COL___104                                                 6
 STAT SP IPHASW D HRMM SECON CODA AMPLIT PERI AZIMU VELO AIN AR TRES W  DIS CAZ7
 BAR2 SZ EP   2   12 6 31.02                             170    -0.4 5   27 221 
 BAR2 SZ ES   2   12 6 46.25                             170    -0.4 5   27 221 
 BRR  HZ EP       12 6 33.44                             150    -0.310   85 296 
 BRR  HZ I        12 6 33.77        30.8 0.09                            85 296 
 BRR  HN ES   1   12 6 51.20                             150     0.5 7   85 296 
 BRI  SZ EP       12 6 36.66                             142     1.110  107  13 
 GUE  SZ EP   1   12 6 35.42                             140    -1.1 7  117   5 
 OCA  SZ EP   1   12 6 40.12                             130    -0.5 7  165 349 
 OCA  SZ ES   2   12 7  2.62                             130    -0.3 5  165 349 
 OCA  SZ I        12 7  7.30        23.2 0.32                           165 349 
 CHI  HE ES   3   12 7 20.10                             118     0.9 2  250 198 
                                                                                
