 2017  423 1719 37.4 L   6.763 -73.159142.3  RSN  4 0.1 1.4LRSN                1
 GAP=149        0.44       4.2     2.5  4.0  0.7051E+00  0.1528E+01 -0.1851E+01E
 Epicentro: LOS SANTOS - SANTANDER                                             3
 ACTION:UPD 17-05-30 21:15 OP:jn   STATUS:               ID:20170423171937 L   I
 OLDACT:DUP 17-04-23 23:03 OP:dani STATUS:               ID:20170423171741d    3
 OLDACT:REG 17-04-23 21:15 OP:dani STATUS:               ID:20170423171740     3
 2017-04-23-1718-00M.COL___371                                                 6
 STAT SP IPHASW D HRMM SECON CODA AMPLIT PERI AZIMU VELO AIN AR TRES W  DIS CAZ7
 BAR2 EZ EP       1719 56.41                             172   -0.0910 19.0 188 
 BAR2 EZ ES       1720 11.56                             172    0.1410 19.0 188 
 BAR2 EZ I        1720 14.51         7.0 0.28            173           19.0 188 
 BRR  HZ EP       1719 58.24                             152    0.0510 72.0 302 
 BRR  HN ES       1720 14.17                             152   -0.2610 72.0 302 
 BRR  HZ I        1720 18.21         5.8 0.25            154           72.0 302 
 PAM  EZ EP       1719 59.41                             149   -0.0610 81.5  38 
 PAM  EN ES       1720 16.79                             149    0.0910 81.5  38 
 PAM  EZ I        1720 18.89         3.3 0.45            152           81.5  38 
 ZAR  HN ES       1720 34.95                             122    0.18 9  204 293 
                                                                                
