 2014 1223 1916 16.7 L   6.811 -73.144146.3  RSN  5 0.4 2.0LRSN                1
 GAP=215        1.06       4.8     8.0  7.6 -0.3578E+01  0.4752E+01 -0.6586E+01E
 Epicentro: LOS SANTOS - SANTANDER                                             3
 ACTION:UPD 15-02-10 17:06 OP:nd   STATUS:               ID:20141223191616 L   I
 OLDACT:DUP 14-12-23 22:45 OP:carl STATUS:               ID:20141223190752d    3
 2014-12-23-1907-51M.COL___292                                                 6
 STAT SP IPHASW D HRMM SECON CODA AMPLIT PERI AZIMU VELO AIN AR TRES W  DIS CAZ7
 BAR2 EZ EP       1916 36.62                             170    0.2310 24.6 190 
 BAR2 EZ ES       1916 51.14                             170   -0.6310 24.6 190 
 BAR2 EZ I        1916 52.76        19.9 0.16            166           24.6 190 
 BRR  HZ EP       1916 38.49                             153    0.6310 70.8 298 
 BRR  HN ES       1916 55.00                             153    0.6210 70.8 298 
 BRR  HZ I        1916 59.13        11.7 0.12            144           70.8 298 
 PTB  HZ EP       1916 43.56                             132   -0.17 9  148 258 
 PTB  HN ES       1917  4.46                             132   -0.36 9  148 258 
 PTB  HZ I        1917 11.64        10.7 0.30            128            148 258 
 SPBC HZ EP       1916 45.23                             129   -0.09 9  164 219 
 SPBC HN ES       1917  7.78                             129    0.13 9  164 219 
 SPBC HZ I        1917 12.74        11.4 0.22            128            164 219 
 SML  HZ EP       1916 53.01                             118   -0.21 8  243 335 
 SML  HN ES       1917 21.27                             118   -0.45 8  243 335 
 SML  HZ I        1917 34.81         9.4 0.10            116            243 335 
                                                                                
