 2012  923 1244 13.9 L   6.728 -73.115143.5  RSN  6 0.3 1.9LRSN                1
 GAP=144        0.69       5.8     5.4  7.2  0.4356E+01 -0.8451E+01 -0.1759E+02E
 Epicentro: JORDAN - SANTANDER                                                 3
 ACTION:UPD 12-10-22 14:20 OP:ep   STATUS:               ID:20120923124413 L   I
 2012-09-23-1240-00M.COL___221                                                 6
 STAT SP IPHASW D HRMM SECON CODA AMPLIT PERI AZIMU VELO AIN AR TRES W  DIS CAZ7
 BAR2 SZ EP       1244 33.30                             173    0.1810 16.7 207 
 BAR2 SZ I        1244 34.07        24.0 0.39                          16.7 207 
 BAR2 SZ ES       1244 47.80                             173   -0.3310 16.7 207 
 GIR2 SZ EP       1244 33.38                             164   -0.1610 39.8 347 
 BRR  HZ EP       1244 35.22                             150    0.0210 78.2 302 
 BRR  HZ I        1244 35.65        27.8 0.11                          78.2 302 
 BRR  HN ES   1   1244 52.47                             150    0.64 7 78.2 302 
 PAM  SZ EP       1244 36.03                             149   -0.0910 81.7  34 
 PAM  SZ I        1244 36.63        21.9 0.22                          81.7  34 
 RUS  HZ EP   2   1244 37.20                             146    0.37 5 92.4 178 
 RUS  HE ES   1   1244 54.96                             146    0.23 7 92.4 178 
 RUS  HZ I        1244 57.12         5.7 0.45                          92.4 178 
 PTB  HN ES   1   1245  1.48                             131   -0.41 7  150 262 
                                                                                
