 2014  923 1322 13.8 L   6.810 -73.139137.6  RSN  7 0.4 1.5LRSN                1
 GAP=137        0.87       3.6     4.0  7.3 -0.1301E+01  0.7112E+01 -0.4212E+01E
 Epicentro: LOS SANTOS - SANTANDER                                             3
 ACTION:UPD 14-10-03 23:07 OP:nd   STATUS:               ID:20140923132213 L   I
 OLDACT:DUP 14-09-24 00:19 OP:spq  STATUS:               ID:20140923131820d    3
 OLDACT:REG 14-09-23 21:10 OP:spq  STATUS:               ID:20140923131819     3
 2014-09-23-1318-19M.COL___284                                                 6
 STAT SP IPHASW D HRMM SECON CODA AMPLIT PERI AZIMU VELO AIN AR TRES W  DIS CAZ7
 BAR2 SZ EP       1322 32.47                             169   -0.0110 24.6 191 
 BAR2 SZ ES   1   1322 46.38                             169   -0.67 7 24.6 191 
 BAR2 SZ I        1322 49.36         4.6 0.26            170           24.6 191 
 PAM  SZ EP       1322 35.26                             150    0.1910 76.1  40 
 PAM  SN ES   1   1322 51.71                             150    0.04 7 76.1  40 
 PAM  SZ I        1322 54.71         3.5 0.60            154           76.1  40 
 RUS  HZ EP       1322 36.90                             142    0.0610  102 176 
 RUS  HE ES   1   1322 55.04                             142    0.23 7  102 176 
 RUS  HZ I        1322 56.13         3.0 0.23            147            102 176 
 PTB  HZ EP       1322 39.51                             130   -0.69 9  149 258 
 PTB  HN ES       1323  0.72                             130   -0.07 9  149 258 
 PTB  HZ I        1323  8.06         4.8 0.42            132            149 258 
 SPBC HZ EP       1322 41.89                             127    0.08 9  164 219 
 SPBC HN ES       1323  4.15                             127    0.48 9  164 219 
 SPBC HZ I        1323  6.01         4.0 0.27            131            164 219 
 ZAR  HE ES       1323 10.80                             120    0.13 9  204 292 
 ZAR  HZ I        1323 16.69         4.2 0.24            123            204 292 
 SML  HZ EP   1   1322 49.33                             116   -0.57 6  243 335 
 SML  HN ES   1   1323 18.90                             116    0.84 6  243 335 
 SML  HZ I        1323 20.63         4.4 0.12            119            243 335 
                                                                                
