 2012 1123 1431 21.8 L   6.798 -73.176141.2  RSN  6 0.2 1.8LRSN                1
 GAP=133        0.47       2.4     2.3  3.7 -0.6936E+00  0.2158E+01  0.1417E+01E
 Epicentro: LOS SANTOS - SANTANDER                                             3
 ACTION:UPD 12-12-05 15:35 OP:}ep  STATUS:               ID:20121123143121 L   I
 2012-11-23-1430-00M.COL___233                                                 6
 STAT SP IPHASW D HRMM SECON CODA AMPLIT PERI AZIMU VELO AIN AR TRES W  DIS CAZ7
 BAR2 SZ EP       1431 41.04                             170    0.1310 22.7 182 
 BAR2 SZ ES       1431 55.83                             170    0.0510 22.7 182 
 BAR2 SZ I        1431 57.09        31.4 0.31                          22.7 182 
 PAM  SZ EP       1431 43.90                             149    0.1910 79.7  41 
 PAM  SN ES       1432  0.68                             149   -0.1010 79.7  41 
 PAM  SZ I        1432  2.93         7.0 0.39                          79.7  41 
 RUS  HZ EP       1431 45.05                             143   -0.1010  101 174 
 RUS  HN ES   1   1432  3.09                             143   -0.23 7  101 174 
 RUS  HN I        1432  5.54        10.4 0.38                           101 174 
 PTB  HZ EP       1431 47.83                             132   -0.30 9  144 259 
 PTB  HN ES       1432  8.68                             132    0.04 9  144 259 
 PTB  HZ I        1432 12.36         9.7 0.08                           144 259 
 ZAR  HN ES   1   1432 18.64                             122    0.13 6  201 293 
 ZAR  HZ I        1432 24.54         8.5 0.31                           201 293 
 CHI  HZ EP   1   1431 59.08                             116   -0.09 6  248 194 
 CHI  HN ES   1   1432 28.75                             116    0.47 6  248 194 
 CHI  HZ I        1432 36.49         3.8 0.40                           248 194 
                                                                                
