 2011  823 1841 35.8 L   6.715 -73.146154.1  RSN  4 0.5 1.7LRSN                1
 GAP=231        0.99       8.0    17.6 10.4  0.6143E+02  0.2108E+02  0.2540E+02E
 Epicentro: JORDAN - SANTANDER                                                 3
 ACTION:UPD 12-07-13 15:53 OP:ep   STATUS:               ID:20110823184135 L   I
 2011-08-23-1838-17S.COL___157                                                 6
 STAT SP IPHASW D HRMM SECON CODA AMPLIT PERI AZIMU VELO AIN AR TRES W  DIS CAZ7
 BAR2 SZ EP   1   1841 55.68                             174   -0.57 7 14.2 196 
 BAR2 SZ ES   1   1842 11.59                             174   -0.64 7 14.2 196 
 BAR2 SZ I        1842 13.93         8.9 0.22                          14.2 196 
 BRR  HZ EP   1   1841 57.90                             152   -0.18 7 76.1 305 
 BRR  HN ES   1   1842 15.98                             152    0.49 7 76.1 305 
 BRR  HZ I        1842 21.22        27.5 0.16                          76.1 305 
 RUS  HZ EP   1   1842  0.20                             148    0.49 7 91.2 176 
 RUS  HN ES   1   1842 19.05                             148    0.66 7 91.2 176 
 RUS  HZ I        1842 20.15         5.1 0.28                          91.2 176 
 CHI  HZ EP   1   1842 13.23                             120    0.26 6  240 196 
 CHI  HN ES   1   1842 41.36                             120   -0.64 6  240 196 
 CHI  HZ I        1842 47.79         2.3 0.31                           240 196 
                                                                                
