 2010  823 1135 52.3 L   6.796 -73.083140.8  RSN  7 0.2 1.7LRSN                1
 GAP=171        0.55       3.1     6.5  5.3 -0.2508E+01  0.5961E+01  0.7207E+00E
 Epicentro: LOS SANTOS - SANTANDER                                             3
 ACTION:UP  10-09-07 10:57 OP:vdl  STATUS:               ID:20100823113552 L   I
 2010-08-23-1132-08S.COL___120                                                 6
 STAT SP IPHASW D HRMM SECON CODA AMPLIT PERI AZIMU VELO SNR AR TRES W  DIS CAZ7
 BAR2 SZ EP   1   1136 11.31                             170    -0.1 7   25 206 
 BAR2 SZ ES   1   1136 26.24                             170     0.0 7   25 206 
 BAR2 SZ I        1136 27.54        11.3 0.06                            25 206 
 BRR  HZ EP       1136 13.15                             150    -0.210   78 296 
 BRR  HZ I        1136 21.12        16.1 0.35                            78 296 
 BRR  HE ES   2   1136 30.01                                     0.3 5   78 296 
 RUS  HZ EP       1136 15.38                             142    -0.110  100 180 
 RUS  HZ I        1136 16.59         6.0 0.03                           100 180 
 RUS  HN ES   1   1136 33.56                             142    -0.1 7  100 180 
 GUE  SZ EP   1   1136 16.81                             138     0.3 7  116   9 
 GUE  SZ I        1136 46.66         2.0 0.06                           116   9 
 CHI  HN ES   1   1136 59.61                             115     0.4 6  250 197 
 CHI  HZ I        1137  4.33         2.3 0.23                           250 197 
 RREF HN ES   2   1137 14.52                             109    -0.6 3  327 230 
 RREF HZ I        1137 25.43         2.6 0.46                           327 230 
 PRA  HZ EP   1   1136 45.99                                     0.0 4  395 210 
 PRA  HN ES   1   1137 28.31                             105     0.4 4  395 210 
 PRA  HZ I        1137 34.15         3.4 0.67                           395 210 
                                                                                
