 2011  523 1326 29.1 L   6.824 -73.040133.7  RSN  5 0.3 1.5LRSN                1
 GAP=170        0.64       4.8    12.2 13.8 -0.2306E+02 -0.7520E+02  0.1390E+02E
 Epicentro: CEPITA - SANTANDER                                                 3
 ACTION:UP  11-06-29 08:55 OP:tino STATUS:               ID:20110523132629 L   I
 2011-05-23-1322-48S.COL___141                                                 6
 STAT SP IPHASW D HRMM SECON CODA AMPLIT PERI AZIMU VELO SNR AR TRES W  DIS CAZ7
 BTL  SZ EP   2   1326 47.96                             168     0.6 5   27 293 
 BAR2 SZ EP   1   1326 47.18                             166    -0.3 7   30 211 
 BRR  HN ES   2   1327  5.49                             147     0.0 5   81 293 
 BRR  HZ I        1327 15.64        10.4 0.13                            81 293 
 RUS  HZ EP   2   1326 51.47                             140    -0.4 5  103 183 
 RUS  HE ES   2   1327 10.00                             140     0.3 5  103 183 
 RUS  HZ I        1327 12.04         2.7 0.28                           103 183 
 GRA  SZ EP   1   1326 53.11                             135     0.3 7  120  13 
 GRA  SZ ES   1   1327 11.15                             135    -0.2 7  120  13 
 GRA  SZ I        1327 13.83         4.8 0.12                           120  13 
                                                                                
