 2013  223 1858 34.5 L   6.803 -73.142147.4  RSN  5 0.2 1.9LRSN                1
 GAP=137        0.55       3.3     2.9  4.1 -0.1508E+01  0.1039E+01  0.1680E+01E
 Epicentro: LOS SANTOS - SANTANDER                                             3
 ACTION:UPD 13-03-12 09:35 OP:ep   STATUS:               ID:20130223185834 L   I
 2013-02-23-1850-00M.COL___225                                                 6
 STAT SP IPHASW D HRMM SECON CODA AMPLIT PERI AZIMU VELO AIN AR TRES W  DIS CAZ7
 BAR2 SZ EP       1858 54.35                             170    0.0410 23.8 191 
 BAR2 SZ ES       1859  9.73                             170   -0.0610 23.8 191 
 BAR2 SZ I        1859 10.28        15.0 0.18            170           23.8 191 
 BRR  HZ EP       1858 55.89                             153    0.0810 71.4 298 
 BRR  HN ES       1859 12.81                             153    0.3510 71.4 298 
 BRR  HN I        1859 13.47        14.9 0.20            151           71.4 298 
 PAM  SZ EP       1858 56.97                             151    0.1410 76.8  39 
 PAM  SN ES       1859 13.97                             151   -0.3010 76.8  39 
 PAM  SN I        1859 15.00        18.0 0.50            153           76.8  39 
 RUS  HZ EP       1858 58.54                             144    0.1310  101 176 
 RUS  HN ES   1   1859 17.12                             144    0.03 7  101 176 
 PTB  HZ EP       1859  1.37                             132   -0.25 9  148 259 
 PTB  HN ES       1859 22.58                             132   -0.21 9  148 259 
 PTB  HN I        1859 27.30        10.0 0.38            132            148 259 
                                                                                
