 2011  723 1207 59.1 L   6.762 -73.131141.7  RSN  8 0.3 1.9LRSN                1
 GAP=158        0.56       2.8     4.7  4.5 -0.5361E+01  0.2873E+00 -0.5986E+00E
 Epicentro: LOS SANTOS - SANTANDER                                             3
 ACTION:UPD 12-07-25 14:02 OP:epov STATUS:               ID:20110723120759 L   I
 2011-07-23-1205-30S.COL___143                                                 6
 STAT SP IPHASW D HRMM SECON CODA AMPLIT PERI AZIMU VELO AIN AR TRES W  DIS CAZ7
 BAR2 SZ IP       12 8 18.17                             172   -0.0310 19.7 197 
 BAR2 SZ I        12 8 18.50        15.4 0.10                          19.7 197 
 BAR2 SZ ES   1   12 8 32.70                             172   -0.38 7 19.7 197 
 GIR2 SZ EP   1   12 8 18.30                             165   -0.15 7 35.7 349 
 GIR2 SZ ES   1   12 8 33.57                             165    0.05 7 35.7 349 
 BRR  HZ EP   1   12 8 20.02                             151   -0.03 7 74.7 301 
 BRR  HZ I        12 8 20.46        22.4 0.11                          74.7 301 
 BRR  HE ES   1   12 8 36.78                             151    0.42 7 74.7 301 
 RUS  HZ EP   1   12 8 22.20                             144    0.03 7 96.3 177 
 RUS  HN ES   1   12 8 40.41                             144    0.26 7 96.3 177 
 RUS  HZ I        12 8 41.68         8.8 0.39                          96.3 177 
 BRI  SZ EP   1   12 8 23.34                             140    0.44 7  112  19 
 BRI  SZ ES   1   12 8 41.60                             140    0.17 7  112  19 
 BRI  SZ I        12 8 43.45        12.7 0.45                           112  19 
 GRA  SZ EP   1   12 8 24.18                             135   -0.13 7  129  16 
 GRA  SZ ES   1   12 8 43.43                             135   -0.52 7  129  16 
 GRA  SZ I        12 8 44.83         7.9 0.35                           129  16 
 OCA  SZ EP   1   12 8 27.63                             128    0.09 7  165 353 
 OCA  SZ I        12 8 50.30        14.7 0.48                           165 353 
 NOR  SE ES   1   12 9  1.79                             118   -0.33 6  234 236 
                                                                                
