 2016  723 1908 25.6 L   6.861 -73.105148.6  RSN  8 0.4 2.2LRSN                1
 GAP=139        0.93       4.1     4.3  6.2 -0.1914E+01  0.8872E+01  0.5061E+01E
 Epicentro: LOS SANTOS - SANTANDER                                             3
 ACTION:UPD 17-03-29 16:54 OP:lp   STATUS:               ID:20160723190825 L   I
 OLDACT:REG 16-07-23 20:42 OP:lv   STATUS:               ID:20160723190759     3
 2016-07-23-1907-59S.COL___328                                                 6
 STAT SP IPHASW D HRMM SECON CODA AMPLIT PERI AZIMU VELO AIN AR TRES W  DIS CAZ7
 BAR2 EZ EP       19 8 45.50                             168   -0.2610 31.0 196 
 BAR2 EZ ES       19 9  1.12                             168   -0.3510 31.0 196 
 PAM  EZ EP       19 8 48.27                             154    0.6010 69.3  40 
 PAM  EN ES       19 9  4.92                             154    0.0410 69.3  40 
 PAM  EZ I        19 9  7.10        22.1 0.30            158           69.3  40 
 BRR  HZ EP       19 8 47.06                             153   -0.0710 72.4 292 
 BRR  HE ES       19 9  4.27                             153    0.3510 72.4 292 
 BRR  HZ I        19 9  6.69        14.5 0.10            151           72.4 292 
 RUS  HZ EP       19 8 50.14                             143    0.0210  107 179 
 RUS  HE ES       19 9  9.28                             143    0.0510  107 179 
 SPBC HZ EP       19 8 54.50                             128   -0.60 9  171 219 
 SPBC HN ES   2   19 9 17.47                             128   -0.63 4  171 219 
 SPBC HZ I        19 9 24.81        28.3 0.30            129            171 219 
 ZAR  HZ EP   2   19 8 57.70                             123   -0.73 4  206 290 
 ZAR  HN ES       19 9 23.57                             123   -0.45 8  206 290 
 ZAR  HZ I        19 9 28.49        16.4 0.30            124            206 290 
 NOR  HZ EP       19 9  2.41                             118    0.09 8  242 234 
 NOR  HN ES       19 9 31.37                             118    0.41 8  242 234 
 NOR  HZ I        19 9 35.28         8.4 0.14            119            242 234 
 GUY2CHZ EP   4   19 9 11.78                             112    1.57 0  309 234 
 GUY2CHN ES       19 9 45.80                             112    0.80 7  309 234 
 GUY2CHZ I        19 9 54.27         7.2 0.38                           309 234 
                                                                                
