 2012  723 1121 30.4 L   6.787 -73.141145.6  RSN  8 0.4 1.9LRSN                1
 GAP=183        0.99       4.5     6.5  7.9  0.5532E+01  0.1328E+02  0.6294E+01E
 Epicentro: LOS SANTOS - SANTANDER                                             3
 ACTION:UPD 12-08-14 11:44 OP:ep   STATUS:               ID:20120723112130 L   I
 2012-07-23-1120-00M.COL___215                                                 6
 STAT SP IPHASW D HRMM SECON CODA AMPLIT PERI AZIMU VELO AIN AR TRES W  DIS CAZ7
 BAR2 SZ EP       1121 50.11                             171     0.110   22 192 
 BAR2 SZ ES   1   1122  5.04                             171    -0.2 7   22 192 
 BAR2 SZ I        1122  8.13        24.4 0.36            165             22 192 
 BRR  HZ EP       1121 52.08                             152     0.510   72 299 
 BRR  HN ES   1   1122  8.84                             152     0.7 7   72 299 
 BRR  HZ I        1122 12.92        22.3 0.21            150             72 299 
 RUS  HZ EP   1   1121 54.04                             144     0.0 7   99 176 
 RUS  HN ES   1   1122 12.33                             144    -0.1 7   99 176 
 RUS  HZ I        1122 15.47         8.2 0.34            145             99 176 
 PTB  HZ EP       1121 56.82                             132    -0.5 9  148 259 
 PTB  HN ES   1   1122 17.85                             132    -0.5 7  148 259 
 PTB  HZ I        1122 24.02         9.0 0.31            132            148 259 
 OCA  HN ES   1   1122 20.27                             129    -0.7 7  162 353 
 ZAR  HZ EP   1   1122  2.74                             122    -0.2 6  205 292 
 ZAR  HN ES   1   1122 28.51                             122     0.2 6  205 292 
 ZAR  HZ I        1122 34.61         9.1 0.21            124            205 292 
 NOR  SZ EP       1122  6.34                             118     0.3 8  234 235 
 NOR  SN ES   1   1122 33.96                             118     0.1 6  234 235 
 CHI  HZ EP   1   1122  8.28                             117     0.3 6  247 195 
 CHI  HE ES   1   1122 36.86                             117    -0.4 6  247 195 
 CHI  HZ I        1122 45.37         4.1 0.33            119            247 195 
