 2015  423 1434 42.4 L   6.373 -73.618112.4  RSN 10 0.5 1.8LRSN                1
 GAP= 80        1.19       4.6     4.7  8.5 -0.2104E+01  0.1237E+02 -0.8561E+01E
 Epicentro: SANTA HELENA DEL OPON - SANTANDER                                  3
 ACTION:UPD 15-06-03 16:57 OP:cam  STATUS:               ID:20150423143442 L   I
 OLDACT:REG 15-04-23 20:41 OP:spq  STATUS:               ID:20150423142749     3
 2015-04-23-1427-49M.COL___274                                                 6
 STAT SP IPHASW D HRMM SECON CODA AMPLIT PERI AZIMU VELO AIN AR TRES W  DIS CAZ7
 BAR2 EZ EP       1434 59.53                             152    0.2110 53.9  63 
 BAR2 EZ ES   1   1435 12.73                             152    0.22 7 53.9  63 
 RUS  HZ EP       1435  0.84                             142   -0.5210 79.5 132 
 RUS  HE ES   1   1435 15.73                             142   -0.41 7 79.5 132 
 RUS  HZ I        1435 17.69         8.1 0.28            154           79.5 132 
 BRR  HZ EP       1435  1.14                             141    0.2910 81.9 353 
 BRR  HN ES   1   1435 16.15                             141    0.92 7 81.9 353 
 BRR  HZ I        1435 24.63        22.5 0.62            144           81.9 353 
 SPBC HN ES   1   1435 17.42                             137    0.21 7 94.2 212 
 SPBC HZ I        1435 22.39        20.8 0.20            145           94.2 212 
 PTB  HZ EP       1435  1.27                             137   -0.6210 94.6 281 
 PTB  HN ES       1435 16.32                             137   -0.7610 94.6 281 
 PTB  HZ I        1435 19.02        15.6 0.05            141           94.6 281 
 NOR  HZ EP   1   1435  9.16                             120    0.43 7  165 237 
 NOR  HN ES       1435 29.72                             120    0.47 9  165 237 
 NOR  HZ I        1435 31.26        10.6 0.18            127            165 237 
 ZAR  HZ EP       1435 11.24                             116    0.44 9  185 312 
 ZAR  HN ES   4   1435 34.00                             116    1.07 0  185 312 
 ZAR  HZ I        1435 39.66        15.6 0.26            122            185 312 
 GUY2CHZ EP   1   1435 17.51                             111    0.90 6  231 237 
 GUY2CHN ES   4   1435 46.19                             111    2.91 0  231 237 
 GUY2CHZ I        1435 51.40         5.0 0.58                           231 237 
 SML  HE ES   1   1435 50.97                             107    0.19 6  273 349 
 MON  HZ EP       1435 28.94                             102   -0.85 6  349 320 
 MON  HN ES   1   1436  6.34                             102   -0.40 5  349 320 
 MON  HZ I        1436  9.47         1.8 0.38            107            349 320 
                                                                                
