 2013  723 1718 26.7 L   6.351 -73.608106.1  RSN  6 0.4 1.9LRSN                1
 GAP=108        0.91       4.7     4.2 10.1  0.4501E+01  0.3643E+01 -0.1314E+02E
 Epicentro: SANTA HELENA DEL OPON - SANTANDER                                  3
 ACTION:UPD 13-08-12 10:39 OP:ep   STATUS:               ID:20130723171826 L   I
 OLDACT:UP  13-07-23 16:43 OP:mh   STATUS:               ID:20130723171748     3
 OLDACT:REG 13-07-23 16:27 OP:mh   STATUS:               ID:20130723171748     3
 2013-07-23-1717-48M.COL___234                                                 6
 STAT SP IPHASW D HRMM SECON CODA AMPLIT PERI AZIMU VELO AIN AR TRES W  DIS CAZ7
 BAR2 SZ EP   1   1718 43.37                             151    0.46 7 54.1  60 
 BAR2 SZ I        1718 58.12        12.8 0.16            143           54.1  60 
 RUS  HZ EP   1   1718 44.71                             141   -0.12 7 77.1 131 
 RUS  HN ES   1   1718 58.98                             141   -0.02 7 77.1 131 
 RUS  HZ I        1719  1.57         5.7 0.44            139           77.1 131 
 SPBC HZ EP   1   1718 45.53                             135   -0.01 7 92.8 214 
 SPBC HN ES   1   1719  0.67                             135    0.40 7 92.8 214 
 SPBC HN I        1719  4.42        30.8 0.28            140           92.8 214 
 PTB  HZ EP       1718 45.23                             134   -0.4910 96.1 283 
 PTB  HN ES       1719  0.05                             134   -0.5410 96.1 283 
 PTB  HZ I        1719  2.48        16.4 0.34            137           96.1 283 
 NOR  HZ EP   1   1718 52.12                             118   -0.44 7  165 238 
 NOR  HN ES       1719 13.19                             118    0.42 9  165 238 
 NOR  HN I        1719 15.39        32.6 0.14            120            165 238 
 ZAR  HZ EP   1   1718 55.04                             114    0.07 7  187 312 
 ZAR  HE ES       1719 17.64                             114    0.58 9  187 312 
 ZAR  HZ I        1719 22.62         8.4 0.34            114            187 312 
                                                                                
