 2016  923 1653 43.5 L   6.763 -73.168149.3  RSN  5 0.4 1.7LRSN                1
 GAP=146        1.02       8.5     4.9  7.4 -0.8169E+01  0.9826E+01 -0.2939E+01E
 Epicentro: LOS SANTOS - SANTANDER                                             3
 ACTION:UPD 17-08-17 21:15 OP:lp   STATUS:               ID:20160923165343 L   I
 OLDACT:DUP 16-09-24 00:23 OP:aar  STATUS:               ID:20160923164745d    3
 OLDACT:UP  16-09-24 00:21 OP:aar  STATUS:               ID:20160923164744     3
 OLDACT:REG 16-09-23 20:56 OP:ar   STATUS:               ID:20160923164744     3
 2016-09-23-1648-00M.COL___330                                                 6
 STAT SP IPHASW D HRMM SECON CODA AMPLIT PERI AZIMU VELO AIN AR TRES W  DIS CAZ7
 BAR2 EZ EP       1654  3.65                             172    0.1910 19.0 185 
 BAR2 EZ ES       1654 18.75                             172   -0.3010 19.0 185 
 BAR2 EZ I        1654 20.15        14.7 0.16            175           19.0 185 
 BRR  HZ EP       1654  5.57                             153    0.5610 71.1 302 
 BRR  HN ES       1654 22.51                             153    0.7010 71.1 302 
 BRR  HZ I        1654 24.94        10.9 0.30            149           71.1 302 
 PAM  EZ EP       1654  6.51                             150    0.1510 82.1  39 
 PAM  EE ES       1654 23.70                             150   -0.5010 82.1  39 
 PAM  EZ I        1654 25.73         8.9 0.46            150           82.1  39 
 PTB  HZ EP       1654 10.34                             133   -0.12 9  145 260 
 PTB  HN ES       1654 31.31                             133   -0.20 9  145 260 
 PTB  HZ I        1654 34.29         5.3 0.16            133            145 260 
 ZAR  HZ EP       1654 15.76                             123   -0.33 9  203 293 
 ZAR  HN ES       1654 41.15                             123   -0.38 9  203 293 
 ZAR  HZ I        1654 48.33         4.6 0.28            123            203 293 
                                                                                
