 2014  123 1053 27.7 L   6.769 -73.183135.9  RSN  4 0.2 1.4LRSN                1
 GAP=140        0.61       4.0     3.7  5.9 -0.6312E+01  0.9096E+01 -0.7165E+01E
 Epicentro: LOS SANTOS - SANTANDER                                             3
 ACTION:UPD 14-03-13 09:57 OP:ep   STATUS:               ID:20140123105327 L   I
 OLDACT:DUP 14-01-23 15:50 OP:stll STATUS:               ID:20140123104816d    3
 2014-01-23-1048-15M.COL___247                                                 6
 STAT SP IPHASW D HRMM SECON CODA AMPLIT PERI AZIMU VELO AIN AR TRES W  DIS CAZ7
 BAR2 SZ EP       1053 46.10                             171    0.0710 19.5 180 
 BAR2 SZ ES       1054  0.74                             171    0.3910 19.5 180 
 BAR2 SZ I        1054  2.53         6.1 0.50            174           19.5 180 
 PAM  SZ EP       1053 49.25                             147    0.0710 82.7  40 
 PAM  SN ES       1054  5.71                             147   -0.2510 82.7  40 
 PAM  SZ I        1054  8.24         4.5 0.48            149           82.7  40 
 RUS  HN ES       1054  7.60                             143   -0.2210 97.5 173 
 PTB  HZ EP       1053 53.53                             131    0.13 9  143 260 
 PTB  HN ES       1054 13.28                             131   -0.20 9  143 260 
 PTB  HZ I        1054 17.00         3.0 0.40            132            143 260 
                                                                                
