 2012  823 1313 38.9 L   6.749 -73.146143.7  RSN  6 0.3 1.7LRSN                1
 GAP=139        0.67       4.4     4.0  6.1  0.1739E+01  0.6216E+01 -0.1351E+01E
 Epicentro: LOS SANTOS - SANTANDER                                             3
 ACTION:UPD 12-09-10 11:58 OP:ep   STATUS:               ID:20120823131338 L   I
 2012-08-23-1310-00M.COL___217                                                 6
 STAT SP IPHASW D HRMM SECON CODA AMPLIT PERI AZIMU VELO AIN AR TRES W  DIS CAZ7
 BAR2 SZ EP   1   1313 58.23                             173    0.07 7 17.8 193 
 BAR2 SZ I        1313 58.81        19.0 0.13                          17.8 193 
 BAR2 SZ ES   1   1314 13.14                             173   -0.06 7 17.8 193 
 BRR  HZ EP   1   1314  0.05                             151    0.07 7 74.1 302 
 BRR  HZ I        1314  0.20        16.5 0.18                          74.1 302 
 BRR  HN ES   1   1314 16.93                             151    0.50 7 74.1 302 
 PAM  SZ EP   1   1314  1.16                             149    0.01 7 81.8  37 
 PAM  SN ES   1   1314 18.16                             149   -0.36 7 81.8  37 
 PAM  SZ I        1314 19.96         4.7 0.17                          81.8  37 
 RUS  HZ EP   1   1314  2.28                             145    0.25 7 94.9 176 
 RUS  HN ES   1   1314 20.15                             145    0.07 7 94.9 176 
 RUS  HZ I        1314 21.81         5.2 0.27                          94.9 176 
 PTB  HZ EP   1   1314  4.86                             132   -0.73 7  147 261 
 PTB  HN ES   1   1314 26.14                             132   -0.28 7  147 261 
 PTB  HZ I        1314 29.19         3.9 0.16                           147 261 
 ZAR  HZ EP   1   1314 11.99                             122    0.57 6  206 294 
 ZAR  HN ES   1   1314 36.71                             122   -0.09 6  206 294 
 ZAR  HZ I        1314 42.12         6.6 0.23                           206 294 
                                                                                
