 2013  123 1616 58.9 L   6.802 -73.108158.1  RSN  5 0.2 1.4LRSN                1
 GAP=141        0.49       3.9     3.6  5.8 -0.1979E+01  0.3542E+00  0.4684E+01E
 Epicentro: LOS SANTOS - SANTANDER                                             3
 ACTION:UPD 13-02-15 09:16 OP:ep   STATUS:               ID:20130123161658 L   I
 2013-01-23-1610-00M.COL___241                                                 6
 STAT SP IPHASW D HRMM SECON CODA AMPLIT PERI AZIMU VELO AIN AR TRES W  DIS CAZ7
 BAR2 SZ EP   1   1617 20.14                             171    0.11 7 24.6 199 
 PAM  SZ EP   1   1617 22.24                             154   -0.04 7 74.7  37 
 PAM  SE ES   1   1617 40.30                             154   -0.23 7 74.7  37 
 PAM  SZ I        1617 42.49         3.5 0.22            157           74.7  37 
 BRR  HN ES   1   1617 39.66                             153    0.39 7 74.8 297 
 RUS  HZ EP   1   1617 23.92                             146    0.05 7  101 178 
 RUS  HN ES   1   1617 43.37                             146    0.01 7  101 178 
 PTB  HZ EP   1   1617 27.31                             134    0.06 7  152 259 
 PTB  HN ES   1   1617 48.96                             134   -0.40 7  152 259 
 PTB  HZ I        1617 55.70         3.2 0.46            133            152 259 
                                                                                
