 2015  823 1013 55.3 L   6.318 -73.588111.0  RSN  8 0.2 1.4LRSN                1
 GAP= 86        0.57       2.3     2.5  5.2 -0.1059E+01  0.6682E+01 -0.2856E+01E
 Epicentro: SANTA HELENA DEL OPON - SANTANDER                                  3
 ACTION:UPD 15-09-15 23:04 OP:cam  STATUS:               ID:20150823101355 L   I
 OLDACT:REG 15-08-23 20:12 OP:spq  STATUS:               ID:20150823100744     3
 2015-08-23-1007-44M.COL___337                                                 6
 STAT SP IPHASW D HRMM SECON CODA AMPLIT PERI AZIMU VELO AIN AR TRES W  DIS CAZ7
 BAR2 EZ EP       1014 12.15                             152    0.1010 54.2  56 
 BAR2 EZ ES   1   1014 25.37                             152    0.24 7 54.2  56 
 BAR2 EZ I        1014 26.65        13.2 0.42            160           54.2  56 
 RUS  HZ EP   1   1014 13.43                             145   -0.19 7 73.0 130 
 RUS  HE ES   1   1014 27.83                             145   -0.10 7 73.0 130 
 RUS  HZ I        1014 28.98         2.7 0.16            154           73.0 130 
 BRR  HZ EP   1   1014 13.85                             138   -0.24 7 88.4 351 
 BRR  HN ES   1   1014 28.55                             138   -0.22 7 88.4 351 
 BRR  HZ I        1014 31.79         9.6 0.36            142           88.4 351 
 SPBC HZ EP       1014 14.35                             138   -0.0910 91.0 216 
 SPBC HN ES       1014 29.43                             138    0.0510 91.0 216 
 SPBC HZ I        1014 33.86         7.8 0.08            141           91.0 216 
 NOR  HN ES       1014 41.92                             119    0.03 9  165 240 
 NOR  HZ I        1014 43.66         5.2 0.18            123            165 240 
 ZAR  HZ EP       1014 24.08                             115   -0.22 9  191 313 
 ZAR  HE ES       1014 47.21                             115    0.28 9  191 313 
 ZAR  HZ I        1014 51.19         4.3 0.40            119            191 313 
 HEL  HZ EP       1014 27.95                             112    0.52 8  215 266 
 HEL  HE ES   1   1014 52.00                             112   -0.52 6  215 266 
 HEL  HZ I        1015  0.70         1.8 0.32            116            215 266 
 GUY2CHZ EP   4   1014 30.40                             111    1.04 0  231 239 
 GUY2CHN ES   4   1014 57.31                             111    1.37 0  231 239 
 GUY2CHZ I        1015  3.44         1.6 0.38                           231 239 
                                                                                
