 2016  923 1357 43.6 L   6.712 -73.143139.5  RSN  4 0.5 1.9LRSN                1
 GAP=163        1.10       9.7     5.8  9.5 -0.2022E+02  0.2470E+02 -0.2122E+02E
 Epicentro: VILLANUEVA - SANTANDER                                             3
 ACTION:UPD 17-08-17 21:15 OP:lp   STATUS:               ID:20160923135743 L   I
 OLDACT:UP  16-09-23 22:56 OP:aar  STATUS:               ID:20160923134735d    3
 OLDACT:DUP 16-09-23 22:44 OP:aar  STATUS:               ID:20160923134735d    3
 OLDACT:UP  16-09-23 22:42 OP:aar  STATUS:               ID:20160923134734     3
 OLDACT:REG 16-09-23 20:50 OP:ar   STATUS:               ID:20160923134734     3
 2016-09-23-1348-00M.COL___339                                                 6
 STAT SP IPHASW D HRMM SECON CODA AMPLIT PERI AZIMU VELO AIN AR TRES W  DIS CAZ7
 BAR2 EZ EP       1358  2.59                             174    0.2910 14.0 198 
 BAR2 EZ ES       1358 17.22                             174    0.3210 14.0 198 
 BAR2 EZ I        1358 18.43        19.4 0.32            174           14.0 198 
 PAM  EZ EP       1358  5.38                             147   -0.2410 84.9  35 
 PAM  EN ES       1358 22.60                             147   -0.2010 84.9  35 
 PAM  EZ I        1358 24.74        12.8 0.62            148           84.9  35 
 PTB  HZ EP       1358  9.24                             131   -0.68 9  146 263 
 PTB  HN ES       1358 30.21                             131   -0.26 9  146 263 
 PTB  HZ I        1358 33.63         7.5 0.36            132            146 263 
 ZAR  HZ EP       1358 17.00                             120    0.95 8  208 295 
 ZAR  HN ES       1358 41.35                             120   -0.03 8  208 295 
 ZAR  HZ I        1358 46.44        10.0 0.44            121            208 295 
                                                                                
