 2014  323 1802 46.7 L   6.818 -73.129143.4  RSN 20 0.4 2.5LRSN                1
 GAP= 71        0.84       2.4     3.0  4.3 -0.1972E+01  0.2964E+01  0.7055E+00E
 Epicentro: LOS SANTOS - SANTANDER                                             3
 OLDACT:REG 14-03-23 15:46 OP:fm   STATUS:               ID:20140323175814     3
 ACTION:UPD 14-04-09 23:20 OP:nd   STATUS:               ID:20140323180246 L   I
 OLDACT:UP  14-03-23 18:50 OP:fm   STATUS:               ID:20140323175814     3
 2014-03-23-1758-14M.COL___246                                                 6
 STAT SP IPHASW D HRMM SECON CODA AMPLIT PERI AZIMU VELO AIN AR TRES W  DIS CAZ7
 BAR2 SZ EP       18 3  6.24                             169    0.1010 25.6 193 
 BAR2 SZ ES   1   18 3 20.85                             169   -0.42 7 25.6 193 
 BAR2 SZ I        18 3 23.07       145.6 0.14            169           25.6 193 
 BRR  HZ IP     C 18 3  8.17                             152    0.4910 72.0 296 
 BRR  HN ES       18 3 24.56                             152    0.5410 72.0 296 
 BRR  SZ I        18 3 29.44        76.5 0.10            151           72.0 296 
 PAM  SZ IP     D 18 3  9.14                             151    0.5910 74.7  39 
 PAM  SN ES       18 3 25.62                             151    0.0710 74.7  39 
 PAM  SZ I        18 3 26.67        97.6 0.62            147           74.7  39 
 RUS  HZ EP       18 3 10.27                             143   -0.1310  102 177 
 RUS  HN ES       18 3 28.69                             143   -0.1610  102 177 
 RUS  SZ I        18 3 29.82        30.2 0.32            140            102 177 
 PTB  HZ EP       18 3 13.19                             131   -0.54 9  150 258 
 PTB  HE ES       18 3 34.56                             131   -0.21 9  150 258 
 PTB  SZ I        18 3 36.68        67.7 0.14            129            150 258 
 TAM  HZ EP   2   18 3 14.58                             130    0.47 5  154 106 
 TAM  SZ I        18 3 33.68        16.1 0.80            126            154 106 
 TAM  HN ES   2   18 3 35.01                             130   -0.45 5  154 106 
 OCA  HZ EP       18 3 14.59                             129   -0.12 9  159 352 
 OCA  HE ES       18 3 36.18                             129   -0.35 9  159 352 
 OCA  SZ I        18 3 39.58        67.0 0.28            126            159 352 
 SPBC HZ EP       18 3 15.06                             128   -0.26 9  166 219 
 SPBC HE ES       18 3 37.81                             128    0.20 9  166 219 
 SPBC SZ I        18 3 41.48        30.9 0.30            125            166 219 
 ZAR  HZ EP       18 3 19.38                             122    0.24 9  205 291 
 NOR  HZ EP       18 3 22.96                             118    0.33 8  237 234 
 NOR  HN ES   1   18 3 50.72                             118    0.11 6  237 234 
 NOR  SZ I        18 3 55.12        21.1 0.14            115            237 234 
 SML  HZ EP       18 3 22.59                             117   -0.54 8  243 335 
 SML  HN ES   4   18 3 50.22                             117   -1.30 0  243 335 
 SML  SZ I        18 3 59.97        36.6 0.08            114            243 335 
 CHI  HZ EP       18 3 24.58                             116    0.01 8  251 195 
 CHI  HN ES   1   18 3 53.15                             116   -0.93 6  251 195 
 CHI  SZ I        18 3 57.77         6.9 0.38            114            251 195 
 ROSC BZ EP   2   18 3 25.90                             116    0.87 4  255 211 
 ROSC BN ES   2   18 3 54.42                             116   -0.47 4  255 211 
 ROSC SZ I        18 4  0.99        11.9 0.35            113            255 211 
 HEL  HZ EP   4   18 3 28.45                             114    1.35 0  274 256 
 HEL  HN ES       18 3 58.09                             114   -0.48 8  274 256 
 HEL  SZ I        18 4  4.98        14.3 0.46            112            274 256 
 URE  HZ EP   2   18 3 26.98                             113   -0.84 4  285 291 
 URE  HE ES   4   18 3 57.70                             113   -2.15 0  285 291 
 URE  SZ I        18 4  1.35        24.2 0.12            111            285 291 
 GUY2CHZ EP   1   18 3 31.21                             112    0.66 5  304 235 
 GUY2CHE ES   1   18 4  4.36                             112   -0.35 5  304 235 
 GUY2CSZ I        18 4 11.47        15.6 0.30                           304 235 
 RREF HZ EP   2   18 3 33.39                             110    0.29 3  324 229 
 RREF HN ES   2   18 4  9.79                             110    0.54 3  324 229 
 RREF SZ I        18 4 14.99         8.2 0.66            108            324 229 
 SDV  BZ EP   2   18 3 35.99                             108   -0.39 3  358  50 
 SDV  BN ES   4   18 4 13.84                             108   -1.26 0  358  50 
 ANIL HN ES   4   18 4 17.01                             108    1.21 0  360 225 
 ORTC HZ EP   1   18 3 41.28                             106    0.38 4  398 216 
 ORTC HN ES   1   18 4 24.09                             106    0.95 4  398 216 
 ORTC SZ I        18 4 29.87         7.6 0.90            104            398 216 
 SJC  HZ EP   4   18 3 41.23                             105   -0.93 0  409 327 
 SJC  HN ES   4   18 4 21.92                             105   -3.46 0  409 327 
 SJC  SZ I        18 4 35.34        14.1 0.54            103            409 327 
                                                                                
