 2014 1223 1821 20.6 L   6.807 -73.152151.5  RSN 12 0.5 2.2LRSN                1
 GAP=135        1.19       3.0     4.7  6.0 -0.2263E+01  0.6994E+01  0.7683E+00E
 Epicentro: LOS SANTOS - SANTANDER                                             3
 ACTION:UPD 15-02-10 17:06 OP:nd   STATUS:               ID:20141223182120 L   I
 OLDACT:DUP 14-12-23 22:15 OP:carl STATUS:               ID:20141223181750d    3
 2014-12-23-1817-49M.COL___293                                                 6
 STAT SP IPHASW D HRMM SECON CODA AMPLIT PERI AZIMU VELO AIN AR TRES W  DIS CAZ7
 BAR2 EZ EP       1821 41.01                             171    0.1110 24.0 188 
 BAR2 EZ ES       1821 56.38                             171   -0.3710 24.0 188 
 BAR2 EZ I        1821 58.65        30.0 0.28            169           24.0 188 
 BRR  HZ EP       1821 42.93                             154    0.6510 70.2 298 
 BRR  HN ES       1822  0.09                             154    0.8810 70.2 298 
 BRR  HZ I        1822  3.77        15.9 0.52            150           70.2 298 
 PAM  SZ EP       1821 43.85                             152    0.4710 77.2  40 
 PAM  SN ES       1822  1.02                             152   -0.1610 77.2  40 
 PAM  SZ I        1822  3.09        19.0 0.22            157           77.2  40 
 RUS  HZ EP       1821 45.19                             145    0.2510  101 176 
 RUS  HE ES       1822  3.26                             145   -0.7010  101 176 
 RUS  HZ I        1822  4.77        10.1 0.42            148            101 176 
 PTB  HZ EP       1821 47.84                             133   -0.11 9  147 258 
 PTB  HN ES       1822  9.02                             133   -0.30 9  147 258 
 PTB  HZ I        1822 16.56        20.1 0.36            133            147 258 
 OCA  HZ EP       1821 49.61                             131    0.37 9  159 353 
 OCA  HN ES       1822 10.86                             131   -0.75 9  159 353 
 OCA  HZ I        1822 19.12        15.9 0.64            133            159 353 
 SPBC HZ EP       1821 50.06                             130    0.54 9  163 219 
 SPBC HN ES       1822 12.43                             130    0.32 9  163 219 
 SPBC HZ I        1822 17.76        33.6 0.16            131            163 219 
 ZAR  HZ EP       1821 52.85                             124   -0.44 9  203 292 
 ZAR  HN ES       1822 19.24                             124    0.43 9  203 292 
 ZAR  HZ I        1822 29.85        16.1 0.32            124            203 292 
 NOR  HZ EP       1821 56.60                             120   -0.02 8  235 234 
 NOR  HN ES       1822 24.29                             120   -0.45 8  235 234 
 NOR  HZ I        1822 28.73        12.8 0.22            121            235 234 
 SML  HZ EP       1821 56.71                             119   -0.70 8  243 335 
 SML  HN ES       1822 25.82                             119   -0.32 8  243 335 
 SML  HZ I        1822 29.51        22.1 0.10            120            243 335 
 CHI  HZ EP       1821 59.09                             118    0.44 8  249 195 
 CHI  HN ES       1822 28.26                             118   -0.09 8  249 195 
 CHI  HZ I        1822 36.95         5.4 0.60            120            249 195 
 TOL  SZ EP       1822  7.97                             110   -1.09 7  344 224 
 TOL  SN ES       1822 47.00                             110    0.11 7  344 224 
 TOL  SZ I        1822 52.01        17.7 0.24            112            344 224 
                                                                                
