 2017  823 1918 59.0 L   6.532 -73.464106.0  RSN 10 0.4 1.9LRSN                1
 GAP= 67        0.66       2.6     2.4  4.7  0.1096E+01  0.3797E+01  0.4409E+01E
 Epicentro: SIMACOTA - SANTANDER                                               3
 ACTION:UPD 17-09-04 20:23 OP:rebc STATUS:               ID:20170823191859 L   I
 OLDACT:UP  17-08-24 00:42 OP:and  STATUS:               ID:20170823191738     3
 OLDACT:UP  17-08-24 00:41 OP:and  STATUS:               ID:20170823191738     3
 OLDACT:UP  17-08-24 00:40 OP:and  STATUS:               ID:20170823191738     3
 OLDACT:UP  17-08-24 00:40 OP:and  STATUS:               ID:20170823191738     3
 OLDACT:UP  17-08-24 00:40 OP:and  STATUS:               ID:20170823191738     3
 OLDACT:UP  17-08-24 00:38 OP:and  STATUS:               ID:20170823191738     3
 OLDACT:UP  17-08-24 00:38 OP:and  STATUS:               ID:20170823191738     3
 OLDACT:REG 17-08-23 21:06 OP:and  STATUS:               ID:20170823191738     3
 2017-08-23-1918-00M.COL___419                                                 6
 STAT SP IPHASW D HRMM SECON CODA AMPLIT PERI AZIMU VELO AIN AR TRES W  DIS CAZ7
 BAR2 EZ IP     D 1919 14.13                             162   -0.0410 31.9  78 
 BAR2 EZ ES       1919 26.30                             162    0.3110 31.9  78 
 BAR2 EZ I        1919 27.67        36.8 0.24            163           31.9  78 
 BRR  HZ EP   2   1919 14.98                             145   -0.91 5 69.2 337 
 BRR  HN ES       1919 29.18                             145    0.1210 69.2 337 
 RUS  HZ EP     D 1919 17.02                             140   -0.5610 82.4 149 
 RUS  HN ES   2   1919 31.96                             140   -0.10 5 82.4 149 
 RUS  HZ I        1919 33.05        16.6 0.26            139           82.4 149 
 PAM  EZ EP   3   1919 22.48                             127    1.29 2  123  43 
 PAM  EE ES       1919 38.44                             127   -0.0510  123  43 
 PAM  EZ I        1919 40.17         9.4 0.20            128            123  43 
 YPLC HZ IP     C 1919 25.97                             117    0.03 9  174 136 
 YPLC HN ES   2   1919 47.71                             117    0.77 4  174 136 
 YPLC HZ I        1919 50.03        24.8 0.40            116            174 136 
 ZAR  HZ EP       1919 27.42                             115    0.10 9  187 305 
 ZAR  HN ES       1919 49.27                             115   -0.12 9  187 305 
 ZAR  HZ I        1919 51.97        11.9 0.28            115            187 305 
 NOR  HZ EP   9   1919 25.70                             114   -1.87 0  189 236 
 NOR  HN ES       1919 47.87                             114   -0.11 9  189 236 
 CHI  HZ EP   2   1919 31.13                             111    0.44 4  212 188 
 CHI  HN ES   2   1919 54.95                             111   -0.45 4  212 188 
 CHI  HZ I        1919 59.85         2.8 0.34            111            212 188 
 HEL  HZ EP   3   1919 32.11                             109   -0.71 2  231 261 
 HEL  HN ES   3   1919 59.06                             109   -0.12 2  231 261 
 GUY2CHZ EP   2   1919 36.28                             107    0.56 4  255 236 
 GUY2CHN ES       1920  4.63                             107    0.28 8  255 236 
 GUY2CHZ I        1920  6.61         3.7 0.34                           255 236 
                                                                                
