 2010  423 1311  6.9 L   6.763 -72.936142.0  RSN  6 0.5 2.2LRSN                1
 GAP=206        0.98      12.3    13.4 15.3 -0.1234E+03 -0.1218E+03  0.1469E+03E
 Epicentro: CEPITA - SANTANDER                                                 3
 ACTION:UPD 10-08-24 10:00 OP:vdl  STATUS:               ID:20100423131108 L   I
 2010-04-23-1308-43S.COL___104                                                 6
 STAT SP IPHASW D HRMM SECON CODA AMPLIT PERI AZIMU VELO AIN AR TRES W  DIS CAZ7
 BAR2 SZ EP   1   1311 26.26                             166    -0.1 7   33 235 
 BAR2 SZ ES   3   1311 41.59                             166     0.1 2   33 235 
 BRR  HZ EP       1311 28.62                             146    -0.510   94 294 
 BRR  HZ I        1311 42.35        21.3 0.43                            94 294 
 BRR  HN ES       1311 46.28                             146    -0.210   94 294 
 GRA  SZ EP   1   1311 32.15                             137     0.4 7  125   7 
 GRA  SZ ES   2   1311 51.93                             137     0.8 5  125   7 
 RREF BZ EP       1311 55.28                             109     0.6 7  337 232 
 RREF BN ES       1312 32.53                             109     0.6 7  337 232 
 RREF BZ I        1312 38.21         5.1 0.17                           337 232 
 TOL  SZ EP   2   1311 56.53                             108    -0.1 3  357 228 
 PRA  HZ EP   1   1312  0.29                             106    -1.0 4  400 213 
 PRA  HZ I        1312 45.94         4.9 0.67                           400 213 
                                                                                
