 2011  523 1717 15.6 L   6.739 -73.050145.4  RSN  6 0.3 2.0LRSN                1
 GAP=197        0.62       5.1     6.6  5.9 -0.2003E+02 -0.1052E+02  0.9914E+01E
 Epicentro: ARATOCA - SANTANDER                                                3
 ACTION:UP  11-06-29 08:55 OP:tino STATUS:               ID:20110523171715 L   I
 2011-05-23-1712-37S.COL___139                                                 6
 STAT SP IPHASW D HRMM SECON CODA AMPLIT PERI AZIMU VELO SNR AR TRES W  DIS CAZ7
 BAR2 SZ EP   1   1717 35.36                             171     0.2 7   22 222 
 BAR2 SZ ES   1   1717 50.40                             171     0.0 7   22 222 
 BAR2 SZ I        1717 53.30        25.8 0.38                            22 222 
 BRR  HZ EP   1   1717 37.30                             148    -0.2 7   84 299 
 BRR  HE ES       1717 54.66                             148     0.110   84 299 
 BRR  HZ I        1717 56.57        27.8 0.20                            84 299 
 BRI  SZ EP   1   1717 40.12                             140     0.4 7  112  15 
 GRA  SZ EP   1   1717 41.46                             136     0.3 7  130  12 
 GRA  SZ ES   1   1718  0.46                             136    -0.6 7  130  12 
 GRA  SZ I        1718 10.53         9.6 0.39                           130  12 
 NOR  SZ EP   1   1717 51.76                             118    -0.1 6  240 237 
 NOR  SN ES   2   1718 20.18                             118     0.0 4  240 237 
 PRA  HZ EP   2   1718  8.81                             106    -0.3 3  392 211 
 PRA  HE ES   2   1718 50.14                             106    -0.6 3  392 211 
                                                                                
