 2014  623 1545 35.7 L   6.763 -73.162148.0  RSN  7 0.5 2.0LRSN                1
 GAP=181        1.35       5.5     6.9  9.7  0.5243E+01  0.1774E+02  0.4900E+01E
 Epicentro: LOS SANTOS - SANTANDER                                             3
 ACTION:UPD 14-07-01 22:56 OP:nd   STATUS:               ID:20140623154535 L   I
 OLDACT:DUP 14-06-24 00:25 OP:carl STATUS:               ID:20140623153818d    3
 2014-06-23-1538-17M.COL___265                                                 6
 STAT SP IPHASW D HRMM SECON CODA AMPLIT PERI AZIMU VELO AIN AR TRES W  DIS CAZ7
 BAR2 SZ EP       1545 55.90                             172    0.3310 19.1 187 
 BAR2 SZ ES       1546 10.82                             172   -0.2110 19.1 187 
 BAR2 SZ I        1546 11.78        17.6 0.42            169           19.1 187 
 BRR  HZ EP       1545 57.97                             153    0.8010 71.7 302 
 BRR  HN ES       1546 14.54                             153    0.6710 71.7 302 
 BRR  HZ I        1546 18.98        13.2 0.12            150           71.7 302 
 RUS  HZ EP       1545 59.71                             145    0.2610 96.7 175 
 RUS  HE ES       1546 17.52                             145   -0.4110 96.7 175 
 RUS  HZ I        1546 19.13        12.0 0.36            147           96.7 175 
 PTB  HZ EP       1546  2.51                             133   -0.16 9  145 260 
 PTB  HN ES       1546 22.96                             133   -0.71 9  145 260 
 PTB  HZ I        1546 29.33        13.0 0.16            132            145 260 
 OCA  HE ES       1546 26.35                             129   -0.74 9  164 354 
 ZAR  HE ES       1546 33.79                             123    0.05 9  204 293 
 ZAR  HZ I        1546 37.03        12.3 0.16            123            204 293 
 NOR  HZ EP       1546 10.44                             119   -0.76 8  231 235 
 NOR  HN ES       1546 39.45                             119    0.60 8  231 235 
 NOR  HZ I        1546 44.72        12.3 0.36            120            231 235 
                                                                                
