 2010 1223 1329 55.1 L   6.760 -73.192137.2  RSN  9 0.2 2.1LRSN                1
 GAP=154        0.47       2.0     4.4  4.4 -0.4623E+01  0.7600E+01 -0.1466E+01E
 Epicentro: VILLANUEVA - SANTANDER                                             3
 ACTION:UP  11-01-14 15:26 OP:pat  STATUS:               ID:20101223132955 L   I
 2010-12-23-1327-52S.COL___135                                                 6
 STAT SP IPHASW D HRMM SECON CODA AMPLIT PERI AZIMU VELO SNR AR TRES W  DIS CAZ7
 BAR2 SZ EP       1330 13.43                             172    -0.210   19 177 
 BTL  SZ EP   1   1330 13.53                             172    -0.1 7   19 334 
 BAR2 SZ ES   1   1330 27.88                             172    -0.2 7   19 177 
 BAR2 SZ I        1330 29.53        30.0 0.27                            19 177 
 RUS  HZ EP   1   1330 17.56                             143    -0.2 7   97 173 
 RUS  HN ES   1   1330 35.75                             143     0.4 7   97 173 
 RUS  HZ I        1330 38.10        17.9 0.23                            97 173 
 GRA  SZ EP       1330 20.17                             134     0.110  132  19 
 GRA  SZ ES   1   1330 39.59                             134     0.0 7  132  19 
 GRA  SZ I        1330 40.79        14.5 0.26                           132  19 
 OCA  SZ EP   1   1330 22.98                             127    -0.2 7  164 355 
 OCA  SZ ES   1   1330 45.42                             127     0.4 7  164 355 
 OCA  SZ I        1330 46.62        16.1 0.09                           164 355 
 NOR  SZ EP   1   1330 29.72                             117     0.1 6  228 235 
 NOR  SN ES   1   1330 56.51                             117    -0.1 6  228 235 
 CHI  HZ EP   1   1330 31.96                             116     0.2 6  243 194 
 CHI  HE ES   1   1331  0.43                             116     0.1 6  243 194 
 CHI  HZ I        1331  9.04         6.9 0.34                           243 194 
 RREF HN ES   2   1331 15.24                             110     0.0 3  315 229 
 RREF HZ I        1331 26.38         7.2 0.40                           315 229 
 PRA  HN ES   2   1331 28.48                             105    -0.1 3  386 209 
                                                                                
