 2014  323 1601 42.0 L   6.798 -73.152148.3  RSN 10 0.3 1.9LRSN                1
 GAP=136        0.70       2.9     3.5  5.4 -0.2415E+01  0.6784E+01  0.1898E+01E
 Epicentro: LOS SANTOS - SANTANDER                                             3
 OLDACT:REG 14-03-23 15:40 OP:fm   STATUS:               ID:20140323155814     3
 ACTION:UPD 14-04-09 23:20 OP:nd   STATUS:               ID:20140323160142 L   I
 OLDACT:UP  14-03-23 19:47 OP:fm   STATUS:               ID:20140323155814     3
 2014-03-23-1558-14M.COL___246                                                 6
 STAT SP IPHASW D HRMM SECON CODA AMPLIT PERI AZIMU VELO AIN AR TRES W  DIS CAZ7
 BAR2 SZ EP       16 2  1.40                             171   -0.5110 23.0 188 
 BAR2 SZ ES   1   16 2 17.21                             171   -0.24 7 23.0 188 
 BAR2 SZ I        16 2 19.45        27.8 0.30            167           23.0 188 
 PAM  SZ EP       16 2  4.65                             151    0.1410 78.0  40 
 PAM  SE ES       16 2 22.14                             151    0.0710 78.0  40 
 PAM  SZ I        16 2 24.05         8.6 0.44            158           78.0  40 
 RUS  HZ EP   1   16 2  6.00                             144    0.03 7  100 176 
 RUS  HN ES   1   16 2 25.04                             144    0.36 7  100 176 
 RUS  SZ I        16 2 25.52         6.3 0.20            144            100 176 
 PTB  HZ EP   1   16 2  8.32                             133   -0.78 7  147 259 
 PTB  HN ES   1   16 2 29.89                             133   -0.35 7  147 259 
 PTB  SZ I        16 2 34.85         9.5 0.38            133            147 259 
 SPBC HZ EP       16 2 10.81                             130    0.19 9  163 219 
 SPBC HN ES   1   16 2 33.30                             130    0.35 7  163 219 
 SPBC SZ I        16 2 39.80        15.7 0.24            130            163 219 
 ZAR  HN ES   1   16 2 40.04                             123    0.10 6  204 292 
 NOR  HZ EP       16 2 17.77                             119   -0.02 8  234 234 
 NOR  HN ES       16 2 45.88                             119    0.17 8  234 234 
 NOR  SZ I        16 2 49.91         8.6 0.20            120            234 234 
 SML  HN ES   1   16 2 48.12                             118    0.69 6  244 335 
 CHI  HZ EP   1   16 2 19.67                             118   -0.11 6  248 195 
 CHI  HN ES   1   16 2 49.50                             118    0.24 6  248 195 
 CHI  SZ I        16 2 58.81         7.3 3.58            119            248 195 
 HEL  HN ES   4   16 2 54.99                             115    1.33 0  271 256 
 GUY2CHZ EP   1   16 2 25.76                             113    0.12 5  300 235 
 GUY2CHE ES   4   16 3  2.60                             113    2.92 0  300 235 
 GUY2CSZ I        16 3 13.72         4.3 1.70                           300 235 
                                                                                
