 2012 1223 1132 39.1 L   6.727 -73.183148.2  RSN  7 0.4 1.6LRSN                1
 GAP=175        0.75       5.6     4.9  6.6  0.8276E+01  0.1125E+02  0.3372E+01E
 Epicentro: VILLANUEVA - SANTANDER                                             3
 ACTION:UPD 13-01-04 14:29 OP:ep   STATUS:               ID:20121223113239 L   I
 2012-12-23-1130-00M.COL___243                                                 6
 STAT SP IPHASW D HRMM SECON CODA AMPLIT PERI AZIMU VELO AIN AR TRES W  DIS CAZ7
 BAR2 SZ EP   1   1132 58.89                             174   -0.03 7 14.9 180 
 BAR2 SZ ES   1   1133 13.57                             174   -0.78 7 14.9 180 
 BAR2 SZ I        1133 15.80        10.7 0.22                          14.9 180 
 GIR2 SZ EP   1   1132 59.00                             165   -0.32 7 38.9 358 
 GIR2 SZ ES   1   1133 15.00                             165   -0.07 7 38.9 358 
 GIR2 SZ I        1133 16.20         5.5 0.12                          38.9 358 
 BRR  HZ EP   1   1133  0.79                             153    0.20 7 72.0 306 
 BRR  HN ES   1   1133 18.06                             153    0.73 7 72.0 306 
 BRR  HZ I        1133 18.85         7.5 0.15                          72.0 306 
 RUS  HZ EP   1   1133  3.00                             146    0.41 7 92.9 173 
 RUS  HE ES   1   1133 21.22                             146    0.33 7 92.9 173 
 RUS  HZ I        1133 22.93         4.8 0.36                          92.9 173 
 PTB  HZ EP   1   1133  5.54                             134   -0.27 7  142 262 
 PTB  HN ES   1   1133 26.60                             134   -0.02 7  142 262 
 PTB  HZ I        1133 29.86         6.2 0.13                           142 262 
 ZAR  HZ EP   1   1133 11.60                             123   -0.07 6  203 295 
 ZAR  HN ES   1   1133 37.11                             123    0.05 6  203 295 
 ZAR  HZ I        1133 43.74         5.3 0.40                           203 295 
 HEL  HN ES   1   1133 49.43                             116   -0.34 6  266 257 
 HEL  HZ I        1133 58.00         4.0 0.36                           266 257 
                                                                                
