 2012  523 2023 46.4 L   7.393 -73.220127.5  RSN  6 0.3 1.9LRSN                1
 GAP=103        0.72       3.7     4.3  7.4 -0.5103E+00  0.1456E+02 -0.3307E+00E
 Epicentro: EL PLAYON - SANTANDER                                              3
 ACTION:UP  12-07-05 12:07 OP:pat  STATUS:               ID:20120523202346 L   I
 2012-05-23-2020-00M.COL___201                                                 6
 STAT SP IPHASW D HRMM SECON CODA AMPLIT PERI AZIMU VELO SNR AR TRES W  DIS CAZ7
 PAM  SZ EP       2024  5.59                             154     0.110   58  96 
 PAM  SN ES   1   2024 20.73                             154     0.3 7   58  96 
 BAR2 SZ EP       2024  7.31                             143     0.210   89 177 
 BAR2 SZ ES   1   2024 23.15                             143    -0.1 7   89 177 
 BAR2 SZ I        2024 24.60        35.5 0.30                            89 177 
 OCA  HZ EP       2024  6.97                             141    -0.410   94 353 
 OCA  HN ES   2   2024 23.70                             141    -0.1 5   94 353 
 OCA  HZ I        2024 27.83        29.0 0.48                            94 353 
 PTB  HZ EP       2024 13.80                             124     0.1 9  166 235 
 PTB  HN ES   1   2024 34.59                             124    -0.5 7  166 235 
 PTB  HZ I        2024 39.30         6.6 0.16                           166 235 
 RUS  HZ EP       2024 14.40                             124     0.0 9  167 175 
 RUS  HN ES   2   2024 35.95                             124    -0.3 5  167 175 
 RUS  HZ I        2024 37.28         3.2 0.30                           167 175 
 ZAR  HZ EP       2024 15.48                             121     0.2 9  181 274 
 ZAR  HN ES   2   2024 38.57                             121     0.8 4  181 274 
 ZAR  HZ I        2024 43.16        10.4 0.14                           181 274 
                                                                                
