 2017  523 2001 25.1 L   6.794 -73.144146.2  RSN  6 0.2 1.7LRSN                1
 GAP=137        0.59       2.9     2.7  5.0  0.2491E+00  0.2520E+01  0.1053E+01E
 Epicentro: LOS SANTOS - SANTANDER                                             3
 ACTION:UPD 17-06-16 13:38 OP:jn   STATUS:               ID:20170523200125 L   I
 OLDACT:UP  17-05-24 03:42 OP:edw  STATUS:               ID:20170523195742     3
 OLDACT:UP  17-05-24 03:41 OP:edw  STATUS:               ID:20170523195742     3
 OLDACT:REG 17-05-24 03:14 OP:edw  STATUS:               ID:20170523195742     3
 2017-05-23-1958-00M.COL___353                                                 6
 STAT SP IPHASW D HRMM SECON CODA AMPLIT PERI AZIMU VELO AIN AR TRES W  DIS CAZ7
 BRR  HZ EP     D 20 1 46.57                             152    0.2510 71.7 299 
 BRR  HN ES       20 2  3.15                             152    0.2710 71.7 299 
 PAM  HZ EP     D 20 1 47.50                             151    0.1210 77.8  39 
 PAM  EN ES       20 2  4.41                             151   -0.3610 77.8  39 
 PAM  HZ I        20 2  5.29         9.1 0.32            154           77.8  39 
 RUS  HZ EP       20 1 48.84                             144    0.0010 99.9 176 
 RUS  HN ES       20 2  7.53                             144    0.1710 99.9 176 
 RUS  HZ I        20 2  8.30         7.3 0.48            146           99.9 176 
 PTB  HZ EP       20 1 51.77                             132   -0.34 9  148 259 
 PTB  HN ES       20 2 12.91                             132   -0.27 9  148 259 
 PTB  HZ I        20 2 18.26         4.0 0.30            131            148 259 
 SPBC HN ES   2   20 2 15.66                             129   -0.16 5  163 219 
 ZAR  HZ EP   2   20 1 57.76                             122    0.14 4  205 292 
 ZAR  HN ES       20 2 23.10                             122    0.11 9  205 292 
 ZAR  HZ I        20 2 28.47         6.8 0.32            122            205 292 
                                                                                
