 2013  623 2225 36.2 L   6.752 -73.132143.1  RSN  7 0.4 1.9LRSN                1
 GAP=140        0.90       4.7     4.9  7.3 -0.5400E+01  0.5145E+01 -0.6646E-01E
 Epicentro: LOS SANTOS - SANTANDER                                             3
 ACTION:UPD 14-01-08 09:56 OP:ep   STATUS:               ID:20130623222536 L   I
 OLDACT:REG 13-06-23 23:41 OP:mh   STATUS:               ID:20130623221959     3
 2013-06-23-2219-59M.COL___267                                                 6
 STAT SP IPHASW D HRMM SECON CODA AMPLIT PERI AZIMU VELO AIN AR TRES W  DIS CAZ7
 GIR2 SZ EP   1   2225 55.78                             165    0.03 7 36.8 349 
 GIR2 SZ I        2226 12.48         4.7 0.22            163           36.8 349 
 BRR  HZ EP       2225 57.72                             151    0.3910 75.2 302 
 BRR  HN ES       2226 14.14                             151    0.3610 75.2 302 
 BRR  HN I        2226 15.00        31.5 0.30            148           75.2 302 
 PAM  SZ EP       2225 58.80                             149    0.4310 80.7  36 
 PAM  SN ES       2226 15.20                             149   -0.4310 80.7  36 
 PAM  SN I        2226 17.96        13.5 0.48            145           80.7  36 
 RUS  HZ E        2220 33.63                                           95.2 177 
 RUS  HN ES   1   2226 17.36                             145    0.01 7 95.2 177 
 RUS  HN I        2226 18.92         6.2 0.40            141           95.2 177 
 PTB  HZ EP   1   2226  2.85                             131   -0.18 7  148 261 
 PTB  HN ES       2226 23.38                             131   -0.56 9  148 261 
 PTB  HN I        2226 28.42         8.3 0.30            128            148 261 
 SML  HZ EP   1   2226 12.56                             116   -0.75 6  249 335 
 SML  HN ES   1   2226 42.44                             116    0.21 6  249 335 
 SML  HN I        2226 47.97        17.6 0.28            113            249 335 
 PRA  HZ EP   1   2226 28.67                             106   -0.54 4  388 210 
 PRA  HN ES   2   2227 11.50                             106    0.97 3  388 210 
 PRA  HN I        2227 16.19         2.8 0.66            103            388 210 
                                                                                
