 2015  823 2034 57.6 L   6.709 -73.113153.8  RSN  5 0.4 1.5LRSN                1
 GAP=145        0.98       5.3     5.8  9.3  0.6785E+01  0.6027E+01  0.2892E+01E
 Epicentro: JORDAN - SANTANDER                                                 3
 ACTION:UPD 15-09-15 23:04 OP:cam  STATUS:               ID:20150823203457 L   I
 OLDACT:UP  15-08-24 05:26 OP:mh   STATUS:               ID:20150823202748     3
 OLDACT:UP  15-08-24 05:26 OP:mh   STATUS:               ID:20150823202748     3
 OLDACT:UP  15-08-24 05:26 OP:mh   STATUS:               ID:20150823202748     3
 OLDACT:UP  15-08-24 05:25 OP:mh   STATUS:               ID:20150823202748     3
 OLDACT:REG 15-08-24 04:07 OP:mh   STATUS:               ID:20150823202748     3
 2015-08-23-2027-48M.COL___342                                                 6
 STAT SP IPHASW D HRMM SECON CODA AMPLIT PERI AZIMU VELO AIN AR TRES W  DIS CAZ7
 BAR2 EZ EP       2035 18.45                             174    0.3510 15.0 211 
 BAR2 EZ I        2035 35.12         6.4 0.33            173           15.0 211 
 BRR  HZ EP       2035 20.37                             151    0.2410 79.5 304 
 BRR  HN ES       2035 37.78                             151    0.1110 79.5 304 
 BRR  HZ I        2035 41.15         6.3 0.14            148           79.5 304 
 PAM  EZ EP       2035 21.43                             150    0.3710 83.3  33 
 PAM  EN ES       2035 38.96                             150   -0.3710 83.3  33 
 PAM  EZ I        2035 41.46         4.4 0.44            148           83.3  33 
 RUS  HZ EP       2035 20.78                             148   -0.7210 90.3 178 
 RUS  HN ES       2035 40.32                             148    0.2110 90.3 178 
 RUS  HZ I        2035 41.58         2.9 0.22            145           90.3 178 
 ZAR  HN ES       2035 57.41                             123   -0.26 8  211 294 
 ZAR  HZ I        2036  2.46         4.7 0.38            120            211 294 
                                                                                
