 2015  323 2137 28.4 L   6.802 -73.165146.2  RSN  7 0.5 1.8LRSN                1
 GAP=134        1.24       4.3     5.4  8.5 -0.5524E+00  0.8963E+01 -0.4046E+01E
 Epicentro: LOS SANTOS - SANTANDER                                             3
 ACTION:UPD 15-04-30 16:28 OP:nd   STATUS:               ID:20150323213728 L   I
 OLDACT:REG 15-03-24 07:09 OP:cam  STATUS:               ID:20150323212748     3
 2015-03-23-2127-48M.COL___275                                                 6
 STAT SP IPHASW D HRMM SECON CODA AMPLIT PERI AZIMU VELO AIN AR TRES W  DIS CAZ7
 BRR  HZ EP       2137 50.01                             153    0.5310 69.3 299 
 BRR  HN ES       2138  6.22                             153    0.2910 69.3 299 
 BRR  HN I        2138  9.66        18.4 0.20            152           69.3 299 
 PAM  SZ EP     C 2137 50.98                             150    0.2610 78.6  41 
 PAM  SN ES       2138  8.22                             150    0.0810 78.6  41 
 PAM  SZ I        2138 10.31         4.2 0.54            154           78.6  41 
 RUS  HZ EP       2137 52.10                             144   -0.1110  101 175 
 RUS  HN ES       2138 10.36                             144   -0.4310  101 175 
 RUS  HN I        2138 12.64         8.3 0.22            148            101 175 
 PTB  HZ EP       2137 54.46                             133   -0.75 9  146 259 
 PTB  HN ES       2138 15.45                             133   -0.68 9  146 259 
 PTB  HZ I        2138 19.93         4.6 0.14            133            146 259 
 SPBC HZ EP       2137 56.73                             129   -0.09 9  162 218 
 SPBC HE ES       2138 19.57                             129    0.58 9  162 218 
 SPBC HZ I        2138 24.84         7.1 0.14            131            162 218 
 ZAR  HZ EP       2138  1.47                             123    0.81 9  202 292 
 ZAR  HN ES       2138 26.24                             123    0.42 9  202 292 
 ZAR  HZ I        2138 32.29         4.7 0.50            124            202 292 
 SML  HZ EP       2138  4.77                             118   -0.16 8  243 336 
 SML  HN ES       2138 32.54                             118   -0.88 8  243 336 
 SML  HN I        2138 40.34         9.4 0.10            120            243 336 
                                                                                
