 2010  123 2324  5.9 L   6.835 -73.114141.2  RSN 11 0.4 3.0LRSN                1
 GAP=186        0.71       3.7     6.5  6.8 -0.4192E+01  0.2168E+02  0.1778E+01E
 Epicentro: LOS SANTOS - SANTANDER                                             3
 ACTION:UP  10-08-24 09:45 OP:vdl  STATUS:               ID:20100123232405 L   I
 2010-01-23-2322-13S.COL___095                                                 6
 STAT SP IPHASW D HRMM SECON CODA AMPLIT PERI AZIMU VELO SNR AR TRES W  DIS CAZ7
 BAR2 SZ EP   1   2324 25.27                             168     0.2 8   28 196 
 GIR2 SZ EP   1   2324 25.22                             168     0.2 8   28 342 
 GIR2 SZ ES   2   2324 40.10                             168     0.3 5   28 342 
 BAR2 SZ ES   2   2324 39.93                             168    -0.1 5   28 196 
 RUS  BZ EP   1   2324 29.28                             142    -0.2 8  104 178 
 RUS  BE ES   2   2324 47.47                             142    -0.4 5  104 178 
 RUS  BZ I        2324 49.82        83.7 0.20                           104 178 
 OCA  SZ IP       2324 33.59                             129     0.010  157 352 
 OCA  SZ ES   2   2324 54.77                             129    -0.4 5  157 352 
 CHI  HZ EP   1   2324 43.73                             116    -0.1 6  253 196 
 CHI  HN ES   2   2325 14.05                             116     0.6 4  253 196 
 CHI  HZ I        2325 16.12        33.9 0.31                           253 196 
 HEL  HZ EP   1   2324 47.17                             113     0.8 6  276 255 
 HEL  HN ES   2   2325 17.54                             113    -0.4 4  276 255 
 HEL  HZ I        2325 23.09        56.0 0.48                           276 255 
 RREF BZ EP   1   2324 51.55                             110    -0.9 6  327 229 
 RREF BN ES   2   2325 29.03                             110     0.3 4  327 229 
 RREF BZ I        2325 36.85        40.8 0.52                           327 229 
 DBB  SZ EP   1   2324 53.10                             108    -0.5 5  343 274 
 DBB  SZ ES   2   2325 30.33                             108    -0.4 4  343 274 
 TOL  SZ EP   1   2324 54.90                             108     0.3 5  349 225 
 TOL  SZ ES   2   2325 32.90                             108     0.3 4  349 225 
 ANIL BZ EP   1   2324 56.97                             107     0.8 5  363 224 
 ANIL BZ I        2325 41.67        75.0 0.25                           363 224 
 PRA  HZ EP   1   2324 59.28                             105    -0.6 5  397 210 
 PRA  HZ I        2325 50.09        31.3 0.42                           397 210 
                                                                                
