 2013  123 2027 13.1 L   6.776 -73.110143.4  RSN  9 0.5 1.9LRSN                1
 GAP=142        0.85       4.2     4.4  6.4 -0.4269E+00  0.7648E+01  0.6521E+01E
 Epicentro: LOS SANTOS - SANTANDER                                             3
 ACTION:UPD 13-02-15 09:16 OP:ep   STATUS:               ID:20130123202713 L   I
 2013-01-23-2020-00M.COL___241                                                 6
 STAT SP IPHASW D HRMM SECON CODA AMPLIT PERI AZIMU VELO AIN AR TRES W  DIS CAZ7
 BAR2 SZ EP   1   2027 32.21                             171   -0.24 7 21.8 202 
 BAR2 SZ ES   1   2027 46.86                             171   -0.66 7 21.8 202 
 BAR2 SZ I        2027 49.90        30.6 0.30            167           21.8 202 
 BRR  HZ EP       2027 34.40                             150    0.0910 76.0 299 
 BRR  HN ES   1   2027 51.48                             150    0.65 7 76.0 299 
 PAM  SZ EP   1   2027 35.27                             150    0.19 7 77.1  36 
 PAM  SE ES   1   2027 52.47                             150    0.27 7 77.1  36 
 PAM  SZ I        2027 54.39         4.0 0.18            157           77.1  36 
 RUS  HZ EP       2027 36.28                             144   -0.1710 97.7 178 
 RUS  HN ES   1   2027 54.87                             144    0.23 7 97.7 178 
 RUS  HZ I        2027 56.20         5.6 0.30            146           97.7 178 
 PTB  HE ES   1   2028  0.66                             131   -0.70 7  151 260 
 PTB  HZ I        2028  7.77        14.7 0.44            130            151 260 
 ZAR  HZ EP   1   2027 45.52                             121   -0.40 6  209 292 
 ZAR  HE ES   2   2028 10.75                             121   -0.74 4  209 292 
 ZAR  HZ I        2028 16.79         9.4 0.28            122            209 292 
 NOR  HZ EP   1   2027 48.35                             118   -0.57 6  236 236 
 NOR  HN ES   1   2028 17.00                             118    0.17 6  236 236 
 NOR  HZ I        2028 21.64         8.6 0.24            119            236 236 
 CHI  HZ EP       2027 50.49                             117   -0.05 8  247 196 
 CHI  HN ES   1   2028 20.24                             117    0.52 6  247 196 
 CHI  HZ I        2028 24.98         2.9 0.70            119            247 196 
 HEL  HZ EP   1   2027 54.23                             114    0.64 6  275 257 
 HEL  HE ES   1   2028 25.96                             114    0.82 6  275 257 
 HEL  HZ I        2028 32.29         6.7 0.36            115            275 257 
                                                                                
