 2012 1123 2332 20.4 L   6.799 -73.163136.0  RSN  4 0.5 1.4LRSN                1
 GAP=142        1.24       7.8     7.7 12.1 -0.8098E+01  0.4000E+02  0.9107E+01E
 Epicentro: LOS SANTOS - SANTANDER                                             3
 ACTION:UPD 12-12-05 15:35 OP:}ep  STATUS:               ID:20121123233220 L   I
 2012-11-23-2330-00M.COL___233                                                 6
 STAT SP IPHASW D HRMM SECON CODA AMPLIT PERI AZIMU VELO AIN AR TRES W  DIS CAZ7
 BAR2 SZ ES       2332 52.49                             170   -0.7910 23.0 185 
 PAM  SN ES       2332 58.68                             148    0.3810 78.7  41 
 PAM  SN I        2332 59.78         8.8 0.46                          78.7  41 
 RUS  HZ EP       2332 43.25                             142    0.0010  101 175 
 RUS  HN ES       2333  1.45                             142    0.4110  101 175 
 RUS  HN I        2333  2.73         2.1 0.34                           101 175 
 PTB  HZ EP       2332 45.94                             130   -0.51 9  146 259 
 PTB  HE ES       2333  7.26                             130    0.52 9  146 259 
 PTB  HE I        2333  9.31         3.2 0.32                           146 259 
                                                                                
