 2015  323 2345  6.2 L   6.800 -73.151146.3  RSN 12 0.4 2.2LRSN                1
 GAP= 71        0.87       2.4     2.5  4.9 -0.4529E+00  0.2697E+01 -0.3115E+00E
 Epicentro: LOS SANTOS - SANTANDER                                             3
 ACTION:UPD 15-04-30 16:28 OP:nd   STATUS:               ID:20150323234506 L   I
 OLDACT:UP  15-03-24 07:58 OP:cam  STATUS:               ID:20150323233748     3
 OLDACT:REG 15-03-24 07:15 OP:cam  STATUS:               ID:20150323233748     3
 2015-03-23-2337-48M.COL___275                                                 6
 STAT SP IPHASW D HRMM SECON CODA AMPLIT PERI AZIMU VELO AIN AR TRES W  DIS CAZ7
 BRR  HZ EP       2345 27.69                             153    0.2910 70.6 299 
 BRR  HN ES       2345 44.07                             153    0.1510 70.6 299 
 BRR  HZ I        2345 46.35        23.0 0.12            153           70.6 299 
 PAM  SZ IP     D 2345 28.63                             151    0.1110 77.8  40 
 PAM  SN ES       2345 45.80                             151   -0.1210 77.8  40 
 PAM  SZ I        2345 48.24        23.1 0.42            154           77.8  40 
 RUS  HZ EP       2345 29.69                             144   -0.3510  101 176 
 RUS  HN ES       2345 48.29                             144   -0.3210  101 176 
 RUS  HZ I        2345 49.23         9.2 0.24            146            101 176 
 PTB  HZ EP       2345 32.70                             132   -0.48 9  147 259 
 PTB  HN ES       2345 54.05                             132   -0.16 9  147 259 
 PTB  HZ I        2345 59.79        14.4 0.28            134            147 259 
 TAM  HZ IP     D 2345 33.95                             130   -0.05 9  156 105 
 TAM  HN ES       2345 56.02                             130    0.35 9  156 105 
 TAM  HZ I        2346  1.78         9.4 0.58            134            156 105 
 OCA  HZ EP       2345 35.02                             130    0.45 9  160 353 
 OCA  HE ES       2345 56.56                             130   -0.12 9  160 353 
 OCA  HZ I        2346  2.32        35.2 0.34            132            160 353 
 SPBC HZ EP       2345 34.76                             129    0.03 9  163 219 
 SPBC HN ES       2345 57.36                             129    0.40 9  163 219 
 SPBC HZ I        2346  1.42        23.6 0.12            131            163 219 
 ZAR  HZ EP       2345 38.48                             123   -0.17 9  203 292 
 ZAR  HN ES       2346  4.29                             123    0.36 9  203 292 
 ZAR  HZ I        2346  6.66        15.8 0.16            124            203 292 
 NOR  HZ EP       2345 42.00                             119    0.07 8  234 234 
 NOR  HN ES       2346  9.35                             119   -0.43 8  234 234 
 NOR  HZ I        2346 18.16         8.7 0.14            121            234 234 
 SML  HZ EP       2345 42.31                             118   -0.54 8  243 335 
 SML  HN ES       2346 11.20                             118   -0.22 8  243 335 
 SML  HZ I        2346 15.82        26.9 0.10            120            243 335 
 HEL  HZ EP       2345 47.52                             115    1.12 8  271 256 
 HEL  HN ES       2346 17.88                             115    0.15 8  271 256 
 HEL  HZ I        2346 26.33         5.6 0.32            117            271 256 
 URE  HZ EP       2345 46.84                             114   -0.41 7  283 292 
 URE  HN ES   4   2346 17.91                             114   -1.35 0  283 292 
 URE  HZ I        2346 18.92         9.8 0.12            116            283 292 
                                                                                
