 2013  223 2021 17.6 L   6.778 -73.101139.8  RSN  4 0.2 1.6LRSN                1
 GAP=143        0.41       3.2     4.9  5.7 -0.4101E+01  0.6292E+01  0.8768E+01E
 Epicentro: LOS SANTOS - SANTANDER                                             3
 ACTION:UPD 13-03-12 09:35 OP:ep   STATUS:               ID:20130223202117 L   I
 2013-02-23-2020-00M.COL___225                                                 6
 STAT SP IPHASW D HRMM SECON CODA AMPLIT PERI AZIMU VELO AIN AR TRES W  DIS CAZ7
 PAM  SZ EP   1   2021 39.13                             150    0.03 7 76.3  35 
 PAM  SN ES       2021 55.82                             150   -0.0610 76.3  35 
 PAM  SN I        2021 57.16         6.7 0.50            155           76.3  35 
 BRR  HZ EP   1   2021 38.17                             149   -0.25 7 76.7 298 
 BRR  HN ES   2   2021 55.00                             149    0.33 5 76.7 298 
 BRR  HN I        2021 55.72        13.6 0.16            152           76.7 298 
 RUS  HZ EP   1   2021 40.74                             143    0.19 7 97.9 179 
 RUS  HN ES   2   2021 58.39                             143   -0.08 5 97.9 179 
 RUS  HN I        2022  0.69         5.6 0.38            142           97.9 179 
 CHI  HZ EP   1   2021 55.05                             116    0.21 6  248 196 
 CHI  HN ES   2   2022 23.52                             116   -0.39 4  248 196 
 CHI  HN I        2022 29.80         2.9 0.44            117            248 196 
                                                                                
