 2014  223 2321  9.5 L   6.823 -73.243137.2  RSN  5 0.2 1.3LRSN                1
 GAP=124        0.49       2.5     3.5  7.1  0.5446E+00  0.1002E+02 -0.2527E+01E
 Epicentro: ZAPATOCA - SANTANDER                                               3
 ACTION:UPD 14-03-10 08:12 OP:ep   STATUS:               ID:20140223232109 L   I
 OLDACT:REG 14-02-23 23:42 OP:mh   STATUS:               ID:20140223232000     3
 2014-02-23-2320-00M.COL___215                                                 6
 STAT SP IPHASW D HRMM SECON CODA AMPLIT PERI AZIMU VELO AIN AR TRES W  DIS CAZ7
 PAM  SZ EP       2321 31.42                             147    0.3110 82.9  46 
 PAM  SN ES       2321 47.91                             147   -0.1010 82.9  46 
 PAM  SZ I        2321 50.46         4.0 0.47            153           82.9  46 
 RUS  HZ EP   1   2321 32.35                             141   -0.31 7  104 170 
 RUS  HN ES   1   2321 50.83                             141    0.06 7  104 170 
 RUS  HZ I        2321 53.31         2.7 0.32            145            104 170 
 PTB  HN ES   2   2321 54.68                             132    0.09 5  138 257 
 ZAR  HN ES   2   2322  4.30                             122    0.10 4  193 293 
 ZAR  HZ I        2322  8.29         2.7 0.07            125            193 293 
 SML  HZ EP   4   2321 47.04                             116    2.16 0  237 337 
 SML  HN ES       2322 12.35                             116   -0.16 8  237 337 
                                                                                
