 2015  823 2331 28.6 L   6.381 -73.667103.7  RSN  8 0.4 1.9LRSN                1
 GAP= 77        0.85       2.3     3.3  6.2 -0.1538E+01  0.9285E+01 -0.3147E+01E
 Epicentro: SANTA HELENA DEL OPON - SANTANDER                                  3
 ACTION:UPD 15-09-15 23:04 OP:cam  STATUS:               ID:20150823233128 L   I
 OLDACT:UP  15-08-24 06:11 OP:mh   STATUS:               ID:20150823232744     3
 OLDACT:REG 15-08-24 04:13 OP:mh   STATUS:               ID:20150823232744     3
 2015-08-23-2327-44M.COL___343                                                 6
 STAT SP IPHASW D HRMM SECON CODA AMPLIT PERI AZIMU VELO AIN AR TRES W  DIS CAZ7
 BAR2 EZ EP       2331 44.83                             148   -0.0210 58.5  66 
 BAR2 EZ ES       2331 57.71                             148    0.1810 58.5  66 
 BAR2 EZ I        2331 58.86        56.6 0.11            153           58.5  66 
 RUS  HZ EP   1   2331 46.69                             138   -0.40 7 84.2 130 
 RUS  HN ES       2332  1.18                             138   -0.3410 84.2 130 
 SPBC HZ EP       2331 47.05                             135   -0.1710 92.2 209 
 SPBC HN ES       2332  1.93                             135    0.1910 92.2 209 
 SPBC HZ I        2332  3.72        34.5 0.30            135           92.2 209 
 NOR  HZ EP   1   2331 53.08                             118   -0.89 7  161 236 
 NOR  HN ES       2332 13.90                             118    0.14 9  161 236 
 NOR  HZ I        2332 15.89        10.4 0.14            118            161 236 
 ZAR  HZ EP       2331 56.17                             115    0.15 9  180 313 
 ZAR  HN ES       2332 17.18                             115   -0.23 9  180 313 
 ZAR  HZ I        2332 21.66        12.7 0.26            116            180 313 
 CHI  HZ EP       2331 57.73                             113   -0.32 9  194 182 
 CHI  HN ES       2332 21.65                             113    0.62 9  194 182 
 CHI  HZ I        2332 24.29         3.2 0.30            114            194 182 
 OCA  HZ EP       2332  0.10                             111    0.64 8  209  11 
 OCA  HN ES       2332 23.47                             111   -0.06 8  209  11 
 TOL  SZ EP       2332  6.98                             105    0.19 8  270 223 
 TOL  SN ES   4   2332 38.77                             105    2.20 0  270 223 
 TOL  SZ I        2332 41.10         2.7 0.18            106            270 223 
                                                                                
