 2010  823 2003 15.8 L   6.765 -73.156145.4  RSN  4 0.4 1.7LRSN                1
 GAP=163        0.78       5.4    13.9 10.7  0.1343E+02 -0.2204E+02 -0.6984E+01E
 Epicentro: LOS SANTOS - SANTANDER                                             3
 ACTION:UP  10-09-07 10:57 OP:vdl  STATUS:               ID:20100823200315 L   I
 2010-08-23-1959-19S.COL___120                                                 6
 STAT SP IPHASW D HRMM SECON CODA AMPLIT PERI AZIMU VELO SNR AR TRES W  DIS CAZ7
 BRR  HZ EP   1   20 3 36.75                             152    -0.2 7   72 302 
 BRR  HN ES   2   20 3 53.40                             152    -0.1 5   72 302 
 BRR  HZ I        20 3 58.34        15.2 0.36                            72 302 
 RUS  HZ EP   1   20 3 38.65                             145    -0.6 7   97 175 
 RUS  HE ES   1   20 3 57.58                             145     0.1 7   97 175 
 RUS  HZ I        20 3 58.54         6.2 0.25                            97 175 
 GUE  SZ EP   1   20 3 41.23                             138     0.5 7  121  12 
 CHI  HZ EP   1   20 3 53.11                             117     0.1 6  245 195 
 CHI  HE ES   2   20 4 22.79                             117     0.7 4  245 195 
 CHI  HZ I        20 4 25.92         2.9 0.35                           245 195 
                                                                                
