 2016  823 2302 39.8 L   6.802 -73.155145.0  RSN  9 0.3 2.1LRSN                1
 GAP=135        0.78       2.7     3.2  5.0 -0.4837E+00  0.3559E+01  0.3931E+01E
 Epicentro: LOS SANTOS - SANTANDER                                             3
 ACTION:UPD 16-10-29 15:38 OP:rebc STATUS:               ID:20160823230239 L   I
 OLDACT:REG 16-08-24 03:50 OP:lv   STATUS:               ID:20160823225737     3
 2016-08-23-2258-00M.COL___374                                                 6
 STAT SP IPHASW D HRMM SECON CODA AMPLIT PERI AZIMU VELO AIN AR TRES W  DIS CAZ7
 BRR  HZ EP       23 3  1.19                             153    0.3510 70.1 299 
 BRR  HN ES       23 3 17.30                             153    0.0710 70.1 299 
 BRR  HZ I        23 3 22.20        24.2 0.14                          70.1 299 
 PAM  EZ EP       23 3  1.99                             150   -0.0110 77.9  40 
 PAM  EN ES       23 3 19.36                             150    0.0710 77.9  40 
 PAM  EZ I        23 3 21.34        30.0 0.54                          77.9  40 
 RUS  HZ EP       23 3  3.19                             144   -0.3410  101 175 
 RUS  HN ES       23 3 22.15                             144    0.1310  101 175 
 RUS  HZ I        23 3 23.08        18.1 0.26                           101 175 
 PTB  HZ EP       23 3  5.98                             132   -0.66 9  147 259 
 PTB  HN ES       23 3 27.10                             132   -0.46 9  147 259 
 PTB  HZ I        23 3 29.58         8.6 0.12                           147 259 
 SPBC HN ES       23 3 30.40                             129    0.03 9  163 219 
 SPBC HZ I        23 3 32.91        24.7 0.08                           163 219 
 ZAR  HZ EP       23 3 12.61                             122    0.50 9  203 292 
 ZAR  HE ES       23 3 37.17                             122   -0.13 9  203 292 
 ZAR  HZ I        23 3 42.95         8.2 0.11                           203 292 
 CHI  HZ EP       23 3 17.48                             117    0.00 8  249 195 
 CHI  HN ES       23 3 46.88                             117    0.03 8  249 195 
 CHI  HZ I        23 3 53.09         4.9 0.33                           249 195 
 GUY2CHZ EP       23 3 23.59                             112    0.27 7  300 235 
 GUY2CHE ES       23 3 57.95                             112    0.71 7  300 235 
 GUY2CHZ I        23 4  5.39         7.2 0.28                           300 235 
 PRA  HZ EP       23 3 32.93                             106   -0.35 6  392 209 
 PRA  HE ES       23 4 15.00                             106    0.02 6  392 209 
 PRA  HZ I        23 4 21.39         6.4 0.52                           392 209 
                                                                                
