 2014 1023 2135 54.0 L   6.650 -73.119146.0  RSN  4 0.2 2.0LRSN                1
 GAP=196        0.64       6.7     4.0  5.3 -0.1345E+02  0.9002E+00  0.5116E+01E
 Epicentro: VILLANUEVA - SANTANDER                                             3
 ACTION:UPD 14-11-29 23:55 OP:nd   STATUS:               ID:20141023213554 L   I
 OLDACT:UP  14-10-27 12:29 OP:cam  STATUS:               ID:20141023212748     3
 OLDACT:REG 14-10-27 10:36 OP:fm   STATUS:               ID:20141023212748     3
 2014-10-23-2127-48M.COL___280                                                 6
 STAT SP IPHASW D HRMM SECON CODA AMPLIT PERI AZIMU VELO AIN AR TRES W  DIS CAZ7
 BAR2 SZ EP       2136 13.66                             176    0.2410 9.45 227 
 BAR2 SZ ES       2136 28.57                             176   -0.0310 9.45 227 
 BAR2 SZ I        2136 30.13        17.9 0.36            175           9.45 227 
 BRR  HZ EP       2136 15.85                             149    0.0210 82.7 308 
 BRR  HN ES       2136 33.14                             149    0.2610 82.7 308 
 BRR  HN I        2136 33.44        47.4 0.52            150           82.7 308 
 PAM  SZ EP       2136 17.19                             147    0.2410 89.2  31 
 PAM  SN ES       2136 34.53                             147   -0.3510 89.2  31 
 PAM  SN I        2136 35.36        17.6 0.42            149           89.2  31 
 PTB  HZ EP       2136 20.64                             132   -0.36 9  148 265 
 PTB  HN ES       2136 42.03                             132   -0.07 9  148 265 
 PTB  HZ I        2136 43.32         7.0 0.14            133            148 265 
                                                                                
