 2015 1223 2330 57.5 L   6.513 -73.543109.9  RSN  8 0.4 1.9LRSN                1
 GAP=134        1.09       4.1     4.6  7.2 -0.3823E+01  0.1281E+02  0.4784E+01E
 Epicentro: EL CARMEN - SANTANDER                                              3
 ACTION:UPD 16-02-04 15:07 OP:cam  STATUS:               ID:20151223233057 L   I
 OLDACT:DUP 15-12-24 07:26 OP:ar   STATUS:               ID:20151223232747d    3
 OLDACT:REG 15-12-24 04:02 OP:ar   STATUS:               ID:20151223232746     3
 2015-12-23-2327-46M.COL___337                                                 6
 STAT SP IPHASW D HRMM SECON CODA AMPLIT PERI AZIMU VELO AIN AR TRES W  DIS CAZ7
 BAR2 EZ EP       2331 13.31                             158   -0.1710 40.8  78 
 BAR2 EZ ES       2331 26.00                             158    0.0610 40.8  78 
 BAR2 EZ I        2331 27.45        60.8 0.34            162           40.8  78 
 BRR  HZ EP       2331 14.20                             145   -0.5210 68.3 344 
 BRR  HE ES       2331 28.17                             145    0.0310 68.3 344 
 BRR  HZ I        2332  1.43        18.6 0.60            146           68.3 344 
 PTB  HZ EP   9   2331 16.11                             134   -1.22 0  101 272 
 PTB  HN ES       2331 31.05                                   -0.5210  101 272 
 PTB  HZ I        2331 32.25        17.2 0.32            141            101 272 
 SPBC HZ EP       2331 18.84                             131    0.4410  112 212 
 SPBC HN ES       2331 35.06                             131    0.3610  112 212 
 SPBC HZ I        2331 36.43        18.4 0.12            146            112 212 
 NOR  HZ EP       2331 24.84                             116   -0.52 9  181 234 
 NOR  HN ES       2331 46.26                             116   -0.83 9  181 234 
 NOR  HZ I        2331 50.98         7.3 0.12            128            181 234 
 ZAR  HZ EP       2331 25.69                             116    0.31 9  181 307 
 ZAR  HE ES       2331 47.64                             116    0.53 9  181 307 
 ZAR  HZ I        2331 49.87         9.1 0.30            123            181 307 
 HEL  HZ EP   4   2331 33.06                             111    2.60 0  223 261 
 HEL  HN ES       2331 55.81                             111   -0.35 8  223 261 
 HEL  HZ I        2331 59.42         4.8 0.36            120            223 261 
 GUY2CHZ EP       2331 33.50                             108    0.10 8  247 235 
 GUY2CHN ES       2332  2.03                             108    0.64 8  247 235 
 GUY2CHZ I        2332  5.69         5.4 0.38                           247 235 
                                                                                
