 2015  423 2349 13.7 L   6.402 -73.262  4.0  RSN  7 0.5 1.5LRSN                1
 GAP=130        1.31       2.4     3.0  6.7 -0.1597E+01  0.3926E+01  0.3160E+00E
 Epicentro: PALMAS DEL SOCORRO - SANTANDER                                     3
 ACTION:UPD 15-06-03 16:57 OP:cam  STATUS:               ID:20150423234913 L   I
 OLDACT:REG 15-04-24 10:29 OP:carl STATUS:               ID:20150423234749     3
 2015-04-23-2347-49M.COL___257                                                 6
 STAT SP IPHASW D HRMM SECON CODA AMPLIT PERI AZIMU VELO AIN AR TRES W  DIS CAZ7
 BAR2 EZ EP       2349 18.17                              47    0.2110 22.8  23 
 BAR2 EZ ES       2349 21.98                              47    0.6710 22.8  23 
 BAR2 EZ I        2349 22.63       176.4 0.52             47           22.8  23 
 RUS  HZ EP       2349 23.64                              47   -0.1810 59.7 161 
 RUS  HN ES       2349 31.41                              47   -0.3310 59.7 161 
 RUS  HZ I        2349 32.94        12.0 0.10             47           59.7 161 
 BRR  HZ EP       2349 28.41                              47    0.1410 92.5 327 
 BRR  HN ES       2349 39.54                              47   -0.1210 92.5 327 
 BRR  HZ I        2349 41.44        10.6 0.20             47           92.5 327 
 PAM  SZ EP       2349 32.97                              47   -0.1110  121  31 
 PAM  SE ES       2349 47.52                              47   -0.7010  121  31 
 PAM  SZ I        2349 48.22         8.1 0.42             47            121  31 
 SPBC HE ES       2349 48.12                              47    0.2810  122 227 
 PTB  HZ EP       2349 34.28                              47   -0.1510  133 277 
 PTB  HN ES       2349 49.84                              47   -0.7810  133 277 
 NOR  HZ EP       2349 45.39                              37    1.32 9  201 243 
 NOR  HN ES       2350  7.79                              37    0.00 9  201 243 
 NOR  HZ I        2350  8.46         4.0 0.12             37            201 243 
                                                                                
