 2014  923 2104 32.0 L   6.812 -73.091143.5  RSN  9 0.4 1.9LRSN                1
 GAP=143        1.01       3.2     4.9  6.0  0.1521E+01  0.1138E+02  0.4609E+01E
 Epicentro: LOS SANTOS - SANTANDER                                             3
 ACTION:UPD 14-10-03 23:07 OP:nd   STATUS:               ID:20140923210432 L   I
 OLDACT:REG 14-09-24 07:33 OP:carl STATUS:               ID:20140923205817     3
 2014-09-23-2058-17M.COL___278                                                 6
 STAT SP IPHASW D HRMM SECON CODA AMPLIT PERI AZIMU VELO AIN AR TRES W  DIS CAZ7
 BAR2 SZ EP       21 4 51.32                             169   -0.0710 26.3 203 
 BAR2 SZ ES       21 5  6.26                             169   -0.2710 26.3 203 
 BAR2 SZ I        21 5  7.18        22.0 0.26            168           26.3 203 
 PAM  SZ EP       21 4 54.21                             152    0.5510 72.6  37 
 PAM  SN ES       21 5 10.86                             152    0.2810 72.6  37 
 PAM  SZ I        21 5 13.19        15.9 0.42            153           72.6  37 
 BRR  HZ EP       21 4 53.16                             151    0.0110 76.0 296 
 BRR  HN ES       21 5  9.64                             151   -0.0310 76.0 296 
 RUS  HZ EP       21 4 55.30                             143   -0.2710  102 179 
 RUS  HN ES       21 5 14.12                             143    0.1410  102 179 
 RUS  HZ I        21 5 15.45         4.5 0.54            144            102 179 
 PTB  HZ EP   4   21 4 57.82                             130   -1.50 0  154 259 
 PTB  HN ES   4   21 5 18.55                             130   -2.10 0  154 259 
 PTB  HZ I    4   21 5 24.41         9.0 0.24            129            154 259 
 ZAR  HZ EP       21 5  5.18                             121    0.38 8  209 291 
 ZAR  HN ES       21 5 30.72                             121    0.32 8  209 291 
 ZAR  HZ I        21 5 38.75         6.0 0.40            120            209 291 
 SML  HN ES       21 5 35.98                             117   -1.23 8  245 334 
 SML  HZ I        21 5 44.17        12.1 0.28            116            245 334 
 CHI  HZ EP       21 5  9.65                             116   -0.21 8  252 196 
 CHI  HN ES       21 5 39.01                             116   -0.40 8  252 196 
 CHI  HZ I        21 5 44.08         4.4 0.46            117            252 196 
 GUY2CHZ EP       21 5 16.37                             111    0.25 7  307 235 
 GUY2CHN ES       21 5 51.36                             111    0.81 7  307 235 
 GUY2CHZ I        21 5 59.05         3.3 0.68                           307 235 
 PRA  HZ EP       21 5 25.93                             106    0.04 6  396 210 
 PRA  HN ES       21 6  7.29                             106   -0.67 6  396 210 
 PRA  HZ I        21 6 12.63         5.2 0.30            106            396 210 
                                                                                
