 2016  523 2245 51.0 L   6.704 -73.144158.0  RSN  4 0.2 1.2LRSN                1
 GAP=141        0.52       3.5     3.6  4.8  0.5794E+01 -0.1060E+00 -0.3178E+01E
 Epicentro: VILLANUEVA - SANTANDER                                             3
 ACTION:UPD 16-08-18 17:48 OP:cam  STATUS:               ID:20160523224551 L   I
 OLDACT:UP  16-05-24 06:54 OP:dani STATUS:               ID:20160523223747     3
 OLDACT:REG 16-05-24 03:50 OP:dani STATUS:               ID:20160523223747     3
 2016-05-23-2237-47M.COL___304                                                 6
 STAT SP IPHASW D HRMM SECON CODA AMPLIT PERI AZIMU VELO AIN AR TRES W  DIS CAZ7
 BRR  HZ EP       2246 13.74                             153   -0.0210 77.0 305 
 BRR  HE ES       2246 31.30                             153   -0.2410 77.0 305 
 PAM  EZ EP       2246 14.85                             150   -0.1310 85.8  35 
 PAM  EN ES   2   2246 34.31                             150    0.60 5 85.8  35 
 PAM  EZ I        2246 34.98         2.1 0.33            151           85.8  35 
 RUS  HZ EP       2246 15.40                             149    0.1610 89.9 176 
 RUS  HE ES       2246 34.12                             149   -0.0510 89.9 176 
 RUS  HZ I        2246 34.61         1.4 0.46            151           89.9 176 
 ZAR  HZ EP       2246 24.59                             124   -0.08 8  208 295 
 ZAR  HE ES       2246 51.23                             124    0.26 8  208 295 
 ZAR  HZ I        2246 56.52         2.5 0.43            124            208 295 
                                                                                
