 2010 1023 2004 14.6 L   6.780 -73.111147.0  RSN 18 0.4 3.0LRSN                1
 GAP=163        0.72       2.5     4.7  4.5 -0.4696E+01  0.4383E+01  0.1760E+01E
 Epicentro: LOS SANTOS - SANTANDER                                             3
 ACTION:UP  11-02-18 11:11 OP:tino STATUS:               ID:20101023200414 L   I
 2010-10-23-2000-50S.COL___128                                                 6
 STAT SP IPHASW D HRMM SECON CODA AMPLIT PERI AZIMU VELO SNR AR TRES W  DIS CAZ7
 BAR2 SZ IP       20 4 34.29                             171    -0.110   22 201 
 BAR2 SZ ES   1   20 4 49.55                             171    -0.3 7   22 201 
 BAR2 SZ I        20 4 50.39       371.0 0.27                            22 201 
 BTL  SZ EP       20 4 34.53                             171     0.110   23 311 
 GIR2 SZ EP   1   20 4 34.32                             166    -0.2 7   34 345 
 GIR2 SZ ES   1   20 4 49.90                             166    -0.2 7   34 345 
 BRR  HZ IP     C 20 4 36.11                             151    -0.110   76 299 
 BRR  HZ I        20 4 36.34       575.0 0.12                            76 299 
 BRR  HN ES   1   20 4 53.30                             151     0.3 7   76 299 
 RUS  HZ IP     D 20 4 38.30                             145     0.010   98 178 
 RUS  HN ES   1   20 4 56.56                             145    -0.3 7   98 178 
 RUS  HZ I        20 4 58.14        73.1 0.41                            98 178 
 GUE  SZ EP   1   20 4 40.28                             139     0.7 7  118  10 
 GRA  SZ IP       20 4 40.07                             137     0.010  127  15 
 GRA  SZ ES   1   20 4 59.82                             137    -0.1 7  127  15 
 GRA  SZ I        20 5  0.80        80.9 0.25                           127  15 
 OCA  SZ EP   1   20 4 42.53                             129    -0.8 7  163 352 
 OCA  SZ ES   1   20 5  6.28                             129     0.6 7  163 352 
 OCA  SZ I        20 5  9.28       122.1 0.23                           163 352 
 NOR  SN ES   2   20 5 18.16                             118    -0.6 4  237 236 
 CHI  HZ EP   1   20 4 52.44                             117     0.2 6  248 196 
 CHI  HN ES   1   20 5 22.07                             117     0.4 6  248 196 
 CHI  HZ I        20 5 25.57        46.6 0.56                           248 196 
 ROSC BZ EP   1   20 4 52.75                             117    -0.1 6  253 212 
 ROSC BE ES   1   20 5 22.97                             117     0.3 6  253 212 
 ROSC BZ I        20 5 28.41        44.5 0.64                           253 212 
 HEL  HZ EP   2   20 4 55.00                             115    -0.3 4  275 256 
 HEL  HN ES   2   20 5 26.79                             115    -0.2 4  275 256 
 HEL  HZ I        20 5 32.83        55.3 0.25                           275 256 
 VIL  SN ES   2   20 5 31.54                             112     0.2 4  300 191 
 GUY  SZ EP   1   20 4 59.02                             112     0.5 5  303 236 
 GUY  SE ES   2   20 5 32.59                             112    -0.2 4  303 236 
 GUY  SZ I        20 5 43.22        57.8 0.30                           303 236 
 RREF HZ EP   2   20 5  0.80                             111    -0.2 3  323 230 
 RREF HE ES   2   20 5 37.34                             111     0.2 3  323 230 
 RREF HZ I        20 5 44.18        46.0 0.33                           323 230 
 DBB  SZ EP   1   20 5  1.87                             109    -0.8 5  344 275 
 DBB  SZ I        20 5 42.22        15.1 0.35                           344 275 
 ANIL HZ EP   2   20 5  4.58                             108     0.0 3  358 225 
 ANIL HN ES   2   20 5 44.05                             108     0.4 3  358 225 
 ANIL HZ I        20 5 54.53        76.7 0.30                           358 225 
 PRA  HZ EP   1   20 5  7.91                             107    -0.3 4  392 210 
 PRA  HE ES   1   20 5 50.66                             107     0.7 4  392 210 
 PRA  HZ I        20 5 53.37        90.2 0.19                           392 210 
                                                                                
