 2011  423 2255 16.2 L   5.918 -73.850 96.0  RSN 14 0.3 2.4LRSN                1
 GAP= 94        0.77       2.7     2.7  7.3 -0.2011E+01  0.5807E+01 -0.1623E+01E
 Epicentro: SUCRE - SANTANDER                                                  3
 ACTION:UP  11-06-22 15:32 OP:REBC STATUS:               ID:20110423225516 L   I
 2011-04-23-2251-28S.COL___139                                                 6
 STAT SP IPHASW D HRMM SECON CODA AMPLIT PERI AZIMU VELO SNR AR TRES W  DIS CAZ7
 RUS  HZ IP     D 2255 34.12                             136     0.110   85  92 
 RUS  HZ I        2255 34.63        47.2 0.31                            85  92 
 RUS  HN ES   1   2255 47.72                             136    -0.3 7   85  92 
 BAR2 SZ EP       2255 35.66                             129     0.110  105  45 
 BAR2 SZ ES   1   2255 50.65                             129     0.0 7  105  45 
 NOR  SZ EP   1   2255 37.10                             125     0.4 7  120 251 
 NOR  SE ES   2   2255 52.51                             125    -0.3 5  120 251 
 BTL  SZ EP       2255 37.91                             123     0.110  128  30 
 BRR  HZ EP       2255 37.88                             122    -0.110  132   7 
 BRR  HE ES   1   2255 55.23                             122     0.3 7  132   7 
 BRR  HZ I        2256  2.94        45.8 0.05                           132   7 
 GIR2 SZ EP   1   2255 39.84                             119     0.1 7  147  29 
 YOP  SZ EP   1   2255 42.22                             115     0.0 7  170 111 
 YOP  SN ES   1   2256  2.68                             115     0.1 7  170 111 
 YOP  SZ I        2256  4.94        36.7 0.23                           170 111 
 GUY  SZ EP   1   2255 44.63                             113     0.0 7  187 246 
 GUY  SZ I        2255 49.34        26.2 0.16                           187 246 
 HEL  HZ EP   1   2255 45.35                             113     0.7 7  188 279 
 HEL  HZ I        2255 46.93        27.4 0.35                           188 279 
 HEL  HN ES   1   2256  6.10                             113    -0.7 7  188 279 
 PAM  SZ EP   1   2255 46.11                             111    -0.2 6  202  39 
 BRI  SZ EP   1   2255 48.79                             108    -0.4 6  230  30 
 GRA  SZ EP       2255 50.24                             107    -0.8 8  246  28 
 GRA  SZ ES   1   2256 18.85                             107     0.6 6  246  28 
 GRA  SZ I        2256 22.37        43.3 0.25                           246  28 
 OCA  SZ EP   1   2255 52.95                             106    -0.1 6  263  13 
 OCA  SZ ES   1   2256 22.33                             106     0.5 6  263  13 
 OCA  SZ I        2256 28.84        22.7 0.26                           263  13 
 PRA  HZ EP   1   2255 53.76                             105     0.1 6  270 205 
 PRA  HN ES   1   2256 23.05                             105     0.1 6  270 205 
                                                                                
