 2014  923 2009 51.6 L   6.811 -73.155143.8  RSN 18 0.5 2.9LRSN                1
 GAP= 70        1.06       2.6     3.0  5.0 -0.4129E+00  0.4107E+01  0.2474E+01E
 Epicentro: LOS SANTOS - SANTANDER                                             3
 ACTION:UPD 14-10-03 23:07 OP:nd   STATUS:               ID:20140923200951 L   I
 OLDACT:REG 14-09-24 07:32 OP:carl STATUS:               ID:20140923200817     3
 2014-09-23-2008-17M.COL___284                                                 6
 STAT SP IPHASW D HRMM SECON CODA AMPLIT PERI AZIMU VELO AIN AR TRES W  DIS CAZ7
 BAR2 SZ IP     D 2010 11.10                             170    0.0510 24.4 187 
 BAR2 SZ ES       2010 25.86                             170   -0.3310 24.4 187 
 BAR2 SZ I        2010 27.37       204.4 0.18            167           24.4 187 
 BRR  HZ IP     C 2010 12.96                             153    0.4710 69.7 298 
 BRR  HE ES       2010 29.61                             153    0.8610 69.7 298 
 BRR  HZ I        2010 33.85        83.6 0.14            152           69.7 298 
 PAM  SZ EP       2010 13.91                             151    0.2910 77.1  41 
 PAM  SN ES       2010 30.86                             151    0.0910 77.1  41 
 PAM  SZ I        2010 31.64        79.6 0.28            156           77.1  41 
 RUS  HZ IP     C 2010 15.08                             143   -0.2110  102 176 
 RUS  HE ES       2010 33.56                             143   -0.1710  102 176 
 RUS  HZ I        2010 39.24        41.2 0.22            143            102 176 
 PTB  HZ EP       2010 17.57                             132   -0.80 9  147 258 
 PTB  HN ES       2010 38.74                             132   -0.49 9  147 258 
 PTB  HZ I        2010 41.14       109.4 0.16            131            147 258 
 TAM  HZ EP       2010 19.40                             130    0.12 9  156 105 
 TAM  HN ES       2010 40.94                             130    0.10 9  156 105 
 TAM  HZ I        2010 41.52        58.3 0.26            134            156 105 
 OCA  HN ES       2010 41.14                             129   -0.39 9  159 353 
 OCA  HZ I        2010 45.86        77.2 0.28            133            159 353 
 SPBC HZ EP       2010 20.01                             128   -0.00 9  163 218 
 SPBC HN ES       2010 42.29                             128    0.14 9  163 218 
 SPBC HZ I        2010 51.47        86.4 0.20            129            163 218 
 ZAR  HZ EP       2010 24.20                             122    0.40 9  203 292 
 ZAR  HN ES       2010 49.25                             122    0.35 9  203 292 
 ZAR  HZ I        2010 54.72       116.5 0.52            123            203 292 
 SML  HZ EP       2010 26.96                             117   -1.02 8  242 335 
 SML  HN ES       2010 55.89                             117   -0.44 8  242 335 
 SML  HZ I        2010 59.69        80.0 0.10            119            242 335 
 CHI  HZ EP       2010 29.31                             117   -0.01 8  250 195 
 CHI  HN ES       2010 58.22                             117   -0.50 8  250 195 
 CHI  HZ I        2011  5.58        28.1 0.44            118            250 195 
 ROSC BZ EP   4   2010 31.50                             116    1.80 0  253 211 
 ROSC BN ES   4   2011  1.89                             116    2.49 0  253 211 
 ROSC BZ I        2011  4.81        52.6 0.35            117            253 211 
 URE  HZ EP   4   2010 30.95                             113   -1.50 0  282 292 
 URE  HE ES   4   2011  3.03                             113   -1.26 0  282 292 
 GUY2CHZ EP       2010 35.41                             112    0.27 7  301 234 
 GUY2CHN ES       2011  8.47                             112   -0.60 7  301 234 
 GUY2CHZ I        2011 17.69        50.3 0.38                           301 234 
 CBOC HZ EP       2010 39.04                             110    0.64 7  333 252 
 CBOC HN ES       2011 14.92                             110    0.05 7  333 252 
 CBOC HZ I        2011 27.77        15.9 0.50            110            333 252 
 TOL  SZ EP       2010 40.78                             109    0.95 7  344 224 
 TOL  SN ES       2011 17.84                             109    0.42 7  344 224 
 TOL  SZ I        2011 27.42        69.9 0.32            110            344 224 
 PRA  HZ EP       2010 44.73                             106   -0.42 6  393 209 
 PRA  HE ES       2011 26.72                             106   -0.18 6  393 209 
 PRA  HZ I        2011 33.83        43.1 0.24            107            393 209 
 ORTC HZ EP       2010 46.32                             106    0.79 6  396 216 
 ORTC HN ES   4   2011 29.85                             106    2.28 0  396 216 
 ORTC HZ I        2011 33.60        27.6 0.26            107            396 216 
 SJC  HZ EP   4   2010 45.52                             105   -1.42 0  408 327 
 SJC  HN ES   4   2011 26.76                             105   -3.33 0  408 327 
 SJC  HZ I        2011 30.99        10.6 0.58            107            408 327 
                                                                                
