 2015 1223 2129 40.6 L   6.789 -73.132146.9  RSN  8 0.4 2.0LRSN                1
 GAP=156        0.87       4.0     4.0  5.5 -0.4275E+01  0.6016E+01 -0.2238E+00E
 Epicentro: LOS SANTOS - SANTANDER                                             3
 ACTION:UPD 16-02-04 15:07 OP:cam  STATUS:               ID:20151223212940 L   I
 OLDACT:REG 15-12-24 03:55 OP:ar   STATUS:               ID:20151223212749     3
 2015-12-23-2127-49M.COL___337                                                 6
 STAT SP IPHASW D HRMM SECON CODA AMPLIT PERI AZIMU VELO AIN AR TRES W  DIS CAZ7
 BAR2 EZ EP       2130  0.09                             171   -0.2510 22.5 194 
 BAR2 EZ ES       2130 15.60                             171   -0.1410 22.5 194 
 BAR2 EZ I        2130 17.74        15.0 0.26            170           22.5 194 
 BRR  HZ EP       2130  2.14                             152    0.1810 73.1 299 
 BRR  HN ES       2130 19.33                             152    0.6910 73.1 299 
 BRR  HZ I        2130 21.61         9.0 0.18            150           73.1 299 
 PAM  EZ EP       2130  2.96                             151    0.0410 77.4  38 
 PAM  EN ES       2130 20.29                             151   -0.0510 77.4  38 
 PAM  EZ I        2130 22.25        13.9 0.24            154           77.4  38 
 PTB  HN ES       2130 28.36                             132   -0.59 9  149 259 
 PTB  HZ I        2130 35.44        11.4 0.36            132            149 259 
 ZAR  HN ES       2130 38.86                             122    0.06 8  206 292 
 ZAR  HZ I        2130 44.48         9.6 0.14            123            206 292 
 NOR  HZ EP       2130 16.23                             119   -0.20 8  235 235 
 NOR  HN ES       2130 44.42                             119    0.02 8  235 235 
 NOR  HZ I        2130 47.72         7.1 0.38            120            235 235 
 SML  HZ EP       2130 17.52                             117    0.06 8  245 335 
 SML  HN ES       2130 45.77                             117   -0.45 8  245 335 
 SML  HZ I        2130 48.89        13.3 0.10            119            245 335 
 GUY2CHZ EP       2130 25.03                             112    0.73 7  302 235 
 GUY2CHE ES   4   2131  1.21                             112    2.80 0  302 235 
 GUY2CHZ I        2131  6.98         6.9 0.74                           302 235 
                                                                                
