 2012  223 2346 34.3 L   6.758 -73.232152.0  RSN  4 0.5 1.3LRSN                1
 GAP=224        0.86       9.1     9.8 10.1  0.4864E+02 -0.4511E+00  0.1639E+02E
 ACTION:DUP 12-03-07 16:33 OP:epov STATUS:               ID:20120223234635dL   I
 2012-02-23-2340-00M.COL___192                                                 6
 STAT SP IPHASW D HRMM SECON CODA AMPLIT PERI AZIMU VELO AIN AR TRES W  DIS CAZ7
 BRR  HZ EP   1   2346 55.97                             155    0.14 7 65.6 306 
 BRR  HN ES   1   2347 12.90                             155    0.27 7 65.6 306 
 RUS  HZ EP   1   2346 58.38                             146   -0.05 7 97.1 170 
 RUS  HN ES   1   2347 16.96                             146   -0.29 7 97.1 170 
 RUS  HZ I        2347 17.89         2.4 0.31                          97.1 170 
 PTB  HZ EP   1   2347  0.07                             136   -0.83 7  138 260 
 PTB  HN ES   1   2347 21.79                             136    0.15 7  138 260 
 CHI  HZ EP   1   2347 12.48                             119    0.85 6  242 193 
 CHI  HZ I        2347 47.98         1.8 0.38                           242 193 
                                                                                
