 2012  523 2226 27.3 L   6.737 -73.186143.5  RSN  5 0.3 1.6LRSN                1
 GAP=134        0.46       4.9     3.9 10.2 -0.2634E+01  0.6993E+01 -0.1968E+02E
 Epicentro: VILLANUEVA - SANTANDER                                             3
 ACTION:UP  12-07-05 12:07 OP:pat  STATUS:               ID:20120523222627 L   I
 2012-05-23-2220-00M.COL___201                                                 6
 STAT SP IPHASW D HRMM SECON CODA AMPLIT PERI AZIMU VELO SNR AR TRES W  DIS CAZ7
 BAR2 SZ EP       2226 46.54                             173     0.010   16 179 
 PAM  SZ EP       2226 49.73                             148    -0.110   86  39 
 RUS  HZ EP       2226 50.41                             145     0.110   94 173 
 RUS  HN ES   2   2227  8.40                             145     0.1 5   94 173 
 PTB  HZ EP       2226 53.45                             133    -0.1 9  142 261 
 PTB  HN ES   2   2227 13.89                             133    -0.2 5  142 261 
 ZAR  HZ EP   3   2227  0.82                             122     1.4 2  203 294 
 ZAR  HE ES   3   2227 25.55                             122     1.0 2  203 294 
 ZAR  HZ I        2227 32.83         3.6 0.30                           203 294 
                                                                                
