 2017  823 2237  4.7 L   6.763 -73.141145.0  RSN  7 0.3 1.6LRSN                1
 GAP=139        0.83       3.2     4.5  5.5  0.7978E+00  0.5941E+01  0.6320E+01E
 Epicentro: LOS SANTOS - SANTANDER                                             3
 ACTION:UPD 17-09-04 20:23 OP:rebc STATUS:               ID:20170823223704 L   I
 OLDACT:REG 17-08-24 02:28 OP:lv   STATUS:               ID:20170823222744     3
 2017-08-23-2228-00M.COL___419                                                 6
 STAT SP IPHASW D HRMM SECON CODA AMPLIT PERI AZIMU VELO AIN AR TRES W  DIS CAZ7
 BAR2 EZ EP       2237 24.08                             172   -0.0810 19.4 194 
 BAR2 EZ ES       2237 39.24                             172   -0.1010 19.4 194 
 BAR2 EZ I        2237 40.04         8.4 0.24            171           19.4 194 
 BRR  HZ EP       2237 25.61                             152   -0.2910 73.7 301 
 BRR  HN ES       2237 42.95                             152    0.5110 73.7 301 
 PAM  EZ EP       2237 26.93                             150   -0.0710 80.2  37 
 PAM  EN ES       2237 44.14                             150   -0.2610 80.2  37 
 PAM  EZ I        2237 46.17         8.2 0.46            151           80.2  37 
 RUS  HZ EP       2237 28.41                             145    0.3410 96.5 176 
 RUS  HE ES       2237 46.55                             145    0.2410 96.5 176 
 ZAR  HE ES       2238  2.51                             122   -0.22 8  206 293 
 CHI  HZ EP       2237 42.41                             117    0.47 8  245 196 
 CHI  HE ES       2238 10.18                             117   -0.80 8  245 196 
 CHI  HZ I        2238 15.18         2.2 0.28            118            245 196 
 PRA  HZ EP       2237 57.98                             107    0.18 6  389 210 
 PRA  HN ES       2238 39.28                             107    0.05 6  389 210 
                                                                                
