 2016  723 2110 12.7 L   6.787 -73.100147.3  RSN 12 0.5 2.4LRSN                1
 GAP=143        1.03       3.7     4.7  6.0 -0.2368E+01  0.9829E+01  0.3895E+01E
 Epicentro: LOS SANTOS - SANTANDER                                             3
 ACTION:UPD 17-03-29 16:54 OP:lp   STATUS:               ID:20160723211013dL   I
 OLDACT:UP  16-07-24 06:14 OP:dani STATUS:               ID:20160723210759     3
 OLDACT:UP  16-07-24 06:14 OP:dani STATUS:               ID:20160723210759     3
 OLDACT:UP  16-07-24 06:10 OP:dani STATUS:               ID:20160723210759     3
 OLDACT:REG 16-07-24 04:38 OP:dani STATUS:               ID:20160723210759     3
 2016-07-23-2107-59S.COL___331                                                 6
 STAT SP IPHASW D HRMM SECON CODA AMPLIT PERI AZIMU VELO AIN AR TRES W  DIS CAZ7
 BAR2 EZ EP       2110 32.37                             171   -0.1610 23.4 203 
 BAR2 HN ES       2110 47.95                             171   -0.0410 23.4 203 
 PAM  EZ EP       2110 35.11                             152    0.1310 75.5  36 
 PAM  EE ES       2110 52.64                             152    0.2910 75.5  36 
 PAM  EZ I        2110 54.63        52.3 0.56            159           75.5  36 
 BRR  HZ EP       2110 34.30                             151   -0.0210 76.3 298 
 BRR  HE ES       2110 51.62                             151    0.4410 76.3 298 
 BRR  HZ I        2110 54.14        30.0 0.18            151           76.3 298 
 RUS  HZ EP       2110 36.21                             145   -0.2910 98.9 179 
 RUS  HE ES       2110 54.81                             145   -0.2410 98.9 179 
 SPBC HZ EP       2110 41.37                             129   -0.16 9  165 221 
 SPBC HN ES       2111  3.78                             129   -0.23 9  165 221 
 SPBC HZ I        2111 11.92        40.7 0.24            129            165 221 
 ZAR  HZ EP       2110 45.22                             122   -0.58 8  209 292 
 ZAR  HE ES       2111 11.11                             122   -0.49 8  209 292 
 NOR  HZ EP       2110 48.29                             118   -0.59 8  238 235 
 NOR  HE ES       2111 17.20                             118    0.10 8  238 235 
 NOR  HZ I        2111 24.15        16.5 0.18            119            238 235 
 CHI  HE ES       2111 20.04                             117    0.08 8  249 196 
 ROSC BZ EP   4   2110 54.40                             117    3.33 0  254 212 
 ROSC BN ES   4   2111 22.86                             117    1.87 0  254 212 
 ROSC BZ I        2111 30.65        17.7 0.40            118            254 212 
 HEL  HN ES   4   2111 27.69                             115    2.37 0  277 256 
 GUY2CHZ EP       2110 58.14                             112    1.38 7  304 236 
 GUY2CHE ES   4   2111 35.67                             112    4.55 0  304 236 
 GUY2CHZ I        2111 39.39         8.8 0.32                           304 236 
 ELA  HZ EP   4   2111  2.26                             110    2.30 0  332 230 
 ELA  HN ES       2111 37.66                             110    0.85 7  332 230 
 ELA  HZ I        2111 45.32         7.7 0.45            111            332 230 
 PRA  HZ EP       2111  6.93                             107    0.50 6  393 210 
 PRA  HN ES   4   2111 47.77                             107   -0.56 0  393 210 
 PRA  HZ I        2111 52.00         8.9 0.36            108            393 210 
                                                                                
