 2011  123 2256 41.0 L   6.788 -73.170143.9  RSN 12 0.4 2.7LRSN                1
 GAP=134        0.73       3.2     5.2  6.5 -0.3283E+01  0.1017E+02  0.3517E+01E
 Epicentro: LOS SANTOS - SANTANDER                                             3
 ACTION:UP  11-02-08 08:42 OP:pat  STATUS:               ID:20110123225641 L   I
 2011-01-23-2254-58S.COL___138                                                 6
 STAT SP IPHASW D HRMM SECON CODA AMPLIT PERI AZIMU VELO SNR AR TRES W  DIS CAZ7
 BAR2 SZ EP   1   2257  0.36                             171    -0.1 7   22 184 
 BAR2 SZ ES   2   2257 15.24                             171    -0.3 5   22 184 
 BAR2 SZ I        2257 17.38       128.4 0.28                            22 184 
 GIR2 SZ EP   1   2257  0.61                             167     0.1 7   32 355 
 GIR2 SZ ES   2   2257 15.90                             167     0.2 5   32 355 
 RUS  HZ IP     D 2257  4.35                             144    -0.210   99 174 
 RUS  HN ES   2   2257 22.96                             144     0.1 5   99 174 
 RUS  HZ I        2257 24.41        39.9 0.26                            99 174 
 GRA  SZ IP       2257  6.31                             136     0.010  128  18 
 GRA  SZ ES   2   2257 25.98                             136     0.0 5  128  18 
 GRA  SZ I        2257 28.00       101.9 0.31                           128  18 
 OCA  SZ EP   1   2257  8.97                             129    -0.3 7  161 354 
 OCA  SZ ES   2   2257 31.61                             129     0.3 5  161 354 
 OCA  SZ I        2257 36.84        92.1 0.26                           161 354 
 YOP  SZ EP   1   2257 10.96                             126     0.0 7  179 152 
 YOP  SZ I        2257 12.26        25.2 0.62                           179 152 
 YOP  SN ES   2   2257 35.16                             126     0.9 4  179 152 
 NOR  SZ EP   1   2257 15.51                             118    -0.8 6  232 234 
 NOR  SN ES   2   2257 43.56                             118    -0.3 4  232 234 
 CHI  HZ EP   1   2257 18.34                             117    -0.1 6  247 195 
 CHI  HN ES   2   2257 47.48                             117    -0.1 4  247 195 
 CHI  HZ I        2257 55.80        26.1 0.53                           247 195 
 ROSC BZ EP   1   2257 19.40                             117     0.6 6  250 211 
 HEL  HZ EP   1   2257 21.54                             115     0.7 6  269 256 
 HEL  HN ES   2   2257 52.49                             115     0.6 4  269 256 
 HEL  HZ I        2257 59.24        46.8 0.32                           269 256 
 VIL  SZ EP   1   2257 23.61                             112    -0.4 5  300 189 
 RREF HZ EP   1   2257 27.37                             111     0.6 5  319 229 
 RREF HN ES   2   2258  1.85                             111    -0.6 3  319 229 
 RREF HZ I        2258 12.77        38.4 0.38                           319 229 
                                                                                
