 2012  323 2354 50.2 L   6.680 -73.227115.9  RSN  5 0.2 1.4LRSN                1
 GAP=127        0.43       2.8     3.3  6.9  0.3198E+01  0.7804E+01  0.3623E+01E
 ACTION:UP  12-03-31 23:22 OP:EP   STATUS:               ID:20120323235450 L   I
 2012-03-23-2350-00M.COL___196                                                 6
 STAT SP IPHASW D HRMM SECON CODA AMPLIT PERI AZIMU VELO SNR AR TRES W  DIS CAZ7
 BAR2 SZ EP   1   2355  5.71                             174    -0.3 7   11 153 
 BAR2 SZ I        2355 22.97        13.0 0.19                            11 153 
 BRR  HZ EP   1   2355  8.17                             146     0.0 7   71 311 
 BRR  HN ES   1   2355 22.36                             146     0.1 7   71 311 
 BRR  HZ I        2355 29.94        12.0 0.24                            71 311 
 RUS  HZ EP   1   2355 10.38                             140     0.3 7   89 170 
 RUS  HN ES   1   2355 25.63                             140    -0.1 7   89 170 
 RUS  HZ I        2355 30.56         2.5 0.41                            89 170 
 PAM  SE ES   1   2355 26.39                             139     0.0 7   93  39 
 ZAR  HN ES   1   2355 44.19                             115    -0.1 6  201 297 
                                                                                
