 2016 1023 2315  8.2 L   6.752 -73.092139.6  RSN  6 0.1 1.5LRSN                1
 GAP=146        0.38       1.8     2.6  3.8 -0.1865E+01 -0.1186E+01  0.2642E+01E
 Epicentro: LOS SANTOS - SANTANDER                                             3
 ACTION:UPD 16-11-09 19:22 OP:rebc STATUS:               ID:20161023231508 L   I
 OLDACT:REG 16-10-24 02:46 OP:y    STATUS:               ID:20161023230747     3
 2016-10-23-2308-00M.COL___359                                                 6
 STAT SP IPHASW D HRMM SECON CODA AMPLIT PERI AZIMU VELO AIN AR TRES W  DIS CAZ7
 BAR2 EZ EP   2   2315 26.91                             171   -0.09 5 20.3 209 
 BAR2 EZ I        2315 42.95        11.7 0.26            171           20.3 209 
 PAM  EZ EP       2315 29.80                             149    0.0310 78.1  34 
 PAM  EE ES       2315 46.55                             149   -0.0710 78.1  34 
 PAM  EZ I        2315 48.80         7.1 0.50            146           78.1  34 
 BRR  HZ EP   2   2315 28.95                             149   -0.17 5 79.0 300 
 BRR  HN ES       2315 45.64                             149    0.1710 79.0 300 
 BRR  HZ I        2315 50.85         7.6 0.46            143           79.0 300 
 RUS  HZ EP       2315 30.93                             144    0.0210 95.1 179 
 RUS  HN ES       2315 48.63                             144   -0.0210 95.1 179 
 RUS  HZ I        2315 50.27         3.3 0.40            143           95.1 179 
 SPBC HZ EP   2   2315 36.14                             128   -0.04 5  163 222 
 SPBC HN ES       2315 57.76                             128   -0.27 9  163 222 
 SPBC HZ I        2316  1.09         5.2 0.10            125            163 222 
 CHI  HZ EP   2   2315 45.25                             116    0.10 4  245 197 
 CHI  HN ES       2316 14.26                             116    0.26 8  245 197 
 CHI  HZ I        2316 17.62         1.1 0.30            114            245 197 
                                                                                
