 2011  223 2206 55.0 L   6.788 -73.140144.3  RSN  6 0.3 1.5LRSN                1
 GAP=159        0.77       5.7     9.3  8.8 -0.1784E+02  0.3044E+02 -0.9418E+01E
 Epicentro: LOS SANTOS - SANTANDER                                             3
 ACTION:UP  11-03-28 15:10 OP:jfem STATUS:               ID:20110223220655 L   I
 2011-02-23-2203-45S.COL___136                                                 6
 STAT SP IPHASW D HRMM SECON CODA AMPLIT PERI AZIMU VELO SNR AR TRES W  DIS CAZ7
 BAR2 SZ EP   1   22 7 14.08                             171    -0.4 7   22 193 
 BAR2 SZ ES   1   22 7 29.50                             171    -0.1 7   22 193 
 BAR2 SZ I        22 7 30.52         8.5 0.33                            22 193 
 GIR2 SZ EP   1   22 7 15.18                             166     0.6 7   33 350 
 RUS  HZ EP   1   22 7 18.08                             144    -0.4 7   99 176 
 RUS  HN ES   2   22 7 36.87                             144     0.0 5   99 176 
 RUS  HZ I        22 7 37.88         3.1 0.17                            99 176 
 GRA  SZ EP   1   22 7 20.30                             136     0.1 7  127  17 
 GRA  SZ I        22 7 42.39         4.5 0.43                           127  17 
 CHI  HZ EP   2   22 7 32.54                             117     0.0 4  247 195 
 CHI  HE ES   1   22 8  2.21                             117     0.5 6  247 195 
 CHI  HZ I        22 8  5.46         1.9 0.25                           247 195 
 HEL  HZ EP   1   22 7 34.85                             114    -0.3 6  272 256 
 HEL  HN ES   2   22 8  6.61                             114     0.1 4  272 256 
 HEL  HZ I        22 8  9.98         4.0 0.35                           272 256 
                                                                                
