 2015  323 2115 26.8 L   6.799 -73.140156.0  RSN  5 0.5 1.8LRSN                1
 GAP=180        1.16       7.1     6.1 10.0 -0.1493E+02  0.4051E+01  0.1413E+02E
 Epicentro: LOS SANTOS - SANTANDER                                             3
 ACTION:UPD 15-04-30 16:28 OP:nd   STATUS:               ID:20150323211526 L   I
 OLDACT:REG 15-03-24 07:07 OP:cam  STATUS:               ID:20150323210747     3
 2015-03-23-2107-47M.COL___275                                                 6
 STAT SP IPHASW D HRMM SECON CODA AMPLIT PERI AZIMU VELO AIN AR TRES W  DIS CAZ7
 BRR  HZ EP       2115 49.47                             154    0.4210 71.8 298 
 BRR  HN ES       2116  6.83                             154    0.3910 71.8 298 
 BRR  HN I        2116  7.40        21.3 0.22            152           71.8 298 
 PAM  SZ EP       2115 50.45                             153    0.3910 77.1  39 
 PAM  SE ES       2116  7.68                             153   -0.5510 77.1  39 
 PAM  SZ I        2116  9.65         5.7 0.52            155           77.1  39 
 PTB  HN ES       2116 15.58                             134   -0.79 9  148 259 
 PTB  HN I        2116 18.26        10.8 0.28            133            148 259 
 SPBC HZ EP       2115 55.75                             131   -0.34 9  163 219 
 SPBC HN ES       2116 19.41                             131    0.45 9  163 219 
 SPBC HZ I        2116 23.83         6.5 0.24            131            163 219 
 ZAR  HZ EP       2115 59.60                             124   -0.35 9  205 292 
 ZAR  HE ES       2116 26.12                             124    0.28 9  205 292 
 ZAR  HZ I        2116 32.95         5.9 0.42            124            205 292 
                                                                                
