 2016 1123 2227  4.6 L   6.810 -73.079158.4  RSN  9 0.4 2.0LRSN                1
 GAP=124        0.76       4.1     4.4  5.1 -0.2618E+01  0.8428E+01  0.3993E+01E
 Epicentro: LOS SANTOS - SANTANDER                                             3
 ACTION:UPD 17-10-26 21:11 OP:lp   STATUS:               ID:20161123222704 L   I
 OLDACT:UP  16-11-24 04:27 OP:and  STATUS:               ID:20161123221743     3
 OLDACT:UP  16-11-24 04:23 OP:and  STATUS:               ID:20161123221743     3
 OLDACT:UP  16-11-24 04:21 OP:and  STATUS:               ID:20161123221743     3
 OLDACT:REG 16-11-24 03:03 OP:and  STATUS:               ID:20161123221743     3
 2016-11-23-2218-00M.COL___352                                                 6
 STAT SP IPHASW D HRMM SECON CODA AMPLIT PERI AZIMU VELO AIN AR TRES W  DIS CAZ7
 BAR2 EZ IP     D 2227 25.80                             170    0.0310 26.7 205 
 BAR2 EZ ES       2227 41.88                             170   -0.4410 26.7 205 
 BAR2 EZ I        2227 42.40        13.0 0.26            168           26.7 205 
 PAM  EZ EP   2   2227 28.71                             155    0.87 5 72.0  36 
 PAM  EN ES       2227 45.99                             155   -0.0110 72.0  36 
 PAM  EZ I        2227 48.00         6.3 0.22            158           72.0  36 
 BRR  HZ EP       2227 27.85                             153    0.4410 77.3 295 
 BRR  HN ES       2227 45.52                             153    0.2710 77.3 295 
 PTB  HZ EP       2227 32.75                             133   -0.48 9  155 259 
 PTB  HN ES   4   2227 54.16                             133   -1.45 0  155 259 
 PTB  HZ I        2228  1.47        13.5 0.41            132            155 259 
 ZAR  HZ EP       2227 38.20                             124   -0.30 8  211 291 
 ZAR  HN ES       2228  4.90                             124   -0.08 8  211 291 
 ZAR  HZ I        2228 10.27        13.2 0.19            124            211 291 
 NOR  HZ EP       2227 41.97                             120    0.22 8  241 235 
 NOR  HN ES       2228 11.02                             120    0.26 8  241 235 
 NOR  HZ I        2228 13.53        10.0 0.18            120            241 235 
 PTGC HZ EP   2   2227 48.54                             114   -0.29 4  307 160 
 PRA  HZ EP   4   2228  0.29                             108    1.22 0  397 210 
 PRA  HN ES       2228 41.71                             108    0.11 6  397 210 
 PRA  HZ I        2228 46.47         4.7 0.40            109            397 210 
 SJC  HZ EP       2228  0.50                             107   -0.42 6  412 326 
 SJC  HN ES   4   2228 43.52                             107   -1.37 0  412 326 
                                                                                
