 2012  823 2033 13.9 L   6.725 -73.170140.6  RSN  4 0.4 1.6LRSN                1
 GAP=229        0.88       9.0     8.7  9.5  0.3944E+02  0.1072E+02  0.3599E+01E
 Epicentro: VILLANUEVA - SANTANDER                                             3
 ACTION:UPD 12-09-10 11:58 OP:ep   STATUS:               ID:20120823203313 L   I
 2012-08-23-2030-00M.COL___218                                                 6
 STAT SP IPHASW D HRMM SECON CODA AMPLIT PERI AZIMU VELO AIN AR TRES W  DIS CAZ7
 BAR2 SZ EP   1   2033 32.60                             174   -0.18 7 14.8 186 
 BAR2 SZ ES   1   2033 46.72                             174   -0.78 7 14.8 186 
 BAR2 SZ I        2033 49.24        12.7 0.19                          14.8 186 
 BRR  HZ EP   1   2033 34.70                             151    0.06 7 73.3 305 
 BRR  HZ I        2033 36.96        16.4 0.44                          73.3 305 
 BRR  HE ES   1   2033 51.47                             151    0.67 7 73.3 305 
 RUS  HZ EP   1   2033 36.94                             145    0.35 7 92.6 174 
 RUS  HN ES   1   2033 54.65                             145    0.38 7 92.6 174 
 RUS  HZ I        2033 56.53         3.8 0.28                          92.6 174 
 PTB  HZ EP   1   2033 39.66                             132   -0.45 7  144 262 
 PTB  HN ES   1   2034  0.42                             132   -0.11 7  144 262 
 PTB  HZ I        2034  5.56         2.4 0.12                           144 262 
                                                                                
