 2015 1223 2223  7.1 L   6.788 -73.172146.3  RSN  7 0.5 1.8LRSN                1
 GAP=234        1.16       5.6     6.8  7.4  0.1688E+02  0.1487E+02  0.9427E+01E
 Epicentro: LOS SANTOS - SANTANDER                                             3
 ACTION:UPD 16-02-04 15:07 OP:cam  STATUS:               ID:20151223222307 L   I
 OLDACT:REG 15-12-24 03:58 OP:ar   STATUS:               ID:20151223221747     3
 2015-12-23-2217-47M.COL___337                                                 6
 STAT SP IPHASW D HRMM SECON CODA AMPLIT PERI AZIMU VELO AIN AR TRES W  DIS CAZ7
 BAR2 EZ ES       2223 41.44                             171   -0.6910 21.7 183 
 BAR2 EZ I        2223 42.55        15.4 0.22            166           21.7 183 
 BRR  HZ EP       2223 28.34                             153    0.1110 69.3 301 
 BRR  HN ES       2223 45.41                             153    0.7210 69.3 301 
 BRR  HZ I        2223 48.85        14.6 0.34            149           69.3 301 
 RUS  HZ EP       2223 30.77                             144   -0.0810 99.5 174 
 RUS  HN ES       2223 49.75                             144    0.3910 99.5 174 
 RUS  HZ I        2223 52.00         5.2 0.34            144           99.5 174 
 PTB  HZ EP       2223 33.32                             133   -0.54 9  145 259 
 PTB  HN ES       2223 54.25                             133   -0.45 9  145 259 
 PTB  HZ I        2224  0.97         9.4 0.32            131            145 259 
 ZAR  HZ EP       2223 40.07                             123    0.69 9  202 293 
 ZAR  HN ES       2224  4.14                             123   -0.40 9  202 293 
 ZAR  HZ I        2224 10.88         5.8 0.08            123            202 293 
 NOR  HZ EP       2223 42.69                             119    0.14 8  232 234 
 NOR  HN ES       2224 10.50                             119    0.32 8  232 234 
 NOR  HZ I        2224 17.70         4.2 0.18            119            232 234 
 CHI  HZ EP       2223 44.12                             117   -0.52 8  247 195 
 CHI  HN ES       2224 14.24                             117    0.35 8  247 195 
 CHI  HZ I        2224 16.33         5.1 0.42            118            247 195 
                                                                                
