 2016  923 2123 43.6 L   5.887 -73.639128.1  RSN  4 0.2 1.4LRSN                1
 GAP=152        0.62       4.2     3.0  5.4 -0.1009E+01  0.1801E+01 -0.3440E+01E
 Epicentro: PUENTE NACIONAL - SANTANDER                                        3
 ACTION:UPD 17-08-17 21:15 OP:lp   STATUS:               ID:20160923212343 L   I
 OLDACT:REG 16-09-24 02:57 OP:lv   STATUS:               ID:20160923211746     3
 2016-09-23-2118-00M.COL___326                                                 6
 STAT SP IPHASW D HRMM SECON CODA AMPLIT PERI AZIMU VELO AIN AR TRES W  DIS CAZ7
 SPBC HZ EP       2124  2.25                             155    0.2310 54.6 242 
 SPBC HE ES       2124 16.29                             155   -0.1310 54.6 242 
 SPBC HZ I        2124 17.25         9.1 0.12            158           54.6 242 
 RUS  HZ EP       2124  3.16                             153    0.1810 61.6  89 
 RUS  HE ES       2124 18.02                             153   -0.1010 61.6  89 
 RUS  HZ I        2124 20.37         2.2 0.26            154           61.6  89 
 BAR2 EZ EP       2124  4.22                             142   -0.4610 92.9  33 
 BAR2 EZ ES       2124 21.40                             142    0.2510 92.9  33 
 BAR2 EZ I        2124 22.41         9.7 0.14            143           92.9  33 
 PTB  HZ EP       2124  6.27                             135    0.0610  116 309 
 PTB  HE ES       2124 23.85                             135   -0.0310  116 309 
 PTB  HZ I        2124 25.65         2.9 0.12            137            116 309 
                                                                                
