 2016  723 2207 15.3 L   6.788 -73.145148.5  RSN 20 0.4 2.5LRSN                1
 GAP= 66        0.95       3.0     2.7  4.6 -0.5207E+00  0.2637E+01  0.4029E+01E
 Epicentro: LOS SANTOS - SANTANDER                                             3
 ACTION:UPD 17-03-29 16:54 OP:lp   STATUS:               ID:20160723220715 L   I
 OLDACT:UP  16-07-24 06:54 OP:dani STATUS:               ID:20160723215760d    3
 OLDACT:UP  16-07-24 06:53 OP:dani STATUS:               ID:20160723215760d    3
 OLDACT:DUP 16-07-24 06:42 OP:dani STATUS:               ID:20160723215760d    3
 OLDACT:UP  16-07-24 06:42 OP:dani STATUS:               ID:20160723215759     3
 OLDACT:UP  16-07-24 06:42 OP:dani STATUS:               ID:20160723215759     3
 OLDACT:UP  16-07-24 06:42 OP:dani STATUS:               ID:20160723215759     3
 OLDACT:REG 16-07-24 04:41 OP:dani STATUS:               ID:20160723215759     3
 2016-07-23-2157-59S.COL___331                                                 6
 STAT SP IPHASW D HRMM SECON CODA AMPLIT PERI AZIMU VELO AIN AR TRES W  DIS CAZ7
 BAR2 EZ EP       22 7 35.13                             171   -0.1410 22.1 191 
 BAR2 EZ ES       22 7 50.44                             171   -0.3810 22.1 191 
 BRR  HZ EP       22 7 36.95                             153    0.1310 71.9 299 
 BRR  HN ES       22 7 54.09                             153    0.5110 71.9 299 
 BRR  HZ I        22 7 58.00        66.5 0.28            143           71.9 299 
 PAM  EZ EP       22 7 37.93                             151    0.0310 78.3  39 
 PAM  EN ES       22 7 55.23                             151   -0.2710 78.3  39 
 PAM  EZ I        22 7 57.32        33.8 0.52            143           78.3  39 
 RUS  HZ EP       22 7 39.11                             145   -0.1610 99.3 176 
 RUS  HN ES       22 7 57.87                             145   -0.0610 99.3 176 
 RUS  HZ I        22 7 59.36        26.3 0.40            142           99.3 176 
 TAM  HZ EP       22 7 43.55                             131    0.36 9  155 105 
 TAM  HN ES       22 8  5.34                             131    0.42 9  155 105 
 TAM  HZ I        22 8  6.91        23.2 0.51            126            155 105 
 SPBC HZ EP       22 7 43.89                             130   -0.07 9  162 219 
 SPBC HE ES       22 8  5.76                             130   -0.53 9  162 219 
 SPBC HZ I        22 8 11.00        53.0 0.20            124            162 219 
 ZAR  HZ EP       22 7 48.50                             123    0.48 9  205 292 
 ZAR  HN ES       22 8 13.17                             123   -0.35 9  205 292 
 ZAR  HZ I        22 8 18.36        43.9 0.32            115            205 292 
 NOR  HZ EP       22 7 51.16                             119    0.00 8  234 235 
 NOR  HN ES       22 8 19.86                             119    0.76 8  234 235 
 NOR  HZ I        22 8 28.68        23.0 0.44            113            234 235 
 CHI  HZ EP       22 7 52.62                             118   -0.44 8  247 195 
 CHI  HE ES       22 8 22.55                             118    0.07 8  247 195 
 CHI  HZ I        22 8 26.45        21.7 0.52            113            247 195 
 HEL  HZ EP       22 7 55.04                             115   -0.63 8  272 256 
 HEL  HE ES       22 8 27.49                             115    0.37 8  272 256 
 HEL  HZ I        22 8 33.24        15.8 0.30            109            272 256 
 URE  HZ EP   4   22 7 59.28                             114    2.68 0  284 292 
 URE  HE ES   4   22 8 26.61                             114   -2.18 0  284 292 
 URE  HZ I        22 8 36.47        15.9 0.16            108            284 292 
 GUY2CHZ EP   4   22 8  0.10                             113    1.10 0  301 235 
 GUY2CHN ES   4   22 8 37.62                             113    4.56 0  301 235 
 GUY2CHZ I        22 8 41.39        22.7 0.34                           301 235 
 VIL  EZ EP       22 7 59.09                             113    0.35 7  302 192 
 VIL  EE ES       22 8 33.42                             113    0.82 7  302 192 
 VIL  EZ I        22 8 42.85        36.9 0.38            108            302 192 
 PTGC HZ EP       22 7 58.23                             112   -0.95 7  307 159 
 PTGC HE ES   4   22 8 28.33                             112   -5.04 0  307 159 
 PTGC HZ I        22 8 34.46        19.3 0.44            108            307 159 
 LL6C HZ EP   4   22 7 59.73                             111   -1.57 0  326 358 
 LL6C HZ I        22 8 42.34         8.8 0.32            105            326 358 
 ELA  HZ EP   9   22 8  4.15                             111    1.93 0  328 230 
 ELA  HE ES       22 8 40.12                             111   -0.60 7  328 230 
 ELA  HZ I        22 8 47.85        15.5 0.52            106            328 230 
 CBOC HZ EP   4   22 8  3.57                             110    1.24 0  333 252 
 CBOC HN ES   4   22 8 35.28                             110   -3.71 0  333 252 
 PRA  HZ EP       22 8  8.73                             107   -0.10 6  391 210 
 PRA  HE ES       22 8 50.41                             107   -0.14 6  391 210 
 PRA  HZ I        22 8 57.38        25.0 0.36            102            391 210 
 PAL  HZ EP       22 8 10.84                             106    0.32 6  405 239 
 PAL  HE ES       22 8 53.04                             106   -0.53 6  405 239 
 PAL  HZ I        22 9  0.70         4.9 0.22            101            405 239 
 SJC  HZ EP   4   22 8  9.34                             106   -1.78 0  410 327 
 SJC  HN ES   4   22 8 50.45                             106   -4.18 0  410 327 
 SJC  HZ I        22 9  4.95         6.7 0.62            101            410 327 
 CRJC HZ EP   9   22 8 15.56                             104   -2.50 0  469   4 
 CRJC HE ES       22 9  3.60                             104   -0.89 5  469   4 
 CRJC HZ I        22 9 11.97        17.7 0.76             99            469   4 
                                                                                
