 2010 1023 2158 49.0 L   6.812 -73.089145.5  RSN  5 0.2 1.6LRSN                1
 GAP=239        0.46       4.3    13.9  5.7  0.2011E+02  0.2158E+02 -0.6950E+00E
 Epicentro: LOS SANTOS - SANTANDER                                             3
 ACTION:UP  11-02-18 11:11 OP:tino STATUS:               ID:20101023215849 L   I
 2010-10-23-2154-57S.COL___128                                                 6
 STAT SP IPHASW D HRMM SECON CODA AMPLIT PERI AZIMU VELO SNR AR TRES W  DIS CAZ7
 BTL  SZ EP   1   2159  8.44                             170    -0.2 7   23 301 
 BAR2 SZ EP   1   2159  8.78                             169     0.1 7   27 203 
 BAR2 SZ ES   1   2159 24.02                             169     0.0 7   27 203 
 BAR2 SZ I        2159 25.32        10.2 0.33                            27 203 
 BRR  HZ EP   1   2159 10.52                             151     0.1 7   76 295 
 BRR  HZ I        2159 30.20        17.5 0.31                            76 295 
 RUS  HZ EP   1   2159 12.61                             144    -0.2 7  102 180 
 RUS  HN ES   1   2159 31.54                             144     0.2 7  102 180 
 RUS  HZ I        2159 32.67         3.1 0.38                           102 180 
 CHI  HZ EP   2   2159 27.47                             117     0.4 4  252 196 
 CHI  HE ES   2   2159 56.31                             117    -0.4 4  252 196 
 CHI  HZ I        2159 59.90         2.5 0.45                           252 196 
                                                                                
