 2010  223 2210 38.5 L   7.406 -73.058124.9  RSN 10 0.4 2.4LRSN                1
 GAP=198        0.73       4.2     7.9  6.7  0.1513E+00  0.1078E+02  0.7870E+01E
 Epicentro: SURATA - SANTANDER                                                 3
 ACTION:UP  10-08-24 09:50 OP:vdl  STATUS:               ID:20100223221038 L   I
 2010-02-23-2209-09S.COL___094                                                 6
 STAT SP IPHASW D HRMM SECON CODA AMPLIT PERI AZIMU VELO SNR AR TRES W  DIS CAZ7
 GIR2 SZ EP   1   2210 56.15                             162     0.2 7   39 203 
 GIR2 SZ ES   2   2211  9.94                             162     0.3 5   39 203 
 BRR  HZ EP   1   2210 57.30                             146    -0.7 7   79 246 
 BRR  HZ I        2210 57.79       102.9 0.09                            79 246 
 BRR  HN ES   2   2211 12.50                             146    -0.7 5   79 246 
 BAR2 SZ EP   1   2210 59.18                             142     0.0 7   91 189 
 BAR2 SZ ES   2   2211 15.53                             142     0.3 5   91 189 
 OCA  SZ EP   1   2210 59.51                             140     0.0 7   97 343 
 OCA  SZ ES   2   2211 16.35                             140     0.5 5   97 343 
 OCA  SZ I        2211 20.07        79.4 0.30                            97 343 
 RUS  BZ EP   1   2211  6.19                             123    -0.2 7  167 181 
 RUS  BN ES   2   2211 27.90                             123    -0.3 5  167 181 
 RUS  BZ I        2211 29.38        16.6 0.29                           167 181 
 HEL  HZ EP   1   2211 21.15                             108    -0.3 5  304 244 
 HEL  HE ES   2   2211 55.20                             108     0.2 4  304 244 
 HEL  HZ I        2212  2.00         9.5 0.57                           304 244 
 CHI  HZ EP   1   2211 23.15                             107     0.3 5  316 194 
 CHI  HE ES   2   2211 57.64                             107     0.2 3  316 194 
 CHI  HZ I        2212  8.47         5.4 0.44                           316 194 
 RREF BZ EP   1   2211 30.89                             104     0.8 5  375 223 
 RREF BZ I        2212 17.23        12.6 0.30                           375 223 
 TOL  SZ EP   1   2211 33.14                             102     0.5 4  400 219 
 TOL  SZ ES   2   2212 15.68                             102     0.7 3  400 219 
 PRA  HZ EP   1   2211 38.14                             100    -0.8 4  456 206 
 PRA  HN ES   2   2212 26.86                             100     0.7 2  456 206 
 PRA  HZ I        2212 40.15         7.5 0.27                           456 206 
                                                                                
