 2012 1123 2240 20.5 L   6.811 -73.154141.6  RSN 10 0.3 2.0LRSN                1
 GAP= 77        0.86       2.8     3.0  4.6 -0.7281E+00  0.3252E+01  0.1104E+01E
 Epicentro: LOS SANTOS - SANTANDER                                             3
 ACTION:UPD 12-12-05 15:35 OP:}ep  STATUS:               ID:20121123224020 L   I
 2012-11-23-2240-00M.COL___233                                                 6
 STAT SP IPHASW D HRMM SECON CODA AMPLIT PERI AZIMU VELO AIN AR TRES W  DIS CAZ7
 BAR2 SZ EP       2240 39.78                             170    0.1010 24.4 187 
 BAR2 SZ ES       2240 54.66                             170    0.0410 24.4 187 
 BAR2 SZ I        2240 57.57        18.9 0.28                          24.4 187 
 GIR2 SZ ES       2240 54.04                             167   -0.5610 29.9 352 
 PAM  SZ EP       2240 42.84                             150    0.5610 77.1  41 
 PAM  SZ I        2240 43.07        10.9 0.44                          77.1  41 
 PAM  SN ES       2240 59.93                             150    0.6810 77.1  41 
 RUS  HZ EP       2240 43.88                             143   -0.0910  102 176 
 RUS  HN ES       2241  2.27                             143    0.0210  102 176 
 RUS  HN I        2241  4.46         6.1 0.42                           102 176 
 PTB  HZ EP       2240 46.82                             131   -0.28 9  147 258 
 PTB  HN ES       2241  7.95                             131    0.13 9  147 258 
 PTB  HN I        2241 13.64        19.0 0.30                           147 258 
 TAM  HZ IP       2240 48.15                             129    0.15 9  156 105 
 TAM  HN ES       2241  8.74                             129   -0.68 9  156 105 
 TAM  HN I        2241 10.64        18.7 0.38                           156 105 
 NOR  HZ EP       2240 56.20                             118    0.19 8  235 234 
 NOR  HN ES       2241 23.65                             118   -0.04 8  235 234 
 NOR  HN I        2241 32.47        12.5 0.16                           235 234 
 SML  HZ EP       2240 56.41                             117   -0.35 8  242 335 
 SML  HN ES       2241 24.77                             117   -0.25 8  242 335 
 CHI  HZ EP       2240 58.12                             116    0.02 8  250 195 
 CHI  HN ES       2241 27.57                             116    0.16 8  250 195 
 CHI  HN I        2241 31.16         6.7 0.26                           250 195 
 HEL  HZ EP   2   2241  0.60                             114    0.14 4  271 255 
                                                                                
