 2012 1223 2203  9.8 L   6.788 -73.189136.6  RSN  4 0.4 1.6LRSN                1
 GAP=232        1.01       7.7     7.4  8.2  0.2888E+02  0.7313E+01  0.3435E+01E
 Epicentro: LOS SANTOS - SANTANDER                                             3
 ACTION:UPD 13-01-04 14:30 OP:ep   STATUS:               ID:20121223220309 L   I
 2012-12-23-2200-00M.COL___243                                                 6
 STAT SP IPHASW D HRMM SECON CODA AMPLIT PERI AZIMU VELO AIN AR TRES W  DIS CAZ7
 BAR2 SZ EP       22 3 28.30                             171    0.0310 21.6 178 
 BAR2 SZ ES       22 3 42.00                             171   -0.6910 21.6 178 
 BAR2 SZ I        22 3 44.11        10.8 0.30                          21.6 178 
 BRR  HZ EP       22 3 30.08                             152    0.3410 67.7 301 
 BRR  HN ES       22 3 45.64                             152    0.3410 67.7 301 
 RUS  HZ EP       22 3 32.44                             142   -0.1310 99.7 173 
 RUS  HN ES       22 3 50.87                             142    0.5210 99.7 173 
 PTB  HZ EP       22 3 35.12                             131   -0.43 9  143 259 
 PTB  HN ES       22 3 55.61                             131   -0.04 9  143 259 
                                                                                
