 2012  423 2014 52.7 L   7.373 -73.310122.6  RSN  7 0.1 2.3LRSN                1
 GAP= 94        0.43       1.6     1.9  3.1 -0.1537E+00  0.1113E+01  0.3265E+00E
 Epicentro: EL PLAYON - SANTANDER                                              3
 ACTION:UPD 12-07-05 11:55 OP:tino STATUS:               ID:20120423201452 L   I
 2012-04-23-2010-00M.COL___186                                                 6
 STAT SP IPHASW D HRMM SECON CODA AMPLIT PERI AZIMU VELO AIN AR TRES W  DIS CAZ7
 BRR  HZ EP       2015 10.50                             155     0.210   53 237 
 BRR  HE ES       2015 24.26                             155     0.210   53 237 
 BRR  HZ I        2015 25.43       126.5 0.16                            53 237 
 PAM  SZ EP       2015 11.95                             150     0.110   67  93 
 PAM  SE ES       2015 26.78                             150     0.010   67  93 
 BAR2 SZ EP       2015 12.97                             142     0.110   87 171 
 BAR2 SZ ES       2015 28.34                             142    -0.210   87 171 
 BAR2 SZ I        2015 29.83        38.1 0.42                            87 171 
 OCA  SZ EP       2015 13.25                             140    -0.110   96 359 
 OCA  SZ ES       2015 29.40                             140    -0.110   96 359 
 PTB  HZ EP       2015 18.59                             124    -0.1 9  157 234 
 PTB  HE ES   1   2015 39.07                             124     0.0 7  157 234 
 RUS  HZ EP   1   2015 20.30                             123     0.0 7  166 171 
 RUS  HE ES   1   2015 41.71                             123    -0.1 7  166 171 
 ZAR  HE ES   1   2015 41.68                             122    -0.1 7  171 275 
 ZAR  HZ I        2015 46.14        11.6 0.09                           171 275 
                                                                                
