 2015  123 2251 47.0 L   6.821 -73.154140.2  RSN  8 0.4 1.8LRSN                1
 GAP=134        0.84       3.0     3.7  6.0 -0.8677E+00  0.7667E+01 -0.4144E+01E
 Epicentro: LOS SANTOS - SANTANDER                                             3
 ACTION:UPD 15-03-02 15:41 OP:nd   STATUS:               ID:20150123225147 L   I
 OLDACT:UP  15-01-24 05:10 OP:mh   STATUS:               ID:20150123224744     3
 OLDACT:REG 15-01-24 02:53 OP:mh   STATUS:               ID:20150123224744     3
 2015-01-23-2247-44M.COL___268                                                 6
 STAT SP IPHASW D HRMM SECON CODA AMPLIT PERI AZIMU VELO AIN AR TRES W  DIS CAZ7
 BAR2 EZ EP   1   2252  5.91                             169   -0.13 7 25.5 187 
 BAR2 EZ ES       2252 21.00                             169    0.1410 25.5 187 
 BAR2 EZ I        2252 22.12        12.1 0.20            169           25.5 187 
 PAM  SZ EP       2252  8.47                             150   -0.1110 76.2  41 
 PAM  SN ES   1   2252 25.49                             150    0.10 7 76.2  41 
 PAM  SZ I        2252 27.18         5.1 0.16            154           76.2  41 
 RUS  HZ EP       2252 10.30                             142   -0.1110  103 176 
 RUS  HN ES       2252 28.66                             142    0.0110  103 176 
 RUS  HZ I        2252 30.53         6.0 0.18            145            103 176 
 PTB  HZ EP   1   2252 13.01                             131   -0.49 7  147 258 
 PTB  HN ES       2252 33.73                             131   -0.43 9  147 258 
 PTB  HZ I        2252 36.39         8.9 0.12            130            147 258 
 SPBC HZ EP       2252 15.21                             127   -0.01 9  164 218 
 SPBC HN ES       2252 37.39                             127    0.17 9  164 218 
 SPBC HZ I        2252 43.56         8.7 0.22            128            164 218 
 ZAR  HZ EP       2252 19.90                             121    0.97 9  202 292 
 ZAR  HN ES       2252 43.41                             121   -0.41 9  202 292 
 ZAR  HZ I        2252 49.95         7.0 0.52            122            202 292 
 NOR  HZ EP   1   2252 22.24                             117   -0.26 6  235 234 
 NOR  HN ES   1   2252 50.83                             117    0.65 6  235 234 
 NOR  HZ I        2252 55.82         5.7 0.17            118            235 234 
 SML  HZ EP   1   2252 22.58                             116   -0.49 6  241 335 
 SML  HN ES       2252 51.51                             116    0.32 8  241 335 
 SML  HZ I        2252 57.76         8.7 0.22            118            241 335 
                                                                                
