 2012  423 2249 36.9 L   6.801 -73.096144.0  RSN  4 0.4 1.7LRSN                1
 GAP=243        1.02      13.9    15.7  9.8  0.1827E+03 -0.1530E+02 -0.2365E+02E
 Epicentro: LOS SANTOS - SANTANDER                                             3
 ACTION:UPD 12-07-05 11:55 OP:tino STATUS:               ID:20120423224936 L   I
 2012-04-23-2244-38M.COL___177                                                 6
 STAT SP IPHASW D HRMM SECON CODA AMPLIT PERI AZIMU VELO AIN AR TRES W  DIS CAZ7
 BAR2 SZ EP       2249 56.15                             170    -0.210   25 203 
 BAR2 SZ ES   1   2250 11.19                             170    -0.3 7   25 203 
 BAR2 SZ I        2250 14.75         9.1 0.51                            25 203 
 BRR  HZ EP       2249 58.06                             151     0.010   76 296 
 BRR  HE ES       2250 15.00                             151     0.310   76 296 
 BRR  HZ I        2250 21.17        22.5 0.32                            76 296 
 RUS  HZ EP   1   2250  0.13                             144    -0.3 7  101 179 
 RUS  HN ES   1   2250 19.18                             144     0.4 7  101 179 
 RUS  HZ I        2250 20.76         4.3 0.46                           101 179 
 ZAR  HZ EP   1   2250 10.46                             121     0.7 6  209 292 
 ZAR  HE ES   1   2250 34.55                             121    -0.8 6  209 292 
 ZAR  HZ I        2250 39.86         6.2 0.15                           209 292 
                                                                                
