 2016 1223 2239  6.7 L   6.774 -73.113145.9  RSN  7 0.3 1.4LRSN                1
 GAP=142        0.84       3.9     3.6  5.7 -0.9695E+00  0.6254E+01  0.2555E+01E
 Epicentro: LOS SANTOS - SANTANDER                                             3
 ACTION:UPD 17-01-11 20:18 OP:rebc STATUS:               ID:20161223223906 L   I
 OLDACT:REG 16-12-24 03:06 OP:and  STATUS:               ID:20161223223742     3
 2016-12-23-2238-00M.COL___390                                                 6
 STAT SP IPHASW D HRMM SECON CODA AMPLIT PERI AZIMU VELO AIN AR TRES W  DIS CAZ7
 BAR2 EZ ES       2239 42.18                             171    0.5610 21.5 201 
 BAR2 EZ I        2239 43.59         9.1 0.26            172           21.5 201 
 BRR  HZ EP       2239 28.41                             151    0.2710 75.8 299 
 BRR  HE ES       2239 45.02                             151    0.1710 75.8 299 
 PAM  EZ EP       2239 29.13                             151    0.1810 77.4  36 
 PAM  EN ES       2239 45.83                             151   -0.4610 77.4  36 
 PAM  EZ I        2239 48.64         3.1 0.48            152           77.4  36 
 RUS  HZ EP       2239 30.40                             145    0.1410 97.5 178 
 RUS  HN ES       2239 48.24                             145   -0.3810 97.5 178 
 PTB  HZ EP       2239 33.50                             131   -0.47 9  151 260 
 PTB  HE ES       2239 54.97                             131   -0.26 9  151 260 
 PTB  HZ I        2239 57.43         2.1 0.16            132            151 260 
 ZAR  HE ES       2240  5.22                             122   -0.08 8  209 293 
 ZAR  HZ I        2240 10.43         2.0 0.24            122            209 293 
 NOR  HZ EP       2239 42.84                             118    0.25 8  236 236 
 NOR  HN ES       2240 10.65                             118    0.08 8  236 236 
 NOR  HZ I        2240 13.16         2.0 0.22            119            236 236 
                                                                                
