 2013  623 2355 54.2 L   6.769 -73.130147.0  RSN  7 0.3 2.0LRSN                1
 GAP=140        0.69       3.7     4.2  6.0 -0.5026E+00  0.3738E+01 -0.4659E+00E
 Epicentro: LOS SANTOS - SANTANDER                                             3
 ACTION:UPD 14-01-08 09:56 OP:ep   STATUS:               ID:20130623235554 L   I
 OLDACT:REG 13-06-23 23:43 OP:mh   STATUS:               ID:20130623234959     3
 2013-06-23-2349-59M.COL___267                                                 6
 STAT SP IPHASW D HRMM SECON CODA AMPLIT PERI AZIMU VELO AIN AR TRES W  DIS CAZ7
 BAR2 SZ EP   1   2356 13.94                             172    0.06 7 20.4 197 
 GIR2 SZ EP       2356 14.20                             166    0.1210 35.0 348 
 GIR2 SZ I        2356 14.76        12.2 0.18            166           35.0 348 
 BRR  HZ IP     C 2356 15.94                             152    0.3210 74.4 300 
 BRR  HN ES       2356 32.72                             152    0.3610 74.4 300 
 BRR  HN I        2356 34.16        24.8 0.20            151           74.4 300 
 PAM  SZ EP   1   2356 16.82                             151    0.22 7 79.0  37 
 PAM  SN ES       2356 33.84                             151   -0.2610 79.0  37 
 PAM  SN I        2356 35.26        10.9 0.18            154           79.0  37 
 RUS  HZ EP   1   2356 18.06                             145    0.28 7 97.0 177 
 RUS  HN ES   1   2356 35.75                             145   -0.45 7 97.0 177 
 RUS  HZ I        2356 37.79         6.1 0.26            147           97.0 177 
 PTB  HZ EP   1   2356 20.82                             132   -0.50 7  149 260 
 PTB  HN ES   1   2356 42.31                             132   -0.20 7  149 260 
 PTB  HN I        2356 47.03        17.0 0.28            132            149 260 
 SML  HZ EP   1   2356 30.95                             117   -0.32 6  248 335 
 SML  HN ES   1   2356 59.79                             117   -0.43 6  248 335 
 SML  HN I        2357  2.48        19.5 0.10            119            248 335 
                                                                                
