 2011  623 2218 20.0 L   6.767 -73.138144.5  RSN 14 0.4 3.0LRSN                1
 GAP= 84        0.96       4.2     5.9  6.2 -0.4455E+01  0.1440E+02  0.5288E+01E
 Epicentro: LOS SANTOS - SANTANDER                                             3
 ACTION:UP  11-07-14 19:07 OP:ep   STATUS:               ID:20110623221820 L   I
 2011-06-23-2216-46S.COL___137                                                 6
 STAT SP IPHASW D HRMM SECON CODA AMPLIT PERI AZIMU VELO SNR AR TRES W  DIS CAZ7
 SAN  SZ EP       2218 39.95                             177     0.710    7  92 
 BAR2 SZ IP       2218 39.42                             172     0.010   20 194 
 BAR2 SZ ES   1   2218 54.45                             172    -0.1 7   20 194 
 BAR2 SZ I        2218 55.80       398.0 0.20                            20 194 
 GIR2 SZ EP       2218 39.72                             166     0.110   35 350 
 GIR2 SZ ES   1   2218 54.20                             166    -0.8 7   35 350 
 BRR  HZ IP     C 2218 41.35                             151     0.210   74 301 
 BRR  HN ES   1   2218 58.43                             151     0.7 7   74 301 
 BRR  HZ I        2219  0.24       242.5 0.16                            74 301 
 PAM  SZ EP   1   2218 42.29                             150     0.0 7   80  37 
 PAM  SN ES   1   2218 59.48                             150    -0.1 7   80  37 
 RUS  HZ IP     C 2218 43.34                             145    -0.110   97 176 
 RUS  HN ES   1   2219  1.29                             145    -0.3 7   97 176 
 RUS  HZ I        2219  2.88        89.9 0.27                            97 176 
 OCA  SZ EP   1   2218 48.02                             129    -0.6 7  164 353 
 OCA  SZ I        2219 13.43       109.2 0.20                           164 353 
 NOR  SZ EP       2218 55.32                             118    -0.2 8  233 235 
 CHI  HZ EP   1   2218 56.94                             117    -0.4 6  245 196 
 CHI  HN ES   1   2219 27.21                             117     0.8 6  245 196 
 CHI  HZ I        2219 34.69        51.7 0.23                           245 196 
 ROSC BN ES   1   2219 26.67                             117    -0.6 6  250 212 
 ROSC BZ I        2219 33.61       113.9 0.69                           250 212 
 HEL  HZ EP   1   2219  0.22                             114     0.0 6  272 257 
 HEL  HN ES   1   2219 31.30                             114    -0.2 6  272 257 
 HEL  HZ I        2219 39.91        47.2 0.14                           272 257 
 DBB  SZ EP       2219  7.51                             109    -0.1 7  341 275 
 TOL  SZ EP   1   2219  8.38                             109     0.4 5  342 225 
 PRA  HZ EP       2219 13.06                             106    -0.1 6  389 210 
                                                                                
