 2016 1023 2142 37.1 L   6.747 -73.124144.0  RSN  5 0.4 1.5LRSN                1
 GAP=142        0.91       5.1     5.0  8.0 -0.4055E+01  0.5017E+01 -0.4975E+01E
 Epicentro: LOS SANTOS - SANTANDER                                             3
 ACTION:UPD 16-11-09 19:22 OP:rebc STATUS:               ID:20161023214238dL   I
 OLDACT:REG 16-10-24 02:36 OP:y    STATUS:               ID:20161023213750     3
 2016-10-23-2138-00M.COL___359                                                 6
 STAT SP IPHASW D HRMM SECON CODA AMPLIT PERI AZIMU VELO AIN AR TRES W  DIS CAZ7
 BAR2 EZ EP   2   2142 56.47                             172    0.07 5 18.2 201 
 BAR2 EZ ES       2143 10.66                             172   -0.8110 18.2 201 
 BAR2 EZ I        2143 13.05         8.8 0.22            171           18.2 201 
 BRR  HZ EP       2142 58.37                             150    0.0410 76.2 302 
 BRR  HN ES       2143 15.18                             150    0.2810 76.2 302 
 BRR  HZ I        2143 16.25        10.5 0.38            150           76.2 302 
 PAM  EZ EP       2142 59.37                             149    0.0710 80.6  36 
 PAM  EN ES       2143 16.74                             149    0.1010 80.6  36 
 PAM  EZ I        2143 18.94         4.5 0.58            152           80.6  36 
 RUS  HZ EP   2   2143  0.51                             145    0.29 5 94.5 177 
 RUS  HE ES       2143 18.66                             145    0.3810 94.5 177 
 RUS  HZ I        2143 20.33         2.9 0.28            146           94.5 177 
 PTB  HZ EP   2   2143  3.03                             131   -0.99 5  149 261 
 PTB  HE ES       2143 25.12                             131    0.08 9  149 261 
 PTB  HZ I        2143 31.07         2.6 0.24            131            149 261 
                                                                                
