 2010  623 2113 46.1 L   6.751 -73.131144.0  RSN  6 0.5 1.8LRSN                1
 GAP=158        1.06       8.7    13.5 12.5 -0.5638E+02 -0.6911E+02  0.3160E+02E
 Epicentro: LOS SANTOS - SANTANDER                                             3
 ACTION:UP  10-08-24 10:12 OP:vdl  STATUS:               ID:20100623211346 L   I
 2010-06-23-2112-09S.COL___118                                                 6
 STAT SP IPHASW D HRMM SECON CODA AMPLIT PERI AZIMU VELO SNR AR TRES W  DIS CAZ7
 BAR2 SZ ES   2   2114 19.95                             172    -0.5 5   19 198 
 BRR  HZ EP   1   2114  7.24                             151     0.0 8   75 302 
 BRR  HE ES   1   2114 23.95                             151     0.2 8   75 302 
 BRR  HZ I        2114 24.97        26.2 0.52                            75 302 
 RUS  HZ EP   1   2114  9.32                             145     0.1 8   95 177 
 RUS  HZ I        2114 28.87         5.4 0.26                            95 177 
 BRI  SZ EP   1   2114 10.98                             140     0.8 8  113  19 
 BRI  SZ ES   1   2114 29.61                             140     0.7 8  113  19 
 GUE  SZ EP   1   2114 10.46                             138    -0.6 8  122  11 
 GRA  SZ IP       2114 11.34                             135    -0.210  130  16 
 GRA  SZ ES   1   2114 30.77                             135    -0.7 7  130  16 
                                                                                
