 2010  723 2150 57.5 L   6.789 -73.078138.9  RSN 14 0.7 2.9LRSN                1
 GAP=131        1.67       5.1     8.6  9.3 -0.2020E+02  0.3342E+01  0.5653E+01E
 Epicentro: LOS SANTOS - SANTANDER                                             3
 ACTION:UPD 10-12-01 15:19 OP:pat  STATUS:               ID:20100723215057 L   I
 2010-07-23-2148-14S.COL___122                                                 6
 STAT SP IPHASW D HRMM SECON CODA AMPLIT PERI AZIMU VELO AIN AR TRES W  DIS CAZ7
 BAR2 SZ EP       2151 16.33                             169     0.010   25 208 
 BAR2 SZ ES   1   2151 30.17                             169    -0.9 7   25 208 
 BAR2 SZ I        2151 32.17       272.5 0.41                            25 208 
 GIR2 SZ EP       2151 15.50                             165    -1.010   35 338 
 BRR  HZ IP       2151 18.31                             149    -0.110   79 297 
 BRR  HN ES       2151 35.19                             149     0.510   79 297 
 BRR  HZ I        2151 39.47       189.6 0.11                            79 297 
 RUS  HZ EP       2151 20.33                             143    -0.210   99 180 
 RUS  HN ES       2151 38.59                             143     0.210   99 180 
 RUS  HZ I        2151 39.58       130.2 0.17                            99 180 
 BRI  SZ EP       2151 21.09                             140     0.410  107  17 
 BRI  SZ ES   1   2151 39.84                             140     1.1 7  107  17 
 BRI  SZ I        2151 41.30        63.7 0.34                           107  17 
 GUE  SZ EP       2151 21.45                             138    -0.210  116   8 
 GUE  SZ I        2151 22.43        57.7 0.05                           116   8 
 GRA  SZ IP       2151 22.39                             136     0.310  125  14 
 GRA  SZ I        2151 23.73       126.9 0.35                           125  14 
 GRA  SZ ES   1   2151 41.40                             136     0.1 7  125  14 
 OCA  SZ EP       2151 25.10                             127    -0.4 9  163 351 
 OCA  SZ ES   1   2151 46.93                             127    -0.4 7  163 351 
 OCA  SZ I        2151 50.71       134.6 0.53                           163 351 
 CHI  HZ EP   1   2151 34.89                             115    -0.1 6  249 197 
 CHI  HN ES   1   2152  3.81                             115    -0.3 6  249 197 
 CHI  HZ I        2152  7.17        48.2 0.08                           249 197 
 ROSC BZ EP       2151 36.58                             115     1.0 8  256 213 
 ROSC BN ES   1   2152  4.92                             115    -0.4 6  256 213 
 ROSC BZ I        2152 10.60        41.0 0.54                           256 213 
 HEL  HZ EP   1   2151 38.20                             113     0.0 6  279 256 
 HEL  HN ES   1   2152  7.95                             113    -1.9 6  279 256 
 HEL  HZ I        2152 15.34        38.1 0.56                           279 256 
 RREF HZ EP       2151 44.70                             109     0.8 7  327 230 
 RREF HN ES       2152 21.47                             109     1.3 7  327 230 
 RREF HZ I        2152 24.35        47.8 0.77                           327 230 
 SDV  BZ EP       2151 46.25                             107    -0.5 6  355  49 
 SDV  BZ I        2151 47.06        26.1 0.28                           355  49 
 PRA  HZ EP   1   2151 51.07                             105    -0.1 4  395 211 
 PRA  HN ES   1   2152 32.11                             105    -0.8 4  395 211 
 PRA  HZ I        2152 37.09        29.9 0.89                           395 211 
                                                                                
