 2012 1023 2116 23.1 L   6.808 -73.143148.3  RSN  9 0.2 2.3LRSN                1
 GAP=136        0.37       1.9     2.1  3.0 -0.1543E+00  0.1861E+01  0.1945E+01E
 Epicentro: LOS SANTOS - SANTANDER                                             3
 ACTION:UPD 12-11-22 17:05 OP:ep   STATUS:               ID:20121023211623 L   I
 2012-10-23-2110-00M.COL___234                                                 6
 STAT SP IPHASW D HRMM SECON CODA AMPLIT PERI AZIMU VELO AIN AR TRES W  DIS CAZ7
 BAR2 SZ EP   1   2116 42.96                             170   -0.04 7 24.3 190 
 BAR2 SZ ES   1   2116 58.44                             170   -0.12 7 24.3 190 
 BAR2 SZ I        2117  0.46        40.6 0.24                          24.3 190 
 GIR2 SZ EP   1   2116 43.02                             168    0.02 7 30.4 349 
 GIR2 SZ ES   1   2116 58.38                             168   -0.18 7 30.4 349 
 BRR  HZ EP   1   2116 44.67                             153    0.21 7 71.0 298 
 BRR  HZ I        2116 45.08        48.0 0.12                          71.0 298 
 BRR  HN ES   1   2117  1.50                             153    0.34 7 71.0 298 
 PAM  SZ EP   1   2116 45.70                             152    0.22 7 76.5  40 
 PAM  SZ I        2116 45.93        20.8 0.16                          76.5  40 
 PAM  SN ES   1   2117  2.80                             152   -0.18 7 76.5  40 
 RUS  HZ EP   1   2116 46.95                             144   -0.16 7  101 176 
 RUS  HN ES   1   2117  6.01                             144    0.13 7  101 176 
 RUS  HN I        2117  7.47        33.7 0.32                           101 176 
 ZAR  HN ES   1   2117 21.01                             123   -0.08 6  204 292 
 ZAR  HZ I        2117 26.65        26.6 0.28                           204 292 
 NOR  HZ EP   1   2116 58.83                             119   -0.18 6  235 234 
 NOR  HZ I        2116 59.97         6.4 0.15                           235 234 
 NOR  HN ES   1   2117 27.01                             119   -0.05 6  235 234 
 CHI  HZ EP   1   2117  0.95                             117   -0.05 6  250 195 
 CHI  HN ES   1   2117 30.80                             117    0.21 6  250 195 
 CHI  HN I        2117 36.79        14.7 0.28                           250 195 
 HEL  HN ES   1   2117 34.77                             115   -0.19 6  273 256 
                                                                                
