 2011  923 2006 20.5 L   6.766 -73.117138.7  RSN  8 0.2 1.8LRSN                1
 GAP=142        0.38       2.9     3.7  5.1  0.1656E+01  0.6240E+01  0.5283E+01E
 Epicentro: LOS SANTOS - SANTANDER                                             3
 ACTION:UPD 12-07-13 15:59 OP:ep   STATUS:               ID:20110923200620 L   I
 2011-09-23-2006-23S.COL___165                                                 6
 STAT SP IPHASW D HRMM SECON CODA AMPLIT PERI AZIMU VELO AIN AR TRES W  DIS CAZ7
 BAR2 SZ EP   1   20 6 39.23                             171   -0.01 7 20.6 200 
 BAR2 SZ ES   2   20 6 53.30                             171   -0.54 5 20.6 200 
 BAR2 SZ I        20 6 55.35        19.0 0.31                          20.6 200 
 BTL  SZ EP   2   20 6 39.38                             170    0.08 5 23.6 315 
 BRR  HZ EP   1   20 6 41.10                             150   -0.07 7 75.8 300 
 BRR  HZ I        20 6 49.61        15.3 0.39                          75.8 300 
 BRR  HN ES   2   20 6 57.54                             150    0.25 5 75.8 300 
 PAM  SE ES   2   20 6 58.94                             149    0.11 5 78.4  36 
 RUS  HZ EP   1   20 6 43.32                             143    0.03 7 96.7 178 
 RUS  HE ES   2   20 7  1.43                             143    0.38 5 96.7 178 
 RUS  HZ I        20 7  3.72         6.1 0.29                          96.7 178 
 ZAR  HE ES   2   20 7 18.10                             120   -0.17 4  208 293 
 ZAR  HZ I        20 7 23.43         9.7 0.24                           208 293 
 NOR  SZ EP   2   20 6 55.78                             117   -0.11 4  235 236 
 NOR  SN ES   2   20 7 23.87                             117    0.39 4  235 236 
 CHI  HZ EP   2   20 6 57.55                             116    0.03 4  246 196 
 CHI  HN ES   2   20 7 26.00                             116   -0.40 4  246 196 
 CHI  HZ I        20 7 34.11         4.9 0.52                           246 196 
                                                                                
