 2010  323 2242 34.9 L   6.793 -73.091148.3  RSN  5 0.2 1.7LRSN                1
 GAP=243        0.45       4.0     9.0  4.7  0.2023E+02  0.1158E+02  0.7227E+01E
 Epicentro: LOS SANTOS - SANTANDER                                             3
 ACTION:UP  10-08-24 09:55 OP:vdl  STATUS:               ID:20100323224234 L   I
 2010-03-23-2238-28S.COL___098                                                 6
 STAT SP IPHASW D HRMM SECON CODA AMPLIT PERI AZIMU VELO SNR AR TRES W  DIS CAZ7
 BAR2 SZ ES   2   2243 10.97                             170     0.5 5   24 205 
 BRR  HZ IP       2242 56.60                             151    -0.110   77 297 
 BRR  HE ES   1   2243 13.59                             151     0.0 7   77 297 
 BRR  HZ I        2243 17.58        10.5 0.26                            77 297 
 RUS  HZ EP   2   2242 58.73                             145    -0.1 5  100 180 
 RUS  HZ I        2242 59.51         3.7 0.29                           100 180 
 RUS  HN ES   1   2243 17.25                             145    -0.2 7  100 180 
 CHI  HZ EP   1   2243 13.06                             117     0.2 6  249 197 
 CHI  HE ES   2   2243 42.43                             117     0.0 4  249 197 
 CHI  HZ I        2243 52.44         3.3 0.58                           249 197 
 PRA  HZ IP       2243 28.89                             107     0.1 6  394 210 
 PRA  HE ES   2   2244 10.82                             107     0.0 3  394 210 
 PRA  HZ I        2244 17.24         3.7 0.34                           394 210 
                                                                                
