 2013 1023 2252 27.7 L   6.830 -73.173144.0  RSN  8 0.3 1.8LRSN                1
 GAP=132        0.69       2.6     3.4  6.2 -0.1110E+01  0.4298E+01 -0.2142E+01E
 Epicentro: LOS SANTOS - SANTANDER                                             3
 ACTION:UPD 13-11-25 09:23 OP:ep   STATUS:               ID:20131023225227 L   I
 OLDACT:UP  13-10-24 00:55 OP:mh   STATUS:               ID:20131023224842     3
 OLDACT:REG 13-10-23 22:17 OP:mh   STATUS:               ID:20131023224842     3
 2013-10-23-2248-42M.COL___218                                                 6
 STAT SP IPHASW D HRMM SECON CODA AMPLIT PERI AZIMU VELO AIN AR TRES W  DIS CAZ7
 PAM  SZ EP   1   2252 50.01                             151    0.31 8 76.8  43 
 PAM  SN ES   1   2253  7.23                             151    0.37 8 76.8  43 
 PAM  SZ I        2253  9.41         8.2 0.21            157           76.8  43 
 RUS  HZ EP   1   2252 51.48                             143   -0.07 8  104 175 
 RUS  HN ES   1   2253  9.65                             143   -0.49 8  104 175 
 RUS  HZ I        2253 11.03         5.9 0.29            147            104 175 
 PTB  HZ EP   1   2252 53.94                             132   -0.38 7  146 257 
 PTB  HN ES       2253 15.32                             132    0.2310  146 257 
 PTB  HZ I        2253 22.78         7.0 0.36            135            146 257 
 SPBC HZ EP       2252 56.20                             129    0.0610  164 217 
 SPBC HN ES       2253 18.35                             129    0.0310  164 217 
 SPBC HZ I        2253 23.40        11.3 0.21            132            164 217 
 ZAR  HN ES       2253 24.55                             123    0.04 9  200 292 
 NOR  HZ EP   1   2253  3.45                             118    0.17 6  234 233 
 NOR  HN ES   1   2253 30.76                             118   -0.27 6  234 233 
 SML  HZ EP       2253  3.23                             118   -0.54 9  239 336 
 SML  HN ES       2253 31.80                             118   -0.10 9  239 336 
 GUY2CHZ EP   1   2253 12.08                             112    0.90 6  301 234 
 GUY2CHN ES   4   2253 49.88                             112    4.80 0  301 234 
 GUY2CHZ I        2253 54.16         3.7 0.47                           301 234 
                                                                                
