 2016 1223 2227  6.4 L   6.821 -73.110152.3  RSN 10 0.4 1.7LRSN                1
 GAP=140        0.92       3.5     4.5  5.5 -0.1616E+00  0.7616E+01  0.3960E+01E
 Epicentro: LOS SANTOS - SANTANDER                                             3
 ACTION:UPD 17-01-11 20:18 OP:rebc STATUS:               ID:20161223222706 L   I
 OLDACT:UP  16-12-24 07:10 OP:and  STATUS:               ID:20161223221748     3
 OLDACT:UP  16-12-24 07:09 OP:and  STATUS:               ID:20161223221748     3
 OLDACT:UP  16-12-24 07:08 OP:and  STATUS:               ID:20161223221748     3
 OLDACT:REG 16-12-24 03:04 OP:and  STATUS:               ID:20161223221748     3
 2016-12-23-2218-00M.COL___390                                                 6
 STAT SP IPHASW D HRMM SECON CODA AMPLIT PERI AZIMU VELO AIN AR TRES W  DIS CAZ7
 BAR2 EZ ES       2227 42.48                             170   -0.3610 26.5 198 
 BAR2 EZ I        2227 44.44        14.6 0.30            166           26.5 198 
 PAM  EZ IP     C 2227 29.43                             153    0.3810 73.1  38 
 PAM  EN ES       2227 46.75                             153    0.0110 73.1  38 
 PAM  EZ I        2227 47.85         5.1 0.16            158           73.1  38 
 BRR  HZ EP       2227 28.53                             153    0.1610 73.7 295 
 BRR  HN ES       2227 45.89                             153    0.3610 73.7 295 
 RUS  HZ EP       2227 30.58                             145   -0.3410  103 178 
 RUS  HN ES       2227 49.92                             145   -0.1510  103 178 
 RUS  HZ I        2227 52.18         6.6 0.40            145            103 178 
 PTB  HN ES   3   2227 54.78                             133   -1.25 2  152 258 
 PTB  HZ I        2228  2.09         8.6 0.48            131            152 258 
 ZAR  HN ES       2228  5.24                             123   -0.18 8  207 291 
 ZAR  HZ I        2228 13.35         5.3 0.34            123            207 291 
 NOR  HZ EP       2227 42.46                             119   -0.52 8  239 235 
 NOR  HN ES       2228 11.56                             119    0.03 8  239 235 
 NOR  HZ I        2228 14.45         3.5 0.30            119            239 235 
 CHI  HZ EP       2227 44.60                             118   -0.20 8  252 196 
 CHI  HN ES       2228 15.33                             118    0.56 8  252 196 
 CHI  HZ I        2228 22.81         1.7 0.68            119            252 196 
 GUY2CHZ EP       2227 51.75                             113    0.95 7  306 235 
 GUY2CHE ES   4   2228 27.67                             113    2.21 0  306 235 
 GUY2CHZ I        2228 33.63         2.5 0.31                           306 235 
 SJC  HZ EP       2228  1.44                             107   -0.75 6  409 326 
 SJC  HN ES   4   2228 43.22                             107   -2.50 0  409 326 
                                                                                
