 2010 1023 2051  0.8 L   6.748 -73.144145.3  RSN  7 0.3 1.8LRSN                1
 GAP=159        0.66       4.4     7.6  6.6  0.5897E+01 -0.1015E+01 -0.5170E+00E
 Epicentro: LOS SANTOS - SANTANDER                                             3
 ACTION:UP  11-02-18 11:11 OP:tino STATUS:               ID:20101023205100 L   I
 2010-10-23-2046-57S.COL___128                                                 6
 STAT SP IPHASW D HRMM SECON CODA AMPLIT PERI AZIMU VELO SNR AR TRES W  DIS CAZ7
 BAR2 SZ EP   2   2051 20.55                             173     0.3 5   18 194 
 BAR2 SZ ES   1   2051 35.41                             173     0.0 7   18 194 
 BAR2 SZ I        2051 37.95        15.4 0.34                            18 194 
 BTL  SZ IP       2051 20.49                             170     0.210   23 324 
 BRR  HZ IP     C 2051 21.95                             151    -0.110   74 302 
 BRR  HZ I        2051 22.20        32.9 0.18                            74 302 
 BRR  HE ES   1   2051 38.81                             151     0.2 7   74 302 
 RUS  HZ EP   1   2051 24.17                             145     0.1 7   95 176 
 RUS  HN ES   1   2051 42.02                             145    -0.2 7   95 176 
 RUS  HZ I        2051 44.77         5.3 0.36                            95 176 
 GRA  SZ EP   2   2051 25.55                             136    -0.9 5  131  17 
 GRA  SZ I        2051 52.90         6.4 0.36                           131  17 
 NOR  SN ES   2   2052  3.17                             119    -0.6 4  232 236 
 CHI  HZ EP   2   2051 38.56                             118     0.7 4  243 196 
 CHI  HZ I        2051 39.51         3.1 0.42                           243 196 
 CHI  HN ES   2   2052  6.60                             118    -0.2 4  243 196 
                                                                                
