 2010  923 2055 41.4 L   6.838 -73.257121.7  RSN  9 0.5 2.4LRSN                1
 GAP=140        0.91       4.1     6.9  8.8 -0.9411E+01  0.1325E+02 -0.5314E+00E
 Epicentro: ZAPATOCA - SANTANDER                                               3
 ACTION:UP  11-02-18 11:05 OP:tino STATUS:               ID:20100923205541 L   I
 2010-09-23-2050-38S.COL___119                                                 6
 STAT SP IPHASW D HRMM SECON CODA AMPLIT PERI AZIMU VELO SNR AR TRES W  DIS CAZ7
 BAR2 SZ EP   1   2055 58.58                             166     0.3 7   28 163 
 BAR2 SZ ES   2   2056 11.53                             166     0.1 5   28 163 
 BAR2 SZ I        2056 13.07       204.1 0.30                            28 163 
 BRR  HZ IP     D 2055 59.19                             153     0.010   58 301 
 BRR  HZ I        2056  2.23        98.0 0.14                            58 301 
 BRR  HE ES   2   2056 13.45                             153     0.4 5   58 301 
 RUS  HZ EP   1   2056  3.23                             137    -0.1 7  106 170 
 RUS  HN ES   2   2056 19.94                             137    -0.5 5  106 170 
 RUS  HZ I        2056 21.98        14.9 0.51                           106 170 
 GUE  SZ EP   1   2056  4.78                             134     0.9 7  116  18 
 GRA  SZ EP   1   2056  4.34                             131    -0.3 7  126  23 
 GRA  SZ ES   2   2056 22.29                             131    -0.4 5  126  23 
 GRA  SZ I        2056 26.07        51.7 0.34                           126  23 
 OCA  SZ IP     C 2056  7.22                             125    -0.2 9  155 357 
 OCA  SZ ES   2   2056 27.30                             125    -0.4 5  155 357 
 OCA  SZ I        2056 33.88        47.0 0.13                           155 357 
 NOR  SZ EP   1   2056 14.48                             114    -0.5 6  227 232 
 NOR  SE ES   2   2056 40.90                             114    -0.4 4  227 232 
 CHI  HZ EP   1   2056 18.68                             112     0.7 6  250 192 
 CHI  HE ES   2   2056 46.08                             112    -0.5 4  250 192 
 CHI  HZ I        2056 53.70         6.5 0.45                           250 192 
 HEL  HZ EP   1   2056 18.57                             111    -0.7 6  261 254 
 HEL  HN ES   2   2056 49.58                             111     0.8 4  261 254 
 HEL  HZ I        2056 52.91        21.4 0.31                           261 254 
                                                                                
