 2011 1023 2333  5.0 L   6.865 -73.274123.1  RSN  6 0.2 1.5LRSN                1
 GAP=123        0.36       2.6     3.5  4.0  0.3523E+01  0.4350E+01  0.2595E+01E
 Epicentro: ZAPATOCA - SANTANDER                                               3
 ACTION:UPD 12-07-13 16:05 OP:ep   STATUS:               ID:20111023233305 L   I
 2011-10-23-2331-03S.COL___171                                                 6
 STAT SP IPHASW D HRMM SECON CODA AMPLIT PERI AZIMU VELO AIN AR TRES W  DIS CAZ7
 GIR2 SZ EP       2333 21.78                             168   -0.0310 25.3  21 
 GIR2 SZ ES   1   2333 34.91                             168   -0.01 7 25.3  21 
 BAR2 SZ EP       2333 22.13                             165   -0.0110 31.8 161 
 BAR2 SZ I        2333 22.30        17.5 0.12                          31.8 161 
 BAR2 SZ ES   2   2333 35.41                             165   -0.11 5 31.8 161 
 BRR  HZ EP       2333 22.65                             154   -0.1510 55.3 299 
 BRR  HN ES   2   2333 36.60                             154   -0.09 5 55.3 299 
 BRR  HZ I        2333 37.73         8.5 0.16                          55.3 299 
 PAM  SE ES   2   2333 41.26                             144    0.30 5 82.4  50 
 RUS  HZ EP   1   2333 27.39                             136    0.06 7  110 169 
 RUS  HN ES   1   2333 44.84                             136    0.08 7  110 169 
 ZAR  HN ES   2   2333 57.78                             119    0.51 4  188 292 
 ZAR  HZ I        2334  0.41         2.2 0.12                           188 292 
                                                                                
