 2011  423 2218 25.5 L   6.795 -73.112138.3  RSN  6 0.4 1.5LRSN                1
 GAP=141        0.90       8.0     9.8  9.5  0.2916E+01 -0.2578E+02 -0.1148E+02E
 Epicentro: LOS SANTOS - SANTANDER                                             3
 ACTION:UP  11-06-22 15:32 OP:REBC STATUS:               ID:20110423221825 L   I
 2011-04-23-2216-56S.COL___139                                                 6
 STAT SP IPHASW D HRMM SECON CODA AMPLIT PERI AZIMU VELO SNR AR TRES W  DIS CAZ7
 BTL  SZ EP       2218 44.23                             171     0.010   22 309 
 BTL  SZ ES   2   2218 59.73                                     0.9 5   22 309 
 BAR2 SZ EP   1   2218 43.94                             169    -0.3 7   24 199 
 BAR2 SZ I        2218 56.22         8.4 0.63                            24 199 
 BAR2 SZ ES   1   2218 58.74                             169    -0.1 7   24 199 
 GIR2 SZ EP       2218 45.03                                     0.710   33 344 
 BRR  HZ EP   1   2218 45.90                             150    -0.2 7   75 298 
 BRR  HZ I        2218 46.32        11.0 0.11                            75 298 
 BRR  HN ES   1   2219  1.75                             150    -0.4 7   75 298 
 PAM  SZ EP       2218 46.71                             150    -0.110   76  37 
 PAM  SE ES   2   2219  2.94                             150    -0.5 5   76  37 
 RUS  HZ EP   2   2218 48.18                             142    -0.3 5  100 178 
 RUS  HE ES   2   2219  6.50                             142     0.1 5  100 178 
 RUS  HZ I        2219  7.63         2.9 0.28                           100 178 
                                                                                
