 2012 1123 2337 47.3 L   6.804 -73.171144.0  RSN  5 0.2 1.4LRSN                1
 GAP=133        0.48       2.2     2.7  4.1 -0.6468E+00  0.3809E+01 -0.1898E+01E
 Epicentro: LOS SANTOS - SANTANDER                                             3
 ACTION:UPD 12-12-05 15:35 OP:}ep  STATUS:               ID:20121123233747 L   I
 2012-11-23-2330-00M.COL___233                                                 6
 STAT SP IPHASW D HRMM SECON CODA AMPLIT PERI AZIMU VELO AIN AR TRES W  DIS CAZ7
 BAR2 SZ ES       2338 21.92                             170    0.0810 23.5 183 
 BAR2 SZ I        2338 22.85         9.5 0.36                          23.5 183 
 PAM  SZ EP       2338  9.59                             150    0.2010 78.8  41 
 PAM  SZ ES       2338 26.52                             150   -0.1110 78.8  41 
 PAM  SZ I        2338 28.94         3.4 0.60                          78.8  41 
 RUS  HZ EP       2338 11.04                             143    0.1410  101 175 
 RUS  HN ES       2338 29.16                             143   -0.1710  101 175 
 RUS  HN I        2338 31.31         2.7 0.36                           101 175 
 PTB  HZ EP       2338 13.59                             132   -0.27 9  145 258 
 PTB  HE ES       2338 34.77                             132    0.17 9  145 258 
 PTB  HE I        2338 37.13         4.1 0.34                           145 258 
 SML  HE ES       2338 51.92                             117   -0.07 8  242 336 
                                                                                
