 2014 1023 2352 44.2 L   6.804 -73.157151.3  RSN 18 0.5 2.4LRSN                1
 GAP=135        1.01       2.8     3.8  4.9 -0.1679E+01  0.6476E+01  0.1567E+01E
 Epicentro: LOS SANTOS - SANTANDER                                             3
 ACTION:UPD 14-11-29 23:55 OP:nd   STATUS:               ID:20141023235244 L   I
 OLDACT:UP  14-10-27 13:42 OP:cam  STATUS:               ID:20141023234747     3
 OLDACT:UP  14-10-27 13:42 OP:cam  STATUS:               ID:20141023234747     3
 OLDACT:REG 14-10-27 10:57 OP:fm   STATUS:               ID:20141023234747     3
 2014-10-23-2347-47M.COL___285                                                 6
 STAT SP IPHASW D HRMM SECON CODA AMPLIT PERI AZIMU VELO AIN AR TRES W  DIS CAZ7
 BAR2 SZ EP     C 2353  4.43                             171   -0.1010 23.5 187 
 BAR2 SZ ES       2353 20.29                             171   -0.0810 23.5 187 
 BAR2 SZ I        2353 22.46        39.4 0.32            167           23.5 187 
 BRR  HZ EP       2353  6.24                             154    0.3310 69.9 299 
 BRR  HN ES       2353 23.72                             154    0.8910 69.9 299 
 BRR  HZ I        2353 28.12        34.4 0.30            149           69.9 299 
 PAM  SZ EP       2353  7.32                             152    0.2510 77.9  40 
 PAM  SN ES       2353 24.65                             152   -0.2310 77.9  40 
 PAM  SZ I        2353 26.56        14.7 0.20            158           77.9  40 
 RUS  HZ EP     D 2353  8.23                             145   -0.3410  101 175 
 RUS  HN ES       2353 27.35                             145   -0.2010  101 175 
 RUS  HZ I        2353 28.52        12.4 0.20            146            101 175 
 PTB  HZ EP       2353 11.22                             134   -0.33 9  147 259 
 PTB  HN ES       2353 32.59                             134   -0.28 9  147 259 
 PTB  HZ I        2353 39.81        49.2 0.42            131            147 259 
 SPBC HZ EP       2353 13.30                             130    0.18 9  163 219 
 SPBC HN ES       2353 36.04                             130    0.39 9  163 219 
 SPBC HZ I        2353 42.37        47.1 0.30            130            163 219 
 SML  HZ EP       2353 20.86                             119   -0.22 8  243 336 
 SML  HN ES       2353 49.33                             119   -0.49 8  243 336 
 SML  HZ I        2353 54.53        50.1 0.10            120            243 336 
 CHI  HZ EP       2353 22.65                             118    0.40 8  249 195 
 CHI  HN ES       2353 51.14                             118   -0.76 8  249 195 
 CHI  HZ I        2353 59.53         9.8 0.54            120            249 195 
 ROSC BZ EP       2353 22.64                             118    0.01 8  252 211 
 ROSC BE ES       2353 52.62                             118    0.04 8  252 211 
 ROSC BZ I        2354  2.07        23.3 0.45            119            252 211 
 HEL  HZ EP       2353 25.25                             116    0.64 8  271 256 
 HEL  HN ES       2353 56.57                             116    0.46 8  271 256 
 HEL  HZ I        2354  2.45        13.1 0.38            116            271 256 
 GUY2CHZ EP   4   2353 29.26                             113    1.25 0  300 235 
 GUY2CHN ES       2354  2.25                             113    0.09 7  300 235 
 GUY2CHZ I        2354  9.15        15.6 0.32                           300 235 
 RREF HZ EP   4   2353 27.43                             112   -3.11 0  321 229 
 RREF HN ES       2354  6.02                             112   -0.64 7  321 229 
 RREF HZ I        2354 12.34        15.6 0.28            113            321 229 
 CBOC HZ EP       2353 31.89                             111    0.63 7  333 252 
 CBOC HN ES   4   2354  4.50                             111   -3.44 0  333 252 
 CBOC HZ I        2354 12.47         4.8 0.20            111            333 252 
 DBB  SZ EP       2353 31.80                             111    0.01 7  338 274 
 DBB  SZ ES       2354  7.49                             111   -1.40 7  338 274 
 DBB  SZ I        2354 27.56        28.4 0.38            111            338 274 
 TOL  SZ EP   4   2353 33.91                             110    1.26 0  343 224 
 TOL  SE ES   4   2354  8.65                             110   -1.76 0  343 224 
 TOL  SZ I        2354 16.03        22.4 0.56            111            343 224 
 MON  HZ EP   4   2353 31.39                             110   -1.92 0  352 308 
 MON  HN ES   4   2354 10.17                             110   -1.42 0  352 308 
 MON  HZ I        2354 15.68         4.4 0.20            111            352 308 
 PRA  HZ EP       2353 38.04                             107    0.13 6  392 209 
 PRA  HE ES       2354 20.06                             107    0.27 6  392 209 
 PRA  HZ I        2354 25.56         7.7 0.24            109            392 209 
 ORTC HZ EP       2353 38.25                             107   -0.04 6  395 216 
 ORTC HN ES   4   2354 21.73                             107    1.26 0  395 216 
 ORTC HZ I        2354 27.03         6.1 0.42            108            395 216 
                                                                                
