 2013  823 2318 23.4 L   6.846 -73.306124.0  RSN  8 0.5 1.9LRSN                1
 GAP=103        1.18       4.6     4.9  8.3  0.7581E+00  0.1063E+02 -0.1295E+01E
 Epicentro: ZAPATOCA - SANTANDER                                               3
 ACTION:UPD 14-01-14 09:06 OP:ep   STATUS:               ID:20130823231823 L   I
 OLDACT:REG 13-08-23 22:27 OP:jn   STATUS:               ID:20130823231750     3
 2013-08-23-2317-50M.COL___217                                                 6
 STAT SP IPHASW D HRMM SECON CODA AMPLIT PERI AZIMU VELO AIN AR TRES W  DIS CAZ7
 BAR2 SZ EP       2318 40.94                             165    0.2810 31.2 154 
 BAR2 SZ ES       2318 54.29                             165    0.1910 31.2 154 
 BAR2 SZ I        2318 55.27        97.8 0.30            169           31.2 154 
 BRR  HZ EP       2318 41.28                             155    0.0510 53.4 303 
 BRR  HN ES       2318 55.19                             155    0.0710 53.4 303 
 BRR  HZ I        2318 57.06        18.2 0.60            153           53.4 303 
 PAM  SZ EP   1   2318 44.53                             143    0.53 7 86.4  51 
 PAM  SN ES       2318 59.92                             143   -0.1310 86.4  51 
 PAM  SZ I        2319  2.71         7.8 0.28            145           86.4  51 
 RUS  HZ EP       2318 45.84                             137    0.1110  108 167 
 RUS  HE ES   1   2319  2.53                             137   -0.60 7  108 167 
 RUS  HZ I        2319  4.56         6.4 0.22            140            108 167 
 PTB  HZ EP       2318 46.16                             130   -1.0010  132 255 
 PTB  HN ES       2319  6.19                             130    0.5110  132 255 
 PTB  HZ I        2319  8.16        14.3 0.32            130            132 255 
 OCA  HE ES   1   2319  8.99                             125   -0.87 7  154 359 
 OCA  HZ I        2319 13.77        13.3 0.78            126            154 359 
 ZAR  HZ EP   1   2318 53.37                             120    0.78 7  186 293 
 ZAR  HN ES   1   2319 14.70                             120   -0.64 7  186 293 
 ZAR  HZ I        2319 23.94        12.0 0.26            120            186 293 
 SML  HE ES   1   2319 25.01                             114    0.71 6  232 339 
                                                                                
