 2015  123 2327 31.4 L   6.562 -73.744 86.0  RSN  9 0.3 1.6LRSN                1
 GAP= 83        0.72       2.0     2.1  5.0 -0.1123E+01  0.2422E+01 -0.1835E+01E
 Epicentro: SANTA HELENA DEL OPON - SANTANDER                                  3
 ACTION:UPD 15-03-02 15:41 OP:nd   STATUS:               ID:20150123232731 L   I
 OLDACT:UP  15-01-24 05:19 OP:mh   STATUS:               ID:20150123231743     3
 OLDACT:UP  15-01-24 05:19 OP:mh   STATUS:               ID:20150123231743     3
 OLDACT:UP  15-01-24 05:17 OP:mh   STATUS:               ID:20150123231743     3
 OLDACT:REG 15-01-24 02:54 OP:mh   STATUS:               ID:20150123231743     3
 2015-01-23-2317-43M.COL___265                                                 6
 STAT SP IPHASW D HRMM SECON CODA AMPLIT PERI AZIMU VELO AIN AR TRES W  DIS CAZ7
 BAR2 EZ EP   1   2327 46.22                             142    0.10 7 62.2  87 
 BAR2 EZ ES       2327 57.98                             142    0.3710 62.2  87 
 PTB  HZ EP     D 2327 46.69                             134   -0.5010 78.8 268 
 PTB  HN ES       2327 59.57                             134    0.0410 78.8 268 
 PTB  HZ I        2328  0.46        17.7 0.10            132           78.8 268 
 RUS  HZ EP       2327 50.06                             126   -0.1710  104 135 
 RUS  HN ES       2328  4.59                             126   -0.3410  104 135 
 RUS  HZ I        2328  7.92         6.1 0.38            124            104 135 
 SPBC HZ EP       2327 50.10                             125    0.1110  107 200 
 SPBC HN ES       2328  4.75                             125    0.2410  107 200 
 SPBC HZ I        2328  7.45        18.8 0.10            123            107 200 
 PAM  SZ EP       2327 54.34                             116   -0.12 9  144  53 
 PAM  SN ES       2328 12.40                             116   -0.05 9  144  53 
 PAM  SZ I        2328 18.76         5.3 0.20            113            144  53 
 ZAR  HN ES   4   2328 17.62                             113    2.97 0  160 310 
 ZAR  HZ I        2328 17.88        10.5 0.28            111            160 310 
 CHI  HZ EP   1   2328  3.19                             107    0.81 6  214 180 
 CHI  HN ES   1   2328 26.14                             107   -0.42 6  214 180 
 CHI  HZ I        2328 33.41         2.0 0.30            106            214 180 
 GUY2CHZ EP       2328  5.05                             106    0.35 8  233 231 
 GUY2CHN ES       2328 30.51                             106   -0.17 8  233 231 
 GUY2CHZ I        2328 38.74         3.5 0.46                           233 231 
 SML  HZ EP       2328  6.36                             104    0.15 8  250 352 
 SML  HN ES       2328 33.36                             104   -0.02 8  250 352 
 SML  HZ I        2328 43.82         7.6 0.24            102            250 352 
 RREF HZ EP   4   2328  7.99                             104    0.36 0  255 224 
 RREF HN ES   4   2328 36.24                             104    0.34 0  255 224 
                                                                                
