 2014 1223 2209 46.5 L   7.010 -73.249130.1  RSN  6 0.4 1.8LRSN                1
 GAP=190        0.83       4.4     5.1  9.7 -0.9931E+01  0.2927E+02 -0.6843E+01E
 Epicentro: GIRON - SANTANDER                                                  3
 ACTION:UPD 15-02-10 17:06 OP:nd   STATUS:               ID:20141223220946 L   I
 OLDACT:REG 14-12-24 03:04 OP:fm   STATUS:               ID:20141223220747     3
 2014-12-23-2207-47M.COL___292                                                 6
 STAT SP IPHASW D HRMM SECON CODA AMPLIT PERI AZIMU VELO AIN AR TRES W  DIS CAZ7
 PAM  SE ES       2210 22.68                             150    0.3510 70.8  59 
 PAM  SZ I        2210 25.68        10.7 0.18            157           70.8  59 
 OCA  HN ES       2210 30.20                             131   -0.44 9  136 357 
 OCA  HZ I        2210 35.77         9.8 0.30            134            136 357 
 PTB  HZ EP       2210 11.47                             129   -0.28 9  143 249 
 PTB  HN ES       2210 31.07                             129   -0.42 9  143 249 
 PTB  HZ I        2210 33.82         7.7 0.40            132            143 249 
 ZAR  HZ EP       2210 16.36                             121    0.40 9  186 287 
 ZAR  HE ES       2210 39.33                             121    0.34 9  186 287 
 ZAR  HZ I        2210 49.66         5.5 0.18            124            186 287 
 SML  HZ EP   1   2210 19.10                             117   -0.30 6  218 335 
 SML  HE ES       2210 45.20                             117    0.10 8  218 335 
 SML  HZ I        2210 50.89        13.6 0.10            120            218 335 
 HEL  HN ES   1   2210 56.27                             112    0.43 6  268 250 
 HEL  HZ I        2211  3.63         4.3 0.34            116            268 250 
                                                                                
