 2012  923 2108 26.7 L   6.790 -73.182140.0  RSN  5 0.2 1.7LRSN                1
 GAP=132        0.43       3.0     2.7  5.3 -0.1071E+00  0.3104E+01 -0.1673E+01E
 Epicentro: LOS SANTOS - SANTANDER                                             3
 ACTION:UPD 12-10-22 14:20 OP:ep   STATUS:               ID:20120923210826 L   I
 2012-09-23-2107-59S.COL___219                                                 6
 STAT SP IPHASW D HRMM SECON CODA AMPLIT PERI AZIMU VELO AIN AR TRES W  DIS CAZ7
 BAR2 SZ EP   1   21 8 45.43                             171   -0.16 7 21.9 180 
 BAR2 SZ ES   1   21 9  0.40                             171    0.07 7 21.9 180 
 BAR2 SZ I        21 9  2.76        14.9 0.18                          21.9 180 
 PAM  SZ EP   1   21 8 48.38                             149   -0.12 7 80.8  41 
 PAM  SN ES   1   21 9  5.53                             149    0.01 7 80.8  41 
 PAM  SZ I        21 9  7.34         8.0 0.54                          80.8  41 
 RUS  HZ EP   1   21 8 49.98                             143    0.16 7 99.8 174 
 RUS  HN ES   1   21 9  7.94                             143    0.08 7 99.8 174 
 RUS  HZ I        21 9  9.84         4.9 0.64                          99.8 174 
 PTB  HN ES   1   21 9 12.85                             131   -0.33 7  144 259 
 PTB  HN I        21 9 14.54        10.1 0.31                           144 259 
 ZAR  HN ES   1   21 9 23.51                             121    0.34 6  201 293 
 ZAR  HZ I        21 9 28.96         7.1 0.40                           201 293 
                                                                                
