 2012 1023 2242 54.0 L   6.789 -73.103144.8  RSN  6 0.2 1.8LRSN                1
 GAP=143        0.38       2.7     3.2  3.9  0.2598E+01  0.3337E+01  0.1958E+01E
 Epicentro: LOS SANTOS - SANTANDER                                             3
 ACTION:UPD 12-11-22 17:05 OP:ep   STATUS:               ID:20121023224254 L   I
 2012-10-23-2240-00M.COL___234                                                 6
 STAT SP IPHASW D HRMM SECON CODA AMPLIT PERI AZIMU VELO AIN AR TRES W  DIS CAZ7
 BAR2 SZ EP   1   2243 13.39                             170   -0.07 7 23.4 202 
 BAR2 SZ I        2243 13.72        14.7 0.09                          23.4 202 
 BAR2 SZ ES   1   2243 28.80                             170    0.12 7 23.4 202 
 GIR2 SZ EP   1   2243 13.48                             166   -0.09 7 33.6 343 
 GIR2 SZ ES   1   2243 28.54                             166   -0.33 7 33.6 343 
 PAM  SN ES   1   2243 33.22                             151    0.12 7 75.5  36 
 BRR  HZ EP   1   2243 15.47                             151    0.20 7 75.9 298 
 BRR  HN ES   1   2243 32.08                             151    0.19 7 75.9 298 
 BRR  HN I        2243 32.36        22.1 0.26                          75.9 298 
 RUS  HZ EP   1   2243 17.48                             144   -0.02 7 99.1 179 
 RUS  HN ES   1   2243 35.85                             144   -0.02 7 99.1 179 
 RUS  HN I        2243 36.78         3.8 0.16                          99.1 179 
 ZAR  HN ES   1   2243 52.35                             121   -0.13 6  209 292 
 ZAR  HN I        2243 58.81         8.9 0.40                           209 292 
                                                                                
