 2016  923 2304  3.6 L   6.764 -73.125141.0  RSN 13 0.5 2.2LRSN                1
 GAP=122        1.19       3.9     4.0  6.2  0.1301E+01  0.4988E+01  0.7146E+01E
 Epicentro: LOS SANTOS - SANTANDER                                             3
 ACTION:UPD 17-08-17 21:15 OP:lp   STATUS:               ID:20160923230403 L   I
 OLDACT:REG 16-09-24 03:01 OP:lv   STATUS:               ID:20160923225744     3
 2016-09-23-2258-00M.COL___330                                                 6
 STAT SP IPHASW D HRMM SECON CODA AMPLIT PERI AZIMU VELO AIN AR TRES W  DIS CAZ7
 BAR2 EZ IP     C 23 4 22.62                             171    0.0110 20.0 199 
 BAR2 EZ ES       23 4 37.30                             171   -0.1310 20.0 199 
 BAR2 EZ I        23 4 38.40        45.5 0.16            169           20.0 199 
 BRR  HZ EP       23 4 24.53                             150    0.0410 75.2 300 
 BRR  HN ES       23 4 41.35                             150    0.5810 75.2 300 
 BRR  HZ I        23 4 42.42        26.6 0.20            149           75.2 300 
 PAM  EZ EP       23 4 25.50                             149    0.0710 79.1  36 
 PAM  EN ES       23 4 42.17                             149   -0.2810 79.1  36 
 PAM  EZ I        23 4 44.86        28.8 0.26            153           79.1  36 
 RUS  HZ EP       23 4 26.65                             144    0.0410 96.5 177 
 RUS  HN ES       23 4 45.28                             144    0.7410 96.5 177 
 RUS  HZ I        23 4 46.87        32.1 0.29            145           96.5 177 
 PTB  HZ EP       23 4 29.79                             131   -0.56 9  149 261 
 PTB  HN ES       23 4 50.33                             131   -0.86 9  149 261 
 PTB  HZ I        23 4 54.86        22.1 0.14            130            149 261 
 SPBC HZ EP       23 4 31.89                             128    0.28 9  162 221 
 SPBC HN ES       23 4 53.24                             128   -0.19 9  162 221 
 SPBC HZ I        23 4 56.21        26.9 0.14            128            162 221 
 ZAR  HZ EP       23 4 36.03                             121   -0.11 8  208 293 
 ZAR  HE ES       23 5  1.42                             121   -0.09 8  208 293 
 ZAR  HZ I        23 5  8.72        16.2 0.22            121            208 293 
 NOR  HZ EP       23 4 39.29                             118    0.26 8  234 236 
 NOR  HN ES       23 5  5.86                             118   -0.80 8  234 236 
 NOR  HZ I        23 5 12.44        13.3 0.30            118            234 236 
 CHI  HZ EP       23 4 41.56                             116    0.85 8  245 196 
 CHI  HN ES       23 5  9.87                             116    0.24 8  245 196 
 CHI  HZ I        23 5 13.45         6.5 0.32            117            245 196 
 HEL  HZ EP   4   23 4 44.98                             114    1.24 0  273 257 
 HEL  HN ES       23 5 15.47                             114    0.44 8  273 257 
 HEL  HZ I        23 5 22.13        13.1 0.29            114            273 257 
 GUY2CHZ EP       23 4 47.86                             111    0.89 7  301 236 
 GUY2CHN ES   4   23 5 22.26                             111    1.48 0  301 236 
 GUY2CHZ I        23 5 30.01         7.0 0.51                           301 236 
 PTGC HZ EP       23 4 45.94                             111   -0.81 7  304 159 
 PTGC HN ES       23 5 19.57                             111   -0.82 7  304 159 
 PTGC HZ I        23 5 20.93        12.0 0.29            112            304 159 
 SJC  HZ EP   4   23 4 57.60                             105   -1.97 0  414 327 
 SJC  HN ES   4   23 5 39.54                             105   -3.67 0  414 327 
 SJC  HZ I        23 5 42.58         2.0 0.21            106            414 327 
                                                                                
