 2017  523 2209 34.8 L   6.764 -73.182150.1  RSN  6 0.3 1.5LRSN                1
 GAP=134        0.81       3.8     4.0  7.7  0.1009E+01  0.8785E+01  0.4375E+01E
 Epicentro: LOS SANTOS - SANTANDER                                             3
 ACTION:UPD 17-06-16 13:38 OP:jn   STATUS:               ID:20170523220934 L   I
 OLDACT:REG 17-05-24 03:33 OP:edw  STATUS:               ID:20170523220730     3
 2017-05-23-2208-00M.COL___344                                                 6
 STAT SP IPHASW D HRMM SECON CODA AMPLIT PERI AZIMU VELO AIN AR TRES W  DIS CAZ7
 BRR  HZ EP       22 9 56.67                             154    0.3210 69.8 303 
 BRR  HN ES       2210 13.60                             154    0.4510 69.8 303 
 BRR  HZ I        2210 13.89        11.5 0.30            154           69.8 303 
 PAM  EN ES       2210 15.33                             150   -0.4410 83.0  40 
 RUS  HZ EP       22 9 58.69                             146   -0.0510 97.0 173 
 RUS  HN ES       2210 17.68                             146    0.2810 97.0 173 
 RUS  HZ I        2210 18.27         6.7 0.32            146           97.0 173 
 PTB  HZ EP       2210  1.74                             134    0.03 9  143 260 
 PTB  HN ES       2210 22.27                             134   -0.43 9  143 260 
 PTB  HZ I        2210 24.73         1.9 0.18            134            143 260 
 SPBC HN ES       2210 24.96                             131   -0.24 9  158 219 
 ZAR  HN ES       2210 32.66                             124   -0.01 9  202 294 
                                                                                
