 2016  123 2245 54.7 L   6.820 -73.189137.2  RSN  9 0.4 1.8LRSN                1
 GAP=130        1.05       3.0     4.9  7.0 -0.2302E+01  0.1420E+02 -0.1755E+01E
 Epicentro: ZAPATOCA - SANTANDER                                               3
 ACTION:UPD 16-03-09 23:27 OP:cam  STATUS:               ID:20160123224554 L   I
 OLDACT:UP  16-01-24 03:11 OP:drio STATUS:               ID:20160123223737     3
 OLDACT:REG 16-01-24 02:43 OP:drio STATUS:               ID:20160123223737     3
 2016-01-23-2237-37M.COL___319                                                 6
 STAT SP IPHASW D HRMM SECON CODA AMPLIT PERI AZIMU VELO AIN AR TRES W  DIS CAZ7
 BAR2 EZ EP       2246 12.48                             169   -0.8810 25.2 178 
 BAR2 EZ ES       2246 27.71                             169   -0.2010 25.2 178 
 BAR2 EZ I        2246 29.27        22.4 0.28            169           25.2 178 
 PAM  EZ EP       2246 16.40                             149    0.2710 78.9  43 
 PAM  EN ES       2246 33.48                             149    0.6510 78.9  43 
 PAM  EZ I        2246 35.77        13.2 0.48            153           78.9  43 
 RUS  HZ EP       2246 17.91                             141    0.0710  103 174 
 RUS  HE ES       2246 35.62                             141   -0.2510  103 174 
 RUS  HZ I        2246 36.80         5.6 0.22            144            103 174 
 PTB  HZ EP       2246 20.34                             131   -0.27 9  144 258 
 PTB  HN ES       2246 40.72                             131   -0.09 9  144 258 
 PTB  HZ I        2246 44.44        10.2 0.16            131            144 258 
 OCA  HZ EP   4   2246 20.67                             128   -1.45 0  158 355 
 OCA  HN ES       2246 43.44                             128   -0.06 9  158 355 
 OCA  HZ I        2246 45.01        22.2 0.16            130            158 355 
 ZAR  HZ EP       2246 26.71                             121    0.63 9  199 292 
 ZAR  HN ES   4   2246 52.06                             121    1.53 0  199 292 
 ZAR  HZ I        2246 59.28         6.6 0.30            122            199 292 
 NOR  HZ EP   4   2246 31.55                             117    1.86 0  232 233 
 NOR  HN ES       2246 57.40                             117    0.43 8  232 233 
 NOR  HZ I        2246 59.42         4.5 0.14            118            232 233 
 SML  HZ EP       2246 30.15                             116   -0.30 8  240 336 
 SML  HN ES       2246 58.14                             116   -0.18 8  240 336 
 SML  HZ I        2247  1.62        10.8 0.28            117            240 336 
 CHI  HZ EP       2246 31.84                             115   -0.22 8  250 194 
 CHI  HN ES       2247  1.81                             115    0.63 8  250 194 
 CHI  HZ I        2247  6.48         1.3 0.38            117            250 194 
                                                                                
