 2013  123 2207  5.5 L   6.432 -73.538111.0  RSN 17 0.5 2.7LRSN 3.1WRSN        1
 SPEC AVERAGE  MO 13.7 ST 11.0 OM  2.2 f0 5.22 R0.3067 AL 2.35 WI 24.4 MW  3.1 3
 SPEC SD       MO  0.2 ST  9.5 OM  0.3 f0 1.62 R0.0857 AL      WI      MW  0.1 3
 GAP= 50        1.04       2.7     3.0  6.2 -0.1200E+01  0.4267E+01  0.3980E+01E
 Epicentro: SANTA HELENA DEL OPON - SANTANDER                                  3
 SPEC VIL SH Z MO 13.8 ST  6.1 OM  2.0 f0 3.99 R0.3684 AL 2.57 WI 28.5 MW  3.2 3
 SPEC VIL SH Z T22 8 4 K 0.000 GD  279 VS 4.20 DE 3.20 Q0300.0 QA 0.60 VS 4.20 3
 SPEC ZAR HH Z MO 13.8 ST  4.2 OM  2.1 f0 3.54 R0.4153 AL 1.42 WI 22.8 MW  3.2 3
 SPEC ZAR HH Z T22 752 K 0.000 GD  217 VS 4.20 DE 3.20 Q0300.0 QA 0.60 VS 4.20 3
 SPEC ROSCBH Z MO 13.9 ST  3.6 OM  2.2 f0 3.09 R0.4757 AL 3.56 WI 34.9 MW  3.2 3
 SPEC ROSCBH Z T22 752 K 0.000 GD  225 VS 4.20 DE 3.20 Q0300.0 QA 0.60 VS 4.20 3
 SPEC TAM HH Z MO 13.6 ST  3.9 OM  1.9 f0 3.99 R0.3684 AL 1.45 WI 20.6 MW  3.0 3
 SPEC TAM HH Z T22 750 K 0.000 GD  222 VS 4.20 DE 3.20 Q0300.0 QA 0.60 VS 4.20 3
 SPEC PTB HH Z MO 13.4 ST 12.9 OM  1.8 f0 7.33 R0.2005 AL 1.27 WI 18.7 MW  2.9 3
 SPEC PTB HH Z T22 736 K 0.000 GD  150 VS 4.20 DE 3.20 Q0300.0 QA 0.60 VS 4.20 3
 SPEC RUS HH Z MO 13.4 ST  2.6 OM  1.9 f0 4.13 R0.3559 AL 1.65 WI 26.3 MW  2.9 3
 SPEC RUS HH Z T22 731 K 0.000 GD  135 VS 4.20 DE 3.20 Q0300.0 QA 0.60 VS 4.20 3
 SPEC OCA HH Z MO 13.9 ST 13.4 OM  2.1 f0 5.13 R0.2865 AL 1.15 WI 26.9 MW  3.2 3
 SPEC OCA HH Z T22 756 K 0.000 GD  229 VS 4.20 DE 3.20 Q0300.0 QA 0.60 VS 4.20 3
 SPEC NOR HH Z MO 13.6 ST 15.2 OM  1.9 f0 6.44 R0.2283 AL 2.07 WI 25.9 MW  3.0 3
 SPEC NOR HH Z T22 749 K 0.000 GD  208 VS 4.20 DE 3.20 Q0300.0 QA 0.60 VS 4.20 3
 SPEC PAM SH Z MO 13.4 ST  8.9 OM  1.8 f0 6.14 R0.2394 AL 2.87 WI 28.2 MW  2.9 3
 SPEC PAM SH Z T22 744 K 0.000 GD  176 VS 4.20 DE 3.20 Q0300.0 QA 0.60 VS 4.20 3
 SPEC HEL HH Z MO 13.6 ST  6.5 OM  1.8 f0 4.94 R0.2976 AL 2.90 WI 17.9 MW  3.0 3
 SPEC HEL HH Z T22 757 K 0.000 GD  248 VS 4.20 DE 3.20 Q0300.0 QA 0.60 VS 4.20 3
 SPEC CHI HH Z MO 13.5 ST  3.8 OM  1.7 f0 4.60 R0.3196 AL 2.57 WI 25.2 MW  2.9 3
 SPEC CHI HH Z T22 754 K 0.000 GD  228 VS 4.20 DE 3.20 Q0300.0 QA 0.60 VS 4.20 3
 SPEC BRR HH Z MO 13.5 ST 35.3 OM  2.0 f0 9.12 R0.1612 AL 5.53 WI 34.9 MW  3.0 3
 SPEC BRR HH Z T22 736 K 0.000 GD  135 VS 4.20 DE 3.20 Q0300.0 QA 0.60 VS 4.20 3
 SPEC BAR2SH Z MO 14.1 ST 26.1 OM  2.6 f0 5.43 R0.2707 AL 1.58 WI  7.0 MW  3.3 3
 SPEC BAR2SH Z T22 733 K 0.000 GD  119 VS 4.20 DE 3.20 Q0300.0 QA 0.60 VS 4.20 3
 ACTION:UPD 13-02-15 09:16 OP:ep   STATUS:               ID:20130123220705 L   I
 2013-01-23-2200-00M.COL___241                                                 6
 STAT SP IPHASW D HRMM SECON CODA AMPLIT PERI AZIMU VELO AIN AR TRES W  DIS CAZ7
 BAR2 SZ EP       22 7 21.92                             157    0.1910 43.2  66 
 BAR2 SZ ES   1   22 7 34.76                             157    0.39 7 43.2  66 
 BRR  HZ EP     D 22 7 23.27                             143   -0.2010 77.1 346 
 BRR  HN ES   1   22 7 38.16                             143    0.70 7 77.1 346 
 BRR  HZ I        22 7 44.09       100.1 0.36            139           77.1 346 
 RUS  HZ IP     C 22 7 23.83                             143   -0.4110 78.1 140 
 RUS  HN ES   1   22 7 38.61                             143   -0.22 7 78.1 140 
 RUS  HZ I        22 7 40.04       125.8 0.18            139           78.1 140 
 PTB  HZ IP   4 D 22 7 24.28                             134   -1.26 0  102 277 
 PTB  HE ES   1   22 7 39.87                             134   -1.28 7  102 277 
 PTB  HZ I        22 7 42.52       133.6 0.16            131            102 277 
 PAM  SZ EP       22 7 29.44                             125    0.03 9  137  43 
 PAM  SN ES   1   22 7 47.99                             125   -0.04 7  137  43 
 PAM  SZ I        22 7 52.96        48.1 0.50            121            137  43 
 CTAB SZ EP       22 7 33.89                             118    0.68 9  174 205 
 NOR  HZ IP   4 D 22 7 31.77                             118   -1.16 0  176 237 
 NOR  HN ES   1   22 7 53.88                             118   -0.43 7  176 237 
 NOR  HZ I        22 7 55.76        95.7 0.38            115            176 237 
 ZAR  HZ EP       22 7 33.52                             116   -0.57 9  187 309 
 ZAR  HN ES   1   22 7 56.79                             116    0.41 7  187 309 
 ZAR  HZ I        22 8  1.37       154.9 0.48            113            187 309 
 TAM  HZ EP     C 22 7 34.52                             115   -0.30 9  193  90 
 TAM  HZ I        22 7 56.37        53.2 0.18            111            193  90 
 TAM  HE ES   1   22 7 57.31                             115   -0.36 7  193  90 
 ROSC BZ EP       22 7 36.27                             115    0.68 9  196 206 
 ROSC BN ES   1   22 7 59.75                             115    0.71 6  196 206 
 ROSC BZ I        22 8  6.06        57.4 0.70            112            196 206 
 CHI  HZ EP       22 7 35.55                             114   -0.54 9  200 186 
 CHI  HN ES   1   22 8  0.01                             114    0.07 6  200 186 
 CHI  HZ I        22 8  3.64        32.3 0.36            111            200 186 
 OCA  HZ EP   1   22 7 36.35                             114    0.50 6  201   7 
 OCA  HN ES   1   22 8  0.14                             114    0.64 6  201   7 
 OCA  HZ I        22 8  5.53        80.0 0.28            111            201   7 
 HEL  HZ EP       22 7 38.42                             112   -0.02 8  222 263 
 HEL  HE ES   2   22 8  4.45                             112    0.34 4  222 263 
 HEL  HZ I        22 8  7.46        79.6 0.32            109            222 263 
 VIL  SZ EP       22 7 42.05                             108   -0.14 8  257 184 
 VIL  SN ES   1   22 8 10.45                             108   -0.34 6  257 184 
 VIL  SZ I        22 8 15.95        41.3 0.36            105            257 184 
 TOL  SZ EP   1   22 7 45.75                             106    0.16 6  284 224 
 TOL  SZ ES   1   22 8 16.87                             106    0.04 6  284 224 
 TOL  SZ I        22 8 23.45        22.1 0.30            103            284 224 
 ANIL HZ EP     C 22 7 47.84                             105    0.67 7  298 224 
 ANIL HN ES   1   22 8 20.26                             105    0.61 5  298 224 
 ANIL HZ I        22 8 34.12        27.5 0.32            102            298 224 
 DBB  SZ EP       22 7 46.59                             104   -0.83 7  302 283 
 DBB  SZ ES   4   22 8 18.84                             104   -1.27 0  302 283 
                                                                                
