 2016  323 2322 27.0 L   6.793 -73.141148.5  RSN 10 0.2 1.9LRSN                1
 GAP=137        0.61       1.8     2.5  3.6 -0.1105E+01  0.3005E+01  0.1412E+00E
 Epicentro: LOS SANTOS - SANTANDER                                             3
 ACTION:UPD 16-05-13 21:26 OP:cam  STATUS:               ID:20160323232227 L   I
 OLDACT:REG 16-03-24 04:31 OP:cara STATUS:               ID:20160323231742     3
 2016-03-23-2317-42M.COL___308                                                 6
 STAT SP IPHASW D HRMM SECON CODA AMPLIT PERI AZIMU VELO AIN AR TRES W  DIS CAZ7
 BAR2 EZ EP       2322 46.92                             171    0.0010 22.7 192 
 BAR2 EZ ES       2323  2.82                             171    0.3410 22.7 192 
 BAR2 EZ I        2323  5.06        10.1 0.16            170           22.7 192 
 PAM  EZ IP       2322 49.71                             151    0.2110 77.7  39 
 PAM  EN ES       2323  7.10                             151    0.0310 77.7  39 
 PAM  EZ I        2323  9.10         5.6 0.20            156           77.7  39 
 RUS  HZ EP       2322 50.66                             145   -0.2810 99.8 176 
 RUS  HN ES       2323  9.44                             145   -0.1910 99.8 176 
 RUS  HZ I        2323 10.42         4.6 0.36            148           99.8 176 
 PTB  HZ EP       2322 53.84                             133   -0.35 9  148 259 
 PTB  HN ES       2323 15.17                             133   -0.26 9  148 259 
 PTB  HZ I        2323 20.66         8.9 0.58            133            148 259 
 OCA  HZ EP       2322 55.59                             130    0.02 9  161 353 
 OCA  HN ES       2323 17.54                             130   -0.34 9  161 353 
 OCA  HZ I        2323 21.70        30.3 0.36            133            161 353 
 SPBC HZ EP       2322 55.69                             130    0.04 9  163 219 
 SPBC HN ES       2323 18.18                             130    0.15 9  163 219 
 SPBC HZ I        2323 24.74        18.2 0.26            132            163 219 
 ZAR  HZ EP       2322 59.66                             123   -0.01 9  205 292 
 ZAR  HN ES       2323 25.49                             123    0.31 9  205 292 
 ZAR  HZ I        2323 31.21         9.8 0.44            124            205 292 
 NOR  HZ EP       2323  3.00                             119    0.14 8  235 235 
 NOR  HN ES       2323 30.90                             119    0.05 8  235 235 
 NOR  HZ I        2323 34.39         6.8 0.18            121            235 235 
 CHI  HZ EP       2323  4.77                             118    0.01 8  248 195 
 CHI  HN ES       2323 34.15                             118   -0.08 8  248 195 
 CHI  HZ I        2323 38.27         2.6 0.36            120            248 195 
 GUY2CHZ EP       2323 11.40                             113    0.70 7  301 235 
 GUY2CHN ES       2323 44.54                             113   -0.27 7  301 235 
 GUY2CHZ I        2323 53.85         4.1 0.26                           301 235 
                                                                                
