 2017  723 2028 59.1 L   6.838 -73.100145.7  RSN 10 0.4 1.7LRSN                1
 GAP=140        0.88       3.7     3.5  5.3 -0.1803E+01  0.5800E+01  0.3032E+01E
 Epicentro: LOS SANTOS - SANTANDER                                             3
 ACTION:UPD 17-08-30 15:35 OP:rebc STATUS:               ID:20170723202859 L   I
 OLDACT:REG 17-07-24 03:29 OP:edw  STATUS:               ID:20170723202734     3
 2017-07-23-2028-00M.COL___395                                                 6
 STAT SP IPHASW D HRMM SECON CODA AMPLIT PERI AZIMU VELO AIN AR TRES W  DIS CAZ7
 BAR2 EZ IP     D 2029 18.59                             168   -0.2910 28.7 198 
 BAR2 EZ ES       2029 34.12                             168   -0.1710 28.7 198 
 BAR2 EZ I        2029 35.53         3.6 0.17            168           28.7 198 
 PAM  EZ IP     C 2029 21.42                             153    0.4410 70.9  39 
 PAM  EN ES       2029 37.97                             153   -0.0410 70.9  39 
 PAM  EZ I        2029 40.37        14.5 0.38            156           70.9  39 
 BRR  HZ IP     C 2029 20.47                             152    0.0310 73.9 294 
 BRR  HN ES       2029 37.45                             152    0.4010 73.9 294 
 BRR  HZ I        2029 41.13         5.8 0.12            150           73.9 294 
 RUS  HZ EP       2029 23.24                             143    0.0610  105 179 
 RUS  HN ES       2029 41.96                             143    0.0310  105 179 
 RUS  HZ I        2029 43.44         6.8 0.36            145            105 179 
 PTB  HZ EP       2029 25.65                             131   -0.98 9  154 258 
 PTB  HN ES       2029 47.92                             131   -0.16 9  154 258 
 PTB  HZ I        2029 50.35         4.2 0.20            131            154 258 
 SPBC HZ EP       2029 28.01                             128   -0.24 9  170 219 
 SPBC HN ES       2029 51.24                             128    0.28 9  170 219 
 SPBC HZ I        2029 52.71         9.7 0.12            129            170 219 
 ZAR  HZ EP   2   2029 32.22                             122    0.31 4  207 291 
 ZAR  HN ES       2029 57.23                             122   -0.24 8  207 291 
 ZAR  HZ I        2030  2.28         4.5 0.11            123            207 291 
 NOR  HZ IP     C 2029 35.58                             118    0.01 8  241 234 
 NOR  HN ES       2030  3.89                             118   -0.10 8  241 234 
 NOR  HZ I        2030  9.15         5.0 0.18            119            241 234 
 HEL  HZ EP   4   2029 37.78                             114   -2.23 0  278 255 
 HEL  HE ES       2030 12.18                             114    0.29 7  278 255 
 HEL  HZ I        2030 18.43         3.3 0.32            115            278 255 
 GUY2CHZ EP       2029 44.14                             112    0.65 7  308 235 
 GUY2CHN ES   2   2030 19.34                             112    1.26 4  308 235 
 GUY2CHZ I        2030 26.76         3.1 0.34                           308 235 
                                                                                
