 2013  223 2054 42.6 L   6.339 -73.567111.8  RSN  6 0.3 1.7LRSN                1
 GAP=126        0.67       3.2     3.7  6.6  0.4203E+01  0.7845E+01  0.5124E+01E
 Epicentro: SANTA HELENA DEL OPON - SANTANDER                                  3
 ACTION:UPD 13-03-12 09:35 OP:ep   STATUS:               ID:20130223205442 L   I
 2013-02-23-2050-00M.COL___225                                                 6
 STAT SP IPHASW D HRMM SECON CODA AMPLIT PERI AZIMU VELO AIN AR TRES W  DIS CAZ7
 BAR2 SZ EP   1   2054 59.72                             154    0.48 7 51.0  57 
 BAR2 SZ ES   1   2055 12.78                             154    0.53 7 51.0  57 
 BAR2 SZ I        2055 13.86        25.0 0.54            146           51.0  57 
 RUS  HZ EP       2055  1.07                             145    0.1010 72.8 133 
 RUS  HN ES   1   2055 14.87                             145   -0.46 7 72.8 133 
 RUS  HN I        2055 16.98        14.3 0.24            123           72.8 133 
 BRR  HZ EP   1   2055  1.45                             139    0.15 7 86.5 349 
 BRR  HN ES       2055 15.81                             139   -0.1010 86.5 349 
 BRR  HN I        2055 16.75        15.2 0.14            130           86.5 349 
 PAM  SZ EP   1   2055  7.60                             124    0.12 7  146  41 
 PAM  SN ES       2055 26.55                             124   -0.37 9  146  41 
 PAM  SN I        2055 31.00         5.7 0.46            111            146  41 
 CHI  HZ EP   1   2055 11.85                             116   -0.14 7  190 186 
 CHI  HN I        2055 42.07         3.0 0.26            101            190 186 
 ZAR  HN ES       2055 34.24                             115   -0.08 9  191 312 
 ZAR  HN I        2055 35.51        10.6 0.30            104            191 312 
                                                                                
