 2017  523 2012 50.2 L   6.808 -73.145148.1  RSN 22 0.4 2.7LRSN                1
 GAP=112        0.98       2.8     3.3  5.0  0.5844E+00  0.3479E+01  0.3447E+01E
 Epicentro: LOS SANTOS - SANTANDER                                             3
 ACTION:UPD 17-06-16 13:38 OP:jn   STATUS:               ID:20170523201250 L   I
 OLDACT:UP  17-05-24 05:03 OP:edw  STATUS:               ID:20170523200610     3
 OLDACT:UP  17-05-24 03:57 OP:edw  STATUS:               ID:20170523200610     3
 OLDACT:REG 17-05-24 03:15 OP:edw  STATUS:               ID:20170523200610     3
 2017-05-23-2008-00M.COL___353                                                 6
 STAT SP IPHASW D HRMM SECON CODA AMPLIT PERI AZIMU VELO AIN AR TRES W  DIS CAZ7
 BRR  HZ IP     C 2013 11.71                             153    0.0810 70.8 298 
 BRR  HE ES       2013 28.98                             153    0.6810 70.8 298 
 BRR  HZ I        2013 31.24        81.0 0.30            150           70.8 298 
 PAM  EZ EP     C 2013 12.73                             151    0.0610 76.6  40 
 PAM  EN ES       2013 30.03                             151   -0.1310 76.6  40 
 PAM  EZ I        2013 33.18        77.4 0.50            158           76.6  40 
 RUS  HZ EP     D 2013 13.88                             144   -0.4110  102 176 
 RUS  HN ES       2013 32.57                             144   -0.4810  102 176 
 RUS  HZ I        2013 34.01        51.0 0.28            144            102 176 
 PTB  HZ EP   9 D 2013 16.45                             132   -0.97 0  148 258 
 PTB  HN ES       2013 37.10                             131   -0.55 9  148 258 
 PTB  HZ I        2013 42.92        47.8 0.38            131            148 258 
 SPBC HZ EP       2013 18.89                             129   -0.10 9  164 219 
 SPBC HE ES       2013 41.27                             129   -0.15 9  164 219 
 SPBC HZ I        2013 43.88       101.7 0.22            129            164 219 
 YPLC HZ IP     D 2013 20.37                             127    0.08 9  178 151 
 YPLC HN ES       2013 44.20                             127    0.48 9  178 151 
 YPLC HZ I        2013 45.31        70.3 0.24            130            178 151 
 ZAR  HZ EP       2013 22.43                             122   -0.38 9  204 292 
 ZAR  HE ES       2013 47.78                             122   -0.44 9  204 292 
 ZAR  HZ I        2013 53.09        67.7 0.36            123            204 292 
 NOR  HZ EP     D 2013 26.01                             119   -0.16 8  235 234 
 NOR  HN ES       2013 54.37                             119    0.17 8  235 234 
 NOR  HZ I        2013 59.12        38.5 0.32            119            235 234 
 CHI  HZ EP       2013 28.35                             117    0.18 8  250 195 
 CHI  HN ES       2013 57.49                             117   -0.26 8  250 195 
 CHI  HZ I        2014  2.53        32.0 0.42            118            250 195 
 ROSC BZ EP   4 C 2013 29.78                             117    1.20 0  254 211 
 ROSC BN ES   4   2014  0.69                             117    2.21 0  254 211 
 ROSC BZ I        2014  4.61       107.6 0.40            118            254 211 
 HEL  HZ EP       2013 31.28                             115    0.67 8  272 256 
 HEL  HN ES   4   2014  4.16                             115    2.07 0  272 256 
 HEL  HZ I        2014 10.18        31.8 0.32            115            272 256 
 VIL  EZ EP       2013 33.79                             112   -0.08 7  304 192 
 VIL  EN ES       2014  7.26                             112   -0.64 7  304 192 
 VIL  EZ I        2014 12.99        40.8 0.36            113            304 192 
 PTGC HZ EP   9 D 2013 33.07                             112   -1.23 0  310 159 
 PTGC HN ES       2014  6.79                             112   -0.64 7  310 159 
 PTGC HZ I        2014  7.74        19.4 0.28            114            310 159 
 LL6C HN EP   9   2013 15.39                             110   -20.6 0  324 358 
 LL6C HN ES       2013 50.41                                   -0.62 7  324 358 
 ELA  HZ EP   4   2013 39.19                             110    1.92 0  330 229 
 ELA  HE ES   4   2014 16.52                             110    2.58 0  330 229 
 ELA  HZ I        2014 22.62        24.9 0.58            111            330 229 
 CBOC HZ EP       2013 37.56                             110    0.26 7  334 252 
 CBOC HN ES   4   2014 16.24                             110    2.24 0  334 252 
 CBOC HZ I        2014 24.90         7.8 0.46            111            334 252 
 DBB  EZ EP   9   2013 37.94                             110    0.13 0  339 274 
 DBB  EN ES       2014 13.89                             109   -1.15 7  339 274 
 DBB  EZ I        2014 18.49        12.1 0.56            111            339 274 
 ARGC HZ EP   2   2013 40.45                             108    0.56 3  358 340 
 ARGC HN ES   4   2014 20.07                             108    1.45 0  358 340 
 ANIL HZ EP   4   2013 41.69                             108    1.47 0  358 224 
 ANIL HN ES       2014 19.33                             108    0.13 6  358 224 
 ORTC HZ EP       2013 44.34                             106    0.01 6  396 216 
 ORTC HN ES       2014 27.76                             106    1.23 6  396 216 
 ORTC HZ I        2014 31.33        16.8 0.22            108            396 216 
 APAC HZ EP   2   2013 43.93                             106   -0.56 3  398 288 
 APAC HN ES   4   2014 24.62                             106   -2.17 0  398 288 
 PAL  HZ EP       2013 45.48                             106   -0.06 6  406 239 
 PAL  HN ES   4   2014 30.59                             106    1.91 0  406 239 
 PAL  HZ I        2014 35.29         9.9 0.26            107            406 239 
 MACC HZ EP   4   2013 57.15                             102   -1.97 0  521 189 
 MACC HN ES   4   2014 45.26                             102   -7.59 0  521 189 
                                                                                
