 2010  823 2058 59.6 L   6.748 -73.159142.0  RSN  5 0.4 1.5LRSN                1
 GAP=163        0.89       8.6    16.3 12.8  0.8486E+02 -0.1059E+03 -0.5689E+02E
 Epicentro: LOS SANTOS - SANTANDER                                             3
 ACTION:UP  10-09-07 10:57 OP:vdl  STATUS:               ID:20100823205859 L   I
 2010-08-23-2055-43S.COL___119                                                 6
 STAT SP IPHASW D HRMM SECON CODA AMPLIT PERI AZIMU VELO SNR AR TRES W  DIS CAZ7
 BAR2 SZ ES   2   2059 32.68                             173    -0.8 5   17 189 
 BAR2 SZ I        2059 34.11        11.3 0.13                            17 189 
 GIR2 SZ EP   1   2059 19.33                             165     0.4 7   37 354 
 BRR  HZ EP       2059 20.12                             152    -0.310   73 303 
 BRR  HE ES   1   2059 37.01                             152     0.3 7   73 303 
 BRR  HZ I        2059 42.29        15.9 0.47                            73 303 
 RUS  HZ EP   1   2059 22.34                             146    -0.2 7   95 175 
 RUS  HN ES   1   2059 40.81                             146     0.3 7   95 175 
 RUS  HZ I        2059 41.69         5.1 0.26                            95 175 
 GUE  SZ EP   1   2059 24.48                             137     0.1 7  122  12 
 GUE  SZ I        2059 50.77         1.7 0.15                           122  12 
                                                                                
