 2017  123 2340 52.5 L   6.622 -73.171 26.4  RSN  5 0.3 1.3LRSN                1
 GAP=140        0.84       2.0     2.6  3.0 -0.3006E-01  0.2789E+01 -0.5492E+00E
 Epicentro: VILLANUEVA - SANTANDER                                             3
 ACTION:UPD 17-05-22 16:02 OP:jn   STATUS:               ID:20170123234052 L   I
 OLDACT:REG 17-01-24 02:55 OP:edw  STATUS:               ID:20170123233743     3
 2017-01-23-2338-00M.COL___345                                                 6
 STAT SP IPHASW D HRMM SECON CODA AMPLIT PERI AZIMU VELO AIN AR TRES W  DIS CAZ7
 BAR2 EZ IP     C 2340 57.56                             172    0.4010 3.52 200 
 BAR2 EZ ES       2341  0.85                             172    0.0710 3.52 200 
 BAR2 EZ I        2341  2.55        34.4 0.22            171           3.52 200 
 BRR  HZ IP     C 2341  5.53                              94   -0.1510 80.3 312 
 BRR  HE ES       2341 15.44                              94   -0.5110 80.3 312 
 BRR  HZ I        2341 16.13        14.6 0.12             96           80.3 312 
 RUS  HZ IP     C 2341  6.43                              95    0.0710 81.3 173 
 RUS  HN ES       2341 16.67                              95   -0.4910 81.3 173 
 RUS  HZ I        2341 17.70         8.7 0.24             97           81.3 173 
 PAM  EZ EP       2341  8.58                              93    0.2710 94.9  33 
 PAM  EN ES       2341 20.48                              93   -0.1510 94.9  33 
 PAM  EZ I        2341 21.28         5.1 0.24             61           94.9  33 
 PTB  HZ EP       2341 13.84                              61    0.15 9  142 266 
 PTB  HN ES       2341 30.61                              61    0.40 9  142 266 
 PTB  HZ I        2341 31.72         4.1 0.10             61            142 266 
                                                                                
