 2014  723 2206 11.9 L   6.811 -73.131143.6  RSN 11 0.6 1.9LRSN                1
 GAP=138        1.40       4.4     5.6  7.5 -0.3852E+01  0.1492E+02 -0.1233E+01E
 Epicentro: LOS SANTOS - SANTANDER                                             3
 ACTION:UPD 15-03-16 20:46 OP:nd   STATUS:               ID:20140723220611 L   I
 OLDACT:REG 14-07-24 02:52 OP:stll STATUS:               ID:20140723215818     3
 2014-07-23-2158-18M.COL___269                                                 6
 STAT SP IPHASW D HRMM SECON CODA AMPLIT PERI AZIMU VELO AIN AR TRES W  DIS CAZ7
 BAR2 SZ EP       22 6 31.43                             170    0.1510 24.9 193 
 BAR2 SZ ES       22 6 45.96                             170   -0.4510 24.9 193 
 BAR2 SZ I        22 6 48.16        13.8 0.26            167           24.9 193 
 BRR  HZ EP       22 6 33.33                             152    0.4910 72.1 297 
 BRR  HZ I        22 6 33.62         9.4 0.54            148           72.1 297 
 BRR  HN ES       22 6 50.29                             152    1.1010 72.1 297 
 PAM  SZ EP       22 6 33.94                             151    0.2010 75.4  39 
 PAM  SN ES       22 6 50.42                             151   -0.3810 75.4  39 
 PAM  SZ I        22 6 53.47        15.0 0.58            151           75.4  39 
 RUS  HZ EP       22 6 35.29                             143   -0.2110  102 177 
 RUS  HN ES       22 6 54.13                             143    0.2110  102 177 
 RUS  HZ I        22 6 56.57         8.9 0.48            139            102 177 
 PTB  HZ EP       22 6 38.40                             131   -0.44 9  150 258 
 PTB  HN ES       22 6 59.30                             131   -0.57 9  150 258 
 PTB  HZ I        22 7  6.82        13.4 0.46            126            150 258 
 SPBC HZ EP       22 6 40.33                             128   -0.07 9  165 219 
 SPBC HN ES       22 7  2.97                             128    0.32 9  165 219 
 SPBC HZ I        22 7  7.30        15.8 0.16            124            165 219 
 ZAR  HZ EP       22 6 44.80                             122    0.51 9  205 292 
 ZAR  HN ES       22 7  9.64                             122    0.07 9  205 292 
 ZAR  HZ I        22 7 12.14         6.2 0.16            118            205 292 
 NOR  HZ EP       22 6 47.41                             118   -0.30 8  237 234 
 NOR  HN ES       22 7 14.89                             118   -0.76 8  237 234 
 NOR  HZ I        22 7 17.68         6.5 0.22            114            237 234 
 SML  HZ EP       22 6 47.54                             117   -0.80 8  243 335 
 SML  HN ES       22 7 16.14                             117   -0.63 8  243 335 
 SML  HZ I        22 7 19.23        10.7 0.30            114            243 335 
 HEL  HZ EP       22 6 53.78                             114    1.59 8  274 256 
 HEL  HZ I        22 7 29.64         5.0 0.36            111            274 256 
 GUY2CHZ EP       22 6 56.07                             112    0.45 7  303 235 
 GUY2CHE ES       22 7 28.98                             112   -0.76 7  303 235 
 GUY2CHZ I        22 7 37.95         5.7 0.74                           303 235 
                                                                                
