 2010  923 2327 25.5 L   6.760 -73.099141.2  RSN  6 0.4 1.5LRSN                1
 GAP=164        0.90       5.7    14.2  7.9 -0.9917E+01 -0.1981E+02 -0.4145E+01E
 Epicentro: LOS SANTOS - SANTANDER                                             3
 ACTION:UP  11-02-18 11:05 OP:tino STATUS:               ID:20100923232725 L   I
 2010-09-23-2323-16S.COL___119                                                 6
 STAT SP IPHASW D HRMM SECON CODA AMPLIT PERI AZIMU VELO SNR AR TRES W  DIS CAZ7
 BAR2 SZ EP   1   2327 44.80                             171     0.3 7   21 207 
 BAR2 SZ ES       2327 58.89                             171    -0.510   21 207 
 BAR2 SZ I        2328  0.94         9.3 0.19                            21 207 
 BRR  HZ EP   1   2327 46.22                             149    -0.3 7   78 300 
 BRR  HE ES   2   2328  3.68                             149     0.7 5   78 300 
 BRR  HZ I        2328 26.50         9.9 0.43                            78 300 
 RUS  HZ EP   1   2327 48.55                             144     0.1 7   96 179 
 RUS  HN ES   2   2328  7.21                             144     0.8 5   96 179 
 RUS  HZ I        2328  8.01         2.8 0.40                            96 179 
 GUE  SZ EP   1   2327 49.88                             137    -0.2 7  120   9 
 GRA  SZ EP   1   2327 51.04                             135     0.5 7  129  15 
 CHI  HZ EP   1   2328  2.46                             116    -0.2 6  246 197 
 CHI  HE ES   2   2328 31.59                             116     0.0 4  246 197 
 CHI  HZ I        2328 34.65         2.1 0.43                           246 197 
                                                                                
