 2010  123 2012 41.7 L   5.983 -73.587126.5  RSN  8 0.5 2.0LRSN                1
 GAP= 91        0.90       5.0     9.3 13.1 -0.2473E+02  0.8099E+02 -0.1642E+02E
 Epicentro: GUEPSA - SANTANDER                                                 3
 ACTION:UP  10-08-24 09:45 OP:vdl  STATUS:               ID:20100123201241 L   I
 2010-01-23-2009-08S.COL___095                                                 6
 STAT SP IPHASW D HRMM SECON CODA AMPLIT PERI AZIMU VELO SNR AR TRES W  DIS CAZ7
 RUS  BZ IP       2013  0.38                             154    -0.310   57 100 
 RUS  BZ I        2013  1.01        15.0 0.37                            57 100 
 RUS  BE ES   2   2013 15.91                             154     0.4 5   57 100 
 BAR2 SZ EP   1   2013  1.56                             145    -0.2 7   81  33 
 BAR2 SZ ES   2   2013 16.75                             145    -0.7 5   81  33 
 GIR2 SZ EP   1   2013  6.35                             131     0.8 7  129  20 
 GIR2 SZ ES   2   2013 24.53                             131     0.4 5  129  20 
 CHI  HZ EP   1   2013  8.53                             127     0.5 7  151 186 
 CHI  HE ES   2   2013 28.27                             127    -0.2 5  151 186 
 CHI  HZ I        2013 31.83         8.9 0.24                           151 186 
 HEL  HZ EP   1   2013 14.12                             116    -0.7 6  216 276 
 HEL  HZ I        2013 44.63         6.9 0.41                           216 276 
 RREF BZ EP   1   2013 17.01                             115     0.5 6  229 239 
 RREF BN ES   2   2013 44.06                             115     0.4 4  229 239 
 RREF BZ I        2013 46.63         8.6 0.28                           229 239 
 OCA  SZ EP   1   2013 18.18                             112    -0.2 6  251   7 
 OCA  SZ ES   2   2013 47.19                             112     0.2 4  251   7 
 PRA  HZ EP   1   2013 22.00                             109    -0.6 5  289 210 
 PRA  HN ES   2   2013 54.55                             109     0.1 4  289 210 
 PRA  HZ I        2013 59.12        11.9 0.29                           289 210 
                                                                                
