 2017  623 2317 43.2 L   6.812 -73.118140.0  RSN  5 0.4 1.5LRSN                1
 GAP=260        0.73       5.8     4.9  7.9 -0.6691E+00  0.4126E+01  0.9752E+01E
 Epicentro: LOS SANTOS - SANTANDER                                             3
 ACTION:UPD 17-09-14 16:54 OP:jn   STATUS:               ID:20170623231743 L   I
 OLDACT:UP  17-06-24 05:19 OP:dani STATUS:               ID:20170623230739     3
 OLDACT:REG 17-06-24 04:36 OP:dani STATUS:               ID:20170623230739     3
 2017-06-23-2308-00M.COL___374                                                 6
 STAT SP IPHASW D HRMM SECON CODA AMPLIT PERI AZIMU VELO AIN AR TRES W  DIS CAZ7
 BAR2 EZ EP       2318  2.13                             169   -0.0010 25.4 196 
 BAR2 EZ ES   2   2318 16.96                             169    0.02 5 25.4 196 
 BAR2 EZ I        2318 18.62         5.6 0.26            169           25.4 196 
 BRR  HZ EP       2318  3.92                             151    0.1110 73.3 296 
 BRR  HN ES       2318 19.88                             151   -0.0310 73.3 296 
 BRR  HZ I        2318 22.68        12.1 0.44            145           73.3 296 
 PTB  HZ EP   1   2318  9.19                             130   -0.77 7  151 259 
 PTB  HN ES       2318 31.02                             130    0.15 9  151 259 
 PTB  HZ I        2318 34.88         1.8 0.36            129            151 259 
 ZAR  HZ EP   2   2318 16.73                             121    1.25 4  206 291 
 ZAR  HN ES       2318 40.54                             121   -0.15 8  206 291 
 ZAR  HZ I        2318 50.68         3.1 0.33            120            206 291 
 NOR  HN ES       2318 46.88                             117    0.07 8  238 235 
                                                                                
