 2010  623 2336 32.1 L   6.775 -73.055144.7  RSN 11 0.3 2.1LRSN                1
 GAP=133        0.69       2.8     5.7  4.9 -0.5447E+01 -0.4422E+01 -0.6288E-01E
 Epicentro: LOS SANTOS - SANTANDER                                             3
 ACTION:UP  10-08-24 10:12 OP:vdl  STATUS:               ID:20100623233632 L   I
 2010-06-23-2334-14S.COL___118                                                 6
 STAT SP IPHASW D HRMM SECON CODA AMPLIT PERI AZIMU VELO SNR AR TRES W  DIS CAZ7
 BAR2 SZ EP       2336 51.60                             170    -0.110   25 215 
 BAR2 SZ ES   1   2337  7.10                             170     0.2 7   25 215 
 BRR  HZ EP       2336 53.50                             149    -0.310   81 297 
 BRR  HE ES   1   2337 10.42                             149    -0.2 7   81 297 
 BRR  HZ I        2337 11.56        45.6 0.13                            81 297 
 RUS  HZ EP   1   2336 55.47                             145    -0.1 7   98 182 
 RUS  HE ES   1   2337 13.99                             145     0.1 7   98 182 
 RUS  HZ I        2337 15.86        12.1 0.33                            98 182 
 BRI  SZ EP   1   2336 56.23                             142     0.3 7  108  15 
 BRI  SZ ES   1   2337 14.29                             142    -0.1 7  108  15 
 GUE  SZ EP   1   2336 56.65                             139    -0.2 7  118   7 
 GRA  SZ IP       2336 57.47                             137     0.210  126  13 
 GRA  SZ ES   1   2337 17.15                             137     0.2 7  126  13 
 OCA  SZ EP       2337  0.35                             129    -0.4 9  165 350 
 OCA  SZ ES   1   2337 23.81                             129     0.7 7  165 350 
 OCA  SZ I        2337 25.45        20.4 0.33                           165 350 
 CHI  HN ES   2   2337 39.28                             117     0.1 4  249 198 
 CHI  HZ I        2337 44.68         4.9 0.23                           249 198 
 HEL  HZ EP   2   2337 13.53                             114     0.2 4  281 257 
 HEL  HZ I        2337 49.50         6.3 0.42                           281 257 
 SDV  BZ EP       2337 21.19                             109    -0.3 6  355  49 
 SDV  BZ I        2338  1.42         2.5 0.31                           355  49 
 PRA  HZ EP   1   2337 26.10                             106     0.2 4  395 211 
 PRA  HN ES   2   2338  8.71                             106     0.8 3  395 211 
 PRA  HZ I        2338 13.00         5.5 0.42                           395 211 
                                                                                
