 2012 1024 0921  3.3 L   6.747 -73.115139.6  RSN  7 0.2 2.4LRSN                1
 GAP=143        0.52       3.0     3.0  3.7  0.5248E+00  0.2797E+01 -0.1402E+00E
 Epicentro: JORDAN - SANTANDER                                                 3
 ACTION:UPD 12-11-22 17:05 OP:ep   STATUS:               ID:20121024092103 L   I
 2012-10-24-0920-00M.COL___234                                                 6
 STAT SP IPHASW D HRMM SECON CODA AMPLIT PERI AZIMU VELO AIN AR TRES W  DIS CAZ7
 BAR2 SZ EP        921 22.11                             172    0.0510 18.6 204 
 BAR2 SZ ES        921 36.56                             172   -0.1710 18.6 204 
 BAR2 SZ I         921 37.77        83.3 0.23                          18.6 204 
 GIR2 SZ EP        921 22.22                             164   -0.1810 37.8 347 
 BRR  HZ IP     C  921 24.04                             149   -0.0610 77.1 301 
 BRR  HZ I         921 24.50        85.5 0.12                          77.1 301 
 BRR  HN ES        921 40.79                             149    0.4310 77.1 301 
 PAM  SZ EP        921 25.07                             149    0.0810 80.0  35 
 PAM  SE ES        921 41.87                             149   -0.0710 80.0  35 
 PAM  SZ I         921 44.33        49.9 0.45                          80.0  35 
 RUS  HZ EP   1    921 26.24                             144    0.27 7 94.5 178 
 RUS  HN ES   1    921 43.57                             144   -0.11 7 94.5 178 
 RUS  HN I         921 45.20        28.2 0.24                          94.5 178 
 ZAR  HZ EP   1    921 35.59                             120   -0.29 6  210 293 
 ZAR  HE ES   1    922  1.06                             120   -0.27 6  210 293 
 ZAR  HZ I         922  9.20        17.4 0.29                           210 293 
 HEL  HZ EP   1    921 43.53                             113    0.15 6  274 257 
 HEL  HZ I         922 21.13         7.9 0.39                           274 257 
                                                                                
