 2012  924 0653 36.4 L   6.726 -73.163150.8  RSN  5 0.2 1.3LRSN                1
 GAP=180        0.47       4.8     5.3  7.6  0.1239E+02 -0.1446E+02 -0.8059E+01E
 Epicentro: VILLANUEVA - SANTANDER                                             3
 ACTION:UPD 12-10-22 14:20 OP:ep   STATUS:               ID:20120924065336 L   I
 2012-09-24-0650-00M.COL___221                                                 6
 STAT SP IPHASW D HRMM SECON CODA AMPLIT PERI AZIMU VELO AIN AR TRES W  DIS CAZ7
 BAR2 SZ EP   1    653 56.33                             174   -0.17 7 15.0 188 
 BAR2 SZ I         653 56.70         9.8 0.32                          15.0 188 
 GIR2 SZ EP   2    653 56.51                             165   -0.39 5 39.2 355 
 BRR  HZ EP   1    653 58.28                             152    0.04 7 73.9 305 
 BRR  HN ES   1    654 15.47                             152    0.19 7 73.9 305 
 BRR  HZ I         654 23.78         7.6 0.14                          73.9 305 
 RUS  HZ EP   1    654  0.44                             147    0.34 7 92.6 175 
 RUS  HE ES   1    654 18.48                             147   -0.11 7 92.6 175 
 RUS  HZ I         654 22.35         0.8 0.16                          92.6 175 
 PTB  HN ES   1    654 24.49                             134   -0.14 7  145 262 
                                                                                
