 2016  424 0110  9.4 L   6.801 -73.171139.8  RSN  8 0.3 2.0LRSN                1
 GAP=133        0.71       2.4     3.0  4.8 -0.1472E+01  0.6364E+01 -0.3079E+00E
 Epicentro: LOS SANTOS - SANTANDER                                             3
 ACTION:UPD 16-05-05 14:23 OP:rebc STATUS:               ID:20160424011009 L   I
 OLDACT:ARG 16-04-24 12:22 OP:cara STATUS:               ID:20160424010743     3
 2016-04-24-0107-43M.COL___318                                                 6
 STAT SP IPHASW D HRMM SECON CODA AMPLIT PERI AZIMU VELO AIN AR TRES W  DIS CAZ7
 BAR2 EZ IP        110 28.17                             170   -0.1310 23.1 183 
 BAR2 EZ ES        110 42.94                             170   -0.1010 23.1 183 
 BAR2 EZ I         110 44.35        24.7 0.26            172           23.1 183 
 PAM  EZ IP     C  110 31.26                             149    0.1810 79.2  41 
 PAM  EN ES        110 47.81                             149   -0.1910 79.2  41 
 PAM  EZ I         110 50.52        34.7 0.90            152           79.2  41 
 RUS  HZ EP        110 32.26                             142   -0.3210  101 174 
 RUS  HN ES        110 51.10                             142    0.4310  101 174 
 RUS  HZ I         110 51.88         9.3 0.30            149            101 174 
 PTB  HZ EP        110 35.12                             131   -0.50 9  145 259 
 PTB  HN ES        110 55.80                             131   -0.28 9  145 259 
 PTB  HZ I         111  1.06        12.0 0.50            132            145 259 
 OCA  HN ES        110 59.01                             128    0.11 9  160 354 
 OCA  HZ I         111  8.02        22.6 0.14            129            160 354 
 SPBC HZ EP        110 37.44                             128    0.17 9  161 218 
 SPBC HN ES        110 59.23                             128    0.21 9  161 218 
 SPBC HZ I         111  4.18        20.6 0.22            131            161 218 
 ZAR  HZ EP        110 41.66                             121    0.48 9  201 292 
 ZAR  HN ES        111  6.21                             121    0.24 9  201 292 
 ZAR  HZ I         111 16.36        10.0 0.16            122            201 292 
 GUY2CHZ EP        110 52.37                             111   -0.10 7  299 234 
 GUY2CHE ES        111 25.94                             111   -0.13 7  299 234 
 GUY2CHZ I         111 34.58         3.7 0.58                           299 234 
                                                                                
