 2015 1124 0521 56.0 L   6.783 -73.147145.3  RSN  8 0.4 1.3LRSN                1
 GAP=137        1.00       3.5     4.3  6.2 -0.1631E+00  0.5761E+01 -0.3180E+01E
 Epicentro: LOS SANTOS - SANTANDER                                             3
 ACTION:UPD 15-12-28 16:13 OP:cam  STATUS:               ID:20151124052156 L   I
 OLDACT:REG 15-11-24 12:49 OP:ak   STATUS:               ID:20151124051750     3
 2015-11-24-0517-50M.COL___215                                                 6
 STAT SP IPHASW D HRMM SECON CODA AMPLIT PERI AZIMU VELO AIN AR TRES W  DIS CAZ7
 BAR2 EZ EP        522 14.89                             171   -0.6510 21.5 191 
 BAR2 EZ ES        522 30.72                             171   -0.0710 21.5 191 
 BAR2 EZ I         522 31.68         4.9 0.24            170           21.5 191 
 BRR  HZ EP        522 17.63                             152    0.4810 72.0 300 
 BRR  HN ES        522 34.04                             152    0.3910 72.0 300 
 BRR  HZ I         522 34.92         4.4 0.10            152           72.0 300 
 PAM  EZ EP        522 18.67                             150    0.4110 78.9  39 
 PAM  EE ES        522 35.43                             150   -0.2010 78.9  39 
 PAM  EZ I         522 37.46         4.1 0.56            153           78.9  39 
 RUS  HZ EP        522 20.06                             144    0.4810 98.7 176 
 RUS  HN ES        522 37.80                             144   -0.1710 98.7 176 
 RUS  HZ I         522 40.29         2.1 0.32            145           98.7 176 
 PTB  HZ EP   1    522 21.99                             132   -0.90 7  147 260 
 PTB  HE ES        522 43.60                             132   -0.27 9  147 260 
 PTB  HZ I         522 45.69         2.3 0.20            132            147 260 
 SPBC HZ EP        522 24.50                             129    0.18 9  162 219 
 SPBC HN ES        522 46.41                             129   -0.01 9  162 219 
 SPBC HZ I         522 51.88         2.6 0.18            130            162 219 
 ZAR  HZ EP   1    522 29.02                             122    0.54 6  205 293 
 ZAR  HN ES        522 53.98                             122    0.16 9  205 293 
 ZAR  HZ I         522 56.94         2.9 0.31            123            205 293 
 SML  HZ EP        522 32.20                             117   -0.58 8  245 335 
 SML  HE ES        523  1.30                             117   -0.17 8  245 335 
                                                                                
