 2013  424 0910 57.5 L   7.172 -73.765 11.8  RSN  6 0.3 2.3LRSN                1
 GAP=122        0.71       1.7     2.7  3.0 -0.9817E+00 -0.2866E+00  0.2795E+00E
 Epicentro: BARRANCABERMEJA - SANTANDER                                        3
 ACTION:UPD 13-05-22 14:40 OP:EP   STATUS:               ID:20130424091057 L   I
 2013-04-24-0908-41M.COL___206                                                 6
 STAT SP IPHASW D HRMM SECON CODA AMPLIT PERI AZIMU VELO AIN AR TRES W  DIS CAZ7
 BRR  HZ IP     D  911  0.11                             138    0.0110 9.23 141 
 BRR  HN I         911  2.55      1244.0 0.16            123           9.23 141 
 BRR  HN ES   2    911  2.56                             138    0.46 5 9.23 141 
 BAR2 SZ EP        911 11.94                              95   -0.2510 90.8 135 
 BAR2 SZ I         911 32.69        13.7 0.58             96           90.8 135 
 PTB  HZ EP        911 14.02                              94    0.1310  104 228 
 PTB  HN ES   1    911 26.28                              94   -0.36 7  104 228 
 PTB  HN I         911 27.85        72.5 0.14             97            104 228 
 OCA  HZ EP        911 18.12                              94    0.4310  128  23 
 OCA  HN ES        911 32.89                              94   -0.5210  128  23 
 OCA  HE I         911 36.60       131.7 0.20             95            128  23 
 RUS  HZ EP        911 22.78                              56    0.03 9  160 152 
 RUS  HN ES        911 42.45                              56    0.03 9  160 152 
 RUS  HN I         911 44.66        49.8 0.52             56            160 152 
 SML  HZ EP   1    911 25.44                              56    0.41 7  183 349 
 SML  HN ES   2    911 46.68                              56    0.21 4  183 349 
 SML  HN I         911 49.88        66.5 0.10             56            183 349 
                                                                                
