 2015  524 0413 25.9 L   6.310 -73.584114.0  RSN  5 0.3 1.2LRSN                1
 GAP= 96        0.64       3.0     4.3  6.4  0.2559E+01  0.1266E+02 -0.7037E+00E
 Epicentro: SANTA HELENA DEL OPON - SANTANDER                                  3
 ACTION:UPD 15-09-10 22:06 OP:cam  STATUS:               ID:20150524041325 L   I
 OLDACT:REG 15-05-24 12:26 OP:spq  STATUS:               ID:20150524040748     3
 2015-05-24-0407-48M.COL___291                                                 6
 STAT SP IPHASW D HRMM SECON CODA AMPLIT PERI AZIMU VELO AIN AR TRES W  DIS CAZ7
 BAR2 EZ EP   1    413 43.11                             153    0.15 7 54.3  55 
 BAR2 EZ ES   1    413 56.33                             153    0.03 7 54.3  55 
 BAR2 EZ I         413 57.45         6.2 0.40            160           54.3  55 
 RUS  HZ EP   1    413 44.35                             146   -0.09 7 72.2 130 
 RUS  HN ES   1    413 58.73                             146   -0.21 7 72.2 130 
 RUS  HZ I         414  1.29         2.2 0.34            156           72.2 130 
 BRR  HZ EP        413 44.69                             139   -0.3310 89.2 351 
 BRR  HE ES        414  0.25                             139    0.2910 89.2 351 
 BRR  HZ I         414  6.52         3.1 0.52            143           89.2 351 
 SPBC HZ EP   1    413 45.91                             139    0.65 7 90.7 217 
 SPBC HN ES   1    414  0.21                             139   -0.19 7 90.7 217 
 SPBC HZ I         414  3.86         5.5 0.21            143           90.7 217 
 ZAR  HZ EP        413 55.07                             116   -0.06 9  192 313 
 ZAR  HE ES   1    414 17.71                             116   -0.26 7  192 313 
 ZAR  HZ I         414 21.35         2.3 0.34            121            192 313 
                                                                                
