 2010  124 0714  6.2 L   6.822 -73.064145.0  RSN 12 0.3 2.4LRSN                1
 GAP=191        0.61       2.3     4.9  3.8 -0.1326E+01  0.8880E+01  0.1275E+01E
 Epicentro: LOS SANTOS - SANTANDER                                             3
 ACTION:UP  10-08-24 09:45 OP:vdl  STATUS:               ID:20100124071406 L   I
 2010-01-24-0712-19S.COL___095                                                 6
 STAT SP IPHASW D HRMM SECON CODA AMPLIT PERI AZIMU VELO SNR AR TRES W  DIS CAZ7
 BAR2 SZ IP        714 25.94                             168     0.010   29 208 
 BAR2 SZ ES   1    714 41.05                             168    -0.2 7   29 208 
 GIR2 SZ EP        714 25.97                             167     0.110   32 333 
 GIR2 SZ ES        714 41.01                             167    -0.110   32 333 
 RUS  BZ EP        714 29.88                             143    -0.210  103 181 
 RUS  BN ES        714 48.73                             143     0.110  103 181 
 RUS  BZ I         714 51.57        23.6 0.50                           103 181 
 OCA  SZ EP        714 34.17                             130    -0.2 9  159 350 
 OCA  SZ ES   1    714 56.84                             130     0.5 7  159 350 
 CHI  HZ EP        714 44.23                             116    -0.2 8  253 197 
 CHI  HN ES   1    715 14.55                             116     0.4 6  253 197 
 CHI  HZ I         715 23.09        15.2 0.35                           253 197 
 ROSC BZ EP   1    714 45.59                             116     0.5 6  260 212 
 ROSC BE ES   2    715 15.63                             116     0.3 4  260 212 
 ROSC BZ I         715 23.82        14.4 0.60                           260 212 
 HEL  HZ EP   1    714 48.07                             114     0.6 6  281 256 
 HEL  HN ES   1    715 19.03                             114    -0.6 6  281 256 
 HEL  HZ I         715 25.53        17.5 0.57                           281 256 
 RREF BZ EP        714 53.10                             110    -0.2 7  330 230 
 RREF BN ES   2    715 30.57                             110     0.5 3  330 230 
 RREF BZ I         715 38.45        17.8 0.04                           330 230 
 DBB  SZ EP   1    714 54.49                             109    -0.2 5  348 274 
 TOL  SZ EP        714 55.30                             109    -0.1 6  352 225 
 ANIL BZ EP   1    714 57.37                             108     0.4 5  365 225 
 PRA  HZ EP        715  0.15                             106    -0.3 6  399 211 
 PRA  HN ES   2    715 42.71                             106    -0.1 3  399 211 
                                                                                
