 2012  324 0845 53.4 L   6.757 -73.412126.0  RSN  4 0.3 1.4LRSN                1
 GAP=166        0.67       6.7     6.8  8.1  0.2483E+02  0.8596E+01  0.1100E+02E
 ACTION:UP  12-03-31 23:22 OP:EP   STATUS:               ID:20120324084553 L   I
 2012-03-24-0840-00M.COL___196                                                 6
 STAT SP IPHASW D HRMM SECON CODA AMPLIT PERI AZIMU VELO SNR AR TRES W  DIS CAZ7
 BAR2 SZ EP        846 10.63                             165    -0.210   31 126 
 BAR2 SZ I         846 10.96        14.2 0.26                            31 126 
 BAR2 SZ ES   2    846 24.06                             165    -0.4 5   31 126 
 BRR  HZ EP   1    846 11.31                             157     0.0 7   51 319 
 BRR  HZ I         846 11.51        12.6 0.14                            51 319 
 BRR  HN ES   1    846 25.64                             157     0.4 7   51 319 
 RUS  HZ EP   1    846 15.82                             139     0.4 7  102 159 
 RUS  HN ES   1    846 32.64                             139     0.1 7  102 159 
 RUS  HZ I         846 33.85         3.2 0.26                           102 159 
 PTB  HZ EP   1    846 15.88                             134    -0.2 7  118 258 
 PTB  HN ES   2    846 33.60                             134    -0.1 5  118 258 
 PTB  HZ I         846 39.47         2.3 0.36                           118 258 
                                                                                
