 2010  624 0526  1.0 L   6.781 -73.077142.1  RSN  6 0.3 1.3LRSN                1
 GAP=166        0.75       4.2     9.5  9.3  0.1480E+01 -0.4235E+02 -0.6432E+01E
 Epicentro: LOS SANTOS - SANTANDER                                             3
 ACTION:UP  10-08-24 10:12 OP:vdl  STATUS:               ID:20100624052601 L   I
 2010-06-24-0523-13S.COL___118                                                 6
 STAT SP IPHASW D HRMM SECON CODA AMPLIT PERI AZIMU VELO SNR AR TRES W  DIS CAZ7
 BAR2 SZ EP        526 19.97                             170    -0.210   24 209 
 BAR2 SZ ES   2    526 34.70                             170    -0.5 5   24 209 
 BRR  HZ EP        526 22.00                             150    -0.210   79 297 
 BRR  HE ES   1    526 39.06                             150     0.3 7   79 297 
 BRR  HZ I         526 40.03         6.0 0.09                            79 297 
 RUS  HZ EP        526 24.18                             144     0.010   98 180 
 RUS  HN ES   2    526 42.82                             144     0.5 5   98 180 
 RUS  HZ I         526 44.50         2.1 0.36                            98 180 
 GUE  SZ EP        526 25.95                             138     0.510  117   8 
 GRA  SZ EP        526 25.87                             136     0.010  126  14 
 GRA  SZ ES   2    526 45.13                             136    -0.2 5  126  14 
 OCA  SZ EP   2    526 28.78                             128    -0.5 5  163 351 
 OCA  SZ ES   2    526 50.99                             128    -0.4 5  163 351 
 OCA  SZ I         526 53.65         3.3 0.68                           163 351 
                                                                                
