 2010  424 0815 48.6 L   6.786 -73.057149.3  RSN 13 0.4 2.5LRSN                1
 GAP=162        0.76       4.3     5.9  5.7 -0.1590E+02 -0.6512E+01  0.6098E+01E
 Epicentro: LOS SANTOS - SANTANDER                                             3
 ACTION:UPD 10-08-24 10:00 OP:vdl  STATUS:               ID:20100424081556 L   I
 2010-04-24-0813-21S.COL___104                                                 6
 STAT SP IPHASW D HRMM SECON CODA AMPLIT PERI AZIMU VELO AIN AR TRES W  DIS CAZ7
 BAR2 SZ IP        816  8.52                             170    -0.210   26 213 
 BAR2 SZ ES   1    816 23.94                             170    -0.4 7   26 213 
 BRR  HZ IP     C  816 10.87                             150     0.210   81 296 
 BRR  HN ES   1    816 27.99                             150     0.1 7   81 296 
 BRR  HZ I         816 30.13        44.2 0.22                            81 296 
 BRI  SZ IP        816 13.07                             142     0.410  107  16 
 BRI  SZ ES   2    816 31.17                             142    -0.3 5  107  16 
 GUE  SZ IP        816 13.50                             140    -0.110  116   7 
 GRA  SZ IP        816 14.31                             138     0.310  125  13 
 GRA  SZ ES   1    816 34.11                             138     0.2 7  125  13 
 OCA  SZ EP   1    816 16.93                             130    -0.5 7  163 350 
 OCA  SZ ES   1    816 39.82                             130    -0.1 7  163 350 
 OCA  SZ I         816 43.93        59.1 0.44                           163 350 
 ROSC BE ES   2    816 58.88                             117     1.4 4  257 213 
 ROSC BZ I         817  2.91        18.9 0.32                           257 213 
 HEL  HZ EP   2    816 30.14                             115     0.2 4  281 257 
 HEL  HN ES   2    817  2.66                             115     0.4 4  281 257 
 HEL  HZ I         817  6.88        12.4 0.58                           281 257 
 RREF BZ EP   2    816 35.67                             111     0.1 3  328 231 
 RREF BE ES   2    817 12.25                             111    -0.1 3  328 231 
 RREF BZ I         817 20.00        18.6 0.37                           328 231 
 TOL  SZ EP   2    816 37.98                             109     0.3 3  349 226 
 DBB  SZ EP   2    816 36.07                             109    -1.3 3  349 274 
 SDV  BZ IP     C  816 37.93                             109    -0.1 6  354  49 
 SDV  BZ I         816 38.77         5.8 0.17                           354  49 
 PRA  HZ EP   1    816 42.06                             107    -0.6 4  396 211 
 PRA  HE ES   1    817 24.18                             107    -0.6 4  396 211 
 PRA  HZ I         817 30.22        19.9 0.34                           396 211 
                                                                                
