 2010 1024 0516 34.6 L   6.529 -73.518107.2  RSN  6 0.2 1.7LRSN                1
 GAP=115        0.61       3.2     4.7  5.3  0.4856E+01  0.5715E+01  0.3640E+01E
 Epicentro: EL CARMEN DE CHUCURI - SANTANDER                                   3
 ACTION:UP  11-02-18 11:11 OP:tino STATUS:               ID:20101024051634 L   I
 2010-10-24-0512-19S.COL___125                                                 6
 STAT SP IPHASW D HRMM SECON CODA AMPLIT PERI AZIMU VELO SNR AR TRES W  DIS CAZ7
 BAR2 SZ IP        516 50.21                             159     0.110   38  79 
 BAR2 SZ ES   1    517  2.38                             159     0.2 7   38  79 
 BAR2 SZ I         517  3.92        69.2 0.37                            38  79 
 BRR  HZ EP        516 51.12                             145    -0.310   67 341 
 BRR  HN ES   1    517  4.79                             145     0.2 7   67 341 
 BRR  HZ I         517  6.31        12.2 0.21                            67 341 
 RUS  HZ EP   1    516 53.22                             139    -0.2 7   85 146 
 RUS  HE ES   1    517  8.02                             139    -0.2 7   85 146 
 RUS  HZ I         517 10.35         5.2 0.08                            85 146 
 GRA  SZ EP   2    517  1.59                             118     0.4 5  169  28 
 GRA  SZ ES   1    517 21.74                             118    -0.2 7  169  28 
 GRA  SZ I         517 26.12         5.8 0.58                           169  28 
 YOP  SZ IP        517  2.24                             116     0.2 9  178 137 
 HEL  HZ EP   1    517  7.93                             110     0.2 6  226 261 
 HEL  HZ I         517 36.42         2.6 0.09                           226 261 
                                                                                
