 2015  324 0930 20.7 L   6.781 -73.166145.5  RSN 10 0.4 1.9LRSN                1
 GAP=135        1.16       3.4     4.6  6.6 -0.2665E+01  0.7747E+01 -0.3858E+01E
 Epicentro: LOS SANTOS - SANTANDER                                             3
 ACTION:UPD 15-04-30 16:29 OP:nd   STATUS:               ID:20150324093020 L   I
 OLDACT:REG 15-03-24 12:56 OP:fm   STATUS:               ID:20150324092737     3
 2015-03-24-0927-37M.COL___272                                                 6
 STAT SP IPHASW D HRMM SECON CODA AMPLIT PERI AZIMU VELO AIN AR TRES W  DIS CAZ7
 BAR2 EZ EP        930 40.37                             171    0.1510 21.0 185 
 BAR2 EZ ES        930 55.33                             171   -0.1410 21.0 185 
 BAR2 EZ I         930 57.39        13.3 0.20            173           21.0 185 
 BRR  HZ EP     D  930 42.39                             153    0.6610 70.3 301 
 BRR  HN ES        930 59.13                             153    0.9610 70.3 301 
 BRR  HZ I         931  0.63        10.8 0.28            151           70.3 301 
 PAM  SZ IP     D  930 43.40                             150    0.3610 80.4  40 
 PAM  SE ES        931  0.22                             150   -0.2710 80.4  40 
 PAM  SZ I         931  3.03         4.6 0.48            152           80.4  40 
 RUS  HZ EP        930 44.22                             144   -0.0310 98.7 175 
 RUS  HN ES        931  2.38                             144   -0.2710 98.7 175 
 RUS  HZ I         931  3.89         9.7 0.32            148           98.7 175 
 PTB  HZ EP        930 47.13                             132   -0.25 9  145 259 
 PTB  HN ES        931  7.25                             132   -0.96 9  145 259 
 PTB  HZ I         931 11.12         7.6 0.26            133            145 259 
 SPBC HZ EP        930 49.24                             130    0.38 9  160 219 
 SPBC HE ES        931 11.09                             130    0.24 9  160 219 
 SPBC HZ I         931 13.96         9.2 0.40            131            160 219 
 OCA  HZ EP        930 48.69                             129   -0.44 9  162 354 
 OCA  HN ES        931 10.71                             129   -0.62 9  162 354 
 OCA  HZ I         931 19.61        17.1 0.22            130            162 354 
 ZAR  HZ EP        930 53.18                             122    0.22 9  203 293 
 ZAR  HN ES        931 18.37                             122    0.22 9  203 293 
 ZAR  HZ I         931 24.51         9.9 0.46            123            203 293 
 NOR  HE ES        931 23.29                             119   -0.36 8  232 235 
 NOR  HZ I         931 29.70         4.5 0.16            120            232 235 
 SML  HZ EP        930 57.11                             117   -0.27 8  245 336 
 SML  HE ES        931 26.16                             117    0.14 8  245 336 
 SML  HZ I         931 30.38        10.6 0.24            118            245 336 
                                                                                
