 2017  724 0655 43.9 L   6.819 -73.146143.1  RSN 11 0.5 1.5LRSN                1
 GAP=185        0.74       4.4     3.7  5.4  0.9009E+01  0.3669E-01 -0.4173E+01E
 Epicentro: LOS SANTOS - SANTANDER                                             3
 ACTION:UPD 17-08-30 15:36 OP:rebc STATUS:               ID:20170724065543 L   I
 OLDACT:UP  17-07-24 18:16 OP:and  STATUS:               ID:20170724064735     3
 OLDACT:UP  17-07-24 18:15 OP:and  STATUS:               ID:20170724064735     3
 OLDACT:UP  17-07-24 18:15 OP:and  STATUS:               ID:20170724064735     3
 OLDACT:UP  17-07-24 18:14 OP:and  STATUS:               ID:20170724064735     3
 OLDACT:UP  17-07-24 18:13 OP:and  STATUS:               ID:20170724064735     3
 OLDACT:UP  17-07-24 18:13 OP:and  STATUS:               ID:20170724064735     3
 OLDACT:UP  17-07-24 18:12 OP:and  STATUS:               ID:20170724064735     3
 OLDACT:UP  17-07-24 17:58 OP:and  STATUS:               ID:20170724064735     3
 OLDACT:UP  17-07-24 17:58 OP:and  STATUS:               ID:20170724064735     3
 OLDACT:UP  17-07-24 17:58 OP:and  STATUS:               ID:20170724064735     3
 OLDACT:UP  17-07-24 17:58 OP:and  STATUS:               ID:20170724064735     3
 OLDACT:REG 17-07-24 13:04 OP:and  STATUS:               ID:20170724064735     3
 2017-07-24-0648-00M.COL___380                                                 6
 STAT SP IPHASW D HRMM SECON CODA AMPLIT PERI AZIMU VELO AIN AR TRES W  DIS CAZ7
 BAR2 EZ EP        656  3.31                             170    0.0310 25.4 189 
 BAR2 EZ ES        656 18.31                             170   -0.0710 25.4 189 
 BAR2 EZ I         656 19.49         6.5 0.28            168           25.4 189 
 BRR  HZ IP     C  656  5.04                             152    0.3110 70.2 297 
 BRR  HN ES   3    656 22.40                             152    1.44 2 70.2 297 
 BRR  HZ I         656 24.67         5.1 0.32            151           70.2 297 
 RUS  HZ EP   2 C  656  8.23                             143    0.66 5  103 176 
 RUS  HN ES        656 26.05                             143    0.0410  103 176 
 RUS  HZ I         656 26.90         2.4 0.18            143            103 176 
 PTB  HZ EP        656 10.03                             131   -0.69 9  148 258 
 PTB  HN ES        656 31.45                             131   -0.16 9  148 258 
 PTB  HZ I         656 32.92         2.5 0.16            131            148 258 
 SPBC HN ES   2    656 33.90                             128   -0.67 5  165 219 
 SPBC HZ I         656 36.68         5.2 0.10            128            165 219 
 YPLC HZ IP     D  656 13.67                             126   -0.04 9  179 152 
 YPLC HN ES        656 36.98                             126    0.04 9  179 152 
 YPLC HZ I         656 38.63         2.5 0.24            127            179 152 
 ZAR  HZ EP   3    656 17.17                             122    1.05 2  203 292 
 ZAR  HN ES        656 41.15                             122   -0.08 9  203 292 
 ZAR  HZ I         656 46.94         3.0 0.18            122            203 292 
 NOR  HZ EP        656 19.93                             118    0.30 8  236 234 
 NOR  HN ES   2    656 48.51                             118    1.02 4  236 234 
 NOR  HZ I         656 52.80         2.2 0.13            118            236 234 
 GUY2CHZ EP   9    656 29.94                             112    2.39 0  302 234 
 GUY2CHN ES        657  4.21                             112    0.24 7  302 234 
 GUY2CHZ I         657  9.46         1.4 0.36                           302 234 
 PTGC HZ EP   9    656 26.49                             111   -1.39 0  311 159 
 PTGC HN ES        657  0.47                             112   -0.31 7  311 159 
 SJC  HZ EP   3    656 37.50                             105   -1.69 1  407 327 
 SJC  HN ES   4    657 19.51                             105   -2.80 0  407 327 
 SJC  HZ I         657 21.93         1.2 0.54            106            407 327 
                                                                                
