 2011 1224 0424 38.6 L   6.792 -73.130139.5  RSN 10 0.2 2.2LRSN                1
 GAP=139        0.41       1.5     2.0  2.6 -0.2556E+00  0.1066E+01  0.4669E+00E
 Epicentro: LOS SANTOS - SANTANDER                                             3
 ACTION:UPD 12-07-13 16:18 OP:ep   STATUS:               ID:20111224042438 L   I
 2011-12-24-0420-00M.COL___189                                                 6
 STAT SP IPHASW D HRMM SECON CODA AMPLIT PERI AZIMU VELO AIN AR TRES W  DIS CAZ7
 BAR2 SZ EP        424 57.49                             170    0.0110 22.8 195 
 BAR2 SZ ES        425 12.08                             170   -0.1210 22.8 195 
 BAR2 SZ I         425 15.11        34.5 0.24                          22.8 195 
 GIR2 SZ EP   1    424 57.45                             166   -0.13 7 32.5 347 
 BRR  HZ IP     D  424 59.25                             151    0.0510 73.2 298 
 BRR  HN ES        425 15.39                             151    0.1210 73.2 298 
 BRR  HZ I         425 20.60        24.7 0.06                          73.2 298 
 PAM  SZ EP        425  0.27                             150    0.1310 77.0  38 
 PAM  SN ES   1    425 16.87                             150   -0.06 7 77.0  38 
 RUS  HZ EP        425  1.57                             143   -0.1110 99.6 177 
 RUS  HE ES   1    425 19.68                             143    0.01 7 99.6 177 
 RUS  HZ I         425 22.06        27.6 0.42                          99.6 177 
 OCA  SZ EP        425  6.44                             128   -0.11 9  161 353 
 OCA  SZ ES   1    425 28.58                             128    0.24 7  161 353 
 OCA  SZ I         425 34.58        20.2 0.15                           161 353 
 ZAR  HZ EP   2    425 10.63                             121   -0.23 4  206 292 
 ZAR  HN ES   1    425 35.71                             121   -0.31 6  206 292 
 ZAR  HZ I         425 40.73        14.6 0.19                           206 292 
 NOR  SZ EP   1    425 13.55                             117   -0.53 6  236 235 
 NOR  SE ES   1    425 41.82                             117    0.07 6  236 235 
 CHI  HZ EP        425 16.02                             116    0.09 8  248 196 
 CHI  HE ES   1    425 45.32                             116    0.29 6  248 196 
 CHI  HZ I         425 54.14         5.4 0.23                           248 196 
 HEL  HZ EP   1    425 19.13                             113    0.45 6  274 256 
 HEL  HE ES   1    425 50.02                             113    0.09 6  274 256 
 HEL  HZ I         425 56.12        11.2 0.44                           274 256 
                                                                                
