 2011 1024 0631  6.1 L   6.744 -73.045140.0  RSN  5 0.3 1.5LRSN                1
 GAP=153        0.62       4.1     5.4  5.9 -0.5490E+01  0.6653E+01  0.4196E+01E
 Epicentro: ARATOCA - SANTANDER                                                3
 ACTION:UPD 12-07-13 16:05 OP:ep   STATUS:               ID:20111024063106 L   I
 2011-10-24-0629-58S.COL___171                                                 6
 STAT SP IPHASW D HRMM SECON CODA AMPLIT PERI AZIMU VELO AIN AR TRES W  DIS CAZ7
 BAR2 SZ EP   1    631 24.91                             170   -0.16 7 22.6 222 
 BAR2 SZ ES   1    631 39.78                             170   -0.04 7 22.6 222 
 BAR2 SZ I         631 41.60        11.3 0.14                          22.6 222 
 PAM  SZ EP   1    631 27.52                             150   -0.15 7 76.1  30 
 PAM  SN ES   1    631 44.78                             150    0.32 7 76.1  30 
 BRR  HZ EP   1    631 26.84                             147   -0.62 7 83.9 299 
 BRR  HN ES   1    631 44.38                             147    0.29 7 83.9 299 
 BRR  HZ I         631 46.41         5.1 0.11                          83.9 299 
 RUS  HZ EP   1    631 29.01                             145    0.14 7 94.2 183 
 RUS  HN ES   1    631 46.55                             145   -0.05 7 94.2 183 
 RUS  HZ I         631 49.07         3.6 0.31                          94.2 183 
 RREF HZ EP   1    631 53.26                             110    0.69 5  326 231 
 RREF HN ES   1    632 28.71                             110   -0.08 5  326 231 
 RREF HZ I         632 36.75         1.8 0.36                           326 231 
                                                                                
