 2013  524 0916 19.3 L   6.791 -73.141140.9  RSN  6 0.3 2.1LRSN                1
 GAP=138        0.93       4.7     4.7  6.1 -0.2488E+01  0.3474E+01  0.3568E+01E
 Epicentro: LOS SANTOS - SANTANDER                                             3
 ACTION:UPD 13-06-20 09:53 OP:ep   STATUS:               ID:20130524091619 L   I
 2013-05-24-0908-50M.COL___196                                                 6
 STAT SP IPHASW D HRMM SECON CODA AMPLIT PERI AZIMU VELO AIN AR TRES W  DIS CAZ7
 BAR2 SZ EP        916 38.48                             170    0.1910 22.5 192 
 BAR2 SZ ES        916 53.17                             170    0.0410 22.5 192 
 BAR2 SZ I         916 54.96        13.3 0.24            171           22.5 192 
 GIR2 SZ EP        916 38.37                             166   -0.0110 32.3 350 
 GIR2 SZ ES        916 52.84                             166   -0.4610 32.3 350 
 BRR  HZ EP        916 40.15                             151    0.2110 72.1 299 
 BRR  HN ES        916 56.90                             151    0.8310 72.1 299 
 BRR  HN I         917  0.04        40.3 0.18            151           72.1 299 
 PAM  SZ EP        916 41.04                             150    0.0610 77.8  39 
 PAM  SZ I         916 41.39        36.0 0.20            151           77.8  39 
 PAM  SN ES        916 57.62                             150   -0.3110 77.8  39 
 RUS  HZ EP        916 42.49                             143    0.0310 99.6 176 
 RUS  HN ES        917  0.66                             143    0.1010 99.6 176 
 PTB  HZ EP        916 45.66                             131   -0.20 9  148 259 
 PTB  HN ES        917  6.05                             131   -0.57 9  148 259 
                                                                                
