 2012  424 0115 24.3 L   6.713 -73.208145.1  RSN  6 0.4 1.6LRSN                1
 GAP=129        1.00       8.3     7.0 10.2  0.2254E+02 -0.1471E+01 -0.1507E+02E
 Epicentro: VILLANUEVA - SANTANDER                                             3
 ACTION:UPD 12-07-05 11:55 OP:tino STATUS:               ID:20120424011524 L   I
 2012-04-24-0110-00M.COL___186                                                 6
 STAT SP IPHASW D HRMM SECON CODA AMPLIT PERI AZIMU VELO AIN AR TRES W  DIS CAZ7
 BAR2 SZ EP   1    115 43.49                             174    -0.2 7   14 168 
 BAR2 SZ ES   1    115 58.20                             174    -0.6 7   14 168 
 BAR2 SZ I         115 59.58        10.6 0.20                            14 168 
 BRR  HZ EP   1    115 45.52                             153     0.2 7   71 308 
 BRR  HZ I         115 47.68        12.5 0.13                            71 308 
 BRR  HN ES   1    116  2.58                             153     0.9 7   71 308 
 PAM  SZ EP   1    115 46.74                             147    -0.4 7   89  39 
 RUS  HZ EP   1    115 47.82                             146     0.5 7   92 171 
 RUS  HN ES   1    116  5.43                             146     0.1 7   92 171 
 RUS  HZ I         116  7.70         4.9 0.45                            92 171 
 PTB  HZ EP   1    115 50.40                             134     0.0 7  139 262 
 PTB  HN ES   1    116 10.41                             134    -0.4 7  139 262 
 PTB  HZ I         116 13.79         2.9 0.10                           139 262 
 ZAR  HN ES   1    116 21.23                             123    -0.3 6  202 295 
                                                                                
