 2011  924 0043 25.7 L   6.757 -73.095141.3  RSN  7 0.2 1.6LRSN                1
 GAP=145        0.50       2.2     4.3  3.6  0.6806E+00 -0.1481E+01 -0.4387E+00E
 Epicentro: LOS SANTOS - SANTANDER                                             3
 ACTION:UPD 12-07-13 15:59 OP:ep   STATUS:               ID:20110924004325 L   I
 2011-09-24-0040-00M.COL___167                                                 6
 STAT SP IPHASW D HRMM SECON CODA AMPLIT PERI AZIMU VELO AIN AR TRES W  DIS CAZ7
 BAR2 SZ EP        043 44.62                             171   -0.1610 20.6 208 
 BAR2 SZ ES        043 59.53                             171   -0.1010 20.6 208 
 BAR2 SZ I         044  2.45         9.1 0.29                          20.6 208 
 BTL  SZ EP        043 45.34                             169    0.4510 26.1 313 
 PAM  SZ EP   1    043 47.65                             150    0.15 7 77.8  34 
 PAM  SN ES   1    044  4.28                             150   -0.21 7 77.8  34 
 BRR  HZ EP        043 46.70                             149   -0.1310 78.4 300 
 BRR  HN ES        044  3.39                             149    0.1010 78.4 300 
 BRR  HZ I         044  5.63         9.7 0.13                          78.4 300 
 RUS  HZ EP        043 48.74                             144    0.0510 95.6 179 
 RUS  HE ES   1    044  6.68                             144    0.08 7 95.6 179 
 OCA  SZ EP        043 54.09                             128   -0.13 9  166 351 
 OCA  SZ ES   1    044 16.39                             128   -0.05 7  166 351 
 OCA  SZ I         044 20.20         6.1 0.42                           166 351 
 CHI  HZ EP   2    044  2.98                             116    0.12 4  246 197 
 CHI  HN ES   2    044 31.22                             116   -0.60 4  246 197 
 CHI  HZ I         044 41.00         2.5 0.42                           246 197 
                                                                                
