 2010  324 0720 46.1 L   6.797 -73.059149.9  RSN 13 0.4 3.4LRSN                1
 GAP=132        0.92       3.9     6.5  5.7 -0.4980E+01  0.5412E+01  0.1675E+01E
 Epicentro: LOS SANTOS - SANTANDER                                             3
 ACTION:UP  10-08-24 09:55 OP:vdl  STATUS:               ID:20100324072046 L   I
 2010-03-24-0718-19S.COL___098                                                 6
 STAT SP IPHASW D HRMM SECON CODA AMPLIT PERI AZIMU VELO SNR AR TRES W  DIS CAZ7
 BAR2 SZ IP        721  6.26                             169     0.010   27 211 
 BAR2 SZ ES   1    721 22.06                             169     0.0 7   27 211 
 BRR  HZ IP        721  8.27                             150     0.110   80 295 
 BRR  HN ES   1    721 25.77                             150     0.4 7   80 295 
 BRR  HZ I         721 27.99       334.6 0.15                            80 295 
 RUS  HZ IP        721 10.07                             145    -0.110  100 182 
 RUS  HN ES   1    721 28.78                             145    -0.2 7  100 182 
 RUS  HZ I         721 30.10       200.7 0.32                           100 182 
 OCA  SZ IP        721 14.67                             130    -0.2 9  162 350 
 OCA  SZ ES   2    721 37.14                             130    -0.2 5  162 350 
 OCA  SZ I         721 41.71       335.1 0.20                           162 350 
 CHI  HZ IP        721 24.08                             118    -0.2 8  251 197 
 CHI  HE ES   1    721 53.51                             118    -0.5 6  251 197 
 CHI  HZ I         721 59.58        78.5 0.54                           251 197 
 ROSC BZ IP        721 25.93                             117     1.0 8  258 213 
 ROSC BZ I         722  0.85        98.1 0.11                           258 213 
 HEL  HZ EP   1    721 26.89                             115    -0.6 6  281 256 
 HEL  HZ I         722  5.24       117.3 0.31                           281 256 
 RREF BZ EP   1    721 33.14                             111    -0.1 5  329 231 
 RREF BE ES   2    722 10.43                             111     0.5 3  329 231 
 RREF BZ I         722 17.88       184.0 0.26                           329 231 
 DBB  SZ EP        721 34.12                             110    -0.7 6  349 274 
 TOL  SZ EP        721 35.77                             110     0.5 6  350 226 
 SDV  BZ EP        721 35.65                             109     0.2 6  353  49 
 ANIL BZ IP        721 37.43                             109     0.6 6  364 226 
 ANIL BN ES   2    722 15.50                             109    -0.9 3  364 226 
 ANIL BZ I         722 22.89       197.8 0.36                           364 226 
 PRA  HZ EP   1    721 39.70                             107    -0.6 4  397 211 
 PRA  HE ES   2    722 22.18                             107    -0.4 3  397 211 
 PRA  HZ I         722 27.57       100.6 0.26                           397 211 
                                                                                
