 2011  924 0712  0.7 L   6.746 -73.097136.0  RSN  6 0.3 1.4LRSN                1
 GAP=188        0.56       3.8     7.1  6.0  0.6268E+01 -0.4943E+01 -0.5432E+00E
 Epicentro: JORDAN - SANTANDER                                                 3
 ACTION:UPD 12-07-13 15:59 OP:ep   STATUS:               ID:20110924071200 L   I
 2011-09-24-0700-00M.COL___167                                                 6
 STAT SP IPHASW D HRMM SECON CODA AMPLIT PERI AZIMU VELO AIN AR TRES W  DIS CAZ7
 BAR2 SZ EP   2    712 19.09                             171    0.05 5 19.4 209 
 BAR2 SZ ES   2    712 33.05                             171   -0.33 5 19.4 209 
 BAR2 SZ I         712 34.78         4.3 0.36                          19.4 209 
 BTL  SZ EP   1    712 19.41                             168    0.20 7 26.9 315 
 BRR  HZ EP   1    712 20.93                             148   -0.31 7 78.9 300 
 BRR  HN ES        712 37.45                             148    0.1610 78.9 300 
 BRR  HZ I         712 42.32         7.9 0.14                          78.9 300 
 RUS  HZ EP   2    712 22.46                             144   -0.55 5 94.3 179 
 RUS  HE ES   2    712 40.92                             144    0.49 5 94.3 179 
 RUS  HZ I         712 42.83         2.4 0.37                          94.3 179 
 OCA  SZ EP   2    712 29.53                             126    0.64 5  167 352 
 OCA  SZ I         712 42.11         3.9 0.76                           167 352 
 OCA  SZ ES   1    712 50.69                             126   -0.21 7  167 352 
 HEL  HZ EP   1    712 40.70                             113   -0.14 6  276 257 
 HEL  HZ I         712 57.07         1.5 0.57                           276 257 
                                                                                
