 2011 1224 0951 11.3 L   6.045 -73.720111.1  RSN 14 0.3 2.4LRSN                1
 GAP= 77        0.69       2.4     2.4  5.4 -0.1061E+01  0.3582E+01  0.3273E+01E
 Epicentro: BOLIVAR - SANTANDER                                                3
 ACTION:UPD 12-07-13 16:18 OP:ep   STATUS:               ID:20111224095111 L   I
 2011-12-24-0950-00M.COL___189                                                 6
 STAT SP IPHASW D HRMM SECON CODA AMPLIT PERI AZIMU VELO AIN AR TRES W  DIS CAZ7
 RUS  HZ EP        951 29.72                             145    0.1210 72.5 103 
 RUS  HZ I         951 30.22        56.6 0.29                          72.5 103 
 RUS  HN ES   1    951 44.24                             145    0.36 7 72.5 103 
 BAR2 SZ EP        951 30.44                             140    0.2810 84.8  44 
 BAR2 SZ ES        951 44.71                             140   -0.1710 84.8  44 
 BAR2 SZ I         951 46.07       173.4 0.18                          84.8  44 
 PTB  HZ EP        951 30.37                             135   -0.5710 98.1 304 
 PTB  HE ES   1    951 46.04                             135   -0.24 7 98.1 304 
 BRR  HE ES   2    951 49.35                             130    0.01 5  117   0 
 GIR2 SZ EP        951 34.16                             127    0.2710  128  27 
 NOR  SZ EP        951 34.75                             125    0.02 9  138 247 
 NOR  SE ES   1    951 53.65                             125    0.63 7  138 247 
 CHI  HZ EP        951 37.08                             121   -0.02 9  157 180 
 CHI  HN ES   1    951 56.76                             121   -0.48 7  157 180 
 CHI  HZ I         952  0.54        25.6 0.61                           157 180 
 PAM  SZ EP   1    951 39.90                             117   -0.04 7  182  38 
 PAM  SN ES   1    952  2.03                             117   -0.26 7  182  38 
 HEL  HZ EP   1    951 42.50                             114    0.66 6  201 275 
 HEL  HZ I         952 10.16        16.8 0.32                           201 275 
 ZAR  HN ES   1    952  5.35                             114   -0.04 6  204 322 
 ZAR  HZ I         952 11.91        24.5 0.53                           204 322 
 RREF HZ EP   1    951 44.44                             112    0.09 6  220 235 
 RREF HN ES   2    952  9.63                             112   -0.52 4  220 235 
 RREF HZ I         952 17.41        18.8 0.65                           220 235 
 TOL  SZ EP   1    951 46.19                             110   -0.02 6  240 228 
 PRA  HZ EP   1    951 51.53                             105    0.04 5  288 207 
 SJA  SZ EP   1    951 53.35                             104   -0.49 5  308 185 
                                                                                
