 2013  524 0914 21.0 L   6.818 -73.132146.6  RSN  8 0.4 2.1LRSN                1
 GAP= 71        1.09       4.1     3.8  7.1  0.1971E+01  0.3313E+01  0.1242E+01E
 Epicentro: LOS SANTOS - SANTANDER                                             3
 ACTION:UPD 13-06-20 09:53 OP:ep   STATUS:               ID:20130524091421 L   I
 2013-05-24-0908-50M.COL___196                                                 6
 STAT SP IPHASW D HRMM SECON CODA AMPLIT PERI AZIMU VELO AIN AR TRES W  DIS CAZ7
 BAR2 SZ EP        914 40.83                             170    0.0910 25.5 193 
 BAR2 SZ I         914 41.37        13.6 0.14            170           25.5 193 
 BAR2 SZ ES        914 55.73                             170   -0.4410 25.5 193 
 BRR  HZ IP     C  914 42.64                             152    0.4110 71.7 297 
 BRR  HZ I         914 42.78        14.6 0.18            153           71.7 297 
 BRR  HN ES        914 59.45                             152    0.6310 71.7 297 
 PAM  SZ EP        914 43.84                             152    0.7210 74.9  40 
 PAM  SN ES        915  0.36                             152   -0.0410 74.9  40 
 PAM  SN I         915  2.78        30.5 0.52            152           74.9  40 
 RUS  HZ EP        914 44.89                             143   -0.0410  102 177 
 RUS  HN ES        915  3.50                             143   -0.1210  102 177 
 RUS  HN I         915  5.14        11.8 0.34            145            102 177 
 TAM  HZ EP        914 48.65                             131    0.04 9  154 106 
 TAM  HE ES        915 10.07                             131   -0.11 9  154 106 
 OCA  HN ES        915 10.45                             130   -0.73 9  159 352 
 OCA  HN I         915 14.04        28.0 0.26            131            159 352 
 ZAR  HZ EP        914 52.74                             122   -0.79 9  205 291 
 ZAR  HN ES        915 19.13                             122    0.19 9  205 291 
 NOR  HN ES        915 24.93                             118   -0.17 8  237 234 
 NOR  HN I         915 27.79        15.2 0.16            119            237 234 
                                                                                
