 2017  324 0728 35.7 L   6.795 -73.192139.8  RSN 14 0.4 2.5LRSN                1
 GAP=135        0.93       2.9     3.6  5.0 -0.7975E+00  0.4647E+01  0.4851E+01E
 Epicentro: ZAPATOCA - SANTANDER                                               3
 ACTION:UPD 17-05-25 18:44 OP:jn   STATUS:               ID:20170324072835 L   I
 OLDACT:UP  17-03-24 15:33 OP:cog  STATUS:               ID:20170324072747     3
 OLDACT:UP  17-03-24 15:31 OP:cog  STATUS:               ID:20170324072747     3
 OLDACT:UP  17-03-24 15:31 OP:cog  STATUS:               ID:20170324072747     3
 OLDACT:REG 17-03-24 13:26 OP:cog  STATUS:               ID:20170324072747     3
 2017-03-24-0728-00M.COL___381                                                 6
 STAT SP IPHASW D HRMM SECON CODA AMPLIT PERI AZIMU VELO AIN AR TRES W  DIS CAZ7
 BAR2 EZ EP        728 54.50                             170   -0.0610 22.4 177 
 BAR2 EZ ES        729  8.96                             170   -0.3410 22.4 177 
 BAR2 EZ I         729 10.73        72.7 0.22            170           22.4 177 
 BRR  HZ EP        728 56.40                             153    0.4710 67.1 301 
 BRR  HN ES        729 12.52                             153    0.7710 67.1 301 
 BRR  HZ I         729 18.63        34.7 0.16            151           67.1 301 
 PAM  EZ EP        728 57.47                             148   -0.0110 81.2  42 
 PAM  EN ES        729 14.25                             148   -0.2610 81.2  42 
 PAM  EZ I         729 16.71        53.6 0.52            153           81.2  42 
 PTB  HZ EP        729  1.10                             132   -0.58 9  143 259 
 PTB  HN ES        729 21.13                             132   -0.84 9  143 259 
 PTB  HZ I         729 24.18        39.2 0.38            132            143 259 
 SPBC HZ EP        729  3.49                             128    0.13 9  160 218 
 SPBC HE ES        729 25.15                             128    0.18 9  160 218 
 SPBC HZ I         729 27.91        56.6 0.28            129            160 218 
 ZAR  HZ EP        729  7.27                             122    0.01 9  200 293 
 ZAR  HN ES        729 32.20                             122    0.30 9  200 293 
 ZAR  HZ I         729 37.64        35.8 0.40            123            200 293 
 CHI  HZ EP        729 12.70                             116   -0.13 8  247 194 
 CHI  HE ES        729 42.07                             116    0.25 8  247 194 
 CHI  HZ I         729 47.12        17.9 0.38            118            247 194 
 ROSC BZ EP   3    729 14.70                             116    1.58 2  250 210 
 ROSC BE ES        729 42.33                             116   -0.01 8  250 210 
 ROSC BZ I         729 48.96        45.6 0.40            117            250 210 
 URE  HZ EP        729 15.64                             113   -0.30 7  279 292 
 URE  HN ES   4    729 44.50                             113   -2.86 0  279 292 
 URE  HZ I         729 57.16        18.7 0.28            114            279 292 
 VIL  EZ EP        729 18.47                             111   -0.16 7  302 191 
 VIL  EN ES        729 52.84                             111    0.69 7  302 191 
 VIL  EZ I         729 55.24        26.4 0.40            113            302 191 
 PTGC HZ EP   4    729 17.61                             110   -1.80 0  310 158 
 PTGC HN ES   4    729 51.38                             110   -2.15 0  310 158 
 CBOC HZ EP        729 22.31                             109    0.56 7  329 252 
 CBOC HN ES        729 57.54                             109   -0.17 7  329 252 
 DBB  EZ EP   3    729 22.34                             109    0.02 2  334 274 
 DBB  EE ES   4    729 57.41                             109   -1.30 0  334 274 
 DBB  EZ I         730  0.43        10.1 0.14            110            334 274 
 ANIL HE ES   4    730  6.33                             108    3.24 0  353 224 
 PRA  HZ EP   4    729 29.59                             106    0.96 0  389 209 
 PRA  HN ES        730  9.51                             106   -0.43 6  389 209 
 ORTC HZ EP        729 28.77                             105   -0.20 6  392 216 
 ORTC HN ES   4    730  8.82                             105   -1.74 0  392 216 
                                                                                
