 2016  224 0909  3.1 L   6.761 -73.188136.0  RSN  8 0.5 1.4LRSN                1
 GAP=133        0.85       4.1     5.6  7.5  0.6619E+01  0.9476E+01  0.7679E+01E
 Epicentro: LOS SANTOS - SANTANDER                                             3
 ACTION:UPD 16-03-04 21:29 OP:rebc STATUS:               ID:20160224090902 L   I
 OLDACT:UP  16-02-25 14:09 OP:nlst STATUS:               ID:20160224090902 L   3
 OLDACT:REG 16-02-24 13:39 OP:mh   STATUS:               ID:20160224090750     3
 2016-02-24-0907-50M.COL___325                                                 6
 STAT SP IPHASW D HRMM SECON CODA AMPLIT PERI AZIMU VELO AIN AR TRES W  DIS CAZ7
 BAR2 EZ EP   2    9 9 21.32                             172   -0.13 5 18.7 178 
 BAR2 EZ ES   2    9 9 35.41                             172   -0.37 5 18.7 178 
 BAR2 EZ I         9 9 37.42        10.3 0.32            169           18.7 178 
 BRR  HZ EP        9 9 22.95                             152   -0.1410 69.4 303 
 BRR  HN ES        9 9 39.42                             152    0.7410 69.4 303 
 BRR  HZ I         9 9 44.12         4.7 0.19            150           69.4 303 
 PAM  EZ EP   2    9 9 24.19                             147   -0.49 5 83.7  40 
 PAM  EE ES   2    9 9 41.15                             147   -0.37 5 83.7  40 
 PAM  EZ I         9 9 43.68         6.6 0.62            155           83.7  40 
 RUS  HZ EP   2    9 9 25.83                             143    0.23 5 96.7 173 
 RUS  HE ES   2    9 9 43.08                             143   -0.08 5 96.7 173 
 RUS  HZ I         9 9 44.82         2.0 0.30            146           96.7 173 
 PTB  HZ EP   2    9 9 27.79                             131   -0.99 5  142 260 
 PTB  HN ES   2    9 9 48.02                             131   -0.80 5  142 260 
 PTB  HZ I         9 9 54.64         3.3 0.17            132            142 260 
 SPBC HZ EP   2    9 9 29.80                             128   -0.45 5  157 219 
 SPBC HN ES   2    9 9 51.12                             128   -0.31 5  157 219 
 SPBC HZ I         9 9 56.98         2.2 0.08            130            157 219 
 ZAR  HZ EP        9 9 35.13                             121    0.49 9  201 294 
 ZAR  HN ES        9 9 58.83                             121   -0.43 9  201 294 
 ZAR  HZ I         910  5.83         4.0 0.28            123            201 294 
 CHI  HZ EP   2    9 9 39.65                             116   -0.02 4  243 194 
 CHI  HN ES        910  8.55                             116    0.34 8  243 194 
 CHI  HZ I         910 12.25         1.4 0.54            119            243 194 
                                                                                
