 2016  824 0711 30.4 L   6.759 -74.123  4.0  RSN  7 0.4 1.0LRSN                1
 GAP= 95        1.14       2.3     2.3  5.8 -0.3515E+00  0.1197E+00  0.1595E+01E
 Epicentro: PUERTO PARRA - SANTANDER                                           3
 ACTION:UPD 16-10-29 15:38 OP:rebc STATUS:               ID:20160824071130 L   I
 OLDACT:UP  16-08-24 13:26 OP:drio STATUS:               ID:20160824070641     3
 OLDACT:REG 16-08-24 12:34 OP:ak   STATUS:               ID:20160824070641     3
 2016-08-24-0707-00M.COL___365                                                 6
 STAT SP IPHASW D HRMM SECON CODA AMPLIT PERI AZIMU VELO AIN AR TRES W  DIS CAZ7
 PTB  HZ EP        711 37.80                              47    0.1510 44.1 237 
 PTB  HE ES        711 43.65                              47    0.3110 44.1 237 
 PTB  HZ I         711 43.81        10.5 0.20                          44.1 237 
 BRR  HZ EP        711 40.05                              47    0.0810 59.6  50 
 BRR  HE ES        711 47.87                              47    0.4010 59.6  50 
 BRR  HZ I         711 48.81         7.2 0.12                          59.6  50 
 ZAR  HZ EP        711 48.68                              47    0.3310  115 315 
 ZAR  HE ES        712  1.41                              47   -0.9710  115 315 
 SPBC HZ EP        711 49.92                              47    0.3210  122 177 
 SPBC HN ES        712  4.06                              47   -0.5510  122 177 
 SPBC HZ I         712  6.75         2.7 0.10                           122 177 
 RUS  HZ EP        711 54.24                              47    0.10 9  150 130 
 RUS  HE ES        712 12.02                              47   -0.67 9  150 130 
 RUS  HZ I         712 14.35         1.9 0.20                           150 130 
 HEL  HZ EP        711 56.53                              47   -0.21 9  168 248 
 HEL  HN ES   4    712 15.13                              47   -2.19 0  168 248 
 HEL  HZ I         712 16.81         2.8 0.20                           168 248 
 GUY2CHZ EP        712  3.96                              37    0.48 8  218 219 
 GUY2CHE ES        712 29.62                              37    0.30 8  218 219 
 GUY2CHZ I         712 31.89         1.1 0.40                           218 219 
                                                                                
