 2017  224 0055 56.4 L   6.345 -73.564114.2  RSN  7 0.2 1.7LRSN                1
 GAP= 80        0.74       2.7     3.2  5.3  0.3291E+01  0.9062E+01  0.4894E+01E
 Epicentro: SANTA HELENA DEL OPON - SANTANDER                                  3
 ACTION:UPD 17-05-24 15:39 OP:jn   STATUS:               ID:20170224005556 L   I
 OLDACT:UP  17-02-24 13:35 OP:edw  STATUS:               ID:20170224004740d    3
 OLDACT:DUP 17-02-24 13:29 OP:edw  STATUS:               ID:20170224004740d    3
 2017-02-24-0048-00M.COL___394                                                 6
 STAT SP IPHASW D HRMM SECON CODA AMPLIT PERI AZIMU VELO AIN AR TRES W  DIS CAZ7
 BAR2 EZ IP     C  056 13.60                             153    0.2710 50.2  57 
 BAR2 EZ ES        056 26.80                             153    0.2910 50.2  57 
 BAR2 EZ I         056 27.62        16.3 0.20            157           50.2  57 
 RUS  HZ IP     C  056 14.91                             144   -0.1710 73.0 133 
 RUS  HN ES        056 29.20                             144   -0.4410 73.0 133 
 RUS  HZ I         056 30.78         8.7 0.20            147           73.0 133 
 BRR  HZ EP        056 15.21                             139   -0.1210 85.8 349 
 BRR  HN ES        056 29.96                             139   -0.1210 85.8 349 
 BRR  HZ I         056 30.89         9.2 0.14            140           85.8 349 
 PTB  HZ EP   9 D  056 15.44                             135   -1.16 0  101 282 
 PTB  HN ES        056 30.55                             134   -0.6310  101 282 
 PTB  HZ I         056 32.72        12.1 0.32            134            101 282 
 ZAR  HZ EP        056 25.41                             115   -0.20 9  191 312 
 ZAR  HN ES        056 48.57                             115    0.20 9  191 312 
 ZAR  HZ I         056 52.56         9.4 0.48            116            191 312 
 CHI  HZ EP        056 26.11                             116    0.04 9  191 186 
 CHI  HN ES        056 49.41                             116    0.22 9  191 186 
 TAM  HN ES   4    056 47.82                             114   -1.64 0  196  87 
 HEL  HZ EP        056 29.25                             112    0.19 8  218 266 
 HEL  HN ES        056 54.47                             112   -0.05 8  218 266 
 HEL  HZ I         056 58.86         3.1 0.32            113            218 266 
 PRA  HZ EP   4    056 42.93                             103    1.79 0  326 207 
                                                                                
