 2015  524 0110 46.8 L   6.808 -73.099154.0  RSN  7 0.4 1.6LRSN                1
 GAP=188        0.96       4.2     7.1  8.6  0.6655E+01 -0.4172E+01 -0.1035E+02E
 Epicentro: LOS SANTOS - SANTANDER                                             3
 ACTION:UPD 15-09-10 22:06 OP:cam  STATUS:               ID:20150524011046 L   I
 OLDACT:REG 15-05-24 12:14 OP:spq  STATUS:               ID:20150524010735     3
 2015-05-24-0107-35M.COL___291                                                 6
 STAT SP IPHASW D HRMM SECON CODA AMPLIT PERI AZIMU VELO AIN AR TRES W  DIS CAZ7
 BAR2 EZ EP   1    111  7.24                             170   -0.19 7 25.6 201 
 BAR2 EZ ES   1    111 23.08                             170   -0.47 7 25.6 201 
 BAR2 EZ I         111 24.18         4.9 0.38            169           25.6 201 
 BRR  HZ EP        111  9.20                             153    0.1610 75.4 296 
 BRR  HE ES        111 27.16                             153    0.7410 75.4 296 
 BRR  HZ I         111 28.16         4.9 0.30            149           75.4 296 
 RUS  HZ EP   1    111 11.85                             145    0.47 7  101 179 
 RUS  HN ES   1    111 30.15                             145   -0.43 7  101 179 
 RUS  HZ I         111 31.28         2.3 0.34            146            101 179 
 OCA  HZ EP   1    111 15.14                             132   -0.57 7  160 351 
 OCA  HN ES        111 38.35                             132    0.06 9  160 351 
 OCA  HZ I         111 41.56         7.2 0.50            131            160 351 
 SPBC HE ES   1    111 39.46                             130    0.16 7  167 220 
 SPBC HZ I         111 41.15         5.1 0.24            130            167 220 
 ZAR  HE ES        111 45.70                             124   -0.61 8  209 291 
 ZAR  HZ I         111 52.40         3.4 0.36            122            209 291 
 SML  HZ EP   1    111 24.44                             119    0.42 6  245 334 
 SML  HE ES   1    111 52.73                             119   -0.34 6  245 334 
 SML  HZ I         111 55.25         4.6 0.15            119            245 334 
                                                                                
