 2014  224 0032 56.1 L   6.769 -73.161147.3  RSN  8 0.4 1.8LRSN                1
 GAP=136        0.81       3.2     3.8  6.5 -0.1399E+01  0.7700E+01 -0.2767E+00E
 Epicentro: LOS SANTOS - SANTANDER                                             3
 ACTION:UPD 14-03-10 08:12 OP:ep   STATUS:               ID:20140224003256 L   I
 OLDACT:REG 14-02-24 07:47 OP:fm   STATUS:               ID:20140224002805     3
 2014-02-24-0028-05M.COL___236                                                 6
 STAT SP IPHASW D HRMM SECON CODA AMPLIT PERI AZIMU VELO AIN AR TRES W  DIS CAZ7
 PAM  SZ EP        033 19.07                             150    0.3410 81.1  39 
 PAM  SE ES        033 36.42                             150    0.0610 81.1  39 
 PAM  SZ I         033 38.74         4.8 0.58            154           81.1  39 
 RUS  HZ EP        033 19.59                             145   -0.2110 97.3 175 
 RUS  HN ES        033 38.28                             145    0.0210 97.3 175 
 RUS  HZ I         033 39.06         5.5 0.26            149           97.3 175 
 PTB  HZ EP   1    033 22.79                             133   -0.22 7  145 260 
 PTB  HN ES        033 43.21                             133   -0.77 9  145 260 
 PTB  HZ I         033 48.70         7.2 0.18            133            145 260 
 SPBC HZ EP   1    033 24.60                             130    0.21 7  159 219 
 SPBC HN ES   2    033 46.97                             130    0.53 5  159 219 
 SPBC HZ I         033 52.99         7.3 0.12            132            159 219 
 ZAR  HZ EP   1    033 28.53                             123   -0.12 6  204 293 
 ZAR  HN ES   1    033 54.85                             123    0.84 6  204 293 
 ZAR  HZ I         033 56.64         5.4 0.26            123            204 293 
 NOR  HZ EP   1    033 31.34                             119   -0.24 6  231 235 
 NOR  HN ES   1    033 59.81                             119    0.57 6  231 235 
 NOR  HZ I         034  4.88         6.4 0.40            121            231 235 
 CHI  HZ EP        033 33.70                             118    0.20 8  245 195 
 SML  HZ EP   1    033 32.71                             117   -0.39 6  246 336 
 SML  HN ES   1    034  1.83                             117   -0.11 6  246 336 
 SML  HZ I         034 11.08         6.9 0.10            119            246 336 
                                                                                
