 2012  124 0759 18.1 L   6.448 -73.582107.6  RSN  5 0.2 1.5LRSN                1
 GAP=138        0.55       3.8     3.2  5.9  0.3552E+01  0.2085E+01  0.3695E+00E
 Epicentro: SANTA HELENA DEL OPON - SANTANDER                                  3
 ACTION:UP  12-02-03 08:20 OP:REBC STATUS:               ID:20120124075918 L   I
 2012-01-24-0754-49S.COL___150                                                 6
 STAT SP IPHASW D HRMM SECON CODA AMPLIT PERI AZIMU VELO SNR AR TRES W  DIS CAZ7
 BAR2 SZ EP        759 34.19                             155     0.110   47  70 
 BAR2 SZ ES   1    759 46.14                             155    -0.4 7   47  70 
 BAR2 SZ I         759 48.15        21.1 0.61                            47  70 
 BRR  HZ EP   1    759 35.42                             143    -0.1 7   74 349 
 BRR  HE ES   1    759 49.48                             143     0.4 7   74 349 
 BRR  HZ I         759 51.95         4.7 0.30                            74 349 
 GIR2 SZ EP        759 36.21                             140    -0.110   82  32 
 RUS  HZ EP   1    759 36.92                             140     0.1 7   83 138 
 RUS  HE ES   1    759 51.62                             140     0.2 7   83 138 
 PTB  HZ EP   1    759 37.23                             134    -0.1 7   97 276 
 PTB  HN ES   1    759 52.36                             134    -0.1 7   97 276 
                                                                                
