 2016  624 0026 16.2 L   6.645 -73.188146.0  RSN  5 0.4 1.4LRSN                1
 GAP=221        0.88       6.8     6.4  7.6  0.2206E+02  0.1322E+02 -0.5119E+01E
 Epicentro: VILLANUEVA - SANTANDER                                             3
 ACTION:UPD 16-07-21 22:22 OP:rebc STATUS:               ID:20160624002616 L   I
 OLDACT:DUP 16-06-24 16:19 OP:ak   STATUS:               ID:20160624001750d    3
 OLDACT:REG 16-06-24 12:42 OP:ak   STATUS:               ID:20160624001749     3
 2016-06-24-0017-49M.COL___331                                                 6
 STAT SP IPHASW D HRMM SECON CODA AMPLIT PERI AZIMU VELO AIN AR TRES W  DIS CAZ7
 BAR2 EZ EP        026 35.13                             178   -0.4810 5.87 174 
 BAR2 EZ ES        026 51.39                             178    0.6210 5.87 174 
 BAR2 EZ I         026 51.80         5.1 0.16                          5.87 174 
 BRR  HZ EP        026 37.73                             151    0.0310 77.3 311 
 BRR  HN ES        026 54.09                             151   -0.4010 77.3 311 
 BRR  HZ I         027  0.70         6.8 0.31                          77.3 311 
 RUS  HN ES        026 56.45                             149   -0.0410 84.0 172 
 PTB  HZ EP        026 42.70                             134    0.17 9  141 265 
 PTB  HN ES        027  2.88                             134   -0.22 9  141 265 
 PTB  HZ I         027  6.40         2.6 0.21                           141 265 
 ZAR  HZ EP   2    026 49.28                             122    0.35 4  207 297 
 ZAR  HN ES        027 14.84                             122    0.35 8  207 297 
 ZAR  HZ I         027 20.87         2.3 0.28                           207 297 
                                                                                
