 2016  724 0208 32.1 L   6.755 -73.116150.8  RSN 12 0.5 2.1LRSN                1
 GAP=124        1.09       3.8     4.0  6.0  0.8960E+00  0.5296E+01  0.7714E+01E
 Epicentro: LOS SANTOS - SANTANDER                                             3
 ACTION:UPD 17-03-29 16:54 OP:lp   STATUS:               ID:20160724020832 L   I
 OLDACT:UP  16-07-24 15:41 OP:ar   STATUS:               ID:20160724020759     3
 OLDACT:REG 16-07-24 13:41 OP:ar   STATUS:               ID:20160724020759     3
 2016-07-24-0207-59S.COL___331                                                 6
 STAT SP IPHASW D HRMM SECON CODA AMPLIT PERI AZIMU VELO AIN AR TRES W  DIS CAZ7
 BAR2 EZ IP     D  2 8 52.10                             172   -0.1310 19.4 202 
 BAR2 EZ ES        2 9  8.01                             172    0.0510 19.4 202 
 BRR  HZ EP        2 8 54.14                             152    0.0710 76.6 301 
 BRR  HN ES        2 9 11.44                             152    0.2210 76.6 301 
 BRR  HZ I         2 9 14.46        19.4 0.34            151           76.6 301 
 PAM  EZ EP        2 8 54.93                             151   -0.0110 79.3  35 
 PAM  EN ES        2 9 12.60                             151   -0.1710 79.3  35 
 PAM  EZ I         2 9 14.38        25.5 0.58            156           79.3  35 
 RUS  HZ EP        2 8 55.93                             146   -0.0310 95.4 178 
 RUS  HN ES        2 9 15.17                             146    0.5810 95.4 178 
 RUS  HZ I         2 9 17.47        10.7 0.48            146           95.4 178 
 SPBC HZ EP        2 9  1.06                             130    0.26 9  161 221 
 SPBC HN ES        2 9 23.06                             130   -0.15 9  161 221 
 SPBC HZ I         2 9 28.04        22.8 0.32            130            161 221 
 ZAR  HZ EP   4    2 9  9.91                             123    4.55 0  209 293 
 ZAR  HN ES        2 9 30.51                             123   -0.81 8  209 293 
 NOR  HZ EP        2 9  8.19                             120    0.11 8  235 236 
 NOR  HN ES        2 9 35.66                             120   -0.51 8  235 236 
 NOR  HZ I         2 9 41.40         8.6 0.18            120            235 236 
 CHI  HZ EP        2 9  9.81                             119    0.18 8  245 196 
 CHI  HN ES        2 9 39.31                             119    0.38 8  245 196 
 CHI  HZ I         2 9 47.41         6.8 0.54            119            245 196 
 HEL  HZ EP        2 9 13.83                             116    1.06 8  274 257 
 HEL  HN ES        2 9 43.86                             116   -0.66 8  274 257 
 HEL  HZ I         2 9 50.23         6.0 0.34            116            274 257 
 URE  HZ EP   4    2 9 17.20                             114    3.26 0  289 293 
 URE  HN ES   4    2 9 43.36                             114   -3.24 0  289 293 
 URE  HZ I         2 9 54.84         8.1 0.22            115            289 293 
 GUY2CHZ EP        2 9 16.65                             113    0.75 7  301 236 
 GUY2CHN ES   4    2 9 52.88                             113    2.79 0  301 236 
 GUY2CHZ I         2 9 59.89         6.4 0.52                           301 236 
 PTGC HZ EP        2 9 15.04                             113   -0.45 7  303 159 
 PTGC HN ES        2 9 48.27                             113   -1.09 7  303 159 
 PTGC HZ I         2 9 52.03        11.1 0.34            114            303 159 
                                                                                
