 2016  824 0742  7.9 L   6.831 -73.167137.3  RSN  8 0.3 1.4LRSN                1
 GAP=132        0.88       3.8     3.9  6.7 -0.1810E+01  0.9477E+01 -0.3020E+01E
 Epicentro: LOS SANTOS - SANTANDER                                             3
 ACTION:UPD 16-10-29 15:38 OP:rebc STATUS:               ID:20160824074207 L   I
 OLDACT:UP  16-08-24 13:43 OP:drio STATUS:               ID:20160824073734     3
 OLDACT:REG 16-08-24 12:36 OP:ak   STATUS:               ID:20160824073734     3
 2016-08-24-0738-00M.COL___365                                                 6
 STAT SP IPHASW D HRMM SECON CODA AMPLIT PERI AZIMU VELO AIN AR TRES W  DIS CAZ7
 BAR2 EZ EP        742 26.50                             169   -0.0510 26.4 184 
 BAR2 EZ ES        742 41.12                             169   -0.0010 26.4 184 
 BAR2 EZ I         742 43.72         6.4 0.24                          26.4 184 
 BRR  HZ EP        742 28.13                             152    0.2410 67.5 297 
 BRR  HN ES   4    742 45.11                             152    1.60 0 67.5 297 
 BRR  HZ I         742 46.38         4.7 0.12                          67.5 297 
 PAM  EZ EP        742 29.38                             150    0.2610 76.4  43 
 PAM  EN ES        742 45.47                             150   -0.2310 76.4  43 
 PAM  EZ I         742 48.43         3.4 0.50                          76.4  43 
 RUS  HZ EP        742 30.75                             141   -0.3210  104 175 
 RUS  HN ES        742 49.43                             141    0.2710  104 175 
 RUS  HZ I         742 50.09         3.5 0.24                           104 175 
 PTB  HZ EP   4    742 32.82                             130   -1.19 0  146 257 
 PTB  HE ES        742 53.95                             130   -0.45 9  146 257 
 PTB  HZ I         742 56.25         3.5 0.32                           146 257 
 SPBC HZ EP        742 35.19                             127   -0.66 9  164 218 
 SPBC HZ I         742 35.71         3.6 0.20                           164 218 
 SPBC HN ES        742 58.18                             127    0.51 9  164 218 
 ZAR  HZ EP        742 39.89                             121    0.48 9  201 291 
 ZAR  HE ES        743  4.01                             121   -0.01 9  201 291 
 ZAR  HZ I         743  9.68         2.7 0.44                           201 291 
 GUY2CHZ EP   4    742 52.40                             111    1.30 0  301 234 
 GUY2CHE ES   4    743 26.18                             111    1.35 0  301 234 
 GUY2CHZ I         743 31.89         1.5 0.62                           301 234 
                                                                                
