 2014  624 0711 28.9 L   6.787 -73.159139.6  RSN 17 0.5 2.3LRSN                1
 GAP=181        0.97       2.4     4.0  5.2 -0.1839E+01  0.6769E+01 -0.3627E+00E
 Epicentro: LOS SANTOS - SANTANDER                                             3
 ACTION:UPD 14-07-01 22:56 OP:nd   STATUS:               ID:20140624071128 L   I
 OLDACT:REG 14-06-24 13:09 OP:spq  STATUS:               ID:20140624070813     3
 2014-06-24-0708-13M.COL___259                                                 6
 STAT SP IPHASW D HRMM SECON CODA AMPLIT PERI AZIMU VELO AIN AR TRES W  DIS CAZ7
 BAR2 SZ EP        711 47.84                             171    0.1210 21.7 187 
 BAR2 SZ ES        712  2.72                             171    0.2910 21.7 187 
 BAR2 SZ I         712  4.71        26.3 0.24            172           21.7 187 
 RUS  HZ EP        711 51.73                             143   -0.1910 99.3 175 
 RUS  HN ES        712  9.58                             143   -0.3210 99.3 175 
 RUS  HZ I         712 12.35        11.0 0.44            144           99.3 175 
 PTB  HZ EP        711 54.51                             131   -0.68 9  146 259 
 PTB  HN ES        712 15.29                             131   -0.42 9  146 259 
 PTB  HZ I         712 21.83        18.6 0.15            129            146 259 
 SPBC HZ IP     D  711 56.76                             128    0.05 9  161 219 
 SPBC HN ES        712 19.07                             128    0.65 9  161 219 
 SPBC HZ I         712 25.87        37.3 0.26            127            161 219 
 OCA  HZ EP        711 56.63                             128   -0.20 9  161 354 
 OCA  HN ES        712 18.85                             128    0.22 9  161 354 
 OCA  HZ I         712 23.76        20.9 0.36            126            161 354 
 ZAR  HZ EP        712  0.17                             121   -0.67 9  203 293 
 ZAR  HE ES        712 25.77                             121    0.00 9  203 293 
 ZAR  HZ I         712 32.38        23.5 0.46            119            203 293 
 NOR  HZ IP     D  712  4.05                             117    0.02 8  233 235 
 NOR  HE ES        712 31.79                             117    0.33 8  233 235 
 NOR  HZ I         712 39.13        13.3 0.32            116            233 235 
 SML  HZ EP        712  5.04                             116   -0.19 8  244 336 
 SML  HE ES        712 34.24                             116    0.65 8  244 336 
 SML  HZ I         712 37.60        38.2 0.10            115            244 336 
 ROSC BZ EP   1    712  6.94                             116    0.49 6  251 211 
 ROSC BE ES        712 34.88                             116   -0.87 8  251 211 
 ROSC BZ I         712 41.53        16.8 0.45            115            251 211 
 HEL  HZ EP        712  8.94                             114    0.36 8  270 256 
 HEL  HE ES        712 39.13                             114   -0.42 8  270 256 
 HEL  HZ I         712 46.62         8.7 0.30            113            270 256 
 GUY2CHZ EP        712 12.12                             111    0.14 7  299 235 
 GUY2CHN ES        712 45.63                             111    0.04 7  299 235 
 GUY2CHZ I         712 54.89         8.8 0.40                           299 235 
 RREF HZ EP   4    712 16.07                             110    1.55 0  320 229 
 RREF HE ES   1    712 49.72                             110   -0.41 5  320 229 
 RREF HZ I         712 56.47        10.6 0.28            109            320 229 
 CBOC HZ EP        712 15.50                             109    0.17 7  332 252 
 CBOC HN ES   4    712 48.87                             109   -2.69 0  332 252 
 CBOC HZ I         713  3.37         3.2 0.50            108            332 252 
 TOL  SZ EP        712 17.50                             108    0.85 7  341 225 
 TOL  SN ES        712 54.55                             108    0.63 7  341 225 
 TOL  SZ I         713  1.31        19.5 0.36            108            341 225 
 PRA  HZ EP        712 21.12                             106   -0.84 6  390 209 
 PRA  HN ES        713  4.09                             106    0.72 6  390 209 
 PRA  HZ I         713  9.58         8.1 0.40            105            390 209 
 ORTC HZ IP     D  712 22.90                             105    0.55 6  393 216 
 ORTC HN ES        713  4.05                             105   -0.02 6  393 216 
 ORTC HZ I         713  9.50         4.5 0.36            105            393 216 
 SJC  HZ EP   4    712 21.76                             105   -2.52 0  410 327 
 SJC  HN ES   4    712 57.53                             105   -10.0 0  410 327 
 SJC  HZ I         713  8.64         2.6 0.48            104            410 327 
                                                                                
