 2012  224 0758 46.5 L   6.804 -73.148144.0  RSN 13 0.4 2.8LRSN                1
 GAP=103        0.76       3.4     4.1  4.7 -0.4079E+01  0.9034E+00  0.4227E+01E
 ACTION:UP  12-03-07 16:33 OP:epov STATUS:               ID:20120224075846 L   I
 2012-02-24-0756-59S.COL___195                                                 6
 STAT SP IPHASW D HRMM SECON CODA AMPLIT PERI AZIMU VELO AIN AR TRES W  DIS CAZ7
 BAR2 SZ IP        759  6.06                             170    0.1110 23.7 189 
 BAR2 SZ ES   1    759 20.50                             170   -0.60 7 23.7 189 
 BAR2 SZ I         759 22.01       126.3 0.26                          23.7 189 
 GIR2 SZ EP        759  6.02                             167    0.0510 30.8 351 
 GIR2 SZ ES   1    759 20.92                             167   -0.22 7 30.8 351 
 BRR  HZ EP        759  7.81                             152    0.3510 70.8 298 
 BRR  HN ES   1    759 24.52                             152    0.74 7 70.8 298 
 BRR  HZ I         759 25.51       160.3 0.10                          70.8 298 
 PAM  SZ EP   1    759  8.93                             150    0.39 7 77.2  40 
 PAM  SN ES   1    759 25.56                             150   -0.15 7 77.2  40 
 PAM  SZ I         759 27.77       146.6 0.41                          77.2  40 
 RUS  HZ EP   1    759 10.16                             143    0.03 7  101 176 
 RUS  HE ES   1    759 28.56                             143    0.01 7  101 176 
 RUS  HZ I         759 30.57        84.0 0.24                           101 176 
 PTB  HZ EP   1    759 12.75                             131   -0.58 7  148 259 
 PTB  HN ES   1    759 33.72                             131   -0.52 7  148 259 
 OCA  SZ EP   1    759 14.27                             129   -0.38 7  160 353 
 YOP  SZ EP   1    759 16.98                             126    0.49 7  179 153 
 NOR  SZ EP   1    759 22.31                             118    0.15 6  235 234 
 NOR  SE ES   1    759 50.11                             118    0.16 6  235 234 
 CHI  HZ EP   1    759 24.61                             117    0.45 6  249 195 
 CHI  HN ES   1    759 53.20                             117   -0.32 6  249 195 
 CHI  HZ I         759 57.60        39.1 0.58                           249 195 
 RREF HZ EP   1    759 32.77                             110    0.17 5  322 229 
 RREF HZ I         8 0 14.80        43.6 0.39                           322 229 
 SDV  BZ EP   1    759 35.57                             108   -0.91 5  360  50 
 SDV  BZ I         759 36.22        21.3 0.29                           360  50 
 PRA  HZ EP   1    759 39.29                             106   -0.72 4  392 210 
 PRA  HN ES   1    8 0 21.85                             106    0.11 4  392 210 
                                                                                
