 2012  624 0516 40.3 L   6.699 -73.149148.5  RSN  4 0.3 1.5LRSN                1
 GAP=229        0.47      10.6    10.8  6.0  0.8378E+02 -0.7357E+01 -0.7897E+01E
 Epicentro: VILLANUEVA - SANTANDER                                             3
 ACTION:UPD 12-08-06 17:51 OP:ep   STATUS:               ID:20120624051640 L   I
 2012-06-24-0510-00M.COL___199                                                 6
 STAT SP IPHASW D HRMM SECON CODA AMPLIT PERI AZIMU VELO AIN AR TRES W  DIS CAZ7
 BAR2 SZ EP        517  0.08                             175    0.0310 12.4 197 
 BAR2 SZ I         517  0.18         5.0 0.38                          12.4 197 
 BAR2 SZ ES   1    517 15.17                             175   -0.31 7 12.4 197 
 BRR  HZ EP        517  1.99                             151   -0.0310 76.8 306 
 BRR  HN ES   1    517 19.23                             151    0.23 7 76.8 306 
 BRR  HZ I         517 21.64         6.3 0.14                          76.8 306 
 RUS  HZ EP   3    517  4.07                             147    0.55 2 89.5 175 
 RUS  HN ES   3    517 22.59                             147    0.93 2 89.5 175 
 PTB  HZ EP   3    517  7.17                             133   -0.09 2  146 263 
 PTB  HN ES   3    517 27.55                             133   -0.77 2  146 263 
                                                                                
