 2017  624 0224 27.6 L   6.765 -73.151143.8  RSN 13 0.4 2.0LRSN                1
 GAP=209        0.92       3.6     3.4  5.3  0.3663E+01  0.4300E+01  0.4454E+01E
 Epicentro: LOS SANTOS - SANTANDER                                             3
 ACTION:UPD 17-09-14 16:54 OP:jn   STATUS:               ID:20170624022427 L   I
 OLDACT:REG 17-06-24 13:21 OP:lv   STATUS:               ID:20170624021736     3
 2017-06-24-0218-00M.COL___374                                                 6
 STAT SP IPHASW D HRMM SECON CODA AMPLIT PERI AZIMU VELO AIN AR TRES W  DIS CAZ7
 BAR2 EZ EP        224 46.62                             172   -0.2610 19.4 190 
 BAR2 EZ ES        225  2.08                             172    0.1310 19.4 190 
 BAR2 EZ I         225  3.00        20.0 0.15            171           19.4 190 
 BRR  HZ EP        224 48.51                             152   -0.0610 72.6 301 
 BRR  HN ES        225  5.60                             152    0.6310 72.6 301 
 BRR  HZ I         225  9.74        16.0 0.11            152           72.6 301 
 PTB  HZ EP        224 53.79                             132   -0.45 9  146 260 
 PTB  HN ES        225 14.58                             132   -0.48 9  146 260 
 PTB  HZ I         225 19.18         6.6 0.06            133            146 260 
 SPBC HZ EP        224 55.79                             129    0.21 9  160 220 
 SPBC HN ES        225 17.82                             129    0.37 9  160 220 
 SPBC HZ I         225 20.92        18.7 0.10            130            160 220 
 YPLC HZ IP     D  224 57.11                             127    0.20 9  174 151 
 YPLC HN ES        225 19.14                             127   -0.67 9  174 151 
 YPLC HZ I         225 23.70         5.0 0.38            129            174 151 
 ZAR  HZ EP        225  0.13                             122    0.17 9  205 293 
 ZAR  HN ES        225 24.65                             122   -0.60 9  205 293 
 ZAR  HZ I         225 30.01         7.6 0.20            124            205 293 
 TABC EZ EP   4    225  4.54                             119    1.74 0  226 211 
 NOR  HZ EP        225  2.84                             118   -0.04 8  232 235 
 NOR  HN ES        225 30.29                             118   -0.14 8  232 235 
 NOR  HZ I         225 36.67         6.4 0.24            120            232 235 
 CHI  HZ EP   1    225  4.97                             117    0.25 6  245 195 
 CHI  HN ES        225 34.05                             117    0.33 8  245 195 
 CHI  HZ I         225 37.84         6.6 0.24            119            245 195 
 HEL  HZ EP   4    225  8.99                             114    1.49 0  271 257 
 HEL  HN ES        225 39.06                             114    0.41 8  271 257 
 GUY2CHZ EP        225 11.15                             112    0.39 7  298 235 
 GUY2CHN ES        225 44.08                             112   -0.39 7  298 235 
 GUY2CHZ I         225 53.04         5.5 0.16                           298 235 
 PTGC HZ EP   9    225  9.80                             111   -1.14 0  305 158 
 PTGC HN ES        225 43.58                                   -0.07 7  305 158 
 PTGC HZ I         225 45.94         6.3 0.25            113            305 158 
 CBOC HZ EP        225 15.03                             110    0.85 7  332 253 
 CBOC HN ES        225 50.07                             110   -0.49 7  332 253 
 SJC  HZ EP   4    225 20.82                             105   -2.57 0  412 327 
 SJC  HN ES   4    226  2.11                             105   -4.83 0  412 327 
 SJC  HZ I         226 10.00         2.4 0.14            107            412 327 
 CRJC HZ EP   4    225 27.23                             103   -3.23 0  471   4 
 CRJC HN ES   4    226 15.08                             103   -4.44 0  471   4 
                                                                                
