 2015  324 0641 19.2 L   6.778 -73.142134.6  RSN  6 0.4 1.2LRSN                1
 GAP=154        1.07       5.7     4.9  7.9 -0.7808E+01  0.8131E+01  0.6480E+01E
 Epicentro: LOS SANTOS - SANTANDER                                             3
 ACTION:UPD 15-04-30 16:28 OP:nd   STATUS:               ID:20150324064119 L   I
 OLDACT:REG 15-03-24 12:49 OP:fm   STATUS:               ID:20150324063739     3
 2015-03-24-0637-39M.COL___272                                                 6
 STAT SP IPHASW D HRMM SECON CODA AMPLIT PERI AZIMU VELO AIN AR TRES W  DIS CAZ7
 BAR2 EZ EP        641 37.70                             171    0.2610 21.0 192 
 BAR2 EZ ES        641 51.94                             171    0.2710 21.0 192 
 BAR2 EZ I         641 53.86         4.5 0.18            167           21.0 192 
 BRR  HZ EP        641 39.56                             150    0.3110 72.8 300 
 BRR  HN ES        641 55.21                             150    0.3310 72.8 300 
 BRR  HZ I         641 57.32         3.0 0.16            153           72.8 300 
 PAM  SZ EP        641 40.62                             148    0.2710 79.0  38 
 PAM  SE ES        641 56.12                             148   -0.7110 79.0  38 
 PAM  SZ I         641 59.48         3.6 0.46            154           79.0  38 
 PTB  HZ EP        641 45.06                             129   -0.22 9  148 260 
 PTB  HN ES        642  4.79                             129   -0.83 9  148 260 
 PTB  HZ I         642  8.65         2.2 0.16            132            148 260 
 SPBC HZ EP        641 46.44                             127   -0.27 9  162 220 
 SPBC HE ES        642  8.37                             127    0.21 9  162 220 
 SPBC HZ I         642 15.50         1.8 0.32            128            162 220 
 ZAR  HN ES        642 16.29                             120    0.33 8  205 293 
                                                                                
