 2014  224 0004 25.7 L   6.752 -73.172156.8  RSN  8 0.2 1.5LRSN                1
 GAP=198        0.56       2.7     3.6  4.8  0.3810E+01 -0.8102E+00  0.1357E+00E
 Epicentro: VILLANUEVA - SANTANDER                                             3
 ACTION:UPD 14-03-10 08:12 OP:ep   STATUS:               ID:20140224000425 L   I
 OLDACT:REG 14-02-24 08:49 OP:fm   STATUS:               ID:20140223235939d    3
 2014-02-23-2359-38M.COL___236                                                 6
 STAT SP IPHASW D HRMM SECON CODA AMPLIT PERI AZIMU VELO AIN AR TRES W  DIS CAZ7
 BRR  HZ EP        0 4 48.25                             154    0.1710 71.4 303 
 BRR  HN ES        0 5  5.69                             154    0.1710 71.4 303 
 RUS  HZ EP        0 4 50.45                             147    0.2210 95.5 174 
 RUS  HN ES        0 5  9.12                             147   -0.2310 95.5 174 
 RUS  HZ I         0 5 10.05         2.2 0.30            146           95.5 174 
 PTB  HZ EP        0 4 53.16                             135   -0.12 9  144 261 
 PTB  HN ES        0 5 14.45                             135   -0.32 9  144 261 
 PTB  HZ I         0 5 19.38         3.7 0.30            132            144 261 
 SPBC HN ES   1    0 5 17.36                             133    0.33 7  157 219 
 SPBC HZ I         0 5 24.29         6.7 0.34            130            157 219 
 ZAR  HN ES        0 5 24.55                             125   -0.13 9  203 294 
 ZAR  HZ I         0 5 30.93         3.8 0.28            123            203 294 
 NOR  HN ES   1    0 5 29.91                             121    0.42 6  229 235 
 CHI  HZ EP        0 5  3.19                             120   -0.24 8  243 195 
 CHI  HN ES   4    0 5 34.94                             120    2.10 0  243 195 
 SML  HE ES   1    0 5 32.72                             119   -0.02 6  247 336 
                                                                                
