 2013  324 0549 28.6 L   6.811 -73.153146.0  RSN 21 0.5 4.0LRSN 4.0WRSN        1
 SPEC AVERAGE  MO 15.1 ST294.6 OM  3.2 f0 5.31 R0.4292 AL 2.85 WI 47.6 MW  4.0 3
 SPEC SD       MO  0.4 ST360.7 OM  0.6 f0 2.15 R0.2300 AL      WI      MW  0.3 3
 GAP= 68        1.10       2.5     3.1  4.6  0.2313E-01  0.4473E+01  0.9203E+00E
 Epicentro: LOS SANTOS - SANTANDER                                             3
 SPEC URE HH N MO 14.9 ST218.8 OM  2.7 f0 7.36 R0.2473 AL 3.53 WI 52.3 MW  3.9 3
 SPEC URE HH N T 55038 K 0.050 GD  318 VS 5.20 DE 3.20 Q0750.0 QA 1.50 VS 5.20 3
 SPEC ZAR HH N MO 15.4 ST999.9 OM  3.3 f0 9.22 R0.1974 AL 4.76 WI 43.9 MW  4.2 3
 SPEC ZAR HH N T 55025 K 0.050 GD  250 VS 5.20 DE 3.20 Q0750.0 QA 1.50 VS 5.20 3
 SPEC PRA HH N MO 14.3 ST 28.7 OM  2.0 f0 5.84 R0.3116 AL 3.36 WI 46.7 MW  3.5 3
 SPEC PRA HH N T 551 2 K 0.050 GD  419 VS 5.20 DE 3.20 Q0750.0 QA 1.50 VS 5.20 3
 SPEC RUS HH N MO 14.5 ST 75.3 OM  2.6 f0 6.76 R0.2692 AL 2.55 WI 58.6 MW  3.6 3
 SPEC RUS HH N T 550 8 K 0.050 GD  178 VS 5.20 DE 3.20 Q0750.0 QA 1.50 VS 5.20 3
 SPEC PAM SH E MO 15.2 ST217.5 OM  3.3 f0 5.77 R0.3154 AL 3.19 WI 27.3 MW  4.1 3
 SPEC PAM SH E T 550 7 K 0.050 GD  165 VS 5.20 DE 3.20 Q0750.0 QA 1.50 VS 5.20 3
 SPEC GUA SH N MO 15.4 ST 43.4 OM  3.0 f0 2.94 R0.6190 AL 2.14 WI 61.7 MW  4.2 3
 SPEC GUA SH N T 55116 K 0.050 GD  496 VS 5.20 DE 3.20 Q0750.0 QA 1.50 VS 5.20 3
 SPEC COD HH N MO 14.9 ST  6.4 OM  2.7 f0 2.15 R0.8465 AL 1.36 WI 77.4 MW  3.9 3
 SPEC COD HH N T 55051 K 0.050 GD  376 VS 5.20 DE 3.20 Q0750.0 QA 1.50 VS 5.20 3
 SPEC HEL HH Z MO 14.9 ST 44.2 OM  2.1 f0 4.18 R0.4354 AL 1.55 WI 29.6 MW  3.9 3
 SPEC HEL HH Z T 550 6 K 0.050 GD  308 VP 8.60 DE 3.20 Q0750.0 QA 1.50 VS 5.20 3
 SPEC CHI HH N MO 14.9 ST  5.7 OM  2.8 f0 2.08 R0.8750 AL 1.96 WI 34.3 MW  3.9 3
 SPEC CHI HH N T 55034 K 0.050 GD  289 VS 5.20 DE 3.20 Q0750.0 QA 1.50 VS 5.20 3
 SPEC OCA HH N MO 15.8 ST805.1 OM  3.8 f0 5.56 R0.3273 AL 3.07 WI 48.8 MW  4.5 3
 SPEC OCA HH N T 55017 K 0.050 GD  215 VS 5.20 DE 3.20 Q0750.0 QA 1.50 VS 5.20 3
 SPEC BRR HH N MO 15.6 ST795.0 OM  3.7 f0 6.58 R0.2766 AL 3.89 WI 42.5 MW  4.3 3
 SPEC BRR HH N T 550 6 K 0.050 GD  161 VS 5.20 DE 3.20 Q0750.0 QA 1.50 VS 5.20 3
 ACTION:UPD 13-04-09 14:04 OP:ep   STATUS:               ID:20130324054928 L   I
 2013-03-24-0548-48M.COL___205                                                 6
 STAT SP IPHASW D HRMM SECON CODA AMPLIT PERI AZIMU VELO AIN AR TRES W  DIS CAZ7
 BAR2 SZ IP     D  549 48.40                             170    0.1310 24.4 188 
 BAR2 SZ ES        550  3.23                             170   -0.3910 24.4 188 
 BAR2 SZ I         550  4.03      2766.8 0.26            169           24.4 188 
 GIR2 SZ IP     C  549 48.54                             168    0.2810 30.0 351 
 GIR2 SZ ES        550  3.12                             168   -0.4710 30.0 351 
 GIR2 SZ I         550  5.07       658.9 0.34            167           30.0 351 
 BRR  HZ IP        549 50.36                             153    0.6710 70.0 298 
 BRR  HN ES   4    550  7.15                             153    0.99 0 70.0 298 
 BRR  HN I         550 11.39      4163.4 0.16            150           70.0 298 
 PAM  SZ IP     C  549 51.30                             151    0.5010 76.9  41 
 PAM  SN ES        550  8.19                             151    0.0610 76.9  41 
 PAM  SN I         550  9.42      3350.1 0.48            154           76.9  41 
 RUS  HZ EP        549 52.43                             143   -0.0210  102 176 
 RUS  HE ES        550 10.71                             143   -0.3610  102 176 
 RUS  HE I         550 13.68       829.8 0.48            144            102 176 
 PTB  HZ EP        549 54.93                             132   -0.60 9  147 258 
 PTB  HN ES        550 15.78                             132   -0.76 9  147 258 
 PTB  HN I         550 18.49      1512.0 0.26            131            147 258 
 TAM  HZ IP        549 56.76                             130    0.38 9  156 105 
 TAM  HN ES        550 18.16                             130    0.10 9  156 105 
 TAM  HN I         550 22.51       966.3 0.32            134            156 105 
 OCA  HZ IP     C  549 56.79                             129   -0.01 9  159 353 
 OCA  HE EP        549 56.92                             129    0.12 9  159 353 
 OCA  HN ES        550 18.65                             129   -0.15 9  159 353 
 OCA  HE I         550 22.72      4775.2 0.17            131            159 353 
 ZAR  HZ EP        550  1.34                             122    0.41 9  203 292 
 ZAR  HN ES        550 26.97                             122    0.81 9  203 292 
 ZAR  HN I         550 33.89      1414.9 0.22            122            203 292 
 CHI  HZ EP        550  6.70                             117    0.29 8  250 195 
 CHI  HN ES        550 35.71                             117   -0.19 8  250 195 
 CHI  HN I         550 41.88       388.0 0.48            117            250 195 
 HEL  HZ EP        550  8.84                             114    0.07 8  272 256 
 HEL  HN ES        550 40.66                             114    0.56 8  272 256 
 HEL  HN I         550 52.88       279.0 0.28            115            272 256 
 URE  HZ EP        550  8.79                             113   -0.75 7  283 292 
 URE  HN ES   4    550 39.78                             113   -1.70 0  283 292 
 URE  HN I         550 53.20       908.3 0.26            114            283 292 
 VIL  SZ EP        550 12.70                             112    0.57 7  304 191 
 VIL  SN ES        550 46.27                             112    0.17 7  304 191 
 VIL  SN I         550 53.89       704.4 0.56            112            304 191 
 DBB  SZ IP        550 16.42                             109    0.44 7  339 274 
 DBB  SZ ES        550 52.68                             109   -0.26 7  339 274 
 DBB  SZ I         551  0.10       272.1 0.62            110            339 274 
 COD  HZ EP        550 16.03                             109   -0.80 6  347 355 
 COD  HN ES        550 53.82                             109   -0.63 6  347 355 
 COD  HN I         551  2.61       108.6 0.38            110            347 355 
 PRA  HZ EP        550 22.30                             106    0.10 6  393 209 
 PRA  HN ES        551  4.29                             106    0.28 6  393 209 
 PRA  HN I         551  9.57       122.9 0.40            107            393 209 
 PAL  HZ EP        550 24.91                             106    1.16 6  406 239 
 SJC  HZ EP        550 22.77                             105   -1.22 6  408 327 
 YOT  HZ EP        550 31.53                             103   -0.14 5  472 229 
 GUA  SZ EP        550 31.35                             103   -0.55 5  475 173 
 GUA  SN ES        551 19.57                             103   -1.71 5  475 173 
 GUA  SN I         551 23.12       459.9 0.44            104            475 173 
 SMAR HZ EP        550 34.70                             102    0.39 4  496 346 
                                                                                
