 2011 1124 0618 40.3 L   6.798 -73.104138.6  RSN  6 0.4 1.7LRSN                1
 GAP=142        0.78       4.1     5.4  7.0  0.2781E+01  0.7371E+01 -0.4571E+01E
 Epicentro: LOS SANTOS - SANTANDER                                             3
 ACTION:UPD 12-07-13 16:12 OP:ep   STATUS:               ID:20111124061840 L   I
 2011-11-24-0616-15S.COL___177                                                 6
 STAT SP IPHASW D HRMM SECON CODA AMPLIT PERI AZIMU VELO AIN AR TRES W  DIS CAZ7
 BAR2 SZ EP   1    618 58.74                             170   -0.38 7 24.4 201 
 BAR2 SZ ES   1    619 13.42                             170   -0.35 7 24.4 201 
 BAR2 SZ I         619 14.54        13.7 0.24                          24.4 201 
 PAM  SZ EP   1    619  1.93                             150    0.31 7 74.7  37 
 PAM  SN ES   1    619 18.66                             150    0.44 7 74.7  37 
 PAM  SZ I         619 20.64         6.4 0.51                          74.7  37 
 BRR  HZ EP   1    619  0.78                             150   -0.18 7 75.3 297 
 BRR  HZ I         619  1.16        18.1 0.10                          75.3 297 
 BRR  HE ES   1    619 17.57                             150    0.53 7 75.3 297 
 RUS  HZ EP   1    619  3.83                             142    0.48 7  100 179 
 RUS  HZ I         619 20.77         4.2 0.58                           100 179 
 RUS  HN ES   1    619 21.01                             142   -0.30 7  100 179 
 OCA  SZ EP   1    619  7.69                             128   -0.48 7  161 352 
 OCA  SZ ES   1    619 29.40                             128   -0.48 7  161 352 
 OCA  SZ I         619 32.76         6.1 0.44                           161 352 
 ZAR  HZ EP   1    619 13.21                             120    0.44 6  208 292 
 ZAR  HN ES   1    619 37.99                             120   -0.08 6  208 292 
 ZAR  HZ I         619 40.26         3.9 0.22                           208 292 
                                                                                
