 2010 1024 0623 19.5 L   6.777 -73.048139.8  RSN  5 0.4 1.5LRSN                1
 GAP=170        0.85       5.6     9.7 10.6 -0.1285E+02 -0.2664E+02  0.3023E+01E
 Epicentro: LOS SANTOS - SANTANDER                                             3
 ACTION:UP  11-02-18 11:11 OP:tino STATUS:               ID:20101024062319 L   I
 2010-10-24-0619-30S.COL___125                                                 6
 STAT SP IPHASW D HRMM SECON CODA AMPLIT PERI AZIMU VELO SNR AR TRES W  DIS CAZ7
 BRR  HZ EP   1    623 40.41                             149    -0.3 8   82 297 
 BRR  HZ I         623 40.71         9.4 0.18                            82 297 
 BRR  HN ES   1    623 57.33                             149     0.1 8   82 297 
 RUS  HZ EP   1    623 42.79                             144     0.3 8   98 182 
 RUS  HN ES   2    624  0.09                             144    -0.3 5   98 182 
 RUS  HZ I         624  2.92         2.1 0.15                            98 182 
 GRA  SZ EP        623 44.31                             136     0.110  125  12 
 GRA  SZ ES   1    624  3.83                             136     0.3 7  125  12 
 GRA  SZ I         624  5.94         4.3 0.06                           125  12 
 OCA  SZ EP   1    623 47.10                             128    -0.7 7  164 350 
 OCA  SZ I         624 13.82         6.8 0.27                           164 350 
 HEL  HZ EP   2    624  1.26                             113     0.7 4  282 257 
 HEL  HZ I         624 37.29         1.8 0.07                           282 257 
                                                                                
