 2017  624 0603 40.8 L   6.765 -73.118134.9  RSN  5 0.3 1.3LRSN                1
 GAP=260        0.73       5.5     4.6  5.4  0.2735E+01  0.4151E+01 -0.2344E+01E
 Epicentro: LOS SANTOS - SANTANDER                                             3
 ACTION:UPD 17-09-14 16:54 OP:jn   STATUS:               ID:20170624060340 L   I
 OLDACT:UP  17-06-24 16:19 OP:lv   STATUS:               ID:20170624055741d    3
 OLDACT:DUP 17-06-24 16:16 OP:lv   STATUS:               ID:20170624055741d    3
 OLDACT:REG 17-06-24 13:42 OP:lv   STATUS:               ID:20170624055740     3
 2017-06-24-0558-00M.COL___374                                                 6
 STAT SP IPHASW D HRMM SECON CODA AMPLIT PERI AZIMU VELO AIN AR TRES W  DIS CAZ7
 BAR2 EZ EP        6 3 58.96                             171   -0.1310 20.3 200 
 BAR2 EZ ES        6 4 13.28                             171   -0.0610 20.3 200 
 BAR2 EZ I         6 4 14.72         5.3 0.13            171           20.3 200 
 BRR  HZ EP        6 4  0.88                             149   -0.2210 75.8 300 
 BRR  HN ES        6 4 17.20                             149    0.3010 75.8 300 
 PTB  HZ EP   9    6 4  5.50                             129   -1.65 0  150 261 
 PTB  HN ES        6 4 26.23                             136    0.20 9  150 261 
 PTB  HZ I         6 4 29.00                             129            150 261 
 ZAR  HZ EP        6 4 13.59                             119    0.54 8  208 293 
 ZAR  HN ES        6 4 37.71                             119   -0.47 8  208 293 
 ZAR  HZ I         6 4 41.95         1.6 0.18            119            208 293 
 NOR  HN ES        6 4 43.48                             116    0.08 8  235 236 
                                                                                
