 2013  624 0552 17.7 L   6.758 -73.170147.6  RSN  4 0.3 1.2LRSN                1
 GAP=208        0.69       6.9     5.4  5.6 -0.1411E+01  0.2815E+01 -0.1239E+02E
 Epicentro: LOS SANTOS - SANTANDER                                             3
 ACTION:UPD 14-01-08 09:56 OP:ep   STATUS:               ID:20130624055217 L   I
 OLDACT:REG 13-06-24 07:12 OP:jn   STATUS:               ID:20130624054959     3
 2013-06-24-0549-59M.COL___267                                                 6
 STAT SP IPHASW D HRMM SECON CODA AMPLIT PERI AZIMU VELO AIN AR TRES W  DIS CAZ7
 BAR2 SZ EP        552 37.32                             173   -0.1010 18.4 184 
 BAR2 SZ ES        552 52.73                             173   -0.1010 18.4 184 
 BAR2 SZ I         552 55.31         5.5 0.40            175           18.4 184 
 BRR  HZ EP        552 39.59                             153    0.5810 71.3 303 
 BRR  HN ES        552 55.62                             153   -0.0410 71.3 303 
 BRR  HZ I         552 59.69         1.7 0.15            152           71.3 303 
 PTB  HZ EP        552 44.36                             133   -0.10 9  144 260 
 PTB  HN ES        553  5.33                             133   -0.05 9  144 260 
 PTB  HZ I         553  7.83         2.4 0.14            135            144 260 
 SML  HZ EP        552 54.40                             117   -0.33 8  247 336 
                                                                                
