 2010  424 0010 45.7 L   6.932 -73.287158.4  RSN  7 0.4 1.8LRSN                1
 GAP=159        0.61      10.0    17.5 15.9 -0.1423E+03 -0.2081E+03  0.1219E+03E
 Epicentro: BETULIA - SANTANDER                                                3
 ACTION:UPD 10-08-24 10:00 OP:vdl  STATUS:               ID:20100424001045 L   I
 2010-04-24-0007-06S.COL___104                                                 6
 STAT SP IPHASW D HRMM SECON CODA AMPLIT PERI AZIMU VELO AIN AR TRES W  DIS CAZ7
 BRR  HZ EP   2    011  6.55                             161    -0.7 5   51 292 
 BRR  HZ I         011 13.75        13.4 0.27                            51 292 
 BRR  HE ES   2    011 24.32                             161     0.2 5   51 292 
 BRI  SZ IP        011 10.38                             145     0.010  102  32 
 GUE  SZ EP   2    011 11.03                             144     0.1 5  107  22 
 GRA  SZ EP   2    011 11.55                             141     0.0 5  118  27 
 OCA  SZ EP   2    011 14.25                             135     0.6 5  145 359 
 OCA  SZ ES   2    011 35.30                             135    -0.1 5  145 359 
 OCA  SZ I         011 44.89        14.7 0.35                           145 359 
 CHI  HZ EP   2    011 25.08                             118    -0.2 4  259 191 
 CHI  HZ I         012  0.32         1.8 0.50                           259 191 
 PRA  HZ EP   2    011 39.86                             108    -0.5 3  398 207 
 PRA  HN ES   2    012 23.84                             108     0.9 3  398 207 
 PRA  HZ I         012 27.44         1.7 0.22                           398 207 
                                                                                
