 2015  624 0532  1.6 L   6.823 -73.076148.7  RSN 10 0.4 2.2LRSN                1
 GAP=190        0.88       2.8     4.7  5.6  0.1358E+01  0.1039E+02  0.2695E+01E
 Epicentro: LOS SANTOS - SANTANDER                                             3
 ACTION:UPD 15-09-10 22:14 OP:cam  STATUS:               ID:20150624053201 L   I
 OLDACT:UP  15-06-24 15:58 OP:mh   STATUS:               ID:20150624052749     3
 OLDACT:UP  15-06-24 15:57 OP:mh   STATUS:               ID:20150624052749     3
 OLDACT:REG 15-06-24 13:06 OP:mh   STATUS:               ID:20150624052749     3
 2015-06-24-0527-49M.COL___316                                                 6
 STAT SP IPHASW D HRMM SECON CODA AMPLIT PERI AZIMU VELO AIN AR TRES W  DIS CAZ7
 BAR2 EZ EP        532 22.04                             169    0.3310 28.1 205 
 BAR2 EZ ES        532 36.63                             169   -0.7510 28.1 205 
 BRR  HZ EP        532 23.92                             151    0.4910 77.0 294 
 BRR  HN ES        532 40.63                             151    0.2010 77.0 294 
 BRR  HZ I         532 44.50        16.3 0.14            146           77.0 294 
 RUS  HZ EP        532 25.93                             144    0.1010  103 180 
 RUS  HN ES        532 44.95                             144    0.2410  103 180 
 OCA  HN ES        532 52.42                             130    0.22 9  159 350 
 OCA  HZ I         532 56.45        33.1 0.38            128            159 350 
 ZAR  HZ EP        532 34.82                             122   -0.09 8  210 291 
 ZAR  HN ES        533  0.55                             122   -0.32 8  210 291 
 ZAR  HZ I         533  6.63         8.0 0.06            120            210 291 
 NOR  HZ EP        532 37.88                             118   -0.48 8  242 235 
 NOR  HN ES        533  7.08                             118    0.07 8  242 235 
 NOR  HZ I         533 10.87        11.5 0.42            117            242 235 
 SML  HN ES        533  6.82                             118   -0.50 8  245 333 
 SML  HZ I         533 18.60        15.7 0.10            116            245 333 
 HEL  HZ EP   1    532 42.96                             115    0.08 6  280 256 
 HEL  HN ES        533 15.80                             115    0.73 7  280 256 
 HEL  HZ I         533 20.39         7.5 0.42            113            280 256 
 TOL  SZ EP   1    532 50.75                             109   -0.08 5  351 225 
 TOL  SN ES        533 28.96                             109   -0.25 6  351 225 
 TOL  SZ I         533 34.81         5.2 0.72            109            351 225 
 PRA  HZ EP        532 55.58                             107   -0.37 6  398 210 
 PRA  HN ES        533 38.01                             107   -0.31 6  398 210 
 PRA  HZ I         533 43.69         3.4 0.36            106            398 210 
                                                                                
