 2011  924 0524 47.7 L   6.788 -73.068141.9  RSN  8 0.3 1.9LRSN                1
 GAP=191        0.55       2.3     4.6  3.6  0.1848E+01  0.2624E+01  0.2523E+00E
 Epicentro: LOS SANTOS - SANTANDER                                             3
 ACTION:UPD 12-07-13 15:59 OP:ep   STATUS:               ID:20110924052447 L   I
 2011-09-24-0522-14S.COL___165                                                 6
 STAT SP IPHASW D HRMM SECON CODA AMPLIT PERI AZIMU VELO AIN AR TRES W  DIS CAZ7
 BAR2 SZ EP        525  6.95                             169    0.0310 25.0 210 
 BAR2 SZ ES        525 21.65                             169   -0.2510 25.0 210 
 BAR2 SZ I         525 22.95        21.5 0.29                          25.0 210 
 BRR  HZ EP        525  8.96                             149    0.0110 79.4 296 
 BRR  HN ES        525 25.71                             149    0.2010 79.4 296 
 BRR  HZ I         525 26.89        22.7 0.12                          79.4 296 
 RUS  HZ EP   1    525 11.00                             143    0.02 7 99.0 181 
 RUS  HE ES   1    525 29.12                             143    0.00 7 99.0 181 
 RUS  HZ I         525 30.55         7.3 0.25                          99.0 181 
 OCA  SZ EP        525 16.02                             128    0.04 9  163 350 
 OCA  SZ ES   1    525 37.97                             128   -0.05 7  163 350 
 OCA  SZ I         525 40.95        13.5 0.43                           163 350 
 ZAR  HZ EP   1    525 21.22                             120    0.42 6  213 292 
 ZAR  HE ES   2    525 46.14                             120   -0.47 4  213 292 
 ZAR  HZ I         525 51.70        16.3 0.55                           213 292 
 CHI  HZ EP   1    525 25.65                             116    0.33 6  250 197 
 CHI  HE ES   1    525 54.87                             116    0.22 6  250 197 
 CHI  HZ I         526  0.59         3.4 0.35                           250 197 
 HEL  HZ EP   1    525 28.13                             113   -0.50 6  280 257 
 HEL  HZ I         526  5.44         3.9 0.34                           280 257 
 RREF HZ EP   1    525 33.57                             110   -0.78 5  327 231 
 RREF HE ES   2    526 11.38                             110    0.66 3  327 231 
 RREF HZ I         526 18.03         3.3 0.40                           327 231 
                                                                                
