 2012 1024 0610 52.0 L   6.793 -73.095151.3  RSN 10 0.2 2.2LRSN                1
 GAP=143        0.50       2.4     3.2  3.7  0.9803E+00  0.2506E+01  0.1901E+01E
 Epicentro: LOS SANTOS - SANTANDER                                             3
 ACTION:UPD 12-11-22 17:05 OP:ep   STATUS:               ID:20121024061052 L   I
 2012-10-24-0610-00M.COL___234                                                 6
 STAT SP IPHASW D HRMM SECON CODA AMPLIT PERI AZIMU VELO AIN AR TRES W  DIS CAZ7
 BAR2 SZ EP        611 12.38                             170    0.1010 24.1 203 
 BAR2 SZ ES   2    611 28.01                             170   -0.11 5 24.1 203 
 BAR2 SZ I         611 30.34        53.5 0.20                          24.1 203 
 GIR2 SZ EP        611 12.54                             167    0.1810 33.4 341 
 PAM  SZ EP   1    611 14.60                             153   -0.02 7 74.6  36 
 PAM  SN ES   1    611 32.04                             153   -0.24 7 74.6  36 
 BRR  HZ EP        611 14.31                             152    0.2910 76.5 297 
 BRR  HZ I         611 14.92        39.9 0.14                          76.5 297 
 BRR  HN ES        611 31.37                             152    0.1610 76.5 297 
 RUS  HZ EP        611 16.12                             145   -0.0710 99.5 179 
 RUS  HN ES   1    611 34.90                             145   -0.19 7 99.5 179 
 RUS  HN I         611 36.88        22.5 0.17                          99.5 179 
 OCA  HZ EP   1    611 20.64                             131   -0.22 7  162 351 
 ZAR  HZ EP        611 24.81                             123   -0.53 8  210 292 
 ZAR  HN ES   1    611 51.29                             123   -0.07 6  210 292 
 ZAR  HZ I         611 56.80        19.8 0.29                           210 292 
 CHI  HZ EP   1    611 30.37                             118    0.31 6  249 196 
 CHI  HN ES   2    611 59.72                             118   -0.05 4  249 196 
 CHI  HZ I         612  7.92         6.6 0.54                           249 196 
 HEL  HZ EP   2    611 33.30                             115    0.26 4  277 256 
 HEL  HZ I         612 11.98         8.0 0.64                           277 256 
 PRA  HZ EP   1    611 46.18                             107    0.25 4  394 210 
 PRA  HN ES   1    612 27.72                             107   -0.29 4  394 210 
 PRA  HZ I         612 34.06         5.2 0.44                           394 210 
                                                                                
