 2012  924 0341 20.1 L   6.754 -73.213148.8  RSN  5 0.3 1.5LRSN                1
 GAP=224        0.68       7.4     7.0  8.6  0.3383E+02  0.9023E+01  0.1224E+01E
 Epicentro: VILLANUEVA - SANTANDER                                             3
 ACTION:UPD 12-10-22 14:20 OP:ep   STATUS:               ID:20120924034120 L   I
 2012-09-24-0340-00M.COL___221                                                 6
 STAT SP IPHASW D HRMM SECON CODA AMPLIT PERI AZIMU VELO AIN AR TRES W  DIS CAZ7
 BAR2 SZ ES   1    341 55.07                             173   -0.45 7 18.2 169 
 BRR  HZ EP   1    341 41.11                             154   -0.26 7 67.6 305 
 BRR  HN ES   1    341 58.34                             154    0.37 7 67.6 305 
 RUS  HZ EP   1    341 43.87                             146    0.03 7 96.4 171 
 RUS  HN ES   1    342  2.77                             146    0.40 7 96.4 171 
 RUS  HZ I         342  3.48         2.7 0.26                          96.4 171 
 PTB  HN ES   1    342  6.87                             134   -0.37 7  140 260 
 ZAR  HZ I         342 14.88         6.1 0.26                           199 294 
 ZAR  HE ES   1    342 17.63                             124    0.31 6  199 294 
                                                                                
