 2017  724 0630  9.8 L   6.760 -73.157150.0  RSN  8 0.4 1.5LRSN                1
 GAP=208        0.77       4.6     4.4  5.8  0.6666E+01 -0.2318E+01  0.2126E+01E
 Epicentro: LOS SANTOS - SANTANDER                                             3
 ACTION:UPD 17-08-30 15:36 OP:rebc STATUS:               ID:20170724063009 L   I
 OLDACT:UP  17-07-24 17:35 OP:and  STATUS:               ID:20170724062737     3
 OLDACT:REG 17-07-24 13:02 OP:and  STATUS:               ID:20170724062737     3
 2017-07-24-0628-00M.COL___380                                                 6
 STAT SP IPHASW D HRMM SECON CODA AMPLIT PERI AZIMU VELO AIN AR TRES W  DIS CAZ7
 BAR2 EZ EP   2    630 29.53                             173   -0.35 5 18.8 189 
 BAR2 EZ ES   2    630 45.51                             173   -0.01 5 18.8 189 
 BAR2 EZ I         630 46.46         6.1 0.28            167           18.8 189 
 BRR  HZ IP     C  630 31.49                             153   -0.0010 72.3 302 
 BRR  HN ES        630 48.87                             153    0.4810 72.3 302 
 BRR  HZ I         630 50.60         5.2 0.14            152           72.3 302 
 RUS  HZ EP        630 33.69                             146   -0.0010 96.3 175 
 RUS  HN ES        630 52.17                             146   -0.1410 96.3 175 
 RUS  HZ I         630 52.96         4.9 0.52            144           96.3 175 
 PTB  HZ IP     D  630 36.62                             134   -0.34 9  146 260 
 PTB  HN ES        630 57.58                             134   -0.55 9  146 260 
 PTB  HZ I         630 59.85         3.2 0.20            132            146 260 
 SPBC HZ EP        630 38.36                             131    0.10 9  159 220 
 SPBC HN ES        631  0.85                             131    0.41 9  159 220 
 SPBC HZ I         631  6.64         6.8 0.12            129            159 220 
 YPLC HZ EP        630 39.34                             128   -0.27 9  174 150 
 YPLC HE ES   2    631  3.60                             128    0.75 4  174 150 
 YPLC HZ I         631  4.18         3.7 0.24            129            174 150 
 NOR  HZ EP   2    630 45.39                             120   -0.03 4  231 235 
 NOR  HE ES   2    631 13.34                             120    0.15 4  231 235 
 NOR  HZ I         631 18.86         2.4 0.40            119            231 235 
 CBOC HZ EP   2    630 57.99                             111    1.36 3  331 253 
                                                                                
