 2013  124 0824 40.4 L   6.501 -73.624107.2  RSN  4 0.1 1.5LRSN                1
 GAP=134        0.39       3.0     1.9  4.0  0.2140E+01  0.1560E+01 -0.4252E+00E
 Epicentro: SANTA HELENA DEL OPON - SANTANDER                                  3
 ACTION:UPD 13-02-15 09:16 OP:ep   STATUS:               ID:20130124082440 L   I
 2013-01-24-0818-36M.COL___177                                                 6
 STAT SP IPHASW D HRMM SECON CODA AMPLIT PERI AZIMU VELO AIN AR TRES W  DIS CAZ7
 BAR2 SZ EP        824 56.46                             153   -0.0910 49.9  78 
 BAR2 SZ ES        825  9.25                             153    0.1310 49.9  78 
 BAR2 SZ I         825 10.59        17.6 0.30            161           49.9  78 
 BRR  HZ EP        824 57.21                             145   -0.1110 67.7 352 
 RUS  HZ EP        824 59.89                             137    0.1710 90.1 138 
 RUS  HN ES        825 14.63                             137   -0.1510 90.1 138 
 PTB  HZ EP        824 59.29                             136    0.0510 92.1 273 
 PTB  HN ES        825 13.91                             136    0.0010 92.1 273 
 PTB  HN I         825 18.82         4.6 0.26            138           92.1 273 
                                                                                
