 2014  924 0927 37.4 L   6.359 -73.657 17.5  RSN  5 0.3 1.1LRSN                1
 GAP=184        0.78       3.6     3.1  4.8  0.4650E+01  0.2287E+01 -0.8779E+01E
 Epicentro: SANTA HELENA DEL OPON - SANTANDER                                  3
 ACTION:UPD 14-10-03 23:08 OP:nd   STATUS:               ID:20140924092737 L   I
 OLDACT:UP  14-09-24 17:25 OP:cam  STATUS:               ID:20140924092000     3
 OLDACT:REG 14-09-24 13:24 OP:cam  STATUS:               ID:20140924092000     3
 2014-09-24-0920-00M.COL___252                                                 6
 STAT SP IPHASW D HRMM SECON CODA AMPLIT PERI AZIMU VELO AIN AR TRES W  DIS CAZ7
 BAR2 SZ EP        927 47.44                             104    0.0910 58.5  64 
 RUS  HZ EP     C  927 51.57                             100    0.4910 81.9 129 
 RUS  HE ES        928  1.28                             100   -0.4810 81.9 129 
 RUS  HZ I         928  5.58         3.5 0.68             47           81.9 129 
 BRR  HZ EP        927 50.53                             100   -0.1910 82.9 356 
 PAM  SZ EP        928  1.31                              56    0.29 9  152  44 
 PAM  SN ES        928 19.34                              56   -0.10 9  152  44 
 PAM  SZ I         928 26.32         5.4 0.18             47            152  44 
 ZAR  HZ EP        928  4.46                              56    0.15 9  183 313 
 ZAR  HN ES        928 25.07                              56   -0.24 9  183 313 
 ZAR  HZ I         928 28.50         1.8 0.24             47            183 313 
                                                                                
