 2011  424 0449 39.1 L   6.742 -73.112140.8  RSN 12 0.4 2.1LRSN                1
 GAP=119        1.10       4.0     7.0  7.7 -0.6598E+01 -0.4098E+01  0.2716E+01E
 Epicentro: JORDAN - SANTANDER                                                 3
 ACTION:UP  11-06-22 15:33 OP:REBC STATUS:               ID:20110424044939 L   I
 2011-04-24-0440-00M.COL___139                                                 6
 STAT SP IPHASW D HRMM SECON CODA AMPLIT PERI AZIMU VELO SNR AR TRES W  DIS CAZ7
 BAR2 SZ IP        449 57.87                             172    -0.110   18 205 
 BAR2 SZ ES   1    450 12.53                             172    -0.2 7   18 205 
 BAR2 SZ I         450 14.05        33.4 0.21                            18 205 
 GIR2 SZ EP        449 59.05                             164     0.710   38 346 
 BRR  HZ IP     D  449 59.68                             149    -0.410   78 301 
 BRR  HZ I         449 59.84        33.9 0.16                            78 301 
 BRR  HN ES   1    450 16.75                             149     0.3 7   78 301 
 PAM  SZ EP        450  0.90                             149     0.010   80  35 
 PAM  SN ES   2    450 17.75                             149    -0.2 5   80  35 
 RUS  HZ EP        450  1.93                             145     0.110   94 178 
 RUS  HN ES   1    450 19.94                             145     0.3 7   94 178 
 RUS  HZ I         450 21.56         9.1 0.21                            94 178 
 BRI  SZ EP        450  2.58                             139    -0.310  113  18 
 GRA  SZ EP        450  3.63                             135    -0.710  131  15 
 GRA  SZ ES   1    450 23.36                             135    -0.6 7  131  15 
 GRA  SZ I         450 27.69        10.5 0.40                           131  15 
 OCA  SZ EP        450  8.37                             127     0.7 9  167 352 
 OCA  SZ ES   1    450 30.59                             127     0.6 7  167 352 
 OCA  SZ I         450 34.92        16.6 0.23                           167 352 
 YOP  SZ EP        450  8.30                             126     0.3 9  171 153 
 NOR  SN ES   1    450 41.39                             117    -0.6 6  234 236 
 HEL  HZ EP   3    450 19.40                             114     0.1 2  274 257 
 HEL  HN ES   3    450 50.67                             114     0.1 2  274 257 
 HEL  HZ I         450 56.28         6.7 0.17                           274 257 
 PRA  HZ EP        450 31.95                             106     0.0 6  388 211 
 PRA  HN ES   2    451 12.59                             106    -0.7 3  388 211 
 PRA  HZ I         451 17.97        15.3 0.49                           388 211 
                                                                                
