 2017  724 0620 41.5 L   6.791 -73.125140.1  RSN 20 0.5 2.2LRSN                1
 GAP= 67        0.97       2.9     2.5  4.5  0.3452E+00  0.2305E+01 -0.7436E+00E
 Epicentro: LOS SANTOS - SANTANDER                                             3
 ACTION:UPD 17-08-30 15:36 OP:rebc STATUS:               ID:20170724062041 L   I
 OLDACT:UP  17-07-24 17:32 OP:and  STATUS:               ID:20170724061739     3
 OLDACT:UP  17-07-24 17:32 OP:and  STATUS:               ID:20170724061739     3
 OLDACT:UP  17-07-24 17:31 OP:and  STATUS:               ID:20170724061739     3
 OLDACT:UP  17-07-24 17:31 OP:and  STATUS:               ID:20170724061739     3
 OLDACT:UP  17-07-24 17:29 OP:and  STATUS:               ID:20170724061739     3
 OLDACT:UP  17-07-24 17:29 OP:and  STATUS:               ID:20170724061739     3
 OLDACT:UP  17-07-24 17:27 OP:and  STATUS:               ID:20170724061739     3
 OLDACT:REG 17-07-24 13:01 OP:and  STATUS:               ID:20170724061739     3
 2017-07-24-0618-00M.COL___380                                                 6
 STAT SP IPHASW D HRMM SECON CODA AMPLIT PERI AZIMU VELO AIN AR TRES W  DIS CAZ7
 BAR2 EZ EP        621  0.20                             170   -0.2410 22.9 196 
 BAR2 EZ ES        621 14.73                             170   -0.4810 22.9 196 
 BAR2 EZ I         621 16.36        55.8 0.24            169           22.9 196 
 BRR  HZ IP     D  621  2.08                             151   -0.1110 73.7 298 
 BRR  HN ES        621 18.89                             151    0.5710 73.7 298 
 BRR  HZ I         621 23.35        35.1 0.12            150           73.7 298 
 PAM  EZ IP     C  621  3.24                             150    0.1710 76.7  38 
 PAM  EN ES        621 19.95                             150    0.0510 76.7  38 
 PAM  EZ I         621 22.35        36.4 0.30            152           76.7  38 
 RUS  HZ EP        621  4.19                             143   -0.4310 99.5 177 
 RUS  HN ES        621 22.39                             143   -0.2610 99.5 177 
 RUS  HZ I         621 24.36        24.5 0.44            144           99.5 177 
 PTB  HZ EP        621  7.32                             130   -0.88 9  150 259 
 PTB  HN ES        621 29.35                             130    0.32 9  150 259 
 PTB  HZ I         621 30.24        15.6 0.20            130            150 259 
 TAM  HZ IP     C  621  8.61                             130    0.11 9  153 105 
 TAM  HN ES        621 29.88                             130    0.32 9  153 105 
 TAM  HZ I         621 30.73        14.5 0.54            132            153 105 
 SPBC HZ EP        621  9.23                             128   -0.41 9  164 220 
 SPBC HN ES        621 31.21                             128   -0.37 9  164 220 
 SPBC HZ I         621 33.31        19.8 0.08            128            164 220 
 YPLC HZ IP        621 10.66                             126   -0.04 9  175 152 
 YPLC HN ES        621 34.20                             126    0.73 9  175 152 
 YPLC HZ I         621 37.14        24.1 0.28            127            175 152 
 ZAR  HZ EP        621 13.42                             121   -0.42 8  207 292 
 ZAR  HN ES        621 39.09                             121    0.02 8  207 292 
 ZAR  HZ I         621 44.71        18.5 0.23            121            207 292 
 NOR  HZ EP        621 16.88                             117   -0.17 8  236 235 
 NOR  HN ES        621 45.22                             117    0.44 8  236 235 
 NOR  HZ I         621 46.02         9.0 0.56            118            236 235 
 ROSC BZ EP   9    621 21.92                             115    2.56 0  253 212 
 ROSC BN ES        621 51.81                             115    0.36 8  253 212 
 ROSC BZ I         621 55.02        13.9 0.35            116            253 212 
 HEL  HZ EP        621 22.57                             113    0.92 8  274 256 
 HEL  HN ES        621 53.31                             113    0.34 8  274 256 
 HEL  HZ I         622  2.50         6.7 0.32            114            274 256 
 GUY2CHZ EP   9    621 26.10                             111    1.10 0  303 235 
 GUY2CHN ES        622  0.39                             111    0.36 7  303 235 
 GUY2CHZ I         622  5.53         9.4 0.26                           303 235 
 PTGC HZ EP   3    621 23.44                             111   -1.47 2  307 159 
 PTGC HN ES   4    621 56.61                             111   -2.16 0  307 159 
 PTGC HZ I         621 59.11         7.8 0.26            112            307 159 
 LL6C HZ EP   4    621 25.21                             109   -1.88 0  326 357 
 LL6C HZ ES   4    622  6.28                             109    3.63 0  326 357 
 CBOC HZ EP        621 29.10                             109    0.69 7  335 252 
 CBOC HN ES   3    622  3.67                             109   -1.32 2  335 252 
 CBOC HZ I         622  8.21         3.2 0.51            109            335 252 
 DBB  EZ EP        621 29.39                             108    0.36 7  342 274 
 DBB  EN ES   3    622  4.86                             108   -1.24 2  342 274 
 DBB  EZ I         622  7.79         3.7 0.14            109            342 274 
 ARGC HZ EP        621 31.46                             107    0.32 6  361 340 
 ARGC HN ES        622  9.70                             107   -0.16 6  361 340 
 ARGC HZ I         622 14.93         4.7 0.28            108            361 340 
 ORTC HN ES   4    622 20.02                             105    2.76 0  396 217 
 ORTC HZ I         622 22.32         4.7 0.26            106            396 217 
 PAL  HE ES   3    622 18.44                             105   -1.23 1  407 239 
 SJC  HZ EP   3    621 34.58                             105   -2.55 1  411 327 
 SJC  HN ES   4    622 16.25                             105   -4.26 0  411 327 
 SJC  HZ I         622 19.92         8.3 0.40            105            411 327 
                                                                                
