 2012  324 0941 58.6 L   6.791 -73.191143.6  RSN  6 0.2 1.4LRSN                1
 GAP=131        0.45       3.2     3.5  5.6 -0.9946E+00  0.8706E+01 -0.2415E+01E
 ACTION:UP  12-03-31 23:22 OP:EP   STATUS:               ID:20120324094158 L   I
 2012-03-24-0940-00M.COL___196                                                 6
 STAT SP IPHASW D HRMM SECON CODA AMPLIT PERI AZIMU VELO SNR AR TRES W  DIS CAZ7
 BAR2 SZ EP   1    942 17.92                             171     0.0 7   22 178 
 BAR2 SZ ES   2    942 33.07                             171     0.1 5   22 178 
 BRR  HZ EP   1    942 19.60                             153     0.3 7   67 301 
 BRR  HZ I         942 33.11        10.4 0.37                            67 301 
 PAM  SZ EP   1    942 20.82                             149     0.0 7   81  42 
 PAM  SN ES   1    942 37.98                             149    -0.2 7   81  42 
 RUS  HZ EP   1    942 22.14                             143     0.1 7  100 173 
 RUS  HN ES   1    942 40.48                             143     0.1 7  100 173 
 RUS  HZ I         942 41.78         2.0 0.21                           100 173 
 PTB  HZ EP   1    942 24.57                             133    -0.3 7  143 259 
 PTB  HN ES   2    942 45.19                             133    -0.3 5  143 259 
 PTB  HZ I         942 49.68         1.9 0.35                           143 259 
 ZAR  HZ EP   2    942 30.36                             122    -0.1 4  200 293 
 ZAR  HE ES   2    942 55.65                             122     0.4 4  200 293 
 ZAR  HZ I         943  2.68         4.7 0.55                           200 293 
                                                                                
