 2014  624 0044 16.6 L   6.719 -73.195140.4  RSN 16 0.5 1.9LRSN                1
 GAP=177        1.08       2.7     4.6  5.8 -0.1032E+01  0.8069E+01  0.4861E+00E
 Epicentro: VILLANUEVA - SANTANDER                                             3
 ACTION:UPD 14-07-01 22:56 OP:nd   STATUS:               ID:20140624004416 L   I
 OLDACT:REG 14-06-24 12:25 OP:spq  STATUS:               ID:20140624003805     3
 2014-06-24-0038-05M.COL___262                                                 6
 STAT SP IPHASW D HRMM SECON CODA AMPLIT PERI AZIMU VELO AIN AR TRES W  DIS CAZ7
 BAR2 SZ EP        044 35.50                             174    0.0910 14.0 174 
 BAR2 SZ ES        044 49.75                             174   -0.3410 14.0 174 
 BAR2 SZ I         044 51.80        12.9 0.16            169           14.0 174 
 BRR  HZ IP     D  044 37.63                             151    0.4610 71.4 307 
 BRR  HN ES        044 53.82                             151    0.6010 71.4 307 
 BRR  HZ I         044 55.57        14.2 0.18            147           71.4 307 
 RUS  HZ EP        044 39.28                             145    0.0810 92.2 172 
 RUS  HN ES        044 56.90                             145    0.0510 92.2 172 
 RUS  HZ I         044 59.18         4.8 0.20            145           92.2 172 
 PTB  HZ EP        044 42.07                             132   -0.41 9  141 262 
 PTB  HN ES        045  2.45                             132   -0.23 9  141 262 
 PTB  HZ I         045  9.32         7.8 0.18            128            141 262 
 SPBC HZ IP     C  044 44.38                             130    0.70 9  153 220 
 SPBC HN ES        045  5.02                             130    0.21 9  153 220 
 SPBC HZ I         045  8.65        12.2 0.20            127            153 220 
 OCA  HZ EP   1    044 45.61                             127    0.31 7  169 355 
 OCA  HE ES        045  7.08                             127   -0.61 9  169 355 
 OCA  HZ I         045 11.37         8.1 0.50            128            169 355 
 ZAR  HZ EP        044 48.89                             121    0.35 9  203 295 
 ZAR  HN ES        045 13.81                             121    0.36 9  203 295 
 ZAR  HZ I         045 20.85        10.1 0.24            120            203 295 
 NOR  HZ EP        044 51.26                             118    0.30 8  225 236 
 NOR  HN ES        045 17.24                             118   -0.54 8  225 236 
 NOR  HZ I         045 24.52         8.2 0.46            117            225 236 
 CHI  HN ES        045 20.45                             117   -0.75 8  239 194 
 CHI  HZ I         045 26.92         3.9 0.44            117            239 194 
 ROSC BZ EP   4    044 55.26                             117    2.00 0  242 211 
 ROSC BN ES        045 21.34                             117   -0.52 8  242 211 
 ROSC BZ I         045 32.69         7.0 0.40            116            242 211 
 SML  HZ EP   1    044 52.67                             116   -0.91 6  250 337 
 SML  HN ES        045 22.35                             116   -0.08 8  250 337 
 SML  HZ I         045 29.49         8.2 0.26            116            250 337 
 HEL  HZ EP   1    044 55.96                             114    0.26 6  265 257 
 HEL  HE ES   1    045 25.20                             114   -1.01 6  265 257 
 HEL  HZ I         045 34.44         5.0 0.44            113            265 257 
 GUY2CHZ EP        044 58.03                             112   -0.82 7  292 236 
 GUY2CHE ES   1    045 32.30                             112    0.48 5  292 236 
 GUY2CHZ I         045 41.97         5.4 0.56                           292 236 
 RREF HZ EP   1    045  2.01                             110    0.66 5  312 230 
 RREF HE ES   1    045 37.13                             110    0.86 5  312 230 
 RREF HZ I         045 46.39         3.3 0.24            110            312 230 
 TOL  SN ES   4    045 41.09                             109    1.10 0  333 225 
 TOL  SZ I         045 52.48         6.6 0.50            108            333 225 
 PRA  HE ES        045 49.75                             106    0.43 6  381 210 
 PRA  HZ I         045 56.63         2.3 0.32            106            381 210 
                                                                                
