 2017  724 0135 33.8 L   6.809 -73.143148.4  RSN 16 0.6 1.9LRSN                1
 GAP= 66        1.23       4.0     3.4  6.1  0.1088E+01  0.9620E+00  0.1261E+01E
 Epicentro: LOS SANTOS - SANTANDER                                             3
 ACTION:UPD 17-08-30 15:36 OP:rebc STATUS:               ID:20170724013533 L   I
 OLDACT:UP  17-07-24 14:50 OP:and  STATUS:               ID:20170724012744d    3
 OLDACT:UP  17-07-24 14:50 OP:and  STATUS:               ID:20170724012744d    3
 OLDACT:UP  17-07-24 14:48 OP:and  STATUS:               ID:20170724012744d    3
 OLDACT:DUP 17-07-24 14:43 OP:and  STATUS:               ID:20170724012744d    3
 2017-07-24-0128-00M.COL___389                                                 6
 STAT SP IPHASW D HRMM SECON CODA AMPLIT PERI AZIMU VELO AIN AR TRES W  DIS CAZ7
 BAR2 EZ EP        135 53.82                             170    0.1010 24.3 190 
 BAR2 EZ ES        136  9.43                             170    0.1310 24.3 190 
 BAR2 EZ I         136 10.19        23.6 0.26            169           24.3 190 
 BRR  HZ IP     D  135 55.45                             153    0.2710 71.0 298 
 BRR  HN ES        136 12.53                             153    0.6310 71.0 298 
 BRR  HZ I         136 16.62        13.7 0.28            152           71.0 298 
 PAM  EZ IP     C  135 56.61                             152    0.4110 76.4  40 
 PAM  EN ES        136 13.78                             152    0.0810 76.4  40 
 PAM  EZ I         136 15.46         8.3 0.22            155           76.4  40 
 RUS  HZ EP        135 57.56                             144   -0.2710  102 176 
 RUS  HN ES        136 16.35                             144   -0.2710  102 176 
 RUS  HZ I         136 17.65        14.4 0.28            145            102 176 
 PTB  HZ EP        136  0.76                             133   -0.22 9  148 258 
 PTB  HN ES        136 21.35                             133   -0.87 9  148 258 
 PTB  HZ I         136 26.04         4.8 0.10            133            148 258 
 TAM  HZ IP     D  136  1.99                             131    0.35 9  155 105 
 TAM  HN ES        136 22.61                             131   -0.78 9  155 105 
 SPBC HZ EP        136  2.65                             130    0.10 9  164 219 
 SPBC HN ES        136 24.61                             130   -0.39 9  164 219 
 SPBC HZ I         136 28.46        10.4 0.08            130            164 219 
 YPLC HZ IP     C  136  4.02                             127    0.21 9  178 152 
 YPLC HN ES        136 28.02                             127    0.77 9  178 152 
 YPLC HZ I         136 29.44         8.2 0.26            129            178 152 
 ZAR  HZ EP        136  7.01                             123    0.64 9  204 292 
 ZAR  HN ES        136 31.38                             123   -0.42 9  204 292 
 ZAR  HZ I         136 36.83         7.1 0.34            124            204 292 
 NOR  HZ EP        136 10.13                             119    0.41 8  236 234 
 NOR  HE ES        136 37.61                             119   -0.17 8  236 234 
 NOR  HZ I         136 40.49         5.9 0.22            120            236 234 
 ROSC BZ EP   9    136 14.37                             117    2.24 0  254 211 
 ROSC BN ES        136 45.17                             116    0.87 8  254 211 
 ROSC BZ I         136 48.39        11.2 0.50            118            254 211 
 HEL  HZ EP   9    136 18.34                             115    4.18 0  273 256 
 HEL  HN ES        136 50.93                             114    1.07 8  273 256 
 GUY2CHZ EP   2    136 19.10                             113    1.52 4  302 235 
 GUY2CHE ES   4    136 55.91                             113    4.15 0  302 235 
 GUY2CHZ I         136 59.85         4.2 0.30                           302 235 
 PTGC HZ EP        136 16.75                             112   -1.07 7  309 159 
 LL6C HZ EP   2    136 19.23                             111   -0.23 3  324 358 
 LL6C HN ES   2    136 53.77                             111   -1.34 3  324 358 
 SJC  HZ EP   3    136 27.81                             106   -1.52 1  409 327 
 SJC  HN ES   2    137 11.73                             106   -0.95 3  409 327 
                                                                                
