 2011 1224 0155  0.7 L   6.759 -73.114142.0  RSN  8 0.3 1.7LRSN                1
 GAP=186        0.67       3.0     5.3  6.1  0.2530E+01 -0.2710E+01  0.6913E-02E
 Epicentro: LOS SANTOS - SANTANDER                                             3
 ACTION:UPD 12-07-13 16:18 OP:ep   STATUS:               ID:20111224015500 L   I
 2011-12-24-0150-00M.COL___189                                                 6
 STAT SP IPHASW D HRMM SECON CODA AMPLIT PERI AZIMU VELO AIN AR TRES W  DIS CAZ7
 BAR2 SZ EP        155 19.73                             172   -0.1110 20.0 202 
 BAR2 SZ ES   1    155 34.50                             172   -0.25 7 20.0 202 
 BAR2 SZ I         155 36.10        11.5 0.25                          20.0 202 
 GIR2 SZ EP   2    155 20.16                             165    0.05 5 36.4 346 
 BRR  HZ EP   1    155 21.73                             150   -0.06 7 76.5 300 
 BRR  HN ES   1    155 39.03                             150    0.82 7 76.5 300 
 BRR  HZ I         155 41.16        11.0 0.16                          76.5 300 
 RUS  HZ EP   1    155 23.70                             144   -0.08 7 95.9 178 
 RUS  HE ES   1    155 41.55                             144   -0.20 7 95.9 178 
 PTB  HE ES   1    155 48.16                             130   -0.47 7  150 261 
 OCA  SZ EP   1    155 29.18                             128   -0.04 7  165 352 
 OCA  SZ ES   1    155 51.46                             128    0.02 7  165 352 
 OCA  SZ I         155 59.69         6.7 0.34                           165 352 
 ZAR  HE ES   2    155 58.49                             121   -0.49 4  209 293 
 ZAR  HZ I         156  3.91         6.8 0.25                           209 293 
 CHI  HZ EP   1    155 38.15                             117    0.29 6  245 196 
 CHI  HN ES   1    156  7.35                             117    0.54 6  245 196 
 CHI  HZ I         156 13.47         2.0 0.39                           245 196 
                                                                                
