 2016  924 0332 57.6 L   6.812 -73.153143.5  RSN 10 0.4 1.6LRSN                1
 GAP=182        0.83       3.0     4.8  5.7 -0.8571E-01  0.6074E+00  0.1147E+01E
 Epicentro: LOS SANTOS - SANTANDER                                             3
 ACTION:UPD 17-08-17 21:15 OP:lp   STATUS:               ID:20160924033257 L   I
 OLDACT:UP  16-09-24 17:33 OP:and  STATUS:               ID:20160924032746     3
 OLDACT:UP  16-09-24 17:32 OP:and  STATUS:               ID:20160924032746     3
 OLDACT:UP  16-09-24 17:23 OP:and  STATUS:               ID:20160924032746     3
 OLDACT:REG 16-09-24 12:32 OP:and  STATUS:               ID:20160924032746     3
 2016-09-24-0328-00M.COL___330                                                 6
 STAT SP IPHASW D HRMM SECON CODA AMPLIT PERI AZIMU VELO AIN AR TRES W  DIS CAZ7
 BAR2 EZ EP        333 16.74                             170   -0.2510 24.5 188 
 BAR2 EZ ES        333 31.64                             170   -0.4610 24.5 188 
 BRR  HZ EP     C  333 18.30                             153   -0.1310 69.8 298 
 BRR  HE ES        333 35.49                             153    0.8110 69.8 298 
 RUS  HZ EP        333 21.53                             143    0.3010  102 176 
 RUS  HN ES   2    333 40.08                             143    0.42 5  102 176 
 RUS  HZ I         333 41.09         3.2 0.16            142            102 176 
 PTB  HZ EP   2    333 23.37                             132   -0.97 5  147 258 
 PTB  HE ES   2    333 44.35                             132   -0.83 5  147 258 
 PTB  HZ I         333 46.85         4.3 0.06            129            147 258 
 OCA  HZ EP        333 25.74                             130    0.13 9  159 353 
 OCA  HN ES        333 47.22                             130   -0.23 9  159 353 
 OCA  HZ I         333 50.07        11.6 0.20            129            159 353 
 SPBC HZ EP        333 25.87                             128   -0.10 9  164 218 
 SPBC HE ES        333 48.39                             128    0.29 9  164 218 
 SPBC HZ I         333 49.42         5.3 0.18            127            164 218 
 ZAR  HZ EP   3    333 30.80                             122    1.03 2  203 292 
 ZAR  HN ES        333 54.73                             122   -0.13 9  203 292 
 ZAR  HZ I         334  1.78         5.1 0.19            120            203 292 
 NOR  HZ EP   2    333 33.10                             118   -0.11 4  235 234 
 NOR  HN ES   2    334  0.69                             118   -0.29 4  235 234 
 NOR  HZ I         334  6.74         3.4 0.16            117            235 234 
 CHI  HZ EP   2    333 35.45                             117    0.16 4  250 195 
 CHI  HN ES   2    334  4.73                             117    0.05 4  250 195 
 CHI  HZ I         334  8.91         2.2 0.31            116            250 195 
 GUY2CHZ EP   3    333 42.21                             112    1.10 2  301 234 
 GUY2CHN ES   4    334 18.30                             112    3.25 0  301 234 
 GUY2CHZ I         334 24.93         1.5 0.58                           301 234 
 SJC  HZ EP   4    333 50.93                             105   -1.98 0  408 327 
 SJC  HN ES   4    334 32.07                             105   -3.98 0  408 327 
                                                                                
