 2011  524 0535 46.2 L   6.803 -73.078141.9  RSN  5 0.2 1.5LRSN                1
 GAP=163        0.57       3.2     7.8  7.6 -0.9086E+01 -0.1407E+01  0.9716E+00E
 Epicentro: LOS SANTOS - SANTANDER                                             3
 ACTION:UP  11-06-29 08:55 OP:tino STATUS:               ID:20110524053546 L   I
 2011-05-24-0532-34S.COL___139                                                 6
 STAT SP IPHASW D HRMM SECON CODA AMPLIT PERI AZIMU VELO SNR AR TRES W  DIS CAZ7
 BAR2 SZ EP   1    536  5.29                             169    -0.1 7   26 206 
 BRR  HZ EP   1    536  6.90                             150    -0.4 7   78 296 
 BRR  HZ I         536  7.29         5.9 0.17                            78 296 
 BRR  HN ES   2    536 24.15                             150     0.4 5   78 296 
 RUS  HZ EP   1    536  9.67                             143     0.1 7  101 180 
 RUS  HZ I         536 10.77         2.3 0.14                           101 180 
 RUS  HN ES   1    536 27.76                             143     0.0 7  101 180 
 BRI  SZ EP   1    536  9.74                             141     0.3 7  106  17 
 BRI  SZ ES   1    536 27.35                             141    -0.3 7  106  17 
 BRI  SZ I         536 29.64         5.8 0.24                           106  17 
 GRA  SZ EP   1    536 10.87                             137     0.0 7  123  14 
 GRA  SZ ES   1    536 30.34                             137     0.2 7  123  14 
 GRA  SZ I         536 31.28         9.3 0.31                           123  14 
                                                                                
