 2013  924 0740 59.6 L   6.857 -73.081148.7  RSN  9 0.4 1.8LRSN                1
 GAP=190        0.80       3.1     5.1  6.1  0.7965E+00  0.4559E+01 -0.1213E+01E
 Epicentro: LOS SANTOS - SANTANDER                                             3
 ACTION:UPD 13-10-22 09:24 OP:ep   STATUS:               ID:20130924074059 L   I
 OLDACT:REG 13-09-24 09:41 OP:mh   STATUS:               ID:20130924073959     3
 2013-09-24-0739-59M.COL___269                                                 6
 STAT SP IPHASW D HRMM SECON CODA AMPLIT PERI AZIMU VELO AIN AR TRES W  DIS CAZ7
 BAR2 SZ EP   1    741 19.93                             168    0.18 7 31.4 201 
 BAR2 SZ ES   1    741 35.17                             168   -0.31 7 31.4 201 
 BAR2 SZ I         741 36.40        13.5 0.18            154           31.4 201 
 BRR  HZ IP     C  741 21.67                             152    0.4110 75.0 292 
 BRR  HN ES        741 38.55                             152    0.3810 75.0 292 
 BRR  HZ I         741 42.12        12.0 0.12            139           75.0 292 
 RUS  HZ EP   1    741 24.36                             143    0.29 7  107 180 
 RUS  HN ES   1    741 42.86                             143   -0.31 7  107 180 
 RUS  HZ I         741 43.60         5.7 0.52            128            107 180 
 OCA  HZ EP   1    741 27.80                             131    0.16 7  155 350 
 OCA  HN ES        741 49.30                             131   -0.22 9  155 350 
 OCA  HZ I         741 53.62         8.5 0.18            122            155 350 
 PTB  HZ EP   1    741 26.66                             131   -0.89 7  156 257 
 PTB  HZ I         741 54.90         6.1 0.42            117            156 257 
 SPBC HZ EP   1    741 28.98                             128   -0.23 7  173 220 
 SPBC HZ I         741 53.87         7.8 0.24            114            173 220 
 ZAR  HZ EP   1    741 33.35                             122    0.68 6  208 290 
 ZAR  HN ES        741 58.20                             122   -0.28 8  208 290 
 ZAR  HZ I         742  3.52        10.6 0.40            111            208 290 
 SML  HZ EP   1    741 35.64                             118   -0.46 6  241 333 
 SML  HN ES   1    742  4.47                             118   -0.10 6  241 333 
 NOR  HE ES        742  5.40                             118    0.10 8  244 234 
 NOR  HZ I         742 10.56         4.3 0.26            106            244 234 
                                                                                
