 2016  924 0540 58.2 L   6.512 -73.473116.0  RSN  8 0.4 2.1LRSN                1
 GAP= 88        0.93       3.1     3.8  6.3 -0.5228E+00  0.1220E+02 -0.1252E+01E
 Epicentro: SIMACOTA - SANTANDER                                               3
 ACTION:UPD 17-08-17 21:15 OP:lp   STATUS:               ID:20160924054058 L   I
 OLDACT:UP  16-09-24 18:55 OP:drio STATUS:               ID:20160924053742     3
 OLDACT:UP  16-09-24 18:53 OP:drio STATUS:               ID:20160924053742     3
 OLDACT:UP  16-09-24 18:53 OP:drio STATUS:               ID:20160924053742     3
 OLDACT:REG 16-09-24 12:43 OP:y    STATUS:               ID:20160924053742     3
 2016-09-24-0538-00M.COL___330                                                 6
 STAT SP IPHASW D HRMM SECON CODA AMPLIT PERI AZIMU VELO AIN AR TRES W  DIS CAZ7
 BAR2 EZ EP        541 14.53                             163   -0.0810 33.3  75 
 BAR2 EZ ES        541 27.61                             163    0.2310 33.3  75 
 BAR2 EZ I         541 32.59        31.1 0.28            168           33.3  75 
 BRR  HZ EP        541 15.70                             146   -0.5410 70.9 338 
 BRR  HE ES        541 30.46                             146    0.1810 70.9 338 
 BRR  HZ I         541 38.98        17.0 0.12            148           70.9 338 
 RUS  HZ EP        541 17.38                             143   -0.2710 81.0 148 
 RUS  HN ES        541 32.94                             143    0.1410 81.0 148 
 RUS  HZ I         541 33.79        17.5 0.30            154           81.0 148 
 PTB  HZ EP   4    541 17.98                             134   -1.28 0  109 272 
 PTB  HE ES   4    541 33.12                             134   -2.53 0  109 272 
 PTB  HZ I         541 38.42        19.2 0.52            137            109 272 
 NOR  HZ EP        541 26.58                             117   -0.53 9  187 236 
 NOR  HE ES        541 49.59                             117   -0.04 9  187 236 
 NOR  HZ I         541 50.71        15.3 0.30            123            187 236 
 ZAR  HZ EP        541 27.27                             117    0.14 9  188 305 
 ZAR  HE ES        541 49.46                             117   -0.20 9  188 305 
 ZAR  HZ I         541 53.51        18.6 0.44            122            188 305 
 OCA  HZ EP        541 28.51                             117    0.74 9  192   5 
 OCA  HN ES        541 50.41                             117   -0.39 9  192   5 
 OCA  HZ I         541 55.41        47.3 0.24            122            192   5 
 HEL  HZ EP        541 33.03                             112    0.70 8  230 261 
 HEL  HN ES        541 59.07                             112    0.16 8  230 261 
 HEL  HZ I         542  5.17         6.0 0.20            117            230 261 
 GUY2CHZ EP   4    541 36.39                             110    1.29 0  253 236 
 GUY2CHN ES   4    542  5.37                             110    1.52 0  253 236 
                                                                                
