 2012 1224 0913 57.5 L   6.724 -73.171147.0  RSN  5 0.2 1.3LRSN                1
 GAP=229        0.49       5.0     4.8  5.6  0.1030E+02  0.4791E+01 -0.4567E+01E
 Epicentro: VILLANUEVA - SANTANDER                                             3
 ACTION:UPD 13-01-04 14:30 OP:ep   STATUS:               ID:20121224091357 L   I
 2012-12-24-0910-00M.COL___243                                                 6
 STAT SP IPHASW D HRMM SECON CODA AMPLIT PERI AZIMU VELO AIN AR TRES W  DIS CAZ7
 BAR2 SZ EP   1    914 17.19                             174    0.08 7 14.7 185 
 BAR2 SZ ES   1    914 32.03                             174   -0.39 7 14.7 185 
 BAR2 SZ I         914 34.24         4.3 0.30                          14.7 185 
 BRR  HZ EP        914 18.98                             152    0.1110 73.2 305 
 BRR  HN ES   1    914 35.75                             152    0.19 7 73.2 305 
 BRR  HZ I         914 36.24         5.7 0.86                          73.2 305 
 RUS  HN ES   1    914 39.13                             146    0.17 7 92.5 174 
 PTB  HZ EP   1    914 23.83                             133   -0.34 7  144 262 
 PTB  HN ES   1    914 45.09                             133    0.11 7  144 262 
 PTB  HZ I         914 49.71         1.9 0.14                           144 262 
 ZAR  HN ES   2    914 55.33                             122   -0.17 4  205 295 
                                                                                
