 2015  824 0758 17.1 L   6.834 -73.097150.5  RSN 15 0.4 2.0LRSN                1
 GAP=188        0.88       2.5     4.0  5.3 -0.1350E+01  0.3891E+01  0.8828E+00E
 Epicentro: LOS SANTOS - SANTANDER                                             3
 ACTION:UPD 15-09-15 23:04 OP:cam  STATUS:               ID:20150824075817 L   I
 OLDACT:REG 15-08-24 12:46 OP:spq  STATUS:               ID:20150824074742     3
 2015-08-24-0747-42M.COL___337                                                 6
 STAT SP IPHASW D HRMM SECON CODA AMPLIT PERI AZIMU VELO AIN AR TRES W  DIS CAZ7
 BAR2 EZ IP     D  758 37.49                             169    0.0410 28.4 199 
 BAR2 EZ ES   1    758 54.00                             169    0.71 7 28.4 199 
 BAR2 EZ I         758 58.71         9.6 0.58            165           28.4 199 
 BRR  HZ IP     D  758 39.23                             152    0.2510 74.3 294 
 BRR  HN ES        758 56.60                             152    0.5910 74.3 294 
 BRR  HZ I         759  0.06        26.5 0.12            149           74.3 294 
 RUS  HZ EP        758 41.59                             144   -0.0310  104 179 
 RUS  HN ES   1    759  0.37                             144   -0.33 7  104 179 
 RUS  HZ I         759  1.58         8.8 0.30            145            104 179 
 OCA  HZ EP        758 45.46                             131   -0.09 9  157 351 
 OCA  HN ES        759  7.15                             131   -0.55 9  157 351 
 OCA  HZ I         759  8.71        21.4 0.22            134            157 351 
 SPBC HZ EP        758 46.47                             129   -0.14 9  169 220 
 SPBC HE ES        759  9.01                             129   -0.57 9  169 220 
 SPBC HZ I         759 13.89        15.7 0.18            129            169 220 
 ZAR  HZ EP        758 50.36                             123    0.09 8  208 291 
 ZAR  HN ES        759 15.63                             123   -0.48 8  208 291 
 ZAR  HZ I         759 21.28        19.2 0.28            123            208 291 
 NOR  HZ EP   1    758 54.08                             119    0.23 6  241 234 
 NOR  HN ES        759 21.81                             119   -0.67 8  241 234 
 NOR  HZ I         759 25.11         8.4 0.44            119            241 234 
 SML  HZ EP        758 53.82                             119   -0.10 8  243 334 
 SML  HE ES   1    759 22.64                             119    0.03 6  243 334 
 SML  HZ I         759 25.68        14.2 0.26            120            243 334 
 CHI  HZ EP   1    758 55.90                             118    0.24 6  254 196 
 CHI  HE ES   1    759 25.19                             118   -0.51 6  254 196 
 CHI  HZ I         759 27.70         3.7 0.32            119            254 196 
 HEL  HZ EP        758 59.01                             115    0.73 7  278 255 
 HEL  HN ES        759 30.55                             115    0.19 7  278 255 
 HEL  HZ I         759 37.28         5.5 0.80            116            278 255 
 GUY2CHZ EP   4    759  3.00                             113    1.29 0  308 235 
 GUY2CHE ES   1    759 37.02                             113    0.55 5  308 235 
 GUY2CHZ I         759 46.74         6.2 0.38                           308 235 
 CBOC HZ EP   4    759  7.05                             110    2.07 0  340 252 
 CBOC HN ES        759 42.16                             110   -0.12 7  340 252 
 CBOC HZ I         759 53.05         1.7 0.62            111            340 252 
 TOL  SZ EP   4    759  7.93                             110    1.59 0  350 225 
 TOL  SN ES   4    759 46.56                             110    1.86 0  350 225 
 TOL  SZ I         759 50.16         6.0 0.42            111            350 225 
 ORTC HZ EP        759 12.01                             107    0.05 6  402 216 
 ORTC HE ES        759 55.32                             107    0.61 6  402 216 
 ORTC HZ I         8 0  6.08         2.6 0.35            108            402 216 
 SJC  HZ EP   4    759 11.28                             106   -1.56 0  409 326 
 SJC  HE ES   4    759 53.00                             106   -3.29 0  409 326 
 SJC  HZ I         8 0  0.07         1.8 0.40            108            409 326 
                                                                                
