 2014  624 0422 43.4 L   6.728 -73.154143.0  RSN  8 0.4 1.4LRSN                1
 GAP=231        1.00       5.0     5.3  7.4  0.4322E+01  0.9981E+01  0.5009E+01E
 Epicentro: VILLANUEVA - SANTANDER                                             3
 ACTION:UPD 14-07-01 22:56 OP:nd   STATUS:               ID:20140624042243 L   I
 OLDACT:REG 14-06-24 12:52 OP:spq  STATUS:               ID:20140624041805     3
 2014-06-24-0418-05M.COL___262                                                 6
 STAT SP IPHASW D HRMM SECON CODA AMPLIT PERI AZIMU VELO AIN AR TRES W  DIS CAZ7
 BAR2 SZ EP        423  2.74                             174    0.1610 15.4 192 
 BAR2 SZ ES   1    423 17.19                             174   -0.34 7 15.4 192 
 BAR2 SZ I         423 19.80         6.1 0.16            169           15.4 192 
 BRR  HZ EP        423  4.61                             151    0.1510 74.6 304 
 BRR  HN ES        423 21.62                             151    0.7410 74.6 304 
 BRR  HZ I         423 24.55         4.1 0.14            150           74.6 304 
 RUS  HZ EP   1    423  6.08                             146   -0.26 7 92.8 175 
 RUS  HN ES   1    423 24.20                             146   -0.02 7 92.8 175 
 RUS  HZ I         423 26.36         2.9 0.28            147           92.8 175 
 PTB  HZ EP        423  9.54                             132   -0.42 9  146 262 
 PTB  HN ES        423 30.19                             132   -0.47 9  146 262 
 PTB  HZ I         423 33.39         4.1 0.23            132            146 262 
 SPBC HZ EP        423 11.68                             130    0.61 9  157 221 
 SPBC HN ES        423 32.19                             130   -0.46 9  157 221 
 SPBC HZ I         423 39.54         3.3 0.06            130            157 221 
 ZAR  HZ EP   1    423 15.43                             121   -0.49 6  206 294 
 ZAR  HN ES        423 40.83                             121   -0.45 8  206 294 
 ZAR  HZ I         423 47.83         4.7 0.24            123            206 294 
 HEL  HE ES   1    423 54.94                             114    0.73 6  269 257 
 HEL  HZ I         424  1.98         1.5 0.24            116            269 257 
 GUY2CHZ EP   1    423 26.43                             112    0.12 5  296 236 
 GUY2CHE ES        424  0.14                             112    0.38 7  296 236 
 GUY2CHZ I         424  8.57         1.5 0.52                           296 236 
                                                                                
