 2012  124 0303 53.5 L   6.406 -73.767 98.6  RSN  5 0.2 1.2LRSN                1
 GAP=154        0.42       4.3     2.4  5.4 -0.1134E+01  0.8906E+00  0.4782E+01E
 Epicentro: SANTA HELENA DEL OPON - SANTANDER                                  3
 ACTION:UP  12-02-03 08:20 OP:REBC STATUS:               ID:20120124030353 L   I
 2012-01-24-0300-00M.COL___187                                                 6
 STAT SP IPHASW D HRMM SECON CODA AMPLIT PERI AZIMU VELO SNR AR TRES W  DIS CAZ7
 BAR2 SZ EP   1    3 4 10.01                             144     0.1 7   68  72 
 BAR2 SZ ES   1    3 4 22.77                             144     0.1 7   68  72 
 BAR2 SZ I         3 4 24.17         7.2 0.15                            68  72 
 PTB  HZ EP        3 4 10.28                             139    -0.110   78 281 
 PTB  HN ES   1    3 4 23.66                             139     0.2 7   78 281 
 BRR  HZ EP        3 4 10.27                             140     0.010   78   4 
 BRR  HZ I         3 4 17.88        11.0 0.47                            78   4 
 BRR  HE ES   1    3 4 23.33                             140    -0.1 7   78   4 
 RUS  HZ EP   3    3 4 12.90                             134     0.5 2   95 127 
 RUS  HN ES   3    3 4 26.38                             134    -0.8 2   95 127 
 RUS  HZ I         3 4 29.11         1.1 0.24                            95 127 
 GIR2 SZ EP   2    3 4 12.02                             133    -0.2 5   98  40 
                                                                                
