 2012  224 0305 43.3 L   6.767 -73.177137.8  RSN 29 0.5 4.1LRSN 4.3WRSN        1
 SPEC AVERAGE  MO 15.5 ST 46.5 OM  6.3 f0 2.28 R0.6565 AL 1.50 WI 26.4 MW  4.3 3
 SPEC SD       MO  0.1 ST  8.5 OM  2.7 f00.285 R0.0822 AL      WI      MW  0.1 3
 GAP=112        0.91       3.1     3.7  4.8 -0.6254E+00  0.4795E+01  0.4879E+01E
 SPEC CHI HH N MO 15.5 ST 38.1 OM  3.7 f0 1.99 R0.7387 AL 1.62 WI 27.1 MW  4.3 3
 SPEC CHI HH N T 3 643 K 0.020 GD  280 VS 4.20 DE 3.20 Q0230.0 QA 0.60 VS 4.20 3
 SPEC HEL HH E MO 15.4 ST 55.0 OM  3.5 f0 2.56 R0.5742 AL 1.38 WI 25.7 MW  4.2 3
 SPEC HEL HH E T 3 649 K 0.020 GD  301 VS 4.20 DE 3.20 Q0230.0 QA 0.60 VS 4.20 3
 ACTION:UP  12-03-07 16:33 OP:epov STATUS:               ID:20120224030543 L   I
 2012-02-24-0300-00M.COL___192                                                 6
 STAT SP IPHASW D HRMM SECON CODA AMPLIT PERI AZIMU VELO AIN AR TRES W  DIS CAZ7
 BAR2 SZ EP     C  3 6  2.06                             172    0.1510 19.3 182 
 BAR2 SZ ES   1    3 6 16.14                             172   -0.27 7 19.3 182 
 BAR2 SZ I         3 6 18.28      3292.7 0.29                          19.3 182 
 GIR2 SZ EP        3 6  2.20                             165    0.0610 34.5 357 
 GIR2 SZ ES   1    3 6 16.10                             165   -0.72 7 34.5 357 
 BRR  HZ IP     D  3 6  3.99                             151    0.4510 70.1 302 
 BRR  HE ES   1    3 6 20.53                             151    1.21 7 70.1 302 
 BRR  HZ I         3 6 25.31      2161.8 0.11                          70.1 302 
 PAM  SZ EP        3 6  4.98                             148   -0.0310 82.4  40 
 PAM  SZ I         3 6  5.32      2226.7 0.20                          82.4  40 
 PAM  SN ES   1    3 6 21.72                             148   -0.21 7 82.4  40 
 RUS  HZ EP        3 6  5.91                             143   -0.1410 97.3 174 
 RUS  HE ES   1    3 6 24.17                             143    0.40 7 97.3 174 
 RUS  HZ I         3 6 26.07      1437.0 0.44                          97.3 174 
 GUE  SZ EP   1    3 6  7.28                             136   -0.38 7  121  13 
 PTB  HZ EP   1    3 6  8.60                             131   -0.67 7  144 260 
 PTB  HN ES   1    3 6 28.85                             131   -0.66 7  144 260 
 OCA  SZ EP        3 6 11.25                             127   -0.08 9  164 354 
 OCA  SZ ES   1    3 6 33.11                             127   -0.08 7  164 354 
 YOP  SZ IP        3 6 12.79                             125    0.16 9  177 152 
 YOP  SZ I         3 6 13.04       831.7 0.44                           177 152 
 YOP  SN ES   1    3 6 35.45                             125   -0.05 7  177 152 
 NOR  SZ EP   1    3 6 18.06                             117    0.00 6  230 235 
 NOR  SN ES   1    3 6 44.90                             117   -0.26 6  230 235 
 CHI  HZ EP        3 6 19.94                             116   -0.16 8  244 195 
 CHI  HZ I         3 6 53.06       669.2 0.56                           244 195 
 ROSC BZ EP        3 6 21.84                             115    1.37 8  248 211 
 HEL  HZ EP   1    3 6 22.36                             113   -0.30 6  268 256 
 HEL  HE ES   1    3 6 52.87                             113   -0.48 6  268 256 
 HEL  HZ I         3 7  0.87      1265.1 0.44                           268 256 
 VIL  SZ EP   1    3 6 25.41                             111   -0.49 5  299 191 
 VIL  SZ I         3 7  5.20       513.6 0.67                           299 191 
 GUY  SZ EP   1    3 6 26.45                             111    0.18 5  299 235 
 GUY  SZ I         3 7  6.08       759.4 0.46                           299 235 
 RREF HZ EP   1    3 6 28.65                             110    0.10 5  317 229 
 RREF HZ I         3 7 10.54       910.7 0.66                           317 229 
 DBB  SZ EP   1    3 6 30.41                             108    0.30 5  336 275 
 TOL  SZ EP   1    3 6 30.86                             108    0.18 5  338 225 
 ANIL HZ EP   1    3 6 32.35                             107    0.11 5  352 225 
 PRA  HZ EP   1    3 6 35.26                             105   -0.74 4  387 209 
 SJA  SZ EP   1    3 6 36.11                             105   -0.99 4  396 193 
 SJA  SZ I         3 7 28.75       694.1 0.34                           396 193 
 PAL  HZ EP   1    3 6 38.16                             105    0.51 4  401 239 
 YOT  HZ EP   1    3 6 44.63                             102   -0.92 4  467 229 
 YOT  HZ I         3 7 43.27       111.4 0.64                           467 229 
 SOL  SZ EP   1    3 6 46.64                             102    0.67 4  472 263 
 HORQ SZ EP   1    3 6 52.31                             100   -0.66 3  527 227 
 MARA HZ EP   1    3 6 52.89                             100   -0.67 3  532 215 
 MARA HZ I         3 7 54.45        72.7 0.70                           532 215 
 MAL  SZ EP   1    3 6 56.74                             100    1.12 3  552 237 
 FLO2 HZ EP        3 7  4.65                              98   -1.07 2  636 206 
 FLO2 HZ I         3 8 40.36       126.8 0.75                           636 206 
 SOTA HZ EP   1    3 7  7.37                              98    0.77 2  638 217 
                                                                                
