 2012 1124 0227 31.0 L   6.864 -73.305124.3  RSN  7 0.3 1.4LRSN                1
 GAP=128        0.69       3.1     4.4  6.5  0.2182E+01  0.9208E+01 -0.3759E+01E
 Epicentro: BETULIA - SANTANDER                                                3
 ACTION:UPD 12-12-05 15:35 OP:}ep  STATUS:               ID:20121124022731 L   I
 2012-11-24-0220-00M.COL___233                                                 6
 STAT SP IPHASW D HRMM SECON CODA AMPLIT PERI AZIMU VELO AIN AR TRES W  DIS CAZ7
 GIR2 SZ EP   1    227 48.30                             167    0.26 7 26.7  27 
 GIR2 SZ ES   1    228  1.07                             167   -0.23 7 26.7  27 
 GIR2 SZ I         228  2.65         7.9 0.14                          26.7  27 
 BAR2 SZ EP   1    227 48.74                             164    0.37 7 33.0 156 
 BAR2 SZ ES   1    228  1.95                             164    0.06 7 33.0 156 
 RUS  HZ EP   1    227 53.68                             136    0.14 7  110 167 
 RUS  HN ES   1    228 10.98                             136   -0.12 7  110 167 
 RUS  HZ I         228 12.26         2.9 0.20                           110 167 
 PTB  HZ EP   1    227 54.02                             130   -0.85 7  132 254 
 PTB  HN ES   1    228 13.79                             130    0.33 7  132 254 
 PTB  HZ I         228 16.22         4.9 0.16                           132 254 
 OCA  HE ES   1    228 16.81                             126   -0.36 7  152 359 
 ZAR  HE ES   1    228 22.86                             120    0.00 7  185 292 
 SML  HZ EP   1    228  5.07                             114    0.02 6  230 339 
 SML  HN ES   1    228 32.03                             114    0.45 6  230 339 
                                                                                
