 2015  224 0408 44.0 L   6.793 -73.173143.1  RSN 11 0.5 1.8LRSN                1
 GAP= 70        1.10       3.3     3.7  5.8 -0.1438E+01  0.4702E+01  0.2452E+01E
 Epicentro: LOS SANTOS - SANTANDER                                             3
 ACTION:UPD 15-04-30 21:28 OP:nd   STATUS:               ID:20150224040844 L   I
 OLDACT:REG 15-02-24 13:23 OP:mh   STATUS:               ID:20150224040743     3
 2015-02-24-0407-43M.COL___278                                                 6
 STAT SP IPHASW D HRMM SECON CODA AMPLIT PERI AZIMU VELO AIN AR TRES W  DIS CAZ7
 BAR2 EZ EP        4 9  3.40                             171    0.1210 22.2 183 
 BAR2 EZ ES        4 9 18.13                             171   -0.2010 22.2 183 
 BAR2 EZ I         4 9 19.35        19.9 0.48            169           22.2 183 
 BRR  HZ EP        4 9  5.41                             153    0.6810 68.9 300 
 BRR  HN ES   1    4 9 21.88                             153    0.98 7 68.9 300 
 BRR  HZ I         4 9 25.91         7.7 0.32            153           68.9 300 
 PAM  SZ EP        4 9  6.37                             149    0.2910 79.9  41 
 PAM  SN ES        4 9 23.38                             149    0.0610 79.9  41 
 PAM  SZ I         4 9 25.61         7.6 0.58            147           79.9  41 
 RUS  HZ EP        4 9  7.21                             143   -0.2410  100 174 
 RUS  HN ES        4 9 25.44                             143   -0.3010  100 174 
 RUS  HZ I         4 9 26.74         9.4 0.32            140            100 174 
 PTB  HZ EP        4 9 10.18                             132   -0.28 9  145 259 
 PTB  HN ES        4 9 30.49                             132   -0.62 9  145 259 
 PTB  HZ I         4 9 33.57         8.6 0.18            131            145 259 
 TAM  HZ EP        4 9 11.71                             129   -0.01 9  158 104 
 TAM  HZ I         4 9 32.26         4.8 0.40            126            158 104 
 TAM  HN ES        4 9 33.02                             129   -0.33 9  158 104 
 SPBC HZ EP        4 9 12.36                             129    0.31 9  161 218 
 SPBC HN ES   1    4 9 34.08                             129    0.14 7  161 218 
 SPBC HZ I         4 9 38.33        12.6 0.22            127            161 218 
 SML  HZ EP        4 9 20.27                             117   -0.14 8  243 336 
 SML  HN ES        4 9 48.28                             117   -0.54 8  243 336 
 SML  HZ I         4 9 50.89        11.4 0.10            115            243 336 
 CHI  HZ EP        4 9 20.81                             117   -0.57 8  247 195 
 CHI  HN ES        4 9 51.47                             117    0.93 8  247 195 
 CHI  HZ I         4 9 56.47         2.8 0.28            114            247 195 
 TOL  SZ EP        4 9 32.66                             109    0.83 7  341 224 
 TOL  SN ES        410  8.32                             109   -0.83 7  341 224 
 TOL  SZ I         410 15.72         2.6 0.32            107            341 224 
 PRA  HZ EP        4 9 36.74                             106   -0.43 6  390 209 
 PRA  HN ES        410 19.10                             106    0.45 6  390 209 
 PRA  HZ I         410 25.32         3.5 0.30            104            390 209 
                                                                                
