 2012  124 0852 23.8 L   6.767 -73.072137.9  RSN  5 0.2 1.2LRSN                1
 GAP=148        0.34       3.0     3.6  4.5 -0.5256E+00  0.2114E+00  0.2598E+01E
 Epicentro: LOS SANTOS - SANTANDER                                             3
 ACTION:UP  12-02-03 08:20 OP:REBC STATUS:               ID:20120124085223 L   I
 2012-01-24-0850-00M.COL___187                                                 6
 STAT SP IPHASW D HRMM SECON CODA AMPLIT PERI AZIMU VELO SNR AR TRES W  DIS CAZ7
 BAR2 SZ EP   1    852 42.44                             170    -0.1 7   23 212 
 BAR2 SZ ES   2    852 57.28                             170     0.2 5   23 212 
 BAR2 SZ I         852 59.02         4.4 0.09                            23 212 
 GIR2 SZ EP   2    852 42.59                             164    -0.1 5   37 339 
 GIR2 SZ ES   3    852 57.21                             164    -0.3 2   37 339 
 PAM  SZ EP   2    852 45.49                             150     0.4 5   75  33 
 PAM  SE ES   1    853  1.59                             150    -0.1 7   75  33 
 BRR  HZ EP   1    852 44.66                             148     0.0 7   80 298 
 BRR  HN ES   1    853  0.96                             148     0.0 7   80 298 
 BRR  HZ I         853  3.63         3.8 0.34                            80 298 
 RUS  HZ EP   2    852 46.45                             143    -0.1 5   97 181 
 RUS  HN ES   2    853  4.21                             143     0.0 5   97 181 
 RUS  HZ I         853  6.20         2.4 0.27                            97 181 
                                                                                
