 2012  924 0245 12.9 L   6.786 -73.140140.6  RSN  7 0.5 1.5LRSN                1
 GAP=138        0.91       5.1     6.2  9.3 -0.5799E+01 -0.2375E+01  0.9422E+01E
 Epicentro: LOS SANTOS - SANTANDER                                             3
 ACTION:UPD 12-10-22 14:20 OP:ep   STATUS:               ID:20120924024512 L   I
 2012-09-24-0240-00M.COL___221                                                 6
 STAT SP IPHASW D HRMM SECON CODA AMPLIT PERI AZIMU VELO AIN AR TRES W  DIS CAZ7
 BAR2 SZ EP   1    245 31.76                             171   -0.07 7 22.0 192 
 BAR2 SZ ES   2    245 47.10                             171    0.46 5 22.0 192 
 BAR2 SZ I         245 47.79        14.7 0.72                          22.0 192 
 GIR2 SZ ES   2    245 47.12                             166    0.27 5 32.9 350 
 BRR  HZ EP        245 33.56                             151    0.0410 72.5 299 
 BRR  HN ES   1    245 50.32                             151    0.68 7 72.5 299 
 BRR  HZ I         245 52.20         8.0 0.20                          72.5 299 
 PAM  SZ EP        245 34.54                             150   -0.0310 78.2  38 
 PAM  SN ES   1    245 51.25                             150   -0.25 7 78.2  38 
 RUS  HZ EP   1    245 36.06                             143    0.08 7 99.0 176 
 RUS  HZ I         245 37.00         2.7 0.16                          99.0 176 
 RUS  HN ES   1    245 53.41                             143   -0.61 7 99.0 176 
 PTB  HN ES   1    245 59.30                             131   -0.86 7  148 259 
 CHI  HN ES   1    246 20.11                             116    0.91 6  247 195 
 CHI  HZ I         246 24.85         1.6 0.30                           247 195 
                                                                                
