 2013  824 0302  5.9 L   6.831 -73.141140.4  RSN  8 0.4 1.7LRSN                1
 GAP=202        0.97       3.5     5.9  5.9  0.3105E+01  0.4198E+01 -0.1048E+01E
 Epicentro: LOS SANTOS - SANTANDER                                             3
 ACTION:UPD 14-01-14 09:06 OP:ep   STATUS:               ID:20130824030205 L   I
 OLDACT:REG 13-08-24 07:29 OP:nd   STATUS:               ID:20130824025959     3
 2013-08-24-0259-59M.COL___270                                                 6
 STAT SP IPHASW D HRMM SECON CODA AMPLIT PERI AZIMU VELO AIN AR TRES W  DIS CAZ7
 BAR2 SZ EP        3 2 25.03                             169    0.0310 26.8 190 
 BAR2 SZ ES        3 2 39.48                             169   -0.3910 26.8 190 
 BAR2 SZ I         3 2 41.75         8.1 0.12            167           26.8 190 
 BRR  HZ EP        3 2 27.16                             152    0.7210 70.1 296 
 BRR  HN ES        3 2 43.13                             152    0.7010 70.1 296 
 BRR  HZ I         3 2 45.01         8.9 0.40            150           70.1 296 
 RUS  HZ EP        3 2 29.27                             142   -0.1510  104 176 
 RUS  HN ES        3 2 47.70                             142   -0.0410  104 176 
 RUS  HZ I         3 2 49.71         4.5 0.30            142            104 176 
 PTB  HZ EP        3 2 32.35                             131   -0.23 9  149 258 
 PTB  HN ES        3 2 52.97                             131   -0.40 9  149 258 
 PTB  HZ I         3 2 55.21         3.8 0.18            130            149 258 
 SPBC HZ EP        3 2 34.24                             127   -0.08 9  166 218 
 SPBC HN ES        3 2 56.47                             127    0.01 9  166 218 
 SPBC HZ I         3 3  1.74         6.2 0.26            127            166 218 
 SML  HZ EP        3 2 41.66                             117   -0.28 8  241 335 
 SML  HN ES        3 3  9.52                             117   -0.51 8  241 335 
 SML  HZ I         3 3 14.12         6.4 0.10            117            241 335 
 GUY2CHZ EP   4 C  3 2 50.44                             111    0.86 0  304 234 
 GUY2CHN ES   4    3 3 26.43                             111    2.81 0  304 234 
 GUY2CHZ I         3 3 33.14         1.9 0.58                           304 234 
 PRA  HZ EP        3 3  0.38                             105    0.72 6  395 209 
 PRA  HN ES        3 3 41.54                             105   -0.02 6  395 209 
 PRA  HZ I         3 3 47.63         3.4 0.30            106            395 209 
                                                                                
