 2011 1024 0410 18.7 L   6.813 -73.150143.7  RSN 15 0.4 3.2LRSN                1
 GAP=113        0.80       2.8     3.8  5.4 -0.7132E+00  0.8717E+01  0.3320E+01E
 Epicentro: LOS SANTOS - SANTANDER                                             3
 ACTION:UPD 12-07-13 16:05 OP:ep   STATUS:               ID:20111024041018 L   I
 2011-10-24-0407-59S.COL___170                                                 6
 STAT SP IPHASW D HRMM SECON CODA AMPLIT PERI AZIMU VELO AIN AR TRES W  DIS CAZ7
 BAR2 SZ IP        410 38.11                             170    0.0210 24.6 188 
 BAR2 SZ I         410 38.29       177.3 0.13                          24.6 188 
 BAR2 SZ ES   1    410 53.22                             170   -0.01 7 24.6 188 
 GIR2 SZ EP   1    410 38.20                             168    0.14 7 29.8 351 
 GIR2 SZ ES   1    410 53.17                             168   -0.02 7 29.8 351 
 BRR  HZ IP     C  410 40.02                             152    0.4810 70.1 298 
 BRR  HZ I         410 40.37       284.0 0.32                          70.1 298 
 PAM  SZ IP        410 40.85                             151    0.2210 76.6  40 
 PAM  SZ I         410 41.14       131.7 0.19                          76.6  40 
 PAM  SN ES   1    410 58.12                             151    0.37 7 76.6  40 
 RUS  HZ EP   1    410 41.90                             143   -0.43 7  102 176 
 RUS  HN ES   1    411  0.35                             143   -0.43 7  102 176 
 RUS  HZ I         411  2.02       108.5 0.45                           102 176 
 OCA  SZ EP   1    410 46.05                             129   -0.64 7  159 353 
 OCA  SZ ES   1    411  8.52                             129   -0.02 7  159 353 
 OCA  SZ I         411 12.69       142.8 0.14                           159 353 
 YOP  SZ EP   1    410 47.98                             126   -0.74 7  180 153 
 YOP  SE ES   1    411 12.20                             126    0.05 7  180 153 
 ZAR  HZ EP   1    410 50.38                             122   -0.51 6  203 292 
 ZAR  HN ES   1    411 15.30                             122   -0.71 6  203 292 
 ZAR  HZ I         411 23.40       273.3 0.29                           203 292 
 NOR  SZ EP   1    410 53.65                             118   -0.68 6  235 234 
 NOR  SN ES   1    411 21.57                             118   -0.57 6  235 234 
 ROSC BZ EP   1    410 57.47                             116    0.68 6  254 211 
 ROSC BN ES   1    411 27.08                             116    0.56 6  254 211 
 ROSC BZ I         411 35.75       100.8 0.42                           254 211 
 HEL  HZ EP   1    410 58.80                             114    0.03 6  272 255 
 HEL  HN ES   1    411 30.70                             114    0.66 6  272 255 
 HEL  HZ I         411 37.39        71.3 0.30                           272 255 
 GUY  SZ EP   1    411  2.77                             112    0.27 5  304 235 
 GUY  SZ I         411 45.91        80.4 0.35                           304 235 
 RREF HZ EP   1    411  5.14                             110    0.35 5  322 229 
 RREF HN ES   1    411 41.01                             110    0.25 5  322 229 
 RREF HZ I         411 48.24        77.3 0.29                           322 229 
 TOL  SZ EP   1    411  7.63                             109    0.71 5  344 224 
 PRA  HZ EP   1    411 12.64                             106    0.40 4  393 209 
 PRA  HN ES   1    411 53.66                             106   -0.36 4  393 209 
 PRA  HZ I         411 57.27       117.3 0.55                           393 209 
                                                                                
