 2017  424 0300 50.5 L   6.726 -73.146144.8  RSN  4 0.3 1.5LRSN                1
 GAP=226        0.70       8.8     3.9  6.7 -0.1650E+02  0.1957E+00  0.2070E+02E
 Epicentro: JORDAN - SANTANDER                                                 3
 ACTION:UPD 17-05-30 21:15 OP:jn   STATUS:               ID:20170424030050 L   I
 OLDACT:UP  17-04-24 13:48 OP:dani STATUS:               ID:20170424025743     3
 OLDACT:REG 17-04-24 12:19 OP:dani STATUS:               ID:20170424025743     3
 2017-04-24-0258-00M.COL___365                                                 6
 STAT SP IPHASW D HRMM SECON CODA AMPLIT PERI AZIMU VELO AIN AR TRES W  DIS CAZ7
 BRR  HZ EP        3 1 11.89                             151    0.1310 75.4 304 
 BRR  HN ES        3 1 28.78                             151    0.4110 75.4 304 
 BRR  HZ I         3 1 31.58         7.0 0.54            143           75.4 304 
 PAM  EZ EP        3 1 13.12                             149    0.1310 83.9  36 
 PAM  EN ES        3 1 30.23                             149   -0.3210 83.9  36 
 PAM  EZ I         3 1 32.65         5.4 0.60            144           83.9  36 
 PTB  HZ EP        3 1 17.00                             132   -0.24 9  146 262 
 PTB  HN ES        3 1 38.00                             132   -0.11 9  146 262 
 PTB  HZ I         3 1 39.30         3.2 0.28            130            146 262 
 ZAR  HZ EP        3 1 23.47                             122    0.28 8  207 294 
 ZAR  HN ES        3 1 48.34                             122   -0.36 8  207 294 
 ZAR  HZ I         3 1 55.40         2.8 0.07            119            207 294 
                                                                                
