 2014  324 0902 34.8 L   6.813 -73.144144.7  RSN 13 0.5 2.1LRSN                1
 GAP=136        1.08       2.8     3.9  5.9 -0.2453E+01  0.9326E+01 -0.8426E+00E
 Epicentro: LOS SANTOS - SANTANDER                                             3
 ACTION:UPD 14-04-09 23:20 OP:nd   STATUS:               ID:20140324090234 L   I
 OLDACT:REG 14-03-24 08:16 OP:carl STATUS:               ID:20140324090042     3
 2014-03-24-0900-42M.COL___237                                                 6
 STAT SP IPHASW D HRMM SECON CODA AMPLIT PERI AZIMU VELO AIN AR TRES W  DIS CAZ7
 BAR2 SZ EP        9 2 54.46                             170    0.1110 24.8 190 
 BAR2 SZ ES        9 3 10.05                             170    0.4610 24.8 190 
 BAR2 SZ I         9 3 10.72        37.1 0.20            169           24.8 190 
 PAM  SZ EP        9 2 57.35                             151    0.5010 76.2  40 
 PAM  SN ES        9 3 14.31                             151    0.2810 76.2  40 
 PAM  SZ I         9 3 14.97        16.5 0.28            155           76.2  40 
 RUS  HZ EP        9 2 58.27                             143   -0.3010  102 176 
 RUS  HN ES        9 3 16.93                             143   -0.1610  102 176 
 RUS  HZ I         9 3 18.45         9.6 0.50            145            102 176 
 PTB  HZ EP        9 3  1.14                             132   -0.60 9  148 258 
 PTB  HN ES        9 3 22.01                             132   -0.73 9  148 258 
 PTB  HZ I         9 3 24.49        22.8 0.14            131            148 258 
 OCA  HZ EP        9 3  3.27                             130    0.35 9  159 353 
 OCA  HN ES        9 3 24.15                             130   -0.68 9  159 353 
 OCA  HZ I         9 3 28.66        10.5 0.16            131            159 353 
 SPBC HZ EP        9 3  3.65                             129    0.29 9  164 219 
 SPBC HE ES        9 3 25.54                             129   -0.07 9  164 219 
 SPBC HZ I         9 3 31.29        18.8 0.20            129            164 219 
 ZAR  HZ EP        9 3  7.04                             122   -0.12 9  204 292 
 ZAR  HN ES        9 3 33.36                             122    0.98 9  204 292 
 ZAR  HZ I         9 3 38.55        25.0 0.54            122            204 292 
 NOR  HZ EP        9 3 10.71                             118    0.12 8  236 234 
 NOR  HN ES        9 3 38.64                             118    0.14 8  236 234 
 NOR  HZ I         9 3 41.40        11.7 0.18            119            236 234 
 SML  HZ EP        9 3 10.88                             117   -0.38 8  242 335 
 SML  HN ES        9 3 39.01                             117   -0.66 8  242 335 
 SML  HZ I         9 3 46.39        17.2 0.26            118            242 335 
 CHI  HZ EP        9 3 12.32                             117   -0.30 8  250 195 
 CHI  HN ES        9 3 41.43                             117   -0.66 8  250 195 
 CHI  HZ I         9 3 49.77         4.4 0.52            118            250 195 
 HEL  HZ EP        9 3 15.28                             114    0.24 8  273 256 
 HEL  HN ES        9 3 46.67                             114    0.26 8  273 256 
 HEL  HZ I         9 3 52.86         7.6 0.58            115            273 256 
 GUY2CHZ EP        9 3 18.99                             112    0.50 7  302 235 
 GUY2CHE ES        9 3 52.76                             112    0.21 7  302 235 
 GUY2CHZ I         9 4  1.03         8.0 0.42                           302 235 
 CBOC HZ EP        9 3 22.54                             110    0.78 7  334 252 
 CBOC HN ES        9 3 58.03                             110   -0.35 7  334 252 
 CBOC HZ I         9 4 11.11         3.0 0.44            110            334 252 
                                                                                
