 2013  424 0252 40.2 L   6.670 -73.230137.7  RSN  5 0.3 1.5LRSN                1
 GAP=196        0.59       6.7     5.1  7.3  0.1557E+02  0.2224E+01 -0.1059E+01E
 Epicentro: BARICHARA - SANTANDER                                              3
 ACTION:UPD 13-05-22 14:40 OP:EP   STATUS:               ID:20130424025240 L   I
 2013-04-24-0248-42M.COL___215                                                 6
 STAT SP IPHASW D HRMM SECON CODA AMPLIT PERI AZIMU VELO AIN AR TRES W  DIS CAZ7
 BAR2 SZ ES   2    253 12.36                             176   -0.72 5 10.2 148 
 BRR  HZ EP   1    253  0.42                             151   -0.13 8 71.9 312 
 BRR  HN ES   2    253 17.19                             151    0.79 5 71.9 312 
 BRR  HN I         253 21.12        10.0 0.18            154           71.9 312 
 RUS  HN EP   1    253  2.46                             146    0.20 8 87.5 169 
 RUS  HZ ES   2    253 19.64                             146    0.20 5 87.5 169 
 RUS  HZ I         253 22.18         1.6 0.18            151           87.5 169 
 PTB  HZ EP        253  5.43                             133   -0.0810  136 264 
 PTB  HN ES        253 25.19                             133   -0.0310  136 264 
 PTB  HN I         253 30.89         5.2 0.28            137            136 264 
 ZAR  HN ES   2    253 36.50                             121   -0.09 5  201 297 
 ZAR  HN I         253 36.86         4.1 0.20            127            201 297 
                                                                                
