 2016  324 0933 31.3 L   6.824 -73.071129.6  RSN  5 0.3 1.3LRSN                1
 GAP=250        0.63       4.5     5.1  8.2  0.1006E+02  0.5587E+01 -0.1372E+02E
 Epicentro: LOS SANTOS - SANTANDER                                             3
 ACTION:UPD 16-05-13 21:27 OP:cam  STATUS:               ID:20160324093331 L   I
 OLDACT:DUP 16-03-24 17:39 OP:ak   STATUS:               ID:20160324092745d    3
 OLDACT:REG 16-03-24 12:54 OP:ak   STATUS:               ID:20160324092744     3
 2016-03-24-0927-44M.COL___291                                                 6
 STAT SP IPHASW D HRMM SECON CODA AMPLIT PERI AZIMU VELO AIN AR TRES W  DIS CAZ7
 RUS  HE ES        934 11.23                             139    0.0810  103 181 
 PTB  HZ EP   2    933 58.03                             126    0.19 5  156 258 
 PTB  HN ES        934 18.08                             126   -0.45 9  156 258 
 PTB  HZ I         934 20.91         2.8 0.14            128            156 258 
 SPBC HZ EP        933 59.31                             124   -0.04 9  170 221 
 SPBC HE ES        934 21.28                             124    0.06 9  170 221 
 SPBC HZ I         934 24.96         2.3 0.28            127            170 221 
 ZAR  HZ EP        934  3.23                             118   -0.25 8  211 291 
 ZAR  HN ES        934 29.02                             118    0.46 8  211 291 
 ZAR  HZ I         934 34.96         2.0 0.36            119            211 291 
 GUY2CHN ES        934 49.58                             108    0.20 7  309 235 
                                                                                
