 2013  924 0848 46.4 L   6.759 -73.142150.5  RSN  7 0.4 1.6LRSN                1
 GAP=235        0.83       5.9     5.7  6.9  0.8546E+01  0.7366E+01  0.3524E+01E
 Epicentro: LOS SANTOS - SANTANDER                                             3
 ACTION:UPD 13-10-22 09:24 OP:ep   STATUS:               ID:20130924084846 L   I
 OLDACT:REG 13-09-24 10:27 OP:mh   STATUS:               ID:20130924084741     3
 2013-09-24-0847-41M.COL___238                                                 6
 STAT SP IPHASW D HRMM SECON CODA AMPLIT PERI AZIMU VELO AIN AR TRES W  DIS CAZ7
 BAR2 SZ EP   1    849  6.44                             173   -0.06 7 18.9 194 
 BAR2 SZ ES   1    849 22.44                             173    0.25 7 18.9 194 
 BAR2 SZ I         849 23.10         6.7 0.38            171           18.9 194 
 BRR  HZ EP        849  8.41                             153    0.2210 73.9 301 
 BRR  HN ES        849 25.49                             153    0.2910 73.9 301 
 RUS  HZ EP   1    849 10.33                             146    0.05 7 96.0 176 
 RUS  HN ES   1    849 28.54                             146   -0.38 7 96.0 176 
 RUS  HZ I         849 31.98         1.8 0.26            148           96.0 176 
 PTB  HZ EP   1    849 13.38                             133   -0.32 7  147 261 
 PTB  HN ES        849 34.30                             133   -0.71 9  147 261 
 PTB  HZ I         849 40.37         7.0 0.36            132            147 261 
 OCA  HZ EP   4    849 17.33                             130    1.84 0  165 353 
 OCA  HN ES   4    849 37.08                             130   -1.11 0  165 353 
 OCA  HZ I         849 41.38         5.1 0.28            131            165 353 
 ZAR  HZ EP   1    849 18.99                             123   -0.36 6  206 293 
 ZAR  HN ES   2    849 45.36                             123    0.28 4  206 293 
 ZAR  HZ I         849 50.98         6.8 0.48            123            206 293 
 NOR  HZ EP   1    849 22.48                             120    0.34 6  232 235 
 NOR  HN ES   1    849 50.87                             120    0.83 6  232 235 
 NOR  HZ I         849 54.17         4.5 0.18            120            232 235 
                                                                                
