 2013  524 0906 32.4 L   6.770 -73.129151.6  RSN  6 0.3 1.8LRSN                1
 GAP=140        0.73       3.9     3.9  5.2 -0.1777E+01  0.1950E+01  0.8788E-01E
 Epicentro: LOS SANTOS - SANTANDER                                             3
 ACTION:UPD 13-06-20 09:53 OP:ep   STATUS:               ID:20130524090632 L   I
 2013-05-24-0858-50M.COL___196                                                 6
 STAT SP IPHASW D HRMM SECON CODA AMPLIT PERI AZIMU VELO AIN AR TRES W  DIS CAZ7
 BAR2 SZ EP        9 6 52.79                             172    0.0610 20.5 197 
 BAR2 SZ I         9 6 53.30         7.8 0.20            171           20.5 197 
 BAR2 SZ ES        9 7  8.47                             172   -0.0810 20.5 197 
 GIR2 SZ EP        9 6 52.88                             166   -0.0310 34.9 348 
 BRR  HZ EP        9 6 54.67                             152    0.2610 74.4 300 
 BRR  HN ES        9 7 12.01                             152    0.4710 74.4 300 
 BRR  HN I         9 7 14.61        24.9 0.18            150           74.4 300 
 PAM  SZ EP        9 6 55.53                             151    0.1610 78.9  37 
 PAM  SN ES        9 7 12.84                             151   -0.4210 78.9  37 
 PAM  SN I         9 7 13.78        12.9 0.22            153           78.9  37 
 RUS  HZ EP        9 6 56.42                             146   -0.1210 97.2 177 
 RUS  HZ I         9 6 57.88         2.8 0.44            147           97.2 177 
 RUS  HN ES        9 7 15.54                             146    0.2110 97.2 177 
 PTB  HZ EP        9 6 59.86                             133   -0.14 9  149 260 
 PTB  HN ES        9 7 21.03                             133   -0.46 9  149 260 
 PTB  HN I         9 7 26.05        22.1 0.34            132            149 260 
                                                                                
