 2015  324 0813  0.7 L   6.801 -73.535120.0  RSN  5 0.6 1.3LRSN                1
 GAP=136        1.43       6.3     8.3 12.2  0.2003E+02 -0.1719E+02 -0.1510E+02E
 Epicentro: EL CARMEN - SANTANDER                                              3
 ACTION:UPD 15-04-30 16:28 OP:nd   STATUS:               ID:20150324081300 L   I
 OLDACT:REG 15-03-24 12:53 OP:fm   STATUS:               ID:20150324080747     3
 2015-03-24-0807-47M.COL___272                                                 6
 STAT SP IPHASW D HRMM SECON CODA AMPLIT PERI AZIMU VELO AIN AR TRES W  DIS CAZ7
 BRR  HZ EP        813 17.90                             161    0.5310 39.1 330 
 BRR  HN ES        813 30.87                             161    0.4810 39.1 330 
 BAR2 EZ EP        813 17.75                             158   -0.2310 45.3 121 
 BAR2 EZ I         813 32.11         8.2 0.28            154           45.3 121 
 PTB  HZ EP        813 22.60                             136    0.8310  106 254 
 PTB  HE ES        813 37.45                             136   -0.7810  106 254 
 PTB  HZ I         813 41.55         1.9 0.18            137            106 254 
 RUS  HZ EP        813 23.32                             134    0.3610  112 154 
 RUS  HN ES        813 39.80                             134   -0.5510  112 154 
 SML  HZ EP   1    813 33.75                             113   -0.58 6  229 345 
 SML  HE ES        813 59.96                             113   -0.62 8  229 345 
 SML  HZ I         814  5.79         2.4 0.10            112            229 345 
                                                                                
