 2015  724 0958  1.0 L   6.812 -73.157135.9  RSN  8 0.6 2.1LRSN                1
 GAP=134        1.44       5.0     6.2  9.5 -0.7170E+01  0.2480E+02 -0.1062E+02E
 Epicentro: LOS SANTOS - SANTANDER                                             3
 ACTION:UPD 15-09-08 21:50 OP:cam  STATUS:               ID:20150724095801 L   I
 OLDACT:REG 15-07-24 12:49 OP:stll STATUS:               ID:20150724094749     3
 2015-07-24-0947-49M.COL___334                                                 6
 STAT SP IPHASW D HRMM SECON CODA AMPLIT PERI AZIMU VELO AIN AR TRES W  DIS CAZ7
 BAR2 EZ IP     C  958 19.82                             169    0.3110 24.4 186 
 BAR2 EZ ES        958 34.08                             169    0.1710 24.4 186 
 BAR2 EZ I         958 35.89        35.3 0.18            172           24.4 186 
 PAM  EZ IP     C  958 22.75                             149    0.5410 77.2  41 
 PAM  EZ I         958 22.92        47.5 0.22            142           77.2  41 
 PAM  EN ES        958 39.21                             149    0.5010 77.2  41 
 RUS  HZ EP        958 23.95                             141    0.0110  102 175 
 RUS  HZ I         958 24.96         9.4 0.10            139            102 175 
 RUS  HE ES        958 41.16                             141   -0.6410  102 175 
 CPBEREZ EP        958 26.60                             130   -0.53 9  147 258 
 CPBEREN ES        958 46.99                             130   -0.49 9  147 258 
 OCA  HZ EP        958 27.99                             128   -0.47 9  159 354 
 OCA  HN ES        958 49.09                             128   -0.76 9  159 354 
 OCA  HZ I         958 51.36        16.9 0.42            120            159 354 
 ZAR  HZ EP        958 34.09                             120    1.41 9  202 292 
 ZAR  HN ES        958 57.87                             120    0.50 9  202 292 
 ZAR  HZ I         959  3.38         6.6 0.26            114            202 292 
 NOR  HZ EP        958 36.19                             116    0.00 8  234 234 
 NOR  HN ES        959  3.83                             116    0.23 8  234 234 
 NOR  HZ I         959  7.97         7.1 0.18            111            234 234 
 SML  HZ EP        958 36.13                             115   -0.81 8  242 335 
 SML  HZ I         959  8.52        11.6 0.10            109            242 335 
                                                                                
