 2010 1124 0459 33.8 L   6.816 -73.046144.9  RSN 10 0.4 2.1LRSN                1
 GAP=170        0.83       4.8     9.3 12.1 -0.2305E+02  0.5468E+02 -0.2117E+02E
 Epicentro: LOS SANTOS - SANTANDER                                             3
 ACTION:UP  10-12-17 16:54 OP:REBC STATUS:               ID:20101124045933 L   I
 2010-11-24-0457-23S.COL___129                                                 6
 STAT SP IPHASW D HRMM SECON CODA AMPLIT PERI AZIMU VELO SNR AR TRES W  DIS CAZ7
 BRR  HZ IP     D  459 55.01                             149    -0.410   80 294 
 BRR  HZ I         5 0 12.78        33.7 0.10                            80 294 
 RUS  HZ EP   1    459 57.30                             143    -0.3 7  102 182 
 RUS  HN ES   1    5 0 16.12                             143     0.0 7  102 182 
 RUS  HZ I         5 0 17.71        22.2 0.27                           102 182 
 GUE  SZ EP   1    459 58.50                             140     0.4 7  113   7 
 GRA  SZ EP        459 58.92                             138     0.310  121  13 
 GRA  SZ I         5 0 19.73        14.9 0.31                           121  13 
 OCA  SZ EP   1    5 0  1.73                             129    -0.3 7  160 349 
 OCA  SZ I         5 0 28.49        14.5 0.19                           160 349 
 CHI  HZ EP   1    5 0 11.71                             116    -0.3 6  253 197 
 CHI  HN ES   2    5 0 42.31                             116     0.6 4  253 197 
 CHI  HZ I         5 0 44.73         5.5 0.46                           253 197 
 HEL  HZ EP   1    5 0 15.03                             113    -0.2 6  283 256 
 HEL  HZ I         5 0 52.26         5.0 0.28                           283 256 
 GUY  SE ES   1    5 0 53.92                             111     0.5 5  311 236 
 RREF HZ EP   1    5 0 21.59                             110     0.6 5  331 230 
 RREF HZ I         5 1  5.32         6.6 0.27                           331 230 
 PRA  HZ EP   1    5 0 27.60                             106    -0.5 4  399 211 
                                                                                
