 2011  324 0654  3.5 L   6.837 -73.370125.1  RSN  5 0.5 2.0LRSN                1
 GAP=111        1.11       7.5     7.8 10.9 -0.1462E+02  0.1536E+02 -0.2188E+02E
 Epicentro: SAN VICENTE DE CHUCURI - SANTANDER                                 3
 ACTION:UP  11-06-16 14:35 OP:jfem STATUS:               ID:20110324065403 L   I
 2011-03-24-0640-00M.COL___132                                                 6
 STAT SP IPHASW D HRMM SECON CODA AMPLIT PERI AZIMU VELO SNR AR TRES W  DIS CAZ7
 BAR2 SZ EP        654 21.22                             164     0.310   34 143 
 BAR2 SZ ES   1    654 34.08                             164    -0.4 7   34 143 
 BAR2 SZ I         654 35.69        38.9 0.28                            34 143 
 BRR  HZ EP   1    654 21.59                             157     0.5 7   48 308 
 BRR  HN ES   1    654 35.48                             157     0.6 7   48 308 
 BRR  HZ I         654 36.46        28.3 0.14                            48 308 
 PAM  SZ EP   1    654 24.27                             141    -0.3 7   93  53 
 PAM  SN ES   2    654 40.59                             141    -0.5 5   93  53 
 OCA  SZ EP        654 30.07                             125     0.3 9  155   2 
 OCA  SZ ES   1    654 49.58                             125    -0.6 7  155   2 
 OCA  SZ I         654 57.15         8.2 0.21                           155   2 
 HEL  HN ES   1    655  7.86                             112    -0.8 6  249 253 
                                                                                
