 2014  224 0557  8.3 L   6.304 -73.913  3.3  RSN  4 0.1 1.2LRSN                1
 GAP=116        0.37       1.0     0.9  2.6  0.1109E+00 -0.2587E+00 -0.1824E+00E
 Epicentro: CIMITARRA - SANTANDER                                              3
 ACTION:UPD 14-03-10 08:12 OP:ep   STATUS:               ID:20140224055708 L   I
 OLDACT:UP  14-02-24 12:58 OP:fm   STATUS:               ID:20140224054816     3
 OLDACT:REG 14-02-24 08:22 OP:y    STATUS:               ID:20140224054816     3
 2014-02-24-0548-16M.COL___223                                                 6
 STAT SP IPHASW D HRMM SECON CODA AMPLIT PERI AZIMU VELO AIN AR TRES W  DIS CAZ7
 PTB  HZ EP        557 18.77                              47   -0.1210 65.5 293 
 PTB  HN ES        557 27.20                              47    0.0110 65.5 293 
 PTB  HZ I         557 28.61        10.9 0.16             47           65.5 293 
 SPBC HZ EP        557 20.30                              47    0.0110 74.2 194 
 SPBC HN ES        557 29.75                              47    0.0810 74.2 194 
 SPBC HZ I         557 30.48        12.4 0.26             47           74.2 194 
 RUS  HZ EP     C  557 25.09                              47    0.1010  103 116 
 RUS  HN ES        557 37.87                              47   -0.1710  103 116 
 RUS  HZ I         557 38.17         5.1 0.12             47            103 116 
 PAM  SN ES        557 58.05                              47    0.10 9  176  49 
 PAM  SZ I         557 58.81         1.7 0.38             47            176  49 
                                                                                
