 2014  524 0139 35.1 L   6.738 -73.165147.0  RSN  7 0.5 1.9LRSN                1
 GAP=137        1.35       6.5     7.0  9.2  0.1598E+02 -0.1686E+01 -0.2248E+02E
 Epicentro: VILLANUEVA - SANTANDER                                             3
 ACTION:UPD 15-03-16 17:00 OP:nd   STATUS:               ID:20140524013935 L   I
 OLDACT:UP  14-05-24 14:46 OP:cam  STATUS:               ID:20140524013737     3
 OLDACT:REG 14-05-24 14:38 OP:cam  STATUS:               ID:20140524013737     3
 2014-05-24-0137-37M.COL___249                                                 6
 STAT SP IPHASW D HRMM SECON CODA AMPLIT PERI AZIMU VELO AIN AR TRES W  DIS CAZ7
 BAR2 SZ EP        139 54.69                             173   -0.0410 16.3 187 
 BAR2 SZ ES        140  9.22                             173   -0.8510 16.3 187 
 BAR2 SZ I         140 10.64        20.7 0.16            176           16.3 187 
 BRR  HZ EP     C  139 56.81                             152    0.3610 72.9 304 
 BRR  HN ES        140 14.04                             152    0.9110 72.9 304 
 BRR  HZ I         140 15.38        11.2 0.46            150           72.9 304 
 PAM  SZ EP        139 57.87                             149    0.0410 84.0  38 
 RUS  HZ EP        139 58.86                             146    0.3810 94.0 174 
 RUS  HN ES        140 16.95                             146    0.2110 94.0 174 
 RUS  HZ I         140 17.99         8.8 0.32            150           94.0 174 
 PTB  HZ EP        140  1.73                             133   -0.11 9  144 261 
 PTB  HN ES        140 21.82                             133   -0.91 9  144 261 
 PTB  HZ I         140 22.84         6.1 0.18            133            144 261 
 ZAR  HZ EP        140  7.78                             122    0.11 9  205 294 
 ZAR  HE ES        140 33.71                             122    0.62 9  205 294 
 ZAR  HZ I         140 39.88         8.5 0.26            123            205 294 
 SML  HZ EP        140 11.69                             117   -0.65 8  249 336 
 SML  HN ES        140 41.01                             117   -0.41 8  249 336 
 SML  HZ I         140 47.25         9.8 0.10            117            249 336 
                                                                                
