 2016  224 0536 37.5 L   6.806 -73.123145.1  RSN 18 0.5 2.2LRSN                1
 GAP= 55        1.12       3.1     2.9  5.2 -0.1256E+01  0.2590E+01  0.2131E+01E
 Epicentro: LOS SANTOS - SANTANDER                                             3
 ACTION:UPD 16-03-04 21:28 OP:rebc STATUS:               ID:20160224053637 L   I
 OLDACT:UP  16-02-24 18:31 OP:mh   STATUS:               ID:20160224052751d    3
 OLDACT:UP  16-02-24 18:31 OP:mh   STATUS:               ID:20160224052751d    3
 OLDACT:UP  16-02-24 18:28 OP:mh   STATUS:               ID:20160224052751d    3
 OLDACT:UP  16-02-24 18:28 OP:mh   STATUS:               ID:20160224052751d    3
 OLDACT:UP  16-02-24 18:27 OP:mh   STATUS:               ID:20160224052751d    3
 OLDACT:DUP 16-02-24 18:16 OP:mh   STATUS:               ID:20160224052751d    3
 OLDACT:UP  16-02-24 18:15 OP:mh   STATUS:               ID:20160224052750     3
 OLDACT:UP  16-02-24 18:14 OP:mh   STATUS:               ID:20160224052750     3
 OLDACT:UP  16-02-24 18:06 OP:mh   STATUS:               ID:20160224052750     3
 OLDACT:REG 16-02-24 13:03 OP:mh   STATUS:               ID:20160224052750     3
 2016-02-24-0527-50M.COL___334                                                 6
 STAT SP IPHASW D HRMM SECON CODA AMPLIT PERI AZIMU VELO AIN AR TRES W  DIS CAZ7
 BAR2 EZ EP        536 57.14                             170    0.0610 24.6 196 
 BAR2 EZ ES        537 11.80                             170   -0.5410 24.6 196 
 BAR2 EZ I         537 13.73        29.3 0.16            170           24.6 196 
 BRR  HZ EP   1    536 58.97                             152    0.28 7 73.1 297 
 BRR  HN ES        537 15.83                             152    0.6210 73.1 297 
 BRR  HZ I         537 19.87        26.2 0.28            149           73.1 297 
 PAM  EZ IP     C  537  0.24                             151    0.7210 75.2  38 
 PAM  EN ES        537 17.22                             151    0.5310 75.2  38 
 PAM  EZ I         537 19.10        49.0 0.52            152           75.2  38 
 RUS  HZ EP        537  1.22                             144   -0.0110  101 178 
 RUS  HN ES        537 19.87                             144    0.1410  101 178 
 RUS  HZ I         537 20.73        20.8 0.32            146            101 178 
 PTB  HZ EP        537  3.94                             131   -0.72 9  150 259 
 PTB  HN ES   1    537 25.64                             131   -0.19 7  150 259 
 PTB  HZ I         537 26.68        13.0 0.30            131            150 259 
 TAM  HZ IP     D  537  5.62                             131    0.70 9  153 105 
 TAM  HE ES        537 26.04                             131   -0.26 9  153 105 
 OCA  HZ EP        537  5.24                             130   -0.48 9  160 352 
 OCA  HN ES        537 27.01                             130   -0.72 9  160 352 
 OCA  HZ I         537 31.97        31.7 0.15            129            160 352 
 SPBC HZ EP   1    537  5.90                             129   -0.26 7  165 220 
 SPBC HE ES        537 28.22                             129   -0.28 9  165 220 
 SPBC HZ I         537 30.46        38.1 0.36            129            165 220 
 ZAR  HZ EP        537 10.70                             122    0.58 8  206 292 
 ZAR  HN ES        537 35.12                             122   -0.44 8  206 292 
 ZAR  HZ I         537 41.22        16.1 0.42            121            206 292 
 NOR  HZ EP        537 13.45                             118   -0.01 8  237 235 
 NOR  HN ES        537 41.56                             118    0.05 8  237 235 
 NOR  HZ I         537 43.45        12.0 0.16            118            237 235 
 CHI  HZ EP        537 15.36                             117    0.05 8  250 196 
 CHI  HN ES        537 44.58                             117   -0.22 8  250 196 
 CHI  HZ I         537 47.69        10.9 0.38            118            250 196 
 HEL  HZ EP   1    537 18.83                             114    0.85 6  275 256 
 HEL  HN ES        537 49.09                             114   -0.45 8  275 256 
 HEL  HZ I         537 55.90         5.9 0.44            115            275 256 
 URE  HZ EP   4    537 17.76                             113   -1.02 0  286 292 
 URE  HN ES   4    537 52.14                             113    1.17 0  286 292 
 URE  HZ I         537 59.71        10.8 0.28            113            286 292 
 GUY2CHZ EP   1    537 22.23                             112    0.87 5  304 235 
 GUY2CHE ES   4    537 57.10                             112    1.53 0  304 235 
 GUY2CHZ I         538  3.23         6.6 0.16                           304 235 
 PTGC HZ EP        537 20.36                             111   -0.94 7  308 159 
 PTGC HN ES   4    537 53.43                             111   -2.03 0  308 159 
 PTGC HZ I         537 55.32        13.5 0.22            113            308 159 
 LL6C HZ EP   4    537 21.90                             110   -1.21 0  324 357 
 LL6C HN ES   4    537 53.84                             110   -4.84 0  324 357 
 ELA  HN ES        538  1.90                             110    0.56 7  332 230 
 CBOC HZ EP   1    537 24.70                             110    0.01 5  336 252 
 CBOC HN ES        538  1.78                             110    0.28 7  336 252 
 CBOC HZ I         538  9.03         1.7 0.56            110            336 252 
 MON  HZ EP   4    537 23.59                             108   -3.07 0  355 308 
 MON  HN ES   4    538  2.94                             108   -2.06 0  355 308 
 SDV  BZ EP        537 26.74                             108   -0.50 6  358  50 
 SDV  BN ES   4    538  4.00                             108   -2.03 0  358  50 
 SDV  BZ I         538  7.24         3.1 0.35            109            358  50 
 ANIL HE ES   4    538  8.93                             108    2.35 0  360 225 
                                                                                
