 2015  324 0118 16.0 L   6.726 -73.205150.7  RSN  5 0.5 1.2LRSN                1
 GAP=132        1.29       7.4     6.1 10.8 -0.2168E+01  0.1871E+02 -0.1133E+02E
 Epicentro: VILLANUEVA - SANTANDER                                             3
 ACTION:UPD 15-04-30 16:28 OP:nd   STATUS:               ID:20150324011816 L   I
 OLDACT:DUP 15-03-24 13:46 OP:fm   STATUS:               ID:20150324010746d    3
 OLDACT:REG 15-03-24 12:36 OP:fm   STATUS:               ID:20150324010745     3
 2015-03-24-0107-45M.COL___263                                                 6
 STAT SP IPHASW D HRMM SECON CODA AMPLIT PERI AZIMU VELO AIN AR TRES W  DIS CAZ7
 BRR  HZ EP        118 38.43                             154    0.8210 70.1 307 
 BRR  HN ES        118 55.17                             154    0.7010 70.1 307 
 BRR  HZ I         118 58.40         4.8 0.62            153           70.1 307 
 PAM  SZ EP        118 39.60                             148    0.2310 87.8  39 
 PAM  SN ES        118 56.87                             148   -0.7310 87.8  39 
 PAM  SZ I         118 58.74         1.9 0.46            153           87.8  39 
 RUS  HN ES        118 58.19                             147   -0.0410 93.2 172 
 RUS  HZ I         119  0.94         1.6 0.52            150           93.2 172 
 PTB  HZ EP        118 42.63                             135   -0.04 9  140 262 
 PTB  HN ES        119  3.02                             135   -0.46 9  140 262 
 PTB  HZ I         119  8.63         2.3 0.12            136            140 262 
 ZAR  HZ EP        118 48.01                             124   -0.47 9  201 295 
 ZAR  HN ES        119 13.57                             124   -0.25 9  201 295 
 ZAR  HZ I         119 19.90         2.7 0.54            126            201 295 
                                                                                
