 2012  224 0036 31.6 L   6.754 -73.195151.7  RSN  4 0.3 1.4LRSN                1
 GAP=172        0.70       6.0     6.4  7.8  0.9426E+01  0.5696E+01  0.9386E+01E
 ACTION:UP  12-03-07 16:33 OP:epov STATUS:               ID:20120224003631 L   I
 2012-02-24-0030-00M.COL___192                                                 6
 STAT SP IPHASW D HRMM SECON CODA AMPLIT PERI AZIMU VELO AIN AR TRES W  DIS CAZ7
 GIR2 SZ EP   1    036 52.04                             166   -0.05 7 35.9   0 
 GIR2 SZ ES   1    037  7.55                             166   -0.54 7 35.9   0 
 BRR  HZ EP   1    036 53.47                             154    0.20 7 69.2 304 
 BRR  HZ I         036 57.01         9.9 0.29                          69.2 304 
 BRR  HE ES   1    037 10.81                             154    0.62 7 69.2 304 
 RUS  HZ EP   1    036 55.51                             146   -0.10 7 96.1 173 
 RUS  HN ES   1    037 14.58                             146    0.22 7 96.1 173 
 RUS  HZ I         037 15.79         1.9 0.45                          96.1 173 
 PTB  HZ EP   1    036 58.50                             135    0.01 7  141 260 
 PTB  HN ES   1    037 19.08                             135   -0.40 7  141 260 
                                                                                
