 2016 1224 0942 25.6 L   6.410 -73.301138.7  RSN  4 0.4 0.9LRSN                1
 GAP=124        0.47       5.7     8.3  7.0  0.2534E+02  0.2768E+02 -0.1267E+01E
 Epicentro: PALMAS DEL SOCORRO - SANTANDER                                     3
 ACTION:UPD 17-01-11 20:18 OP:rebc STATUS:               ID:20161224094225 L   I
 OLDACT:UP  16-12-24 16:53 OP:cog  STATUS:               ID:20161224093741d    3
 OLDACT:UP  16-12-24 16:53 OP:cog  STATUS:               ID:20161224093741d    3
 OLDACT:DUP 16-12-24 16:45 OP:cog  STATUS:               ID:20161224093741d    3
 2016-12-24-0938-00M.COL___366                                                 6
 STAT SP IPHASW D HRMM SECON CODA AMPLIT PERI AZIMU VELO AIN AR TRES W  DIS CAZ7
 BAR2 EZ EP        942 44.43                             170    0.0610 24.0  33 
 BAR2 EZ ES        942 59.07                             170    0.0410 24.0  33 
 BAR2 EZ I         943  0.19         2.5 0.36            160           24.0  33 
 RUS  HZ EP   4    942 43.72                             155   -2.46 0 62.1 157 
 RUS  HN ES        943  2.13                             155   -0.1110 62.1 157 
 RUS  HZ I         943  7.98         1.6 0.32            145           62.1 157 
 PTB  HZ EP   3    942 51.41                             135    1.16 2  129 276 
 PTB  HE ES   4    943 12.70                             135    3.21 0  129 276 
 PTB  HZ I         943 20.78         1.2 0.46            126            129 276 
 ZAR  HZ EP   3    942 57.32                             120   -0.83 2  210 305 
 ZAR  HN ES   2    943 23.46                             120   -0.10 4  210 305 
                                                                                
