 2012  724 0828 54.0 L   6.714 -73.214144.7  RSN  4 0.3 1.5LRSN                1
 GAP=217        0.67       7.9     7.5  8.5  0.2915E+02  0.1017E+02  0.5038E+01E
 Epicentro: VILLANUEVA - SANTANDER                                             3
 ACTION:UPD 12-08-14 11:45 OP:ep   STATUS:               ID:20120724082853 L   I
 2012-07-24-0820-00M.COL___215                                                 6
 STAT SP IPHASW D HRMM SECON CODA AMPLIT PERI AZIMU VELO AIN AR TRES W  DIS CAZ7
 BAR2 SZ EP        829 13.07                             174    -0.210   14 165 
 BAR2 SZ ES   2    829 27.93                             174    -0.5 5   14 165 
 BAR2 SZ I         829 28.90         8.2 0.44            169             14 165 
 BRR  HZ EP        829 15.12                             153     0.210   70 308 
 BRR  HZ I         829 15.32         8.4 0.30            149             70 308 
 BRR  HN ES   2    829 31.71                             153     0.4 5   70 308 
 RUS  HZ EP        829 17.27                             146     0.310   92 171 
 RUS  HN ES   2    829 34.98                             146     0.0 5   92 171 
 PTB  HZ EP        829 19.75                             134    -0.3 9  139 262 
 PTB  HN ES   2    829 40.51                             134     0.1 5  139 262 
 PTB  HZ I         829 45.32         2.5 0.12            130            139 262 
