 2014  524 0403 51.6 L   6.820 -73.145142.6  RSN  4 0.2 0.7LRSN                1
 GAP=201        0.54       3.5     4.4  9.0  0.6284E+01 -0.1014E+02 -0.1774E+02E
 Epicentro: LOS SANTOS - SANTANDER                                             3
 ACTION:UPD 15-03-16 17:00 OP:nd   STATUS:               ID:20140524040351 L   I
 OLDACT:UP  14-05-24 14:48 OP:cam  STATUS:               ID:20140524040144     3
 OLDACT:REG 14-05-24 14:37 OP:cam  STATUS:               ID:20140524040144     3
 2014-05-24-0401-44M.COL___246                                                 6
 STAT SP IPHASW D HRMM SECON CODA AMPLIT PERI AZIMU VELO AIN AR TRES W  DIS CAZ7
 BAR2 SZ EP   1    4 4 10.85                             169   -0.05 8 25.5 189 
 RUS  HZ EP        4 4 15.53                             142    0.3310  103 176 
 RUS  HN ES   1    4 4 33.33                             142   -0.28 7  103 176 
 RUS  HZ I         4 4 38.28         0.9 0.32            147            103 176 
 PTB  HZ EP        4 4 18.13                             131   -0.23 9  148 258 
 PTB  HE ES        4 4 39.32                             131    0.10 9  148 258 
 SML  HZ EP   1    4 4 27.57                             117   -0.27 6  242 335 
 SML  HE ES        4 4 56.22                             117    0.11 8  242 335 
                                                                                
