 2011 1224 0319 28.6 L   6.735 -73.166149.0  RSN  5 0.2 1.6LRSN                1
 GAP=179        0.48       4.8     5.4  5.1  0.1098E+02  0.8986E+00 -0.4353E+01E
 Epicentro: VILLANUEVA - SANTANDER                                             3
 ACTION:UPD 12-07-13 16:18 OP:ep   STATUS:               ID:20111224031928 L   I
 2011-12-24-0315-40S.COL___153                                                 6
 STAT SP IPHASW D HRMM SECON CODA AMPLIT PERI AZIMU VELO AIN AR TRES W  DIS CAZ7
 BAR2 SZ EP        319 48.45                             174   -0.0210 15.9 187 
 BAR2 SZ ES   1    320  3.64                             174   -0.35 7 15.9 187 
 BAR2 SZ I         320  6.47         7.7 0.23                          15.9 187 
 GIR2 SZ EP   1    319 48.61                             165   -0.22 7 38.2 355 
 BRR  HZ EP        319 50.30                             152    0.1210 73.1 304 
 BRR  HZ I         319 50.64        13.0 0.19                          73.1 304 
 BRR  HN ES   1    320  7.35                             152    0.32 7 73.1 304 
 RUS  HZ EP   2    319 52.37                             146    0.21 5 93.6 174 
 RUS  HE ES   1    320 10.76                             146    0.20 7 93.6 174 
 RUS  HZ I         320 12.35         3.1 0.30                          93.6 174 
 PTB  HZ EP   1    319 55.31                             133   -0.19 7  144 261 
 PTB  HN ES   2    320 16.35                             133   -0.16 5  144 261 
                                                                                
