 2014  924 0342 27.7 L   6.739 -73.198156.5  RSN  5 0.4 1.2LRSN                1
 GAP=195        0.91       6.5     7.2  8.4  0.2157E+02 -0.1534E+02 -0.1988E+02E
 Epicentro: VILLANUEVA - SANTANDER                                             3
 ACTION:UPD 14-10-03 23:08 OP:nd   STATUS:               ID:20140924034227 L   I
 OLDACT:UP  14-09-24 14:56 OP:cam  STATUS:               ID:20140924034000     3
 OLDACT:UP  14-09-24 14:56 OP:cam  STATUS:               ID:20140924034000     3
 OLDACT:REG 14-09-24 12:58 OP:cam  STATUS:               ID:20140924034000     3
 2014-09-24-0340-00M.COL___252                                                 6
 STAT SP IPHASW D HRMM SECON CODA AMPLIT PERI AZIMU VELO AIN AR TRES W  DIS CAZ7
 BAR2 SZ EP        342 48.28                             174   -0.1910 16.3 174 
 BAR2 SZ I         343  4.87         2.6 0.16            173           16.3 174 
 BRR  HZ EP        342 50.21                             155    0.2910 69.9 306 
 BRR  HE ES        343  7.41                             155    0.1410 69.9 306 
 BRR  HE I         343  7.86         8.5 0.30            155           69.9 306 
 RUS  HZ EP        342 52.72                             148    0.6510 94.4 172 
 RUS  HN ES        343 10.70                             148   -0.4110 94.4 172 
 RUS  HZ I         343 12.08         1.0 0.26            146           94.4 172 
 PTB  HZ EP        342 54.58                             136   -0.36 9  141 261 
 PTB  HN ES        343 16.28                             136    0.07 9  141 261 
 PTB  HZ I         343 21.98         1.9 0.40            135            141 261 
 SML  HZ EP        343  4.97                             119   -0.36 8  248 337 
                                                                                
