 2012  424 0750 11.6 L   6.759 -73.178135.9  RSN 10 0.4 2.4LRSN                1
 GAP=134        0.89       3.2     4.4  6.2 -0.1009E+00  0.9271E+01  0.1694E+01E
 Epicentro: VILLANUEVA - SANTANDER                                             3
 ACTION:UPD 12-07-05 11:55 OP:tino STATUS:               ID:20120424075011 L   I
 2012-04-24-0750-00M.COL___186                                                 6
 STAT SP IPHASW D HRMM SECON CODA AMPLIT PERI AZIMU VELO AIN AR TRES W  DIS CAZ7
 BAR2 SZ EP   1    750 30.23                             172     0.2 7   18 181 
 BAR2 SZ ES   1    750 44.27                             172     0.0 7   18 181 
 BAR2 SZ I         750 46.55       112.2 0.33                            18 181 
 BRR  HZ EP   1    750 32.03                             151     0.3 7   70 303 
 BRR  HZ I         750 32.22       131.7 0.12                            70 303 
 BRR  HN ES   1    750 47.87                             151     0.5 7   70 303 
 PAM  SZ EP   1    750 33.00                             147    -0.2 7   83  39 
 PAM  SN ES   1    750 50.14                             147     0.1 7   83  39 
 PAM  SZ I         750 52.58        15.6 0.35                            83  39 
 RUS  HZ EP   1    750 34.11                             143     0.0 7   96 174 
 RUS  HN ES        750 51.44                             143    -0.210   96 174 
 RUS  HZ I         750 53.89        23.4 0.20                            96 174 
 PTB  HZ EP   1    750 36.74                             131    -0.7 7  143 260 
 PTB  HN ES   1    750 57.17                             131    -0.4 7  143 260 
 PTB  HZ I         751  5.12        22.7 0.14                           143 260 
 OCA  SZ EP   1    750 38.95                             126    -0.7 7  164 355 
 OCA  SZ ES   1    751  1.44                             126     0.0 7  164 355 
 ZAR  HZ EP   1    750 43.79                             120     0.5 6  203 294 
 ZAR  HN ES   1    751  7.87                             120    -0.1 6  203 294 
 ZAR  HZ I         751 14.89        22.8 0.23                           203 294 
 CHI  HZ EP   1    750 48.33                             116     0.1 6  243 195 
 CHI  HZ I         750 48.87        10.6 0.16                           243 195 
 CHI  HN ES   1    751 16.86                             116     0.1 6  243 195 
 HEL  HZ EP   1    750 51.76                             113     0.9 6  267 257 
 HEL  HN ES   1    751 20.86                             113    -0.6 6  267 257 
 HEL  HZ I         751 28.77        11.0 0.36                           267 257 
 PRA  HZ EP   1    751  4.01                             105    -0.2 4  386 209 
 PRA  HN ES   1    751 45.91                             105     0.8 4  386 209 
 PRA  HZ I         751 51.71        15.7 0.18                           386 209 
                                                                                
