 2013  124 0927 42.4 L   6.755 -73.187145.3  RSN  6 0.4 1.7LRSN                1
 GAP=133        0.90       5.6     4.7  6.4  0.1052E+02  0.4855E+00 -0.8261E+01E
 Epicentro: VILLANUEVA - SANTANDER                                             3
 ACTION:UPD 13-02-15 09:16 OP:ep   STATUS:               ID:20130124092742 L   I
 2013-01-24-0918-36M.COL___177                                                 6
 STAT SP IPHASW D HRMM SECON CODA AMPLIT PERI AZIMU VELO AIN AR TRES W  DIS CAZ7
 BAR2 SZ EP        928  1.79                             173   -0.1310 18.0 178 
 BAR2 SZ ES        928 17.04                             173   -0.0710 18.0 178 
 BAR2 SZ I         928 18.27        10.8 0.60            172           18.0 178 
 BRR  HZ EP        928  3.52                             153    0.0610 69.9 304 
 BRR  HN ES        928 20.34                             153    0.4810 69.9 304 
 BRR  HN I         928 21.05        16.9 0.36            152           69.9 304 
 PAM  SZ EP        928  4.57                             149   -0.4510 84.2  40 
 PAM  SZ I         928  4.86        12.0 0.20            151           84.2  40 
 RUS  HZ EP        928  6.14                             145    0.3210 96.0 173 
 RUS  HN ES        928 24.06                             145    0.0110 96.0 173 
 RUS  HN I         928 25.99         5.3 0.26            146           96.0 173 
 PTB  HZ EP        928  8.65                             133   -0.23 9  142 260 
 PTB  HN ES        928 29.17                             133   -0.33 9  142 260 
 PTB  HN I         928 32.18         5.9 0.36            132            142 260 
 ZAR  HZ EP        928 15.36                             123    0.74 9  202 294 
 ZAR  HN ES        928 39.35                             123   -0.37 9  202 294 
 ZAR  HN I         928 44.64         6.5 0.38            123            202 294 
                                                                                
