 2016  324 0158 28.8 L   6.780 -73.151148.0  RSN  5 0.4 1.4LRSN                1
 GAP=137        0.82       4.2     3.8  8.1 -0.1914E+01  0.1248E+02  0.1275E+01E
 Epicentro: LOS SANTOS - SANTANDER                                             3
 ACTION:UPD 16-05-13 21:27 OP:cam  STATUS:               ID:20160324015828 L   I
 OLDACT:REG 16-03-24 12:24 OP:ak   STATUS:               ID:20160324014747     3
 2016-03-24-0147-47M.COL___308                                                 6
 STAT SP IPHASW D HRMM SECON CODA AMPLIT PERI AZIMU VELO AIN AR TRES W  DIS CAZ7
 PAM  EZ EP        158 51.45                             151    0.0310 79.4  39 
 PAM  EN ES        159  8.98                             151   -0.0510 79.4  39 
 PAM  EZ I         159 10.87         8.6 0.54            153           79.4  39 
 RUS  HZ EP        158 52.83                             145    0.1710 98.4 176 
 RUS  HE ES        159 11.36                             145    0.1210 98.4 176 
 RUS  HZ I         159 12.64         2.9 0.30            149           98.4 176 
 PTB  HZ EP        158 55.04                             133   -0.86 9  147 260 
 PTB  HN ES        159 17.06                             133    0.05 9  147 260 
 PTB  HZ I         159 19.86         1.9 0.10            134            147 260 
 ZAR  HZ EP   2    159  2.24                             123    0.77 4  204 293 
 ZAR  HN ES        159 27.25                             123    0.34 9  204 293 
 ZAR  HZ I         159 32.88         3.2 0.20            124            204 293 
 GUY2CHZ EP   2    159 12.52                             113    0.16 4  299 235 
 GUY2CHN ES        159 46.35                             113    0.05 7  299 235 
 GUY2CHZ I         159 59.57         1.6 0.50                           299 235 
                                                                                
