 2010  424 0640 11.0 L   6.733 -73.009147.4  RSN  5 0.1 1.5LRSN                1
 GAP=219        0.30       4.0     5.5  6.9 -0.1705E+01 -0.2731E+02 -0.5148E+01E
 Epicentro: ARATOCA - SANTANDER                                                3
 ACTION:UPD 10-08-24 10:00 OP:vdl  STATUS:               ID:20100424064011 L   I
 2010-04-24-0640-10S.COL___104                                                 6
 STAT SP IPHASW D HRMM SECON CODA AMPLIT PERI AZIMU VELO AIN AR TRES W  DIS CAZ7
 BAR2 SZ IP        640 30.91                             170     0.110   25 231 
 BAR2 SZ ES   3    640 46.14                             170    -0.2 2   25 231 
 BRR  HZ IP     C  640 33.26                             148    -0.110   88 298 
 BRR  HZ I         640 33.61         5.5 0.11                            88 298 
 BRR  HE ES   1    640 50.81                             148     0.0 7   88 298 
 BRI  SZ EP   2    640 35.34                             141     0.1 5  111  12 
 GUE  SZ IP        640 36.28                             139     0.010  122   4 
 GRA  SZ IP        640 36.70                             137     0.010  129  10 
                                                                                
