 2014  624 0558 28.1 L   6.770 -73.136142.9  RSN  5 0.5 1.4LRSN                1
 GAP=254        1.12       6.9     7.6  8.3  0.1027E+02  0.1443E+02  0.3529E+01E
 Epicentro: LOS SANTOS - SANTANDER                                             3
 ACTION:UPD 14-07-01 22:56 OP:nd   STATUS:               ID:20140624055828 L   I
 OLDACT:DUP 14-06-24 19:15 OP:spq  STATUS:               ID:20140624054809d    3
 2014-06-24-0548-08M.COL___262                                                 6
 STAT SP IPHASW D HRMM SECON CODA AMPLIT PERI AZIMU VELO AIN AR TRES W  DIS CAZ7
 BAR2 SZ EP        558 47.12                             172   -0.1810 20.3 195 
 BAR2 SZ ES        559  2.18                             172   -0.1210 20.3 195 
 BAR2 SZ I         559  4.35         4.4 0.30            167           20.3 195 
 BRR  HZ EP   1    558 48.86                             151   -0.20 7 73.7 300 
 BRR  HN ES        559  5.84                             151    0.4110 73.7 300 
 BRR  HZ I         559  9.57         4.7 0.26            150           73.7 300 
 PTB  HZ EP        558 54.30                             131   -0.54 9  148 260 
 PTB  HZ I         558 55.06         2.9 0.16            131            148 260 
 PTB  HN ES        559 15.11                             131   -0.62 9  148 260 
 SPBC HZ EP        558 56.08                             129   -0.09 9  161 220 
 SPBC HN ES        559 18.75                             129    0.66 9  161 220 
 SPBC HZ I         559 24.79         3.1 0.24            129            161 220 
 ZAR  HZ EP        559  1.44                             121    0.88 8  206 293 
 ZAR  HE ES        559 25.75                             121   -0.15 8  206 293 
 ZAR  HZ I         559 30.74         5.2 0.46            123            206 293 
                                                                                
