 2016 1124 0006  8.5 L   6.655 -73.551112.3  RSN  4 0.4 1.2LRSN                1
 GAP=163        1.07       8.9     4.8  8.8 -0.1875E+02  0.2818E+00  0.3247E+01E
 Epicentro: EL CARMEN - SANTANDER                                              3
 ACTION:UPD 17-10-26 21:11 OP:lp   STATUS:               ID:20161124000608 L   I
 OLDACT:DUP 16-11-24 13:20 OP:dani STATUS:               ID:20161124000006d    3
 OLDACT:UP  16-11-24 13:17 OP:dani STATUS:               ID:20161124000005     3
 OLDACT:UP  16-11-24 13:17 OP:dani STATUS:               ID:20161124000005     3
 OLDACT:REG 16-11-24 12:19 OP:dani STATUS:               ID:20161124000005     3
 2016-11-24-0000-15M.COL___349                                                 6
 STAT SP IPHASW D HRMM SECON CODA AMPLIT PERI AZIMU VELO AIN AR TRES W  DIS CAZ7
 BAR2 EZ EP        0 6 25.07                             158    0.2510 41.4 100 
 BAR2 EZ ES        0 6 37.61                             158    0.1110 41.4 100 
 BAR2 EZ I         0 6 39.28         7.8 0.26            162           41.4 100 
 BRR  HZ EP        0 6 25.48                             153    0.4310 53.1 340 
 BRR  HN ES        0 6 38.34                             153    0.4110 53.1 340 
 BRR  HZ I         0 6 39.07         8.1 0.20            155           53.1 340 
 PTB  HZ EP        0 6 28.76                             135    0.2110  101 263 
 PTB  HN ES        0 6 43.47                             135   -0.6910  101 263 
 PTB  HZ I         0 6 50.42         1.7 0.10            136            101 263 
 PAM  EZ EP        0 6 30.82                             130   -0.1810  121  51 
 PAM  EE ES        0 6 47.92                             130   -0.5910  121  51 
 PAM  EZ I         0 6 50.91         1.7 0.39            134            121  51 
                                                                                
