 2014  924 0420 24.6 L   6.836 -73.083146.7  RSN  9 0.3 1.8LRSN                1
 GAP=207        0.77       2.8     4.6  4.7  0.3370E+01  0.3619E+01 -0.1062E+00E
 Epicentro: LOS SANTOS - SANTANDER                                             3
 ACTION:UPD 14-10-03 23:08 OP:nd   STATUS:               ID:20140924042024 L   I
 OLDACT:UP  14-09-24 15:13 OP:cam  STATUS:               ID:20140924042000     3
 OLDACT:REG 14-09-24 13:00 OP:cam  STATUS:               ID:20140924042000     3
 2014-09-24-0420-00M.COL___252                                                 6
 STAT SP IPHASW D HRMM SECON CODA AMPLIT PERI AZIMU VELO AIN AR TRES W  DIS CAZ7
 BAR2 SZ EP     D  420 44.73                             168    0.2410 29.1 202 
 BAR2 SZ ES        420 59.59                             168   -0.4010 29.1 202 
 BAR2 SZ I         421  1.19         9.6 0.22            167           29.1 202 
 BRR  HZ IP     C  420 46.55                             151    0.4210 75.7 293 
 BRR  HN ES        421  3.21                             151    0.3010 75.7 293 
 BRR  HZ I         421  7.37        11.1 0.18            146           75.7 293 
 RUS  HZ EP        420 49.01                             143    0.2810  104 180 
 RUS  HE ES        421  7.32                             143   -0.2210  104 180 
 RUS  HZ I         421  8.43         5.7 0.20            146            104 180 
 PTB  HZ EP   4    420 51.30                             131   -1.06 0  155 258 
 PTB  HN ES   4    421 12.42                             131   -1.58 0  155 258 
 PTB  HZ I         421 17.40         7.0 0.26            129            155 258 
 SPBC HZ EP        420 53.70                             128   -0.20 9  171 220 
 SPBC HN ES        421 16.86                             128    0.12 9  171 220 
 SPBC HZ I         421 22.74         7.6 0.38            128            171 220 
 ZAR  HN ES        421 23.07                             122   -0.34 8  209 290 
 ZAR  HZ I         421 30.63         4.0 0.24            121            209 290 
 SML  HZ EP        421  1.25                             118    0.01 8  243 333 
 SML  HE ES        421 29.58                             118   -0.23 8  243 333 
 SML  HZ I         421 41.81         7.0 0.26            117            243 333 
 CHI  HZ EP        421  2.93                             117   -0.06 8  254 196 
 GUY2CHZ EP        421  8.49                             112   -0.68 7  309 235 
 GUY2CHN ES        421 44.35                             112    0.43 7  309 235 
 GUY2CHZ I         421 52.89         2.7 0.32                           309 235 
 SJC  HZ EP   4    421 18.74                             106   -1.54 0  410 326 
                                                                                
