 2016  324 0444 56.4 L   6.874 -73.410120.6  RSN  8 0.3 1.5LRSN                1
 GAP= 84        0.70       2.3     3.0  5.7 -0.1968E+01  0.6378E+01 -0.3970E+01E
 Epicentro: SAN VICENTE DE CHUCURI - SANTANDER                                 3
 ACTION:UPD 16-05-13 21:27 OP:cam  STATUS:               ID:20160324044456 L   I
 OLDACT:REG 16-03-24 12:36 OP:ak   STATUS:               ID:20160324043743     3
 2016-03-24-0437-43M.COL___302                                                 6
 STAT SP IPHASW D HRMM SECON CODA AMPLIT PERI AZIMU VELO AIN AR TRES W  DIS CAZ7
 BAR2 EZ EP        445 14.02                             160    0.4510 40.0 141 
 BAR2 EZ ES        445 27.22                             160    0.2710 40.0 141 
 BAR2 EZ I         445 28.47        24.6 0.26            169           40.0 141 
 PAM  EZ EP        445 17.35                             140    0.1110 93.9  57 
 PAM  EN ES        445 33.54                             140    0.0610 93.9  57 
 PAM  EZ I         445 36.07         5.3 0.48            145           93.9  57 
 RUS  HZ EP        445 18.97                             134    0.0210  114 162 
 RUS  HN ES        445 36.36                             134   -0.1710  114 162 
 RUS  HZ I         445 37.39         2.6 0.22            142            114 162 
 PTB  HZ EP        445 19.09                             132    0.1510  121 252 
 PTB  HN ES        445 36.35                             132   -0.1710  121 252 
 PTB  HZ I         445 41.38         4.1 0.20            134            121 252 
 OCA  HZ EP        445 21.51                             125   -0.48 9  151   4 
 OCA  HN ES        445 41.62                             125   -0.32 9  151   4 
 OCA  HZ I         445 47.90        11.5 0.16            128            151   4 
 SPBC HZ EP   2    445 22.30                             124    0.15 5  154 209 
 SPBC HN ES        445 41.85                             124   -0.36 9  154 209 
 ZAR  HZ EP   2    445 24.47                             121    0.34 4  174 293 
 ZAR  HN ES   4    445 48.36                             121    2.62 0  174 293 
 ZAR  HZ I         445 51.52         4.7 0.26            123            174 293 
 MON  HZ EP   4    445 39.89                             105   -1.40 0  326 310 
 MON  HN ES   1    446 16.89                             105    0.60 5  326 310 
 MON  HZ I         446 18.90         0.7 0.08            108            326 310 
                                                                                
