 2011 1024 0921 29.5 L   6.795 -73.141144.7  RSN 10 0.4 2.5LRSN                1
 GAP=137        0.80       3.5     4.4  5.6 -0.2222E+01  0.9340E+01  0.2356E+01E
 Epicentro: LOS SANTOS - SANTANDER                                             3
 ACTION:UPD 12-07-13 16:05 OP:ep   STATUS:               ID:20111024092129 L   I
 2011-10-24-0919-56S.COL___171                                                 6
 STAT SP IPHASW D HRMM SECON CODA AMPLIT PERI AZIMU VELO AIN AR TRES W  DIS CAZ7
 BAR2 SZ EP   1    921 49.02                             171   -0.02 7 22.8 192 
 BAR2 SZ ES   1    922  3.92                             171   -0.32 7 22.8 192 
 BAR2 SZ I         922  5.04        98.2 0.27                          22.8 192 
 GIR2 SZ EP   1    921 49.17                             167    0.06 7 32.0 349 
 GIR2 SZ ES   1    922  3.99                             167   -0.38 7 32.0 349 
 BRR  HZ EP   1    921 50.96                             152    0.34 7 72.0 299 
 BRR  HN ES   1    922  7.95                             152    0.89 7 72.0 299 
 BRR  HZ I         922 12.05        77.2 0.12                          72.0 299 
 PAM  SZ EP   1    921 51.97                             151    0.32 7 77.5  39 
 PAM  SN ES   1    922  8.73                             151   -0.17 7 77.5  39 
 PAM  SZ I         922 11.04        28.3 0.30                          77.5  39 
 RUS  HZ EP   1    921 53.08                             144   -0.06 7 99.9 176 
 RUS  HN ES   1    922 11.89                             144    0.34 7 99.9 176 
 RUS  HZ I         922 12.75        19.4 0.22                          99.9 176 
 OCA  SZ EP   1    921 57.30                             129   -0.53 7  161 353 
 OCA  SZ ES   1    922 19.49                             129   -0.41 7  161 353 
 OCA  SZ I         922 22.52        52.1 0.23                           161 353 
 ZAR  HZ EP   1    922  2.43                             122    0.44 6  205 292 
 ZAR  HN ES   1    922 27.50                             122    0.19 6  205 292 
 ZAR  HZ I         922 33.71        61.7 0.30                           205 292 
 NOR  SZ EP   1    922  4.96                             118   -0.26 6  235 235 
 NOR  SN ES   1    922 32.20                             118   -0.85 6  235 235 
 HEL  HZ EP   1    922 10.32                             114    0.58 6  272 256 
 HEL  HN ES   1    922 40.47                             114   -0.63 6  272 256 
 HEL  HZ I         922 47.39        12.5 0.41                           272 256 
 PRA  HZ EP   1    922 22.85                             106   -0.15 4  392 210 
 PRA  HN ES   1    923  5.08                             106    0.39 4  392 210 
 PRA  HZ I         923 10.16        27.9 0.34                           392 210 
                                                                                
