 2016  724 0411 35.3 L   6.816 -73.060150.4  RSN  4 0.3 1.5LRSN                1
 GAP=247        0.70       4.4     6.6  5.7  0.6375E+01  0.1352E+00  0.2363E+01E
 Epicentro: LOS SANTOS - SANTANDER                                             3
 ACTION:UPD 17-03-29 16:54 OP:lp   STATUS:               ID:20160724041135 L   I
 OLDACT:REG 16-07-24 13:53 OP:ar   STATUS:               ID:20160724040759     3
 2016-07-24-0407-59S.COL___337                                                 6
 STAT SP IPHASW D HRMM SECON CODA AMPLIT PERI AZIMU VELO AIN AR TRES W  DIS CAZ7
 BAR2 EZ EP        411 56.00                             169    0.4410 28.2 209 
 BAR2 EZ ES        412 11.15                             169   -0.2310 28.2 209 
 BRR  HZ EP        411 56.98                             151   -0.3810 78.9 294 
 BRR  HN ES        412 14.79                             151    0.2010 78.9 294 
 BRR  HZ I         412 18.66         4.1 0.28            133           78.9 294 
 RUS  HZ EP        411 59.73                             144    0.1410  102 181 
 RUS  HN ES        412 18.46                             144   -0.0910  102 181 
 SPBC HZ EP        412  4.60                             129   -0.23 9  171 221 
 SPBC HN ES        412 28.01                             129    0.13 9  171 221 
 SPBC HZ I         412 42.88         3.9 0.10            117            171 221 
                                                                                
