 2011 1224 0118 47.0 L   6.776 -73.149146.0  RSN 10 0.2 2.0LRSN                1
 GAP=137        0.49       2.3     2.6  3.7 -0.3316E+00  0.1288E+01  0.1428E+01E
 Epicentro: LOS SANTOS - SANTANDER                                             3
 ACTION:UPD 12-07-13 16:18 OP:ep   STATUS:               ID:20111224011847 L   I
 2011-12-24-0110-00M.COL___189                                                 6
 STAT SP IPHASW D HRMM SECON CODA AMPLIT PERI AZIMU VELO AIN AR TRES W  DIS CAZ7
 BAR2 SZ EP        119  6.54                             172   -0.0310 20.6 190 
 BAR2 SZ ES   1    119 21.80                             172   -0.06 7 20.6 190 
 BAR2 SZ I         119 23.32        39.3 0.25                          20.6 190 
 GIR2 SZ EP   2    119  6.63                             166   -0.10 5 33.9 352 
 BRR  HZ EP        119  8.38                             152    0.1910 72.2 301 
 BRR  HE ES   1    119 25.18                             152    0.43 7 72.2 301 
 BRR  HZ I         119 27.71        20.4 0.21                          72.2 301 
 PAM  SZ EP   1    119  9.29                             150   -0.05 7 79.7  39 
 PAM  SE ES   1    119 26.38                             150   -0.42 7 79.7  39 
 RUS  HZ EP        119 10.42                             145   -0.1310 97.9 176 
 RUS  HZ I         119 11.66         9.4 0.27                          97.9 176 
 RUS  HN ES   1    119 29.21                             145    0.27 7 97.9 176 
 PTB  HZ EP   2    119 13.33                             132   -0.54 5  147 260 
 PTB  HE ES   1    119 34.64                             132   -0.22 7  147 260 
 OCA  SZ EP   1    119 15.74                             129    0.20 7  163 353 
 OCA  SZ ES   2    119 37.84                             129    0.01 5  163 353 
 OCA  SZ I         119 49.45        12.0 0.43                           163 353 
 ZAR  HE ES   1    119 44.83                             122   -0.04 6  205 293 
 NOR  SZ EP   1    119 22.53                             119    0.02 6  233 235 
 NOR  SE ES   1    119 49.90                             119   -0.33 6  233 235 
 CHI  HZ EP        119 24.62                             117    0.24 8  246 195 
                                                                                
