 2012  724 0421  3.9 L   6.651 -73.219149.3  RSN  4 0.1 1.5LRSN                1
 GAP=195        0.31       7.0     4.4  5.7  0.1148E+02  0.6630E+01  0.2473E+02E
 Epicentro: BARICHARA - SANTANDER                                              3
 ACTION:UPD 12-08-14 11:45 OP:ep   STATUS:               ID:20120724042103 L   I
 2012-07-24-0420-00M.COL___215                                                 6
 STAT SP IPHASW D HRMM SECON CODA AMPLIT PERI AZIMU VELO AIN AR TRES W  DIS CAZ7
 BAR2 SZ EP        421 23.68                             177     0.010    8 148 
 BAR2 SZ ES   3    421 39.14                             177    -0.1 2    8 148 
 BAR2 SZ I         421 45.12         5.5 0.60            162              8 148 
 BRR  HZ EP        421 25.61                             152     0.010   74 313 
 BRR  HE ES   1    421 42.51                             152     0.0 7   74 313 
 BRR  HZ I         421 46.46         9.4 0.12            156             74 313 
 PTB  HZ EP        421 30.23                             135     0.0 9  137 265 
 PTB  HN ES   3    421 50.77                             135     0.0 2  137 265 
 PTB  HZ I         421 58.58         3.0 0.42            135            137 265 
 ZAR  HN ES   3    422  1.44                             123    -0.5 2  204 297 
