 2013  524 0136 51.0 L   6.786 -73.144143.8  RSN  6 0.4 1.8LRSN                1
 GAP=137        1.11       5.9     5.7  8.3 -0.4206E+01  0.3511E+01  0.1140E+02E
 Epicentro: LOS SANTOS - SANTANDER                                             3
 ACTION:UPD 13-06-20 09:53 OP:ep   STATUS:               ID:20130524013651 L   I
 2013-05-24-0128-42M.COL___203                                                 6
 STAT SP IPHASW D HRMM SECON CODA AMPLIT PERI AZIMU VELO AIN AR TRES W  DIS CAZ7
 BAR2 SZ EP        137 10.47                             171    0.0610 21.9 191 
 BAR2 SZ I         137 10.80         8.7 0.10            172           21.9 191 
 GIR2 SZ EP        137 10.50                             166   -0.0310 32.8 350 
 GIR2 SZ ES        137 25.20                             166   -0.5310 32.8 350 
 GIR2 SZ I         137 27.39         7.8 0.14            166           32.8 350 
 BRR  HZ EP        137 12.24                             152    0.2110 72.1 300 
 BRR  HN ES        137 29.37                             152    0.9710 72.1 300 
 BRR  HN I         137 30.10        29.5 0.16            152           72.1 300 
 PAM  SZ EP        137 13.42                             150    0.3010 78.5  39 
 PAM  SZ I         137 13.62        10.8 0.20            151           78.5  39 
 PAM  SN ES        137 29.95                             150   -0.3910 78.5  39 
 RUS  HZ EP        137 14.54                             144    0.0410 99.1 176 
 RUS  HN ES        137 32.95                             144    0.1610 99.1 176 
 PTB  HZ EP        137 17.44                             132   -0.40 9  148 259 
 PTB  HN ES        137 38.23                             132   -0.51 9  148 259 
                                                                                
