 2011  624 0419 25.1 L   6.753 -73.113146.0  RSN 10 0.3 1.9LRSN                1
 GAP=160        0.57       3.1     4.3  4.8 -0.6547E+01  0.3313E+01  0.1928E+01E
 Epicentro: LOS SANTOS - SANTANDER                                             3
 ACTION:UP  11-07-14 19:07 OP:ep   STATUS:               ID:20110624041925 L   I
 2011-06-24-0417-09S.COL___140                                                 6
 STAT SP IPHASW D HRMM SECON CODA AMPLIT PERI AZIMU VELO SNR AR TRES W  DIS CAZ7
 BAR2 SZ EP   1    419 44.54                             172    -0.1 7   19 203 
 BAR2 SZ ES   2    419 59.78                             172    -0.1 5   19 203 
 BAR2 SZ I         420  2.95        18.4 0.33                            19 203 
 BTL  SZ EP   1    419 45.13                             170     0.4 7   25 317 
 GIR2 SZ EP   1    419 44.78                             165    -0.1 7   37 346 
 GIR2 SZ ES   2    419 59.80                             165    -0.6 5   37 346 
 BRR  HZ IP     C  419 46.57                             151     0.010   77 301 
 BRR  HZ I         419 46.93        33.8 0.06                            77 301 
 BRR  HN ES   1    420  3.75                             151     0.4 7   77 301 
 RUS  HZ EP   1    419 48.37                             145    -0.1 7   95 178 
 RUS  HN ES   2    420  7.20                             145     0.5 5   95 178 
 RUS  HZ I         420  7.71         8.8 0.21                            95 178 
 BRI  SZ EP   2    419 49.54                             141     0.3 5  112  18 
 BRI  SZ ES   1    420  8.11                             141     0.0 7  112  18 
 GRA  SZ EP   1    419 50.64                             136     0.0 7  130  15 
 GRA  SZ ES   1    420 10.40                             136    -0.2 7  130  15 
 GRA  SZ I         420 11.75         7.4 0.54                           130  15 
 OCA  SZ EP   1    419 54.20                             129     0.3 7  166 352 
 OCA  SZ ES   2    420 16.09                             129    -0.3 5  166 352 
 OCA  SZ I         420 25.55        10.3 0.14                           166 352 
 NOR  SZ EP   1    420  0.29                             119    -0.5 6  235 236 
 NOR  SN ES   1    420 28.54                             119    -0.1 6  235 236 
 HEL  HZ EP   1    420  5.47                             115    -0.1 6  274 257 
 HEL  HN ES   2    420 37.12                             115     0.0 4  274 257 
 HEL  HZ I         420 43.92         3.3 0.18                           274 257 
                                                                                
