 2014 1024 0450 44.1 L   6.830 -73.171145.4  RSN  7 0.4 1.7LRSN                1
 GAP=132        1.07       3.4     5.2  7.9 -0.2853E+01  0.6452E+01  0.2217E+00E
 Epicentro: ZAPATOCA - SANTANDER                                               3
 ACTION:UPD 14-11-29 23:56 OP:nd   STATUS:               ID:20141024045044 L   I
 OLDACT:UP  14-10-27 16:37 OP:cam  STATUS:               ID:20141024044811     3
 OLDACT:UP  14-10-27 16:36 OP:cam  STATUS:               ID:20141024044811     3
 OLDACT:ARG 14-10-27 14:42 OP:cam  STATUS:               ID:20141024044811     3
 2014-10-24-0448-11M.COL___286                                                 6
 STAT SP IPHASW D HRMM SECON CODA AMPLIT PERI AZIMU VELO AIN AR TRES W  DIS CAZ7
 BRR  HZ EP        451  5.37                             154    0.3310 67.2 297 
 BRR  HE ES        451 21.84                             154    0.5110 67.2 297 
 BRR  HZ I         451 26.49         6.5 0.12            152           67.2 297 
 PAM  SZ EP        451  6.73                             151    0.4410 76.8  43 
 PAM  SN ES        451 23.79                             151    0.2310 76.8  43 
 PAM  SZ I         451 25.69         7.9 0.56            154           76.8  43 
 RUS  HZ EP        451  7.55                             143   -0.5710  104 175 
 RUS  HN ES        451 26.29                             143   -0.5310  104 175 
 RUS  HZ I         451 27.43         3.1 0.30            147            104 175 
 PTB  HZ EP        451 11.37                             132    0.47 9  146 257 
 PTB  HN ES        451 31.51                             132   -0.25 9  146 257 
 PTB  HE I         451 34.57         7.2 0.30            134            146 257 
 OCA  HN ES        451 33.42                             130   -0.48 9  157 354 
 OCA  HN I         451 39.02        11.9 0.18            132            157 354 
 SPBC HZ EP        451 12.85                             129    0.15 9  164 217 
 SPBC HN ES        451 35.08                             129    0.11 9  164 217 
 SPBC HZ I         451 38.73         3.4 0.16            132            164 217 
 SML  HZ EP   1    451 20.38                             118    0.08 6  240 336 
 SML  HN ES        451 47.78                             118   -0.73 8  240 336 
 SML  HN I         451 53.33         9.1 0.10            120            240 336 
                                                                                
