 2016  724 0740 40.4 L   6.764 -73.056142.6  RSN  7 0.4 1.4LRSN                1
 GAP=150        0.98       4.4     5.7  6.2 -0.7750E+01  0.1171E+02  0.1223E+01E
 Epicentro: LOS SANTOS - SANTANDER                                             3
 ACTION:UPD 17-03-29 16:54 OP:lp   STATUS:               ID:20160724074040 L   I
 OLDACT:REG 16-07-24 14:08 OP:ar   STATUS:               ID:20160724073759     3
 2016-07-24-0737-59S.COL___331                                                 6
 STAT SP IPHASW D HRMM SECON CODA AMPLIT PERI AZIMU VELO AIN AR TRES W  DIS CAZ7
 BAR2 EZ EP        740 59.77                             170    0.1210 23.6 216 
 BAR2 EZ ES        741 14.53                             170   -0.1410 23.6 216 
 PAM  EZ EP        741  2.69                             151    0.5710 74.8  32 
 PAM  EN ES        741 18.54                             151   -0.5310 74.8  32 
 PAM  EZ I         741 22.93         2.2 0.40            155           74.8  32 
 BRR  HZ IP     C  741  1.54                             148   -0.3110 81.9 298 
 BRR  HN ES        741 18.96                             148    0.3710 81.9 298 
 BRR  HZ I         741 22.67         4.3 0.16            150           81.9 298 
 RUS  HZ EP        741  3.81                             144    0.2710 96.4 182 
 RUS  HN ES        741 21.80                             144    0.2110 96.4 182 
 RUS  HZ I         741 23.75         3.0 0.20            147           96.4 182 
 SPBC HZ EP        741  8.83                             128   -0.16 9  167 223 
 SPBC HN ES        741 30.82                             128   -0.47 9  167 223 
 SPBC HZ I         741 36.78         5.6 0.10            130            167 223 
 ZAR  HZ EP        741 13.86                             120    0.10 8  215 292 
 ZAR  HN ES   4    741 37.91                             120   -1.87 0  215 292 
 ZAR  HZ I         741 39.99         3.1 0.26            123            215 292 
 GUY2CHZ EP        741 23.72                             111   -0.81 7  307 236 
 GUY2CHN ES        741 59.55                             111    0.59 7  307 236 
 GUY2CHZ I         742  5.67         1.7 0.54                           307 236 
                                                                                
