 2017  824 0430  7.8 L   6.801 -73.069149.7  RSN 13 0.5 1.8LRSN                1
 GAP=170        0.86       4.2     4.3  5.3  0.4761E+01  0.2350E+01  0.5012E+01E
 Epicentro: LOS SANTOS - SANTANDER                                             3
 ACTION:UPD 17-09-04 20:23 OP:rebc STATUS:               ID:20170824043007 L   I
 OLDACT:UP  17-08-24 15:17 OP:and  STATUS:               ID:20170824042743d    3
 OLDACT:UP  17-08-24 15:17 OP:and  STATUS:               ID:20170824042743d    3
 OLDACT:UP  17-08-24 15:14 OP:and  STATUS:               ID:20170824042743d    3
 OLDACT:DUP 17-08-24 15:13 OP:and  STATUS:               ID:20170824042743d    3
 OLDACT:UP  17-08-24 15:10 OP:and  STATUS:               ID:20170824042740     3
 OLDACT:UP  17-08-24 15:09 OP:and  STATUS:               ID:20170824042740     3
 OLDACT:UP  17-08-24 15:08 OP:and  STATUS:               ID:20170824042740     3
 OLDACT:REG 17-08-24 12:50 OP:and  STATUS:               ID:20170824042740     3
 2017-08-24-0428-00M.COL___419                                                 6
 STAT SP IPHASW D HRMM SECON CODA AMPLIT PERI AZIMU VELO AIN AR TRES W  DIS CAZ7
 BAR2 EZ EP        430 27.83                             170   -0.1610 26.2 208 
 BAR2 EZ ES        430 43.54                             170   -0.1710 26.2 208 
 BAR2 EZ I         430 44.89        10.1 0.46            160           26.2 208 
 BRR  HZ EP        430 29.72                             151   -0.1110 78.7 296 
 BRR  HN ES        430 47.59                             151    0.6010 78.7 296 
 RUS  HZ EP        430 32.35                             145    0.4010  100 181 
 RUS  HN ES        430 50.60                             145   -0.1710  100 181 
 RUS  HZ I         430 51.65         8.4 0.28            140            100 181 
 TAM  HZ EP   2    430 36.10                             133    1.02 5  147 106 
 SPBC HZ EP        430 37.16                             129    0.02 9  169 221 
 SPBC HN ES        431  0.05                             129    0.04 9  169 221 
 SPBC HZ I         431  6.16         8.6 0.20            125            169 221 
 ZAR  HE ES        431  6.65                             122   -0.81 8  212 291 
 ZAR  HZ I         431 12.22         7.1 0.19            120            212 291 
 NOR  HZ EP        430 44.64                             119    0.11 8  242 236 
 NOR  HN ES        431 13.02                             119   -0.13 8  242 236 
 NOR  HZ I         431 19.36         4.9 0.18            116            242 236 
 CHI  HZ EP   2    430 45.73                             118   -0.27 4  251 197 
 CHI  HN ES   2    431 16.34                             118    0.56 4  251 197 
 CHI  HZ I         431 24.84         2.4 0.58            116            251 197 
 ROSC BZ EP   3    430 48.56                             117    1.91 2  257 213 
 ROSC BN ES   4    431 19.57                             117    2.64 0  257 213 
 ROSC BZ I         431 21.45         5.5 0.45            115            257 213 
 HEL  HZ EP   2    430 49.50                             115    0.35 4  280 256 
 HEL  HN ES   2    431 21.27                             115   -0.11 4  280 256 
 HEL  HZ I         431 27.01         2.5 0.28            113            280 256 
 PTGC HZ EP        430 50.81                             113   -0.72 7  306 160 
 PTGC HN ES   3    431 23.64                             113   -1.98 2  306 160 
 PTGC HZ I         431 23.98         5.5 0.36            112            306 160 
 GUY2CHZ EP   2    430 53.61                             113    1.21 4  308 236 
 GUY2CHN ES   4    431 30.58                             113    3.41 0  308 236 
 GUY2CHZ I         431 36.80         2.2 0.30                           308 236 
 PRA  HZ EP   2    431  2.15                             107    0.16 3  396 211 
 PRA  HE ES   2    431 44.61                             107    0.38 3  396 211 
 PRA  HZ I         431 48.90         2.9 0.46            106            396 211 
                                                                                
