 2016 1224 0256 53.7 L   6.797 -73.178140.0  RSN 16 0.6 2.4LRSN                1
 GAP=101        1.19       4.1     3.4  6.3 -0.2951E+00  0.5172E+01  0.7754E+01E
 Epicentro: LOS SANTOS - SANTANDER                                             3
 ACTION:UPD 17-01-11 20:18 OP:rebc STATUS:               ID:20161224025653 L   I
 OLDACT:UP  16-12-24 14:47 OP:cog  STATUS:               ID:20161224024749     3
 OLDACT:UP  16-12-24 14:46 OP:cog  STATUS:               ID:20161224024749     3
 OLDACT:REG 16-12-24 13:00 OP:cog  STATUS:               ID:20161224024749     3
 2016-12-24-0248-00M.COL___390                                                 6
 STAT SP IPHASW D HRMM SECON CODA AMPLIT PERI AZIMU VELO AIN AR TRES W  DIS CAZ7
 BAR2 EZ EP        257 12.56                             170   -0.0710 22.7 181 
 BAR2 EZ ES        257 27.27                             170   -0.1210 22.7 181 
 BAR2 EZ I         257 30.26        80.7 0.44            166           22.7 181 
 BRR  HZ EP        257 14.35                             152    0.2910 68.3 300 
 BRR  HN ES        257 31.20                             152    1.2510 68.3 300 
 BRR  HZ I         257 31.92        79.2 0.32            154           68.3 300 
 PAM  EZ EP        257 15.30                             149   -0.1710 79.9  41 
 PAM  EN ES        257 32.37                             149   -0.0710 79.9  41 
 PAM  EZ I         257 33.82        39.2 0.14            155           79.9  41 
 RUS  HZ EP        257 16.69                             143   -0.2010  101 174 
 RUS  HN ES        257 35.23                             143    0.2510  101 174 
 RUS  HZ I         257 37.20        40.5 0.34            141            101 174 
 PTB  HZ EP        257 19.25                             131   -0.63 9  144 259 
 PTB  HE ES        257 39.37                             131   -0.93 9  144 259 
 PTB  HZ I         257 41.85        35.9 0.34            131            144 259 
 TAM  HZ EP        257 20.88                             129   -0.37 9  158 105 
 TAM  HN ES        257 42.73                             129   -0.00 9  158 105 
 TAM  HZ I         257 44.26        21.3 0.32            131            158 105 
 ZAR  HZ EP        257 25.32                             121   -0.13 9  201 293 
 ZAR  HN ES        257 49.98                             121   -0.23 9  201 293 
 NOR  HZ EP        257 28.64                             118   -0.13 8  232 234 
 NOR  HN ES        257 55.63                             118   -0.50 8  232 234 
 NOR  HZ I         257 58.72        18.7 0.20            118            232 234 
 CHI  HZ EP        257 31.01                             116    0.05 8  247 194 
 CHI  HN ES   2    257 58.41                             116   -1.60 4  247 194 
 CHI  HZ I         258  3.59        11.4 0.26            116            247 194 
 ROSC BZ EP   2    257 32.70                             116    1.41 4  251 210 
 ROSC BE ES   3    258  2.46                             116    1.86 2  251 210 
 ROSC BZ I         258  9.45        28.0 0.35            116            251 210 
 GUY2CHZ EP   4    257 39.38                             111    2.68 0  298 234 
 GUY2CHN ES        258 10.48                             111    0.24 7  298 234 
 GUY2CHZ I         258 21.72        15.5 0.54                           298 234 
 VIL  EZ EP   3    257 36.98                             111    0.23 2  302 191 
 VIL  EN ES        258 10.57                             111    0.25 7  302 191 
 VIL  EZ I         258 14.87        18.9 0.32            111            302 191 
 PTGC HZ EP   4    257 36.01                             110   -1.41 0  310 158 
 PTGC HN ES   4    258  9.05                             110   -2.47 0  310 158 
 PTGC HZ I         258 14.27         6.6 0.42            111            310 158 
 ELA  HZ EP   4    257 42.99                             109    3.01 0  326 229 
 ELA  HE ES   4    258 17.98                             109    1.90 0  326 229 
 ELA  HZ I         258 26.10        11.7 0.34            110            326 229 
 CBOC HZ EP        257 40.55                             109    0.56 7  330 252 
 CBOC HE ES   4    258 14.13                             109   -1.96 0  330 252 
 CBOC HZ I         258 25.29         4.6 0.24            110            330 252 
 ORTC HZ EP        257 48.29                             105    1.13 6  393 216 
 ORTC HN ES        258 29.55                             105    0.70 6  393 216 
 ORTC HZ I         258 35.25        11.2 0.40            106            393 216 
                                                                                
