 2012 1124 0423 19.8 L   6.852 -73.141145.0  RSN  9 0.4 1.6LRSN                1
 GAP=134        0.73       3.1     4.2  5.7 -0.1889E+01  0.8612E+01 -0.2215E+01E
 Epicentro: LOS SANTOS - SANTANDER                                             3
 ACTION:UPD 12-12-05 15:35 OP:}ep  STATUS:               ID:20121124042319 L   I
 2012-11-24-0420-00M.COL___233                                                 6
 STAT SP IPHASW D HRMM SECON CODA AMPLIT PERI AZIMU VELO AIN AR TRES W  DIS CAZ7
 GIR2 SZ EP   1    423 39.29                             169    0.09 7 25.7 347 
 GIR2 SZ ES   1    423 54.35                             169   -0.02 7 25.7 347 
 GIR2 SZ I         423 56.35         6.5 0.18                          25.7 347 
 BAR2 SZ EP   1    423 39.50                             168    0.07 7 29.1 189 
 BAR2 SZ ES   1    423 54.80                             168    0.03 7 29.1 189 
 PAM  SZ EP   1    423 42.01                             152    0.39 7 72.7  42 
 PAM  SN ES   1    423 59.11                             152    0.44 7 72.7  42 
 PAM  SZ I         424  0.98         6.6 0.54                          72.7  42 
 RUS  HZ EP   1    423 43.90                             142    0.04 7  106 177 
 RUS  HN ES   1    424  2.02                             142   -0.64 7  106 177 
 RUS  HZ I         424  4.27         4.5 0.32                           106 177 
 PTB  HZ EP   1    423 46.47                             131   -0.36 7  149 257 
 PTB  HN ES   1    424  7.46                             131   -0.47 7  149 257 
 PTB  HZ I         424  9.11         6.0 0.15                           149 257 
 OCA  HZ EP   1    423 47.32                             130   -0.16 7  155 353 
 OCA  HN ES   1    424  9.03                             130   -0.07 7  155 353 
 OCA  HZ I         424 12.66         4.6 0.36                           155 353 
 ZAR  HE ES   1    424 17.72                             122    0.59 6  202 291 
 SML  HZ EP   1    423 55.27                             118   -0.53 6  239 335 
 NOR  HZ EP   1    423 56.34                             118    0.48 6  239 233 
 SML  HE ES   1    424 23.43                             118   -0.48 6  239 335 
 NOR  HN ES   1    424 24.65                             118    0.64 6  239 233 
 NOR  HZ I         424 28.95         3.0 0.22                           239 233 
                                                                                
