 2012  824 0007 31.5 L   6.774 -73.168151.3  RSN  6 0.4 1.8LRSN                1
 GAP=233        0.77       6.6     6.5  7.1  0.2468E+02  0.6605E+00 -0.4645E+01E
 Epicentro: LOS SANTOS - SANTANDER                                             3
 ACTION:UPD 12-09-10 11:58 OP:ep   STATUS:               ID:20120824000731 L   I
 2012-08-24-0000-00M.COL___218                                                 6
 STAT SP IPHASW D HRMM SECON CODA AMPLIT PERI AZIMU VELO AIN AR TRES W  DIS CAZ7
 BAR2 SZ EP   1    0 7 51.61                             172   -0.17 7 20.1 185 
 BAR2 SZ ES   2    0 8  7.02                             172   -0.54 5 20.1 185 
 BAR2 SZ I         0 8  8.13        25.5 0.34                          20.1 185 
 BRR  HZ EP   1    0 7 53.48                             154    0.23 7 70.5 302 
 BRR  HN ES   1    0 8 10.66                             154    0.47 7 70.5 302 
 BRR  HZ I         0 8 13.13        18.2 0.15                          70.5 302 
 RUS  HZ EP   1    0 7 55.70                             146    0.05 7 97.9 175 
 RUS  HE ES        0 8 14.48                             146    0.0210 97.9 175 
 RUS  HZ I         0 8 15.46         8.0 0.26                          97.9 175 
 PTB  HZ EP   1    0 7 57.90                             134   -0.80 7  145 260 
 PTB  HN ES        0 8 19.81                             134   -0.08 9  145 260 
 PTB  HZ I         0 8 21.64         4.3 0.11                           145 260 
 ZAR  HZ EP   1    0 8  3.93                             124   -0.30 6  203 293 
 ZAR  HN ES   2    0 8 30.39                             124    0.65 4  203 293 
 ZAR  HZ I         0 8 35.94         5.2 0.12                           203 293 
 CHI  HZ EP   1    0 8  9.90                             119    0.72 6  245 195 
                                                                                
