 2011 1224 0309 22.9 L   6.737 -73.151142.5  RSN  8 0.4 2.2LRSN                1
 GAP=139        0.80       4.3     5.0  6.4 -0.4650E+01  0.7055E+01 -0.1556E+01E
 Epicentro: JORDAN - SANTANDER                                                 3
 ACTION:UPD 12-07-13 16:18 OP:ep   STATUS:               ID:20111224030922 L   I
 2011-12-24-0304-36S.COL___156                                                 6
 STAT SP IPHASW D HRMM SECON CODA AMPLIT PERI AZIMU VELO AIN AR TRES W  DIS CAZ7
 BAR2 SZ EP        3 9 41.85                             173   -0.1210 16.4 192 
 BAR2 SZ ES   1    3 9 56.80                             173   -0.08 7 16.4 192 
 BAR2 SZ I         3 9 58.97        34.8 0.35                          16.4 192 
 GIR2 SZ EP   1    3 9 42.06                             164   -0.28 7 38.0 353 
 BRR  HZ EP        3 9 43.74                             151   -0.0910 74.3 303 
 BRR  HE ES   1    310  0.23                             151    0.04 7 74.3 303 
 BRR  HZ I         310  4.56        38.6 0.25                          74.3 303 
 PAM  SN ES   1    310  2.16                             148   -0.26 7 83.2  37 
 RUS  HZ EP        3 9 45.75                             145   -0.0410 93.7 175 
 RUS  HN ES   1    310  4.15                             145    0.46 7 93.7 175 
 RUS  HZ I         310  6.26        17.1 0.32                          93.7 175 
 PTB  HZ EP   1    3 9 48.62                             132   -0.78 7  146 261 
 PTB  HN ES   1    310 10.05                             132   -0.05 7  146 261 
 OCA  SZ EP        3 9 52.32                             127    0.76 9  167 354 
 OCA  SZ I         310 18.45        16.1 0.37                           167 354 
 NOR  SZ EP   1    3 9 57.69                             118   -0.23 6  230 236 
 NOR  SE ES   1    310 25.75                             118    0.48 6  230 236 
                                                                                
