 2010 1024 0653 56.6 L   6.798 -73.073141.3  RSN 10 0.3 1.8LRSN                1
 GAP=167        0.60       2.8     5.1  5.4 -0.4762E+01  0.1529E+01  0.2958E+01E
 Epicentro: LOS SANTOS - SANTANDER                                             3
 ACTION:UP  11-02-18 11:11 OP:tino STATUS:               ID:20101024065356 L   I
 2010-10-24-0652-09S.COL___125                                                 6
 STAT SP IPHASW D HRMM SECON CODA AMPLIT PERI AZIMU VELO SNR AR TRES W  DIS CAZ7
 BAR2 SZ EP   1    654 15.59                             169    -0.1 7   26 208 
 BAR2 SZ I         654 33.13         9.4 0.33                            26 208 
 BRR  HZ IP     C  654 17.39                             149    -0.310   78 296 
 BRR  HZ I         654 17.78        19.6 0.11                            78 296 
 BRR  HN ES   1    654 34.26                             149     0.1 7   78 296 
 RUS  HZ EP   1    654 19.86                             143     0.0 7  100 181 
 RUS  HN ES   1    654 38.32                             143     0.3 7  100 181 
 RUS  HZ I         654 39.45         3.6 0.16                           100 181 
 GRA  SZ EP        654 21.40                             137     0.210  124  14 
 GRA  SZ ES   1    654 40.40                             137    -0.1 7  124  14 
 GRA  SZ I         654 43.85        11.5 0.34                           124  14 
 OCA  SZ EP   1    654 24.50                             128    -0.1 7  162 350 
 OCA  SZ I         654 51.79        10.4 0.61                           162 350 
 NOR  SZ EP   2    654 32.86                             117     0.1 4  241 236 
 NOR  SN ES   2    655  0.63                             117    -0.3 4  241 236 
 CHI  HZ EP        654 34.05                             116    -0.2 8  251 197 
 CHI  HZ I         654 36.52         2.2 0.15                           251 197 
 CHI  HE ES   2    655  2.91                             116    -0.7 4  251 197 
 HEL  HZ EP   2    654 37.91                             113     0.5 4  280 256 
 HEL  HZ I         655 14.85         3.8 0.21                           280 256 
 RREF HZ EP   1    654 43.91                             110     0.7 5  328 230 
 RREF HN ES   2    655 19.55                             110     0.0 3  328 230 
 RREF HZ I         655 25.26         3.1 0.37                           328 230 
 PRA  HZ EP   1    654 50.58                             106     0.2 4  396 211 
                                                                                
