 2017  424 0225  9.8 L   6.749 -73.211154.6  RSN  4 0.3 1.6LRSN                1
 GAP=273        0.64       6.4     6.5  7.9  0.3257E+01 -0.1000E+02  0.2376E+02E
 Epicentro: VILLANUEVA - SANTANDER                                             3
 ACTION:UPD 17-05-30 21:15 OP:jn   STATUS:               ID:20170424022510 L   I
 OLDACT:UP  17-05-11 15:28 OP:nlst STATUS:               ID:20170424022510 L   3
 OLDACT:UP  17-04-24 13:40 OP:dani STATUS:               ID:20170424021740d    3
 OLDACT:DUP 17-04-24 13:37 OP:dani STATUS:               ID:20170424021740d    3
 OLDACT:UP  17-04-24 13:36 OP:dani STATUS:               ID:20170424021739     3
 OLDACT:REG 17-04-24 12:16 OP:dani STATUS:               ID:20170424021739     3
 2017-04-24-0218-00M.COL___365                                                 6
 STAT SP IPHASW D HRMM SECON CODA AMPLIT PERI AZIMU VELO AIN AR TRES W  DIS CAZ7
 BRR  HZ EP        225 31.64                             155   -0.1410 68.1 306 
 BRR  HN ES        225 48.98                             155    0.0810 68.1 306 
 BRR  HZ I         225 51.36         5.9 0.25            157           68.1 306 
 PTB  HZ EP        225 36.47                             136   -0.36 9  140 261 
 PTB  HN ES        225 57.76                             136   -0.13 9  140 261 
 PTB  HZ I         226  4.89         4.8 0.24            136            140 261 
 SPBC HZ EP        225 38.66                             133    0.45 9  154 218 
 SPBC HN ES   3    226  0.00                             133   -0.35 2  154 218 
 ZAR  HE ES        226  8.03                             125    0.18 9  200 294 
                                                                                
