 2017  524 0109 10.5 L   6.796 -73.108145.8  RSN  5 0.3 1.7LRSN                1
 GAP=116        0.82       3.8     4.9  6.7  0.5623E+01  0.3190E+01  0.6822E+01E
 Epicentro: LOS SANTOS - SANTANDER                                             3
 ACTION:UPD 17-06-16 13:38 OP:jn   STATUS:               ID:20170524010910 L   I
 OLDACT:UP  17-06-02 13:53 OP:nlst STATUS:               ID:20170524010910 L   3
 OLDACT:REG 17-05-24 12:55 OP:ar   STATUS:               ID:20170524010601     3
 2017-05-24-0108-00M.COL___347                                                 6
 STAT SP IPHASW D HRMM SECON CODA AMPLIT PERI AZIMU VELO AIN AR TRES W  DIS CAZ7
 BRR  HZ EP        1 9 31.54                             151   -0.3610 75.1 297 
 PAM  EZ EP        1 9 32.62                             152    0.0210 75.1  37 
 PAM  EE ES        1 9 49.76                             152   -0.0710 75.1  37 
 PAM  EZ I         1 9 51.65        13.6 0.62            152           75.1  37 
 BRR  HN ES        1 9 48.80                             151    0.2310 75.1 297 
 BRR  HZ I         1 9 50.27         9.6 0.12            153           75.1 297 
 RUS  HZ EP        1 9 34.33                             144    0.1010100.0 178 
 RUS  HN ES        1 9 52.32                             144   -0.4010100.0 178 
 RUS  HZ I         1 9 53.27         6.0 0.28            145          100.0 178 
 PTB  HZ EP        1 9 38.28                             131    0.42 9  152 259 
 PTB  HN ES   3    1 9 58.38                             131   -0.80 2  152 259 
 PTB  HZ I         1 9 59.21         4.5 0.36            133            152 259 
 YPLC HZ EP        1 9 39.71                             127   -0.37 9  174 152 
 YPLC HN ES        110  3.71                             127    0.57 9  174 152 
 YPLC HZ I         110  4.60         6.7 0.30            128            174 152 
                                                                                
