 2014  924 0353 49.3 L   6.734 -73.177142.7  RSN  5 0.5 1.3LRSN                1
 GAP=229        1.19       9.3     9.1  9.8  0.5539E+02  0.2275E+02  0.7638E+01E
 Epicentro: VILLANUEVA - SANTANDER                                             3
 ACTION:UPD 14-10-03 23:08 OP:nd   STATUS:               ID:20140924035349 L   I
 OLDACT:UP  14-09-24 14:58 OP:cam  STATUS:               ID:20140924035000     3
 OLDACT:REG 14-09-24 12:58 OP:cam  STATUS:               ID:20140924035000     3
 2014-09-24-0350-00M.COL___252                                                 6
 STAT SP IPHASW D HRMM SECON CODA AMPLIT PERI AZIMU VELO AIN AR TRES W  DIS CAZ7
 BAR2 SZ ES        354 22.66                             173   -0.7410 15.7 182 
 BRR  HZ EP        354 10.27                             152    0.0510 72.1 305 
 BRR  HN ES        354 26.98                             152    0.4910 72.1 305 
 BRR  HZ I         354 32.03         6.3 0.34            153           72.1 305 
 RUS  HZ EP        354 12.75                             145    0.4510 93.7 174 
 RUS  HN ES        354 30.50                             145    0.2910 93.7 174 
 RUS  HZ I         354 32.84         1.4 0.18            149           93.7 174 
 PTB  HZ EP        354 14.86                             132   -0.78 9  143 261 
 PTB  HN ES        354 36.20                             132    0.05 9  143 261 
 PTB  HZ I         354 38.14         1.3 0.12            136            143 261 
 ZAR  HE ES        354 46.84                             122    0.15 9  204 294 
 ZAR  HE I         354 47.10         5.4 0.42            125            204 294 
                                                                                
