 2017  224 0820 47.8 L   6.751 -73.188149.3  RSN  5 0.2 1.1LRSN                1
 GAP=133        0.53       3.5     3.2  4.1  0.2472E+01 -0.1071E+01 -0.2287E+01E
 Epicentro: VILLANUEVA - SANTANDER                                             3
 ACTION:UPD 17-05-24 15:40 OP:jn   STATUS:               ID:20170224082047 L   I
 OLDACT:REG 17-02-24 12:54 OP:edw  STATUS:               ID:20170224081741     3
 2017-02-24-0818-00M.COL___379                                                 6
 STAT SP IPHASW D HRMM SECON CODA AMPLIT PERI AZIMU VELO AIN AR TRES W  DIS CAZ7
 BAR2 EZ EP        821  7.72                             173    0.0010 17.6 178 
 BAR2 EZ ES        821 23.31                             173    0.0310 17.6 178 
 BAR2 EZ I         821 23.89         1.7 0.40            174           17.6 178 
 BRR  HZ EP        821  9.42                             153    0.1910 70.0 304 
 BRR  HN ES        821 26.13                             153    0.1610 70.0 304 
 BRR  HZ I         821 29.02         3.9 0.22            154           70.0 304 
 PAM  EZ EP     D  821 10.46                             149   -0.3210 84.5  40 
 RUS  HZ EP        821 11.77                             146    0.2510 95.7 173 
 RUS  HN ES        821 29.94                             146   -0.1110 95.7 173 
 RUS  HZ I         821 31.42         1.8 0.32            148           95.7 173 
 PTB  HZ EP        821 14.54                             134    0.01 9  142 261 
 PTB  HN ES        821 35.15                             134   -0.25 9  142 261 
                                                                                
