 2015  724 0744 55.7 L   6.828 -73.165138.2  RSN  8 0.4 2.0LRSN                1
 GAP=133        0.99       3.3     4.6  7.1 -0.1577E+00  0.1701E+02 -0.5356E+01E
 Epicentro: LOS SANTOS - SANTANDER                                             3
 ACTION:UPD 15-09-08 21:50 OP:cam  STATUS:               ID:20150724074455 L   I
 OLDACT:REG 15-07-24 12:45 OP:stll STATUS:               ID:20150724073747     3
 2015-07-24-0737-47M.COL___337                                                 6
 STAT SP IPHASW D HRMM SECON CODA AMPLIT PERI AZIMU VELO AIN AR TRES W  DIS CAZ7
 BAR2 EZ EP        745 14.50                             169    0.0710 26.1 184 
 BAR2 EZ ES        745 28.71                             169   -0.3710 26.1 184 
 BAR2 EZ I         745 30.24        13.4 0.46            170           26.1 184 
 PAM  EZ EP        745 17.40                             150    0.3910 76.5  42 
 PAM  EN ES        745 34.24                             150    0.5710 76.5  42 
 PAM  EZ I         745 36.55        26.3 0.60            153           76.5  42 
 RUS  HZ EP        745 18.52                             141   -0.3910  104 175 
 RUS  HE ES        745 36.90                             141   -0.1510  104 175 
 RUS  HZ I         745 37.90         7.8 0.38            146            104 175 
 OCA  HZ EP        745 22.82                             128   -0.25 9  157 354 
 OCA  HN ES        745 44.29                             128   -0.16 9  157 354 
 OCA  HZ I         745 48.09        26.5 0.36            130            157 354 
 ZAR  HZ EP        745 27.91                             121    0.63 9  201 292 
 ZAR  HN ES        745 52.49                             121    0.54 9  201 292 
 ZAR  HZ I         745 58.40        14.3 0.32            122            201 292 
 SML  HZ EP        745 30.97                             116   -0.49 8  240 335 
 SML  HE ES        745 58.85                             116   -0.54 8  240 335 
 SML  HZ I         746  7.75        10.6 0.24            118            240 335 
 HEL  HZ EP        745 35.87                             113    0.53 8  271 255 
 HEL  HE ES        746  6.17                             113   -0.12 8  271 255 
 HEL  HZ I         746 13.55         3.4 0.46            115            271 255 
 MON  HE ES        746 21.11                             107   -0.51 6  350 308 
                                                                                
