 2017  124 0604 56.9 L   6.781 -73.179142.8  RSN  7 0.4 1.6LRSN                1
 GAP=133        1.03       4.1     4.5  6.9  0.1694E+01  0.5886E+01  0.6912E+01E
 Epicentro: LOS SANTOS - SANTANDER                                             3
 ACTION:UPD 17-05-22 16:02 OP:jn   STATUS:               ID:20170124060456 L   I
 OLDACT:REG 17-01-24 13:13 OP:lv   STATUS:               ID:20170124055745     3
 2017-01-24-0558-00M.COL___342                                                 6
 STAT SP IPHASW D HRMM SECON CODA AMPLIT PERI AZIMU VELO AIN AR TRES W  DIS CAZ7
 BAR2 EZ EP        6 5 16.08                             171   -0.1010 20.9 181 
 BAR2 EZ ES        6 5 30.74                             171   -0.4410 20.9 181 
 BAR2 EZ I         6 5 33.84        14.3 0.32            170           20.9 181 
 BRR  HZ EP        6 5 18.02                             153    0.3610 69.1 301 
 BRR  HE ES        6 5 34.53                             153    0.7210 69.1 301 
 BRR  HZ I         6 5 37.82         7.5 0.36            152           69.1 301 
 PAM  EZ EP        6 5 18.96                             149   -0.1310 81.3  41 
 PAM  EE ES        6 5 36.24                             149   -0.1310 81.3  41 
 PAM  EZ I         6 5 38.20         7.9 0.46            153           81.3  41 
 RUS  HZ EP        6 5 20.25                             144   -0.0310 98.8 174 
 RUS  HN ES        6 5 38.73                             144    0.2510 98.8 174 
 RUS  HZ I         6 5 40.03         6.6 0.23            145           98.8 174 
 PTB  HZ EP        6 5 22.81                             132   -0.50 9  144 259 
 PTB  HN ES        6 5 43.11                             132   -0.77 9  144 259 
 PTB  HZ I         6 5 46.38         4.0 0.12            132            144 259 
 ZAR  HE ES        6 5 54.21                             122    0.33 9  201 293 
 ZAR  HZ I         6 5 59.75         3.3 0.19            123            201 293 
 CHI  HZ EP        6 5 34.34                             117    0.18 8  246 194 
 CHI  HN ES        6 6  3.61                             117    0.42 8  246 194 
 CHI  HZ I         6 6  9.79         2.3 0.38            118            246 194 
 ROSC BZ EP   4    6 5 36.64                             116    2.13 0  249 211 
 PTGC HZ EP   4    6 5 39.19                             111   -1.42 0  308 158 
 PTGC HN ES   4    6 6 13.29                             111   -1.37 0  308 158 
 LL6C HZ EP   4    6 5 22.67                             110   -20.1 0  327 358 
 LL6C HE ES   4    6 5 58.42                             110   -20.1 0  327 358 
 SJC  HZ EP   4    6 5 50.48                             105   -1.90 0  409 328 
 SJC  HN ES   4    6 6 30.51                             105   -5.12 0  409 328 
                                                                                
