 2014  624 0121 28.3 L   6.729 -73.207138.0  RSN  8 0.4 1.5LRSN                1
 GAP=223        1.01       5.3     5.1  7.3 -0.1433E+00  0.1323E+02  0.8366E+01E
 Epicentro: VILLANUEVA - SANTANDER                                             3
 ACTION:UPD 14-07-01 22:56 OP:nd   STATUS:               ID:20140624012128 L   I
 OLDACT:REG 14-06-24 12:29 OP:spq  STATUS:               ID:20140624011813     3
 2014-06-24-0118-13M.COL___262                                                 6
 STAT SP IPHASW D HRMM SECON CODA AMPLIT PERI AZIMU VELO AIN AR TRES W  DIS CAZ7
 BAR2 SZ IP     C  121 46.56                             173   -0.2910 15.4 170 
 BAR2 SZ ES        122  1.17                             173   -0.1610 15.4 170 
 BAR2 SZ I         122  4.11         6.1 0.20            170           15.4 170 
 BRR  HZ IP     D  121 48.46                             152   -0.0710 69.8 307 
 BRR  HN ES        122  5.04                             152    0.7310 69.8 307 
 BRR  HZ I         122  9.95         4.4 0.14            150           69.8 307 
 RUS  HZ EP        121 50.78                             144    0.0110 93.5 172 
 RUS  HE ES        122  8.57                             144    0.2610 93.5 172 
 RUS  HZ I         122 10.15         3.8 0.28            146           93.5 172 
 PTB  HZ EP        121 53.57                             132   -0.34 9  140 261 
 PTB  HN ES        122 13.19                             132   -0.69 9  140 261 
 PTB  HZ I         122 18.97         4.4 0.10            131            140 261 
 SPBC HN ES   1    122 15.56                             129   -0.66 7  153 219 
 SPBC HZ I         122 20.02         6.1 0.34            130            153 219 
 NOR  HZ EP        122  2.99                             118    0.49 8  225 235 
 NOR  HE ES        122 29.40                             118    0.22 8  225 235 
 NOR  HZ I         122 35.07         4.0 0.12            119            225 235 
 GUY2CHZ EP   4    122 12.50                             112    2.08 0  291 235 
 GUY2CHE ES        122 43.42                             112    0.15 7  291 235 
 GUY2CHZ I         122 51.56         1.7 0.36                           291 235 
 RREF HZ EP   4    122 14.99                             110    2.05 0  312 230 
 RREF HN ES   1    122 48.43                             110    0.67 5  312 230 
 RREF HZ I         122 58.59         2.6 0.40            112            312 230 
                                                                                
