 2016  624 0025 11.7 L   6.967 -73.489107.2  RSN  5 0.4 1.2LRSN                1
 GAP=199        0.91       6.0     5.1  7.5  0.1901E+02  0.1369E+02  0.7507E+01E
 Epicentro: SAN VICENTE DE CHUCURI - SANTANDER                                 3
 ACTION:UPD 16-07-21 22:22 OP:rebc STATUS:               ID:20160624002511 L   I
 OLDACT:REG 16-06-24 12:42 OP:ak   STATUS:               ID:20160624001749     3
 2016-06-24-0017-49M.COL___331                                                 6
 STAT SP IPHASW D HRMM SECON CODA AMPLIT PERI AZIMU VELO AIN AR TRES W  DIS CAZ7
 BRR  HZ IP     C  025 26.20                             164   -0.3610 29.1 302 
 BRR  HN ES        025 38.41                             164    0.2710 29.1 302 
 BRR  HZ I         025 39.08        11.9 0.14                          29.1 302 
 BAR2 EZ EP   1    025 28.26                             152    0.21 7 53.6 141 
 BAR2 EZ ES        025 40.39                             152   -0.4010 53.6 141 
 BAR2 EZ I         025 43.42         5.3 0.17                          53.6 141 
 PTB  HZ EP        025 32.72                             129   -0.0610  117 246 
 PTB  HN ES        025 48.84                             129   -0.3710  117 246 
 PTB  HZ I         025 55.33         3.8 0.20                           117 246 
 RUS  HZ EP   2    025 34.63                             126    0.24 5  127 159 
 RUS  HN ES        025 52.56                             126    0.4910  127 159 
 RUS  HZ I         025 54.48         0.9 0.12                           127 159 
 ZAR  HZ EP   1    025 36.89                             119   -0.46 7  162 291 
 ZAR  HN ES        025 57.92                             119    0.57 9  162 291 
 ZAR  HZ I         026  1.44         2.9 0.17                           162 291 
                                                                                
