 2012  924 0806 30.6 L   6.746 -73.162146.0  RSN  8 0.5 1.7LRSN                1
 GAP=137        1.11       6.8     6.6  9.9  0.5491E+01  0.2725E+01  0.1132E+02E
 Epicentro: VILLANUEVA - SANTANDER                                             3
 ACTION:UPD 12-10-22 14:20 OP:ep   STATUS:               ID:20120924080630 L   I
 2012-09-24-0800-00M.COL___221                                                 6
 STAT SP IPHASW D HRMM SECON CODA AMPLIT PERI AZIMU VELO AIN AR TRES W  DIS CAZ7
 BAR2 SZ ES   1    8 7  5.32                             173   -0.10 7 17.1 188 
 BAR2 SZ I         8 7  6.20        18.8 0.18                          17.1 188 
 GIR2 SZ EP   1    8 6 50.07                             165   -0.41 7 37.0 355 
 BRR  HZ EP   1    8 6 52.20                             152    0.32 7 72.7 303 
 BRR  HN ES        8 7  9.35                             152    0.8910 72.7 303 
 BRR  HZ I         8 7 10.54        10.4 0.14                          72.7 303 
 PAM  SZ EP   1    8 6 53.24                             149    0.03 7 83.2  38 
 PAM  SN ES   1    8 7 10.23                             149   -0.61 7 83.2  38 
 PAM  SN I         8 7 12.05         8.4 0.58                          83.2  38 
 PAM  SZ I         8 7 12.75         4.8 0.33                          83.2  38 
 RUS  HZ EP   1    8 6 54.00                             146    0.02 7 94.7 175 
 RUS  HN ES   1    8 7 12.38                             146    0.18 7 94.7 175 
 RUS  HZ I         8 7 14.06         7.0 0.36                          94.7 175 
 PTB  HN ES   1    8 7 17.08                             133   -1.12 7  145 261 
 ZAR  HE ES   1    8 7 28.21                             123   -0.31 6  205 294 
 CHI  HZ EP   1    8 7  7.96                             118    0.31 6  242 195 
                                                                                
