 2016  724 0334 34.9 L   6.765 -73.144149.5  RSN  5 0.3 1.4LRSN                1
 GAP=138        0.88       4.3     6.0  6.4 -0.8588E+01  0.2348E+01  0.3563E+01E
 Epicentro: LOS SANTOS - SANTANDER                                             3
 ACTION:UPD 17-03-29 16:54 OP:lp   STATUS:               ID:20160724033434 L   I
 OLDACT:REG 16-07-24 13:52 OP:ar   STATUS:               ID:20160724032759     3
 2016-07-24-0327-59S.COL___337                                                 6
 STAT SP IPHASW D HRMM SECON CODA AMPLIT PERI AZIMU VELO AIN AR TRES W  DIS CAZ7
 BAR2 EZ EP        334 54.40                             172   -0.5410 19.6 192 
 BAR2 EZ ES        335 10.68                             172    0.1310 19.6 192 
 BRR  HZ EP        334 56.86                             152    0.2610 73.2 301 
 BRR  HN ES        335 13.70                             152    0.2010 73.2 301 
 PAM  EZ EP        334 57.57                             151   -0.1510 80.3  38 
 PAM  EN ES        335 15.30                             151   -0.1910 80.3  38 
 PAM  EZ I         335 16.80         3.5 0.46            152           80.3  38 
 RUS  HZ EP        334 59.09                             146    0.3010 96.8 176 
 RUS  HN ES        335 17.64                             146    0.2510 96.8 176 
 RUS  HZ I         335 18.28         3.1 0.30            146           96.8 176 
 SPBC HZ EP        335  3.77                             130    0.31 9  160 220 
 SPBC HN ES        335 25.06                             130   -0.64 9  160 220 
 SPBC HZ I         335 28.60         3.5 0.52            131            160 220 
                                                                                
