 2011 1124 0701 36.1 L   6.795 -73.077135.4  RSN  4 0.3 1.4LRSN                1
 GAP=146        0.70       4.8     7.0  7.7 -0.1125E+01 -0.3763E+01  0.1821E+01E
 Epicentro: LOS SANTOS - SANTANDER                                             3
 ACTION:UPD 12-07-13 16:12 OP:ep   STATUS:               ID:20111124070136 L   I
 2011-11-24-0658-38S.COL___177                                                 6
 STAT SP IPHASW D HRMM SECON CODA AMPLIT PERI AZIMU VELO AIN AR TRES W  DIS CAZ7
 BAR2 SZ EP   1    7 1 54.38                             169   -0.13 7 25.3 207 
 BAR2 SZ I         7 1 54.56         6.4 0.20                          25.3 207 
 BAR2 SZ ES   1    7 2  8.39                             169   -0.50 7 25.3 207 
 PAM  SZ EP   1    7 1 57.35                             150    0.40 7 73.2  35 
 PAM  SZ I         7 1 57.49         5.3 0.16                          73.2  35 
 PAM  SN ES   1    7 2 13.15                             150   -0.07 7 73.2  35 
 BRR  HZ EP   1    7 1 56.22                             148   -0.33 7 78.2 296 
 BRR  HZ I         7 1 56.70         8.4 0.11                          78.2 296 
 BRR  HN ES   1    7 2 12.90                             148    0.38 7 78.2 296 
 RUS  HZ EP   1    7 1 58.57                             142   -0.20 7 99.8 180 
 RUS  HN ES   1    7 2 16.91                             142    0.44 7 99.8 180 
 RUS  HZ I         7 2 18.74         3.5 0.31                          99.8 180 
                                                                                
