 2014  624 0142 33.9 L   6.042 -73.808 82.0  RSN  4 0.4 0.8LRSN                1
 GAP=113        0.84       5.0     3.2  9.9 -0.9872E+00  0.8143E-02 -0.2430E+02E
 Epicentro: EL PEON - SANTANDER                                                3
 ACTION:UPD 14-07-01 22:56 OP:nd   STATUS:               ID:20140624014233 L   I
 OLDACT:REG 14-06-24 12:32 OP:spq  STATUS:               ID:20140624013816     3
 2014-06-24-0138-16M.COL___262                                                 6
 STAT SP IPHASW D HRMM SECON CODA AMPLIT PERI AZIMU VELO AIN AR TRES W  DIS CAZ7
 SPBC HZ IP     D  142 47.25                             145   -0.0310 52.1 214 
 SPBC HN ES        142 57.93                             145    0.2110 52.1 214 
 SPBC HZ I         143  1.97         3.1 0.13            158           52.1 214 
 RUS  HZ EP   1    142 49.55                             131   -0.75 7 81.9 102 
 RUS  HN ES        143  2.98                             131   -0.1110 81.9 102 
 RUS  HZ I         143  8.91         0.7 0.30            141           81.9 102 
 PTB  HZ EP        142 50.69                             128    0.2110 90.4 308 
 PTB  HE ES   1    143  2.83                             128   -0.57 7 90.4 308 
 PTB  HZ I         143  7.22         1.6 0.18            138           90.4 308 
 BAR2 SZ EP        142 51.33                             127    0.3910 92.1  49 
 BAR2 SZ ES   1    143  4.36                             127    0.14 7 92.1  49 
 BAR2 SZ I         143  8.36         4.3 0.36            136           92.1  49 
                                                                                
