 2013  424 0637 53.0 L   6.778 -73.157148.2  RSN  8 0.5 1.8LRSN                1
 GAP=136        0.87       4.3     5.5  7.4  0.6884E+00  0.7172E+00 -0.5271E+01E
 Epicentro: LOS SANTOS - SANTANDER                                             3
 ACTION:UPD 13-05-22 14:40 OP:EP   STATUS:               ID:20130424063753 L   I
 2013-04-24-0628-43M.COL___209                                                 6
 STAT SP IPHASW D HRMM SECON CODA AMPLIT PERI AZIMU VELO AIN AR TRES W  DIS CAZ7
 GIR2 SZ EP   1    638 13.21                             167    0.22 7 33.5 353 
 GIR2 SZ ES   1    638 28.18                             167   -0.43 7 33.5 353 
 GIR2 SZ I         638 29.68         7.1 0.68            165           33.5 353 
 BRR  HZ EP   1    638 14.84                             153    0.45 7 71.4 301 
 BRR  HN ES   1    638 31.72                             153    0.62 7 71.4 301 
 BRR  HN I         638 35.78        14.7 0.28            151           71.4 301 
 PAM  SZ EP        638 15.97                             150    0.3710 80.0  39 
 PAM  SN ES   2    638 32.94                             150   -0.31 5 80.0  39 
 PAM  SZ I         638 34.88         9.4 0.58            154           80.0  39 
 RUS  HZ EP   1    638 17.11                             145    0.32 7 98.2 175 
 RUS  HN ES   1    638 35.10                             145   -0.28 7 98.2 175 
 RUS  HN I         638 36.10         8.4 0.24            148           98.2 175 
 PTB  HZ EP   1    638 19.84                             133   -0.15 7  146 260 
 PTB  HN ES   1    638 40.39                             133   -0.67 7  146 260 
 PTB  HN I         638 45.49         9.5 0.38            133            146 260 
 OCA  HZ EP   1    638 20.93                             130   -0.75 7  163 354 
 OCA  HN ES   1    638 44.31                             130    0.23 7  163 354 
 ZAR  HN ES   2    638 51.82                             123    0.85 4  204 293 
 SML  HZ EP   1    638 29.39                             118   -0.53 6  245 336 
 SML  HE ES   1    638 58.39                             118   -0.35 6  245 336 
 SML  HE I         639  2.71        11.9 0.30            119            245 336 
 SJC  HZ EP   4    638 47.40                             106   -1.37 0  411 327 
 SJC  HN ES   4    639 28.71                             106   -3.59 0  411 327 
                                                                                
