 2012  624 0602 58.7 L   6.752 -73.173150.0  RSN  6 0.4 1.6LRSN                1
 GAP=180        0.73       5.7     7.4  7.8  0.2074E+02  0.6701E+01  0.2271E+01E
 Epicentro: VILLANUEVA - SANTANDER                                             3
 ACTION:UPD 12-08-06 17:52 OP:ep   STATUS:               ID:20120624060258 L   I
 2012-06-24-0600-00M.COL___199                                                 6
 STAT SP IPHASW D HRMM SECON CODA AMPLIT PERI AZIMU VELO AIN AR TRES W  DIS CAZ7
 BAR2 SZ EP   2    6 3 18.27                             173   -0.43 5 17.7 183 
 BAR2 SZ ES   2    6 3 33.43                             173   -0.91 5 17.7 183 
 BAR2 SZ I         6 3 35.36        10.7 0.38                          17.7 183 
 BRR  HZ EP        6 3 20.40                             153    0.1210 71.3 303 
 BRR  HE ES   1    6 3 37.84                             153    0.70 7 71.3 303 
 BRR  HZ I         6 3 40.84        10.0 0.14                          71.3 303 
 RUS  HZ EP        6 3 22.65                             146    0.1710 95.5 174 
 RUS  HN ES   1    6 3 41.09                             146    0.03 7 95.5 174 
 RUS  HZ I         6 3 42.11         4.7 0.22                          95.5 174 
 PTB  HZ EP        6 3 25.48                             134   -0.15 9  144 261 
 PTB  HN ES   2    6 3 46.42                             134   -0.24 5  144 261 
 PTB  HZ I         6 3 51.06         4.7 0.26                           144 261 
 OCA  HN ES   2    6 3 50.01                             130   -0.46 5  165 354 
 ZAR  HN ES   2    6 3 56.28                             123   -0.50 4  203 294 
                                                                                
