 2016  824 0425  7.5 L   6.758 -73.190151.5  RSN  4 0.4 1.2LRSN                1
 GAP=229        1.02       6.3     7.5  9.2  0.1415E+02 -0.4158E+01  0.1818E+01E
 Epicentro: LOS SANTOS - SANTANDER                                             3
 ACTION:UPD 16-10-29 15:38 OP:rebc STATUS:               ID:20160824042507 L   I
 OLDACT:UP  16-08-24 20:00 OP:ak   STATUS:               ID:20160824041732     3
 OLDACT:REG 16-08-24 12:27 OP:ak   STATUS:               ID:20160824041732     3
 2016-08-24-0418-00M.COL___377                                                 6
 STAT SP IPHASW D HRMM SECON CODA AMPLIT PERI AZIMU VELO AIN AR TRES W  DIS CAZ7
 BRR  HZ EP        425 29.09                             154   -0.1010 69.4 304 
 BRR  HN ES        425 46.54                             154    0.4410 69.4 304 
 BRR  HZ I         425 48.51         2.1 0.14                          69.4 304 
 RUS  HZ EP        425 31.34                             146   -0.2110 96.4 173 
 RUS  HN ES        425 50.04                             146   -0.2510 96.4 173 
 RUS  HZ I         425 50.86         2.4 0.26                          96.4 173 
 PTB  HZ EP        425 34.23                             134   -0.23 9  142 260 
 PTB  HN ES        425 54.86                             134   -0.62 9  142 260 
 PTB  HZ I         425 57.79         1.8 0.14                           142 260 
 SPBC HZ EP        425 36.49                             132    0.64 9  156 219 
 SPBC HN ES        425 58.33                             132    0.39 9  156 219 
 SPBC HZ I         426  2.91         2.9 0.10                           156 219 
                                                                                
