 2011 1124 0727 29.1 L   6.554 -73.511109.9  RSN  9 0.5 1.9LRSN                1
 GAP= 81        0.93       3.9     4.3  8.0 -0.1042E+01  0.1584E+02 -0.8029E+00E
 Epicentro: EL CARMEN DE CHUCURI - SANTANDER                                   3
 ACTION:UPD 12-07-13 16:12 OP:ep   STATUS:               ID:20111124072729 L   I
 2011-11-24-0724-48S.COL___177                                                 6
 STAT SP IPHASW D HRMM SECON CODA AMPLIT PERI AZIMU VELO AIN AR TRES W  DIS CAZ7
 BAR2 SZ IP        727 45.26                             160    0.4010 36.6  83 
 BAR2 SZ ES   1    727 57.16                             160   -0.01 7 36.6  83 
 BRR  HZ IP     C  727 45.94                             147   -0.1210 65.1 340 
 BRR  HZ I         727 46.26        45.8 0.11                          65.1 340 
 BRR  HN ES   1    727 59.28                             147   -0.04 7 65.1 340 
 RUS  HZ EP   1    727 48.42                             139    0.05 7 87.1 147 
 RUS  HE ES   1    728  3.58                             139    0.15 7 87.1 147 
 RUS  HZ I         728  5.62         6.1 0.29                          87.1 147 
 PAM  SZ EP   1    727 51.84                             128    0.11 7  125  46 
 PAM  SE ES   1    728  8.70                             128   -0.70 7  125  46 
 PAM  SZ I         728 10.99         6.9 0.17                           125  46 
 ZAR  HZ EP   2    727 57.15                             116    0.19 4  181 305 
 ZAR  HN ES   1    728 19.82                             116    1.10 7  181 305 
 NOR  SZ EP   2    727 57.11                             116   -0.41 4  186 234 
 OCA  SZ EP   1    727 57.73                             116   -0.09 7  188   6 
 OCA  SZ ES   1    728 19.96                             116   -0.29 7  188   6 
 OCA  SZ I         728 26.34        20.3 0.29                           188   6 
 HEL  HZ EP   1    728  3.05                             111    0.55 6  227 260 
 HEL  HN ES   1    728 27.15                             111   -1.42 6  227 260 
 HEL  HZ I         728 34.11         7.5 0.33                           227 260 
 RREF HZ EP   2    728  8.04                             106   -0.18 4  273 228 
 RREF HN ES   2    728 38.95                             106    0.19 4  273 228 
 RREF HZ I         728 45.16         4.0 0.28                           273 228 
                                                                                
