 2013 1124 0115 30.8 L   6.806 -73.097140.0  RSN 13 0.5 2.0LRSN                1
 GAP= 73        0.97       3.2     4.9  5.7 -0.4413E+01  0.3596E+01  0.3016E+01E
 Epicentro: LOS SANTOS - SANTANDER                                             3
 ACTION:UPD 14-01-09 16:30 OP:ep   STATUS:               ID:20131124011530 L   I
 OLDACT:UP  13-11-24 09:41 OP:mh   STATUS:               ID:20131124011000     3
 OLDACT:UP  13-11-24 09:38 OP:mh   STATUS:               ID:20131124011000     3
 OLDACT:REG 13-11-24 07:43 OP:mh   STATUS:               ID:20131124011000     3
 2013-11-24-0110-00M.COL___282                                                 6
 STAT SP IPHASW D HRMM SECON CODA AMPLIT PERI AZIMU VELO AIN AR TRES W  DIS CAZ7
 BAR2 SZ EP   1    115 49.98                             169    0.15 7 25.4 202 
 BAR2 SZ ES   1    116  4.56                             169   -0.07 7 25.4 202 
 BAR2 SZ I         116  7.46        38.3 0.25            167           25.4 202 
 PAM  SZ EP   1    115 52.78                             151    0.56 7 73.5  37 
 PAM  SN ES   1    116  8.89                             151    0.00 7 73.5  37 
 PAM  SZ I         116 11.99        37.1 0.41            156           73.5  37 
 BRR  HZ EP        115 51.80                             150    0.1610 75.7 296 
 BRR  HN ES        116  8.41                             150    0.5510 75.7 296 
 BRR  HZ I         116 12.57        21.3 0.17            151           75.7 296 
 RUS  HZ EP        115 54.07                             143    0.0110  101 179 
 RUS  HN ES        116 12.09                             143   -0.0810  101 179 
 RUS  HZ I         116 14.05        12.2 0.22            144            101 179 
 TAM  HZ EP   1    115 58.40                             130    0.81 7  150 106 
 TAM  HN ES   4    116 22.60                             130    4.14 0  150 106 
 PTB  HZ EP   1    115 56.98                             130   -0.87 7  153 259 
 OCA  HZ EP        115 58.05                             128   -0.67 9  160 351 
 OCA  HN ES   1    116 19.87                             128   -0.60 7  160 351 
 OCA  HZ I         116 22.22        11.0 0.14            132            160 351 
 SPBC HZ EP   1    115 59.10                             127   -0.19 7  167 220 
 SPBC HN ES        116 21.13                             127   -0.34 9  167 220 
 SPBC HZ I         116 28.78        11.9 0.19            129            167 220 
 NOR  HZ EP   4    116  5.05                             117   -1.71 0  239 235 
 NOR  HN ES        116 35.26                             117    0.48 8  239 235 
 NOR  HZ I         116 36.13         9.0 0.21            119            239 235 
 CHI  HZ EP        116  7.80                             116   -0.65 8  251 196 
 CHI  HE ES        116 37.49                             116   -0.30 8  251 196 
 CHI  HZ I         116 45.26         4.7 0.55            118            251 196 
 GUY2CHZ EP        116 15.44                             111    0.70 7  306 235 
 GUY2CHE ES   4    116 50.81                             111    1.84 0  306 235 
 GUY2CHZ I         116 56.48         5.0 0.28                           306 235 
 CBOC HZ EP   1    116 18.35                             109    0.21 5  339 252 
 CBOC HN ES   4    116 52.76                             109   -2.28 0  339 252 
 ORTC HZ EP   1    116 25.44                             105    0.43 4  399 217 
 ORTC HN ES        117  7.38                             105    0.12 6  399 217 
 ORTC HZ I         117 15.38         3.0 0.47            107            399 217 
 SJC  HZ EP   4    116 24.21                             105   -2.30 0  412 326 
                                                                                
