 2012  324 0929 39.0 L   6.800 -73.138147.1  RSN  6 0.2 1.5LRSN                1
 GAP=138        0.45       3.7     2.9  4.4  0.3678E+01  0.2086E+01  0.1072E+00E
 ACTION:UP  12-03-31 23:22 OP:EP   STATUS:               ID:20120324092939 L   I
 2012-03-24-0927-59S.COL___204                                                 6
 STAT SP IPHASW D HRMM SECON CODA AMPLIT PERI AZIMU VELO SNR AR TRES W  DIS CAZ7
 BAR2 SZ EP   1    929 58.61                             171    -0.2 9   23 192 
 BAR2 SZ ES   1    930 14.25                             171     0.0 9   23 192 
 BAR2 SZ I         930 15.68         7.2 0.33                            23 192 
 BRR  HZ EP   1    930  0.45                             152     0.1 9   72 298 
 BRR  HZ I         930  0.96        11.9 0.28                            72 298 
 BRR  HN ES   1    930 17.13                             152     0.1 9   72 298 
 PAM  SZ EP   1    930  1.57                             151     0.2 9   77  39 
 PAM  SN ES   2    930 18.50                             151    -0.3 6   77  39 
 RUS  HZ EP   1    930  2.95                             144     0.0 9  100 177 
 RUS  HE ES   2    930 21.88                             144     0.3 6  100 177 
 RUS  HZ I         930 23.60         1.6 0.48                           100 177 
 PTB  HZ EP   1    930  5.86                             132    -0.3 8  149 259 
 PTB  HE ES   2    930 27.25                             132    -0.1 5  149 259 
 PTB  HZ I         930 28.55         2.7 0.31                           149 259 
 ZAR  HZ EP   2    930 11.91                             123     0.2 5  205 292 
 ZAR  HN ES        930 37.19                             123     0.110  205 292 
 ZAR  HZ I         930 41.70         4.2 0.31                           205 292 
                                                                                
