 2016  224 0540 11.5 L   6.790 -73.185148.1  RSN  5 0.4 1.2LRSN                1
 GAP=232        0.93       5.9     6.9  9.5  0.5137E+01 -0.1435E+02  0.9332E+01E
 Epicentro: ZAPATOCA - SANTANDER                                               3
 ACTION:UPD 16-03-04 21:29 OP:rebc STATUS:               ID:20160224054011 L   I
 OLDACT:UP  16-02-24 18:47 OP:mh   STATUS:               ID:20160224053748     3
 OLDACT:REG 16-02-24 13:03 OP:mh   STATUS:               ID:20160224053748     3
 2016-02-24-0537-48M.COL___333                                                 6
 STAT SP IPHASW D HRMM SECON CODA AMPLIT PERI AZIMU VELO AIN AR TRES W  DIS CAZ7
 BAR2 EZ EP   1    540 31.15                             171   -0.22 7 21.8 179 
 BAR2 EZ I         540 47.58         3.1 0.24            176           21.8 179 
 BRR  HZ EP        540 33.01                             154    0.2910 68.0 301 
 BRR  HN ES        540 49.53                             154    0.2510 68.0 301 
 BRR  HZ I         540 57.33         2.9 0.40            154           68.0 301 
 RUS  HZ EP        540 35.14                             144   -0.2810 99.8 174 
 RUS  HN ES   1    540 53.80                             144   -0.28 7 99.8 174 
 RUS  HZ I         540 55.05         1.6 0.26            150           99.8 174 
 PTB  HZ EP   1    540 37.94                             133   -0.31 7  143 259 
 PTB  HN ES        540 58.47                             133   -0.65 9  143 259 
 PTB  HZ I         541  6.03         2.0 0.44            137            143 259 
 SPBC HZ EP     D  540 40.17                             130    0.34 9  160 218 
 SPBC HN ES        541  2.49                             130    0.55 9  160 218 
 SPBC HZ I         541  8.41         2.0 0.34            135            160 218 
                                                                                
