 2015  324 0914 37.3 L   7.200 -72.956146.0  RSN  4 0.4 1.6LRSN                1
 GAP=266        0.85       6.3     8.6 11.3 -0.3355E+02 -0.2966E+02  0.2721E+02E
 Epicentro: TONA - SANTANDER                                                   3
 ACTION:UPD 15-04-30 16:29 OP:nd   STATUS:               ID:20150324091437 L   I
 OLDACT:DUP 15-03-24 17:07 OP:fm   STATUS:               ID:20150324090742d    3
 OLDACT:REG 15-03-24 12:55 OP:fm   STATUS:               ID:20150324090741     3
 2015-03-24-0907-41M.COL___272                                                 6
 STAT SP IPHASW D HRMM SECON CODA AMPLIT PERI AZIMU VELO AIN AR TRES W  DIS CAZ7
 OCA  HZ EP        915  1.83                             138   -0.3810  122 341 
 OCA  HN ES        915 22.06                             138    0.4110  122 341 
 OCA  HZ I         915 26.05        10.6 0.26            142            122 341 
 PTB  HZ EP   1    915  7.77                             126    0.32 7  181 246 
 PTB  HN ES        915 30.59                             126   -0.39 9  181 246 
 PTB  HZ I         915 35.37         2.2 0.64            130            181 246 
 ZAR  HZ EP        915 11.05                             121    0.43 9  212 279 
 ZAR  HN ES        915 36.87                             121    0.25 9  212 279 
 ZAR  HZ I         915 39.91         2.3 0.32            125            212 279 
 SML  HZ EP        915 10.92                             121   -0.01 9  216 325 
 SML  HE ES        915 36.69                             121   -0.47 9  216 325 
 SML  HZ I         915 40.38         5.9 0.10            125            216 325 
                                                                                
