 2015  224 0127  4.2 L   6.817 -73.200142.1  RSN  4 0.2 1.3LRSN                1
 GAP=146        0.55       3.3     3.2  5.1 -0.3287E+01  0.4643E+01 -0.1294E+01E
 Epicentro: ZAPATOCA - SANTANDER                                               3
 ACTION:UPD 15-04-30 21:28 OP:nd   STATUS:               ID:20150224012704 L   I
 OLDACT:REG 15-02-24 13:04 OP:mh   STATUS:               ID:20150224011738     3
 2015-02-24-0117-38M.COL___278                                                 6
 STAT SP IPHASW D HRMM SECON CODA AMPLIT PERI AZIMU VELO AIN AR TRES W  DIS CAZ7
 BAR2 EZ EP   1    127 23.40                             170   -0.04 7 24.9 176 
 BAR2 EZ ES   1    127 38.80                             170    0.37 7 24.9 176 
 BAR2 EZ I         127 42.72         5.0 0.11            170           24.9 176 
 PAM  SZ EP        127 26.35                             149    0.1510 80.0  44 
 PAM  SN ES        127 43.17                             149   -0.1810 80.0  44 
 PAM  SZ I         127 46.21         3.1 0.54            156           80.0  44 
 RUS  HZ EP        127 27.56                             142   -0.2210  103 173 
 RUS  HN ES        127 46.17                             142   -0.0010  103 173 
 RUS  HZ I         127 49.44         2.5 0.34            148            103 173 
 PTB  HZ EP        127 30.66                             132    0.28 9  142 258 
 PTB  HN ES        127 50.59                             132   -0.21 9  142 258 
 PTB  HZ I         127 58.75         4.8 0.58            135            142 258 
                                                                                
