 2010  724 0840 28.7 L   7.530 -73.016151.1  RSN  6 0.5 1.5LRSN                1
 GAP=151        1.33       9.6    15.7 15.1 -0.5452E+02 -0.5402E+02  0.4125E+02E
 Epicentro: SURATA - SANTANDER                                                 3
 ACTION:UPD 10-12-01 15:19 OP:pat  STATUS:               ID:20100724084028 L   I
 2010-07-24-0838-50S.COL___123                                                 6
 STAT SP IPHASW D HRMM SECON CODA AMPLIT PERI AZIMU VELO AIN AR TRES W  DIS CAZ7
 GUE  SZ EP        840 50.27                             166     0.910   35  17 
 GUE  SZ I         840 50.87         2.8 0.08                            35  17 
 GRA  SZ IP        840 49.28                             162    -0.210   46  31 
 GRA  SZ ES   1    841  5.13                             162    -0.5 7   46  31 
 GRA  SZ I         841  7.38         8.3 0.34                            46  31 
 OCA  SZ IP        840 51.17                             149    -0.310   85 337 
 OCA  SZ ES   1    841  9.41                             149     0.2 7   85 337 
 OCA  SZ I         841 11.65         9.0 0.37                            85 337 
 BRR  HZ EP   1    840 51.16                             148    -0.4 7   90 239 
 BRR  HN ES   1    841  9.49                             148     0.1 7   90 239 
 BRR  HZ I         841 11.08         7.5 0.13                            90 239 
 BAR2 SZ EP   1    840 52.56                             143    -0.4 7  105 190 
 BAR2 SZ I         841 13.75         5.5 0.06                           105 190 
 RUS  HE ES   2    841 24.55                             127     0.4 4  181 182 
 RUS  HZ I         841 24.70         1.2 0.28                           181 182 
                                                                                
