 2011 1224 0451 14.6 L   6.769 -73.118140.8  RSN  7 0.2 2.2LRSN                1
 GAP=142        0.46       2.1     4.2  3.3  0.1436E+00  0.2847E-02 -0.5416E+00E
 Epicentro: LOS SANTOS - SANTANDER                                             3
 ACTION:UPD 12-07-13 16:18 OP:ep   STATUS:               ID:20111224045114 L   I
 2011-12-24-0450-00M.COL___189                                                 6
 STAT SP IPHASW D HRMM SECON CODA AMPLIT PERI AZIMU VELO AIN AR TRES W  DIS CAZ7
 BAR2 SZ EP        451 33.70                             171    0.1110 20.8 200 
 BAR2 SZ ES        451 48.20                             171   -0.1910 20.8 200 
 BAR2 SZ I         451 50.05        30.8 0.19                          20.8 200 
 GIR2 SZ EP   1    451 33.69                             165   -0.12 7 35.3 346 
 BRR  HZ EP        451 35.47                             150   -0.0110 75.6 300 
 BRR  HE ES   1    451 52.02                             150    0.26 7 75.6 300 
 BRR  HZ I         451 56.61        28.5 0.10                          75.6 300 
 PAM  SZ EP        451 36.51                             150    0.1610 78.2  36 
 PAM  SN ES   1    451 53.46                             150    0.16 7 78.2  36 
 RUS  HZ EP        451 37.68                             144    0.0810 96.9 178 
 RUS  HE ES   1    451 55.38                             144   -0.16 7 96.9 178 
 OCA  SZ EP        451 42.54                             128   -0.36 9  164 352 
 OCA  SZ ES   1    452  4.97                             128    0.00 7  164 352 
 OCA  SZ I         452  7.36        24.0 0.12                           164 352 
 CHI  HZ EP   1    451 51.93                             116    0.17 6  246 196 
                                                                                
