 2014  424 0650  3.9 L   6.848 -73.186140.1  RSN  9 0.5 1.9LRSN                1
 GAP=129        0.95       4.0     5.1  9.0 -0.8695E+01  0.1834E+02 -0.1918E+01E
 Epicentro: ZAPATOCA - SANTANDER                                               3
 OLDACT:REG 14-04-24 12:59 OP:fm   STATUS:               ID:20140424064806     3
 ACTION:UPD 14-05-13 23:11 OP:nd   STATUS:               ID:20140424065003 L   I
 OLDACT:UP  14-04-24 15:10 OP:fm   STATUS:               ID:20140424064806     3
 2014-04-24-0648-06M.COL___239                                                 6
 STAT SP IPHASW D HRMM SECON CODA AMPLIT PERI AZIMU VELO AIN AR TRES W  DIS CAZ7
 PAM  SZ EP        650 25.82                             150    0.3410 76.5  45 
 PAM  SN ES        650 42.51                             150    0.2110 76.5  45 
 PAM  SZ I         650 44.29        12.6 0.20            153           76.5  45 
 RUS  HZ EP   1    650 27.05                             141   -0.50 7  106 174 
 RUS  HN ES   1    650 46.19                             141    0.22 7  106 174 
 PTB  HZ EP   1    650 29.85                             131   -0.28 7  145 256 
 PTB  HN ES        650 50.38                             131   -0.20 9  145 256 
 PTB  SZ I         650 53.13        10.2 0.12            127            145 256 
 OCA  HN ES        650 52.34                             129   -0.24 9  155 355 
 SPBC HZ EP   1    650 31.32                             127   -0.81 7  165 217 
 SPBC HN ES        650 54.06                             127   -0.07 9  165 217 
 SPBC SZ I         651  0.56         6.3 0.24            126            165 217 
 SML  HZ EP   1    650 39.21                             117   -0.30 6  237 336 
 SML  HE ES   4    651  9.48                             117    2.21 0  237 336 
 SML  SZ I         651 18.45         7.8 0.08            115            237 336 
 GUY2CHZ EP   4    650 48.76                             111    1.55 0  301 233 
 GUY2CHN ES   4    651 23.55                             111    2.57 0  301 233 
 GUY2CSZ I         651 38.96         3.4 2.32                           301 233 
 RREF HZ EP   4    650 51.41                             110    1.57 0  322 228 
 RREF HN ES   4    651 28.09                             110    2.44 0  322 228 
 RREF SZ I         651 31.37         4.1 3.78            109            322 228 
 CBOC HZ EP   1    650 51.60                             109    1.29 5  331 251 
 CBOC HE ES        651 27.24                             109    0.75 7  331 251 
 CBOC SZ I         651 42.85         2.6 1.72            108            331 251 
 SJC  HZ EP   4    650 56.96                             105   -1.54 0  402 327 
 SJC  HN ES   4    651 38.63                             105   -2.43 0  402 327 
                                                                                
