 2017  324 0425 24.9 L   6.783 -73.170138.4  RSN  5 0.3 1.5LRSN                1
 GAP=144        0.82       5.1     4.2  7.9 -0.9219E+01  0.1329E+02 -0.6820E+01E
 Epicentro: LOS SANTOS - SANTANDER                                             3
 ACTION:UPD 17-05-25 18:44 OP:jn   STATUS:               ID:20170324042525 L   I
 OLDACT:UP  17-04-28 20:19 OP:nlst STATUS:               ID:20170324042525 L   3
 OLDACT:REG 17-03-24 13:03 OP:cog  STATUS:               ID:20170324041745     3
 2017-03-24-0418-00M.COL___390                                                 6
 STAT SP IPHASW D HRMM SECON CODA AMPLIT PERI AZIMU VELO AIN AR TRES W  DIS CAZ7
 BAR2 EZ EP        425 43.69                             171    0.1010 21.1 184 
 BAR2 EZ ES        425 57.78                             171   -0.4010 21.1 184 
 BAR2 EZ I         425 59.78         8.9 0.10            172           21.1 184 
 PAM  EZ EP        425 46.67                             148    0.1410 80.6  40 
 PAM  EE ES        426  3.58                             148    0.1710 80.6  40 
 PAM  EZ I         426  4.22         4.8 0.36            150           80.6  40 
 PTB  HZ EP        425 50.36                             131   -0.63 9  145 259 
 PTB  HE EP        425 50.64                             130            145 259 
 PTB  HN ES        426 11.41                             131    0.06 9  145 259 
 PTB  HZ I         426 13.69         3.8 0.10            132            145 259 
 SPBC HN ES        426 14.51                             128    0.43 9  160 219 
 ZAR  HN ES        426 21.63                             121    0.15 9  202 293 
                                                                                
