 2016 1024 0152 42.7 L   6.776 -73.141147.5  RSN  4 0.2 1.5LRSN                1
 GAP=138        0.52       2.6     3.6  5.2 -0.2921E+01 -0.1174E+01  0.2040E+01E
 Epicentro: LOS SANTOS - SANTANDER                                             3
 ACTION:UPD 16-11-09 19:22 OP:rebc STATUS:               ID:20161024015242 L   I
 OLDACT:DUP 16-10-24 15:14 OP:cara STATUS:               ID:20161024014748d    3
 2016-10-24-0148-00M.COL___359                                                 6
 STAT SP IPHASW D HRMM SECON CODA AMPLIT PERI AZIMU VELO AIN AR TRES W  DIS CAZ7
 BRR  HZ EP        153  4.18                             152    0.0310 72.9 300 
 BRR  HN ES        153 21.03                             152    0.1710 72.9 300 
 BRR  HZ I         153 21.85         6.4 0.30            154           72.9 300 
 PAM  EZ EP        153  5.28                             151    0.0610 79.1  38 
 PAM  EN ES        153 22.52                             151   -0.2410 79.1  38 
 PAM  EZ I         153 24.20         6.7 0.52            153           79.1  38 
 RUS  HZ EP        153  6.49                             145    0.0410 97.9 176 
 RUS  HN ES        153 25.16                             145    0.2010 97.9 176 
 RUS  HZ I         153 26.39         4.4 0.24            146           97.9 176 
 SPBC HN ES        153 33.08                             130   -0.31 9  161 220 
 SPBC HZ I         153 35.80         3.3 0.30            131            161 220 
                                                                                
