 2012  824 0351 31.8 L   6.760 -73.178151.3  RSN  6 0.2 1.6LRSN                1
 GAP=176        0.44       3.6     3.1  4.9  0.6054E+01 -0.2200E+01 -0.1958E+00E
 Epicentro: VILLANUEVA - SANTANDER                                             3
 ACTION:UP  12-09-10 11:58 OP:ep   STATUS:               ID:20120824035131 L   I
 2012-08-24-0350-00M.COL___218                                                 6
 STAT SP IPHASW D HRMM SECON CODA AMPLIT PERI AZIMU VELO AIN AR TRES W  DIS CAZ7
 BAR2 SZ EP   1    351 51.92                             173   -0.08 7 18.6 181 
 BAR2 SZ I         351 52.31        12.3 0.07                          18.6 181 
 GIR2 SZ EP   1    351 51.89                             166   -0.34 7 35.2 357 
 BRR  HZ EP   1    351 53.71                             154    0.22 7 70.3 303 
 BRR  HN ES        352 10.46                             154    0.0410 70.3 303 
 BRR  HZ I         352 11.63        13.5 0.16                          70.3 303 
 RUS  HZ EP        351 55.99                             146    0.1810 96.5 174 
 RUS  HN ES   1    352 14.55                             146    0.01 7 96.5 174 
 RUS  HZ I         352 16.13         4.9 0.26                          96.5 174 
 PTB  HZ EP   1    351 58.64                             134   -0.19 7  143 260 
 PTB  HN ES        352 19.79                             134   -0.13 9  143 260 
 PTB  HZ I         352 27.08         2.8 0.30                           143 260 
 ZAR  HN ES        352 30.02                             124    0.12 9  202 294 
                                                                                
