 2015  324 0504 47.3 L   6.608 -73.118143.4  RSN  6 0.5 1.2LRSN                1
 GAP=148        1.14       6.1     5.4 10.9 -0.8762E+01  0.5884E+00  0.1461E+02E
 Epicentro: CURITI - SANTANDER                                                 3
 ACTION:UPD 15-04-30 16:28 OP:nd   STATUS:               ID:20150324050447 L   I
 OLDACT:REG 15-03-24 12:45 OP:fm   STATUS:               ID:20150324045747     3
 2015-03-24-0457-47M.COL___269                                                 6
 STAT SP IPHASW D HRMM SECON CODA AMPLIT PERI AZIMU VELO AIN AR TRES W  DIS CAZ7
 RUS  HZ EP        5 5  8.91                             150   -0.5210 79.2 177 
 BRR  HZ EP     C  5 5  9.70                             147    0.5610 85.8 310 
 BRR  HN ES        5 5 26.59                             147    0.4510 85.8 310 
 BRR  HZ I         5 5 32.54         2.2 0.38            158           85.8 310 
 PAM  SZ EP        5 5 10.73                             145    0.4010 93.1  30 
 PAM  SN ES        5 5 27.83                             145   -0.4310 93.1  30 
 PAM  SZ I         5 5 50.13         1.6 0.56            151           93.1  30 
 PTB  HZ EP        5 5 13.86                             131   -0.31 9  148 267 
 PTB  HN ES        5 5 34.50                             131   -0.59 9  148 267 
 PTB  HZ I         5 5 41.59         2.1 0.46            146            148 267 
 SPBC HE ES        5 5 36.00                             131    0.53 9  149 225 
 SPBC HZ I         5 5 41.86         3.5 0.18            147            149 225 
 ZAR  HZ EP   1    5 5 21.02                             120    0.16 6  216 297 
 ZAR  HN ES        5 5 46.69                             120   -0.31 8  216 297 
 ZAR  HZ I         5 5 52.97         2.3 0.28            133            216 297 
                                                                                
