 2016  824 0425 59.2 L   6.740 -73.210156.9  RSN  4 0.3 1.1LRSN                1
 GAP=225        0.54       3.4     4.6  6.7  0.3458E+01  0.3117E+01 -0.7072E+00E
 Epicentro: VILLANUEVA - SANTANDER                                             3
 ACTION:UPD 16-10-29 15:38 OP:rebc STATUS:               ID:20160824042559 L   I
 OLDACT:DUP 16-08-24 20:04 OP:ak   STATUS:               ID:20160824041735d    3
 OLDACT:DUP 16-08-24 20:02 OP:ak   STATUS:               ID:20160824041734d    3
 OLDACT:UP  16-08-24 20:00 OP:ak   STATUS:               ID:20160824041732     3
 OLDACT:REG 16-08-24 12:27 OP:ak   STATUS:               ID:20160824041732     3
 2016-08-24-0418-00M.COL___377                                                 6
 STAT SP IPHASW D HRMM SECON CODA AMPLIT PERI AZIMU VELO AIN AR TRES W  DIS CAZ7
 BRR  HZ EP        426 21.34                             155   -0.0410 68.7 306 
 BRR  HZ I         426 38.48         1.6 0.60                          68.7 306 
 BRR  HN ES        426 38.67                             155   -0.0510 68.7 306 
 RUS  HN ES        426 42.77                             147    0.0610 94.8 171 
 PTB  HZ EP   2    426 27.16                             136    0.82 5  140 261 
 PTB  HN ES        426 47.54                             136   -0.01 9  140 261 
 PTB  HZ I         426 49.32         1.3 0.15                           140 261 
 SPBC HZ EP   2    426 27.05                             133   -0.61 5  154 218 
 SPBC HN ES        426 49.90                             133    0.00 9  154 218 
 SPBC HZ I         426 54.41         1.9 0.06                           154 218 
                                                                                
