 2012  224 0945 17.5 L   6.484 -73.606108.1  RSN  5 0.2 1.5LRSN                1
 GAP=135        0.45       4.7     2.8  5.9 -0.1996E+01  0.1433E+01  0.1162E+02E
 ACTION:UP  12-03-07 16:33 OP:epov STATUS:               ID:20120224094517 L   I
 2012-02-24-0940-00M.COL___192                                                 6
 STAT SP IPHASW D HRMM SECON CODA AMPLIT PERI AZIMU VELO AIN AR TRES W  DIS CAZ7
 BAR2 SZ EP   1    945 33.64                             154    0.03 7 48.4  76 
 BAR2 SZ ES   1    945 46.00                             154   -0.21 7 48.4  76 
 BAR2 SZ I         945 47.92        13.0 0.35                          48.4  76 
 BRR  HZ EP   2    945 34.65                             144    0.04 5 69.9 350 
 BRR  HZ I         945 36.53         7.2 0.44                          69.9 350 
 BRR  HN ES   1    945 48.32                             144    0.34 7 69.9 350 
 GIR2 SZ EP   1    945 35.39                             140   -0.17 7 80.0  35 
 GIR2 SZ ES   1    945 49.63                             140   -0.04 7 80.0  35 
 RUS  HZ EP   2    945 37.17                             138    0.54 5 87.4 138 
 PTB  HZ EP   1    945 36.44                             135   -0.10 7 94.2 274 
 PTB  HN ES   1    945 51.32                             135   -0.10 7 94.2 274 
                                                                                
