 2011  824 0330 11.9 L   6.762 -73.118144.0  RSN  6 0.4 1.3LRSN                1
 GAP=185        0.76       4.5     9.3  9.1  0.8200E+01 -0.5111E+01  0.4415E+00E
 Epicentro: LOS SANTOS - SANTANDER                                             3
 ACTION:UPD 12-07-13 15:53 OP:ep   STATUS:               ID:20110824033012 L   I
 2011-08-24-0320-00M.COL___160                                                 6
 STAT SP IPHASW D HRMM SECON CODA AMPLIT PERI AZIMU VELO AIN AR TRES W  DIS CAZ7
 BAR2 SZ EP   1    330 30.88                             172   -0.36 7 20.1 201 
 BAR2 SZ ES   2    330 45.56                             172   -0.78 5 20.1 201 
 BAR2 SZ I         330 48.39         6.1 0.17                          20.1 201 
 GIR2 SZ EP   1    330 31.54                             165    0.05 7 36.0 347 
 GIR2 SZ ES   2    330 46.43                             165   -0.34 5 36.0 347 
 BRR  HZ EP   1    330 32.76                             151   -0.36 7 76.0 300 
 BRR  HZ I         330 36.56         4.3 0.12                          76.0 300 
 BRR  HN ES   1    330 49.78                             151    0.09 7 76.0 300 
 RUS  HZ EP   1    330 35.04                             145   -0.12 7 96.2 178 
 RUS  HZ I         330 35.92         1.7 0.09                          96.2 178 
 RUS  HE ES   1    330 54.00                             145    0.70 7 96.2 178 
 OCA  SZ ES   1    331  3.37                             129    0.57 7  165 352 
 OCA  SZ I         331  8.09         3.5 0.18                           165 352 
 NOR  SN ES   2    331 15.46                             118    0.13 4  235 236 
                                                                                
