 2012  524 0024 38.1 L   6.771 -73.177137.6  RSN  8 0.2 2.1LRSN                1
 GAP=134        0.58       2.6     3.2  4.7 -0.5771E+00  0.5846E+01  0.7810E+00E
 Epicentro: LOS SANTOS - SANTANDER                                             3
 ACTION:UP  12-07-05 12:07 OP:pat  STATUS:               ID:20120524002438 L   I
 2012-05-24-0020-00M.COL___200                                                 6
 STAT SP IPHASW D HRMM SECON CODA AMPLIT PERI AZIMU VELO SNR AR TRES W  DIS CAZ7
 BAR2 SZ EP        024 56.93                             171     0.210   20 182 
 BAR2 SZ ES   1    025 11.45                             171     0.2 7   20 182 
 BAR2 SZ I         025 13.10        26.8 0.28                            20 182 
 PAM  SZ EP        024 59.75                             148     0.010   82  40 
 PAM  SE ES   1    025 16.47                             148    -0.2 7   82  40 
 RUS  HZ EP        025  0.99                             143     0.110   98 174 
 RUS  HN ES   1    025 18.38                             143    -0.2 7   98 174 
 RUS  HZ I         025 21.51        11.3 0.26                            98 174 
 PTB  HZ EP        025  3.64                             131    -0.4 9  144 260 
 PTB  HN ES   1    025 24.24                             131    -0.1 7  144 260 
 OCA  HZ EP   2    025  5.63                             127    -0.5 5  163 354 
 OCA  HN ES   1    025 28.07                             127     0.2 7  163 354 
 OCA  HZ I         025 30.08        26.2 0.28                           163 354 
 ZAR  HZ EP   1    025  9.92                             121     0.1 6  202 293 
 ZAR  HN ES   1    025 34.76                             121     0.2 6  202 293 
 ZAR  HZ I         025 40.72        19.7 0.31                           202 293 
 HEL  HZ EP   1    025 17.70                             113     0.2 6  268 256 
 HEL  HZ I         025 55.39         8.4 0.40                           268 256 
 PRA  HZ EP        025 31.25                             105     0.4 6  388 209 
 PRA  HE ES   1    026 11.74                             105    -0.2 4  388 209 
                                                                                
