 2012  524 0758  4.0 L   6.783 -73.163148.8  RSN  5 0.2 1.3LRSN                1
 GAP=181        0.49       4.0     3.9  6.2  0.6326E+01  0.3859E+01 -0.6080E+01E
 Epicentro: LOS SANTOS - SANTANDER                                             3
 ACTION:UP  12-07-05 12:07 OP:pat  STATUS:               ID:20120524075804 L   I
 2012-05-24-0750-00M.COL___200                                                 6
 STAT SP IPHASW D HRMM SECON CODA AMPLIT PERI AZIMU VELO SNR AR TRES W  DIS CAZ7
 BAR2 SZ EP        758 24.06                             172     0.110   21 186 
 BAR2 SZ ES   2    758 39.85                             172     0.3 5   21 186 
 BAR2 SZ I         758 42.23         5.6 0.25                            21 186 
 RUS  HZ EP   1    758 27.89                             145     0.0 7   99 175 
 RUS  HZ I         758 29.16         1.7 0.16                            99 175 
 RUS  HE ES   1    758 46.36                             145    -0.2 7   99 175 
 PTB  HZ EP        758 30.90                             133    -0.1 9  145 259 
 PTB  HN ES   1    758 52.23                             133     0.1 7  145 259 
 OCA  HN ES   2    758 54.88                             130    -0.2 5  162 354 
 ZAR  HZ EP   1    758 36.90                             123     0.4 6  203 293 
 ZAR  HE ES   1    759  1.67                             123    -0.2 6  203 293 
 ZAR  HZ I         759  8.82         3.5 0.40                           203 293 
                                                                                
