 2016 1024 0113  3.0 L   6.795 -73.159146.1  RSN  6 0.3 1.2LRSN                1
 GAP=135        0.69       3.3     3.3  5.6 -0.3668E+01  0.1945E+01  0.3653E+01E
 Epicentro: LOS SANTOS - SANTANDER                                             3
 ACTION:UPD 16-11-09 19:22 OP:rebc STATUS:               ID:20161024011303 L   I
 OLDACT:DUP 16-10-24 14:54 OP:cara STATUS:               ID:20161024010744d    3
 2016-10-24-0108-00M.COL___359                                                 6
 STAT SP IPHASW D HRMM SECON CODA AMPLIT PERI AZIMU VELO AIN AR TRES W  DIS CAZ7
 BRR  HZ EP        113 24.27                             153    0.1610 70.1 299 
 BRR  HN ES        113 40.56                             153   -0.0410 70.1 299 
 BRR  HZ I         113 45.94         4.1 0.62            154           70.1 299 
 PAM  EZ EP        113 25.26                             150   -0.0610 78.7  40 
 PAM  EN ES        113 43.02                             150    0.2810 78.7  40 
 PAM  EZ I         113 44.62         1.9 0.42            155           78.7  40 
 RUS  HZ EP        113 26.72                             144   -0.0210  100 175 
 RUS  HN ES        113 44.95                             144   -0.3210  100 175 
 RUS  HZ I         113 46.71         2.1 0.38            147            100 175 
 PTB  HZ EP        113 29.45                             132   -0.39 9  146 259 
 PTB  HN ES        113 50.45                             132   -0.34 9  146 259 
 PTB  HZ I         113 52.47         2.3 0.16            135            146 259 
 SPBC HZ EP        113 31.49                             129    0.11 9  162 219 
 SPBC HE ES        113 53.81                             129    0.27 9  162 219 
 SPBC HZ I         113 59.03         3.5 0.34            132            162 219 
 NOR  HN ES        114  6.83                             119    0.50 8  233 234 
                                                                                
