 2011  324 0112  7.7 L   6.799 -73.140147.6  RSN  5 0.4 1.6LRSN                1
 GAP=175        0.93      11.3    12.4 14.8 -0.1107E+03 -0.8723E+02  0.9791E+02E
 Epicentro: LOS SANTOS - SANTANDER                                             3
 ACTION:UP  11-06-16 14:35 OP:jfem STATUS:               ID:20110324011207 L   I
 2011-03-24-0111-54S.COL___139                                                 6
 STAT SP IPHASW D HRMM SECON CODA AMPLIT PERI AZIMU VELO SNR AR TRES W  DIS CAZ7
 BTL  SZ EP   1    112 28.39                             172     0.9 7   19 313 
 BAR2 SZ EP        112 27.19                             171    -0.310   23 192 
 BAR2 SZ I         112 43.00         9.2 0.30                            23 192 
 BRR  HZ EP   1    112 29.00                             152    -0.1 7   72 298 
 BRR  HE ES   1    112 45.88                             152     0.1 7   72 298 
 BRR  HZ I         112 57.79         9.1 0.52                            72 298 
 GRA  SZ EP        112 33.14                             137     0.110  126  17 
 GRA  SZ ES   1    112 52.55                             137    -0.3 7  126  17 
 GRA  SZ I         112 53.64         4.3 0.38                           126  17 
 NOR  SZ EP   1    112 43.64                             118     0.1 6  235 235 
 NOR  SE ES   1    113 11.31                             118    -0.3 6  235 235 
                                                                                
