 2010  924 0026  9.2 L   7.011 -73.090127.0  RSN  5 0.2 1.5LRSN                1
 GAP=168        0.37       3.3     4.1  4.1  0.2864E+01 -0.2564E+01  0.3693E-01E
 Epicentro: FLORIDABLANCA - SANTANDER                                          3
 ACTION:UP  11-02-18 11:05 OP:tino STATUS:               ID:20100924002609 L   I
 2010-09-24-0023-35S.COL___119                                                 6
 STAT SP IPHASW D HRMM SECON CODA AMPLIT PERI AZIMU VELO SNR AR TRES W  DIS CAZ7
 BAR2 SZ EP        026 27.48                             158     0.110   47 193 
 BAR2 SZ ES   1    026 41.54                             158     0.0 7   47 193 
 BAR2 SZ I         026 42.95        11.2 0.18                            47 193 
 BRR  HZ EP   1    026 28.05                             149    -0.2 7   70 279 
 BRR  HZ I         026 40.65        13.0 0.45                            70 279 
 BRR  HN ES   1    026 43.21                             149     0.1 7   70 279 
 GUE  SZ EP   2    026 30.10                             142    -0.2 5   92  11 
 RUS  HZ EP   1    026 33.18                             133     0.1 7  124 180 
 RUS  HZ I         026 33.35         2.3 0.09                           124 180 
 RUS  HN ES   2    026 51.52                             133    -0.2 5  124 180 
 NOR  SZ EP   2    026 46.27                             112     0.2 4  254 231 
 NOR  SE ES   2    027 14.54                             112    -0.2 4  254 231 
                                                                                
