 2015  524 0855 58.3 L   6.837 -73.067143.8  RSN  8 0.4 1.6LRSN                1
 GAP=191        0.81       3.9     5.9  6.3  0.7883E+01 -0.2505E+01 -0.8061E+01E
 Epicentro: LOS SANTOS - SANTANDER                                             3
 ACTION:UPD 15-09-10 22:06 OP:cam  STATUS:               ID:20150524085558 L   I
 OLDACT:REG 15-05-24 12:40 OP:spq  STATUS:               ID:20150524084741     3
 2015-05-24-0847-41M.COL___288                                                 6
 STAT SP IPHASW D HRMM SECON CODA AMPLIT PERI AZIMU VELO AIN AR TRES W  DIS CAZ7
 BAR2 EZ EP        856 18.01                             168    0.1410 29.9 205 
 BAR2 EZ ES   1    856 32.58                             168   -0.53 7 29.9 205 
 BAR2 EZ I         856 33.95         4.4 0.14            169           29.9 205 
 BRR  HZ EP        856 19.87                             150    0.2610 77.2 293 
 BRR  HN ES        856 36.63                             150    0.4110 77.2 293 
 BRR  HZ I         856 40.87         5.8 0.13            149           77.2 293 
 RUS  HZ EP   1    856 22.64                             142    0.48 7  104 181 
 RUS  HE ES   1    856 40.49                             142   -0.27 7  104 181 
 RUS  HZ I         856 41.44         3.3 0.38            147            104 181 
 OCA  HZ EP        856 26.33                             130    0.11 9  158 350 
 OCA  HN ES        856 47.71                             130   -0.27 9  158 350 
 OCA  HZ I         856 52.04         9.2 0.18            131            158 350 
 ZAR  HZ EP        856 31.12                             121   -0.21 8  211 290 
 ZAR  HN ES        856 56.80                             121   -0.27 8  211 290 
 ZAR  HZ I         857  1.98         4.6 0.30            123            211 290 
 SML  HZ EP        856 34.29                             117   -0.56 8  244 333 
 SML  HN ES   1    857  3.91                             117    0.57 6  244 333 
 SML  HZ I         857  6.05         4.7 0.05            119            244 333 
 MON  HZ EP   4    856 46.01                             108   -1.74 0  358 307 
 MON  HN ES   4    857 24.49                             108   -1.82 0  358 307 
 MON  HZ I         857 25.08         1.8 0.20            110            358 307 
 SJC  HZ EP   4    856 52.82                             105   -1.17 0  411 326 
 SJC  HN ES   4    857 34.45                             105   -2.95 0  411 326 
 SJC  HZ I         857 40.28         1.2 0.67            107            411 326 
                                                                                
