 2017  524 0204 15.1 L   6.733 -73.285124.5  RSN  6 0.4 1.7LRSN                1
 GAP=195        0.87       4.4     4.9  7.4  0.1338E+02  0.2514E+01  0.4764E+00E
 Epicentro: ZAPATOCA - SANTANDER                                               3
 ACTION:UPD 17-06-16 13:38 OP:jn   STATUS:               ID:20170524020415 L   I
 OLDACT:UP  17-06-02 13:53 OP:nlst STATUS:               ID:20170524020415 L   3
 OLDACT:UP  17-05-24 15:29 OP:ar   STATUS:               ID:20170524015738d    3
 OLDACT:DUP 17-05-24 15:20 OP:ar   STATUS:               ID:20170524015738d    3
 2017-05-24-0158-00M.COL___347                                                 6
 STAT SP IPHASW D HRMM SECON CODA AMPLIT PERI AZIMU VELO AIN AR TRES W  DIS CAZ7
 BRR  HZ EP        2 4 32.82                             151   -0.6110 62.8 311 
 BRR  HN ES        2 4 48.06                             151    0.3010 62.8 311 
 BRR  HZ I         2 4 51.70        11.2 0.38            153           62.8 311 
 RUS  HZ EP        2 4 36.18                             140   -0.2110 95.6 167 
 RUS  HN ES        2 4 53.10                             140    0.0810 95.6 167 
 RUS  HZ I         2 4 54.39         4.6 0.26            142           95.6 167 
 PTB  HZ EP   1    2 4 38.40                             130   -0.41 7  131 261 
 PTB  HN ES   1    2 4 56.82                             130   -0.51 7  131 261 
 PTB  HZ I         2 5  2.63         7.7 0.38            131            131 261 
 SPBC HZ EP        2 4 40.86                             127    0.36 9  148 216 
 SPBC HN ES        2 5  0.44                             127    0.10 9  148 216 
 SPBC HZ I         2 5  6.08         7.1 0.24            128            148 216 
 YPLC HE ES        2 5  5.86                             121    0.03 9  179 146 
 YPLC HZ I         2 5 10.20         4.8 0.22            125            179 146 
 ZAR  HZ EP        2 4 45.62                             119    0.60 9  193 296 
 ZAR  HN ES        2 5  8.45                             119    0.06 9  193 296 
 ZAR  HZ I         2 5 11.73         7.9 0.48            122            193 296 
                                                                                
