 2017  224 0729 26.5 L   6.803 -73.067138.9  RSN  5 0.3 0.9LRSN                1
 GAP=147        0.83       4.3     5.8  6.4 -0.1636E+01 -0.8906E+01  0.9315E+00E
 Epicentro: LOS SANTOS - SANTANDER                                             3
 ACTION:UPD 17-05-24 15:40 OP:jn   STATUS:               ID:20170224072926 L   I
 OLDACT:UP  17-02-24 16:29 OP:edw  STATUS:               ID:20170224071744d    3
 OLDACT:DUP 17-02-24 16:27 OP:edw  STATUS:               ID:20170224071744d    3
 2017-02-24-0718-00M.COL___388                                                 6
 STAT SP IPHASW D HRMM SECON CODA AMPLIT PERI AZIMU VELO AIN AR TRES W  DIS CAZ7
 BAR2 EZ EP        729 46.03                             169    0.6910 26.5 209 
 BAR2 EZ ES        730  0.35                             169    0.2910 26.5 209 
 BAR2 EZ I         730  0.73         2.1 0.10            167           26.5 209 
 PAM  EZ EP        729 47.66                             151    0.0410 71.9  34 
 PAM  EE ES        730  3.95                             151   -0.1710 71.9  34 
 BRR  HZ EP        729 47.12                             149   -0.2110 78.8 295 
 BRR  HN ES        730  3.43                             149   -0.1810 78.8 295 
 RUS  HZ EP        729 49.43                             142   -0.1210  101 181 
 RUS  HN ES        730  7.21                             142   -0.3510  101 181 
 RUS  HZ I         730  9.08         1.4 0.40            142            101 181 
 PTB  HZ EP   9    729 51.11                             129   -2.57 0  156 259 
 PTB  HN ES        730 12.52                             131    0.18 9  156 259 
 PTB  HZ I         730 15.86         1.1 0.62            129            156 259 
                                                                                
