 2012 1124 0801 47.9 L   6.779 -73.199147.8  RSN  5 0.3 1.3LRSN                1
 GAP=172        0.59       4.3     5.4  7.1  0.5812E+01  0.3064E+01 -0.1414E+02E
 Epicentro: ZAPATOCA - SANTANDER                                               3
 ACTION:UPD 12-12-05 15:35 OP:}ep  STATUS:               ID:20121124080147 L   I
 2012-11-24-0800-00M.COL___233                                                 6
 STAT SP IPHASW D HRMM SECON CODA AMPLIT PERI AZIMU VELO AIN AR TRES W  DIS CAZ7
 BAR2 SZ EP   1    8 2  7.47                             172   -0.22 7 20.8 175 
 BAR2 SZ ES   1    8 2 22.80                             172   -0.35 7 20.8 175 
 BAR2 SZ I         8 2 25.41         5.8 0.50                          20.8 175 
 GIR2 SZ EP   1    8 2  8.27                             167    0.44 7 33.1   1 
 RUS  HZ EP   1    8 2 11.62                             145   -0.08 7 98.9 173 
 RUS  HE ES   1    8 2 30.57                             145    0.29 7 98.9 173 
 RUS  HZ I         8 2 33.19         1.7 0.42                          98.9 173 
 PTB  HZ EP   1    8 2 14.55                             134    0.10 7  142 259 
 PTB  HN ES   1    8 2 35.13                             134   -0.05 7  142 259 
 PTB  HZ I         8 2 38.64         2.6 0.12                           142 259 
 SML  HZ EP   1    8 2 24.07                             118   -0.51 6  243 337 
 SML  HN ES   1    8 2 53.53                             118    0.32 6  243 337 
                                                                                
