 2013 1124 0122 50.0 L   6.795 -73.174148.0  RSN  7 0.4 1.8LRSN                1
 GAP=242        1.00       6.8     9.7  8.4 -0.2490E+02 -0.1817E+02  0.1675E+02E
 Epicentro: LOS SANTOS - SANTANDER                                             3
 ACTION:UPD 14-01-09 16:30 OP:ep   STATUS:               ID:20131124012250 L   I
 OLDACT:REG 13-11-24 07:46 OP:mh   STATUS:               ID:20131124012000     3
 2013-11-24-0120-00M.COL___282                                                 6
 STAT SP IPHASW D HRMM SECON CODA AMPLIT PERI AZIMU VELO AIN AR TRES W  DIS CAZ7
 BAR2 SZ EP   1    123  9.43                             171   -0.49 7 22.4 182 
 BRR  HZ EP   1    123 11.30                             154    0.00 7 68.8 300 
 BRR  HN ES        123 28.52                             154    0.6410 68.8 300 
 BRR  HZ I         123 34.24         6.5 0.25            152           68.8 300 
 PTB  HZ EP        123 16.55                             134   -0.36 9  145 259 
 PTB  HN ES        123 37.38                             134   -0.48 9  145 259 
 PTB  HZ I         123 39.66         8.9 0.11            135            145 259 
 SPBC HZ EP   1    123 18.44                             130   -0.04 7  161 218 
 SPBC HN ES        123 40.67                             130   -0.00 9  161 218 
 SPBC HZ I         123 46.97         8.1 0.22            133            161 218 
 ZAR  HZ EP        123 22.02                             124   -0.34 9  201 293 
 ZAR  HN ES   4    123 50.63                             124    3.06 0  201 293 
 ZAR  HZ I         123 53.94         5.1 0.10            126            201 293 
 NOR  HZ EP        123 25.62                             120    0.03 8  232 234 
 NOR  HN ES        123 53.48                             120    0.16 8  232 234 
 NOR  HZ I         123 57.24         6.2 0.23            122            232 234 
 GUY2CHZ EP        123 34.44                             113    1.01 7  298 235 
 GUY2CHN ES   4    124 10.84                             113    3.57 0  298 235 
 GUY2CHZ I         124 15.08         2.9 0.30                           298 235 
 SJC  HZ EP   4    123 42.83                             106   -2.71 0  408 327 
 SJC  HN ES   4    124 25.98                             106   -2.85 0  408 327 
                                                                                
