 2012  124 0747 51.8 L   6.845 -73.003144.0  RSN  4 0.2 1.3LRSN                1
 GAP=224        0.43       7.7    14.0  7.8  0.9435E+02 -0.7089E+02 -0.3750E+02E
 Epicentro: CEPITA - SANTANDER                                                 3
 ACTION:UP  12-02-03 08:20 OP:REBC STATUS:               ID:20120124074751 L   I
 2012-01-24-0740-00M.COL___187                                                 6
 STAT SP IPHASW D HRMM SECON CODA AMPLIT PERI AZIMU VELO SNR AR TRES W  DIS CAZ7
 GIR2 SZ EP   2    748 11.62                             166     0.3 5   33 321 
 BAR2 SZ EP   2    748 11.25                             166    -0.3 5   34 215 
 BAR2 SZ ES   2    748 26.76                             166    -0.1 5   34 215 
 BAR2 SZ I         748 27.41         5.4 0.56                            34 215 
 BRR  HZ EP        748 13.39                             148    -0.110   84 290 
 BRR  HZ I         748 13.75         5.8 0.10                            84 290 
 BRR  HE ES   1    748 30.59                             148     0.1 7   84 290 
 RUS  HZ EP   1    748 15.95                             142     0.2 7  106 185 
 RUS  HE ES   1    748 34.41                             142     0.0 7  106 185 
 RUS  HZ I         748 35.40         1.6 0.49                           106 185 
                                                                                
