 2013 1024 0231  4.6 L   6.771 -73.129145.0  RSN  8 0.4 1.6LRSN                1
 GAP=140        0.91       3.7     3.8  5.9 -0.1847E+01  0.5939E+01  0.1184E+01E
 Epicentro: LOS SANTOS - SANTANDER                                             3
 ACTION:UPD 13-11-25 09:23 OP:ep   STATUS:               ID:20131024023104 L   I
 OLDACT:REG 13-10-24 08:26 OP:carl STATUS:               ID:20131024022839     3
 2013-10-24-0228-39M.COL___223                                                 6
 STAT SP IPHASW D HRMM SECON CODA AMPLIT PERI AZIMU VELO AIN AR TRES W  DIS CAZ7
 BAR2 SZ EP        231 24.04                             171    0.0010 20.6 197 
 BAR2 SZ ES        231 39.53                             171    0.3010 20.6 197 
 BAR2 SZ I         231 42.22         8.9 0.50            170           20.6 197 
 BRR  HZ EP        231 25.81                             151    0.0110 74.4 300 
 BRR  HN ES        231 42.64                             151    0.2610 74.4 300 
 BRR  HZ I         231 47.00         7.5 0.38            151           74.4 300 
 PAM  SZ EP        231 26.89                             150    0.1210 78.7  37 
 PAM  SN ES        231 43.56                             150   -0.5310 78.7  37 
 PAM  SZ I         231 45.76         6.3 0.52            155           78.7  37 
 RUS  HZ EP        231 28.48                             145    0.4910 97.3 177 
 RUS  HN ES        231 46.24                             145   -0.0310 97.3 177 
 RUS  HZ I         231 47.98         3.2 0.24            147           97.3 177 
 PTB  HZ EP        231 30.86                             131   -0.72 9  149 260 
 PTB  HN ES        231 52.22                             131   -0.43 9  149 260 
 PTB  HZ I         231 53.86         4.9 0.26            133            149 260 
 SPBC HZ EP        231 33.09                             129    0.21 9  162 220 
 SPBC HN ES        231 54.65                             129   -0.31 9  162 220 
 SPBC HZ I         232  0.75         3.9 0.14            131            162 220 
 ZAR  HZ EP   1    231 37.20                             122   -0.06 6  207 293 
 ZAR  HE ES        232  3.34                             122    0.58 8  207 293 
 ZAR  HZ I         232  7.08         5.1 0.30            124            207 293 
 NOR  HN ES        232  8.12                             118    0.10 8  234 235 
 NOR  HN I         232 13.56         8.0 0.16            120            234 235 
                                                                                
