 2016  824 0224 22.2 L   6.795 -73.139145.5  RSN 13 0.4 1.9LRSN                1
 GAP=138        0.87       2.8     4.8  5.0 -0.2438E+01  0.8515E+01  0.2495E+01E
 Epicentro: LOS SANTOS - SANTANDER                                             3
 ACTION:UPD 16-10-29 15:38 OP:rebc STATUS:               ID:20160824022422 L   I
 OLDACT:UP  16-08-24 15:53 OP:ak   STATUS:               ID:20160824021731     3
 OLDACT:UP  16-08-24 15:51 OP:ak   STATUS:               ID:20160824021731     3
 OLDACT:UP  16-08-24 15:50 OP:ak   STATUS:               ID:20160824021731     3
 OLDACT:UP  16-08-24 15:45 OP:ak   STATUS:               ID:20160824021731     3
 OLDACT:REG 16-08-24 12:22 OP:ak   STATUS:               ID:20160824021731     3
 2016-08-24-0218-00M.COL___365                                                 6
 STAT SP IPHASW D HRMM SECON CODA AMPLIT PERI AZIMU VELO AIN AR TRES W  DIS CAZ7
 BAR2 EZ EP        224 41.69                             171   -0.1410 23.0 192 
 BAR2 HN ES        224 57.04                             171   -0.0810 23.0 192 
 BAR2 EZ I         224 59.43        20.3 0.30                          23.0 192 
 BRR  HZ EP        224 43.39                             152   -0.0310 72.1 299 
 BRR  HN ES        225  0.04                             152    0.1110 72.1 299 
 BRR  HZ I         225  5.42        11.4 0.16                          72.1 299 
 PAM  EZ EP        224 44.66                             151    0.2410 77.3  39 
 PAM  EE ES        225  1.93                             151    0.2010 77.3  39 
 PAM  EZ I         225  4.67         9.8 0.34                          77.3  39 
 RUS  HZ EP        224 45.62                             144   -0.3110  100 176 
 RUS  HE ES        225  4.52                             144    0.1210  100 176 
 RUS  HZ I         225  5.48        11.8 0.28                           100 176 
 PTB  HZ EP   4    224 48.12                             132   -1.13 0  148 259 
 PTB  HE ES   4    225  7.09                             132   -3.22 0  148 259 
 PTB  HZ I         225 12.50         7.1 0.22                           148 259 
 OCA  HZ EP        224 51.33                             129    0.74 9  161 353 
 OCA  HN ES        225 11.87                             129   -0.83 9  161 353 
 OCA  HZ I         225 16.41        21.5 0.46                           161 353 
 ZAR  HN ES   4    225 18.18                             122   -1.95 0  205 292 
 ZAR  HZ I         225 27.43         7.1 0.36                           205 292 
 CHI  HZ EP        224 59.90                             117    0.01 8  248 195 
 CHI  HE ES        225 29.29                             117    0.03 8  248 195 
 CHI  HZ I         225 34.72         3.9 0.28                           248 195 
 HEL  HZ EP   4    225  4.69                             115    2.18 0  273 256 
 HEL  HN ES   4    225 34.37                             115    0.45 0  273 256 
 HEL  HZ I         225 41.27         4.4 0.32                           273 256 
 GUY2CHZ EP        225  5.21                             112   -0.67 7  302 235 
 GUY2CHE ES   4    225 42.01                             112    2.10 0  302 235 
 GUY2CHZ I         225 46.82         4.1 0.60                           302 235 
 CBOC HZ EP        225  9.68                             110    0.47 7  334 252 
 CBOC HE ES        225 46.27                             110    0.42 7  334 252 
 CBOC HZ I         225 49.70         1.5 0.26                           334 252 
 PRA  HZ EP        225 15.53                             106   -0.22 6  392 210 
 PRA  HE ES        225 57.34                             106   -0.14 6  392 210 
 PRA  HZ I         226  3.69         2.8 0.20                           392 210 
 SJC  HZ EP   4    225 15.66                             106   -2.24 0  410 327 
 SJC  HN ES   4    225 56.18                             106   -5.13 0  410 327 
 SJC  HZ I         226  4.62         3.0 0.84                           410 327 
                                                                                
