 2012  724 0203  9.3 L   6.673 -73.207152.9  RSN  4 0.2 1.2LRSN                1
 GAP=212        0.48       5.8     7.1  6.6  0.2507E+02 -0.1046E+02 -0.1082E+02E
 Epicentro: VILLANUEVA - SANTANDER                                             3
 ACTION:UPD 12-08-14 11:45 OP:ep   STATUS:               ID:20120724020309 L   I
 2012-07-24-0200-00M.COL___215                                                 6
 STAT SP IPHASW D HRMM SECON CODA AMPLIT PERI AZIMU VELO AIN AR TRES W  DIS CAZ7
 BAR2 SZ EP        2 3 29.38                             176    -0.210    9 163 
 BAR2 SZ ES   2    2 3 45.02                             176    -0.4 5    9 163 
 BAR2 SZ I         2 3 47.25         3.5 0.36            165              9 163 
 BRR  HZ EP        2 3 31.34                             153     0.010   74 311 
 BRR  HE ES   2    2 3 48.93                             153     0.4 5   74 311 
 RUS  HZ EP        2 3 32.94                             149     0.110   87 171 
 RUS  HN ES   1    2 3 51.32                             149     0.1 7   87 171 
 PTB  HN ES   2    2 3 56.70                             135    -0.2 5  139 264 
 PTB  HZ I         2 4  4.41         1.7 0.52            129            139 264 
