 2015  424 0651 46.3 L   6.775 -73.132150.6  RSN  5 0.5 1.5LRSN                1
 GAP=237        1.22       7.1     7.9 11.0  0.7812E+01  0.1079E+01  0.6534E+01E
 Epicentro: LOS SANTOS - SANTANDER                                             3
 ACTION:UPD 15-06-03 16:57 OP:cam  STATUS:               ID:20150424065146 L   I
 OLDACT:REG 15-04-24 12:32 OP:mh   STATUS:               ID:20150424064742     3
 2015-04-24-0647-42M.COL___257                                                 6
 STAT SP IPHASW D HRMM SECON CODA AMPLIT PERI AZIMU VELO AIN AR TRES W  DIS CAZ7
 BRR  HZ EP        652  8.58                             152    0.4110 73.9 300 
 BRR  HN ES        652 25.47                             152    0.2810 73.9 300 
 BRR  HZ I         652 30.47         4.5 0.10            153           73.9 300 
 RUS  HZ EP        652 10.40                             146    0.0310 97.7 177 
 RUS  HN ES        652 28.90                             146   -0.2210 97.7 177 
 RUS  HZ I         652 29.82         3.1 0.26            151           97.7 177 
 PTB  HZ EP        652 12.81                             133   -0.99 9  149 260 
 PTB  HN ES        652 34.71                             133   -0.50 9  149 260 
 PTB  HZ I         652 36.83         5.6 0.12            136            149 260 
 SPBC HZ EP        652 15.56                             130    0.45 9  162 220 
 SPBC HN ES        652 37.44                             130   -0.10 9  162 220 
 NOR  HN ES        652 51.14                             120    0.76 8  234 235 
 GUY2CHN ES   4    653  5.81                             113    1.51 0  301 235 
                                                                                
