 2014  424 0055 54.6 L   6.646 -73.171142.0  RSN  4 0.4 1.2LRSN                1
 GAP=223        0.94       8.0     8.1 10.3  0.3448E+02  0.2709E+01  0.1380E+01E
 Epicentro: VILLANUEVA - SANTANDER                                             3
 ACTION:UPD 14-05-13 23:11 OP:nd   STATUS:               ID:20140424005554 L   I
 OLDACT:UP  14-04-24 16:35 OP:spq  STATUS:               ID:20140424004811d    3
 OLDACT:DUP 14-04-24 16:26 OP:spq  STATUS:               ID:20140424004811d    3
 2014-04-24-0048-10M.COL___245                                                 6
 STAT SP IPHASW D HRMM SECON CODA AMPLIT PERI AZIMU VELO AIN AR TRES W  DIS CAZ7
 BRR  HZ EP        056 15.58                             150   -0.1910 78.6 311 
 BRR  HE ES        056 32.55                             150    0.2610 78.6 311 
 BRR  HZ I         056 35.61         4.7 0.42            142           78.6 311 
 RUS  HZ EP   1    056 17.59                             148    0.78 7 83.8 173 
 RUS  HE ES   1    056 33.60                             148   -0.54 7 83.8 173 
 RUS  HZ I         056 37.13         1.7 0.34            138           83.8 173 
 PTB  HZ EP        056 20.45                             133   -0.33 9  143 265 
 PTB  HZ I         056 36.74         2.7 0.26            123            143 265 
 PTB  HN ES        056 41.52                             133    0.31 9  143 265 
 ZAR  HN ES   1    056 52.27                             121   -0.47 6  209 297 
                                                                                
