 2012  124 0855  0.8 L   6.764 -73.134137.2  RSN 13 0.2 2.4LRSN                1
 GAP=140        0.49       1.8     2.1  2.7 -0.7480E+00  0.1485E+01  0.9767E+00E
 Epicentro: LOS SANTOS - SANTANDER                                             3
 ACTION:UP  12-02-03 08:20 OP:REBC STATUS:               ID:20120124085500 L   I
 2012-01-24-0850-00M.COL___187                                                 6
 STAT SP IPHASW D HRMM SECON CODA AMPLIT PERI AZIMU VELO SNR AR TRES W  DIS CAZ7
 BAR2 SZ EP        855 19.41                             171     0.110   20 196 
 BAR2 SZ ES        855 33.43                             171    -0.310   20 196 
 BAR2 SZ I         855 35.10        92.2 0.27                            20 196 
 GIR2 SZ EP        855 19.48                             165    -0.110   35 349 
 GIR2 SZ ES   1    855 34.28                             165     0.1 7   35 349 
 BRR  HZ IP     C  855 21.31                             150     0.110   74 301 
 BRR  HZ I         855 21.67        98.5 0.12                            74 301 
 BRR  HE ES        855 37.37                             150     0.310   74 301 
 PAM  SZ EP        855 22.32                             148     0.110   80  37 
 PAM  SN ES        855 38.96                             148     0.010   80  37 
 RUS  HZ EP        855 23.38                             143     0.010   97 177 
 RUS  HN ES   1    855 41.33                             143     0.3 7   97 177 
 RUS  HZ I         855 43.42        28.6 0.53                            97 177 
 PTB  HE ES   1    855 47.23                             130    -0.4 7  148 260 
 OCA  SZ EP        855 28.83                             127     0.0 9  164 353 
 OCA  SZ ES   2    855 50.55                             127    -0.2 5  164 353 
 OCA  SZ I         855 55.98        43.1 0.36                           164 353 
 ZAR  HZ EP   1    855 32.49                             120    -0.5 6  207 293 
 ZAR  HN ES   1    855 58.18                             120     0.1 6  207 293 
 ZAR  HZ I         856  6.15        34.1 0.45                           207 293 
 NOR  SZ EP   1    855 35.78                             117    -0.1 6  233 235 
 NOR  SN ES   1    856  3.39                             117     0.1 6  233 235 
 CHI  HZ EP   1    855 37.60                             116     0.0 6  245 196 
 CHI  HN ES   1    856  6.50                             116     0.1 6  245 196 
 CHI  HZ I         856 13.74         6.7 0.38                           245 196 
 HEL  HZ EP   1    855 40.89                             113     0.3 6  272 257 
 HEL  HE ES   1    856 12.02                             113     0.3 6  272 257 
 HEL  HZ I         856 18.52        11.2 0.62                           272 257 
 RREF HZ EP   1    855 46.44                             109     0.0 5  320 230 
 RREF HE ES   1    856 21.71                             109    -0.3 5  320 230 
 RREF HZ I         856 33.83         6.3 0.33                           320 230 
 PRA  HZ EP   1    855 53.85                             105     0.1 4  389 210 
 PRA  HN ES   1    856 34.79                             105    -0.2 4  389 210 
                                                                                
