 2012  324 0440 34.6 L   6.795 -73.149147.2  RSN 18 0.4 2.7LRSN                1
 GAP=114        0.73       2.4     3.1  4.5 -0.1827E+00  0.3559E+01  0.1005E+01E
 ACTION:UP  12-03-31 23:22 OP:EP   STATUS:               ID:20120324044034 L   I
 2012-03-24-0440-00M.COL___196                                                 6
 STAT SP IPHASW D HRMM SECON CODA AMPLIT PERI AZIMU VELO SNR AR TRES W  DIS CAZ7
 BAR2 SZ IP        440 54.35                             171     0.010   23 189 
 BAR2 SZ ES   1    441  9.75                             171    -0.1 7   23 189 
 BAR2 SZ I         441 11.03       146.2 0.22                            23 189 
 BRR  HZ IP     C  440 56.14                             153     0.210   71 299 
 BRR  HZ I         440 58.07       103.8 0.13                            71 299 
 BRR  HE ES   1    441 13.28                             153     0.8 7   71 299 
 PAM  SZ EP        440 57.25                             151     0.210   78  40 
 PAM  SN ES   2    441 14.28                             151    -0.2 5   78  40 
 RUS  HZ IP     D  440 58.18                             144    -0.310  100 176 
 RUS  HN ES   1    441 16.61                             144    -0.4 7  100 176 
 RUS  HZ I         441 18.29        40.0 0.38                           100 176 
 PTB  HZ EP        441  0.90                             132    -0.7 9  147 259 
 PTB  HE ES   2    441 22.29                             132    -0.4 5  147 259 
 PTB  HZ I         441 27.32        35.7 0.30                           147 259 
 OCA  SZ EP        441  2.95                             130    -0.1 9  161 353 
 OCA  SZ ES   2    441 25.14                             130    -0.1 5  161 353 
 YOP  SZ EP   1    441  4.98                             127     0.3 7  179 153 
 YOP  SN ES   2    441 28.49                             127     0.3 4  179 153 
 ZAR  HZ EP   1    441  6.94                             123    -0.2 6  204 292 
 ZAR  HN ES   2    441 32.23                             123    -0.3 4  204 292 
 ZAR  HZ I         441 38.42        59.2 0.37                           204 292 
 NOR  SZ EP   2    441 10.33                             119     0.0 4  234 235 
 NOR  SE ES   1    441 37.88                             119    -0.3 6  234 235 
 CHI  HZ EP        441 12.54                             117     0.2 8  248 195 
 CHI  HZ I         441 13.15        27.2 0.26                           248 195 
 CHI  HN ES   1    441 42.04                             117     0.3 6  248 195 
 HEL  HZ EP   2    441 15.35                             115     0.5 4  272 256 
 HEL  HE ES   2    441 46.81                             115     0.6 4  272 256 
 HEL  HZ I         441 54.60        32.4 0.34                           272 256 
 GUY  SZ EP   1    441 19.05                             112     0.6 5  303 235 
 GUY  SN ES   2    441 52.70                             112     0.0 4  303 235 
 VIL  SZ EP   1    441 18.14                             112     0.1 5  303 192 
 VIL  SN ES   2    441 51.77                             112    -0.1 4  303 192 
 GUY  SZ I         442  2.02        54.2 0.53                           303 235 
 VIL  SZ I         442  2.08        19.0 0.32                           303 192 
 RREF HZ EP   2    441 20.94                             111     0.2 3  321 229 
 RREF HN ES   2    441 56.67                             111     0.0 3  321 229 
 RREF HZ I         442  8.53        28.3 0.22                           321 229 
 DBB  SZ EP        441 22.74                             110     0.7 7  339 274 
 DBB  SZ ES        441 58.96                             110    -0.2 7  339 274 
 TOL  SZ EP   2    441 23.21                             110     0.4 3  343 225 
 TOL  SZ ES   2    442  0.34                             110    -0.1 3  343 225 
 COD  HZ EP   1    441 22.47                             109    -0.6 5  349 355 
 COD  HE ES   2    442  0.76                             109    -0.1 3  349 355 
 COD  HZ I         442 11.33        23.1 0.63                           349 355 
 PRA  HZ EP        441 27.75                             107    -0.3 6  391 210 
 PRA  HE ES   2    442  9.85                             107     0.0 3  391 210 
                                                                                
