 2016  624 0830 31.3 L   6.807 -73.134149.3  RSN 13 0.4 1.6LRSN                1
 GAP=210        0.87       3.3     3.8  5.1  0.1880E+01  0.6058E+01  0.2327E+01E
 Epicentro: LOS SANTOS - SANTANDER                                             3
 ACTION:UPD 16-07-21 22:22 OP:rebc STATUS:               ID:20160624083031 L   I
 OLDACT:REG 16-06-24 14:36 OP:ak   STATUS:               ID:20160624082742     3
 2016-06-24-0827-42M.COL___325                                                 6
 STAT SP IPHASW D HRMM SECON CODA AMPLIT PERI AZIMU VELO AIN AR TRES W  DIS CAZ7
 BAR2 EZ EP        830 51.24                             171   -0.1610 24.4 193 
 BAR2 EZ ES        831  7.48                             171    0.4210 24.4 193 
 BAR2 EZ I         831  8.52         5.6 0.25                          24.4 193 
 BRR  HZ IP     C  830 53.33                             153    0.4410 72.0 297 
 BRR  HN ES        831  9.98                             153    0.2610 72.0 297 
 BRR  HZ I         831 11.95         6.1 0.23                          72.0 297 
 RUS  HZ EP        830 55.53                             144    0.0610  101 177 
 RUS  HN ES        831 14.23                             144   -0.0810  101 177 
 RUS  HZ I         831 17.57         3.2 0.16                           101 177 
 PTB  HZ EP        830 58.19                             133   -0.52 9  149 259 
 PTB  HN ES        831 19.54                             133   -0.53 9  149 259 
 PTB  HZ I         831 24.91         4.7 0.07                           149 259 
 SPBC HZ EP        831  0.51                             130    0.28 9  165 219 
 SPBC HN ES        831 22.30                             130   -0.48 9  165 219 
 SPBC HZ I         831 25.62        10.5 0.51                           165 219 
 ZAR  HZ EP        831  4.20                             123    0.11 9  205 292 
 ZAR  HN ES        831 29.33                             123   -0.32 9  205 292 
 ZAR  HZ I         831 35.75         5.0 0.28                           205 292 
 NOR  HZ EP   2    831  7.35                             119   -0.07 4  236 234 
 NOR  HE ES        831 35.09                             119   -0.49 8  236 234 
 NOR  HZ I         831 40.17         3.8 0.24                           236 234 
 CHI  HN ES        831 38.63                             118   -0.36 8  250 195 
 HEL  HE ES        831 43.94                             115    0.43 8  274 256 
 GUY2CHZ EP   2    831 15.26                             113   -0.01 4  303 235 
 GUY2CHN ES        831 50.19                             113    0.65 7  303 235 
 GUY2CHZ I         831 57.72         2.3 0.68                           303 235 
 CBOC HZ EP   2    831 18.89                             110    0.34 3  335 252 
 CBOC HN ES        831 55.94                             110    0.54 7  335 252 
 CBOC HZ I         832  1.37         1.0 0.41                           335 252 
 PRA  HZ EP        831 25.65                             107    0.53 6  393 210 
 PRA  HN ES        832  7.12                             107    0.03 6  393 210 
 PRA  HZ I         832 11.27         1.6 0.62                           393 210 
 SJC  HZ EP   1    831 25.84                             106   -1.16 4  409 327 
 SJC  HN ES   4    832  8.26                             106   -2.18 0  409 327 
 SJC  HZ I         832 11.69         1.1 0.61                           409 327 
                                                                                
