 2012 1224 0225 33.7 L   6.828 -73.133147.2  RSN  7 0.4 1.6LRSN                1
 GAP=184        0.85       4.4     6.2  7.8  0.6603E+01  0.3083E+01 -0.8619E+01E
 Epicentro: LOS SANTOS - SANTANDER                                             3
 ACTION:UPD 13-01-04 14:30 OP:ep   STATUS:               ID:20121224022533 L   I
 2012-12-24-0220-00M.COL___243                                                 6
 STAT SP IPHASW D HRMM SECON CODA AMPLIT PERI AZIMU VELO AIN AR TRES W  DIS CAZ7
 BAR2 SZ EP   1    225 53.62                             169    0.08 7 26.7 192 
 BAR2 SZ ES   1    226  8.53                             169   -0.51 7 26.7 192 
 BAR2 SZ I         226 10.57        12.2 0.28                          26.7 192 
 BRR  HZ EP     C  225 55.42                             153    0.4610 71.0 296 
 BRR  HE ES   1    226 12.19                             153    0.62 7 71.0 296 
 BRR  HZ I         226 15.84         7.4 0.46                          71.0 296 
 RUS  HZ EP   1    225 57.95                             143    0.17 7  104 177 
 RUS  HN ES   1    226 16.59                             143    0.00 7  104 177 
 RUS  HZ I         226 17.77         2.2 0.18                           104 177 
 PTB  HZ EP   1    226  0.44                             132   -0.49 7  150 258 
 PTB  HN ES   1    226 21.71                             132   -0.49 7  150 258 
 PTB  HZ I         226 26.98         5.6 0.36                           150 258 
 OCA  HZ EP   1    226  1.16                             130   -0.65 7  157 353 
 OCA  HE ES   1    226 23.91                             130    0.14 7  157 353 
 OCA  HZ I         226 28.84         4.8 0.16                           157 353 
 ZAR  HZ EP   1    226  6.81                             123    0.59 6  204 291 
 ZAR  HE ES   1    226 31.57                             123   -0.04 6  204 291 
 ZAR  HZ I         226 40.74         4.3 0.28                           204 291 
 SML  HE ES   1    226 38.11                             118   -0.46 6  241 335 
                                                                                
