 2012  324 0900 29.9 L   6.757 -73.136153.0  RSN  4 0.3 1.1LRSN                1
 GAP=235        0.64       9.3     9.7  8.7  0.5159E+02 -0.8845E+01  0.9313E+01E
 ACTION:UP  12-03-31 23:22 OP:EP   STATUS:               ID:20120324090029 L   I
 2012-03-24-0900-00M.COL___196                                                 6
 STAT SP IPHASW D HRMM SECON CODA AMPLIT PERI AZIMU VELO SNR AR TRES W  DIS CAZ7
 BAR2 SZ EP   1    9 0 50.20                             173    -0.2 7   19 196 
 BAR2 SZ ES   1    9 1  5.94                             173    -0.4 7   19 196 
 BAR2 SZ I         9 1  8.03         3.3 0.41                            19 196 
 BRR  HZ EP   2    9 0 52.17                             153     0.1 5   74 301 
 BRR  HE ES   1    9 1  9.62                             153     0.3 7   74 301 
 BRR  HZ I         9 1 10.44         4.4 0.58                            74 301 
 RUS  HZ EP   1    9 0 54.15                             147     0.1 7   96 176 
 RUS  HZ I         9 0 55.08         0.8 0.33                            96 176 
 RUS  HN ES   2    9 1 13.46                             147     0.5 5   96 176 
 PTB  HE ES   2    9 1 18.65                             133    -0.4 5  148 261 
                                                                                
