 2013  224 0806  0.3 L   6.783 -73.162144.0  RSN  5 0.3 1.0LRSN                1
 GAP=234        0.61       7.0     6.5  8.0  0.2832E+02  0.1899E+02  0.5204E+01E
 Epicentro: LOS SANTOS - SANTANDER                                             3
 ACTION:UPD 13-03-12 09:35 OP:ep   STATUS:               ID:20130224080600 L   I
 2013-02-24-0800-00M.COL___225                                                 6
 STAT SP IPHASW D HRMM SECON CODA AMPLIT PERI AZIMU VELO AIN AR TRES W  DIS CAZ7
 BAR2 SZ EP   1    8 6 19.75                             171    0.10 7 21.2 186 
 BAR2 SZ ES   1    8 6 34.91                             171    0.15 7 21.2 186 
 BRR  HN ES   1    8 6 37.12                             152   -0.39 7 70.6 301 
 BRR  HZ I         8 6 41.94         2.2 0.42            153           70.6 301 
 RUS  HE ES   1    8 6 42.12                             144    0.11 7 98.8 175 
 RUS  HZ I         8 6 43.15         1.0 0.30            149           98.8 175 
 PTB  HZ EP   1    8 6 26.55                             132   -0.35 7  146 259 
 PTB  HN ES   1    8 6 47.56                             132   -0.11 7  146 259 
 PTB  HZ I         8 6 49.87         1.6 0.12            135            146 259 
 ZAR  HN ES   1    8 6 58.24                             122    0.60 6  203 293 
                                                                                
