 2012  424 0300 43.8 L   6.786 -73.142142.8  RSN  7 0.4 1.5LRSN                1
 GAP=138        0.96       4.3     6.2  8.5  0.8823E+00  0.1684E+02 -0.3310E+01E
 Epicentro: LOS SANTOS - SANTANDER                                             3
 ACTION:UPD 12-07-05 11:55 OP:tino STATUS:               ID:20120424030043 L   I
 2012-04-24-0300-00M.COL___186                                                 6
 STAT SP IPHASW D HRMM SECON CODA AMPLIT PERI AZIMU VELO AIN AR TRES W  DIS CAZ7
 BAR2 SZ EP   1    3 1  3.36                             171     0.3 7   22 192 
 BAR2 SZ ES   2    3 1 17.48                             171    -0.6 5   22 192 
 BAR2 SZ I         3 1 20.61        13.6 0.42                            22 192 
 BRR  HZ EP   1    3 1  5.06                             152     0.3 7   72 299 
 BRR  HZ I         3 1  5.30        13.5 0.18                            72 299 
 BRR  HN ES   1    3 1 21.82                             152     0.8 7   72 299 
 PAM  SZ EP   1    3 1  6.20                             150     0.4 7   78  39 
 PAM  SZ I         3 1  6.47         7.0 0.17                            78  39 
 PAM  SN ES   1    3 1 22.78                             150    -0.1 7   78  39 
 RUS  HZ EP   1    3 1  7.51                             144     0.3 7   99 176 
 RUS  HN ES        3 1 25.09                             144    -0.310   99 176 
 RUS  HZ I         3 1 27.57         6.3 0.28                            99 176 
 OCA  SZ EP   1    3 1 11.72                             129    -0.4 7  162 353 
 OCA  SZ ES   1    3 1 33.70                             129    -0.4 7  162 353 
 OCA  SZ I         3 1 36.70         0.2 0.23                           162 353 
 ZAR  HZ EP   1    3 1 16.28                             122     0.1 6  205 293 
 ZAR  HN ES   1    3 1 40.93                             122    -0.5 6  205 293 
 ZAR  HZ I         3 1 46.89         8.8 0.22                           205 293 
 NOR  SZ EP   1    3 1 18.74                             118    -0.6 6  234 235 
 NOR  SN ES   2    3 1 47.51                             118     0.5 4  234 235 
                                                                                
