 2013  524 0009 23.9 L   6.172 -73.803 13.1  RSN  7 0.4 1.9LRSN                1
 GAP=129        1.15       3.0     2.2  6.0 -0.4113E+00  0.2722E+00 -0.1913E+01E
 Epicentro: LANDAZURI - SANTANDER                                              3
 ACTION:UPD 13-06-20 09:53 OP:ep   STATUS:               ID:20130524000924 L   I
 OLDACT:UP  13-06-17 14:35 OP:ep   STATUS:               ID:20130524000924 L   3
 OLDACT:UP  13-05-27 02:14 OP:CF   STATUS:               ID:20130524000924 L   3
 2013-05-24-0000-09M.COL___202                                                 6
 STAT SP IPHASW D HRMM SECON CODA AMPLIT PERI AZIMU VELO AIN AR TRES W  DIS CAZ7
 BAR2 SZ EP        0 9 37.17                              97   -0.2210 82.8  56 
 BAR2 SZ I         0 9 37.83        12.1 0.30             93           82.8  56 
 PTB  HZ IP     D  0 9 36.40                              97   -0.7710 82.9 299 
 PTB  HN ES        0 9 48.37                              97    0.8610 82.9 299 
 PTB  HN I         0 9 49.34        59.4 0.26             93           82.9 299 
 RUS  HZ IP     D  0 9 38.51                              97    0.4710 85.4 111 
 RUS  HN ES        0 9 48.97                              97   -0.0910 85.4 111 
 RUS  HN I         0 9 49.92        16.3 0.34             93           85.4 111 
 BRR  HZ EP        0 9 40.52                              95    0.2110  104   6 
 BRR  HN ES        0 9 52.70                              95   -0.3910  104   6 
 BRR  HN I         0 9 53.76        20.0 0.42             92            104   6 
 NOR  HZ EP        0 9 45.53                              94    0.32 9  136 240 
 NOR  HN ES        010  1.31                              94   -0.51 9  136 240 
 NOR  HN I         010  2.10        32.4 0.14             92            136 240 
 PAM  SZ EP   4    0 9 52.94                              56    1.76 0  178  43 
 PAM  SN ES        010 12.53                              56    0.09 9  178  43 
 PAM  SN I         010 16.97        25.8 0.34             56            178  43 
 HEL  HZ EP        0 9 52.92                              56    0.20 9  191 271 
 HEL  HN ES   1    010 14.92                              56   -0.27 7  191 271 
 HEL  HN I         010 15.51        36.6 0.22             56            191 271 
                                                                                
