 2016  524 0411 59.4 L   6.523 -73.017124.4  RSN  4 0.1 1.3LRSN                1
 GAP=196        0.29       2.3     2.7  3.8  0.2961E+01  0.2771E+00 -0.2992E+01E
 Epicentro: MOGOTES - SANTANDER                                                3
 ACTION:UPD 16-08-18 17:49 OP:cam  STATUS:               ID:20160524041159 L   I
 OLDACT:DUP 16-05-24 12:41 OP:dnl  STATUS:               ID:20160524040745d    3
 OLDACT:REG 16-05-24 12:24 OP:mhre STATUS:               ID:20160524040744     3
 2016-05-24-0407-44M.COL___304                                                 6
 STAT SP IPHASW D HRMM SECON CODA AMPLIT PERI AZIMU VELO AIN AR TRES W  DIS CAZ7
 RUS  HZ EP   2    412 19.00                             149    0.04 5 70.1 186 
 RUS  HN ES        412 34.16                             149   -0.0210 70.1 186 
 RUS  HZ I         412 36.03         4.4 0.54            153           70.1 186 
 BRR  HZ EP        412 20.49                             138    0.0310  100 310 
 BRR  HE ES        412 36.87                             138    0.0210  100 310 
 BRR  HZ I         412 41.42         2.5 0.14            141            100 310 
 PTB  HZ EP   2    412 25.98                             124    0.08 5  159 271 
 PTB  HN ES        412 46.47                             124   -0.06 9  159 271 
 PTB  HZ I         412 48.44         2.0 0.16            128            159 271 
 OCA  HZ EP   3    412 29.32                             119   -0.24 2  193 350 
 OCA  HE ES   4    412 48.92                             119   -4.13 0  193 350 
 OCA  HZ I         412 51.95         4.4 0.27            124            193 350 
                                                                                
