 2011  624 0507 56.6 L   6.776 -73.066142.9  RSN 12 0.4 1.8LRSN                1
 GAP=165        0.66       3.2     5.0  5.7 -0.4575E+01  0.3092E+01  0.2840E+01E
 Epicentro: LOS SANTOS - SANTANDER                                             3
 ACTION:UP  11-07-14 19:07 OP:ep   STATUS:               ID:20110624050756 L   I
 2011-06-24-0506-28S.COL___140                                                 6
 STAT SP IPHASW D HRMM SECON CODA AMPLIT PERI AZIMU VELO SNR AR TRES W  DIS CAZ7
 BAR2 SZ IP        5 8 15.95                             170     0.010   24 212 
 BAR2 SZ ES   2    5 8 30.13                             170    -0.9 5   24 212 
 BAR2 SZ I         5 8 32.52        16.4 0.06                            24 212 
 BTL  SZ EP   1    5 8 16.30                             169     0.3 7   27 305 
 GIR2 SZ EP   1    5 8 16.04                             165    -0.1 7   36 337 
 GIR2 SZ ES   2    5 8 30.99                             165    -0.3 5   36 337 
 BRR  HZ EP   1    5 8 17.75                             149    -0.3 7   80 297 
 BRR  HN ES   1    5 8 35.01                             149     0.3 7   80 297 
 BRR  HZ I         5 8 37.96        12.5 0.27                            80 297 
 RUS  HZ EP   1    5 8 20.03                             144     0.1 7   98 181 
 RUS  HZ I         5 8 20.65         4.1 0.20                            98 181 
 RUS  HN ES   1    5 8 38.70                             144     0.6 7   98 181 
 BRI  SZ EP   2    5 8 20.53                             141     0.3 5  108  16 
 GRA  SZ EP   1    5 8 21.78                             137     0.1 7  126  13 
 GRA  SZ ES   2    5 8 40.65                             137    -0.5 5  126  13 
 GRA  SZ I         5 8 42.09         4.1 0.33                           126  13 
 OCA  SZ ES   2    5 8 47.14                             129    -0.2 5  164 350 
 OCA  SZ I         5 8 51.94        13.3 0.31                           164 350 
 NOR  SZ EP   1    5 8 32.41                             117    -0.4 6  240 236 
 NOR  SN ES   1    5 9  0.97                             117    -0.1 6  240 236 
 CHI  HZ EP   2    5 8 33.63                             117    -0.5 4  249 197 
 CHI  HE ES   2    5 9  2.99                             117    -0.5 4  249 197 
 CHI  HZ I         5 9 13.79         3.7 0.42                           249 197 
 HEL  HZ EP   2    5 8 37.68                             114     0.1 4  280 257 
 HEL  HN ES   2    5 9  9.98                             114     0.4 4  280 257 
 HEL  HZ I         5 9 14.80         7.2 0.66                           280 257 
 PRA  HZ EP   2    5 8 50.17                             106    -0.1 3  394 211 
 PRA  HN ES   2    5 9 31.92                             106    -0.3 3  394 211 
                                                                                
