 2010 1124 0614 58.0 L   6.805 -73.181136.0  RSN  8 0.3 2.1LRSN                1
 GAP=155        0.66       3.5     6.1  9.3 -0.9279E+01  0.2852E+02 -0.1077E+02E
 Epicentro: LOS SANTOS - SANTANDER                                             3
 ACTION:UP  10-12-17 16:54 OP:REBC STATUS:               ID:20101124061458 L   I
 2010-11-24-0614-36S.COL___129                                                 6
 STAT SP IPHASW D HRMM SECON CODA AMPLIT PERI AZIMU VELO SNR AR TRES W  DIS CAZ7
 BAR2 SZ EP        615 16.60                             170     0.210   24 181 
 BAR2 SZ I         615 32.93        27.3 0.22                            24 181 
 RUS  HZ EP        615 20.58                             141    -0.310  102 174 
 RUS  HN ES   1    615 38.88                             141     0.2 7  102 174 
 RUS  HZ I         615 41.38        11.6 0.44                           102 174 
 GRA  SZ EP        615 22.51                             135     0.110  126  19 
 GRA  SZ I         615 44.04        10.4 0.33                           126  19 
 OCA  SZ EP   1    615 25.14                             128    -0.3 7  159 354 
 OCA  SZ I         615 51.79        16.3 0.34                           159 354 
 CHI  HZ EP   1    615 35.02                             115    -0.1 6  248 194 
 CHI  HE ES   1    616  3.98                             115    -0.1 6  248 194 
 CHI  HZ I         616 10.44         4.3 0.34                           248 194 
 HEL  HZ EP   2    615 38.13                             113     0.8 4  268 255 
 HEL  HE ES   1    616  7.69                             113    -0.3 6  268 255 
 HEL  HZ I         616 15.15         6.4 0.40                           268 255 
 RREF HZ EP   1    615 44.00                             109     0.6 5  319 229 
 RREF HZ I         616 25.17         5.0 0.49                           319 229 
 PRA  HZ EP   1    615 51.16                             105     0.1 4  391 209 
 PRA  HN ES   1    616 32.19                             105    -0.2 4  391 209 
 PRA  HZ I         616 39.59        17.6 0.31                           391 209 
                                                                                
