 2013  224 0721 28.3 L   6.743 -73.182149.2  RSN  5 0.4 1.3LRSN                1
 GAP=179        0.81       5.1     7.2  8.7  0.7738E+01  0.4868E+01 -0.1805E+01E
 Epicentro: VILLANUEVA - SANTANDER                                             3
 ACTION:UPD 13-03-12 09:35 OP:ep   STATUS:               ID:20130224072128 L   I
 2013-02-24-0720-00M.COL___225                                                 6
 STAT SP IPHASW D HRMM SECON CODA AMPLIT PERI AZIMU VELO AIN AR TRES W  DIS CAZ7
 BAR2 SZ EP   1    721 48.21                             173   -0.05 7 16.7 180 
 BAR2 SZ ES   1    722  2.99                             173   -0.81 7 16.7 180 
 BAR2 SZ I         722  4.85         5.6 0.20            167           16.7 180 
 BRR  HZ EP   1    721 50.07                             153    0.23 7 71.1 305 
 BRR  HN ES   1    722  7.18                             153    0.56 7 71.1 305 
 BRR  HZ I         722  8.39         3.7 0.58            151           71.1 305 
 RUS  HZ EP   1    721 52.03                             146    0.02 7 94.7 173 
 RUS  HN ES   1    722 10.99                             146    0.51 7 94.7 173 
 RUS  HZ I         722 14.19         1.5 0.48            145           94.7 173 
 PTB  HZ EP   1    721 54.75                             134   -0.38 7  143 261 
 PTB  HN ES   1    722 15.92                             134   -0.12 7  143 261 
 PTB  HZ I         722 22.01         3.5 0.18            132            143 261 
 OCA  HE ES   1    722 20.13                             129   -0.04 7  166 355 
                                                                                
