 2017  224 0032 24.1 L   6.779 -73.139142.7  RSN  4 0.2 1.1LRSN                1
 GAP=138        0.62       3.3     3.2  5.5 -0.1169E+01  0.1711E+01  0.2508E+01E
 Epicentro: LOS SANTOS - SANTANDER                                             3
 ACTION:UPD 17-05-24 15:39 OP:jn   STATUS:               ID:20170224003224 L   I
 OLDACT:REG 17-02-24 12:09 OP:edw  STATUS:               ID:20170224002747     3
 2017-02-24-0028-00M.COL___394                                                 6
 STAT SP IPHASW D HRMM SECON CODA AMPLIT PERI AZIMU VELO AIN AR TRES W  DIS CAZ7
 BRR  HZ EP        032 45.21                             151    0.1810 73.0 300 
 BRR  HN ES        033  1.71                             151    0.3610 73.0 300 
 PAM  EZ EP        032 46.04                             150   -0.0410 78.7  38 
 PAM  EN ES        033  2.96                             150   -0.2610 78.7  38 
 PAM  EZ I         033  3.70         2.3 0.20            151           78.7  38 
 RUS  HZ EP        032 47.48                             144    0.0910 98.2 176 
 RUS  HN ES        033  5.58                             144    0.0410 98.2 176 
 RUS  HZ I         033  7.65         2.2 0.30            144           98.2 176 
 PTB  HZ EP        032 50.84                             131   -0.02 9  148 260 
 PTB  HN ES        033 11.32                             131   -0.40 9  148 260 
                                                                                
