 2016  924 0657 16.5 L   6.766 -73.176142.4  RSN  6 0.4 1.5LRSN                1
 GAP=231        0.96       5.1     5.5  6.5  0.1147E+02  0.6909E+01 -0.4393E+00E
 Epicentro: LOS SANTOS - SANTANDER                                             3
 ACTION:UPD 17-08-17 21:15 OP:lp   STATUS:               ID:20160924065716 L   I
 OLDACT:REG 16-09-24 12:54 OP:y    STATUS:               ID:20160924064745     3
 2016-09-24-0648-00M.COL___330                                                 6
 STAT SP IPHASW D HRMM SECON CODA AMPLIT PERI AZIMU VELO AIN AR TRES W  DIS CAZ7
 BAR2 EZ EP        657 35.45                             172   -0.2410 19.2 182 
 BAR2 EZ ES        657 50.19                             172   -0.4410 19.2 182 
 BAR2 EZ I         657 51.22        10.5 0.34            160           19.2 182 
 BRR  HZ EP        657 37.11                             152   -0.1710 70.3 303 
 BRR  HN ES        657 54.10                             152    0.6510 70.3 303 
 BRR  HZ I         657 58.07         7.6 0.14            149           70.3 303 
 RUS  HZ EP        657 40.08                             144    0.3710 97.1 174 
 RUS  HE ES        657 57.89                             144    0.1010 97.1 174 
 RUS  HZ I         658  0.24         2.9 0.34            140           97.1 174 
 PTB  HZ EP        657 42.25                             132   -0.63 9  144 260 
 PTB  HE ES        658  3.17                             132   -0.25 9  144 260 
 PTB  HZ I         658  6.44         5.5 0.36            128            144 260 
 SPBC HZ EP        657 44.38                             129    0.07 9  158 219 
 SPBC HN ES        658  6.20                             129    0.24 9  158 219 
 SPBC HZ I         658 21.64         2.1 0.20            125            158 219 
 ZAR  HZ EP        657 49.10                             122    0.49 9  202 293 
 ZAR  HN ES        658 13.48                             122   -0.14 9  202 293 
                                                                                
