 2010  424 0259 55.3 L   6.791 -73.116145.6  RSN  7 0.5 1.9LRSN                1
 GAP=177        0.93       6.8    11.6 10.4 -0.3713E+02 -0.4850E+02  0.1429E+02E
 Epicentro: LOS SANTOS - SANTANDER                                             3
 ACTION:UPD 10-08-24 10:00 OP:vdl  STATUS:               ID:20100424025954 L   I
 2010-04-24-0258-06S.COL___104                                                 6
 STAT SP IPHASW D HRMM SECON CODA AMPLIT PERI AZIMU VELO AIN AR TRES W  DIS CAZ7
 BAR2 SZ EP   2    3 0 14.26                             170    -0.7 5   23 199 
 BAR2 SZ ES   2    3 0 29.42                             170    -0.8 5   23 199 
 BRR  HZ IP     D  3 0 16.63                             152     0.010   75 298 
 BRR  HZ I         3 0 16.81        22.3 0.15                            75 298 
 BRR  HE ES   1    3 0 33.59                             152     0.3 7   75 298 
 BRI  SZ IP        3 0 18.95                             142    -0.210  108  19 
 BRI  SZ ES   2    3 0 38.22                             142     0.4 5  108  19 
 GUE  SZ EP   1    3 0 19.67                             139    -0.4 7  117  10 
 GRA  SZ IP        3 0 21.17                             137     0.610  126  16 
 GRA  SZ ES   2    3 0 40.68                             137     0.5 5  126  16 
 OCA  SZ EP   1    3 0 23.07                             130    -0.7 7  162 352 
 OCA  SZ ES   2    3 0 45.57                             130    -0.3 5  162 352 
 OCA  SZ I         3 0 49.26        13.3 0.27                           162 352 
 CHI  HZ EP   2    3 0 33.59                             117     0.6 4  249 196 
 CHI  HE ES   2    3 1  2.87                             117     0.5 4  249 196 
 CHI  HZ I         3 1  4.60         2.3 0.24                           249 196 
                                                                                
