 2013  124 0716  9.6 L   6.780 -73.163149.1  RSN  5 0.6 1.4LRSN                1
 GAP=234        1.43       8.2    10.2 10.3  0.3192E+02  0.1508E+02  0.2271E+02E
 Epicentro: LOS SANTOS - SANTANDER                                             3
 ACTION:UPD 13-02-15 09:16 OP:ep   STATUS:               ID:20130124071609 L   I
 2013-01-24-0708-36M.COL___180                                                 6
 STAT SP IPHASW D HRMM SECON CODA AMPLIT PERI AZIMU VELO AIN AR TRES W  DIS CAZ7
 BAR2 SZ EP        716 29.40                             172   -0.2110 20.9 186 
 BAR2 SZ ES        716 44.90                             172   -0.2910 20.9 186 
 BAR2 SZ I         716 45.48         4.3 0.30            174           20.9 186 
 BRR  HZ EP        716 31.41                             153    0.3110 70.6 301 
 BRR  HN ES        716 48.87                             153    1.0210 70.6 301 
 BRR  HN I         716 52.89         8.3 0.18            153           70.6 301 
 RUS  HZ EP        716 33.28                             145   -0.2810 98.5 175 
 RUS  HN ES        716 51.89                             145   -0.3310 98.5 175 
 RUS  HN I         716 52.62         3.7 0.32            148           98.5 175 
 PTB  HZ EP        716 36.21                             133   -0.45 9  145 260 
 PTB  HN ES        716 56.95                             133   -0.79 9  145 260 
 PTB  HN I         716 57.93         3.6 0.26            134            145 260 
 CHI  HZ EP        716 47.59                             118    0.36 8  246 195 
 CHI  HN ES        717 17.55                             118    1.00 8  246 195 
                                                                                
