 2016 1024 0832 58.6 L   6.792 -73.150144.3  RSN 13 0.5 2.1LRSN                1
 GAP=136        1.17       3.5     4.7  6.0 -0.4645E+01  0.7266E+01  0.3177E+01E
 Epicentro: LOS SANTOS - SANTANDER                                             3
 ACTION:UPD 16-11-09 19:22 OP:rebc STATUS:               ID:20161024083258 L   I
 OLDACT:UP  16-10-24 17:46 OP:drio STATUS:               ID:20161024082744     3
 OLDACT:UP  16-10-24 17:45 OP:drio STATUS:               ID:20161024082744     3
 OLDACT:UP  16-10-24 17:44 OP:drio STATUS:               ID:20161024082744     3
 OLDACT:UP  16-10-24 17:43 OP:drio STATUS:               ID:20161024082744     3
 OLDACT:REG 16-10-24 14:01 OP:cara STATUS:               ID:20161024082744     3
 2016-10-24-0828-00M.COL___353                                                 6
 STAT SP IPHASW D HRMM SECON CODA AMPLIT PERI AZIMU VELO AIN AR TRES W  DIS CAZ7
 BAR2 EZ EP        833 17.95                             171   -0.1410 22.4 189 
 BAR2 EZ ES        833 32.62                             171   -0.6310 22.4 189 
 BAR2 EZ I         833 35.39        37.7 0.24            167           22.4 189 
 BRR  HZ IP     C  833 19.73                             152    0.0910 71.2 299 
 BRR  HN ES        833 36.41                             152    0.3910 71.2 299 
 BRR  HZ I         833 41.73        24.0 0.16            147           71.2 299 
 PAM  EZ EP        833 20.86                             150    0.0910 78.4  39 
 PAM  EE ES        833 38.32                             150    0.2910 78.4  39 
 PAM  EZ I         833 40.06        16.7 0.44            155           78.4  39 
 RUS  HZ EP        833 21.88                             144   -0.3210 99.7 176 
 RUS  HE ES        833 41.00                             144    0.4310 99.7 176 
 RUS  HZ I         833 41.69        19.8 0.28            147           99.7 176 
 PTB  HZ EP        833 24.48                             132   -0.96 9  147 259 
 PTB  HN ES        833 45.83                             132   -0.51 9  147 259 
 PTB  HZ I         833 52.70        16.8 0.46            130            147 259 
 OCA  HZ EP        833 26.67                             129   -0.25 9  161 353 
 OCA  HN ES        833 49.01                             129    0.03 9  161 353 
 OCA  HZ I         833 54.55        27.0 0.40            131            161 353 
 SPBC HZ EP        833 26.87                             129   -0.07 9  162 219 
 SPBC HE ES        833 49.63                             129    0.62 9  162 219 
 SPBC HZ I         833 55.98        26.0 0.28            129            162 219 
 NOR  HZ EP        833 34.26                             118    0.06 8  234 235 
 NOR  HE ES        834  1.32                             118   -0.60 8  234 235 
 NOR  HZ I         834  6.29        11.3 0.32            119            234 235 
 CHI  HZ EP        833 35.96                             117   -0.20 8  248 195 
 CHI  HE ES        834  5.95                             117    0.53 8  248 195 
 CHI  HZ I         834  8.67         8.8 0.38            119            248 195 
 HEL  HZ EP        833 39.83                             115    1.12 8  271 256 
 HEL  HN ES        834 10.49                             115    0.53 8  271 256 
 HEL  HZ I         834 17.57         6.7 0.32            115            271 256 
 GUY2CHZ EP   4    833 43.45                             112    1.36 0  300 235 
 GUY2CHN ES   4    834 20.23                             112    4.26 0  300 235 
 GUY2CHZ I         834 23.12         6.1 0.66                           300 235 
 CBOC HZ EP        833 46.20                             110    0.78 7  333 252 
 CBOC HN ES   4    834 20.62                             110   -1.28 0  333 252 
 CBOC HZ I         834 39.03         2.4 0.66            110            333 252 
 PRA  HZ EP        833 51.73                             106   -0.27 6  391 210 
 PRA  HN ES        834 32.85                             106   -0.77 6  391 210 
 PRA  HZ I         834 38.77         4.6 0.58            108            391 210 
 SJC  HZ EP   4    833 51.57                             105   -2.65 0  410 327 
 SJC  HE ES   4    834 35.78                             105   -1.78 0  410 327 
                                                                                
