 2016  624 0710 21.1 L   6.723 -73.139145.8  RSN  6 0.4 1.5LRSN                1
 GAP=232        0.88       4.8     5.6  6.7  0.8844E+01  0.1091E+02  0.1626E+00E
 Epicentro: JORDAN - SANTANDER                                                 3
 ACTION:UPD 16-07-21 22:22 OP:rebc STATUS:               ID:20160624071021 L   I
 OLDACT:DUP 16-06-24 17:22 OP:ak   STATUS:               ID:20160624070742d    3
 2016-06-24-0707-41M.COL___322                                                 6
 STAT SP IPHASW D HRMM SECON CODA AMPLIT PERI AZIMU VELO AIN AR TRES W  DIS CAZ7
 BAR2 EZ EP        710 40.60                             174    0.0310 15.2 198 
 BAR2 EZ ES        710 55.92                             174    0.1410 15.2 198 
 BAR2 EZ I         710 57.22         4.4 0.14                          15.2 198 
 BRR  HZ IP     C  710 42.35                             151   -0.1710 76.3 304 
 BRR  HN ES        710 59.56                             151    0.3110 76.3 304 
 BRR  HZ I         711  0.56         4.1 0.49                          76.3 304 
 RUS  HE ES        711  1.87                             146   -0.4210 92.0 176 
 PTB  HZ EP        710 47.59                             132   -0.39 9  147 262 
 PTB  HN ES        711  8.53                             132   -0.44 9  147 262 
 PTB  HZ I         711 15.57         2.6 0.54                           147 262 
 SPBC HZ EP        710 49.70                             130    0.70 9  157 221 
 SPBC HN ES        711 11.09                             130    0.30 9  157 221 
 SPBC HZ I         711 14.11         5.3 0.09                           157 221 
 ZAR  HZ EP   2    710 53.52                             122   -0.42 4  208 294 
 ZAR  HE ES        711 19.67                             122    0.10 8  208 294 
 ZAR  HZ I         711 24.40         4.0 0.11                           208 294 
                                                                                
