 2014 1124 0807  9.8 L   6.808 -73.149140.0  RSN  5 0.3 1.5LRSN                1
 GAP=277        0.83       7.0     4.6  6.7  0.4093E+01  0.1060E+02 -0.7143E+01E
 Epicentro: LOS SANTOS - SANTANDER                                             3
 ACTION:UPD 14-12-19 15:46 OP:nd   STATUS:               ID:20141124080709 L   I
 OLDACT:UP  14-11-24 19:23 OP:mh   STATUS:               ID:20141124075749d    3
 OLDACT:DUP 14-11-24 19:17 OP:mh   STATUS:               ID:20141124075749d    3
 2014-11-24-0757-48M.COL___297                                                 6
 STAT SP IPHASW D HRMM SECON CODA AMPLIT PERI AZIMU VELO AIN AR TRES W  DIS CAZ7
 BAR2 SZ EP        8 7 29.11                             170    0.3710 24.2 189 
 BAR2 SZ ES        8 7 43.64                             170    0.1110 24.2 189 
 BAR2 SZ I         8 7 45.30         8.5 0.38            166           24.2 189 
 RUS  HZ EP        8 7 32.88                             142   -0.1610  102 176 
 RUS  HN ES        8 7 51.13                             142   -0.0510  102 176 
 RUS  HZ I         8 7 53.48         3.8 0.40            142            102 176 
 PTB  HZ EP        8 7 35.62                             131   -0.65 9  148 258 
 PTB  HN ES        8 7 56.64                             131   -0.29 9  148 258 
 PTB  HZ I         8 7 59.87         3.5 0.17            130            148 258 
 SPBC HZ EP        8 7 37.98                             128    0.09 9  164 219 
 SPBC HN ES        8 7 59.80                             128   -0.01 9  164 219 
 SPBC HZ I         8 8  2.79         7.1 0.44            127            164 219 
 HEL  HZ EP   1    8 7 50.03                             114    0.34 6  272 256 
 HEL  HN ES        8 8 21.49                             114    0.67 8  272 256 
 HEL  HZ I         8 8 29.48         1.9 0.28            114            272 256 
                                                                                
