 2014  224 0825 42.4 L   7.365 -72.958 12.0  RSN  5 0.6 1.1LRSN                1
 GAP=133        1.47       4.2     6.7 10.0 -0.5842E+01  0.5444E+02 -0.9152E+01E
 Epicentro: CALIFORNIA - SANTANDER                                             3
 ACTION:UPD 14-03-10 08:12 OP:ep   STATUS:               ID:20140224082542 L   I
 OLDACT:DUP 14-02-24 14:45 OP:stll STATUS:               ID:20140224081810d    3
 2014-02-24-0818-07M.COL___214                                                 6
 STAT SP IPHASW D HRMM SECON CODA AMPLIT PERI AZIMU VELO AIN AR TRES W  DIS CAZ7
 PAM  SZ EP        825 47.91                             110   -0.1210 28.7  96 
 PAM  SZ I         825 48.01         9.9 0.16            112           28.7  96 
 PAM  SN ES        825 52.36                             110   -0.0910 28.7  96 
 BAR2 SZ ES        826  7.55                              95   -0.4110 89.0 196 
 BAR2 SZ I         826  8.62         6.8 0.16             96           89.0 196 
 RUS  HZ EP        826  8.39                              56    0.43 9  163 185 
 RUS  HZ I         826  8.86         2.0 0.12             56            163 185 
 RUS  HN ES        826 27.71                              56   -0.21 9  163 185 
 PTB  HZ EP        826 11.56                              56    0.97 9  189 241 
 PTB  HN ES        826 32.38                              56   -0.23 9  189 241 
 PTB  HZ I         826 33.19         2.1 0.24             56            189 241 
 SML  HZ EP        826 13.01                              56    0.99 9  201 322 
 SML  HN ES        826 34.01                              56   -1.14 9  201 322 
 SML  HZ I         826 37.04         5.4 0.10             56            201 322 
                                                                                
