 2013  324 0217 30.2 L   6.822 -73.309130.0  RSN  4 0.1 1.4LRSN                1
 GAP=206        0.37       3.9     2.7  3.5  0.2874E+01  0.3323E+01  0.7355E+00E
 Epicentro: ZAPATOCA - SANTANDER                                               3
 ACTION:UPD 13-04-09 14:04 OP:ep   STATUS:               ID:20130324021730 L   I
 2013-03-24-0210-00M.COL___245                                                 6
 STAT SP IPHASW D HRMM SECON CODA AMPLIT PERI AZIMU VELO AIN AR TRES W  DIS CAZ7
 BAR2 SZ EP   1    217 48.31                             167    0.20 7 29.0 151 
 BAR2 SZ ES        218  1.92                             167   -0.1410 29.0 151 
 BAR2 SZ I         218  2.69        10.4 0.50            165           29.0 151 
 BRR  HZ EP        217 48.72                             156   -0.0510 54.6 305 
 BRR  HN ES        218  3.33                             156    0.1110 54.6 305 
 BRR  HN I         218  4.29         5.2 0.16            155           54.6 305 
 PTB  HZ EP        217 54.35                             132   -0.0110  131 256 
 PTB  HN ES        218 13.24                             132    0.0610  131 256 
 PTB  HN I         218 17.18         3.0 0.22            131            131 256 
 ZAR  HN ES   1    218 22.76                             121   -0.18 7  187 294 
                                                                                
