 2016  724 0506  3.4 L   7.285 -73.261107.0  RSN  5 0.4 1.3LRSN                1
 GAP=255        0.91       6.4     6.4  6.8  0.2608E+02  0.1665E+01 -0.6963E+00E
 Epicentro: RIONEGRO - SANTANDER                                               3
 ACTION:UPD 17-03-29 16:54 OP:lp   STATUS:               ID:20160724050603 L   I
 OLDACT:REG 16-07-24 13:58 OP:ar   STATUS:               ID:20160724045759     3
 2016-07-24-0457-59S.COL___337                                                 6
 STAT SP IPHASW D HRMM SECON CODA AMPLIT PERI AZIMU VELO AIN AR TRES W  DIS CAZ7
 BRR  HZ EP        5 6 19.19                             151   -0.1310 53.5 249 
 BRR  HN ES        5 6 31.52                             151   -0.2510 53.5 249 
 BRR  HZ I         5 6 31.96         3.6 0.12            146           53.5 249 
 BAR2 EZ EP        5 6 21.68                             142    0.4310 77.1 173 
 BAR2 EZ ES        5 6 35.47                             142    0.2610 77.1 173 
 RUS  HZ EP        5 6 28.52                             120   -0.36 9  155 173 
 RUS  HN ES   2    5 6 47.79                             120   -1.00 5  155 173 
 ZAR  HZ EP        5 6 30.23                             116   -0.46 9  178 278 
 ZAR  HN ES        5 6 52.37                             116    0.36 9  178 278 
 ZAR  HZ I         5 6 56.27         3.0 0.28            114            178 278 
 SPBC HZ EP        5 6 33.96                             113    0.52 9  202 206 
 SPBC HN ES        5 6 56.75                             113   -0.15 9  202 206 
 SPBC HZ I         5 6 58.21         3.2 0.36            111            202 206 
                                                                                
