 2016  224 0531 54.5 L   5.932 -73.644121.3  RSN 21 0.5 2.1LRSN                1
 GAP= 90        1.12       2.6     2.6  5.4 -0.1864E+01  0.1645E+01 -0.4918E+00E
 Epicentro: BARBOSA - SANTANDER                                                3
 ACTION:UPD 16-03-04 21:28 OP:rebc STATUS:               ID:20160224053154 L   I
 OLDACT:UP  16-02-24 18:16 OP:mh   STATUS:               ID:20160224052750     3
 OLDACT:UP  16-02-24 18:15 OP:mh   STATUS:               ID:20160224052750     3
 OLDACT:UP  16-02-24 18:14 OP:mh   STATUS:               ID:20160224052750     3
 OLDACT:UP  16-02-24 18:06 OP:mh   STATUS:               ID:20160224052750     3
 OLDACT:REG 16-02-24 13:03 OP:mh   STATUS:               ID:20160224052750     3
 2016-02-24-0527-50M.COL___334                                                 6
 STAT SP IPHASW D HRMM SECON CODA AMPLIT PERI AZIMU VELO AIN AR TRES W  DIS CAZ7
 SPBC HZ EP        532 12.36                             153    0.0810 56.6 237 
 SPBC HN ES        532 26.21                             153    0.0410 56.6 237 
 SPBC HZ I         532 27.69        49.9 0.18            151           56.6 237 
 RUS  HZ EP     C  532 13.23                             151    0.0510 62.3  94 
 RUS  HN ES        532 27.91                             151    0.1310 62.3  94 
 RUS  HZ I         532 30.16        14.5 0.26            142           62.3  94 
 BAR2 EZ EP        532 15.00                             141    0.3610 89.1  35 
 BAR2 EZ ES        532 31.07                             141    0.6910 89.1  35 
 BAR2 EZ I         532 31.72        80.4 0.48            134           89.1  35 
 PTB  HZ EP        532 15.29                             134   -0.9310  112 307 
 PTB  HN ES        532 32.45                             134   -0.7510  112 307 
 PTB  HZ I         532 35.14        15.4 0.16            131            112 307 
 BRR  HZ EP        532 18.09                             130    0.2510  130 357 
 BRR  HE ES        532 36.21                             130    0.1410  130 357 
 BRR  HZ I         532 37.42        26.6 0.16            124            130 357 
 NOR  HZ EP        532 18.58                             127   -0.42 9  142 253 
 NOR  HN ES        532 38.95                             127    0.80 9  142 253 
 NOR  HZ I         532 41.87        35.3 0.46            123            142 253 
 ROSC BZ EP        532 20.15                             127    0.65 9  142 212 
 ROSC BN ES   4    532 41.30                             127    2.28 0  142 212 
 CHI  HZ EP        532 19.42                             127   -0.32 9  144 184 
 CHI  HN ES        532 38.62                             127   -0.85 9  144 184 
 PAM  EZ EP        532 24.36                             119    0.09 9  187  34 
 PAM  EN ES   1    532 46.69                             119   -0.83 7  187  34 
 PAM  EZ I         532 51.95         5.7 0.24            113            187  34 
 GUY2CHZ EP   1    532 26.54                             116    0.28 6  206 248 
 GUY2CHN ES   4    532 51.94                             116    0.88 0  206 248 
 HEL  HZ EP   1    532 26.85                             116    0.23 6  211 278 
 HEL  HN ES        532 51.41                             116   -0.29 8  211 278 
 HEL  HZ I         532 56.51         7.0 0.18            111            211 278 
 TAM  HZ IP     C  532 26.48                             115    0.07 8  213  75 
 TAM  HE ES        532 51.00                             115   -0.34 8  213  75 
 TAM  HZ I         533 25.38         4.2 0.34            109            213  75 
 ZAR  HZ EP        532 27.04                             115   -0.00 8  219 322 
 ZAR  HN ES        532 51.83                             115   -0.63 8  219 322 
 ZAR  HZ I         532 57.68        14.8 0.42            110            219 322 
 ELA  HZ EP   4    532 29.36                             114    0.63 0  228 239 
 ELA  HN ES   4    532 57.14                             114    1.67 0  228 239 
 ELA  HZ I         533  0.77         6.5 0.38            109            228 239 
 ANIL HZ EP   4    532 34.25                             111    3.12 0  252 231 
 ANIL HE ES   2    532 59.90                             111    0.16 4  252 231 
 ANIL HZ I         533  2.64        12.5 0.16            106            252 231 
 PTGC HZ EP   4    532 33.03                             111    1.96 0  254 139 
 PTGC HE ES   4    532 54.54                             111   -5.09 0  254 139 
 PTGC HZ I         533  4.97        10.4 0.34            105            254 139 
 OCA  HZ EP        532 32.18                             111    0.55 8  258   8 
 OCA  HN ES        533  0.99                             111    0.37 8  258   8 
 OCA  HZ I         533  9.25        18.7 0.42            105            258   8 
 CBOC HZ EP   1    532 32.60                             110    0.42 6  262 268 
 CBOC HN ES        533  1.92                             110    0.31 8  262 268 
 CBOC HZ I         533  3.14         7.9 0.22            106            262 268 
 ORTC HZ EP        532 34.38                             108   -0.32 7  286 219 
 ORTC HN ES        533  6.60                             108    0.51 7  286 219 
 ORTC HZ I         533 11.87         4.1 0.16            103            286 219 
 URE  HZ EP   4    532 32.42                             108   -2.75 0  290 314 
 URE  HN ES   4    533  3.00                             108   -3.93 0  290 314 
 URE  HZ I         533  7.63         7.2 0.14            103            290 314 
 MON  HZ EP   4    532 44.58                             102   -1.87 0  386 325 
 MON  HN ES   4    533 25.30                             102   -1.70 0  386 325 
 SDV  BZ EP   1    532 55.79                              99   -0.51 4  466  45 
 SDV  BN ES   4    533 41.13                              99   -3.40 0  466  45 
                                                                                
