 2012  724 0919 31.6 L   6.742 -73.165145.5  RSN  4 0.5 1.5LRSN                1
 GAP=231        1.11      10.6    10.1 10.5  0.5291E+02  0.8325E+01  0.5909E+00E
 Epicentro: VILLANUEVA - SANTANDER                                             3
 ACTION:UPD 12-08-14 11:45 OP:ep   STATUS:               ID:20120724091931 L   I
 2012-07-24-0917-40M.COL___208                                                 6
 STAT SP IPHASW D HRMM SECON CODA AMPLIT PERI AZIMU VELO AIN AR TRES W  DIS CAZ7
 BAR2 SZ EP        919 50.98                             173    -0.110   17 187 
 BAR2 SZ ES   1    920  5.36                             173    -0.9 7   17 187 
 BAR2 SZ I         920  7.26         6.6 0.38            177             17 187 
 BRR  HZ EP        919 52.93                             152     0.110   73 304 
 BRR  HN ES   1    920 10.07                             152     0.7 7   73 304 
 BRR  HZ I         920 12.52         7.7 0.12            152             73 304 
 RUS  HZ EP        919 55.10                             146     0.210   94 174 
 RUS  HN ES   1    920 13.52                             146     0.5 7   94 174 
 PTB  HZ EP        919 57.84                             133    -0.4 9  145 261 
 PTB  HN ES   1    920 18.99                             133    -0.1 7  145 261 
