 2012  824 0813 47.2 L   7.320 -73.362124.0  RSN  7 0.3 1.4LRSN                1
 GAP=124        0.61       2.4     3.6  5.0 -0.4996E+00  0.1689E+01  0.1912E+01E
 Epicentro: SABANA DE TORRES - SANTANDER                                       3
 ACTION:UPD 12-09-10 11:58 OP:ep   STATUS:               ID:20120824081347 L   I
 2012-08-24-0810-00M.COL___218                                                 6
 STAT SP IPHASW D HRMM SECON CODA AMPLIT PERI AZIMU VELO AIN AR TRES W  DIS CAZ7
 GIR2 SZ EP   1    814  4.32                             164   -0.04 7 32.5 145 
 BRR  HZ EP   1    814  4.73                             159    0.09 7 45.2 239 
 BRR  HN ES        814 18.44                             159    0.2210 45.2 239 
 BRR  HZ I         814 21.08         4.7 0.07                          45.2 239 
 PAM  SZ EP   1    814  7.22                             148    0.32 7 73.2  88 
 PAM  SN ES        814 22.50                             148    0.2610 73.2  88 
 PAM  SZ I         814 23.59         4.0 0.29                          73.2  88 
 BAR2 SZ EP   1    814  7.38                             144    0.18 7 82.9 166 
 BAR2 SZ ES   1    814 22.58                             144   -0.20 7 82.9 166 
 BAR2 SZ I         814 23.72        17.0 0.14                          82.9 166 
 OCA  HZ EP   1    814  8.38                             138   -0.15 7  102   3 
 OCA  HN ES        814 24.79                             138   -0.3510  102   3 
 OCA  HZ I         814 28.03        11.5 0.44                           102   3 
 PTB  HZ EP   1    814 12.66                             126    0.07 7  149 235 
 PTB  HN ES   2    814 32.53                             126    0.16 5  149 235 
 PTB  HZ I         814 35.95         2.0 0.18                           149 235 
 RUS  HZ EP   1    814 14.68                             124    0.24 7  161 169 
 RUS  HE ES        814 35.16                             124   -0.51 9  161 169 
 RUS  HZ I         814 38.08         1.6 0.21                           161 169 
                                                                                
