 2015  824 0549  9.1 L   6.791 -73.143148.6  RSN  9 0.3 1.7LRSN                1
 GAP=137        0.76       3.1     4.2  7.2  0.5124E+00 -0.5331E+01 -0.2434E+01E
 Epicentro: LOS SANTOS - SANTANDER                                             3
 ACTION:UPD 15-09-15 23:04 OP:cam  STATUS:               ID:20150824054909 L   I
 OLDACT:REG 15-08-24 12:41 OP:spq  STATUS:               ID:20150824054750     3
 2015-08-24-0547-50M.COL___340                                                 6
 STAT SP IPHASW D HRMM SECON CODA AMPLIT PERI AZIMU VELO AIN AR TRES W  DIS CAZ7
 BAR2 EZ EP        549 28.77                             171   -0.2810 22.4 191 
 BRR  HZ EP     C  549 30.54                             153   -0.0610 72.0 299 
 BRR  HE ES        549 47.67                             153    0.3110 72.0 299 
 BRR  HZ I         549 51.70         4.3 0.18            155           72.0 299 
 PAM  EZ EP        549 31.67                             151    0.0210 78.0  39 
 RUS  HZ EP        549 32.86                             145   -0.1910 99.5 176 
 RUS  HN ES   1    549 52.00                             145    0.27 7 99.5 176 
 RUS  HZ I         549 53.13         6.5 0.32            150           99.5 176 
 OCA  HZ EP        549 38.18                             130    0.45 9  161 353 
 OCA  HE ES   4    549 58.52                             130   -1.54 0  161 353 
 OCA  HZ I         550  4.36         7.7 0.26            133            161 353 
 SPBC HZ EP        549 37.92                             130    0.16 9  163 219 
 SPBC HE ES        549 59.75                             130   -0.36 9  163 219 
 SPBC HZ I         550  2.49         9.3 0.24            135            163 219 
 ZAR  HN ES        550  6.98                             123   -0.32 9  205 292 
 ZAR  HZ I         550  8.88         3.8 0.32            127            205 292 
 SML  HE ES   1    550 14.29                             118   -0.49 6  245 335 
 SML  HZ I         550 16.93         4.4 0.10            121            245 335 
 GUY2CHE ES   1    550 27.72                             113    0.84 5  301 235 
 GUY2CHZ I         550 33.24         2.0 0.42                           301 235 
                                                                                
