 2014  724 0434 19.3 L   6.589 -73.514105.5  RSN 15 0.4 1.9LRSN                1
 GAP= 83        0.98       2.5     3.4  5.7 -0.1463E+01  0.5802E+01 -0.9216E+00E
 Epicentro: EL CARMEN - SANTANDER                                              3
 ACTION:UPD 15-03-16 20:46 OP:nd   STATUS:               ID:20140724043419 L   I
 OLDACT:UP  14-07-24 17:02 OP:mh   STATUS:               ID:20140724042815     3
 OLDACT:UP  14-07-24 17:01 OP:mh   STATUS:               ID:20140724042815     3
 OLDACT:REG 14-07-24 13:51 OP:mh   STATUS:               ID:20140724042815     3
 2014-07-24-0428-15M.COL___269                                                 6
 STAT SP IPHASW D HRMM SECON CODA AMPLIT PERI AZIMU VELO AIN AR TRES W  DIS CAZ7
 BAR2 SZ EP        434 34.61                             159    0.0710 36.7  89 
 BAR2 SZ I         434 49.23        38.9 0.08            165           36.7  89 
 BRR  HZ EP        434 35.93                             147    0.3910 61.3 339 
 BRR  HN ES   1    434 48.68                             147    0.44 7 61.3 339 
 BRR  HZ I         434 52.16        16.1 0.12            148           61.3 339 
 RUS  HZ EP        434 37.80                             136   -0.6410 90.6 148 
 RUS  HN ES        434 53.43                             136    0.0210 90.6 148 
 RUS  HZ I         434 54.94        18.6 0.09            141           90.6 148 
 PTB  HZ EP        434 38.43                             132   -0.5710  104 267 
 PTB  HN ES        434 54.06                             132   -0.3410  104 267 
 PTB  HZ I         434 58.67        24.9 0.18            132            104 267 
 SPBC HZ EP        434 40.54                             127   -0.1010  121 211 
 SPBC HN ES        434 57.55                             127    0.2310  121 211 
 SPBC HZ I         435  4.95        19.0 0.21            129            121 211 
 ZAR  HZ EP        434 47.03                             115    0.39 9  179 304 
 ZAR  HN ES   4    435  9.67                             115    1.68 0  179 304 
 ZAR  HZ I         435 14.53        11.3 0.63            117            179 304 
 OCA  HZ EP        434 47.39                             115    0.04 9  184   7 
 OCA  HN ES        435  9.44                             115    0.18 9  184   7 
 OCA  HZ I         435 14.33        12.1 0.24            117            184   7 
 HEL  HZ EP        434 51.87                             109   -0.67 8  227 259 
 HEL  HN ES        435 18.10                             109   -0.40 8  227 259 
 HEL  HZ I         435 26.22         6.1 0.13            111            227 259 
 SML  HZ EP        434 54.61                             107   -0.36 8  252 346 
 SML  HN ES   1    435 22.81                             107   -0.02 6  252 346 
 SML  HZ I         435 35.09        14.5 0.07            109            252 346 
 GUY2CHZ EP        434 56.65                             107    0.81 8  254 234 
 GUY2CHN ES   4    435 26.18                             107    1.80 0  254 234 
 GUY2CHZ I         435 31.40         4.3 0.30                           254 234 
 URE  HN ES   4    435 22.21                             106   -1.74 0  257 300 
 RREF HZ EP        434 59.04                             105    0.50 7  276 227 
 RREF HN ES   4    435 32.07                             105    2.89 0  276 227 
 RREF HZ I         435 38.34         6.4 0.28            107            276 227 
 CBOC HZ EP        434 59.28                             104   -0.10 7  288 254 
 CBOC HN ES        435 30.93                             104    0.25 7  288 254 
 CBOC HZ I         435 37.59         1.7 0.53            105            288 254 
 TOL  SZ EP        435  1.48                             103    0.62 7  299 222 
 TOL  SN ES   4    435 36.34                             103    3.03 0  299 222 
 TOL  SZ I         435 44.63        11.3 0.77            105            299 222 
 PRA  HZ EP        435  6.31                             100   -0.62 6  352 206 
 PRA  HN ES        435 44.70                             100    0.58 6  352 206 
 PRA  HZ I         435 55.23         3.6 0.62            102            352 206 
 SJC  HZ EP   4    435 11.47                              97   -2.33 0  409 333 
 SJC  HN ES   4    435 54.27                              97   -2.08 0  409 333 
 SJC  HZ I         436  1.36         1.9 0.60             99            409 333 
                                                                                
