 2011 1124 0315 19.0 L   6.800 -73.137142.0  RSN  7 0.3 1.7LRSN                1
 GAP=138        0.66       3.3     4.8  6.4 -0.1092E+01  0.2684E+01 -0.2832E+01E
 Epicentro: LOS SANTOS - SANTANDER                                             3
 ACTION:UPD 12-07-13 16:11 OP:ep   STATUS:               ID:20111124031519 L   I
 2011-11-24-0313-46S.COL___177                                                 6
 STAT SP IPHASW D HRMM SECON CODA AMPLIT PERI AZIMU VELO AIN AR TRES W  DIS CAZ7
 BAR2 SZ EP   1    315 38.23                             170    0.00 7 23.5 192 
 BAR2 SZ ES   1    315 52.84                             170   -0.35 7 23.5 192 
 BAR2 SZ I         315 54.65        11.9 0.27                          23.5 192 
 BRR  HZ EP   1    315 39.99                             151    0.15 7 72.1 298 
 BRR  HZ I         315 40.27        11.6 0.19                          72.1 298 
 BRR  HE ES   1    315 56.59                             151    0.53 7 72.1 298 
 PAM  SZ EP   1    315 41.10                             150    0.27 7 76.8  39 
 PAM  SZ I         315 41.27         9.8 0.16                          76.8  39 
 PAM  SN ES   2    315 58.21                             150    0.40 5 76.8  39 
 RUS  HZ EP   1    315 42.73                             143    0.31 7  100 177 
 RUS  HN ES   1    316  0.39                             143   -0.26 7  100 177 
 RUS  HZ I         316  2.38         6.0 0.24                           100 177 
 OCA  SZ EP   1    315 46.87                             129   -0.21 7  160 353 
 OCA  SZ ES   1    316  8.31                             129   -0.64 7  160 353 
 OCA  SZ I         316 11.85         6.1 0.17                           160 353 
 ZAR  HN ES   2    316 16.74                             121    0.20 4  205 292 
 ZAR  HZ I         316 22.78         5.2 0.22                           205 292 
 NOR  SN ES   1    316 22.12                             117   -0.29 6  235 235 
                                                                                
