 2015  624 0743 54.9 L   6.809 -73.124152.7  RSN  8 0.4 2.0LRSN                1
 GAP=203        0.84       3.1     4.9  5.5 -0.3454E+01  0.6844E+01  0.1495E+00E
 Epicentro: LOS SANTOS - SANTANDER                                             3
 ACTION:UPD 15-09-10 22:14 OP:cam  STATUS:               ID:20150624074354 L   I
 OLDACT:UP  15-06-24 16:56 OP:mh   STATUS:               ID:20150624073750     3
 OLDACT:REG 15-06-24 13:11 OP:mh   STATUS:               ID:20150624073750     3
 2015-06-24-0737-50M.COL___313                                                 6
 STAT SP IPHASW D HRMM SECON CODA AMPLIT PERI AZIMU VELO AIN AR TRES W  DIS CAZ7
 BAR2 EZ EP        744 15.52                             170    0.1710 24.8 195 
 BAR2 EZ ES        744 30.90                             170   -0.4310 24.8 195 
 BAR2 EZ I         744 31.88        19.2 0.28            169           24.8 195 
 BRR  HZ EP        744 17.33                             153    0.4810 72.8 297 
 BRR  HN ES        744 34.41                             153    0.4110 72.8 297 
 BRR  HZ I         744 38.27        12.3 0.30            150           72.8 297 
 OCA  HZ EP   1    744 23.53                             131   -0.12 7  160 352 
 OCA  HN ES        744 45.59                             131   -0.52 9  160 352 
 OCA  HZ I         744 53.77        16.8 0.22            132            160 352 
 ZAR  HZ EP        744 28.07                             123    0.12 8  206 292 
 ZAR  HN ES        744 53.48                             123   -0.28 8  206 292 
 ZAR  HZ I         744 58.52         8.9 0.24            123            206 292 
 NOR  HN ES        745  0.02                             119    0.37 8  237 235 
 NOR  HZ I         745  4.80         4.5 0.18            120            237 235 
 SML  HZ EP        744 31.85                             119   -0.04 8  244 335 
 SML  HN ES        745  1.10                             119    0.32 8  244 335 
 SML  HZ I         745  2.46        11.7 0.28            119            244 335 
 HEL  HZ EP   1    744 35.96                             116    0.25 6  275 256 
 HEL  HN ES        745  6.97                             116   -0.60 8  275 256 
 HEL  HZ I         745 14.37         2.8 0.62            116            275 256 
 PRA  HZ EP        744 48.27                             107   -0.59 6  394 210 
 PRA  HN ES        745 31.00                             107    0.03 6  394 210 
 PRA  HZ I         745 37.54         4.0 0.38            108            394 210 
                                                                                
