 2014  924 0734 47.4 L   6.381 -73.650  2.9  RSN  7 0.5 1.0LRSN                1
 GAP=105        1.32       3.5     2.7  8.3  0.1610E+01 -0.4299E+01 -0.6852E+01E
 Epicentro: SANTA HELENA DEL OPON - SANTANDER                                  3
 ACTION:UPD 14-10-03 23:08 OP:nd   STATUS:               ID:20140924073447 L   I
 OLDACT:UP  14-09-24 16:50 OP:cam  STATUS:               ID:20140924073000     3
 OLDACT:REG 14-09-24 13:20 OP:cam  STATUS:               ID:20140924073000     3
 2014-09-24-0730-00M.COL___252                                                 6
 STAT SP IPHASW D HRMM SECON CODA AMPLIT PERI AZIMU VELO AIN AR TRES W  DIS CAZ7
 BAR2 SZ EP        734 57.48                              47    0.5210 56.7  66 
 BAR2 SZ ES        735  4.55                              47    0.1010 56.7  66 
 BAR2 SZ I         735  5.76         7.6 0.18            111           56.7  66 
 BRR  HZ EP        735  0.23                              47   -0.1010 80.6 355 
 BRR  HE ES        735 10.59                              47    0.1510 80.6 355 
 BRR  HZ I         735 20.09         5.7 0.44            102           80.6 355 
 RUS  HZ EP        735  1.60                              47    0.4310 82.8 131 
 RUS  HE ES        735 11.53                              47   -0.4110 82.8 131 
 RUS  HZ I         735 15.50         5.8 0.82            102           82.8 131 
 PTB  HZ EP        735  0.82                              47   -1.0910 90.9 281 
 PTB  HN ES        735 13.71                              47    0.4510 90.9 281 
 PTB  HZ I         735 18.92         3.3 0.10             99           90.9 281 
 SPBC HZ EP   4    735  0.81                              47   -1.53 0 93.2 210 
 SPBC HZ I         735 21.93         2.8 0.10             99           93.2 210 
 PAM  SZ EP   4    735 12.72                              47    1.49 0  149  45 
 PAM  SN ES        735 29.43                              47   -0.42 9  149  45 
 CHI  HZ EP   4    735 20.96                              37    3.41 0  194 183 
 GUY2CHZ EP   1    735 22.84                              37    0.83 6  229 236 
                                                                                
