 2014 1124 0548 51.0 L   6.781 -73.121148.5  RSN  9 0.4 1.7LRSN                1
 GAP=185        1.10       3.9     5.2  7.5  0.1042E+00  0.3868E+01 -0.8014E+00E
 Epicentro: LOS SANTOS - SANTANDER                                             3
 ACTION:UPD 14-12-19 15:46 OP:nd   STATUS:               ID:20141124054851 L   I
 OLDACT:UP  14-11-24 19:31 OP:mh   STATUS:               ID:20141124053742     3
 OLDACT:UP  14-11-24 19:29 OP:mh   STATUS:               ID:20141124053742     3
 OLDACT:REG 14-11-24 11:22 OP:mh   STATUS:               ID:20141124053742     3
 2014-11-24-0537-42M.COL___297                                                 6
 STAT SP IPHASW D HRMM SECON CODA AMPLIT PERI AZIMU VELO AIN AR TRES W  DIS CAZ7
 BAR2 SZ EP        549 11.26                             171    0.3110 21.9 198 
 BRR  HZ EP        549 13.22                             152    0.5710 74.6 299 
 BRR  HN ES        549 29.79                             152    0.2610 74.6 299 
 BRR  HZ I         549 33.25         7.4 0.19            150           74.6 299 
 RUS  HZ EP        549 14.03                             145   -0.8510 98.3 178 
 RUS  HN ES        549 33.78                             145    0.3010 98.3 178 
 RUS  HZ I         549 34.82         3.4 0.30            148           98.3 178 
 PTB  HZ EP        549 17.89                             132   -0.53 9  150 260 
 PTB  HN ES        549 39.51                             132   -0.28 9  150 260 
 PTB  HZ I         549 41.17         8.0 0.14            132            150 260 
 OCA  HZ EP        549 20.08                             130    0.31 9  163 352 
 OCA  HN ES        549 41.70                             130   -0.49 9  163 352 
 OCA  HZ I         549 45.39         5.5 0.24            132            163 352 
 SPBC HZ EP        549 20.26                             130    0.52 9  163 220 
 SPBC HN ES        549 41.72                             130   -0.42 9  163 220 
 SPBC HZ I         549 48.78         6.7 0.10            131            163 220 
 ZAR  HZ EP        549 24.00                             123    0.01 8  207 292 
 ZAR  HN ES        549 49.59                             123   -0.11 8  207 292 
 ZAR  HZ I         549 56.34         8.3 0.28            124            207 292 
 HEL  HZ EP        549 31.17                             115   -0.44 8  274 256 
 HEL  HN ES        550  3.73                             115    0.46 8  274 256 
 HEL  HZ I         550 10.36         3.0 0.36            116            274 256 
 GUY2CHZ EP        549 35.32                             113    0.45 7  302 235 
 GUY2CHN ES   4    550 10.55                             113    1.47 0  302 235 
                                                                                
