 2016  824 0102 45.4 L   6.803 -73.147147.0  RSN 30 0.5 2.9LRSN                1
 GAP= 54        0.98       2.1     2.3  4.0 -0.7410E+00  0.1870E+01  0.9980E+00E
 Epicentro: LOS SANTOS - SANTANDER                                             3
      68.0      90.0     -90.0  7.0 10.0  6.0  0.0  0.1           RSN FPFIT    F
 ACTION:UPD 16-10-29 15:38 OP:rebc STATUS:               ID:20160824010245 L   I
 OLDACT:UP  16-08-24 21:12 OP:ak   STATUS:               ID:20160824010245 L   3
 OLDACT:UP  16-08-24 21:07 OP:nlst STATUS:               ID:20160824010245 L   3
 OLDACT:REG 16-08-24 12:19 OP:ak   STATUS:               ID:20160824005737     3
 2016-08-24-0058-00M.COL___365                                                 6
 STAT SP IPHASW D HRMM SECON CODA AMPLIT PERI AZIMU VELO AIN AR TRES W  DIS CAZ7
 BAR2 EZ IP     D  1 3  5.30                             170    0.1010 23.7 190 
 BAR2 EZ ES        1 3 20.48                             170   -0.1510 23.7 190 
 BAR2 EZ I         1 3 21.90       337.3 0.30                          23.7 190 
 BRR  HZ IP     C  1 3  7.09                             153    0.4110 70.9 298 
 BRR  HN ES        1 3 23.94                             153    0.6810 70.9 298 
 BRR  HZ I         1 3 28.18       141.6 0.30                          70.9 298 
 PAM  EZ IP     C  1 3  8.07                             151    0.3210 77.2  40 
 PAM  EN ES        1 3 25.38                             151    0.2210 77.2  40 
 PAM  EZ I         1 3 27.50       122.7 0.52                          77.2  40 
 RUS  HZ IP     D  1 3  9.23                             144   -0.0810  101 176 
 RUS  HN ES        1 3 27.49                             144   -0.4610  101 176 
 RUS  HZ I         1 3 29.38        80.4 0.26                           101 176 
 PTB  HZ EP        1 3 11.86                             132   -0.61 9  148 259 
 PTB  HN ES        1 3 32.95                             132   -0.63 9  148 259 
 PTB  HZ I         1 3 39.74        55.3 0.11                           148 259 
 TAM  HZ EP        1 3 13.68                             131    0.47 9  155 105 
 TAM  HZ I         1 3 34.03        31.4 0.17                           155 105 
 TAM  HN ES        1 3 35.00                             131    0.11 9  155 105 
 OCA  HZ EP        1 3 13.30                             130   -0.48 9  160 353 
 OCA  HN ES        1 3 35.85                             130   -0.06 9  160 353 
 OCA  HZ I         1 3 45.25       140.5 0.28                           160 353 
 SPBC HZ EP        1 3 14.10                             129    0.08 9  163 219 
 SPBC HE ES        1 3 35.77                             129   -0.57 9  163 219 
 SPBC HZ I         1 3 41.15       171.1 0.22                           163 219 
 ZAR  HZ EP        1 3 17.58                             123   -0.33 9  204 292 
 ZAR  HN ES        1 3 43.20                             123   -0.06 9  204 292 
 ZAR  HZ I         1 3 50.10        85.5 0.40                           204 292 
 NOR  HZ IP     D  1 3 21.49                             119    0.27 8  235 234 
 NOR  HN ES        1 3 48.70                             119   -0.46 8  235 234 
 NOR  HZ I         1 3 57.12        54.6 0.14                           235 234 
 CHI  HZ EP        1 3 23.49                             117    0.28 8  249 195 
 CHI  HN ES        1 3 52.58                             117   -0.12 8  249 195 
 CHI  HZ I         1 3 56.27        48.3 0.64                           249 195 
 ROSC BZ EP   4    1 3 25.14                             117    1.51 0  253 211 
 ROSC BN ES        1 3 54.38                             117    0.95 8  253 211 
 ROSC BZ I         1 3 59.97       109.2 0.40                           253 211 
 HEL  HZ EP        1 3 26.68                             115    1.00 8  272 256 
 HEL  HE ES        1 3 56.53                             115   -0.56 8  272 256 
 HEL  HZ I         1 4  4.21        28.9 0.52                           272 256 
 URE  HZ EP   1    1 3 26.02                             114   -0.49 6  284 292 
 URE  HN ES   4    1 3 56.41                             114   -2.16 0  284 292 
 URE  HZ I         1 4  9.21        41.3 0.22                           284 292 
 SOCV BZ IP     C  1 3 28.11                             112   -0.40 7  301  57 
 SOCV BN ES   4    1 4  0.15                             112   -1.97 0  301  57 
 GUY2CHZ EP        1 3 29.40                             112    0.31 7  301 235 
 GUY2CHN ES        1 4  3.04                             112   -0.12 7  301 235 
 GUY2CHZ I         1 4 12.71        29.2 0.56                           301 235 
 VIL  EZ EP        1 3 28.77                             112   -0.15 7  304 192 
 VIL  EN ES        1 4  2.80                             112   -0.06 7  304 192 
 VIL  EZ I         1 4 13.03        73.0 0.32                           304 192 
 PTGC HZ IP     D  1 3 28.39                             112   -0.98 7  309 159 
 PTGC HN ES   4    1 4  1.36                             112   -2.29 0  309 159 
 PTGC HZ I         1 4  7.63        19.8 0.24                           309 159 
 LL6C HZ EP   9 C  1 3 29.83                             111   -1.29 0  325 358 
 LL6C HE ES        1 4  5.47                                   -0.01 7  325 358 
 LL6C HZ I         1 4 11.34        23.0 0.38                           325 358 
 ELA  HZ EP   4    1 3 34.79                             110    2.46 0  329 229 
 ELA  HN ES        1 4  9.86                             110    0.93 7  329 229 
 ELA  HZ I         1 4 17.99        31.9 0.52                           329 229 
 CBOC HZ EP   1    1 3 33.14                             110    0.76 5  334 252 
 CBOC HN ES        1 4  9.46                             110    0.45 7  334 252 
 CBOC HZ I         1 4 17.72         8.6 0.16                           334 252 
 DBB  EZ EP        1 3 32.51                             110   -0.41 7  339 274 
 DBB  EZ ES        1 4  9.74                             110   -0.23 7  339 274 
 DBB  EZ I         1 4 10.88        13.1 0.28                           339 274 
 ANIL HZ EP   9    1 3 36.52                             109    1.24 0  358 224 
 ANIL HN ES        1 4 15.95                                    0.53 6  358 224 
 ARGC HZ EP        1 3 35.41                             108    0.34 6  359 340 
 ARGC HN ES        1 4 13.80                             108    0.00 6  359 340 
 ARGC HZ I         1 4 14.94        17.2 0.07                           359 340 
 PRA  HZ EP        1 3 38.72                             107   -0.29 6  392 210 
 PRA  HN ES        1 4 20.86                             107    0.05 6  392 210 
 PRA  HZ I         1 4 27.56        51.4 0.30                           392 210 
 SJC  HZ EP   4    1 3 39.06                             106   -1.91 0  409 327 
 SJC  HN ES   4    1 4 20.40                             106   -3.90 0  409 327 
 SJC  HZ I         1 4 27.68        15.5 0.50                           409 327 
 CRJC HZ EP   4    1 3 45.58                             103   -2.32 0  467   4 
 CRJC HN ES   4    1 4 33.10                             103   -3.54 0  467   4 
 CRJC HZ I         1 4 40.34        28.0 0.20                           467   4 
 YOT  HZ EP   2    1 3 47.68                             103   -0.83 2  472 229 
 YOT  HN ES        1 4 37.94                             103    0.22 5  472 229 
 MACC HZ EP   4    1 3 52.41                             102   -1.79 0  521 189 
 MACC HE ES   4    1 4 42.97                             102   -4.87 0  521 189 
 MACC HZ I         1 4 49.92         8.4 0.52                           521 189 
 MARO HE ES        1 4 52.71                             101    0.78 4  537 216 
                                                                                
