 2017  824 0336 47.6 L   6.833 -73.078146.9  RSN  4 0.1 1.4LRSN                1
 GAP=247        0.30       3.8     5.5  3.8  0.4757E+01  0.4699E+01  0.2487E+01E
 Epicentro: LOS SANTOS - SANTANDER                                             3
 ACTION:UPD 17-09-04 20:23 OP:rebc STATUS:               ID:20170824033647 L   I
 OLDACT:UP  17-08-24 14:43 OP:and  STATUS:               ID:20170824032739     3
 OLDACT:REG 17-08-24 12:44 OP:and  STATUS:               ID:20170824032739     3
 2017-08-24-0328-00M.COL___419                                                 6
 STAT SP IPHASW D HRMM SECON CODA AMPLIT PERI AZIMU VELO AIN AR TRES W  DIS CAZ7
 BAR2 EZ EP   2    337  7.48                             168   -0.04 5 29.0 203 
 BAR2 EZ ES        337 22.97                             168   -0.0710 29.0 203 
 BAR2 EZ I         337 23.72         3.4 0.22            163           29.0 203 
 BRR  HZ EP   2    337  9.34                             151    0.15 5 76.3 293 
 BRR  HN ES   2    337 26.08                             151    0.07 5 76.3 293 
 BRR  HZ I         337 28.05        11.9 0.24            146           76.3 293 
 RUS  HZ EP   2    337 11.65                             143   -0.09 5  104 180 
 RUS  HN ES   2    337 30.81                             143    0.27 5  104 180 
 RUS  HZ I         337 31.31         2.5 0.28            142            104 180 
 SPBC HZ EP   2    337 16.88                             128   -0.05 4  171 220 
 SPBC HN ES   2    337 39.73                             128   -0.06 4  171 220 
 SPBC HZ I         337 42.68         2.0 0.16            126            171 220 
                                                                                
