 2011 1224 0145 32.1 L   6.529 -73.850 27.7  RSN  7 0.3 1.4LRSN                1
 GAP=129        0.71       2.6     1.8  4.2 -0.9613E+00 -0.2223E+01  0.5030E+01E
 Epicentro: PUERTO PARRA - SANTANDER                                           3
 ACTION:UPD 12-07-13 16:18 OP:ep   STATUS:               ID:20111224014532 L   I
 2011-12-24-0140-00M.COL___189                                                 6
 STAT SP IPHASW D HRMM SECON CODA AMPLIT PERI AZIMU VELO AIN AR TRES W  DIS CAZ7
 BRR  HZ EP        145 43.29                             102    0.0210 65.7  13 
 BRR  HZ I         145 43.52        22.4 0.14                          65.7  13 
 BRR  HE ES        145 52.30                             102    0.3510 65.7  13 
 PTB  HZ EP        145 43.46                             101   -0.0210 67.1 271 
 PTB  HN ES   1    145 52.14                             101   -0.19 7 67.1 271 
 BAR2 SZ EP        145 44.70                              99   -0.0210 74.1  85 
 BAR2 SZ ES   1    145 53.82                              99   -0.72 7 74.1  85 
 BAR2 SZ I         145 56.36         7.3 0.10                          74.1  85 
 GIR2 SZ EP   1    145 47.28                              61   -0.13 7 94.6  50 
 GIR2 SZ ES   2    145 58.57                              61   -0.75 5 94.6  50 
 RUS  HZ EP        145 50.18                              61    0.4010  110 130 
 RUS  HN ES   1    146  3.75                              61    0.20 7  110 130 
 RUS  HZ I         146  4.61         8.3 0.30                           110 130 
 PAM  SN ES   1    146 13.68                              61    0.07 7  156  55 
 HEL  HE ES   1    146 20.70                              61   -0.21 7  189 259 
                                                                                
