 2011  724 0010 27.7 L   6.759 -73.112145.8  RSN  8 0.4 1.5LRSN                1
 GAP=143        0.65       4.2     5.6  6.7 -0.4372E+01  0.7370E+01 -0.6649E+00E
 Epicentro: LOS SANTOS - SANTANDER                                             3
 ACTION:UPD 12-07-25 14:02 OP:epov STATUS:               ID:20110724001027 L   I
 2011-07-24-0008-51S.COL___143                                                 6
 STAT SP IPHASW D HRMM SECON CODA AMPLIT PERI AZIMU VELO AIN AR TRES W  DIS CAZ7
 BAR2 SZ EP   1    010 47.24                             172   -0.03 7 20.0 203 
 BAR2 SZ I         011  5.25         9.9 0.17                          20.0 203 
 BRR  HZ EP   1    010 49.18                             151    0.01 7 76.7 300 
 BRR  HZ I         010 50.70        12.2 0.10                          76.7 300 
 BRR  HN ES   1    011  6.06                             151    0.14 7 76.7 300 
 PAM  SZ EP   2    010 50.33                             150    0.33 5 78.7  35 
 PAM  SE ES   2    011  6.90                             150   -0.49 5 78.7  35 
 RUS  HZ EP   1    010 50.78                             145   -0.34 7 95.8 178 
 RUS  HN ES   1    011  9.64                             145    0.25 7 95.8 178 
 RUS  HZ I         011 11.17         3.3 0.16                          95.8 178 
 BRI  SZ EP   1    010 52.17                             141    0.35 7  111  18 
 BRI  SZ I         011 13.41         3.4 0.14                           111  18 
 OCA  SZ EP   2    010 55.58                             129   -0.90 5  165 352 
 NOR  SZ EP   1    011  3.34                             118   -0.14 6  235 236 
 NOR  SN ES   2    011 30.65                             118   -0.74 4  235 236 
 HEL  HZ EP   1    011  8.79                             115    0.59 6  275 257 
                                                                                
