 2016 1124 0243 12.3 L   6.853 -73.154148.0  RSN 10 0.6 1.8LRSN                1
 GAP=143        1.09       5.1     4.8  6.6  0.1158E+01  0.5977E+01  0.6279E+01E
 Epicentro: LOS SANTOS - SANTANDER                                             3
 ACTION:UPD 17-10-26 21:11 OP:lp   STATUS:               ID:20161124024312 L   I
 OLDACT:UP  16-11-24 14:26 OP:dani STATUS:               ID:20161124023743     3
 OLDACT:UP  16-11-24 14:26 OP:dani STATUS:               ID:20161124023743     3
 OLDACT:UP  16-11-24 14:25 OP:dani STATUS:               ID:20161124023743     3
 OLDACT:REG 16-11-24 12:32 OP:dani STATUS:               ID:20161124023743     3
 2016-11-24-0238-00M.COL___352                                                 6
 STAT SP IPHASW D HRMM SECON CODA AMPLIT PERI AZIMU VELO AIN AR TRES W  DIS CAZ7
 BAR2 EZ EP        243 31.95                             168   -0.3410 29.0 186 
 BAR2 EZ ES        243 47.49                             168   -0.4210 29.0 186 
 BAR2 EZ I         243 49.31        12.7 0.40            167           29.0 186 
 BRR  HZ EP        243 33.76                             154    0.2910 67.8 295 
 BRR  HE ES        243 50.58                             154    0.5710 67.8 295 
 BRR  HZ I         243 54.73        15.2 0.17            150           67.8 295 
 PAM  EZ EP        243 34.88                             153    0.3810 73.6  43 
 PTB  HZ EP        243 39.00                             133   -0.45 9  148 257 
 PTB  HN ES        244  0.47                             133   -0.18 9  148 257 
 PTB  HZ I         244  2.44        10.1 0.14            131            148 257 
 ZAR  HZ EP        243 43.91                             123   -0.64 9  201 291 
 ZAR  HN ES        244 10.43                             123    0.69 9  201 291 
 ZAR  HZ I         244 18.41         9.3 0.19            123            201 291 
 NOR  HZ EP   2    243 49.45                             119    1.04 4  237 233 
 NOR  HN ES        244 16.76                             119    0.15 8  237 233 
 NOR  HZ I         244 20.64         6.9 0.11            119            237 233 
 CHI  HZ EP        243 51.10                             117    0.43 8  254 195 
 CHI  HN ES   3    244 19.14                             117   -1.49 2  254 195 
 CHI  HZ I         244 23.24         1.8 0.25            118            254 195 
 URE  HZ EP        243 52.38                             114   -0.73 7  281 291 
 URE  HN ES        244 24.23                             114   -0.74 7  281 291 
 URE  HZ I         244 32.44         5.3 0.20            114            281 291 
 CBOC HZ EP   3    244  0.83                             110    1.44 2  335 251 
 CBOC HN ES        244 36.74                             110    0.60 7  335 251 
 CBOC HZ I         244 41.46         1.2 0.28            110            335 251 
 PRA  HZ EP        244  6.87                             107    0.47 6  397 209 
 PRA  HE ES        244 48.34                             107   -0.29 6  397 209 
 PRA  HZ I         244 54.49         2.1 0.55            107            397 209 
                                                                                
