 2015  124 0648 37.8 L   6.810 -73.136148.0  RSN 10 0.5 1.7LRSN                1
 GAP=137        1.24       3.5     5.7  6.9 -0.3445E+01  0.9548E+01  0.1842E+01E
 Epicentro: LOS SANTOS - SANTANDER                                             3
 ACTION:UPD 15-03-02 15:41 OP:nd   STATUS:               ID:20150124064837 L   I
 OLDACT:REG 15-01-24 13:33 OP:carl STATUS:               ID:20150124064735     3
 2015-01-24-0647-35M.COL___268                                                 6
 STAT SP IPHASW D HRMM SECON CODA AMPLIT PERI AZIMU VELO AIN AR TRES W  DIS CAZ7
 BAR2 EZ EP        648 57.77                             170    0.0810 24.6 192 
 BAR2 EZ ES        649 12.88                             170   -0.3510 24.6 192 
 BAR2 EZ I         649 15.32        11.5 0.30            170           24.6 192 
 BRR  HZ EP        648 59.57                             153    0.4010 71.6 297 
 BRR  HN ES        649 16.80                             153    0.9210 71.6 297 
 BRR  HZ I         649 20.46         6.4 0.32            150           71.6 297 
 PAM  SZ IP     C  649  0.41                             152    0.2910 75.8  39 
 PAM  SN ES        649 17.68                             152    0.1110 75.8  39 
 PAM  SZ I         649 19.69         5.6 0.46            155           75.8  39 
 RUS  HZ EP        649  1.65                             144   -0.1610  102 177 
 RUS  HN ES        649 20.09                             144   -0.4710  102 177 
 RUS  HZ I         649 21.45         4.1 0.40            146            102 177 
 PTB  HZ EP        649  4.76                             132   -0.26 9  149 258 
 PTB  HN ES        649 25.51                             132   -0.78 9  149 258 
 PTB  HZ I         649 31.47         6.7 0.38            132            149 258 
 OCA  HN ES        649 28.52                             130    0.22 9  159 353 
 OCA  HZ I         649 35.86         5.8 0.30            131            159 353 
 SPBC HZ EP        649  6.55                             129   -0.02 9  165 219 
 SPBC HN ES        649 28.53                             129   -0.52 9  165 219 
 SPBC HZ I         649 35.73         9.1 0.22            130            165 219 
 SML  HZ EP        649 13.64                             118   -0.81 8  243 335 
 SML  HN ES        649 42.62                             118   -0.45 8  243 335 
 SML  HZ I         649 50.44         9.9 0.28            119            243 335 
 CHI  HZ EP        649 15.78                             117    0.05 8  250 195 
 CHI  HN ES        649 46.10                             117    0.75 8  250 195 
 CHI  HZ I         649 54.76         1.8 0.68            119            250 195 
 GUY2CHZ EP        649 21.74                             113    0.10 7  303 235 
 GUY2CHN ES        649 57.06                             113    1.19 7  303 235 
 GUY2CHZ I         650  4.35         2.9 0.28                           303 235 
                                                                                
