 2012  924 0113 31.2 L   6.724 -74.030 67.7  RSN  5 0.4 1.3LRSN                1
 GAP=149        0.81       5.6     3.8 10.6 -0.7833E+01 -0.7523E+01  0.1986E+02E
 Epicentro: PUERTO PARRA - SANTANDER                                           3
 ACTION:UPD 12-10-22 14:20 OP:ep   STATUS:               ID:20120924011331 L   I
 2012-09-24-0110-00M.COL___221                                                 6
 STAT SP IPHASW D HRMM SECON CODA AMPLIT PERI AZIMU VELO AIN AR TRES W  DIS CAZ7
 PTB  HN EP   1    113 42.37                             139   -0.62 7 51.4 247 
 PTB  HN ES   1    113 52.22                             139    0.00 7 51.4 247 
 BRR  HZ EP        113 42.95                             137   -0.3210 55.1  40 
 BRR  HE ES   1    113 53.19                             137    0.47 7 55.1  40 
 BRR  HZ I         113 53.31        10.1 0.62                          55.1  40 
 RUS  HN ES   1    114  9.84                             110    0.12 7  139 131 
 PAM  SZ EP   2    113 55.82                             106    0.34 5  162  65 
 HEL  HN ES   1    114 17.78                             105    0.62 7  176 251 
 HEL  HZ I         114 20.12         2.6 0.24                           176 251 
                                                                                
