 2011  524 0457 41.2 L   6.804 -73.133139.6  RSN  8 0.3 1.7LRSN                1
 GAP=138        0.69       3.3     5.3  5.9 -0.3407E+01  0.2014E+01 -0.3125E+01E
 Epicentro: LOS SANTOS - SANTANDER                                             3
 ACTION:UP  11-06-29 08:55 OP:tino STATUS:               ID:20110524045741 L   I
 2011-05-24-0440-00M.COL___139                                                 6
 STAT SP IPHASW D HRMM SECON CODA AMPLIT PERI AZIMU VELO SNR AR TRES W  DIS CAZ7
 BAR2 SZ EP   1    457 59.86                             170    -0.2 7   24 193 
 BAR2 SZ I         458  0.44        13.6 0.08                            24 193 
 BAR2 SZ ES   1    458 14.68                             170    -0.1 7   24 193 
 BRR  HZ EP        458  2.03                             151     0.310   72 298 
 BRR  HZ I         458  2.40        28.4 0.10                            72 298 
 BRR  HN ES   1    458 18.14                             151     0.4 7   72 298 
 PAM  SZ EP   1    458  2.93                             150     0.3 7   76  39 
 PAM  SZ I         458  3.26         7.9 0.15                            76  39 
 PAM  SN ES   1    458 19.48                             150     0.1 7   76  39 
 RUS  HZ EP   1    458  4.08                             142    -0.3 7  101 177 
 RUS  HN ES   1    458 22.34                             142    -0.1 7  101 177 
 RUS  HZ I         458 23.43         4.3 0.27                           101 177 
 BRI  SZ EP   1    458  4.74                             140     0.3 7  108  20 
 GRA  SZ EP   1    458  5.99                             136     0.2 7  125  17 
 GRA  SZ ES   1    458 24.67                             136    -0.3 7  125  17 
 OCA  SZ EP   1    458  8.68                             128    -0.3 7  160 353 
 OCA  SZ ES   1    458 30.23                             128    -0.5 7  160 353 
 OCA  SZ I         458 34.14         6.0 0.17                           160 353 
 HEL  HN ES   2    458 52.14                             113    -0.4 4  274 256 
 HEL  HZ I         459  1.70         2.8 0.26                           274 256 
                                                                                
