 2012  224 0321 59.5 L   6.724 -73.124142.3  RSN  8 0.4 1.9LRSN                1
 GAP=143        0.78       4.9     5.9  6.5 -0.6157E+01  0.1011E+02  0.8293E+01E
 ACTION:UP  12-03-07 16:33 OP:epov STATUS:               ID:20120224032159 L   I
 2012-02-24-0320-00M.COL___192                                                 6
 STAT SP IPHASW D HRMM SECON CODA AMPLIT PERI AZIMU VELO AIN AR TRES W  DIS CAZ7
 BAR2 SZ EP   1    322 18.65                             173    0.03 7 16.0 204 
 BAR2 SZ ES   1    322 32.79                             173   -0.72 7 16.0 204 
 BAR2 SZ I         322 34.68        23.4 0.25                          16.0 204 
 BRR  HZ EP   1    322 20.69                             150    0.00 7 77.6 303 
 BRR  HZ I         322 22.26        20.9 0.10                          77.6 303 
 BRR  HE ES   1    322 37.83                             150    0.64 7 77.6 303 
 PAM  SZ EP   1    322 21.86                             148    0.15 7 82.6  35 
 PAM  SE ES   1    322 39.00                             148    0.00 7 82.6  35 
 PAM  SZ I         322 41.72        11.3 0.47                          82.6  35 
 RUS  HZ EP   1    322 22.47                             146    0.13 7 92.1 177 
 RUS  HE ES   1    322 40.37                             146    0.24 7 92.1 177 
 RUS  HZ I         322 42.45        19.0 0.39                          92.1 177 
 PTB  HZ EP   1    322 25.37                             131   -0.95 7  149 262 
 NOR  SZ EP   1    322 34.89                             118    0.12 6  232 236 
 NOR  SN ES   1    323  2.43                             118    0.18 6  232 236 
 CHI  HZ EP   1    322 36.49                             117    0.25 6  241 196 
 CHI  HZ I         323  8.91         5.0 0.58                           241 196 
 PRA  HZ EP   1    322 52.22                             106   -0.01 4  386 210 
                                                                                
