 2013  324 0146 20.6 L   6.819 -73.108145.9  RSN  9 0.5 2.3LRSN                1
 GAP=158        1.20       4.5     5.9  7.2 -0.2800E+01  0.1137E+02  0.4016E+01E
 Epicentro: LOS SANTOS - SANTANDER                                             3
 ACTION:UPD 13-04-09 14:04 OP:ep   STATUS:               ID:20130324014620 L   I
 2013-03-24-0140-00M.COL___245                                                 6
 STAT SP IPHASW D HRMM SECON CODA AMPLIT PERI AZIMU VELO AIN AR TRES W  DIS CAZ7
 BAR2 SZ EP        146 39.97                             169   -0.3310 26.4 198 
 BAR2 SZ ES        146 55.25                             169   -0.4210 26.4 198 
 BAR2 SZ I         146 56.55        42.8 0.40            167           26.4 198 
 PAM  SZ EP        146 42.87                             152    0.3110 73.1  38 
 PAM  SN ES        147  0.12                             152    0.4110 73.1  38 
 PAM  SN I         147  0.97        26.1 0.22            155           73.1  38 
 BRR  HZ IP     C  146 41.82                             152   -0.0810 73.9 296 
 BRR  HN ES        146 59.31                             152    0.7810 73.9 296 
 BRR  HN I         146 59.63        72.2 0.30            148           73.9 296 
 PTB  HZ EP   4    146 46.93                             131   -1.04 0  152 258 
 PTB  HN ES   4    147  8.00                             131   -1.33 0  152 258 
 PTB  HN I         147  9.30        25.4 0.20            129            152 258 
 OCA  HZ EP        146 48.51                             130   -0.25 9  159 352 
 OCA  HN ES        147 10.02                             130   -0.71 9  159 352 
 ZAR  HZ EP        146 54.07                             122    0.72 8  207 291 
 ZAR  HE ES        147 18.24                             122   -0.67 8  207 291 
 ZAR  HE I         147 27.28        53.1 0.18            121            207 291 
 CHI  HZ EP        146 58.19                             117   -0.45 8  252 196 
 CHI  HE ES        147 28.26                             117   -0.05 8  252 196 
 CHI  HE I         147 32.03         8.1 0.26            117            252 196 
 HEL  HZ EP        147  2.19                             114    0.88 7  277 256 
 HEL  HN ES   1    147 32.77                             114   -0.30 6  277 256 
 HEL  HN I         147 40.50         5.7 0.48            114            277 256 
 COD  HZ EP   1    147  8.77                             109    0.00 5  347 354 
                                                                                
