 2013  424 0907 45.7 L   6.817 -73.183146.0  RSN  6 0.4 1.7LRSN                1
 GAP=176        0.72       4.7     5.5  8.0  0.3309E+01  0.7201E+01 -0.2229E+01E
 Epicentro: ZAPATOCA - SANTANDER                                               3
 ACTION:UPD 13-05-22 14:40 OP:EP   STATUS:               ID:20130424090745 L   I
 2013-04-24-0858-43M.COL___203                                                 6
 STAT SP IPHASW D HRMM SECON CODA AMPLIT PERI AZIMU VELO AIN AR TRES W  DIS CAZ7
 GIR2 SZ EP   1    9 8  6.01                             168    0.68 7 28.9 358 
 GIR2 SZ ES   1    9 8 20.87                             168    0.22 7 28.9 358 
 GIR2 SZ I         9 8 22.44         8.7 0.46            165           28.9 358 
 RUS  HZ EP   1    9 8  9.63                             143    0.00 7  103 174 
 RUS  HN ES   2    9 8 27.40                             143   -0.90 5  103 174 
 RUS  HN I         9 8 28.91         3.5 0.20            146            103 174 
 PTB  HZ EP   1    9 8 12.17                             133   -0.18 7  144 258 
 PTB  HN ES   1    9 8 33.31                             133    0.17 7  144 258 
 PTB  HZ I         9 8 40.21         5.3 0.28            131            144 258 
 OCA  HN ES   2    9 8 35.05                             130   -0.68 5  158 355 
 ZAR  HN ES   1    9 8 42.57                             123   -0.07 6  200 292 
 ZAR  HN I         9 8 48.48         6.7 0.32            122            200 292 
 SML  HZ EP   1    9 8 21.92                             118   -0.04 6  240 336 
 SML  HN ES   2    9 8 49.67                             118   -0.57 4  240 336 
 SML  HN I         9 8 54.72         8.0 0.10            119            240 336 
                                                                                
