 2013  224 0846 16.0 L   6.805 -73.177149.0  RSN 15 0.4 2.8LRSN 3.2WRSN        1
 SPEC AVERAGE  MO 13.9 ST 12.0 OM  2.4 f0 4.36 R0.3455 AL 2.68 WI 22.3 MW  3.2 3
 SPEC SD       MO  0.2 ST 11.6 OM  0.4 f00.671 R0.0556 AL      WI      MW  0.2 3
 GAP= 69        0.82       2.8     3.2  5.0  0.8849E+00  0.2382E+01 -0.2614E+00E
 Epicentro: LOS SANTOS - SANTANDER                                             3
 SPEC ZAR HH E MO 14.3 ST 40.5 OM  2.5 f0 5.30 R0.2774 AL 2.64 WI 14.2 MW  3.5 3
 SPEC ZAR HH E T 84713 K 0.000 GD  250 VS 4.20 DE 3.20 Q0300.0 QA 0.60 VS 4.20 3
 SPEC TAM HH N MO 13.6 ST  2.4 OM  1.9 f0 3.41 R0.4311 AL 2.15 WI 24.8 MW  3.0 3
 SPEC TAM HH N T 847 4 K 0.000 GD  217 VS 4.20 DE 3.20 Q0300.0 QA 0.60 VS 4.20 3
 SPEC PTB HH N MO 13.9 ST 12.6 OM  2.2 f0 4.82 R0.3050 AL 2.27 WI 18.7 MW  3.2 3
 SPEC PTB HH N T 847 2 K 0.000 GD  207 VS 4.20 DE 3.20 Q0300.0 QA 0.60 VS 4.20 3
 SPEC RUS HH N MO 13.8 ST  9.7 OM  2.1 f0 4.99 R0.2946 AL 2.90 WI  9.3 MW  3.1 3
 SPEC RUS HH N T 84657 K 0.000 GD  180 VS 4.20 DE 3.20 Q0300.0 QA 0.60 VS 4.20 3
 SPEC HEL HH N MO 13.7 ST  6.3 OM  1.8 f0 4.55 R0.3231 AL 2.74 WI 26.9 MW  3.1 3
 SPEC HEL HH N T 84725 K 0.000 GD  307 VS 4.20 DE 3.20 Q0300.0 QA 0.60 VS 4.20 3
 SPEC OCA HH Z MO 13.6 ST  3.8 OM  1.9 f0 3.99 R0.3684 AL 2.55 WI 22.4 MW  3.0 3
 SPEC OCA HH Z T 847 5 K 0.000 GD  217 VS 4.20 DE 3.20 Q0300.0 QA 0.60 VS 4.20 3
 SPEC COD HH N MO 13.7 ST  2.7 OM  1.7 f0 3.45 R0.4261 AL 2.36 WI 39.4 MW  3.1 3
 SPEC COD HH N T 84739 K 0.000 GD  377 VS 4.20 DE 3.20 Q0300.0 QA 0.60 VS 4.20 3
 SPEC CHI HH N MO 14.1 ST  8.7 OM  2.2 f0 3.80 R0.3868 AL 2.80 WI 24.4 MW  3.3 3
 SPEC CHI HH N T 84722 K 0.000 GD  289 VS 4.20 DE 3.20 Q0300.0 QA 0.60 VS 4.20 3
 SPEC BRR HH N MO 14.1 ST 21.6 OM  2.5 f0 4.95 R0.2970 AL 3.70 WI 20.7 MW  3.4 3
 SPEC BRR HH N T 84653 K 0.000 GD  163 VS 4.20 DE 3.20 Q0300.0 QA 0.60 VS 4.20 3
 ACTION:UPD 13-03-12 09:35 OP:ep   STATUS:               ID:20130224084616 L   I
 2013-02-24-0840-00M.COL___225                                                 6
 STAT SP IPHASW D HRMM SECON CODA AMPLIT PERI AZIMU VELO AIN AR TRES W  DIS CAZ7
 BAR2 SZ EP   1    846 36.18                             171    0.12 7 23.5 182 
 BAR2 SZ ES   1    846 51.16                             171   -0.51 7 23.5 182 
 BAR2 SZ I         846 52.81       316.0 0.18            166           23.5 182 
 BRR  HZ EP     C  846 37.96                             154    0.6010 67.9 300 
 BRR  HN ES   1    846 54.52                             154    0.53 7 67.9 300 
 BRR  HZ I         846 59.09       101.2 0.17            140           67.9 300 
 PAM  SZ EP   1    846 39.24                             151    0.53 7 79.2  42 
 PAM  SN ES   1    846 56.17                             151   -0.22 7 79.2  42 
 PAM  SZ I         846 58.61       103.0 0.82            129           79.2  42 
 RUS  HZ EP   1    846 40.13                             144   -0.04 7  101 174 
 RUS  HN ES   1    846 58.53                             144   -0.45 7  101 174 
 RUS  HZ I         846 59.83        82.8 0.26            127            101 174 
 PTB  HZ EP   1    846 42.53                             133   -0.45 7  144 258 
 PTB  HN ES   1    847  3.73                             133   -0.26 7  144 258 
 PTB  HZ I         847 10.82        80.8 0.34            117            144 258 
 TAM  HZ EP     D  846 44.56                             130    0.27 9  159 105 
 TAM  HZ I         847  5.39        27.3 0.44            111            159 105 
 TAM  HN ES   1    847  6.27                             130   -0.06 7  159 105 
 OCA  HZ EP   1    846 43.69                             130   -0.83 7  159 354 
 OCA  HN ES   1    847  6.59                             130   -0.14 7  159 354 
 OCA  HZ I         847 14.47        68.0 0.38            112            159 354 
 ZAR  HZ EP   1    846 48.63                             123    0.28 6  201 292 
 ZAR  HE ES   1    847 13.76                             123    0.20 6  201 292 
 ZAR  HZ I         847 19.87        58.7 0.34            108            201 292 
 SML  HZ EP        846 52.48                             118   -0.17 8  242 336 
 SML  HE ES   1    847 21.58                             118    0.38 6  242 336 
 SML  HZ I         847 25.31        81.1 0.26            104            242 336 
 CHI  HZ EP   1    846 54.23                             118    0.35 6  248 194 
 CHI  HN ES   1    847 23.50                             118    0.11 6  248 194 
 CHI  HZ I         847 25.92        48.5 0.36            104            248 194 
 ROSC BZ EP   4    846 55.72                             117    1.52 0  251 210 
 ROSC BN ES   2    847 24.77                             117    0.81 4  251 210 
 ROSC BZ I         847 30.76       107.7 0.35            104            251 210 
 HEL  HZ EP   1    846 56.43                             116    0.36 6  269 256 
 HEL  HN ES   2    847 26.37                             116   -0.92 4  269 256 
 HEL  HZ I         847 34.30        31.5 0.34            103            269 256 
 URE  HZ EP   1    846 56.03                             114   -0.86 6  280 292 
 URE  HN ES   4    847 26.69                             114   -2.07 0  280 292 
 VIL  SZ EP   1    846 59.37                             113   -0.22 5  303 191 
 VIL  SZ I         847 36.97        41.6 0.38            101            303 191 
 COD  HZ EP   1    847  3.90                             109   -0.55 5  347 355 
 COD  HZ I         847 51.42         9.0 0.34             99            347 355 
                                                                                
