 2014  624 0845 50.9 L   6.801 -73.203138.0  RSN  9 0.4 1.9LRSN                1
 GAP=128        0.96       3.4     3.6  6.1  0.4410E+00  0.3746E+01 -0.5004E+01E
 Epicentro: ZAPATOCA - SANTANDER                                               3
 ACTION:UPD 14-07-01 22:56 OP:nd   STATUS:               ID:20140624084550 L   I
 OLDACT:REG 14-06-24 13:29 OP:spq  STATUS:               ID:20140624083807     3
 2014-06-24-0838-07M.COL___259                                                 6
 STAT SP IPHASW D HRMM SECON CODA AMPLIT PERI AZIMU VELO AIN AR TRES W  DIS CAZ7
 BAR2 SZ EP        846  9.87                             170    0.2410 23.2 174 
 BAR2 SZ ES        846 24.44                             170    0.2310 23.2 174 
 BAR2 SZ I         846 25.80        13.2 0.14            172           23.2 174 
 RUS  HZ EP        846 14.28                             142    0.2910  101 172 
 RUS  HN ES        846 32.08                             142    0.1110  101 172 
 RUS  HZ I         846 33.09         8.8 0.24            145            101 172 
 PTB  HZ EP        846 16.49                             131   -0.22 9  142 258 
 PTB  HN ES        846 36.73                             131   -0.09 9  142 258 
 PTB  HZ I         846 40.52         9.4 0.14            131            142 258 
 SPBC HZ EP        846 18.28                             128   -0.20 9  159 217 
 SPBC HN ES        846 39.46                             128   -0.51 9  159 217 
 SPBC HZ I         846 42.68        13.2 0.14            129            159 217 
 TAM  HZ IP     C  846 17.97                             128   -0.63 9  161 104 
 TAM  HZ I         846 18.09        20.2 0.20            132            161 104 
 ZAR  HZ EP        846 22.62                             121    0.35 9  198 293 
 ZAR  HE ES        846 46.67                             121   -0.04 9  198 293 
 ZAR  HZ I         846 54.40         6.2 0.30            122            198 293 
 NOR  HZ EP        846 26.25                             117    0.57 8  230 234 
 NOR  HN ES        846 52.56                             117   -0.22 8  230 234 
 NOR  HZ I         847  0.78         7.1 0.16            119            230 234 
 SML  HZ EP        846 26.20                             116   -0.64 8  241 337 
 SML  HN ES        846 55.00                             116    0.15 8  241 337 
 SML  HZ I         847  0.36         6.8 0.28            117            241 337 
 GUY2CHZ EP        846 34.66                             111    1.04 7  296 234 
 GUY2CHN ES        847  6.57                             111   -0.34 7  296 234 
 GUY2CHZ I         847 14.76         2.4 0.26                           296 234 
                                                                                
