 2013  124 0814 28.8 L   6.738 -73.651101.3  RSN  4 0.2 1.4LRSN                1
 GAP=117        0.61       3.8     2.8  5.6  0.4086E+01  0.3204E+01  0.8222E+01E
 Epicentro: EL CARMEN DE CHUCURI - SANTANDER                                   3
 ACTION:UPD 13-02-15 09:16 OP:ep   STATUS:               ID:20130124081428 L   I
 2013-01-24-0808-36M.COL___177                                                 6
 STAT SP IPHASW D HRMM SECON CODA AMPLIT PERI AZIMU VELO AIN AR TRES W  DIS CAZ7
 BRR  HZ EP        814 43.12                             156   -0.3710 41.4 351 
 BRR  HN ES        814 55.28                             156    0.3410 41.4 351 
 BRR  HN I         814 55.75         9.8 0.24            158           41.4 351 
 BAR2 SZ EP        814 44.66                             150    0.1110 54.3 107 
 BAR2 SZ ES        814 56.57                             150   -0.2610 54.3 107 
 BAR2 SZ I         814 57.52        11.0 0.26            152           54.3 107 
 PTB  HZ EP        814 47.13                             134    0.0610 91.7 256 
 PTB  HN ES        815  1.23                             134   -0.0910 91.7 256 
 PTB  HN I         815  2.79         4.5 0.10            135           91.7 256 
 RUS  HZ EP        814 49.79                             128    0.1510  113 146 
 RUS  HN ES        815  5.95                             128    0.0610  113 146 
                                                                                
