 2014  224 0126 16.2 L   6.810 -73.134136.5  RSN  4 0.2 1.0LRSN                1
 GAP=141        0.58       5.2     5.0  6.8  0.5699E+00 -0.1849E+01 -0.1193E+02E
 Epicentro: LOS SANTOS - SANTANDER                                             3
 ACTION:UPD 14-03-10 08:12 OP:ep   STATUS:               ID:20140224012616 L   I
 OLDACT:REG 14-02-24 11:35 OP:stll STATUS:               ID:20140224011818     3
 2014-02-24-0118-18M.COL___230                                                 6
 STAT SP IPHASW D HRMM SECON CODA AMPLIT PERI AZIMU VELO AIN AR TRES W  DIS CAZ7
 BAR2 SZ EP        126 34.70                             169   -0.0610 24.7 192 
 BAR2 SZ ES        126 49.02                             169   -0.2110 24.7 192 
 PAM  SZ EP   1    126 37.61                             150    0.26 7 75.7  39 
 RUS  HZ EP   1    126 38.79                             141   -0.36 7  102 177 
 RUS  HN ES        126 57.31                             141    0.2810  102 177 
 RUS  HZ I         126 58.71         1.8 0.26            140            102 177 
 PTB  HN ES   1    127  3.24                             129    0.10 7  149 259 
                                                                                
