 2010  724 0539 16.5 L   6.794 -73.086144.4  RSN  6 0.5 1.4LRSN                1
 GAP=165        1.35       8.5    15.4 14.1 -0.1061E+02 -0.4521E+02 -0.4843E+02E
 Epicentro: LOS SANTOS - SANTANDER                                             3
 ACTION:UPD 10-12-01 15:19 OP:pat  STATUS:               ID:20100724053916 L   I
 2010-07-24-0537-39S.COL___123                                                 6
 STAT SP IPHASW D HRMM SECON CODA AMPLIT PERI AZIMU VELO AIN AR TRES W  DIS CAZ7
 BAR2 SZ ES   1    539 51.38                             170     0.1 7   25 206 
 BAR2 SZ I         539 52.48         9.7 0.32                            25 206 
 BRR  HZ IP     C  539 37.57                             150    -0.310   77 297 
 BRR  HE ES   1    539 54.86                             150     0.3 7   77 297 
 BRR  HZ I         539 57.31         6.4 0.24                            77 297 
 RUS  HZ EP   2    539 39.85                             144    -0.2 5  100 180 
 RUS  HN ES   1    539 58.35                             144    -0.1 7  100 180 
 RUS  HZ I         539 59.56         2.4 0.21                           100 180 
 GUE  SZ EP   1    539 40.42                             139    -0.6 7  116   9 
 GUE  SZ I         539 42.63         2.2 0.03                           116   9 
 GRA  SZ IP        539 42.49                             137     1.010  125  14 
 GRA  SZ ES   1    540  0.50                             137    -0.6 7  125  14 
 GRA  SZ I         540  6.47         3.2 0.41                           125  14 
 OCA  SZ EP   1    539 44.71                             129    -0.2 7  162 351 
 OCA  SZ I         540 10.79         5.4 0.44                           162 351 
                                                                                
