 2011  124 0340 23.5 L   6.732 -73.922 17.4  RSN  5 0.5 1.5LRSN                1
 GAP=130        1.05       5.0     6.2  8.3  0.2544E+01  0.2582E+02 -0.1855E+01E
 Epicentro: PUERTO PARRA - SANTANDER                                           3
 ACTION:UP  11-02-08 08:42 OP:pat  STATUS:               ID:20110124034023 L   I
 2011-01-24-0338-53S.COL___138                                                 6
 STAT SP IPHASW D HRMM SECON CODA AMPLIT PERI AZIMU VELO SNR AR TRES W  DIS CAZ7
 BAR2 SZ EP   1    340 36.90                             100    -0.2 8   83 101 
 BAR2 SZ ES   1    340 47.13                             100    -0.6 8   83 101 
 RUS  HZ EP        340 44.89                              56     0.310  131 135 
 RUS  HN ES   1    341  1.13                              56     0.1 7  131 135 
 RUS  HZ I         341  2.97        16.7 0.30                           131 135 
 GRA  SZ ES   1    341 10.20                              56    -0.4 7  177  44 
 OCA  SZ EP        340 50.72                              56     0.5 9  179  22 
 OCA  SZ I         341 13.88         4.6 0.71                           179  22 
 HEL  HN ES   2    341 12.30                              56    -1.0 5  188 251 
 HEL  HZ I         341 13.82         3.3 0.30                           188 251 
                                                                                
