 2017  724 0757 35.3 L   6.747 -73.177147.8  RSN  7 0.3 1.2LRSN                1
 GAP=205        0.72       3.9     3.7  5.1  0.8321E+01 -0.6265E+00  0.2226E+00E
 Epicentro: LOS SANTOS - SANTANDER                                             3
 ACTION:UPD 17-08-30 15:36 OP:rebc STATUS:               ID:20170724075735 L   I
 OLDACT:REG 17-07-24 13:08 OP:and  STATUS:               ID:20170724074738     3
 2017-07-24-0748-00M.COL___380                                                 6
 STAT SP IPHASW D HRMM SECON CODA AMPLIT PERI AZIMU VELO AIN AR TRES W  DIS CAZ7
 BAR2 EZ EP        757 54.85                             173   -0.1910 17.2 182 
 BAR2 EZ ES        758  9.92                             173   -0.5410 17.2 182 
 BAR2 EZ I         758 12.58         5.3 0.36            170           17.2 182 
 BRR  HZ EP        757 56.61                             153   -0.0410 71.2 304 
 BRR  HN ES        758 13.81                             153    0.5010 71.2 304 
 RUS  HZ EP        757 58.95                             146    0.1110 95.1 174 
 RUS  HN ES        758 17.49                             146    0.2610 95.1 174 
 RUS  HZ I         758 19.48         2.1 0.30            145           95.1 174 
 PTB  HZ EP        758  2.10                             133    0.09 9  143 261 
 PTB  HN ES        758 22.66                             133   -0.20 9  143 261 
 PTB  HZ I         758 27.26         0.8 0.08            133            143 261 
 SPBC HN ES        758 25.09                             131   -0.08 9  156 219 
 SPBC HZ I         758 28.39         3.2 0.28            130            156 219 
 YPLC HZ EP        758  4.68                             128   -0.22 9  173 149 
 YPLC HE ES        758 28.27                             128    0.27 9  173 149 
 ZAR  HE ES        758 33.13                             123    0.04 9  203 294 
                                                                                
