 2011  924 0742  6.7 L   6.814 -73.037143.8  RSN  4 0.2 1.3LRSN                1
 GAP=248        0.49       8.0    13.7  6.8  0.9496E+02 -0.5575E+02 -0.2578E+02E
 Epicentro: CEPITA - SANTANDER                                                 3
 ACTION:UPD 12-07-13 15:59 OP:ep   STATUS:               ID:20110924074206 L   I
 2011-09-24-0740-17S.COL___165                                                 6
 STAT SP IPHASW D HRMM SECON CODA AMPLIT PERI AZIMU VELO AIN AR TRES W  DIS CAZ7
 BTL  SZ EP   1    742 26.60                             169    0.39 7 28.0 295 
 BAR2 SZ EP   2    742 25.72                             168   -0.52 5 29.3 213 
 BAR2 SZ ES   1    742 41.32                             168   -0.15 7 29.3 213 
 BAR2 SZ I         742 42.94         5.7 0.10                          29.3 213 
 BRR  HZ EP   1    742 28.20                             149   -0.05 7 81.3 294 
 BRR  HN ES        742 45.04                             149   -0.0110 81.3 294 
 BRR  HZ I         742 45.90         4.2 0.05                          81.3 294 
 RUS  HZ EP        742 30.31                             143   -0.0610  102 183 
 RUS  HE ES   1    742 48.97                             143    0.15 7  102 183 
 RUS  HZ I         742 50.78         3.1 0.43                           102 183 
                                                                                
