 2016  224 0451 27.3 L   6.787 -73.149146.9  RSN 12 0.4 1.8LRSN                1
 GAP=137        0.99       3.0     3.9  5.8 -0.1814E+01  0.6530E+01  0.4789E+00E
 Epicentro: LOS SANTOS - SANTANDER                                             3
 ACTION:UPD 16-03-04 21:28 OP:rebc STATUS:               ID:20160224045127 L   I
 OLDACT:UP  16-02-24 16:58 OP:mh   STATUS:               ID:20160224044749     3
 OLDACT:UP  16-02-24 16:58 OP:mh   STATUS:               ID:20160224044749     3
 OLDACT:UP  16-02-24 16:58 OP:mh   STATUS:               ID:20160224044749     3
 OLDACT:REG 16-02-24 13:01 OP:mh   STATUS:               ID:20160224044749     3
 2016-02-24-0447-49M.COL___334                                                 6
 STAT SP IPHASW D HRMM SECON CODA AMPLIT PERI AZIMU VELO AIN AR TRES W  DIS CAZ7
 BAR2 EZ EP        451 47.02                             171    0.0210 21.9 190 
 BAR2 EZ ES        452  1.92                             171   -0.4810 21.9 190 
 BAR2 EZ I         452  4.56        18.1 0.34            170           21.9 190 
 BRR  HZ IP     C  451 48.87                             153    0.3110 71.6 300 
 BRR  HN ES        452  5.93                             153    0.7610 71.6 300 
 BRR  HZ I         452  8.35         8.4 0.18            150           71.6 300 
 PAM  EZ EP   1    451 49.62                             151   -0.06 7 78.7  39 
 PAM  EN ES        452  6.92                             151   -0.2510 78.7  39 
 PAM  EZ I         452  8.59         9.6 0.74            153           78.7  39 
 RUS  HZ EP   1    451 50.99                             144   -0.04 7 99.2 176 
 RUS  HN ES        452 10.08                             144    0.5210 99.2 176 
 RUS  HZ I         452 10.09         7.3 0.22            146           99.2 176 
 PTB  HZ EP   1    451 53.55                             132   -0.72 7  147 259 
 PTB  HN ES        452 14.72                             132   -0.61 9  147 259 
 PTB  HZ I         452 15.88         8.0 0.18            131            147 259 
 OCA  HZ EP        451 55.83                             130    0.04 9  162 353 
 OCA  HN ES        452 17.85                             130   -0.19 9  162 353 
 OCA  HZ I         452 23.47         7.9 0.26            130            162 353 
 SPBC HZ EP   1    451 55.74                             130    0.02 7  162 219 
 SPBC HN ES        452 17.83                             130   -0.09 9  162 219 
 SPBC HZ I         452 23.40        12.1 0.24            129            162 219 
 ZAR  HZ EP        452  0.13                             123    0.33 9  204 293 
 ZAR  HN ES        452 25.13                             123   -0.06 9  204 293 
 ZAR  HZ I         452 31.41         7.0 0.32            122            204 293 
 NOR  HZ EP   1    452  2.27                             119   -0.67 6  234 235 
 NOR  HN ES   1    452 29.93                             119   -0.83 6  234 235 
 NOR  HZ I         452 35.97         7.1 0.52            119            234 235 
 CHI  HZ EP   1    452  5.12                             117    0.26 6  247 195 
 CHI  HN ES        452 34.29                             117    0.10 8  247 195 
 CHI  HZ I         452 39.74         2.3 0.30            118            247 195 
 HEL  HN ES        452 39.60                             115    0.79 8  271 256 
 HEL  HZ I         452 45.80         3.9 0.52            115            271 256 
 MON  HZ EP   4    452 14.10                             109   -2.28 0  354 309 
 MON  HN ES   4    452 52.41                             109   -2.28 0  354 309 
 MON  HZ I         452 56.75         0.9 0.50            109            354 309 
                                                                                
