 2012  324 0055 13.7 L   6.599 -73.456123.5  RSN  5 0.3 1.4LRSN                1
 GAP=114        0.48       4.1     4.0  6.7  0.1165E+01  0.1135E+00  0.5885E+01E
 ACTION:UP  12-03-31 23:22 OP:EP   STATUS:               ID:20120324005513 L   I
 2012-03-24-0050-00M.COL___196                                                 6
 STAT SP IPHASW D HRMM SECON CODA AMPLIT PERI AZIMU VELO SNR AR TRES W  DIS CAZ7
 BAR2 SZ EP   2    055 30.73                             165    -0.1 5   30  91 
 BAR2 SZ ES   2    055 44.00                             165    -0.2 5   30  91 
 BAR2 SZ I         055 45.13        16.4 0.41                            30  91 
 BRR  HZ EP   2    055 32.16                             151     0.2 5   63 333 
 BRR  HE ES   2    055 46.38                             151     0.2 5   63 333 
 RUS  HZ EP        055 34.51                             142     0.210   88 152 
 RUS  HN ES   2    055 50.41                             142    -0.1 5   88 152 
 RUS  HZ I         055 51.78         2.5 0.22                            88 152 
 PTB  HZ EP   2    055 34.79                             135    -0.7 5  111 267 
 PTB  HN ES   2    055 52.66                             135     0.1 5  111 267 
 PTB  HZ I         055 53.96         3.0 0.21                           111 267 
 PAM  SZ EP   2    055 36.76                             134     0.1 5  117  46 
 PAM  SN ES   2    055 54.40                             134    -0.2 5  117  46 
                                                                                
