 2017  624 0825 29.6 L   6.783 -73.146147.7  RSN  5 0.2 1.4LRSN                1
 GAP=251        0.56       3.5     3.9  3.9  0.2765E+01  0.4340E+00 -0.3729E+00E
 Epicentro: LOS SANTOS - SANTANDER                                             3
 ACTION:UPD 17-09-14 16:54 OP:jn   STATUS:               ID:20170624082529 L   I
 OLDACT:REG 17-06-24 13:50 OP:lv   STATUS:               ID:20170624081742     3
 2017-06-24-0818-00M.COL___373                                                 6
 STAT SP IPHASW D HRMM SECON CODA AMPLIT PERI AZIMU VELO AIN AR TRES W  DIS CAZ7
 BAR2 EZ IP     D  825 49.16                             171   -0.2510 21.5 191 
 BAR2 EZ ES        826  4.80                             171   -0.0710 21.5 191 
 BAR2 EZ I         826  5.33         8.5 0.34            169           21.5 191 
 BRR  HZ EP        825 51.00                             153    0.0110 72.1 300 
 BRR  HN ES        826  8.03                             153    0.3410 72.1 300 
 BRR  HZ I         826  9.19         5.2 0.35            152           72.1 300 
 PTB  HZ EP   9    825 55.43                             133   -1.25 0  147 260 
 PTB  HN ES        826 16.27                                   -0.29 9  147 260 
 PTB  HZ I         826 19.00         1.2 0.13            132            147 260 
 SPBC HZ EP        825 58.23                             130    0.14 9  162 219 
 SPBC HN ES        826 20.36                             130    0.03 9  162 219 
 SPBC HZ I         826 23.43         3.5 0.10            129            162 219 
 ZAR  HZ EP        826  2.29                             123    0.06 9  205 293 
 ZAR  HN ES        826 27.39                             123   -0.30 9  205 293 
                                                                                
