 2015  124 0344 41.2 L   6.793 -73.158142.8  RSN  5 0.3 1.5LRSN                1
 GAP=135        0.77       4.1     5.2  5.7 -0.5289E+00  0.5265E+01  0.1279E+01E
 Epicentro: LOS SANTOS - SANTANDER                                             3
 ACTION:UPD 15-03-02 15:41 OP:nd   STATUS:               ID:20150124034441 L   I
 OLDACT:REG 15-01-24 13:29 OP:carl STATUS:               ID:20150124033748     3
 2015-01-24-0337-48M.COL___265                                                 6
 STAT SP IPHASW D HRMM SECON CODA AMPLIT PERI AZIMU VELO AIN AR TRES W  DIS CAZ7
 BAR2 EZ EP        345  0.50                             171    0.0910 22.3 187 
 BAR2 EZ ES        345 15.31                             171   -0.1210 22.3 187 
 BAR2 EZ I         345 17.28         5.9 0.32            172           22.3 187 
 BRR  HZ EP        345  2.20                             152    0.2610 70.4 300 
 BRR  HN ES        345 18.44                             152    0.2910 70.4 300 
 PAM  SZ EP        345  3.23                             150    0.0810 78.9  40 
 PAM  SN ES        345 20.03                             150   -0.2810 78.9  40 
 PAM  SZ I         345 22.68         7.7 0.42            150           78.9  40 
 RUS  HZ EP        345  4.88                             143    0.3110 99.9 175 
 RUS  HE ES        345 22.77                             143   -0.0610 99.9 175 
 PTB  HZ EP        345  7.11                             132   -0.64 9  146 259 
                                                                                
