 2014  624 0900 56.4 L   6.815 -73.182142.0  RSN  6 0.2 1.5LRSN                1
 GAP=129        0.47       2.2     2.4  3.9  0.8815E+00 -0.9026E+00 -0.4014E+01E
 Epicentro: ZAPATOCA - SANTANDER                                               3
 ACTION:UPD 14-07-01 22:56 OP:nd   STATUS:               ID:20140624090056 L   I
 OLDACT:REG 14-06-24 13:34 OP:spq  STATUS:               ID:20140624085808     3
 2014-06-24-0858-08M.COL___259                                                 6
 STAT SP IPHASW D HRMM SECON CODA AMPLIT PERI AZIMU VELO AIN AR TRES W  DIS CAZ7
 BAR2 SZ EP        9 1 15.87                             170    0.2410 24.6 180 
 BAR2 SZ I         9 1 16.14         7.6 0.10            171           24.6 180 
 BAR2 SZ ES        9 1 30.49                             170   -0.1210 24.6 180 
 RUS  HZ EP        9 1 20.14                             142    0.1810  103 174 
 RUS  HN ES        9 1 38.22                             142   -0.0910  103 174 
 RUS  HZ I         9 1 39.35         4.8 0.28            146            103 174 
 PTB  HZ EP        9 1 22.56                             132   -0.20 9  144 258 
 PTB  HN ES        9 1 43.26                             132   -0.04 9  144 258 
 PTB  HZ I         9 1 49.35         2.8 0.18            131            144 258 
 TAM  HZ EP        9 1 24.13                             129   -0.09 9  159 105 
 SPBC HN ES        9 1 46.56                             128    0.12 9  162 218 
 SPBC HZ I         9 1 48.17         4.7 0.30            129            162 218 
 SML  HZ EP        9 1 32.24                             117   -0.26 8  241 336 
 SML  HN ES        9 2  0.87                             117    0.23 8  241 336 
 SML  HZ I         9 2  6.00         3.9 0.24            117            241 336 
                                                                                
