 2014  624 0832 49.5 L   6.829 -73.170136.2  RSN 25 0.5 2.5LRSN                1
 GAP= 53        1.52       3.3     3.7  6.9 -0.2076E+01  0.8827E+01  0.1895E+01E
 Epicentro: LOS SANTOS - SANTANDER                                             3
 ACTION:UPD 14-07-01 22:56 OP:nd   STATUS:               ID:20140624083249 L   I
 OLDACT:DUP 14-06-24 16:31 OP:spq  STATUS:               ID:20140624082808d    3
 2014-06-24-0828-07M.COL___259                                                 6
 STAT SP IPHASW D HRMM SECON CODA AMPLIT PERI AZIMU VELO AIN AR TRES W  DIS CAZ7
 BAR2 SZ IP     D  833  8.35                             168    0.3510 26.2 183 
 BAR2 SZ ES        833 22.40                             168   -0.0710 26.2 183 
 BAR2 SZ I         833 24.57        73.3 0.22            168           26.2 183 
 PAM  SZ EP        833 11.10                             149    0.4810 76.7  43 
 PAM  SZ I         833 11.47        94.4 0.20            153           76.7  43 
 PAM  SN ES        833 27.72                             149    0.5910 76.7  43 
 RUS  HZ EP        833 12.33                             140   -0.2110  104 175 
 RUS  HN ES        833 30.77                             140    0.2310  104 175 
 RUS  HZ I         833 32.48        23.9 0.32            143            104 175 
 PTB  HZ EP        833 14.81                             130   -0.67 9  146 257 
 PTB  HN ES        833 35.08                             130   -0.70 9  146 257 
 PTB  HZ I         833 41.93        33.7 0.46            130            146 257 
 OCA  HZ EP        833 16.68                             128   -0.03 9  157 354 
 OCA  HN ES        833 37.67                             128   -0.30 9  157 354 
 OCA  HZ I         833 42.50        32.8 0.32            130            157 354 
 TAM  HZ IP     D  833 16.77                             127    0.05 9  159 106 
 TAM  HZ I         833 17.17        41.9 0.32            132            159 106 
 TAM  HN ES        833 37.67                             127   -0.32 9  159 106 
 SPBC HZ IP     C  833 17.29                             126   -0.03 9  164 218 
 SPBC HZ I         833 17.83        37.2 0.12            127            164 218 
 SPBC HE ES        833 39.36                             126    0.30 9  164 218 
 ZAR  HZ EP        833 21.06                             120    0.14 9  200 292 
 ZAR  HN ES        833 45.71                             120    0.26 9  200 292 
 ZAR  HZ I         833 53.11        29.9 0.36            121            200 292 
 NOR  HZ EP        833 24.78                             116    0.16 8  234 233 
 NOR  HE ES        833 51.66                             116   -0.38 8  234 233 
 NOR  HZ I         833 54.39        30.6 0.18            117            234 233 
 SML  HZ EP        833 24.97                             116   -0.16 8  240 336 
 SML  HE ES        833 52.66                             116   -0.29 8  240 336 
 SML  HZ I         833 55.41        30.3 0.32            117            240 336 
 CHI  HZ EP        833 26.81                             115   -0.10 8  251 194 
 CHI  HN ES        833 55.97                             115   -0.15 8  251 194 
 ROSC BZ EP        833 28.36                             114    1.13 8  254 210 
 ROSC BN ES        833 57.02                             114    0.33 8  254 210 
 ROSC BZ I         834  4.46        17.7 0.30            116            254 210 
 HEL  HZ EP        833 29.81                             113    0.81 8  270 255 
 HEL  HN ES        833 60.00                             113    0.16 8  270 255 
 HEL  HZ I         834  6.77        17.1 0.42            114            270 255 
 GUY2CHZ EP        833 32.89                             110    0.28 7  301 234 
 GUY2CHN ES        834  6.49                             110    0.23 7  301 234 
 GUY2CHZ I         834 13.67        12.5 0.42                           301 234 
 SOCV BZ EP   9    833 30.76                             110   -1.39 0  302  58 
 SOCV BE ES        834  1.19                                   -2.86 7  302  58 
 PTGC HZ EP   9    833 31.68                             109   -1.68 0  313 158 
 PTGC HZ I         833 32.32        17.5 0.26            111            313 158 
 PTGC HE ES        834  4.23                                   -1.69 7  313 158 
 RREF HZ EP   1    833 35.65                             109    0.44 5  322 229 
 RREF HE ES        834 10.04                             109   -0.86 7  322 229 
 RREF HZ I         834 24.77        12.1 0.32            110            322 229 
 CBOC HZ EP        833 36.44                             108    0.62 7  332 251 
 CBOC HZ I         833 37.50         5.2 0.18            109            332 251 
 CBOC HE ES        834 11.89                             108   -0.08 7  332 251 
 DBB  SZ EP        833 36.42                             108    0.19 7  337 274 
 DBB  SZ ES        834 12.46                             108   -0.25 7  337 274 
 TOL  SZ EP        833 38.18                             107    0.78 7  344 224 
 TOL  SE ES        834 14.55                             107   -0.23 7  344 224 
 ANIL HE ES        834 17.26                             106   -0.31 6  358 224 
 ANIL HZ I         834 26.01        23.8 0.26            108            358 224 
 PRA  HZ EP        833 41.81                             105   -1.03 6  393 209 
 PRA  HN ES        834 23.22                             105   -1.25 6  393 209 
 PRA  HZ I         834 30.93        18.0 0.30            106            393 209 
 ORTC HZ EP        833 43.36                             104    0.17 6  396 216 
 ORTC HN ES        834 24.91                             104   -0.18 6  396 216 
 ORTC HZ I         834 30.64         7.0 0.46            106            396 216 
 SJC  HZ EP   9    833 42.37                             104   -1.87 0  405 327 
 SJC  HE ES        834 22.71                                   -2.39 6  405 327 
 SJC  HZ I         834 27.04         3.4 0.46            105            405 327 
 ELOV BZ EP        833 42.69                             104   -1.79 6  408  87 
                                                                                
