 2011  724 0125 26.9 L   6.790 -73.126144.0  RSN  6 0.3 1.7LRSN                1
 GAP=139        0.58       3.1     5.8  5.4  0.6349E+00 -0.3403E+01 -0.3460E+01E
 Epicentro: LOS SANTOS - SANTANDER                                             3
 ACTION:UPD 12-07-25 14:02 OP:epov STATUS:               ID:20110724012526 L   I
 2011-07-24-0121-56S.COL___142                                                 6
 STAT SP IPHASW D HRMM SECON CODA AMPLIT PERI AZIMU VELO AIN AR TRES W  DIS CAZ7
 BAR2 SZ EP   1    125 45.79                             171   -0.51 7 22.8 196 
 BAR2 SZ ES   1    126  1.06                             171   -0.37 7 22.8 196 
 BAR2 SZ I         126  2.45         7.5 0.05                          22.8 196 
 BRR  HZ EP   1    125 48.13                             151    0.14 7 73.6 298 
 BRR  HN ES   1    126  4.79                             151    0.34 7 73.6 298 
 BRR  HZ I         126  5.81        18.0 0.12                          73.6 298 
 PAM  SZ EP   1    125 49.10                             151    0.21 7 76.8  38 
 PAM  SE ES   1    126  6.21                             151    0.17 7 76.8  38 
 RUS  HZ EP   1    125 50.49                             144    0.10 7 99.4 177 
 RUS  HN ES   1    126  8.83                             144    0.12 7 99.4 177 
 RUS  HZ I         126 10.34         4.7 0.38                          99.4 177 
 BRI  SZ EP   1    125 50.86                             141    0.23 7  109  20 
 BRI  SZ I         126 14.47         6.6 0.44                           109  20 
 OCA  SZ EP   1    125 54.98                             129   -0.21 7  162 352 
 OCA  SZ ES   1    126 16.97                             129   -0.29 7  162 352 
 OCA  SZ I         126 21.64         5.7 0.29                           162 352 
                                                                                
