 2016  124 0102 37.6 L   6.803 -73.135145.6  RSN 14 0.4 2.0LRSN                1
 GAP=138        0.86       2.5     3.3  4.8 -0.1769E+01  0.6366E+01  0.7668E-01E
 Epicentro: LOS SANTOS - SANTANDER                                             3
 ACTION:UPD 16-03-09 23:27 OP:cam  STATUS:               ID:20160124010237 L   I
 OLDACT:UP  16-01-24 13:49 OP:ar   STATUS:               ID:20160124005745     3
 OLDACT:REG 16-01-24 12:42 OP:ar   STATUS:               ID:20160124005745     3
 2016-01-24-0057-45M.COL___321                                                 6
 STAT SP IPHASW D HRMM SECON CODA AMPLIT PERI AZIMU VELO AIN AR TRES W  DIS CAZ7
 BAR2 EZ EP        1 2 57.32                             170    0.0610 23.9 193 
 BAR2 EZ ES        1 3 12.63                             170    0.0610 23.9 193 
 BAR2 EZ I         1 3 13.43        20.7 0.20            168           23.9 193 
 PAM  EZ EP     C  1 3  0.16                             151    0.3810 76.3  39 
 PAM  EN ES        1 3 17.23                             151    0.1910 76.3  39 
 PAM  EZ I         1 3 17.95        11.6 0.32            155           76.3  39 
 RUS  HZ EP        1 3  1.23                             144   -0.1610  101 177 
 RUS  HN ES        1 3 19.99                             144    0.0610  101 177 
 RUS  HZ I         1 3 23.09         5.0 0.28            146            101 177 
 PTB  HZ EP        1 3  4.33                             132   -0.38 9  149 259 
 PTB  HN ES        1 3 25.20                             132   -0.62 9  149 259 
 PTB  HZ I         1 3 30.85        10.7 0.36            130            149 259 
 OCA  HZ EP   4    1 3 10.95                             130    5.03 0  160 353 
 OCA  HE ES        1 3 27.53                             130   -0.44 9  160 353 
 OCA  HZ I         1 3 33.28        17.8 0.30            130            160 353 
 SPBC HZ EP        1 3  6.29                             129    0.07 9  164 219 
 SPBC HN ES        1 3 28.21                             129   -0.31 9  164 219 
 SPBC HZ I         1 3 34.17        18.0 0.22            129            164 219 
 ZAR  HZ EP   4    1 3 12.80                             122    2.63 0  205 292 
 ZAR  HE ES        1 3 36.43                             122    0.88 9  205 292 
 ZAR  HZ I         1 3 41.44        18.6 0.60            122            205 292 
 NOR  HZ EP        1 3 13.82                             118    0.33 8  236 235 
 NOR  HN ES        1 3 41.38                             118   -0.07 8  236 235 
 NOR  HZ I         1 3 47.50         7.8 0.22            119            236 235 
 SML  HZ EP        1 3 14.23                             117   -0.04 8  244 335 
 SML  HN ES   4    1 3 44.75                             117    1.90 0  244 335 
 SML  HZ I         1 3 51.39        12.5 0.10            118            244 335 
 CHI  HZ EP        1 3 15.51                             117    0.11 8  249 195 
 CHI  HE ES        1 3 44.67                             117   -0.18 8  249 195 
 CHI  HZ I         1 3 52.55         2.5 0.24            119            249 195 
 ROSC BZ EP   4    1 3 13.84                             116   -2.01 0  254 211 
 ROSC BN ES   4    1 3 47.85                             116    2.19 0  254 211 
 ROSC BZ I         1 3 54.85        10.1 0.45            118            254 211 
 HEL  HZ EP        1 3 17.87                             115   -0.11 8  273 256 
 HEL  HN ES        1 3 49.47                             115    0.02 8  273 256 
 HEL  HZ I         1 3 57.54         5.2 0.26            115            273 256 
 URE  HZ EP        1 3 18.30                             113   -0.51 7  285 292 
 URE  HE ES   4    1 3 49.35                             113   -1.57 0  285 292 
 URE  HZ I         1 4  2.07         9.5 0.36            114            285 292 
 GUY2CHZ EP        1 3 21.36                             112   -0.01 7  302 235 
 GUY2CHE ES        1 3 56.36                             112    0.87 7  302 235 
 GUY2CHZ I         1 4  3.84         7.2 0.38                           302 235 
                                                                                
