 2016  924 0442 52.6 L   6.799 -73.157146.4  RSN  7 0.3 1.6LRSN                1
 GAP=236        0.68       4.4     3.8  5.3  0.5440E+01  0.6078E+01  0.7160E-01E
 Epicentro: LOS SANTOS - SANTANDER                                             3
 ACTION:UPD 17-08-17 21:15 OP:lp   STATUS:               ID:20160924044252 L   I
 OLDACT:UP  16-09-24 17:12 OP:drio STATUS:               ID:20160924043739     3
 OLDACT:REG 16-09-24 12:37 OP:y    STATUS:               ID:20160924043739     3
 2016-09-24-0438-00M.COL___330                                                 6
 STAT SP IPHASW D HRMM SECON CODA AMPLIT PERI AZIMU VELO AIN AR TRES W  DIS CAZ7
 BAR2 EZ EP        443 12.47                             171    0.1510 23.0 187 
 BAR2 EZ ES        443 27.53                             171   -0.1610 23.0 187 
 BAR2 EZ I         443 28.61        10.1 0.24            168           23.0 187 
 BRR  HZ EP        443 14.20                             153    0.4210 70.2 299 
 BRR  HE ES   4    443 31.63                             153    1.34 0 70.2 299 
 BRR  HZ I         443 35.31         5.0 0.42            150           70.2 299 
 RUS  HZ EP        443 16.35                             144   -0.0810  101 175 
 RUS  HE ES        443 35.05                             144    0.0410  101 175 
 RUS  HZ I         443 36.26         5.5 0.30            147            101 175 
 PTB  HZ EP        443 18.91                             132   -0.62 9  147 259 
 PTB  HE ES        443 40.43                             132   -0.09 9  147 259 
 PTB  HZ I         443 43.07         3.9 0.16            132            147 259 
 OCA  HE ES   4    443 41.48                             130   -1.62 0  160 354 
 SPBC HZ EP        443 21.21                             129    0.12 9  162 219 
 SPBC HN ES   4    443 42.03                             129   -1.26 0  162 219 
 SPBC HZ I         443 48.14        15.0 0.10            130            162 219 
 ZAR  HE ES        443 50.29                             123    0.04 9  203 292 
 ZAR  HZ I         443 58.34         2.8 0.14            123            203 292 
 NOR  HZ EP        443 28.17                             119   -0.10 8  234 234 
 NOR  HE ES        443 56.39                             119    0.31 8  234 234 
 NOR  HZ I         444  1.91         4.3 0.16            120            234 234 
                                                                                
