 2016  524 0004 55.7 L   6.775 -73.163145.4  RSN 10 0.5 2.0LRSN                1
 GAP=135        1.20       3.7     4.9  6.7 -0.1161E+01  0.7925E+01  0.4213E+01E
 Epicentro: LOS SANTOS - SANTANDER                                             3
 ACTION:UPD 16-08-18 17:48 OP:cam  STATUS:               ID:20160524000455 L   I
 OLDACT:REG 16-05-24 12:18 OP:mhre STATUS:               ID:20160524000000     3
 2016-05-24-0000-00M.COL___312                                                 6
 STAT SP IPHASW D HRMM SECON CODA AMPLIT PERI AZIMU VELO AIN AR TRES W  DIS CAZ7
 BAR2 EZ EP   1    0 5 15.08                             172   -0.10 7 20.3 186 
 BAR2 EZ ES        0 5 30.15                             172   -0.2710 20.3 186 
 BAR2 EZ I         0 5 31.72        29.4 0.18            171           20.3 186 
 BRR  HZ EP        0 5 17.39                             153    0.6410 70.9 301 
 BRR  HN ES        0 5 34.08                             153    0.8810 70.9 301 
 BRR  HZ I         0 5 38.58        14.0 0.14            151           70.9 301 
 PAM  EZ EP        0 5 18.18                             150    0.1410 80.8  39 
 PAM  EN ES        0 5 35.18                             150   -0.3210 80.8  39 
 PAM  EZ I         0 5 39.53         6.3 0.38            153           80.8  39 
 RUS  HZ EP        0 5 19.30                             144    0.1210 97.9 175 
 RUS  HN ES        0 5 37.78                             144    0.2510 97.9 175 
 RUS  HZ I         0 5 38.64        11.5 0.52            146           97.9 175 
 PTB  HZ EP   1    0 5 22.48                             132    0.11 7  145 260 
 PTB  HN ES        0 5 42.69                             132   -0.52 9  145 260 
 PTB  HZ I         0 5 48.03         7.1 0.30            132            145 260 
 OCA  HZ EP   1    0 5 23.98                             129   -0.20 7  163 354 
 OCA  HN ES        0 5 45.64                             129   -0.79 9  163 354 
 OCA  HZ I         0 5 49.93        27.9 0.28            131            163 354 
 ZAR  HZ EP        0 5 28.61                             122    0.61 9  203 293 
 ZAR  HN ES        0 5 52.96                             122   -0.27 9  203 293 
 ZAR  HZ I         0 6  0.01        10.2 0.28            123            203 293 
 NOR  HZ EP        0 5 31.84                             119    0.82 8  231 235 
 NOR  HN ES        0 5 57.98                             119   -0.62 8  231 235 
 NOR  HZ I         0 6  0.84         7.2 0.14            120            231 235 
 CHI  HZ EP        0 5 32.32                             117   -0.66 8  245 195 
 CHI  HN ES        0 6  2.14                             117    0.04 8  245 195 
 CHI  HZ I         0 6 10.12         3.6 0.17            119            245 195 
 PRA  HZ EP        0 5 48.13                             107   -0.63 6  389 210 
 PRA  HN ES   4    0 6 32.55                             107    2.36 0  389 210 
 PRA  HZ I         0 6 37.96         6.2 0.26            108            389 210 
                                                                                
