 2013  824 0704 33.2 L   6.474 -73.747 93.6  RSN  8 0.3 1.3LRSN                1
 GAP= 71        0.74       2.3     2.4  6.2 -0.6418E-01  0.7422E+01 -0.5882E-01E
 Epicentro: SANTA HELENA DEL OPON - SANTANDER                                  3
 ACTION:UPD 14-01-14 09:06 OP:ep   STATUS:               ID:20130824070433 L   I
 OLDACT:REG 13-08-24 07:39 OP:nd   STATUS:               ID:20130824065959     3
 2013-08-24-0659-59M.COL___270                                                 6
 STAT SP IPHASW D HRMM SECON CODA AMPLIT PERI AZIMU VELO AIN AR TRES W  DIS CAZ7
 BAR2 SZ EP        7 4 49.34                             143    0.5010 63.8  78 
 BAR2 SZ ES        7 5  1.07                             143    0.0710 63.8  78 
 BAR2 SZ I         7 5  2.75        10.9 0.24            148           63.8  78 
 BRR  HZ EP        7 4 48.58                             140   -0.4110 70.2   3 
 BRR  HN ES        7 5  1.18                             140   -0.0910 70.2   3 
 BRR  HZ I         7 5  2.21         6.6 0.10            142           70.2   3 
 RUS  HZ EP        7 4 52.45                             131    0.4010 97.6 131 
 RUS  HN ES        7 5  6.53                             131   -0.1810 97.6 131 
 RUS  HZ I         7 5  9.27         1.3 0.30            135           97.6 131 
 SPBC HZ EP        7 4 51.22                             130   -0.3010 97.7 202 
 SPBC HN ES        7 5  5.80                             130    0.0310 97.7 202 
 SPBC HZ I         7 5  7.64         6.2 0.18            132           97.7 202 
 PAM  SZ EP   4    7 4 59.66                             118    2.23 0  150  50 
 PAM  SN ES        7 5 16.12                             118   -0.18 9  150  50 
 PAM  SZ I         7 5 17.37         3.7 0.18            120            150  50 
 ZAR  HZ EP        7 4 58.75                             115    0.11 9  167 313 
 ZAR  HE ES        7 5 18.70                             115    0.26 9  167 313 
 ZAR  HZ I         7 5 25.44         4.5 0.08            115            167 313 
 HEL  HZ EP        7 5  2.47                             111   -0.38 9  200 261 
 HEL  HN ES        7 5 26.10                             111    0.16 9  200 261 
 HEL  HZ I         7 5 29.07         2.6 0.56            111            200 261 
 GUY2CHZ EP   4    7 5  6.22                             108    0.13 0  226 232 
 GUY2CHN ES   4    7 5 32.88                             108    1.18 0  226 232 
 GUY2CHZ I         7 5 41.30         1.2 0.64                           226 232 
                                                                                
