 2014  824 0901 26.6 L   6.882 -73.326121.1  RSN  6 0.3 1.4LRSN                1
 GAP=100        0.78       3.1     4.5  6.3 -0.5636E+00  0.6123E+01 -0.2010E+01E
 Epicentro: BETULIA - SANTANDER                                                3
 ACTION:UPD 14-09-15 21:52 OP:nd   STATUS:               ID:20140824090126 L   I
 OLDACT:DUP 14-08-24 19:30 OP:stll STATUS:               ID:20140824085817d    3
 2014-08-24-0858-16M.COL___257                                                 6
 STAT SP IPHASW D HRMM SECON CODA AMPLIT PERI AZIMU VELO AIN AR TRES W  DIS CAZ7
 BAR2 SZ EP        9 1 43.57                             163   -0.0710 35.7 154 
 BAR2 SZ ES        9 1 57.03                             163    0.0810 35.7 154 
 BAR2 SZ I         9 1 57.87        12.0 0.26            155           35.7 154 
 BRR  HZ EP        9 1 43.89                             156    0.0110 49.4 300 
 BRR  HN ES        9 1 57.59                             156    0.2210 49.4 300 
 BRR  HZ I         9 1 58.84         6.0 0.12            142           49.4 300 
 PAM  SZ EP        9 1 47.33                             143    0.4810 85.7  54 
 PAM  SE ES        9 2  2.72                             143    0.0810 85.7  54 
 PAM  SZ I         9 2  5.21         5.0 0.20            137           85.7  54 
 RUS  HN ES        9 2  6.13                             134   -0.3910  113 166 
 PTB  HZ EP        9 1 50.09                             129    0.0810  131 253 
 PTB  HZ I         9 2 10.66         3.5 0.28            116            131 253 
 OCA  HN ES        9 2 11.40                             125   -0.58 9  150   0 
                                                                                
