 2011  224 0253 38.5 L   6.883 -73.239130.0  RSN  7 0.4 1.9LRSN                1
 GAP=146        0.95       5.1     8.2  8.1 -0.1191E+02  0.1730E+02  0.9152E+01E
 Epicentro: BETULIA - SANTANDER                                                3
 ACTION:UP  11-03-28 15:10 OP:jfem STATUS:               ID:20110224025336 L   I
 2011-02-24-0251-43S.COL___136                                                 6
 STAT SP IPHASW D HRMM SECON CODA AMPLIT PERI AZIMU VELO SNR AR TRES W  DIS CAZ7
 BTL  SZ EP        253 56.47                             178     0.510    5 321 
 BTL  SZ ES        254  9.09                             178    -0.510    5 321 
 BAR2 SZ EP   1    253 56.56                             165     0.1 7   33 169 
 BAR2 SZ I         253 56.94        10.2 0.12                            33 169 
 BAR2 SZ ES   2    254 10.74                             165     0.2 5   33 169 
 RUS  HZ EP   1    254  0.96                             137    -0.6 7  111 171 
 RUS  HN ES   1    254 19.96                             137     0.4 7  111 171 
 GRA  SZ EP   2    254  1.78                             134    -0.2 5  121  23 
 GRA  SZ ES   1    254 20.51                             134     0.3 7  121  23 
 GRA  SZ I         254 22.04        12.8 0.37                           121  23 
 CHI  HZ EP   1    254 15.59                             113    -0.5 6  255 192 
 CHI  HE ES   1    254 45.80                             113     0.4 6  255 192 
 CHI  HZ I         254 51.88         2.8 0.48                           255 192 
 HEL  HN ES   1    254 47.34                             112     0.1 6  265 253 
 HEL  HZ I         254 55.69         7.7 0.34                           265 253 
 RREF HZ EP   2    254 24.16                             108     0.3 3  320 227 
 RREF HZ I         255  8.70         6.1 0.62                           320 227 
                                                                                
