 2011  624 0145 57.5 L   6.782 -73.116146.0  RSN 12 0.3 1.8LRSN                1
 GAP=141        0.63       3.3     5.1  5.5 -0.6697E+01 -0.1872E+01  0.2860E+01E
 Epicentro: LOS SANTOS - SANTANDER                                             3
 ACTION:UP  11-07-14 19:07 OP:ep   STATUS:               ID:20110624014557 L   I
 2011-06-24-0144-46S.COL___140                                                 6
 STAT SP IPHASW D HRMM SECON CODA AMPLIT PERI AZIMU VELO SNR AR TRES W  DIS CAZ7
 BAR2 SZ EP   1    146 17.02                             171    -0.1 7   22 199 
 BAR2 SZ ES   2    146 32.03                             171    -0.4 5   22 199 
 BAR2 SZ I         146 34.95        22.0 0.31                            22 199 
 BTL  SZ EP   1    146 17.58                             171     0.4 7   23 312 
 GIR2 SZ EP   1    146 17.10                             166    -0.2 7   34 345 
 GIR2 SZ ES   2    146 32.10                             166    -0.6 5   34 345 
 BRR  HZ EP   1    146 18.96                             151     0.0 7   75 299 
 BRR  HN ES   1    146 36.12                             151     0.5 7   75 299 
 BRR  HZ I         146 38.30        16.0 0.19                            75 299 
 PAM  SZ EP   1    146 19.94                             151     0.2 7   77  37 
 PAM  SN ES   2    146 36.88                             151    -0.2 5   77  37 
 RUS  HZ EP   2    146 20.88                             145    -0.3 5   98 178 
 RUS  HN ES   2    146 39.76                             145     0.2 5   98 178 
 RUS  HZ I         146 40.97         8.2 0.26                            98 178 
 BRI  SZ EP   1    146 21.70                             141     0.2 7  109  19 
 GRA  SZ EP   1    146 22.82                             137    -0.1 7  127  16 
 GRA  SZ ES   1    146 42.90                             137     0.3 7  127  16 
 GRA  SZ I         146 43.88         4.3 0.23                           127  16 
 OCA  SZ EP   1    146 25.63                             129    -0.4 7  163 352 
 OCA  SZ ES   2    146 47.80                             129    -0.6 5  163 352 
 OCA  SZ I         146 52.26         6.4 0.39                           163 352 
 NOR  SN ES   2    147  1.05                             118    -0.4 4  236 235 
 CHI  HZ EP   1    146 35.20                             117     0.1 6  248 196 
 CHI  HN ES   2    147  4.59                             117     0.1 4  248 196 
 CHI  HZ I         147 10.03         4.1 0.36                           248 196 
 HEL  HN ES   2    147  9.47                             115    -0.2 4  275 256 
 HEL  HZ I         147 17.26         3.4 0.39                           275 256 
                                                                                
