 2015  324 0909 20.2 L   6.819 -73.177148.4  RSN  6 0.5 1.2LRSN                1
 GAP=132        1.12       4.5     6.2 10.1 -0.2563E+01  0.2730E+02 -0.1677E+02E
 Epicentro: ZAPATOCA - SANTANDER                                               3
 ACTION:UPD 15-04-30 16:29 OP:nd   STATUS:               ID:20150324090920 L   I
 OLDACT:REG 15-03-24 12:55 OP:fm   STATUS:               ID:20150324090741     3
 2015-03-24-0907-41M.COL___272                                                 6
 STAT SP IPHASW D HRMM SECON CODA AMPLIT PERI AZIMU VELO AIN AR TRES W  DIS CAZ7
 BAR2 EZ EP        9 9 39.60                             170   -0.5710 25.1 181 
 BAR2 EZ ES   1    9 9 56.46                             170    0.70 7 25.1 181 
 BAR2 EZ I         9 9 57.01         2.6 0.18            171           25.1 181 
 PAM  SZ EP        9 9 43.32                             151    0.5910 78.1  42 
 PAM  SE ES        910  0.12                             151   -0.1910 78.1  42 
 PAM  SZ I         910  2.79         2.4 0.62            155           78.1  42 
 RUS  HZ EP   1    9 9 44.53                             144    0.16 7  103 174 
 RUS  HN ES        910  2.59                             144   -0.6510  103 174 
 RUS  HZ I         910  4.96         1.0 0.28            148            103 174 
 SPBC HE ES        910 11.86                             130    0.66 9  163 218 
 ZAR  HZ EP        9 9 52.13                             123   -0.27 9  200 292 
 ZAR  HN ES        910 17.24                             123   -0.28 9  200 292 
 ZAR  HZ I         910 25.76         2.2 0.64            125            200 292 
 SML  HZ EP        9 9 56.82                             118    0.21 8  240 336 
 SML  HN ES        910 25.09                             118    0.08 8  240 336 
 SML  HZ I         910 27.61         2.4 0.26            120            240 336 
                                                                                
