 2016  524 0921 43.1 L   6.790 -73.139148.4  RSN 10 0.4 2.1LRSN                1
 GAP=183        0.92       3.1     4.5  5.6 -0.2102E+00  0.4331E+01  0.2319E+01E
 Epicentro: LOS SANTOS - SANTANDER                                             3
 ACTION:UPD 16-08-18 17:49 OP:cam  STATUS:               ID:20160524091743 L   I
 OLDACT:UP  16-05-24 18:37 OP:mh   STATUS:               ID:20160524091743 L   3
 OLDACT:UPD 16-05-24 15:34 OP:dnl  STATUS:               ID:20160524091743 L   3
 2016-05-24-0917-43M.COL___289                                                 6
 STAT SP IPHASW D HRMM SECON CODA AMPLIT PERI AZIMU VELO AIN AR TRES W  DIS CAZ7
 BAR2 EZ EP        922  3.13                             171    0.1010 22.4 192 
 BAR2 EZ ES        922 18.05                             171   -0.5310 22.4 192 
 BAR2 EZ I         922 19.52        31.1 0.16            170           22.4 192 
 BRR  HZ EP        922  4.78                             153    0.1810 72.3 299 
 BRR  HE ES        922 22.10                             153    0.7310 72.3 299 
 BRR  HZ I         922 24.55        13.2 0.32            149           72.3 299 
 RUS  HZ EP        922  7.12                             145    0.0910 99.5 176 
 RUS  HN ES        922 25.65                             145   -0.0510 99.5 176 
 RUS  HZ I         922 26.85        17.2 0.34            147           99.5 176 
 PTB  HZ EP        922 10.02                             132   -0.31 9  148 259 
 PTB  HN ES        922 31.71                             132    0.14 9  148 259 
 PTB  HZ I         922 37.73         9.0 0.70            131            148 259 
 OCA  HZ EP   1    922 11.58                             130   -0.14 7  161 353 
 OCA  HN ES        922 34.14                             130    0.09 9  161 353 
 OCA  HZ I         922 39.55        17.2 0.38            130            161 353 
 SPBC HZ EP        922 11.99                             130    0.22 9  163 219 
 SPBC HN ES        922 33.78                             130   -0.35 9  163 219 
 SPBC HZ I         922 36.52        29.1 0.24            130            163 219 
 ZAR  HN ES        922 40.84                             123   -0.51 9  205 292 
 ZAR  HZ I         922 47.02         8.3 0.08            122            205 292 
 NOR  HZ EP        922 18.64                             119   -0.34 8  235 235 
 NOR  HN ES        922 46.88                             119   -0.09 8  235 235 
 NOR  HZ I         922 50.24         8.0 0.16            119            235 235 
 PRA  HZ EP        922 36.50                             107   -0.14 6  391 210 
 PRA  HN ES        923 19.64                             107    1.23 6  391 210 
 PRA  HZ I         923 24.95         3.8 0.34            108            391 210 
 SJC  HZ EP   4    922 37.07                             106   -1.83 0  410 327 
 SJC  HN ES   4    923 17.39                             106   -5.03 0  410 327 
 SJC  HZ I         923 22.87         2.3 0.40            107            410 327 
                                                                                
