 2016  824 0730 20.1 L   6.837 -73.128149.1  RSN 11 0.4 1.7LRSN                1
 GAP=137        0.86       3.2     3.4  4.8 -0.1308E+01  0.5124E+01  0.1186E+01E
 Epicentro: LOS SANTOS - SANTANDER                                             3
 ACTION:UPD 16-10-29 15:38 OP:rebc STATUS:               ID:20160824073020 L   I
 OLDACT:UP  16-08-24 13:40 OP:drio STATUS:               ID:20160824072735     3
 OLDACT:REG 16-08-24 12:35 OP:ak   STATUS:               ID:20160824072735     3
 2016-08-24-0728-00M.COL___365                                                 6
 STAT SP IPHASW D HRMM SECON CODA AMPLIT PERI AZIMU VELO AIN AR TRES W  DIS CAZ7
 BAR2 EZ EP        730 40.48                             169    0.2110 27.7 192 
 BAR2 HE ES        730 55.84                             169   -0.1310 27.7 192 
 BAR2 EZ I         730 56.67        10.2 0.22                          27.7 192 
 BRR  HZ EP        730 42.12                             153    0.4710 71.1 295 
 BRR  HN ES        730 59.00                             153    0.5810 71.1 295 
 BRR  HZ I         731  3.25         7.0 0.34                          71.1 295 
 PAM  EZ EP        730 42.76                             153    0.2910 73.0  40 
 PAM  EE ES        730 59.39                             153   -0.4910 73.0  40 
 PAM  EZ I         731  2.58         7.7 0.52                          73.0  40 
 RUS  HZ EP        730 44.63                             143    0.1210  105 177 
 RUS  HE ES        731  3.42                             143   -0.0910  105 177 
 RUS  HZ I         731  4.29         5.8 0.30                           105 177 
 PTB  HZ EP        730 47.11                             132   -0.52 9  150 257 
 PTB  HE ES        731  8.89                             132   -0.18 9  150 257 
 PTB  HZ I         731 10.79         4.8 0.72                           150 257 
 SPBC HZ EP        730 49.46                             129    0.15 9  168 219 
 SPBC HN ES        731 11.65                             129   -0.42 9  168 219 
 SPBC HZ I         731 18.33         7.9 0.26                           168 219 
 ZAR  HZ EP        730 52.88                             123    0.04 9  204 291 
 ZAR  HE ES        731 18.45                             123    0.11 9  204 291 
 ZAR  HZ I         731 28.82         3.2 0.24                           204 291 
 HEL  HZ EP   4    731  3.50                             115    2.65 0  275 255 
 HEL  HE ES        731 32.26                             115   -0.34 8  275 255 
 HEL  HZ I         731 41.32         3.0 0.40                           275 255 
 GUY2CHZ EP   4    731  6.34                             113    1.99 0  305 234 
 GUY2CHN ES        731 38.79                             113   -0.04 7  305 234 
 GUY2CHZ I         731 45.65         2.1 0.60                           305 234 
 PRA  HZ EP        731 14.48                             107    0.17 6  397 210 
 PRA  HN ES        731 57.12                             107    0.57 6  397 210 
 PRA  HZ I         732  2.61         2.1 0.62                           397 210 
 SJC  HZ EP        731 14.63                             106   -0.91 6  407 326 
 SJC  HN ES   4    731 54.27                             106   -4.48 0  407 326 
                                                                                
