 2011  424 0414  3.6 L   6.772 -73.146145.8  RSN  9 0.5 1.9LRSN                1
 GAP=138        1.29       5.6     9.3 11.3 -0.1855E+02  0.2142E+02  0.2929E+01E
 Epicentro: LOS SANTOS - SANTANDER                                             3
 ACTION:UP  11-06-22 15:32 OP:REBC STATUS:               ID:20110424041403 L   I
 2011-04-24-0412-03S.COL___139                                                 6
 STAT SP IPHASW D HRMM SECON CODA AMPLIT PERI AZIMU VELO SNR AR TRES W  DIS CAZ7
 BAR2 SZ EP        414 23.21                             172     0.010   20 191 
 BAR2 SZ I         414 39.77        41.8 0.26                            20 191 
 BRR  HZ IP     C  414 25.04                             152     0.210   73 301 
 BRR  HZ I         414 25.32        45.4 0.15                            73 301 
 BRR  HN ES   1    414 42.37                             152     1.0 7   73 301 
 PAM  SZ EP   2    414 26.30                             150     0.3 5   80  38 
 PAM  SN ES   1    414 42.94                             150    -0.5 7   80  38 
 PAM  SZ I         414 45.91         2.5 0.52                            80  38 
 RUS  HZ EP        414 27.24                             145     0.110   97 176 
 RUS  HN ES   1    414 45.30                             145    -0.2 7   97 176 
 RUS  HZ I         414 47.04        12.2 0.22                            97 176 
 BRI  SZ EP   3    414 28.15                             141     0.4 2  111  20 
 GRA  SZ EP        414 29.88                             136     0.810  129  17 
 GRA  SZ ES   1    414 48.53                             136    -0.5 7  129  17 
 GRA  SZ I         414 51.12         7.9 0.47                           129  17 
 OCA  SZ EP        414 31.88                             129    -0.3 9  163 353 
 OCA  SZ ES   1    414 53.81                             129    -0.7 7  163 353 
 OCA  SZ I         414 57.38         9.2 0.20                           163 353 
 NOR  SZ EP        414 38.76                             119    -0.4 8  233 235 
 NOR  SN ES   1    415  6.34                             119    -0.5 6  233 235 
 HEL  HZ EP   4    414 45.23                             115     1.5 0  271 256 
 HEL  HZ I         415 22.03         3.4 0.41                           271 256 
 GUY  SN ES   4    415 22.24                             112     0.9 0  302 236 
                                                                                
