 2011 1224 0714 20.2 L   6.743 -73.157141.2  RSN  8 0.4 1.9LRSN                1
 GAP=181        0.68       3.8     4.9  5.1  0.2111E+01  0.6183E+01 -0.1509E+01E
 Epicentro: VILLANUEVA - SANTANDER                                             3
 ACTION:UPD 12-07-13 16:18 OP:ep   STATUS:               ID:20111224071420 L   I
 2011-12-24-0710-00M.COL___189                                                 6
 STAT SP IPHASW D HRMM SECON CODA AMPLIT PERI AZIMU VELO AIN AR TRES W  DIS CAZ7
 BAR2 SZ EP   1    714 39.06                             173   -0.15 7 16.9 189 
 BAR2 SZ ES        714 54.06                             173    0.0610 16.9 189 
 BAR2 SZ I         714 55.12        14.6 0.24                          16.9 189 
 BRR  HZ EP        714 41.22                             151    0.2010 73.3 303 
 BRR  HN ES        714 57.58                             151    0.3510 73.3 303 
 BRR  HZ I         714 59.24        17.8 0.11                          73.3 303 
 RUS  HZ EP   1    714 43.54                             145    0.44 7 94.4 175 
 RUS  HE ES   1    715  0.40                             145   -0.53 7 94.4 175 
 PTB  HZ EP        714 46.27                             132   -0.35 9  145 261 
 PTB  HN ES   2    715  6.60                             132   -0.60 5  145 261 
 OCA  SZ EP   1    714 48.81                             127    0.02 7  166 354 
 OCA  SZ ES   2    715 10.72                             127   -0.33 5  166 354 
 ZAR  HZ EP   2    714 51.80                             121   -0.72 4  205 294 
 ZAR  HE ES   2    715 17.54                             121   -0.17 4  205 294 
 ZAR  HZ I         715 23.38         6.7 0.40                           205 294 
 NOR  SN ES   1    715 22.73                             118    0.25 6  230 236 
 HEL  HZ EP   2    715  0.51                             114    0.59 4  269 257 
 HEL  HZ I         715 38.35         3.8 0.13                           269 257 
                                                                                
