 2010 1024 0513 28.0 L   6.839 -73.035142.6  RSN  5 0.4 1.5LRSN                1
 GAP=251        0.79       7.7    14.5  8.5  0.7069E+02 -0.2577E+01  0.5954E+01E
 Epicentro: CEPITA - SANTANDER                                                 3
 ACTION:UP  11-02-18 11:11 OP:tino STATUS:               ID:20101024051328 L   I
 2010-10-24-0510-11S.COL___125                                                 6
 STAT SP IPHASW D HRMM SECON CODA AMPLIT PERI AZIMU VELO SNR AR TRES W  DIS CAZ7
 BAR2 SZ EP   1    513 47.56                             167     0.1 7   32 211 
 BAR2 SZ ES   2    514  2.18                             167    -0.5 5   32 211 
 BAR2 SZ I         514  3.90         4.6 0.09                            32 211 
 BRR  HZ IP     D  513 49.36                             149    -0.110   81 292 
 BRR  HN ES   1    514  6.10                             149     0.0 7   81 292 
 BRR  HZ I         514  9.23         5.4 0.34                            81 292 
 RUS  HZ EP   1    513 51.81                             142     0.0 7  105 183 
 RUS  HN ES   1    514 10.83                             142     0.5 7  105 183 
 RUS  HZ I         514 11.38         3.6 0.19                           105 183 
 CHI  HZ EP   1    514  5.89                             116    -0.5 6  256 198 
 CHI  HE ES   2    514 35.67                             116    -0.7 4  256 198 
 CHI  HZ I         514 39.40         2.3 0.75                           256 198 
 HEL  HZ EP   2    514 10.51                             113     1.0 4  285 256 
 HEL  HZ I         514 45.69         2.1 0.33                           285 256 
                                                                                
