 2016 1024 0240 53.9 L   6.782 -73.174143.9  RSN  6 0.3 1.3LRSN                1
 GAP=134        0.81       3.8     4.0  5.5 -0.3728E+01  0.2998E+01  0.2245E+01E
 Epicentro: LOS SANTOS - SANTANDER                                             3
 ACTION:UPD 16-11-09 19:22 OP:rebc STATUS:               ID:20161024024053 L   I
 OLDACT:DUP 16-10-24 16:15 OP:cara STATUS:               ID:20161024023750d    3
 OLDACT:REG 16-10-24 13:34 OP:cara STATUS:               ID:20161024023749     3
 2016-10-24-0238-00M.COL___356                                                 6
 STAT SP IPHASW D HRMM SECON CODA AMPLIT PERI AZIMU VELO AIN AR TRES W  DIS CAZ7
 BAR2 EZ EP        241 13.21                             171   -0.0410 21.0 182 
 BAR2 EZ ES        241 28.07                             171   -0.2810 21.0 182 
 BAR2 EZ I         241 29.32         7.2 0.24            171           21.0 182 
 BRR  HZ EP        241 15.21                             153    0.4710 69.4 301 
 BRR  HN ES        241 31.46                             153    0.4610 69.4 301 
 BRR  HZ I         241 33.10         6.2 0.14            153           69.4 301 
 PAM  EZ EP        241 16.10                             149   -0.0310 81.0  40 
 PAM  EE ES        241 33.30                             149   -0.1710 81.0  40 
 PAM  EZ I         241 34.93         2.3 0.58            152           81.0  40 
 RUS  HZ EP        241 17.21                             144   -0.1310 98.8 174 
 RUS  HN ES        241 35.74                             144    0.1210 98.8 174 
 RUS  HZ I         241 36.82         1.5 0.32            145           98.8 174 
 PTB  HZ EP        241 20.00                             132   -0.39 9  144 259 
 PTB  HN ES        241 40.53                             132   -0.53 9  144 259 
 PTB  HZ I         241 42.16         2.9 0.16            133            144 259 
 SPBC HZ EP        241 22.11                             129    0.20 9  160 219 
 SPBC HN ES        241 44.04                             129    0.28 9  160 219 
 SPBC HZ I         241 47.44         3.5 0.20            130            160 219 
                                                                                
