 2016  724 0435  1.7 L   6.812 -73.111144.3  RSN 18 0.5 2.4LRSN                1
 GAP=121        1.17       3.8     4.6  5.6 -0.3475E+00  0.8153E+01  0.6843E+01E
 Epicentro: LOS SANTOS - SANTANDER                                             3
 ACTION:UPD 17-03-29 16:54 OP:lp   STATUS:               ID:20160724043501 L   I
 OLDACT:UP  16-07-24 16:53 OP:ar   STATUS:               ID:20160724042759     3
 OLDACT:REG 16-07-24 13:54 OP:ar   STATUS:               ID:20160724042759     3
 2016-07-24-0427-59S.COL___337                                                 6
 STAT SP IPHASW D HRMM SECON CODA AMPLIT PERI AZIMU VELO AIN AR TRES W  DIS CAZ7
 BAR2 EZ IP     C  435 21.00                             170   -0.2410 25.6 198 
 BAR2 EZ ES        435 36.38                             170   -0.0710 25.6 198 
 PAM  EZ EP        435 23.95                             151    0.3610 73.9  38 
 PAM  EN ES        435 40.92                             151    0.2810 73.9  38 
 PAM  EZ I         435 42.90        31.4 0.52            158           73.9  38 
 BRR  HZ IP     C  435 22.75                             151   -0.1410 74.0 296 
 BRR  HN ES        435 39.63                             151    0.2510 74.0 296 
 BRR  HZ I         435 44.13        31.9 0.14            150           74.0 296 
 RUS  HZ EP        435 25.06                             143   -0.3710  102 178 
 RUS  HN ES        435 43.99                             143    0.0810  102 178 
 RUS  HZ I         435 45.36        26.8 0.32            144            102 178 
 SPBC HZ EP        435 29.95                             128   -0.50 9  167 220 
 SPBC HN ES        435 52.64                             128   -0.22 9  167 220 
 SPBC HZ I         435 58.08        28.0 0.20            128            167 220 
 ZAR  HZ EP        435 34.56                             121    0.16 8  207 291 
 ZAR  HN ES        435 59.13                             121   -0.75 8  207 291 
 ZAR  HZ I         436  4.23        28.5 0.34            123            207 291 
 NOR  HZ EP        435 37.14                             118   -0.66 8  239 235 
 NOR  HN ES        436  5.24                             118   -0.69 8  239 235 
 NOR  HZ I         436  9.75        19.4 0.30            119            239 235 
 CHI  HZ EP        435 39.63                             116    0.02 8  251 196 
 CHI  HN ES        436  9.06                             116   -0.09 8  251 196 
 CHI  HZ I         436 12.02        13.5 0.28            118            251 196 
 ROSC BZ EP        435 40.91                             116    0.79 8  256 212 
 ROSC BN ES   4    436 13.47                             116    3.41 0  256 212 
 ROSC BZ I         436 15.85        18.2 0.40            117            256 212 
 HEL  HZ EP        435 43.19                             114    0.87 7  276 256 
 HEL  HN ES   4    436 12.69                             114   -1.29 0  276 256 
 HEL  HZ I         436 19.78        15.0 0.26            115            276 256 
 GUY2CHZ EP        435 46.71                             112    0.99 7  305 235 
 GUY2CHN ES   4    436 22.32                             112    2.29 0  305 235 
 GUY2CHZ I         436 26.85        12.0 0.58                           305 235 
 VIL  EZ EP        435 45.13                             111   -0.20 7  305 192 
 VIL  EN ES        436 19.87                             111    0.54 7  305 192 
 VIL  EZ I         436 24.73        14.6 0.40            113            305 192 
 PTGC HZ EP        435 44.41                             111   -1.10 7  309 159 
 PTGC HN ES   4    436 17.93                             111   -1.73 0  309 159 
 PTGC HZ I         436 19.30        11.2 0.22            114            309 159 
 LL6C HZ EP   4    435 45.18                             110   -2.06 0  324 357 
 LL6C HN ES   4    436 20.90                             110   -1.83 0  324 357 
 ELA  HZ EP   4    435 50.76                             110    1.80 0  333 230 
 ELA  HN ES   4    436 30.28                             110    4.49 0  333 230 
 ELA  HZ I         436 31.38         6.0 0.70            111            333 230 
 CBOC HZ EP        435 49.60                             109    0.54 7  338 252 
 CBOC HN ES   4    436 25.24                             109   -0.73 0  338 252 
 CBOC HZ I         436 27.98         3.6 0.20            111            338 252 
 ANIL HZ EP        435 51.91                             108    0.00 6  361 225 
 ANIL HN ES        436 32.55                             108    1.51 6  361 225 
 ANIL HZ I         436 37.55        20.1 0.28            109            361 225 
 PRA  HZ EP        435 55.90                             106    0.33 6  395 210 
 PRA  HN ES   4    436 36.49                             106   -1.06 0  395 210 
 PRA  HZ I         436 43.36        10.9 0.32            108            395 210 
 PAL  HZ EP        435 56.70                             105   -0.61 6  410 239 
 PAL  HN ES        436 40.38                             105   -0.29 6  410 239 
 PAL  HZ I         436 45.01         5.0 0.50            107            410 239 
                                                                                
