 2016  724 0446 43.0 L   6.764 -73.091146.4  RSN 17 0.4 2.1LRSN                1
 GAP= 95        0.94       3.4     3.6  4.7 -0.3234E+01  0.3800E+01  0.3382E+01E
 Epicentro: LOS SANTOS - SANTANDER                                             3
 ACTION:UPD 17-03-29 16:54 OP:lp   STATUS:               ID:20160724044643 L   I
 OLDACT:UP  16-07-24 17:07 OP:ar   STATUS:               ID:20160724043759     3
 OLDACT:UP  16-07-24 17:06 OP:ar   STATUS:               ID:20160724043759     3
 OLDACT:UP  16-07-24 17:06 OP:ar   STATUS:               ID:20160724043759     3
 OLDACT:REG 16-07-24 13:54 OP:ar   STATUS:               ID:20160724043759     3
 2016-07-24-0437-59S.COL___337                                                 6
 STAT SP IPHASW D HRMM SECON CODA AMPLIT PERI AZIMU VELO AIN AR TRES W  DIS CAZ7
 BAR2 EZ IP     C  447  2.57                             171   -0.1410 21.5 208 
 BAR2 EZ ES        447 18.34                             171    0.2910 21.5 208 
 PAM  EZ EP        447  5.42                             151    0.1310 76.9  34 
 PAM  EN ES        447 22.58                             151   -0.0710 76.9  34 
 PAM  EZ I         447 24.54        37.0 0.54            157           76.9  34 
 BRR  HZ EP        447  4.55                             150   -0.1210 78.4 299 
 BRR  HN ES        447 21.78                             150    0.2310 78.4 299 
 BRR  HZ I         447 26.76        15.8 0.14            147           78.4 299 
 RUS  HZ EP        447  6.50                             145   -0.0510 96.4 179 
 RUS  HN ES        447 24.56                             145   -0.3410 96.4 179 
 RUS  HZ I         447 25.76         8.2 0.54            145           96.4 179 
 TAM  HZ EP     C  447 10.76                             132    0.62 9  148 104 
 SPBC HZ EP        447 11.54                             129   -0.13 9  164 221 
 SPBC HN ES        447 33.90                             129   -0.10 9  164 221 
 SPBC HZ I         447 39.53        15.5 0.10            128            164 221 
 ZAR  HZ EP        447 15.32                             122   -0.93 8  211 293 
 ZAR  HN ES   4    447 41.06                             122   -1.10 0  211 293 
 ZAR  HZ I         447 46.64        20.3 0.36            121            211 293 
 NOR  HZ EP        447 18.59                             118   -0.50 8  237 236 
 NOR  HN ES        447 46.85                             118   -0.36 8  237 236 
 NOR  HZ I         447 55.13         8.6 0.24            118            237 236 
 CHI  HZ EP   4    447 22.15                             117    1.61 0  246 197 
 CHI  HN ES        447 49.92                             117    0.13 8  246 197 
 CHI  HZ I         447 58.20         4.1 0.35            118            246 197 
 HEL  HZ EP        447 24.27                             114    0.44 7  277 257 
 HEL  HN ES   4    447 57.97                             114    2.33 0  277 257 
 HEL  HZ I         448  2.62         4.1 0.26            114            277 257 
 URE  HZ EP   4    447 23.06                             113   -1.87 0  291 292 
 URE  HN ES   4    447 54.93                             113   -2.67 0  291 292 
 URE  HZ I         448  6.53        10.0 0.22            113            291 292 
 PTGC HZ EP        447 25.55                             112   -0.71 7  303 159 
 PTGC HN ES   4    447 58.58                             112   -1.39 0  303 159 
 PTGC HZ I         448  6.02         8.5 0.34            114            303 159 
 GUY2CHZ EP        447 27.80                             112    0.82 7  304 236 
 GUY2CHN ES   4    448  5.07                             112    3.82 0  304 236 
 GUY2CHZ I         448 11.33         5.5 0.52                           304 236 
 ELA  HN ES        448  7.10                             110    0.20 7  331 231 
 ELA  HZ I         448 15.12         6.5 0.46            110            331 231 
 CBOC HZ EP        447 30.52                             110    0.02 7  338 253 
 CBOC HN ES        448  8.01                             110    0.49 7  338 253 
 CBOC HZ I         448 19.26         1.4 0.10            110            338 253 
 PRA  HZ EP        447 37.46                             107    0.93 6  392 211 
 PRA  HN ES        448 18.06                             107   -0.20 6  392 211 
 PRA  HZ I         448 21.97         5.9 0.62            107            392 211 
 SJC  HZ EP   4    447 36.87                             105   -2.52 0  416 327 
 SJC  HN ES   4    448 17.45                             105   -5.90 0  416 327 
 SJC  HZ I         448 22.21         3.1 0.54            106            416 327 
                                                                                
