 2014 1124 0347 59.0 L   6.782 -73.131145.6  RSN 15 0.4 2.1LRSN                1
 GAP= 72        0.98       3.4     2.8  5.3 -0.5672E+00  0.3082E+01  0.3581E+01E
 Epicentro: LOS SANTOS - SANTANDER                                             3
 ACTION:UPD 14-12-19 15:46 OP:nd   STATUS:               ID:20141124034759 L   I
 OLDACT:UP  14-11-24 18:46 OP:mh   STATUS:               ID:20141124033741     3
 OLDACT:REG 14-11-24 11:17 OP:mh   STATUS:               ID:20141124033741     3
 2014-11-24-0337-41M.COL___297                                                 6
 STAT SP IPHASW D HRMM SECON CODA AMPLIT PERI AZIMU VELO AIN AR TRES W  DIS CAZ7
 BAR2 SZ EP   1    348 18.75                             171    0.16 7 21.7 195 
 BAR2 SZ ES        348 33.37                             171   -0.4910 21.7 195 
 BAR2 SZ I    1    348 35.16        46.9 0.60            171           21.7 195 
 BRR  HZ EP     C  348 20.67                             152    0.3910 73.5 299 
 BRR  HN ES        348 37.39                             152    0.5310 73.5 299 
 BRR  HZ I         348 42.52        21.0 0.12            152           73.5 299 
 PAM  SZ EP   1    348 21.58                             151    0.33 7 78.0  38 
 PAM  SN ES        348 38.76                             151    0.1710 78.0  38 
 PAM  SZ I         348 41.22        20.1 0.56            153           78.0  38 
 RUS  HZ EP        348 22.77                             144    0.1710 98.5 177 
 RUS  HN ES   1    348 41.26                             144    0.27 7 98.5 177 
 RUS  HZ I         348 41.80        20.1 0.26            147           98.5 177 
 PTB  HZ EP        348 25.69                             132   -0.39 9  149 260 
 PTB  HN ES   1    348 46.22                             132   -0.96 7  149 260 
 PTB  HZ I         348 51.24        11.8 0.42            133            149 260 
 TAM  HZ EP        348 25.94                             131   -0.55 9  153 104 
 TAM  HN ES        348 47.92                             131   -0.00 9  153 104 
 TAM  HZ I         348 49.15        10.3 0.38            134            153 104 
 OCA  HZ EP   1    348 27.03                             129   -0.49 7  162 353 
 OCA  HN ES   4    348 49.39                             129   -0.36 0  162 353 
 OCA  HZ I         348 53.69        18.6 0.14            131            162 353 
 SPBC HZ EP        348 27.28                             129   -0.17 9  163 220 
 SPBC HN ES        348 49.36                             129   -0.27 9  163 220 
 SPBC HZ I         348 51.98        15.1 0.10            131            163 220 
 ZAR  HZ EP        348 31.21                             122   -0.47 8  206 292 
 ZAR  HN ES        348 57.20                             122    0.04 8  206 292 
 NOR  HZ EP        348 35.25                             118    0.50 8  235 235 
 NOR  HN ES        349  2.46                             118   -0.16 8  235 235 
 NOR  HZ I         349  4.24        12.2 0.16            120            235 235 
 CHI  HZ EP        348 36.63                             117    0.09 8  247 196 
 CHI  HN ES        349  6.46                             117    0.65 8  247 196 
 CHI  HZ I         349 13.29         5.2 0.52            119            247 196 
 HEL  HZ EP   1    348 40.41                             115    1.07 6  273 256 
 HEL  HN ES        349 10.53                             115   -0.25 8  273 256 
 HEL  HZ I         349 18.12         6.7 0.13            116            273 256 
 GUY2CHZ EP   4    348 44.63                             112    2.00 0  301 235 
 GUY2CHN ES   1    349 16.99                             112    0.34 5  301 235 
 GUY2CHZ I         349 26.97         5.4 0.50                           301 235 
 MON  HZ EP   9    348 45.13                             108   -3.17 0  356 308 
 MON  HN ES        349 24.33                                    0.76 6  356 308 
 SJG  BZ EP   9    348 29.97                              93   -99.9 0 1464  31 
 SJG  BN ES        348 54.36                                   -99.9 0 1464  31 
                                                                                
