 2017  724 0641  1.3 L   6.831 -73.105145.4  RSN  6 0.4 1.3LRSN                1
 GAP=244        0.76       4.6     5.1  6.1  0.7732E+01  0.1107E+01 -0.5089E+01E
 Epicentro: LOS SANTOS - SANTANDER                                             3
 ACTION:UPD 17-08-30 15:36 OP:rebc STATUS:               ID:20170724064101 L   I
 OLDACT:UP  17-07-24 17:52 OP:and  STATUS:               ID:20170724063737d    3
 OLDACT:UP  17-07-24 17:52 OP:and  STATUS:               ID:20170724063737d    3
 OLDACT:UP  17-07-24 17:51 OP:and  STATUS:               ID:20170724063737d    3
 OLDACT:DUP 17-07-24 17:49 OP:and  STATUS:               ID:20170724063737d    3
 2017-07-24-0638-00M.COL___380                                                 6
 STAT SP IPHASW D HRMM SECON CODA AMPLIT PERI AZIMU VELO AIN AR TRES W  DIS CAZ7
 BAR2 EZ EP        641 21.05                             168    0.1010 27.7 198 
 BAR2 EZ ES        641 36.00                             168   -0.3010 27.7 198 
 BAR2 EZ I         641 37.07         5.0 0.38             47           27.7 198 
 BRR  HZ EP        641 22.78                             151    0.2710 73.7 295 
 BRR  HE ES   2    641 39.99                             151    0.90 5 73.7 295 
 BRR  HZ I         641 42.99         3.2 0.28             47           73.7 295 
 RUS  HZ EP   2    641 24.94                             142   -0.27 5  104 179 
 RUS  HN ES        641 43.68                             142   -0.2110  104 179 
 RUS  HZ I         641 45.26         2.7 0.44             47            104 179 
 PTB  HZ EP   9    641 27.84                             130   -0.82 0  153 258 
 PTB  HN ES        641 48.99                             132   -0.22 9  153 258 
 PTB  HZ I         641 50.68         1.6 0.16             47            153 258 
 SPBC HZ EP        641 30.27                             127    0.01 9  169 219 
 SPBC HN ES        641 53.25                             127    0.38 9  169 219 
 SPBC HZ I         641 56.40         2.4 0.08             47            169 219 
 ZAR  HN ES        641 59.03                             121   -0.48 8  207 291 
 ZAR  HZ I         642  3.39         4.2 0.26             47            207 291 
                                                                                
