 2016  424 0753  1.8 L   6.774 -73.131148.8  RSN  5 0.3 1.4LRSN                1
 GAP=140        0.72       4.1     4.2  5.5 -0.7790E+01  0.6299E+01 -0.1157E+01E
 Epicentro: LOS SANTOS - SANTANDER                                             3
 ACTION:UPD 16-05-05 14:23 OP:rebc STATUS:               ID:20160424075301 L   I
 OLDACT:ARG 16-04-24 12:22 OP:cara STATUS:               ID:20160424074743     3
 2016-04-24-0747-43M.COL___311                                                 6
 STAT SP IPHASW D HRMM SECON CODA AMPLIT PERI AZIMU VELO AIN AR TRES W  DIS CAZ7
 BAR2 EZ EP        753 21.80                             172    0.0110 20.9 196 
 BAR2 EZ ES        753 37.77                             172    0.4210 20.9 196 
 BAR2 EZ I         753 40.20         4.8 0.26            171           20.9 196 
 PAM  EZ EP        753 24.65                             151    0.2010 78.6  37 
 PAM  EN ES        753 41.76                             151   -0.3310 78.6  37 
 PAM  EZ I         753 43.87         6.1 0.48            154           78.6  37 
 RUS  HZ EP        753 25.61                             145   -0.0710 97.6 177 
 RUS  HN ES        753 44.16                             145   -0.1210 97.6 177 
 RUS  HZ I         753 45.14         2.0 0.34            149           97.6 177 
 PTB  HZ EP        753 29.57                             132    0.42 9  149 260 
 PTB  HN ES        753 50.14                             132   -0.31 9  149 260 
 PTB  HZ I         753 56.38         2.0 0.34            133            149 260 
 SPBC HZ EP        753 30.14                             130   -0.32 9  162 220 
 SPBC HN ES        753 52.88                             130    0.09 9  162 220 
 SPBC HZ I         753 55.51         5.2 0.36            132            162 220 
                                                                                
