 2011 1224 0451 54.3 L   6.761 -73.132148.8  RSN 15 0.4 3.0LRSN                1
 GAP=140        0.79       2.5     3.5  3.9 -0.9719E+00  0.4042E+01  0.2189E+01E
 Epicentro: LOS SANTOS - SANTANDER                                             3
 ACTION:UPD 12-07-13 16:18 OP:ep   STATUS:               ID:20111224045154 L   I
 2011-12-24-0450-00M.COL___189                                                 6
 STAT SP IPHASW D HRMM SECON CODA AMPLIT PERI AZIMU VELO AIN AR TRES W  DIS CAZ7
 BAR2 SZ IP        452 14.38                             172    0.1210 19.5 197 
 BAR2 SZ ES        452 29.51                             172   -0.3010 19.5 197 
 BAR2 SZ I         452 30.93       185.7 0.44                          19.5 197 
 GIR2 SZ EP        452 14.48                             166   -0.0210 35.8 349 
 GIR2 SZ ES        452 30.04                             166   -0.1810 35.8 349 
 BRR  HZ IP     D  452 16.31                             152    0.3010 74.6 301 
 BRR  HZ I         452 16.53       239.3 0.14                          74.6 301 
 BRR  HE ES        452 33.65                             152    0.7410 74.6 301 
 PAM  SZ EP        452 17.30                             150    0.2810 79.8  37 
 PAM  SE ES   1    452 34.20                             150   -0.51 7 79.8  37 
 RUS  HZ EP        452 18.20                             146    0.1210 96.2 177 
 RUS  HN ES        452 36.58                             146   -0.0210 96.2 177 
 RUS  HZ I         452 38.50        94.0 0.43                          96.2 177 
 PTB  HZ EP        452 20.96                             132   -0.66 9  148 261 
 PTB  HE ES   1    452 42.64                             132   -0.26 7  148 261 
 OCA  SZ EP        452 23.55                             129    0.25 9  165 353 
 OCA  SZ ES   1    452 45.85                             129   -0.04 7  165 353 
 OCA  SZ I         452 50.50       131.0 0.49                           165 353 
 ZAR  HZ EP        452 26.99                             123   -0.31 8  207 293 
 ZAR  HE ES   1    452 52.13                             123   -0.87 6  207 293 
 ZAR  HZ I         452 59.96       123.7 0.28                           207 293 
 NOR  SZ EP        452 30.12                             119    0.00 8  233 236 
 NOR  SE ES   1    452 58.20                             119    0.18 6  233 236 
 CHI  HZ EP   1    452 32.12                             118    0.31 6  245 196 
 CHI  HE ES   1    453  1.16                             118    0.13 6  245 196 
 CHI  HZ I         453  7.49        53.6 0.29                           245 196 
 HEL  HZ EP   1    452 35.29                             115    0.53 6  273 257 
 HEL  HE ES   2    453  6.78                             115    0.49 4  273 257 
 HEL  HZ I         453 13.95        51.1 0.35                           273 257 
 RREF HZ EP   1    452 40.07                             111   -0.36 5  320 230 
 RREF HN ES   1    453 17.23                             111    0.85 5  320 230 
 RREF HZ I         453 23.58        57.9 0.47                           320 230 
 TOL  SZ EP   1    452 42.53                             110    0.04 5  342 225 
 PRA  HZ EP   1    452 47.70                             107    0.08 4  389 210 
 PRA  HE ES   1    453 28.87                             107   -0.31 4  389 210 
 SJA  SZ EP   1    452 47.92                             107   -0.63 4  396 193 
 SJA  SZ ES        453 30.57                             107   -0.26 6  396 193 
 SJA  SZ I         453 44.68        63.8 0.44                           396 193 
                                                                                
