 2015 1024 0206 33.5 L   6.799 -73.147141.5  RSN 11 0.5 2.0LRSN                1
 GAP=136        1.16       3.3     4.6  6.2 -0.1462E+01  0.1098E+02  0.1120E+01E
 Epicentro: LOS SANTOS - SANTANDER                                             3
 ACTION:UPD 15-12-22 20:42 OP:cam  STATUS:               ID:20151024020633 L   I
 OLDACT:REG 15-10-24 11:59 OP:drio STATUS:               ID:20151024015749     3
 2015-10-24-0157-49M.COL___313                                                 6
 STAT SP IPHASW D HRMM SECON CODA AMPLIT PERI AZIMU VELO AIN AR TRES W  DIS CAZ7
 BAR2 EZ EP     D  2 6 52.63                             170   -0.0210 23.2 190 
 BAR2 EZ ES        2 7  7.26                             170   -0.3010 23.2 190 
 BAR2 EZ I         2 7 11.04        17.4 0.24            170           23.2 190 
 BRR  HZ EP        2 6 54.55                             152    0.3310 71.1 299 
 BRR  HE ES        2 7 11.21                             152    0.8610 71.1 299 
 BRR  HZ I         2 7 14.82        13.6 0.36            151           71.1 299 
 PAM  EZ EP        2 6 55.40                             150    0.0910 77.6  40 
 PAM  EN ES        2 7 12.02                             150   -0.2810 77.6  40 
 PAM  EZ I         2 7 14.44        19.5 0.58            154           77.6  40 
 RUS  HZ EP        2 6 56.62                             143   -0.2410  100 176 
 RUS  HN ES        2 7 15.57                             143    0.5110  100 176 
 RUS  HZ I         2 7 18.13         9.9 0.38            146            100 176 
 SPBC HZ EP        2 7  1.71                             128    0.02 9  163 219 
 SPBC HE ES        2 7 22.91                             128   -0.74 9  163 219 
 SPBC HZ I         2 7 26.10        23.0 0.46            130            163 219 
 ZAR  HZ EP        2 7  6.46                             121    0.77 9  204 292 
 ZAR  HN ES        2 7 30.30                             121   -0.48 9  204 292 
 ZAR  HZ I         2 7 37.12        12.7 0.46            123            204 292 
 NOR  HZ EP        2 7  8.84                             118   -0.16 8  234 234 
 NOR  HE ES        2 7 36.40                             118   -0.26 8  234 234 
 NOR  HZ I         2 7 40.32         9.5 0.20            120            234 234 
 SML  HZ EP        2 7  9.01                             117   -0.92 8  244 335 
 SML  HE ES        2 7 38.06                             117   -0.25 8  244 335 
 SML  HZ I         2 7 44.20        12.3 0.26            119            244 335 
 CHI  HZ EP        2 7 10.78                             116   -0.20 8  248 195 
 CHI  HN ES        2 7 39.95                             116   -0.24 8  248 195 
 CHI  HZ I         2 7 45.89         3.2 0.32            119            248 195 
 HEL  HZ EP        2 7 14.22                             114    0.71 8  272 256 
 HEL  HN ES        2 7 44.24                             114   -0.45 8  272 256 
 HEL  HZ I         2 7 51.10         5.2 0.32            116            272 256 
 GUY2CHZ EP        2 7 17.85                             111    0.93 7  301 235 
 GUY2CHN ES        2 7 51.03                             111    0.26 7  301 235 
 GUY2CHZ I         2 7 59.72         6.8 0.36                           301 235 
                                                                                
