 2013  624 0355 34.5 L   6.786 -73.179138.1  RSN  7 0.5 1.6LRSN                1
 GAP=179        0.96       4.6     8.6  8.7  0.1349E+02  0.1151E+02 -0.6025E+01E
 Epicentro: LOS SANTOS - SANTANDER                                             3
 ACTION:UPD 14-01-08 09:56 OP:ep   STATUS:               ID:20130624035534 L   I
 OLDACT:DUP 13-06-24 08:49 OP:jn   STATUS:               ID:20130624034960d    3
 2013-06-24-0349-59M.COL___267                                                 6
 STAT SP IPHASW D HRMM SECON CODA AMPLIT PERI AZIMU VELO AIN AR TRES W  DIS CAZ7
 BAR2 SZ ES        356  7.69                             171   -0.0810 21.4 181 
 BAR2 SZ I         356  9.08        10.8 0.32            171           21.4 181 
 BRR  HZ EP        355 54.95                             152    0.2310 68.8 301 
 BRR  HN ES   1    356 11.48                             152    1.02 7 68.8 301 
 BRR  HZ I         356 15.06         7.2 0.24            151           68.8 301 
 RUS  HZ EP   1    355 57.82                             143    0.37 7 99.3 174 
 RUS  HN ES        356 14.97                             143   -0.3510 99.3 174 
 RUS  HZ I         356 16.46         2.8 0.20            146           99.3 174 
 PTB  HN ES   1    356 20.19                             131   -0.61 7  144 259 
 PTB  HZ I         356 23.60         5.9 0.12            132            144 259 
 OCA  HN ES   1    356 23.77                             128   -0.32 7  161 355 
 OCA  HZ I         356 26.06         8.1 0.20            130            161 355 
 SML  HE ES   1    356 38.52                             116   -0.45 6  244 336 
 PRA  HZ EP   1    356 27.61                             105    0.18 4  389 209 
                                                                                
