 2010 1124 0151 44.5 L   7.098 -73.430112.4  RSN  5 0.4 1.7LRSN                1
 GAP=119        0.90       4.4    14.9 13.9  0.1333E+02 -0.1357E+03 -0.7726E+01E
 Epicentro: SAN VICENTE DE CHUCURI - SANTANDER                                 3
 ACTION:UP  10-12-17 16:54 OP:REBC STATUS:               ID:20101124015144 L   I
 2010-11-24-0146-33S.COL___129                                                 6
 STAT SP IPHASW D HRMM SECON CODA AMPLIT PERI AZIMU VELO SNR AR TRES W  DIS CAZ7
 BRR  HZ EP        151 59.92                             164    -0.110   31 272 
 BRR  HN ES   1    152 12.34                             164     0.2 7   31 272 
 BRR  HZ I         152 13.21        26.1 0.08                            31 272 
 BAR2 SZ EP   1    152  1.97                             149     0.1 7   62 154 
 BAR2 SZ I         152 16.44        15.7 0.24                            62 154 
 GUE  SZ EP   1    152  5.42                             136     0.7 7   98  35 
 GUE  SZ I         152  5.74         2.6 0.02                            98  35 
 OCA  SZ EP   1    152  7.01                             128     0.0 7  127   6 
 OCA  SZ ES   1    152 24.05                             128    -0.6 7  127   6 
 OCA  SZ I         152 25.60        17.0 0.11                           127   6 
 RUS  HZ EP   1    152  8.43                             125    -0.2 7  139 164 
 RUS  HN ES   1    152 27.31                             125    -0.2 7  139 164 
                                                                                
