 2012 1024 0158  3.6 L   6.803 -73.128144.3  RSN  7 0.2 1.9LRSN                1
 GAP=139        0.55       3.3     3.4  5.1  0.2396E+01  0.4008E+01  0.5094E+01E
 Epicentro: LOS SANTOS - SANTANDER                                             3
 ACTION:UPD 12-11-22 17:05 OP:ep   STATUS:               ID:20121024015803 L   I
 2012-10-24-0150-00M.COL___234                                                 6
 STAT SP IPHASW D HRMM SECON CODA AMPLIT PERI AZIMU VELO AIN AR TRES W  DIS CAZ7
 BAR2 SZ EP        158 23.10                             170    0.0510 24.1 194 
 GIR2 SZ EP        158 23.04                             167   -0.0410 31.3 347 
 BRR  HZ EP        158 24.86                             152    0.2010 72.7 298 
 BRR  HN ES        158 41.40                             152    0.3010 72.7 298 
 BRR  HZ I         158 42.51        19.6 0.13                          72.7 298 
 PAM  SZ EP   1    158 25.76                             151    0.21 7 75.9  39 
 PAM  SE ES        158 42.51                             151   -0.1810 75.9  39 
 PAM  SZ I         158 44.97        14.2 0.49                          75.9  39 
 RUS  HZ EP        158 27.16                             143   -0.0510  101 177 
 RUS  HZ I         158 28.33         8.7 0.13                           101 177 
 RUS  HN ES   1    158 45.38                             143   -0.26 7  101 177 
 ZAR  HZ EP   1    158 35.82                             122   -0.29 6  206 292 
 ZAR  HN ES   1    159  0.97                             122   -0.50 6  206 292 
 ZAR  HZ I         159  6.45         9.3 0.50                           206 292 
 CHI  HZ EP   2    158 41.78                             117    0.48 4  250 196 
 CHI  HZ I         159 14.70         3.9 0.39                           250 196 
                                                                                
