 2012  924 0132 18.5 L   6.722 -73.172149.4  RSN  5 0.3 1.5LRSN                1
 GAP=177        0.62       5.9     6.6  9.7  0.1803E+02 -0.2477E+02 -0.1737E+02E
 Epicentro: VILLANUEVA - SANTANDER                                             3
 ACTION:UPD 12-10-22 14:20 OP:ep   STATUS:               ID:20120924013218 L   I
 2012-09-24-0130-00M.COL___221                                                 6
 STAT SP IPHASW D HRMM SECON CODA AMPLIT PERI AZIMU VELO AIN AR TRES W  DIS CAZ7
 BAR2 SZ EP   1    132 38.38                             174   -0.06 7 14.4 185 
 BAR2 SZ I         132 54.23         8.8 0.36                          14.4 185 
 GIR2 SZ EP   1    132 38.32                             164   -0.54 7 39.5 357 
 BRR  HZ EP        132 40.34                             152    0.1710 73.3 306 
 BRR  HN ES   1    132 57.33                             152    0.26 7 73.3 306 
 BRR  HZ I         132 58.60         7.3 0.12                          73.3 306 
 RUS  HZ EP   1    132 42.39                             147    0.34 7 92.2 174 
 RUS  HN ES   1    133  0.32                             147   -0.09 7 92.2 174 
 RUS  HZ I         133  1.78         2.4 0.46                          92.2 174 
 PTB  HN ES   1    133  6.12                             134   -0.24 7  143 262 
                                                                                
