 2013 1224 0149  1.2 L   6.700 -73.204157.8  RSN  4 0.4 1.4LRSN                1
 GAP=220        1.03      12.4    14.2 10.2  0.1483E+03  0.4519E+01 -0.3653E+01E
 Epicentro: VILLANUEVA - SANTANDER                                             3
 ACTION:UPD 14-01-13 10:20 OP:ep   STATUS:               ID:20131224014901 L   I
 OLDACT:REG 13-12-24 10:57 OP:mh   STATUS:               ID:20131224014736     3
 2013-12-24-0147-36M.COL___238                                                 6
 STAT SP IPHASW D HRMM SECON CODA AMPLIT PERI AZIMU VELO AIN AR TRES W  DIS CAZ7
 BAR2 SZ EP   1    149 22.34                             176    0.23 7 12.1 168 
 BAR2 SZ ES   1    149 37.48                             176   -0.95 7 12.1 168 
 BRR  HZ EP        149 23.78                             154    0.0810 71.9 309 
 BRR  HN ES        149 41.75                             154    0.5110 71.9 309 
 RUS  HZ EP        149 25.22                             149   -0.2510 90.2 171 
 RUS  HN ES        149 44.74                             149    0.3410 90.2 171 
 RUS  HZ I         149 47.67         2.7 0.49            141           90.2 171 
 ZAR  HN ES        149 59.76                             125   -0.38 9  203 296 
 ZAR  HZ I         150  6.00         3.3 0.06            121            203 296 
                                                                                
