 2012  624 0112 26.9 L   6.793 -73.144146.6  RSN 14 0.5 2.5LRSN                1
 GAP=114        0.98       4.1     4.7  6.4 -0.1029E+01  0.5802E+01  0.5191E+01E
 Epicentro: LOS SANTOS - SANTANDER                                             3
 ACTION:UPD 12-08-06 17:51 OP:ep   STATUS:               ID:20120624011226 L   I
 2012-06-24-0110-00M.COL___199                                                 6
 STAT SP IPHASW D HRMM SECON CODA AMPLIT PERI AZIMU VELO AIN AR TRES W  DIS CAZ7
 BAR2 SZ IP        112 46.57                             171   -0.0610 22.6 191 
 BAR2 SZ I         112 46.73        60.9 0.34                          22.6 191 
 BAR2 SZ ES   1    113  1.85                             171   -0.16 7 22.6 191 
 BRR  HZ IP     D  112 48.50                             152    0.3210 71.7 299 
 BRR  HZ I         112 50.00        73.8 0.12                          71.7 299 
 BRR  HE ES   1    113  6.05                             152    1.28 7 71.7 299 
 PAM  SZ EP        112 49.38                             151    0.1410 77.8  39 
 PAM  SN ES   1    113  6.58                             151   -0.08 7 77.8  39 
 PAM  SZ I         113  8.81        34.8 0.54                          77.8  39 
 RUS  HZ IP     D  112 50.43                             144   -0.2610 99.8 176 
 RUS  HN ES   1    113  8.89                             144   -0.35 7 99.8 176 
 RUS  HZ I         113 11.73        29.8 0.48                          99.8 176 
 PTB  HZ EP        112 53.29                             132   -0.66 9  148 259 
 PTB  HN ES   1    113 13.93                             132   -1.11 7  148 259 
 PTB  HZ I         113 20.08        40.7 0.28                           148 259 
 OCA  HZ EP   1    112 55.36                             130    0.01 7  161 353 
 OCA  HN ES   2    113 16.78                             130   -0.76 5  161 353 
 OCA  HZ I         113 22.57        71.0 0.24                           161 353 
 YOP  SZ EP        112 57.04                             127    0.10 9  178 153 
 YOP  SZ I         112 57.99        15.2 0.48                           178 153 
 ZAR  HZ EP   1    112 59.18                             122   -0.28 6  205 292 
 ZAR  HN ES   2    113 24.63                             122   -0.21 4  205 292 
 ZAR  HZ I         113 31.04        56.4 0.36                           205 292 
 NOR  SZ EP        113  2.73                             119    0.07 8  234 235 
 NOR  SN ES   1    113 31.01                             119    0.47 6  234 235 
 CHI  HZ EP   2    113  4.58                             117    0.00 4  248 195 
 CHI  HN ES   1    113 34.53                             117    0.56 6  248 195 
 CHI  HZ I         113 39.88        15.1 0.28                           248 195 
 HEL  HZ EP   1    113  7.86                             115    0.70 6  272 256 
 HEL  HZ I         113 45.15        24.6 0.30                           272 256 
 TOL  SZ EP   1    113 15.87                             109    0.72 5  343 225 
 ANIL HZ EP   2    113 17.26                             109    0.56 3  357 225 
 PRA  HZ EP   2    113 19.54                             107   -0.85 3  391 210 
                                                                                
