 2012 1124 0530 50.8 L   6.776 -73.189144.0  RSN  8 0.4 1.7LRSN                1
 GAP=132        0.77       4.1     5.5  6.5 -0.3518E+01  0.1271E+02  0.4617E+00E
 Epicentro: LOS SANTOS - SANTANDER                                             3
 ACTION:UPD 12-12-05 15:35 OP:}ep  STATUS:               ID:20121124053050 L   I
 2012-11-24-0530-00M.COL___233                                                 6
 STAT SP IPHASW D HRMM SECON CODA AMPLIT PERI AZIMU VELO AIN AR TRES W  DIS CAZ7
 BAR2 SZ EP   1    531 10.16                             172   -0.05 7 20.3 178 
 BAR2 SZ ES   1    531 25.51                             172    0.20 7 20.3 178 
 BAR2 SZ I         531 27.89        18.6 0.44                          20.3 178 
 GIR2 SZ EP   1    531 10.21                             166   -0.16 7 33.5 359 
 GIR2 SZ ES   1    531 26.07                             166    0.47 7 33.5 359 
 GIR2 SZ I         531 27.02         4.3 0.14                          33.5 359 
 PAM  SZ EP   1    531 12.94                             149   -0.25 7 82.6  41 
 PAM  SN ES   1    531 30.98                             149    0.36 7 82.6  41 
 PAM  SZ I         531 34.34         5.1 0.32                          82.6  41 
 RUS  HZ EP   1    531 14.13                             144   -0.13 7 98.3 173 
 RUS  HN ES   1    531 32.17                             144   -0.36 7 98.3 173 
 RUS  HZ I         531 34.00         5.3 0.26                          98.3 173 
 PTB  HZ EP   1    531 16.91                             133   -0.29 7  143 260 
 PTB  HN ES   1    531 37.52                             133   -0.23 7  143 260 
 PTB  HZ I         531 43.87         8.4 0.40                           143 260 
 OCA  HN ES   1    531 40.76                             129   -0.60 7  162 355 
 ZAR  HZ EP   1    531 23.57                             122    0.74 6  201 293 
 ZAR  HZ I         531 55.24         6.3 0.24                           201 293 
 PRA  HZ EP   1    531 44.73                             106    0.97 4  387 209 
 PRA  HZ I         532 30.46         1.9 0.24                           387 209 
                                                                                
