 2014 1024 0601 18.0 L   6.766 -73.140135.6  RSN  7 0.5 1.4LRSN                1
 GAP=139        1.36       5.3     7.3  9.8 -0.8505E+00  0.2041E+02  0.7426E+01E
 Epicentro: LOS SANTOS - SANTANDER                                             3
 ACTION:UPD 14-11-29 23:56 OP:nd   STATUS:               ID:20141024060118 L   I
 OLDACT:DUP 14-10-27 15:18 OP:stll STATUS:               ID:20141024055821d    3
 2014-10-24-0558-20M.COL___283                                                 6
 STAT SP IPHASW D HRMM SECON CODA AMPLIT PERI AZIMU VELO AIN AR TRES W  DIS CAZ7
 BAR2 SZ EP        6 1 36.62                             171    0.3010 19.8 194 
 BAR2 SZ ES        6 1 50.52                             171   -0.1010 19.8 194 
 BAR2 SZ I         6 1 52.37         6.4 0.64            162           19.8 194 
 BRR  HZ EP        6 1 38.87                             150    0.6810 73.6 301 
 BRR  HN ES        6 1 54.87                             150    0.9210 73.6 301 
 BRR  HZ I         6 1 56.14         3.9 0.46            142           73.6 301 
 PAM  SN ES        6 1 55.89                             148   -0.0210 79.9  37 
 RUS  HZ EP        6 1 40.41                             143   -0.0610 96.8 176 
 RUS  HN ES        6 1 57.61                             143   -0.3910 96.8 176 
 RUS  HZ I         6 1 59.54         3.2 0.38            130           96.8 176 
 PTB  HZ EP        6 1 44.20                             129    0.06 9  148 260 
 PTB  HN ES        6 2  3.75                             129   -0.79 9  148 260 
 PTB  HZ I         6 2  7.18         3.4 0.14            119            148 260 
 SPBC HZ EP        6 1 45.60                             127    0.12 9  161 220 
 SPBC HZ I         6 2 11.72         3.5 0.22            116            161 220 
 OCA  HN ES        6 2  6.72                             126   -0.95 9  164 353 
                                                                                
