 2016 1024 0244 23.0 L   6.718 -73.552112.6  RSN  6 0.4 1.2LRSN                1
 GAP= 79        0.94       3.7     4.5  6.9 -0.3902E+01  0.6677E+01  0.2912E+01E
 Epicentro: EL CARMEN - SANTANDER                                              3
 ACTION:UPD 16-11-09 19:22 OP:rebc STATUS:               ID:20161024024423 L   I
 OLDACT:UP  16-10-24 16:38 OP:cara STATUS:               ID:20161024023751d    3
 OLDACT:DUP 16-10-24 16:20 OP:cara STATUS:               ID:20161024023751d    3
 OLDACT:DUP 16-10-24 16:15 OP:cara STATUS:               ID:20161024023750d    3
 OLDACT:REG 16-10-24 13:34 OP:cara STATUS:               ID:20161024023749     3
 2016-10-24-0238-00M.COL___356                                                 6
 STAT SP IPHASW D HRMM SECON CODA AMPLIT PERI AZIMU VELO AIN AR TRES W  DIS CAZ7
 BAR2 EZ ES        244 52.44                             158    0.3110 43.1 109 
 BAR2 EZ I         244 52.64         8.5 0.18            158           43.1 109 
 BRR  HZ EP        244 39.51                             156    0.3510 46.5 338 
 BRR  HN ES        244 51.89                             156    0.0910 46.5 338 
 BRR  HZ I         244 53.02         3.6 0.16            158           46.5 338 
 PTB  HZ EP        244 42.58                             135   -0.5110  102 259 
 PTB  HN ES   4    244 57.16                             135   -1.63 0  102 259 
 RUS  HZ IP        244 44.25                             134    0.2410  105 150 
 RUS  HN ES        245  0.22                             134   -0.2010  105 150 
 RUS  HZ I         245  1.97         1.8 0.58            135            105 150 
 PAM  HZ EP        244 44.88                             131   -0.1610  117  54 
 PAM  EN ES        245  1.92                             131   -0.3510  117  54 
 PAM  HZ I         245  5.32         2.4 0.36            133            117  54 
 SPBC HZ EP        244 46.51                             127    0.6110  131 206 
 SPBC HN ES        245  3.40                             127   -0.3910  131 206 
 SPBC HZ I         245  9.19         4.3 0.24            128            131 206 
                                                                                
