 2013  624 0519 13.8 L   6.825 -73.144145.3  RSN 10 0.5 2.3LRSN                1
 GAP=183        1.11       3.3     5.9  6.0 -0.2568E+01  0.8673E+01  0.2530E+00E
 Epicentro: LOS SANTOS - SANTANDER                                             3
 ACTION:UPD 14-01-08 09:56 OP:ep   STATUS:               ID:20130624051913 L   I
 OLDACT:REG 13-06-24 07:55 OP:jn   STATUS:               ID:20130624051651     3
 2013-06-24-0516-51M.COL___228                                                 6
 STAT SP IPHASW D HRMM SECON CODA AMPLIT PERI AZIMU VELO AIN AR TRES W  DIS CAZ7
 BAR2 SZ EP        519 33.60                             169    0.1410 26.1 189 
 BAR2 SZ ES        519 48.17                             169   -0.6010 26.1 189 
 BAR2 SZ I         519 49.83        43.1 0.22            167           26.1 189 
 GIR2 SZ ES   1    519 49.05                             168    0.43 7 28.5 349 
 BRR  HZ EP        519 35.55                             153    0.6910 70.0 296 
 BRR  HN ES        519 52.02                             153    0.7610 70.0 296 
 BRR  HZ I         519 56.64        22.8 0.14            149           70.0 296 
 RUS  HZ EP        519 37.64                             143   -0.0910  103 176 
 RUS  HN ES        519 56.37                             143   -0.0110  103 176 
 RUS  HZ I         519 57.36        23.8 0.26            144            103 176 
 PTB  HZ EP        519 40.29                             132   -0.53 9  148 258 
 PTB  HN ES        520  1.27                             132   -0.60 9  148 258 
 OCA  HZ EP        519 41.86                             130    0.02 9  158 353 
 OCA  HE ES        520  3.46                             130   -0.23 9  158 353 
 OCA  HZ I         520  8.41        18.5 0.54            131            158 353 
 NOR  HZ EP        519 49.81                             118    0.10 8  236 234 
 NOR  HE ES        520 17.72                             118    0.01 8  236 234 
 NOR  HZ I         520 23.27        14.5 0.16            118            236 234 
 SML  HZ EP        519 49.84                             118   -0.31 8  241 335 
 SML  HE ES        520 18.13                             118   -0.36 8  241 335 
 RREF HZ EP   1    520  1.57                             111    1.40 5  324 229 
 RREF HN ES   1    520 37.19                             111    0.88 5  324 229 
 RREF HZ I         520 45.84        10.8 0.42            111            324 229 
 PRA  HZ EP        520  7.52                             106   -0.10 6  395 209 
 PRA  HN ES        520 49.01                             106   -0.57 6  395 209 
 PRA  HZ I         520 55.58         7.6 0.26            107            395 209 
                                                                                
