 2017  524 0426 50.7 L   6.811 -73.160143.1  RSN 12 0.5 2.0LRSN                1
 GAP=110        1.15       3.8     3.8  7.2  0.1733E+01  0.6942E+01  0.5122E+01E
 Epicentro: LOS SANTOS - SANTANDER                                             3
 ACTION:UPD 17-06-16 13:38 OP:jn   STATUS:               ID:20170524042650 L   I
 OLDACT:UP  17-05-24 16:25 OP:ar   STATUS:               ID:20170524041739     3
 OLDACT:REG 17-05-24 13:07 OP:ar   STATUS:               ID:20170524041739     3
 2017-05-24-0418-00M.COL___335                                                 6
 STAT SP IPHASW D HRMM SECON CODA AMPLIT PERI AZIMU VELO AIN AR TRES W  DIS CAZ7
 BRR  HZ IP     C  427 11.46                             153    0.0410 69.2 298 
 BRR  HN ES        427 28.34                             153    0.7310 69.2 298 
 BRR  HZ I         427 28.99        16.1 0.12            151           69.2 298 
 PAM  EZ EP        427 12.53                             150   -0.0810 77.5  41 
 PAM  EN ES        427 29.62                             150   -0.1110 77.5  41 
 PAM  EZ I         427 31.21        18.3 0.16            155           77.5  41 
 RUS  HZ EP        427 13.83                             143   -0.4310  102 175 
 RUS  HN ES        427 32.31                             143   -0.3410  102 175 
 RUS  HZ I         427 33.84         9.5 0.30            142            102 175 
 PTB  HZ EP        427 16.34                             132   -0.96 9  146 258 
 PTB  HN ES        427 37.55                             132   -0.52 9  146 258 
 PTB  HZ I         427 39.72        14.9 0.44            130            146 258 
 SPBC HZ EP        427 18.85                             128   -0.11 9  163 218 
 SPBC HN ES        427 40.79                             128   -0.23 9  163 218 
 SPBC HZ I         427 49.75        15.4 0.18            127            163 218 
 YPLC HZ EP        427 20.27                             126   -0.19 9  179 151 
 YPLC HN ES        427 44.58                             126    0.90 9  179 151 
 YPLC HZ I         427 46.94        12.8 0.24            126            179 151 
 ZAR  HZ EP        427 22.85                             122    0.10 9  202 292 
 ZAR  HE ES        427 47.93                             122    0.17 9  202 292 
 ZAR  HZ I         427 53.50        21.3 0.40            122            202 292 
 NOR  HZ EP        427 26.41                             118    0.23 8  234 234 
 NOR  HN ES        427 53.80                             118   -0.08 8  234 234 
 NOR  HZ I         427 59.79         8.2 0.20            117            234 234 
 CHI  HE ES        427 58.06                             116    0.40 8  249 195 
 HEL  HZ EP   4    427 32.31                             114    1.70 0  271 255 
 HEL  HE ES   4    428  5.54                             114    3.78 0  271 255 
 HEL  HZ I         428  8.07         5.6 0.40            114            271 255 
 PTGC HZ EP   9    427 33.08                             111   -1.52 0  310 158 
 PTGC HN ES        428  6.78                             110   -0.56 7  310 158 
 PTGC HZ I         428 15.04         3.5 0.46            111            310 158 
 CBOC HZ EP        427 38.45                             109    1.11 7  332 252 
 CBOC HE ES        428 14.12                             109    0.37 7  332 252 
 CBOC HZ I         428 25.67         2.2 0.34            109            332 252 
                                                                                
