 2017  624 0736 17.0 L   6.837 -73.140137.2  RSN  8 0.5 1.6LRSN                1
 GAP=255        1.23       6.3     6.8  7.3  0.1073E+01  0.9407E+01  0.8616E+01E
 Epicentro: LOS SANTOS - SANTANDER                                             3
 ACTION:UPD 17-09-14 16:54 OP:jn   STATUS:               ID:20170624073617 L   I
 OLDACT:REG 17-06-24 13:48 OP:lv   STATUS:               ID:20170624072736     3
 2017-06-24-0728-00M.COL___374                                                 6
 STAT SP IPHASW D HRMM SECON CODA AMPLIT PERI AZIMU VELO AIN AR TRES W  DIS CAZ7
 BAR2 EZ EP        736 35.37                             168   -0.3310 27.5 190 
 BAR2 EZ ES        736 50.04                             168   -0.2410 27.5 190 
 BAR2 EZ I         736 51.61         6.3 0.28            166           27.5 190 
 BRR  HZ EP        736 37.01                             151   -0.1410 69.9 295 
 BRR  HN ES        736 53.70                             151    0.8310 69.9 295 
 PTB  HZ EP   9    736 42.29                             130   -1.13 0  149 257 
 PTB  HN ES        737  2.42                                   -0.48 9  149 257 
 PTB  HZ I         737  4.70         4.2 0.32            130            149 257 
 SPBC HZ EP        736 44.42                             126   -0.79 9  167 218 
 SPBC HN ES        737  7.29                             126    0.08 9  167 218 
 SPBC HZ I         737  9.12         5.8 0.19            126            167 218 
 ZAR  HZ EP        736 48.31                             120   -0.50 9  203 291 
 ZAR  HE ES        737 13.56                             120   -0.05 9  203 291 
 NOR  HZ EP        736 53.27                             116    0.70 8  238 234 
 NOR  HN ES        737 20.35                             116    0.04 8  238 234 
 NOR  HZ I         737 24.45         4.5 0.24            116            238 234 
 ROSC BZ EP        736 55.90                             114    0.81 8  257 211 
 CBOC HZ EP        737  4.37                             108    0.58 7  336 251 
 CBOC HN ES        737 39.47                             108   -0.82 7  336 251 
 SJC  HZ EP   4    737  9.18                             104   -2.75 0  406 327 
 SJC  HN ES   4    737 50.87                             104   -3.91 0  406 327 
                                                                                
