 2014 1124 0249 11.8 L   6.805 -73.149144.0  RSN 22 0.5 2.8LRSN                1
 GAP= 71        1.14       3.0     3.2  5.3 -0.1107E+01  0.3667E+01  0.3712E+01E
 Epicentro: LOS SANTOS - SANTANDER                                             3
 ACTION:UPD 14-12-19 15:46 OP:nd   STATUS:               ID:20141124024911 L   I
 OLDACT:UP  14-11-24 18:31 OP:mh   STATUS:               ID:20141124024736     3
 OLDACT:UP  14-11-24 18:29 OP:mh   STATUS:               ID:20141124024736     3
 OLDACT:REG 14-11-24 11:12 OP:mh   STATUS:               ID:20141124024736     3
 2014-11-24-0247-36M.COL___297                                                 6
 STAT SP IPHASW D HRMM SECON CODA AMPLIT PERI AZIMU VELO AIN AR TRES W  DIS CAZ7
 BAR2 SZ EP        249 31.34                             170    0.0810 23.8 189 
 BAR2 SZ ES        249 46.44                             170    0.0310 23.8 189 
 BAR2 SZ I         249 47.49       144.9 0.32            169           23.8 189 
 BRR  HZ EP        249 33.18                             153    0.4210 70.6 298 
 BRR  HN ES        249 49.77                             153    0.6910 70.6 298 
 BRR  HZ I         249 53.88       134.9 0.48            148           70.6 298 
 PAM  SZ EP     C  249 34.10                             151    0.2510 77.2  40 
 PAM  SN ES        249 51.30                             151    0.2710 77.2  40 
 PAM  SZ I         249 53.41       104.6 0.54            153           77.2  40 
 RUS  HZ EP     D  249 35.14                             143   -0.3110  101 176 
 RUS  HN ES        249 53.76                             143   -0.1110  101 176 
 RUS  HZ I         249 54.92        67.2 0.36            144            101 176 
 PTB  HZ EP   1    249 37.84                             132   -0.79 7  147 259 
 PTB  HN ES        249 59.08                             132   -0.46 9  147 259 
 PTB  HZ I         250  5.02        60.1 0.34            130            147 259 
 TAM  HZ EP     D  249 39.50                             130    0.08 9  156 105 
 TAM  HN ES        250  0.93                             130   -0.00 9  156 105 
 TAM  HZ I         250  2.41        37.6 0.56            133            156 105 
 OCA  HZ EP   1    249 39.14                             130   -0.81 7  160 353 
 OCA  HN ES        250  1.45                             130   -0.44 9  160 353 
 OCA  HZ I         250 10.99        70.3 0.16            129            160 353 
 SPBC HZ EP        249 40.22                             129    0.01 9  163 219 
 SPBC HN ES        250  2.28                             129   -0.07 9  163 219 
 SPBC HZ I         250  3.54       108.9 0.24            128            163 219 
 ZAR  HZ EP        249 43.90                             122   -0.21 9  204 292 
 ZAR  HN ES        250  8.97                             122   -0.31 9  204 292 
 ZAR  HZ I         250 16.10        51.2 0.34            121            204 292 
 NOR  HZ EP   1    249 47.16                             118   -0.30 6  235 234 
 NOR  HN ES        250 15.19                             118   -0.06 8  235 234 
 NOR  HZ I         250 23.12        50.9 0.20            117            235 234 
 CHI  HZ EP   1    249 49.17                             117   -0.31 6  249 195 
 CHI  HN ES        250 18.39                             117   -0.45 8  249 195 
 CHI  HZ I         250 22.10        25.7 0.38            117            249 195 
 ROSC BZ EP        249 50.88                             116    0.99 8  253 211 
 ROSC BN ES   4    250 21.28                             116    1.71 0  253 211 
 ROSC BZ I         250 27.14        64.1 0.55            116            253 211 
 HEL  HZ EP        249 52.62                             115    0.69 8  272 256 
 HEL  HN ES   4    250 27.00                             115    3.79 0  272 256 
 HEL  HZ I         250 29.70        20.7 0.00            114            272 256 
 URE  HZ EP   4    249 54.94                             113    2.18 0  283 292 
 URE  HN ES   4    250 23.10                             113   -1.58 0  283 292 
 GUY2CHZ EP        249 56.02                             112    0.66 7  301 235 
 GUY2CHN ES   4    250 30.64                             112    1.33 0  301 235 
 GUY2CHZ I         250 37.99        26.6 0.38                           301 235 
 VIL  SZ EP   1    249 54.91                             112   -0.31 5  304 191 
 VIL  SN ES        250 28.33                             112   -0.73 7  304 191 
 VIL  SZ I         250 39.13        45.6 0.44            112            304 191 
 RREF HZ EP   9    249 58.35                             111    0.44 0  322 229 
 RREF HN ES        250 36.13                                    1.84 7  322 229 
 RREF HZ I         250 43.61        43.1 0.36            110            322 229 
 CBOC HZ EP        249 58.58                             110   -0.07 7  333 252 
 CBOC HN ES   1    250 34.51                             110   -0.66 5  333 252 
 CBOC HZ I         250 44.82         7.3 0.48            109            333 252 
 TOL  SZ EP   1    250  0.74                             109    0.71 5  344 225 
 TOL  SN ES        250 37.67                             109    0.04 7  344 225 
 TOL  SZ I         250 42.13        67.7 0.56            109            344 225 
 MON  HZ EP   9    249 58.34                             108   -2.36 0  353 308 
 MON  HN ES   2    250 37.12                                    0.67 3  353 308 
 MON  HZ I         250 52.07        16.3 0.56            108            353 308 
 ORTC HZ EP   1    250  5.38                             106   -0.34 4  396 216 
 ORTC HN ES        250 48.71                             106    0.96 6  396 216 
 ORTC HZ I         250 55.52        25.4 0.28            106            396 216 
 PAL  HZ EP   9    250  6.39                             106   -0.54 0  406 239 
 PAL  HN ES   1    250 47.99                                   -1.37 4  406 239 
 PAL  HZ I         250 50.65         7.8 0.68            105            406 239 
 SJC  HZ EP   4    250  4.77                             106   -2.49 0  409 327 
 SJC  HN ES   4    250 46.12                             106   -4.38 0  409 327 
 SJC  HZ I         250 52.29        11.5 0.28            105            409 327 
                                                                                
