 2017  724 0336 14.1 L   6.782 -73.123141.1  RSN 15 0.5 1.7LRSN                1
 GAP= 70        0.95       3.7     2.9  5.5  0.2862E+00  0.4352E+01  0.3874E+01E
 Epicentro: LOS SANTOS - SANTANDER                                             3
 ACTION:UPD 17-08-30 15:36 OP:rebc STATUS:               ID:20170724033614 L   I
 OLDACT:UP  17-07-24 16:05 OP:and  STATUS:               ID:20170724032748d    3
 OLDACT:UP  17-07-24 16:04 OP:and  STATUS:               ID:20170724032748d    3
 OLDACT:UP  17-07-24 16:04 OP:and  STATUS:               ID:20170724032748d    3
 OLDACT:UP  17-07-24 16:03 OP:and  STATUS:               ID:20170724032748d    3
 OLDACT:UP  17-07-24 15:53 OP:and  STATUS:               ID:20170724032748d    3
 OLDACT:DUP 17-07-24 15:50 OP:and  STATUS:               ID:20170724032748d    3
 2017-07-24-0328-00M.COL___380                                                 6
 STAT SP IPHASW D HRMM SECON CODA AMPLIT PERI AZIMU VELO AIN AR TRES W  DIS CAZ7
 BAR2 EZ EP        336 33.09                             171   -0.0210 21.9 197 
 BAR2 EZ ES        336 47.37                             171   -0.5910 21.9 197 
 BAR2 EZ I         336 49.55        15.1 0.18            166           21.9 197 
 BRR  HZ EP        336 34.90                             151   -0.0110 74.4 299 
 BRR  HN ES        336 51.93                             151    0.7810 74.4 299 
 BRR  HZ I         336 55.17        11.2 0.16            149           74.4 299 
 PAM  EZ EP        336 36.01                             150    0.2110 77.4  37 
 PAM  EN ES        336 52.65                             150   -0.0910 77.4  37 
 PAM  EZ I         336 54.56         8.6 0.16            148           77.4  37 
 RUS  HZ EP        336 37.31                             143    0.1010 98.4 177 
 RUS  HN ES        336 55.57                             143    0.3210 98.4 177 
 RUS  HZ I         336 57.56         5.7 0.30            137           98.4 177 
 PTB  HZ EP        336 40.28                             130   -0.57 9  150 260 
 PTB  HN ES   2    337  0.86                             130   -0.88 5  150 260 
 PTB  HZ I         337  4.61         5.0 0.15            126            150 260 
 TAM  HZ EP   2    336 41.50                             130    0.39 5  152 104 
 TAM  HN ES        337  1.65                             130   -0.55 9  152 104 
 SPBC HZ EP        336 42.33                             128    0.11 9  163 220 
 SPBC HN ES        337  4.66                             128    0.49 9  163 220 
 SPBC HZ I         337  9.12        10.2 0.18            123            163 220 
 YPLC HZ IP     C  336 43.58                             126    0.34 9  174 152 
 YPLC HZ I         337 10.25         3.2 0.24            120            174 152 
 ZAR  HN ES        337 11.75                             121   -0.11 8  207 292 
 ZAR  HZ I         337 17.25         6.8 0.25            117            207 292 
 NOR  HZ IP     C  336 49.54                             117   -0.09 8  236 235 
 NOR  HN ES   2    337 16.91                             117   -0.45 4  236 235 
 NOR  HZ I         337 22.22         4.7 0.20            113            236 235 
 HEL  HZ EP   3    336 55.47                             114    1.20 2  274 256 
 HEL  HN ES        337 25.77                             114    0.15 8  274 256 
 HEL  HZ I         337 32.30         4.3 0.54            110            274 256 
 GUY2CHZ EP   3    336 58.75                             111    1.18 2  302 235 
 GUY2CHN ES   4    337 34.06                             111    2.57 0  302 235 
 GUY2CHZ I         337 39.65         2.8 0.68                           302 235 
 PTGC HZ IP   9 D  336 56.42                             111   -0.98 0  306 159 
 PTGC HN ES        337 29.83                             111   -0.39 7  306 159 
 CBOC HZ EP   2    337  1.98                             109    0.98 3  335 253 
 CBOC HN ES        337 36.67                             109   -0.93 7  335 253 
 CBOC HZ I         337 43.81         0.9 0.24            105            335 253 
 SJC  HZ EP   3    337  7.48                             105   -2.37 1  412 327 
 SJC  HN ES   4    337 49.23                             105   -4.12 0  412 327 
 SJC  HZ I         337 53.10         2.1 0.62            102            412 327 
                                                                                
