 2015  824 0544 17.2 L   6.811 -73.095152.0  RSN 13 0.3 1.8LRSN                1
 GAP=143        0.67       2.1     3.3  4.1 -0.1228E+01  0.4399E+01  0.3740E-01E
 Epicentro: LOS SANTOS - SANTANDER                                             3
 ACTION:UPD 15-09-15 23:04 OP:cam  STATUS:               ID:20150824054417 L   I
 OLDACT:REG 15-08-24 12:40 OP:spq  STATUS:               ID:20150824053740     3
 2015-08-24-0537-40M.COL___340                                                 6
 STAT SP IPHASW D HRMM SECON CODA AMPLIT PERI AZIMU VELO AIN AR TRES W  DIS CAZ7
 BAR2 EZ EP     D  544 37.56                             170   -0.1210 26.0 202 
 BAR2 EZ ES   1    544 53.23                             170   -0.39 7 26.0 202 
 BAR2 EZ I         544 55.24         9.1 0.38            168           26.0 202 
 PAM  EN ES        544 57.93                             153    0.3910 73.0  37 
 PAM  EZ I         544 59.96        11.3 0.54            157           73.0  37 
 BRR  HZ EP        544 39.60                             152    0.2810 75.7 296 
 BRR  HE ES     C  544 56.90                             152    0.3610 75.7 296 
 BRR  HZ I         545  1.02         7.6 0.34            149           75.7 296 
 RUS  HZ EP        544 41.93                             145    0.2510  102 179 
 RUS  HN ES   1    545  0.49                             145   -0.25 7  102 179 
 RUS  HZ I         545  1.17         2.7 0.24            149            102 179 
 OCA  HZ EP        544 45.74                             131   -0.27 9  160 351 
 OCA  HE ES        545  7.96                             131   -0.49 9  160 351 
 OCA  HZ I         545 17.46         9.2 0.34            133            160 351 
 SPBC HZ EP        544 46.55                             130   -0.10 9  168 220 
 SPBC HE ES        545  9.42                             130   -0.16 9  168 220 
 SPBC HZ I         545 16.11         7.2 0.10            131            168 220 
 ZAR  HZ EP        544 50.49                             123   -0.11 8  209 291 
 ZAR  HN ES        545 16.67                             123    0.06 8  209 291 
 ZAR  HZ I         545 21.63         7.4 0.38            124            209 291 
 NOR  HZ EP   1    544 53.37                             119   -0.54 6  240 235 
 NOR  HE ES   1    545 22.50                             119    0.00 6  240 235 
 NOR  HZ I         545 27.26         5.0 0.42            121            240 235 
 SML  HZ EP        544 54.30                             119   -0.08 8  245 334 
 SML  HN ES   1    545 23.61                             119    0.28 6  245 334 
 SML  HZ I         545 27.84         7.6 0.10            120            245 334 
 HEL  HZ EP   4    544 59.73                             116    1.31 0  278 256 
 HEL  HE ES   1    545 30.41                             116   -0.12 6  278 256 
 HEL  HZ I         545 36.56         2.9 0.34            117            278 256 
 GUY2CHZ EP   1    545  2.35                             113    0.61 5  306 235 
 GUY2CHE ES   4    545 38.01                             113    1.56 0  306 235 
 GUY2CHZ I         545 46.30         2.2 0.50                           306 235 
 TOL  SZ EP   4    545  7.79                             110    1.48 0  348 225 
 TOL  SN ES   1    545 45.01                             110    0.43 5  348 225 
 TOL  SZ I         545 48.73         2.6 0.46            112            348 225 
 SJC  HZ EP   4    545 11.83                             107   -1.44 0  411 326 
 SJC  HN ES   4    545 54.25                             107   -2.71 0  411 326 
 SJC  HZ I         545 57.31         1.1 0.32            108            411 326 
                                                                                
