 2016 1124 0559 21.2 L   6.671 -73.140151.3  RSN  4 0.4 1.3LRSN                1
 GAP=175        0.70       8.2     5.5  5.9 -0.8787E+01  0.5378E+00  0.2601E+01E
 Epicentro: VILLANUEVA - SANTANDER                                             3
 ACTION:UPD 17-10-26 21:11 OP:lp   STATUS:               ID:20161124055921 L   I
 OLDACT:UP  16-11-24 15:48 OP:dani STATUS:               ID:20161124055748d    3
 OLDACT:UP  16-11-24 15:47 OP:dani STATUS:               ID:20161124055748d    3
 OLDACT:UP  16-11-24 15:47 OP:dani STATUS:               ID:20161124055748d    3
 OLDACT:DUP 16-11-24 15:45 OP:dani STATUS:               ID:20161124055748d    3
 OLDACT:UP  16-11-24 15:45 OP:dani STATUS:               ID:20161124055747     3
 OLDACT:UP  16-11-24 15:44 OP:dani STATUS:               ID:20161124055747     3
 OLDACT:REG 16-11-24 12:49 OP:dani STATUS:               ID:20161124055747     3
 2016-11-24-0558-00M.COL___349                                                 6
 STAT SP IPHASW D HRMM SECON CODA AMPLIT PERI AZIMU VELO AIN AR TRES W  DIS CAZ7
 BAR2 EZ EP        559 41.38                             176    0.1110 9.86 208 
 BAR2 EZ ES        559 56.98                             176    0.0310 9.86 208 
 BAR2 EZ I         559 58.23         5.1 0.39            169           9.86 208 
 BRR  HZ EP        559 43.52                             151    0.1310 79.5 307 
 BRR  HN ES        6 0  0.98                             151    0.2610 79.5 307 
 BRR  HZ I         6 0  8.17         6.4 0.29            144           79.5 307 
 PAM  EZ EP        559 44.65                             148    0.0010 88.5  33 
 PAM  EN ES   2    6 0  2.08                             148   -0.88 5 88.5  33 
 PAM  EZ I         6 0  4.95         1.3 0.24            147           88.5  33 
 PTB  HZ EP        559 48.34                             134   -0.12 9  146 264 
 PTB  HE ES   2    6 0  8.77                             134   -0.97 5  146 264 
 PTB  HZ I         6 0 13.24         1.8 0.14            132            146 264 
 PTGC HZ EP   4    6 0  4.55                             114    0.80 0  295 158 
 PTGC HE ES   4    6 0 28.67                             114   -8.30 0  295 158 
                                                                                
