 2016 1224 0719 45.5 L   5.867 -73.850111.4  RSN  6 0.3 1.1LRSN                1
 GAP=143        0.89       2.8     4.1  8.9  0.2947E+01  0.1319E+02  0.3225E+01E
 Epicentro: JESUS MARIA - SANTANDER                                            3
 ACTION:UPD 17-01-11 20:18 OP:rebc STATUS:               ID:20161224071945 L   I
 OLDACT:REG 16-12-24 13:31 OP:cog  STATUS:               ID:20161224071744     3
 2016-12-24-0718-00M.COL___387                                                 6
 STAT SP IPHASW D HRMM SECON CODA AMPLIT PERI AZIMU VELO AIN AR TRES W  DIS CAZ7
 RUS  HN ES        720 19.39                             140   -0.3810 85.0  88 
 PTB  HZ EP        720  5.09                             135   -0.2410  100 318 
 PTB  HN ES        720 21.07                             135    0.2510  100 318 
 PTB  HZ I         720 22.58         3.0 0.18            139            100 318 
 BAR2 EZ EP        720  7.00                             132    0.5810  109  43 
 BAR2 EZ ES        720 22.55                             132   -0.2210  109  43 
 BAR2 EZ I         720 24.78         6.3 0.20            138            109  43 
 CHI  HZ EP        720  9.06                             125   -0.30 9  137 175 
 CHI  HN ES        720 28.30                             125    0.31 9  137 175 
 CHI  HZ I         720 32.87         1.0 0.30            128            137 175 
 BRR  HZ EP        720  8.92                             125    0.05 9  138   6 
 BRR  HN ES        720 27.46                             125    0.34 9  138   6 
 ZAR  HE ES        720 40.70                             113   -0.48 8  211 328 
                                                                                
