 2011  624 0238 13.6 L   6.764 -73.116143.8  RSN  9 0.3 1.6LRSN                1
 GAP=142        0.66       4.1     8.0  6.8 -0.1058E+02  0.6589E+01 -0.2995E+01E
 Epicentro: LOS SANTOS - SANTANDER                                             3
 ACTION:UP  11-07-14 19:07 OP:ep   STATUS:               ID:20110624023813 L   I
 2011-06-24-0237-04S.COL___140                                                 6
 STAT SP IPHASW D HRMM SECON CODA AMPLIT PERI AZIMU VELO SNR AR TRES W  DIS CAZ7
 BAR2 SZ EP   1    238 32.85                             171    -0.1 7   20 201 
 BAR2 SZ I         238 33.19         7.7 0.11                            20 201 
 BAR2 SZ ES   2    238 48.46                             171     0.4 5   20 201 
 BTL  SZ EP        238 33.17                             170     0.210   24 316 
 GIR2 SZ EP        238 32.87                             165    -0.310   36 346 
 BRR  HZ EP   1    238 35.07                             151     0.2 7   76 300 
 BRR  HN ES   2    238 51.44                             151     0.1 5   76 300 
 BRR  HZ I         238 56.18        14.4 0.31                            76 300 
 PAM  SZ EP   1    238 35.85                             150     0.2 7   79  36 
 PAM  SE ES   2    238 52.83                             150    -0.1 5   79  36 
 RUS  HZ EP   1    238 37.01                             144     0.1 7   96 178 
 RUS  HN ES   2    238 54.50                             144    -0.5 5   96 178 
 RUS  HZ I         238 56.48         3.5 0.26                            96 178 
 BRI  SZ EP   1    238 38.13                             140     0.6 7  111  18 
 BRI  SZ ES   1    238 55.97                             140    -0.2 7  111  18 
 GRA  SZ EP   2    238 38.66                             136    -0.3 5  129  16 
 GRA  SZ ES   2    238 58.81                             136     0.1 5  129  16 
 GRA  SZ I         238 59.13         5.5 0.29                           129  16 
 OCA  SZ EP        238 41.88                             128    -0.3 9  165 352 
 OCA  SZ I         239  9.75         4.8 0.26                           165 352 
                                                                                
