 2012  724 0510 45.6 L   6.818 -73.183142.4  RSN  6 0.4 1.8LRSN                1
 GAP=131        1.02       6.7     6.6  9.4 -0.3085E+01 -0.1021E+00  0.5293E+01E
 Epicentro: ZAPATOCA - SANTANDER                                               3
 ACTION:UPD 12-08-14 11:45 OP:ep   STATUS:               ID:20120724051045 L   I
 2012-07-24-0510-00M.COL___215                                                 6
 STAT SP IPHASW D HRMM SECON CODA AMPLIT PERI AZIMU VELO AIN AR TRES W  DIS CAZ7
 BAR2 SZ EP        511  4.80                             170    -0.110   25 180 
 BAR2 SZ ES   1    511 19.66                             170    -0.3 7   25 180 
 BAR2 SZ I         511 20.88         7.5 0.58            172             25 180 
 BRR  HZ EP        511  6.54                             153     0.410   67 299 
 BRR  HN ES   1    511 23.02                             153     0.8 7   67 299 
 BRR  HZ I         511 27.16        26.5 0.16            153             67 299 
 PAM  SZ EP        511  7.65                             150     0.110   79  43 
 PAM  SZ I         511  7.90        19.7 0.16            153             79  43 
 PAM  SN ES   2    511 24.25                             150    -0.4 5   79  43 
 RUS  HZ EP        511  9.39                             142     0.110  103 174 
 RUS  HN ES   2    511 27.49                             142    -0.2 5  103 174 
 RUS  HZ I         511 29.35         3.3 0.22            147            103 174 
 PTB  HZ EP        511 11.82                             132    -0.2 9  144 258 
 PTB  HN ES   1    511 32.05                             132    -0.5 7  144 258 
 PTB  HZ I         511 34.93         4.6 0.12            134            144 258 
 OCA  HN ES   2    511 34.18                             129    -1.0 5  158 355 
 OCA  HZ I         511 37.50        14.5 0.34            132            158 355 
