 2014 1024 0538 54.0 L   6.796 -73.166146.8  RSN  5 0.6 1.2LRSN                1
 GAP=235        1.41       8.6     9.5 14.3  0.2054E+02 -0.1846E+02 -0.7224E+01E
 Epicentro: LOS SANTOS - SANTANDER                                             3
 ACTION:UPD 14-11-29 23:56 OP:nd   STATUS:               ID:20141024053854 L   I
 OLDACT:ARG 14-10-27 14:42 OP:cam  STATUS:               ID:20141024053816     3
 2014-10-24-0538-16M.COL___286                                                 6
 STAT SP IPHASW D HRMM SECON CODA AMPLIT PERI AZIMU VELO AIN AR TRES W  DIS CAZ7
 BAR2 SZ EP        539 13.93                             171    0.2010 22.6 184 
 BAR2 SZ I         539 31.12         3.0 0.14            171           22.6 184 
 BRR  HZ EP        539 15.61                             153    0.4510 69.4 300 
 BRR  HN ES        539 31.86                             153    0.2010 69.4 300 
 RUS  HZ EP        539 17.88                             144    0.0610  100 175 
 RUS  HN ES        539 35.80                             144   -0.6110  100 175 
 RUS  HZ I         539 37.75         1.8 0.70            144            100 175 
 PTB  HZ EP        539 20.13                             133   -0.70 9  145 259 
 PTB  HN ES        539 41.16                             133   -0.61 9  145 259 
 PTB  HZ I         539 43.84         3.6 0.20            135            145 259 
 SPBC HE ES        539 45.59                             130    1.03 9  161 218 
                                                                                
