 2012  824 0641 30.4 L   6.774 -73.166143.5  RSN  9 0.4 1.8LRSN                1
 GAP=135        1.01       4.5     4.7  8.1  0.8306E+00  0.8292E+01  0.2058E+01E
 Epicentro: LOS SANTOS - SANTANDER                                             3
 ACTION:UPD 12-09-10 11:58 OP:ep   STATUS:               ID:20120824064130 L   I
 2012-08-24-0640-00M.COL___218                                                 6
 STAT SP IPHASW D HRMM SECON CODA AMPLIT PERI AZIMU VELO AIN AR TRES W  DIS CAZ7
 BAR2 SZ EP   1    641 49.57                             172   -0.12 7 20.2 185 
 BAR2 SZ ES   1    642  4.53                             172   -0.21 7 20.2 185 
 BAR2 SZ I         642  5.98        28.2 0.22                          20.2 185 
 GIR2 SZ EP   1    641 49.69                             166   -0.18 7 33.8 355 
 BRR  HZ EP   1    641 51.43                             152    0.16 7 70.7 301 
 BRR  HN ES        642  8.20                             152    0.6510 70.7 301 
 BRR  HZ I         642 10.13        12.1 0.12                          70.7 301 
 PAM  SZ EP   1    641 52.44                             149   -0.15 7 81.0  39 
 PAM  SE ES        642  9.54                             149   -0.3710 81.0  39 
 PAM  SZ I         642 11.85        14.8 0.58                          81.0  39 
 RUS  HZ EP   1    641 53.45                             144   -0.28 7 97.9 175 
 RUS  HN ES        642 12.44                             144    0.5110 97.9 175 
 RUS  HZ I         642 13.16         3.9 0.28                          97.9 175 
 PTB  HZ EP   1    641 56.77                             132   -0.16 7  145 260 
 PTB  HN ES        642 16.71                             132   -0.91 9  145 260 
 PTB  HZ I         642 19.61         3.6 0.11                           145 260 
 OCA  HN ES   1    642 21.08                             129    0.17 7  163 354 
 ZAR  HN ES        642 28.10                             122    0.40 9  203 293 
 PRA  HZ EP   1    642 24.22                             106    0.81 4  388 209 
 PRA  HZ I         643 10.81         3.2 0.55                           388 209 
                                                                                
