 2013 1224 0151 19.2 L   6.803 -73.154145.8  RSN 13 0.4 2.2LRSN                1
 GAP=135        0.97       2.6     4.4  5.4 -0.1237E+01  0.6972E+01  0.9526E+00E
 Epicentro: LOS SANTOS - SANTANDER                                             3
 ACTION:UPD 14-01-13 10:20 OP:ep   STATUS:               ID:20131224015119 L   I
 OLDACT:REG 13-12-24 07:52 OP:mh   STATUS:               ID:20131224015000     3
 2013-12-24-0150-00M.COL___285                                                 6
 STAT SP IPHASW D HRMM SECON CODA AMPLIT PERI AZIMU VELO AIN AR TRES W  DIS CAZ7
 BAR2 SZ EP   1    151 38.59                             170   -0.26 7 23.6 188 
 BAR2 SZ ES   1    151 53.90                             170   -0.27 7 23.6 188 
 BAR2 SZ I         151 55.96        49.9 0.27            170           23.6 188 
 BRR  HZ EP        151 40.86                             153    0.5510 70.2 299 
 BRR  HN ES        151 56.97                             153    0.2110 70.2 299 
 BRR  HZ I         152  2.27        22.1 0.10            151           70.2 299 
 PAM  SZ EP   1    151 41.80                             151    0.35 7 77.7  40 
 PAM  SE ES        151 58.80                             151    0.0110 77.7  40 
 PAM  SZ I         152  1.67         9.8 0.38            155           77.7  40 
 RUS  HZ EP        151 43.11                             144    0.1110  101 176 
 RUS  HN ES   1    152  0.94                             144   -0.61 7  101 176 
 RUS  HZ I         152  2.74        17.2 0.26            147            101 176 
 PTB  HZ EP        151 45.50                             132   -0.61 9  147 259 
 PTB  HN ES   1    152  6.87                             132   -0.21 7  147 259 
 PTB  HZ I         152 10.32        23.2 0.23            133            147 259 
 OCA  HZ EP   1    151 47.03                             130   -0.45 7  160 353 
 OCA  HN ES        152  9.82                             130    0.29 9  160 353 
 OCA  HZ I         152 14.93        17.4 0.10            132            160 353 
 SPBC HZ EP        151 47.94                             129    0.25 9  163 219 
 SPBC HN ES        152 10.11                             129    0.22 9  163 219 
 SPBC HZ I         152 12.91        18.7 0.15            131            163 219 
 ZAR  HZ EP        151 51.33                             122   -0.23 9  203 292 
 ZAR  HN ES   1    152 16.77                             122   -0.02 6  203 292 
 ZAR  HZ I         152 24.03        26.7 0.25            124            203 292 
 NOR  HZ EP   1    151 54.85                             119   -0.04 6  234 234 
 NOR  HN ES   1    152 22.59                             119   -0.12 6  234 234 
 NOR  HZ I         152 30.30        15.3 0.22            120            234 234 
 SML  HZ EP        151 55.37                             117   -0.39 8  243 335 
 SML  HN ES        152 24.30                             117    0.03 8  243 335 
 SML  HZ I         152 28.71        32.1 0.08            120            243 335 
 CHI  HZ EP        151 56.77                             117   -0.16 8  249 195 
 CHI  HN ES        152 26.29                             117   -0.05 8  249 195 
 CHI  HZ I         152 32.25         8.3 0.24            120            249 195 
 URE  HZ EP        151 59.45                             114   -0.73 7  283 292 
 URE  HN ES   4    152 30.06                             114   -2.06 0  283 292 
 GUY2CHZ EP        152  4.29                             112    1.53 7  301 235 
 GUY2CHN ES   4    152 39.68                             112    2.95 0  301 235 
 SJC  HZ EP   4    152 13.05                             106   -1.63 0  408 327 
 SJC  HN ES   4    152 54.20                             106   -3.75 0  408 327 
                                                                                
