 2013  224 0242 33.8 L   6.788 -73.164146.4  RSN  8 0.5 1.7LRSN                1
 GAP=135        1.21       4.7     5.4  8.1  0.1261E+01  0.8052E+01  0.4797E+01E
 Epicentro: LOS SANTOS - SANTANDER                                             3
 ACTION:UPD 13-03-12 09:35 OP:ep   STATUS:               ID:20130224024233 L   I
 2013-02-24-0240-00M.COL___225                                                 6
 STAT SP IPHASW D HRMM SECON CODA AMPLIT PERI AZIMU VELO AIN AR TRES W  DIS CAZ7
 BAR2 SZ I         243  8.94        11.1 0.28            168           21.7 185 
 BAR2 SZ ES        243  9.23                             171    0.4410 21.7 185 
 BRR  HZ EP        242 55.08                             153    0.1610 70.1 300 
 BRR  HN ES        243 12.07                             153    0.6410 70.1 300 
 BRR  HN I         243 12.29        16.9 0.18            153           70.1 300 
 PAM  SZ EP        242 56.14                             150   -0.0510 79.7  40 
 PAM  SN ES        243 12.91                             150   -0.7710 79.7  40 
 PAM  SN I         243 13.72         7.9 0.42            150           79.7  40 
 RUS  HZ EP        242 57.75                             144    0.2610 99.4 175 
 RUS  HN ES        243 15.87                             144   -0.1310 99.4 175 
 RUS  HN I         243 18.31         5.8 0.82            140           99.4 175 
 PTB  HZ EP        243  0.05                             133   -0.54 9  146 259 
 PTB  HN ES        243 20.65                             133   -0.86 9  146 259 
 PTB  HN I         243 26.21         5.5 0.32            131            146 259 
 OCA  HN ES        243 24.63                             130    0.20 9  161 354 
 ZAR  HN ES        243 31.63                             123    0.28 9  203 293 
 CHI  HZ EP        243 11.78                             117    0.48 8  247 195 
                                                                                
