 2011  624 0037 23.0 L   6.782 -73.105154.3  RSN  9 0.3 1.8LRSN                1
 GAP=160        0.48       2.7     4.9  4.7 -0.3520E+01  0.9579E-01 -0.2001E+01E
 Epicentro: LOS SANTOS - SANTANDER                                             3
 ACTION:UP  11-07-14 19:07 OP:ep   STATUS:               ID:20110624003723 L   I
 2011-06-24-0032-14S.COL___140                                                 6
 STAT SP IPHASW D HRMM SECON CODA AMPLIT PERI AZIMU VELO SNR AR TRES W  DIS CAZ7
 BAR2 SZ EP   1    037 43.53                             171    -0.1 7   23 202 
 BTL  SZ EP   2    037 43.76                             171     0.1 5   23 310 
 BAR2 SZ ES   1    037 59.75                             171     0.0 7   23 202 
 BAR2 SZ I         037 59.79        13.9 0.62                            23 202 
 GIR2 SZ EP   2    037 43.73                             167     0.0 5   34 343 
 BRR  HZ EP   1    037 45.51                             152     0.2 7   76 298 
 BRR  HZ I         037 52.03        18.2 0.39                            76 298 
 BRR  HE ES   1    038  2.77                             152     0.0 7   76 298 
 RUS  HZ EP   2    037 47.09                             146    -0.4 5   98 179 
 RUS  HN ES   1    038  6.66                             146     0.1 7   98 179 
 RUS  HZ I         038  7.89         6.9 0.22                            98 179 
 BRI  SZ EP   2    037 48.50                             143     0.8 5  109  18 
 GRA  SZ EP   1    037 48.83                             139    -0.2 7  126  15 
 GRA  SZ ES   1    038  9.23                             139    -0.2 7  126  15 
 GRA  SZ I         038 13.90         4.5 0.11                           126  15 
 OCA  SZ EP   2    037 52.64                             131     0.4 5  163 352 
 OCA  SZ ES   2    038 14.89                             131    -0.1 5  163 352 
 OCA  SZ I         038 24.45        10.8 0.35                           163 352 
 NOR  SZ EP   2    037 59.22                             120    -0.3 4  237 235 
 NOR  SE ES   2    038 27.90                             120    -0.1 4  237 235 
                                                                                
