 2016 1124 0521 18.8 L   6.749 -73.109146.6  RSN  4 0.2 1.0LRSN                1
 GAP=170        0.42       7.7     3.4  7.0 -0.1753E+02 -0.9590E+01  0.3768E+02E
 Epicentro: LOS SANTOS - SANTANDER                                             3
 ACTION:UPD 17-10-26 21:11 OP:lp   STATUS:               ID:20161124052118 L   I
 OLDACT:UP  16-11-24 15:32 OP:dani STATUS:               ID:20161124051748d    3
 OLDACT:UP  16-11-24 15:31 OP:dani STATUS:               ID:20161124051748d    3
 OLDACT:DUP 16-11-24 15:30 OP:dani STATUS:               ID:20161124051748d    3
 OLDACT:REG 16-11-24 12:45 OP:dani STATUS:               ID:20161124051747     3
 2016-11-24-0518-00M.COL___349                                                 6
 STAT SP IPHASW D HRMM SECON CODA AMPLIT PERI AZIMU VELO AIN AR TRES W  DIS CAZ7
 BAR2 EZ EP        521 38.58                             172    0.0910 19.1 205 
 BAR2 EZ I         521 54.82         4.0 0.48            132           19.1 205 
 BRR  HZ EP        521 40.45                             151    0.0110 77.5 301 
 BRR  HN ES        521 57.38                             151    0.0810 77.5 301 
 BRR  HZ I         522  1.20         1.7 0.20            147           77.5 301 
 PAM  EZ EP   2    521 41.65                             150    0.38 5 79.5  35 
 PAM  EN ES        521 58.61                             150   -0.1510 79.5  35 
 PAM  EZ I         522  0.42         1.6 0.22            141           79.5  35 
 PTB  HZ EP   2    521 45.75                             131   -0.40 5  151 261 
 PTB  HN ES        522  7.41                             131   -0.04 9  151 261 
 PTB  HZ I         522 11.17         1.1 0.23            126            151 261 
                                                                                
