 2013  324 0627  6.0 L   6.799 -73.116147.1  RSN 12 0.5 2.3LRSN                1
 GAP=140        1.15       3.2     4.5  6.2 -0.1748E+01  0.5215E+01  0.6867E+00E
 Epicentro: LOS SANTOS - SANTANDER                                             3
 ACTION:UPD 13-04-09 14:04 OP:ep   STATUS:               ID:20130324062706 L   I
 2013-03-24-0620-00M.COL___245                                                 6
 STAT SP IPHASW D HRMM SECON CODA AMPLIT PERI AZIMU VELO AIN AR TRES W  DIS CAZ7
 BAR2 SZ EP        627 25.72                             170   -0.0610 24.0 198 
 BAR2 SZ ES   1    627 41.02                             170   -0.20 7 24.0 198 
 BAR2 SZ I         627 42.02        33.5 0.38            169           24.0 198 
 GIR2 SZ EP        627 25.80                             167   -0.0310 32.1 345 
 BRR  HZ IP     C  627 27.53                             152    0.1010 74.1 297 
 BRR  HN ES        627 45.15                             152    0.9810 74.1 297 
 BRR  HN I         627 46.86        39.9 0.16            149           74.1 297 
 PAM  SZ EP     D  627 28.64                             152    0.4210 75.4  38 
 PAM  SN ES        627 45.94                             152    0.3810 75.4  38 
 PAM  SN I         627 47.11        45.1 0.44            154           75.4  38 
 RUS  HZ EP        627 29.63                             144   -0.2110  100 178 
 RUS  HN ES        627 48.44                             144   -0.0110  100 178 
 RUS  HN I         627 49.96        39.4 0.42            145            100 178 
 PTB  HZ EP        627 32.32                             132   -1.02 9  151 259 
 PTB  HN ES        627 53.95                             132   -0.74 9  151 259 
 PTB  HN I         627 58.86        35.4 0.32            131            151 259 
 OCA  HZ EP        627 34.32                             130   -0.12 9  161 352 
 OCA  HN ES        627 55.79                             130   -0.84 9  161 352 
 OCA  HN I         627 59.58        75.1 0.32            130            161 352 
 ZAR  HZ EP   1    627 39.55                             122    0.73 6  207 292 
 ZAR  HE ES        628  4.34                             122   -0.11 8  207 292 
 ZAR  HE I         628  9.53        43.9 0.42            122            207 292 
 CHI  HZ EP        627 44.04                             117    0.21 8  249 196 
 CHI  HN ES        628 13.25                             117   -0.11 8  249 196 
 CHI  HN I         628 16.02         9.5 0.52            118            249 196 
 HEL  HZ EP   1    627 47.72                             115    1.11 6  275 256 
 HEL  HN ES        628 18.48                             115    0.18 8  275 256 
 HEL  HN I         628 25.29         7.2 0.30            115            275 256 
 COD  HZ EP        627 54.47                             109    0.02 6  349 354 
 COD  HN ES        628 32.27                             109    0.01 6  349 354 
 COD  HN I         628 35.80         5.5 0.26            110            349 354 
 PRA  HZ EP        627 59.89                             107    0.17 6  394 210 
 PRA  HN ES   1    628 41.99                             107    0.34 4  394 210 
 PRA  HN I         628 47.17         2.8 0.26            107            394 210 
                                                                                
