 2016 1124 0821  1.0 L   6.776 -73.160152.3  RSN  4 0.4 1.2LRSN                1
 GAP=148        0.76       9.1     5.1  6.4 -0.1221E+02 -0.1467E+01 -0.2881E+01E
 Epicentro: LOS SANTOS - SANTANDER                                             3
 ACTION:UPD 17-10-26 21:11 OP:lp   STATUS:               ID:20161124082101 L   I
 OLDACT:UP  16-11-24 16:56 OP:dani STATUS:               ID:20161124081742     3
 OLDACT:UP  16-11-24 16:56 OP:dani STATUS:               ID:20161124081742     3
 OLDACT:UP  16-11-24 16:56 OP:dani STATUS:               ID:20161124081742     3
 OLDACT:UP  16-11-24 16:56 OP:dani STATUS:               ID:20161124081742     3
 OLDACT:REG 16-11-24 13:07 OP:dani STATUS:               ID:20161124081742     3
 2016-11-24-0818-00M.COL___349                                                 6
 STAT SP IPHASW D HRMM SECON CODA AMPLIT PERI AZIMU VELO AIN AR TRES W  DIS CAZ7
 BAR2 EZ EP        821 21.25                             174   -0.1610 20.4 187 
 BAR2 EZ ES        821 37.25                             174   -0.0410 20.4 187 
 BAR2 EZ I         821 38.26         4.2 0.41            172           20.4 187 
 BRR  HZ EP        821 23.22                             153    0.3210 71.2 301 
 BRR  HN ES        821 40.28                             153    0.3310 71.2 301 
 BRR  HZ I         821 43.95         2.3 0.26            149           71.2 301 
 PAM  EZ EP        821 24.20                             150    0.0610 80.5  39 
 PAM  EE ES   3    821 40.46                             150   -1.69 2 80.5  39 
 PAM  EZ I         821 43.62         2.1 0.20            152           80.5  39 
 PTB  HZ EP        821 28.37                             134    0.00 9  146 260 
 PTB  HN ES        821 49.22                             134   -0.47 9  146 260 
 PTB  HZ I         821 56.97         3.1 0.29            133            146 260 
                                                                                
