 2013 1024 0359 59.0 L   6.786 -73.151147.6  RSN  7 0.4 1.7LRSN                1
 GAP=236        0.90       4.4     5.0  6.1  0.2322E+01  0.3773E+01  0.6787E+01E
 Epicentro: LOS SANTOS - SANTANDER                                             3
 ACTION:UPD 13-11-25 09:23 OP:ep   STATUS:               ID:20131024035959 L   I
 OLDACT:REG 13-10-24 08:28 OP:carl STATUS:               ID:20131024035839     3
 2013-10-24-0358-39M.COL___223                                                 6
 STAT SP IPHASW D HRMM SECON CODA AMPLIT PERI AZIMU VELO AIN AR TRES W  DIS CAZ7
 BAR2 SZ EP        4 0 18.75                             171   -0.1010 21.7 189 
 BAR2 SZ ES        4 0 34.03                             171   -0.2810 21.7 189 
 BAR2 SZ I         4 0 35.17        25.6 0.22            165           21.7 189 
 BRR  HZ EP        4 0 20.66                             153    0.2710 71.5 300 
 BRR  HN ES        4 0 37.75                             153    0.6910 71.5 300 
 BRR  HZ I         4 0 38.77         5.8 0.34            153           71.5 300 
 RUS  HZ EP        4 0 22.65                             145   -0.2010 99.0 176 
 RUS  HN ES        4 0 41.27                             145   -0.1710 99.0 176 
 RUS  HZ I         4 0 42.96         3.7 0.20            142           99.0 176 
 PTB  HZ EP        4 0 25.64                             133   -0.43 9  147 259 
 PTB  HN ES        4 0 46.62                             133   -0.55 9  147 259 
 SPBC HZ EP        4 0 27.63                             130    0.11 9  162 219 
 SPBC HN ES        4 0 49.77                             130    0.02 9  162 219 
 SPBC HZ I         4 0 56.87         8.2 0.26            128            162 219 
 NOR  HE ES        4 1  2.61                             119    0.05 8  233 235 
 CHI  HZ EP        4 0 36.81                             118    0.16 8  247 195 
 CHI  HN ES        4 1  6.64                             118    0.65 8  247 195 
 CHI  HZ I         4 1 14.71         2.1 0.38            117            247 195 
                                                                                
