 2010  324 0736 35.5 L   6.770 -73.032144.1  RSN  7 0.4 2.0LRSN                1
 GAP=194        0.86       3.9     8.4  6.9  0.3621E+01  0.4459E+01  0.3853E+00E
 Epicentro: CEPITA - SANTANDER                                                 3
 ACTION:UP  10-08-24 09:55 OP:vdl  STATUS:               ID:20100324073635 L   I
 2010-03-24-0735-03S.COL___098                                                 6
 STAT SP IPHASW D HRMM SECON CODA AMPLIT PERI AZIMU VELO SNR AR TRES W  DIS CAZ7
 BAR2 SZ IP        736 55.07                             169     0.110   26 220 
 BAR2 SZ ES   1    737  9.53                             169    -0.7 7   26 220 
 BRR  HZ IP        736 57.18                             148    -0.110   84 296 
 BRR  HE ES   1    737 14.21                             148     0.0 7   84 296 
 BRR  HZ I         737 18.87        25.0 0.11                            84 296 
 RUS  HZ EP        736 58.97                             144     0.110   97 183 
 RUS  HN ES   1    737 17.72                             144     0.6 7   97 183 
 RUS  HZ I         737 19.03        10.7 0.32                            97 183 
 OCA  SZ EP        737  3.84                             128    -0.4 9  165 349 
 OCA  SZ ES   1    737 27.11                             128     0.5 7  165 349 
 OCA  SZ I         737 30.56        18.8 0.10                           165 349 
 CHI  HZ EP   1    737 13.13                             117    -0.1 6  249 198 
 CHI  HE ES   2    737 41.78                             117    -0.8 4  249 198 
 CHI  HZ I         737 52.03         3.3 0.49                           249 198 
 HEL  HZ EP   1    737 17.52                             113     0.6 6  284 257 
 HEL  HE ES   2    737 49.17                             113    -0.1 4  284 257 
 HEL  HZ I         737 51.97         4.5 0.19                           284 257 
 PRA  HZ EP   2    737 29.05                             106    -0.4 3  396 211 
 PRA  HN ES   2    738 11.16                             106    -0.3 3  396 211 
 PRA  HZ I         738 17.73         3.4 0.25                           396 211 
                                                                                
