 2013  324 0436 37.8 L   6.780 -73.177146.7  RSN  4 0.5 1.8LRSN                1
 GAP=232        1.31      10.4     9.8 10.5  0.5080E+02  0.8914E+01  0.2211E+01E
 Epicentro: LOS SANTOS - SANTANDER                                             3
 ACTION:UPD 13-04-09 14:04 OP:ep   STATUS:               ID:20130324043637 L   I
 2013-03-24-0430-00M.COL___245                                                 6
 STAT SP IPHASW D HRMM SECON CODA AMPLIT PERI AZIMU VELO AIN AR TRES W  DIS CAZ7
 BAR2 SZ EP        436 57.30                             172   -0.1610 20.8 182 
 BAR2 SZ ES        437 11.91                             172   -0.9110 20.8 182 
 BAR2 SZ I         437 17.76        53.8 0.96            161           20.8 182 
 BRR  HZ EP        436 58.84                             153   -0.0710 69.3 302 
 BRR  HE ES        437 16.23                             153    0.8210 69.3 302 
 BRR  HE I         437 16.39        16.8 0.22            157           69.3 302 
 RUS  HZ EP        437  1.65                             145    0.1810 98.7 174 
 RUS  HE ES        437 20.52                             145    0.5610 98.7 174 
 RUS  HE I         437 30.40         3.7 0.64            140           98.7 174 
 PTB  HZ EP        437  4.33                             133   -0.14 9  144 259 
 PTB  HN ES        437 24.97                             133   -0.32 9  144 259 
 PTB  HN I         437 30.23         4.9 0.26            134            144 259 
                                                                                
