 2012  824 0256 43.7 L   6.769 -73.156144.0  RSN  7 0.4 1.5LRSN                1
 GAP=137        0.70       4.0     4.2  6.9 -0.2440E+01  0.1061E+02 -0.1717E+01E
 Epicentro: LOS SANTOS - SANTANDER                                             3
 ACTION:UPD 12-09-10 11:58 OP:ep   STATUS:               ID:20120824025643 L   I
 2012-08-24-0250-00M.COL___218                                                 6
 STAT SP IPHASW D HRMM SECON CODA AMPLIT PERI AZIMU VELO AIN AR TRES W  DIS CAZ7
 BAR2 SZ EP   1    257  3.06                             172    0.06 7 19.8 189 
 BAR2 SZ ES   1    257 17.45                             172   -0.64 7 19.8 189 
 BAR2 SZ I         257 20.45         9.6 0.22                          19.8 189 
 BRR  HZ EP   1    257  4.78                             152    0.13 7 71.9 301 
 BRR  HE ES   2    257 21.91                             152    0.88 5 71.9 301 
 BRR  HZ I         257 39.71        14.9 0.40                          71.9 301 
 PAM  SZ EP   1    257  6.09                             149    0.20 7 80.8  39 
 PAM  SN ES        257 23.13                             149   -0.1010 80.8  39 
 PAM  SZ I         257 25.58         4.1 0.47                          80.8  39 
 RUS  HZ EP   1    257  6.97                             144   -0.02 7 97.2 175 
 RUS  HN ES        257 25.47                             144    0.2810 97.2 175 
 RUS  HZ I         257 27.82         2.6 0.30                          97.2 175 
 PTB  HZ EP   1    257  9.76                             132   -0.56 7  146 260 
 PTB  HN ES   1    257 31.06                             132   -0.06 7  146 260 
 PTB  HZ I         257 32.75         2.4 0.26                           146 260 
 ZAR  HN ES   2    257 41.73                             122    0.48 4  204 293 
 HEL  HN ES   2    257 54.47                             115   -0.22 4  270 256 
                                                                                
