 2016  624 0414 33.5 L   6.023 -73.717115.9  RSN  4 0.3 1.2LRSN                1
 GAP=181        0.84       4.5     4.9  7.8 -0.7502E+01 -0.2337E+01 -0.4653E+01E
 Epicentro: VELEZ - SANTANDER                                                  3
 ACTION:UPD 16-07-21 22:22 OP:rebc STATUS:               ID:20160624041433 L   I
 OLDACT:REG 16-06-24 14:17 OP:ak   STATUS:               ID:20160624040750     3
 2016-06-24-0407-50M.COL___328                                                 6
 STAT SP IPHASW D HRMM SECON CODA AMPLIT PERI AZIMU VELO AIN AR TRES W  DIS CAZ7
 SPBC HZ EP        414 50.26                             152   -0.4610 56.8 224 
 SPBC HN ES        415  4.47                             152    0.3010 56.8 224 
 SPBC HZ I         415  6.98         5.6 0.24                          56.8 224 
 BAR2 EZ EP        414 53.16                             141    0.2310 86.4  43 
 BAR2 EZ ES        415  7.92                             141   -0.1910 86.4  43 
 PTB  HZ EP        414 53.42                             136   -0.2810 99.7 305 
 PTB  HN ES        415  9.57                             136    0.0910 99.7 305 
 PTB  HZ I         415 11.69         2.3 0.25                          99.7 305 
 BRR  HZ EP        414 56.00                             131    0.5310  120   0 
 BRR  HN ES        415 12.42                             131   -0.2010  120   0 
 BRR  HZ I         415 13.75         3.4 0.39                           120   0 
                                                                                
