 2014  924 0816 14.4 L   6.782 -73.405119.9  RSN  5 0.5 1.5LRSN                1
 GAP=127        1.40       7.6     6.9 11.0 -0.1376E+02  0.2780E+02 -0.3054E+02E
 Epicentro: SAN VICENTE DE CHUCURI - SANTANDER                                 3
 ACTION:UPD 14-10-03 23:08 OP:nd   STATUS:               ID:20140924081614 L   I
 OLDACT:UP  14-09-24 16:56 OP:cam  STATUS:               ID:20140924081000     3
 OLDACT:REG 14-09-24 13:22 OP:cam  STATUS:               ID:20140924081000     3
 2014-09-24-0810-00M.COL___252                                                 6
 STAT SP IPHASW D HRMM SECON CODA AMPLIT PERI AZIMU VELO AIN AR TRES W  DIS CAZ7
 BAR2 SZ EP        816 31.98                             164    0.8410 32.3 130 
 BAR2 SZ ES        816 44.04                             164   -0.2010 32.3 130 
 BAR2 SZ I         816 45.81        16.6 0.36            168           32.3 130 
 BRR  HZ EP        816 31.72                             156    0.2110 49.5 317 
 BRR  HZ I         816 32.17         5.1 0.20            155           49.5 317 
 BRR  HN ES        816 45.65                             156    0.7610 49.5 317 
 PAM  SE ES        816 51.35                             138   -0.7410 99.4  52 
 PTB  HZ EP        816 36.60                             132   -0.0410  119 257 
 PTB  HN ES        816 53.22                             132   -0.7910  119 257 
 PTB  HZ I         816 58.65         4.1 0.18            132            119 257 
 SML  HZ EP        816 48.52                             112   -0.18 8  235 342 
 SML  HN ES        817 15.53                             112    0.04 8  235 342 
 SML  HZ I         817 17.71         3.1 0.10            114            235 342 
                                                                                
