 2016  924 0925 53.1 L   6.821 -73.152144.7  RSN 16 0.4 2.5LRSN                1
 GAP=135        0.98       2.7     4.0  5.4 -0.2566E+01  0.8204E+01 -0.4673E+00E
 Epicentro: LOS SANTOS - SANTANDER                                             3
 ACTION:UPD 17-08-17 21:15 OP:lp   STATUS:               ID:20160924092553 L   I
 OLDACT:UP  16-09-24 19:24 OP:drio STATUS:               ID:20160924091743     3
 OLDACT:REG 16-09-24 13:05 OP:y    STATUS:               ID:20160924091743     3
 2016-09-24-0918-00M.COL___330                                                 6
 STAT SP IPHASW D HRMM SECON CODA AMPLIT PERI AZIMU VELO AIN AR TRES W  DIS CAZ7
 BAR2 EZ EP        926 12.70                             170    0.0610 25.6 188 
 BAR2 EZ ES        926 27.55                             170   -0.3310 25.6 188 
 BAR2 EZ I         926 28.68       107.0 0.46            167           25.6 188 
 BRR  HZ EP        926 14.51                             153    0.4910 69.5 297 
 BRR  HN ES   4    926 31.62                             153    1.27 0 69.5 297 
 BRR  HZ I         926 34.53        56.2 0.28            148           69.5 297 
 PAM  EZ EP        926 15.57                             151    0.4610 76.0  41 
 PAM  HN ES        926 32.59                             151    0.3110 76.0  41 
 PAM  EZ I         926 34.63        52.1 0.48            156           76.0  41 
 RUS  HZ EP        926 16.90                             143   -0.0110  103 176 
 RUS  HE ES        926 35.26                             143   -0.2310  103 176 
 RUS  HZ I         926 36.36        46.7 0.28            145            103 176 
 PTB  HZ EP        926 19.51                             132   -0.44 9  148 258 
 PTB  HE ES        926 40.50                             132   -0.40 9  148 258 
 PTB  HZ I         926 42.74        47.4 0.30            130            148 258 
 OCA  HZ EP        926 20.78                             130   -0.31 9  158 353 
 OCA  HE ES        926 42.73                             130   -0.20 9  158 353 
 OCA  HZ I         926 46.39        54.6 0.20            130            158 353 
 SPBC HZ EP        926 21.64                             128    0.00 9  165 218 
 SPBC HE ES        926 43.78                             128   -0.13 9  165 218 
 SPBC HZ I         926 46.19        84.8 0.18            128            165 218 
 ZAR  HN ES        926 51.25                             122    0.82 9  203 292 
 NOR  HZ EP        926 28.79                             118   -0.05 8  236 234 
 NOR  HN ES        926 56.47                             118   -0.26 8  236 234 
 NOR  HZ I         927  3.39        28.0 0.20            118            236 234 
 CHI  HZ EP        926 30.87                             117   -0.09 8  251 195 
 CHI  HN ES        927  0.33                             117   -0.16 8  251 195 
 CHI  HZ I         927  3.59        20.5 0.84            118            251 195 
 ROSC BZ EP   4    926 32.75                             116    1.42 0  254 211 
 ROSC BE ES        927  1.68                             116    0.52 8  254 211 
 ROSC BZ I         927 10.45        29.9 0.35            117            254 211 
 URE  HZ EP        926 33.34                             113   -0.60 7  282 292 
 URE  HN ES   4    927  3.77                             113   -2.03 0  282 292 
 URE  HZ I         927 17.28        27.3 0.22            113            282 292 
 GUY2CHZ EP        926 37.43                             112    0.69 7  302 234 
 GUY2CHE ES   4    927 14.51                             112    3.73 0  302 234 
 GUY2CHZ I         927 20.52        14.3 0.28                           302 234 
 ELA  HZ EP   4    926 42.16                             110    2.15 0  330 229 
 ELA  HN ES   4    927 18.97                             110    2.36 0  330 229 
 ELA  HZ I         927 24.35        15.9 0.54            110            330 229 
 CBOC HZ EP        926 40.62                             110    0.65 7  334 252 
 CBOC HN ES   4    927 15.60                             110   -0.93 0  334 252 
 CBOC HZ I         927 27.66         6.4 0.70            110            334 252 
 SJC  HZ EP        926 47.20                             105   -1.14 6  407 327 
 SJC  HN ES   4    927 28.54                             105   -2.89 0  407 327 
 SJC  HZ I         927 34.73         3.5 0.38            106            407 327 
                                                                                
