 2011  624 0227 54.4 L   6.785 -73.058144.0  RSN  6 0.2 1.6LRSN                1
 GAP=169        0.42       3.2     6.8  5.1 -0.4267E+00 -0.8351E+01 -0.3451E+01E
 Epicentro: LOS SANTOS - SANTANDER                                             3
 ACTION:UP  11-07-14 19:07 OP:ep   STATUS:               ID:20110624022754 L   I
 2011-06-24-0220-00M.COL___124                                                 6
 STAT SP IPHASW D HRMM SECON CODA AMPLIT PERI AZIMU VELO SNR AR TRES W  DIS CAZ7
 BAR2 SZ EP   1    228 13.79                             170    -0.1 7   25 213 
 BAR2 SZ ES   1    228 28.88                             170    -0.2 7   25 213 
 BAR2 SZ I         228 30.24        12.9 0.13                            25 213 
 BTL  SZ EP        228 14.09                             169     0.210   27 303 
 GIR2 SZ EP        228 13.87                             165    -0.110   36 335 
 BRR  HZ EP   1    228 15.78                             149    -0.2 7   81 296 
 BRR  HZ I         228 16.01         8.3 0.06                            81 296 
 BRR  HN ES   2    228 32.94                             149     0.2 5   81 296 
 RUS  HZ EP   1    228 17.86                             144     0.0 7   99 182 
 RUS  HN ES   2    228 36.44                             144     0.3 5   99 182 
 RUS  HZ I         228 37.26         4.5 0.31                            99 182 
 GRA  SZ EP   1    228 19.55                             137     0.1 7  125  13 
 GRA  SZ ES   2    228 38.98                             137     0.1 5  125  13 
 GRA  SZ I         228 40.76         3.8 0.60                           125  13 
                                                                                
