 2017  724 0413 48.9 L   6.755 -73.124144.1  RSN  8 0.3 1.4LRSN                1
 GAP=210        0.64       3.7     4.3  4.6  0.6310E+01 -0.4665E+01  0.1514E+01E
 Epicentro: LOS SANTOS - SANTANDER                                             3
 ACTION:UPD 17-08-30 15:36 OP:rebc STATUS:               ID:20170724041348 L   I
 OLDACT:UP  17-07-24 16:25 OP:and  STATUS:               ID:20170724040739d    3
 OLDACT:UP  17-07-24 16:24 OP:and  STATUS:               ID:20170724040739d    3
 OLDACT:DUP 17-07-24 16:22 OP:and  STATUS:               ID:20170724040739d    3
 2017-07-24-0408-00M.COL___380                                                 6
 STAT SP IPHASW D HRMM SECON CODA AMPLIT PERI AZIMU VELO AIN AR TRES W  DIS CAZ7
 BAR2 EZ EP        414  8.15                             172   -0.0810 19.1 200 
 BAR2 EZ ES        414 23.04                             172   -0.2810 19.1 200 
 BAR2 EZ I         414 24.10         9.1 0.18            172           19.1 200 
 BRR  HZ EP        414 10.11                             151    0.0010 75.7 301 
 BRR  HN ES        414 26.87                             151    0.2010 75.7 301 
 BRR  HZ I         414 30.19         4.2 0.48            150           75.7 301 
 RUS  HZ EP        414 12.10                             145    0.0010 95.5 177 
 RUS  HN ES        414 30.26                             145    0.0510 95.5 177 
 RUS  HZ I         414 31.26         3.2 0.22            147           95.5 177 
 PTB  HZ EP   2    414 15.96                             131    0.12 5  149 261 
 PTB  HN ES   2    414 36.72                             131   -0.15 5  149 261 
 PTB  HZ I         414 38.60         2.6 0.14            132            149 261 
 SPBC HE ES        414 39.04                             129    0.06 9  161 221 
 SPBC HZ I         414 39.93         3.9 0.20            130            161 221 
 YPLC HZ EP     C  414 18.56                             127    0.55 9  171 151 
 ZAR  HN ES   2    414 46.88                             121   -0.31 4  208 293 
 PTGC HZ EP        414 31.38                             112   -0.65 7  303 159 
                                                                                
