 2011  624 0354 38.9 L   6.805 -73.048145.5  RSN  6 0.3 1.7LRSN                1
 GAP=170        0.61       4.9    10.4  7.3  0.1394E+01 -0.1696E+02  0.3164E+01E
 Epicentro: LOS SANTOS - SANTANDER                                             3
 ACTION:UP  11-07-14 19:07 OP:ep   STATUS:               ID:20110624035438 L   I
 2011-06-24-0340-00M.COL___124                                                 6
 STAT SP IPHASW D HRMM SECON CODA AMPLIT PERI AZIMU VELO SNR AR TRES W  DIS CAZ7
 BTL  SZ EP   2    354 59.27                             169     0.7 5   27 297 
 BTL  SZ ES   2    355 14.51                             169     0.6 5   27 297 
 BAR2 SZ EP   1    354 58.40                             169    -0.2 7   28 212 
 BAR2 SZ ES   2    355 13.86                             169    -0.1 5   28 212 
 BAR2 SZ I         355 16.28         9.1 0.26                            28 212 
 GIR2 SZ ES   2    355 14.09                             166     0.1 5   34 332 
 BRR  HZ EP   1    355  0.39                             149    -0.2 7   81 295 
 BRR  HZ I         355 10.82         7.7 0.29                            81 295 
 BRR  HE ES   2    355 17.42                             149    -0.1 5   81 295 
 RUS  HZ EP   1    355  2.75                             144     0.1 7  101 182 
 RUS  HZ I         355 20.91        45.3 0.62                           101 182 
 RUS  HN ES   2    355 20.97                             144    -0.2 5  101 182 
 GRA  SZ EP   2    355  4.31                             138     0.4 5  122  13 
 GRA  SZ ES   2    355 22.79                             138    -0.5 5  122  13 
 GRA  SZ I         355 24.79         2.1 0.49                           122  13 
                                                                                
