 2017  224 0946  4.9 L   6.815 -73.142148.0  RSN 18 0.5 2.1LRSN                1
 GAP= 71        1.17       4.3     4.1  5.7 -0.2793E+01  0.5031E+01  0.3772E+01E
 Epicentro: LOS SANTOS - SANTANDER                                             3
 ACTION:UPD 17-05-24 15:40 OP:jn   STATUS:               ID:20170224094604 L   I
 OLDACT:UP  17-02-24 17:45 OP:edw  STATUS:               ID:20170224093740     3
 OLDACT:UP  17-02-24 17:44 OP:edw  STATUS:               ID:20170224093740     3
 OLDACT:REG 17-02-24 12:59 OP:edw  STATUS:               ID:20170224093740     3
 2017-02-24-0938-00M.COL___378                                                 6
 STAT SP IPHASW D HRMM SECON CODA AMPLIT PERI AZIMU VELO AIN AR TRES W  DIS CAZ7
 BAR2 EZ EP     D  946 24.72                             170   -0.1610 25.0 190 
 BAR2 EZ ES        946 39.67                             170   -0.7610 25.0 190 
 BAR2 EZ I         946 42.57        46.0 0.32            167           25.0 190 
 BRR  HZ EP     C  946 26.53                             153    0.2110 70.8 297 
 BRR  HN ES        946 43.67                             153    0.6910 70.8 297 
 BRR  HZ I         946 46.06        20.9 0.30            152           70.8 297 
 PAM  EZ EP     C  946 27.55                             151    0.2410 75.9  40 
 PAM  EN ES        946 44.88                             151    0.1210 75.9  40 
 PAM  EZ I         946 47.85        23.0 0.32            150           75.9  40 
 RUS  HZ EP        946 28.72                             144   -0.3110  102 176 
 RUS  HN ES        946 47.37                             144   -0.4510  102 176 
 RUS  HZ I         946 48.85        25.5 0.28            140            102 176 
 PTB  HZ EP   9    946 31.35                             132   -0.81 0  148 258 
 PTB  HN ES        946 52.02                             133   -0.56 9  148 258 
 PTB  HZ I         946 55.09        17.0 0.16            130            148 258 
 TAM  HZ IP     C  946 33.19                             131    0.38 9  155 106 
 TAM  HZ I         946 54.07        12.1 0.40            127            155 106 
 TAM  HN ES        946 54.74                             131    0.20 9  155 106 
 NOR  HZ EP        946 40.85                             118   -0.09 8  236 234 
 NOR  HN ES        947  9.31                             118    0.29 8  236 234 
 NOR  HZ I         947 14.28        12.3 0.24            116            236 234 
 CHI  HZ EP     C  946 43.09                             117    0.14 8  250 195 
 CHI  HN ES        947 12.36                             117   -0.23 8  250 195 
 CHI  HZ I         947 17.37         9.5 0.42            114            250 195 
 ROSC BZ EP   4    946 44.53                             117    1.17 0  254 211 
 ROSC BN ES   4    947 15.63                             117    2.30 0  254 211 
 HEL  HZ EP   4    946 46.39                             115    1.03 0  273 255 
 HEL  HN ES   4    947 20.13                             115    3.25 0  273 255 
 HEL  HZ I         947 25.05         8.2 0.34            113            273 255 
 URE  HZ EP        946 45.21                             114   -0.89 7  284 292 
 URE  HN ES   4    947 15.36                             114   -2.84 0  284 292 
 URE  HZ I         947 17.57         9.3 0.62            112            284 292 
 PTGC HZ EP   4    946 47.98                             112   -1.08 0  310 159 
 PTGC HN ES   4    947 11.00                             112   -12.5 0  310 159 
 ELA  HZ EP   4    946 54.42                             110    2.37 0  330 229 
 ELA  HN ES   4    947 30.09                             110    1.30 0  330 229 
 ELA  HZ I         947 37.45         7.3 0.60            108            330 229 
 CBOC HZ EP        946 52.44                             110    0.38 7  334 252 
 CBOC HN ES   4    947 26.46                             110   -2.34 0  334 252 
 CBOC HZ I         947 37.64         2.6 0.46            108            334 252 
 DBB  EZ EP        946 52.29                             110   -0.26 7  340 274 
 DBB  EN ES   4    947 27.90                             110   -1.78 0  340 274 
 DBB  EZ I         947 30.07         4.5 0.42            108            340 274 
 ANIL HN ES   4    947 35.79                             108    1.74 0  359 224 
 ORTC HZ EP        946 59.32                             106    0.20 6  397 216 
 ORTC HN ES        947 42.61                             106    1.23 6  397 216 
 ORTC HZ I         947 48.62         5.2 0.34            104            397 216 
 SJC  HZ EP   4 C  946 58.96                             106   -1.49 0  408 327 
 SJC  HN ES   4    947 39.38                             106   -4.36 0  408 327 
 SJC  HZ I         947 44.13         2.3 0.34            104            408 327 
 CRJC HZ EP   9    947  5.15                             103   -2.17 0  466   4 
 CRJC HN ES        947 52.15                             104   -1.65 5  466   4 
 MACC HZ EP   4    947 11.76                             102   -2.15 0  522 189 
 MACC HN ES   4    948  4.19                             102   -3.51 0  522 189 
 MACC HZ I         948  8.52         1.6 0.28            100            522 189 
 URI  HZ EP        947 16.21                             101   -1.59 4  555  13 
 URI  HE ES   4    948 11.35                             101   -3.28 0  555  13 
                                                                                
