 2012  124 0443 32.3 L   6.772 -73.043144.0  RSN  9 0.2 2.1LRSN                1
 GAP=151        0.59       2.5     4.9  4.3 -0.9624E+00  0.1292E+01  0.2234E+01E
 Epicentro: LOS SANTOS - SANTANDER                                             3
 ACTION:UP  12-02-03 08:20 OP:REBC STATUS:               ID:20120124044332 L   I
 2012-01-24-0440-00M.COL___187                                                 6
 STAT SP IPHASW D HRMM SECON CODA AMPLIT PERI AZIMU VELO SNR AR TRES W  DIS CAZ7
 BAR2 SZ EP        443 51.83                             170     0.010   25 218 
 BAR2 SZ ES   1    444  6.47                             170    -0.5 7   25 218 
 BAR2 SZ I         444  8.60        26.8 0.30                            25 218 
 GIR2 SZ EP   1    443 51.88                             165    -0.1 7   38 334 
 PAM  SZ EP   1    443 54.21                             152     0.1 7   73  31 
 PAM  SN ES   1    444 11.24                             152     0.1 7   73  31 
 BRR  HZ EP        443 53.68                             148    -0.310   83 297 
 BRR  HZ I         443 54.00        55.5 0.17                            83 297 
 BRR  HN ES        444 11.22                             148     0.310   83 297 
 RUS  HZ EP   1    443 56.02                             144     0.3 7   97 183 
 RUS  HN ES   1    444 14.07                             144     0.2 7   97 183 
 RUS  HZ I         444 15.69        12.4 0.34                            97 183 
 OCA  SZ EP   1    444  1.09                             128     0.1 7  165 349 
 OCA  SZ ES   1    444 23.20                             128    -0.1 7  165 349 
 OCA  SZ I         444 28.76        25.3 0.21                           165 349 
 NOR  SZ EP   1    444  8.71                             117    -0.1 6  242 237 
 CHI  HZ EP   1    444  9.78                             117    -0.2 6  249 198 
 CHI  HZ I         444 17.88         4.8 1.01                           249 198 
 CHI  HN ES   1    444 39.34                             117     0.0 6  249 198 
 PRA  HZ EP   1    444 26.19                             106     0.0 4  395 211 
                                                                                
