 2016  724 0711 21.4 L   6.784 -73.103149.5  RSN  5 0.1 1.1LRSN                1
 GAP=143        0.44       2.2     3.0  3.2 -0.2121E+01  0.5323E+00  0.9558E+00E
 Epicentro: LOS SANTOS - SANTANDER                                             3
 ACTION:UPD 17-03-29 16:54 OP:lp   STATUS:               ID:20160724071121 L   I
 OLDACT:REG 16-07-24 14:06 OP:ar   STATUS:               ID:20160724070759     3
 2016-07-24-0707-59S.COL___331                                                 6
 STAT SP IPHASW D HRMM SECON CODA AMPLIT PERI AZIMU VELO AIN AR TRES W  DIS CAZ7
 BAR2 EZ EP        711 41.23                             171   -0.2510 22.9 203 
 BAR2 EZ ES        711 57.02                             171   -0.1110 22.9 203 
 PAM  EZ EP        711 44.17                             152    0.2310 75.9  36 
 PAM  EE ES        712  1.50                             152   -0.0110 75.9  36 
 PAM  EZ I         712  2.03         1.9 0.20            156           75.9  36 
 BRR  HZ EP        711 43.34                             151    0.0910 76.2 298 
 BRR  HN ES        712  0.26                             151   -0.0210 76.2 298 
 BRR  HZ I         712  2.81         2.2 0.22            149           76.2 298 
 RUS  HZ EP        711 45.28                             145   -0.1010 98.6 179 
 RUS  HN ES        712  4.23                             145    0.1410 98.6 179 
 RUS  HZ I         712  5.35         1.5 0.28            145           98.6 179 
 SPBC HZ EP        711 50.23                             130   -0.12 9  165 221 
 SPBC HN ES        712 13.07                             130    0.15 9  165 221 
 SPBC HZ I         712 20.19         3.3 0.16            129            165 221 
                                                                                
