 2015  524 0745  6.4 L   6.784 -73.122150.3  RSN  8 0.3 1.5LRSN                1
 GAP=185        0.63       2.2     4.1  4.6  0.1204E+01 -0.5084E+00 -0.1860E+01E
 Epicentro: LOS SANTOS - SANTANDER                                             3
 ACTION:UPD 15-09-10 22:06 OP:cam  STATUS:               ID:20150524074506 L   I
 OLDACT:REG 15-05-24 12:36 OP:spq  STATUS:               ID:20150524073743     3
 2015-05-24-0737-43M.COL___285                                                 6
 STAT SP IPHASW D HRMM SECON CODA AMPLIT PERI AZIMU VELO AIN AR TRES W  DIS CAZ7
 BAR2 EZ EP        745 26.50                             171   -0.0910 22.2 197 
 BAR2 EZ ES   1    745 41.71                             171   -0.60 7 22.2 197 
 BAR2 EZ I         745 43.00         5.9 0.20            168           22.2 197 
 BRR  HZ EP        745 28.30                             152    0.0510 74.3 299 
 BRR  HE ES        745 45.52                             152    0.2610 74.3 299 
 BRR  HZ I         745 48.62         4.8 0.28            148           74.3 299 
 RUS  HZ EP        745 30.50                             145   -0.0010 98.7 177 
 RUS  HN ES   1    745 49.70                             145    0.43 7 98.7 177 
 RUS  HZ I         745 51.12         2.4 0.30            147           98.7 177 
 OCA  HZ EP        745 35.66                             130    0.37 9  162 352 
 OCA  HE ES        745 57.67                             130   -0.13 9  162 352 
 OCA  HZ I         746  1.22         5.5 0.36            131            162 352 
 SPBC HZ EP        745 35.37                             130    0.06 9  163 220 
 SPBC HN ES        745 57.69                             130   -0.15 9  163 220 
 SPBC HZ I         746  3.78         4.1 0.19            129            163 220 
 ZAR  HZ EP   1    745 38.90                             123   -0.59 6  207 292 
 ZAR  HE ES        746  5.43                             123    0.16 8  207 292 
 ZAR  HZ I         746 12.51         2.5 0.32            122            207 292 
 SML  HZ EP        745 43.51                             118   -0.10 8  246 335 
 SML  HE ES   1    746 12.42                             118   -0.18 6  246 335 
 SML  HZ I         746 14.80         4.9 0.09            119            246 335 
 GUY2CHE ES   4    746 28.83                             113    4.17 0  302 235 
 GUY2CHZ I         746 31.69         1.7 0.56                           302 235 
                                                                                
