 2010  524 0205 59.2 L   6.797 -72.997140.5  RSN  6 0.4 2.0LRSN                1
 GAP=202        0.87       6.1    12.6 10.9 -0.5375E+02  0.3026E+02 -0.2127E+01E
 Epicentro: CEPITA - SANTANDER                                                 3
 ACTION:UP  10-08-24 10:06 OP:vdl  STATUS:               ID:20100524020560dL   I
 2010-05-24-0205-14S.COL___111                                                 6
 STAT SP IPHASW D HRMM SECON CODA AMPLIT PERI AZIMU VELO SNR AR TRES W  DIS CAZ7
 BAR2 SZ EP        2 6 18.18                             167    -0.210   31 222 
 BAR2 SZ ES   2    2 6 33.36                             167     0.0 5   31 222 
 GUE  SZ EP        2 6 23.36                             138     0.010  115   4 
 GRA  SZ EP        2 6 23.99                             136     0.310  122  10 
 GRA  SZ ES   2    2 6 43.44                             136     0.6 5  122  10 
 OCA  SZ EP        2 6 26.88                             127    -0.6 9  163 347 
 OCA  SZ ES   1    2 6 49.60                             127     0.1 7  163 347 
 OCA  SZ I         2 6 53.61         8.2 0.76                           163 347 
 RREF BZ EP   1    2 6 47.66                             109     1.1 5  334 231 
 RREF BN ES   1    2 7 23.38                             109    -0.1 5  334 231 
 RREF BZ I         2 7 29.88         4.3 0.36                           334 231 
 PRA  HN ES   1    2 7 35.89                             105     0.0 4  400 212 
 PRA  HZ I         2 7 39.83         4.3 0.42                           400 212 
                                                                                
