 2016 1124 0432 17.0 L   6.770 -73.148148.8  RSN  4 0.3 1.2LRSN                1
 GAP=153        0.87       9.0     5.4  7.0 -0.2444E+02  0.3206E+01  0.5654E+01E
 Epicentro: LOS SANTOS - SANTANDER                                             3
 ACTION:UPD 17-10-26 21:11 OP:lp   STATUS:               ID:20161124043217 L   I
 OLDACT:UP  16-11-24 15:13 OP:dani STATUS:               ID:20161124042748d    3
 OLDACT:DUP 16-11-24 15:11 OP:dani STATUS:               ID:20161124042748d    3
 2016-11-24-0428-00M.COL___349                                                 6
 STAT SP IPHASW D HRMM SECON CODA AMPLIT PERI AZIMU VELO AIN AR TRES W  DIS CAZ7
 BAR2 EZ EP        432 36.79                             172   -0.1010 20.1 191 
 BAR2 EZ ES        432 52.60                             172    0.1610 20.1 191 
 BAR2 EZ I         433  0.90         4.2 0.68            165           20.1 191 
 BRR  HZ EP        432 38.73                             153    0.2210 72.6 301 
 BRR  HE ES        432 55.47                             153    0.1410 72.6 301 
 BRR  HZ I         432 59.12         4.5 0.36            158           72.6 301 
 PAM  EZ EP        432 40.16                             150    0.5010 80.1  38 
 PAM  EN ES        432 56.87                             150   -0.5010 80.1  38 
 PAM  EZ I         432 58.98         1.4 0.36            161           80.1  38 
 PTB  HZ EP        432 43.58                             133   -0.51 9  147 260 
 PTB  HN ES        433  5.29                             133    0.03 9  147 260 
 PTB  HZ I         433 12.43         2.2 0.42            136            147 260 
                                                                                
