 2015  724 0633 37.3 L   6.832 -73.162135.6  RSN 10 0.5 2.1LRSN                1
 GAP=133        1.22       3.8     4.7  7.8 -0.4686E+01  0.1852E+02 -0.6674E+01E
 Epicentro: LOS SANTOS - SANTANDER                                             3
 ACTION:UPD 15-09-08 21:50 OP:cam  STATUS:               ID:20150724063337 L   I
 OLDACT:UP  15-07-24 17:50 OP:stll STATUS:               ID:20150724062746     3
 OLDACT:REG 15-07-24 12:43 OP:stll STATUS:               ID:20150724062746     3
 2015-07-24-0627-46M.COL___339                                                 6
 STAT SP IPHASW D HRMM SECON CODA AMPLIT PERI AZIMU VELO AIN AR TRES W  DIS CAZ7
 BAR2 EZ EP        633 55.76                             168    0.0210 26.6 185 
 BAR2 EZ ES        634 10.05                             168   -0.1010 26.6 185 
 BAR2 EZ I         634 11.82        28.1 0.16            168           26.6 185 
 PAM  EZ EP     C  633 58.72                             149    0.4210 75.9  42 
 PAM  EZ I         633 58.83        59.0 0.22            153           75.9  42 
 PAM  EN ES        634 15.17                             149    0.4510 75.9  42 
 RUS  HZ EP        634  0.23                             140   -0.0710  104 175 
 RUS  HN ES        634 18.10                             140   -0.1810  104 175 
 RUS  HZ I         634 20.07         9.9 0.28            144            104 175 
 CPBEREZ EP        634  2.96                             130   -0.35 9  147 257 
 CPBEREN ES        634 23.35                             130   -0.29 9  147 257 
 OCA  HZ EP        634  3.96                             128   -0.47 9  157 354 
 OCA  HN ES        634 25.51                             128   -0.12 9  157 354 
 OCA  HZ I         634 28.99        34.0 0.28            129            157 354 
 ZAR  HZ EP        634  8.68                             120   -0.06 9  201 291 
 ZAR  HN ES        634 34.29                             120    0.99 9  201 291 
 ZAR  HZ I         634 39.61        16.5 0.54            120            201 291 
 NOR  HE ES        634 39.54                             116   -0.42 8  235 234 
 NOR  HZ I         634 45.77         9.6 0.18            117            235 234 
 SML  HZ EP        634 12.11                             116   -0.78 8  240 335 
 SML  HE ES        634 40.20                             116   -0.48 8  240 335 
 SML  HZ I         634 48.68        14.1 0.10            116            240 335 
 HEL  HZ EP        634 18.51                             113    1.64 8  271 255 
 HEL  HE ES        634 47.53                             113   -0.24 8  271 255 
 HEL  HZ I         634 54.62         5.6 0.30            113            271 255 
 CBOC HZ EP        634 24.03                             108    0.34 7  333 251 
 CBOC HN ES        634 59.82                             108   -0.10 7  333 251 
 CBOC HZ I         635 11.69         2.0 0.40            109            333 251 
                                                                                
