 2017  224 0705 20.2 L   6.780 -73.118146.7  RSN  7 0.3 1.4LRSN                1
 GAP=141        0.92       4.1     6.5  6.1 -0.6128E+01 -0.6351E+01  0.7208E+01E
 Epicentro: LOS SANTOS - SANTANDER                                             3
 ACTION:UPD 17-05-24 15:40 OP:jn   STATUS:               ID:20170224070520 L   I
 OLDACT:UP  17-02-24 16:18 OP:edw  STATUS:               ID:20170224065742     3
 OLDACT:REG 17-02-24 12:45 OP:edw  STATUS:               ID:20170224065742     3
 2017-02-24-0658-00M.COL___388                                                 6
 STAT SP IPHASW D HRMM SECON CODA AMPLIT PERI AZIMU VELO AIN AR TRES W  DIS CAZ7
 BAR2 EZ EP        7 5 39.64                             171   -0.2610 22.0 199 
 BAR2 EZ ES        7 5 55.30                             171    0.0210 22.0 199 
 BAR2 EZ I         7 5 56.07         8.6 0.24            166           22.0 199 
 BRR  HZ EP        7 5 41.62                             152   -0.0310 75.0 299 
 BRR  HN ES        7 5 58.52                             152    0.1310 75.0 299 
 BRR  HZ I         7 5 58.95         5.2 0.32            148           75.0 299 
 PAM  EZ EP        7 5 42.64                             151    0.1510 77.2  37 
 PAM  EN ES        7 5 59.44                             151   -0.4410 77.2  37 
 PAM  EZ I         7 6  1.08         4.8 0.40            154           77.2  37 
 RUS  HZ EP        7 5 43.98                             144    0.1210 98.2 178 
 RUS  HN ES        7 6  2.87                             144    0.5510 98.2 178 
 RUS  HZ I         7 6  4.33         5.7 0.40            142           98.2 178 
 PTB  HZ EP   9    7 5 46.77                             132   -0.70 0  150 260 
 PTB  HN ES        7 6  7.38                             131   -0.67 9  150 260 
 PTB  HZ I         7 6 10.95         3.3 0.30            128            150 260 
 CHI  HZ EP        7 5 58.02                             117    0.22 8  247 196 
 CHI  HN ES        7 6 26.53                             117   -0.60 8  247 196 
 CHI  HZ I         7 6 34.96         1.4 0.32            115            247 196 
 CBOC HZ EP   4    7 6  8.69                             110    1.29 0  336 253 
 CBOC HN ES   4    7 6 45.14                             110    0.92 0  336 253 
 CBOC HZ I         7 6 53.42         0.6 0.32            108            336 253 
                                                                                
