 2012  724 0747 45.7 L   6.123 -73.818 97.4  RSN  4 0.2 1.4LRSN                1
 GAP=196        0.55       4.3     3.0  7.5  0.4181E+01  0.2118E+01  0.8741E+01E
 Epicentro: EL PEON - SANTANDER                                                3
 ACTION:UPD 12-08-14 11:45 OP:ep   STATUS:               ID:20120724074745 L   I
 2012-07-24-0740-00M.COL___215                                                 6
 STAT SP IPHASW D HRMM SECON CODA AMPLIT PERI AZIMU VELO AIN AR TRES W  DIS CAZ7
 PTB  HZ EP        748  2.80                             136    -0.110   84 303 
 PTB  HN ES   1    748 16.46                             136     0.0 7   84 303 
 PTB  HZ I         748 16.73         5.5 0.14            136             84 303 
 RUS  HZ EP        748  3.81                             136     0.110   85 107 
 RUS  HZ I         748  4.20         5.2 0.10            136             85 107 
 RUS  HN ES   2    748 17.94                             136     0.2 5   85 107 
 BAR2 SZ EP        748  3.47                             135     0.010   87  54 
 BAR2 SZ ES   1    748 17.07                             135    -0.4 7   87  54 
 BAR2 SZ I         748 18.89        15.2 0.42            134             87  54 
 BRR  HZ EP        748  5.25                             128     0.010  109   6 
 BRR  HZ I         748  6.89         4.4 0.34            127            109   6 
 BRR  HN ES   1    748 20.83                             128     0.3 7  109   6 
