 2012  124 0531 18.7 L   6.770 -73.118148.2  RSN  8 0.3 1.6LRSN                1
 GAP=141        0.70       3.3     4.6  5.9 -0.3017E+01  0.3508E+01 -0.2174E+01E
 Epicentro: LOS SANTOS - SANTANDER                                             3
 ACTION:UP  12-02-03 08:20 OP:REBC STATUS:               ID:20120124053118 L   I
 2012-01-24-0530-00M.COL___187                                                 6
 STAT SP IPHASW D HRMM SECON CODA AMPLIT PERI AZIMU VELO SNR AR TRES W  DIS CAZ7
 BAR2 SZ EP        531 38.59                             172     0.110   21 200 
 BAR2 SZ I         531 38.93         9.3 0.11                            21 200 
 BAR2 SZ ES   1    531 54.42                             172     0.4 7   21 200 
 BRR  HZ EP        531 40.44                             152     0.110   76 300 
 BRR  HE ES   1    531 57.60                             152     0.4 7   76 300 
 BRR  HZ I         532  0.13        14.9 0.15                            76 300 
 PAM  SZ EP   1    531 41.19                             151     0.0 7   78  36 
 PAM  SN ES   1    531 58.30                             151    -0.4 7   78  36 
 RUS  HZ EP   1    531 42.43                             145     0.0 7   97 178 
 RUS  HE ES   1    532  0.73                             145    -0.2 7   97 178 
 RUS  HZ I         532  2.47         4.1 0.36                            97 178 
 PTB  HZ EP   1    531 45.56                             132    -0.5 7  150 260 
 PTB  HE ES   1    532  6.95                             132    -0.5 7  150 260 
 OCA  SZ EP        531 47.81                             129     0.3 9  164 352 
 OCA  SZ ES   1    532  9.76                             129    -0.3 7  164 352 
 OCA  SZ I         532 14.34         4.7 0.24                           164 352 
 NOR  SN ES   2    532 22.91                             119     0.3 4  235 236 
 CHI  HN ES   2    532 25.73                             118     0.2 4  246 196 
 CHI  HZ I         532 35.73         1.9 0.29                           246 196 
                                                                                
