 2011 1224 0750 31.9 L   6.779 -73.071135.8  RSN  7 0.2 1.8LRSN                1
 GAP=147        0.49       2.5     4.1  4.2 -0.5569E+00  0.2443E+01 -0.1249E+01E
 Epicentro: LOS SANTOS - SANTANDER                                             3
 ACTION:UPD 12-07-13 16:18 OP:ep   STATUS:               ID:20111224075031 L   I
 2011-12-24-0750-00M.COL___189                                                 6
 STAT SP IPHASW D HRMM SECON CODA AMPLIT PERI AZIMU VELO AIN AR TRES W  DIS CAZ7
 BAR2 SZ EP        750 50.31                             169   -0.0110 24.0 211 
 BAR2 SZ ES   1    751  4.34                             169   -0.37 7 24.0 211 
 BAR2 SZ I         751  6.34        15.4 0.29                          24.0 211 
 GIR2 SZ EP        750 50.47                             164   -0.0310 35.8 338 
 PAM  SZ EP        750 52.93                             150    0.0810 74.4  34 
 PAM  SN ES   1    751  9.21                             150    0.00 7 74.4  34 
 BRR  HZ EP        750 52.24                             148   -0.2410 79.6 297 
 BRR  HN ES   1    751  8.89                             148    0.35 7 79.6 297 
 BRR  HZ I         751 10.54        22.3 0.18                          79.6 297 
 RUS  HZ EP   1    750 54.32                             142   -0.15 7 98.0 181 
 RUS  HN ES   1    751 12.44                             142    0.35 7 98.0 181 
 RUS  HZ I         751 14.54         4.8 0.41                          98.0 181 
 OCA  SZ EP   1    751  0.08                             127    0.31 7  164 350 
 OCA  SZ ES   1    751 21.43                             127   -0.10 7  164 350 
 OCA  SZ I         751 24.09        11.7 0.26                           164 350 
 HEL  HZ EP   1    751 12.43                             112   -0.01 6  280 257 
 HEL  HZ I         751 50.76         3.1 0.62                           280 257 
                                                                                
