 2016 1024 0437 28.0 L   6.707 -73.546106.1  RSN  9 0.5 1.5LRSN                1
 GAP= 78        1.37       3.6     5.7  7.7 -0.7032E+01  0.5181E+01  0.2807E+01E
 Epicentro: EL CARMEN - SANTANDER                                              3
 ACTION:UPD 16-11-09 19:22 OP:rebc STATUS:               ID:20161024043728 L   I
 OLDACT:REG 16-10-24 13:43 OP:cara STATUS:               ID:20161024042746     3
 2016-10-24-0428-00M.COL___356                                                 6
 STAT SP IPHASW D HRMM SECON CODA AMPLIT PERI AZIMU VELO AIN AR TRES W  DIS CAZ7
 BAR2 EZ IP        437 43.64                             157    0.0210 42.2 107 
 BAR2 EZ ES        437 55.89                             157    0.1010 42.2 107 
 BAR2 EZ I         437 56.58        26.7 0.18            156           42.2 107 
 BRR  HZ IP        437 43.57                             153    0.0110 47.9 338 
 BRR  HE ES        437 56.37                             153    0.6810 47.9 338 
 BRR  HZ I         437 57.01         9.2 0.12            154           47.9 338 
 PTB  HZ IP   9    437 46.66                             132   -0.96 0  102 260 
 PTB  HN ES        438  0.98                                   -0.9710  102 260 
 PTB  HZ I         438  2.80         6.8 0.10            132            102 260 
 RUS  HZ EP        437 47.74                             132   -0.6510  104 150 
 RUS  HN ES        438  3.78                             132   -0.4910  104 150 
 RUS  HZ I         438  6.21         6.2 0.34            132            104 150 
 PAM  EZ EP        437 49.19                             128   -0.4210  117  53 
 PAM  EN ES        438  7.10                             128    0.6510  117  53 
 PAM  EZ I         438  9.46         3.1 0.32            128            117  53 
 SPBC HZ EP        437 50.00                             125   -0.4010  130 207 
 SPBC HN ES        438  7.42                             125   -0.4310  130 207 
 SPBC HZ I         438 13.59         6.2 0.28            124            130 207 
 OCA  HZ EP        437 54.70                             117   -0.08 9  171   8 
 OCA  HN ES        438 15.21                             117   -0.44 9  171   8 
 OCA  HZ I         438 21.79         8.7 0.40            116            171   8 
 CHI  HZ EP        438  2.65                             109    0.88 8  231 185 
 CHI  HN ES        438 28.86                             109    0.76 8  231 185 
 CHI  HZ I         438 34.65         1.5 0.30            108            231 185 
 GUY2CHZ EP   4    438  6.18                             106    0.96 0  260 231 
 GUY2CHN ES        438 34.55                             106    0.31 8  260 231 
 GUY2CHZ I         438 40.87         1.6 0.36                           260 231 
                                                                                
