 2013 1124 0321 49.4 L   6.707 -73.085143.5  RSN  4 0.4 1.4LRSN                1
 GAP=272        0.78       7.6     9.8 10.5 -0.4470E+02 -0.2630E+02  0.3173E+02E
 Epicentro: JORDAN - SANTANDER                                                 3
 ACTION:UPD 14-01-09 16:30 OP:ep   STATUS:               ID:20131124032149 L   I
 OLDACT:REG 13-11-24 12:50 OP:mh   STATUS:               ID:20131124031837     3
 2013-11-24-0318-37M.COL___241                                                 6
 STAT SP IPHASW D HRMM SECON CODA AMPLIT PERI AZIMU VELO AIN AR TRES W  DIS CAZ7
 BRR  HZ EP        322 11.17                             149    0.2110 82.2 303 
 BRR  HN ES   1    322 28.21                             149    0.43 7 82.2 303 
 BRR  HZ I         322 30.03         6.1 0.23            142           82.2 303 
 PTB  HZ EP        322 16.71                             131    0.07 9  153 263 
 PTB  HN ES   1    322 37.14                             131   -0.75 7  153 263 
 PTB  HZ I         322 39.52         3.6 0.13            127            153 263 
 OCA  HN ES        322 41.04                             127   -0.33 9  171 351 
 ZAR  HZ EP        322 22.69                             121   -0.07 8  214 294 
 ZAR  HN ES   1    322 49.20                             121    0.42 6  214 294 
 ZAR  HZ I         322 53.58         1.9 0.10            118            214 294 
                                                                                
