 2010 1224 0941 19.2 L   6.757 -73.166134.3  RSN  8 0.3 2.2LRSN                1
 GAP=134        0.67       2.8     4.3  5.7 -0.4373E+01  0.9064E+01  0.4732E-01E
 Epicentro: LOS SANTOS - SANTANDER                                             3
 ACTION:UP  11-01-14 15:26 OP:pat  STATUS:               ID:20101224094119 L   I
 2010-12-24-0940-00M.COL___132                                                 6
 STAT SP IPHASW D HRMM SECON CODA AMPLIT PERI AZIMU VELO SNR AR TRES W  DIS CAZ7
 BAR2 SZ EP        941 37.23                             172    -0.210   18 186 
 BAR2 SZ ES   1    941 51.67                             172     0.1 7   18 186 
 BAR2 SZ I         941 53.89        41.1 0.37                            18 186 
 RUS  HZ EP   1    941 41.21                             143    -0.3 7   96 175 
 RUS  HN ES   1    941 59.17                             143     0.2 7   96 175 
 RUS  HZ I         942  1.05        19.4 0.34                            96 175 
 GRA  SZ EP        941 44.24                             133     0.310  131  18 
 GRA  SZ ES   1    942  3.25                             133     0.0 7  131  18 
 GRA  SZ I         942  5.57        33.7 0.47                           131  18 
 OCA  SZ ES   1    942  8.61                             126    -0.3 7  165 354 
 OCA  SZ I         942 11.43        22.0 0.30                           165 354 
 YOP  SZ EP   1    941 48.06                             124    -0.1 7  176 152 
 YOP  SZ I         942 15.77        11.0 0.48                           176 152 
 NOR  SZ EP        941 53.86                             116     0.0 8  230 235 
 NOR  SN ES   1    942 20.62                             116    -0.2 6  230 235 
 HEL  HZ EP   1    941 59.18                             113     0.6 6  269 257 
 HEL  HE ES   1    942 28.99                             113    -0.2 6  269 257 
 HEL  HZ I         942 35.69         9.7 0.18                           269 257 
 PRA  HZ EP   1    942 11.23                             105    -0.5 4  387 210 
 PRA  HN ES   1    942 53.40                             105     0.6 4  387 210 
                                                                                
