 2015  524 0721 59.7 L   6.823 -73.091150.6  RSN 20 0.4 2.2LRSN                1
 GAP=123        0.83       2.2     3.4  4.3 -0.6437E+00  0.2911E+01  0.8382E+00E
 Epicentro: LOS SANTOS - SANTANDER                                             3
 ACTION:UPD 15-09-10 22:06 OP:cam  STATUS:               ID:20150524072159 L   I
 OLDACT:UP  15-05-24 17:41 OP:spq  STATUS:               ID:20150524071735     3
 OLDACT:REG 15-05-24 12:35 OP:spq  STATUS:               ID:20150524071735     3
 2015-05-24-0717-35M.COL___291                                                 6
 STAT SP IPHASW D HRMM SECON CODA AMPLIT PERI AZIMU VELO AIN AR TRES W  DIS CAZ7
 BAR2 EZ EP     D  722 20.10                             169    0.1110 27.5 201 
 BAR2 EZ ES   1    722 35.36                             169   -0.47 7 27.5 201 
 BAR2 EZ I         722 36.71        27.2 0.20            166           27.5 201 
 PAM  SN ES   1    722 40.06                             153    0.48 7 71.6  37 
 PAM  SZ I         722 42.40        31.4 0.47            157           71.6  37 
 BRR  HZ EP        722 22.00                             152    0.3910 75.4 295 
 BRR  HN ES        722 39.27                             152    0.5810 75.4 295 
 BRR  HZ I         722 42.43        17.6 0.22            149           75.4 295 
 RUS  HZ EP        722 24.07                             144   -0.0210  103 179 
 RUS  HN ES        722 43.10                             144   -0.0210  103 179 
 RUS  HZ I         722 44.40        12.0 0.30            145            103 179 
 OCA  HZ EP        722 28.11                             131   -0.12 9  159 351 
 OCA  HE ES        722 50.29                             131   -0.19 9  159 351 
 OCA  HZ I         722 54.15        45.0 0.20            132            159 351 
 SPBC HZ EP        722 29.10                             129   -0.02 9  169 220 
 SPBC HN ES        722 51.37                             129   -0.69 9  169 220 
 SPBC HZ I         722 57.20        39.2 0.24            129            169 220 
 ZAR  HZ EP        722 32.86                             123   -0.08 8  209 291 
 ZAR  HE ES        722 58.43                             123   -0.43 8  209 291 
 ZAR  HZ I         723  3.65        14.4 0.42            122            209 291 
 NOR  HZ EP        722 36.38                             119   -0.01 8  241 235 
 NOR  HN ES        723  4.63                             119   -0.38 8  241 235 
 NOR  HZ I         723 12.03        13.9 0.20            119            241 235 
 SML  HZ EP        722 36.29                             118   -0.33 8  244 334 
 SML  HE ES   1    723  5.35                             118   -0.08 6  244 334 
 SML  HZ I         723  9.67        16.7 0.07            119            244 334 
 CHI  HZ EP   1    722 38.37                             118    0.26 6  253 196 
 CHI  HN ES   1    723  8.06                             118   -0.01 6  253 196 
 CHI  HZ I         723 13.25         6.5 0.40            118            253 196 
 ROSC BZ EP   1    722 39.68                             117    1.02 6  258 212 
 ROSC BE ES        723  9.32                             117    0.27 8  258 212 
 ROSC BZ I         723 17.91        19.0 0.40            117            258 212 
 HEL  HZ EP   4    722 42.32                             115    1.45 0  279 256 
 HEL  HE ES        723 13.16                             115    0.17 7  279 256 
 HEL  HZ I         723 18.71         7.0 0.38            115            279 256 
 LL2C HN ES   4    723 19.46                             113    2.17 0  305 353 
 GUY2CHZ EP   1    722 44.99                             113    0.74 5  308 235 
 GUY2CHE ES   4    723 21.49                             113    2.49 0  308 235 
 GUY2CHZ I         723 26.84         8.6 0.44                           308 235 
 PTGC HZ EP        722 43.14                             112   -0.67 7  309 160 
 PTGC HN ES   4    723 16.70                             112   -1.51 0  309 160 
 PTGC HZ I         723 19.15         7.9 0.72            114            309 160 
 CBOC HZ EP        722 48.06                             110    0.50 7  340 252 
 CBOC HN ES   1    723 24.52                             110   -0.37 5  340 252 
 CBOC HZ I         723 31.54         2.8 0.26            110            340 252 
 MON  HZ EP   4    722 47.31                             109   -1.94 0  357 307 
 MON  HN ES   4    723 26.17                             109   -1.73 0  357 307 
 MON  HZ I         723 30.77         2.0 0.37            110            357 307 
 ANIL HE ES   4    723 31.69                             109    1.76 0  363 225 
 ANIL HZ I         723 34.30        17.6 0.46            109            363 225 
 ORTC HZ EP        722 54.59                             107    0.15 6  401 217 
 ORTC HN ES   4    723 38.32                             107    1.18 0  401 217 
 ORTC HZ I         723 44.59         4.5 0.60            107            401 217 
 SJC  HZ EP   4    722 54.26                             106   -1.30 0  410 326 
 SJC  HN ES   4    723 35.85                             106   -3.28 0  410 326 
 SJC  HZ I         723 39.80         3.2 0.42            107            410 326 
 CRJC HZ EP   4    723  0.36                             104   -1.63 0  465   3 
 CRJC HN ES   1    723 49.85                             104   -0.73 4  465   3 
 CRJC HZ I         723 56.23         6.0 0.40            105            465   3 
                                                                                
