 2017  824 0350 54.7 L   6.757 -73.125144.7  RSN  5 0.4 1.3LRSN                1
 GAP=141        0.83       4.2     6.1  6.5 -0.3472E+01 -0.3815E+00  0.2125E+01E
 Epicentro: LOS SANTOS - SANTANDER                                             3
 ACTION:UPD 17-09-04 20:23 OP:rebc STATUS:               ID:20170824035054 L   I
 OLDACT:UP  17-08-24 14:47 OP:and  STATUS:               ID:20170824034741     3
 OLDACT:REG 17-08-24 12:46 OP:and  STATUS:               ID:20170824034741     3
 2017-08-24-0348-00M.COL___419                                                 6
 STAT SP IPHASW D HRMM SECON CODA AMPLIT PERI AZIMU VELO AIN AR TRES W  DIS CAZ7
 BAR2 EZ EP        351 14.05                             172   -0.0410 19.3 199 
 BAR2 EZ ES        351 28.73                             172   -0.5210 19.3 199 
 BAR2 EZ I         351 30.30        12.2 0.38            162           19.3 199 
 BRR  HZ IP     C  351 15.84                             151   -0.1210 75.6 301 
 BRR  HN ES        351 33.04                             151    0.4810 75.6 301 
 BRR  HZ I         351 33.66         4.4 0.10            138           75.6 301 
 PAM  EZ EP        351 16.81                             150   -0.1010 79.7  36 
 PAM  EN ES        351 34.22                             150   -0.0410 79.7  36 
 PAM  EZ I         351 35.79         2.2 0.24            145           79.7  36 
 RUS  HZ EP        351 17.91                             145   -0.0510 95.7 177 
 RUS  HN ES        351 36.61                             145    0.4810 95.7 177 
 RUS  HZ I         351 37.88         1.9 0.19            132           95.7 177 
 SPBC HZ EP   2    351 23.28                             129    0.41 5  161 221 
 SPBC HZ I         351 43.59         3.7 0.10            116            161 221 
 SPBC HN ES   2    351 44.08                             129   -0.80 5  161 221 
                                                                                
