 2010  624 0345  8.3 L   5.743 -73.910105.9  RSN 11 0.5 1.8LRSN                1
 GAP=130        1.15       4.0     6.6 11.8 -0.1505E+02  0.2356E+02 -0.1671E+02E
 Epicentro: ALBANIA - SANTANDER                                                3
 ACTION:UP  10-08-24 10:12 OP:vdl  STATUS:               ID:20100624034508 L   I
 2010-06-24-0342-52S.COL___118                                                 6
 STAT SP IPHASW D HRMM SECON CODA AMPLIT PERI AZIMU VELO SNR AR TRES W  DIS CAZ7
 ROSC BZ EP        345 29.83                             131     0.810  110 205 
 ROSC BN ES   1    345 45.80                             131     0.5 7  110 205 
 ROSC BZ I         345 49.22        13.3 0.38                           110 205 
 BAR2 SZ EP        345 30.14                             127     0.010  124  41 
 BAR2 SZ ES   1    345 46.73                             127    -0.5 7  124  41 
 CHI  HZ EP        345 30.06                             127    -0.510  125 171 
 CHI  HZ I         345 30.90         8.2 0.14                           125 171 
 CHI  HN ES   1    345 47.70                             127    -0.2 7  125 171 
 BRR  HZ EP        345 32.36                             120    -0.4 9  152   8 
 BRR  HN ES   1    345 52.08                             120     0.1 7  152   8 
 HEL  HZ EP        345 37.12                             115     0.2 9  186 286 
 HEL  HN ES   2    345 58.72                             115    -0.5 4  186 286 
 HEL  HZ I         346  2.78         5.1 0.54                           186 286 
 TOL  SZ EP        345 38.32                             113    -0.4 9  202 231 
 PRA  HZ EP        345 42.98                             107    -0.7 8  249 206 
 PRA  HN ES   3    346 10.93                             107    -0.4 2  249 206 
 PRA  HZ I         346 15.18         5.0 0.35                           249 206 
 BRI  SZ EP   2    345 45.04                             107     1.0 4  251  29 
 BRI  SZ ES   1    346 11.77                             107    -0.2 6  251  29 
 GUE  SZ EP        345 45.70                             107     0.9 8  255  25 
 GRA  SZ EP   2    345 46.05                             106     0.2 4  267  27 
 OCA  SZ EP        345 47.93                             105     0.0 7  284  13 
 OCA  SZ I         346 24.28         6.2 0.26                           284  13 
                                                                                
