 2017  524 0258 59.9 L   6.770 -73.176143.6  RSN  4 0.4 1.6LRSN                1
 GAP=134        0.98       5.3     5.0  8.7 -0.2949E+01  0.3560E+01  0.6034E+01E
 Epicentro: LOS SANTOS - SANTANDER                                             3
 ACTION:UPD 17-06-16 13:38 OP:jn   STATUS:               ID:20170524025859 L   I
 OLDACT:UP  17-06-02 13:53 OP:nlst STATUS:               ID:20170524025859 L   3
 OLDACT:REG 17-05-24 13:03 OP:ar   STATUS:               ID:20170524025716     3
 2017-05-24-0258-00M.COL___341                                                 6
 STAT SP IPHASW D HRMM SECON CODA AMPLIT PERI AZIMU VELO AIN AR TRES W  DIS CAZ7
 BRR  HZ EP        259 20.91                             153    0.2010 70.0 302 
 BRR  HN ES        259 37.52                             153    0.5610 70.0 302 
 BRR  HZ I         259 42.07        11.0 0.40            153           70.0 302 
 PAM  EZ EP        259 22.19                             149    0.0510 82.1  40 
 PAM  EN ES        259 39.06                             149   -0.4510 82.1  40 
 PAM  EZ I         259 40.94        10.9 0.40            152           82.1  40 
 RUS  HZ EP        259 23.64                             144    0.4610 97.6 174 
 RUS  HN ES        259 41.25                             144   -0.1210 97.6 174 
 RUS  HZ I         259 42.37         5.6 0.24            148           97.6 174 
 PTB  HZ EP        259 25.84                             132   -0.46 9  144 260 
 PTB  HN ES        259 46.56                             132   -0.35 9  144 260 
 PTB  HZ I         259 49.29         3.9 0.26            134            144 260 
                                                                                
