 2011  624 0907 28.6 L   6.782 -73.174146.3  RSN  7 0.3 1.5LRSN                1
 GAP=178        0.65       4.8     6.4  7.4 -0.3010E+01 -0.3773E+00  0.5357E+01E
 Epicentro: LOS SANTOS - SANTANDER                                             3
 ACTION:UP  11-07-14 19:07 OP:ep   STATUS:               ID:20110624090728 L   I
 2011-06-24-0904-58S.COL___140                                                 6
 STAT SP IPHASW D HRMM SECON CODA AMPLIT PERI AZIMU VELO SNR AR TRES W  DIS CAZ7
 BTL  SZ EP   1    9 7 48.18                             172     0.0 7   18 326 
 BAR2 SZ EP   1    9 7 48.12                             172    -0.1 7   21 183 
 BAR2 SZ ES   1    9 8  3.11                             172    -0.4 7   21 183 
 BAR2 SZ I         9 8  5.64         6.8 0.33                            21 183 
 GIR2 SZ EP        9 7 48.16                             166    -0.210   33 356 
 BRR  HZ EP   1    9 7 49.81                             153     0.1 7   70 301 
 BRR  HN ES   1    9 8  6.59                             153     0.4 7   70 301 
 BRR  HZ I         9 8 10.43         7.6 0.05                            70 301 
 RUS  HZ EP   1    9 7 52.55                             144     0.3 7   99 174 
 RUS  HN ES   2    9 8 11.01                             144     0.3 5   99 174 
 RUS  HZ I         9 8 11.77         4.1 0.22                            99 174 
 NOR  SN ES   1    9 8 31.17                             119    -0.3 6  231 234 
 CHI  HN ES   2    9 8 35.40                             117     0.2 4  246 195 
 CHI  HZ I         9 8 39.78         2.5 0.42                           246 195 
                                                                                
