 2016  324 0119 56.1 L   6.490 -73.591109.4  RSN  5 0.4 1.3LRSN                1
 GAP=134        0.77       5.4     4.2  7.2  0.1384E+02  0.9139E+01 -0.5059E+01E
 Epicentro: SANTA HELENA DEL OPON - SANTANDER                                  3
 ACTION:UPD 16-05-13 21:26 OP:cam  STATUS:               ID:20160324011956 L   I
 OLDACT:DUP 16-03-24 13:36 OP:ak   STATUS:               ID:20160324010747d    3
 OLDACT:REG 16-03-24 12:20 OP:ak   STATUS:               ID:20160324010746     3
 2016-03-24-0107-46M.COL___308                                                 6
 STAT SP IPHASW D HRMM SECON CODA AMPLIT PERI AZIMU VELO AIN AR TRES W  DIS CAZ7
 BAR2 EZ EP   2    120 12.06                             155   -0.25 5 46.6  76 
 BAR2 EZ ES        120 24.75                             155   -0.1810 46.6  76 
 BAR2 EZ I         120 26.60        10.1 0.26            156           46.6  76 
 RUS  HZ EP        120 15.64                             139    0.3010 86.8 140 
 RUS  HN ES        120 30.54                             139    0.2010 86.8 140 
 RUS  HZ I         120 32.57         1.4 0.58            142           86.8 140 
 PTB  HZ EP        120 14.84                             135   -0.6010 95.8 273 
 PTB  HN ES        120 30.48                             135   -0.0210 95.8 273 
 PTB  HZ I         120 32.02         4.2 0.16            137           95.8 273 
 ZAR  HZ EP   2    120 24.26                             116    0.60 4  179 308 
 ZAR  HN ES        120 45.51                             116    0.37 9  179 308 
 ZAR  HZ I         120 48.97         3.8 0.48            118            179 308 
 MON  HZ EP   2    120 41.62                             102   -0.86 3  341 318 
 MON  HE ES        121 18.76                             102    0.13 7  341 318 
 MON  HZ I         121 21.46         0.8 0.36            103            341 318 
                                                                                
