 2010  524 0205 59.1 L   6.803 -73.026144.0  RSN  7 0.5 1.9LRSN                1
 GAP=187        0.95       6.8    11.3 17.9 -0.4910E+02 -0.8360E+01  0.6990E+02E
 Epicentro: CEPITA - SANTANDER                                                 3
 ACTION:UP  10-08-24 10:06 OP:vdl  STATUS:               ID:20100524020559 L   I
 2010-05-24-0202-55S.COL___111                                                 6
 STAT SP IPHASW D HRMM SECON CODA AMPLIT PERI AZIMU VELO SNR AR TRES W  DIS CAZ7
 GUE  SZ EP        2 6 23.22                             140    -0.310  114   6 
 GRA  SZ EP        2 6 23.99                             138     0.110  122  12 
 GRA  SZ ES   1    2 6 43.43                             138     0.2 7  122  12 
 OCA  SZ ES   1    2 6 49.62                             129     0.0 7  162 348 
 CHI  HN ES   1    2 7  6.87                             117     0.0 6  253 198 
 CHI  HZ I         2 7 11.32         3.1 0.89                           253 198 
 HEL  HN ES   2    2 7 12.50                             114    -0.6 4  285 256 
 HEL  HZ I         2 7 19.25         2.7 0.48                           285 256 
 RREF BZ EP   1    2 6 47.79                             110     1.4 5  332 231 
 RREF BN ES   1    2 7 23.08                             110    -0.2 5  332 231 
 RREF BZ I         2 7 30.09         4.3 1.10                           332 231 
 PRA  HZ EP        2 6 52.59                             106    -0.8 6  399 211 
 PRA  HN ES        2 7 36.01                             106     0.3 6  399 211 
 PRA  HZ I         2 7 39.75         4.4 0.18                           399 211 
                                                                                
