 2014  224 0724 46.6 L   6.773 -73.143138.0  RSN 11 0.6 1.6LRSN                1
 GAP=105        1.33       5.0     4.0  7.4 -0.1825E+01  0.9591E+01  0.6422E+01E
 Epicentro: LOS SANTOS - SANTANDER                                             3
 ACTION:UPD 14-03-10 08:12 OP:ep   STATUS:               ID:20140224072446 L   I
 OLDACT:DUP 14-02-24 13:55 OP:stll STATUS:               ID:20140224071809d    3
 2014-02-24-0718-08M.COL___224                                                 6
 STAT SP IPHASW D HRMM SECON CODA AMPLIT PERI AZIMU VELO AIN AR TRES W  DIS CAZ7
 BAR2 SZ EP        725  5.44                             171    0.1710 20.5 192 
 BAR2 SZ ES        725 20.44                             171    0.6410 20.5 192 
 BAR2 SZ I         725 23.08        19.8 0.30            169           20.5 192 
 PAM  SZ EP        725  8.37                             149    0.2210 79.5  38 
 PAM  SN ES        725 25.27                             149    0.3310 79.5  38 
 PAM  SZ I         725 27.74         6.0 0.54            153           79.5  38 
 RUS  HZ EP        725  9.37                             143   -0.0310 97.6 176 
 RUS  HN ES        725 27.42                             143    0.2610 97.6 176 
 RUS  HZ I         725 28.82         3.5 0.24            144           97.6 176 
 PTB  HZ EP        725 12.08                             130   -0.87 9  148 260 
 PTB  HN ES        725 32.65                             130   -0.84 9  148 260 
 PTB  HZ I         725 37.85         6.5 0.10            132            148 260 
 TAM  HZ EP        725 13.66                             129    0.06 9  154 104 
 TAM  HZ I         725 13.89         4.4 0.40            132            154 104 
 TAM  HE ES        725 33.58                             129   -1.06 9  154 104 
 ZAR  HZ EP        725 18.72                             120   -0.01 8  206 293 
 ZAR  HN ES        725 43.62                             120   -0.15 8  206 293 
 NOR  HZ EP        725 21.84                             117    0.08 8  233 235 
 NOR  HN ES        725 48.64                             117   -0.53 8  233 235 
 NOR  HZ I         725 53.76         5.6 0.20            119            233 235 
 CHI  HZ EP        725 23.49                             116   -0.11 8  246 195 
 CHI  HN ES        725 52.29                             116   -0.15 8  246 195 
 CHI  HZ I         725 58.93         1.9 0.24            118            246 195 
 GUY2CHZ EP        725 30.77                             111    1.04 7  300 235 
 GUY2CHN ES        726  3.86                             111    0.52 7  300 235 
 GUY2CHZ I         726 12.06         4.4 0.38                           300 235 
 RREF HZ EP        725 33.64                             109    1.39 7  320 230 
 PRA  HZ EP        725 39.27                             105   -0.34 6  390 210 
                                                                                
