 2016  524 0906  3.2 L   6.750 -73.160150.0  RSN  4 0.4 1.4LRSN                1
 GAP=245        1.01       7.5     7.9  8.3 -0.8595E+01  0.5256E+01  0.1240E+02E
 Epicentro: LOS SANTOS - SANTANDER                                             3
 ACTION:UPD 16-08-18 17:49 OP:cam  STATUS:               ID:20160524085747dL   I
 OLDACT:DUP 16-05-24 18:18 OP:mh   STATUS:               ID:20160524085747dL   3
 2016-05-24-0857-46M.COL___289                                                 6
 STAT SP IPHASW D HRMM SECON CODA AMPLIT PERI AZIMU VELO AIN AR TRES W  DIS CAZ7
 BAR2 EZ EP        9 6 22.91                             173   -0.3510 17.7 188 
 BAR2 EZ ES        9 6 38.65                             173   -0.2410 17.7 188 
 BAR2 EZ I         9 6 48.48         2.6 0.42            168           17.7 188 
 BRR  HZ EP        9 6 25.17                             153    0.2610 72.6 303 
 BRR  HN ES        9 6 42.32                             153    0.5010 72.6 303 
 BRR  HZ I         9 6 47.24         4.9 0.40            163           72.6 303 
 PTB  HZ EP        9 6 29.90                             133   -0.41 9  145 261 
 PTB  HN ES        9 6 50.91                             133   -0.53 9  145 261 
 PTB  HZ I         9 6 52.45         3.3 0.16            142            145 261 
 SPBC HZ EP        9 6 32.03                             131    0.47 9  158 220 
 SPBC HN ES        9 6 53.98                             131    0.32 9  158 220 
 SPBC HZ I         9 7  1.11         6.1 0.18            137            158 220 
                                                                                
