 2011 1224 0950 45.6 L   6.802 -73.106144.1  RSN  6 0.1 1.8LRSN                1
 GAP=141        0.38       3.8     4.1  4.0 -0.4078E+01  0.2462E+01  0.1792E+01E
 Epicentro: LOS SANTOS - SANTANDER                                             3
 ACTION:UPD 12-07-13 16:18 OP:ep   STATUS:               ID:20111224095045 L   I
 2011-12-24-0950-00M.COL___189                                                 6
 STAT SP IPHASW D HRMM SECON CODA AMPLIT PERI AZIMU VELO AIN AR TRES W  DIS CAZ7
 BAR2 SZ EP        951  5.02                             170    0.0010 24.6 200 
 BAR2 SZ ES   1    951 20.21                             170    0.02 7 24.6 200 
 BAR2 SZ I         951 22.13        12.8 0.28                          24.6 200 
 GIR2 SZ EP   1    951  4.82                             167   -0.24 7 32.1 343 
 PAM  SZ EP        951  7.65                             151    0.2210 74.6  37 
 PAM  SE ES   1    951 24.31                             151   -0.18 7 74.6  37 
 BRR  HZ EP        951  6.71                             151   -0.0410 75.0 297 
 BRR  HN ES   2    951 23.51                             151    0.24 5 75.0 297 
 RUS  HZ EP   1    951  9.15                             143    0.00 7  101 179 
 HEL  HZ EP   2    951 26.08                             114   -0.09 4  276 256 
                                                                                
