 2011  524 0830 54.6 L   7.536 -73.138139.1  RSN  5 0.3 1.4LRSN                1
 GAP=119        0.84       7.0     7.3  8.4 -0.1065E+02  0.1219E+02  0.2083E+01E
 Epicentro: EL PLAYON - SANTANDER                                              3
 ACTION:UP  11-06-29 08:55 OP:tino STATUS:               ID:20110524083054 L   I
 2011-05-24-0825-44S.COL___139                                                 6
 STAT SP IPHASW D HRMM SECON CODA AMPLIT PERI AZIMU VELO SNR AR TRES W  DIS CAZ7
 BRI  SZ EP   1    831 14.20                             162     0.3 7   43  62 
 BRI  SZ ES   1    831 28.18                             162    -0.7 7   43  62 
 BRI  SZ I         831 33.26         4.9 0.30                            43  62 
 PAM  SZ EP   1    831 14.67                             158    -0.1 7   53 114 
 PAM  SN ES   1    831 30.56                             158     0.0 7   53 114 
 PAM  SZ I         831 32.27         2.0 0.23                            53 114 
 GRA  SZ EP   1    831 14.36                             158     0.1 7   53  44 
 GRA  SZ ES   1    831 30.26                             158     0.6 7   53  44 
 GRA  SZ I         831 31.32        10.8 0.28                            53  44 
 BRR  HZ EP   1    831 15.25                             149    -0.2 7   79 233 
 BRR  HN ES   1    831 31.98                             149     0.2 7   79 233 
 BRR  HZ I         831 33.03         7.9 0.16                            79 233 
 OCA  SZ EP   1    831 15.65                             148    -0.1 7   80 346 
 OCA  SZ ES   1    831 32.24                             148    -0.1 7   80 346 
 OCA  SZ I         831 34.70         7.5 0.26                            80 346 
                                                                                
