 2012  224 0801 43.6 L   6.793 -73.160138.9  RSN 10 0.4 1.9LRSN                1
 GAP=135        0.86       4.0     5.3  6.1 -0.3705E+01  0.9320E+01  0.3129E+01E
 ACTION:UP  12-03-07 16:33 OP:epov STATUS:               ID:20120224080143 L   I
 2012-02-24-0800-00M.COL___192                                                 6
 STAT SP IPHASW D HRMM SECON CODA AMPLIT PERI AZIMU VELO AIN AR TRES W  DIS CAZ7
 BAR2 SZ EP        8 2  2.31                             170   -0.0410 22.4 186 
 BAR2 SZ ES   1    8 2 16.70                             170   -0.30 7 22.4 186 
 BAR2 SZ I         8 2 19.30        33.2 0.25                          22.4 186 
 GIR2 SZ EP   1    8 2  2.41                             166   -0.02 7 31.8 353 
 GIR2 SZ ES   1    8 2 17.95                             166    0.80 7 31.8 353 
 BRR  HZ EP        8 2  4.22                             152    0.3110 70.2 300 
 BRR  HE ES   1    8 2 19.99                             152    0.20 7 70.2 300 
 PAM  SN ES   1    8 2 22.09                             149    0.10 7 79.0  40 
 PAM  SZ I         8 2 24.52        19.8 0.32                          79.0  40 
 RUS  HZ EP   1    8 2  6.73                             142    0.13 7100.0 175 
 RUS  HN ES   1    8 2 24.07                             142   -0.49 7100.0 175 
 RUS  HZ I         8 2 25.64         7.5 0.18                         100.0 175 
 PTB  HZ EP   1    8 2  9.12                             131   -0.70 7  146 259 
 PTB  HN ES   1    8 2 29.67                             131   -0.63 7  146 259 
 OCA  SZ EP   1    8 2 10.97                             128   -0.43 7  161 354 
 OCA  SZ ES   1    8 2 32.66                             128   -0.45 7  161 354 
 NOR  SZ EP   2    8 2 18.70                             117   -0.01 4  233 234 
 NOR  SN ES   1    8 2 46.63                             117    0.50 6  233 234 
 CHI  HZ EP   1    8 2 21.06                             116    0.30 6  248 195 
 CHI  HZ I         8 2 56.21         2.2 0.38                           248 195 
 HEL  HZ EP   1    8 2 24.07                             113    0.83 6  270 256 
 HEL  HZ I         8 3  1.33         7.0 0.48                           270 256 
                                                                                
