 2013  124 1004 25.6 L   6.782 -73.137151.9  RSN  7 0.4 1.4LRSN                1
 GAP=138        0.75       4.2     4.6  6.7  0.1601E+01  0.5347E+01  0.6564E+01E
 Epicentro: LOS SANTOS - SANTANDER                                             3
 ACTION:UPD 13-02-15 09:16 OP:ep   STATUS:               ID:20130124100425 L   I
 2013-01-24-1000-00M.COL___241                                                 6
 STAT SP IPHASW D HRMM SECON CODA AMPLIT PERI AZIMU VELO AIN AR TRES W  DIS CAZ7
 BAR2 SZ EP   1   10 4 45.88                             172   -0.04 7 21.5 193 
 BAR2 SZ ES   1   10 5  1.87                             172    0.09 7 21.5 193 
 BRR  HZ EP   1   10 4 47.92                             153    0.42 7 73.0 300 
 BRR  HN ES   1   10 5  4.97                             153    0.38 7 73.0 300 
 PAM  SZ EP   1   10 4 48.73                             152    0.22 7 78.4  38 
 PAM  SN ES   1   10 5  5.74                             152   -0.66 7 78.4  38 
 PAM  SZ I        10 5  8.11         5.3 0.56            157           78.4  38 
 RUS  HZ EP   1   10 4 49.74                             146   -0.06 7 98.5 177 
 RUS  HN ES   1   10 5  9.07                             146    0.38 7 98.5 177 
 PTB  HZ EP   1   10 4 52.74                             133   -0.37 7  148 260 
 PTB  HN ES   1   10 5 13.81                             133   -0.77 7  148 260 
 PTB  HZ I        10 5 19.55         4.4 0.48            131            148 260 
 ZAR  HN ES   1   10 5 24.79                             123    0.43 6  206 293 
 ZAR  HZ I        10 5 30.68         1.9 0.34            123            206 293 
 CHI  HZ EP   1   10 5  3.43                             119   -0.02 6  247 196 
 CHI  HN ES   1   10 5 32.92                             119   -0.06 6  247 196 
 CHI  HZ I        10 5 42.70         1.2 0.34            118            247 196 
                                                                                
