 2016  824 1449 32.8 L   6.292 -73.609108.4  RSN  6 0.3 1.7LRSN                1
 GAP=101        0.87       3.6     3.1  6.7 -0.3198E-01  0.8564E+01 -0.3595E+01E
 Epicentro: SANTA HELENA DEL OPON - SANTANDER                                  3
 ACTION:UPD 16-10-29 15:38 OP:rebc STATUS:               ID:20160824144932 L   I
 OLDACT:REG 16-08-24 20:44 OP:ar   STATUS:               ID:20160824144736     3
 2016-08-24-1448-00M.COL___374                                                 6
 STAT SP IPHASW D HRMM SECON CODA AMPLIT PERI AZIMU VELO AIN AR TRES W  DIS CAZ7
 BAR2 EZ IP     D 1449 49.83                             150    0.3710 57.7  55 
 BAR2 EZ ES       1450  2.74                             150    0.2510 57.7  55 
 BAR2 EZ I        1450  4.88        19.0 0.35                          57.7  55 
 RUS  HZ EP       1449 50.80                             144   -0.0510 73.1 127 
 RUS  HN ES       1450  4.69                             144   -0.2710 73.1 127 
 RUS  HZ I        1450  6.91         6.7 0.24                          73.1 127 
 SPBC HZ EP       1449 51.34                             138   -0.0510 87.4 216 
 SPBC HN ES       1450  5.96                             138    0.0410 87.4 216 
 SPBC HZ I        1450 11.84        11.1 0.26                          87.4 216 
 PTB  HZ EP       1449 51.45                             135   -0.7010 97.6 286 
 PTB  HE ES       1450  6.94                             135   -0.3310 97.6 286 
 PTB  HZ I        1450  9.80         6.2 0.14                          97.6 286 
 NOR  HZ EP       1449 58.58                             119    0.15 9  161 240 
 NOR  HN ES       1450 18.98                             119    0.52 9  161 240 
 NOR  HZ I        1450 22.73         8.6 0.70                           161 240 
 ZAR  HZ EP       1450  1.57                             114   -0.11 9  191 314 
 ZAR  HE ES       1450 24.57                             114    0.34 9  191 314 
 ZAR  HZ I        1450 26.66         8.0 0.12                           191 314 
                                                                                
