 2010  124 1640 57.8 L   6.787 -73.128153.0  RSN 19 0.5 4.8LRSN                1
 GAP=181        0.97       3.2     6.3  5.4 -0.4072E+01  0.1714E+02  0.2058E+01E
 Epicentro: LOS SANTOS - SANTANDER                                             3
 ACTION:UP  10-08-24 09:45 OP:vdl  STATUS:               ID:20100124164057 L   I
 2010-01-24-1639-18S.COL___095                                                 6
 STAT SP IPHASW D HRMM SECON CODA AMPLIT PERI AZIMU VELO SNR AR TRES W  DIS CAZ7
 BAR2 SZ IP       1641 18.18                             171    -0.110   22 196 
 BAR2 SZ ES       1641 33.59                             171    -0.710   22 196 
 GIR2 SZ ES       1641 35.36                             167     0.910   33 347 
 RUS  BZ IP       1641 22.08                             146    -0.110   99 177 
 RUS  BN ES       1641 41.06                             146    -0.110   99 177 
 RUS  BZ I        1641 42.71      3281.0 0.44                            99 177 
 OCA  SZ IP       1641 26.53                             131    -0.3 9  162 353 
 OCA  SZ ES       1641 49.35                             131    -0.1 9  162 353 
 OCA  SZ I        1641 57.40      9001.2 0.36                           162 353 
 CHI  HZ IP       1641 35.96                             119     0.2 8  248 196 
 CHI  HE ES       1642  5.82                             119     0.4 8  248 196 
 CHI  HZ I        1642  9.56      3623.2 0.55                           248 196 
 ROSC BE ES       1642  6.30                             118     0.0 8  253 212 
 ROSC BZ I        1642 12.96      5462.0 0.48                           253 212 
 HEL  HZ EP       1641 38.16                             116    -0.4 8  274 256 
 HEL  HE ES   1   1642 10.27                             116    -0.1 6  274 256 
 HEL  HZ I        1642 16.96      2414.2 0.36                           274 256 
 GUY  HZ EP       1641 42.59                             114     0.8 7  302 235 
 RREF BZ EP       1641 44.31                             112     0.0 7  322 230 
 RREF BE ES       1642 19.91                             112    -0.7 7  322 230 
 RREF BZ I        1642 30.49      2467.0 0.55                           322 230 
 DBB  SZ IP       1641 45.83                             111     0.0 7  342 274 
 TOL  SZ EP       1641 45.81                             111    -0.6 7  344 225 
 TOL  SZ ES   1   1642 24.46                             111     0.2 5  344 225 
 ANIL BZ EP   1   1641 48.69                             110     0.8 5  358 225 
 ANIL BZ I        1642 32.31      4185.5 0.49                           358 225 
 PRA  HZ IP       1641 51.53                             108     0.0 6  392 210 
 PRA  HE ES       1642 33.74                             108     0.3 6  392 210 
 PRA  HZ I        1642 38.45      2885.0 0.60                           392 210 
 GUA  SZ IP       1642  0.54                             104    -0.4 5  472 173 
 SOL  SZ EP   1   1642  1.93                             104     0.4 3  478 263 
 BET  SZ IP       1642  6.91                             103     0.1 4  521 210 
 BET  SZ I        1643 25.43       402.4 0.78                           521 210 
 MAL  SZ EP       1642 12.38                             102     1.3 3  558 237 
 MAL  SZ I        1642 15.56       690.5 0.72                           558 237 
 POP2 HZ EP       1642 17.63                             100    -0.3 3  613 220 
 POP2 HE ES   2   1643 20.77                             100     0.3 1  613 220 
 GCAL SZ EP   1   1642 38.16                              97     0.1 0  779 218 
 GCAL SZ ES   2   1643 56.51                              97     0.2 0  779 218 
                                                                                
