 2013  624 1011  8.0 L   6.677 -73.226151.6  RSN  5 0.4 1.4LRSN                1
 GAP=148        1.00       8.4     9.1 11.4  0.3239E+02 -0.1757E+02 -0.2359E+02E
 Epicentro: BARICHARA - SANTANDER                                              3
 ACTION:UPD 14-01-08 09:56 OP:ep   STATUS:               ID:20130624101108 L   I
 OLDACT:DUP 13-06-24 18:14 OP:carl STATUS:               ID:20130624100960d    3
 2013-06-24-1009-59M.COL___267                                                 6
 STAT SP IPHASW D HRMM SECON CODA AMPLIT PERI AZIMU VELO AIN AR TRES W  DIS CAZ7
 BAR2 SZ EP       1011 28.17                             176   -0.0110 10.5 153 
 BAR2 SZ ES       1011 43.31                             176   -0.5810 10.5 153 
 GIR2 SZ EP       1011 28.72                             163   -0.0910 44.6   5 
 BRR  HE ES       1011 47.38                             153    0.5210 71.8 312 
 RUS  HN ES       1011 50.23                             149    0.3810 88.1 170 
 RUS  HN I        1011 52.46         5.1 0.38            141           88.1 170 
 PTB  HN ES   1   1011 54.76                             136   -0.45 7  137 264 
 PTB  HZ I        1012  1.48         2.3 0.24            128            137 264 
                                                                                
