 2014  224 1101 37.6 L   6.801 -73.134144.0  RSN  6 0.3 1.4LRSN                1
 GAP=138        0.58       4.9     5.3  5.6  0.1546E+02 -0.4554E+00 -0.1000E+02E
 Epicentro: LOS SANTOS - SANTANDER                                             3
 ACTION:UPD 14-03-10 08:12 OP:ep   STATUS:               ID:20140224110137 L   I
 OLDACT:REG 14-02-24 16:39 OP:cam  STATUS:               ID:20140224105806     3
 2014-02-24-1058-06M.COL___217                                                 6
 STAT SP IPHASW D HRMM SECON CODA AMPLIT PERI AZIMU VELO AIN AR TRES W  DIS CAZ7
 BAR2 SZ EP       11 1 56.92                             171   -0.1210 23.7 193 
 BAR2 SZ ES       11 2 12.43                             171    0.2410 23.7 193 
 BAR2 SZ I        11 2 13.19        10.1 0.16            166           23.7 193 
 PAM  SZ EP   2   11 1 59.82                             151    0.23 5 76.5  39 
 RUS  HZ EP       11 2  0.89                             144   -0.3110  101 177 
 RUS  HN ES       11 2 19.65                             144    0.0610  101 177 
 RUS  HZ I        11 2 21.09         1.7 0.36            143            101 177 
 ZAR  HN ES       11 2 35.27                             122   -0.11 9  205 292 
 ZAR  HZ I        11 2 41.00         2.7 0.44            121            205 292 
 SML  HZ EP   1   11 2 14.26                             117    0.07 6  244 335 
 GUY2CHZ EP   2   11 2 22.28                             112    1.01 4  302 235 
                                                                                
