 2010  924 1423  2.6 L   7.540 -72.960150.0  RSN  5 0.5 1.8LRSN                1
 GAP=160        1.12      11.4    15.9 16.8 -0.7462E+02 -0.1132E+03  0.9524E+02E
 Epicentro: SURATA - SANTANDER                                                 3
 ACTION:UP  11-02-18 11:05 OP:tino STATUS:               ID:20100924142302 L   I
 2010-09-24-1420-12S.COL___119                                                 6
 STAT SP IPHASW D HRMM SECON CODA AMPLIT PERI AZIMU VELO SNR AR TRES W  DIS CAZ7
 GUE  SZ EP       1423 22.44                             167    -0.610   32   7 
 GRA  SZ ES   2   1423 39.96                             164     0.9 5   42  24 
 BRR  HZ EP       1423 25.83                             146     0.110   96 240 
 BRR  HN ES   1   1423 43.56                             146    -0.2 7   96 240 
 BRR  HZ I        1423 46.08        12.4 0.20                            96 240 
 BAR2 SZ EP       1423 27.21                             142     0.310  108 193 
 BAR2 SZ I        1423 49.40         9.5 0.11                           108 193 
 RUS  HZ EP       1423 34.07                             127     0.3 9  183 184 
 RUS  HZ I        1423 34.33         4.6 0.13                           183 184 
 RUS  HN ES   2   1423 57.21                             127    -0.9 4  183 184 
                                                                                
