 2012  924 1832 28.2 L   6.733 -73.150144.0  RSN  6 0.4 2.0LRSN                1
 GAP=139        0.77       5.2     5.0  8.2  0.3870E+00  0.2075E+01 -0.6009E+00E
 Epicentro: JORDAN - SANTANDER                                                 3
 ACTION:UPD 12-10-22 14:20 OP:ep   STATUS:               ID:20120924183228 L   I
 2012-09-24-1830-00M.COL___220                                                 6
 STAT SP IPHASW D HRMM SECON CODA AMPLIT PERI AZIMU VELO AIN AR TRES W  DIS CAZ7
 BAR2 SZ EP   1   1832 47.51                             173    0.05 7 16.0 193 
 BAR2 SZ ES   1   1833  2.35                             173   -0.16 7 16.0 193 
 BRR  HZ EP   1   1832 49.72                             151    0.39 7 74.6 304 
 BRR  HN ES   1   1833  6.59                             151    0.76 7 74.6 304 
 BRR  HN I        1833 14.40        28.1 0.16                          74.6 304 
 PAM  SZ EP   1   1832 50.34                             149   -0.24 7 83.5  37 
 PAM  SN ES   1   1833  7.72                             149   -0.33 7 83.5  37 
 PAM  SN I        1833  8.70        16.1 0.74                          83.5  37 
 RUS  HZ EP   1   1832 51.42                             146    0.19 7 93.3 175 
 RUS  HN ES   1   1833  9.26                             146    0.04 7 93.3 175 
 PTB  HN ES   1   1833 15.02                             132   -0.62 7  146 262 
 PTB  HN I        1833 20.83        10.7 0.26                           146 262 
 ZAR  HN ES   2   1833 25.67                             122   -0.51 4  207 294 
 ZAR  HN I        1833 33.50         8.0 0.12                           207 294 
                                                                                
