 2013  324 1755  1.0 L   6.775 -73.171140.2  RSN  9 0.5 2.3LRSN                1
 GAP=134        1.20       4.1     4.7  6.8 -0.1106E+01  0.7970E+01  0.2434E+01E
 Epicentro: LOS SANTOS - SANTANDER                                             3
 ACTION:UPD 13-04-09 14:04 OP:ep   STATUS:               ID:20130324175501 L   I
 2013-03-24-1750-00M.COL___245                                                 6
 STAT SP IPHASW D HRMM SECON CODA AMPLIT PERI AZIMU VELO AIN AR TRES W  DIS CAZ7
 BAR2 SZ EP       1755 19.90                             171    0.0110 20.3 183 
 BAR2 SZ ES       1755 34.29                             171   -0.3410 20.3 183 
 BAR2 SZ I        1755 36.34        34.4 0.12            170           20.3 183 
 BRR  HZ EP       1755 21.65                             152    0.1710 70.1 302 
 BRR  HN ES       1755 38.35                             152    0.9010 70.1 302 
 BRR  HN I        1755 39.50        52.0 0.18            149           70.1 302 
 PAM  SZ EP       1755 22.82                             148   -0.0410 81.3  40 
 PAM  SN ES       1755 39.52                             148   -0.4010 81.3  40 
 PAM  SN I        1755 41.08        25.4 0.54            152           81.3  40 
 RUS  HZ EP       1755 23.76                             143   -0.2610 98.1 174 
 RUS  HN ES       1755 42.06                             143    0.0910 98.1 174 
 RUS  HN I        1755 44.11        27.5 0.36            145           98.1 174 
 PTB  HZ EP       1755 26.60                             131   -0.61 9  144 260 
 PTB  HN ES       1755 47.21                             131   -0.44 9  144 260 
 PTB  HN I        1755 52.99        24.5 0.32            130            144 260 
 OCA  HZ EP       1755 30.13                             128    1.02 9  163 354 
 OCA  HN ES   4   1755 49.83                             128   -1.20 0  163 354 
 OCA  HN I        1755 55.11        33.5 0.32            129            163 354 
 ZAR  HZ EP       1755 32.17                             121   -0.75 9  202 293 
 ZAR  HN ES       1755 57.51                             121   -0.31 9  202 293 
 ZAR  HN I        1756  7.36        12.4 0.12            121            202 293 
 NOR  HZ EP       1755 36.07                             118    0.09 8  231 235 
 NOR  HE ES       1756  3.81                             118    0.54 8  231 235 
 NOR  HE I        1756  9.09        20.0 0.48            118            231 235 
 CHI  HZ EP       1755 38.19                             116    0.17 8  245 195 
 CHI  HN ES       1756  7.22                             116    0.32 8  245 195 
 CHI  HN I        1756 12.06        12.9 0.34            117            245 195 
                                                                                
