 2010  524 1735 13.4 L   6.814 -73.100146.5  RSN 15 0.5 3.4LRSN                1
 GAP=124        0.91       3.8     6.2  6.5 -0.1320E+02  0.7263E+01  0.4783E+01E
 Epicentro: LOS SANTOS - SANTANDER                                             3
 ACTION:UP  10-08-24 10:06 OP:vdl  STATUS:               ID:20100524173513 L   I
 2010-05-24-1733-30S.COL___111                                                 6
 STAT SP IPHASW D HRMM SECON CODA AMPLIT PERI AZIMU VELO SNR AR TRES W  DIS CAZ7
 BAR2 SZ IP       1735 33.26                             169     0.010   26 200 
 BAR2 SZ ES   1   1735 48.28                             169    -0.4 7   26 200 
 GUE  SZ EP       1735 37.94                             141    -0.110  114  10 
 GUE  SZ ES   2   1735 57.28                             141     0.1 5  114  10 
 GRA  SZ IP       1735 39.03                             138     0.510  123  15 
 GRA  SZ ES   1   1735 58.09                             138     0.0 7  123  15 
 OCA  SZ EP       1735 41.69                             130     0.0 9  159 351 
 OCA  SZ ES   2   1736  3.56                             130    -0.2 5  159 351 
 OCA  SZ I        1736  6.83       329.8 0.14                           159 351 
 CHI  HZ EP       1735 51.36                             117    -0.1 8  252 196 
 CHI  HE ES   1   1736 20.67                             117    -0.5 6  252 196 
 ROSC BZ EP       1735 52.76                             117     0.7 8  257 212 
 ROSC BE ES   2   1736 21.47                             117    -0.7 4  257 212 
 ROSC BZ I        1736 31.01       142.0 0.57                           257 212 
 CVER SZ EP       1735 54.73                             115     0.5 7  276 203 
 HEL  HZ EP       1735 53.90                             115    -0.4 7  277 256 
 HEL  HN ES   2   1736 26.04                             115    -0.1 4  277 256 
 HEL  HZ I        1736 33.00       108.5 0.40                           277 256 
 RREF BZ EP       1735 59.86                             111    -0.3 7  327 230 
 RREF BN ES   1   1736 37.07                             111     0.5 5  327 230 
 RREF BZ I        1736 43.00       139.0 0.21                           327 230 
 DBB  SZ EP       1736  1.12                             109    -0.4 7  344 274 
 SDV  BZ EP       1736  2.44                             109    -0.5 6  356  50 
 SDV  BZ I        1736  3.53        56.8 0.14                           356  50 
 MON  HE ES   3   1736 39.21                             109    -2.0 2  356 308 
 MON  HZ I        1736 53.63        55.6 0.49                           356 308 
 ANIL BZ EP       1736  4.24                             108     0.4 6  362 225 
 ANIL BE ES   1   1736 44.07                             108     1.0 5  362 225 
 ANIL BZ I        1736 47.49       223.6 0.25                           362 225 
 PRA  HZ EP   1   1736  6.73                             107    -0.7 4  396 210 
 PRA  HN ES   2   1736 48.83                             107    -0.7 3  396 210 
 PRA  HZ I        1736 55.64       143.8 0.41                           396 210 
 GUA  SZ EP       1736 15.76                             103    -1.0 5  475 174 
                                                                                
