 2011 1224 1620 51.7 L   6.791 -73.172154.6  RSN  6 0.4 1.5LRSN                1
 GAP=134        0.82       6.1     6.1  7.7 -0.6054E+00  0.1012E+02  0.9485E+01E
 Epicentro: LOS SANTOS - SANTANDER                                             3
 ACTION:UPD 12-07-13 16:18 OP:ep   STATUS:               ID:20111224162051 L   I
 2011-12-24-1620-00M.COL___190                                                 6
 STAT SP IPHASW D HRMM SECON CODA AMPLIT PERI AZIMU VELO AIN AR TRES W  DIS CAZ7
 BAR2 SZ EP   1   1621 12.25                             172   -0.11 7 22.0 183 
 BAR2 SZ I        1621 12.64        10.5 0.11                          22.0 183 
 BAR2 SZ ES   1   1621 28.20                             172   -0.28 7 22.0 183 
 GIR2 SZ EP   1   1621 12.49                             168    0.06 7 31.9 356 
 GIR2 SZ ES   1   1621 28.67                             168    0.06 7 31.9 356 
 BRR  HZ EP   1   1621 14.22                             155    0.53 7 69.2 300 
 BRR  HN ES   1   1621 31.57                             155    0.72 7 69.2 300 
 BRR  HZ I        1621 34.05         8.0 0.14                          69.2 300 
 PAM  SN ES   1   1621 32.65                             152   -0.54 7 80.0  41 
 RUS  HZ EP   1   1621 16.47                             146    0.20 7 99.8 174 
 RUS  HN ES   1   1621 35.69                             146    0.25 7 99.8 174 
 RUS  HZ I        1621 36.61         1.8 0.54                          99.8 174 
 PTB  HZ EP   1   1621 18.70                             135   -0.43 7  145 259 
 PTB  HN ES   1   1621 39.94                             135   -0.59 7  145 259 
                                                                                
