 2012  224 1349 19.7 L   6.797 -73.108149.9  RSN 11 0.4 2.5LRSN                1
 GAP=141        0.65       3.6     4.7  4.9 -0.3126E+01  0.5877E+01  0.5453E+01E
 ACTION:UP  12-03-07 16:33 OP:epov STATUS:               ID:20120224134919 L   I
 2012-02-24-1348-59S.COL___196                                                 6
 STAT SP IPHASW D HRMM SECON CODA AMPLIT PERI AZIMU VELO AIN AR TRES W  DIS CAZ7
 BAR2 SZ EP   1   1349 39.60                             170   -0.25 7 24.0 200 
 BAR2 SZ ES   1   1349 54.94                             170   -0.62 7 24.0 200 
 BAR2 SZ I        1350  1.86        83.0 0.97                          24.0 200 
 GIR2 SZ EP   1   1349 39.63                             167   -0.28 7 32.6 343 
 GIR2 SZ ES   2   1349 55.95                             167    0.29 5 32.6 343 
 BRR  HZ EP   1   1349 41.64                             152    0.12 7 75.0 297 
 BRR  HE ES   1   1349 59.09                             152    0.55 7 75.0 297 
 BRR  HZ I        1350  0.43        46.4 0.55                          75.0 297 
 PAM  SZ EP   1   1349 42.55                             152    0.31 7 75.1  37 
 PAM  SN ES   1   1349 59.85                             152    0.05 7 75.1  37 
 RUS  HZ EP   1   1349 43.99                             145    0.16 7  100 178 
 RUS  HE ES   1   1350  2.84                             145    0.20 7  100 178 
 PTB  HZ EP   1   1349 46.72                             132   -0.66 7  152 259 
 PTB  HE ES   2   1350  8.35                             132   -0.61 5  152 259 
 NOR  SZ EP   1   1349 55.83                             119   -0.19 6  238 235 
 NOR  SN ES   2   1350 25.11                             119    0.77 4  238 235 
 CHI  HZ EP   1   1349 57.67                             118   -0.05 6  249 196 
 CHI  HN ES   1   1350 27.48                             118    0.11 6  249 196 
 HEL  HZ EP   2   1350  1.10                             115    0.53 4  276 256 
 RREF HZ EP   2   1350  6.57                             111    0.20 3  325 230 
 PRA  HZ EP   1   1350 13.75                             107    0.17 4  394 210 
 PRA  HN ES   2   1350 56.09                             107    0.49 3  394 210 
                                                                                
