 2012  224 1215 28.1 L   6.769 -73.190145.4  RSN  5 0.4 1.3LRSN                1
 GAP=174        0.68       7.8     7.9  8.4  0.2061E+02  0.1343E+02  0.1302E+02E
 ACTION:UP  12-03-07 16:33 OP:epov STATUS:               ID:20120224121528 L   I
 2012-02-24-1210-00M.COL___192                                                 6
 STAT SP IPHASW D HRMM SECON CODA AMPLIT PERI AZIMU VELO AIN AR TRES W  DIS CAZ7
 BAR2 SZ EP   1   1215 47.72                             172    0.08 7 19.5 177 
 BAR2 SZ ES   2   1216  1.93                             172   -0.93 5 19.5 177 
 BAR2 SZ I        1216  4.16         6.1 0.26                          19.5 177 
 GIR2 SZ EP   2   1215 47.69                             166   -0.15 5 34.3 359 
 GIR2 SZ ES   2   1216  3.26                             166    0.04 5 34.3 359 
 BRR  HZ EP   1   1215 49.38                             153    0.28 7 68.7 303 
 BRR  HE ES   2   1216  5.86                             153    0.40 5 68.7 303 
 RUS  HZ EP   1   1215 51.93                             145    0.30 7 97.6 173 
 RUS  HE ES   2   1216 10.16                             145    0.20 5 97.6 173 
 RUS  HZ I        1216 12.34         2.9 0.34                          97.6 173 
 PTB  HZ EP   1   1215 53.92                             133   -0.65 7  142 260 
 PTB  HN ES   2   1216 15.47                             133    0.27 5  142 260 
                                                                                
