 2011  424 1959 24.4 L   6.784 -73.137140.4  RSN 16 0.5 2.9LRSN                1
 GAP=115        1.12       4.3     6.2  6.7 -0.1165E+02  0.4129E+01  0.6290E+01E
 Epicentro: LOS SANTOS - SANTANDER                                             3
 ACTION:UP  11-06-22 15:33 OP:REBC STATUS:               ID:20110424195924 L   I
 2011-04-24-1958-27S.COL___138                                                 6
 STAT SP IPHASW D HRMM SECON CODA AMPLIT PERI AZIMU VELO SNR AR TRES W  DIS CAZ7
 BTL  SZ EP       1959 43.50                             171     0.210   21 316 
 BAR2 SZ EP   1   1959 43.27                             171    -0.1 7   22 193 
 BAR2 SZ ES   1   1959 58.43                             171     0.3 7   22 193 
 BAR2 SZ I        1959 59.59       274.1 0.26                            22 193 
 GIR2 SZ EP   1   1959 42.47                             166    -1.0 7   33 349 
 GIR2 SZ ES   1   1959 57.80                             166    -0.6 7   33 349 
 BRR  HZ IP     C 1959 45.29                             151     0.210   73 299 
 BRR  HN ES   1   20 0  2.16                             151     1.0 7   73 299 
 BRR  HZ I        20 0  6.80       317.0 0.15                            73 299 
 PAM  SZ EP       1959 46.21                             149     0.110   78  38 
 PAM  SZ I        1959 46.53       132.0 0.18                            78  38 
 PAM  SN ES   1   20 0  3.05                             149     0.0 7   78  38 
 RUS  HZ EP   1   1959 46.94                             143    -0.6 7   99 177 
 RUS  HN ES   1   20 0  5.21                             143    -0.3 7   99 177 
 RUS  HZ I        20 0  6.91       123.5 0.41                            99 177 
 BRI  SZ IP       1959 48.04                             140     0.210  110  20 
 BRI  SZ ES   1   20 0  5.96                             140    -0.2 7  110  20 
 GRA  SZ IP       1959 49.35                             135     0.110  127  17 
 GRA  SZ ES   1   20 0  9.12                             135     0.4 7  127  17 
 GRA  SZ I        20 0  9.70       125.6 0.27                           127  17 
 OCA  SZ EP   1   1959 51.79                             128    -0.7 7  162 353 
 YOP  SZ EP   1   1959 54.06                             125     0.2 7  177 153 
 YOP  SZ I        20 0 20.60        41.7 0.31                           177 153 
 NOR  SZ EP   1   1959 59.86                             117     0.1 6  234 235 
 NOR  SN ES   1   20 0 26.51                             117    -0.9 6  234 235 
 CHI  HZ EP   1   20 0  1.33                             116    -0.3 6  247 195 
 CHI  HN ES   1   20 0 31.25                             116     0.5 6  247 195 
 ROSC BZ EP   1   20 0  3.03                             116     0.9 6  252 211 
 ROSC BZ I        20 0 39.70        33.5 0.51                           252 211 
 HEL  HN ES   1   20 0 35.15                             114    -0.5 6  273 256 
 HEL  HZ I        20 0 41.95        18.9 0.26                           273 256 
 TOL  SZ EP   1   20 0 13.25                             108     0.9 5  343 225 
 PRA  HZ EP   1   20 0 17.76                             106     0.1 4  391 210 
 PRA  HZ I        20 1  4.46        67.8 0.31                           391 210 
                                                                                
