 2017  124 1352 38.7 L   6.513 -73.597114.0  RSN  4 0.3 1.1LRSN                1
 GAP=131        0.77       4.8     4.0  7.5  0.6974E+01  0.8998E+01  0.5561E+01E
 Epicentro: SANTA HELENA DEL OPON - SANTANDER                                  3
 ACTION:UPD 17-05-22 16:02 OP:jn   STATUS:               ID:20170124135238 L   I
 OLDACT:REG 17-01-24 20:51 OP:dnl  STATUS:               ID:20170124134744     3
 2017-01-24-1348-00M.COL___343                                                 6
 STAT SP IPHASW D HRMM SECON CODA AMPLIT PERI AZIMU VELO AIN AR TRES W  DIS CAZ7
 BAR2 EZ EP       1352 55.35                             156   -0.0710 46.7  79 
 BAR2 EZ ES       1353  7.96                             156   -0.5010 46.7  79 
 BRR  HZ EP       1352 56.19                             147   -0.0510 66.9 349 
 BRR  HN ES       1353 10.37                             147    0.4510 66.9 349 
 BRR  HZ I        1353 17.93         6.2 0.40            150           66.9 349 
 RUS  HZ EP   2   1352 58.98                             140    0.42 5 89.1 140 
 RUS  HE ES       1353 14.34                             140    0.3010 89.1 140 
 RUS  HZ I        1353 17.78         1.5 0.38            147           89.1 140 
 PTB  HZ IP     D 1352 58.19                             137   -0.1910 95.1 272 
 PTB  HN ES       1353 13.67                             137   -0.0510 95.1 272 
 PTB  HZ I        1353 15.52         2.3 0.40            144           95.1 272 
                                                                                
