 2016 1024 1039  9.3 L   6.820 -73.105147.8  RSN  6 0.4 1.3LRSN                1
 GAP=243        0.92       5.8     5.9  7.5  0.4675E+01  0.1052E+02  0.6722E+01E
 Epicentro: LOS SANTOS - SANTANDER                                             3
 ACTION:UPD 16-11-09 19:22 OP:rebc STATUS:               ID:20161024103909 L   I
 OLDACT:UP  16-10-25 01:20 OP:cog  STATUS:               ID:20161024102744     3
 OLDACT:UP  16-10-25 01:18 OP:cog  STATUS:               ID:20161024102744     3
 OLDACT:UP  16-10-25 01:18 OP:cog  STATUS:               ID:20161024102744     3
 OLDACT:UP  16-10-24 22:42 OP:cog  STATUS:               ID:20161024102744     3
 OLDACT:REG 16-10-24 19:56 OP:cog  STATUS:               ID:20161024102744     3
 2016-10-24-1028-00M.COL___359                                                 6
 STAT SP IPHASW D HRMM SECON CODA AMPLIT PERI AZIMU VELO AIN AR TRES W  DIS CAZ7
 BAR2 EZ EP       1039 29.01                             170   -0.1910 26.6 199 
 BAR2 EZ ES       1039 44.64                             170   -0.1210 26.6 199 
 BRR  HZ EP       1039 31.35                             152    0.5510 74.2 295 
 BRR  HN ES       1039 47.80                             152    0.2010 74.2 295 
 RUS  HZ EP   2   1039 33.12                             144   -0.23 5  103 179 
 RUS  HN ES       1039 52.26                             144    0.1110  103 179 
 RUS  HZ I        1039 53.46         1.3 0.24            142            103 179 
 PTB  HZ EP   2   1039 36.14                             131   -0.69 5  153 258 
 PTB  HN ES       1039 57.62                             131   -0.71 9  153 258 
 PTB  HZ I        1040  0.42         3.0 0.12            131            153 258 
 SPBC HZ EP       1039 38.14                             129   -0.20 9  168 220 
 SPBC HN ES   2   1040  1.08                             129    0.05 5  168 220 
 SPBC HZ I        1040  3.84         5.9 0.04            128            168 220 
 NOR  HN ES       1040 14.65                             118    0.65 8  240 235 
                                                                                
