 2012  224 1520 15.3 L   6.749 -73.135153.3  RSN  6 0.4 1.5LRSN                1
 GAP=187        0.74       6.7     6.0  7.0  0.1397E+01  0.6875E+01  0.1382E+02E
 ACTION:UP  12-03-07 16:33 OP:epov STATUS:               ID:20120224152015 L   I
 2012-02-24-1520-00M.COL___193                                                 6
 STAT SP IPHASW D HRMM SECON CODA AMPLIT PERI AZIMU VELO AIN AR TRES W  DIS CAZ7
 BAR2 SZ EP   1   1520 35.73                             173   -0.04 7 18.1 197 
 BAR2 SZ ES   1   1520 51.26                             173   -0.46 7 18.1 197 
 BAR2 SZ I        1520 52.46         8.6 0.29                          18.1 197 
 GIR2 SZ EP   1   1520 35.87                             165   -0.18 7 37.1 350 
 GIR2 SZ ES   1   1520 52.28                             165    0.06 7 37.1 350 
 BRR  HZ EP   1   1520 37.70                             152    0.20 7 75.1 302 
 BRR  HZ I        1520 37.81        12.0 0.15                          75.1 302 
 BRR  HN ES   1   1520 55.48                             152    0.67 7 75.1 302 
 RUS  HZ EP   1   1520 39.47                             147    0.04 7 94.8 177 
 RUS  HE ES   2   1520 58.61                             147    0.38 5 94.8 177 
 RUS  HZ I        1520 59.53         2.3 0.31                          94.8 177 
 PTB  HZ EP   1   1520 42.68                             134   -0.25 7  148 261 
 PTB  HN ES   1   1521  3.76                             134   -0.71 7  148 261 
 NOR  SZ EP   2   1520 51.95                             120    0.69 4  232 236 
 NOR  SE ES   2   1521 19.84                             120    0.55 4  232 236 
                                                                                
