 2013 1224 1719 35.0 L   7.560 -73.069155.1  RSN  9 0.5 2.0LRSN                1
 GAP=141        1.00       3.6     5.4  7.5  0.2240E+01  0.7160E+01 -0.5206E+00E
 Epicentro: EL PLAYON - SANTANDER                                              3
 ACTION:UPD 14-01-13 10:20 OP:ep   STATUS:               ID:20131224171935 L   I
 OLDACT:REG 13-12-24 14:40 OP:jn   STATUS:               ID:20131224171547     3
 2013-12-24-1715-47M.COL___241                                                 6
 STAT SP IPHASW D HRMM SECON CODA AMPLIT PERI AZIMU VELO AIN AR TRES W  DIS CAZ7
 PAM  SZ EP       1719 57.01                             162    0.1910 47.5 121 
 PAM  SN ES       1720 13.57                             162   -0.2610 47.5 121 
 OCA  HZ EP       1719 58.16                             151    0.2610 80.0 340 
 OCA  HN ES       1720 15.99                             151    0.2510 80.0 340 
 OCA  HZ I        1720 18.75        17.0 0.12            153           80.0 340 
 BRR  HZ EP       1719 58.49                             149    0.4010 86.9 235 
 BRR  HN ES       1720 16.30                             149    0.2110 86.9 235 
 BRR  HZ I        1720 19.77        19.1 0.18            147           86.9 235 
 BAR2 SZ ES   1   1720 19.38                             144    0.18 7  108 187 
 BAR2 SZ I        1720 23.38        27.4 0.30            143            108 187 
 SML  HZ EP       1720  4.95                             129   -0.39 9  176 321 
 SML  HN ES       1720 28.48                             129   -0.51 9  176 321 
 SML  HZ I        1720 35.86        29.5 0.28            130            176 321 
 RUS  HZ EP   1   1720  6.80                             128    0.02 7  184 181 
 RUS  HN ES   1   1720 30.37                             128   -1.19 7  184 181 
 RUS  HZ I        1720 39.19         1.9 0.34            128            184 181 
 PTB  HN ES   1   1720 30.73                             126   -0.74 7  190 234 
 PTB  HZ I        1720 34.93         9.9 0.14            126            190 234 
 ZAR  HE ES   1   1720 32.96                             125    0.23 6  198 268 
 SPBC HE ES   1   1720 41.16                             120    0.78 6  238 208 
 SPBC HZ I        1720 47.68         5.5 0.34            120            238 208 
 SJC  HZ EP   4   1720 23.06                             111   -0.71 0  347 318 
                                                                                
