 2012  824 1503 59.9 L   6.792 -73.148147.7  RSN  8 0.4 2.0LRSN                1
 GAP=137        0.77       3.9     4.2  6.1 -0.2229E+01  0.4264E+01  0.5220E+01E
 Epicentro: LOS SANTOS - SANTANDER                                             3
 ACTION:UPD 12-09-10 11:58 OP:ep   STATUS:               ID:20120824150359 L   I
 2012-08-24-1500-00M.COL___218                                                 6
 STAT SP IPHASW D HRMM SECON CODA AMPLIT PERI AZIMU VELO AIN AR TRES W  DIS CAZ7
 BAR2 SZ EP       15 4 19.74                             171   -0.0410 22.4 190 
 BAR2 SZ ES   1   15 4 35.10                             171   -0.16 7 22.4 190 
 BAR2 SZ I        15 4 36.45        60.6 0.23                          22.4 190 
 BRR  HZ EP       15 4 21.64                             153    0.3310 71.4 299 
 BRR  HZ I        15 4 21.84        25.9 0.14                          71.4 299 
 BRR  HN ES   1   15 4 38.74                             153    0.76 7 71.4 299 
 PAM  SZ EP       15 4 22.54                             151    0.1310 78.3  39 
 PAM  SE ES   1   15 4 39.68                             151   -0.26 7 78.3  39 
 PAM  SZ I        15 4 42.29        11.0 0.51                          78.3  39 
 RUS  HZ EP       15 4 23.67                             144   -0.1510 99.7 176 
 RUS  HZ I        15 4 24.44         7.8 0.26                          99.7 176 
 RUS  HN ES   1   15 4 42.25                             144   -0.20 7 99.7 176 
 PTB  HZ EP       15 4 26.53                             133   -0.49 9  147 259 
 PTB  HE ES   1   15 4 47.53                             133   -0.62 7  147 259 
 PTB  HZ I        15 4 55.25        10.6 0.40                           147 259 
 ZAR  HE ES   2   15 4 57.72                             123   -0.21 4  204 292 
 NOR  SZ EP   1   15 4 35.89                             119    0.19 6  234 235 
 NOR  SN ES   1   15 5  3.73                             119    0.14 6  234 235 
 NOR  SZ I        15 5  7.81         5.5 0.15                           234 235 
 CHI  HZ EP   1   15 4 37.78                             118    0.14 6  248 195 
 CHI  HN ES   1   15 5  7.76                             118    0.71 6  248 195 
 CHI  HZ I        15 5  9.59         4.8 0.25                           248 195 
                                                                                
