 2012  924 1207 35.6 L   6.767 -73.155142.7  RSN  7 0.4 2.0LRSN                1
 GAP=137        0.79       5.0     4.6  7.3  0.1088E+01  0.4170E+01  0.1746E+00E
 Epicentro: LOS SANTOS - SANTANDER                                             3
 ACTION:UPD 12-10-22 14:20 OP:ep   STATUS:               ID:20120924120735 L   I
 2012-09-24-1200-00M.COL___221                                                 6
 STAT SP IPHASW D HRMM SECON CODA AMPLIT PERI AZIMU VELO AIN AR TRES W  DIS CAZ7
 BAR2 SZ ES   1   12 8  9.56                             172   -0.18 7 19.6 189 
 BAR2 SZ I        12 8 11.05        24.8 0.22                          19.6 189 
 GIR2 SZ EP       12 7 54.85                             166   -0.1410 34.7 353 
 GIR2 SZ ES   1   12 8  9.98                             166   -0.15 7 34.7 353 
 BRR  HZ EP   1   12 7 56.74                             152    0.29 7 72.1 301 
 BRR  HN ES   1   12 8 13.53                             152    0.80 7 72.1 301 
 PAM  SZ EP   1   12 7 57.81                             149    0.13 7 80.9  39 
 PAM  SZ I        12 7 58.04        23.1 0.24                          80.9  39 
 PAM  SN ES   1   12 8 14.56                             149   -0.37 7 80.9  39 
 RUS  HZ EP   1   12 7 58.78                             144    0.00 7 97.1 175 
 RUS  HN ES   1   12 8 17.20                             144    0.33 7 97.1 175 
 PTB  HN ES   1   12 8 22.09                             132   -0.77 7  146 260 
 PTB  HN I        12 8 24.34         7.6 0.26                           146 260 
 ZAR  HE ES   1   12 8 33.14                             122    0.09 6  204 293 
 ZAR  HN I        12 8 40.19         9.2 0.36                           204 293 
                                                                                
