 2013  224 1923  0.5 L   6.160 -73.696105.9  RSN  6 0.3 1.4LRSN                1
 GAP=114        0.62       2.8     3.5  6.8  0.4283E+01  0.7245E+01  0.2548E+01E
 Epicentro: LANDAZURI - SANTANDER                                              3
 ACTION:UPD 13-03-12 09:35 OP:ep   STATUS:               ID:20130224192300 L   I
 2013-02-24-1920-00M.COL___225                                                 6
 STAT SP IPHASW D HRMM SECON CODA AMPLIT PERI AZIMU VELO AIN AR TRES W  DIS CAZ7
 RUS  HZ EP       1923 18.43                             143    0.0410 74.0 114 
 RUS  HN ES   1   1923 32.05                             143   -0.32 7 74.0 114 
 RUS  HZ I        1923 33.32         2.8 0.34            148           74.0 114 
 PTB  HZ EP   1   1923 18.82                             135   -0.51 7 94.0 297 
 PTB  HE ES   1   1923 33.81                             135   -0.24 7 94.0 297 
 PTB  HZ I        1923 37.36         7.5 0.36            136           94.0 297 
 BRR  HZ EP       1923 20.31                             131    0.0410  105 359 
 BRR  HE ES   1   1923 36.27                             131    0.56 7  105 359 
 CHI  HZ EP   1   1923 27.39                             117    0.05 7  169 181 
 CHI  HN ES   1   1923 48.59                             117    0.30 7  169 181 
 CHI  HZ I        1923 55.59         4.0 0.38            118            169 181 
 ZAR  HZ EP       1923 29.62                             113   -0.09 9  195 319 
 ZAR  HE ES   1   1923 52.53                             113    0.01 6  195 319 
 ZAR  HZ I        1923 54.69         6.8 0.10            116            195 319 
 HEL  HN ES   2   1923 55.39                             112    0.57 4  203 271 
 HEL  HZ I        1923 58.72         2.0 0.32            114            203 271 
                                                                                
