 2010  524 1850 59.8 L   6.775 -73.071146.4  RSN  9 0.4 2.4LRSN                1
 GAP=148        0.60       4.0     6.9  5.9 -0.1945E+02 -0.7146E+01  0.9988E+01E
 Epicentro: LOS SANTOS - SANTANDER                                             3
 ACTION:UP  10-08-24 10:06 OP:vdl  STATUS:               ID:20100524185059 L   I
 2010-05-24-1849-54S.COL___111                                                 6
 STAT SP IPHASW D HRMM SECON CODA AMPLIT PERI AZIMU VELO SNR AR TRES W  DIS CAZ7
 BAR2 SZ EP       1851 19.52                             170     0.010   24 212 
 BAR2 SZ ES   2   1851 34.45                             170    -0.4 5   24 212 
 GUE  SZ EP       1851 24.82                             140     0.210  118   8 
 GUE  SZ ES   1   1851 43.81                             140    -0.2 7  118   8 
 GRA  SZ EP       1851 25.32                             137     0.210  126  13 
 GRA  SZ ES   1   1851 45.03                             137     0.2 7  126  13 
 OCA  SZ EP   2   1851 28.24                             129    -0.3 5  164 350 
 OCA  SZ ES   2   1851 50.59                             129    -0.3 5  164 350 
 OCA  SZ I        1851 54.84        28.7 0.33                           164 350 
 CHI  HZ EP       1851 37.69                             117     0.2 8  248 197 
 CHI  HE ES   3   1852  6.55                             117    -0.3 2  248 197 
 HEL  HZ EP   2   1851 39.91                             114    -0.9 4  279 257 
 HEL  HZ I        1852 17.38        11.3 0.62                           279 257 
 RREF BZ EP   2   1851 46.00                             111    -0.5 3  326 231 
 RREF BN ES   1   1852 23.34                             111     0.5 5  326 231 
 RREF BZ I        1852 30.52        13.2 0.22                           326 231 
 SDV  BZ EP       1851 48.91                             109    -0.4 6  356  49 
 SDV  BZ I        1852 28.30         4.5 0.41                           356  49 
 PRA  HZ EP   1   1851 53.27                             107    -0.2 4  394 211 
 PRA  HE ES   3   1852 34.12                             107    -1.3 1  394 211 
 PRA  HZ I        1852 40.69         8.6 0.15                           394 211 
                                                                                
