 2010 1224 1214 57.8 L   6.788 -73.103147.3  RSN 10 0.4 2.4LRSN                1
 GAP=164        0.69       3.0     6.0  6.0 -0.8423E+01  0.1434E+02 -0.1037E+01E
 Epicentro: LOS SANTOS - SANTANDER                                             3
 ACTION:UP  11-01-14 15:26 OP:pat  STATUS:               ID:20101224121457 L   I
 2010-12-24-1210-06S.COL___133                                                 6
 STAT SP IPHASW D HRMM SECON CODA AMPLIT PERI AZIMU VELO SNR AR TRES W  DIS CAZ7
 BAR2 SZ IP       1215 17.55                             171     0.010   23 202 
 BAR2 SZ I        1215 18.12        53.4 0.32                            23 202 
 BAR2 SZ ES   1   1215 33.55                             171     0.5 7   23 202 
 RUS  HZ IP     C 1215 21.40                             145    -0.110   99 179 
 RUS  HE ES   1   1215 39.72                             145    -0.4 7   99 179 
 RUS  HZ I        1215 41.41        21.9 0.35                            99 179 
 GRA  SZ IP       1215 23.36                             137     0.210  126  15 
 GRA  SZ ES   1   1215 43.08                             137     0.2 7  126  15 
 GRA  SZ I        1215 44.04        41.0 0.29                           126  15 
 OCA  SZ EP   1   1215 26.10                             130    -0.3 7  162 352 
 OCA  SZ ES   1   1215 48.24                             130    -0.4 7  162 352 
 OCA  SZ I        1215 53.88        30.4 0.31                           162 352 
 NOR  SZ EP   2   1215 33.27                             118    -0.7 4  238 235 
 NOR  SN ES   2   1216  1.75                             118    -0.4 4  238 235 
 CHI  HZ EP   2   1215 35.44                             117    -0.1 4  249 196 
 CHI  HE ES   2   1216  4.35                             117    -0.7 4  249 196 
 CHI  HZ I        1216 14.69        10.5 0.31                           249 196 
 ROSC BZ EP   2   1215 36.61                             117     0.5 4  254 212 
 ROSC BZ I        1216 12.52        21.4 0.44                           254 212 
 HEL  HZ EP   2   1215 38.27                             115    -0.2 4  276 256 
 HEL  HN ES   2   1216 10.36                             115     0.0 4  276 256 
 HEL  HZ I        1216 14.97         9.3 0.66                           276 256 
 RREF HZ EP   1   1215 44.84                             111     0.6 5  325 230 
 RREF HE ES   1   1216 20.94                             111     0.4 5  325 230 
 RREF HZ I        1216 29.20        15.8 0.34                           325 230 
 PRA  HZ EP   1   1215 51.75                             107     0.3 4  393 210 
 PRA  HE ES   1   1216 33.60                             107     0.2 4  393 210 
 PRA  HZ I        1216 37.74        28.8 0.22                           393 210 
                                                                                
