 2017  224 1200 16.2 L   6.791 -73.137146.3  RSN  7 0.3 1.4LRSN                1
 GAP=138        0.80       3.3     3.6  5.3  0.1027E+01  0.3576E+01  0.4191E+01E
 Epicentro: LOS SANTOS - SANTANDER                                             3
 ACTION:UPD 17-05-24 15:40 OP:jn   STATUS:               ID:20170224120016 L   I
 OLDACT:REG 17-02-24 20:33 OP:lv   STATUS:               ID:20170224115747     3
 2017-02-24-1158-00M.COL___379                                                 6
 STAT SP IPHASW D HRMM SECON CODA AMPLIT PERI AZIMU VELO AIN AR TRES W  DIS CAZ7
 BAR2 EZ EP       12 0 35.75                             171   -0.1210 22.5 193 
 BAR2 EZ ES       12 0 50.73                             171   -0.4810 22.5 193 
 BAR2 EZ I        12 0 53.44         6.7 0.23            169           22.5 193 
 BRR  HZ EP       12 0 37.62                             152    0.1510 72.5 299 
 BRR  HN ES       12 0 54.67                             152    0.6010 72.5 299 
 BRR  HZ I        12 1  0.95         7.2 0.15            153           72.5 299 
 PAM  EZ EP       12 0 38.57                             151    0.1010 77.6  38 
 PAM  EN ES       12 0 55.85                             151   -0.0010 77.6  38 
 PAM  EZ I        12 0 57.84         3.6 0.19            155           77.6  38 
 RUS  HZ EP       12 0 39.78                             144   -0.1410 99.5 177 
 RUS  HN ES       12 0 58.53                             144    0.1110 99.5 177 
 RUS  HZ I        12 0 59.31         2.3 0.28            145           99.5 177 
 PTB  HZ EP       12 0 42.77                             132   -0.50 9  149 259 
 PTB  HE ES       12 1  4.13                             132   -0.26 9  149 259 
 PTB  HZ I        12 1  6.57         5.3 0.11            133            149 259 
 ZAR  HE ES       12 1 14.27                             122    0.03 8  205 292 
 CHI  HZ EP       12 0 54.06                             117    0.22 8  248 195 
 CHI  HN ES       12 1 23.66                             117    0.46 8  248 195 
 CHI  HZ I        12 1 31.38         1.3 0.32            119            248 195 
                                                                                
