 2011  224 1807 23.0 L   6.812 -73.122135.6  RSN  5 0.3 2.0LRSN                1
 GAP=161        0.77       4.1    10.0  7.2 -0.2145E+02  0.1613E+02 -0.1173E+01E
 Epicentro: LOS SANTOS - SANTANDER                                             3
 ACTION:UP  11-03-28 15:11 OP:jfem STATUS:               ID:20110224180723 L   I
 2011-02-24-1805-24S.COL___134                                                 6
 STAT SP IPHASW D HRMM SECON CODA AMPLIT PERI AZIMU VELO SNR AR TRES W  DIS CAZ7
 BAR2 SZ IP       18 7 41.34                             169    -0.110   25 196 
 BAR2 SZ ES   1   18 7 56.09                             169     0.2 7   25 196 
 BAR2 SZ I        18 7 57.69        31.5 0.15                            25 196 
 RUS  HZ EP       18 7 45.48                             141    -0.410  102 178 
 RUS  HN ES   1   18 8  3.43                             141    -0.3 7  102 178 
 RUS  HZ I        18 8  5.51        10.3 0.37                           102 178 
 GRA  SZ IP       18 7 47.14                             135     0.010  124  17 
 GRA  SZ I        18 7 48.56        24.1 0.28                           124  17 
 GRA  SZ ES   1   18 8  6.34                             135     0.3 7  124  17 
 CHI  HZ EP       18 8  0.76                             115     0.4 8  251 196 
 CHI  HN ES   1   18 8 30.14                             115     0.6 6  251 196 
 CHI  HZ I        18 8 36.07         5.4 0.42                           251 196 
 HEL  HZ EP   3   18 8  3.50                             112     0.5 2  275 256 
 HEL  HN ES   2   18 8 33.85                             112    -0.4 4  275 256 
 HEL  HZ I        18 8 40.40         9.3 0.44                           275 256 
                                                                                
