 2015  324 1009  2.9 L   6.872 -73.324116.3  RSN 12 0.5 1.9LRSN                1
 GAP= 64        1.09       2.9     2.7  5.6 -0.2501E-01  0.3351E+01 -0.6733E+00E
 Epicentro: BETULIA - SANTANDER                                                3
 ACTION:UPD 15-04-30 16:29 OP:nd   STATUS:               ID:20150324100902 L   I
 OLDACT:REG 15-03-24 20:30 OP:stll STATUS:               ID:20150324100748     3
 2015-03-24-1007-48M.COL___275                                                 6
 STAT SP IPHASW D HRMM SECON CODA AMPLIT PERI AZIMU VELO AIN AR TRES W  DIS CAZ7
 BAR2 EZ IP     D 10 9 19.62                             162    0.3010 34.7 153 
 BAR2 EZ ES       10 9 32.55                             162    0.4010 34.7 153 
 BAR2 EZ I        10 9 34.01        54.6 0.32            164           34.7 153 
 BRR  HZ IP     D 10 9 20.02                             155    0.3710 50.2 301 
 BRR  HZ I        10 9 20.28        16.4 0.28            154           50.2 301 
 BRR  HN ES       10 9 32.89                             155    0.1410 50.2 301 
 PAM  SZ EP       10 9 22.77                             141    0.0810 86.1  53 
 PAM  SE ES       10 9 38.50                             141    0.3510 86.1  53 
 PAM  SZ I        10 9 41.24        16.4 0.28            145           86.1  53 
 RUS  HZ EP       10 9 24.68                             133   -0.1210  112 166 
 RUS  HN ES       10 9 41.55                             133   -0.3510  112 166 
 PTB  HZ EP       10 9 24.95                             128   -0.9610  131 254 
 PTB  HE ES       10 9 43.31                             128   -0.5810  131 254 
 PTB  HZ I        10 9 46.77        19.3 0.46            129            131 254 
 OCA  HZ IP     C 10 9 27.95                             124   -0.18 9  151   0 
 OCA  HN ES       10 9 47.56                             124   -0.28 9  151   0 
 OCA  HZ I        10 9 49.31        28.9 0.20            126            151   0 
 TAM  HZ EP       10 9 30.52                             119   -0.08 9  176 106 
 TAM  HE ES       10 9 51.89                             119   -0.33 9  176 106 
 ZAR  HZ EP       10 9 31.38                             118    0.12 9  183 292 
 ZAR  HN ES       10 9 53.64                             118    0.23 9  183 292 
 ZAR  HZ I        10 9 57.94        12.3 0.30            119            183 292 
 NOR  HZ EP       10 9 36.42                             113    0.55 8  224 230 
 NOR  HN ES       1010  1.28                             113   -0.33 8  224 230 
 NOR  HZ I        1010  8.66         4.3 0.56            114            224 230 
 SML  HZ EP       10 9 36.48                             112    0.16 8  229 339 
 SML  HN ES       1010  1.73                             112   -0.68 8  229 339 
 SML  HZ I        1010  5.55        14.6 0.10            114            229 339 
 HEL  HZ EP       10 9 41.08                             110    1.26 8  255 253 
 HEL  HN ES       1010  8.82                             110    0.18 8  255 253 
 HEL  HZ I        1010 13.73         5.0 0.56            111            255 253 
 MON  HZ EP   9   10 9 46.82                             104   -1.66 0  333 309 
 MON  HE ES       1010 22.55                                    0.15 7  333 309 
 MON  HZ I        1010 23.85         1.1 0.28            105            333 309 
                                                                                
