 2011  624 1737 23.9 L   6.772 -73.028147.2  RSN  7 0.4 1.8LRSN                1
 GAP=170        1.07       5.4    11.8  8.8 -0.3883E+01 -0.3544E+02 -0.1122E+02E
 Epicentro: CEPITA - SANTANDER                                                 3
 ACTION:UP  11-07-14 19:07 OP:ep   STATUS:               ID:20110624173723 L   I
 2011-06-24-1735-51S.COL___140                                                 6
 STAT SP IPHASW D HRMM SECON CODA AMPLIT PERI AZIMU VELO SNR AR TRES W  DIS CAZ7
 BAR2 SZ EP       1737 43.53                             170    -0.210   26 221 
 BAR2 SZ I        1737 43.91         8.1 0.07                            26 221 
 BAR2 SZ ES   1   1737 59.40                             170     0.1 7   26 221 
 BTL  SZ EP       1737 44.00                             168     0.110   31 301 
 BTL  SZ ES   1   1737 59.38                             168    -0.1 7   31 301 
 BRR  HZ IP     D 1737 45.82                             149    -0.210   84 296 
 BRR  HZ I        1737 46.02        18.6 0.19                            84 296 
 BRR  HN ES   1   1738  3.26                             149     0.1 7   84 296 
 RUS  HZ EP       1737 47.00                             145    -0.610   97 184 
 RUS  HN ES   1   1738  6.64                             145     0.6 7   97 184 
 BRI  SZ EP       1737 48.38                             142     0.510  107  14 
 GRA  SZ EP       1737 49.58                             137     0.310  125  11 
 GRA  SZ ES   1   1738  8.18                             137    -0.8 7  125  11 
 GRA  SZ I        1738 10.89         8.6 0.24                           125  11 
 OCA  SZ EP       1737 52.95                             129     0.1 9  165 349 
 OCA  SZ I        1738 19.67         6.1 0.16                           165 349 
                                                                                
