 2011  524 1211 42.1 L   6.810 -73.099140.0  RSN  5 0.2 1.7LRSN                1
 GAP=164        0.54       5.3    11.2  8.9  0.3544E+02 -0.6723E+02 -0.2879E+02E
 Epicentro: LOS SANTOS - SANTANDER                                             3
 ACTION:UP  11-06-29 08:55 OP:tino STATUS:               ID:20110524121142 L   I
 2011-05-24-1207-15S.COL___139                                                 6
 STAT SP IPHASW D HRMM SECON CODA AMPLIT PERI AZIMU VELO SNR AR TRES W  DIS CAZ7
 BAR2 SZ EP   1   1212  0.95                             169    -0.2 8   26 201 
 BAR2 SZ ES   2   1212 15.72                             169    -0.2 5   26 201 
 BAR2 SZ I        1212 20.80         9.5 0.40                            26 201 
 BRR  HZ EP   1   1212  2.84                             150    -0.1 8   75 296 
 BRR  HE ES   1   1212 19.09                             150     0.0 8   75 296 
 BRR  HZ I        1212 21.15        17.5 0.40                            75 296 
 RUS  HZ EP   1   1212  5.24                             142    -0.2 8  101 179 
 RUS  HE ES   2   1212 24.15                             142     0.6 5  101 179 
 RUS  HZ I        1212 25.76         3.4 0.34                           101 179 
 GRA  SZ EP   2   1212  6.57                             136    -0.1 5  123  15 
 OCA  SZ EP       1212 10.17                             128     0.210  160 351 
 OCA  SZ I        1212 35.62         9.8 0.27                           160 351 
                                                                                
