 2010  124 1126 30.7 L   5.933 -74.104  2.0  RSN  4 0.2 1.0LRSN                1
 GAP=215        0.56       2.5     3.9  4.9 -0.7167E+01 -0.9741E+01  0.5166E+01E
 Epicentro: LA BELLEZA - SANTANDER                                             3
 ACTION:UP  10-08-24 09:45 OP:vdl  STATUS:               ID:20100124112630 L   I
 2010-01-24-1123-40S.COL___094                                                 6
 STAT SP IPHASW D HRMM SECON CODA AMPLIT PERI AZIMU VELO SNR AR TRES W  DIS CAZ7
 RUS  BZ IP       1126 49.15                              47    -0.110  113  92 
 RUS  BZ I        1126 49.35         2.3 0.35                           113  92 
 RUS  BE ES   1   1127  4.02                              47     0.3 7  113  92 
 BAR2 SZ IP       1126 50.88                              47     0.110  125  54 
 BAR2 SZ ES       1127  6.37                              47    -0.110  125  54 
 CHI  HZ IP       1126 54.96                              47     0.2 9  150 164 
 CHI  HE ES       1127 13.24                              47    -0.2 9  150 164 
 CHI  HZ I        1127 18.30         1.6 0.38                           150 164 
 PRA  HZ IP       1127  8.80                              37    -0.1 8  260 200 
 PRA  HZ I        1127 10.80         1.9 0.42                           260 200 
 PRA  HE ES   2   1127 39.19                              37     0.5 4  260 200 
                                                                                
