 2013 1224 1149 11.5 L   6.633 -74.191 26.8  RSN  4 0.4 1.3LRSN                1
 GAP=200        1.11      11.6     3.1  5.2 -0.5833E+01 -0.9550E+01  0.5921E+01E
 Epicentro: PUERTO PARRA - SANTANDER                                           3
 ACTION:UPD 14-01-13 10:20 OP:ep   STATUS:               ID:20131224114911 L   I
 OLDACT:REG 13-12-24 14:39 OP:jn   STATUS:               ID:20131224114748     3
 2013-12-24-1147-48M.COL___235                                                 6
 STAT SP IPHASW D HRMM SECON CODA AMPLIT PERI AZIMU VELO AIN AR TRES W  DIS CAZ7
 PTB  HZ IP     C 1149 17.95                             125   -0.1310 31.1 251 
 PTB  HN ES       1149 23.00                             125   -0.1910 31.1 251 
 PTB  HZ I        1149 23.25        37.6 0.10            125           31.1 251 
 BAR2 SZ EP       1149 29.25                              61    0.1510  112  92 
 BAR2 SZ ES       1149 42.25                              61   -0.5510  112  92 
 BAR2 SZ I        1149 44.95         7.3 0.62             56            112  92 
 RUS  HZ EP       1149 34.61                              61    0.73 9  147 124 
 RUS  HN ES       1149 51.13                              61   -0.18 9  147 124 
 RUS  HZ I        1149 53.87         2.0 0.20             56            147 124 
 HEL  HZ EP       1149 35.48                              61    0.69 9  156 252 
 HEL  HN ES       1149 52.51                              61   -0.43 9  156 252 
 HEL  HZ I        1149 54.36         3.4 0.28             56            156 252 
                                                                                
