 2016  224 1203 14.2 L   6.810 -73.533 10.7  RSN  5 0.3 1.5LRSN                1
 GAP=153        0.85       2.8     2.4  5.2  0.3410E+01  0.4190E+01  0.1905E+00E
 Epicentro: EL CARMEN - SANTANDER                                              3
 ACTION:UPD 16-03-04 21:29 OP:rebc STATUS:               ID:20160224120314 L   I
 OLDACT:REG 16-02-24 20:20 OP:drio STATUS:               ID:20160224115749     3
 2016-02-24-1157-49M.COL___327                                                 6
 STAT SP IPHASW D HRMM SECON CODA AMPLIT PERI AZIMU VELO AIN AR TRES W  DIS CAZ7
 BRR  HZ EP       12 3 20.56                             101   -0.1010 38.3 329 
 BRR  HE ES       12 3 25.90                             101    0.1810 38.3 329 
 BAR2 EZ EP       12 3 21.70                             100   -0.3010 45.6 122 
 BAR2 EZ ES       12 3 27.82                             100   -0.2910 45.6 122 
 BAR2 EZ I        12 3 28.96        10.7 0.40             47           45.6 122 
 PTB  HZ EP       12 3 30.88                              94   -0.0410  106 254 
 PTB  HN ES       12 3 43.81                              94   -0.1910  106 254 
 PTB  HZ I        12 3 46.86        16.1 0.32             47            106 254 
 RUS  HZ EP       12 3 33.18                              94    0.7610  113 154 
 ZAR  HZ EP       12 3 39.64                              56    0.20 9  165 297 
 ZAR  HE ES       12 3 58.95                              56   -0.20 9  165 297 
 ZAR  HZ I        12 4  0.61        11.4 0.24             47            165 297 
                                                                                
