 2017  324 1122 40.3 L   6.762 -73.141142.6  RSN  6 0.4 1.8LRSN                1
 GAP=156        1.01       5.9     4.8  8.1 -0.9126E+01  0.8875E+01 -0.2068E+00E
 Epicentro: LOS SANTOS - SANTANDER                                             3
 ACTION:UPD 17-05-25 18:44 OP:jn   STATUS:               ID:20170324112240 L   I
 OLDACT:REG 17-03-24 20:52 OP:lv   STATUS:               ID:20170324111740     3
 2017-03-24-1118-00M.COL___384                                                 6
 STAT SP IPHASW D HRMM SECON CODA AMPLIT PERI AZIMU VELO AIN AR TRES W  DIS CAZ7
 BAR2 EZ EP       1122 59.46                             172    0.0210 19.4 194 
 BAR2 EZ ES       1123 14.24                             172   -0.1610 19.4 194 
 BRR  HZ EP       1123  1.56                             151    0.3410 73.7 301 
 BRR  HN ES       1123 18.17                             151    0.6110 73.7 301 
 BRR  HZ I        1123 22.35         8.8 0.14            151           73.7 301 
 PAM  EZ EP       1123  2.46                             149    0.1310 80.3  37 
 PAM  EN ES       1123 19.16                             149   -0.3710 80.3  37 
 PAM  EZ I        1123 21.32         9.4 0.58            156           80.3  37 
 PTB  HZ EP       1123  6.63                             131   -0.33 9  147 260 
 PTB  HN ES       1123 27.01                             131   -0.76 9  147 260 
 PTB  HZ I        1123 31.28         3.1 0.18            131            147 260 
 SPBC HN ES       1123 30.49                             129    0.42 9  160 220 
 SPBC HZ I        1123 41.67        22.7 0.05            129            160 220 
 ZAR  HN ES       1123 38.08                             121    0.04 8  206 293 
 ZAR  HZ I        1123 44.35         6.2 0.27            123            206 293 
                                                                                
