 2013 1124 1503 22.6 L   6.822 -73.199144.6  RSN 13 0.5 2.0LRSN                1
 GAP=132        1.14       4.1     5.7  6.8 -0.1053E+02  0.9384E+01 -0.2598E+01E
 Epicentro: ZAPATOCA - SANTANDER                                               3
 ACTION:UPD 14-01-09 16:30 OP:ep   STATUS:               ID:20131124150322 L   I
 OLDACT:REG 13-11-24 17:15 OP:nd   STATUS:               ID:20131124150000     3
 2013-11-24-1500-00M.COL___282                                                 6
 STAT SP IPHASW D HRMM SECON CODA AMPLIT PERI AZIMU VELO AIN AR TRES W  DIS CAZ7
 BAR2 SZ EP       15 3 42.02                             170   -0.1310 25.5 176 
 BAR2 SZ ES       15 3 57.10                             170   -0.2810 25.5 176 
 BAR2 SZ I        15 3 58.61        59.5 0.26            168           25.5 176 
 BRR  HZ IP     D 15 3 43.90                             154    0.6110 64.9 299 
 BRR  HN ES       15 4  0.24                             154    0.8210 64.9 299 
 BRR  HZ I        15 4  5.04        22.2 0.26            151           64.9 299 
 PAM  SZ IP     C 15 3 45.01                             150    0.1710 79.5  44 
 PAM  SN ES       15 4  1.90                             150   -0.2610 79.5  44 
 PAM  SZ I        15 4  4.51        10.1 0.52            156           79.5  44 
 PTB  HZ EP       15 3 48.75                             133   -0.27 9  143 257 
 PTB  HN ES       15 4  9.76                             133    0.16 9  143 257 
 PTB  HZ I        15 4 12.51        12.5 0.12            131            143 257 
 OCA  HZ EP       15 3 50.67                             130    0.12 9  157 355 
 OCA  HN ES       15 4 11.84                             130   -0.50 9  157 355 
 OCA  HZ I        15 4 15.63         9.8 0.16            132            157 355 
 SPBC HZ EP       15 3 51.04                             129    0.17 9  161 217 
 SPBC HN ES       15 4 13.06                             129    0.16 9  161 217 
 SPBC HZ I        15 4 19.06        14.4 0.44            129            161 217 
 NOR  HZ EP       15 3 57.94                             119    0.01 8  231 233 
 NOR  HN ES       15 4 24.41                             119   -1.05 8  231 233 
 NOR  HZ I        15 4 35.63         6.2 0.18            119            231 233 
 SML  HZ EP       15 3 59.20                             118    0.52 8  239 336 
 SML  HN ES       15 4 26.13                             118   -0.67 8  239 336 
 SML  HZ I        15 4 31.17        16.8 0.10            119            239 336 
 CHI  HZ EP   4   15 4  0.21                             117   -0.14 0  250 194 
 CHI  HN ES   4   15 4 28.77                             117   -1.01 0  250 194 
 CHI  HZ I        15 4 34.90         8.6 0.36            118            250 194 
 HEL  HZ EP   4   15 4  3.35                             115    1.14 0  267 255 
 HEL  HN ES   4   15 4 34.62                             115    1.53 0  267 255 
 HEL  HZ I        15 4 40.53         5.8 0.36            115            267 255 
 GUY2CHZ EP   4   15 4  7.08                             112    1.28 0  298 234 
 GUY2CHN ES   4   15 4 41.36                             112    1.89 0  298 234 
 GUY2CHZ I        15 4 48.28         8.5 0.32                           298 234 
 CBOC HZ EP   4   15 4  9.86                             110    0.93 0  329 251 
 CBOC HN ES   4   15 4 47.03                             110    1.97 0  329 251 
 CBOC HZ I        15 4 51.93         1.9 0.40            110            329 251 
 SJC  HZ EP   4   15 4 16.17                             106   -1.36 0  404 327 
 SJC  HN ES   4   15 4 56.38                             106   -3.98 0  404 327 
 SJC  HZ I        15 5  0.63         1.7 0.24            107            404 327 
                                                                                
