 2017  824 1358  5.1 L   6.748 -73.118143.8  RSN  5 0.3 1.6LRSN                1
 GAP=142        0.76       3.9     4.2  5.5  0.3650E+01  0.5419E+01 -0.1162E+01E
 Epicentro: LOS SANTOS - SANTANDER                                             3
 ACTION:UPD 17-09-04 20:24 OP:rebc STATUS:               ID:20170824135805 L   I
 OLDACT:UP  17-08-24 23:56 OP:edw  STATUS:               ID:20170824134740     3
 OLDACT:REG 17-08-24 21:10 OP:edw  STATUS:               ID:20170824134740     3
 2017-08-24-1348-00M.COL___420                                                 6
 STAT SP IPHASW D HRMM SECON CODA AMPLIT PERI AZIMU VELO AIN AR TRES W  DIS CAZ7
 BAR2 HZ EP       1358 24.21                             172   -0.1910 18.6 202 
 BAR2 HZ ES       1358 38.93                             172   -0.5310 18.6 202 
 BAR2 HN ES       1358 39.42                                           18.6 202 
 BAR2 HZ I        1358 40.12         9.7 0.20            173           18.6 202 
 BRR  HZ EP       1358 26.00                             150   -0.3510 76.7 301 
 BRR  HN ES       1358 43.31                             150    0.3810 76.7 301 
 PAM  EZ EP     D 1358 27.36                             150    0.0910 80.1  35 
 PAM  EE ES       1358 44.69                             150    0.1310 80.1  35 
 PAM  EZ I        1358 47.35         4.7 0.48            150           80.1  35 
 RUS  HZ EP       1358 28.53                             145    0.3010 94.6 178 
 RUS  HN ES       1358 46.46                             145    0.1910 94.6 178 
 RUS  HZ I        1358 48.02         5.9 0.28            147           94.6 178 
 ZAR  HZ EP       1358 37.77                             121   -0.16 8  209 293 
 ZAR  HN ES       1359  3.67                             121    0.12 8  209 293 
 ZAR  HZ I        1359  8.57         6.0 0.44            122            209 293 
                                                                                
