 2013  924 1218 51.8 L   6.702 -73.183150.0  RSN  5 0.5 1.5LRSN                1
 GAP=232        1.13       8.1     8.5  9.4 -0.8535E+01  0.3137E+01  0.1588E+02E
 Epicentro: VILLANUEVA - SANTANDER                                             3
 ACTION:UPD 13-10-22 09:24 OP:ep   STATUS:               ID:20130924121851 L   I
 OLDACT:REG 13-09-24 15:49 OP:stll STATUS:               ID:20130924120852     3
 2013-09-24-1208-52M.COL___244                                                 6
 STAT SP IPHASW D HRMM SECON CODA AMPLIT PERI AZIMU VELO AIN AR TRES W  DIS CAZ7
 BAR2 SZ EP       1219 11.42                             175   -0.3310 12.1 179 
 BAR2 SZ I        1219 11.54         5.6 0.18            175           12.1 179 
 BAR2 SZ ES       1219 27.06                             175   -0.2610 12.1 179 
 BRR  HZ EP       1219 13.64                             153    0.1210 73.6 308 
 BRR  HN ES       1219 31.20                             153    0.7210 73.6 308 
 PTB  HZ EP       1219 18.17                             134   -0.40 9  142 263 
 PTB  HN ES       1219 38.91                             134   -0.57 9  142 263 
 PTB  HZ I        1219 41.42         5.9 0.12            133            142 263 
 SPBC HN ES       1219 41.72                             132    0.44 9  152 220 
 CHI  HZ EP   1   1219 29.11                             119    0.64 6  237 195 
                                                                                
