 2015  124 1058  1.8 L   6.731 -73.108147.6  RSN  6 0.6 1.2LRSN                1
 GAP=144        1.59       8.2     8.5 14.8 -0.2315E+02 -0.1233E+02  0.3574E+02E
 Epicentro: JORDAN - SANTANDER                                                 3
 ACTION:UPD 15-03-02 15:42 OP:nd   STATUS:               ID:20150124105801 L   I
 OLDACT:REG 15-01-24 20:32 OP:stll STATUS:               ID:20150124104747     3
 2015-01-24-1047-47M.COL___265                                                 6
 STAT SP IPHASW D HRMM SECON CODA AMPLIT PERI AZIMU VELO AIN AR TRES W  DIS CAZ7
 BAR2 EZ EP       1058 21.57                             173    0.0510 17.4 208 
 BAR2 EZ I        1058 22.04         4.9 0.18            170           17.4 208 
 BRR  HE ES       1058 41.77                             150    1.2310 78.6 302 
 PAM  SZ EP       1058 24.27                             150   -0.1310 81.0  34 
 PAM  SN ES       1058 41.30                             150   -0.7610 81.0  34 
 RUS  HZ EP       1058 25.53                             146    0.3710 92.7 178 
 RUS  HZ I        1058 26.85         1.3 0.68            144           92.7 178 
 RUS  HN ES       1058 43.62                             146    0.2210 92.7 178 
 PTB  HN ES       1058 49.64                             132   -0.86 9  151 262 
 SPBC HZ EP       1058 30.43                             130    0.31 9  160 222 
 SPBC HE ES       1058 51.64                             130   -0.59 9  160 222 
 SPBC HZ I        1058 58.31         2.7 0.22            129            160 222 
                                                                                
