 2016  224 1611  1.0 L   6.817 -73.203136.9  RSN  6 0.3 1.6LRSN                1
 GAP=146        0.70       3.8     3.6  5.1 -0.6739E+01  0.6903E+01 -0.1141E+01E
 Epicentro: ZAPATOCA - SANTANDER                                               3
 ACTION:UPD 16-03-04 21:29 OP:rebc STATUS:               ID:20160224161101 L   I
 OLDACT:REG 16-02-24 21:00 OP:drio STATUS:               ID:20160224160750     3
 2016-02-24-1607-50M.COL___340                                                 6
 STAT SP IPHASW D HRMM SECON CODA AMPLIT PERI AZIMU VELO AIN AR TRES W  DIS CAZ7
 BAR2 EZ EP       1611 19.39                             169   -0.2610 25.0 175 
 BAR2 EZ ES       1611 34.10                             169   -0.0510 25.0 175 
 BAR2 EZ I        1611 34.96        13.4 0.26            170           25.0 175 
 PAM  EZ EP       1611 22.39                             148   -0.1110 80.2  44 
 PAM  EN ES       1611 39.37                             148    0.1310 80.2  44 
 PAM  EZ I        1611 41.54         6.0 0.40            151           80.2  44 
 RUS  HZ EP       1611 23.90                             141   -0.2210  103 173 
 RUS  HN ES       1611 42.36                             141    0.2410  103 173 
 RUS  HZ I        1611 43.05         4.5 0.22            144            103 173 
 PTB  HZ EP       1611 27.35                             131    0.59 9  142 258 
 PTB  HN ES       1611 46.62                             131   -0.20 9  142 258 
 PTB  HZ I        1611 50.01         9.0 0.46            131            142 258 
 SPBC HZ EP       1611 28.39                             127   -0.25 9  161 217 
 SPBC HE ES       1611 50.35                             127    0.18 9  161 217 
 NOR  HZ EP       1611 36.14                             117    0.30 8  231 233 
 NOR  HN ES       1612  2.66                             117   -0.31 8  231 233 
 NOR  HZ I        1612 10.68         4.2 0.20            118            231 233 
                                                                                
