 2017  924 1053 55.3 L   6.776 -73.024139.1  RSN  5 0.4 1.5LRSN                1
 GAP=248        0.63       4.1     5.2  4.9  0.7151E+01  0.7877E+01  0.4316E+01E
 Epicentro: CEPITA - SANTANDER                                                 3
 ACTION:UPD 17-10-05 19:15 OP:rebc STATUS:               ID:20170924105355 L   I
 OLDACT:REG 17-09-24 19:39 OP:lv   STATUS:               ID:20170924104212     3
 2017-09-24-1048-00M.COL___408                                                 6
 STAT SP IPHASW D HRMM SECON CODA AMPLIT PERI AZIMU VELO AIN AR TRES W  DIS CAZ7
 BAR2 EZ EP       1054 14.28                             169    0.0910 26.8 221 
 BAR2 EZ ES       1054 29.00                             169    0.0710 26.8 221 
 BAR2 EZ I        1054 30.51        14.1 0.14            165           26.8 221 
 BRR  HZ EP       1054 16.33                             147   -0.2110 84.4 296 
 BRR  HE ES       1054 33.30                             147    0.1810 84.4 296 
 BRR  HZ I        1054 34.38         7.3 0.12            145           84.4 296 
 RUS  HZ EP       1054 18.29                             143    0.1110 97.9 184 
 RUS  HN ES       1054 35.78                             143   -0.2610 97.9 184 
 RUS  HZ I        1054 38.16         1.7 0.32            144           97.9 184 
 ZAR  HZ EP   3   1054 26.73                             119   -2.00 2  218 291 
 ZAR  HE ES   3   1054 53.76                             119   -1.05 2  218 291 
 ZAR  HZ I        1054 59.38         4.0 0.44            119            218 291 
 GUY2CHZ EP       1054 40.13                             110    0.44 7  311 237 
 GUY2CHN ES       1055 14.21                             110   -0.11 7  311 237 
 GUY2CHZ I        1055 20.91         2.1 0.36                           311 237 
                                                                                
