 2016  424 1821 44.6 L   6.808 -73.145142.0  RSN  9 0.4 1.9LRSN                1
 GAP=183        1.05       3.7     5.1  7.1 -0.1617E+01  0.1125E+02 -0.4649E+01E
 Epicentro: LOS SANTOS - SANTANDER                                             3
 ACTION:UPD 16-05-05 14:23 OP:rebc STATUS:               ID:20160424182144 L   I
 OLDACT:UP  16-04-25 00:42 OP:ar   STATUS:               ID:20160424181744     3
 OLDACT:REG 16-04-24 21:48 OP:ar   STATUS:               ID:20160424181744     3
 2016-04-24-1817-44M.COL___298                                                 6
 STAT SP IPHASW D HRMM SECON CODA AMPLIT PERI AZIMU VELO AIN AR TRES W  DIS CAZ7
 BAR2 EZ IP     D 1822  3.81                             170    0.0110 24.2 190 
 BAR2 EZ ES       1822 19.12                             170    0.3510 24.2 190 
 BAR2 EZ I        1822 24.07        10.1 0.28            170           24.2 190 
 RUS  HZ EP       1822  7.68                             143   -0.3710  101 176 
 RUS  HN ES       1822 26.71                             143    0.3710  101 176 
 RUS  HZ I        1822 29.00         6.0 0.38            148            101 176 
 PTB  HZ EP       1822 10.67                             131   -0.62 9  148 259 
 PTB  HN ES       1822 31.72                             131   -0.38 9  148 259 
 PTB  HZ I        1822 34.39         8.9 0.40            133            148 259 
 OCA  HZ EP       1822 12.41                             129   -0.14 9  159 353 
 OCA  HN ES       1822 33.93                             129   -0.41 9  159 353 
 OCA  HZ I        1822 40.08        13.9 0.16            132            159 353 
 SPBC HZ EP       1822 12.72                             128   -0.17 9  164 219 
 SPBC HE ES       1822 34.88                             128   -0.06 9  164 219 
 SPBC HZ I        1822 37.27        14.4 0.30            132            164 219 
 ZAR  HZ EP       1822 17.67                             122    0.89 9  204 292 
 ZAR  HN ES       1822 42.31                             122    0.44 9  204 292 
 ZAR  HZ I        1822 48.26         8.6 0.20            124            204 292 
 NOR  HZ EP       1822 20.29                             118    0.11 8  235 234 
 NOR  HE ES       1822 47.46                             118   -0.46 8  235 234 
 NOR  HZ I        1822 54.68         8.5 0.20            121            235 234 
 HEL  HZ EP       1822 25.41                             114    0.75 8  272 256 
 HEL  HE ES   4   1822 57.90                             114    2.00 0  272 256 
 HEL  HZ I        1823  2.60         4.2 0.40            117            272 256 
 GUY2CHZ EP   4   1822 30.73                             112    2.63 0  302 235 
 GUY2CHN ES   4   1823  3.85                             112    1.82 0  302 235 
 GUY2CHZ I        1823 11.17         5.5 0.34                           302 235 
                                                                                
