 2012  124 1054 50.5 L   6.559 -73.591109.5  RSN  6 0.4 1.5LRSN                1
 GAP=126        0.88       7.1     4.7 10.1 -0.1961E+01  0.1609E+01  0.1531E+02E
 Epicentro: EL CARMEN DE CHUCURI - SANTANDER                                   3
 ACTION:UP  12-02-03 08:20 OP:REBC STATUS:               ID:20120124105450 L   I
 2012-01-24-1050-00M.COL___187                                                 6
 STAT SP IPHASW D HRMM SECON CODA AMPLIT PERI AZIMU VELO SNR AR TRES W  DIS CAZ7
 BAR2 SZ EP       1055  6.76                             156     0.210   45  85 
 BAR2 SZ I        1055  6.98        26.4 0.26                            45  85 
 BAR2 SZ ES   1   1055 19.34                             156     0.2 7   45  85 
 BRR  HZ EP       1055  7.55                             148     0.310   62 348 
 BRR  HZ I        1055 15.02        11.9 0.10                            62 348 
 BRR  HE ES   2   1055 20.71                             148     0.4 5   62 348 
 GIR2 SZ EP       1055  8.23                             143     0.110   72  37 
 RUS  HZ EP       1055  9.98                             137    -0.210   93 143 
 RUS  HZ I        1055 27.47         2.4 0.34                            93 143 
 PTB  HZ EP       1055  9.71                             136    -0.110   96 269 
 PTB  HN ES   1   1055 24.36                             136    -0.5 7   96 269 
 PTB  HZ I        1055 25.89         5.5 0.18                            96 269 
 PAM  SZ EP   3   1055 13.33                             126    -0.3 2  131  49 
 PAM  SN ES   2   1055 30.55                             126    -1.2 5  131  49 
                                                                                
