 2010  324 1020 17.5 L   6.760 -73.063144.0  RSN  7 0.5 2.0LRSN                1
 GAP=191        0.76       4.4     8.7  8.0  0.7522E+00  0.1446E+02  0.5288E+01E
 Epicentro: LOS SANTOS - SANTANDER                                             3
 ACTION:UP  10-08-24 09:55 OP:vdl  STATUS:               ID:20100324102017 L   I
 2010-03-24-1016-46S.COL___098                                                 6
 STAT SP IPHASW D HRMM SECON CODA AMPLIT PERI AZIMU VELO SNR AR TRES W  DIS CAZ7
 BAR2 SZ EP   1   1020 36.92                             170     0.0 7   23 216 
 BAR2 SZ ES   2   1020 52.19                             170     0.1 5   23 216 
 BRR  HZ EP   1   1020 39.10                             149     0.0 7   81 298 
 BRR  HE ES   2   1020 56.35                             149     0.4 5   81 298 
 BRR  HZ I        1020 58.02        22.5 0.13                            81 298 
 RUS  HZ EP   1   1020 40.71                             145     0.0 7   96 181 
 RUS  HE ES   2   1020 59.19                             145     0.3 5   96 181 
 RUS  HZ I        1021  0.93        14.4 0.56                            96 181 
 OCA  SZ EP   1   1020 45.84                             128    -0.4 7  166 350 
 OCA  SZ ES   2   1021  8.20                             128    -0.4 5  166 350 
 CHI  HZ EP   1   1020 54.90                             117     0.0 6  247 198 
 CHI  HE ES   2   1021 23.57                             117    -0.5 4  247 198 
 CHI  HZ I        1021 26.92         3.6 0.43                           247 198 
 HEL  HZ EP   1   1020 59.59                             114     1.1 6  280 257 
 HEL  HE ES   2   1021 29.44                             114    -1.1 4  280 257 
 HEL  HZ I        1021 36.28         6.5 0.23                           280 257 
 PRA  HZ EP   1   1021 11.28                             106     0.2 4  393 211 
 PRA  HE ES   2   1021 52.23                             106    -0.6 3  393 211 
 PRA  HZ I        1021 57.01         3.6 0.40                           393 211 
                                                                                
