 2012  324 1714  3.7 L   6.783 -73.124139.9  RSN  8 0.4 1.8LRSN                1
 GAP=140        0.89       4.3     4.5  7.2 -0.3141E+01  0.8861E+01  0.5134E+00E
 ACTION:UP  12-03-31 23:22 OP:EP   STATUS:               ID:20120324171403 L   I
 2012-03-24-1710-00M.COL___196                                                 6
 STAT SP IPHASW D HRMM SECON CODA AMPLIT PERI AZIMU VELO SNR AR TRES W  DIS CAZ7
 BAR2 SZ ES   1   1714 36.78                             171    -0.5 7   22 197 
 BAR2 SZ I        1714 39.52        17.6 0.36                            22 197 
 BRR  HZ EP       1714 24.45                             150     0.110   74 299 
 BRR  HZ I        1714 24.91        18.8 0.10                            74 299 
 BRR  HE ES       1714 41.05                             150     0.510   74 299 
 PAM  SZ EP       1714 25.43                             150     0.210   77  37 
 PAM  SE ES       1714 41.88                             150    -0.210   77  37 
 RUS  HZ EP   1   1714 27.33                             143     0.6 7   99 177 
 RUS  HN ES   1   1714 44.55                             143    -0.1 7   99 177 
 RUS  HZ I        1714 46.85         3.8 0.29                            99 177 
 PTB  HZ EP   1   1714 30.06                             130    -0.3 7  150 260 
 PTB  HN ES   1   1714 50.96                             130    -0.2 7  150 260 
 PTB  HZ I        1714 52.93         7.8 0.20                           150 260 
 OCA  SZ ES   1   1714 53.58                             128    -0.1 7  162 352 
 ZAR  HZ EP   1   1714 35.39                             121    -0.7 6  207 292 
 ZAR  HE ES   1   1715  1.32                             121     0.0 6  207 292 
 ZAR  HZ I        1715  7.34         6.6 0.36                           207 292 
 NOR  SE ES   1   1715  6.92                             117     0.1 6  236 235 
                                                                                
