 2016  324 1744  7.4 L   6.820 -73.151139.9  RSN  8 0.3 1.5LRSN                1
 GAP=244        0.52       3.8     3.9  5.7  0.5722E+01  0.1279E+01  0.3192E+00E
 Epicentro: LOS SANTOS - SANTANDER                                             3
 ACTION:UPD 16-05-13 21:27 OP:cam  STATUS:               ID:20160324174407 L   I
 OLDACT:REG 16-03-24 22:23 OP:dnl  STATUS:               ID:20160324173749     3
 2016-03-24-1737-49M.COL___304                                                 6
 STAT SP IPHASW D HRMM SECON CODA AMPLIT PERI AZIMU VELO AIN AR TRES W  DIS CAZ7
 BAR2 EZ EP   2   1744 26.72                             169    0.37 5 25.4 188 
 BAR2 EZ ES   2   1744 41.06                             169   -0.09 5 25.4 188 
 BAR2 EZ I        1744 43.27         6.9 0.21            159           25.4 188 
 RUS  HZ EP   2   1744 30.63                             142   -0.10 5  103 176 
 RUS  HE ES   2   1744 49.16                             142    0.22 5  103 176 
 RUS  HZ I        1744 50.27         2.2 0.26            139            103 176 
 PTB  HZ EP       1744 33.35                             131   -0.5110  148 258 
 PTB  HE ES       1744 54.54                             131    0.0210  148 258 
 PTB  HZ I        1744 56.98         4.0 0.18            129            148 258 
 SPBC HZ EP   2   1744 35.75                             127    0.18 5  165 218 
 SPBC HN ES   2   1744 57.60                             127    0.05 5  165 218 
 SPBC HZ I        1745  9.78        10.6 0.06            126            165 218 
 ZAR  HZ EP   2   1744 39.54                             121    0.23 5  203 292 
 ZAR  HN ES       1745  4.28                             121    0.07 9  203 292 
 ZAR  HZ I        1745 10.39         2.4 0.08            122            203 292 
 NOR  HZ EP       1744 43.24                             117    0.37 9  236 234 
 NOR  HN ES       1745 10.66                             117    0.12 9  236 234 
 NOR  HZ I        1745 17.52         3.4 0.18            117            236 234 
 CHI  HZ EP   2   1744 44.55                             116   -0.43 4  251 195 
 CHI  HN ES   2   1745 13.88                             116   -0.42 4  251 195 
 CHI  HZ I        1745 18.13         1.2 0.10            116            251 195 
 GUY2CHZ EP   4   1744 52.15                             111    1.33 0  302 234 
 GUY2CHN ES   4   1745 26.62                             111    1.93 0  302 234 
 GUY2CHZ I        1745 34.99         2.0 0.56                           302 234 
                                                                                
