 2015  924 1706 34.5 L   6.781 -73.146141.7  RSN  8 0.5 2.0LRSN                1
 GAP=236        1.16       5.8     6.5  7.1  0.1721E+02  0.1562E+02  0.1169E+02E
 Epicentro: LOS SANTOS - SANTANDER                                             3
 ACTION:UPD 15-10-28 16:28 OP:cam  STATUS:               ID:20150924170634 L   I
 OLDACT:UP  15-09-24 21:32 OP:mh   STATUS:               ID:20150924165750     3
 OLDACT:REG 15-09-24 19:00 OP:mh   STATUS:               ID:20150924165750     3
 2015-09-24-1657-50M.COL___348                                                 6
 STAT SP IPHASW D HRMM SECON CODA AMPLIT PERI AZIMU VELO AIN AR TRES W  DIS CAZ7
 BAR2 EZ EP       17 6 53.76                             171    0.1610 21.2 191 
 BAR2 EZ ES       17 7  8.77                             171    0.2810 21.2 191 
 BAR2 EZ I        17 7  9.82        21.7 0.22            164           21.2 191 
 BRR  HN ES       17 7 11.90                             151    0.4410 72.2 300 
 RUS  HZ EP       17 6 57.93                             144    0.2310 98.5 176 
 RUS  HN ES       17 7 15.05                             144   -0.7410 98.5 176 
 PTB  HZ EP       17 7  0.45                             131   -0.64 9  147 260 
 PTB  HN ES       17 7 21.30                             131   -0.54 9  147 260 
 PTB  HZ I        17 7 28.03        11.0 0.44            129            147 260 
 ZAR  HZ EP       17 7  7.32                             121    0.56 9  205 293 
 ZAR  HN ES       17 7 31.46                             121   -0.46 9  205 293 
 ZAR  HZ I        17 7 36.47        10.3 0.36            121            205 293 
 NOR  HZ EP       17 7  9.63                             118   -0.23 8  233 235 
 NOR  HN ES       17 7 38.29                             118    0.86 8  233 235 
 NOR  HZ I        17 7 43.31         5.8 0.14            117            233 235 
 CHI  HZ EP       17 7 11.53                             116   -0.22 8  247 195 
 CHI  HN ES       17 7 41.26                             116    0.46 8  247 195 
 CHI  HZ I        17 7 46.27         6.6 0.32            116            247 195 
 GUY2CHZ EP       17 7 17.80                             112    0.02 7  300 235 
 GUY2CHN ES   4   17 7 54.96                             112    3.43 0  300 235 
 GUY2CHZ I        17 7 59.58         5.0 0.34                           300 235 
 CUM  SZ EP   4   17 7 28.59                              96   -52.3 0  829 219 
 CUM  SZ ES   4   17 7 35.92                              96   -99.9 0  829 219 
                                                                                
