 2016 1224 1043 56.4 L   6.942 -73.157141.6  RSN  5 0.5 1.1LRSN                1
 GAP=249        1.08       9.3     8.3  8.8  0.3966E+02  0.7728E+01  0.1696E+02E
 Epicentro: PIEDECUESTA - SANTANDER                                            3
 ACTION:UPD 17-01-11 20:18 OP:rebc STATUS:               ID:20161224104356 L   I
 OLDACT:UP  16-12-24 22:12 OP:edw  STATUS:               ID:20161224103740     3
 OLDACT:UP  16-12-24 22:10 OP:edw  STATUS:               ID:20161224103740     3
 OLDACT:REG 16-12-24 20:15 OP:edw  STATUS:               ID:20161224103740     3
 2016-12-24-1038-00M.COL___369                                                 6
 STAT SP IPHASW D HRMM SECON CODA AMPLIT PERI AZIMU VELO AIN AR TRES W  DIS CAZ7
 BAR2 EZ EP       1044 16.39                             164    0.4110 38.8 184 
 BAR2 EZ ES       1044 31.61                             164    0.3810 38.8 184 
 BAR2 EZ I        1044 34.17         4.4 0.28            164           38.8 184 
 BRR  HN ES       1044 31.81                             154   -0.7610 64.0 287 
 RUS  HZ EP       1044 20.94                             139   -0.0510  116 176 
 RUS  HN ES       1044 39.89                             139   -0.2510  116 176 
 RUS  HZ I        1044 40.25         2.3 0.40            140            116 176 
 PTB  HZ EP       1044 23.10                             130   -0.21 9  150 253 
 PTB  HN ES       1044 44.96                             130    0.69 9  150 253 
 PTB  HZ I        1044 46.39         0.7 0.10            131            150 253 
 CHI  HZ EP   2   1044 35.06                             115   -0.48 4  264 194 
 CHI  HN ES   2   1045  5.49                             115   -0.55 4  264 194 
                                                                                
