 2012  924 1711 50.6 L   6.564 -73.511113.2  RSN 18 0.4 3.1LRSN 3.2WRSN        1
 SPEC AVERAGE  MO 13.9 ST 23.9 OM  2.6 f0 5.52 R0.2807 AL 2.87 WI  7.3 MW  3.2 3
 SPEC SD       MO  0.2 ST 16.0 OM  0.5 f0 1.10 R0.0738 AL      WI      MW  0.1 3
 GAP= 44        0.80       2.3     2.4  4.8 -0.2484E+00  0.3955E+01  0.2605E+01E
 Epicentro: EL CARMEN DE CHUCURI - SANTANDER                                   3
 SPEC ZAR HH N MO 14.3 ST 42.4 OM  2.6 f0 5.37 R0.2737 AL 1.05 WI  9.7 MW  3.5 3
 SPEC ZAR HH N T171239 K 0.000 GD  213 VS 4.20 DE 3.00 Q0230.0 QA 0.60 VS 4.20 3
 SPEC PRA HH N MO 13.8 ST 24.1 OM  1.9 f0 6.35 R0.2315 AL 4.09 WI  6.5 MW  3.2 3
 SPEC PRA HH N T171315 K 0.000 GD  367 VS 4.20 DE 3.00 Q0230.0 QA 0.60 VS 4.20 3
 SPEC ROSCBH Z MO 13.8 ST  3.5 OM  2.1 f0 3.29 R0.4468 AL 2.64 WI  8.9 MW  3.2 3
 SPEC ROSCBH Z T171247 K 0.000 GD  239 VS 4.20 DE 3.00 Q0230.0 QA 0.60 VS 4.20 3
 SPEC PAM SH N MO 13.8 ST 19.3 OM  2.2 f0 6.08 R0.2418 AL 4.72 WI  4.2 MW  3.1 3
 SPEC PAM SH N T171230 K 0.000 GD  167 VS 4.20 DE 3.00 Q0230.0 QA 0.60 VS 4.20 3
 SPEC HEL HH N MO 13.8 ST 18.7 OM  2.0 f0 6.12 R0.2402 AL 2.91 WI  6.7 MW  3.1 3
 SPEC HEL HH N T171250 K 0.000 GD  253 VS 4.20 DE 3.00 Q0230.0 QA 0.60 VS 4.20 3
 SPEC CHI HH E MO 13.8 ST  8.1 OM  2.0 f0 4.70 R0.3128 AL 2.65 WI  9.7 MW  3.1 3
 SPEC CHI HH E T171246 K 0.000 GD  242 VS 4.20 DE 3.00 Q0230.0 QA 0.60 VS 4.20 3
 SPEC BRR HH N MO 14.1 ST 51.1 OM  2.6 f0 6.74 R0.2181 AL 2.02 WI  5.1 MW  3.3 3
 SPEC BRR HH N T171221 K 0.000 GD  130 VS 4.20 DE 3.00 Q0230.0 QA 0.60 VS 4.20 3
 ACTION:UPD 12-10-22 14:20 OP:ep   STATUS:               ID:20120924171150 L   I
 2012-09-24-1710-00M.COL___220                                                 6
 STAT SP IPHASW D HRMM SECON CODA AMPLIT PERI AZIMU VELO AIN AR TRES W  DIS CAZ7
 BAR2 SZ IP       1712  6.99                             161    0.1810 36.5  85 
 BAR2 SZ ES   1   1712 19.35                             161   -0.07 7 36.5  85 
 BRR  HZ EP       1712  7.65                             148   -0.2510 64.0 340 
 BRR  HN ES   1   1712 21.64                             148    0.27 7 64.0 340 
 BRR  HN I        1712 29.81       758.1 0.18                          64.0 340 
 GIR2 SZ EP       1712  8.44                             147    0.1510 66.8  32 
 GIR2 SZ ES   1   1712 22.03                             147   -0.03 7 66.8  32 
 RUS  HZ IP     D 1712 10.00                             140   -0.3310 88.1 147 
 RUS  HN ES   1   1712 25.29                             140   -0.40 7 88.1 147 
 RUS  HZ I        1712 27.12       120.8 0.22                          88.1 147 
 PAM  SZ EP       1712 13.38                             129   -0.0910  124  46 
 PAM  SN ES   1   1712 31.06                             129   -0.21 7  124  46 
 PAM  SN I        1712 32.05       321.4 0.28                           124  46 
 YOP  SZ EP   1   1712 19.13                             118    0.42 7  180 138 
 YOP  SN ES   1   1712 41.71                             118    1.10 7  180 138 
 YOP  SN I        1712 43.61       263.3 0.60                           180 138 
 ZAR  HZ EP   1   1712 18.71                             117    0.07 7  181 305 
 ZAR  HN ES   1   1712 40.89                             117    0.41 7  181 305 
 ZAR  HN I        1712 45.13       522.2 0.32                           181 305 
 NOR  SZ EP       1712 18.68                             117   -0.66 9  187 234 
 NOR  SN ES   1   1712 41.44                             117   -0.29 7  187 234 
 TAM  HZ EP       1712 19.75                             116   -0.02 9  191  94 
 TAM  HE ES   2   1712 41.98                             116   -0.52 4  191  94 
 TAM  HN I        1712 44.87       173.0 0.50                           191  94 
 ROSC BN ES   2   1712 47.66                             114    0.44 4  211 205 
 ROSC BZ I        1712 53.83       116.5 0.65                           211 205 
 CHI  HZ EP   1   1712 22.99                             113    0.01 6  215 187 
 CHI  HN ES   1   1712 48.34                             113    0.14 6  215 187 
 CHI  HN I        1712 55.60        95.6 0.56                           215 187 
 HEL  HZ EP   1   1712 23.44                             112   -0.80 6  227 260 
 HEL  HN ES   1   1712 50.62                             112    0.17 6  227 260 
 HEL  HN I        1712 54.30       102.8 0.48                           227 260 
 GUY  SZ EP   1   1712 28.62                             109    0.99 6  255 235 
 GUY  SE ES   1   1712 57.42                             109    0.93 6  255 235 
 VIL  SN ES   2   1712 58.45                             107   -0.66 4  272 184 
 RREF HZ EP   1   1712 29.93                             107   -0.07 6  274 228 
 DBB  SZ EP       1712 32.57                             105   -0.06 7  303 280 
 DBB  SZ ES   2   1713  4.77                             105   -0.61 4  303 280 
 DBB  SZ I        1713  9.83        49.7 0.54                           303 280 
 PRA  HZ EP       1712 37.90                             102   -0.32 6  350 206 
 PRA  HE ES   1   1713 15.61                             102    0.27 5  350 206 
 PRA  HN I        1713 18.96        41.8 0.22                           350 206 
 COD  HZ EP   1   1712 40.90                             101    0.02 5  373   1 
 COD  HN ES   1   1713 20.85                             101    0.79 5  373   1 
 COD  HN I        1713 31.27        29.7 0.42                           373   1 
                                                                                
