 2012 1124 1512 38.1 L   6.878 -73.290118.8  RSN  9 0.3 2.9LRSN                1
 GAP= 67        0.76       2.4     2.8  5.0  0.1145E+01  0.4042E+01  0.1864E+00E
 Epicentro: BETULIA - SANTANDER                                                3
 ACTION:UPD 12-12-05 15:35 OP:}ep  STATUS:               ID:20121124151238 L   I
 2012-11-24-1510-00M.COL___234                                                 6
 STAT SP IPHASW D HRMM SECON CODA AMPLIT PERI AZIMU VELO AIN AR TRES W  DIS CAZ7
 GIR2 SZ IP       1512 54.49                             168    0.1510 24.6  26 
 BAR2 SZ IP       1512 54.89                             163    0.1310 33.8 159 
 BAR2 SZ ES       1513  7.97                             163    0.1710 33.8 159 
 PAM  SZ EP       1512 57.99                             143    0.1310 82.8  52 
 PAM  SZ I        1512 59.16       139.6 0.18                          82.8  52 
 PAM  SN ES   1   1513 13.05                             143   -0.27 7 82.8  52 
 RUS  HZ EP       1512 59.71                             134   -0.4710  111 168 
 RUS  HN ES       1513 17.08                             134   -0.3510  111 168 
 RUS  HN I        1513 18.87       284.7 0.38                           111 168 
 OCA  HZ EP       1513  3.20                             125   -0.23 9  151 359 
 OCA  HE ES       1513 22.99                             125   -0.23 9  151 359 
 OCA  HZ I        1513 24.04       273.4 0.30                           151 359 
 TAM  HZ EP       1513  5.68                             120    0.11 9  173 106 
 TAM  HN ES       1513 27.56                             120    0.52 9  173 106 
 TAM  HZ I        1513 28.17        93.1 0.18                           173 106 
 ZAR  HZ EP       1513  6.56                             118   -0.38 9  186 292 
 ZAR  HE ES       1513 29.82                             118    0.35 9  186 292 
 ZAR  HZ I        1513 33.45       131.9 0.32                           186 292 
 CHI  HZ EP       1513 14.80                             110   -0.15 8  253 191 
 CHI  HN ES   1   1513 43.76                             110    0.02 6  253 191 
 CHI  HZ I        1513 48.23        27.0 0.48                           253 191 
 HEL  HZ EP       1513 16.15                             110    0.61 8  259 253 
 HEL  HZ I        1513 50.02        39.6 0.24                           259 253 
                                                                                
