 2016 1124 1256 23.2 L   6.832 -73.146148.6  RSN 23 0.5 3.2LRSN 3.7WRSN        1
 SPEC AVERAGE  MO 14.7 ST0.714 OM  2.7 f0 1.18 R2.4009 AL 0.00 WI 30.0 MW  3.7 3
 SPEC SD       MO  0.2 ST  1.3 OM  0.4 f00.772 R1.8947 AL      WI      MW  0.2 3
 GAP= 82        0.84       3.3     2.6  4.6  0.1936E+00  0.4432E+01  0.3823E+01E
 Epicentro: LOS SANTOS - SANTANDER                                             3
      60.0      60.0      78.0  5.0  9.0 12.0  0.2  0.2           RSN FPFIT    F
 SPEC ZAR HH Z MO 14.3 ST  5.1 OM  2.2 f0 3.43 R0.5609 AL-0.00 WI 30.0 MW  3.5 3
 SPEC ZAR HH Z T125720 K 0.000 GD  251 VS 5.20 DE 3.50 Q0750.0 QA 1.50 VS 5.20 3
 SPEC CHI HH Z MO 14.8 ST0.127 OM  2.6 f00.699 R2.7525 AL-0.00 WI 30.0 MW  3.8 3
 SPEC CHI HH Z T125729 K 0.000 GD  292 VS 5.20 DE 3.50 Q0750.0 QA 1.50 VS 5.20 3
 SPEC ROSCBH Z MO 14.8 ST0.460 OM  2.6 f0 1.07 R1.7981 AL-0.00 WI 30.0 MW  3.8 3
 SPEC ROSCBH Z T125731 K 0.000 GD  296 VS 5.20 DE 3.50 Q0750.0 QA 1.50 VS 5.20 3
 SPEC URE HH Z MO 15.0 ST0.387 OM  2.8 f00.845 R2.2769 AL-0.00 WI 30.0 MW  4.0 3
 SPEC URE HH Z T125734 K 0.000 GD  319 VS 5.20 DE 3.50 Q0750.0 QA 1.50 VS 5.20 3
 SPEC PTGCHH Z MO 14.4 ST0.431 OM  2.1 f0 1.46 R1.3178 AL-0.00 WI 30.0 MW  3.5 3
 SPEC PTGCHH Z T125738 K 0.000 GD  345 VS 5.20 DE 3.50 Q0750.0 QA 1.50 VS 5.20 3
 SPEC ELA HH Z MO 14.9 ST0.191 OM  2.6 f00.746 R2.5791 AL-0.00 WI 30.0 MW  3.9 3
 SPEC ELA HH Z T125749 K 0.000 GD  362 VS 5.20 DE 3.50 Q0750.0 QA 1.50 VS 5.20 3
 SPEC CBOCHH Z MO 14.7 ST0.122 OM  2.4 f00.746 R2.5791 AL-0.00 WI 30.0 MW  3.7 3
 SPEC CBOCHH Z T125744 K 0.000 GD  366 VS 5.20 DE 3.50 Q0750.0 QA 1.50 VS 5.20 3
 SPEC ANILHH Z MO 14.5 ST0.949 OM  2.2 f0 1.69 R1.1385 AL-0.00 WI 30.0 MW  3.6 3
 SPEC ANILHH Z T125752 K 0.000 GD  389 VS 5.20 DE 3.50 Q0750.0 QA 1.50 VS 5.20 3
 SPEC PRA HH Z MO 14.6 ST0.194 OM  2.3 f00.898 R2.1425 AL-0.00 WI 30.0 MW  3.7 3
 SPEC PRA HH Z T125757 K 0.000 GD  422 VS 5.20 DE 3.50 Q0750.0 QA 1.50 VS 5.20 3
 SPEC ORTCHH Z MO 14.4 ST0.383 OM  2.1 f0 1.31 R1.4687 AL-0.00 WI 30.0 MW  3.6 3
 SPEC ORTCHH Z T125759 K 0.000 GD  424 VS 5.20 DE 3.50 Q0750.0 QA 1.50 VS 5.20 3
 SPEC PAL HH Z MO 14.4 ST0.190 OM  2.1 f0 1.03 R1.8680 AL-0.00 WI 30.0 MW  3.6 3
 SPEC PAL HH Z T125759 K 0.000 GD  434 VS 5.20 DE 3.50 Q0750.0 QA 1.50 VS 5.20 3
 SPEC YOT HH Z MO 15.1 ST0.010 OM  2.7 f00.231 R8.3290 AL-0.00 WI 30.0 MW  4.0 3
 SPEC YOT HH Z T125814 K 0.000 GD  496 VS 5.20 DE 3.50 Q0750.0 QA 1.50 VS 5.20 3
 OLDACT:UP  16-11-24 22:19 OP:edw  STATUS:               ID:20161124124746     3
 OLDACT:REG 16-11-24 19:51 OP:edw  STATUS:               ID:20161124124746     3
 ACTION:UPD 17-10-26 21:11 OP:lp   STATUS:               ID:20161124125623 L   I
 OLDACT:UP  17-02-07 01:22 OP:nlst STATUS:               ID:20161124125623 L   3
 OLDACT:UP  16-11-24 22:20 OP:edw  STATUS:               ID:20161124124746     3
 2016-11-24-1248-00M.COL___349                                                 6
 STAT SP IPHASW D HRMM SECON CODA AMPLIT PERI AZIMU VELO AIN AR TRES W  DIS CAZ7
 BAR2 EZ IP     C 1256 43.21                             169   -0.0610 26.8 189 
 BAR2 EZ ES       1256 58.79                             169   -0.1110 26.8 189 
 BAR2 EZ I        1256 59.38       685.6 0.26            165           26.8 189 
 BRR  HZ EP     C 1256 45.12                             153    0.5310 69.6 296 
 PAM  EZ IP     C 1256 46.03                             152    0.4510 74.7  41 
 PAM  EN ES       1257  2.88                             152   -0.1410 74.7  41 
 PAM  EZ I        1257  5.31       368.3 0.56            158           74.7  41 
 PTB  HZ EP   9   1256 49.68                             132   -0.81 0  148 257 
 PTB  HN ES       1257 11.04                             132    0.09 9  148 257 
 PTB  HZ I        1257 14.23       219.1 0.16            131            148 257 
 TAM  HZ IP     C 1256 51.48                             131    0.27 9  156 106 
 TAM  HN ES       1257 12.62                             131   -0.42 9  156 106 
 ZAR  HZ EP       1256 55.84                             123    0.12 9  203 291 
 ZAR  HN ES       1257 21.58                             123    0.51 9  203 291 
 ZAR  HZ I        1257 24.22       194.2 0.30            123            203 291 
 NOR  HZ EP       1256 59.08                             119   -0.26 8  237 234 
 NOR  HN ES       1257 27.31                             119   -0.20 8  237 234 
 NOR  HZ I        1257 32.05       130.3 0.16            118            237 234 
 CHI  HZ EP       1257  1.32                             117   -0.13 8  252 195 
 CHI  HN ES   4   1257 30.51                             117   -0.76 0  252 195 
 CHI  HZ I        1257 38.81        65.6 0.48            117            252 195 
 ROSC BZ EP   4   1257  3.03                             117    1.20 0  256 211 
 ROSC BN ES   4   1257 33.43                             117    1.49 0  256 211 
 ROSC BZ I        1257 38.76       179.6 0.35            117            256 211 
 URE  HZ EP       1257  3.57                             114   -0.71 7  283 291 
 URE  HN ES       1257 35.69                             114   -0.62 7  283 291 
 URE  HZ I        1257 48.17       136.5 0.32            114            283 291 
 PTGC HZ EP   4 C 1257  6.17                             112   -1.41 0  312 159 
 PTGC HN ES   4   1257 39.56                             112   -2.62 0  312 159 
 PTGC HZ I        1257 42.10        69.4 0.40            113            312 159 
 LL6C HZ EP   4   1256 49.54                             111   -19.1 0  321 358 
 LL6C HE ES   4   1257 24.11                             111   -20.0 0  321 358 
 ELA  HZ EP   4   1257 12.29                             111    1.83 0  331 229 
 ELA  HE ES   4   1257 51.01                             111    3.71 0  331 229 
 ELA  HZ I        1257 56.70       101.7 0.38            111            331 229 
 CBOC HZ EP       1257 11.09                             110    0.71 7  335 252 
 CBOC HN ES   4   1257 45.94                             110   -1.23 0  335 252 
 CBOC HZ I        1257 49.89        22.3 0.17            110            335 252 
 DBB  HZ EP   4   1257 11.93                             110    1.15 0  339 274 
 DBB  HN ES   2   1257 47.00                             110   -0.89 3  339 274 
 ANIL HZ EP   4   1257 14.76                             109    1.33 0  360 224 
 ANIL HE ES   4   1257 54.15                             109    1.56 0  360 224 
 PRA  HZ EP       1257 16.89                             107   -0.31 6  395 209 
 PRA  HN ES       1257 58.72                             107   -0.59 6  395 209 
 PRA  HZ I        1258  6.56        81.9 0.36            107            395 209 
 ORTC HZ EP       1257 18.09                             107    0.52 6  398 216 
 ORTC HN ES       1258  0.60                             107    0.63 6  398 216 
 ORTC HZ I        1258  9.24        46.3 0.34            107            398 216 
 SJC  HZ EP       1257 17.55                             106   -0.98 6  406 327 
 SJC  HN ES   4   1257 58.20                             106   -3.47 0  406 327 
 SJC  HZ I        1258  3.27        29.4 0.54            107            406 327 
 PAL  HZ IP     C 1257 19.06                             106    0.37 6  408 239 
 PAL  HN ES   4   1258  1.00                             106   -0.96 0  408 239 
 PAL  HZ I        1258  6.24        37.3 0.26            106            408 239 
 LCBC HE ES   4   1258  5.33                             106    0.95 0  420 302 
 CRJC HZ EP   9   1257 23.76                             104   -1.62 0  464   4 
 CRJC HE ES       1258 12.11                                   -0.13 5  464   4 
 CRJC HZ I        1258 15.70        13.7 0.54            105            464   4 
 YOT  HZ EP   2   1257 26.05                             103   -0.57 2  474 229 
 YOT  HE ES   2   1258 16.25                             103    0.18 2  474 229 
 MARO HZ EP       1257 34.82                             101    0.16 4  540 215 
 MARO HE ES   4   1258 28.16                             101   -2.22 0  540 215 
 MARO HZ I        1258 37.01         7.6 0.16            102            540 215 
 GARC HZ EP   4   1257 37.65                             101   -1.26 0  576 207 
 GARC HN ES   4   1258 33.28                             101   -4.68 0  576 207 
 GARC HZ I        1258 35.80        35.8 0.22            101            576 207 
 BBAC HZ EP   2   1257 54.23                              98    0.43 1  700 221 
 BBAC HN ES   4   1259  1.32                              98   -3.14 0  700 221 
 BBAC HZ I        1259  6.90         2.8 0.42             98            700 221 
                                                                                
