 2016 1124 1643 10.1 L   6.915 -73.185150.1  RSN  9 0.5 2.0LRSN                1
 GAP=131        1.13       5.7     6.4  7.1 -0.1570E+02  0.2234E+01  0.1374E+02E
 Epicentro: BETULIA - SANTANDER                                                3
 ACTION:UPD 17-10-26 21:11 OP:lp   STATUS:               ID:20161124164310 L   I
 OLDACT:UP  16-11-24 23:26 OP:edw  STATUS:               ID:20161124163745     3
 OLDACT:UP  16-11-24 23:25 OP:edw  STATUS:               ID:20161124163745     3
 OLDACT:UP  16-11-24 23:25 OP:edw  STATUS:               ID:20161124163745     3
 OLDACT:REG 16-11-24 20:20 OP:edw  STATUS:               ID:20161124163745     3
 2016-11-24-1638-00M.COL___349                                                 6
 STAT SP IPHASW D HRMM SECON CODA AMPLIT PERI AZIMU VELO AIN AR TRES W  DIS CAZ7
 BAR2 EZ EP       1643 30.40                             166   -0.1810 35.7 179 
 BAR2 EZ ES       1643 45.52                             166   -1.0210 35.7 179 
 BAR2 EZ I        1643 46.21        19.1 0.21            164           35.7 179 
 BRR  HZ EP       1643 31.63                             155    0.3610 61.9 290 
 BRR  HN ES       1643 48.11                             155    0.3610 61.9 290 
 PAM  EZ IP     C 1643 33.13                             152    0.6710 71.3  49 
 PAM  EN ES       1643 49.83                             152   -0.0510 71.3  49 
 PAM  EZ I        1643 52.01        14.3 0.44            154           71.3  49 
 PTB  HZ EP   9   1643 37.13                             132   -0.21 0  147 254 
 PTB  HN ES       1643 57.88                             134   -0.48 9  147 254 
 PTB  HZ I        1644  1.35        10.1 0.16            132            147 254 
 ZAR  HZ EP   2   1643 41.14                             123   -0.85 4  195 289 
 ZAR  HE ES   4   1644  8.90                             123    2.06 0  195 289 
 NOR  HZ EP       1643 46.72                             118    0.16 8  239 231 
 NOR  HN ES       1644 14.98                             118    0.00 8  239 231 
 NOR  HZ I        1644 16.27         5.3 0.16            118            239 231 
 CHI  HZ EP       1643 48.97                             116   -0.32 8  260 193 
 CHI  HN ES       1644 19.96                             116    0.12 8  260 193 
 CHI  HZ I        1644 25.67         5.3 0.70            116            260 193 
 SJC  HE ES   2   1644 45.22                             106   -1.35 3  396 326 
 ORTC HZ EP   4   1644  5.68                             106    0.56 0  403 215 
 ORTC HN ES       1644 48.46                             106    0.45 6  403 215 
 ORTC HZ I        1644 54.52         3.6 0.50            106            403 215 
                                                                                
