 2011  524 1009 18.1 L   6.782 -73.043135.7  RSN  6 0.2 1.6LRSN                1
 GAP=151        0.49       2.7     5.0  5.4 -0.1443E+01 -0.5470E+01 -0.5147E+00E
 Epicentro: LOS SANTOS - SANTANDER                                             3
 ACTION:UP  11-06-29 08:55 OP:tino STATUS:               ID:20110524100918 L   I
 2011-05-24-1007-44S.COL___139                                                 6
 STAT SP IPHASW D HRMM SECON CODA AMPLIT PERI AZIMU VELO SNR AR TRES W  DIS CAZ7
 BAR2 SZ EP   2   10 9 36.44                             169    -0.1 5   26 216 
 BAR2 SZ ES   2   10 9 50.68                             169    -0.3 5   26 216 
 BAR2 SZ I        10 9 52.90         8.9 0.25                            26 216 
 PAM  SZ EP   1   10 9 38.56                             151    -0.4 7   72  32 
 PAM  SN ES   2   10 9 55.34                             151     0.2 5   72  32 
 BRR  HZ EP   1   10 9 38.50                             147    -0.3 7   82 296 
 BRR  HE ES   1   10 9 55.17                             147     0.1 7   82 296 
 BRR  HZ I        10 9 59.68        12.5 0.15                            82 296 
 RUS  HZ EP   1   10 9 40.94                             142     0.3 7   98 183 
 RUS  HN ES   2   10 9 58.42                             142     0.1 5   98 183 
 RUS  HZ I        1010  0.85         5.5 0.26                            98 183 
 GRA  SZ EP   1   10 9 42.52                             135     0.2 7  125  12 
 GRA  SZ ES   1   1010  1.30                             135     0.0 7  125  12 
 GRA  SZ I        1010  5.05         5.6 0.36                           125  12 
 OCA  SZ EP   1   10 9 46.08                             127     0.1 7  164 349 
 OCA  SZ ES   1   1010  7.82                             127     0.1 7  164 349 
 OCA  SZ I        1010 11.70         7.3 0.14                           164 349 
                                                                                
