 2017  524 1403  2.2 L   6.749 -73.079136.4  RSN  5 0.2 1.6LRSN                1
 GAP=241        0.43       3.0     3.4  3.7  0.2563E+01  0.8652E+00  0.1358E+01E
 Epicentro: JORDAN - SANTANDER                                                 3
 ACTION:UPD 17-06-16 13:38 OP:jn   STATUS:               ID:20170524140302 L   I
 OLDACT:UP  17-05-24 21:49 OP:dnl  STATUS:               ID:20170524135741     3
 OLDACT:UP  17-05-24 21:49 OP:dnl  STATUS:               ID:20170524135741     3
 OLDACT:UP  17-05-24 21:49 OP:dnl  STATUS:               ID:20170524135741     3
 OLDACT:UP  17-05-24 21:49 OP:dnl  STATUS:               ID:20170524135741     3
 OLDACT:UP  17-05-24 21:49 OP:dnl  STATUS:               ID:20170524135741     3
 OLDACT:UP  17-05-24 21:48 OP:dnl  STATUS:               ID:20170524135741     3
 OLDACT:REG 17-05-24 20:47 OP:dnl  STATUS:               ID:20170524135741     3
 2017-05-24-1358-00M.COL___347                                                 6
 STAT SP IPHASW D HRMM SECON CODA AMPLIT PERI AZIMU VELO AIN AR TRES W  DIS CAZ7
 BRR  HZ EP   2   14 3 22.64                             148   -0.25 5 80.4 300 
 BRR  HE ES       14 3 39.12                             148    0.0610 80.4 300 
 BRR  HZ I        14 3 43.95         7.5 0.16            146           80.4 300 
 RUS  HZ EP   2   14 3 24.43                             144   -0.15 5 94.7 180 
 RUS  HE ES       14 3 42.07                             144    0.0110 94.7 180 
 RUS  HZ I        14 3 42.93         4.4 0.34            148           94.7 180 
 PTB  HZ EP   9   14 3 27.50                             129   -1.49 0  154 261 
 PTB  HN ES       14 3 48.40                             129   -0.01 9  154 261 
 PTB  HZ I        14 3 50.14         4.4 0.16            130            154 261 
 ZAR  HZ EP   2   14 3 34.68                             119   -0.30 4  213 293 
 ZAR  HE ES   4   14 3 59.25                             119   -1.31 0  213 293 
 ZAR  HZ I        14 4  4.71         7.1 0.52            119            213 293 
 NOR  HZ EP       14 3 38.03                             116    0.34 8  238 237 
 NOR  HN ES       14 4  5.17                             116   -0.22 8  238 237 
 NOR  HZ I        14 4  6.71         3.3 0.32            118            238 237 
                                                                                
