 2016  324 1555  3.7 L   6.593 -73.447114.0  RSN 20 0.5 2.5LRSN                1
 GAP= 62        1.03       2.7     3.0  5.5 -0.2744E+01  0.6026E+01 -0.1208E+01E
 Epicentro: EL CARMEN - SANTANDER                                              3
 ACTION:UPD 16-05-13 21:27 OP:cam  STATUS:               ID:20160324155503 L   I
 OLDACT:REG 16-03-24 23:29 OP:dnl  STATUS:               ID:20160324154741     3
 2016-03-24-1547-41M.COL___304                                                 6
 STAT SP IPHASW D HRMM SECON CODA AMPLIT PERI AZIMU VELO AIN AR TRES W  DIS CAZ7
 BAR2 EZ EP       1555 19.88                             165    0.2210 29.3  90 
 BAR2 EZ ES       1555 32.65                             165    0.5110 29.3  90 
 BAR2 EZ I        1555 34.43       173.0 0.24            168           29.3  90 
 RUS  HZ EP       1555 23.18                             141   -0.1810 87.3 152 
 RUS  HN ES       1555 38.71                             141   -0.0110 87.3 152 
 RUS  HZ I        1555 41.38        40.6 0.32            141           87.3 152 
 PTB  HZ EP     C 1555 23.70                             132   -1.0710  112 267 
 PTB  HE ES       1555 40.92                             132   -0.3210  112 267 
 PTB  HZ I        1555 44.12        46.5 0.10            132            112 267 
 PAM  EZ EP       1555 25.86                             132   -0.0110  117  45 
 PAM  EN ES       1555 43.39                             132    0.1910  117  45 
 PAM  EZ I        1555 47.08        19.0 0.22            134            117  45 
 SPBC HZ EP       1555 25.91                             129   -0.1810  125 214 
 SPBC HE ES       1555 43.31                             129   -0.2810  125 214 
 SPBC HZ I        1555 49.69       103.5 0.28            129            125 214 
 OCA  HZ EP       1555 31.55                             118   -0.54 9  183   4 
 OCA  HN ES       1555 54.23                             118   -0.03 9  183   4 
 OCA  HZ I        1556  1.28        75.4 0.27            119            183   4 
 ZAR  HZ EP       1555 32.46                             117    0.31 9  185 303 
 ZAR  HE ES       1555 55.30                             117    0.92 9  185 303 
 ZAR  HZ I        1555 58.34        35.5 0.21            118            185 303 
 NOR  HZ EP       1555 32.50                             116   -0.73 9  194 234 
 NOR  HN ES       1555 56.13                             116   -0.16 9  194 234 
 NOR  HZ I        1556  1.60        33.6 0.14            116            194 234 
 ROSC BZ EP   2   1555 36.89                             113    0.75 4  217 207 
 ROSC BN ES   4   1556  4.20                             113    2.72 0  217 207 
 ROSC BZ I        1556  9.99        26.5 0.40            114            217 207 
 CHI  HZ EP       1555 36.69                             113    0.21 8  219 188 
 CHI  HN ES   2   1556  1.94                             113   -0.15 4  219 188 
 CHI  HZ I        1556 11.33        14.8 0.58            114            219 188 
 HEL  HZ EP       1555 38.04                             111   -0.11 8  235 259 
 HEL  HN ES   2   1556  4.55                             111   -0.49 4  235 259 
 HEL  HZ I        1556 10.92        13.8 0.20            112            235 259 
 GUY2CHZ EP       1555 41.86                             109    0.57 8  261 235 
 GUY2CHE ES       1556 11.13                             109    0.49 8  261 235 
 GUY2CHZ I        1556 17.83        17.8 0.30                           261 235 
 URE  HN ES   4   1556  8.56                             108   -1.63 0  264 299 
 URE  HZ I        1556 11.00        28.9 0.18            109            264 299 
 ELA  HZ EP   4   1555 46.24                             107    1.61 0  289 229 
 ELA  HN ES   2   1556 17.58                             107    0.99 4  289 229 
 ELA  HZ I        1556 22.69        18.2 0.50            107            289 229 
 CBOC HZ EP   2   1555 45.30                             106    0.39 4  295 254 
 CBOC HN ES       1556 17.06                             106   -0.02 7  295 254 
 ANIL HZ EP   2   1555 48.35                             105    0.62 3  318 223 
 ANIL HE ES   4   1556 23.35                             105    1.25 0  318 223 
 ANIL HZ I        1556 28.50        28.1 0.28            105            318 223 
 SOCV BZ EP   4   1555 48.45                             103   -1.79 0  342  57 
 SOCV BE ES   4   1556 23.51                             103   -3.07 0  342  57 
 MON  HZ EP   4   1555 49.11                             103   -1.36 0  344 315 
 MON  HN ES   4   1556 25.56                             103   -1.42 0  344 315 
 MON  HZ I        1556 28.14         6.4 0.18            104            344 315 
 ORTC HZ EP   2   1555 52.88                             102    0.74 3  358 214 
 ORTC HE ES       1556 30.76                             102    0.81 6  358 214 
 ORTC HZ I        1556 35.62        11.5 0.36            103            358 214 
 SDV  BZ EP       1555 57.05                             100   -0.46 6  401  51 
 SDV  BE ES   4   1556 37.04                             100   -2.48 0  401  51 
 SJC  HZ EP   4   1555 56.86                             100   -1.86 0  412 333 
 SJC  HN ES   4   1556 38.16                             100   -3.51 0  412 333 
 SJC  HZ I        1556 52.66         7.3 0.44            101            412 333 
                                                                                
