 2016  224 1615 37.6 L   5.998 -73.687128.4  RSN  4 0.4 1.4LRSN                1
 GAP=188        0.94       6.5     6.0  9.0 -0.1842E+02  0.1018E+02  0.2434E+01E
 Epicentro: VELEZ - SANTANDER                                                  3
 ACTION:UPD 16-03-04 21:29 OP:rebc STATUS:               ID:20160224161537 L   I
 OLDACT:UP  16-02-24 22:44 OP:drio STATUS:               ID:20160224160751d    3
 OLDACT:DUP 16-02-24 22:40 OP:drio STATUS:               ID:20160224160751d    3
 2016-02-24-1607-50M.COL___340                                                 6
 STAT SP IPHASW D HRMM SECON CODA AMPLIT PERI AZIMU VELO AIN AR TRES W  DIS CAZ7
 SPBC HZ EP       1615 55.77                             154   -0.4810 57.3 228 
 SPBC HE ES       1616 10.63                             154   -0.1610 57.3 228 
 BAR2 EZ ES       1616 14.69                             144    0.3110 86.2  40 
 PTB  HZ EP       1615 59.50                             138    0.1810  104 305 
 PTB  HN ES       1616 15.87                             138   -0.3810  104 305 
 PTB  HZ I        1616 18.75         3.8 0.22            137            104 305 
 NOR  HZ EP       1616  2.48                             129   -0.01 9  139 250 
 NOR  HN ES       1616 22.51                             129    0.62 9  139 250 
 NOR  HZ I        1616 26.29         5.4 0.24            129            139 250 
                                                                                
