 2016  724 1404 27.9 L   6.778 -73.080144.5  RSN  5 0.4 1.5LRSN                1
 GAP=146        0.88       4.5     5.4  7.4  0.1265E+00  0.1710E+02 -0.4316E+01E
 Epicentro: LOS SANTOS - SANTANDER                                             3
 ACTION:UPD 17-03-29 16:54 OP:lp   STATUS:               ID:20160724140427 L   I
 OLDACT:REG 16-07-24 21:08 OP:lv   STATUS:               ID:20160724135759     3
 2016-07-24-1357-59S.COL___334                                                 6
 STAT SP IPHASW D HRMM SECON CODA AMPLIT PERI AZIMU VELO AIN AR TRES W  DIS CAZ7
 BAR2 EZ EP       14 4 47.37                             170    0.0210 23.4 209 
 BAR2 EZ ES       14 5  2.05                             170   -0.4910 23.4 209 
 PAM  EZ EP       14 4 50.19                             151    0.3810 75.0  34 
 PAM  EN ES       14 5  6.99                             151    0.0710 75.0  34 
 PAM  EZ I        14 5  7.80         7.0 0.17            153           75.0  34 
 RUS  HZ EP       14 4 51.32                             144    0.0210 97.9 180 
 RUS  HE ES       14 5  9.72                             144    0.1410 97.9 180 
 RUS  HZ I        14 5 10.61         3.3 0.22            146           97.9 180 
 ZAR  HZ EP       14 5  0.32                             121   -0.72 8  212 292 
 ZAR  HN ES       14 5 27.30                             121    0.40 8  212 292 
 ZAR  HZ I        14 5 32.40         4.5 0.40            121            212 292 
 GUY2CHZ EP   4   14 5 13.51                             111    1.57 0  306 236 
 GUY2CHE ES   2   14 5 47.06                             111    0.74 4  306 236 
 GUY2CHZ I        14 5 51.07         1.1 0.52                           306 236 
                                                                                
