 2012  724 1130 28.6 L   6.698 -73.196148.1  RSN  5 0.4 1.5LRSN                1
 GAP=224        0.99      11.3     9.4 12.2  0.6118E+02  0.8735E+01  0.1347E+02E
 Epicentro: VILLANUEVA - SANTANDER                                             3
 ACTION:UPD 12-08-14 11:45 OP:ep   STATUS:               ID:20120724113028 L   I
 2012-07-24-1130-00M.COL___215                                                 6
 STAT SP IPHASW D HRMM SECON CODA AMPLIT PERI AZIMU VELO AIN AR TRES W  DIS CAZ7
 BAR2 SZ EP   1   1130 48.32                             175     0.0 7   12 173 
 BAR2 SZ ES   2   1131  3.36                             175    -0.4 5   12 173 
 BAR2 SZ I        1131  4.71         4.8 0.13            177             12 173 
 BRR  HZ EP   1   1130 49.96                             152    -0.1 7   73 308 
 BRR  HN ES   1   1131  7.15                             152     0.3 7   73 308 
 BRR  HZ I        1131 14.15        15.4 0.46            152             73 308 
 RUS  HZ EP   1   1130 52.57                             147     0.7 7   90 172 
 RUS  HN ES   2   1131  9.18                             147    -0.8 5   90 172 
 RUS  HZ I        1131 12.72         2.8 0.45            154             90 172 
 PTB  HZ EP   1   1130 54.55                             134    -0.6 7  140 263 
 PTB  HN ES   1   1131 16.11                             134     0.3 7  140 263 
 PTB  HZ I        1131 18.35         2.7 0.18            137            140 263 
 ZAR  HN ES   1   1131 26.23                             123    -0.3 6  204 296 
 ZAR  HZ I        1131 31.98         3.4 0.35            126            204 296 
