 2017  824 1901  0.8 L   6.774 -73.110143.3  RSN  4 0.3 1.4LRSN                1
 GAP=142        0.80       4.2     6.2  6.5 -0.5189E+00 -0.2726E+01  0.9653E+00E
 Epicentro: LOS SANTOS - SANTANDER                                             3
 ACTION:UPD 17-09-04 20:24 OP:rebc STATUS:               ID:20170824190101 L   I
 OLDACT:UP  17-08-25 13:23 OP:nlst STATUS:               ID:20170824190101 L   3
 OLDACT:UP  17-08-25 01:29 OP:edw  STATUS:               ID:20170824185741     3
 OLDACT:REG 17-08-24 21:42 OP:edw  STATUS:               ID:20170824185741     3
 2017-08-24-1858-00M.COL___417                                                 6
 STAT SP IPHASW D HRMM SECON CODA AMPLIT PERI AZIMU VELO AIN AR TRES W  DIS CAZ7
 BAR2 EZ EP       19 1 19.80                             171   -0.2610 21.7 202 
 BAR2 EZ ES       19 1 34.55                             171   -0.5610 21.7 202 
 BAR2 EZ I        19 1 36.50         5.7 0.34            172           21.7 202 
 BRR  HZ EP       19 1 21.77                             150   -0.1510 76.0 299 
 BRR  HN ES       19 1 38.75                             150    0.3210 76.0 299 
 PAM  EZ EP       19 1 22.81                             150    0.1110 77.2  36 
 PAM  EN ES       19 1 39.94                             150    0.1310 77.2  36 
 PAM  EZ I        19 1 41.96         7.2 0.50            151           77.2  36 
 RUS  HZ EP       19 1 24.07                             144    0.0210 97.6 178 
 RUS  HN ES       19 1 42.60                             144    0.3910 97.6 178 
 RUS  HZ I        19 1 43.65         2.9 0.32            145           97.6 178 
                                                                                
