 2017  324 1503 14.2 L   6.770 -73.138146.5  RSN  7 0.3 1.7LRSN                1
 GAP=156        0.87       3.8     4.0  6.1 -0.2619E+01  0.2428E+01  0.7780E+01E
 Epicentro: LOS SANTOS - SANTANDER                                             3
 ACTION:UPD 17-05-25 18:44 OP:jn   STATUS:               ID:20170324150314 L   I
 OLDACT:REG 17-03-24 21:03 OP:lv   STATUS:               ID:20170324145747     3
 2017-03-24-1458-00M.COL___402                                                 6
 STAT SP IPHASW D HRMM SECON CODA AMPLIT PERI AZIMU VELO AIN AR TRES W  DIS CAZ7
 BAR2 EZ EP       15 3 33.76                             172   -0.1210 20.3 194 
 BAR2 EZ ES       15 3 48.92                             172   -0.3010 20.3 194 
 BAR2 EZ I        15 3 50.37                             170           20.3 194 
 BRR  HZ EP       15 3 35.74                             152    0.1610 73.5 300 
 BRR  HN ES       15 3 52.92                             152    0.6810 73.5 300 
 BRR  HZ I        15 3 55.30        16.8 0.44            152           73.5 300 
 PAM  EZ EP       15 3 36.62                             150   -0.0110 79.4  38 
 PAM  EN ES       15 3 54.02                             150   -0.1010 79.4  38 
 PAM  EZ I        15 3 56.23         6.8 0.58            153           79.4  38 
 PTB  HZ EP       15 3 40.65                             132   -0.61 9  148 260 
 PTB  HN ES       15 4  1.82                             132   -0.54 9  148 260 
 PTB  HZ I        15 4  3.82         6.5 0.15            132            148 260 
 SPBC HZ EP       15 3 42.76                             130    0.18 9  161 220 
 SPBC HN ES       15 4  4.81                             130    0.10 9  161 220 
 SPBC HZ I        15 4  7.50        15.0 0.20            130            161 220 
 ZAR  HN ES       15 4 12.58                             122    0.15 8  206 293 
 ZAR  HZ I        15 4 18.03         3.5 0.09            123            206 293 
 CHI  HZ EP       15 3 51.91                             118    0.28 8  246 196 
 CHI  HE ES       15 4 21.10                             118    0.28 8  246 196 
 CHI  HZ I        15 4 28.76         2.1 0.13            118            246 196 
                                                                                
