 2015 1124 1801 37.8 L   6.855 -73.177134.4  RSN  4 0.2 1.9LRSN                1
 GAP=199        0.58       3.1     4.1  5.3  0.3695E+01  0.2127E+01 -0.7415E+01E
 Epicentro: ZAPATOCA - SANTANDER                                               3
 ACTION:UPD 15-12-28 16:13 OP:cam  STATUS:               ID:20151124180137 L   I
 OLDACT:REG 15-11-24 20:56 OP:drio STATUS:               ID:20151124175751     3
 2015-11-24-1757-51M.COL___204                                                 6
 STAT SP IPHASW D HRMM SECON CODA AMPLIT PERI AZIMU VELO AIN AR TRES W  DIS CAZ7
 BAR2 EZ EP       18 1 56.54                             167    0.3310 29.1 181 
 BAR2 EZ ES       18 2 10.31                             167   -0.2510 29.1 181 
 BAR2 EZ I        18 2 12.67        15.1 0.28            170           29.1 181 
 RUS  HE EP       18 2  0.81                             139   -0.1410  107 174 
 RUS  HN ES       18 2 19.15                             139    0.1510  107 174 
 RUS  HE I        18 2 19.88         4.9 0.34            146            107 174 
 PTB  HN EP       18 2  3.66                             130   -0.01 9  146 256 
 PTB  HZ ES       18 2 23.84                             130   -0.01 9  146 256 
 PTB  HN I        18 2 30.14        19.3 0.46            131            146 256 
 SML  HZ EP       18 2 12.70                             116   -0.35 8  237 335 
 SML  HN ES       18 2 40.77                             116    0.23 8  237 335 
 SML  HZ I        18 2 49.69        17.9 0.10            117            237 335 
                                                                                
