 2017  624 1339 17.7 L   6.899 -73.037162.6  RSN  4 0.3 1.3LRSN                1
 GAP=277        0.70       9.0     5.7  6.4  0.2218E+02  0.2592E+01 -0.5696E+01E
 Epicentro: PIEDECUESTA - SANTANDER                                            3
 ACTION:UPD 17-09-14 16:54 OP:jn   STATUS:               ID:20170624133917 L   I
 OLDACT:REG 17-06-24 22:08 OP:dani STATUS:               ID:20170624133738     3
 2017-06-24-1338-00M.COL___361                                                 6
 STAT SP IPHASW D HRMM SECON CODA AMPLIT PERI AZIMU VELO AIN AR TRES W  DIS CAZ7
 BAR2 EZ EP       1339 39.88                             167    0.2210 37.5 205 
 BAR2 EZ ES       1339 56.43                             167   -0.3810 37.5 205 
 BAR2 EZ I        1339 57.77         4.5 0.36            160           37.5 205 
 BRR  HZ EP       1339 41.03                             153    0.0010 78.0 287 
 BRR  HE ES       1339 59.57                             153    0.3310 78.0 287 
 PTB  HZ EP       1339 47.15                             133   -0.14 9  162 256 
 PTB  HN ES       1340 10.62                             133    0.23 9  162 256 
 PTB  HZ I        1340 13.95         1.5 0.28            131            162 256 
 ZAR  HN ES       1340 18.44                             125   -0.36 8  212 288 
                                                                                
