 2014 1124 1330 24.0 L   6.757 -73.190136.4  RSN  4 0.3 1.3LRSN                1
 GAP=229        0.90       7.8     7.1  9.6  0.3114E+02 -0.1014E+00  0.8375E+01E
 Epicentro: VILLANUEVA - SANTANDER                                             3
 ACTION:UPD 14-12-19 15:47 OP:nd   STATUS:               ID:20141124133024 L   I
 OLDACT:REG 14-11-24 21:10 OP:fm   STATUS:               ID:20141124132748     3
 2014-11-24-1327-48M.COL___297                                                 6
 STAT SP IPHASW D HRMM SECON CODA AMPLIT PERI AZIMU VELO AIN AR TRES W  DIS CAZ7
 BAR2 SZ EP       1330 42.00                             172   -0.4410 18.2 177 
 BAR2 SZ I        1330 59.97         5.1 0.32            170           18.2 177 
 BRR  HN ES       1330 59.91                             151    0.1910 69.5 304 
 RUS  HZ EP       1330 47.17                             143    0.6210 96.3 173 
 RUS  HN ES       1331  3.94                             143   -0.1810 96.3 173 
 RUS  HZ I        1331  6.08         2.7 0.22            144           96.3 173 
 PTB  HZ EP       1330 49.48                             131   -0.25 9  142 260 
 PTB  HN ES       1331  9.81                             131    0.04 9  142 260 
 PTB  HZ I        1331 15.10         2.5 0.12            131            142 260 
                                                                                
