 2017  924 1025  4.5 L   6.715 -73.163148.2  RSN  5 0.3 1.5LRSN                1
 GAP=229        0.75       4.5     5.2  5.5  0.1080E+02  0.1267E+02  0.4807E+01E
 Epicentro: VILLANUEVA - SANTANDER                                             3
 ACTION:UPD 17-10-05 19:15 OP:rebc STATUS:               ID:20170924102504 L   I
 OLDACT:DUP 17-09-24 20:38 OP:lv   STATUS:               ID:20170924101333d    3
 2017-09-24-1018-00M.COL___411                                                 6
 STAT SP IPHASW D HRMM SECON CODA AMPLIT PERI AZIMU VELO AIN AR TRES W  DIS CAZ7
 BAR2 EZ EP       1025 24.05                             174   -0.2110 13.8 189 
 BAR2 EZ ES       1025 39.21                             174   -0.4810 13.8 189 
 BAR2 EZ I        1025 41.71        10.4 0.42            172           13.8 189 
 BRR  HZ EP       1025 25.93                             152   -0.1610 74.6 306 
 BRR  HN ES       1025 43.45                             152    0.5010 74.6 306 
 BRR  HZ I        1025 46.83         6.7 0.36            151           74.6 306 
 RUS  HZ EP       1025 27.98                             147    0.1310 91.4 174 
 RUS  HN ES       1025 46.34                             147    0.2710 91.4 174 
 RUS  HZ I        1025 49.48         3.0 0.44            150           91.4 174 
 ZAR  HZ EP       1025 37.51                             123    0.21 8  206 295 
 ZAR  HE ES       1026  2.66                             123   -0.23 8  206 295 
 ZAR  HZ I        1026  9.22         3.2 0.38            124            206 295 
 GUY2CHZ EP       1025 47.56                             113    0.12 7  294 236 
 GUY2CHN ES       1026 20.73                             113   -0.21 7  294 236 
 GUY2CHZ I        1026 30.89         1.9 0.78                           294 236 
                                                                                
