 2013  124 1211 30.0 L   6.751 -73.122145.4  RSN  6 0.3 1.5LRSN                1
 GAP=142        0.69       4.7     5.0  6.7  0.4151E+01  0.8245E+01  0.1125E+01E
 Epicentro: LOS SANTOS - SANTANDER                                             3
 ACTION:UPD 13-02-15 09:16 OP:ep   STATUS:               ID:20130124121130 L   I
 2013-01-24-1210-00M.COL___241                                                 6
 STAT SP IPHASW D HRMM SECON CODA AMPLIT PERI AZIMU VELO AIN AR TRES W  DIS CAZ7
 BAR2 SZ EP   1   1211 49.43                             172   -0.06 7 18.8 201 
 BAR2 SZ ES   1   1212  4.53                             172   -0.17 7 18.8 201 
 BAR2 SZ I        1212  5.37        11.2 0.20            162           18.8 201 
 BRR  HZ EP   1   1211 51.66                             151    0.28 7 76.1 301 
 BRR  HN ES   1   1212  8.46                             151    0.39 7 76.1 301 
 PAM  SZ EP   1   1211 52.68                             150    0.36 7 80.1  36 
 PAM  SN ES   1   1212  9.31                             150   -0.44 7 80.1  36 
 PAM  SZ I        1212 10.97         4.5 0.32            142           80.1  36 
 RUS  HZ EP   1   1211 53.51                             145    0.20 7 95.1 177 
 RUS  HN ES   1   1212 11.59                             145    0.08 7 95.1 177 
 RUS  HZ I        1212 12.79         2.3 0.22            132           95.1 177 
 PTB  HZ EP   1   1211 56.35                             132   -0.72 7  149 261 
 PTB  HZ I        1212 19.98         6.7 0.14            116            149 261 
 ZAR  HN ES   1   1212 28.49                             122   -0.02 6  208 293 
                                                                                
