 2013  724 1127 42.7 L   6.813 -73.198140.6  RSN 11 0.5 2.3LRSN                1
 GAP=178        0.99       3.3     5.1  7.7  0.4520E+00  0.7973E+01 -0.1297E+01E
 Epicentro: ZAPATOCA - SANTANDER                                               3
 ACTION:UPD 13-08-12 10:39 OP:ep   STATUS:               ID:20130724112742 L   I
 OLDACT:REG 13-07-24 16:48 OP:stll STATUS:               ID:20130724111851     3
 2013-07-24-1118-51M.COL___234                                                 6
 STAT SP IPHASW D HRMM SECON CODA AMPLIT PERI AZIMU VELO AIN AR TRES W  DIS CAZ7
 BAR2 SZ IP     C 1128  1.88                             170    0.1810 24.5 176 
 BAR2 SZ ES   1   1128 16.37                             170   -0.18 7 24.5 176 
 BAR2 SZ I        1128 18.63        21.3 0.44            171           24.5 176 
 BRR  HZ EP     C 1128  3.79                             154    0.8510 65.5 300 
 BRR  HN ES   4   1128 21.22                             154    2.47 0 65.5 300 
 BRR  HN I        1128 26.02        45.3 0.20            151           65.5 300 
 RUS  HZ EP       1128  6.10                             142    0.0310  103 173 
 RUS  HN ES   1   1128 24.20                             142   -0.11 7  103 173 
 RUS  HN I        1128 25.94        27.6 0.22            147            103 173 
 PTB  HZ EP   1   1128  8.23                             132   -0.50 7  142 258 
 PTB  HN ES       1128 28.54                             132   -0.52 9  142 258 
 OCA  HZ EP   1   1128 10.67                             129    0.28 7  158 355 
 OCA  HN ES       1128 31.72                             129   -0.29 9  158 355 
 OCA  HN I        1128 35.85        84.8 0.22            131            158 355 
 ZAR  HZ EP   1   1128 13.87                             122   -0.30 6  198 292 
 ZAR  HE ES       1128 39.64                             122    0.89 9  198 292 
 ZAR  HZ I        1128 46.99        12.9 0.62            123            198 292 
 NOR  HZ EP   1   1128 17.98                             118    0.28 6  231 233 
 NOR  HE ES   1   1128 44.88                             118   -0.14 6  231 233 
 NOR  HZ I        1128 49.38         8.9 0.16            120            231 233 
 SML  HZ EP   1   1128 18.36                             117   -0.25 6  240 336 
 SML  HN ES       1128 46.06                             117   -0.58 8  240 336 
 SML  HN I        1128 51.53        61.0 0.10            119            240 336 
 GUY2CHZ EP   1   1128 24.86                             111   -0.75 5  297 234 
 GUY2CHN ES   4   1129  4.00                             111    4.90 0  297 234 
 RREF HE ES   4   1129  5.21                             110    1.48 0  318 228 
 COD  HN ES   4   1129  5.60                             108   -2.42 0  346 356 
 COD  HN I        1129 13.44         4.9 0.22            111            346 356 
 PRA  HZ EP   1   1128 35.75                             106   -0.09 4  390 209 
 PRA  HN ES   1   1129 17.46                             106    0.15 4  390 209 
 PRA  HN I        1129 23.04         4.7 0.46            108            390 209 
                                                                                
