 2013  224 1752 26.1 L   6.816 -73.152147.1  RSN 10 0.5 2.1LRSN                1
 GAP=135        1.01       4.0     4.8  7.0 -0.1420E+01  0.9853E+01  0.3225E+01E
 Epicentro: LOS SANTOS - SANTANDER                                             3
 ACTION:UPD 13-03-12 09:35 OP:ep   STATUS:               ID:20130224175226 L   I
 2013-02-24-1750-00M.COL___226                                                 6
 STAT SP IPHASW D HRMM SECON CODA AMPLIT PERI AZIMU VELO AIN AR TRES W  DIS CAZ7
 BAR2 SZ EP       1752 45.98                             170    0.0710 25.0 188 
 BAR2 SZ ES   1   1753  1.17                             170   -0.21 7 25.0 188 
 BAR2 SZ I        1753  3.36        51.1 0.24            168           25.0 188 
 BRR  HZ EP     C 1752 47.81                             153    0.5110 69.8 297 
 BRR  HN ES   1   1753  4.48                             153    0.63 7 69.8 297 
 BRR  HZ I        1753  8.06        23.9 0.36            150           69.8 297 
 PAM  SZ EP       1752 48.91                             151    0.5210 76.4  41 
 PAM  SN ES   1   1753  5.85                             151    0.06 7 76.4  41 
 PAM  SZ I        1753  7.97        19.7 0.46            157           76.4  41 
 RUS  HZ EP     C 1752 50.02                             143   -0.0810  102 176 
 RUS  HN ES   1   1753  8.50                             143   -0.33 7  102 176 
 RUS  HZ I        1753 10.33        15.4 0.28            146            102 176 
 PTB  HZ EP       1752 52.81                             132   -0.33 9  147 258 
 PTB  HN ES   1   1753 13.44                             132   -0.80 7  147 258 
 PTB  HZ I        1753 18.42        13.1 0.20            132            147 258 
 OCA  HZ EP   1   1752 54.35                             130    0.02 7  158 353 
 OCA  HN ES   1   1753 15.76                             130   -0.60 7  158 353 
 OCA  HZ I        1753 19.14        19.7 0.20            133            158 353 
 ZAR  HZ EP       1752 57.36                             123   -1.13 9  203 292 
 ZAR  HN ES   1   1753 23.95                             123    0.19 6  203 292 
 ZAR  HZ I        1753 30.15        18.0 0.34            123            203 292 
 CHI  HZ EP   1   1753  4.45                             117    0.42 6  250 195 
 CHI  HN ES   1   1753 33.39                             117   -0.23 6  250 195 
 CHI  HZ I        1753 37.49         7.6 0.60            119            250 195 
 HEL  HZ EP   1   1753  6.76                             115    0.41 6  272 255 
 HEL  HN ES   1   1753 38.39                             115    0.64 6  272 255 
 HEL  HZ I        1753 45.23         9.3 0.52            116            272 255 
 RREF HZ EP   1   1753 12.58                             111    0.22 5  322 229 
 RREF HN ES   1   1753 48.97                             111    0.51 5  322 229 
 RREF HZ I        1753 57.11         6.1 0.30            112            322 229 
                                                                                
