 2010 1124 1722 22.4 L   6.816 -73.113147.1  RSN  6 0.4 1.7LRSN                1
 GAP=162        0.66       4.7    10.6  7.3 -0.4077E+01  0.1088E+02  0.8519E+01E
 Epicentro: LOS SANTOS - SANTANDER                                             3
 ACTION:UP  10-12-17 16:54 OP:REBC STATUS:               ID:20101124172222 L   I
 2010-11-24-1719-03S.COL___129                                                 6
 STAT SP IPHASW D HRMM SECON CODA AMPLIT PERI AZIMU VELO SNR AR TRES W  DIS CAZ7
 BAR2 SZ EP   1   1722 42.41                             170     0.1 7   26 198 
 BAR2 SZ ES   1   1722 57.53                             170    -0.2 7   26 198 
 BAR2 SZ I        1723  0.55         6.7 0.50                            26 198 
 BRR  HZ EP   2   1722 42.99                             152    -0.9 5   74 296 
 BRR  HN ES   2   1723  1.00                             152     0.4 5   74 296 
 BRR  HZ I        1723  4.58        11.6 0.35                            74 296 
 RUS  HZ EP   1   1722 46.49                             144     0.0 7  102 178 
 RUS  HE ES   1   1723  5.17                             144     0.0 7  102 178 
 RUS  HZ I        1723  6.29         6.0 0.20                           102 178 
 GRA  SZ ES   2   1723  7.63                             138     0.4 5  123  16 
 GRA  SZ I        1723  9.07         6.8 0.24                           123  16 
 CHI  HZ EP   2   1723  0.34                             117    -0.2 4  251 196 
 CHI  HE ES   2   1723 30.28                             117     0.1 4  251 196 
 CHI  HZ I        1723 33.31         2.2 0.50                           251 196 
 PRA  HZ EP   2   1723 16.47                             106     0.1 3  395 210 
 PRA  HZ I        1723 18.00         5.2 0.05                           395 210 
 PRA  HE ES   2   1723 59.32                             106     0.8 3  395 210 
                                                                                
