 2015 1024 1144 37.1 L   6.784 -73.101142.4  RSN 13 0.5 2.1LRSN                1
 GAP=143        1.07       3.2     4.5  7.5 -0.3668E+01  0.1241E+02 -0.1812E+01E
 Epicentro: LOS SANTOS - SANTANDER                                             3
 ACTION:UPD 15-12-22 20:42 OP:cam  STATUS:               ID:20151024114437 L   I
 OLDACT:UP  15-10-24 22:31 OP:mh   STATUS:               ID:20151024113748     3
 OLDACT:UP  15-10-24 22:31 OP:mh   STATUS:               ID:20151024113748     3
 OLDACT:REG 15-10-24 21:09 OP:mh   STATUS:               ID:20151024113748     3
 2015-10-24-1137-48M.COL___316                                                 6
 STAT SP IPHASW D HRMM SECON CODA AMPLIT PERI AZIMU VELO AIN AR TRES W  DIS CAZ7
 BAR2 EZ EP       1144 56.41                             170    0.1010 23.1 203 
 BAR2 EZ I        1145 16.50        17.8 0.34            171           23.1 203 
 PAM  EZ IP     D 1144 59.33                             151    0.4910 75.7  36 
 PAM  EN ES       1145 16.21                             151    0.4010 75.7  36 
 PAM  EZ I        1145 20.55        19.2 0.58            150           75.7  36 
 BRR  HZ EP       1144 58.39                             150    0.2110 76.4 298 
 BRR  HN ES       1145 15.04                             150    0.4110 76.4 298 
 BRR  HZ I        1145 17.90        37.1 0.30            147           76.4 298 
 RUS  HZ EP   1   1145  0.63                             144    0.26 7 98.6 179 
 RUS  HN ES       1145 17.55                             144   -0.9710 98.6 179 
 RUS  HZ I        1145 19.19        12.9 0.42            144           98.6 179 
 OCA  HZ EP   1   1145  4.83                             128   -0.53 7  163 351 
 OCA  HN ES       1145 27.01                             128   -0.41 9  163 351 
 SPBC HZ EP       1145  5.84                             128    0.33 9  165 221 
 SPBC HN ES       1145 27.66                             128   -0.01 9  165 221 
 SPBC HZ I        1145 30.19        13.9 0.12            127            165 221 
 ZAR  HZ EP   1   1145  9.42                             121   -0.44 6  209 292 
 ZAR  HN ES       1145 35.25                             121   -0.17 8  209 292 
 ZAR  HZ I        1145 40.23        16.1 0.24            119            209 292 
 NOR  HN ES       1145 40.97                             117    0.04 8  238 235 
 NOR  HZ I        1145 45.97         7.8 0.36            116            238 235 
 SML  HZ EP       1145 13.11                             116   -0.82 8  247 334 
 SML  HN ES       1145 42.68                             116    0.02 8  247 334 
 SML  HZ I        1145 48.49        27.2 0.10            115            247 334 
 HEL  HZ EP   1   1145 18.53                             114    0.91 6  276 256 
 HEL  HN ES       1145 48.89                             114   -0.35 7  276 256 
 HEL  HZ I        1145 58.55         6.9 0.54            113            276 256 
 URE  HZ EP   4   1145 17.64                             112   -0.95 0  289 292 
 URE  HN ES   4   1145 54.60                             112    3.65 0  289 292 
 URE  HZ I        1145 57.81        14.9 0.22            111            289 292 
 GUY2CHZ EP   4   1145 21.84                             111    0.95 0  304 236 
 GUY2CHN ES       1145 55.48                             111    0.42 7  304 236 
 GUY2CHZ I        1146  1.48         5.0 0.30                           304 236 
 MON  HZ EP   4   1145 24.16                             108   -2.38 0  359 308 
 MON  HN ES   4   1146  2.73                             108   -2.38 0  359 308 
 MON  HZ I        1146 19.81         5.3 0.56            107            359 308 
                                                                                
