 2010  224 1751 25.9 L   6.325 -73.550116.0  RSN  4 0.2 1.8LRSN                1
 GAP=216        0.41       4.5     8.9  8.4  0.2506E+02  0.2833E+02  0.1562E+02E
 Epicentro: CONTRATACION - SANTANDER                                           3
 ACTION:UP  10-08-24 09:50 OP:vdl  STATUS:               ID:20100224175125 L   I
 2010-02-24-1749-50S.COL___094                                                 6
 STAT SP IPHASW D HRMM SECON CODA AMPLIT PERI AZIMU VELO SNR AR TRES W  DIS CAZ7
 BAR2 SZ ES   3   1751 55.68                             156    -0.7 2   50  54 
 RUS  BZ EP       1751 44.63                             147     0.110   70 133 
 RUS  BN ES   3   1751 59.15                             147     0.0 2   70 133 
 BRR  HZ EP       1751 45.21                             140     0.010   88 348 
 BRR  HZ I        1751 51.35        14.8 0.38                            88 348 
 BRR  HE ES   2   1752  0.28                             140     0.0 5   88 348 
 GIR2 SZ EP       1751 45.54                             139    -0.110   92  25 
 GIR2 SZ ES   2   1752  1.51                             139     0.4 5   92  25 
                                                                                
