 2010  824 1546 55.7 L   6.797 -73.069141.5  RSN  7 0.2 1.9LRSN                1
 GAP=167        0.58       2.7     5.7  4.9  0.1163E+01 -0.1176E+02 -0.2938E+01E
 Epicentro: LOS SANTOS - SANTANDER                                             3
 ACTION:UP  10-09-07 10:57 OP:vdl  STATUS:               ID:20100824154655 L   I
 2010-08-24-1545-21S.COL___122                                                 6
 STAT SP IPHASW D HRMM SECON CODA AMPLIT PERI AZIMU VELO SNR AR TRES W  DIS CAZ7
 BTL  SZ EP       1547 15.01                             169     0.210   26 301 
 BAR2 SZ EP       1547 14.80                             169     0.010   26 209 
 BAR2 SZ ES   1   1547 29.65                             169    -0.2 7   26 209 
 BTL  SZ ES   1   1547 29.94                             169     0.1 7   26 301 
 BAR2 SZ I        1547 30.99        24.1 0.51                            26 209 
 GIR2 SZ EP   3   1547 15.89                             166     1.0 2   34 336 
 BRR  HZ EP       1547 16.65                             149    -0.210   79 296 
 BRR  HZ I        1547 19.93        21.9 0.29                            79 296 
 BRR  HN ES       1547 33.34                             149     0.010   79 296 
 RUS  HZ EP       1547 18.71                             143    -0.310  100 181 
 RUS  HN ES       1547 37.28                             143     0.110  100 181 
 RUS  HZ I        1547 38.19         8.7 0.06                           100 181 
 GUE  SZ EP       1547 19.92                             139     0.010  115   8 
 GRA  SZ EP       1547 20.68                             136     0.310  124  14 
 GRA  SZ ES   1   1547 39.25                             136    -0.4 7  124  14 
                                                                                
