 2017  624 1510 52.0 L   6.494 -74.147 27.5  RSN  6 0.3 1.6LRSN                1
 GAP=134        0.87       3.4     2.2  3.6 -0.1474E+01 -0.2966E+01  0.1134E+01E
 Epicentro: PUERTO PARRA - SANTANDER                                           3
 ACTION:UPD 17-09-14 16:54 OP:jn   STATUS:               ID:20170624151052 L   I
 OLDACT:UP  17-06-25 00:55 OP:dani STATUS:               ID:20170624150745     3
 OLDACT:REG 17-06-24 22:23 OP:dani STATUS:               ID:20170624150745     3
 2017-06-24-1508-00M.COL___355                                                 6
 STAT SP IPHASW D HRMM SECON CODA AMPLIT PERI AZIMU VELO AIN AR TRES W  DIS CAZ7
 PTB  HZ IP     D 1510 59.19                             123    0.1710 34.6 278 
 PTB  HN ES       1511  4.48                             123   -0.0110 34.6 278 
 PTB  HZ I        1511  4.70        30.4 0.14            108           34.6 278 
 BRR  HZ EP       1511  5.55                              97   -0.0310 83.1  35 
 BRR  HE ES       1511 15.90                              97   -0.2810 83.1  35 
 BRR  HZ I        1511 16.40        29.0 0.14             98           83.1  35 
 BAR2 EZ EP       1511  9.74                              61    0.7710  107  84 
 BAR2 EZ ES       1511 21.94                              61   -0.2710  107  84 
 BAR2 EZ I        1511 24.30        17.4 0.16             96            107  84 
 NOR  HZ EP       1511 11.18                              61   -0.4610  130 218 
 NOR  HZ I        1511 29.04         3.6 0.32             56            130 218 
 ZAR  HZ EP       1511 12.28                              61    0.05 9  135 325 
 ZAR  HE ES       1511 28.05                              61    0.04 9  135 325 
 ZAR  HZ I        1511 29.53        17.0 0.26             95            135 325 
 HEL  HZ EP   9   1511 16.82                              61    1.53 0  157 258 
 HEL  HE ES       1511 34.68                              61   -0.31 9  157 258 
 HEL  HZ I        1511 35.22        16.7 0.22             56            157 258 
                                                                                
