 2014 1124 1702 59.2 L   6.809 -73.132147.3  RSN 12 0.5 2.0LRSN                1
 GAP=138        1.14       4.5     4.6  6.6 -0.3463E+01  0.9779E+01  0.3096E+01E
 Epicentro: LOS SANTOS - SANTANDER                                             3
 ACTION:UPD 14-12-19 15:47 OP:nd   STATUS:               ID:20141124170259 L   I
 OLDACT:REG 14-11-24 20:41 OP:fm   STATUS:               ID:20141124165744     3
 2014-11-24-1657-44M.COL___306                                                 6
 STAT SP IPHASW D HRMM SECON CODA AMPLIT PERI AZIMU VELO AIN AR TRES W  DIS CAZ7
 BAR2 SZ EP       17 3 18.61                             170   -0.4710 24.6 193 
 BAR2 SZ ES       17 3 35.04                             170    0.4810 24.6 193 
 BAR2 SZ I        17 3 35.65        19.1 0.20            167           24.6 193 
 BRR  HZ EP       17 3 20.97                             152    0.3610 72.1 297 
 BRR  HN ES       17 3 37.59                             152    0.3210 72.1 297 
 BRR  HZ I        17 3 47.45        19.1 0.36            150           72.1 297 
 PAM  SZ EP       17 3 21.49                             152   -0.0310 75.6  39 
 PAM  SN ES       17 3 39.04                             152    0.1510 75.6  39 
 PAM  SZ I        17 3 41.44        12.9 0.54            158           75.6  39 
 RUS  HZ EP       17 3 23.32                             144    0.1110  101 177 
 RUS  HN ES       17 3 41.35                             144   -0.5510  101 177 
 RUS  HZ I        17 3 43.74        12.1 0.82            147            101 177 
 PTB  HZ EP       17 3 25.61                             132   -0.88 9  149 259 
 PTB  HE ES       17 3 47.20                             132   -0.54 9  149 259 
 PTB  HZ I        17 3 51.31        10.3 0.20            132            149 259 
 SPBC HZ EP       17 3 28.36                             129    0.33 9  165 219 
 SPBC HE ES       17 3 50.40                             129   -0.08 9  165 219 
 SPBC HZ I        17 3 57.88        14.2 0.24            131            165 219 
 ZAR  HZ EP       17 3 32.20                             123    0.30 9  205 292 
 ZAR  HN ES       17 3 56.88                             123   -0.49 9  205 292 
 ZAR  HZ I        17 4  3.65         6.8 0.24            124            205 292 
 NOR  HZ EP       17 3 35.32                             119    0.06 8  237 234 
 NOR  HE ES       17 4  3.33                             119   -0.02 8  237 234 
 NOR  HZ I        17 4  9.32         8.7 0.18            120            237 234 
 GUY2CHZ EP       17 3 43.42                             112    0.29 7  303 235 
 GUY2CHN ES       17 4 18.61                             112    1.25 7  303 235 
 GUY2CHZ I        17 4 25.74         4.6 0.56                           303 235 
 RREF HZ EP   4   17 3 47.35                             111    1.69 0  324 229 
 RREF HN ES   4   17 4 25.30                             111    3.44 0  324 229 
 RREF HZ I        17 4 29.93         4.3 0.26            113            324 229 
 TOL  SZ EP   4   17 3 49.51                             109    1.74 0  345 225 
 TOL  SN ES   4   17 4 29.42                             109    3.80 0  345 225 
 TOL  SZ I        17 4 33.14        11.8 0.40            112            345 225 
 MON  HZ EP   4   17 3 46.56                             109   -1.81 0  354 308 
 MON  HN ES   4   17 4 23.29                             109   -3.40 0  354 308 
 MON  HZ I        17 4 27.99         1.8 0.54            111            354 308 
                                                                                
