 2011  224 1414 12.1 L   6.778 -73.282143.2  RSN  4 0.2 1.5LRSN                1
 GAP=198        0.49      10.7    62.9  9.3  0.6121E+03  0.4984E+03  0.8174E+02E
 Epicentro: ZAPATOCA - SANTANDER                                               3
 ACTION:UP  11-03-28 15:10 OP:jfem STATUS:               ID:20110224141412 L   I
 2011-02-24-1412-20S.COL___137                                                 6
 STAT SP IPHASW D HRMM SECON CODA AMPLIT PERI AZIMU VELO SNR AR TRES W  DIS CAZ7
 BTL  SZ EP       1414 31.52                             172     0.210   16   6 
 BTL  SZ ES   1   1414 46.02                             172    -0.3 7   16   6 
 BAR2 SZ EP       1414 31.41                             169     0.010   23 152 
 BAR2 SZ ES   1   1414 46.41                             169    -0.1 7   23 152 
 BAR2 SZ I        1414 47.76         7.7 0.36                            23 152 
 GIR2 SZ EP   3   1414 30.64                             164    -0.9 2   35  16 
 GIR2 SZ ES   2   1414 47.04                             164     0.3 5   35  16 
 RUS  HZ EP       1414 35.52                             143    -0.110  100 167 
 RUS  HN ES   1   1414 53.99                             143     0.1 7  100 167 
 RUS  HZ I        1414 55.49         4.5 0.35                           100 167 
                                                                                
