 2011  324 1545 31.5 L   6.792 -73.123143.3  RSN 12 0.5 3.2LRSN                1
 GAP=156        1.08       4.8     7.4  7.7 -0.1745E+02  0.1050E+02  0.9926E+01E
 Epicentro: LOS SANTOS - SANTANDER                                             3
 ACTION:UP  11-06-16 14:35 OP:jfem STATUS:               ID:20110324154531 L   I
 2011-03-24-1542-51S.COL___138                                                 6
 STAT SP IPHASW D HRMM SECON CODA AMPLIT PERI AZIMU VELO SNR AR TRES W  DIS CAZ7
 BAR2 SZ IP       1545 50.82                             170     0.010   23 197 
 BAR2 SZ I        1545 51.09      1732.8 0.08                            23 197 
 BAR2 SZ ES   1   1546  5.22                             170    -0.6 7   23 197 
 GIR2 SZ IP       1545 51.77                             167     0.910   33 346 
 BRR  HZ IP       1545 52.61                             151     0.110   74 298 
 BRR  HN ES   1   1546  9.58                             151     0.7 7   74 298 
 BRR  HZ I        1546 13.31       446.3 0.15                            74 298 
 PAM  SZ EP   1   1545 53.56                             151     0.2 7   76  38 
 PAM  SZ I        1545 53.87       129.3 0.16                            76  38 
 PAM  SE ES   1   1546 10.48                             151     0.0 7   76  38 
 GRA  SZ IP       1545 56.58                             136     0.110  126  16 
 GRA  SZ ES   1   1546 15.22                             136    -0.8 7  126  16 
 GRA  SZ I        1546 18.84       213.9 0.31                           126  16 
 OCA  SZ EP   1   1545 59.28                             129    -0.4 7  161 352 
 OCA  SZ ES   1   1546 20.99                             129    -0.7 7  161 352 
 OCA  SZ I        1546 25.22       181.4 0.22                           161 352 
 NOR  SZ EP   1   1546  6.99                             118    -0.2 6  236 235 
 NOR  SN ES   1   1546 34.58                             118    -0.5 6  236 235 
 CHI  HZ EP   1   1546  9.29                             116     0.3 6  248 196 
 CHI  HE ES   2   1546 38.33                             116     0.0 4  248 196 
 CHI  HZ I        1546 46.36        56.7 0.54                           248 196 
 RREF HZ EP   1   1546 17.67                             110     0.0 5  323 230 
 RREF HN ES   1   1546 54.21                             110     0.5 5  323 230 
 RREF HZ I        1547  4.92        75.3 0.43                           323 230 
 DBB  SZ IP       1546 18.93                             109    -0.2 7  342 274 
 DBB  SZ I        1547  3.59        17.1 0.33                           342 274 
 PRA  HZ EP   1   1546 24.95                             106     0.0 4  392 210 
 PRA  HN ES   1   1547  6.36                             106    -0.3 4  392 210 
 SJA  SZ EP   1   1546 25.94                             106     0.0 4  400 193 
 SJA  SZ ES   1   1547  7.46                             106    -0.9 4  400 193 
 SJA  SZ I        1547 13.78        86.1 0.50                           400 193 
                                                                                
