 2014  924 1017 39.2 L   6.724 -73.133149.3  RSN  6 0.3 1.2LRSN                1
 GAP=233        0.84       5.1     5.5  7.2  0.1400E+02 -0.8143E+00 -0.2925E+01E
 Epicentro: JORDAN - SANTANDER                                                 3
 ACTION:UPD 14-10-03 23:08 OP:nd   STATUS:               ID:20140924101739 L   I
 OLDACT:REG 14-09-24 19:01 OP:spq  STATUS:               ID:20140924100819     3
 2014-09-24-1008-19M.COL___284                                                 6
 STAT SP IPHASW D HRMM SECON CODA AMPLIT PERI AZIMU VELO AIN AR TRES W  DIS CAZ7
 BAR2 SZ EP       1017 59.17                             174    0.0110 15.6 200 
 BRR  HZ EP       1018  1.08                             151    0.0110 76.7 304 
 BRR  HE ES       1018 18.25                             151    0.1410 76.7 304 
 BRR  HZ I        1018 24.55         5.2 0.44            151           76.7 304 
 RUS  HZ EP       1018  2.24                             147   -0.5110 92.1 177 
 RUS  HN ES       1018 21.26                             147    0.1710 92.1 177 
 RUS  HZ I        1018 22.85         0.9 0.56            150           92.1 177 
 PTB  HZ EP       1018  6.08                             133   -0.41 9  148 262 
 PTB  HE ES       1018 27.64                             133   -0.10 9  148 262 
 PTB  HZ I        1018 31.02         1.4 0.18            134            148 262 
 SPBC HZ EP       1018  8.17                             131    0.68 9  158 221 
 SPBC HN ES   1   1018 29.36                             131   -0.17 7  158 221 
 SPBC HZ I        1018 36.12         2.1 0.34            133            158 221 
 ZAR  HZ EP   1   1018 13.01                             123    0.63 6  209 294 
 ZAR  HN ES       1018 38.04                             123   -0.19 8  209 294 
 ZAR  HZ I        1018 43.68         2.0 0.30            125            209 294 
                                                                                
