 2010  224 1233 53.0 L   6.797 -73.128144.5  RSN  7 0.5 2.0LRSN                1
 GAP=185        1.10       5.9    17.4 10.6  0.1215E+02  0.1918E+02  0.1246E+02E
 Epicentro: LOS SANTOS - SANTANDER                                             3
 ACTION:UP  10-08-24 09:50 OP:vdl  STATUS:               ID:20100224123353 L   I
 2010-02-24-1231-11S.COL___094                                                 6
 STAT SP IPHASW D HRMM SECON CODA AMPLIT PERI AZIMU VELO SNR AR TRES W  DIS CAZ7
 BAR2 SZ IP       1234 12.37                             170    -0.110   23 195 
 BAR2 SZ ES   2   1234 27.05                             170    -0.6 5   23 195 
 GIR2 SZ EP       1234 13.47                             167     0.910   32 347 
 GIR2 SZ ES   3   1234 28.26                             167     0.5 2   32 347 
 BRR  HZ IP       1234 14.28                             152     0.210   73 298 
 BRR  HZ I        1234 14.53        43.8 0.17                            73 298 
 BRR  HE ES   2   1234 30.81                             152     0.2 5   73 298 
 RUS  BZ EP       1234 16.71                             144     0.110  100 177 
 RUS  BN ES   2   1234 34.39                             144    -0.6 5  100 177 
 RUS  BZ I        1234 36.21         8.6 0.23                           100 177 
 OCA  SZ EP       1234 20.65                             129    -0.6 9  161 352 
 OCA  SZ ES   2   1234 42.41                             129    -0.9 5  161 352 
 OCA  SZ I        1234 48.60        25.8 0.28                           161 352 
 CHI  HZ EP       1234 30.31                             117    -0.3 8  249 196 
 CHI  HZ I        1234 33.07         3.5 0.35                           249 196 
 CHI  HN ES   3   1234 59.94                             117    -0.1 2  249 196 
 PRA  HZ EP       1234 46.56                             106     0.0 6  393 210 
 PRA  HZ I        1234 47.98         3.3 0.26                           393 210 
 PRA  HE ES   3   1235 27.34                             106    -1.0 1  393 210 
                                                                                
