 2010  924 1546 29.9 L   7.365 -73.120133.4  RSN  7 0.4 1.9LRSN                1
 GAP=147        1.19       6.7    16.1 13.9 -0.4762E+02  0.1097E+03 -0.3525E+01E
 Epicentro: RIONEGRO - SANTANDER                                               3
 ACTION:UP  11-02-18 11:05 OP:tino STATUS:               ID:20100924154629 L   I
 2010-09-24-1543-50S.COL___122                                                 6
 STAT SP IPHASW D HRMM SECON CODA AMPLIT PERI AZIMU VELO SNR AR TRES W  DIS CAZ7
 GIR2 SZ EP   2   1546 48.30                             165     0.2 5   33 194 
 GUE  SZ EP       1546 48.43                             156    -0.910   56  23 
 GRA  SZ IP     D 1546 50.17                             152     0.510   67  31 
 GRA  SZ ES   1   1547  5.39                             152     0.3 7   67  31 
 GRA  SZ I        1547  6.04        21.8 0.16                            67  31 
 BRR  HZ EP       1546 49.62                             150    -0.110   71 246 
 BRR  HZ I        1547  6.25        22.8 0.30                            71 246 
 BAR2 SZ EP   1   1546 51.43                             145     0.4 7   86 185 
 BAR2 SZ ES   1   1547  7.64                             145     0.2 7   86 185 
 BAR2 SZ I        1547  8.99        36.9 0.13                            86 185 
 RUS  HZ EP       1546 58.15                             126     0.2 9  163 179 
 RUS  HN ES   1   1547 19.21                             126    -0.6 7  163 179 
 RUS  HZ I        1547 21.53         2.6 0.29                           163 179 
 NOR  SZ EP       1547  9.85                             111     0.1 7  278 224 
                                                                                
