 2012  424 1724 22.1 L   6.829 -73.236147.1  RSN  5 0.2 1.5LRSN                1
 GAP=227        0.51       5.4     4.7  5.5  0.1573E+02  0.3193E+01  0.5703E+00E
 Epicentro: ZAPATOCA - SANTANDER                                               3
 ACTION:UPD 12-07-05 11:55 OP:tino STATUS:               ID:20120424172422 L   I
 2012-04-24-1720-00M.COL___186                                                 6
 STAT SP IPHASW D HRMM SECON CODA AMPLIT PERI AZIMU VELO AIN AR TRES W  DIS CAZ7
 BAR2 SZ EP   1   1724 41.73                             169    -0.2 7   27 167 
 BAR2 SZ ES   1   1724 57.19                             169    -0.2 7   27 167 
 BAR2 SZ I        1724 58.28         6.0 0.12                            27 167 
 BRR  HZ EP   1   1724 43.17                             156     0.3 7   61 300 
 BRR  HN ES   1   1724 59.16                             156     0.1 7   61 300 
 RUS  HZ EP   1   1724 46.14                             143    -0.1 7  105 171 
 RUS  HN ES   1   1725  5.39                             143     0.2 7  105 171 
 RUS  HZ I        1725  6.61         2.9 0.25                           105 171 
 PTB  HZ EP   1   1724 48.37                             134     0.0 7  139 257 
 PTB  HN ES   1   1725  8.79                             134    -0.1 7  139 257 
 PTB  HZ I        1725 12.55         2.9 0.13                           139 257 
 ZAR  HE ES   1   1725 17.94                             124    -0.2 6  194 292 
 ZAR  HZ I        1725 24.20         7.1 0.22                           194 292 
                                                                                
