 2013  124 1631 18.4 L   6.784 -73.151142.8  RSN  8 0.4 1.9LRSN                1
 GAP=137        0.83       4.3     4.5  7.0 -0.1286E+00  0.7691E+01  0.8164E+01E
 Epicentro: LOS SANTOS - SANTANDER                                             3
 ACTION:UPD 13-02-15 09:16 OP:ep   STATUS:               ID:20130124163118 L   I
 2013-01-24-1630-00M.COL___241                                                 6
 STAT SP IPHASW D HRMM SECON CODA AMPLIT PERI AZIMU VELO AIN AR TRES W  DIS CAZ7
 BAR2 SZ EP   1   1631 37.69                             171    0.06 7 21.5 189 
 BAR2 SZ ES   1   1631 52.64                             171    0.00 7 21.5 189 
 BRR  HZ EP   1   1631 39.54                             152    0.30 7 71.5 300 
 BRR  HN ES   1   1631 56.39                             152    0.88 7 71.5 300 
 BRR  HZ I        1631 59.25        12.6 0.16            151           71.5 300 
 PAM  SZ EP   1   1631 40.54                             150    0.14 7 79.1  39 
 PAM  SN ES   1   1631 57.32                             150   -0.24 7 79.1  39 
 PAM  SZ I        1631 59.96        10.3 0.50            155           79.1  39 
 RUS  HZ EP   1   1631 41.37                             144   -0.36 7 98.9 176 
 RUS  HN ES   1   1631 59.50                             144   -0.44 7 98.9 176 
 RUS  HZ I        1632  1.68        12.3 0.26            144           98.9 176 
 PTB  HZ EP   1   1631 44.48                             131   -0.56 7  147 259 
 PTB  HN ES   1   1632  5.26                             131   -0.56 7  147 259 
 PTB  HZ I        1632  8.70        10.6 0.14            131            147 259 
 ZAR  HN ES   1   1632 15.52                             122   -0.31 6  204 293 
 ZAR  HZ I        1632 21.34         8.4 0.22            122            204 293 
 NOR  HZ EP   1   1631 54.09                             118    0.29 6  233 235 
 NOR  HN ES   1   1632 21.42                             118    0.01 6  233 235 
 NOR  HZ I        1632 26.86         7.7 0.48            119            233 235 
 CHI  HZ EP   1   1631 55.99                             117    0.26 6  247 195 
 CHI  HN ES   1   1632 25.67                             117    0.82 6  247 195 
 CHI  HZ I        1632 32.35         4.2 0.48            118            247 195 
                                                                                
