 2016  224 1154 16.7 L   6.797 -73.152147.6  RSN 16 0.4 2.3LRSN                1
 GAP=136        1.01       3.5     3.6  5.4 -0.7306E+00  0.6274E+01  0.2722E+01E
 Epicentro: LOS SANTOS - SANTANDER                                             3
 ACTION:UPD 16-03-04 21:29 OP:rebc STATUS:               ID:20160224115416 L   I
 OLDACT:UP  16-02-24 22:02 OP:drio STATUS:               ID:20160224114750     3
 OLDACT:UP  16-02-24 22:01 OP:drio STATUS:               ID:20160224114750     3
 OLDACT:REG 16-02-24 20:17 OP:drio STATUS:               ID:20160224114750     3
 2016-02-24-1147-50M.COL___327                                                 6
 STAT SP IPHASW D HRMM SECON CODA AMPLIT PERI AZIMU VELO AIN AR TRES W  DIS CAZ7
 BAR2 EZ EP       1154 36.44                             171   -0.0610 22.9 189 
 BAR2 EZ ES       1154 51.42                             171   -0.5510 22.9 189 
 BAR2 EZ I        1154 52.99        52.9 0.14            169           22.9 189 
 BRR  HZ EP       1154 38.24                             153    0.2610 70.8 299 
 BRR  HE ES       1154 55.48                             153    0.8710 70.8 299 
 BRR  HZ I        1155  0.32       116.3 0.96            149           70.8 299 
 PAM  EZ EP       1154 39.42                             151    0.3110 78.1  40 
 PAM  EN ES       1154 56.51                             151   -0.1110 78.1  40 
 PAM  EZ I        1154 58.56        40.6 0.46            155           78.1  40 
 RUS  HZ EP       1154 40.55                             144   -0.0210  100 176 
 RUS  HE ES       1154 59.31                             144    0.1010  100 176 
 RUS  HZ I        1155  0.69        34.8 0.26            146            100 176 
 PTB  HZ EP       1154 43.09                             133   -0.62 9  147 259 
 PTB  HN ES       1155  3.97                             133   -0.84 9  147 259 
 PTB  HZ I        1155  9.92        21.9 0.36            131            147 259 
 SPBC HZ EP       1154 45.32                             130    0.09 9  162 219 
 SPBC HE ES       1155  7.57                             130    0.05 9  162 219 
 SPBC HZ I        1155 14.47        35.0 0.34            130            162 219 
 ZAR  HZ EP       1154 49.07                             123   -0.10 9  204 292 
 ZAR  HE ES       1155 14.58                             123    0.05 9  204 292 
 ZAR  HZ I        1155 19.04        14.1 0.32            122            204 292 
 NOR  HZ EP       1154 52.52                             119    0.11 8  234 234 
 NOR  HE ES       1155 20.04                             119   -0.26 8  234 234 
 NOR  HZ I        1155 27.69        20.0 0.24            119            234 234 
 CHI  HZ EP       1154 54.56                             117    0.16 8  248 195 
 CHI  HE ES       1155 24.02                             117    0.18 8  248 195 
 CHI  HZ I        1155 27.16        11.5 0.34            119            248 195 
 HEL  HZ EP   4   1154 58.52                             115    1.64 0  271 256 
 HEL  HN ES       1155 28.98                             115    0.72 8  271 256 
 HEL  HZ I        1155 34.52        12.0 0.24            115            271 256 
 URE  HZ EP       1154 57.06                             114   -0.70 7  283 292 
 URE  HE ES   4   1155 27.27                             114   -2.55 0  283 292 
 GUY2CHZ EP   4   1155  1.87                             113    1.60 0  300 235 
 GUY2CHN ES   4   1155 36.05                             113    1.77 0  300 235 
 GUY2CHZ I        1155 42.71        10.5 0.32                           300 235 
 CBOC HZ EP   4   1155  4.91                             110    1.35 0  333 252 
 CBOC HE ES       1155 40.49                             110    0.34 7  333 252 
 CBOC HZ I        1155 44.55         4.0 0.22            111            333 252 
 MON  HZ EP   4   1155  3.54                             109   -2.16 0  353 308 
 MON  HN ES   4   1155 42.09                             109   -1.85 0  353 308 
 MON  HZ I        1155 57.67         4.1 0.38            109            353 308 
 ORTC HZ EP       1155 10.83                             107    0.27 6  395 216 
 ORTC HN ES   4   1155 54.13                             107    1.53 0  395 216 
 ORTC HZ I        1156  0.19         7.9 0.56            108            395 216 
 SJC  HZ EP   4   1155 10.46                             106   -1.81 0  409 327 
 SJC  HN ES   4   1155 51.73                             106   -3.92 0  409 327 
 SJC  HZ I        1155 59.48         2.8 0.48            107            409 327 
                                                                                
