 2016 1024 1602 37.1 L   6.794 -73.140143.4  RSN 14 0.4 2.1LRSN                1
 GAP=138        0.82       3.3     3.7  4.6 -0.4088E+01  0.1805E+01  0.4614E+01E
 Epicentro: LOS SANTOS - SANTANDER                                             3
 ACTION:UPD 16-11-09 19:22 OP:rebc STATUS:               ID:20161024160237 L   I
 OLDACT:UP  16-10-25 00:21 OP:edw  STATUS:               ID:20161024155747     3
 OLDACT:UP  16-10-25 00:18 OP:edw  STATUS:               ID:20161024155747     3
 OLDACT:REG 16-10-24 21:21 OP:edw  STATUS:               ID:20161024155747     3
 2016-10-24-1558-00M.COL___365                                                 6
 STAT SP IPHASW D HRMM SECON CODA AMPLIT PERI AZIMU VELO AIN AR TRES W  DIS CAZ7
 BAR2 EZ EP       16 2 56.30                             171   -0.1410 22.8 192 
 BAR2 EZ ES       16 3 11.52                             171   -0.0010 22.8 192 
 BAR2 EZ I        16 3 14.17        28.9 0.44            167           22.8 192 
 BRR  HZ IP     C 16 2 58.14                             152    0.0910 72.1 299 
 BRR  HN ES       16 3 14.07                             152   -0.3210 72.1 299 
 BRR  HZ I        16 3 18.37        29.9 0.28            149           72.1 299 
 PAM  EZ EP       16 2 59.39                             150    0.3210 77.5  39 
 PAM  EN ES       16 3 16.29                             150    0.0810 77.5  39 
 PAM  EZ I        16 3 18.30         8.9 0.15            155           77.5  39 
 RUS  HZ EP     C 16 3  0.32                             143   -0.2510 99.9 176 
 RUS  HN ES       16 3 18.82                             143   -0.0610 99.9 176 
 RUS  HZ I        16 3 21.09        10.8 0.26            143           99.9 176 
 PTB  HZ EP   9   16 3  3.09                             131   -0.83 0  148 259 
 PTB  HN ES       16 3 23.90                             130   -0.11 9  148 259 
 PTB  HZ I        16 3 25.93        14.6 0.14            129            148 259 
 SPBC HZ EP       16 3  5.27                             128   -0.14 9  163 219 
 SPBC HN ES       16 3 28.00                             128    0.51 9  163 219 
 SPBC HZ I        16 3 33.22        17.9 0.20            127            163 219 
 NOR  HZ EP       16 3 12.55                             118   -0.16 8  235 235 
 NOR  HN ES       16 3 39.74                             118   -0.74 8  235 235 
 NOR  HZ I        16 3 45.07        10.3 0.24            117            235 235 
 CHI  HZ EP       16 3 14.60                             117   -0.02 8  248 195 
 CHI  HN ES       16 3 44.47                             117    0.59 8  248 195 
 CHI  HZ I        16 3 46.24         7.2 0.36            117            248 195 
 ROSC BZ EP   4   16 3 16.97                             116    1.90 0  253 211 
 ROSC BN ES   4   16 3 37.73                             116   -6.95 0  253 211 
 ROSC BZ I        16 3 52.66        17.4 0.35            116            253 211 
 HEL  HZ EP   4   16 3 14.41                             114   -2.83 0  273 256 
 HEL  HN ES       16 3 49.33                             114    0.77 8  273 256 
 HEL  HZ I        16 3 55.67         8.6 0.58            114            273 256 
 GUY2CHZ EP   4   16 3 22.37                             112    1.75 0  301 235 
 GUY2CHN ES   4   16 3 57.82                             112    3.26 0  301 235 
 GUY2CHZ I        16 4  1.58         6.3 0.28                           301 235 
 ELA  HZ EP   4   16 3 27.90                             110    4.04 0  329 230 
 ELA  HN ES   4   16 4  4.64                             110    4.31 0  329 230 
 ELA  HZ I        16 4 15.59         5.3 0.42            110            329 230 
 PRA  HZ EP       16 3 30.38                             106   -0.13 6  392 210 
 PRA  HN ES       16 4 11.63                             106   -0.54 6  392 210 
 PRA  HZ I        16 4 18.01         4.9 0.26            106            392 210 
 SJC  HZ EP   4   16 3 30.59                             105   -2.10 0  410 327 
 SJC  HN ES   4   16 4 11.41                             105   -4.64 0  410 327 
 SJC  HZ I        16 4 19.22         2.0 0.26            106            410 327 
                                                                                
