 2014  324 1658 33.3 L   7.244 -73.146134.3  RSN  4 0.3 1.3LRSN                1
 GAP=160        0.60       4.7     3.6  7.7 -0.3469E+00  0.1306E+02  0.1019E+02E
 Epicentro: RIONEGRO - SANTANDER                                               3
 ACTION:UPD 14-04-09 23:20 OP:nd   STATUS:               ID:20140324165833 L   I
 OLDACT:UP  14-03-24 17:18 OP:mh   STATUS:               ID:20140324164819     3
 OLDACT:UP  14-03-24 17:18 OP:mh   STATUS:               ID:20140324164819     3
 OLDACT:REG 14-03-24 15:16 OP:mh   STATUS:               ID:20140324164819     3
 2014-03-24-1648-19M.COL___252                                                 6
 STAT SP IPHASW D HRMM SECON CODA AMPLIT PERI AZIMU VELO AIN AR TRES W  DIS CAZ7
 PAM  SZ EP       1658 52.92                             158    0.1310 50.4  78 
 PAM  SN ES       1659  7.95                             158   -0.0810 50.4  78 
 PAM  SZ I        1659 10.27         5.3 0.53            162           50.4  78 
 RUS  HZ EP   1   1659  0.50                             129    0.37 7  150 177 
 RUS  HN ES   1   1659 20.90                             129   -0.18 7  150 177 
 RUS  HZ I        1659 23.25         1.6 0.34            131            150 177 
 PTB  HZ EP   1   1659  0.33                             126   -0.60 7  164 242 
 PTB  HN ES   1   1659 22.78                             126    0.27 7  164 242 
 PTB  HZ I        1659 24.55         3.2 0.17            128            164 242 
 ZAR  HN ES   1   1659 27.31                             121    0.03 7  191 278 
                                                                                
