 2016  624 1810 33.1 L   6.780 -73.167144.9  RSN  8 0.4 2.2LRSN                1
 GAP= 99        1.04       4.4     3.3  6.6  0.1224E+00  0.1003E+01  0.2778E+01E
 Epicentro: LOS SANTOS - SANTANDER                                             3
 ACTION:UPD 16-07-21 22:22 OP:rebc STATUS:               ID:20160624181033 L   I
 OLDACT:DUP 16-06-25 01:04 OP:ar   STATUS:               ID:20160624180743d    3
 2016-06-24-1807-42M.COL___331                                                 6
 STAT SP IPHASW D HRMM SECON CODA AMPLIT PERI AZIMU VELO AIN AR TRES W  DIS CAZ7
 BAR2 EZ EP     C 1810 52.44                             171   -0.1310 20.8 185 
 BAR2 EZ ES       1811  7.07                             171   -0.7010 20.8 185 
 BAR2 EZ I        1811 10.78        34.3 0.18                          20.8 185 
 BRR  HZ IP     C 1810 54.22                             153    0.1210 70.3 301 
 BRR  HN ES       1811 11.48                             153    1.0010 70.3 301 
 BRR  HZ I        1811 16.09        29.0 0.12                          70.3 301 
 PAM  EZ EP       1810 55.30                             150   -0.1110 80.6  40 
 PAM  EN ES       1811 12.77                             150   -0.0510 80.6  40 
 PAM  EZ I        1811 14.83        26.9 0.58                          80.6  40 
 RUS  HZ EP       1810 57.07                             144    0.4610 98.5 175 
 RUS  HN ES       1811 15.22                             144    0.2610 98.5 175 
 RUS  HZ I        1811 16.48        14.0 0.20                          98.5 175 
 PTB  HZ EP       1810 59.55                             132   -0.19 9  145 260 
 PTB  HN ES       1811 19.99                             132   -0.54 9  145 260 
 PTB  HZ I        1811 27.27        23.6 0.46                           145 260 
 TAM  HZ EP       1811  0.76                             130   -0.10 9  157 104 
 TAM  HN ES       1811 22.41                             130   -0.12 9  157 104 
 SPBC HZ EP       1811  1.40                             129    0.18 9  160 219 
 SPBC HN ES       1811 23.19                             129    0.03 9  160 219 
 SPBC HZ I        1811 26.33        27.9 0.30                           160 219 
 ZAR  HZ EP   4   1811  7.23                             122    1.88 0  203 293 
 ZAR  HN ES       1811 30.24                             122   -0.26 9  203 293 
 ZAR  HZ I        1811 36.65        22.1 0.62                           203 293 
                                                                                
