 2014 1024 1544 27.4 L   6.741 -73.147146.0  RSN  5 0.5 1.6LRSN                1
 GAP=139        1.08       6.6     5.8  9.1 -0.6234E+01  0.8439E+00  0.9754E+01E
 Epicentro: LOS SANTOS - SANTANDER                                             3
 ACTION:UPD 14-11-29 23:56 OP:nd   STATUS:               ID:20141024154427 L   I
 OLDACT:UP  14-10-28 04:23 OP:mh   STATUS:               ID:20141024153748d    3
 OLDACT:DUP 14-10-28 04:23 OP:mh   STATUS:               ID:20141024153748d    3
 2014-10-24-1537-47M.COL___283                                                 6
 STAT SP IPHASW D HRMM SECON CODA AMPLIT PERI AZIMU VELO AIN AR TRES W  DIS CAZ7
 BAR2 SZ EP   1   1544 46.08                             173   -0.84 7 16.9 193 
 BAR2 SZ ES   1   1545  2.30                             173    0.13 7 16.9 193 
 BAR2 SZ I        1545  3.48        10.8 0.07            172           16.9 193 
 BRR  HZ EP       1544 49.34                             151    0.6110 74.4 303 
 BRR  HE ES       1545  5.77                             151    0.3810 74.4 303 
 PAM  SZ EP       1544 50.12                             149    0.1910 82.6  37 
 PAM  SN ES       1545  7.05                             149   -0.4710 82.6  37 
 PAM  SZ I        1545  9.50         7.8 0.52            151           82.6  37 
 RUS  HZ EP       1544 51.02                             146    0.3310 94.1 176 
 RUS  HN ES   1   1545  8.93                             146    0.05 7 94.1 176 
 RUS  HZ I        1545 10.97         3.0 0.32            146           94.1 176 
 PTB  HZ EP   1   1544 53.61                             132   -0.64 7  147 261 
 PTB  HN ES       1545 14.80                             132   -0.41 9  147 261 
 PTB  HZ I        1545 17.11         7.5 0.16            134            147 261 
                                                                                
