 2011 1024 1210 27.8 L   6.689 -73.539104.2  RSN  7 0.3 1.6LRSN                1
 GAP=151        0.67       3.8     4.6  6.7  0.6168E+01  0.6301E+01  0.3080E+01E
 Epicentro: EL CARMEN DE CHUCURI - SANTANDER                                   3
 ACTION:UPD 12-07-13 16:05 OP:ep   STATUS:               ID:20111024121027 L   I
 2011-10-24-1200-00M.COL___175                                                 6
 STAT SP IPHASW D HRMM SECON CODA AMPLIT PERI AZIMU VELO AIN AR TRES W  DIS CAZ7
 BTL  SZ EP       1210 43.27                             158    0.2410 39.3  50 
 BAR2 SZ EP       1210 43.26                             157    0.1610 40.8 105 
 BAR2 SZ ES   1   1210 55.14                             157    0.09 7 40.8 105 
 BAR2 SZ I        1210 56.75        23.9 0.22                          40.8 105 
 BRR  HZ EP       1210 43.06                             152   -0.1710 50.1 338 
 BRR  HE ES   1   1210 55.40                             152    0.11 7 50.1 338 
 BRR  HZ I        1210 56.82        14.5 0.66                          50.1 338 
 GIR2 SZ EP       1210 44.03                             149    0.1410 57.6  41 
 RUS  HZ EP       1210 47.68                             133   -0.1210  101 150 
 RUS  HE ES   1   1211  3.22                             133   -0.19 7  101 150 
 RUS  HZ I        1211  4.39         5.7 0.88                           101 150 
 PAM  SZ EP   2   1210 50.19                             128    0.91 5  117  52 
 PAM  SN ES   1   1211  5.40                             128   -0.65 7  117  52 
 ZAR  HZ EP   2   1210 53.52                             116   -0.66 4  171 301 
 ZAR  HE ES   2   1211 14.89                             116    0.11 4  171 301 
 ZAR  HZ I        1211 17.10         4.8 0.44                           171 301 
                                                                                
