 2016 1024 1040 58.7 L   6.804 -73.135150.5  RSN  8 0.4 1.6LRSN                1
 GAP=138        0.92       4.1     4.8  6.1 -0.3517E+01  0.2230E+01  0.8094E+01E
 Epicentro: LOS SANTOS - SANTANDER                                             3
 ACTION:UPD 16-11-09 19:22 OP:rebc STATUS:               ID:20161024104058 L   I
 OLDACT:UP  16-10-25 00:52 OP:cog  STATUS:               ID:20161024103744     3
 OLDACT:REG 16-10-25 00:13 OP:cog  STATUS:               ID:20161024103744     3
 2016-10-24-1038-00M.COL___359                                                 6
 STAT SP IPHASW D HRMM SECON CODA AMPLIT PERI AZIMU VELO AIN AR TRES W  DIS CAZ7
 BAR2 EZ EP       1041 18.68                             171   -0.2210 24.0 193 
 BAR2 HN ES       1041 34.37                             171   -0.2910 24.0 193 
 BAR2 EZ I        1041 36.52        11.7 0.30            166           24.0 193 
 BRR  HZ EP   2   1041 20.79                             153    0.40 5 72.0 298 
 BRR  HN ES       1041 37.67                             153    0.3510 72.0 298 
 PAM  EZ EP       1041 21.70                             152    0.3610 76.3  39 
 PAM  EN ES       1041 39.09                             152    0.0810 76.3  39 
 PAM  EZ I        1041 41.63         5.3 0.50            156           76.3  39 
 RUS  HZ EP       1041 22.67                             145   -0.2610  101 177 
 RUS  HE ES       1041 41.58                             145   -0.2610  101 177 
 RUS  HZ I        1041 42.57         3.7 0.30            142            101 177 
 PTB  HZ EP       1041 25.27                             133   -0.88 9  149 259 
 PTB  HN ES       1041 47.67                             133    0.10 9  149 259 
 PTB  HZ I        1041 48.19         4.0 0.10            133            149 259 
 SPBC HZ EP   2   1041 27.96                             130    0.31 5  164 219 
 SPBC HE ES   2   1041 50.59                             130    0.35 5  164 219 
 SPBC HZ I        1041 56.88         6.3 0.10            129            164 219 
 CHI  HZ EP       1041 37.21                             118    0.48 8  249 195 
 CHI  HE ES       1042  7.12                             118    0.72 8  249 195 
 CHI  HZ I        1042 16.53         1.7 0.42            117            249 195 
 PRA  HZ EP   2   1041 52.20                             107   -0.29 3  393 210 
 PRA  HN ES   2   1042 33.85                             107   -0.60 3  393 210 
 PRA  HZ I        1042 40.91         2.4 0.50            107            393 210 
                                                                                
