 2011  424 1049 15.9 L   6.843 -73.081161.0  RSN  4 0.3 1.5LRSN                1
 GAP=165        0.80       5.2    10.9 11.1 -0.6199E+01 -0.3517E+02  0.1851E+01E
 Epicentro: LOS SANTOS - SANTANDER                                             3
 ACTION:UP  11-06-22 15:33 OP:REBC STATUS:               ID:20110424104915 L   I
 2011-04-24-1040-00M.COL___140                                                 6
 STAT SP IPHASW D HRMM SECON CODA AMPLIT PERI AZIMU VELO SNR AR TRES W  DIS CAZ7
 BTL  SZ EP   1   1049 37.90                             172     0.6 7   22 292 
 BRR  HZ EP   1   1049 38.52                             154    -0.4 7   76 293 
 BRR  HZ I        1049 39.72        10.9 0.15                            76 293 
 BRR  HN ES   1   1049 57.02                             154     0.1 7   76 293 
 RUS  HZ EP   1   1049 41.78                             145     0.3 7  105 180 
 RUS  HZ I        1049 57.16         2.4 0.51                           105 180 
 RUS  HN ES   1   1050  1.15                             145    -0.3 7  105 180 
 GRA  SZ EP   1   1049 41.72                             142    -0.3 7  119  15 
 GRA  SZ ES   1   1050  2.47                             142     0.1 7  119  15 
 GRA  SZ I        1050  4.67         3.6 0.34                           119  15 
                                                                                
