 2016  924 1559 45.2 L   6.749 -73.148148.0  RSN  6 0.4 1.8LRSN                1
 GAP=233        0.95       5.3     5.6  6.8  0.1171E+02  0.6325E+01  0.1149E+01E
 Epicentro: LOS SANTOS - SANTANDER                                             3
 ACTION:UPD 17-08-17 21:15 OP:lp   STATUS:               ID:20160924155945 L   I
 OLDACT:UP  16-09-24 22:56 OP:ar   STATUS:               ID:20160924155741     3
 OLDACT:REG 16-09-24 20:42 OP:ar   STATUS:               ID:20160924155741     3
 2016-09-24-1558-00M.COL___321                                                 6
 STAT SP IPHASW D HRMM SECON CODA AMPLIT PERI AZIMU VELO AIN AR TRES W  DIS CAZ7
 BAR2 EZ EP       16 0  5.00                             173   -0.0510 17.8 192 
 BAR2 EZ ES       16 0 20.17                             173   -0.3210 17.8 192 
 BAR2 EZ I        16 0 23.61        15.3 0.64            172           17.8 192 
 BRR  HZ EP       16 0  6.90                             152    0.1110 73.9 302 
 BRR  HN ES       16 0 24.27                             152    0.6810 73.9 302 
 BRR  HZ I        16 0 35.72        17.4 0.32            150           73.9 302 
 RUS  HZ EP       16 0  8.64                             146   -0.1810 95.0 176 
 RUS  HN ES       16 0 27.19                             146   -0.0210 95.0 176 
 RUS  HZ I        16 0 28.70         6.6 0.30            153           95.0 176 
 PTB  HZ EP       16 0 11.74                             133   -0.55 9  147 261 
 PTB  HN ES       16 0 32.91                             133   -0.47 9  147 261 
 PTB  HZ I        16 0 36.50         8.2 0.12            135            147 261 
 SPBC HZ EP       16 0 13.94                             131    0.44 9  159 220 
 SPBC HN ES       16 0 35.98                             131    0.45 9  159 220 
 SPBC HZ I        16 0 42.12        13.3 0.22            135            159 220 
 ZAR  HZ EP   2   16 0 18.41                             123    0.37 4  206 294 
 ZAR  HN ES       16 0 43.41                             123   -0.21 8  206 294 
 ZAR  HZ I        16 0 51.47         5.0 0.11            125            206 294 
                                                                                
