 2012  124 1051 32.7 L   6.761 -73.131138.0  RSN 14 0.5 2.5LRSN                1
 GAP=140        1.23       5.8     7.3  8.3  0.4078E+01  0.2483E+02  0.1579E+02E
 Epicentro: LOS SANTOS - SANTANDER                                             3
 ACTION:UP  12-02-03 08:20 OP:REBC STATUS:               ID:20120124105132 L   I
 2012-01-24-1050-00M.COL___187                                                 6
 STAT SP IPHASW D HRMM SECON CODA AMPLIT PERI AZIMU VELO SNR AR TRES W  DIS CAZ7
 BAR2 SZ IP       1051 51.27                             171    -0.110   19 197 
 BAR2 SZ ES   2   1052  5.76                             171    -0.1 5   19 197 
 BAR2 SZ I        1052  8.14       122.9 0.30                            19 197 
 GIR2 SZ EP       1051 51.35                             165    -0.310   36 349 
 GIR2 SZ ES   1   1052  6.13                             165    -0.2 7   36 349 
 BRR  HZ IP     C 1051 53.18                             150    -0.110   75 301 
 BRR  HN ES   1   1052  9.97                             150     0.7 7   75 301 
 BRR  HZ I        1052 11.16       108.3 0.14                            75 301 
 PAM  SZ IP       1051 54.15                             149    -0.110   80  37 
 PAM  SN ES   1   1052 10.94                             149    -0.2 7   80  37 
 RUS  HZ EP       1051 55.22                             143    -0.210   96 177 
 RUS  HN ES   1   1052 13.60                             143     0.5 7   96 177 
 RUS  HZ I        1052 15.22        37.6 0.42                            96 177 
 PTB  HZ EP   2   1051 58.02                             130    -1.1 5  149 261 
 PTB  HZ I        1052 21.76        45.8 0.38                           149 261 
 OCA  SZ EP   1   1052  2.44                             127     1.5 7  165 353 
 OCA  SZ I        1052 28.49        66.4 0.50                           165 353 
 ZAR  HZ EP       1052  4.39                             120    -0.6 8  207 293 
 ZAR  HE ES   1   1052 30.05                             120    -0.2 6  207 293 
 ZAR  HZ I        1052 36.07        50.9 0.36                           207 293 
 NOR  SZ EP   1   1052  7.70                             117    -0.2 6  234 236 
 CHI  HZ EP       1052  9.49                             116    -0.1 8  245 196 
 CHI  HZ I        1052 45.14         9.3 0.36                           245 196 
 HEL  HZ EP   1   1052 12.76                             113     0.1 6  273 257 
 HEL  HZ I        1052 55.21        13.8 0.66                           273 257 
 GUY  SZ EP   1   1052 16.43                             111     0.3 5  302 236 
 GUY  SZ I        1052 54.47        16.0 0.38                           302 236 
 RREF HZ EP       1052 19.22                             109     0.8 7  320 230 
 RREF HZ I        1053  3.08        10.3 0.24                           320 230 
 PRA  HZ EP   1   1052 25.86                             105     0.2 4  389 210 
                                                                                
