 2012  624 1055 35.1 L   6.810 -73.100145.8  RSN 18 0.5 2.8LRSN 3.1WRSN        1
 SPEC AVERAGE  MO 13.8 ST  4.6 OM  2.5 f0 3.98 R0.4018 AL 2.10 WI 24.8 MW  3.1 3
 SPEC SD       MO  0.2 ST  2.3 OM  0.6 f00.683 R0.0651 AL      WI      MW  0.1 3
 GAP=118        0.87       2.6     3.4  5.1  0.1277E+00  0.4566E+01  0.2758E+01E
 Epicentro: LOS SANTOS - SANTANDER                                             3
 SPEC ZAR HH Z MO 13.9 ST  5.7 OM  2.1 f0 4.03 R0.3856 AL 1.22 WI 29.4 MW  3.2 3
 SPEC ZAR HH Z T105628 K 0.000 GD  254 VS 4.20 DE 3.00 Q0230.0 QA 0.60 VS 4.20 3
 SPEC ROSCBH Z MO 14.0 ST  6.2 OM  2.2 f0 3.66 R0.4246 AL 2.99 WI 28.4 MW  3.3 3
 SPEC ROSCBH Z T105637 K 0.000 GD  294 VS 4.20 DE 3.00 Q0230.0 QA 0.60 VS 4.20 3
 SPEC PTB HH Z MO 13.7 ST  8.1 OM  2.0 f0 5.19 R0.2994 AL 2.13 WI 24.6 MW  3.1 3
 SPEC PTB HH Z T105618 K 0.000 GD  211 VS 4.20 DE 3.00 Q0230.0 QA 0.60 VS 4.20 3
 SPEC RUS HH Z MO 13.3 ST  2.1 OM  1.7 f0 4.43 R0.3508 AL 2.15 WI 12.4 MW  2.8 3
 SPEC RUS HH Z T105612 K 0.000 GD  177 VS 4.20 DE 3.00 Q0230.0 QA 0.60 VS 4.20 3
 SPEC HEL HH Z MO 13.9 ST  3.4 OM  2.0 f0 3.41 R0.4557 AL 2.09 WI 30.3 MW  3.2 3
 SPEC HEL HH Z T105644 K 0.000 GD  313 VS 4.20 DE 3.00 Q0230.0 QA 0.60 VS 4.20 3
 SPEC CHI HH Z MO 13.7 ST  1.9 OM  1.9 f0 3.14 R0.4949 AL 2.01 WI 23.9 MW  3.1 3
 SPEC CHI HH Z T105639 K 0.000 GD  290 VS 4.20 DE 3.00 Q0230.0 QA 0.60 VS 4.20 3
 ACTION:UPD 12-08-06 17:52 OP:ep   STATUS:               ID:20120624105535 L   I
 2012-06-24-1050-00M.COL___199                                                 6
 STAT SP IPHASW D HRMM SECON CODA AMPLIT PERI AZIMU VELO AIN AR TRES W  DIS CAZ7
 BAR2 SZ IP       1055 54.87                             170    0.1310 25.7 201 
 BAR2 SZ I        1055 55.42       195.6 0.15                          25.7 201 
 BAR2 SZ ES   1   1056  9.58                             170   -0.52 7 25.7 201 
 PAM  SZ EP       1055 57.73                             152    0.6910 73.4  37 
 PAM  SN ES   1   1056 14.77                             152    0.57 7 73.4  37 
 BRR  HZ IP     C 1055 56.68                             151    0.2410 75.1 296 
 BRR  HZ I        1055 56.94       247.0 0.17                          75.1 296 
 BRR  HN ES   1   1056 13.65                             151    0.53 7 75.1 296 
 RUS  HZ EP       1055 58.84                             144   -0.0410  101 179 
 RUS  HZ I        1055 59.60        51.3 0.15                           101 179 
 RUS  HN ES   1   1056 16.96                             144   -0.50 7  101 179 
 PTB  HZ EP   1   1056  1.72                             131   -0.78 7  153 259 
 PTB  HE ES   2   1056 23.59                             131   -0.31 5  153 259 
 PTB  HZ I        1056 29.96        59.2 0.25                           153 259 
 OCA  HZ EP   1   1056  2.96                             130   -0.37 7  160 351 
 OCA  HN ES   1   1056 24.63                             130   -0.75 7  160 351 
 OCA  HZ I        1056 27.95       112.1 0.28                           160 351 
 YOP  SZ EP       1056  5.62                             126    0.64 9  178 155 
 YOP  SN ES   1   1056 27.84                             126   -0.49 7  178 155 
 ZAR  HZ EP       1056  7.36                             122   -0.58 8  208 291 
 ZAR  HN ES   1   1056 33.43                             122   -0.16 6  208 291 
 ZAR  HZ I        1056 38.94        91.3 0.39                           208 291 
 NOR  SZ EP       1056 11.23                             118   -0.07 8  239 235 
 NOR  SN ES   1   1056 39.63                             118    0.07 6  239 235 
 CHI  HZ EP       1056 13.09                             117    0.07 8  251 196 
 CHI  HN ES   1   1056 42.06                             117   -0.57 6  251 196 
 CHI  HZ I        1056 46.42        24.3 0.41                           251 196 
 ROSC BZ EP   1   1056 14.06                             116    0.49 6  256 212 
 ROSC BN ES   1   1056 44.16                             116    0.55 6  256 212 
 ROSC BZ I        1056 49.18        54.6 0.39                           256 212 
 HEL  HZ EP   1   1056 16.00                             114    0.16 6  277 256 
 HEL  HN ES   1   1056 48.27                             114    0.62 6  277 256 
 HEL  HZ I        1056 53.18        37.9 0.33                           277 256 
 VIL  SZ EP   2   1056 18.70                             112   -0.02 4  306 192 
 VIL  SN ES   1   1056 52.18                             112   -0.59 5  306 192 
 VIL  SZ I        1057  2.68        22.5 0.55                           306 192 
 GUY  SZ EP   1   1056 19.88                             112    0.41 5  308 235 
 GUY  SN ES   1   1056 54.57                             112    0.46 5  308 235 
 DBB  SZ EP   2   1056 23.01                             109   -0.09 3  344 274 
 DBB  SZ ES   2   1057  0.73                             109    0.16 3  344 274 
 COD  HZ EP   1   1056 22.94                             109   -0.42 5  348 354 
 COD  HN ES   2   1057  0.84                             109   -0.20 3  348 354 
 COD  HZ I        1057  9.23        10.3 0.45                           348 354 
 PRA  HZ EP   1   1056 28.16                             106   -0.82 4  395 210 
 PRA  HN ES   1   1057 10.91                             106   -0.13 4  395 210 
 SJA  SZ EP   1   1056 29.20                             106   -0.67 4  402 194 
                                                                                
