 2011  124 1333 36.4 L   6.767 -73.090143.5  RSN  6 0.5 2.1LRSN                1
 GAP=165        1.08       6.3    14.5  8.3 -0.4248E+02  0.1526E+02 -0.1038E+01E
 Epicentro: LOS SANTOS - SANTANDER                                             3
 ACTION:UP  11-02-08 08:42 OP:pat  STATUS:               ID:20110124133336 L   I
 2011-01-24-1330-03S.COL___137                                                 6
 STAT SP IPHASW D HRMM SECON CODA AMPLIT PERI AZIMU VELO SNR AR TRES W  DIS CAZ7
 BAR2 SZ IP       1333 55.63                             170    -0.110   22 208 
 BAR2 SZ ES   1   1334 10.49                             170    -0.3 7   22 208 
 BAR2 SZ I        1334 11.91        39.6 0.32                            22 208 
 BTL  SZ EP       1333 56.49                             168     0.710   26 311 
 BTL  SZ ES   1   1334 11.95                             168     1.0 7   26 311 
 GIR2 SZ EP       1333 55.65                             164    -0.310   36 342 
 GIR2 SZ ES   2   1334 10.56                             164    -0.6 5   36 342 
 RUS  HZ EP       1333 59.64                             145     0.010   97 180 
 RUS  HN ES   1   1334 17.49                             145    -0.3 7   97 180 
 RUS  HZ I        1334 19.56        17.3 0.39                            97 180 
 GRA  SZ IP       1334  1.48                             136    -0.110  128  14 
 GRA  SZ ES   1   1334 20.83                             136    -0.4 7  128  14 
 GRA  SZ I        1334 22.43        16.1 0.48                           128  14 
 NOR  SZ EP       1334 12.39                             117     0.1 8  238 236 
 NOR  SN ES   3   1334 38.76                             117    -1.6 2  238 236 
                                                                                
