 2010  124 1208  9.3 L   6.771 -73.035148.9  RSN  8 0.4 1.8LRSN                1
 GAP=210        0.78       6.2     9.3  6.2 -0.9039E+01  0.1899E+02  0.5127E+01E
 Epicentro: CEPITA - SANTANDER                                                 3
 ACTION:UP  10-08-24 09:45 OP:vdl  STATUS:               ID:20100124120809 L   I
 2010-01-24-1205-09S.COL___094                                                 6
 STAT SP IPHASW D HRMM SECON CODA AMPLIT PERI AZIMU VELO SNR AR TRES W  DIS CAZ7
 BAR2 SZ IP       12 8 28.90                             170    -0.410   26 220 
 BAR2 SZ ES       12 8 44.71                             170    -0.210   26 220 
 GIR2 SZ EP   1   12 8 30.21                             165     0.7 7   38 333 
 RUS  BZ IP       12 8 33.12                             145     0.010   97 183 
 RUS  BE ES       12 8 51.98                             145     0.310   97 183 
 RUS  BZ I        12 8 54.01         6.2 0.56                            97 183 
 CHI  HZ IP       12 8 46.96                             118    -0.2 8  249 198 
 CHI  HE ES   2   12 9 16.47                             118    -0.3 4  249 198 
 CHI  HZ I        12 9 22.19         2.2 0.51                           249 198 
 HEL  HN ES   2   12 9 23.36                             114     0.0 4  283 257 
 RREF BE ES   2   12 9 33.52                             111     0.4 3  329 231 
 RREF BZ I        12 9 40.41         3.6 0.29                           329 231 
 TOL  SZ EP   2   12 8 59.08                             109     0.7 3  350 226 
 PRA  HZ IP       12 9  3.16                             107    -0.1 6  395 211 
 PRA  HE ES   2   12 9 45.26                             107    -0.2 3  395 211 
 PRA  HZ I        12 9 50.60         2.7 0.33                           395 211 
                                                                                
