 2011  724 1135 42.3 L   6.820 -73.326122.8  RSN  4 0.2 1.8LRSN                1
 GAP=159        0.54       6.9     7.6  6.4  0.1886E+02 -0.1829E+02 -0.1564E+02E
 Epicentro: ZAPATOCA - SANTANDER                                               3
 ACTION:UPD 12-07-25 14:03 OP:epov STATUS:               ID:20110724113542 L   I
 2011-07-24-1133-56S.COL___143                                                 6
 STAT SP IPHASW D HRMM SECON CODA AMPLIT PERI AZIMU VELO AIN AR TRES W  DIS CAZ7
 BAR2 SZ EP       1135 59.68                             165    0.3110 29.8 148 
 BAR2 SZ ES   1   1136 12.29                             165   -0.38 7 29.8 148 
 BAR2 SZ I        1136 14.14        28.3 0.28                          29.8 148 
 GIR2 SZ EP       1135 59.27                             165   -0.0310 32.1  27 
 GIR2 SZ ES   2   1136 12.84                             165    0.29 5 32.1  27 
 BRR  HZ EP   1   1135 59.80                             155   -0.18 7 53.1 307 
 BRR  HN ES   1   1136 13.83                             155    0.07 7 53.1 307 
 BRR  HZ I        1136 14.89        12.3 0.11                          53.1 307 
 BRI  SZ EP   1   1136  4.53                             134   -0.15 7  115  30 
                                                                                
