 2012 1124 1427 57.0 L   6.794 -73.191144.6  RSN  4 0.2 1.4LRSN                1
 GAP=143        0.50       3.8     6.5  4.7 -0.1364E+02  0.1224E+02 -0.2981E+01E
 Epicentro: ZAPATOCA - SANTANDER                                               3
 ACTION:UPD 12-12-05 15:35 OP:}ep  STATUS:               ID:20121124142757 L   I
 2012-11-24-1420-00M.COL___234                                                 6
 STAT SP IPHASW D HRMM SECON CODA AMPLIT PERI AZIMU VELO AIN AR TRES W  DIS CAZ7
 BAR2 SZ EP       1428 16.32                             171   -0.1910 22.4 177 
 BAR2 SZ ES       1428 31.91                             171    0.2210 22.4 177 
 BAR2 SZ I        1428 33.89         8.8 0.14                          22.4 177 
 PAM  SZ EP       1428 19.56                             149    0.2010 81.1  42 
 PAM  SN ES       1428 36.60                             149   -0.1710 81.1  42 
 PAM  SZ I        1428 38.85         3.5 0.62                          81.1  42 
 RUS  HZ EP       1428 20.77                             144    0.1010  100 173 
 RUS  HN ES   1   1428 38.89                             144   -0.20 7  100 173 
 RUS  HN I        1428 40.02         5.1 0.30                           100 173 
 PTB  HZ EP   1   1428 23.36                             133   -0.09 7  143 259 
 PTB  HZ I        1428 47.63         3.1 0.12                           143 259 
                                                                                
