 2011  524 1514  7.6 L   6.807 -73.081142.2  RSN  5 0.2 1.6LRSN                1
 GAP=144        0.50       3.5     6.4  8.6  0.2264E+01 -0.2742E+02 -0.7330E+01E
 Epicentro: LOS SANTOS - SANTANDER                                             3
 ACTION:UP  11-06-29 08:55 OP:tino STATUS:               ID:20110524151407 L   I
 2011-05-24-1510-37S.COL___141                                                 6
 STAT SP IPHASW D HRMM SECON CODA AMPLIT PERI AZIMU VELO SNR AR TRES W  DIS CAZ7
 BAR2 SZ EP   1   1514 26.89                             169     0.1 7   26 205 
 PAM  SZ EP       1514 29.34                             152     0.210   72  36 
 BRR  HZ EP   1   1514 28.50                             150    -0.2 7   77 295 
 BRR  HZ I        1514 29.14        12.9 0.07                            77 295 
 BRR  HN ES   1   1514 45.22                             150     0.1 7   77 295 
 RUS  HZ EP   2   1514 31.05                             143     0.0 5  101 180 
 RUS  HN ES   1   1514 49.15                             143    -0.1 7  101 180 
 RUS  HZ I        1514 51.04         4.6 0.33                           101 180 
 GRA  SZ EP   2   1514 31.75                             137    -0.5 5  123  14 
 GRA  SZ ES   2   1514 51.33                             137    -0.2 5  123  14 
 GRA  SZ I        1514 54.21         3.6 0.37                           123  14 
                                                                                
