 2010 1224 1320 15.5 L   6.778 -73.088153.2  RSN 10 0.3 2.2LRSN                1
 GAP=165        0.50       2.3     4.1  4.5 -0.4512E+01  0.7405E+01 -0.5923E+00E
 Epicentro: LOS SANTOS - SANTANDER                                             3
 ACTION:UP  11-01-14 15:27 OP:pat  STATUS:               ID:20101224132015 L   I
 2010-12-24-1320-00M.COL___133                                                 6
 STAT SP IPHASW D HRMM SECON CODA AMPLIT PERI AZIMU VELO SNR AR TRES W  DIS CAZ7
 BAR2 SZ IP       1320 36.02                             171     0.010   23 207 
 BAR2 SZ ES   1   1320 51.98                             171    -0.1 7   23 207 
 BAR2 SZ I        1320 52.79        21.8 0.23                            23 207 
 RUS  HZ EP   1   1320 39.56                             146    -0.3 7   98 180 
 RUS  HZ I        1320 41.52        11.2 0.45                            98 180 
 RUS  HE ES   1   1320 58.80                             146     0.0 7   98 180 
 GRA  SZ EP   1   1320 41.58                             138     0.1 7  126  14 
 GRA  SZ ES   1   1321  2.01                             138     0.3 7  126  14 
 GRA  SZ I        1321  3.74        19.7 0.31                           126  14 
 OCA  SZ EP   1   1320 44.58                             131    -0.2 7  164 351 
 OCA  SZ ES   1   1321  7.58                             131     0.1 7  164 351 
 OCA  SZ I        1321 11.42        36.3 0.41                           164 351 
 NOR  SZ EP   1   1320 51.97                             120    -0.2 6  239 236 
 NOR  SN ES   1   1321 20.43                             120    -0.3 6  239 236 
 CHI  HZ EP   1   1320 53.72                             119     0.1 6  248 197 
 CHI  HZ I        1320 56.66         5.8 0.22                           248 197 
 CHI  HE ES   2   1321 23.95                             119     0.7 4  248 197 
 HEL  HZ EP   2   1320 56.59                             116    -0.2 4  278 257 
 HEL  HE ES   2   1321 28.67                             116    -0.3 4  278 257 
 HEL  HZ I        1321 35.68         8.7 0.25                           278 257 
 GUY  SN ES   2   1321 34.53                             113    -0.1 4  305 236 
 GUY  SZ I        1321 45.94        15.7 0.17                           305 236 
 RREF HZ EP   1   1321  2.65                             112     0.3 5  325 230 
 RREF HE ES   1   1321 39.66                             112     0.7 5  325 230 
 RREF HZ I        1321 44.53         9.7 0.16                           325 230 
 PRA  HZ EP   2   1321  9.23                             108    -0.2 3  393 211 
                                                                                
