 2016 1224 1925 18.9 L   6.799 -73.141147.8  RSN  5 0.1 1.4LRSN                1
 GAP=137        0.39       2.2     3.7  3.3  0.1416E+01 -0.2236E+01 -0.7066E-01E
 Epicentro: LOS SANTOS - SANTANDER                                             3
 ACTION:UPD 17-01-11 20:18 OP:rebc STATUS:               ID:20161224192518 L   I
 OLDACT:UP  16-12-25 01:12 OP:dani STATUS:               ID:20161224191749d    3
 OLDACT:DUP 16-12-25 01:09 OP:dani STATUS:               ID:20161224191749d    3
 2016-12-24-1918-00M.COL___381                                                 6
 STAT SP IPHASW D HRMM SECON CODA AMPLIT PERI AZIMU VELO AIN AR TRES W  DIS CAZ7
 BAR2 EZ ES       1925 54.10                             171   -0.1510 23.3 191 
 BRR  HZ EP       1925 40.06                             153   -0.2110 71.6 298 
 BRR  HN ES       1925 57.12                             153    0.1610 71.6 298 
 BRR  HZ I        1926  2.15         7.8 0.54            150           71.6 298 
 PAM  EZ EP       1925 41.32                             151    0.0310 77.1  39 
 PAM  EE ES   2   1925 59.02                             151    0.24 5 77.1  39 
 PAM  EZ I        1926  0.52         4.0 0.41            154           77.1  39 
 RUS  HZ EP       1925 42.86                             144    0.0410  100 176 
 RUS  HN ES       1926  1.52                             144    0.0210  100 176 
 RUS  HZ I        1926  2.35         3.7 0.44            146            100 176 
 CHI  HZ EP   2   1925 56.94                             117    0.25 4  249 195 
 CHI  HN ES   2   1926 26.32                             117    0.13 4  249 195 
 CHI  HZ I        1926 29.28         1.4 0.38            119            249 195 
                                                                                
