 2010  124 1919 17.4 L   6.879 -73.135142.0  RSN  7 0.3 1.8LRSN                1
 GAP=230        0.56       4.9     8.6  5.8  0.1083E+02  0.2937E+02  0.4195E+01E
 Epicentro: PIEDECUESTA - SANTANDER                                            3
 ACTION:UP  10-08-24 09:45 OP:vdl  STATUS:               ID:20100124191917 L   I
 2010-01-24-1917-11S.COL___095                                                 6
 STAT SP IPHASW D HRMM SECON CODA AMPLIT PERI AZIMU VELO SNR AR TRES W  DIS CAZ7
 BAR2 SZ EP   1   1919 37.20                             167     0.4 8   32 190 
 BAR2 SZ ES   1   1919 51.77                             167    -0.2 8   32 190 
 RUS  BZ IP       1919 41.21                             141    -0.310  109 177 
 RUS  BN ES       1920  0.42                             141     0.210  109 177 
 RUS  BZ I        1920  1.02         8.4 0.33                           109 177 
 CHI  HZ EP   1   1919 55.56                             116    -0.3 6  257 195 
 CHI  HE ES   2   1920 25.56                             116    -0.3 4  257 195 
 CHI  HZ I        1920 29.25         3.1 0.68                           257 195 
 HEL  HZ EP   2   1919 58.04                             114     0.2 4  275 254 
 HEL  HZ I        1920 35.68         3.7 0.61                           275 254 
 MON  HE ES   2   1920 43.20                             108    -0.2 3  348 307 
 TOL  SZ EP   2   1920  6.97                             108     0.6 3  351 224 
 PRA  HZ IP       1920 11.87                             106     0.1 6  400 209 
 PRA  HE ES   1   1920 54.16                             106     0.0 4  400 209 
 PRA  HZ I        1920 58.16         3.0 0.72                           400 209 
                                                                                
