 2011  424 1753 20.0 L   6.906 -73.171159.1  RSN  5 0.5 2.4LRSN                1
 GAP=243        1.05      13.9     8.2 10.9 -0.2077E+02  0.2392E+02 -0.1510E+01E
 Epicentro: BETULIA - SANTANDER                                                3
 ACTION:UP  11-06-22 15:33 OP:REBC STATUS:               ID:20110424175319 L   I
 2011-04-24-1740-00M.COL___140                                                 6
 STAT SP IPHASW D HRMM SECON CODA AMPLIT PERI AZIMU VELO SNR AR TRES W  DIS CAZ7
 BRR  HZ IP     C 1753 42.22                             157     0.010   64 290 
 BRR  HZ I        1753 42.54       145.3 0.17                            64 290 
 BRR  HN ES   1   1753 59.89                             157     0.4 7   64 290 
 PAM  SZ EP   1   1753 43.00                             155    -0.3 7   71  47 
 PAM  SN ES   1   1754  0.64                             155    -0.8 7   71  47 
 PAM  SZ I        1754  2.53        15.7 0.31                            71  47 
 BRI  SZ EP   1   1753 44.84                             146     0.4 7   99  25 
 BRI  SZ I        1754  8.36        32.3 0.33                            99  25 
 GRA  SZ EP   1   1753 46.13                             142     0.5 7  116  21 
 GRA  SZ ES   1   1754  5.89                             142     0.2 7  116  21 
 GRA  SZ I        1754  7.84        40.7 0.25                           116  21 
 MON  HZ EP   1   1754  7.51                             111    -0.9 5  344 307 
 MON  HN ES   1   1754 46.18                             111    -0.1 5  344 307 
 MON  HZ I        1755  5.00         8.5 0.44                           344 307 
                                                                                
