 2012  324 1456 40.5 L   6.802 -73.139144.6  RSN  6 0.3 1.5LRSN                1
 GAP=137        0.79       5.1     5.0  9.1  0.2741E+00  0.9516E+01  0.5208E+01E
 ACTION:UP  12-03-31 23:22 OP:EP   STATUS:               ID:20120324145640 L   I
 2012-03-24-1450-00M.COL___196                                                 6
 STAT SP IPHASW D HRMM SECON CODA AMPLIT PERI AZIMU VELO SNR AR TRES W  DIS CAZ7
 BRR  HZ EP   1   1457  1.71                             152     0.2 7   72 298 
 BRR  HZ I        1457  4.97         9.3 0.43                            72 298 
 BRR  HE ES   1   1457 18.30                             152     0.3 7   72 298 
 PAM  SZ EP       1457  2.77                             151     0.210   77  39 
 PAM  SE ES   1   1457 19.21                             151    -0.5 7   77  39 
 RUS  HZ EP   1   1457  4.37                             143     0.2 7  101 176 
 RUS  HN ES   1   1457 22.57                             143     0.0 7  101 176 
 RUS  HZ I        1457 24.70         3.4 0.29                           101 176 
 PTB  HZ EP   1   1457  6.82                             131    -0.6 7  148 259 
 PTB  HZ I        1457 33.41         2.4 0.16                           148 259 
 ZAR  HE ES   1   1457 38.21                             122     0.0 6  205 292 
 ZAR  HZ I        1457 43.69         4.8 0.24                           205 292 
 NOR  SN ES   2   1457 43.77                             118    -0.3 4  235 235 
                                                                                
