 2016 1024 1510 21.9 L   6.882 -73.295124.5  RSN 12 0.4 1.9LRSN                1
 GAP=191        1.06       4.5     5.2  5.6 -0.1335E+01  0.6928E+01  0.5024E+01E
 Epicentro: BETULIA - SANTANDER                                                3
 ACTION:UPD 16-11-09 19:22 OP:rebc STATUS:               ID:20161024151021 L   I
 OLDACT:UP  16-10-24 23:20 OP:edw  STATUS:               ID:20161024150744     3
 OLDACT:UP  16-10-24 23:17 OP:edw  STATUS:               ID:20161024150744     3
 OLDACT:UP  16-10-24 23:16 OP:edw  STATUS:               ID:20161024150744     3
 OLDACT:REG 16-10-24 21:08 OP:edw  STATUS:               ID:20161024150744     3
 2016-10-24-1508-00M.COL___365                                                 6
 STAT SP IPHASW D HRMM SECON CODA AMPLIT PERI AZIMU VELO AIN AR TRES W  DIS CAZ7
 BAR2 EZ IP     D 1510 39.56                             163    0.2610 34.4 159 
 BAR2 EZ ES       1510 52.64                             163   -0.2310 34.4 159 
 BAR2 EZ I        1510 53.96        63.7 0.14            162           34.4 159 
 BRR  HZ EP       1510 40.01                             155    0.3010 52.4 298 
 BRR  HN ES       1510 53.69                             155    0.0910 52.4 298 
 PAM  EZ EP   4   1510 43.58                             143    1.30 0 82.9  52 
 PAM  EN ES   4   1510 58.08                             143   -0.10 0 82.9  52 
 PAM  EZ I        1511  1.63        22.5 0.46            145           82.9  52 
 RUS  HZ EP       1510 44.59                             135    0.0310  112 168 
 RUS  HN ES       1511  1.82                             135   -0.4210  112 168 
 RUS  HZ I        1511  3.07         7.8 0.19            134            112 168 
 PTB  HZ EP   9   1510 44.83                             129   -1.06 0  134 254 
 PTB  HN ES       1511  2.35                             130   -1.2010  134 254 
 PTB  HZ I        1511  6.86        11.5 0.07            129            134 254 
 SPBC HZ EP       1510 48.71                             124    0.08 9  161 212 
 SPBC HE ES       1511  9.40                             124   -0.09 9  161 212 
 SPBC HZ I        1511 10.04        17.1 0.16            123            161 212 
 NOR  HZ EP       1510 55.85                             114    0.19 8  227 230 
 NOR  HN ES       1511 22.17                             114    0.18 8  227 230 
 NOR  HZ I        1511 28.86         7.8 0.26            113            227 230 
 CHI  HZ EP       1510 59.22                             111    0.13 8  254 191 
 CHI  HN ES   2   1511 26.60                             111   -1.51 4  254 191 
 CHI  HZ I        1511 34.50         5.5 0.36            111            254 191 
 GUY2CHZ EP       1511  3.72                             108   -0.00 7  293 231 
 GUY2CHN ES       1511 36.21                             108   -0.13 7  293 231 
 GUY2CHZ I        1511 42.14         2.1 0.37                           293 231 
 LL6C HZ EP   4   1510 47.70                             106   -18.0 0  315   0 
 LL6C HN ES   4   1511 21.83                             106   -18.0 0  315   0 
 PRA  HZ EP       1511 15.34                             102    0.54 6  392 207 
 PRA  HN ES       1511 56.50                             102    0.44 6  392 207 
 PRA  HZ I        1512  2.61         3.3 0.36            102            392 207 
 SJC  HZ EP       1511 13.74                             102   -1.13 6  393 328 
 SJC  HN ES   4   1511 52.80                             102   -3.39 0  393 328 
 ORTC HZ EP   4   1511 16.51                             102    1.57 0  394 213 
 ORTC HN ES   4   1511 59.77                             102    3.45 0  394 213 
 ORTC HZ I        1512  2.05         2.1 0.36            102            394 213 
 CRJC HZ EP   4   1511 18.18                              99   -4.76 0  460   6 
 CRJC HN ES   4   1512  9.80                              99   -0.75 0  460   6 
                                                                                
