 2010  824 1428 34.7 L   7.383 -73.158128.7  RSN  4 0.2 1.8LRSN                1
 GAP=147        0.54       7.0     7.4  5.8 -0.4240E+02 -0.5471E+01  0.2829E+01E
 Epicentro: EL PLAYON - SANTANDER                                              3
 ACTION:UP  10-09-07 10:57 OP:vdl  STATUS:               ID:20100824142834 L   I
 2010-08-24-1425-08S.COL___120                                                 6
 STAT SP IPHASW D HRMM SECON CODA AMPLIT PERI AZIMU VELO SNR AR TRES W  DIS CAZ7
 GUE  SZ EP       1428 53.58                             155     0.010   56  27 
 GUE  SZ I        1428 53.90        16.3 0.02                            56  27 
 GUE  SZ ES   1   1429  8.60                             155     0.3 7   56  27 
 GRA  SZ EP       1428 54.18                             151     0.110   68  35 
 GRA  SZ ES   1   1429  8.76                             151    -0.4 7   68  35 
 GRA  SZ I        1429 11.32        29.3 0.55                            68  35 
 BRR  HZ EP       1428 53.73                             150    -0.110   68 244 
 BRR  HN ES       1429  8.82                             150     0.010   68 244 
 BRR  HZ I        1429 11.99        11.1 0.07                            68 244 
 BAR2 SZ ES   2   1429 11.69                             144     0.0 5   88 182 
 BAR2 SZ I        1429 13.05         8.3 0.16                            88 182 
                                                                                
