 2016  524 1709 58.5 L   6.814 -73.132143.9  RSN  7 0.4 1.9LRSN                1
 GAP=138        1.11       4.6     4.7  7.1 -0.5622E+00  0.8749E+01  0.6256E+00E
 Epicentro: LOS SANTOS - SANTANDER                                             3
 ACTION:UPD 16-08-18 17:49 OP:cam  STATUS:               ID:20160524170958 L   I
 OLDACT:REG 16-05-24 20:59 OP:ar   STATUS:               ID:20160524170743     3
 2016-05-24-1707-43M.COL___318                                                 6
 STAT SP IPHASW D HRMM SECON CODA AMPLIT PERI AZIMU VELO AIN AR TRES W  DIS CAZ7
 BAR2 EZ EP       1710 17.77                             170   -0.2110 25.1 193 
 BAR2 EZ ES       1710 32.37                             170   -0.7710 25.1 193 
 BAR2 EZ I        1710 33.50        15.2 0.24            169           25.1 193 
 BRR  HZ EP       1710 19.62                             152    0.1010 71.8 297 
 BRR  HN ES       1710 36.62                             152    0.7310 71.8 297 
 BRR  HZ I        1710 38.76        22.5 0.34            152           71.8 297 
 PAM  EZ EP       1710 20.62                             151    0.1910 75.2  39 
 PAM  EN ES       1710 37.52                             151    0.0310 75.2  39 
 PAM  EZ I        1710 39.52        14.4 0.52            154           75.2  39 
 RUS  HZ EP       1710 22.37                             143    0.1610  102 177 
 RUS  HN ES       1710 40.81                             143    0.1410  102 177 
 RUS  HZ I        1710 42.20         8.5 0.18            144            102 177 
 PTB  HZ EP       1710 24.74                             131   -0.78 9  150 258 
 PTB  HN ES       1710 46.28                             131   -0.28 9  150 258 
 PTB  HZ I        1710 47.53         9.5 0.38            132            150 258 
 SPBC HZ EP       1710 27.08                             128   -0.02 9  165 219 
 SPBC HN ES       1710 50.02                             128    0.64 9  165 219 
 SPBC HZ I        1710 53.60        10.7 0.28            129            165 219 
 ZAR  HZ EP       1710 31.27                             122    0.32 9  205 292 
 ZAR  HN ES       1710 55.98                             122   -0.25 9  205 292 
 ZAR  HZ I        1710 58.20         8.0 0.14            123            205 292 
                                                                                
