 2016  924 1554 11.4 L   6.740 -73.173144.7  RSN  7 0.5 1.9LRSN                1
 GAP=230        1.21       5.7     6.3  7.7  0.9511E+01  0.1465E+02  0.3862E+01E
 Epicentro: VILLANUEVA - SANTANDER                                             3
 ACTION:UPD 17-08-17 21:15 OP:lp   STATUS:               ID:20160924155411 L   I
 OLDACT:UP  16-09-24 22:47 OP:ar   STATUS:               ID:20160924154742     3
 OLDACT:REG 16-09-24 20:42 OP:ar   STATUS:               ID:20160924154742     3
 2016-09-24-1548-00M.COL___321                                                 6
 STAT SP IPHASW D HRMM SECON CODA AMPLIT PERI AZIMU VELO AIN AR TRES W  DIS CAZ7
 BAR2 EZ EP       1554 30.70                             173   -0.0310 16.4 184 
 BAR2 EZ ES       1554 45.93                             173    0.0810 16.4 184 
 BAR2 EZ I        1554 47.05        30.3 0.34            171           16.4 184 
 BRR  HZ EP       1554 32.65                             152    0.2110 72.1 304 
 BRR  HN ES       1554 49.65                             152    0.7710 72.1 304 
 BRR  HZ I        1554 53.32        14.6 0.44            152           72.1 304 
 RUS  HZ EP       1554 34.44                             145   -0.1110 94.2 174 
 RUS  HN ES       1554 52.14                             145   -0.5010 94.2 174 
 RUS  HZ I        1554 55.44         7.8 0.56            147           94.2 174 
 PTB  HZ EP       1554 37.39                             133   -0.47 9  144 261 
 PTB  HN ES       1554 58.04                             133   -0.49 9  144 261 
 PTB  HZ I        1555  0.36         5.7 0.14            134            144 261 
 SPBC HZ EP       1554 39.89                             130    0.79 9  156 220 
 SPBC HN ES       1555  0.62                             130   -0.13 9  156 220 
 SPBC HZ I        1555  6.56        13.5 0.32            131            156 220 
 ZAR  HZ EP       1554 42.92                             122   -0.79 9  204 294 
 ZAR  HN ES       1555  8.66                             122   -0.29 9  204 294 
 ZAR  HZ I        1555 12.24         8.4 0.26            124            204 294 
 GUY2CHZ EP       1554 54.97                             113    0.77 7  295 235 
 GUY2CHN ES       1555 28.10                             113    0.47 7  295 235 
 GUY2CHZ I        1555 34.88         2.2 0.32                           295 235 
                                                                                
