 2012 1224 1102  2.9 L   6.773 -73.159146.8  RSN 11 0.4 2.3LRSN                1
 GAP=110        0.90       4.0     4.1  5.4  0.3598E+01 -0.3329E+00 -0.3362E+01E
 Epicentro: LOS SANTOS - SANTANDER                                             3
 ACTION:UPD 13-01-04 14:30 OP:ep   STATUS:               ID:20121224110202 L   I
 2012-12-24-1100-00M.COL___243                                                 6
 STAT SP IPHASW D HRMM SECON CODA AMPLIT PERI AZIMU VELO AIN AR TRES W  DIS CAZ7
 BAR2 SZ IP       11 2 22.70                             172    0.0810 20.1 187 
 BAR2 SZ ES       11 2 37.35                             172   -0.6310 20.1 187 
 BAR2 SZ I        11 2 39.00        55.3 0.18                          20.1 187 
 GIR2 SZ EP     C 11 2 22.77                             166   -0.0310 34.1 354 
 BRR  HZ IP     C 11 2 24.57                             153    0.3710 71.5 301 
 BRR  HZ I        11 2 24.91        32.9 0.11                          71.5 301 
 BRR  HE ES       11 2 41.57                             153    0.7810 71.5 301 
 RUS  HZ EP       11 2 26.73                             145    0.1610 97.7 175 
 RUS  HN ES       11 2 45.01                             145    0.0010 97.7 175 
 RUS  HZ I        11 2 46.38        17.3 0.29                          97.7 175 
 PTB  HZ EP       11 2 29.38                             133   -0.42 9  146 260 
 PTB  HN ES   1   11 2 50.25                             133   -0.51 7  146 260 
 PTB  HZ I        11 2 53.19        29.3 0.16                           146 260 
 TAM  HZ EP       11 2 30.99                             131    0.24 9  156 104 
 OCA  HZ EP       11 2 31.19                             129   -0.39 9  163 354 
 OCA  HN ES   4   11 2 52.51                             129   -1.42 0  163 354 
 OCA  HZ I        11 3  0.15        20.0 0.44                           163 354 
 ZAR  HZ EP   1   11 2 35.48                             123    0.06 6  204 293 
 ZAR  HN ES   1   11 3  0.81                             123    0.04 6  204 293 
 ZAR  HZ I        11 3  7.28        21.2 0.62                           204 293 
 CHI  HZ EP   1   11 2 40.27                             118   -0.06 6  245 195 
 CHI  HN ES   1   11 3  9.61                             118    0.11 6  245 195 
 CHI  HZ I        11 3 16.30         5.2 0.29                           245 195 
 SML  HZ EP   1   11 2 39.29                             117   -0.55 6  246 336 
 SML  HE ES   4   11 3  6.52                             117   -2.12 0  246 336 
 SML  HZ I        11 3  9.69        20.3 0.20                           246 336 
 HEL  HZ EP   1   11 2 43.66                             115    0.70 6  270 256 
 HEL  HE ES   1   11 3 13.94                             115   -0.24 6  270 256 
 HEL  HZ I        11 3 21.40        11.5 0.32                           270 256 
 MON  HZ EP   4   11 2 50.26                             109   -1.80 0  354 309 
                                                                                
