 2015 1124 1410 40.8 L   6.338 -73.617108.3  RSN 11 0.4 2.0LRSN                1
 GAP= 84        0.89       2.7     2.1  4.8 -0.9725E+00  0.1550E+01 -0.1528E+01E
 Epicentro: SANTA HELENA DEL OPON - SANTANDER                                  3
 ACTION:UPD 15-12-28 16:13 OP:cam  STATUS:               ID:20151124141040 L   I
 OLDACT:UP  15-11-24 22:08 OP:drio STATUS:               ID:20151124140750     3
 OLDACT:REG 15-11-24 22:08 OP:drio STATUS:               ID:20151124140750     3
 2015-11-24-1407-50M.COL___215                                                 6
 STAT SP IPHASW D HRMM SECON CODA AMPLIT PERI AZIMU VELO AIN AR TRES W  DIS CAZ7
 BAR2 EZ EP       1410 57.84                             151    0.5010 55.7  60 
 BAR2 EZ ES       1411 10.51                             151    0.2410 55.7  60 
 BAR2 EZ I        1411 12.50        50.3 0.14            154           55.7  60 
 RUS  HZ EP       1410 59.15                             142    0.0210 76.9 130 
 RUS  HN ES       1411 13.34                             142   -0.1110 76.9 130 
 RUS  HZ I        1411 16.41         7.7 0.14            146           76.9 130 
 BRR  HZ EP       1410 59.45                             139    0.3210 85.7 353 
 BRR  HN ES       1411 13.69                             139    0.2510 85.7 353 
 SPBC HZ EP       1410 59.68                             137   -0.0110 91.0 214 
 SPBC HN ES       1411 14.45                             137    0.0010 91.0 214 
 SPBC HZ I        1411 17.03        30.6 0.44            139           91.0 214 
 PTB  HZ EP       1410 59.64                             135   -0.3210 95.5 284 
 PTB  HN ES       1411 14.48                             135   -0.4510 95.5 284 
 PTB  HZ I        1411 17.05        30.7 0.42            137           95.5 284 
 PAM  EZ EP       1411  5.67                             122   -0.18 9  150  42 
 PAM  EE ES       1411 25.31                             122   -0.10 9  150  42 
 PAM  EZ I        1411 26.85        10.4 0.42            125            150  42 
 NOR  HZ EP       1411  7.09                             119    0.46 9  163 238 
 NOR  HN ES       1411 26.77                             119   -0.03 9  163 238 
 NOR  HZ I        1411 29.60        18.1 0.32            121            163 238 
 ZAR  HZ EP       1411  9.35                             115    0.12 9  187 313 
 ZAR  HN ES       1411 31.33                             115   -0.09 9  187 313 
 ZAR  HZ I        1411 36.23        13.4 0.38            117            187 313 
 TAM  HZ EP       1411 10.40                             113   -0.53 9  202  87 
 TAM  HN ES       1411 34.18                             113   -0.28 9  202  87 
 HEL  HZ EP       1411 13.35                             112    0.89 8  212 266 
 HEL  HN ES       1411 36.51                             112   -0.67 8  212 266 
 HEL  HZ I        1411 41.77         7.7 0.30            114            212 266 
 SML  HZ EP       1411 19.22                             106   -0.26 7  277 350 
 SML  HN ES   4   1411 48.77                             106   -0.91 0  277 350 
                                                                                
