 2017  124 1507 32.6 L   6.795 -73.180144.5  RSN 13 0.3 2.3LRSN                1
 GAP=132        0.79       3.0     3.3  4.7  0.6571E+00  0.3575E+01  0.1570E+01E
 Epicentro: LOS SANTOS - SANTANDER                                             3
 ACTION:UPD 17-05-22 16:02 OP:jn   STATUS:               ID:20170124150732 L   I
 OLDACT:UP  17-01-24 22:30 OP:dnl  STATUS:               ID:20170124145743     3
 OLDACT:UP  17-01-24 22:30 OP:dnl  STATUS:               ID:20170124145743     3
 OLDACT:REG 17-01-24 20:53 OP:dnl  STATUS:               ID:20170124145743     3
 2017-01-24-1458-00M.COL___349                                                 6
 STAT SP IPHASW D HRMM SECON CODA AMPLIT PERI AZIMU VELO AIN AR TRES W  DIS CAZ7
 BAR2 EZ IP     C 15 7 52.11                             171    0.0210 22.5 181 
 BAR2 EZ ES       15 8  6.67                             171   -0.6010 22.5 181 
 BAR2 EZ I        15 8  8.19       113.9 0.30            168           22.5 181 
 BRR  HZ IP     C 15 7 53.74                             153    0.2710 68.1 300 
 BRR  HN ES       15 8 10.27                             153    0.5410 68.1 300 
 BRR  HZ I        15 8 13.97        54.7 0.28            149           68.1 300 
 PAM  EZ EP       15 7 54.91                             150    0.0210 80.3  41 
 PAM  EN ES       15 8 12.19                             150   -0.0610 80.3  41 
 PAM  EZ I        15 8 14.16        46.7 0.52            154           80.3  41 
 RUS  HZ EP     D 15 7 55.93                             144   -0.3210  100 174 
 RUS  HE ES       15 8 14.88                             144    0.2210  100 174 
 RUS  HZ I        15 8 15.71        25.2 0.36            143            100 174 
 PTB  HZ EP       15 7 58.72                             132   -0.43 9  144 259 
 PTB  HN ES       15 8 19.81                             132   -0.02 9  144 259 
 PTB  HZ I        15 8 21.65        26.6 0.20            129            144 259 
 ZAR  HZ EP       15 8  4.66                             123    0.01 9  201 293 
 ZAR  HE ES       15 8 29.66                             123    0.04 9  201 293 
 ZAR  HZ I        15 8 36.02        25.1 0.30            121            201 293 
 CHI  HZ EP       15 8 10.17                             117    0.07 8  247 194 
 CHI  HE ES       15 8 39.85                             117    0.53 8  247 194 
 CHI  HZ I        15 8 44.55        10.3 0.44            116            247 194 
 ROSC BZ EP   9   15 8 12.06                             117    1.64 0  250 210 
 ROSC BN ES       15 8 41.90                                    0.37 8  250 210 
 ROSC BZ I        15 8 46.63        24.2 0.40            116            250 210 
 URE  HZ EP   4   15 8 15.54                             114    2.28 0  280 292 
 URE  HE ES   4   15 8 42.68                             114   -2.28 0  280 292 
 URE  HZ I        15 8 51.96        15.7 0.16            113            280 292 
 CBOC HZ EP   4   15 8 20.34                             110    1.28 0  330 252 
 CBOC HN ES   2   15 8 54.35                             110   -0.92 3  330 252 
 CBOC HZ I        15 9  6.91         3.3 0.34            109            330 252 
 DBB  EZ EP   2   15 8 19.54                             110   -0.08 3  336 274 
 DBB  EN ES   4   15 8 54.80                             110   -1.47 0  336 274 
 DBB  EZ I        15 8 59.92         7.3 0.22            109            336 274 
 SJC  HZ EP   4   15 8 26.14                             106   -1.82 0  408 327 
 SJC  HN ES   4   15 9  7.28                             106   -3.83 0  408 327 
 SJC  HZ I        15 9 11.36         4.6 0.42            105            408 327 
 URI  HZ EP   4   15 8 42.81                             100   -2.96 0  558  13 
 URI  HE ES   4   15 9 37.31                             100   -5.51 0  558  13 
 URI  HZ I        15 9 44.94         1.3 0.68            101            558  13 
                                                                                
