 2011 1024 1200  8.1 L   6.779 -73.108143.8  RSN  5 0.3 1.6LRSN                1
 GAP=142        0.60       4.0     6.6  6.7 -0.2944E+01  0.5792E+01 -0.1757E+00E
 Epicentro: LOS SANTOS - SANTANDER                                             3
 ACTION:UPD 12-07-13 16:05 OP:ep   STATUS:               ID:20111024120008 L   I
 2011-10-24-1200-00M.COL___175                                                 6
 STAT SP IPHASW D HRMM SECON CODA AMPLIT PERI AZIMU VELO AIN AR TRES W  DIS CAZ7
 BAR2 SZ EP       12 0 27.19                             171   -0.2810 22.2 202 
 BAR2 SZ ES   2   12 0 41.71                             171   -0.86 5 22.2 202 
 BAR2 SZ I        12 0 44.03         5.7 0.32                          22.2 202 
 BTL  SZ EP       12 0 27.48                             170   -0.0110 23.4 311 
 BRR  HZ EP       12 0 29.33                             151    0.0210 75.9 299 
 BRR  HZ I        12 0 39.85        11.8 0.34                          75.9 299 
 BRR  HN ES   2   12 0 46.31                             151    0.46 5 75.9 299 
 PAM  SZ EP       12 0 30.05                             151   -0.0110 76.7  36 
 PAM  SN ES   1   12 0 47.35                             151    0.16 7 76.7  36 
 RUS  HZ EP       12 0 31.57                             144    0.1010 98.1 178 
 RUS  HN ES   1   12 0 50.03                             144    0.33 7 98.1 178 
                                                                                
