 2012  424 1513 58.4 L   6.781 -73.146146.8  RSN  9 0.4 2.4LRSN                1
 GAP=137        0.93       4.2     4.7  8.1 -0.1817E+01  0.6259E+01  0.5051E+01E
 Epicentro: LOS SANTOS - SANTANDER                                             3
 ACTION:UPD 12-07-05 11:55 OP:tino STATUS:               ID:20120424151358 L   I
 2012-04-24-1510-00M.COL___186                                                 6
 STAT SP IPHASW D HRMM SECON CODA AMPLIT PERI AZIMU VELO AIN AR TRES W  DIS CAZ7
 BAR2 SZ EP       1514 18.05                             171     0.010   21 191 
 BAR2 SZ I        1514 34.21        74.2 0.10                            21 191 
 BRR  HZ EP       1514 19.98                             152     0.310   72 300 
 BRR  HN ES   1   1514 36.71                             152     0.4 7   72 300 
 BRR  HZ I        1514 39.51        94.8 0.17                            72 300 
 PAM  SZ EP   1   1514 20.87                             150     0.1 7   79  39 
 PAM  SN ES   1   1514 37.95                             150    -0.4 7   79  39 
 RUS  HZ EP       1514 21.93                             145    -0.210   98 176 
 RUS  HN ES   1   1514 40.61                             145     0.0 7   98 176 
 RUS  HZ I        1514 41.54        21.3 0.10                            98 176 
 PTB  HZ EP   1   1514 24.55                             132    -0.8 7  147 260 
 PTB  HN ES   1   1514 45.87                             132    -0.6 7  147 260 
 PTB  HZ I        1514 51.55        27.7 0.27                           147 260 
 OCA  SZ EP   1   1514 27.00                             129     0.0 7  162 353 
 ZAR  HZ EP   1   1514 31.33                             122     0.4 6  205 293 
 ZAR  HE ES   1   1514 56.98                             122     0.6 6  205 293 
 NOR  SZ EP   1   1514 33.67                             119    -0.4 6  233 235 
 NOR  SN ES       1515  1.63                             119    -0.2 8  233 235 
 CHI  HZ EP   1   1514 36.23                             117     0.3 6  247 195 
 CHI  HN ES   1   1515  6.14                             117     0.9 6  247 195 
 CHI  HZ I        1515 11.41        13.8 0.21                           247 195 
                                                                                
