 2010 1024 1126 26.9 L   6.817 -73.050142.2  RSN  4 0.1 1.5LRSN                1
 GAP=175        0.33       3.4     7.0  5.8  0.1002E+02 -0.2046E+02 -0.8674E+01E
 Epicentro: LOS SANTOS - SANTANDER                                             3
 ACTION:UP  11-02-18 11:11 OP:tino STATUS:               ID:20101024112626 L   I
 2010-10-24-1122-35S.COL___124                                                 6
 STAT SP IPHASW D HRMM SECON CODA AMPLIT PERI AZIMU VELO SNR AR TRES W  DIS CAZ7
 BAR2 SZ EP   1   1126 46.31                             168     0.1 7   29 211 
 BAR2 SZ ES   2   1127  1.11                             168    -0.2 5   29 211 
 BAR2 SZ I        1127  3.84         8.8 0.60                            29 211 
 BRR  HZ EP   1   1126 48.06                             149    -0.1 7   80 294 
 BRR  HE ES   2   1127  4.87                             149     0.1 5   80 294 
 BRR  HZ I        1127  5.21         7.6 0.41                            80 294 
 RUS  HZ EP   1   1126 50.33                             143    -0.1 7  102 182 
 RUS  HE ES   2   1127  8.82                             143     0.1 5  102 182 
 RUS  HZ I        1127 11.19         3.7 0.52                           102 182 
 GUE  SZ EP   1   1126 50.98                             140     0.0 7  113   7 
                                                                                
