 2014  824 1619 58.6 L   6.798 -73.157150.0  RSN  8 0.4 1.8LRSN                1
 GAP=200        0.94       3.8     5.3  6.1  0.6247E+01  0.2198E+01 -0.5534E+01E
 Epicentro: LOS SANTOS - SANTANDER                                             3
 ACTION:UPD 14-09-15 21:52 OP:nd   STATUS:               ID:20140824161958 L   I
 OLDACT:UP  14-08-24 22:49 OP:cam  STATUS:               ID:20140824162000     3
 OLDACT:REG 14-08-24 20:48 OP:cam  STATUS:               ID:20140824162000     3
 2014-08-24-1620-00M.COL___288                                                 6
 STAT SP IPHASW D HRMM SECON CODA AMPLIT PERI AZIMU VELO AIN AR TRES W  DIS CAZ7
 BAR2 SZ EP       1620 18.70                             171    0.0010 23.0 187 
 BAR2 SZ ES       1620 33.83                             171   -0.5710 23.0 187 
 BAR2 SZ I        1620 35.03        24.6 0.14            170           23.0 187 
 BRR  HZ EP     C 1620 20.53                             154    0.4110 70.2 299 
 BRR  HN ES       1620 37.70                             154    0.7710 70.2 299 
 BRR  HZ I        1620 42.75         6.4 0.24            151           70.2 299 
 RUS  HZ EP       1620 22.85                             145    0.1210  101 175 
 RUS  HE ES       1620 41.42                             145   -0.1610  101 175 
 RUS  HZ I        1620 42.22         5.8 0.26            148            101 175 
 PTB  HZ EP       1620 25.45                             133   -0.32 9  146 259 
 PTB  HN ES       1620 46.80                             133   -0.18 9  146 259 
 PTB  HZ I        1620 48.39         8.0 0.38            133            146 259 
 SPBC HZ EP       1620 27.60                             130    0.30 9  162 219 
 SPBC HN ES       1620 49.95                             130    0.23 9  162 219 
 SPBC HZ I        1620 55.68         9.4 0.20            131            162 219 
 ZAR  HZ EP       1620 31.21                             123    0.03 9  203 292 
 ZAR  HN ES       1620 56.10                             123   -0.51 9  203 292 
 ZAR  HZ I        1621  3.86         5.6 0.44            124            203 292 
 SML  HZ EP       1620 34.99                             118   -0.40 8  243 336 
 SML  HN ES       1621  4.18                             118    0.06 8  243 336 
 SML  HZ I        1621  9.03         4.3 0.10            119            243 336 
 GUY2CHZ EP   4   1620 43.62                             113    1.38 0  300 235 
 GUY2CHZ I        1621 23.15         2.0 0.26                           300 235 
                                                                                
