 2013  424 1035 48.3 L   6.778 -73.147151.5  RSN  6 0.3 1.5LRSN                1
 GAP=185        0.67       3.8     5.4  5.0  0.6155E+01  0.1948E+01 -0.3338E+01E
 Epicentro: LOS SANTOS - SANTANDER                                             3
 ACTION:UPD 13-05-22 14:40 OP:EP   STATUS:               ID:20130424103548 L   I
 2013-04-24-1030-00M.COL___250                                                 6
 STAT SP IPHASW D HRMM SECON CODA AMPLIT PERI AZIMU VELO AIN AR TRES W  DIS CAZ7
 BAR2 SZ EP     C 1036  8.48                             172   -0.1410 20.9 191 
 BAR2 SZ ES   1   1036 24.39                             172   -0.05 7 20.9 191 
 BAR2 SZ I        1036 29.61         5.2 0.52            168           20.9 191 
 GIR2 SZ EP       1036  8.47                             167   -0.2910 33.7 351 
 GIR2 SZ ES   1   1036 24.32                             167   -0.37 7 33.7 351 
 GIR2 SZ I        1036 25.95         5.2 0.28            166           33.7 351 
 BRR  HZ IP     C 1036 10.39                             153    0.2110 72.3 300 
 BRR  HN ES   1   1036 27.90                             153    0.69 7 72.3 300 
 RUS  HZ EP       1036 12.79                             146    0.2910 98.2 176 
 RUS  HN ES   1   1036 31.42                             146    0.08 7 98.2 176 
 RUS  HZ I        1036 33.98         1.8 0.44            147           98.2 176 
 PTB  HZ EP       1036 15.58                             133   -0.16 9  147 260 
 PTB  HN ES   1   1036 36.73                             133   -0.38 7  147 260 
 PTB  HZ I        1036 43.88         6.1 0.42            133            147 260 
 SML  HZ EP       1036 25.56                             118    0.03 8  246 336 
 SML  HN ES   1   1036 54.64                             118    0.10 6  246 336 
 SML  HZ I        1036 58.13         7.0 0.24            121            246 336 
                                                                                
