 2014 1124 1723 17.7 L   6.732 -73.167145.2  RSN  8 0.4 1.6LRSN                1
 GAP=137        0.92       4.3     4.2  7.9 -0.4689E+01  0.1407E+02 -0.1788E+01E
 Epicentro: VILLANUEVA - SANTANDER                                             3
 ACTION:UPD 14-12-19 15:47 OP:nd   STATUS:               ID:20141124172317 L   I
 OLDACT:REG 14-11-24 20:42 OP:fm   STATUS:               ID:20141124171748     3
 2014-11-24-1717-48M.COL___306                                                 6
 STAT SP IPHASW D HRMM SECON CODA AMPLIT PERI AZIMU VELO AIN AR TRES W  DIS CAZ7
 BAR2 SZ ES       1723 52.26                             174   -0.0510 15.6 186 
 BAR2 SZ I        1723 53.65         9.3 0.12            172           15.6 186 
 BRR  HZ EP       1723 39.43                             152    0.5210 73.1 305 
 BRR  HN ES       1723 55.61                             152    0.1610 73.1 305 
 BRR  HZ I        1723 59.39         9.8 0.36            149           73.1 305 
 PAM  SZ EP       1723 40.40                             148    0.0810 84.7  38 
 PAM  SN ES       1723 57.34                             148   -0.6210 84.7  38 
 PAM  SZ I        1723 59.74         7.3 0.60            151           84.7  38 
 RUS  HN ES       1723 59.34                             146    0.3510 93.3 174 
 RUS  HZ I        1724  2.10         3.6 0.40            147           93.3 174 
 PTB  HE ES       1724  5.22                             133    0.16 9  144 262 
 PTB  HZ I        1724  8.33         6.0 0.10            131            144 262 
 ZAR  HN ES       1724 15.61                             122    0.06 9  205 294 
 ZAR  HZ I        1724 23.59         6.6 0.32            122            205 294 
 NOR  HE ES       1724 19.53                             119   -0.54 8  228 236 
 NOR  HZ I        1724 27.81         2.5 0.16            119            228 236 
 GUY2CHN ES       1724 33.55                             113   -0.50 7  295 236 
 GUY2CHZ I        1724 43.96         1.8 0.34                           295 236 
                                                                                
