 2016 1124 1237 19.2 L   6.717 -73.159141.1  RSN  5 0.3 1.4LRSN                1
 GAP=154        0.85       7.0     4.0  6.8 -0.6449E+01  0.6048E+01  0.9077E+00E
 Epicentro: VILLANUEVA - SANTANDER                                             3
 ACTION:UPD 17-10-26 21:11 OP:lp   STATUS:               ID:20161124123719 L   I
 OLDACT:UP  16-11-24 21:41 OP:edw  STATUS:               ID:20161124122747     3
 OLDACT:REG 16-11-24 19:49 OP:edw  STATUS:               ID:20161124122747     3
 2016-11-24-1228-00M.COL___349                                                 6
 STAT SP IPHASW D HRMM SECON CODA AMPLIT PERI AZIMU VELO AIN AR TRES W  DIS CAZ7
 BAR2 EZ IP     D 1237 38.43                             174    0.3310 14.1 191 
 BAR2 EZ ES       1237 52.95                             174    0.0910 14.1 191 
 BAR2 EZ I        1237 54.39         6.0 0.07            172           14.1 191 
 BRR  HZ EP       1237 40.46                             150    0.4110 74.8 305 
 BRR  HN ES       1237 56.66                             150    0.3410 74.8 305 
 PAM  EZ EP       1237 41.20                             147   -0.2210 85.5  36 
 PAM  EN ES       1237 58.39                             147   -0.3810 85.5  36 
 PAM  EZ I        1237 59.03         4.8 0.18            150           85.5  36 
 PTB  HZ EP       1237 45.38                             131   -0.13 9  145 262 
 PTB  HN ES       1238  5.48                             131   -0.56 9  145 262 
 PTB  HZ I        1238  8.33         2.7 0.08            132            145 262 
 ZAR  HE ES       1238 16.89                             121    0.06 8  206 295 
                                                                                
