 2010  924 1515 49.7 L   6.797 -73.084145.6  RSN 10 0.5 2.2LRSN                1
 GAP=166        1.09       4.2     9.0  7.3 -0.1370E+02  0.4722E+01  0.2130E+01E
 Epicentro: LOS SANTOS - SANTANDER                                             3
 ACTION:UP  11-02-18 11:05 OP:tino STATUS:               ID:20100924151549 L   I
 2010-09-24-1513-47S.COL___122                                                 6
 STAT SP IPHASW D HRMM SECON CODA AMPLIT PERI AZIMU VELO SNR AR TRES W  DIS CAZ7
 BAR2 SZ IP       1516  9.52                             170     0.210   25 206 
 BAR2 SZ ES   1   1516 24.07                             170    -0.6 7   25 206 
 BAR2 SZ I        1516 26.29        74.5 0.14                            25 206 
 GIR2 SZ EP       1516  9.59                             166     0.210   33 339 
 GIR2 SZ ES   2   1516 24.63                             166    -0.1 5   33 339 
 BRR  HZ IP     C 1516 11.42                             150     0.310   77 296 
 BRR  HZ I        1516 11.66        35.5 0.17                            77 296 
 BRR  HE ES   1   1516 28.50                             150     0.6 7   77 296 
 RUS  HZ EP       1516 13.36                             144     0.010  100 180 
 RUS  HE ES   1   1516 31.90                             144     0.1 7  100 180 
 RUS  HZ I        1516 33.39        11.9 0.25                           100 180 
 GUE  SZ EP       1516 13.57                             140    -0.710  116   9 
 GRA  SZ IP       1516 15.35                             137     0.610  124  14 
 GRA  SZ ES   1   1516 34.45                             137     0.1 7  124  14 
 GRA  SZ I        1516 39.32        16.5 0.39                           124  14 
 OCA  SZ EP       1516 17.99                             129    -0.1 9  162 351 
 OCA  SZ ES   2   1516 38.54                             129    -1.7 5  162 351 
 OCA  SZ I        1516 46.01        14.6 0.25                           162 351 
 NOR  SZ EP       1516 25.79                             118    -0.2 8  240 236 
 NOR  SE ES   2   1516 53.66                             118    -0.6 4  240 236 
 CHI  HZ EP       1516 27.40                             117    -0.1 8  250 197 
 CHI  HN ES   1   1516 56.88                             117    -0.2 6  250 197 
 CHI  HZ I        1517  6.49        10.4 0.51                           250 197 
 RREF HZ EP   1   1516 36.49                             110     0.1 5  327 230 
 RREF HZ I        1517 22.09        15.0 0.47                           327 230 
                                                                                
