 2014  924 1515  0.6 L   6.853 -73.163145.0  RSN  5 0.4 1.7LRSN                1
 GAP=240        0.77       5.4     6.9  6.6  0.1476E+02  0.1960E+01  0.1119E+02E
 Epicentro: ZAPATOCA - SANTANDER                                               3
 ACTION:UPD 14-10-03 23:08 OP:nd   STATUS:               ID:20140924151500 L   I
 OLDACT:REG 14-09-24 19:35 OP:spq  STATUS:               ID:20140924150820     3
 2014-09-24-1508-20M.COL___284                                                 6
 STAT SP IPHASW D HRMM SECON CODA AMPLIT PERI AZIMU VELO AIN AR TRES W  DIS CAZ7
 BAR2 SZ EP       1515 20.21                             169   -0.0110 29.0 184 
 BAR2 SZ ES   1   1515 35.37                             169   -0.19 7 29.0 184 
 BAR2 SZ I        1515 36.78        19.2 0.16            165           29.0 184 
 BRR  HZ EP       1515 21.71                             154    0.3310 66.8 295 
 BRR  HN ES       1515 37.82                             154    0.2010 66.8 295 
 BRR  HZ I        1515 41.22        11.5 0.22            152           66.8 295 
 RUS  HZ EP   1   1515 24.92                             142    0.24 7  107 175 
 RUS  HN ES   1   1515 43.07                             142   -0.42 7  107 175 
 RUS  HZ I        1515 44.53         8.8 0.28            142            107 175 
 PTB  HZ EP   1   1515 26.93                             132   -0.48 7  147 256 
 PTB  HN ES   1   1515 48.10                             132   -0.25 7  147 256 
 PTB  HZ I        1515 50.54         4.4 0.18            131            147 256 
 CHI  HZ EP       1515 38.39                             116   -0.40 8  254 194 
 CHI  HE ES   1   1516  9.47                             116    0.87 6  254 194 
 CHI  HZ I        1516 13.06         3.4 0.36            117            254 194 
                                                                                
