 2017  624 1706  0.0 L   6.852 -73.116136.0  RSN  8 0.7 2.1LRSN                1
 GAP=187        1.24       6.5     6.1  9.5  0.1578E+02  0.1368E+02 -0.2128E+01E
 Epicentro: LOS SANTOS - SANTANDER                                             3
 ACTION:UPD 17-09-14 16:54 OP:jn   STATUS:               ID:20170624170600 L   I
 OLDACT:UP  17-06-25 01:42 OP:dani STATUS:               ID:20170624165740     3
 OLDACT:UP  17-06-25 01:42 OP:dani STATUS:               ID:20170624165740     3
 OLDACT:UP  17-06-25 01:40 OP:dani STATUS:               ID:20170624165740     3
 OLDACT:REG 17-06-24 23:03 OP:dani STATUS:               ID:20170624165740     3
 2017-06-24-1658-00M.COL___355                                                 6
 STAT SP IPHASW D HRMM SECON CODA AMPLIT PERI AZIMU VELO AIN AR TRES W  DIS CAZ7
 BAR2 EZ EP       17 6 18.99                             167    0.3310 29.6 194 
 BAR2 EZ ES       17 6 32.32                             167   -0.8510 29.6 194 
 BAR2 EZ I        17 6 34.68        50.6 0.20            168           29.6 194 
 BRR  HZ EP     C 17 6 20.87                             150    0.7010 71.7 293 
 BRR  HN ES   3   17 6 37.69                             150    1.81 2 71.7 293 
 BRR  HZ I        17 6 42.24        32.3 0.14            150           71.7 293 
 PTB  HZ EP       17 6 25.87                             128   -0.78 9  152 257 
 PTB  HN ES   3   17 6 46.23                             128   -1.17 2  152 257 
 PTB  HZ I        17 6 48.99        11.5 0.28            131            152 257 
 YPLC HZ EP       17 6 29.27                             123   -0.23 9  180 153 
 YPLC HN ES       17 6 53.00                             123    0.52 9  180 153 
 YPLC HZ I        17 6 55.74        16.6 0.26            128            180 153 
 ZAR  HZ EP       17 6 32.39                             119    0.41 9  205 290 
 ZAR  HN ES       17 6 57.16                             119    0.27 9  205 290 
 ZAR  HZ I        17 7  4.91        19.0 0.26            122            205 290 
 NOR  HZ EP   3   17 6 34.39                             115   -1.50 2  241 234 
 NOR  HN ES       17 7  3.72                             115   -0.12 8  241 234 
 NOR  HZ I        17 7  8.74         6.0 0.20            118            241 234 
 GUY2CHZ EP   3   17 6 45.08                             109    1.17 2  307 234 
 GUY2CHN ES       17 7 18.46                             109    0.34 7  307 234 
 GUY2CHZ I        17 7 21.94         3.3 0.28                           307 234 
 SJC  HZ EP       17 6 53.86                             104   -1.09 6  406 326 
 SJC  HN ES   4   17 7 34.68                             104   -3.10 0  406 326 
 SJC  HZ I        17 7 39.29         6.6 0.62            106            406 326 
                                                                                
