 2016  924 1151  0.7 L   6.821 -73.141145.8  RSN  6 0.4 1.7LRSN                1
 GAP=240        1.10       6.6     6.2  8.5  0.1613E+02  0.1214E+02  0.2551E+01E
 Epicentro: LOS SANTOS - SANTANDER                                             3
 ACTION:UPD 17-08-17 21:15 OP:lp   STATUS:               ID:20160924115100 L   I
 OLDACT:UP  16-09-24 22:33 OP:ar   STATUS:               ID:20160924114745     3
 OLDACT:REG 16-09-24 20:27 OP:ar   STATUS:               ID:20160924114745     3
 2016-09-24-1148-00M.COL___330                                                 6
 STAT SP IPHASW D HRMM SECON CODA AMPLIT PERI AZIMU VELO AIN AR TRES W  DIS CAZ7
 BAR2 EZ EP       1151 20.20                             170   -0.1310 25.7 190 
 BAR2 EZ ES       1151 34.97                             170   -0.7110 25.7 190 
 BAR2 EZ I        1151 36.25        16.5 0.26            164           25.7 190 
 BRR  HZ EP       1151 21.96                             153    0.2010 70.5 297 
 BRR  HN ES       1151 39.10                             153    0.8710 70.5 297 
 BRR  HZ I        1151 39.46        10.3 0.52            148           70.5 297 
 RUS  HZ EP       1151 24.93                             143    0.3610  103 176 
 RUS  HN ES       1151 43.29                             143    0.0610  103 176 
 RUS  HZ I        1151 43.91         6.3 0.26            141            103 176 
 PTB  HZ EP       1151 27.40                             132   -0.30 9  149 258 
 PTB  HE ES       1151 48.54                             132   -0.26 9  149 258 
 PTB  HZ I        1151 52.89         4.7 0.10            128            149 258 
 ZAR  HZ EP   2   1151 32.34                             122   -0.71 4  204 291 
 ZAR  HN ES       1151 58.00                             122   -0.32 9  204 291 
 ZAR  HZ I        1152  4.84         5.3 0.24            120            204 291 
 NOR  HN ES       1152  4.90                             118    0.31 8  236 234 
 NOR  HZ I        1152 12.01         4.2 0.14            116            236 234 
                                                                                
