 2012 1124 1146 12.0 L   6.991 -73.516113.9  RSN  5 0.2 1.7LRSN                1
 GAP=136        0.57       6.3     4.1  8.6  0.6951E+01  0.1786E+02 -0.1492E+02E
 Epicentro: SAN VICENTE DE CHUCURI - SANTANDER                                 3
 ACTION:UPD 12-12-05 15:35 OP:}ep  STATUS:               ID:20121124114612 L   I
 2012-11-24-1140-00M.COL___234                                                 6
 STAT SP IPHASW D HRMM SECON CODA AMPLIT PERI AZIMU VELO AIN AR TRES W  DIS CAZ7
 GIR2 SZ EP       1146 27.81                             161   -0.2710 36.9  75 
 BAR2 SZ EP       1146 29.58                             151    0.3410 57.5 140 
 BAR2 SZ ES       1146 42.72                             151    0.0010 57.5 140 
 BAR2 SZ I        1146 43.66        18.6 0.39                          57.5 140 
 PAM  SE ES   2   1146 48.57                             137    0.02 5 98.0  67 
 PTB  HZ EP   1   1146 33.02                             131   -0.37 7  115 244 
 ZAR  HZ EP   1   1146 37.76                             121    0.15 7  158 291 
 ZAR  HE ES   1   1146 57.71                             121    0.10 7  158 291 
 ZAR  HZ I        1146 59.75         6.5 0.27                           158 291 
                                                                                
