 2013  424 1535 55.2 L   6.725 -73.202143.6  RSN  6 0.3 1.7LRSN                1
 GAP=132        0.76       4.0     4.6  6.0  0.4869E+00  0.4474E+01 -0.2358E+01E
 Epicentro: VILLANUEVA - SANTANDER                                             3
 ACTION:UPD 13-05-22 14:40 OP:EP   STATUS:               ID:20130424153555 L   I
 2013-04-24-1530-00M.COL___249                                                 6
 STAT SP IPHASW D HRMM SECON CODA AMPLIT PERI AZIMU VELO AIN AR TRES W  DIS CAZ7
 BAR2 SZ EP     D 1536 14.41                             174   -0.0710 14.9 171 
 BAR2 SZ ES       1536 29.22                             174   -0.2610 14.9 171 
 BAR2 SZ I        1536 30.35        12.6 0.16            178           14.9 171 
 BRR  HZ IP     C 1536 16.48                             152    0.3610 70.4 307 
 BRR  HN ES   1   1536 32.97                             152    0.57 7 70.4 307 
 BRR  HZ I        1536 34.44        10.8 0.18            150           70.4 307 
 PAM  SZ IP     C 1536 17.53                             147   -0.3610 87.7  39 
 PAM  SN ES   1   1536 35.81                             147    0.25 7 87.7  39 
 PAM  SZ I        1536 36.97         5.0 0.44            146           87.7  39 
 RUS  HZ EP       1536 18.61                             145    0.3510 93.0 172 
 RUS  HN ES   1   1536 35.94                             145   -0.26 7 93.0 172 
 PTB  HZ EP       1536 21.34                             133   -0.02 9  140 262 
 PTB  HN ES   1   1536 41.45                             133   -0.28 7  140 262 
 PTB  HZ I        1536 42.55         6.3 0.16            133            140 262 
 SML  HZ EP   4   1536 30.42                             116   -1.89 0  249 337 
 SML  HN ES   1   1537  0.72                             116   -0.49 6  249 337 
 SML  HZ I        1537  6.06         8.7 0.24            116            249 337 
                                                                                
