 2010  924 1938 47.0 L   6.786 -73.029144.0  RSN  7 0.5 1.7LRSN                1
 GAP=172        0.99       7.2    17.0 13.0 -0.3623E+01 -0.7894E+02 -0.9221E+01E
 Epicentro: CEPITA - SANTANDER                                                 3
 ACTION:UP  11-02-18 11:05 OP:tino STATUS:               ID:20100924193847 L   I
 2010-09-24-1935-53S.COL___122                                                 6
 STAT SP IPHASW D HRMM SECON CODA AMPLIT PERI AZIMU VELO SNR AR TRES W  DIS CAZ7
 BAR2 SZ EP   1   1939  6.32                             169    -0.2 7   27 219 
 BAR2 SZ ES   2   1939 21.08                             169    -0.6 5   27 219 
 BAR2 SZ I        1939 23.29        10.3 0.16                            27 219 
 BTL  SZ EP   1   1939  7.53                             168     1.0 7   30 299 
 BRR  HZ EP   1   1939  8.36                             148    -0.3 7   84 295 
 BRR  HZ I        1939  8.64        27.6 0.22                            84 295 
 BRR  HE ES   2   1939 25.81                             148     0.2 5   84 295 
 RUS  HZ EP   1   1939 10.29                             144    -0.1 7   99 183 
 RUS  HN ES   2   1939 29.12                             144     0.4 5   99 183 
 RUS  HZ I        1939 30.34         5.0 0.25                            99 183 
 GUE  SZ EP   1   1939 10.97                             139    -0.5 7  116   6 
 GRA  SZ EP   1   1939 12.21                             137     0.3 7  124  12 
 CHI  HZ EP   1   1939 24.67                             117    -0.1 6  251 198 
 CHI  HZ I        1939 25.05         2.8 0.60                           251 198 
                                                                                
