 2015 1224 1606 27.9 L   6.833 -73.117140.0  RSN 22 0.4 2.6LRSN 3.2WRSN        1
 SPEC AVERAGE  MO 13.9 ST0.290 OM  2.2 f0 1.64 R1.3281 AL 0.00 WI 30.0 MW  3.2 3
 SPEC SD       MO  0.1 ST0.341 OM  0.4 f00.564 R0.5171 AL      WI      MW  0.1 3
 GAP= 71        0.92       2.4     2.6  4.2 -0.4902E+00  0.4127E+01  0.1717E+01E
 Epicentro: LOS SANTOS - SANTANDER                                             3
 SPEC BAR2EH Z MO 13.7 ST0.233 OM  1.8 f0 2.01 R0.9572 AL-0.00 WI 30.0 MW  3.1 3
 SPEC BAR2EH Z T16 659 K 0.000 GD  142 VS 5.20 DE 3.50 Q0750.0 QA 1.50 VS 3.50 3
 SPEC PAM EH Z MO 14.0 ST0.069 OM  2.1 f0 1.03 R1.8680 AL-0.00 WI 30.0 MW  3.3 3
 SPEC PAM EH Z T16 7 4 K 0.000 GD  157 VS 5.20 DE 3.50 Q0750.0 QA 1.50 VS 3.50 3
 SPEC TAM HH Z MO 13.9 ST0.102 OM  1.9 f0 1.25 R1.5392 AL-0.00 WI 30.0 MW  3.2 3
 SPEC TAM HH Z T16 713 K 0.000 GD  207 VS 5.20 DE 3.50 Q0750.0 QA 1.50 VS 3.50 3
 SPEC SPBCHH Z MO 14.0 ST0.854 OM  1.9 f0 2.49 R0.7727 AL-0.00 WI 30.0 MW  3.2 3
 SPEC SPBCHH Z T16 716 K 0.000 GD  218 VS 5.20 DE 3.50 Q0750.0 QA 1.50 VS 3.50 3
 SPEC NOR HH Z MO 13.8 ST0.273 OM  1.6 f0 1.98 R0.9717 AL-0.00 WI 30.0 MW  3.1 3
 SPEC NOR HH Z T16 729 K 0.000 GD  276 VS 5.20 DE 3.50 Q0750.0 QA 1.50 VS 3.50 3
 SPEC HEL HH Z MO 14.0 ST0.047 OM  1.8 f00.908 R2.1189 AL-0.00 WI 30.0 MW  3.3 3
 SPEC HEL HH Z T16 738 K 0.000 GD  309 VS 5.20 DE 3.50 Q0750.0 QA 1.50 VS 3.50 3
 SPECGUY2CHH Z MO 14.2 ST0.066 OM  2.0 f00.851 R2.2609 AL-0.00 WI 30.0 MW  3.4 3
 SPECGUY2CHH Z T16 747 K 0.000 GD  336 VS 5.20 DE 3.50 Q0750.0 QA 1.50 Q1 0.00 3
 SPEC ANILHH Z MO 14.1 ST0.455 OM  1.8 f0 1.80 R1.0689 AL-0.00 WI 30.0 MW  3.3 3
 SPEC ANILHH Z T16 756 K 0.000 GD  388 VS 5.20 DE 3.50 Q0750.0 QA 1.50 VS 3.50 3
 OLDACT:UP  15-12-24 22:37 OP:cara STATUS:               ID:20151224155747     3
 OLDACT:REG 15-12-24 20:32 OP:cara STATUS:               ID:20151224155747     3
 ACTION:UPD 16-02-04 15:07 OP:cam  STATUS:               ID:20151224160627 L   I
 OLDACT:UP  15-12-24 22:44 OP:cara STATUS:               ID:20151224155747     3
 2015-12-24-1557-47M.COL___337                                                 6
 STAT SP IPHASW D HRMM SECON CODA AMPLIT PERI AZIMU VELO AIN AR TRES W  DIS CAZ7
 BAR2 EZ IP       16 6 47.13                             168    0.1810 27.5 195 
 BAR2 EZ ES       16 7  1.45                             168   -0.3510 27.5 195 
 BAR2 EZ I        16 7  3.58        54.5 0.48            166           27.5 195 
 BRR  HZ IP     C 16 6 48.88                             151    0.3710 72.4 295 
 BRR  HE ES       16 7  5.24                             151    0.6610 72.4 295 
 BRR  HZ I        16 7  8.92        43.1 0.24            150           72.4 295 
 PAM  EZ EP       16 6 49.71                             151    0.4810 72.6  39 
 PAM  EN ES       16 7  6.01                             151    0.1510 72.6  39 
 PAM  EZ I        16 7  8.44        52.4 0.30            155           72.6  39 
 RUS  HZ EP       16 6 51.61                             142    0.2510  104 178 
 RUS  HN ES       16 7  9.54                             142   -0.1110  104 178 
 RUS  HZ I        16 7 11.54        43.3 0.32            142            104 178 
 PTB  HZ EP   4   16 6 53.71                             130   -1.06 0  152 258 
 PTB  HN ES   4   16 7 14.71                             130   -1.02 0  152 258 
 PTB  HZ I        16 7 17.60        43.7 0.56            130            152 258 
 TAM  HZ IP       16 6 55.34                             130    0.40 9  153 107 
 TAM  HE ES       16 7 15.30                             130   -0.73 9  153 107 
 TAM  HZ I        16 7 23.47        18.9 0.32            133            153 107 
 SPBC HZ EP       16 6 56.11                             127   -0.33 9  168 219 
 SPBC HE ES       16 7 18.19                             127   -0.51 9  168 219 
 SPBC HZ I        16 7 20.91        75.5 0.24            127            168 219 
 ZAR  HZ EP       16 6 59.94                             121   -0.22 8  206 291 
 ZAR  HE ES       16 7 25.33                             121    0.02 8  206 291 
 ZAR  HZ I        16 7 30.97        46.7 0.22            121            206 291 
 NOR  HZ EP       16 7  3.47                             117   -0.35 8  239 234 
 NOR  HE ES       16 7 31.31                             117   -0.52 8  239 234 
 NOR  HZ I        16 7 36.74        33.8 0.26            117            239 234 
 SML  HZ IP       16 7  3.52                             116   -0.49 8  242 334 
 SML  HE ES       16 7 31.75                             116   -0.42 8  242 334 
 SML  HZ I        16 7 35.18        50.4 0.24            118            242 334 
 CHI  HZ EP       16 7  5.55                             115   -0.22 8  253 196 
 CHI  HN ES       16 7 35.07                             115   -0.23 8  253 196 
 CHI  HZ I        16 7 41.41        19.7 0.36            116            253 196 
 ROSC BZ EP   4   16 7  7.12                             115    0.88 0  257 211 
 ROSC BN ES   4   16 7 38.56                             115    2.41 0  257 211 
 ROSC BZ I        16 7 43.94        47.7 0.65            116            257 211 
 HEL  HZ EP       16 7  8.90                             113    0.62 7  276 255 
 HEL  HE ES       16 7 39.74                             113   -0.03 7  276 255 
 HEL  HZ I        16 7 47.68        23.4 0.56            114            276 255 
 URE  HZ EP   4   16 7 11.12                             112    2.23 0  285 291 
 URE  HE ES   4   16 7 38.34                             112   -2.52 0  285 291 
 URE  HZ I        16 7 52.56        22.2 0.22            113            285 291 
 SOCV BZ IP   4   16 7  8.89                             111   -1.28 0  297  57 
 SOCV BN ES   4   16 7 40.74                             111   -2.40 0  297  57 
 GUY2CHZ EP       16 7 12.48                             111    0.69 7  306 235 
 GUY2CHE ES   4   16 7 49.19                             111    3.17 0  306 235 
 GUY2CHZ I        16 7 53.35        24.3 0.60                           306 235 
 ELA  HZ EP       16 7 14.83                             109   -0.24 7  334 229 
 ELA  HN ES       16 7 52.34                             109    0.48 7  334 229 
 ELA  HZ I        16 8  3.61        16.6 0.42            110            334 229 
 CBOC HZ EP       16 7 14.92                             109   -0.15 7  338 252 
 CBOC HE ES   4   16 7 50.69                             109   -1.17 0  338 252 
 CBOC HZ I        16 8  3.04         6.8 0.66            109            338 252 
 DBB  SZ IP       16 7 15.01                             108   -0.49 7  342 274 
 DBB  SZ ES   4   16 7 49.80                             108   -2.82 0  342 274 
 DBB  SZ I        16 7 53.84        51.0 0.52            109            342 274 
 ANIL HZ EP       16 7 18.50                             107    0.44 6  362 224 
 ANIL HN ES       16 7 57.83                             107    0.66 6  362 224 
 PRA  HZ EP       16 7 21.44                             105   -0.35 6  397 210 
 PRA  HN ES       16 8  4.22                             105    0.40 6  397 210 
 PRA  HZ I        16 8  9.93        26.0 0.42            106            397 210 
 ORTC HZ EP       16 7 22.59                             105    0.39 6  400 216 
 ORTC HN ES       16 8  5.02                             105    0.47 6  400 216 
 ORTC HZ I        16 8 11.57        14.9 0.42            106            400 216 
 PAL  HZ IP       16 7 22.93                             105   -0.50 6  410 239 
 PAL  HN ES       16 8  6.16                             105   -0.57 6  410 239 
 PAL  HZ I        16 8 11.48         8.4 0.30            105            410 239 
                                                                                
