 2017  124 1206 40.4 L   6.819 -73.202141.5  RSN  4 0.3 1.3LRSN                1
 GAP=146        0.67       4.1     4.1  6.3 -0.5459E+01  0.3994E+01 -0.1239E+01E
 Epicentro: ZAPATOCA - SANTANDER                                               3
 ACTION:UPD 17-05-22 16:02 OP:jn   STATUS:               ID:20170124120640 L   I
 OLDACT:DUP 17-01-24 21:56 OP:dnl  STATUS:               ID:20170124115743d    3
 OLDACT:REG 17-01-24 20:45 OP:dnl  STATUS:               ID:20170124115742     3
 2017-01-24-1158-00M.COL___343                                                 6
 STAT SP IPHASW D HRMM SECON CODA AMPLIT PERI AZIMU VELO AIN AR TRES W  DIS CAZ7
 BAR2 EZ ES       12 7 14.05                             169   -0.4510 25.1 175 
 BAR2 EZ I        12 7 15.95         5.4 0.28            170           25.1 175 
 PAM  EZ EP       12 7  2.35                             149    0.0210 79.9  44 
 PAM  EN ES       12 7 19.56                             149    0.1310 79.9  44 
 PAM  EZ I        12 7 21.18         2.9 0.18            151           79.9  44 
 RUS  HZ EP       12 7  3.89                             142   -0.0510  103 173 
 RUS  HE ES       12 7 22.52                             142    0.2310  103 173 
 RUS  HZ I        12 7 24.15         2.9 0.36            144            103 173 
 PTB  HZ EP   2   12 7  5.99                             132   -0.53 5  142 258 
 PTB  HE ES       12 7 27.16                             132    0.28 9  142 258 
 PTB  HZ I        12 7 29.06         3.3 0.42            133            142 258 
                                                                                
