 2016 1124 1507  6.1 L   6.739 -73.130143.0  RSN  6 0.4 1.5LRSN                1
 GAP=164        0.92       5.8     4.4  5.9 -0.7453E+01  0.4899E+01  0.4423E+01E
 Epicentro: LOS SANTOS - SANTANDER                                             3
 ACTION:UPD 17-10-26 21:11 OP:lp   STATUS:               ID:20161124150706 L   I
 OLDACT:UP  16-11-24 22:58 OP:edw  STATUS:               ID:20161124145735     3
 OLDACT:REG 16-11-24 20:05 OP:edw  STATUS:               ID:20161124145735     3
 2016-11-24-1458-00M.COL___349                                                 6
 STAT SP IPHASW D HRMM SECON CODA AMPLIT PERI AZIMU VELO AIN AR TRES W  DIS CAZ7
 BAR2 EZ EP       15 7 25.17                             173   -0.0910 17.3 200 
 BAR2 EZ ES       15 7 40.16                             173   -0.0710 17.3 200 
 BAR2 EZ I        15 7 41.24         9.3 0.26            173           17.3 200 
 BRR  HZ EP       15 7 27.21                             150   -0.0110 76.1 302 
 BRR  HN ES       15 7 43.85                             150    0.1510 76.1 302 
 PAM  EZ EP       15 7 28.12                             149   -0.1410 81.6  36 
 PAM  EN ES       15 7 45.60                             149    0.0410 81.6  36 
 PAM  EZ I        15 7 47.47         5.7 0.66            149           81.6  36 
 PTB  HZ EP   9   15 7 32.54                             131   -0.33 0  148 262 
 PTB  HN ES       15 7 53.00                             131   -0.44 9  148 262 
 PTB  HZ I        15 7 55.22         4.1 0.16            132            148 262 
 ZAR  HZ EP       15 7 39.64                             121    0.85 8  208 294 
 ZAR  HE ES       15 8  3.78                             121   -0.51 8  208 294 
 NOR  HZ EP       15 7 40.81                             118   -0.58 8  232 236 
 NOR  HE ES       15 8  9.32                             118    0.39 8  232 236 
                                                                                
