 2013  524 1547 25.1 L   6.722 -73.189150.0  RSN  4 0.1 1.4LRSN                1
 GAP=226        0.35       3.6     3.9  4.2  0.5158E+01  0.4819E+01 -0.1934E+01E
 Epicentro: VILLANUEVA - SANTANDER                                             3
 ACTION:UPD 13-06-20 09:53 OP:ep   STATUS:               ID:20130524154725 L   I
 2013-05-24-1540-00M.COL___260                                                 6
 STAT SP IPHASW D HRMM SECON CODA AMPLIT PERI AZIMU VELO AIN AR TRES W  DIS CAZ7
 BAR2 SZ ES   1   1548  0.53                             174   -0.13 7 14.3 177 
 BAR2 SZ I        1548  1.71         4.9 0.28            170           14.3 177 
 BRR  HZ EP       1547 46.66                             153   -0.0510 71.8 306 
 BRR  HN ES   1   1548  3.74                             153    0.15 7 71.8 306 
 BRR  HZ I        1548  6.31        10.3 0.36            153           71.8 306 
 RUS  HN ES   1   1548  7.17                             147    0.08 7 92.4 173 
 RUS  HZ I        1548 10.00         1.8 0.32            147           92.4 173 
 PTB  HZ EP   1   1547 51.92                             134    0.08 7  142 262 
 PTB  HN ES   1   1548 12.63                             134   -0.09 7  142 262 
 PTB  HZ I        1548 16.47         4.7 0.36            134            142 262 
                                                                                
