 2011  924 1206  2.0 L   6.791 -73.128144.0  RSN 15 0.4 2.9LRSN                1
 GAP= 78        0.73       3.0     4.1  4.4 -0.1255E+01  0.5024E+01  0.1970E+01E
 Epicentro: LOS SANTOS - SANTANDER                                             3
 ACTION:UPD 12-07-13 15:59 OP:ep   STATUS:               ID:20110924120602 L   I
 2011-09-24-1200-00M.COL___167                                                 6
 STAT SP IPHASW D HRMM SECON CODA AMPLIT PERI AZIMU VELO AIN AR TRES W  DIS CAZ7
 SAN  SZ EP       12 6 21.81                             177    0.6410 6.69 116 
 SAN  SZ ES   2   12 6 36.56                             177    0.46 5 6.69 116 
 BTL  SZ EP       12 6 21.50                             171    0.1010 20.9 312 
 BAR2 SZ IP       12 6 21.26                             171   -0.1710 22.8 195 
 BAR2 SZ ES   2   12 6 36.16                             171   -0.41 5 22.8 195 
 BAR2 SZ I        12 6 37.34       218.0 0.20                          22.8 195 
 GIR2 SZ IP       12 6 21.29                             167   -0.2310 32.6 347 
 GIR2 SZ ES   1   12 6 36.20                             167   -0.53 7 32.6 347 
 BRR  HZ IP     D 12 6 23.08                             152   -0.0310 73.4 298 
 BRR  HN ES   1   12 6 40.17                             152    0.62 7 73.4 298 
 BRR  HZ I        12 6 42.98       132.5 0.46                          73.4 298 
 PAM  SZ IP       12 6 24.21                             151    0.1810 76.9  38 
 PAM  SN ES   1   12 6 41.29                             151    0.10 7 76.9  38 
 RUS  HZ IP     C 12 6 25.26                             144   -0.2610 99.5 177 
 RUS  HN ES   1   12 6 43.98                             144    0.13 7 99.5 177 
 BRI  SZ EP       12 6 25.84                             141    0.0710  109  20 
 BRI  SZ ES   2   12 6 43.99                             141   -0.30 5  109  20 
 OCA  SZ EP       12 6 30.09                             129   -0.23 9  162 353 
 OCA  SZ ES   3   12 6 52.14                             129   -0.24 2  162 353 
 OCA  SZ I        12 6 54.86        97.0 0.30                           162 353 
 YOP  SZ EP       12 6 31.64                             126   -0.13 9  177 154 
 ZAR  HZ EP       12 6 34.24                             122   -0.34 8  206 292 
 ZAR  HN ES   3   12 6 59.28                             122   -0.69 2  206 292 
 ZAR  HZ I        12 7  5.80       103.9 0.34                           206 292 
 NOR  SZ EP       12 6 37.35                             118   -0.41 8  236 235 
 NOR  SE ES   2   12 7  5.13                             118   -0.50 4  236 235 
 CHI  HZ EP   2   12 6 39.39                             117   -0.19 4  248 196 
 CHI  HN ES   2   12 7  9.13                             117    0.27 4  248 196 
 CHI  HZ I        12 7 15.74        15.4 0.50                           248 196 
 HEL  HZ EP       12 6 42.96                             114    0.63 8  274 256 
 HEL  HZ I        12 7 19.44        38.7 0.42                           274 256 
 GUY  SZ EP   2   12 6 46.94                             112    1.01 4  305 235 
 GUY  SZ I        12 7 28.34        51.7 0.40                           305 235 
                                                                                
