 2012  124 1842 49.9 L   6.900 -73.192146.3  RSN  6 0.2 1.5LRSN                1
 GAP=126        0.56       4.9     5.0  7.5 -0.4412E+01  0.1014E+02  0.1132E+02E
 Epicentro: BETULIA - SANTANDER                                                3
 ACTION:UP  12-02-03 08:20 OP:REBC STATUS:               ID:20120124184249 L   I
 2012-01-24-1840-00M.COL___187                                                 6
 STAT SP IPHASW D HRMM SECON CODA AMPLIT PERI AZIMU VELO SNR AR TRES W  DIS CAZ7
 GIR2 SZ EP       1843  9.31                             172    -0.110   20 360 
 BAR2 SZ EP       1843  9.96                             166     0.110   34 178 
 BAR2 SZ I        1843 10.15         7.4 0.50                            34 178 
 BRR  HZ EP   2   1843 11.02                             156     0.4 5   62 292 
 BRR  HZ I        1843 23.62        20.4 0.40                            62 292 
 BRR  HN ES   2   1843 27.31                             156     0.5 5   62 292 
 PAM  SZ EP       1843 12.10                             152     0.210   73  48 
 PAM  SN ES   1   1843 28.83                             152    -0.3 7   73  48 
 RUS  HZ EP       1843 14.72                             141     0.110  112 174 
 RUS  HN ES   2   1843 33.63                             141    -0.2 5  112 174 
 RUS  HZ I        1843 35.98         1.9 0.40                           112 174 
 PTB  HZ EP       1843 16.47                             133    -0.3 9  145 254 
 PTB  HN ES   3   1843 37.48                             133    -0.2 2  145 254 
 PTB  HZ I        1843 39.43         2.8 0.18                           145 254 
                                                                                
