 2015 1124 1631 15.8 L   6.786 -73.140142.9  RSN  5 0.3 1.9LRSN                1
 GAP=138        0.85       4.1     4.1  8.1 -0.3555E+01  0.1170E+02 -0.1263E+01E
 Epicentro: LOS SANTOS - SANTANDER                                             3
 ACTION:UPD 15-12-28 16:13 OP:cam  STATUS:               ID:20151124163116 L   I
 OLDACT:UP  15-12-10 15:07 OP:cam  STATUS:               ID:20151124163116 L   3
 OLDACT:UP  15-12-01 10:58 OP:ak   STATUS:               ID:20151124163116 L   3
 OLDACT:REG 15-11-24 20:53 OP:drio STATUS:               ID:20151124162744     3
 2015-11-24-1627-44M.COL___209                                                 6
 STAT SP IPHASW D HRMM SECON CODA AMPLIT PERI AZIMU VELO AIN AR TRES W  DIS CAZ7
 PAM  EZ EP       1631 37.16                             150   -0.5610 78.2  38 
 PAM  EN ES       1631 55.06                             150    0.2210 78.2  38 
 RUS  HZ EP   1   1631 39.23                             144    0.12 7 99.0 176 
 RUS  HE ES   1   1631 57.62                             144    0.30 7 99.0 176 
 RUS  HN I        1631 59.74        10.8 0.36            146           99.0 176 
 PTB  HZ EP       1631 42.13                             131   -0.39 9  148 259 
 PTB  HN ES       1632  3.20                             131   -0.19 9  148 259 
 PTB  HZ I        1632  9.22         6.0 0.16            132            148 259 
 SPBC HZ EP       1631 44.26                             128    0.30 9  162 219 
 SPBC HN ES       1632  5.76                             128   -0.19 9  162 219 
 SPBC HZ I        1632 13.56        11.7 0.22            130            162 219 
 ZAR  HZ EP       1631 48.77                             122    0.63 9  205 292 
 ZAR  HE ES       1632 13.47                             122    0.08 9  205 292 
 ZAR  HZ I        1632 18.98         8.9 0.34            124            205 292 
                                                                                
