 2011 1224 1623 31.3 L   6.777 -73.126150.8  RSN  8 0.3 1.7LRSN                1
 GAP=140        0.66       3.5     4.2  5.3 -0.3617E+01  0.4430E+01  0.2831E+01E
 Epicentro: LOS SANTOS - SANTANDER                                             3
 ACTION:UPD 12-07-13 16:18 OP:ep   STATUS:               ID:20111224162331 L   I
 2011-12-24-1620-00M.COL___190                                                 6
 STAT SP IPHASW D HRMM SECON CODA AMPLIT PERI AZIMU VELO AIN AR TRES W  DIS CAZ7
 BAR2 SZ EP       1623 51.45                             172   -0.0210 21.3 197 
 BAR2 SZ ES   1   1624  6.72                             172   -0.50 7 21.3 197 
 BAR2 SZ I        1624  9.47         8.5 0.19                          21.3 197 
 GIR2 SZ EP   1   1623 51.62                             167    0.00 7 34.2 347 
 GIR2 SZ ES   1   1624  7.68                             167    0.18 7 34.2 347 
 BRR  HZ EP   1   1623 53.40                             152    0.26 7 74.4 299 
 BRR  HZ I        1623 54.94        16.5 0.12                          74.4 299 
 BRR  HE ES   1   1624 10.90                             152    0.70 7 74.4 299 
 PAM  SZ EP   1   1623 54.19                             151    0.13 7 78.0  37 
 PAM  SE ES   1   1624 11.66                             151   -0.18 7 78.0  37 
 PAM  SZ I        1624 13.59         5.0 0.21                          78.0  37 
 RUS  HZ EP   1   1623 55.39                             146    0.06 7 97.9 177 
 RUS  HN ES   1   1624 14.24                             146    0.14 7 97.9 177 
 PTB  HZ EP   1   1623 58.30                             133   -0.50 7  149 260 
 PTB  HN ES   1   1624 19.74                             133   -0.54 7  149 260 
 OCA  SZ ES   1   1624 22.62                             130   -0.21 7  163 352 
 NOR  SZ EP   1   1624  7.51                             119    0.18 6  235 235 
 NOR  SN ES   1   1624 35.73                             119    0.28 6  235 235 
                                                                                
