 2010 1024 1204 49.3 L   6.780 -73.116148.9  RSN  8 0.4 2.0LRSN                1
 GAP=162        0.71       4.6     8.3  8.1 -0.1148E+02 -0.1266E+01 -0.7937E+01E
 Epicentro: LOS SANTOS - SANTANDER                                             3
 ACTION:UP  11-02-18 11:11 OP:tino STATUS:               ID:20101024120449 L   I
 2010-10-24-1203-18S.COL___124                                                 6
 STAT SP IPHASW D HRMM SECON CODA AMPLIT PERI AZIMU VELO SNR AR TRES W  DIS CAZ7
 BAR2 SZ EP   1   12 5  9.30                             171     0.0 7   22 200 
 BAR2 SZ ES   2   12 5 24.45                             171    -0.4 5   22 200 
 BAR2 SZ I        12 5 26.64        13.9 0.67                            22 200 
 BRR  HZ IP     C 12 5 11.18                             152     0.210   75 299 
 BRR  HZ I        12 5 11.65        29.2 0.15                            75 299 
 BRR  HE ES   2   12 5 28.81                             152     0.9 5   75 299 
 RUS  HZ EP   1   12 5 13.16                             145     0.0 7   98 178 
 RUS  HE ES   2   12 5 31.75                             145    -0.1 5   98 178 
 RUS  HZ I        12 5 33.34         5.7 0.21                            98 178 
 GUE  SZ EP   1   12 5 14.38                             140    -0.1 7  118  10 
 GRA  SZ EP   1   12 5 15.08                             137     0.2 7  127  16 
 OCA  SZ EP       12 5 17.81                             130    -0.3 9  163 352 
 NOR  SE ES   2   12 5 52.46                             119    -1.1 4  236 235 
 PRA  HZ EP   1   12 5 43.43                             107     0.5 4  392 210 
 PRA  HZ I        12 5 44.87         7.7 0.17                           392 210 
 PRA  HN ES   2   12 6 25.09                             107     0.4 3  392 210 
                                                                                
