 2012  124 1411 40.4 L   6.839 -72.931148.1  RSN  4 0.3 1.1LRSN                1
 GAP=237        0.33      10.5    18.9  8.3  0.1383E+03 -0.2102E+02 -0.2621E+02E
 Epicentro: CEPITA - SANTANDER                                                 3
 ACTION:UP  12-02-03 08:20 OP:REBC STATUS:               ID:20120124141140 L   I
 2012-01-24-1410-00M.COL___187                                                 6
 STAT SP IPHASW D HRMM SECON CODA AMPLIT PERI AZIMU VELO SNR AR TRES W  DIS CAZ7
 BAR2 SZ EP   3   1412  0.94                             165     0.2 2   39 226 
 BAR2 SZ ES   3   1412 16.36                             165    -0.2 2   39 226 
 GIR2 SZ EP   3   1411 59.94                             164    -0.6 2   39 313 
 GIR2 SZ ES   3   1412 16.72                             164     0.4 2   39 313 
 BRR  HZ EP       1412  3.04                             147     0.010   91 289 
 BRR  HN ES   3   1412 20.60                             147    -0.1 2   91 289 
 RUS  HZ EP   3   1412  5.02                             143     0.3 2  106 189 
 RUS  HN ES   3   1412 23.66                             143    -0.1 2  106 189 
 RUS  HZ I        1412 24.87         2.2 0.28                           106 189 
                                                                                
