 2017  224 1420 35.4 L   6.066 -73.701106.3  RSN  9 0.5 1.8LRSN                1
 GAP= 76        1.28       3.8     3.9  9.0  0.5891E+00  0.1315E+02  0.2536E+01E
 Epicentro: VELEZ - SANTANDER                                                  3
 ACTION:UPD 17-05-24 15:40 OP:jn   STATUS:               ID:20170224142035 L   I
 OLDACT:REG 17-02-24 20:43 OP:lv   STATUS:               ID:20170224141746     3
 2017-02-24-1418-00M.COL___388                                                 6
 STAT SP IPHASW D HRMM SECON CODA AMPLIT PERI AZIMU VELO AIN AR TRES W  DIS CAZ7
 RUS  HZ EP       1420 53.13                             144   -0.0510 71.0 106 
 RUS  HN ES       1421  6.54                             144   -0.4710 71.0 106 
 RUS  HZ I        1421  8.80        14.3 0.28            139           71.0 106 
 BAR2 EZ EP       1420 53.90                             139    0.2710 81.7  45 
 BAR2 EZ ES       1421  8.52                             139    0.7010 81.7  45 
 PTB  HZ EP       1420 53.86                             134   -0.8810 98.6 302 
 PTB  HN ES       1421  9.31                             134   -0.4810 98.6 302 
 PTB  HZ I        1421 11.39        14.2 0.16            126           98.6 302 
 BRR  HZ EP       1420 56.18                             129   -0.0510  115 359 
 BRR  HN ES   4   1421 14.05                             129    1.60 0  115 359 
 BRR  HZ I        1421 16.61        16.8 0.12            122            115 359 
 CHI  HZ EP       1421  0.57                             119   -0.64 9  159 181 
 CHI  HN ES       1421 21.81                             119    0.50 9  159 181 
 CHI  HZ I        1421 24.58         4.6 0.24            114            159 181 
 PAM  EZ EP       1421  3.47                             116   -0.03 9  179  38 
 PAM  EN ES       1421 25.63                             116    0.24 9  179  38 
 PAM  EZ I        1421 27.36         4.3 0.38            111            179  38 
 HEL  HZ EP       1421  6.87                             112    0.89 9  203 274 
 HEL  HN ES       1421 30.57                             112    0.77 9  203 274 
 ZAR  HZ EP       1421  5.11                             112   -0.44 9  203 321 
 ZAR  HN ES       1421 29.02                             112   -0.02 9  203 321 
 ZAR  HZ I        1421 30.33        15.1 0.28            108            203 321 
 VIL  EE ES   4   1421 33.24                             111    1.29 0  216 180 
 ORTC HZ EP       1421 16.17                             104    0.05 7  294 216 
 ORTC HN ES   4   1421 49.71                             104    1.86 0  294 216 
 ORTC HZ I        1421 52.91         4.2 0.36            102            294 216 
                                                                                
