 2014  924 1031 40.3 L   6.377 -73.666 12.3  RSN 11 0.5 1.5LRSN                1
 GAP=106        1.16       3.2     2.5  5.3  0.1130E+01  0.2796E+01 -0.1174E+01E
 Epicentro: SANTA HELENA DEL OPON - SANTANDER                                  3
 ACTION:UPD 14-10-03 23:08 OP:nd   STATUS:               ID:20140924103140 L   I
 OLDACT:REG 14-09-24 19:03 OP:spq  STATUS:               ID:20140924102820     3
 2014-09-24-1028-20M.COL___284                                                 6
 STAT SP IPHASW D HRMM SECON CODA AMPLIT PERI AZIMU VELO AIN AR TRES W  DIS CAZ7
 BAR2 SZ EP     C 1031 50.24                              99    0.1010 58.6  66 
 BAR2 SZ ES   1   1031 57.41                              99   -0.39 7 58.6  66 
 BAR2 SZ I        1031 58.69        17.1 0.14             47           58.6  66 
 BRR  HZ EP       1031 53.03                              96   -0.2210 80.9 356 
 BRR  HN ES       1032  3.44                              96    0.1110 80.9 356 
 BRR  HZ I        1032 11.78        11.5 0.35             47           80.9 356 
 RUS  HZ EP       1031 54.37                              96    0.1610 83.8 130 
 RUS  HN ES   1   1032  4.90                              96   -0.13 7 83.8 130 
 RUS  HZ I        1032  7.71         8.6 0.26             47           83.8 130 
 PTB  HZ EP     D 1031 53.60                              96   -0.9310 89.2 282 
 PTB  HN ES       1032  6.43                              96    0.8310 89.2 282 
 PTB  HZ I        1032 11.78         5.9 0.10             47           89.2 282 
 PAM  SZ EP   1   1032  4.54                              56    0.22 7  151  45 
 PAM  SN ES   1   1032 24.01                              56    0.98 7  151  45 
 PAM  SZ I        1032 29.29        13.0 0.23             47            151  45 
 ZAR  HZ EP       1032  7.10                              56   -0.35 9  180 313 
 ZAR  HN ES       1032 28.36                              56   -0.23 9  180 313 
 ZAR  HZ I        1032 31.37         4.2 0.27             37            180 313 
 CHI  HZ EP   4   1032 10.91                              56    1.36 0  193 182 
 CHI  HN ES   4   1032 38.64                              56    6.30 0  193 182 
 CHI  HZ I        1032 40.15         4.4 0.52             37            193 182 
 OCA  HN ES   4   1032 38.39                              56    3.03 0  209  11 
 OCA  HZ I        1032 44.69         7.9 0.26             37            209  11 
 GUY2CHZ EP   4   1032 15.04                              56    1.18 0  227 236 
 GUY2CHN ES   1   1032 40.63                              56    0.62 6  227 236 
 GUY2CHZ I        1032 50.35         2.4 0.68                           227 236 
 SML  HZ EP   1   1032 18.50                              56   -0.35 6  272 351 
 SML  HN ES   4   1032 51.84                              56    2.95 0  272 351 
 SML  HZ I        1032 58.00         3.8 0.28             37            272 351 
 PRA  HZ EP   4   1032 32.31                              55    6.94 0  324 205 
 PRA  HE ES   4   1033  7.94                              55    7.44 0  324 205 
 PRA  HZ I        1033 15.58         2.0 0.32             36            324 205 
                                                                                
