 2010  324 1857 32.5 L   6.799 -72.978146.7  RSN  7 0.4 2.2LRSN                1
 GAP=200        0.65       3.8    10.6  6.9  0.1812E+01  0.6400E+01  0.4584E+01E
 Epicentro: CEPITA - SANTANDER                                                 3
 ACTION:UP  10-08-24 09:55 OP:vdl  STATUS:               ID:20100324185732 L   I
 2010-03-24-1855-36S.COL___098                                                 6
 STAT SP IPHASW D HRMM SECON CODA AMPLIT PERI AZIMU VELO SNR AR TRES W  DIS CAZ7
 BAR2 SZ EP   1   1857 52.61                             167     0.2 7   32 225 
 BAR2 SZ ES   2   1858  7.84                             167    -0.2 5   32 225 
 BRR  HZ IP       1857 54.58                             148    -0.210   88 293 
 BRR  HZ I        1857 54.82        57.2 0.16                            88 293 
 BRR  HN ES   2   1858 11.98                             148    -0.1 5   88 293 
 RUS  HZ EP   1   1857 56.57                             144     0.2 7  101 187 
 RUS  HN ES   2   1858 14.70                             144    -0.3 5  101 187 
 RUS  HZ I        1858 16.53        17.1 0.36                           101 187 
 OCA  SZ EP   1   1858  1.11                             129    -0.1 7  164 347 
 OCA  SZ ES   2   1858 23.97                             129     0.4 5  164 347 
 CHI  HZ EP   1   1858 10.64                             117    -0.2 6  254 199 
 CHI  HZ I        1858 11.64         6.8 0.43                           254 199 
 CHI  HN ES   2   1858 41.44                             117     0.7 4  254 199 
 RREF BZ EP   1   1858 20.81                             110     0.5 5  336 231 
 RREF BZ I        1858 59.71         6.5 0.80                           336 231 
 PRA  HZ EP   1   1858 26.07                             106    -1.0 4  401 212 
 PRA  HE ES   2   1859  9.95                             106     0.2 3  401 212 
 PRA  HZ I        1859 15.05         5.1 0.25                           401 212 
                                                                                
