 2011 1024 1940 25.2 L   6.768 -73.099140.0  RSN  6 0.2 1.8LRSN                1
 GAP=144        0.40       2.8     3.8  4.4 -0.5531E+00 -0.3296E+00 -0.1243E+01E
 Epicentro: LOS SANTOS - SANTANDER                                             3
 ACTION:UPD 12-07-13 16:05 OP:ep   STATUS:               ID:20111024194025 L   I
 2011-10-24-1940-00M.COL___175                                                 6
 STAT SP IPHASW D HRMM SECON CODA AMPLIT PERI AZIMU VELO AIN AR TRES W  DIS CAZ7
 BAR2 SZ EP       1940 44.15                             171    0.0510 21.5 205 
 BAR2 SZ ES   2   1940 58.57                             171   -0.27 5 21.5 205 
 BAR2 SZ I        1941  0.21        11.3 0.26                          21.5 205 
 BTL  SZ EP       1940 44.29                             169    0.1110 25.0 312 
 GIR2 SZ EP       1940 44.09                             165   -0.2410 36.0 343 
 PAM  SZ EP       1940 46.93                             150    0.1410 77.1  35 
 PAM  SN ES   1   1941  3.59                             150   -0.04 7 77.1  35 
 BRR  HZ EP       1940 45.98                             149   -0.1310 77.5 299 
 BRR  HN ES   1   1941  2.63                             149    0.22 7 77.5 299 
 BRR  HZ I        1941  3.60        13.2 0.42                          77.5 299 
 RUS  HZ EP   2   1940 48.20                             144    0.09 5 96.8 179 
 RUS  HN ES   1   1941  6.01                             144    0.03 7 96.8 179 
                                                                                
