 2016  424 1559  3.2 L   6.776 -73.145147.2  RSN  4 0.2 1.6LRSN                1
 GAP=153        0.50       4.7     2.7  4.7 -0.4040E+01  0.5328E+01 -0.6593E+01E
 Epicentro: LOS SANTOS - SANTANDER                                             3
 ACTION:UPD 16-05-05 14:23 OP:rebc STATUS:               ID:20160424155903 L   I
 OLDACT:REG 16-04-24 21:32 OP:ar   STATUS:               ID:20160424155746     3
 2016-04-24-1557-46M.COL___321                                                 6
 STAT SP IPHASW D HRMM SECON CODA AMPLIT PERI AZIMU VELO AIN AR TRES W  DIS CAZ7
 BAR2 EZ EP       1559 22.89                             172   -0.0510 20.7 192 
 BAR2 EZ ES       1559 38.61                             172    0.2610 20.7 192 
 BAR2 EZ I        1559 41.28         6.6 0.36            173           20.7 192 
 PAM  EZ EP       1559 25.76                             150    0.0810 79.4  38 
 PAM  EN ES       1559 43.01                             150   -0.2010 79.4  38 
 PAM  EZ I        1559 47.54         5.6 0.26            153           79.4  38 
 PTB  HZ EP   2   1559 30.00                             132   -0.24 5  147 260 
 PTB  HN ES       1559 51.06                             132   -0.28 9  147 260 
 PTB  HZ I        1559 57.36         4.6 0.48            135            147 260 
 ZAR  HZ EP       1559 35.98                             122    0.14 9  205 293 
 ZAR  HN ES       16 0  1.46                             122    0.15 9  205 293 
 ZAR  HZ I        16 0  6.91         6.9 0.34            125            205 293 
                                                                                
