 2011  924 1655  9.4 L   6.773 -73.136142.7  RSN 13 0.5 2.7LRSN                1
 GAP=116        0.87       3.9     5.1  6.0  0.1447E+01  0.1068E+02  0.6616E+01E
 Epicentro: LOS SANTOS - SANTANDER                                             3
 ACTION:UPD 12-07-13 15:59 OP:ep   STATUS:               ID:20110924165509 L   I
 2011-09-24-1652-21S.COL___165                                                 6
 STAT SP IPHASW D HRMM SECON CODA AMPLIT PERI AZIMU VELO AIN AR TRES W  DIS CAZ7
 BAR2 SZ IP       1655 28.77                             171    0.1110 20.6 194 
 BAR2 SZ I        1655 28.93       109.9 0.40                          20.6 194 
 BAR2 SZ ES   1   1655 43.36                             171   -0.29 7 20.6 194 
 BRR  HZ IP     C 1655 30.59                             151    0.1810 73.6 300 
 BRR  HZ I        1655 30.96        79.5 0.10                          73.6 300 
 BRR  HN ES   1   1655 46.76                             151    0.01 7 73.6 300 
 PAM  SZ EP       1655 31.65                             150    0.2010 79.1  38 
 PAM  SN ES   1   1655 48.65                             150    0.05 7 79.1  38 
 RUS  HZ EP       1655 32.77                             144    0.0910 97.5 177 
 RUS  HN ES   2   1655 50.53                             144   -0.27 5 97.5 177 
 OCA  SZ EP       1655 37.25                             128   -0.57 9  163 353 
 OCA  SZ I        1656  2.44        68.0 0.23                           163 353 
 YOP  SZ EP       1655 39.38                             126    0.42 9  176 153 
 YOP  SE ES   2   1656  2.41                             126    0.43 4  176 153 
 ZAR  HZ EP   1   1655 42.01                             121    0.09 6  206 293 
 ZAR  HE ES   3   1656  7.15                             121   -0.09 2  206 293 
 NOR  SZ EP       1655 45.22                             118    0.31 8  234 235 
 CHI  HZ EP       1655 45.28                             117   -1.41 8  246 196 
 CHI  HE ES   2   1656 15.58                             117   -0.16 4  246 196 
 CHI  HZ I        1656 23.25        25.8 0.60                           246 196 
 HEL  HZ EP       1655 49.51                             114   -0.03 8  272 256 
 HEL  HN ES   3   1656 21.67                             114    0.86 2  272 256 
 HEL  HZ I        1656 27.93        25.8 0.26                           272 256 
 VIL  SZ EP   3   1655 52.91                             112    0.49 2  301 192 
 VIL  SN ES   3   1656 25.77                             112   -0.17 2  301 192 
 GUY  SZ EP   1   1655 53.93                             112    0.85 5  303 236 
 GUY  SZ I        1656 37.61        36.1 0.36                           303 236 
 RREF HZ EP       1655 55.49                             110    0.16 7  321 230 
 RREF HZ I        1656 37.15        25.2 0.32                           321 230 
                                                                                
