 2016 1124 1721 22.9 L   6.790 -73.187128.4  RSN  6 0.3 1.6LRSN                1
 GAP=137        0.85       5.4     4.4  5.9 -0.1223E+02  0.1441E+01  0.1314E+02E
 Epicentro: ZAPATOCA - SANTANDER                                               3
 ACTION:UPD 17-10-26 21:11 OP:lp   STATUS:               ID:20161124172122 L   I
 OLDACT:UP  16-11-24 23:45 OP:edw  STATUS:               ID:20161124171747d    3
 OLDACT:UP  16-11-24 23:43 OP:edw  STATUS:               ID:20161124171747d    3
 OLDACT:UP  16-11-24 23:43 OP:edw  STATUS:               ID:20161124171747d    3
 OLDACT:DUP 16-11-24 23:39 OP:edw  STATUS:               ID:20161124171747d    3
 2016-11-24-1718-00M.COL___351                                                 6
 STAT SP IPHASW D HRMM SECON CODA AMPLIT PERI AZIMU VELO AIN AR TRES W  DIS CAZ7
 BAR2 EZ EP       1721 40.76                             170    0.3410 21.9 179 
 BAR2 EZ ES       1721 53.93                             170   -0.1610 21.9 179 
 BAR2 EZ I        1721 56.89         7.1 0.16            166           21.9 179 
 BRR  HZ EP       1721 42.62                             150    0.6210 67.8 301 
 BRR  HN ES       1721 57.18                             150    0.2910 67.8 301 
 PAM  EZ EP       1721 43.18                             146   -0.3810 81.2  42 
 PAM  EN ES       1721 59.55                             146   -0.1210 81.2  42 
 PAM  EZ I        1722  2.12         5.7 0.18            151           81.2  42 
 PTB  HZ EP       1721 47.81                             129   -0.26 9  143 259 
 PTB  HN ES       1722  7.18                             129   -0.52 9  143 259 
 PTB  HZ I        1722 10.95         4.9 0.20            130            143 259 
 NOR  HZ EP       1721 57.27                             115    0.06 8  230 234 
 NOR  HN ES       1722 23.98                             115    0.01 8  230 234 
 NOR  HZ I        1722 28.49         3.0 0.28            116            230 234 
 PRA  HZ EP       1722 15.23                             103   -0.27 6  389 209 
 PRA  HN ES       1722 56.93                             103    0.40 6  389 209 
 PRA  HZ I        1723  3.27         2.4 0.28            105            389 209 
                                                                                
