 2014  924 1347 50.6 L   6.561 -73.189 22.9  RSN  5 0.4 1.2LRSN                1
 GAP=139        0.96       2.8     3.3  3.7 -0.8882E+00  0.6373E+01  0.3149E+00E
 Epicentro: PINCHOTE - SANTANDER                                               3
 ACTION:UPD 14-10-03 23:08 OP:nd   STATUS:               ID:20140924134750 L   I
 OLDACT:DUP 14-09-24 23:03 OP:spq  STATUS:               ID:20140924133819d    3
 2014-09-24-1338-18M.COL___284                                                 6
 STAT SP IPHASW D HRMM SECON CODA AMPLIT PERI AZIMU VELO AIN AR TRES W  DIS CAZ7
 BAR2 SZ IP     D 1347 55.19                             172    0.4510 3.53  12 
 BAR2 SZ ES   1   1347 58.22                             172    0.26 7 3.53  12 
 BAR2 SZ I        1347 59.88        67.2 0.22            168           3.53  12 
 RUS  HN ES   1   1348 12.80                             106   -0.66 7 74.8 171 
 RUS  HZ I        1348 13.78         3.1 0.22             93           74.8 171 
 BRR  HZ EP       1348  3.94                             103   -0.2710 83.6 316 
 BRR  HN ES       1348 14.39                             103   -0.4210 83.6 316 
 BRR  HZ I        1348 17.60         7.4 0.50             91           83.6 316 
 PAM  SZ EP       1348  7.84                             101    0.4410  102  32 
 PAM  SE ES       1348 20.14                             101   -0.3610  102  32 
 PAM  SZ I        1348 21.29         8.5 0.32             61            102  32 
 PTB  HZ EP       1348 12.03                              56    0.24 9  140 269 
 PTB  HN ES       1348 28.50                              56    0.19 9  140 269 
 PTB  HZ I        1348 29.65         5.6 0.16             61            140 269 
                                                                                
