 2012  724 1726 34.3 L   6.719 -73.240147.1  RSN  5 0.4 1.5LRSN                1
 GAP=206        0.96       9.1     8.2  9.4  0.3783E+02  0.1146E+02 -0.4324E+00E
 Epicentro: VILLANUEVA - SANTANDER                                             3
 ACTION:UPD 12-08-14 11:45 OP:ep   STATUS:               ID:20120724172634 L   I
 2012-07-24-1720-00M.COL___215                                                 6
 STAT SP IPHASW D HRMM SECON CODA AMPLIT PERI AZIMU VELO AIN AR TRES W  DIS CAZ7
 BAR2 SZ EP       1726 53.69                             174    -0.310   15 156 
 BAR2 SZ ES   1   1727  8.63                             174    -0.7 7   15 156 
 BAR2 SZ I        1727 11.09         8.3 0.21            171             15 156 
 BRR  HZ EP       1726 55.49                             154     0.110   68 309 
 BRR  HN ES   1   1727 12.41                             154     0.6 7   68 309 
 RUS  HZ EP   1   1726 57.64                             146     0.0 7   93 169 
 RUS  HN ES   1   1727 16.50                             146     0.6 7   93 169 
 RUS  HZ I        1727 17.99         3.9 0.42            146             93 169 
 PTB  HZ EP       1727  0.38                             135     0.0 9  136 262 
 PTB  HN ES   1   1727 20.17                             135    -0.5 7  136 262 
 PTB  HZ I        1727 23.61         4.4 0.16            135            136 262 
 ZAR  HN ES   2   1727 31.40                             123     0.3 4  198 296 
