 2015  224 1311  0.7 L   6.849 -73.189145.9  RSN  7 0.4 2.0LRSN                1
 GAP=149        0.98       3.6     5.1  7.9 -0.7792E+01  0.8963E+01  0.2929E+01E
 Epicentro: ZAPATOCA - SANTANDER                                               3
 ACTION:UPD 15-04-30 21:29 OP:nd   STATUS:               ID:20150224131100 L   I
 OLDACT:REG 15-02-24 20:43 OP:carl STATUS:               ID:20150224130750     3
 2015-02-24-1307-50M.COL___287                                                 6
 STAT SP IPHASW D HRMM SECON CODA AMPLIT PERI AZIMU VELO AIN AR TRES W  DIS CAZ7
 PAM  SZ EP       1311 23.04                             151    0.1610 76.6  45 
 PAM  SN ES       1311 40.35                             151    0.1710 76.6  45 
 PAM  SZ I        1311 41.35         8.8 0.18            158           76.6  45 
 PTB  HZ EP       1311 26.84                             133   -0.51 9  144 256 
 PTB  HN ES       1311 47.87                             133   -0.27 9  144 256 
 PTB  HZ I        1311 55.52        16.9 0.52            134            144 256 
 SPBC HZ EP       1311 29.28                             129   -0.05 9  165 216 
 SPBC HN ES       1311 51.06                             129   -0.60 9  165 216 
 SPBC HZ I        1311 59.19        16.2 0.32            132            165 216 
 NOR  HZ EP       1311 36.17                             119   -0.19 8  234 233 
 NOR  HE ES       1312  4.86                             119    0.68 8  234 233 
 NOR  HZ I        1312  9.63         9.0 0.54            121            234 233 
 SML  HZ EP       1311 36.19                             118   -0.39 8  237 336 
 SML  HN ES       1312  4.88                             118    0.31 8  237 336 
 SML  HZ I        1312 11.69        10.4 0.26            122            237 336 
 CHI  HZ EP       1311 38.42                             117   -0.42 8  253 194 
 CHI  HN ES       1312  8.96                             117    0.37 8  253 194 
 CHI  HZ I        1312 17.30         5.4 0.38            120            253 194 
 GUY2CHZ EP       1311 45.14                             112    0.91 7  300 233 
 GUY2CHE ES       1312 18.53                             112    0.35 7  300 233 
 GUY2CHZ I        1312 28.95         5.1 0.50                           300 233 
                                                                                
