 2011  824 1213 10.0 L   6.330 -74.007 17.5  RSN  4 0.3 1.4LRSN                1
 GAP=264        0.61       3.7     6.3 11.0  0.1272E+02  0.3977E+02  0.1266E+02E
 Epicentro: CIMITARRA - SANTANDER                                              3
 ACTION:UPD 12-07-13 15:53 OP:ep   STATUS:               ID:20110824121310 L   I
 2011-08-24-1211-13S.COL___166                                                 6
 STAT SP IPHASW D HRMM SECON CODA AMPLIT PERI AZIMU VELO AIN AR TRES W  DIS CAZ7
 BRR  HZ EP   1   1213 24.83                              98    0.15 7 91.9  21 
 BRR  HN ES   1   1213 36.24                              98    0.12 7 91.9  21 
 BRR  HZ I        1213 37.87        12.0 0.27                          91.9  21 
 BAR2 SZ EP   1   1213 25.23                              98   -0.26 7 95.7  72 
 BAR2 SZ ES   1   1213 37.45                              98   -0.13 7 95.7  72 
 BAR2 SZ I        1213 38.92        18.8 0.32                          95.7  72 
 RUS  HZ EP   1   1213 28.03                              97   -0.34 7  113 115 
 RUS  HN ES   2   1213 43.58                              97    0.88 5  113 115 
 RUS  HZ I        1213 46.63         3.9 0.26                           113 115 
 OCA  SZ EP   1   1213 42.44                              56    0.12 6  224  20 
                                                                                
