 2010 1024 1941 58.8 L   6.790 -73.018142.3  RSN  4 0.4 1.6LRSN                1
 GAP=179        0.72       7.6    15.4 12.7  0.4983E+02 -0.9924E+02 -0.4321E+02E
 Epicentro: CEPITA - SANTANDER                                                 3
 ACTION:UP  11-02-18 11:11 OP:tino STATUS:               ID:20101024194158 L   I
 2010-10-24-1940-11S.COL___125                                                 6
 STAT SP IPHASW D HRMM SECON CODA AMPLIT PERI AZIMU VELO SNR AR TRES W  DIS CAZ7
 BAR2 SZ EP   1   1942 17.92                             169    -0.2 7   29 220 
 BAR2 SZ ES   2   1942 32.51                             169    -0.7 5   29 220 
 BRR  HZ EP   1   1942 20.09                             148    -0.3 7   84 295 
 BRR  HZ I        1942 20.36        14.0 0.17                            84 295 
 BRR  HE ES   2   1942 37.63                             148     0.4 5   84 295 
 RUS  HZ EP   1   1942 22.08                             144     0.0 7  100 184 
 RUS  HE ES   2   1942 40.92                             144     0.6 5  100 184 
 RUS  HZ I        1942 44.27         2.9 0.41                           100 184 
 GUE  SZ EP   1   1942 23.40                             139     0.3 7  115   5 
                                                                                
