 2013  424 1757 20.0 L   6.781 -73.142150.0  RSN  9 0.4 2.0LRSN                1
 GAP=138        0.78       3.7     4.8  5.7 -0.5106E+00  0.7635E+01  0.4166E+00E
 Epicentro: LOS SANTOS - SANTANDER                                             3
 ACTION:UPD 13-05-22 14:40 OP:EP   STATUS:               ID:20130424175720 L   I
 2013-04-24-1750-00M.COL___249                                                 6
 STAT SP IPHASW D HRMM SECON CODA AMPLIT PERI AZIMU VELO AIN AR TRES W  DIS CAZ7
 BAR2 SZ IP     D 1757 40.09                             172   -0.0310 21.4 192 
 BAR2 SZ ES       1757 56.13                             172    0.3310 21.4 192 
 BAR2 SZ I        1758  5.81         9.1 0.36            169           21.4 192 
 BRR  HZ IP     D 1757 42.06                             153    0.3510 72.6 300 
 BRR  HN ES   1   1757 59.32                             153    0.70 7 72.6 300 
 PAM  SZ IP     C 1757 42.87                             151    0.1010 78.7  38 
 PAM  SN ES   1   1758  0.04                             151   -0.47 7 78.7  38 
 PAM  SZ I        1758  2.31        24.5 0.56            158           78.7  38 
 RUS  HZ EP       1757 44.06                             145    0.0210 98.5 176 
 RUS  HN ES   1   1758  2.23                             145   -0.55 7 98.5 176 
 RUS  HZ I        1758  3.78         9.2 0.38            149           98.5 176 
 PTB  HZ EP       1757 46.81                             133   -0.53 9  148 260 
 PTB  HN ES   2   1758  8.16                             133   -0.49 5  148 260 
 PTB  HZ I        1758 13.94        11.9 0.20            135            148 260 
 ZAR  HN ES   2   1758 17.83                             123   -0.65 4  205 293 
 NOR  HZ EP   2   1757 55.93                             120    0.02 4  234 235 
 NOR  HN ES   2   1758 23.82                             120   -0.08 4  234 235 
 NOR  HZ I        1758 29.34         7.9 0.20            123            234 235 
 SML  HZ EP   2   1757 56.97                             118   -0.14 4  246 335 
 SML  HN ES   1   1758 25.83                             118   -0.21 6  246 335 
 SML  HZ I        1758 30.08        14.8 0.10            122            246 335 
 PRA  HZ EP   2   1758 14.59                             107    1.09 3  390 210 
 PRA  HN ES   1   1758 55.77                             107    0.55 4  390 210 
 PRA  HZ I        1758 59.26         4.9 0.76            111            390 210 
                                                                                
