 2016 1224 1334 48.5 L   6.856 -73.149150.5  RSN 18 0.6 2.4LRSN                1
 GAP= 69        1.22       4.1     3.6  5.6 -0.9567E+00  0.5071E+01  0.4159E+00E
 Epicentro: LOS SANTOS - SANTANDER                                             3
 ACTION:UPD 17-01-11 20:18 OP:rebc STATUS:               ID:20161224133448 L   I
 OLDACT:UP  16-12-25 00:45 OP:edw  STATUS:               ID:20161224132743     3
 OLDACT:UP  16-12-25 00:44 OP:edw  STATUS:               ID:20161224132743     3
 OLDACT:REG 16-12-24 20:40 OP:edw  STATUS:               ID:20161224132743     3
 2016-12-24-1328-00M.COL___375                                                 6
 STAT SP IPHASW D HRMM SECON CODA AMPLIT PERI AZIMU VELO AIN AR TRES W  DIS CAZ7
 BAR2 EZ IP     D 1335  8.63                             168   -0.1810 29.4 187 
 BAR2 EZ ES       1335 24.02                             168   -0.6510 29.4 187 
 BAR2 EZ I        1335 25.26        70.6 0.18            168           29.4 187 
 BRR  HZ EP     D 1335 10.51                             154    0.5410 68.1 294 
 BRR  HN ES       1335 27.48                             154    0.7410 68.1 294 
 BRR  HZ I        1335 28.30        42.6 0.30            151           68.1 294 
 PAM  EZ EP       1335 11.60                             153    0.6510 73.0  43 
 PAM  EN ES       1335 28.98                             153    0.5010 73.0  43 
 PAM  EZ I        1335 29.41        27.6 0.20            154           73.0  43 
 RUS  HZ EP       1335 12.78                             143   -0.3610  107 176 
 RUS  HN ES       1335 31.51                             143   -0.8710  107 176 
 RUS  HZ I        1335 32.90        39.0 0.50            143            107 176 
 PTB  HZ EP   9   1335 15.53                             133   -0.38 0  149 256 
 PTB  HN ES       1335 36.52                             133   -0.41 9  149 256 
 PTB  HZ I        1335 38.33        29.8 0.40            131            149 256 
 TAM  HZ IP     D 1335 17.07                             131    0.35 9  157 107 
 TAM  HN ES       1335 38.76                             131    0.01 9  157 107 
 TAM  HZ I        1335 40.17        16.2 0.44            133            157 107 
 ZAR  HZ EP       1335 21.18                             124    0.22 9  201 291 
 ZAR  HN ES       1335 46.50                             124    0.19 9  201 291 
 ZAR  HZ I        1335 51.81        35.0 0.32            122            201 291 
 NOR  HZ EP       1335 24.54                             119   -0.29 8  238 233 
 NOR  HN ES       1335 53.32                             119    0.13 8  238 233 
 CHI  HZ EP       1335 26.78                             117   -0.29 8  254 195 
 CHI  HN ES   4   1335 55.56                             117   -1.61 0  254 195 
 CHI  HZ I        1335 59.63        19.0 0.66            117            254 195 
 ROSC BZ EP   4   1335 28.81                             117    1.40 0  258 210 
 ROSC BN ES   4   1335 59.83                             117    2.05 0  258 210 
 ROSC BZ I        1336  3.31        47.7 0.40            116            258 210 
 URE  HZ EP       1335 29.33                             115   -0.16 7  281 291 
 URE  HE ES   4   1335 59.90                             115   -1.58 0  281 291 
 URE  HZ I        1336 11.32        12.9 0.20            114            281 291 
 GUY2CHZ EP       1335 33.48                             113    0.81 7  304 234 
 GUY2CHN ES   2   1336  7.14                             113   -0.00 4  304 234 
 GUY2CHZ I        1336 14.88        16.6 0.32                           304 234 
 PTGC HZ EP   4   1335 31.66                             112   -1.55 0  315 159 
 CBOC HZ EP   4   1335 36.98                             111    1.22 0  335 251 
 CBOC HE ES       1336 11.88                             111   -0.77 7  335 251 
 CBOC HZ I        1336 23.63         3.1 0.24            110            335 251 
 DBB  EZ EP   4   1335 32.70                             110   -3.35 0  339 273 
 DBB  EN ES   2   1336 12.57                             110   -0.60 3  339 273 
 DBB  EZ I        1336 14.28         7.2 0.62            109            339 273 
 ORTC HZ EP       1335 43.25                             107    0.14 6  400 216 
 ORTC HN ES       1336 26.50                             107    0.77 6  400 216 
 ORTC HZ I        1336 30.04        10.8 0.22            106            400 216 
 SJC  HZ EP       1335 42.82                             107   -0.74 6  404 327 
 SJC  HN ES   4   1336 23.63                             107   -2.91 0  404 327 
 SJC  HZ I        1336 28.76         3.3 0.27            106            404 327 
 PAL  HZ EP   2   1335 44.13                             106    0.00 3  409 238 
 PAL  HN ES   4   1336 26.44                             106   -1.10 0  409 238 
 PAL  HZ I        1336 32.14         3.4 0.24            106            409 238 
 CRJC HZ EP       1335 49.00                             104   -1.38 5  462   4 
 CRJC HE ES       1336 37.06                             104   -1.61 5  462   4 
 CRJC HZ I        1336 43.97         7.9 0.30            104            462   4 
 SMAR HZ EP   4   1335 54.06                             103    0.31 0  491 346 
 SMAR HN ES   4   1336 42.10                             103   -2.56 0  491 346 
                                                                                
