 2016  624 1704 21.8 L   6.611 -73.197141.1  RSN  4 0.3 1.5LRSN                1
 GAP=188        0.50       9.9     6.6  8.0  0.3699E+02  0.1696E+02  0.2130E+01E
 Epicentro: BARICHARA - SANTANDER                                              3
 ACTION:UPD 16-07-21 22:22 OP:rebc STATUS:               ID:20160624170421 L   I
 OLDACT:REG 16-06-24 23:24 OP:dnl  STATUS:               ID:20160624165743     3
 2016-06-24-1657-43M.COL___328                                                 6
 STAT SP IPHASW D HRMM SECON CODA AMPLIT PERI AZIMU VELO AIN AR TRES W  DIS CAZ7
 BAR2 EZ EP   2   17 4 40.95                             179    0.30 6 2.59 142 
 BAR2 EZ ES   2   17 4 55.52                             179    0.18 6 2.59 142 
 BAR2 EZ I        17 4 56.86         5.7 0.42                          2.59 142 
 BRR  HZ EP   2   17 4 43.06                             149    0.11 6 79.1 314 
 BRR  HE ES   2   17 4 58.81                             149   -0.62 6 79.1 314 
 BRR  HZ I        17 5  2.53        10.8 0.30                          79.1 314 
 PTB  HZ EP   2   17 4 47.17                             133   -0.49 6  140 267 
 PTB  HN ES   2   17 5  7.86                             133    0.04 6  140 267 
 PTB  HZ I        17 5  9.95         2.4 0.38                           140 267 
 ZAR  HZ EP   2   17 4 54.14                             121   -0.22 5  208 298 
 ZAR  HN ES       17 5 19.95                             121    0.2110  208 298 
 ZAR  HZ I        17 5 27.81         2.6 0.42                           208 298 
                                                                                
