 2013  424 1004  1.6 L   6.798 -73.168144.7  RSN 13 0.4 2.1LRSN                1
 GAP=136        0.95       4.0     5.2  5.3  0.1819E+01  0.1623E+01 -0.5232E+01E
 Epicentro: LOS SANTOS - SANTANDER                                             3
 ACTION:UPD 13-05-22 14:40 OP:EP   STATUS:               ID:20130424100401 L   I
 2013-04-24-1000-00M.COL___250                                                 6
 STAT SP IPHASW D HRMM SECON CODA AMPLIT PERI AZIMU VELO AIN AR TRES W  DIS CAZ7
 BAR2 SZ IP     C 10 4 21.27                             171    0.1910 22.9 184 
 BAR2 SZ ES       10 4 35.95                             171   -0.3410 22.9 184 
 BAR2 SZ I        10 4 38.44        23.6 0.32            166           22.9 184 
 GIR2 SZ EP       10 4 21.44                             167    0.3110 31.1 355 
 GIR2 SZ ES       10 4 35.92                             167   -0.4610 31.1 355 
 GIR2 SZ I        10 4 38.00        36.0 0.48            162           31.1 355 
 BRR  HZ IP     C 10 4 23.22                             153    0.7110 69.2 300 
 BRR  HN ES       10 4 39.64                             153    0.8110 69.2 300 
 BRR  HZ I        10 4 42.92        28.8 0.32            146           69.2 300 
 RUS  HZ EP     D 10 4 25.22                             144   -0.0210  101 175 
 RUS  HN ES   1   10 4 43.50                             144   -0.19 7  101 175 
 RUS  HZ I        10 4 44.70         7.9 0.36            144            101 175 
 PTB  HZ EP       10 4 27.92                             132   -0.33 9  145 259 
 PTB  HN ES   1   10 4 48.66                             132   -0.39 7  145 259 
 PTB  HZ I        10 4 52.13        16.4 0.12            128            145 259 
 CAPV BZ EP       10 4 29.19                             131    0.14 9  151  39 
 OCA  HZ EP       10 4 29.64                             129   -0.17 9  160 354 
 OCA  HN ES   1   10 4 51.33                             129   -0.49 7  160 354 
 OCA  HZ I        10 4 56.25        17.7 0.48            129            160 354 
 ZAR  HZ EP   4   10 4 36.74                             122    3.00 0  202 292 
 ZAR  HN ES   4   10 5  0.39                             122    1.57 0  202 292 
 ZAR  HZ I        10 5  7.77        14.9 0.32            120            202 292 
 SML  HZ EP     D 10 4 37.95                             117   -0.11 8  243 336 
 SML  HN ES   1   10 5  6.20                             117   -0.31 6  243 336 
 SML  HZ I        10 5  8.78        14.1 0.10            117            243 336 
 HEL  HZ EP   4   10 4 43.53                             115    2.05 0  270 256 
 HEL  HN ES   4   10 5 16.44                             115    3.84 0  270 256 
 HEL  HZ I        10 5 20.73         5.6 0.50            113            270 256 
 URE  HZ EP       10 4 42.12                             113   -0.24 7  282 292 
 URE  HN ES   2   10 5 13.88                             113   -0.28 4  282 292 
 URE  HZ I        10 5 23.97         7.5 0.32            112            282 292 
 PRA  HZ EP   4   10 4 56.62                             106    1.70 0  391 209 
 PRA  HN ES   4   10 5 35.04                             106   -1.47 0  391 209 
 PRA  HZ I        10 5 41.95         4.3 0.28            106            391 209 
 SJC  HZ IP   4 D 10 4 56.30                             105   -0.68 0  408 327 
 SJC  HN ES   4   10 5 37.41                             105   -2.77 0  408 327 
 SJC  HZ I        10 5 41.44         3.9 0.46            105            408 327 
                                                                                
