 2010  824 1550  6.4 L   6.836 -72.941136.2  RSN  4 0.4 1.8LRSN                1
 GAP=188        0.77      12.9    21.8 15.3  0.2456E+03 -0.2439E+03 -0.1348E+03E
 Epicentro: CEPITA - SANTANDER                                                 3
 ACTION:UP  10-09-07 10:57 OP:vdl  STATUS:               ID:20100824155006 L   I
 2010-08-24-1545-21S.COL___122                                                 6
 STAT SP IPHASW D HRMM SECON CODA AMPLIT PERI AZIMU VELO SNR AR TRES W  DIS CAZ7
 BAR2 SZ EP   1   1550 25.52                             164     0.3 7   38 225 
 BAR2 SZ ES   2   1550 39.19                             164    -0.8 5   38 225 
 BAR2 SZ I        1550 41.91        16.7 0.13                            38 225 
 BRR  HZ EP       1550 27.43                             144    -0.310   90 289 
 BRR  HN ES       1550 44.60                             144     0.210   90 289 
 BRR  HZ I        1550 46.68        17.9 0.37                            90 289 
 RUS  HZ EP   2   1550 29.65                             140     0.1 5  105 189 
 RUS  HN ES   1   1550 47.75                             140     0.1 7  105 189 
 RUS  HZ I        1550 49.39         6.0 0.25                           105 189 
 GUE  SZ EP   3   1550 30.59                             139     0.9 2  110   1 
                                                                                
