 2013 1024 1557 44.0 L   6.861 -74.126 71.4  RSN  4 0.2 1.7LRSN                1
 GAP=193        0.51       3.5     3.0  5.5 -0.6293E+01 -0.5378E+01  0.9621E+01E
 Epicentro: PUERTO PARRA - SANTANDER                                           3
 ACTION:UPD 13-11-25 09:23 OP:ep   STATUS:               ID:20131024155744 L   I
 OLDACT:REG 13-10-24 15:19 OP:cam  STATUS:               ID:20131024154838     3
 2013-10-24-1548-38M.COL___233                                                 6
 STAT SP IPHASW D HRMM SECON CODA AMPLIT PERI AZIMU VELO AIN AR TRES W  DIS CAZ7
 PTB  HZ IP     C 1557 56.00                             141   -0.1110 51.0 226 
 PTB  HN ES       1558  5.54                             141   -0.0610 51.0 226 
 PTB  HZ I        1558  5.94        24.3 0.44            143           51.0 226 
 BRR  HZ EP       1557 56.09                             139   -0.1710 53.2  59 
 BRR  HN ES       1558  6.09                             139    0.2410 53.2  59 
 BRR  HZ I        1558  6.92        21.5 0.12            141           53.2  59 
 BAR2 SZ ES   1   1558 15.76                             118   -0.29 7  108 106 
 SPBC HZ EP       1558  4.91                             112    0.2610  134 177 
 SPBC HN ES   1   1558 20.83                             112    0.04 7  134 177 
                                                                                
