 2017  224 1118 48.0 L   6.763 -73.208137.2  RSN  6 0.3 1.2LRSN                1
 GAP=130        0.71       3.4     3.0  5.2  0.9415E+00  0.3125E+01  0.1732E+00E
 Epicentro: ZAPATOCA - SANTANDER                                               3
 ACTION:UPD 17-05-24 15:40 OP:jn   STATUS:               ID:20170224111848 L   I
 OLDACT:DUP 17-02-24 21:38 OP:lv   STATUS:               ID:20170224110741d    3
 2017-02-24-1108-00M.COL___382                                                 6
 STAT SP IPHASW D HRMM SECON CODA AMPLIT PERI AZIMU VELO AIN AR TRES W  DIS CAZ7
 BAR2 EZ EP       1119  6.55                             172    0.0410 19.1 171 
 BAR2 EZ ES       1119 21.05                             172    0.1010 19.1 171 
 BAR2 EZ I        1119 22.61         6.6 0.28            171           19.1 171 
 BRR  HZ EP       1119  8.27                             152    0.2610 67.4 304 
 BRR  HE ES       1119 23.16                             152   -0.4510 67.4 304 
 PAM  EZ EP       1119  9.36                             147   -0.4410 85.0  41 
 PAM  EN ES       1119 27.12                             147    0.3110 85.0  41 
 PAM  EZ I        1119 28.63         3.3 0.40            150           85.0  41 
 RUS  HZ EP       1119 10.85                             143    0.1810 97.2 172 
 RUS  HN ES       1119 28.25                             143   -0.0910 97.2 172 
 RUS  HZ I        1119 29.85         1.2 0.30            145           97.2 172 
 PTB  HZ EP       1119 13.38                             132   -0.20 9  140 260 
 PTB  HN ES       1119 33.61                             132    0.08 9  140 260 
 PTB  HZ I        1119 39.69         2.2 0.20            132            140 260 
 ZAR  HE ES       1119 44.16                             121    0.27 9  199 294 
                                                                                
