 2012  624 1945  0.1 L   6.782 -73.165148.0  RSN  7 0.5 1.8LRSN                1
 GAP=135        0.92       4.9     5.4  7.7  0.3226E+01  0.1004E+02  0.6369E+01E
 Epicentro: LOS SANTOS - SANTANDER                                             3
 ACTION:UPD 12-08-06 17:52 OP:ep   STATUS:               ID:20120624194500 L   I
 2012-06-24-1940-00M.COL___199                                                 6
 STAT SP IPHASW D HRMM SECON CODA AMPLIT PERI AZIMU VELO AIN AR TRES W  DIS CAZ7
 BAR2 SZ EP   1   1945 19.85                             172   -0.09 7 21.0 185 
 BAR2 SZ ES   1   1945 34.51                             172   -0.92 7 21.0 185 
 BAR2 SZ I        1945 36.47        22.7 0.26                          21.0 185 
 BRR  HZ EP   1   1945 21.74                             153    0.31 7 70.3 301 
 BRR  HZ I        1945 21.94        16.3 0.07                          70.3 301 
 BRR  HN ES   1   1945 39.01                             153    0.94 7 70.3 301 
 PAM  SZ EP   1   1945 22.80                             150    0.08 7 80.3  40 
 PAM  SN ES   1   1945 40.40                             150    0.03 7 80.3  40 
 RUS  HZ EP   1   1945 23.53                             145   -0.40 7 98.7 175 
 RUS  HE ES   1   1945 42.91                             145    0.39 7 98.7 175 
 RUS  HZ I        1945 43.79         6.8 0.40                          98.7 175 
 PTB  HZ EP   1   1945 26.54                             133   -0.47 7  145 259 
 PTB  HN ES   1   1945 47.62                             133   -0.39 7  145 259 
 PTB  HZ I        1945 51.34         6.7 0.18                           145 259 
 ZAR  HZ EP   1   1945 32.21                             123   -0.34 6  203 293 
 ZAR  HE ES   1   1945 57.93                             123    0.06 6  203 293 
 ZAR  HZ I        1946  4.28         9.1 0.35                           203 293 
 CHI  HZ EP   1   1945 38.20                             118    0.57 6  246 195 
 CHI  HN ES   1   1946  7.31                             118    0.39 6  246 195 
 CHI  HZ I        1946 13.52         3.7 0.30                           246 195 
                                                                                
