 2012  924 1528  9.0 L   6.716 -73.175155.5  RSN  4 0.4 2.2LRSN                1
 GAP=227        0.64       8.1     9.5  8.2  0.4248E+02 -0.6115E+01 -0.1129E+02E
 Epicentro: VILLANUEVA - SANTANDER                                             3
 ACTION:UPD 12-10-22 14:20 OP:ep   STATUS:               ID:20120924152809 L   I
 2012-09-24-1520-00M.COL___220                                                 6
 STAT SP IPHASW D HRMM SECON CODA AMPLIT PERI AZIMU VELO AIN AR TRES W  DIS CAZ7
 BAR2 SZ EP   1   1528 29.37                             174   -0.27 7 13.7 183 
 BAR2 SZ ES   1   1528 45.35                             174   -0.40 7 13.7 183 
 BRR  HZ EP   1   1528 31.32                             153    0.01 7 73.4 306 
 BRR  HN ES   2   1528 49.44                             153    0.71 5 73.4 306 
 BRR  HN I        1528 52.61        32.2 0.18                          73.4 306 
 RUS  HZ EP   1   1528 33.46                             148    0.35 7 91.7 174 
 RUS  HN ES   1   1528 52.05                             148    0.12 7 91.7 174 
 PTB  HN ES   2   1528 57.38                             135   -0.31 5  143 262 
 PTB  HN I        1529  2.78        14.3 0.60                           143 262 
                                                                                
