 2011  824 1330 13.9 L   6.761 -73.113140.9  RSN  8 0.5 2.2LRSN                1
 GAP=238        0.79       4.8     6.6  6.7  0.2861E+01  0.1519E+02  0.9676E+01E
 Epicentro: LOS SANTOS - SANTANDER                                             3
 ACTION:UPD 12-07-13 15:53 OP:ep   STATUS:               ID:20110824133013 L   I
 2011-08-24-1328-20S.COL___167                                                 6
 STAT SP IPHASW D HRMM SECON CODA AMPLIT PERI AZIMU VELO AIN AR TRES W  DIS CAZ7
 BAR2 SZ IP       1330 32.84                             171   -0.0310 20.2 202 
 BAR2 SZ ES   1   1330 47.56                             171   -0.12 7 20.2 202 
 BAR2 SZ I        1330 49.19        79.1 0.20                          20.2 202 
 BRR  HZ EP       1330 34.69                             150   -0.1310 76.4 300 
 BRR  HN ES   1   1330 51.67                             150    0.52 7 76.4 300 
 BRR  HZ I        1330 52.90        39.0 0.14                          76.4 300 
 RUS  HZ EP   1   1330 36.84                             144    0.01 7 96.1 178 
 RUS  HZ I        1330 37.81        16.9 0.08                          96.1 178 
 RUS  HN ES   1   1330 54.54                             144   -0.20 7 96.1 178 
 NOR  SN ES   1   1331 16.40                             117   -0.69 6  235 236 
 CHI  HZ EP   1   1330 51.03                             116    0.06 6  246 196 
 CHI  HN ES   1   1331 20.38                             116    0.48 6  246 196 
 CHI  HZ I        1331 27.13         8.3 0.45                           246 196 
 HEL  HZ EP   1   1330 53.36                             114   -0.77 6  275 257 
 HEL  HZ I        1331 31.97         8.2 0.46                           275 257 
 RREF HZ EP   1   1331  1.04                             110    1.22 5  322 230 
 RREF HN ES   1   1331 35.87                             110    0.22 5  322 230 
 RREF HZ I        1331 45.25         9.9 0.27                           322 230 
 PRA  HZ EP   1   1331  6.79                             106   -0.22 4  390 210 
                                                                                
