 2012  524 1609 55.7 L   6.752 -73.162138.0  RSN  6 0.4 1.8LRSN                1
 GAP=137        0.92       5.8     5.3  9.5 -0.4955E+01  0.2202E+02 -0.8349E+01E
 Epicentro: LOS SANTOS - SANTANDER                                             3
 ACTION:UP  12-07-05 12:07 OP:pat  STATUS:               ID:20120524160955 L   I
 2012-05-24-1608-59S.COL___211                                                 6
 STAT SP IPHASW D HRMM SECON CODA AMPLIT PERI AZIMU VELO SNR AR TRES W  DIS CAZ7
 BAR2 SZ EP   1   1610 14.41                             172     0.1 7   18 187 
 BAR2 SZ ES   1   1610 29.00                             172     0.2 7   18 187 
 BAR2 SZ I        1610 30.58        16.4 0.13                            18 187 
 PAM  SZ EP   1   1610 17.38                             148    -0.1 7   83  38 
 PAM  SN ES   1   1610 34.05                             148    -0.3 7   83  38 
 RUS  HZ EP   1   1610 18.48                             143     0.2 7   95 175 
 RUS  HN ES   1   1610 36.27                             143     0.3 7   95 175 
 RUS  HZ I        1610 38.28        10.0 0.34                            95 175 
 PTB  HZ EP   1   1610 21.24                             131    -0.6 7  145 261 
 PTB  HN ES   1   1610 41.39                             131    -0.8 7  145 261 
 PTB  HZ I        1610 44.91         5.5 0.13                           145 261 
 ZAR  HZ EP   1   1610 27.98                             120     0.3 6  204 294 
 ZAR  HE ES   1   1610 53.49                             120     0.8 6  204 294 
 ZAR  HZ I        1610 59.09         7.6 0.31                           204 294 
 NOR  SN ES   1   1610 57.67                             117     0.0 6  230 235 
                                                                                
