 2016  924 1830 30.6 L   5.926 -73.634121.0  RSN  8 0.3 1.5LRSN                1
 GAP= 91        0.53       2.3     2.2  3.5 -0.2076E+01  0.1515E+01  0.2455E+00E
 Epicentro: BARBOSA - SANTANDER                                                3
 ACTION:UPD 17-08-17 21:15 OP:lp   STATUS:               ID:20160924183030 L   I
 OLDACT:UP  16-09-24 23:15 OP:edw  STATUS:               ID:20160924181744d    3
 OLDACT:DUP 16-09-24 23:05 OP:edw  STATUS:               ID:20160924181744d    3
 OLDACT:UP  16-09-24 23:03 OP:edw  STATUS:               ID:20160924181743     3
 OLDACT:REG 16-09-24 20:50 OP:ar   STATUS:               ID:20160924181743     3
 2016-09-24-1818-00M.COL___330                                                 6
 STAT SP IPHASW D HRMM SECON CODA AMPLIT PERI AZIMU VELO AIN AR TRES W  DIS CAZ7
 SPBC HZ EP       1830 48.60                             153    0.1710 57.2 238 
 SPBC HN ES       1831  1.99                             153   -0.3410 57.2 238 
 SPBC HZ I        1831  3.87        22.0 0.26            153           57.2 238 
 RUS  HZ EP       1830 49.09                             152   -0.1410 61.1  93 
 RUS  HN ES       1831  3.71                             152   -0.0510 61.1  93 
 RUS  HZ I        1831  6.37         2.9 0.30            157           61.1  93 
 BAR2 EZ EP       1830 50.84                             141    0.0810 89.0  34 
 BAR2 EZ ES       1831  6.67                             141    0.2110 89.0  34 
 BAR2 EZ I        1831  7.48        15.0 0.18            144           89.0  34 
 PTB  HZ EP   9   1830 51.26                             134   -1.21 0  114 307 
 PTB  HN ES       1831  8.29                             133   -0.0110  114 307 
 PTB  HZ I        1831 14.05         2.3 0.13            135            114 307 
 BRR  HZ EP       1830 54.01                             129   -0.0210  131 356 
 BRR  HN ES       1831 12.28                             129   -0.0210  131 356 
 NOR  HZ EP   2   1830 55.35                             127    0.12 5  143 254 
 NOR  HN ES   2   1831 14.47                             127    0.04 5  143 254 
 NOR  HZ I        1831 17.92         7.8 0.12            128            143 254 
 CHI  HZ EP   2   1830 55.30                             127   -0.53 5  144 184 
 CHI  HN ES   2   1831 16.25                             127    0.76 5  144 184 
 GUY2CHZ EP       1831  2.25                             116   -0.24 8  207 248 
 GUY2CHN ES       1831 27.63                             116    0.28 8  207 248 
 GUY2CHZ I        1831 32.68         1.5 0.34                           207 248 
                                                                                
