 2015 1124 1749 10.7 L   6.802 -73.159142.5  RSN  9 0.5 2.0LRSN                1
 GAP=182        1.28       4.3     5.9  8.0 -0.1967E+00  0.5936E+01 -0.2019E-01E
 Epicentro: LOS SANTOS - SANTANDER                                             3
 ACTION:UPD 15-12-28 16:13 OP:cam  STATUS:               ID:20151124174910 L   I
 OLDACT:UP  15-12-01 10:58 OP:ak   STATUS:               ID:20151124174910 L   3
 OLDACT:DUP 15-11-25 01:23 OP:drio STATUS:               ID:20151124173752d    3
 2015-11-24-1737-51M.COL___203                                                 6
 STAT SP IPHASW D HRMM SECON CODA AMPLIT PERI AZIMU VELO AIN AR TRES W  DIS CAZ7
 BAR2 EZ EP       1749 30.11                             170    0.1810 23.3 186 
 BAR2 EZ ES       1749 45.04                             170    0.1010 23.3 186 
 BAR2 EZ I        1749 46.38        22.4 0.26            170           23.3 186 
 BRR  HZ EP       1749 32.15                             152    0.7410 69.8 299 
 BRR  HN ES       1749 48.17                             152    0.5910 69.8 299 
 RUS  HZ EP       1749 33.86                             143   -0.2910  101 175 
 RUS  HE ES       1749 52.51                             143    0.0710  101 175 
 RUS  HZ I        1749 53.07         9.3 0.42            145            101 175 
 PTB  HZ EP       1749 37.90                             131    0.63 9  146 259 
 PTB  HN ES       1749 57.33                             131   -0.67 9  146 259 
 PTB  HZ I        1750  0.81         8.9 0.38            130            146 259 
 OCA  HZ EP       1749 38.02                             129   -0.70 9  160 354 
 OCA  HN ES       1749 59.84                             129   -0.74 9  160 354 
 OCA  HZ I        1750  3.87        26.8 0.22            129            160 354 
 SPBC HZ EP       1749 39.00                             128    0.13 9  162 219 
 SPBC HE ES       1750  0.11                             128   -0.74 9  162 219 
 SPBC HZ I        1750  2.03        11.6 0.26            128            162 219 
 ZAR  HZ EP   4   1749 44.87                             122    2.09 0  203 292 
 ZAR  HE ES       1750  8.23                             122    0.42 9  203 292 
 ZAR  HZ I        1750 15.17         8.5 0.24            121            203 292 
 NOR  HZ EP       1749 46.64                             118    0.52 8  234 234 
 NOR  HN ES       1750 13.31                             118   -0.44 8  234 234 
 NOR  HZ I        1750 20.32         6.3 0.18            118            234 234 
 MON  HZ EP   9   1749 58.00                             108   -1.42 0  352 308 
 MON  HN ES       1750 35.64                             108   -0.37 6  352 308 
                                                                                
