 2011 1124 1755 14.4 L   6.866 -73.296122.4  RSN  5 0.2 1.2LRSN                1
 GAP=124        0.40       3.5     3.7  5.3  0.6935E+01  0.6444E+01  0.3013E+01E
 Epicentro: BETULIA - SANTANDER                                                3
 ACTION:UPD 12-07-13 16:12 OP:ep   STATUS:               ID:20111124175514 L   I
 2011-11-24-1752-57S.COL___178                                                 6
 STAT SP IPHASW D HRMM SECON CODA AMPLIT PERI AZIMU VELO AIN AR TRES W  DIS CAZ7
 BAR2 SZ EP   1   1755 31.76                             164    0.24 7 32.7 157 
 BAR2 SZ ES   1   1755 44.71                             164   -0.14 7 32.7 157 
 BAR2 SZ I        1755 45.91         6.0 0.09                          32.7 157 
 BRR  HZ EP   2   1755 32.31                             155    0.27 5 53.2 300 
 BRR  HZ I        1755 35.07         7.9 0.29                          53.2 300 
 BRR  HN ES   2   1755 46.07                             155    0.29 5 53.2 300 
 PAM  SE ES   2   1755 50.33                             143   -0.16 5 84.2  51 
 RUS  HZ EP   1   1755 36.63                             135   -0.12 7  110 168 
 RUS  HE ES   1   1755 54.16                             135    0.00 7  110 168 
 RUS  HZ I        1755 56.74         1.2 0.21                           110 168 
 ZAR  HE ES   1   1756  5.99                             119   -0.21 7  186 292 
                                                                                
