 2016  224 1333 53.5 L   6.765 -73.136147.0  RSN  7 0.5 1.7LRSN                1
 GAP=139        1.19       5.5     5.6  7.6 -0.1045E+02  0.8592E+01  0.5609E+01E
 Epicentro: LOS SANTOS - SANTANDER                                             3
 ACTION:UPD 16-03-04 21:29 OP:rebc STATUS:               ID:20160224133353 L   I
 OLDACT:UP  16-02-24 22:25 OP:drio STATUS:               ID:20160224132749     3
 OLDACT:REG 16-02-24 20:54 OP:drio STATUS:               ID:20160224132749     3
 2016-02-24-1327-49M.COL___339                                                 6
 STAT SP IPHASW D HRMM SECON CODA AMPLIT PERI AZIMU VELO AIN AR TRES W  DIS CAZ7
 BAR2 EZ EP       1334 13.10                             172   -0.1010 19.8 195 
 BAR2 EZ ES       1334 27.63                             172   -0.9410 19.8 195 
 BAR2 EZ I        1334 30.58         6.6 0.34            170           19.8 195 
 BRR  HZ EP       1334 15.15                             152    0.2210 74.0 301 
 BRR  HN ES       1334 32.36                             152    0.7110 74.0 301 
 PAM  EZ EP       1334 15.99                             150    0.0110 79.8  37 
 PAM  EE ES       1334 33.55                             150    0.0410 79.8  37 
 PAM  EZ I        1334 35.29         9.3 0.50            155           79.8  37 
 RUS  HZ EP       1334 16.91                             145   -0.1710 96.7 177 
 RUS  HE ES       1334 35.86                             145    0.3810 96.7 177 
 RUS  HZ I        1334 37.32         4.6 0.44            146           96.7 177 
 PTB  HZ EP       1334 20.24                             132   -0.35 9  148 260 
 PTB  HN ES       1334 41.38                             132   -0.34 9  148 260 
 PTB  HZ I        1334 47.10         6.4 0.36            133            148 260 
 SPBC HZ EP       1334 22.03                             130    0.16 9  161 220 
 SPBC HN ES       1334 44.82                             130    0.82 9  161 220 
 SPBC HZ I        1334 51.04         9.7 0.26            131            161 220 
 NOR  HZ EP       1334 29.26                             119    0.11 8  233 235 
 NOR  HE ES       1334 56.29                             119   -0.66 8  233 235 
 NOR  HZ I        1334 59.42         4.0 0.30            120            233 235 
                                                                                
