 2012  324 1445 30.6 L   6.564 -73.401118.0  RSN  6 0.1 1.8LRSN                1
 GAP= 94        0.33       1.4     1.8  2.4 -0.1913E+00  0.1003E+01  0.5419E+00E
 ACTION:UP  12-03-31 23:22 OP:EP   STATUS:               ID:20120324144530 L   I
 2012-03-24-1440-00M.COL___196                                                 6
 STAT SP IPHASW D HRMM SECON CODA AMPLIT PERI AZIMU VELO SNR AR TRES W  DIS CAZ7
 BAR2 SZ EP       1445 47.07                             168     0.210   24  83 
 BAR2 SZ I        1445 47.38        22.6 0.09                            24  83 
 BAR2 SZ ES       1445 59.65                             168     0.010   24  83 
 BRR  HZ EP       1445 48.55                             147    -0.110   69 330 
 BRR  HN ES       1446  2.84                             147     0.110   69 330 
 BRR  HZ I        1446  4.82        20.2 0.23                            69 330 
 RUS  HZ EP       1445 50.21                             143    -0.110   82 155 
 RUS  HN ES       1446  5.63                             143     0.010   82 155 
 RUS  HZ I        1446  7.33        11.3 0.19                            82 155 
 PAM  SZ EP       1445 53.02                             133     0.010  116  42 
 PAM  SN ES   1   1446 10.46                             133    -0.1 7  116  42 
 NOR  SZ EP   1   1446  0.79                             117     0.2 6  197 236 
 NOR  SE ES   1   1446 23.95                             117    -0.1 6  197 236 
 CHI  HZ EP   1   1446  3.34                             114     0.0 6  217 190 
 CHI  HZ I        1446  4.69         4.0 0.17                           217 190 
                                                                                
