 2015 1024 1831 49.9 L   6.749 -73.135145.9  RSN  5 0.3 1.8LRSN                1
 GAP=161        0.73       4.4     4.6  6.5 -0.3236E+00  0.1348E+02 -0.8772E+01E
 Epicentro: LOS SANTOS - SANTANDER                                             3
 ACTION:UPD 15-12-22 20:42 OP:cam  STATUS:               ID:20151024183149 L   I
 OLDACT:REG 15-10-24 21:18 OP:mh   STATUS:               ID:20151024182748     3
 2015-10-24-1827-48M.COL___304                                                 6
 STAT SP IPHASW D HRMM SECON CODA AMPLIT PERI AZIMU VELO AIN AR TRES W  DIS CAZ7
 BAR2 EZ EP   1   1832  9.19                             173   -0.24 7 18.1 197 
 BAR2 EZ ES       1832 24.74                             173    0.0610 18.1 197 
 BAR2 EZ I        1832 26.33         9.9 0.41            175           18.1 197 
 PAM  EZ EP       1832 12.44                             150    0.1110 81.1  36 
 PAM  EN ES       1832 29.57                             150   -0.2710 81.1  36 
 PAM  EZ I        1832 31.58         4.4 0.58            149           81.1  36 
 OCA  HZ EP   2   1832 18.73                             128   -0.01 5  166 353 
 OCA  HN ES       1832 41.80                             128    0.55 9  166 353 
 OCA  HZ I        1832 46.25        13.3 0.29            128            166 353 
 ZAR  HZ EP       1832 23.10                             122    0.43 8  207 293 
 ZAR  HN ES       1832 48.08                             122   -0.17 8  207 293 
 ZAR  HZ I        1832 51.20         4.4 0.32            122            207 293 
 SML  HZ EP   1   1832 26.59                             117   -0.53 6  249 336 
 SML  HN ES       1832 55.82                             117   -0.35 8  249 336 
 SML  HZ I        1833  4.62         5.9 0.10            117            249 336 
                                                                                
