 2011 1124 1415 13.4 L   6.798 -73.064144.7  RSN  5 0.3 1.5LRSN                1
 GAP=147        0.49       5.9     8.0  5.8  0.2193E+02 -0.8800E+01 -0.3756E+01E
 Epicentro: LOS SANTOS - SANTANDER                                             3
 ACTION:UPD 12-07-13 16:12 OP:ep   STATUS:               ID:20111124141513 L   I
 2011-11-24-1400-00M.COL___170                                                 6
 STAT SP IPHASW D HRMM SECON CODA AMPLIT PERI AZIMU VELO AIN AR TRES W  DIS CAZ7
 BAR2 SZ EP   1   1415 32.68                             170   -0.24 7 26.3 210 
 BAR2 SZ ES   1   1415 48.55                             170    0.37 7 26.3 210 
 BAR2 SZ I        1415 49.51         5.6 0.26                          26.3 210 
 PAM  SZ EP   2   1415 35.40                             152    0.25 5 72.1  34 
 BRR  HZ EP   1   1415 34.69                             150   -0.18 7 79.3 296 
 BRR  HN ES   1   1415 51.63                             150   -0.02 7 79.3 296 
 BRR  HZ I        1415 52.21        13.3 0.33                          79.3 296 
 RUS  HZ EP   2   1415 37.09                             144    0.11 5  100 181 
 RUS  HN ES   2   1415 55.01                             144   -0.38 5  100 181 
 RUS  HZ I        1415 56.62         2.4 0.30                           100 181 
 RREF HZ EP   2   1416  0.68                             110    0.45 3  329 230 
 RREF HZ I        1416 41.55         1.2 0.36                           329 230 
                                                                                
