 2017  324 1455 23.6 L   6.787 -73.175142.5  RSN 14 0.3 2.3LRSN                1
 GAP=141        1.06       4.4     4.5  6.4 -0.4410E+01  0.3812E+01  0.5743E+01E
 Epicentro: LOS SANTOS - SANTANDER                                             3
 ACTION:UPD 17-05-25 18:44 OP:jn   STATUS:               ID:20170324145523 L   I
 OLDACT:REG 17-03-24 21:03 OP:lv   STATUS:               ID:20170324144749     3
 2017-03-24-1448-00M.COL___402                                                 6
 STAT SP IPHASW D HRMM SECON CODA AMPLIT PERI AZIMU VELO AIN AR TRES W  DIS CAZ7
 BAR2 EZ EP       1455 42.52                             171   -0.2410 21.6 182 
 BAR2 EZ ES       1455 57.75                             171    0.0110 21.6 182 
 BAR2 EZ I        1456  0.43        81.7 0.27            167           21.6 182 
 BRR  HZ EP       1455 44.34                             153    0.1010 69.1 301 
 BRR  HE ES       1456  1.00                             153    0.6410 69.1 301 
 BRR  HZ I        1456  5.41        37.6 0.05            151           69.1 301 
 PAM  EZ EP       1455 45.53                             150   -0.1010 80.6  41 
 PAM  EN ES       1456  2.76                             150   -0.0710 80.6  41 
 PAM  EZ I        1456  5.52        17.0 0.57            155           80.6  41 
 PTB  HZ EP       1455 49.29                             132   -0.66 9  144 259 
 PTB  HN ES       1456  9.97                             132   -0.56 9  144 259 
 PTB  HZ I        1456 12.87        17.6 0.21            130            144 259 
 SPBC HZ EP       1455 51.47                             129   -0.04 9  160 218 
 SPBC HN ES   4   1456 12.12                             129   -1.19 0  160 218 
 SPBC HZ I        1456 19.78        34.9 0.15            128            160 218 
 ZAR  HZ EP       1455 56.05                             123    0.51 9  202 293 
 ZAR  HN ES       1456 20.53                             123    0.05 9  202 293 
 ZAR  HZ I        1456 25.67        21.8 0.32            122            202 293 
 NOR  HN ES       1456 26.25                             119    0.09 8  231 234 
 NOR  HZ I        1456 29.32        15.2 0.39            118            231 234 
 CHI  HZ EP       1456  0.86                             117    0.02 8  246 195 
 CHI  HN ES       1456 30.36                             117    0.44 8  246 195 
 CHI  HZ I        1456 35.44         7.8 0.23            117            246 195 
 ROSC BZ EP   9   1456  2.57                             117    1.38 0  250 211 
 ROSC BN ES       1456 32.99                                    1.07 8  250 211 
 ROSC BZ I        1456 37.04        18.4 0.40            116            250 211 
 URE  HZ EP   4   1456  6.97                             114    2.77 0  281 292 
 URE  HN ES   4   1456 33.82                             114   -2.07 0  281 292 
 URE  HZ I        1456 46.20         8.4 0.12            114            281 292 
 VIL  EZ EP   4   1456  6.65                             112    0.05 0  301 191 
 VIL  EN ES   4   1456 42.64                             112    2.47 0  301 191 
 VIL  EZ I        1456 45.66        18.5 0.31            112            301 191 
 ELA  HZ EP   4   1456 12.80                             110    2.91 0  326 229 
 ELA  HN ES   4   1456 48.52                             110    2.50 0  326 229 
 ELA  HZ I        1456 55.10         4.3 0.27            110            326 229 
 ANIL HZ EP   9   1456 14.73                             108    1.87 0  354 224 
 ANIL HN ES       1456 54.11                                    0.93 6  354 224 
 ANIL HZ I        1456 56.80        18.0 0.09            108            354 224 
 PRA  HZ EP   9   1456 16.40                             106   -0.24 0  389 209 
 PRA  HN ES       1456 58.09                                    0.29 6  389 209 
 PRA  HZ I        1457  5.04        11.5 0.43            107            389 209 
 SJC  HZ EP   4   1456 16.79                             106   -2.16 0  409 327 
 SJC  HN ES   4   1456 57.17                             106   -4.99 0  409 327 
                                                                                
