 2013 1024 1454 29.3 L   6.849 -73.111146.4  RSN  5 0.3 1.7LRSN                1
 GAP=281        0.71       7.0     5.4  7.9 -0.7198E+01  0.1289E+02 -0.1359E+02E
 Epicentro: LOS SANTOS - SANTANDER                                             3
 ACTION:UPD 13-11-25 09:23 OP:ep   STATUS:               ID:20131024145429 L   I
 OLDACT:DUP 13-10-24 16:44 OP:cam  STATUS:               ID:20131024144850d    3
 OLDACT:REG 13-10-24 15:17 OP:cam  STATUS:               ID:20131024144849     3
 2013-10-24-1448-49M.COL___233                                                 6
 STAT SP IPHASW D HRMM SECON CODA AMPLIT PERI AZIMU VELO AIN AR TRES W  DIS CAZ7
 BAR2 SZ EP       1454 49.40                             168    0.2510 29.5 196 
 BAR2 SZ ES   1   1455  4.30                             168   -0.32 7 29.5 196 
 BAR2 SZ I        1455  7.65        11.9 0.46            165           29.5 196 
 RUS  HZ EP   1   1454 53.78                             142    0.28 7  106 178 
 RUS  HN ES   1   1455 12.51                             142    0.14 7  106 178 
 RUS  HZ I        1455 14.85         4.7 0.32            143            106 178 
 PTB  HZ EP       1454 56.30                             131   -0.47 9  153 257 
 PTB  HE ES   1   1455 18.65                             131    0.46 7  153 257 
 PTB  HZ I        1455 19.50         5.5 0.36            133            153 257 
 SPBC HZ EP   1   1454 58.45                             128   -0.03 7  170 219 
 SPBC HN ES       1455 20.94                             128   -0.30 9  170 219 
 SPBC HZ I        1455 26.20         6.4 0.52            129            170 219 
 NOR  HN ES   1   1455 34.54                             118    0.37 6  241 234 
                                                                                
