 2013 1124 1840 53.2 L   6.797 -73.186138.2  RSN 13 0.5 2.1LRSN                1
 GAP=132        1.07       3.0     4.2  6.1 -0.3476E+01  0.9254E+01 -0.1625E+01E
 Epicentro: LOS SANTOS - SANTANDER                                             3
 ACTION:UPD 14-01-09 16:30 OP:ep   STATUS:               ID:20131124184053 L   I
 OLDACT:REG 13-11-24 18:00 OP:nd   STATUS:               ID:20131124184000     3
 2013-11-24-1840-00M.COL___282                                                 6
 STAT SP IPHASW D HRMM SECON CODA AMPLIT PERI AZIMU VELO AIN AR TRES W  DIS CAZ7
 BAR2 SZ IP     D 1841 12.22                             170    0.3010 22.7 179 
 BAR2 SZ ES       1841 26.86                             170    0.3510 22.7 179 
 BAR2 SZ I        1841 28.18        29.9 0.18            168           22.7 179 
 BRR  HZ IP     C 1841 14.13                             152    0.7910 67.5 301 
 BRR  HN ES   2   1841 29.40                             152    0.37 5 67.5 301 
 BRR  HZ I        1841 35.16        18.1 0.10            148           67.5 301 
 PAM  SZ IP     D 1841 15.25                             148    0.4210 80.5  42 
 PAM  SN ES       1841 31.59                             148   -0.0910 80.5  42 
 PAM  SZ I        1841 35.03        17.9 0.54            150           80.5  42 
 RUS  HZ IP     C 1841 16.13                             142   -0.1010  101 174 
 RUS  HN ES       1841 33.87                             142   -0.3210  101 174 
 RUS  HZ I        1841 35.69        11.1 0.30            140            101 174 
 PTB  HZ EP       1841 18.90                             131   -0.27 9  143 259 
 PTB  HN ES       1841 39.12                             131   -0.29 9  143 259 
 PTB  HZ I        1841 42.18        23.7 0.18            127            143 259 
 SPBC HZ EP       1841 21.02                             128    0.17 9  160 218 
 SPBC HN ES       1841 41.89                             128   -0.52 9  160 218 
 SPBC HZ I        1841 51.56        36.5 0.20            125            160 218 
 OCA  HZ EP       1841 20.73                             128   -0.20 9  160 355 
 OCA  HN ES       1841 41.80                             128   -0.75 9  160 355 
 OCA  HZ I        1841 44.41         9.5 0.24            126            160 355 
 ZAR  HN EP       1841 25.38                             121    0.62 9  200 293 
 ZAR  HE ES   2   1841 49.60                             121    0.23 4  200 293 
 ZAR  HN I        1841 57.88        33.2 0.30            118            200 293 
 NOR  HZ EP       1841 28.67                             117    0.56 8  231 234 
 NOR  HN ES       1841 56.00                             117    0.68 8  231 234 
 NOR  HZ I        1842  1.99        11.5 0.34            115            231 234 
 SML  HZ EP       1841 28.55                             116   -0.71 8  242 336 
 SML  HN ES   2   1841 57.19                             116   -0.18 4  242 336 
 SML  HZ I        1842  2.41        17.2 0.10            114            242 336 
 CHI  HZ EP       1841 30.39                             115    0.04 8  247 194 
 CHI  HN ES       1841 58.59                             115   -0.72 8  247 194 
 CHI  HZ I        1842  2.88         3.4 0.22            114            247 194 
 HEL  HZ EP   2   1841 32.52                             113   -0.05 4  268 256 
 HEL  HN ES       1842  2.77                             113   -0.49 8  268 256 
 HEL  HZ I        1842 11.34        10.5 0.44            111            268 256 
 GUY2CHZ EP   4   1841 38.08                             111    2.03 0  297 234 
 GUY2CHN ES   4   1842 12.61                             111    3.15 0  297 234 
 GUY2CHZ I        1842 19.35         6.8 0.52                           297 234 
                                                                                
