 2014  524 1300 39.2 L   6.411 -73.669 98.7  RSN 10 0.5 2.0LRSN                1
 GAP=135        1.25       3.1     4.0  7.6  0.1201E+01  0.7136E+01 -0.7060E+00E
 Epicentro: SANTA HELENA DEL OPON - SANTANDER                                  3
 ACTION:UPD 15-03-16 17:00 OP:nd   STATUS:               ID:20140524130039 L   I
 OLDACT:REG 14-05-25 00:24 OP:spq  STATUS:               ID:20140524125818     3
 2014-05-24-1258-18M.COL___200                                                 6
 STAT SP IPHASW D HRMM SECON CODA AMPLIT PERI AZIMU VELO AIN AR TRES W  DIS CAZ7
 BRR  HN ES       13 1  9.20                             139    0.1210 77.1 356 
 RUS  HZ EP       13 0 57.52                             136    0.0710 86.6 131 
 RUS  HE ES       13 1 11.65                             136   -0.0310 86.6 131 
 RUS  HZ I        13 1 15.56        19.9 0.56            139           86.6 131 
 PTB  HZ EP       13 0 56.69                             135   -0.2510 88.2 279 
 PTB  HN ES       13 1 10.72                             135   -0.0510 88.2 279 
 PTB  HZ I        13 1 13.25        29.4 0.16            135           88.2 279 
 SPBC HZ EP       13 0 57.89                             133    0.2510 95.0 208 
 SPBC HN ES       13 1 11.86                             133   -0.1710 95.0 208 
 SPBC HZ I        13 1 15.95        21.7 0.32            134           95.0 208 
 NOR  HZ EP       13 1  4.36                             117   -0.12 9  163 235 
 NOR  HN ES       13 1 23.89                             117   -0.30 9  163 235 
 NOR  HZ I        13 1 28.84        17.7 0.58            118            163 235 
 CHI  HZ EP       13 1  8.17                             113   -0.64 9  197 182 
 CHI  HN ES       13 1 32.15                             113    0.25 9  197 182 
 CHI  HZ I        13 1 35.57         9.4 0.24            113            197 182 
 HEL  HZ EP       13 1 10.67                             111    0.77 8  207 263 
 HEL  HN ES       13 1 35.16                             111    1.31 8  207 263 
 HEL  HZ I        13 1 38.29        15.3 0.30            111            207 263 
 GUY2CHZ EP       13 1 13.29                             109    0.72 8  229 235 
 GUY2CHN ES       13 1 37.89                             109   -0.71 8  229 235 
 GUY2CHZ I        13 1 44.21         7.5 0.66                           229 235 
 URE  HZ EP       13 1 14.38                             107   -0.51 8  254 306 
 URE  HN ES       13 1 41.64                             107   -1.08 8  254 306 
 URE  HZ I        13 1 51.64        11.3 0.20            106            254 306 
 SML  HZ EP       13 1 16.33                             106   -0.23 8  268 350 
 SML  HN ES       13 1 46.21                             106    0.51 8  268 350 
 SML  HZ I        13 1 51.23        13.1 0.24            105            268 350 
                                                                                
