 2012  624 1903 42.5 L   6.773 -73.159144.9  RSN  8 0.4 1.7LRSN                1
 GAP=136        0.69       4.2     4.8  6.2  0.8380E+00  0.5992E+01  0.3563E+01E
 Epicentro: LOS SANTOS - SANTANDER                                             3
 ACTION:UPD 12-08-06 17:52 OP:ep   STATUS:               ID:20120624190342 L   I
 2012-06-24-1900-00M.COL___199                                                 6
 STAT SP IPHASW D HRMM SECON CODA AMPLIT PERI AZIMU VELO AIN AR TRES W  DIS CAZ7
 BAR2 SZ EP       19 4  1.91                             172   -0.0810 20.1 187 
 BAR2 SZ I        19 4  2.35        10.3 0.10                          20.1 187 
 BAR2 SZ ES   1   19 4 16.80                             172   -0.37 7 20.1 187 
 BRR  HZ EP       19 4  3.66                             152    0.0710 71.4 301 
 BRR  HN ES   1   19 4 20.71                             152    0.69 7 71.4 301 
 BRR  HZ I        19 4 24.35        13.6 0.14                          71.4 301 
 PAM  SZ EP   1   19 4  4.83                             150   -0.01 7 80.6  39 
 PAM  SN ES   1   19 4 21.91                             150   -0.34 7 80.6  39 
 RUS  HZ EP   1   19 4  5.98                             144    0.00 7 97.7 175 
 RUS  HN ES   1   19 4 24.77                             144    0.49 7 97.7 175 
 RUS  HZ I        19 4 26.66         4.4 0.34                          97.7 175 
 PTB  HZ EP   2   19 4  9.06                             132   -0.18 5  146 260 
 PTB  HN ES   2   19 4 29.35                             132   -0.73 5  146 260 
 PTB  HZ I        19 4 34.53         6.1 0.18                           146 260 
 ZAR  HN ES   2   19 4 39.72                             122   -0.42 4  204 293 
 CHI  HZ EP   2   19 4 19.53                             117   -0.29 4  245 195 
 CHI  HN ES   2   19 4 48.53                             117   -0.37 4  245 195 
 CHI  HZ I        19 4 55.86         3.2 0.34                           245 195 
 HEL  HZ EP   2   19 4 23.34                             115    0.89 4  270 256 
                                                                                
