 2011  224 1552 40.3 L   6.702 -73.752 95.2  RSN  5 0.1 1.5LRSN                1
 GAP=162        0.41       4.4     7.3  9.5  0.9442E+01  0.5412E+02  0.1206E+02E
 Epicentro: EL CARMEN DE CHUCURI - SANTANDER                                   3
 ACTION:UP  11-03-28 15:10 OP:jfem STATUS:               ID:20110224155240 L   I
 2011-02-24-1549-11S.COL___137                                                 6
 STAT SP IPHASW D HRMM SECON CODA AMPLIT PERI AZIMU VELO SNR AR TRES W  DIS CAZ7
 BTL  SZ EP       1552 55.88                             146     0.210   59  66 
 BAR2 SZ EP       1552 55.93                             144    -0.210   64 101 
 BAR2 SZ ES   1   1553  8.40                             144     0.0 7   64 101 
 BAR2 SZ I        1553  9.49        11.9 0.16                            64 101 
 GIR2 SZ EP   2   1552 56.51                             139    -0.2 5   74  56 
 RUS  HZ EP       1553  1.10                             126     0.110  116 140 
 RUS  HE ES   2   1553 17.16                             126     0.0 5  116 140 
 RUS  HZ I        1553 18.25         3.9 0.29                           116 140 
 HEL  HZ EP   2   1553 10.51                             111    -0.1 4  205 254 
 HEL  HZ I        1553 38.83         4.3 0.44                           205 254 
                                                                                
