 2010  424 1104 20.4 L   6.788 -73.027148.7  RSN 14 0.5 3.1LRSN                1
 GAP=149        0.99       4.7     6.3  6.2 -0.1943E+02 -0.9115E+01  0.1227E+02E
 Epicentro: CEPITA - SANTANDER                                                 3
 ACTION:UPD 10-08-24 10:00 OP:vdl  STATUS:               ID:20100424110421 L   I
 2010-04-24-1101-14S.COL___104                                                 6
 STAT SP IPHASW D HRMM SECON CODA AMPLIT PERI AZIMU VELO AIN AR TRES W  DIS CAZ7
 BAR2 SZ IP       11 4 40.35                             169    -0.110   28 219 
 BAR2 SZ ES   1   11 4 55.69                             169    -0.4 7   28 219 
 BRR  HZ IP     C 11 4 42.73                             149     0.210   84 295 
 BRR  HN ES       11 5  0.07                             149     0.210   84 295 
 BRR  HZ I        11 5  2.01       150.4 0.89                            84 295 
 BRI  SZ EP       11 4 44.89                             143     0.510  106  14 
 BRI  SZ ES   2   11 5  3.95                             143     0.9 5  106  14 
 GUE  SZ EP       11 4 45.21                             140    -0.110  116   6 
 GUE  SZ ES   2   11 5  4.27                             140    -0.5 5  116   6 
 GRA  SZ IP       11 4 46.16                             138     0.410  124  11 
 GRA  SZ ES   1   11 5  4.96                             138    -0.5 7  124  11 
 OCA  SZ EP       11 4 48.58                             130    -0.7 9  164 349 
 OCA  SZ ES   1   11 5 11.61                             130    -0.1 7  164 349 
 OCA  SZ I        11 5 15.84       193.8 0.22                           164 349 
 CHI  HZ EP   1   11 4 58.45                             117    -0.1 6  251 198 
 CHI  HE ES   2   11 5 27.70                             117    -0.5 4  251 198 
 CHI  HZ I        11 5 36.43        49.0 0.63                           251 198 
 HEL  HZ EP       11 5  2.41                             114     0.3 7  284 257 
 HEL  HZ I        11 5 38.71        37.8 0.57                           284 257 
 RREF BZ EP   1   11 5  8.04                             111     0.3 5  331 231 
 RREF BE ES   2   11 5 45.80                             111     1.2 3  331 231 
 RREF BZ I        11 5 51.88        64.3 0.27                           331 231 
 SDV  BZ EP       11 5  9.65                             109     0.2 6  351  49 
 SDV  BZ I        11 5 10.69        25.5 0.28                           351  49 
 SDV  BN ES   1   11 5 47.79                             109     0.0 5  351  49 
 TOL  SZ EP       11 5  9.66                             109    -0.1 6  352 226 
 TOL  SZ ES   1   11 5 48.56                             109     0.4 5  352 226 
 DBB  SZ EP   1   11 5  8.09                             109    -1.4 5  353 274 
 ANIL BZ EP       11 5 11.52                             108     0.3 6  366 226 
 ANIL BE ES   2   11 5 51.74                             108     0.8 3  366 226 
 ANIL BZ I        11 5 54.05       138.4 0.65                           366 226 
 PRA  HZ EP       11 5 13.74                             107    -0.9 6  397 211 
 PRA  HN ES   2   11 5 56.58                             107    -0.4 3  397 211 
 PRA  HZ I        11 6  2.15        79.7 0.50                           397 211 
                                                                                
