 2014  824 1108 21.0 L   6.805 -73.110155.7  RSN  5 0.5 1.4LRSN                1
 GAP=204        1.14       8.4    12.1 10.3  0.7627E+02 -0.1738E+02 -0.2518E+02E
 Epicentro: LOS SANTOS - SANTANDER                                             3
 ACTION:UPD 14-09-15 21:52 OP:nd   STATUS:               ID:20140824110821 L   I
 OLDACT:UP  14-08-24 21:25 OP:cam  STATUS:               ID:20140824110000     3
 OLDACT:REG 14-08-24 20:34 OP:cam  STATUS:               ID:20140824110000     3
 2014-08-24-1100-00M.COL___288                                                 6
 STAT SP IPHASW D HRMM SECON CODA AMPLIT PERI AZIMU VELO AIN AR TRES W  DIS CAZ7
 BAR2 SZ EP       11 8 42.37                             171    0.5210 24.9 199 
 BAR2 SZ ES       11 8 58.02                             171   -0.1010 24.9 199 
 BAR2 SZ I        11 8 59.28         3.5 0.38            170           24.9 199 
 BRR  HZ EP       11 8 43.98                             153    0.5810 74.4 297 
 BRR  HN ES       11 9  1.28                             153    0.4010 74.4 297 
 BRR  HE I        11 9  1.30        11.8 0.18            154           74.4 297 
 RUS  HZ EP       11 8 45.52                             146   -0.2410  101 178 
 RUS  HE ES       11 9  4.58                             146   -0.5010  101 178 
 RUS  HZ I        11 9  6.48         1.7 0.44            146            101 178 
 ZAR  HN ES       11 9 20.29                             124   -0.26 8  207 292 
 SML  HN ES       11 9 26.68                             119   -0.75 8  245 334 
                                                                                
