 2011  224 1430 10.8 L   6.790 -73.051137.9  RSN  5 0.3 1.7LRSN                1
 GAP=169        0.66       4.7    19.2  8.3 -0.5314E+02 -0.5026E+02  0.7652E+01E
 Epicentro: LOS SANTOS - SANTANDER                                             3
 ACTION:UP  11-03-28 15:10 OP:jfem STATUS:               ID:20110224143011 L   I
 2011-02-24-1426-23S.COL___137                                                 6
 STAT SP IPHASW D HRMM SECON CODA AMPLIT PERI AZIMU VELO SNR AR TRES W  DIS CAZ7
 BAR2 SZ EP       1430 29.51                             169    -0.110   26 214 
 BAR2 SZ ES   2   1430 43.28                             169    -0.9 5   26 214 
 BAR2 SZ I        1430 50.02         9.2 0.15                            26 214 
 BTL  SZ IP       1430 29.76                             168     0.110   28 301 
 GIR2 SZ EP       1430 29.71                             165     0.010   36 334 
 GIR2 SZ ES   2   1430 44.79                             165     0.4 5   36 334 
 RUS  HZ EP       1430 33.79                             142     0.110   99 182 
 RUS  HN ES   2   1430 51.91                             142     0.3 5   99 182 
 RUS  HZ I        1430 53.59         6.6 0.20                            99 182 
 GRA  SZ IP       1430 35.02                             136    -0.210  124  13 
 GRA  SZ ES   1   1430 54.47                             136     0.2 7  124  13 
 GRA  SZ I        1430 57.05        10.7 0.39                           124  13 
                                                                                
