 2011  224 1129  0.3 L   6.769 -72.977142.0  RSN  6 0.2 1.7LRSN                1
 GAP=178        0.66       3.9    15.3  6.0 -0.3536E+02 -0.3695E+02  0.6194E+01E
 Epicentro: CEPITA - SANTANDER                                                 3
 ACTION:UP  11-03-28 15:10 OP:jfem STATUS:               ID:20110224112900 L   I
 2011-02-24-1128-37S.COL___137                                                 6
 STAT SP IPHASW D HRMM SECON CODA AMPLIT PERI AZIMU VELO SNR AR TRES W  DIS CAZ7
 BAR2 SZ IP       1129 19.52                             168    -0.210   30 229 
 BAR2 SZ I        1129 19.67        15.6 0.21                            30 229 
 BAR2 SZ ES   1   1129 34.57                             168    -0.2 7   30 229 
 BTL  SZ IP       1129 19.69                             165    -0.210   36 297 
 BTL  SZ ES   1   1129 35.57                             165     0.5 7   36 297 
 GIR2 SZ IP       1129 19.62                             163    -0.310   42 325 
 RUS  HZ EP       1129 23.78                             144     0.310   98 187 
 RUS  HN ES   1   1129 41.45                             144    -0.1 7   98 187 
 RUS  HZ I        1129 43.24         4.5 0.25                            98 187 
 GRA  SZ IP       1129 25.36                             136     0.210  125   9 
 GRA  SZ I        1129 26.80        10.0 0.23                           125   9 
 GRA  SZ ES   1   1129 44.61                             136     0.1 7  125   9 
 CHI  HZ EP   1   1129 38.06                             116     0.0 6  251 200 
 CHI  HN ES   2   1130  8.01                             116     0.5 4  251 200 
 CHI  HZ I        1130 15.30         2.4 0.32                           251 200 
                                                                                
