 2016  524 1432 40.4 L   6.711 -73.194137.6  RSN  6 0.5 1.9LRSN                1
 GAP=225        1.15       7.0     6.7  8.3  0.8059E+01  0.1950E+02  0.8063E+01E
 Epicentro: VILLANUEVA - SANTANDER                                             3
 ACTION:UPD 16-08-18 17:49 OP:cam  STATUS:               ID:20160524143240 L   I
 OLDACT:REG 16-05-24 20:36 OP:ar   STATUS:               ID:20160524142743     3
 2016-05-24-1427-43M.COL___314                                                 6
 STAT SP IPHASW D HRMM SECON CODA AMPLIT PERI AZIMU VELO AIN AR TRES W  DIS CAZ7
 BAR2 EZ EP       1432 58.49                             174   -0.4310 13.2 174 
 BAR2 EZ ES       1433 13.15                             174   -0.1810 13.2 174 
 BAR2 EZ I        1433 14.52        23.7 0.34            167           13.2 174 
 BRR  HZ EP       1433  0.45                             151   -0.3110 72.1 307 
 BRR  HN ES       1433 17.43                             151    0.8210 72.1 307 
 RUS  HZ EP   2   1433  2.60                             145   -0.12 5 91.4 172 
 RUS  HN ES   2   1433 20.47                             145    0.36 5 91.4 172 
 RUS  HZ I        1433 22.07         6.9 0.22            144           91.4 172 
 PTB  HZ EP       1433  6.34                             131    0.22 9  141 262 
 PTB  HN ES       1433 25.79                             131   -0.36 9  141 262 
 PTB  HZ I        1433 32.67         6.9 0.16            129            141 262 
 ZAR  HZ EP       1433 13.07                             121    0.81 9  203 295 
 ZAR  HE ES       1433 36.25                             121   -0.84 9  203 295 
 ZAR  HZ I        1433 43.05        11.2 0.36            121            203 295 
 NOR  HZ EP       1433 14.71                             118    0.09 8  225 236 
 NOR  HN ES       1433 41.47                             118    0.18 8  225 236 
 NOR  HZ I        1433 48.23         7.1 0.24            117            225 236 
                                                                                
