 2013 1124 1754 50.3 L   6.819 -73.177145.6  RSN  6 0.5 1.9LRSN                1
 GAP=139        1.17       6.8     5.4  8.4 -0.4095E+01  0.1384E+02 -0.1144E+02E
 Epicentro: LOS SANTOS - SANTANDER                                             3
 ACTION:UPD 14-01-09 16:30 OP:ep   STATUS:               ID:20131124175450 L   I
 OLDACT:REG 13-11-24 17:58 OP:nd   STATUS:               ID:20131124175000     3
 2013-11-24-1750-00M.COL___282                                                 6
 STAT SP IPHASW D HRMM SECON CODA AMPLIT PERI AZIMU VELO AIN AR TRES W  DIS CAZ7
 BAR2 SZ EP       1755  9.96                             170   -0.0310 25.1 181 
 BAR2 SZ ES       1755 25.04                             170   -0.2810 25.1 181 
 BAR2 SZ I        1755 26.38        35.6 0.34            171           25.1 181 
 BRR  HZ IP     D 1755 11.65                             154    0.4010 67.1 298 
 BRR  HN ES       1755 28.26                             154    0.7010 67.1 298 
 BRR  HZ I        1755 29.12         9.7 0.32            151           67.1 298 
 PAM  SZ IP     C 1755 12.81                             150    0.2310 78.1  42 
 PAM  SN ES       1755 29.72                             150   -0.2110 78.1  42 
 PAM  SZ I        1755 31.99         7.3 0.58            153           78.1  42 
 PTB  HZ EP       1755 16.69                             132   -0.34 9  145 258 
 PTB  HN ES       1755 37.13                             132   -0.71 9  145 258 
 PTB  HZ I        1755 43.17         6.8 0.24            132            145 258 
 ZAR  HZ EP       1755 22.91                             123    0.55 9  200 292 
 ZAR  HN ES       1755 47.79                             123    0.45 9  200 292 
 ZAR  HZ I        1755 54.58         7.5 0.36            123            200 292 
 SML  HZ EP   2   1755 26.29                             118   -0.30 4  240 336 
 SML  HN ES       1755 53.97                             118   -0.90 8  240 336 
 SML  HZ I        1755 58.20        13.6 0.10            118            240 336 
                                                                                
