 2016  124 1114 35.8 L   6.806 -73.226135.5  RSN  6 0.4 1.5LRSN                1
 GAP=191        0.95       3.9     5.8  7.0  0.2585E+01  0.7858E+01 -0.5644E+01E
 Epicentro: ZAPATOCA - SANTANDER                                               3
 ACTION:UPD 16-03-09 23:28 OP:cam  STATUS:               ID:20160124111435 L   I
 OLDACT:REG 16-01-24 20:55 OP:mh   STATUS:               ID:20160124110750     3
 2016-01-24-1107-50M.COL___311                                                 6
 STAT SP IPHASW D HRMM SECON CODA AMPLIT PERI AZIMU VELO AIN AR TRES W  DIS CAZ7
 BAR2 EZ EP   1   1114 54.60                             170    0.34 7 24.2 168 
 BAR2 EZ ES       1115  9.06                             170    0.4310 24.2 168 
 BAR2 EZ I        1115 11.01         7.3 0.23            165           24.2 168 
 RUS  HZ EP       1114 58.04                             141   -0.6910  102 171 
 RUS  HE ES       1115 16.19                             141   -0.3910  102 171 
 RUS  HZ I        1115 17.92         3.6 0.28            143            102 171 
 PTB  HZ EP       1115  1.53                             131    0.33 9  139 258 
 PTB  HN ES       1115 20.66                             131   -0.32 9  139 258 
 PTB  HZ I        1115 29.34         2.8 0.24            129            139 258 
 SPBC HZ EP   1   1115  3.19                             128    0.09 7  158 216 
 SPBC HE ES       1115 24.26                             128   -0.11 9  158 216 
 SPBC HZ I        1115 33.58         5.3 0.26            127            158 216 
 SML  HZ EP       1115 11.39                             116   -0.06 8  239 337 
 SML  HN ES   1   1115 39.39                             116    0.16 6  239 337 
 SML  HZ I        1115 42.04         6.3 0.10            117            239 337 
 CHI  HZ EP   1   1115 12.88                             115    0.05 6  247 193 
 CHI  HE ES       1115 42.44                             115    0.76 8  247 193 
 CHI  HZ I        1115 45.90         2.3 0.43            116            247 193 
                                                                                
