 2014 1024 1440 57.3 L   6.231 -73.790 96.2  RSN  5 0.4 1.3LRSN                1
 GAP=179        0.86       4.4     3.4  8.2  0.1305E+01 -0.5783E+01  0.1082E+01E
 Epicentro: LANDAZURI - SANTANDER                                              3
 ACTION:UPD 14-11-29 23:56 OP:nd   STATUS:               ID:20141024144057 L   I
 OLDACT:ARG 14-10-27 17:43 OP:cam  STATUS:               ID:20141024143814     3
 2014-10-24-1438-14M.COL___283                                                 6
 STAT SP IPHASW D HRMM SECON CODA AMPLIT PERI AZIMU VELO AIN AR TRES W  DIS CAZ7
 BAR2 SZ EP       1441 14.59                             138    0.3110 78.2  59 
 BAR2 SZ ES   1   1441 28.16                             138    0.64 7 78.2  59 
 BAR2 SZ I        1441 29.69         4.1 0.18            143           78.2  59 
 PTB  HZ EP       1441 14.00                             137   -0.2310 81.2 295 
 PTB  HE ES       1441 27.34                             137   -0.0810 81.2 295 
 PTB  HN I        1441 30.71        16.4 0.20            141           81.2 295 
 RUS  HZ EP       1441 15.37                             135    0.0110 86.8 116 
 RUS  HE ES   1   1441 29.05                             135   -0.39 7 86.8 116 
 RUS  HZ I        1441 31.04         1.9 0.40            141           86.8 116 
 BRR  HZ EP       1441 15.93                             131    0.3010 97.2   5 
 BRR  HN ES       1441 29.89                             131   -0.0210 97.2   5 
 BRR  HZ I        1441 34.17        14.6 0.32            135           97.2   5 
 PAM  SZ EP       1441 24.22                             115    0.18 9  172  44 
 PAM  SN ES       1441 44.18                             115   -0.71 9  172  44 
 PAM  SZ I        1441 45.81         1.3 0.34            119            172  44 
                                                                                
