 2011 1024 1018 19.1 L   6.774 -73.125141.0  RSN  6 0.2 1.6LRSN                1
 GAP=140        0.48       3.5     5.1  5.1 -0.2103E+01  0.1752E+01  0.3524E+01E
 Epicentro: LOS SANTOS - SANTANDER                                             3
 ACTION:UPD 12-07-13 16:05 OP:ep   STATUS:               ID:20111024101819 L   I
 2011-10-24-1000-00M.COL___175                                                 6
 STAT SP IPHASW D HRMM SECON CODA AMPLIT PERI AZIMU VELO AIN AR TRES W  DIS CAZ7
 BAR2 SZ EP       1018 37.98                             171   -0.1810 21.0 198 
 BAR2 SZ ES   2   1018 52.69                             171   -0.29 5 21.0 198 
 BAR2 SZ I        1018 54.33        11.7 0.20                          21.0 198 
 BTL  SZ EP       1018 38.44                             171    0.2510 22.5 315 
 GIR2 SZ EP       1018 38.08                             166   -0.2710 34.6 347 
 GIR2 SZ ES   2   1018 53.10                             166   -0.22 5 34.6 347 
 BRR  HZ EP       1018 39.90                             151   -0.0810 74.6 300 
 BRR  HZ I        1018 40.25        14.6 0.10                          74.6 300 
 BRR  HE ES   2   1018 56.63                             151    0.40 5 74.6 300 
 PAM  SZ EP       1018 40.98                             150    0.0710 78.3  37 
 PAM  SN ES   1   1018 57.99                             150    0.11 7 78.3  37 
 RUS  HZ EP       1018 42.33                             144    0.1210 97.5 177 
 RUS  HN ES   2   1019  0.40                             144    0.20 5 97.5 177 
 RUS  HZ I        1019  1.37         2.8 0.20                          97.5 177 
                                                                                
