 2012  124 1208 58.1 L   6.782 -73.129151.2  RSN  7 0.4 1.8LRSN                1
 GAP=140        0.88       7.2     7.4  8.1 -0.6439E+01  0.7376E+01  0.1819E+02E
 Epicentro: LOS SANTOS - SANTANDER                                             3
 ACTION:UP  12-02-03 08:20 OP:REBC STATUS:               ID:20120124120858 L   I
 2012-01-24-1200-00M.COL___187                                                 6
 STAT SP IPHASW D HRMM SECON CODA AMPLIT PERI AZIMU VELO SNR AR TRES W  DIS CAZ7
 BAR2 SZ EP       12 9 18.25                             172    -0.110   22 196 
 BAR2 SZ I        12 9 18.43        14.8 0.40                            22 196 
 BAR2 SZ ES   1   12 9 33.93                             172    -0.2 7   22 196 
 GIR2 SZ EP       12 9 18.65                             166     0.210   34 348 
 GIR2 SZ ES   3   12 9 34.13                             166    -0.2 2   34 348 
 BRR  HZ EP       12 9 20.23                             152     0.310   74 299 
 BRR  HN ES   1   12 9 37.58                             152     0.6 7   74 299 
 BRR  HZ I        12 9 39.91        22.3 0.12                            74 299 
 PAM  SZ EP       12 9 21.18                             151     0.310   78  38 
 PAM  SN ES   1   12 9 38.23                             151    -0.5 7   78  38 
 RUS  HZ EP       12 9 22.17                             146    -0.110   99 177 
 RUS  HZ I        12 9 23.47         3.1 0.18                            99 177 
 RUS  HN ES   3   12 9 41.68                             146     0.6 2   99 177 
 PTB  HZ EP       12 9 24.95                             133    -0.7 9  149 260 
 PTB  HZ I        12 9 52.22        10.2 0.34                           149 260 
 CHI  HZ EP   2   12 9 36.13                             119     0.2 4  247 196 
                                                                                
