 2012  124 1827  9.0 L   6.755 -73.146149.6  RSN  6 0.4 1.6LRSN                1
 GAP=139        0.88       6.4     5.8  8.0 -0.7086E+01  0.7864E+01 -0.4792E+01E
 Epicentro: LOS SANTOS - SANTANDER                                             3
 ACTION:UP  12-02-03 08:20 OP:REBC STATUS:               ID:20120124182709 L   I
 2012-01-24-1820-00M.COL___187                                                 6
 STAT SP IPHASW D HRMM SECON CODA AMPLIT PERI AZIMU VELO SNR AR TRES W  DIS CAZ7
 BAR2 SZ EP       1827 28.76                             173    -0.310   18 193 
 BAR2 SZ ES   1   1827 44.74                             173     0.1 7   18 193 
 BAR2 SZ I        1827 45.35        10.7 0.24                            18 193 
 GIR2 SZ EP   3   1827 28.45                             166    -0.8 2   36 352 
 BRR  HZ EP       1827 31.10                             152     0.410   74 302 
 BRR  HZ I        1827 31.33        12.3 0.54                            74 302 
 BRR  HN ES   1   1827 48.13                             152     0.5 7   74 302 
 PAM  SZ EP       1827 32.11                             150     0.210   81  37 
 PAM  SN ES   1   1827 49.12                             150    -0.6 7   81  37 
 RUS  HZ EP   2   1827 32.87                             146     0.1 5   96 176 
 RUS  HE ES   1   1827 51.47                             146     0.1 7   96 176 
 RUS  HZ I        1827 53.27         3.3 0.48                            96 176 
 PTB  HZ EP       1827 36.10                             133    -0.1 9  147 261 
 PTB  HN ES   1   1827 56.82                             133    -0.6 7  147 261 
 PTB  HZ I        1827 59.42         3.0 0.26                           147 261 
                                                                                
