 2014  124 1330 52.1 L   6.808 -73.134146.3  RSN 16 0.6 2.5LRSN 3.1WRSN        1
 SPEC AVERAGE  MO 13.7 ST245.7 OM  1.7 f0 15.6 R1.4512 AL 0.00 WI 20.0 MW  3.1 3
 SPEC SD       MO  0.4 ST373.4 OM  0.5 f0 13.7 R3.9934 AL      WI      MW  0.3 3
 GAP= 87        1.26       3.4     3.7  5.8 -0.4700E+01 -0.1004E+01  0.3016E+01E
 Epicentro: LOS SANTOS - SANTANDER                                             3
 SPEC BAR2SH Z MO 13.7 ST 28.8 OM  1.9 f0 9.43 R0.2040 AL-0.00 WI 20.0 MW  3.1 3
 SPEC BAR2SH Z T133125 K 0.050 GD  148 VS 5.20 DE 3.20 Q0750.0 QA 1.50 VS 5.20 3
 SPEC BRR HH Z MO 13.5 ST 62.5 OM  1.6 f0 14.9 R0.1291 AL-0.00 WI 20.0 MW  2.9 3
 SPEC BRR HH Z T133128 K 0.050 GD  163 VS 5.20 DE 3.20 Q0750.0 QA 1.50 VS 5.20 3
 SPEC PTB HH Z MO 13.5 ST999.9 OM  1.5 f0 40.0 R0.0481 AL-0.00 WI 20.0 MW  2.9 3
 SPEC PTB HH Z T133138 K 0.050 GD  208 VS 5.20 DE 3.20 Q0750.0 QA 1.50 VS 5.20 3
 SPEC TAM HH Z MO 13.7 ST  5.5 OM  1.7 f0 5.63 R0.3417 AL-0.00 WI 20.0 MW  3.1 3
 SPEC TAM HH Z T133140 K 0.050 GD  212 VS 5.20 DE 3.20 Q0750.0 QA 1.50 VS 5.20 3
 SPEC OCA HH Z MO 15.0 ST0.001 OM  3.0 f00.131 R 14.69 AL-0.00 WI 20.0 MW  4.0 3
 SPEC OCA HH Z T133141 K 0.050 GD  216 VS 5.20 DE 3.20 Q0750.0 QA 1.50 VS 5.20 3
 SPEC SPBCHH Z MO 13.5 ST228.1 OM  1.5 f0 22.4 R0.0859 AL-0.00 WI 20.0 MW  3.0 3
 SPEC SPBCHH Z T133141 K 0.050 GD  220 VS 5.20 DE 3.20 Q0750.0 QA 1.50 VS 5.20 3
 SPEC ZAR HH Z MO 13.6 ST583.1 OM  1.5 f0 29.3 R0.0657 AL-0.00 WI 20.0 MW  3.0 3
 SPEC ZAR HH Z T133147 K 0.050 GD  251 VS 5.20 DE 3.20 Q0750.0 QA 1.50 VS 5.20 3
 SPEC NOR HH Z MO 13.4 ST 37.1 OM  1.3 f0 13.2 R0.1458 AL-0.00 WI 20.0 MW  2.9 3
 SPEC NOR HH Z T133154 K 0.050 GD  277 VS 5.20 DE 3.20 Q0750.0 QA 1.50 VS 5.20 3
 SPEC SML HH Z MO 13.6 ST999.9 OM  1.5 f0 40.0 R0.0481 AL-0.00 WI 20.0 MW  3.0 3
 SPEC SML HH Z T133155 K 0.050 GD  283 VS 5.20 DE 3.20 Q0750.0 QA 1.50 VS 5.20 3
 SPEC CHI HH Z MO 13.5 ST0.412 OM  1.4 f0 2.69 R0.7152 AL-0.00 WI 20.0 MW  3.0 3
 SPEC CHI HH Z T133157 K 0.050 GD  289 VS 5.20 DE 3.20 Q0750.0 QA 1.50 VS 5.20 3
 SPEC HEL HH Z MO 13.3 ST  2.6 OM  1.1 f0 6.14 R0.3134 AL-0.00 WI 20.0 MW  2.8 3
 SPEC HEL HH Z T1332 1 K 0.050 GD  309 VS 5.20 DE 3.20 Q0750.0 QA 1.50 VS 5.20 3
 SPECGUY2CHH Z MO 13.6 ST  0.6 OM  1.4 f0 2.85 R 0.675 AL-0.00 WI 20.0 MW  3.0 3
 SPECGUY2CHH Z T1332 8 K 0.050 GD336.5 VS 5.20 DE 3.20 Q0750.0 QA 1.50 VS 5.20 3
 SPEC PRA HH Z MO 13.7 ST0.870 OM  1.4 f0 3.05 R0.6308 AL-0.00 WI 20.0 MW  3.1 3
 SPEC PRA HH Z T133226 K 0.050 GD  419 VS 5.20 DE 3.20 Q0750.0 QA 1.50 VS 5.20 3
 OLDACT:REG 14-01-24 15:59 OP:stll STATUS:               ID:20140124132820     3
 ACTION:UPD 14-03-13 09:58 OP:ep   STATUS:               ID:20140124133052 L   I
 OLDACT:UP  14-01-24 17:54 OP:stll STATUS:               ID:20140124132820     3
 2014-01-24-1328-20M.COL___234                                                 6
 STAT SP IPHASW D HRMM SECON CODA AMPLIT PERI AZIMU VELO AIN AR TRES W  DIS CAZ7
 BAR2 SZ IP     D 1331 12.11                             170    0.3410 24.4 193 
 BAR2 SZ ES       1331 26.57                             170   -0.5710 24.4 193 
 BAR2 SZ I        1331 28.70       109.4 0.26            167           24.4 193 
 BRR  HZ IP     C 1331 13.95                             152    0.6510 71.9 297 
 BRR  HN ES       1331 30.48                             152    0.6210 71.9 297 
 BRR  SZ I        1331 37.54        37.7 0.22            159           71.9 297 
 PAM  SZ EP       1331 14.76                             151    0.5210 75.9  39 
 PAM  SN ES       1331 31.71                             151    0.1710 75.9  39 
 PAM  SZ I        1331 36.58        20.8 0.44            150           75.9  39 
 PTB  HZ EP       1331 18.63                             132   -0.56 9  149 259 
 PTB  HN ES       1331 39.82                             132   -0.53 9  149 259 
 PTB  SZ I        1331 44.77        44.3 0.10            135            149 259 
 TAM  HZ IP     D 1331 20.17                             131    0.49 9  154 105 
 TAM  SZ I        1332  0.26        39.5 0.28            128            154 105 
 OCA  HZ EP       1331 20.82                             130    0.48 9  160 353 
 OCA  HN ES       1331 42.65                             130    0.25 9  160 353 
 OCA  SZ I        1331 47.92        33.5 0.20            132            160 353 
 SPBC HZ EP       1331 20.97                             129    0.24 9  165 219 
 SPBC HE ES       1331 43.18                             129    0.08 9  165 219 
 SPBC SZ I        1331 50.01        46.8 0.28            130            165 219 
 ZAR  HZ EP       1331 24.76                             122    0.14 9  205 292 
 ZAR  HE ES       1331 49.49                             122   -0.53 9  205 292 
 ZAR  SZ I        1331 56.89        43.0 0.36            126            205 292 
 NOR  HZ EP       1331 27.93                             118   -0.05 8  236 234 
 NOR  HE ES       1331 55.51                             118   -0.48 8  236 234 
 NOR  SZ I        1332  2.98        27.9 0.28            120            236 234 
 SML  HZ EP       1331 28.30                             118   -0.38 8  243 335 
 SML  HN ES       1331 56.90                             118   -0.35 8  243 335 
 SML  SZ I        1332  1.73        48.7 0.08            120            243 335 
 CHI  HZ EP       1331 29.97                             117    0.06 8  250 195 
 CHI  HN ES       1331 59.03                             117   -0.40 8  250 195 
 CHI  SZ I        1332  5.11        17.5 0.40            117            250 195 
 HEL  HZ IP     D 1331 33.75                             115    1.30 8  273 256 
 HEL  HN ES       1332  3.27                             115   -0.69 8  273 256 
 HEL  SZ I        1332 11.16        10.1 0.28            117            273 256 
 SOCV BZ EP       1331 34.28                             112   -0.67 7  300  57 
 GUY2CHZ EP       1331 36.15                             112    0.29 7  303 235 
 GUY2CHN ES       1332 10.03                             112    0.01 7  303 235 
 GUY2CSZ I        1332 20.57        16.9 0.44                           303 235 
 SDV  BZ EP       1331 41.62                             108   -0.32 6  359  50 
 SDV  BN ES       1332 18.87                             108   -1.98 6  359  50 
 PRA  HZ EP       1331 45.52                             107   -0.23 6  393 210 
 PRA  HN ES       1332 27.78                             107    0.14 6  393 210 
 PRA  SZ I        1332 31.26        19.0 0.32            107            393 210 
                                                                                
