 2016 1124 1824 59.5 L   6.776 -73.144141.3  RSN  8 0.3 1.8LRSN                1
 GAP=153        0.59       2.6     2.7  3.8 -0.1607E+01  0.1188E+01  0.3725E+01E
 Epicentro: LOS SANTOS - SANTANDER                                             3
 ACTION:UPD 17-10-26 21:11 OP:lp   STATUS:               ID:20161124182459 L   I
 OLDACT:UP  16-11-25 00:19 OP:edw  STATUS:               ID:20161124181747     3
 OLDACT:REG 16-11-24 20:34 OP:edw  STATUS:               ID:20161124181747     3
 2016-11-24-1818-00M.COL___343                                                 6
 STAT SP IPHASW D HRMM SECON CODA AMPLIT PERI AZIMU VELO AIN AR TRES W  DIS CAZ7
 BAR2 EZ IP     C 1825 18.42                             171   -0.1210 20.8 192 
 BAR2 EZ ES       1825 33.31                             171   -0.0810 20.8 192 
 BAR2 EZ I        1825 34.43        16.6 0.16            171           20.8 192 
 BRR  HZ EP       1825 20.42                             151    0.1710 72.6 300 
 BRR  HN ES       1825 36.38                             151   -0.0510 72.6 300 
 PAM  EZ EP     C 1825 21.26                             149   -0.0910 79.3  38 
 PAM  EN ES       1825 38.60                             149    0.2010 79.3  38 
 PAM  EZ I        1825 42.28         5.4 0.16            151           79.3  38 
 PTB  HZ EP   9   1825 25.35                             131   -0.72 0  147 260 
 PTB  HN ES       1825 46.08                             131    0.00 9  147 260 
 PTB  HZ I        1825 49.94         9.5 0.16            129            147 260 
 ZAR  HZ EP   2   1825 31.96                             121    0.18 4  205 293 
 ZAR  HN ES       1825 56.89                             121   -0.06 9  205 293 
 ZAR  HZ I        1826  3.69         6.7 0.15            120            205 293 
 NOR  HZ EP       1825 34.76                             118   -0.06 8  233 235 
 NOR  HN ES       1826  2.25                             118   -0.13 8  233 235 
 NOR  HZ I        1826  7.58         5.9 0.18            117            233 235 
 CHI  HZ EP   2   1825 36.14                             116   -0.54 4  246 195 
 CHI  HN ES       1826  5.44                             116   -0.24 8  246 195 
 PRA  HZ EP       1825 52.45                             106   -0.16 6  390 210 
 PRA  HN ES       1826 35.15                             106    1.11 6  390 210 
 PRA  HZ I        1826 41.77         2.4 0.32            106            390 210 
                                                                                
