 2012 1124 1114  0.3 L   6.818 -73.171146.8  RSN  4 0.1 1.4LRSN                1
 GAP=144        0.41       4.7     3.4 10.2 -0.4735E+00 -0.5767E+01 -0.2948E+02E
 Epicentro: LOS SANTOS - SANTANDER                                             3
 ACTION:UPD 12-12-05 15:35 OP:}ep  STATUS:               ID:20121124111400 L   I
 2012-11-24-1110-00M.COL___234                                                 6
 STAT SP IPHASW D HRMM SECON CODA AMPLIT PERI AZIMU VELO AIN AR TRES W  DIS CAZ7
 BAR2 SZ EP       1114 19.92                             170   -0.1710 25.0 183 
 PAM  SZ EP       1114 22.71                             151    0.0710 77.7  42 
 RUS  HZ EP   1   1114 24.53                             143    0.22 7  103 175 
 RUS  HE ES   1   1114 42.98                             143   -0.06 7  103 175 
 RUS  HE I        1114 43.67         5.8 0.33                           103 175 
 PTB  HZ EP   2   1114 26.91                             132   -0.22 5  145 258 
 PTB  HN ES   1   1114 48.18                             132    0.12 7  145 258 
 PTB  HZ I        1114 53.48         2.1 0.24                           145 258 
                                                                                
