 2016 1024 1455 22.4 L   6.837 -73.313120.5  RSN  9 0.3 1.6LRSN                1
 GAP=106        0.76       3.5     3.5  4.8 -0.2396E+01  0.3092E+01  0.4539E+01E
 Epicentro: ZAPATOCA - SANTANDER                                               3
 ACTION:UPD 16-11-09 19:22 OP:rebc STATUS:               ID:20161024145522 L   I
 OLDACT:UP  16-10-24 23:03 OP:edw  STATUS:               ID:20161024144744     3
 OLDACT:REG 16-10-24 21:02 OP:edw  STATUS:               ID:20161024144744     3
 2016-10-24-1448-00M.COL___364                                                 6
 STAT SP IPHASW D HRMM SECON CODA AMPLIT PERI AZIMU VELO AIN AR TRES W  DIS CAZ7
 BAR2 EZ IP     C 1455 39.30                             165    0.1110 30.6 152 
 BAR2 EZ ES       1455 52.28                             165   -0.0210 30.6 152 
 BRR  HZ EP       1455 39.59                             155   -0.2110 53.3 304 
 BRR  HN ES       1455 53.62                             155    0.2310 53.3 304 
 PAM  EZ EP   2   1455 42.45                             142   -0.28 5 87.6  51 
 PAM  EE ES   2   1455 58.82                             142    0.23 5 87.6  51 
 PAM  EZ I        1456  1.12         5.7 0.26            144           87.6  51 
 RUS  HZ EP       1455 44.44                             136    0.1210  107 166 
 RUS  HN ES       1456  1.55                             136    0.1210  107 166 
 RUS  HZ I        1456  2.95         4.3 0.16            135            107 166 
 PTB  HZ IP   9 C 1455 44.43                             129   -1.33 0  131 256 
 PTB  HN ES       1456  2.33                             130   -0.3310  131 256 
 PTB  HZ I        1456  6.52         7.2 0.26            130            131 256 
 SPBC HZ EP       1455 48.41                             124    0.10 9  156 213 
 SPBC HN ES       1456  7.78                             124   -0.75 9  156 213 
 SPBC HZ I        1456 12.21         9.2 0.20            124            156 213 
 NOR  HZ EP       1455 54.88                             114   -0.54 8  222 231 
 NOR  HN ES       1456 21.68                             114    0.50 8  222 231 
 NOR  HZ I        1456 22.86         3.2 0.16            114            222 231 
 CHI  HZ EP   2   1455 59.29                             111    0.49 4  248 191 
 CHI  HN ES   2   1456 27.26                             111    0.07 4  248 191 
 CHI  HZ I        1456 33.30         2.9 0.42            112            248 191 
 GUY2CHZ EP   4   1456  4.36                             108    0.85 0  289 232 
 GUY2CHN ES       1456 35.88                             108    0.29 7  289 232 
 GUY2CHZ I        1456 40.34         2.1 0.30                           289 232 
                                                                                
