 2010  324 1912  3.3 L   6.782 -72.986140.9  RSN  8 0.5 2.8LRSN                1
 GAP=212        0.89       5.5    12.2  9.6 -0.1878E+02  0.1507E+02  0.1637E+02E
 Epicentro: CEPITA - SANTANDER                                                 3
 ACTION:UP  10-08-24 09:55 OP:vdl  STATUS:               ID:20100324191203 L   I
 2010-03-24-1910-29S.COL___098                                                 6
 STAT SP IPHASW D HRMM SECON CODA AMPLIT PERI AZIMU VELO SNR AR TRES W  DIS CAZ7
 BAR2 SZ IP       1912 22.92                             168     0.410   30 226 
 BAR2 SZ ES   2   1912 37.04                             168    -0.5 5   30 226 
 BRR  HZ IP       1912 24.88                             147    -0.110   88 294 
 BRR  HZ I        1912 25.07       282.6 0.16                            88 294 
 BRR  HN ES   2   1912 42.01                             147     0.1 5   88 294 
 OCA  SZ EP   1   1912 31.39                             128    -0.3 7  165 347 
 OCA  SZ ES   2   1912 54.06                             128     0.2 5  165 347 
 CHI  HZ EP   1   1912 41.06                             116     0.0 6  252 199 
 CHI  HE ES   2   1913  9.89                             116    -0.7 4  252 199 
 CHI  HZ I        1913 13.72        21.0 0.43                           252 199 
 ROSC BZ EP   1   1912 42.84                             115     0.8 6  261 215 
 ROSC BN ES   2   1913 12.39                             115     0.1 4  261 215 
 ROSC BZ I        1913 19.46        25.7 0.29                           261 215 
 HEL  HZ EP   1   1912 44.25                             113    -0.9 5  289 257 
 RREF BZ EP   1   1912 51.25                             109     0.6 5  334 232 
 RREF BN ES   2   1913 28.44                             109     0.8 3  334 232 
 RREF BZ I        1913 34.33        30.2 0.41                           334 232 
 PRA  HZ EP   1   1912 56.77                             105    -0.8 4  399 212 
 PRA  HN ES   2   1913 38.73                             105    -1.1 3  399 212 
 PRA  HZ I        1913 43.55        27.8 0.29                           399 212 
                                                                                
