 2010  824 1842 45.6 L   6.768 -73.132143.0  RSN  6 0.4 1.8LRSN                1
 GAP=166        0.94       5.2    10.0  7.5  0.8789E+01 -0.5958E+01  0.1093E+02E
 Epicentro: LOS SANTOS - SANTANDER                                             3
 ACTION:UP  10-09-07 10:57 OP:vdl  STATUS:               ID:20100824184245 L   I
 2010-08-24-1839-55S.COL___122                                                 6
 STAT SP IPHASW D HRMM SECON CODA AMPLIT PERI AZIMU VELO SNR AR TRES W  DIS CAZ7
 BAR2 SZ EP       1843  4.55                             172    -0.310   20 196 
 BAR2 SZ ES   1   1843 19.33                             172    -0.5 7   20 196 
 BAR2 SZ I        1843 21.21        20.3 0.54                            20 196 
 BRR  HZ EP       1843  6.43                             152    -0.210   74 300 
 BRR  HN ES       1843 23.18                             152     0.210   74 300 
 RUS  HZ EP       1843  8.52                             144    -0.310   97 177 
 RUS  HN ES   1   1843 27.31                             144     0.4 7   97 177 
 RUS  HZ I        1843 28.45        10.5 0.14                            97 177 
 GUE  SZ EP   1   1843 11.03                             139     0.8 7  120  11 
 GUE  SZ I        1843 32.98         2.9 0.79                           120  11 
 CHI  HZ EP       1843 22.90                             117     0.1 8  246 196 
 CHI  HE ES   2   1843 52.80                                     1.0 4  246 196 
 CHI  HZ I        1843 58.23         6.1 1.37                           246 196 
 PRA  HZ EP   1   1843 38.37                                    -0.3 4  390 210 
 PRA  HN ES   1   1844 20.00                             106    -0.2 4  390 210 
 PRA  HZ I        1844 26.77         5.1 1.02                           390 210 
                                                                                
