 2013  824 1828  6.6 L   6.820 -73.183144.0  RSN 18 0.5 2.5LRSN 2.7WRSN        1
 SPEC AVERAGE  MO 13.1 ST 17.3 OM  1.5 f0 7.85 R0.2816 AL 0.00 WI 20.0 MW  2.7 3
 SPEC SD       MO  0.2 ST 34.0 OM  0.2 f0 5.29 R0.1600 AL      WI      MW  0.1 3
 GAP= 68        1.23       2.7     3.8  5.5 -0.2868E+01  0.2804E+01  0.2259E+01E
 Epicentro: ZAPATOCA - SANTANDER                                               3
 SPEC BAR2SH Z MO 13.1 ST  2.0 OM  1.5 f0 5.28 R0.2943 AL-0.00 WI 20.0 MW  2.7 3
 SPEC BAR2SH Z T182839 K 0.000 GD  146 VS 4.20 DE 3.20 Q0300.0 QA 0.60 VS 4.20 3
 SPEC BRR HH Z MO 13.1 ST  2.5 OM  1.5 f0 5.56 R0.2795 AL-0.00 WI 20.0 MW  2.7 3
 SPEC BRR HH Z T182843 K 0.000 GD  158 VS 4.20 DE 3.20 Q0300.0 QA 0.60 VS 4.20 3
 SPEC PAM SH Z MO 13.3 ST0.262 OM  1.7 f0 2.22 R0.7000 AL-0.00 WI 20.0 MW  2.8 3
 SPEC PAM SH Z T182844 K 0.000 GD  163 VS 4.20 DE 3.20 Q0300.0 QA 0.60 VS 4.20 3
 SPEC RUS HH Z MO 12.8 ST0.500 OM  1.2 f0 3.94 R0.3944 AL-0.00 WI 20.0 MW  2.5 3
 SPEC RUS HH Z T182847 K 0.000 GD  177 VS 4.20 DE 3.20 Q0300.0 QA 0.60 VS 4.20 3
 SPEC PTB HH Z MO 12.8 ST 51.2 OM  1.1 f0 19.0 R0.0818 AL-0.00 WI 20.0 MW  2.5 3
 SPEC PTB HH Z T182851 K 0.000 GD  203 VS 4.20 DE 3.20 Q0300.0 QA 0.60 VS 4.20 3
 SPEC OCA HH Z MO 13.0 ST  9.1 OM  1.3 f0 9.03 R0.1721 AL-0.00 WI 20.0 MW  2.6 3
 SPEC OCA HH Z T182853 K 0.000 GD  213 VS 4.20 DE 3.20 Q0300.0 QA 0.60 VS 4.20 3
 SPEC SPBCHH Z MO 13.2 ST 11.5 OM  1.5 f0 8.32 R0.1868 AL-0.00 WI 20.0 MW  2.8 3
 SPEC SPBCHH Z T182855 K 0.000 GD  216 VS 4.20 DE 3.20 Q0300.0 QA 0.60 VS 4.20 3
 SPEC ZAR HH Z MO 13.1 ST  8.9 OM  1.3 f0 8.56 R0.1815 AL-0.00 WI 20.0 MW  2.7 3
 SPEC ZAR HH Z T1829 2 K 0.000 GD  245 VS 4.20 DE 3.20 Q0300.0 QA 0.60 VS 4.20 3
 SPEC NOR HH Z MO 13.0 ST  3.7 OM  1.2 f0 6.63 R0.2344 AL-0.00 WI 20.0 MW  2.6 3
 SPEC NOR HH Z T1829 7 K 0.000 GD  273 VS 4.20 DE 3.20 Q0300.0 QA 0.60 VS 4.20 3
 SPEC SML HH Z MO 13.1 ST126.2 OM  1.3 f0 19.8 R0.0785 AL-0.00 WI 20.0 MW  2.7 3
 SPEC SML HH Z T1829 9 K 0.000 GD  279 VS 4.20 DE 3.20 Q0300.0 QA 0.60 VS 4.20 3
 SPEC CHI HH Z MO 13.3 ST  3.5 OM  1.4 f0 5.51 R0.2820 AL-0.00 WI 20.0 MW  2.8 3
 SPEC CHI HH Z T182912 K 0.000 GD  288 VS 4.20 DE 3.20 Q0300.0 QA 0.60 VS 4.20 3
 SPEC PRA HH Z MO 13.6 ST  2.0 OM  1.6 f0 3.45 R0.4504 AL-0.00 WI 20.0 MW  3.0 3
 SPEC PRA HH Z T182940 K 0.000 GD  417 VS 4.20 DE 3.20 Q0300.0 QA 0.60 VS 4.20 3
 SPEC ORTCHH Z MO 13.4 ST  3.4 OM  1.4 f0 4.78 R0.3251 AL-0.00 WI 20.0 MW  2.9 3
 SPEC ORTCHH Z T182940 K 0.000 GD  420 VS 4.20 DE 3.20 Q0300.0 QA 0.60 VS 4.20 3
 OLDACT:DUP 13-08-24 20:19 OP:stll STATUS:               ID:20130824181850d    3
 ACTION:UPD 14-01-14 09:06 OP:ep   STATUS:               ID:20130824182806 L   I
 OLDACT:UP  13-08-24 20:28 OP:stll STATUS:               ID:20130824181850d    3
 2013-08-24-1818-49M.COL___220                                                 6
 STAT SP IPHASW D HRMM SECON CODA AMPLIT PERI AZIMU VELO AIN AR TRES W  DIS CAZ7
 BAR2 SZ EP       1828 26.20                             170    0.1010 25.2 180 
 BAR2 SZ ES       1828 40.60                             170   -0.6810 25.2 180 
 BAR2 SZ I        1828 42.87        63.7 0.18            168           25.2 180 
 BRR  HZ IP     C 1828 28.04                             154    0.7010 66.5 299 
 BRR  HN ES       1828 44.85                             154    1.3610 66.5 299 
 BRR  SZ I        1828 45.67        45.3 0.10            155           66.5 299 
 PAM  SZ EP       1828 29.18                             150    0.4410 78.4  43 
 PAM  SN ES       1828 45.95                             150   -0.0210 78.4  43 
 PAM  SZ I        1828 47.88        51.0 0.58            146           78.4  43 
 RUS  HZ EP       1828 30.18                             143   -0.2310  103 174 
 RUS  HN ES       1828 49.07                             143    0.1210  103 174 
 RUS  SZ I        1828 49.93        22.0 0.26            140            103 174 
 GRA  SZ EP       1828 31.72                             137    0.0510  125  20 
 GRA  SZ ES       1828 51.29                             137    0.1110  125  20 
 GRA  SZ I        1828 57.01      2696.3 2.74            134            125  20 
 PTB  HZ EP       1828 32.85                             132   -0.29 9  144 258 
 PTB  HN ES       1828 53.07                             132   -0.74 9  144 258 
 PTB  SZ I        1829  1.08        18.4 0.16            132            144 258 
 CAPV BZ EP       1828 34.20                             131    0.22 9  150  40 
 OCA  HZ EP       1828 33.82                             130   -0.75 9  158 355 
 OCA  HN ES       1828 55.46                             130   -0.89 9  158 355 
 OCA  SZ I        1829  0.70        22.1 0.18            128            158 355 
 TAM  HZ IP     D 1828 34.61                             129   -0.00 9  160 105 
 TAM  SZ I        1829  9.96        12.0 1.82            125            160 105 
 SPBC HZ EP       1828 35.08                             129    0.15 9  162 217 
 SPBC HN ES       1828 57.31                             129    0.31 9  162 217 
 SPBC SZ I        1829  1.84        34.0 0.34            127            162 217 
 ZAR  HZ EP       1828 38.27                             123   -0.23 9  199 292 
 ZAR  HN ES       1829  3.53                             123    0.19 9  199 292 
 ZAR  SZ I        1829 10.94        21.6 0.42            122            199 292 
 NOR  HZ EP       1828 42.34                             118    0.28 8  233 233 
 NOR  HN ES       1829  9.32                             118   -0.35 8  233 233 
 NOR  SZ I        1829 15.83        19.0 0.16            117            233 233 
 SML  HZ EP       1828 42.45                             118   -0.32 8  240 336 
 SML  HN ES       1829 10.83                             118   -0.11 8  240 336 
 SML  SZ I        1829 14.51        44.2 0.10            116            240 336 
 CHI  HZ EP       1828 44.40                             117    0.03 8  250 194 
 CHI  HN ES       1829 13.74                             117   -0.05 8  250 194 
 CHI  SZ I        1829 16.83        16.8 0.48            115            250 194 
 VIL  SN ES       1829 23.25                             112   -0.82 7  305 191 
 RREF HZ EP       1828 53.96                             111    1.44 7  320 229 
 RREF HN ES       1829 28.14                             111   -0.17 7  320 229 
 RREF SZ I        1829 35.23        11.4 0.32            109            320 229 
 PRA  HZ EP       1829  0.09                             106   -0.01 6  392 209 
 PRA  HN ES       1829 41.61                             106   -0.18 6  392 209 
 PRA  SZ I        1829 47.99        11.4 0.26            105            392 209 
 ORTC HZ EP       1829  0.66                             106    0.23 6  395 215 
 ORTC HN ES       1829 42.20                             106   -0.19 6  395 215 
 ORTC SZ I        1829 47.03         7.1 0.54            104            395 215 
                                                                                
