 2016  624 1402 34.8 L   5.955 -73.807113.8  RSN  6 0.4 1.4LRSN                1
 GAP=126        0.95       5.8     3.4  9.4 -0.6143E+01  0.3166E+01  0.8866E+01E
 Epicentro: SUCRE - SANTANDER                                                  3
 ACTION:UPD 16-07-21 22:22 OP:rebc STATUS:               ID:20160624140234 L   I
 OLDACT:REG 16-06-24 23:18 OP:dnl  STATUS:               ID:20160624135748     3
 2016-06-24-1357-48M.COL___331                                                 6
 STAT SP IPHASW D HRMM SECON CODA AMPLIT PERI AZIMU VELO AIN AR TRES W  DIS CAZ7
 SPBC HZ EP   2   14 2 50.93                             157   -0.28 5 44.5 221 
 SPBC HN ES   2   14 3  3.66                             157   -0.32 5 44.5 221 
 SPBC HZ I        14 3  6.61        10.5 0.30                          44.5 221 
 RUS  HZ EP       14 2 53.87                             143   -0.1410 80.5  95 
 RUS  HN ES       14 3  8.64                             143   -0.3110 80.5  95 
 RUS  HZ I        14 3  9.53         2.0 0.14                          80.5  95 
 PTB  HZ EP   2   14 2 54.05                             137   -0.58 5 96.6 312 
 PTB  HE ES       14 3  9.61                             137   -0.4410 96.6 312 
 PTB  HZ I        14 3 14.27         3.3 0.40                          96.6 312 
 BAR2 EZ EP       14 2 55.41                             136    0.3010 98.7  44 
 BAR2 EZ ES       14 3 11.39                             136    0.4810 98.7  44 
 BAR2 EZ I        14 3 12.89        14.4 0.28                          98.7  44 
 NOR  HZ EP       14 2 56.97                             129   -0.2910  125 250 
 NOR  HN ES       14 3 15.48                             129    0.7410  125 250 
 NOR  HZ I        14 3 16.62        11.3 0.14                           125 250 
 GUY2CHZ EP   4   14 3  6.37                             116    1.82 0  191 245 
 GUY2CHN ES   2   14 3 27.64                             116   -0.07 4  191 245 
 GUY2CHZ I        14 3 32.93         2.0 0.36                           191 245 
                                                                                
