 2012  424 1509 14.6 L   6.763 -73.153144.0  RSN 10 0.4 2.5LRSN                1
 GAP=137        0.92       4.2     4.5  6.5 -0.1481E+01  0.5629E+01  0.7226E+01E
 Epicentro: LOS SANTOS - SANTANDER                                             3
 ACTION:UPD 12-07-05 11:55 OP:tino STATUS:               ID:20120424150915dL   I
 2012-04-24-1506-51M.COL___177                                                 6
 STAT SP IPHASW D HRMM SECON CODA AMPLIT PERI AZIMU VELO AIN AR TRES W  DIS CAZ7
 BAR2 SZ EP       15 9 33.87                             172     0.010   19 190 
 BAR2 SZ ES   1   15 9 48.98                             172     0.0 7   19 190 
 BAR2 SZ I        15 9 50.08        57.8 0.30                            19 190 
 BRR  HZ EP       15 9 35.77                             152     0.210   73 302 
 BRR  HN ES       15 9 52.78                             152     0.810   73 302 
 BRR  HZ I        15 9 55.96        45.3 0.09                            73 302 
 PAM  SZ EP       15 9 36.67                             150    -0.110   81  38 
 PAM  SN ES   1   15 9 53.74                             150    -0.4 7   81  38 
 RUS  HZ EP   1   15 9 37.88                             145     0.0 7   97 175 
 RUS  HN ES   1   15 9 56.20                             145     0.2 7   97 175 
 PTB  HZ EP   1   15 9 40.64                             132    -0.6 7  146 260 
 PTB  HN ES   1   1510  1.13                             132    -0.9 7  146 260 
 ZAR  HZ EP   1   15 9 46.90                             122    -0.1 6  205 293 
 ZAR  HN ES   1   1510 12.25                             122     0.0 6  205 293 
 ZAR  HZ I        1510 18.47        61.1 0.34                           205 293 
 NOR  SZ EP   1   15 9 49.65                             119    -0.2 6  232 235 
 NOR  SN ES   1   1510 17.46                             119     0.0 6  232 235 
 CHI  HZ EP   1   15 9 51.83                             117     0.1 6  245 195 
 CHI  HN ES   1   1510 20.74                             117     0.0 6  245 195 
 CHI  HZ I        1510 28.18        12.7 0.39                           245 195 
 RREF HN ES   1   1510 35.89                             111     0.0 5  319 230 
 RREF HZ I        1510 45.85        15.9 0.35                           319 230 
 PRA  HZ EP   1   1510  8.49                             107     0.9 4  388 210 
                                                                                
