 2010 1124 1840 16.1 L   6.811 -73.134144.2  RSN 10 0.3 2.4LRSN                1
 GAP=160        0.60       2.3     4.8  4.5 -0.3432E+01  0.2777E+01  0.1354E+01E
 Epicentro: LOS SANTOS - SANTANDER                                             3
 ACTION:UP  10-12-17 16:54 OP:REBC STATUS:               ID:20101124184016 L   I
 2010-11-24-1836-25S.COL___130                                                 6
 STAT SP IPHASW D HRMM SECON CODA AMPLIT PERI AZIMU VELO SNR AR TRES W  DIS CAZ7
 BAR2 SZ IP       1840 35.55                             170     0.010   25 193 
 BAR2 SZ ES   1   1840 50.38                             170    -0.4 7   25 193 
 BAR2 SZ I        1840 52.20        50.1 0.22                            25 193 
 BRR  HZ EP       1840 37.34                             152     0.310   72 297 
 BRR  HE ES   1   1840 53.70                             152     0.2 7   72 297 
 BRR  HZ I        1840 58.11        73.5 0.45                            72 297 
 RUS  HZ EP       1840 39.52                             143    -0.210  102 177 
 RUS  HZ I        1840 40.72        21.6 0.26                           102 177 
 RUS  HE ES   1   1840 58.64                             143     0.4 7  102 177 
 GRA  SZ IP       1840 41.31                             137     0.310  124  17 
 GRA  SZ ES   1   1841  0.55                             137     0.0 7  124  17 
 GRA  SZ I        1841  4.06        29.4 0.26                           124  17 
 OCA  SZ EP   1   1840 44.01                             129    -0.2 7  159 353 
 OCA  SZ ES   1   1841  5.54                             129    -0.5 7  159 353 
 OCA  SZ I        1841 10.89        28.2 0.35                           159 353 
 NOR  SZ EP   2   1840 51.81                             118    -0.1 4  237 235 
 NOR  SE ES   2   1841 19.78                             118    -0.1 4  237 235 
 CHI  HZ EP   1   1840 53.88                             117     0.0 6  250 195 
 CHI  HE ES   2   1841 22.86                             117    -0.4 4  250 195 
 CHI  HZ I        1841 26.60        19.0 0.49                           250 195 
 HEL  HZ EP   2   1840 56.50                             114     0.1 4  274 256 
 RREF HZ EP   2   1841  2.93                             110     0.6 3  324 229 
 RREF HE ES   2   1841 38.30                             110    -0.1 3  324 229 
 RREF HZ I        1841 45.32        15.1 0.38                           324 229 
 PRA  HZ EP   1   1841  9.48                             106    -0.3 4  394 210 
 PRA  HN ES   1   1841 51.41                             106    -0.2 4  394 210 
                                                                                
