 2010  624 1011 29.5 L   6.773 -73.086148.4  RSN  6 0.5 1.5LRSN                1
 GAP=163        0.87       6.1    13.2 11.0 -0.2181E+02 -0.3191E+02 -0.6089E+01E
 Epicentro: LOS SANTOS - SANTANDER                                             3
 ACTION:UP  10-08-24 10:12 OP:vdl  STATUS:               ID:20100624101129 L   I
 2010-06-24-1007-43S.COL___118                                                 6
 STAT SP IPHASW D HRMM SECON CODA AMPLIT PERI AZIMU VELO SNR AR TRES W  DIS CAZ7
 BAR2 SZ EP   1   1011 49.09                             171    -0.3 7   23 208 
 BAR2 SZ ES   2   1012  4.41                             171    -0.5 5   23 208 
 BRR  HZ EP   1   1011 51.02                             151    -0.3 7   78 298 
 BRR  HZ I        1011 54.02         7.8 0.45                            78 298 
 BRR  HN ES   2   1012  8.93                             151     0.6 5   78 298 
 RUS  HZ EP   1   1011 53.34                             145     0.1 7   97 180 
 RUS  HE ES   2   1012 12.34                             145     0.5 5   97 180 
 RUS  HZ I        1012 13.20         3.9 0.41                            97 180 
 BRI  SZ EP   1   1011 53.69                             142     0.0 7  109  17 
 BRI  SZ ES   2   1012 12.72                             142     0.2 5  109  17 
 GUE  SZ EP   1   1011 54.00                             140    -0.6 7  118   9 
 GRA  SZ EP   1   1011 55.91                             137     0.9 7  127  14 
 GRA  SZ ES   2   1012 14.63                             137    -0.3 5  127  14 
                                                                                
