 2016  524 1425 21.0 L   6.777 -73.155150.0  RSN 14 0.4 2.5LRSN                1
 GAP= 71        1.00       3.2     2.8  5.3 -0.7534E+00  0.3639E+01 -0.3820E+00E
 Epicentro: LOS SANTOS - SANTANDER                                             3
 ACTION:UPD 16-08-18 17:49 OP:cam  STATUS:               ID:20160524142521 L   I
 OLDACT:UP  16-05-24 23:20 OP:ar   STATUS:               ID:20160524141742     3
 OLDACT:REG 16-05-24 20:35 OP:ar   STATUS:               ID:20160524141742     3
 2016-05-24-1417-42M.COL___298                                                 6
 STAT SP IPHASW D HRMM SECON CODA AMPLIT PERI AZIMU VELO AIN AR TRES W  DIS CAZ7
 BAR2 EZ EP       1425 41.04                             172   -0.0810 20.7 188 
 BAR2 EZ ES       1425 56.52                             172   -0.2710 20.7 188 
 BAR2 EZ I        1425 57.14        79.0 0.22            170           20.7 188 
 BRR  HZ EP       1425 43.08                             153    0.4210 71.6 301 
 BRR  HN ES       1426  0.32                             153    0.7910 71.6 301 
 BRR  HZ I        1426  1.10        72.2 0.22            152           71.6 301 
 PAM  EZ EP       1425 44.07                             151    0.2210 80.0  39 
 PAM  EN ES       1426  1.63                             151   -0.0210 80.0  39 
 PAM  EZ I        1426  3.83        41.2 0.58            151           80.0  39 
 RUS  HZ EP       1425 44.28                             145   -0.7510 98.1 175 
 RUS  HN ES       1426  3.57                             145   -0.1810 98.1 175 
 RUS  HZ I        1426  4.04        26.1 0.64            144           98.1 175 
 PTB  HZ EP       1425 48.20                             133   -0.01 9  146 260 
 PTB  HN ES       1426  8.81                             133   -0.61 9  146 260 
 PTB  HZ I        1426 10.04        36.8 0.26            131            146 260 
 TAM  HZ EP       1425 49.28                             131    0.21 9  155 104 
 TAM  HZ I        1425 56.02        22.8 0.58            131            155 104 
 TAM  HN ES       1426 10.97                             131    0.02 9  155 104 
 SPBC HZ EP       1425 50.04                             130    0.43 9  161 219 
 SPBC HN ES       1426 11.85                             130   -0.06 9  161 219 
 SPBC HZ I        1426 16.98        43.3 0.22            129            161 219 
 OCA  HZ EP       1425 49.66                             130   -0.23 9  163 354 
 OCA  HN ES       1426 12.01                             130   -0.40 9  163 354 
 ZAR  HZ EP       1425 53.98                             123    0.22 9  204 293 
 ZAR  HN ES       1426 19.48                             123    0.20 9  204 293 
 ZAR  HZ I        1426 24.84        41.1 0.36            122            204 293 
 NOR  HZ EP       1425 57.22                             120    0.46 8  232 235 
 NOR  HN ES       1426 24.94                             120    0.30 8  232 235 
 NOR  HZ I        1426 30.03        21.2 0.28            118            232 235 
 HEL  HZ EP   4   1426  4.44                             116    3.16 0  270 256 
 HEL  HN ES       1426 33.15                             116    0.47 8  270 256 
 HEL  HZ I        1426 41.06        18.5 0.36            114            270 256 
 URE  HZ EP       1426  1.76                             114   -0.55 7  284 292 
 URE  HN ES   4   1426 32.75                             114   -1.76 0  284 292 
 URE  HZ I        1426 37.79        21.4 0.14            113            284 292 
 DBB  SZ EP   4   1426  9.78                             110    1.19 0  339 275 
 DBB  SZ ES       1426 44.85                             110   -0.83 7  339 275 
 SJC  HZ EP   4   1426 15.54                             106   -1.37 0  411 327 
 SJC  HN ES   4   1426 57.43                             106   -3.08 0  411 327 
 SJC  HZ I        1427  2.01         3.8 0.24            106            411 327 
                                                                                
