 2013  224 1334 54.3 L   6.752 -73.167152.0  RSN  4 0.3 1.2LRSN                1
 GAP=231        0.69       8.2     6.8  7.2  0.2782E+02  0.7853E+01  0.6640E+01E
 Epicentro: VILLANUEVA - SANTANDER                                             3
 ACTION:UPD 13-03-12 09:35 OP:ep   STATUS:               ID:20130224133454 L   I
 2013-02-24-1330-00M.COL___225                                                 6
 STAT SP IPHASW D HRMM SECON CODA AMPLIT PERI AZIMU VELO AIN AR TRES W  DIS CAZ7
 BAR2 SZ EP       1335 14.46                             173   -0.1110 17.7 185 
 BAR2 SZ ES   1   1335 29.88                             173   -0.51 7 17.7 185 
 BAR2 SZ I        1335 33.43         6.4 0.40            170           17.7 185 
 BRR  HN ES   1   1335 33.72                             153    0.51 7 71.9 303 
 RUS  HZ EP   1   1335 18.65                             147    0.34 7 95.5 174 
 RUS  HN ES   1   1335 37.26                             147    0.22 7 95.5 174 
 RUS  HZ I        1335 39.60         1.2 0.50            147           95.5 174 
 PTB  HZ EP       1335 21.28                             134   -0.20 9  144 261 
 PTB  HN ES   1   1335 42.63                             134   -0.06 7  144 261 
 PTB  HZ I        1335 44.43         2.8 0.12            136            144 261 
                                                                                
