 2010  624 1237  1.2 L   6.333 -73.561117.0  RSN  5 0.2 1.7LRSN                1
 GAP=163        0.45       3.9     8.4  6.3  0.1481E+02  0.2006E+02  0.3916E+01E
 Epicentro: SANTA HELENA DEL OPON - SANTANDER                                  3
 ACTION:UP  10-08-24 10:12 OP:vdl  STATUS:               ID:20100624123701 L   I
 2010-06-24-1234-15S.COL___117                                                 6
 STAT SP IPHASW D HRMM SECON CODA AMPLIT PERI AZIMU VELO SNR AR TRES W  DIS CAZ7
 BAR2 SZ IP       1237 18.66                             155     0.310   51  56 
 BAR2 SZ ES   2   1237 31.57                             155    -0.3 5   51  56 
 RUS  HZ EP   1   1237 19.96                             146    -0.1 7   72 133 
 RUS  HN ES   2   1237 34.68                             146    -0.1 5   72 133 
 RUS  HZ I        1237 35.82         7.6 0.28                            72 133 
 BRR  HZ EP   1   1237 20.22                             141    -0.2 7   87 349 
 BRR  HZ I        1237 23.54        15.8 0.16                            87 349 
 BRR  HE ES   2   1237 35.60                             141     0.1 5   87 349 
 GUE  SZ EP   1   1237 29.59                             119    -0.1 7  180  23 
 CHI  HZ EP   2   1237 30.76                             117     0.0 4  189 186 
                                                                                
