 2013  724 1052 34.5 L   6.315 -73.688 98.1  RSN  9 0.4 2.2LRSN                1
 GAP= 64        0.92       2.5     3.2  7.4  0.1025E+01  0.9112E+01  0.3182E+01E
 Epicentro: SANTA HELENA DEL OPON - SANTANDER                                  3
 ACTION:UPD 13-08-12 10:39 OP:ep   STATUS:               ID:20130724105234 L   I
 OLDACT:REG 13-07-24 16:42 OP:stll STATUS:               ID:20130724104850     3
 2013-07-24-1048-50M.COL___231                                                 6
 STAT SP IPHASW D HRMM SECON CODA AMPLIT PERI AZIMU VELO AIN AR TRES W  DIS CAZ7
 BAR2 SZ IP     C 1052 50.99                             145    0.4210 63.8  61 
 BAR2 SZ ES   1   1053  2.62                             145   -0.47 7 63.8  61 
 BAR2 SZ I        1053  5.49        30.7 0.26            145           63.8  61 
 RUS  HZ EP   1   1052 52.30                             138    0.00 7 81.6 125 
 RUS  HN ES   1   1053  6.09                             138   -0.08 7 81.6 125 
 RUS  HN I        1053  8.21        40.2 0.48            138           81.6 125 
 BRR  HN ES       1053  6.22                             135    0.3410 87.7 358 
 BRR  HN I        1053  8.35        68.7 0.16            134           87.7 358 
 PTB  HZ EP       1052 51.68                             135   -0.5510 88.5 286 
 PTB  HN ES   1   1053  5.63                             135   -0.42 7 88.5 286 
 PTB  HZ I        1053  7.74        28.9 0.10            133           88.5 286 
 NOR  HZ EP   1   1052 59.07                             118    0.15 7  155 238 
 NOR  HN ES       1053 18.08                             118    0.12 9  155 238 
 NOR  HN I        1053 24.89        53.1 0.16            117            155 238 
 ZAR  HZ EP       1053  1.88                             114   -0.16 9  184 315 
 ZAR  HE ES       1053 24.23                             114    0.73 9  184 315 
 ZAR  HZ I        1053 28.49        21.9 0.58            113            184 315 
 CHI  HZ EP   1   1053  2.56                             114   -0.32 7  186 181 
 CHI  HN ES       1053 25.14                             114    0.14 9  186 181 
 CHI  HN IS   1   1053 25.23                             114    0.23 7  186 181 
 CHI  HZ I        1053 32.23         6.0 0.34            113            186 181 
 HEL  HZ EP   1   1053  5.63                             111    0.79 6  204 266 
 HEL  HN ES       1053 27.98                             111   -0.52 9  204 266 
 HEL  HZ I        1053 31.57        10.8 0.30            111            204 266 
 SML  HZ EP   1   1053 12.26                             105   -0.80 6  278 351 
 SML  HN ES   1   1053 42.98                             105   -0.15 6  278 351 
 SML  HN I        1053 53.76        25.0 0.10            105            278 351 
 SJC  HZ EP   4   1053 29.65                              99   -1.69 0  429 338 
                                                                                
