 2016 1224 1215 45.4 L   6.761 -73.129154.6  RSN  7 0.5 1.4LRSN                1
 GAP=236        1.11       7.9     7.8  8.8  0.3554E+02  0.9913E+01  0.2334E+01E
 Epicentro: LOS SANTOS - SANTANDER                                             3
 ACTION:UPD 17-01-11 20:18 OP:rebc STATUS:               ID:20161224121545 L   I
 OLDACT:UP  16-12-24 23:54 OP:edw  STATUS:               ID:20161224120746     3
 OLDACT:REG 16-12-24 20:24 OP:edw  STATUS:               ID:20161224120746     3
 2016-12-24-1208-00M.COL___369                                                 6
 STAT SP IPHASW D HRMM SECON CODA AMPLIT PERI AZIMU VELO AIN AR TRES W  DIS CAZ7
 BAR2 EZ EP       1216  5.83                             172   -0.2310 19.6 198 
 BAR2 EZ ES       1216 22.09                             172   -0.0610 19.6 198 
 BRR  HZ EP       1216  7.97                             153    0.2210 74.9 301 
 BRR  HE ES       1216 25.56                             153    0.4110 74.9 301 
 BRR  HZ I        1216 27.01         7.9 0.32            151           74.9 301 
 RUS  HZ EP       1216 10.26                             147    0.4910 96.2 177 
 RUS  HN ES       1216 28.48                             147   -0.2610 96.2 177 
 RUS  HZ I        1216 30.42         3.2 0.22            146           96.2 177 
 PTB  HZ EP       1216 12.64                             134   -0.59 9  149 261 
 PTB  HN ES       1216 34.32                             134   -0.59 9  149 261 
 PTB  HZ I        1216 40.08         2.5 0.52            132            149 261 
 ZAR  HN ES       1216 45.10                             124    0.25 8  207 293 
 CHI  HZ EP   4   1216 23.21                             119   -0.04 0  245 196 
 CHI  HN ES   2   1216 54.52                             119    1.77 4  245 196 
 ROSC BN ES   4   1216 58.82                             119    5.16 0  250 212 
 GUY2CHZ EP   4   1216 30.67                             114    1.30 0  300 236 
 GUY2CHN ES   4   1217  7.91                             114    4.28 0  300 236 
 GUY2CHZ I        1217 11.68         1.4 0.32                           300 236 
                                                                                
