 2016  324 1459 37.6 L   6.347 -73.052  4.1  RSN  4 0.4 0.7LRSN                1
 GAP=164        0.96       2.8     5.4  8.5 -0.4742E+00  0.2433E+01 -0.1061E+02E
 Epicentro: COROMORO - SANTANDER                                               3
 ACTION:UPD 16-05-13 21:27 OP:cam  STATUS:               ID:20160324145937 L   I
 OLDACT:REG 16-03-24 23:15 OP:dnl  STATUS:               ID:20160324145743     3
 2016-03-24-1457-43M.COL___304                                                 6
 STAT SP IPHASW D HRMM SECON CODA AMPLIT PERI AZIMU VELO AIN AR TRES W  DIS CAZ7
 BAR2 EZ EP       1459 43.25                              47    0.1610 30.7 332 
 BAR2 EZ ES       1459 47.07                              47   -0.3010 30.7 332 
 BAR2 EZ I        1459 47.96        12.9 0.14             90           30.7 332 
 RUS  HZ EP     C 1459 46.55                              47    0.2010 50.4 184 
 RUS  HN ES   2   1459 52.37                              47   -0.79 5 50.4 184 
 RUS  HZ I        1459 53.17         2.1 0.11             90           50.4 184 
 PAM  EZ EP       1459 56.96                              47    0.6110  116  20 
 PAM  EZ I        15 0  8.25         1.4 0.23             90            116  20 
 PAM  EE ES       15 0 10.48                              47   -0.4910  116  20 
 PTB  HZ EP   3   15 0  2.47                              47    0.50 2  157 278 
 PTB  HN ES   4   15 0 20.02                              47   -0.96 0  157 278 
 PTB  HZ I        15 0 22.38         1.4 0.11             90            157 278 
                                                                                
