 2010  724 1449 42.2 L   6.796 -73.034146.5  RSN  7 0.2 2.0LRSN                1
 GAP=171        0.56       3.5     6.1  5.0 -0.8037E+01 -0.2910E+01  0.5879E+00E
 Epicentro: CEPITA - SANTANDER                                                 3
 ACTION:UPD 10-12-01 15:19 OP:pat  STATUS:               ID:20100724144942 L   I
 2010-07-24-1446-26S.COL___123                                                 6
 STAT SP IPHASW D HRMM SECON CODA AMPLIT PERI AZIMU VELO AIN AR TRES W  DIS CAZ7
 BAR2 SZ IP       1450  2.23                             168     0.210   28 216 
 BAR2 SZ ES   1   1450 17.09                             168    -0.4 7   28 216 
 BAR2 SZ I        1450 18.39        18.0 0.36                            28 216 
 BRR  HZ IP     C 1450  4.17                             148     0.010   82 295 
 BRR  HZ I        1450  4.61        39.1 0.11                            82 295 
 BRR  HE ES   1   1450 21.51                             148     0.3 7   82 295 
 RUS  HZ EP   2   1450  6.39                             144     0.4 5  100 183 
 RUS  HN ES   2   1450 24.53                             144     0.0 5  100 183 
 RUS  HZ I        1450 27.16         9.7 0.41                           100 183 
 GUE  SZ EP   1   1450  6.93                             140     0.0 7  115   6 
 GUE  SZ I        1450  8.37         5.8 0.05                           115   6 
 GRA  SZ IP       1450  7.12                             138    -0.210  123  12 
 GRA  SZ ES   1   1450 26.93                             138     0.0 7  123  12 
 GRA  SZ I        1450 28.08        13.0 0.33                           123  12 
 HEL  HZ EP   2   1450 23.52                             114    -0.3 4  284 257 
 HEL  HZ I        1451  0.45         6.1 0.46                           284 257 
 PRA  HZ EP   1   1450 36.55                             106     0.1 4  398 211 
 PRA  HE ES   2   1451 18.25                             106    -0.5 3  398 211 
 PRA  HZ I        1451 21.42         3.9 0.71                           398 211 
                                                                                
