 2015  124 1525 43.6 L   6.807 -73.168144.7  RSN 10 0.4 2.0LRSN                1
 GAP=133        0.99       3.4     4.5  6.3 -0.4225E+01  0.1093E+02  0.4821E+00E
 Epicentro: LOS SANTOS - SANTANDER                                             3
 ACTION:UPD 15-03-02 15:42 OP:nd   STATUS:               ID:20150124152543 L   I
 OLDACT:DUP 15-01-24 23:46 OP:stll STATUS:               ID:20150124151747d    3
 OLDACT:DUP 15-01-24 23:16 OP:stll STATUS:               ID:20150124151745d    3
 2015-01-24-1517-44M.COL___268                                                 6
 STAT SP IPHASW D HRMM SECON CODA AMPLIT PERI AZIMU VELO AIN AR TRES W  DIS CAZ7
 BAR2 EZ EP       1526  3.09                             170   -0.0310 23.9 184 
 BAR2 EZ I        1526  3.45        23.5 0.10            173           23.9 184 
 BAR2 EZ ES       1526 18.45                             170    0.1210 23.9 184 
 BRR  HZ EP       1526  5.04                             153    0.5410 68.7 299 
 BRR  HZ I        1526 29.43        24.8 0.56            147           68.7 299 
 PAM  SZ EP       1526  5.99                             150    0.2310 78.3  41 
 PAM  SN ES       1526 23.07                             150    0.0310 78.3  41 
 PAM  SZ I        1526 25.16        10.8 0.48            148           78.3  41 
 RUS  HZ EP       1526  7.10                             143   -0.2210  102 175 
 RUS  HZ I        1526  7.96         6.5 0.48            146            102 175 
 RUS  HN ES       1526 25.85                             143    0.0310  102 175 
 PTB  HZ EP       1526  9.95                             132   -0.33 9  146 258 
 PTB  HN ES       1526 30.81                             132   -0.28 9  146 258 
 PTB  HZ I        1526 35.65        11.7 0.14            129            146 258 
 SPBC HZ EP       1526 12.08                             129    0.14 9  162 218 
 SPBC HZ I        1526 12.54        19.3 0.10            128            162 218 
 SPBC HN ES       1526 34.41                             129    0.37 9  162 218 
 NOR  HZ EP       1526 19.12                             118    0.01 8  233 234 
 NOR  HN ES       1526 46.43                             118   -0.38 8  233 234 
 NOR  HZ I        1526 53.26         7.6 0.16            117            233 234 
 SML  HN ES       1526 47.70                             117   -0.65 8  242 336 
 SML  HZ I        1526 53.39         7.6 0.26            115            242 336 
 CHI  HZ EP       1526 21.19                             117   -0.07 8  249 195 
 CHI  HN ES       1526 49.57                             117   -1.06 8  249 195 
 CHI  HZ I        1526 55.97         3.9 0.24            117            249 195 
 GUY2CHZ EP       1526 27.67                             112    0.68 7  300 234 
 GUY2CHE ES       1527  1.67                             112    0.83 7  300 234 
 GUY2CHZ I        1527  9.66         5.9 0.54                           300 234 
                                                                                
