 2016 1124 1356 59.9 L   6.247 -73.936 95.8  RSN  5 0.4 1.3LRSN                1
 GAP=168        0.94       4.1     3.5  8.2 -0.4842E+01  0.2177E+01  0.3994E+01E
 Epicentro: CIMITARRA - SANTANDER                                              3
 ACTION:UPD 17-10-26 21:11 OP:lp   STATUS:               ID:20161124135659 L   I
 OLDACT:UP  16-11-24 22:34 OP:edw  STATUS:               ID:20161124134746d    3
 OLDACT:DUP 16-11-24 22:31 OP:edw  STATUS:               ID:20161124134746d    3
 2016-11-24-1348-00M.COL___349                                                 6
 STAT SP IPHASW D HRMM SECON CODA AMPLIT PERI AZIMU VELO AIN AR TRES W  DIS CAZ7
 PTB  HZ EP       1357 15.01                             143   -0.5510 66.0 299 
 PTB  HE ES       1357 27.31                             143   -0.4710 66.0 299 
 PTB  HZ I        1357 29.68         4.0 0.10            142           66.0 299 
 BAR2 EZ EP       1357 17.89                             133   -0.1010 91.7  65 
 BAR2 EZ ES       1357 32.06                             133   -0.0510 91.7  65 
 BAR2 EZ I        1357 32.92         4.5 0.12            135           91.7  65 
 BRR  HZ EP       1357 18.20                             131   -0.0710 98.3  15 
 BRR  HN ES       1357 33.19                             131    0.5810 98.3  15 
 NOR  HZ EP       1357 21.24                             123   -0.0510  128 234 
 NOR  HN ES       1357 38.56                             123    0.5710  128 234 
 NOR  HZ I        1357 39.01         5.0 0.24            123            128 234 
 ZAR  HZ EP       1357 25.96                             115    0.04 9  171 324 
 ZAR  HN ES       1357 46.41                             115    0.19 9  171 324 
 ZAR  HZ I        1357 48.94         2.5 0.13            115            171 324 
                                                                                
