 2016  624 1545 15.2 L   6.777 -73.099144.7  RSN  7 0.3 2.2LRSN                1
 GAP=241        0.82       4.6     4.7  5.4  0.8217E+01  0.6867E+01  0.5005E+00E
 Epicentro: LOS SANTOS - SANTANDER                                             3
 ACTION:UPD 16-07-21 22:22 OP:rebc STATUS:               ID:20160624154515 L   I
 OLDACT:UP  16-06-25 00:53 OP:dnl  STATUS:               ID:20160624153743     3
 OLDACT:REG 16-06-24 23:20 OP:dnl  STATUS:               ID:20160624153743     3
 2016-06-24-1537-43M.COL___328                                                 6
 STAT SP IPHASW D HRMM SECON CODA AMPLIT PERI AZIMU VELO AIN AR TRES W  DIS CAZ7
 BAR2 EZ EP     C 1545 34.76                             171    0.0910 22.4 204 
 BAR2 EZ ES       1545 49.29                             171   -0.5810 22.4 204 
 BAR2 EZ I        1545 51.87        35.2 0.20                          22.4 204 
 BRR  HZ IP     C 1545 36.59                             150    0.0310 77.0 298 
 BRR  HE ES       1545 53.49                             150    0.2610 77.0 298 
 BRR  HZ I        1545 57.56        25.1 0.10                          77.0 298 
 RUS  HZ EP       1545 38.90                             144    0.2710 97.8 179 
 RUS  HN ES       1545 57.23                             144    0.3110 97.8 179 
 RUS  HZ I        1545 59.48        11.3 0.32                          97.8 179 
 PTB  HZ EP       1545 41.79                             131   -0.70 9  152 260 
 PTB  HN ES       1546  3.71                             131   -0.08 9  152 260 
 PTB  HZ I        1546  4.68        16.8 0.16                           152 260 
 ZAR  HZ EP       1545 48.29                             121    0.13 8  210 292 
 ZAR  HE ES       1546 14.23                             121    0.35 8  210 292 
 ZAR  HZ I        1546 19.10        19.1 0.38                           210 292 
 NOR  HZ EP       1545 51.24                             118    0.09 8  237 236 
 NOR  HN ES       1546 19.16                             118   -0.05 8  237 236 
 NOR  HZ I        1546 21.93        13.1 0.22                           237 236 
 URE  HZ EP   2   1545 56.29                             113   -0.56 4  290 292 
 URE  HN ES   4   1546 26.25                             113   -3.10 0  290 292 
 URE  HZ I        1546 28.71        10.6 0.16                           290 292 
                                                                                
