 2014  324 1412 19.1 L   6.872 -73.307130.9  RSN  6 0.5 2.0LRSN                1
 GAP=178        0.95       5.0     5.6  7.4 -0.1066E+02  0.1197E+02 -0.6851E+01E
 Epicentro: BETULIA - SANTANDER                                                3
 ACTION:UPD 14-04-09 23:20 OP:nd   STATUS:               ID:20140324141219 L   I
 OLDACT:UP  14-03-24 16:55 OP:mh   STATUS:               ID:20140324140813     3
 OLDACT:REG 14-03-24 15:03 OP:mh   STATUS:               ID:20140324140813     3
 2014-03-24-1408-13M.COL___249                                                 6
 STAT SP IPHASW D HRMM SECON CODA AMPLIT PERI AZIMU VELO AIN AR TRES W  DIS CAZ7
 BRR  HZ EP   1   1412 38.11                             157    0.53 7 51.8 300 
 BRR  HN ES       1412 51.66                             157   -0.3410 51.8 300 
 BRR  HZ I        1412 53.51        12.5 0.07            154           51.8 300 
 PAM  SZ EP       1412 40.37                             145    0.1410 84.7  52 
 PAM  SN ES       1412 56.75                             145    0.0310 84.7  52 
 PAM  SZ I        1413  1.18        11.5 0.24            143           84.7  52 
 OCA  HZ EP   1   1412 45.50                             128    0.11 7  151 359 
 OCA  HN ES   1   1413  5.36                             128   -0.55 7  151 359 
 NOR  HN ES       1413 19.52                             116    0.10 8  225 230 
 NOR  HZ I        1413 24.88       118.2 0.05            113            225 230 
 SML  HZ EP       1412 53.07                             116   -0.27 8  229 338 
 SML  HN ES       1413 20.84                             116    0.79 8  229 338 
 SML  HZ I        1413 26.66                             113            229 338 
 SJC  HZ EP       1413 11.28                             104   -0.99 6  393 328 
 SJC  HZ I        1413 26.20         0.9 0.30            102            393 328 
 SJC  HN ES   4   1413 51.10                             104   -2.65 0  393 328 
                                                                                
