 2011  324 1634  0.4 L   6.782 -73.025149.0  RSN  4 0.3 1.9LRSN                1
 GAP=208        0.64       6.8     7.7  8.4 -0.3143E+02 -0.1283E+02  0.1494E+02E
 Epicentro: CEPITA - SANTANDER                                                 3
 ACTION:UP  11-06-16 14:35 OP:jfem STATUS:               ID:20110324163400 L   I
 2011-03-24-1630-01S.COL___138                                                 6
 STAT SP IPHASW D HRMM SECON CODA AMPLIT PERI AZIMU VELO SNR AR TRES W  DIS CAZ7
 BAR2 SZ EP       1634 20.89                             169     0.310   27 220 
 BAR2 SZ ES   2   1634 35.75                             169    -0.5 5   27 220 
 BAR2 SZ I        1634 38.73        19.5 0.44                            27 220 
 BRR  HZ EP       1634 22.74                             149     0.010   84 295 
 BRR  HZ I        1634 23.03        16.7 0.15                            84 295 
 BRR  HE ES   1   1634 40.26                             149     0.2 7   84 295 
 GRA  SZ EP   1   1634 25.66                             138    -0.2 7  124  11 
 GRA  SZ ES   2   1634 45.31                             138    -0.4 5  124  11 
 GRA  SZ I        1635 21.71         6.1 0.26                           124  11 
 NOR  SZ EP   2   1634 37.07                             118    -0.4 4  245 237 
 NOR  SE ES   1   1635  5.98                             118    -0.3 6  245 237 
                                                                                
