 2016  324 1814 52.6 L   6.874 -73.131130.7  RSN  4 0.2 1.1LRSN                1
 GAP=247        0.34       6.1     4.4  8.1  0.1780E+02 -0.9125E+01 -0.1638E+02E
 Epicentro: LOS SANTOS - SANTANDER                                             3
 ACTION:UPD 16-05-13 21:27 OP:cam  STATUS:               ID:20160324181452 L   I
 OLDACT:REG 16-03-24 22:24 OP:dnl  STATUS:               ID:20160324180745     3
 2016-03-24-1807-45M.COL___307                                                 6
 STAT SP IPHASW D HRMM SECON CODA AMPLIT PERI AZIMU VELO AIN AR TRES W  DIS CAZ7
 RUS  HZ EP   2   1815 15.51                             138   -0.04 5  109 177 
 RUS  HE ES   2   1815 33.57                             138    0.12 5  109 177 
 RUS  HZ I        1815 34.99         1.2 0.29            139            109 177 
 PTB  HZ EP   2   1815 18.47                             128   -0.23 5  151 256 
 PTB  HN ES       1815 38.97                             128   -0.0910  151 256 
 PTB  HZ I        1815 42.55         1.6 0.12            125            151 256 
 ZAR  HE ES   2   1815 48.71                             119    0.30 5  203 290 
 ZAR  HZ I        1815 56.20         1.5 0.14            118            203 290 
 NOR  HZ EP   2   1815 28.35                             114    0.17 4  241 233 
 NOR  HE ES   2   1815 56.09                             114    0.16 4  241 233 
 NOR  HZ I        1816  3.82         1.6 0.16            114            241 233 
                                                                                
