 2016  724 1351  5.0 L   6.805 -73.124143.3  RSN  8 0.4 2.0LRSN                1
 GAP=139        0.87       3.2     4.2  5.4  0.5685E+00  0.7808E+01  0.5130E+01E
 Epicentro: LOS SANTOS - SANTANDER                                             3
 ACTION:UPD 17-03-29 16:54 OP:lp   STATUS:               ID:20160724135105 L   I
 OLDACT:REG 16-07-24 21:07 OP:lv   STATUS:               ID:20160724134759     3
 2016-07-24-1347-59S.COL___334                                                 6
 STAT SP IPHASW D HRMM SECON CODA AMPLIT PERI AZIMU VELO AIN AR TRES W  DIS CAZ7
 BAR2 EZ IP     C 1351 24.20                             170   -0.1110 24.4 195 
 BAR2 EZ ES       1351 38.98                             170   -0.4310 24.4 195 
 BRR  HZ IP     C 1351 25.97                             151    0.0310 73.1 297 
 BRR  HN ES       1351 42.90                             151    0.5910 73.1 297 
 BRR  HZ I        1351 45.96        17.8 0.30            149           73.1 297 
 PAM  EZ EP       1351 27.14                             151    0.3510 75.4  38 
 PAM  EE ES       1351 43.93                             151    0.1110 75.4  38 
 PAM  EZ I        1351 44.72        11.7 0.18            154           75.4  38 
 RUS  HZ EP       1351 28.26                             143   -0.2310  101 177 
 RUS  HE ES       1351 46.77                             143   -0.0810  101 177 
 ZAR  HZ EP       1351 36.95                             121   -0.50 8  206 292 
 ZAR  HE ES       1352  2.25                             121   -0.54 8  206 292 
 ZAR  HZ I        1352  8.33         9.2 0.18            121            206 292 
 CHI  HZ EP       1351 42.66                             116    0.02 8  250 196 
 CHI  HE ES       1352 12.07                             116    0.03 8  250 196 
 CHI  HZ I        1352 15.65         4.3 0.26            117            250 196 
 GUY2CHZ EP   4   1351 49.90                             112    1.19 0  303 235 
 GUY2CHE ES       1352 23.61                             112    0.78 7  303 235 
 GUY2CHZ I        1352 32.47         5.3 0.54                           303 235 
 PRA  HZ EP       1351 59.05                             106    0.46 6  394 210 
 PRA  HN ES       1352 40.29                             106   -0.13 6  394 210 
 PRA  HZ I        1352 45.47         4.5 0.52            107            394 210 
                                                                                
