 2017  124 1101 53.1 L   6.787 -73.131148.1  RSN  6 0.3 1.7LRSN                1
 GAP=139        0.81       3.4     4.5  5.9  0.2005E+01  0.5268E+01  0.3287E+01E
 Epicentro: LOS SANTOS - SANTANDER                                             3
 ACTION:UPD 17-05-22 16:02 OP:jn   STATUS:               ID:20170124110153 L   I
 OLDACT:REG 17-01-24 20:43 OP:dnl  STATUS:               ID:20170124105739     3
 2017-01-24-1058-00M.COL___343                                                 6
 STAT SP IPHASW D HRMM SECON CODA AMPLIT PERI AZIMU VELO AIN AR TRES W  DIS CAZ7
 BAR2 EZ IP     C 11 2 12.77                             171   -0.2110 22.3 195 
 BAR2 EZ ES       11 2 27.95                             171   -0.5410 22.3 195 
 BAR2 EZ I        11 2 29.48        16.5 0.16            170           22.3 195 
 BRR  HZ EP       11 2 14.65                             152    0.0510 73.3 299 
 BRR  HE ES       11 2 31.88                             152    0.4910 73.3 299 
 BRR  HZ I        11 2 34.92        12.1 0.28            150           73.3 299 
 PAM  EZ EP       11 2 15.74                             151    0.1810 77.5  38 
 PAM  EN ES       11 2 32.96                             151   -0.1210 77.5  38 
 PAM  EZ I        11 2 34.99        13.3 0.50            154           77.5  38 
 RUS  HZ EP       11 2 16.81                             145   -0.1510 99.1 177 
 RUS  HN ES       11 2 36.13                             145    0.5510 99.1 177 
 RUS  HZ I        11 2 36.60         3.2 0.24            146           99.1 177 
 ZAR  HZ EP   2   11 2 26.09                             123    0.20 4  206 292 
 ZAR  HE ES       11 2 51.21                             123   -0.27 8  206 292 
 ZAR  HZ I        11 2 57.26         3.5 0.20            122            206 292 
 CHI  HZ EP   2   11 2 31.01                             118    0.20 4  248 196 
 CHI  HE ES       11 3  0.04                             118   -0.20 8  248 196 
 CHI  HZ I        11 3  2.85         2.4 0.30            119            248 196 
                                                                                
