 2012  324 1754 58.0 L   6.702 -73.237148.0  RSN  4 0.1 1.4LRSN                1
 GAP=219        0.29       3.7     3.3  4.6  0.7817E+01 -0.1965E+01 -0.4547E+01E
 ACTION:UP  12-03-31 23:22 OP:EP   STATUS:               ID:20120324175458 L   I
 2012-03-24-1750-00M.COL___196                                                 6
 STAT SP IPHASW D HRMM SECON CODA AMPLIT PERI AZIMU VELO SNR AR TRES W  DIS CAZ7
 BRR  HZ EP   1   1755 19.22                             154    -0.1 7   69 310 
 BRR  HZ I        1755 33.34        12.9 0.51                            69 310 
 BRR  HN ES   2   1755 35.96                             154     0.1 5   69 310 
 RUS  HZ EP   1   1755 21.36                             147     0.0 7   91 169 
 RUS  HE ES   1   1755 39.53                             147     0.0 7   91 169 
 RUS  HZ I        1755 42.08         1.6 0.47                            91 169 
 PTB  HZ EP   1   1755 24.21                             135     0.1 7  136 262 
 PTB  HZ I        1755 25.15         1.6 0.21                           136 262 
 PTB  HE ES   1   1755 44.47                             135    -0.1 7  136 262 
 ZAR  HE ES   2   1755 55.24                             123     0.1 4  199 296 
 ZAR  HZ I        1756 12.92         3.7 0.57                           199 296 
                                                                                
