 2017  424 1938 26.5 L   6.642 -73.679104.0  RSN  7 0.4 1.4LRSN                1
 GAP= 93        0.69       4.2     3.9  6.0 -0.5263E+01  0.1769E+01  0.5906E+01E
 Epicentro: EL CARMEN - SANTANDER                                              3
 ACTION:UPD 17-05-30 21:15 OP:jn   STATUS:               ID:20170424193826 L   I
 OLDACT:UP  17-04-25 01:11 OP:and  STATUS:               ID:20170424193744     3
 OLDACT:UP  17-04-25 01:10 OP:and  STATUS:               ID:20170424193744     3
 OLDACT:UP  17-04-25 01:10 OP:and  STATUS:               ID:20170424193744     3
 OLDACT:UP  17-04-25 01:10 OP:and  STATUS:               ID:20170424193744     3
 OLDACT:UP  17-04-25 01:10 OP:and  STATUS:               ID:20170424193744     3
 OLDACT:UP  17-04-25 01:09 OP:and  STATUS:               ID:20170424193744     3
 OLDACT:REG 17-04-24 21:15 OP:and  STATUS:               ID:20170424193744     3
 2017-04-24-1938-00M.COL___371                                                 6
 STAT SP IPHASW D HRMM SECON CODA AMPLIT PERI AZIMU VELO AIN AR TRES W  DIS CAZ7
 BRR  HZ EP       1938 41.95                             151   -0.1010 51.6 356 
 BRR  HN ES       1938 54.52                             151    0.3510 51.6 356 
 BAR2 EZ EP       1938 42.58                             150   -0.0310 55.2  96 
 BAR2 EZ ES       1938 54.93                             150   -0.2310 55.2  96 
 BAR2 EZ I        1938 56.11         9.2 0.22            150           55.2  96 
 PTB  HZ EP   2   1938 43.86                             137   -0.74 5 86.7 263 
 PTB  HN ES   4   1938 56.65                             137   -2.05 0 86.7 263 
 PTB  HZ I        1938 57.25         3.3 0.22            136           86.7 263 
 PAM  EZ EP       1938 49.59                             124    0.0510  133  54 
 PAM  EN ES       1939  7.52                             124    0.0110  133  54 
 PAM  EZ I        1939  8.26         7.7 0.14            122            133  54 
 ZAR  HN ES   4   1939 13.57                             118    1.99 0  161 306 
 ZAR  HZ I        1939 14.72         3.5 0.14            116            161 306 
 NOR  HZ EP   2   1938 54.49                             115    0.75 4  178 228 
 NOR  HN ES   2   1939 14.30                             115   -0.68 4  178 228 
 CHI  HN ES   2   1939 25.50                             110    0.69 4  223 182 
                                                                                
