 2017  424 1928 43.5 L   6.799 -73.117145.8  RSN 12 0.5 1.8LRSN                1
 GAP=122        0.88       4.2     4.0  5.2 -0.2946E+01  0.2250E+00  0.1010E+02E
 Epicentro: LOS SANTOS - SANTANDER                                             3
 ACTION:UPD 17-05-30 21:15 OP:jn   STATUS:               ID:20170424192843 L   I
 OLDACT:UP  17-04-25 01:03 OP:and  STATUS:               ID:20170424191743     3
 OLDACT:UP  17-04-25 01:02 OP:and  STATUS:               ID:20170424191743     3
 OLDACT:UP  17-04-25 01:02 OP:and  STATUS:               ID:20170424191743     3
 OLDACT:UP  17-04-25 01:02 OP:and  STATUS:               ID:20170424191743     3
 OLDACT:UP  17-04-25 01:00 OP:and  STATUS:               ID:20170424191743     3
 OLDACT:UP  17-04-25 00:59 OP:and  STATUS:               ID:20170424191743     3
 OLDACT:UP  17-04-25 00:59 OP:and  STATUS:               ID:20170424191743     3
 OLDACT:REG 17-04-24 20:58 OP:and  STATUS:               ID:20170424191743     3
 2017-04-24-1918-00M.COL___368                                                 6
 STAT SP IPHASW D HRMM SECON CODA AMPLIT PERI AZIMU VELO AIN AR TRES W  DIS CAZ7
 BAR2 EZ EP       1929  2.92                             170   -0.2310 23.9 197 
 BAR2 EZ ES       1929 18.07                             170   -0.4010 23.9 197 
 BAR2 EZ I        1929 19.15        20.0 0.32            170           23.9 197 
 BRR  HZ EP       1929  4.86                             151    0.0510 74.0 297 
 BRR  HN ES       1929 21.96                             151    0.5210 74.0 297 
 BRR  HZ I        1929 26.05        12.0 0.29            149           74.0 297 
 PAM  EZ IP   2 D 1929  6.09                             151    0.48 5 75.5  38 
 PAM  EN ES       1929 23.05                             151    0.1910 75.5  38 
 PAM  EZ I        1929 25.55         4.5 0.52            153           75.5  38 
 PTB  HZ EP   9   1929  9.76                             131   -0.99 0  151 259 
 PTB  HN ES       1929 30.86                             132   -0.15 9  151 259 
 PTB  HZ I        1929 37.99         5.6 0.32            130            151 259 
 SPBC HN ES       1929 34.38                             129   -0.17 9  165 220 
 SPBC HZ I        1929 35.86         9.5 0.09            129            165 220 
 ZAR  HZ EP   2   1929 15.46                             122   -0.79 4  207 292 
 ZAR  HN ES       1929 41.20                             122   -0.60 8  207 292 
 ZAR  HZ I        1929 46.68         7.3 0.31            121            207 292 
 NOR  HZ EP       1929 20.00                             118    0.50 8  237 235 
 NOR  HN ES       1929 47.63                             118    0.06 8  237 235 
 CHI  HZ EP       1929 21.53                             117    0.25 8  249 196 
 CHI  HN ES   2   1929 51.26                             117    0.52 4  249 196 
 CHI  HZ I        1929 53.04         3.7 0.32            118            249 196 
 PTGC HZ EP       1929 26.33                             112   -0.89 7  307 159 
 PRA  HZ EP       1929 37.19                             106    0.00 6  393 210 
 PRA  HN ES   2   1930 19.99                             106    0.92 3  393 210 
 PRA  HZ I        1930 23.81         1.7 0.28            107            393 210 
 ORTC HZ EP       1929 38.29                             106    0.67 6  397 217 
 SJC  HZ EP   4   1929 36.86                             105   -2.42 0  411 327 
 SJC  HN ES   4   1930 19.53                             105   -3.25 0  411 327 
 SJC  HZ I        1930 24.80         1.1 0.25            106            411 327 
                                                                                
