 2015  824 1011 15.9 L   6.925 -73.096147.0  RSN  8 0.4 1.7LRSN                1
 GAP=189        1.03       3.1     6.1  6.2  0.4443E+01  0.7715E+01  0.7241E+00E
 Epicentro: PIEDECUESTA - SANTANDER                                            3
 ACTION:UPD 15-09-15 23:04 OP:cam  STATUS:               ID:20150824101115 L   I
 OLDACT:REG 15-08-24 22:03 OP:ak   STATUS:               ID:20150824100746     3
 2015-08-24-1007-46M.COL___337                                                 6
 STAT SP IPHASW D HRMM SECON CODA AMPLIT PERI AZIMU VELO AIN AR TRES W  DIS CAZ7
 BAR2 EZ EP       1011 36.11                             165    0.0610 38.0 195 
 BAR2 EZ ES       1011 51.76                             165   -0.0210 38.0 195 
 BAR2 EZ I        1011 52.59         9.5 0.25            164           38.0 195 
 BRR  HZ EP       1011 37.19                             153    0.0310 71.0 287 
 BRR  HN ES       1011 54.29                             153    0.5410 71.0 287 
 RUS  HZ EP       1011 40.64                             140   -0.1410  114 179 
 RUS  HN ES       1011 59.93                             140   -0.2610  114 179 
 RUS  HZ I        1012  1.22         3.8 0.28            141            114 179 
 OCA  HZ EP   1   1011 43.50                             132    0.39 7  147 350 
 OCA  HN ES       1012  4.48                             132    0.14 9  147 350 
 ZAR  HZ EP       1011 49.38                             123    0.92 9  204 288 
 ZAR  HN ES       1012 12.91                             123   -0.95 9  204 288 
 ZAR  HZ I        1012 18.39         5.5 0.37            122            204 288 
 SML  HZ EP       1011 50.94                             119   -0.56 8  234 333 
 SML  HN ES       1012 18.88                             119   -0.41 8  234 333 
 SML  HZ I        1012 24.08         8.2 0.08            119            234 333 
 CHI  HZ EP       1011 55.25                             116   -0.02 8  263 196 
 CHI  HN ES       1012 25.63                             116   -0.36 8  263 196 
 CHI  HZ I        1012 28.66         2.3 0.45            116            263 196 
 GUY2CHZ EP       1012  1.18                             112    0.20 7  314 233 
 GUY2CHN ES       1012 36.64                             112    0.49 7  314 233 
 GUY2CHZ I        1012 44.08         3.1 0.58                           314 233 
 SJC  HZ EP   4   1012  9.22                             106   -1.28 0  401 325 
 SJC  HN ES   4   1012 48.89                             106   -4.21 0  401 325 
                                                                                
