 2010 1024 1442 21.9 L   6.778 -73.124142.6  RSN  5 0.4 1.7LRSN                1
 GAP=161        0.85       6.3    13.7 12.0 -0.4653E+01 -0.4905E+02 -0.1611E+02E
 Epicentro: LOS SANTOS - SANTANDER                                             3
 ACTION:UP  11-02-18 11:11 OP:tino STATUS:               ID:20101024144221 L   I
 2010-10-24-1441-12S.COL___124                                                 6
 STAT SP IPHASW D HRMM SECON CODA AMPLIT PERI AZIMU VELO SNR AR TRES W  DIS CAZ7
 BAR2 SZ EP   1   1442 40.89                             171    -0.2 7   22 198 
 BAR2 SZ I        1442 41.33        13.4 0.33                            22 198 
 BAR2 SZ ES   2   1442 55.85                             171    -0.3 5   22 198 
 BRR  HZ EP   1   1442 42.76                             151    -0.2 7   75 299 
 BRR  HE ES   2   1442 59.59                             151     0.3 5   75 299 
 BRR  HZ I        1443  6.93        21.1 0.24                            75 299 
 RUS  HZ EP   1   1442 45.03                             144    -0.1 7   98 177 
 RUS  HZ I        1442 45.82         4.4 0.29                            98 177 
 RUS  HE ES   2   1443  3.87                             144     0.6 5   98 177 
 GUE  SZ EP   1   1442 46.10                             138    -0.4 7  118  11 
 GRA  SZ EP   1   1442 47.87                             136     0.9 7  127  16 
 GRA  SZ ES   2   1443  6.29                             136    -0.3 5  127  16 
                                                                                
