 2012 1124 1910 52.3 L   6.245 -73.649107.9  RSN  8 0.3 1.8LRSN                1
 GAP= 84        0.54       3.2     2.3  5.4  0.2147E+01 -0.7682E+00 -0.2065E+01E
 Epicentro: SANTA HELENA DEL OPON - SANTANDER                                  3
 ACTION:UPD 12-12-05 15:35 OP:}ep  STATUS:               ID:20121124191052 L   I
 2012-11-24-1910-00M.COL___234                                                 6
 STAT SP IPHASW D HRMM SECON CODA AMPLIT PERI AZIMU VELO AIN AR TRES W  DIS CAZ7
 BAR2 SZ EP       1911  9.56                             147    0.1610 64.3  53 
 BAR2 SZ I        1911  9.84        65.4 0.25                          64.3  53 
 RUS  HZ EP       1911 10.47                             143    0.0510 73.8 122 
 RUS  HN ES   1   1911 24.48                             143   -0.06 7 73.8 122 
 RUS  HN I        1911 26.46        17.2 0.44                          73.8 122 
 PTB  HZ EP       1911 11.21                             135   -0.2410 95.0 290 
 PTB  HN ES       1911 26.34                             135   -0.0210 95.0 290 
 PTB  HZ I        1911 28.99        13.5 0.09                          95.0 290 
 GIR2 SZ EP       1911 12.47                             132   -0.0310  105  29 
 PAM  SZ EP   1   1911 17.80                             120   -0.63 7  160  41 
 PAM  SZ I        1911 19.03         5.8 0.20                           160  41 
 PAM  SE ES   2   1911 39.38                             120    0.59 5  160  41 
 CHI  HZ EP   2   1911 20.69                             116    0.34 4  179 183 
 CHI  HZ I        1911 21.96         3.0 0.21                           179 183 
 ZAR  HZ EP   1   1911 21.58                             114    0.30 7  192 316 
 ZAR  HN ES   1   1911 44.02                             114    0.17 7  192 316 
 ZAR  HZ I        1911 46.53        11.8 0.11                           192 316 
 PRA  HZ EP   1   1911 35.32                             103    0.12 5  312 206 
 PRA  HZ I        1912 15.83         3.3 0.32                           312 206 
                                                                                
