 2010  224 1201 34.3 L   6.836 -73.315117.5  RSN  5 0.6 1.9LRSN                1
 GAP=138        1.11       9.1    18.9 15.9  0.8241E+02 -0.3809E+02 -0.3389E+02E
 Epicentro: ZAPATOCA - SANTANDER                                               3
 ACTION:UP  10-08-24 09:50 OP:vdl  STATUS:               ID:20100224120134 L   I
 2010-02-24-1156-44S.COL___094                                                 6
 STAT SP IPHASW D HRMM SECON CODA AMPLIT PERI AZIMU VELO SNR AR TRES W  DIS CAZ7
 GIR2 SZ EP       12 1 51.43                             164     0.810   30  27 
 GIR2 SZ ES   3   12 2  3.64                             164     0.3 2   30  27 
 BAR2 SZ EP       12 1 50.88                             165     0.110   31 152 
 BAR2 SZ ES   2   12 2  3.34                             165    -0.3 5   31 152 
 BRR  HZ EP       12 1 51.15                             155    -0.310   53 304 
 BRR  HE ES   2   12 2  5.12                             155     0.4 5   53 304 
 BRR  HZ I        12 2  6.62        14.0 0.13                            53 304 
 RUS  BZ EP   2   12 1 55.66                             135    -0.3 5  107 166 
 RUS  BE ES   2   12 2 11.85                             135    -1.1 5  107 166 
 OCA  SZ EP   2   12 1 59.49                             123    -0.6 5  155 360 
 OCA  SZ ES   2   12 2 19.08                             123    -1.1 5  155 360 
 OCA  SZ I        12 2 20.96        16.9 0.24                           155 360 
                                                                                
