 2010  324 1223  4.8 L   7.424 -73.151131.9  RSN  4 0.5 2.0LRSN                1
 GAP=194        0.77       5.5    18.1 11.6 -0.1220E+02 -0.7493E+02  0.1674E+02E
 Epicentro: EL PLAYON - SANTANDER                                              3
 ACTION:UP  10-08-24 09:55 OP:vdl  STATUS:               ID:20100324122304 L   I
 2010-03-24-1221-37S.COL___098                                                 6
 STAT SP IPHASW D HRMM SECON CODA AMPLIT PERI AZIMU VELO SNR AR TRES W  DIS CAZ7
 BRR  HZ EP   1   1223 24.33                             150    -0.1 7   71 241 
 BRR  HE ES   2   1223 39.52                             150    -0.2 5   71 241 
 BRR  HZ I        1223 40.51        33.0 0.12                            71 241 
 BAR2 SZ EP   1   1223 26.17                             143     0.0 7   92 182 
 BAR2 SZ ES   2   1223 42.61                             143    -0.3 5   92 182 
 OCA  SZ EP   1   1223 25.96                             143    -0.1 7   92 348 
 OCA  SZ ES   2   1223 43.28                             143     0.6 5   92 348 
 CHI  HZ EP   1   1223 49.01                             108    -0.3 5  316 192 
 CHI  HN ES   2   1224 25.80                             108     1.7 3  316 192 
 CHI  HZ I        1224 34.10         2.7 0.70                           316 192 
                                                                                
