 2017  724 1110 48.2 L   6.767 -73.153149.0  RSN  4 0.3 1.4LRSN                1
 GAP=234        0.74       7.3     5.7  6.3  0.1701E+02  0.2705E+01  0.7970E+01E
 Epicentro: LOS SANTOS - SANTANDER                                             3
 ACTION:UPD 17-08-30 15:36 OP:rebc STATUS:               ID:20170724111048 L   I
 OLDACT:REG 17-07-24 21:42 OP:ar   STATUS:               ID:20170724110742     3
 2017-07-24-1108-00M.COL___392                                                 6
 STAT SP IPHASW D HRMM SECON CODA AMPLIT PERI AZIMU VELO AIN AR TRES W  DIS CAZ7
 BAR2 EZ EP       1111  8.00                             172   -0.1710 19.6 190 
 BAR2 EZ ES       1111 23.31                             172   -0.4210 19.6 190 
 BAR2 EZ I        1111 24.67         8.1 0.16            165           19.6 190 
 BRR  HZ EP       1111  9.86                             153    0.0710 72.4 301 
 BRR  HN ES       1111 26.97                             153    0.3710 72.4 301 
 RUS  HZ EP       1111 12.35                             145    0.3110 97.0 175 
 RUS  HN ES   2   1111 31.12                             145    0.51 5 97.0 175 
 PTB  HZ EP       1111 15.02                             133   -0.31 9  146 260 
 PTB  HE ES       1111 36.44                             133   -0.03 9  146 260 
 PTB  HZ I        1111 41.96         2.2 0.28            130            146 260 
                                                                                
