 2011 1224 1714 28.7 L   6.784 -73.156152.1  RSN  6 0.2 1.5LRSN                1
 GAP=136        0.52       3.7     3.6  4.5 -0.1595E+01  0.1710E+01  0.1857E+01E
 Epicentro: LOS SANTOS - SANTANDER                                             3
 ACTION:UPD 12-07-13 16:18 OP:ep   STATUS:               ID:20111224171428 L   I
 2011-12-24-1710-00M.COL___190                                                 6
 STAT SP IPHASW D HRMM SECON CODA AMPLIT PERI AZIMU VELO AIN AR TRES W  DIS CAZ7
 BAR2 SZ EP   1   1714 49.05                             172   -0.02 7 21.4 188 
 BAR2 SZ I        1714 49.37         6.4 0.13                          21.4 188 
 BAR2 SZ ES   1   1715  4.97                             172    0.02 7 21.4 188 
 GIR2 SZ EP   1   1714 49.16                             167   -0.02 7 32.9 353 
 GIR2 SZ ES   1   1715  5.39                             167    0.24 7 32.9 353 
 BRR  HZ EP   1   1714 50.79                             154    0.24 7 71.1 300 
 BRR  HZ I        1714 52.86         7.0 0.13                          71.1 300 
 BRR  HN ES   1   1715  7.82                             154    0.25 7 71.1 300 
 PAM  SZ EP   1   1714 51.94                             151    0.21 7 79.5  39 
 PAM  SZ I        1714 52.07         5.6 0.16                          79.5  39 
 PAM  SE ES   1   1715  9.14                             151   -0.54 7 79.5  39 
 RUS  HZ EP   1   1714 53.10                             146    0.12 7 98.9 175 
 RUS  HN ES   1   1715 11.89                             146   -0.01 7 98.9 175 
 RUS  HZ I        1715 13.24         2.8 0.37                          98.9 175 
 PTB  HZ EP   1   1714 55.78                             134   -0.30 7  146 259 
 PTB  HN ES   1   1715 17.14                             134   -0.28 7  146 259 
                                                                                
