 2015  324 1455 13.2 L   6.862 -73.161135.0  RSN  4 0.5 1.5LRSN                1
 GAP=141        1.26      11.9     7.4 10.2 -0.4265E+02  0.1182E+02  0.3129E+01E
 Epicentro: ZAPATOCA - SANTANDER                                               3
 ACTION:UPD 15-04-30 16:29 OP:nd   STATUS:               ID:20150324145513 L   I
 OLDACT:REG 15-03-24 20:37 OP:stll STATUS:               ID:20150324144749     3
 2015-03-24-1447-49M.COL___275                                                 6
 STAT SP IPHASW D HRMM SECON CODA AMPLIT PERI AZIMU VELO AIN AR TRES W  DIS CAZ7
 BAR2 EZ EP       1455 31.45                             167   -0.2010 29.9 185 
 BAR2 EZ ES       1455 46.31                             167    0.2310 29.9 185 
 BAR2 EZ I        1455 47.20         9.3 0.32            170           29.9 185 
 BRR  HZ EP       1455 33.38                             152    0.5010 66.7 294 
 BRR  HE ES       1455 48.28                             152    0.0110 66.7 294 
 PAM  SZ EP       1455 33.25                             150   -0.7410 73.4  44 
 PAM  SN ES       1455 50.43                             150    0.1910 73.4  44 
 PAM  SZ I        1455 54.39         5.2 0.26            149           73.4  44 
 PTB  HZ EP       1455 39.99                             129    0.74 9  148 256 
 PTB  HN ES       1455 58.88                             129   -0.72 9  148 256 
                                                                                
