 2011  924 1752 46.1 L   6.515 -73.539108.1  RSN  9 0.5 2.1LRSN                1
 GAP= 72        0.98       4.7     5.9 10.5  0.5317E+01  0.2679E+02  0.1325E+02E
 Epicentro: EL CARMEN DE CHUCURI - SANTANDER                                   3
 ACTION:UPD 12-07-13 15:59 OP:ep   STATUS:               ID:20110924175246 L   I
 2011-09-24-1751-11S.COL___165                                                 6
 STAT SP IPHASW D HRMM SECON CODA AMPLIT PERI AZIMU VELO AIN AR TRES W  DIS CAZ7
 BAR2 SZ EP       1753  1.94                             159    0.1410 40.3  78 
 BAR2 SZ ES   2   1753 14.19                             159    0.10 5 40.3  78 
 BAR2 SZ I        1753 15.75        76.8 0.52                          40.3  78 
 BTL  SZ EP       1753  2.57                             152    0.0710 53.7  34 
 BRR  HZ EP       1753  2.84                             145   -0.2410 68.2 344 
 BRR  HN ES   2   1753 16.62                             145    0.26 5 68.2 344 
 BRR  HZ I        1753 19.18        29.9 0.12                          68.2 344 
 RUS  HZ EP       1753  4.94                             139   -0.1110 85.3 144 
 RUS  HN ES   3   1753 19.35                             139   -0.52 2 85.3 144 
 PAM  SE ES   3   1753 26.07                             126   -0.98 2  130  45 
 NOR  SZ EP       1753 13.43                             116   -0.43 9  181 235 
 NOR  SN ES   2   1753 34.16                             116   -1.39 4  181 235 
 ZAR  HZ EP       1753 14.13                             116    0.28 9  181 307 
 ZAR  HN ES   1   1753 36.29                             116    0.76 7  181 307 
 ZAR  HZ I        1753 38.13        22.0 0.68                           181 307 
 OCA  SZ EP       1753 14.66                             115   -0.56 9  192   7 
 OCA  SZ I        1753 45.64        15.5 0.27                           192   7 
 CHI  HZ EP       1753 18.39                             112    0.88 8  210 186 
 CHI  HZ I        1753 51.16         3.7 0.74                           210 186 
                                                                                
