 2014  924 1409 57.8 L   6.830 -73.129150.0  RSN  4 0.3 1.4LRSN                1
 GAP=279        0.68       6.0     5.0  6.0  0.6732E+01  0.7442E+01  0.3127E+01E
 Epicentro: LOS SANTOS - SANTANDER                                             3
 ACTION:UPD 14-10-03 23:08 OP:nd   STATUS:               ID:20140924140957 L   I
 OLDACT:REG 14-09-24 19:26 OP:spq  STATUS:               ID:20140924140818     3
 2014-09-24-1408-18M.COL___283                                                 6
 STAT SP IPHASW D HRMM SECON CODA AMPLIT PERI AZIMU VELO AIN AR TRES W  DIS CAZ7
 BAR2 SZ EP       1410 18.19                             169    0.2010 26.9 193 
 BAR2 SZ ES   1   1410 34.03                             169    0.27 7 26.9 193 
 BAR2 SZ I        1410 35.02         5.2 0.44            166           26.9 193 
 RUS  HZ EP       1410 21.76                             144   -0.4110  104 177 
 RUS  HN ES       1410 41.21                             144    0.0110  104 177 
 RUS  HZ I        1410 42.41         2.3 0.50            142            104 177 
 PTB  HZ EP       1410 25.11                             133   -0.20 9  150 258 
 PTB  HE ES       1410 46.79                             133   -0.00 9  150 258 
 PTB  HZ I        1410 48.28         3.0 0.14            132            150 258 
 PRA  HZ EP       1410 52.64                             107    0.75 6  396 210 
 PRA  HN ES       1411 34.03                             107   -0.06 6  396 210 
 PRA  HZ I        1411 38.93         1.6 0.50            107            396 210 
                                                                                
