 2016  124 1022 13.3 L   6.856 -73.118152.6  RSN  4 0.4 1.3LRSN                1
 GAP=263        1.03       7.8     7.4  9.1  0.1249E+02  0.1329E+02 -0.1303E+02E
 Epicentro: LOS SANTOS - SANTANDER                                             3
 ACTION:UPD 16-03-09 23:28 OP:cam  STATUS:               ID:20160124102213 L   I
 OLDACT:UP  16-01-24 21:51 OP:mh   STATUS:               ID:20160124101746d    3
 OLDACT:DUP 16-01-24 21:48 OP:mh   STATUS:               ID:20160124101746d    3
 2016-01-24-1017-45M.COL___311                                                 6
 STAT SP IPHASW D HRMM SECON CODA AMPLIT PERI AZIMU VELO AIN AR TRES W  DIS CAZ7
 BAR2 EZ EP       1022 34.07                             168    0.1910 30.0 194 
 BAR2 EZ ES       1022 49.86                             168   -0.0910 30.0 194 
 BAR2 EZ I        1022 51.12         4.9 0.21            165           30.0 194 
 PTB  HZ EP       1022 40.64                             133   -0.56 9  152 257 
 PTB  HN ES       1023  2.35                             133   -0.62 9  152 257 
 PTB  HZ I        1023  7.08         1.7 0.13            131            152 257 
 SPBC HZ EP       1022 43.15                             129    0.21 9  170 218 
 SPBC HN ES       1023  6.50                             129    0.42 9  170 218 
 SPBC HZ I        1023 10.82         2.2 0.15            129            170 218 
 ZAR  HZ EP       1022 46.11                             124   -0.14 9  205 290 
 ZAR  HE ES       1023 12.66                             124    0.70 9  205 290 
 ZAR  HZ I        1023 18.96         1.5 0.09            123            205 290 
                                                                                
