 2014  924 2107 21.5 L   6.814 -73.131148.8  RSN 16 0.5 2.5LRSN                1
 GAP=138        1.18       3.2     4.5  5.8 -0.1401E+01  0.8703E+01  0.2935E+01E
 Epicentro: LOS SANTOS - SANTANDER                                             3
 ACTION:UPD 14-10-03 23:08 OP:nd   STATUS:               ID:20140924210721 L   I
 OLDACT:REG 14-09-25 08:02 OP:carl STATUS:               ID:20140924205818     3
 2014-09-24-2058-18M.COL___284                                                 6
 STAT SP IPHASW D HRMM SECON CODA AMPLIT PERI AZIMU VELO AIN AR TRES W  DIS CAZ7
 BAR2 SZ EP       21 7 41.48                             170   -0.0510 25.2 193 
 BAR2 SZ ES       21 7 56.90                             170   -0.2510 25.2 193 
 BAR2 SZ I        21 7 58.32       105.3 0.42            169           25.2 193 
 BRR  HZ EP       21 7 43.52                             153    0.5110 71.9 297 
 BRR  HN ES       21 8  0.71                             153    0.9210 71.9 297 
 PAM  SZ EP       21 7 44.05                             152    0.1510 75.1  39 
 PAM  SN ES       21 8  1.69                             152    0.3110 75.1  39 
 PAM  SZ I        21 8  3.98        21.3 0.58            154           75.1  39 
 RUS  HZ EP       21 7 45.51                             144   -0.1410  102 177 
 RUS  HN ES       21 8  4.19                             144   -0.3010  102 177 
 RUS  HZ I        21 8  6.70        36.1 0.48            146            102 177 
 PTB  HZ EP       21 7 48.07                             132   -0.81 9  150 258 
 PTB  HN ES       21 8  9.56                             132   -0.68 9  150 258 
 PTB  HZ I        21 8 14.08        46.8 0.28            131            150 258 
 SPBC HZ EP       21 7 50.45                             129    0.01 9  165 219 
 SPBC HE ES       21 8 13.20                             129    0.19 9  165 219 
 SPBC HZ I        21 8 17.96        38.9 0.16            129            165 219 
 ZAR  HZ EP       21 7 53.56                             123   -0.67 9  205 292 
 ZAR  HN ES       21 8 19.24                             123   -0.53 9  205 292 
 ZAR  HZ I        21 8 26.38        49.9 0.34            122            205 292 
 SML  HZ EP       21 7 58.43                             118    0.22 8  243 335 
 SML  HN ES       21 8 26.41                             118   -0.44 8  243 335 
 SML  HZ I        21 8 33.70        31.2 0.26            118            243 335 
 CHI  HZ EP       21 7 59.44                             117   -0.13 8  251 195 
 CHI  HN ES       21 8 28.55                             117   -0.72 8  251 195 
 CHI  HZ I        21 8 34.75        17.3 0.28            118            251 195 
 URE  HZ EP   4   21 8  0.82                             114   -2.00 0  285 291 
 URE  HN ES   4   21 8 32.65                             114   -2.40 0  285 291 
 GUY2CHZ EP       21 8  6.65                             113    1.16 7  303 235 
 GUY2CHN ES       21 8 40.48                             113    0.66 7  303 235 
 GUY2CHZ I        21 8 46.97        15.9 0.60                           303 235 
 CBOC HZ EP       21 8  9.18                             110    0.41 7  336 252 
 CBOC HN ES       21 8 45.56                             110   -0.08 7  336 252 
 CBOC HZ I        21 8 47.11         5.8 0.46            110            336 252 
 TOL  SZ EP   4   21 8 11.55                             110    1.42 0  346 225 
 TOL  SN ES   4   21 8 45.72                             110   -2.35 0  346 225 
 TOL  SZ I        21 8 54.82        23.9 0.34            110            346 225 
 MON  HZ EP   4   21 8  8.85                             109   -1.80 0  354 308 
 MON  HN ES   4   21 8 46.38                             109   -2.61 0  354 308 
 MON  HZ I        21 9  2.79        10.7 0.40            109            354 308 
 ANIL HN ES       21 8 51.53                             109    0.71 6  360 225 
 PRA  HZ EP       21 8 15.27                             107   -0.10 6  394 210 
 PRA  HN ES       21 8 56.94                             107   -0.46 6  394 210 
 PRA  HZ I        21 9  0.70        14.3 0.28            107            394 210 
 ORTC HZ EP       21 8 15.81                             107    0.03 6  398 216 
 ORTC HN ES       21 8 59.15                             107    1.03 6  398 216 
 ORTC HZ I        21 9  4.80         7.8 0.58            107            398 216 
                                                                                
