 2011  824 2140 20.4 L   6.838 -72.975136.9  RSN  4 0.1 1.6LRSN                1
 GAP=229        0.38       5.5     8.6  4.7  0.3990E+02 -0.2364E+02 -0.1386E+02E
 Epicentro: CEPITA - SANTANDER                                                 3
 ACTION:UPD 12-07-13 15:53 OP:ep   STATUS:               ID:20110824214020 L   I
 2011-08-24-2137-30S.COL___167                                                 6
 STAT SP IPHASW D HRMM SECON CODA AMPLIT PERI AZIMU VELO AIN AR TRES W  DIS CAZ7
 BAR2 SZ EP       2140 39.46                             165    0.2010 35.5 220 
 BAR2 SZ ES       2140 53.90                             165   -0.0910 35.5 220 
 BAR2 SZ I        2140 56.02         8.4 0.47                          35.5 220 
 GIR2 SZ EP   2   2140 39.09                             165   -0.04 5 35.9 318 
 BRR  HZ EP       2140 41.50                             146   -0.0610 86.7 290 
 BRR  HN ES       2140 58.11                             146    0.0210 86.7 290 
 BRR  HZ I        2141  6.11        15.1 0.47                          86.7 290 
 RUS  HZ EP   1   2140 43.43                             141   -0.18 7  105 187 
 RUS  HE ES   1   2141  1.81                             141    0.07 7  105 187 
 RUS  HZ I        2141  3.94         2.8 0.16                           105 187 
                                                                                
