 2014  224 2313  5.4 L   6.802 -73.141152.4  RSN  5 0.3 1.5LRSN                1
 GAP=137        0.87       5.2     4.7  9.1  0.6597E+01  0.1600E+02  0.1522E+02E
 Epicentro: LOS SANTOS - SANTANDER                                             3
 ACTION:UPD 14-03-10 08:13 OP:ep   STATUS:               ID:20140224231305 L   I
 OLDACT:REG 14-02-25 04:00 OP:carl STATUS:               ID:20140224230951     3
 2014-02-24-2309-51M.COL___236                                                 6
 STAT SP IPHASW D HRMM SECON CODA AMPLIT PERI AZIMU VELO AIN AR TRES W  DIS CAZ7
 BRR  HN ES       2313 44.92                             154    0.5510 71.5 298 
 PAM  SN ES       2313 45.88                             152   -0.2810 76.9  39 
 RUS  HZ EP       2313 30.28                             145    0.4510  101 176 
 RUS  HN ES       2313 48.64                             145   -0.2410  101 176 
 RUS  HZ I        2313 50.05         1.6 0.26            146            101 176 
 PTB  HZ EP       2313 32.75                             133   -0.22 9  148 259 
 PTB  HN ES       2313 54.28                             133   -0.19 9  148 259 
 PTB  HZ I        2314  0.55         2.6 0.40            131            148 259 
 ZAR  HE ES       2314  3.82                             124   -0.19 9  204 292 
 ZAR  HE I        2314 10.79        13.9 0.44            123            204 292 
                                                                                
