 2016  724 2255 41.3 L   6.775 -73.127144.0  RSN  7 0.4 1.8LRSN                1
 GAP=140        0.97       4.0     5.5  7.1  0.4679E+01  0.3123E+01 -0.2620E+01E
 Epicentro: LOS SANTOS - SANTANDER                                             3
 ACTION:UPD 17-03-29 16:54 OP:lp   STATUS:               ID:20160724225541 L   I
 OLDACT:UP  16-07-25 05:10 OP:dani STATUS:               ID:20160724224759     3
 OLDACT:UP  16-07-25 05:08 OP:dani STATUS:               ID:20160724224759     3
 OLDACT:REG 16-07-25 03:22 OP:dani STATUS:               ID:20160724224759     3
 2016-07-24-2247-59S.COL___334                                                 6
 STAT SP IPHASW D HRMM SECON CODA AMPLIT PERI AZIMU VELO AIN AR TRES W  DIS CAZ7
 BAR2 EZ EP       2256  0.26                             171   -0.3810 21.1 197 
 BAR2 EZ ES       2256 15.54                             171   -0.2110 21.1 197 
 BRR  HZ EP       2256  1.91                             151   -0.4910 74.3 300 
 BRR  HN ES       2256 19.46                             151    0.5710 74.3 300 
 BRR  HZ I        2256 22.56         8.9 0.10            149           74.3 300 
 PAM  EZ EP       2256  3.26                             150   -0.0910 78.3  37 
 RUS  HZ EP       2256  4.99                             144    0.3610 97.7 177 
 RUS  HN ES       2256 23.12                             144    0.2610 97.7 177 
 SPBC HN ES       2256 31.27                             129   -0.33 9  162 220 
 ZAR  HZ EP       2256 14.54                             122    0.64 8  207 293 
 ZAR  HE ES       2256 39.05                             122   -0.31 8  207 293 
 ZAR  HZ I        2256 44.59         6.2 0.28            121            207 293 
 CHI  HE ES       2256 47.81                             117    0.03 8  246 196 
                                                                                
