 2015  424 2128 41.8 L   6.840 -73.324122.3  RSN  8 0.6 2.2LRSN                1
 GAP= 99        1.41       4.4     5.1  8.4  0.2826E+00  0.1173E+02 -0.5189E+01E
 Epicentro: ZAPATOCA - SANTANDER                                               3
 ACTION:UPD 15-06-03 16:57 OP:cam  STATUS:               ID:20150424212841 L   I
 OLDACT:REG 15-04-25 03:50 OP:drio STATUS:               ID:20150424212748     3
 2015-04-24-2127-48M.COL___268                                                 6
 STAT SP IPHASW D HRMM SECON CODA AMPLIT PERI AZIMU VELO AIN AR TRES W  DIS CAZ7
 BAR2 EZ EP       2128 59.02                             165    0.2110 31.6 150 
 BAR2 EZ ES       2129 11.97                             165   -0.1410 31.6 150 
 BRR  HZ EP       2128 59.32                             155    0.0110 52.1 305 
 BRR  HN ES       2129 13.63                             155    0.6310 52.1 305 
 BRR  HZ I        2129 13.85        31.2 0.12            151           52.1 305 
 PAM  SZ EP       2129  2.28                             142   -0.0410 88.4  51 
 PAM  SN ES       2129 18.46                             142    0.0910 88.4  51 
 PAM  SZ I        2129 20.65        24.8 0.28            142           88.4  51 
 RUS  HZ EP       2129  4.00                             136    0.0910  108 166 
 RUS  HE ES       2129 20.84                             136   -0.3410  108 166 
 PTB  HZ EP       2129  4.35                             130   -0.8210  130 255 
 PTB  HN ES       2129 22.22                             130   -1.2110  130 255 
 PTB  HZ I        2129 26.02        38.5 0.46            129            130 255 
 SPBC HZ EP       2129  8.35                             125    0.58 9  155 212 
 SPBC HE ES       2129 28.45                             125    0.39 9  155 212 
 SPBC HZ I        2129 32.65        14.1 0.18            125            155 212 
 ZAR  HZ EP       2129 11.25                             120    0.60 9  184 293 
 ZAR  HE ES       2129 34.12                             120    0.93 9  184 293 
 ZAR  HZ I        2129 38.84        18.1 0.26            118            184 293 
 NOR  HZ EP   4   2129 15.91                             115    1.11 0  222 231 
 NOR  HE ES   4   2129 41.03                             115    0.46 0  222 231 
 SML  HZ EP       2129 15.63                             113   -0.24 8  232 339 
 SML  HE ES       2129 41.72                             113   -0.75 8  232 339 
 SML  HZ I        2129 52.95        19.7 0.10            112            232 339 
                                                                                
