 2014 1124 2128 12.2 L   6.790 -73.182138.6  RSN 21 0.7 2.9LRSN                1
 GAP= 70        1.41       3.6     3.5  6.2 -0.2040E+01  0.5929E+01  0.4990E+01E
 Epicentro: LOS SANTOS - SANTANDER                                             3
 ACTION:UPD 14-12-19 15:47 OP:nd   STATUS:               ID:20141124212812 L   I
 OLDACT:DUP 14-11-25 07:08 OP:stll STATUS:               ID:20141124211746d    3
 2014-11-24-2117-45M.COL___300                                                 6
 STAT SP IPHASW D HRMM SECON CODA AMPLIT PERI AZIMU VELO AIN AR TRES W  DIS CAZ7
 BAR2 SZ EP       2128 31.13                             170    0.1810 21.9 180 
 BAR2 SZ ES       2128 45.29                             170   -0.2710 21.9 180 
 BAR2 SZ I        2128 46.95       200.5 0.32            169           21.9 180 
 BRR  HZ IP     C 2128 32.91                             152    0.4910 68.3 301 
 BRR  HN ES       2128 49.42                             152    1.2410 68.3 301 
 BRR  HZ I        2128 52.89       165.5 0.30            150           68.3 301 
 PAM  SZ EP     C 2128 33.83                             149   -0.0510 80.8  41 
 PAM  SZ I        2128 34.13       302.7 0.20            153           80.8  41 
 PAM  SN ES       2128 50.59                             149   -0.1910 80.8  41 
 RUS  HZ EP     C 2128 35.17                             142   -0.0410 99.9 174 
 RUS  HN ES       2128 53.62                             142    0.4810 99.9 174 
 RUS  HZ I        2128 55.54        90.9 0.32            144           99.9 174 
 PTB  HZ EP       2128 37.73                             131   -0.49 9  144 259 
 PTB  HN ES       2128 58.58                             131    0.07 9  144 259 
 PTB  HZ I        2129  0.99       119.2 0.14            130            144 259 
 TAM  HZ IP     C 2128 39.50                             128   -0.17 9  159 104 
 TAM  HZ I        2128 39.70       191.0 0.38            133            159 104 
 TAM  HE ES       2129  0.50                             128   -0.58 9  159 104 
 SPBC HZ EP       2128 40.25                             128    0.40 9  160 218 
 SPBC HN ES       2129  1.87                             128    0.47 9  160 218 
 SPBC HZ I        2129  7.16       133.5 0.18            128            160 218 
 OCA  HZ EP       2128 39.30                             128   -0.73 9  161 355 
 OCA  HN ES       2129  0.87                             128   -0.87 9  161 355 
 OCA  HZ I        2129  5.25        93.3 0.32            130            161 355 
 ZAR  HZ EP       2128 43.82                             121   -0.04 9  201 293 
 ZAR  HN ES       2129  8.60                             121    0.06 9  201 293 
 ZAR  HZ I        2129 18.26       107.1 0.22            121            201 293 
 NOR  HZ EP       2128 47.36                             117    0.25 8  231 234 
 NOR  HN ES       2129 14.20                             117   -0.14 8  231 234 
 NOR  HZ I        2129 24.54        47.9 0.20            118            231 234 
 CHI  HZ EP       2128 49.38                             116    0.09 8  247 194 
 CHI  HN ES       2129 17.54                             116   -0.68 8  247 194 
 CHI  HZ I        2129 21.99        22.8 0.36            117            247 194 
 HEL  HZ EP       2128 52.14                             114    0.53 8  268 256 
 HEL  HE ES       2129 21.49                             114   -0.84 8  268 256 
 HEL  HZ I        2129 29.22        46.2 0.42            114            268 256 
 URE  HZ EP   9   2128 51.06                             112   -1.51 0  281 292 
 URE  HN ES       2129 22.00                                   -0.54 7  281 292 
 URE  HZ I        2129 32.51        61.1 0.20            113            281 292 
 GUY2CHZ EP       2128 55.42                             111    0.36 7  297 234 
 GUY2CHN ES       2129 28.45                             111   -0.02 7  297 234 
 GUY2CHZ I        2129 38.12        34.8 0.36                           297 234 
 RREF HZ EP       2128 59.26                             110    1.64 7  318 229 
 RREF HE ES       2129 31.81                             110   -1.24 7  318 229 
 RREF HZ I        2129 42.92        36.9 0.22            111            318 229 
 CBOC HZ EP       2128 59.01                             109    0.65 7  329 252 
 CBOC HE ES       2129 33.56                             109   -0.80 7  329 252 
 CBOC HZ I        2129 44.44        12.8 0.38            110            329 252 
 DBB  SZ EP       2128 58.62                             108   -0.34 7  336 274 
 TOL  SZ EP       2129  0.98                             108    1.21 7  340 224 
 TOL  SE ES       2129 36.48                             108   -0.39 7  340 224 
 MON  HZ EP   9   2128 58.34                             107   -2.32 0  351 309 
 MON  HN ES       2129 36.55                                    0.42 6  351 309 
 MON  HZ I        2129 37.68        17.0 0.24            108            351 309 
 ANIL HZ EP       2129  2.46                             107    1.13 6  354 224 
 ANIL HN ES       2129 38.02                             107   -1.63 6  354 224 
 ORTC HZ EP       2129  5.72                             105    0.20 6  392 216 
 ORTC HN ES       2129 46.65                             105   -0.44 6  392 216 
 ORTC HZ I        2129 58.56        26.9 0.82            106            392 216 
                                                                                
