 2015  524 2223 41.6 L   6.869 -72.949127.6  RSN  4 0.4 1.5LRSN                1
 GAP=160        1.02       5.1     7.4  8.5 -0.3092E+01 -0.3693E+01  0.4650E+01E
 Epicentro: GUACA - SANTANDER                                                  3
 ACTION:UPD 15-09-10 22:06 OP:cam  STATUS:               ID:20150524222341 L   I
 OLDACT:REG 15-05-25 02:49 OP:drio STATUS:               ID:20150524221746     3
 2015-05-24-2217-46M.COL___297                                                 6
 STAT SP IPHASW D HRMM SECON CODA AMPLIT PERI AZIMU VELO AIN AR TRES W  DIS CAZ7
 BAR2 EZ EP       2223 59.74                             162    0.1310 40.0 220 
 BAR2 EZ ES       2224 13.34                             162   -0.2810 40.0 220 
 BAR2 EZ I        2224 18.67         8.0 0.28            167           40.0 220 
 PAM  SZ EP       2224  1.47                             154    0.6310 58.9  28 
 PAM  SN ES       2224 15.52                             154   -0.3010 58.9  28 
 PAM  SZ I        2224 21.45         9.3 0.46            156           58.9  28 
 BRR  HZ EP       2224  1.61                             143   -0.4210 88.3 287 
 BRR  HE ES       2224 18.23                             143    0.3010 88.3 287 
 RUS  HZ EP       2224  3.88                             137   -0.4510  109 188 
 RUS  HN ES       2224 22.41                             137    0.3810  109 188 
 RUS  HZ I        2224 24.02         5.4 0.34            143            109 188 
                                                                                
