 2013  624 2300 16.6 L   6.226 -73.816 23.1  RSN  5 0.1 1.5LRSN                1
 GAP=154        0.27       1.0     0.8  2.1  0.2635E+00  0.9714E+00  0.9926E+00E
 Epicentro: LANDAZURI - SANTANDER                                              3
 ACTION:UPD 14-01-08 09:56 OP:ep   STATUS:               ID:20130624230016 L   I
 OLDACT:REG 13-06-24 21:47 OP:cam  STATUS:               ID:20130624225959     3
 2013-06-24-2259-59M.COL___267                                                 6
 STAT SP IPHASW D HRMM SECON CODA AMPLIT PERI AZIMU VELO AIN AR TRES W  DIS CAZ7
 PTB  HZ IP     D 23 0 29.58                             104    0.0110 78.9 296 
 PTB  HN ES   1   23 0 39.61                             104   -0.05 7 78.9 296 
 PTB  HZ I        23 0 40.25        19.6 0.16             99           78.9 296 
 BAR2 SZ EP       23 0 30.03                             104   -0.0810 80.9  60 
 BAR2 SZ ES       23 0 40.55                             104   -0.0610 80.9  60 
 BAR2 SZ I        23 0 41.58        16.4 0.14             98           80.9  60 
 RUS  HZ EP       23 0 31.59                             103    0.0110 89.1 114 
 RUS  HN ES   1   23 0 43.29                             103    0.06 7 89.1 114 
 RUS  HZ I        23 0 43.99        11.4 0.18             98           89.1 114 
 BRR  HZ EP   2   23 0 32.45                             101    0.06 5 98.1   7 
 BRR  HN ES       23 0 44.74                             101    0.0610 98.1   7 
 BRR  HZ I        23 0 45.55        10.5 0.10             97           98.1   7 
 HEL  HZ EP       23 0 44.50                              56    0.08 9  190 269 
 HEL  HN ES   1   23 1  6.00                              56   -0.08 7  190 269 
 HEL  HZ I        23 1  9.51         3.8 0.40             56            190 269 
                                                                                
