 2013  624 2236 13.6 L   6.144 -73.887 98.3  RSN  5 0.3 1.4LRSN                1
 GAP=132        0.86       4.1     4.0 11.4 -0.2661E+01  0.2213E+02 -0.2109E+00E
 Epicentro: EL PEON - SANTANDER                                                3
 ACTION:UPD 14-01-08 09:56 OP:ep   STATUS:               ID:20130624223613 L   I
 OLDACT:UP  13-06-24 22:45 OP:ca   STATUS:               ID:20130624222959     3
 OLDACT:REG 13-06-24 21:46 OP:cam  STATUS:               ID:20130624222959     3
 2013-06-24-2229-59M.COL___267                                                 6
 STAT SP IPHASW D HRMM SECON CODA AMPLIT PERI AZIMU VELO AIN AR TRES W  DIS CAZ7
 PTB  HZ EP       2236 29.66                             139   -0.6310 76.6 305 
 PTB  HZ I        2236 45.66         4.3 0.10            136           76.6 305 
 BAR2 SZ EP       2236 32.23                             134    0.2910 92.4  58 
 BAR2 SZ ES       2236 46.29                             134    0.0210 92.4  58 
 BAR2 SZ I        2236 48.91         9.9 0.31            141           92.4  58 
 RUS  HZ EP   1   2236 32.79                             134    0.43 7 93.3 107 
 RUS  HN ES       2236 46.73                             134   -0.3010 93.3 107 
 RUS  HZ I        2236 47.52         1.3 0.18            143           93.3 107 
 BRR  HZ EP       2236 32.92                             129   -0.1710  108  10 
 BRR  HZ I        2236 33.23        26.1 0.14            131            108  10 
 BRR  HN ES       2236 48.60                             129    0.2810  108  10 
 NOR  HZ EP   1   2236 34.99                             124    0.04 7  126 239 
 NOR  HE ES   1   2236 52.12                             124    0.48 7  126 239 
                                                                                
