 2013  424 2338 20.3 L   6.806 -73.130148.5  RSN 16 0.5 3.0LRSN 3.4WRSN        1
 SPEC AVERAGE  MO 14.2 ST 10.1 OM  2.5 f0 3.59 R0.5472 AL 1.84 WI 27.6 MW  3.4 3
 SPEC SD       MO  0.3 ST 10.4 OM  0.4 f00.993 R0.1469 AL      WI      MW  0.2 3
 GAP= 72        1.24       3.3     3.2  5.2 -0.1720E+01  0.2718E+01  0.7242E+00E
 Epicentro: LOS SANTOS - SANTANDER                                             3
 SPEC GUY HH E MO 14.1 ST  1.2 OM  1.9 f0 2.32 R0.7845 AL 2.02 WI 31.3 MW  3.3 3
 SPEC GUY HH E T233939 K 0.050 GD  339 VS 5.20 DE 3.20 Q0750.0 QA 1.50 VS 5.20 3
 SPEC ROSCBH Z MO 13.9 ST  1.6 OM  1.8 f0 2.93 R0.6212 AL 2.43 WI 30.3 MW  3.2 3
 SPEC ROSCBH Z T233927 K 0.050 GD  294 VS 5.20 DE 3.20 Q0750.0 QA 1.50 VS 5.20 3
 SPEC NOR HH E MO 14.3 ST 17.1 OM  2.2 f0 4.83 R0.3768 AL 1.47 WI 30.9 MW  3.5 3
 SPEC NOR HH E T233923 K 0.050 GD  278 VS 5.20 DE 3.20 Q0750.0 QA 1.50 VS 5.20 3
 SPEC ZAR HH N MO 14.5 ST 33.1 OM  2.4 f0 5.33 R0.3415 AL 1.87 WI 32.6 MW  3.6 3
 SPEC ZAR HH N T233917 K 0.050 GD  253 VS 5.20 DE 3.20 Q0750.0 QA 1.50 VS 5.20 3
 SPEC OCA HH N MO 14.7 ST 16.7 OM  2.7 f0 3.54 R0.5141 AL 1.69 WI 30.9 MW  3.8 3
 SPEC OCA HH N T233910 K 0.050 GD  218 VS 5.20 DE 3.20 Q0750.0 QA 1.50 VS 5.20 3
 SPEC TAM HH N MO 14.2 ST  1.8 OM  2.2 f0 2.48 R0.7339 AL 1.44 WI 18.2 MW  3.4 3
 SPEC TAM HH N T2339 9 K 0.050 GD  213 VS 5.20 DE 3.20 Q0750.0 QA 1.50 VS 5.20 3
 SPEC RUS HH E MO 13.9 ST  1.5 OM  2.0 f0 2.88 R0.6319 AL 1.23 WI 16.4 MW  3.2 3
 SPEC RUS HH E T2339 2 K 0.050 GD  179 VS 5.20 DE 3.20 Q0750.0 QA 1.50 VS 5.20 3
 SPEC PAM SH N MO 14.0 ST  3.5 OM  2.1 f0 3.65 R0.4986 AL 1.93 WI 32.1 MW  3.3 3
 SPEC PAM SH N T2339 0 K 0.050 GD  166 VS 5.20 DE 3.20 Q0750.0 QA 1.50 VS 5.20 3
 SPEC BRR HH N MO 14.4 ST 14.4 OM  2.5 f0 4.31 R0.4223 AL 2.50 WI 26.0 MW  3.5 3
 SPEC BRR HH N T233858 K 0.050 GD  165 VS 5.20 DE 3.20 Q0750.0 QA 1.50 VS 5.20 3
 ACTION:UPD 13-05-22 14:40 OP:EP   STATUS:               ID:20130424233820 L   I
 2013-04-24-2328-47M.COL___208                                                 6
 STAT SP IPHASW D HRMM SECON CODA AMPLIT PERI AZIMU VELO AIN AR TRES W  DIS CAZ7
 BAR2 SZ IP     C 2338 40.27                             170    0.0310 24.3 194 
 BAR2 SZ ES       2338 55.48                             170   -0.3510 24.3 194 
 BAR2 SZ I        2338 56.37        79.8 0.26            167           24.3 194 
 GIR2 SZ EP       2338 40.40                             168    0.1410 31.0 347 
 GIR2 SZ ES       2338 56.40                             168    0.5510 31.0 347 
 BRR  HZ EP       2338 42.10                             153    0.3210 72.5 297 
 BRR  HN ES       2338 59.34                             153    0.7710 72.5 297 
 BRR  HN I        2339  0.21       223.8 0.20            151           72.5 297 
 PAM  SZ EP       2338 43.00                             152    0.3210 75.8  39 
 PAM  SZ I        2338 43.27        89.0 0.18            155           75.8  39 
 PAM  SN ES       2339  0.25                             152    0.0910 75.8  39 
 RUS  HZ IP     D 2338 44.15                             144   -0.1710  101 177 
 RUS  HN ES       2339  2.34                             144   -0.7510  101 177 
 RUS  HE I        2339  3.93       134.5 0.48            143            101 177 
 PTB  HZ EP       2338 46.97                             132   -0.65 9  150 259 
 PTB  HN ES       2339  8.02                             132   -0.94 9  150 259 
 PTB  HE I        2339 13.93       126.3 0.50            131            150 259 
 TAM  HZ EP       2338 48.48                             131    0.46 9  154 105 
 TAM  HN ES       2339  9.74                             131    0.07 9  154 105 
 TAM  HE I        2339 11.44        95.4 0.56            133            154 105 
 OCA  HZ EP       2338 48.95                             130    0.20 9  160 352 
 OCA  HN ES       2339 10.89                             130   -0.08 9  160 352 
 OCA  HN I        2339 14.81       372.6 0.26            131            160 352 
 ZAR  HZ EP       2338 52.82                             123   -0.21 8  205 292 
 ZAR  HE ES       2339 18.29                             123   -0.30 8  205 292 
 ZAR  HN I        2339 20.37       146.1 0.14            122            205 292 
 NOR  HZ EP       2338 56.31                             119   -0.04 8  236 235 
 NOR  HE ES       2339 23.73                             119   -0.76 8  236 235 
 NOR  HE I        2339 29.48       128.2 0.22            118            236 235 
 SML  HZ EP       2338 56.62                             118   -0.44 8  244 335 
 SML  HE ES       2339 25.76                             118    0.00 8  244 335 
 ROSC BZ EP       2339  0.02                             117    1.33 8  254 211 
 ROSC BE ES       2339 29.07                             117    0.40 8  254 211 
 ROSC BZ I        2339 38.03        64.5 0.45            116            254 211 
 HEL  HZ EP       2339  0.98                             115    0.16 8  274 256 
 HEL  HN ES       2339 32.69                             115    0.23 8  274 256 
 HEL  HN I        2339 41.22        34.3 0.42            115            274 256 
 SOCV BZ EP       2339  2.33                             113   -0.90 7  299  57 
 SOCV BZ ES   4   2339 34.56                             113   -2.19 0  299  57 
 GUY  HZ EP       2339  4.38                             113   -0.09 7  305 235 
 GUY  HE ES       2339 39.97                             113    1.03 7  305 235 
 GUY  HE I        2339 47.15        51.0 0.34            112            305 235 
 SDV  BZ EP       2339  9.62                             109   -0.58 6  359  50 
                                                                                
