 2014  324 2008 19.0 L   6.754 -73.079  4.7  RSN  7 0.4 1.3LRSN                1
 GAP=147        0.84       1.9     2.3 13.2 -0.1304E+01  0.5931E+01 -0.4951E+01E
 Epicentro: LOS SANTOS - SANTANDER                                             3
 OLDACT:REG 14-03-24 21:26 OP:fm   STATUS:               ID:20140324195810     3
 ACTION:UPD 14-04-09 23:20 OP:nd   STATUS:               ID:20140324200819 L   I
 OLDACT:DUP 14-03-24 22:45 OP:fm   STATUS:               ID:20140324195811d    3
 2014-03-24-1958-10M.COL___251                                                 6
 STAT SP IPHASW D HRMM SECON CODA AMPLIT PERI AZIMU VELO AIN AR TRES W  DIS CAZ7
 BAR2 SZ EP       20 8 22.85                              93   -0.2510 21.2 213 
 BAR2 SZ ES   1   20 8 25.59                              93   -0.68 7 21.2 213 
 BAR2 HZ I        20 8 26.61        95.1 0.18             95           21.2 213 
 PAM  SZ EP       20 8 32.08                              91    0.2510 77.1  33 
 PAM  SE ES       20 8 41.45                              91   -0.3610 77.1  33 
 PAM  HZ I        20 8 42.19        14.2 0.16             47           77.1  33 
 BRR  HZ EP   1   20 8 32.13                              91    0.34 7 80.2 299 
 BRR  HN ES   1   20 8 41.31                              91   -0.42 7 80.2 299 
 BRR  HZ I        20 8 43.61         6.1 1.48             47           80.2 299 
 RUS  HZ EP       20 8 35.09                              90    0.5110 95.2 180 
 RUS  HN ES       20 8 46.51                              90   -0.1810 95.2 180 
 PTB  HZ EP       20 8 43.39                              90    0.37 9  154 261 
 PTB  HN ES       20 9  1.85                              90    0.14 9  154 261 
 PTB  HZ I        20 9  9.99         2.8 1.82             47            154 261 
 SPBC HN ES   2   20 9  4.76                              90    0.23 5  164 222 
 ZAR  HN ES   2   20 9 15.51                              56   -0.16 4  213 293 
                                                                                
