 2013  224 2052 48.9 L   6.786 -73.160140.6  RSN  8 0.6 2.0LRSN                1
 GAP=135        1.11       5.0     5.7  9.1 -0.4383E+01  0.7078E+01 -0.3547E+01E
 Epicentro: LOS SANTOS - SANTANDER                                             3
 ACTION:UPD 13-03-12 09:35 OP:ep   STATUS:               ID:20130224205248 L   I
 2013-02-24-2050-00M.COL___225                                                 6
 STAT SP IPHASW D HRMM SECON CODA AMPLIT PERI AZIMU VELO AIN AR TRES W  DIS CAZ7
 BAR2 SZ EP   1   2053  7.68                             171   -0.22 7 21.5 186 
 BAR2 SZ ES   1   2053 22.26                             171   -0.44 7 21.5 186 
 BAR2 SZ I        2053 23.64        16.6 0.22            171           21.5 186 
 BRR  HZ EP   1   2053  9.92                             152    0.44 7 70.5 300 
 BRR  HN ES       2053 26.18                             152    0.6610 70.5 300 
 BRR  HN I        2053 27.08        23.6 0.20            150           70.5 300 
 PAM  SZ EP   1   2053 10.89                             149    0.15 7 79.6  40 
 PAM  SN ES       2053 27.74                             149   -0.0110 79.6  40 
 PAM  SN I        2053 29.17        10.4 0.66            151           79.6  40 
 RUS  HZ EP   1   2053 11.80                             143   -0.27 7 99.1 175 
 RUS  HN ES   2   2053 30.44                             143    0.32 5 99.1 175 
 RUS  HN I        2053 31.54         9.9 0.28            144           99.1 175 
 PTB  HZ EP   1   2053 15.01                             131   -0.29 7  146 259 
 PTB  HN ES       2053 35.39                             131   -0.49 9  146 259 
 PTB  HN I        2053 39.16         8.0 0.42            130            146 259 
 OCA  HZ EP   1   2053 18.09                             128    1.12 7  162 354 
 OCA  HN ES       2053 38.43                             128   -0.42 9  162 354 
 OCA  HN I        2053 39.22        23.6 0.16            128            162 354 
 ZAR  HN ES   2   2053 47.08                             121    1.16 4  203 293 
 ZAR  HN I        2053 49.82         9.4 0.36            121            203 293 
 SML  HN ES   1   2053 52.75                             116   -1.01 6  244 336 
 SML  HN I        2053 58.21        11.8 0.10            116            244 336 
                                                                                
