 2015 1024 2029 46.6 L   6.799 -73.151142.6  RSN 13 0.5 2.1LRSN                1
 GAP=136        1.15       2.9     4.2  6.0 -0.1734E+01  0.9694E+01  0.1141E+00E
 Epicentro: LOS SANTOS - SANTANDER                                             3
 ACTION:UPD 15-12-22 20:42 OP:cam  STATUS:               ID:20151024202946 L   I
 OLDACT:REG 15-10-25 04:47 OP:ak   STATUS:               ID:20151024202747     3
 2015-10-24-2027-47M.COL___307                                                 6
 STAT SP IPHASW D HRMM SECON CODA AMPLIT PERI AZIMU VELO AIN AR TRES W  DIS CAZ7
 BAR2 EZ EP       2030  5.97                             170    0.1210 23.1 189 
 BAR2 EZ ES       2030 20.48                             170   -0.3810 23.1 189 
 BAR2 EZ I        2030 22.03        24.8 0.24            171           23.1 189 
 BRR  HZ EP       2030  7.99                             152    0.6110 70.7 299 
 BRR  HE ES       2030 24.45                             152    0.8610 70.7 299 
 PAM  EZ EP     C 2030  8.85                             150    0.3410 77.8  40 
 PAM  EN ES       2030 25.64                             150    0.0410 77.8  40 
 PAM  EZ I        2030 28.14        18.1 0.58            152           77.8  40 
 RUS  HZ EP       2030 10.05                             143    0.0110  101 176 
 RUS  HN ES       2030 28.07                             143   -0.2510  101 176 
 RUS  HZ I        2030 29.26        12.3 0.24            145            101 176 
 OCA  HZ EP       2030 15.27                             129    0.60 9  160 353 
 OCA  HN ES       2030 35.76                             129   -0.80 9  160 353 
 OCA  HZ I        2030 39.45        47.5 0.34            130            160 353 
 SPBC HZ EP       2030 14.95                             128    0.13 9  163 219 
 SPBC HE ES       2030 37.00                             128    0.18 9  163 219 
 ZAR  HZ EP       2030 18.07                             122   -0.72 9  204 292 
 ZAR  HN ES       2030 44.15                             122    0.26 9  204 292 
 ZAR  HZ I        2030 50.90        21.9 0.32            122            204 292 
 NOR  HZ EP       2030 22.46                             118    0.37 8  234 234 
 NOR  HN ES       2030 49.57                             118   -0.20 8  234 234 
 NOR  HZ I        2030 55.80         9.5 0.33            119            234 234 
 SML  HZ EP       2030 22.89                             117   -0.15 8  244 335 
 SML  HN ES       2030 50.48                             117   -0.97 8  244 335 
 SML  HZ I        2030 54.41        19.0 0.09            118            244 335 
 CHI  HZ EP       2030 23.75                             116   -0.35 8  248 195 
 CHI  HE ES       2030 52.50                             116   -0.85 8  248 195 
 CHI  HZ I        2030 56.68         4.9 0.34            118            248 195 
 HEL  HZ EP   4   2030 28.38                             114    1.79 0  271 256 
 HEL  HN ES       2030 57.80                             114    0.02 8  271 256 
 GUY2CHZ EP       2030 30.58                             112    0.57 7  301 235 
 GUY2CHN ES       2031  3.88                             112    0.02 7  301 235 
 GUY2CHZ I        2031 11.46         5.2 0.28                           301 235 
 DBB  SZ EP       2030 34.32                             109    0.43 7  339 274 
 DBB  SZ ES       2031 10.17                             109   -0.59 7  339 274 
                                                                                
