 2015  224 2117 39.6 L   6.820 -73.175138.6  RSN 23 0.5 2.6LRSN                1
 GAP= 69        1.05       2.2     3.0  4.6 -0.1172E+01  0.4476E+01  0.1503E+01E
 Epicentro: ZAPATOCA - SANTANDER                                               3
 ACTION:UPD 15-04-30 21:29 OP:nd   STATUS:               ID:20150224211739 L   I
 OLDACT:REG 15-02-25 03:25 OP:fm   STATUS:               ID:20150224210745     3
 2015-02-24-2107-45M.COL___296                                                 6
 STAT SP IPHASW D HRMM SECON CODA AMPLIT PERI AZIMU VELO AIN AR TRES W  DIS CAZ7
 BAR2 EZ IP     C 2117 58.61                             169    0.2410 25.2 182 
 BAR2 EZ ES       2118 12.93                             169   -0.1110 25.2 182 
 BAR2 EZ I        2118 14.63       166.3 0.24            168           25.2 182 
 BRR  HZ IP     C 2118  0.49                             153    0.7710 67.3 298 
 BRR  HE ES       2118 16.30                             153    0.8710 67.3 298 
 BRR  HZ I        2118 18.50       104.5 0.20            151           67.3 298 
 PAM  SZ IP     D 2118  1.41                             149    0.3610 77.8  42 
 PAM  SE ES       2118 18.38                             149    0.5710 77.8  42 
 PAM  SZ I        2118 20.31        75.6 0.74            153           77.8  42 
 RUS  HZ EP       2118  2.47                             142   -0.3310  103 174 
 RUS  HE ES       2118 20.08                             142   -0.8510  103 174 
 RUS  HZ I        2118 21.97        48.3 0.22            143            103 174 
 PTB  HZ EP       2118  5.10                             131   -0.60 9  145 258 
 PTB  HN ES       2118 25.68                             131   -0.41 9  145 258 
 PTB  HZ I        2118 29.53        69.0 0.20            130            145 258 
 OCA  HZ EP       2118  6.98                             128   -0.10 9  158 354 
 OCA  HE ES       2118 28.28                             128   -0.26 9  158 354 
 OCA  HZ I        2118 32.06        72.4 0.28            130            158 354 
 TAM  HZ IP     D 2118  6.83                             128   -0.21 9  159 105 
 SPBC HZ EP       2118  7.35                             127   -0.15 9  163 218 
 SPBC HE ES       2118 29.09                             127   -0.19 9  163 218 
 SPBC HZ I        2118 33.09        67.4 0.12            128            163 218 
 NOR  HZ EP       2118 14.50                             117   -0.24 8  233 234 
 NOR  HN ES       2118 42.13                             117   -0.05 8  233 234 
 NOR  HZ I        2118 46.82        33.6 0.20            117            233 234 
 SML  HZ EP       2118 15.38                             116   -0.05 8  240 336 
 SML  HE ES       2118 42.44                             116   -0.96 8  240 336 
 SML  HZ I        2118 54.20        34.0 0.10            117            240 336 
 CHI  HZ EP       2118 16.66                             115   -0.36 8  250 194 
 CHI  HN ES       2118 45.84                             115   -0.40 8  250 194 
 CHI  HZ I        2118 53.13         9.8 0.30            116            250 194 
 ROSC BZ EP       2118 17.32                             115   -0.01 8  253 210 
 ROSC BE ES       2118 47.42                             115    0.63 8  253 210 
 ROSC BZ I        2118 53.96        26.3 0.55            116            253 210 
 URE  HN ES       2118 50.96                             112   -0.33 7  280 292 
 URE  HZ I        2118 52.83        36.4 0.14            113            280 292 
 GUY2CHZ EP       2118 22.82                             111    0.12 7  300 234 
 GUY2CHE ES       2118 56.47                             111    0.13 7  300 234 
 GUY2CHZ I        2119  5.18        21.2 0.42                           300 234 
 RREF HZ EP       2118 25.47                             110    0.18 7  321 229 
 RREF HE ES       2119  1.22                             110    0.26 7  321 229 
 RREF HZ I        2119 11.48        18.0 0.42            110            321 229 
 CBOC HZ EP       2118 26.71                             109    0.80 7  331 252 
 CBOC HE ES       2119  1.96                             109   -0.11 7  331 252 
 CBOC HZ I        2119 14.07         9.4 0.54            109            331 252 
 DBB  SZ EP       2118 27.18                             108    0.82 7  336 274 
 DBB  SZ ES       2119  2.50                             108   -0.37 7  336 274 
 TOL  SZ EP       2118 28.20                             108    0.74 7  343 224 
 TOL  SN ES       2119  4.34                             108   -0.48 7  343 224 
 TOL  SZ I        2119 10.46        16.2 0.50            109            343 224 
 MON  HE ES       2119  4.90                             107   -0.59 6  350 308 
 ANIL HE ES       2119  8.11                             107    0.51 6  357 224 
 SDV  BE ES   4   2119  3.67                             107   -4.72 0  361  51 
 PRA  HZ EP       2118 32.90                             105    0.01 6  392 209 
 PRA  HE ES       2119 14.74                             105    0.26 6  392 209 
 PRA  HZ I        2119 21.91        10.3 0.24            106            392 209 
 ORTC HZ EP       2118 33.14                             105   -0.10 6  395 216 
 ORTC HN ES       2119 15.56                             105    0.46 6  395 216 
 ORTC HZ I        2119 22.06         8.6 0.52            106            395 216 
 PAL  HE ES       2119 17.32                             105    0.32 6  404 239 
 PAL  HZ I        2119 19.70         6.4 0.46            105            404 239 
                                                                                
