 2017  124 2247 28.1 L   6.488 -73.525147.2  RSN  5 0.3 1.1LRSN                1
 GAP=164        0.75       4.4     4.8  9.1  0.9380E+01  0.1160E+02  0.4928E+01E
 Epicentro: SANTA HELENA DEL OPON - SANTANDER                                  3
 ACTION:UPD 17-05-22 16:03 OP:jn   STATUS:               ID:20170124224728 L   I
 OLDACT:UP  17-01-25 04:48 OP:edw  STATUS:               ID:20170124223747d    3
 OLDACT:UP  17-01-25 04:46 OP:edw  STATUS:               ID:20170124223747d    3
 OLDACT:DUP 17-01-25 04:43 OP:edw  STATUS:               ID:20170124223747d    3
 OLDACT:UP  17-01-25 04:42 OP:edw  STATUS:               ID:20170124223746d    3
 OLDACT:DUP 17-01-25 04:39 OP:edw  STATUS:               ID:20170124223746d    3
 OLDACT:REG 17-01-25 03:28 OP:cara STATUS:               ID:20170124223745     3
 2017-01-24-2238-00M.COL___352                                                 6
 STAT SP IPHASW D HRMM SECON CODA AMPLIT PERI AZIMU VELO AIN AR TRES W  DIS CAZ7
 BRR  HZ EP       2247 48.88                             153   -0.5010 71.5 343 
 BRR  HN ES       2248  5.85                             153   -0.1610 71.5 343 
 RUS  HZ EP       2247 50.91                             150    0.2010 82.0 143 
 RUS  HN ES       2248  8.36                             150   -0.0110 82.0 143 
 RUS  HZ I        2248 11.39         3.1 0.38            152           82.0 143 
 PTB  HZ EP   4   2247 49.85                             143   -1.62 0  103 273 
 PTB  HN ES   4   2248 13.08                             143    3.35 0  103 273 
 PTB  HZ I        2248 14.28         1.6 0.22            143            103 273 
 PAM  EZ EP   4   2247 49.74                             136   -4.60 0  131  44 
 PAM  EN ES       2248 15.05                             136    0.2210  131  44 
 ZAR  HN ES       2248 22.82                             126    0.36 9  185 307 
                                                                                
