 2011  124 2027 39.9 L   6.784 -73.169138.8  RSN 18 0.4 3.8LRSN                1
 GAP=134        0.97       2.9     4.5  6.0 -0.2961E+01  0.9301E+01  0.2967E+01E
 Epicentro: LOS SANTOS - SANTANDER                                             3
 ACTION:UP  11-02-08 08:42 OP:pat  STATUS:               ID:20110124202739 L   I
 2011-01-24-2026-25S.COL___138                                                 6
 STAT SP IPHASW D HRMM SECON CODA AMPLIT PERI AZIMU VELO SNR AR TRES W  DIS CAZ7
 BTL  SZ IP       2027 58.84                             172     0.310   18 324 
 BAR2 SZ IP       2027 58.54                             171    -0.110   21 184 
 BAR2 SZ ES   1   2028 13.33                             171     0.1 7   21 184 
 BAR2 SZ I        2028 14.69      2168.8 0.25                            21 184 
 GIR2 SZ IP       2027 58.60                             166    -0.210   33 355 
 GIR2 SZ ES   1   2028 12.84                             166    -0.7 7   33 355 
 RUS  HZ EP   1   2028  2.54                             143    -0.3 7   99 174 
 RUS  HN ES   1   2028 20.73                             143     0.0 7   99 174 
 RUS  HZ I        2028 22.41       790.7 0.25                            99 174 
 GUE  SZ EP   1   2028  4.64                             137     0.5 7  119  13 
 GRA  SZ EP       2028  5.42                             135     0.710  128  18 
 GRA  SZ ES   1   2028 24.44                             135     0.3 7  128  18 
 GRA  SZ I        2028 29.66       379.2 0.37                           128  18 
 OCA  SZ EP   1   2028  6.87                             127    -0.9 7  162 354 
 OCA  SZ ES   1   2028 29.63                             127     0.0 7  162 354 
 OCA  SZ I        2028 37.23       818.2 0.24                           162 354 
 YOP  SZ IP       2028  9.37                             125     0.0 9  179 152 
 YOP  SN ES   1   2028 32.28                             125    -0.1 7  179 152 
 YOP  SZ I        2028 35.62       333.3 0.33                           179 152 
 NOR  SZ EP   1   2028 14.35                             117    -0.5 6  232 235 
 NOR  SN ES   1   2028 42.09                             117    -0.1 6  232 235 
 CHI  HZ EP       2028 16.76                             116    -0.2 8  246 195 
 CHI  HN ES   1   2028 45.62                             116    -0.2 6  246 195 
 CHI  HZ I        2028 50.52       521.1 0.62                           246 195 
 ROSC BZ EP   1   2028 18.26                             115     0.9 6  250 211 
 ROSC BN ES   1   2028 46.99                             115     0.5 6  250 211 
 ROSC BZ I        2028 52.75       760.5 0.29                           250 211 
 HEL  HZ EP   1   2028 19.01                             113    -0.4 6  269 256 
 HEL  HN ES   1   2028 50.10                             113    -0.2 6  269 256 
 HEL  HZ I        2028 57.11       340.7 0.31                           269 256 
 CVER SZ EP   1   2028 20.32                             113     0.7 6  269 202 
 GUY  SZ EP   1   2028 22.94                             111     0.1 5  298 235 
 GUY  SN ES   1   2028 57.38                             111     1.0 5  298 235 
 GUY  SZ I        2029  5.62       512.6 0.39                           298 235 
 VIL  SZ EP   1   2028 21.94                             111    -0.6 5  299 189 
 VIL  SN ES   1   2028 55.60                             111    -0.2 5  299 189 
 VIL  SZ I        2028 59.38       281.1 0.46                           299 189 
 RREF HZ EP   1   2028 25.01                             110    -0.4 5  319 229 
 RREF HE ES   1   2029  1.07                             110     0.2 5  319 229 
 RREF HZ I        2029  8.51       445.9 0.29                           319 229 
 DBB  SZ EP       2028 26.32                             108    -0.5 7  337 275 
 TOL  SZ EP   1   2028 27.37                             108    -0.1 5  340 225 
                                                                                
