 2014  424 2118 23.1 L   6.755 -73.156147.6  RSN  7 0.2 2.1LRSN                1
 GAP=137        0.60       2.2     2.6  4.5 -0.5687E+00  0.2406E+01  0.5432E+00E
 Epicentro: LOS SANTOS - SANTANDER                                             3
 ACTION:UPD 14-05-13 23:11 OP:nd   STATUS:               ID:20140424211823 L   I
 OLDACT:REG 14-04-25 04:52 OP:stll STATUS:               ID:20140424210813     3
 2014-04-24-2108-13M.COL___248                                                 6
 STAT SP IPHASW D HRMM SECON CODA AMPLIT PERI AZIMU VELO AIN AR TRES W  DIS CAZ7
 BRR  HZ IP     C 2118 44.86                             152    0.3210 72.7 302 
 BRR  HZ I        2118 45.13        42.8 0.26            150           72.7 302 
 BRR  HN ES       2119  1.55                             152    0.3010 72.7 302 
 PAM  SZ EP       2118 45.72                             150   -0.0810 82.0  38 
 PAM  SZ I        2118 46.07        37.7 0.22            153           82.0  38 
 PAM  SN ES       2119  3.40                             150   -0.0910 82.0  38 
 RUS  HZ EP       2118 46.77                             146    0.0710 95.7 175 
 RUS  HN ES       2119  5.04                             146   -0.0510 95.7 175 
 RUS  HZ I        2119  6.30        10.2 0.38            148           95.7 175 
 PTB  HZ EP       2118 49.52                             133   -0.52 9  146 261 
 PTB  HN ES       2119 10.84                             133   -0.21 9  146 261 
 PTB  HZ I        2119 18.23        16.6 0.42            132            146 261 
 SPBC HZ EP       2118 51.56                             130    0.24 9  159 220 
 SPBC HE ES       2119 13.26                             130   -0.06 9  159 220 
 SPBC HZ I        2119 16.95        19.3 0.16            131            159 220 
 OCA  HN ES       2119 14.39                             129   -0.17 9  165 354 
 OCA  HZ I        2119 18.08        12.2 0.22            130            165 354 
 ZAR  HZ EP       2118 55.96                             123    0.20 9  205 294 
 ZAR  HN ES       2119 21.23                             123    0.00 9  205 294 
 ZAR  HZ I        2119 28.18        12.4 0.30            123            205 294 
                                                                                
