 2017  124 2244 22.8 L   6.783 -73.120139.8  RSN  7 0.3 1.7LRSN                1
 GAP=141        0.73       2.8     3.5  4.3  0.1231E+01  0.2157E+01  0.1789E+01E
 Epicentro: LOS SANTOS - SANTANDER                                             3
 ACTION:UPD 17-05-22 16:03 OP:jn   STATUS:               ID:20170124224422 L   I
 OLDACT:UP  17-01-25 04:42 OP:edw  STATUS:               ID:20170124223746d    3
 OLDACT:DUP 17-01-25 04:39 OP:edw  STATUS:               ID:20170124223746d    3
 OLDACT:REG 17-01-25 03:28 OP:cara STATUS:               ID:20170124223745     3
 2017-01-24-2238-00M.COL___352                                                 6
 STAT SP IPHASW D HRMM SECON CODA AMPLIT PERI AZIMU VELO AIN AR TRES W  DIS CAZ7
 BAR2 EZ EP       2244 41.52                             171   -0.2010 22.2 198 
 BAR2 EZ ES       2244 56.21                             171   -0.2510 22.2 198 
 BAR2 EZ I        2244 57.45        11.4 0.30            170           22.2 198 
 BRR  HZ EP       2244 43.42                             150   -0.1210 74.6 299 
 BRR  HN ES       2245  0.14                             150    0.4410 74.6 299 
 BRR  HZ I        2245  4.43        10.9 0.30            148           74.6 299 
 PAM  EZ EP     C 2244 44.47                             150    0.0710 77.1  37 
 PAM  EN ES       2245  1.19                             150   -0.0410 77.1  37 
 PAM  EZ I        2245  3.33        11.6 0.48            152           77.1  37 
 RUS  HZ EP       2244 45.75                             143   -0.1010 98.5 178 
 RUS  HN ES       2245  3.99                             143    0.1910 98.5 178 
 RUS  HZ I        2245  5.32         4.7 0.42            145           98.5 178 
 PTB  HZ EP   9   2244 48.90                             130   -0.65 0  150 260 
 PTB  HE ES       2245  9.56                                   -0.18 9  150 260 
 PTB  HZ I        2245 11.14         6.3 0.16            129            150 260 
 ZAR  HZ EP       2244 55.85                             120    0.60 8  207 292 
 ZAR  HN ES       2245 20.01                             120   -0.52 8  207 292 
 ZAR  HZ I        2245 28.32         9.1 0.40            120            207 292 
 CHI  HZ EP       2244 59.87                             116   -0.22 8  248 196 
 CHI  HN ES       2245 29.31                             116    0.16 8  248 196 
 CHI  HZ I        2245 32.22         1.6 0.58            117            248 196 
                                                                                
