 2013  724 2313 52.5 L   6.817 -73.165140.8  RSN  8 0.4 2.0LRSN                1
 GAP=133        0.99       3.5     4.4  6.4  0.2048E+00  0.9677E+01  0.1729E+01E
 Epicentro: LOS SANTOS - SANTANDER                                             3
 ACTION:UPD 13-08-12 10:39 OP:ep   STATUS:               ID:20130724231352 L   I
 OLDACT:REG 13-07-25 00:35 OP:nd   STATUS:               ID:20130724230959     3
 2013-07-24-2309-59M.COL___267                                                 6
 STAT SP IPHASW D HRMM SECON CODA AMPLIT PERI AZIMU VELO AIN AR TRES W  DIS CAZ7
 GIR2 SZ EP       2314 11.46                             168   -0.1110 29.1 354 
 GIR2 SZ ES       2314 25.74                             168   -0.6710 29.1 354 
 GIR2 SZ I        2314 28.04        17.9 0.34            167           29.1 354 
 BRR  HZ EP       2314 13.46                             153    0.4610 68.4 298 
 BRR  HN ES   2   2314 29.69                             153    0.73 5 68.4 298 
 BRR  HZ I        2314 34.33        19.2 0.36            151           68.4 298 
 PAM  SZ EP       2314 14.53                             150    0.2910 77.3  42 
 PAM  SN ES       2314 31.44                             150    0.2910 77.3  42 
 PAM  SZ I        2314 33.79        18.2 0.64            154           77.3  42 
 RUS  HZ EP       2314 16.05                             142    0.0810  103 175 
 RUS  HN ES       2314 34.31                             142    0.0710  103 175 
 RUS  HZ I        2314 35.63         5.0 0.44            145            103 175 
 PTB  HZ EP       2314 18.48                             131   -0.48 9  146 258 
 PTB  HN ES       2314 39.37                             131   -0.18 9  146 258 
 PTB  HZ I        2314 42.03         8.5 0.12            132            146 258 
 ZAR  HZ EP   2   2314 24.61                             122    0.22 4  201 292 
 ZAR  HE ES       2314 49.84                             122    0.62 9  201 292 
 ZAR  HZ I        2314 55.20        14.6 0.56            123            201 292 
 SML  HZ EP       2314 27.90                             117   -0.71 8  241 336 
 SML  HN ES       2314 56.54                             117   -0.20 8  241 336 
 SML  HZ I        2315  0.41        15.1 0.10            118            241 336 
 PRA  HZ EP       2314 46.71                             106    0.74 6  393 209 
 PRA  HN ES       2315 27.15                             106   -0.49 6  393 209 
 PRA  HZ I        2315 32.54         4.3 0.44            107            393 209 
                                                                                
