 2010  724 2032 32.8 L   6.771 -73.089145.3  RSN 10 0.5 2.1LRSN                1
 GAP=165        1.36       5.4    10.2 10.2 -0.9355E+01 -0.1209E+02 -0.8662E+01E
 Epicentro: LOS SANTOS - SANTANDER                                             3
 ACTION:UPD 10-12-01 15:19 OP:pat  STATUS:               ID:20100724203232 L   I
 2010-07-24-2028-40S.COL___123                                                 6
 STAT SP IPHASW D HRMM SECON CODA AMPLIT PERI AZIMU VELO AIN AR TRES W  DIS CAZ7
 BAR2 SZ EP       2032 52.22                             171    -0.110   22 208 
 BAR2 SZ ES   1   2033  6.98                             171    -0.6 7   22 208 
 BAR2 SZ I        2033  8.89        39.7 0.73                            22 208 
 BRR  HZ EP       2032 54.31                             150     0.010   78 298 
 BRR  HN ES       2033 11.53                             150     0.510   78 298 
 BRR  HZ I        2033 12.43        36.1 0.57                            78 298 
 RUS  HZ EP       2032 56.22                             145     0.010   97 180 
 RUS  HN ES       2033 14.64                             145     0.110   97 180 
 RUS  HZ I        2033 16.26        21.5 0.60                            97 180 
 GUE  SZ EP       2032 58.67                             139     1.110  119   9 
 GUE  SZ I        2032 59.36         7.6 0.27                           119   9 
 GRA  SZ EP       2032 57.43                             137    -0.610  127  14 
 GRA  SZ ES   1   2033 17.22                             137    -0.6 7  127  14 
 GRA  SZ I        2033 19.52        18.4 0.33                           127  14 
 OCA  SZ EP       2033  1.30                             129    -0.1 9  164 351 
 OCA  SZ I        2033 30.77        13.6 0.09                           164 351 
 CHI  HZ EP   2   2033  9.68                             117    -0.6 4  247 197 
 CHI  HN ES   2   2033 39.74                             117     0.2 4  247 197 
 CHI  HZ I        2033 42.85         5.0 1.02                           247 197 
 HEL  HN ES   2   2033 44.81                             114    -0.5 4  277 257 
 HEL  HZ I        2033 52.46         7.6 0.51                           277 257 
 RREF HN ES   2   2033 55.45                             110     0.0 3  325 231 
 RREF HZ I        2034  3.00         9.4 0.72                           325 231 
 PRA  HN ES   2   2034  7.33                             106    -0.7 3  392 211 
 PRA  HZ I        2034 14.94         5.3 0.72                           392 211 
                                                                                
