 2012  124 2357 28.3 L   7.396 -73.216132.9  RSN  7 0.2 1.8LRSN                1
 GAP=183        0.36       3.7     3.0  3.8  0.2404E+01  0.3602E+01  0.1494E+01E
 Epicentro: EL PLAYON - SANTANDER                                              3
 ACTION:UP  12-02-03 08:20 OP:REBC STATUS:               ID:20120124235728 L   I
 2012-01-24-2350-00M.COL___188                                                 6
 STAT SP IPHASW D HRMM SECON CODA AMPLIT PERI AZIMU VELO SNR AR TRES W  DIS CAZ7
 GIR2 SZ EP   1   2357 46.68                             164     0.1 7   35 176 
 GIR2 SZ ES   2   2358  0.40                             164    -0.4 5   35 176 
 PAM  SN ES   2   2358  3.60                             156     0.2 5   57  96 
 BRR  HZ EP   1   2357 47.66                             153     0.0 7   63 240 
 BRR  HE ES   1   2358  2.74                             153     0.0 7   63 240 
 BRR  HZ I        2358  3.31        19.1 0.17                            63 240 
 PTB  HZ EP   1   2357 55.99                             125    -0.1 7  167 235 
 PTB  HN ES   2   2358 18.14                             125     0.4 5  167 235 
 RUS  HZ EP   2   2357 56.87                             126     0.1 5  167 175 
 RUS  HN ES   2   2358 19.12                             126     0.2 5  167 175 
 ZAR  HZ EP   1   2357 57.57                             123    -0.1 7  182 273 
 ZAR  HN ES   2   2358 20.52                             123     0.0 4  182 273 
 ZAR  HZ I        2358 24.09         8.1 0.27                           182 273 
 CHI  HN ES   2   2358 46.55                             109    -0.3 3  311 191 
 CHI  HZ I        2358 58.79         2.4 0.58                           311 191 
                                                                                
