 2014  824 2143 33.7 L   6.739 -73.126151.2  RSN  4 0.3 1.2LRSN                1
 GAP=142        0.73       4.4     4.3  7.2 -0.8778E+00 -0.5805E+00 -0.1461E+01E
 Epicentro: LOS SANTOS - SANTANDER                                             3
 ACTION:UPD 14-09-15 21:52 OP:nd   STATUS:               ID:20140824214333 L   I
 OLDACT:DUP 14-08-25 09:30 OP:spq  STATUS:               ID:20140824213821d    3
 2014-08-24-2138-20M.COL___230                                                 6
 STAT SP IPHASW D HRMM SECON CODA AMPLIT PERI AZIMU VELO AIN AR TRES W  DIS CAZ7
 BRR  HZ EP       2143 56.00                             152    0.2610 76.5 302 
 BRR  HE ES       2144 13.23                             152    0.2910 76.5 302 
 BRR  HZ I        2144 14.59         4.5 0.42            153           76.5 302 
 PAM  SZ EP       2143 56.93                             150    0.1910 81.4  35 
 PAM  SN ES   1   2144 14.12                             150   -0.59 7 81.4  35 
 PAM  SZ I        2144 16.95         2.9 0.34            152           81.4  35 
 RUS  HZ EP   1   2143 57.27                             147   -0.25 7 93.7 177 
 RUS  HE ES       2144 16.24                             147    0.1410 93.7 177 
 RUS  HZ I        2144 17.65         1.6 0.29            149           93.7 177 
 PTB  HZ EP   1   2144  1.00                             133   -0.21 7  149 262 
 PTB  HE ES       2144 22.32                             133   -0.35 9  149 262 
 PTB  HZ I        2144 24.25         1.3 0.34            135            149 262 
                                                                                
