 2014  124 2153 36.8 L   6.839 -73.191145.3  RSN  8 0.4 1.8LRSN                1
 GAP=129        1.00       3.2     4.1  7.6 -0.1238E+01  0.1022E+02  0.1928E+01E
 Epicentro: ZAPATOCA - SANTANDER                                               3
 ACTION:UPD 14-03-13 09:58 OP:ep   STATUS:               ID:20140124215336 L   I
 OLDACT:REG 14-01-24 21:45 OP:carl STATUS:               ID:20140124215000     3
 2014-01-24-2150-00M.COL___285                                                 6
 STAT SP IPHASW D HRMM SECON CODA AMPLIT PERI AZIMU VELO AIN AR TRES W  DIS CAZ7
 PAM  SZ EP       2153 59.45                             151    0.4310 77.5  44 
 PAM  SN ES       2154 16.64                             151    0.3210 77.5  44 
 PAM  SZ I        2154 18.79        15.1 0.54            157           77.5  44 
 RUS  HZ EP       2154  0.56                             142   -0.3410  105 174 
 RUS  HN ES       2154 19.55                             142   -0.1110  105 174 
 RUS  HZ I        2154 20.95         4.7 0.20            147            105 174 
 PTB  HN ES       2154 23.55                             133   -0.59 9  144 257 
 PTB  HZ I        2154 34.04         5.0 0.30            134            144 257 
 ZAR  HE ES       2154 33.32                             123   -0.09 9  198 292 
 ZAR  HE I        2154 40.36        19.9 0.28            126            198 292 
 NOR  HZ EP       2154 12.71                             119    0.32 8  233 233 
 NOR  HE ES       2154 40.46                             119    0.35 8  233 233 
 NOR  HZ I        2154 44.26         3.3 0.18            122            233 233 
 SML  HZ EP       2154 11.90                             118   -0.90 8  238 336 
 SML  HE ES       2154 41.03                             118    0.19 8  238 336 
 CHI  HZ EP       2154 14.72                             117   -0.11 8  252 194 
 CHI  HN ES       2154 44.07                             117   -0.40 8  252 194 
 CHI  HZ I        2154 47.75         2.3 0.56            121            252 194 
 GUY2CHZ EP       2154 20.69                             112    0.43 7  300 234 
 GUY2CHE ES       2154 54.87                             112    0.75 7  300 234 
 GUY2CHZ I        2155  4.56         3.2 0.38                           300 234 
                                                                                
