 2012  224 2057 31.3 L   6.978 -73.434 56.1  RSN  5 0.4 1.4LRSN                1
 GAP=129        0.83       5.6     4.1 12.6 -0.9618E+01 -0.2571E+02  0.4420E+02E
 ACTION:UP  12-03-07 16:33 OP:epov STATUS:               ID:20120224205731 L   I
 2012-02-24-2050-00M.COL___193                                                 6
 STAT SP IPHASW D HRMM SECON CODA AMPLIT PERI AZIMU VELO AIN AR TRES W  DIS CAZ7
 GIR2 SZ EP   2   2057 40.04                             149   -0.49 5 28.8  67 
 BRR  HZ EP   1   2057 41.06                             145    0.40 7 33.8 295 
 BRR  HN ES   1   2057 48.17                             145    0.22 7 33.8 295 
 BRR  HZ I        2057 48.40        26.7 0.06                          33.8 295 
 PAM  SZ EP   1   2057 47.21                             114    0.36 7 90.5  64 
 PAM  SN ES   1   2057 58.41                             114   -0.55 7 90.5  64 
 PTB  HN ES   1   2058  4.01                             106   -0.63 7  123 247 
 RUS  HZ EP   1   2057 51.49                             105    0.48 7  126 162 
 RUS  HN ES   1   2058  6.30                             105   -0.07 7  126 162 
 RUS  HZ I        2058 10.01         4.1 0.44                           126 162 
                                                                                
