 2010  124 2239 45.9 L   7.143 -73.912 93.3  RSN  7 0.5 1.7LRSN                1
 GAP=149        0.81       4.5     6.3 14.9 -0.4593E+01  0.6069E+02  0.6217E+01E
 Epicentro: BARRANCABERMEJA - SANTANDER                                        3
 ACTION:UP  10-08-24 09:45 OP:vdl  STATUS:               ID:20100124223945 L   I
 2010-01-24-2237-34S.COL___095                                                 6
 STAT SP IPHASW D HRMM SECON CODA AMPLIT PERI AZIMU VELO SNR AR TRES W  DIS CAZ7
 GIR2 SZ EP   1   2240  3.05                             137     0.5 7   80  95 
 GIR2 SZ ES   2   2240 15.81                             137     0.2 5   80  95 
 BAR2 SZ EP   1   2240  4.73                             130     0.1 7  101 127 
 BAR2 SZ ES   2   2240 19.16                             130    -0.1 5  101 127 
 OCA  SZ EP   1   2240  7.99                             120    -0.3 7  138  28 
 OCA  SZ ES   2   2240 25.74                             120     0.0 5  138  28 
 RUS  BZ EP   1   2240 11.00                             116    -0.8 7  166 146 
 RUS  BN ES   2   2240 31.07                             116    -0.9 5  166 146 
 RUS  BZ I        2240 33.34         5.8 0.18                           166 146 
 HEL  HZ EP   1   2240 16.66                             110     0.3 6  207 240 
 HEL  HN ES   2   2240 39.43                             110    -0.7 4  207 240 
 HEL  HZ I        2240 39.96         4.5 0.59                           207 240 
 CHI  HZ EP   1   2240 25.05                             105     0.2 6  279 176 
 CHI  HN ES   2   2240 56.20                             105     1.0 4  279 176 
 CHI  HZ I        2241  4.40         2.1 0.84                           279 176 
 RREF BZ EP   1   2240 27.20                             104     0.2 5  294 213 
 RREF BE ES   2   2240 59.47                             104     0.4 4  294 213 
 RREF BZ I        2241  7.24         4.6 0.24                           294 213 
                                                                                
