 2013 1024 2034 56.8 L   6.782 -73.144149.8  RSN  7 0.4 1.9LRSN                1
 GAP=138        0.75       3.9     5.1  7.1 -0.5606E+01  0.9617E+01  0.6483E+00E
 Epicentro: LOS SANTOS - SANTANDER                                             3
 ACTION:UPD 13-11-25 09:23 OP:ep   STATUS:               ID:20131024203456 L   I
 OLDACT:UP  13-10-24 22:39 OP:mh   STATUS:               ID:20131024202847     3
 OLDACT:REG 13-10-24 22:26 OP:mh   STATUS:               ID:20131024202847     3
 2013-10-24-2028-47M.COL___236                                                 6
 STAT SP IPHASW D HRMM SECON CODA AMPLIT PERI AZIMU VELO AIN AR TRES W  DIS CAZ7
 BAR2 SZ EP       2035 16.88                             172   -0.0010 21.4 191 
 BAR2 SZ  AMP     2035 33.46        43.4 0.07                          21.4 191 
 BRR  HZ EP   1   2035 18.90                             153    0.45 7 72.3 300 
 BRR  HN ES   1   2035 35.84                             153    0.51 7 72.3 300 
 BRR  HZ I        2035 41.12        18.4 0.54            150           72.3 300 
 PAM  SZ EP   1   2035 19.73                             151    0.20 7 78.8  39 
 PAM  SN ES   1   2035 37.09                             151   -0.17 7 78.8  39 
 PAM  SZ I        2035 39.17         8.0 0.52            157           78.8  39 
 RUS  HZ EP       2035 20.84                             145    0.0310 98.5 176 
 RUS  HN ES   1   2035 39.21                             145   -0.32 7 98.5 176 
 RUS  HZ I        2035 40.78         6.3 0.48            150           98.5 176 
 SPBC HN ES   2   2035 47.94                             130    0.10 5  162 219 
 NOR  HZ EP       2035 33.05                             119    0.39 8  234 235 
 NOR  HN ES       2036  0.13                             119   -0.50 8  234 235 
 NOR  HZ I        2036  8.28         7.2 0.12            122            234 235 
 SML  HZ EP   1   2035 33.30                             118   -0.56 6  246 335 
 SML  HN ES   2   2036  1.80                             118   -0.97 4  246 335 
                                                                                
