 2016  824 2223 38.7 L   6.551 -73.579100.3  RSN  4 0.2 1.1LRSN                1
 GAP=139        0.51       2.4     1.8  5.5 -0.1527E+01  0.1628E+01 -0.1635E+01E
 Epicentro: EL CARMEN - SANTANDER                                              3
 ACTION:UPD 16-10-29 15:39 OP:rebc STATUS:               ID:20160824222338 L   I
 OLDACT:REG 16-08-25 03:56 OP:lv   STATUS:               ID:20160824221634     3
 2016-08-24-2218-00M.COL___374                                                 6
 STAT SP IPHASW D HRMM SECON CODA AMPLIT PERI AZIMU VELO AIN AR TRES W  DIS CAZ7
 RUS  HZ EP       2223 57.60                             135    0.1310 91.2 143 
 RUS  HN ES       2224 12.02                             135   -0.1010 91.2 143 
 RUS  HZ I        2224 14.63         1.4 0.21                          91.2 143 
 PTB  HZ IP     C 2223 56.96                             132   -0.3910 97.1 269 
 PTB  HE ES       2224 12.07                             132    0.1610 97.1 269 
 PTB  HZ I        2224 13.15         3.7 0.11                          97.1 269 
 PAM  EZ EP       2224  1.23                             123    0.0110  131  48 
 PAM  EN ES       2224 18.84                             123    0.0510  131  48 
 PAM  EZ I        2224 20.45         2.2 0.17                           131  48 
 NOR  HZ EP       2224  6.13                             114    0.17 9  180 233 
 NOR  HN ES       2224 27.24                             114    0.01 9  180 233 
 NOR  HZ I        2224 31.28         4.3 0.16                           180 233 
                                                                                
