 2012  224 2031 51.3 L   6.579 -73.472113.8  RSN 12 0.5 1.9LRSN                1
 GAP= 63        1.07       4.2     4.6  8.2 -0.3675E+01  0.9255E+01  0.8889E+01E
 ACTION:UP  12-03-07 16:33 OP:epov STATUS:               ID:20120224203151 L   I
 2012-02-24-2030-00M.COL___193                                                 6
 STAT SP IPHASW D HRMM SECON CODA AMPLIT PERI AZIMU VELO AIN AR TRES W  DIS CAZ7
 BAR2 SZ EP       2032  7.52                             163    0.1810 32.0  87 
 BAR2 SZ I        2032 24.77        25.1 0.24                          32.0  87 
 GIR2 SZ EP       2032  8.75                             149   -0.0110 63.3  29 
 GIR2 SZ ES   1   2032 22.67                             149    0.28 7 63.3  29 
 BRR  HZ EP       2032  8.84                             148    0.2310 64.2 336 
 BRR  HE ES   1   2032 23.11                             148    0.98 7 64.2 336 
 BRR  HZ I        2032 24.27        34.0 0.17                          64.2 336 
 RUS  HZ EP       2032 10.62                             140   -0.3310 87.2 150 
 RUS  HE ES   1   2032 26.06                             140   -0.23 7 87.2 150 
 RUS  HZ I        2032 29.35         9.2 0.30                          87.2 150 
 PTB  HZ EP       2032 11.24                             133   -0.8810  109 268 
 PTB  HN ES   1   2032 27.56                             133   -0.82 7  109 268 
 PAM  SZ EP   1   2032 13.25                             130   -0.50 7  120  45 
 PAM  SE ES   1   2032 30.94                             130   -0.34 7  120  45 
 OCA  SZ EP   1   2032 20.42                             117    0.53 7  184   5 
 NOR  SZ EP   1   2032 20.02                             116   -0.48 7  191 234 
 NOR  SN ES   1   2032 43.77                             116    0.48 7  191 234 
 CHI  HZ EP   1   2032 24.46                             113    0.58 6  217 188 
 CHI  HN ES   1   2032 49.84                             113    0.54 6  217 188 
 CHI  HZ I        2032 53.53         7.0 0.28                           217 188 
 HEL  HZ EP   1   2032 25.79                             111    0.37 6  232 259 
 HEL  HZ I        2032 59.91         6.7 0.15                           232 259 
 DBB  SZ EP   1   2032 34.28                             105    0.52 5  307 279 
 PRA  HZ EP   1   2032 39.93                             102    0.66 5  353 206 
                                                                                
