 2010  824 2336  4.4 L   6.806 -73.074149.2  RSN  4 0.3 2.0LRSN                1
 GAP=245        0.71       9.0    15.4  7.6  0.9644E+02  0.9931E+00  0.6612E+01E
 Epicentro: LOS SANTOS - SANTANDER                                             3
 ACTION:UP  10-09-07 10:57 OP:vdl  STATUS:               ID:20100824233604 L   I
 2010-08-24-2333-01S.COL___121                                                 6
 STAT SP IPHASW D HRMM SECON CODA AMPLIT PERI AZIMU VELO SNR AR TRES W  DIS CAZ7
 BAR2 SZ EP   1   2336 24.50                             167     0.0 7   27 207 
 BAR2 SZ ES   1   2336 39.65                             167    -0.5 7   27 207 
 BAR2 SZ I        2336 41.30        36.0 0.21                            27 207 
 BRR  HZ EP   1   2336 26.60                             150     0.3 7   78 295 
 BRR  HE ES   1   2336 43.42                             150     0.0 7   78 295 
 BRR  HZ I        2336 44.71        15.7 0.12                            78 295 
 RUS  HZ EP   1   2336 28.46                             143    -0.1 7  101 181 
 RUS  HE ES   1   2336 47.74                             143     0.4 7  101 181 
 RUS  HZ I        2336 48.79         7.9 0.25                           101 181 
 PRA  HZ EP   1   2336 58.08                             106    -0.5 4  397 211 
 PRA  HN ES   3   2337 40.81                             106     0.0 1  397 211 
 PRA  HZ I        2337 46.24         5.1 0.68                           397 211 
                                                                                
