 2012  324 2050  2.4 L   6.812 -73.186145.8  RSN  9 0.5 2.4LRSN                1
 GAP=131        1.13       5.6     5.4  9.0 -0.1528E+01  0.1454E+02  0.1005E+02E
 ACTION:UP  12-03-31 23:22 OP:EP   STATUS:               ID:20120324205002 L   I
 2012-03-24-2047-35M.COL___175                                                 6
 STAT SP IPHASW D HRMM SECON CODA AMPLIT PERI AZIMU VELO SNR AR TRES W  DIS CAZ7
 BAR2 SZ EP       2050 22.14                             170     0.110   24 179 
 BAR2 SZ ES   1   2050 37.30                             170     0.0 7   24 179 
 BAR2 SZ I        2050 38.71       118.0 0.15                            24 179 
 BRR  HZ EP   1   2050 24.01                             154     0.7 7   67 299 
 BRR  HN ES   1   2050 40.40                             154     0.8 7   67 299 
 BRR  HZ I        2050 42.59        75.3 0.13                            67 299 
 PAM  SZ EP   1   2050 25.01                             150     0.3 7   79  43 
 PAM  SN ES   1   2050 41.20                             150    -0.9 7   79  43 
 PAM  SZ I        2050 44.38        41.4 0.48                            79  43 
 RUS  HZ EP   1   2050 25.95                             143    -0.3 7  102 174 
 RUS  HN ES   1   2050 44.68                             143    -0.2 7  102 174 
 RUS  HZ I        2050 46.52        39.0 0.38                           102 174 
 PTB  HZ EP   1   2050 28.81                             133    -0.2 7  144 258 
 PTB  HN ES   1   2050 49.94                             133     0.2 7  144 258 
 PTB  HZ I        2050 53.30        21.4 0.16                           144 258 
 ZAR  HZ EP   1   2050 34.52                             123     0.2 6  199 292 
 ZAR  HN ES   1   2050 58.46                             123    -0.8 6  199 292 
 ZAR  HZ I        2051  7.09        20.5 0.23                           199 292 
 NOR  SZ EP   1   2050 37.96                             119     0.2 6  232 234 
 NOR  SN ES       2051  5.47                             119     0.0 8  232 234 
 CHI  HZ EP   1   2050 40.05                             117     0.0 6  249 194 
 CHI  HN ES   1   2051  9.73                             117     0.2 6  249 194 
 CHI  HZ I        2051 13.02        20.4 0.50                           249 194 
 HEL  HN ES   1   2051 12.17                             115    -1.0 6  268 255 
 HEL  HZ I        2051 21.28        17.2 0.30                           268 255 
                                                                                
