 2017  624 2121 42.2 L   6.660 -73.204136.4  RSN  4 0.2 1.7LRSN                1
 GAP=211        0.60       6.3     4.2  4.8  0.9044E+01  0.6006E+01 -0.2490E+00E
 Epicentro: BARICHARA - SANTANDER                                              3
 ACTION:UPD 17-09-14 16:55 OP:jn   STATUS:               ID:20170624212142 L   I
 OLDACT:REG 17-06-25 03:03 OP:dani STATUS:               ID:20170624211741     3
 2017-06-24-2118-00M.COL___361                                                 6
 STAT SP IPHASW D HRMM SECON CODA AMPLIT PERI AZIMU VELO AIN AR TRES W  DIS CAZ7
 BAR2 EZ EP       2122  0.42                             176   -0.0910 7.82 162 
 BAR2 EZ ES       2122 15.08                             176    0.3110 7.82 162 
 BAR2 EZ I        2122 16.54        12.1 0.30            176           7.82 162 
 BRR  HZ EP       2122  2.49                             150   -0.1110 74.9 311 
 BRR  HN ES       2122 18.16                             150   -0.3210 74.9 311 
 BRR  HZ I        2122 23.09         8.6 0.12            147           74.9 311 
 PTB  HZ EP       2122  7.60                             132   -0.05 9  139 265 
 PTB  HN ES       2122 27.35                             132   -0.13 9  139 265 
 PTB  HZ I        2122 30.55         5.0 0.20            133            139 265 
 ZAR  HZ EP       2122 14.29                             120    0.15 9  205 297 
 ZAR  HE ES       2122 39.40                             120    0.36 9  205 297 
 ZAR  HZ I        2122 44.45         5.7 0.32            121            205 297 
                                                                                
