 2015  124 2200 45.1 L   6.855 -73.211137.4  RSN  6 0.4 1.6LRSN                1
 GAP=126        0.94       3.7     4.8 10.8 -0.7049E+01  0.1564E+02  0.1307E+01E
 Epicentro: ZAPATOCA - SANTANDER                                               3
 ACTION:UPD 15-03-02 15:42 OP:nd   STATUS:               ID:20150124220045 L   I
 OLDACT:UP  15-01-25 06:41 OP:mh   STATUS:               ID:20150124215744     3
 OLDACT:REG 15-01-25 03:24 OP:mh   STATUS:               ID:20150124215744     3
 2015-01-24-2157-44M.COL___268                                                 6
 STAT SP IPHASW D HRMM SECON CODA AMPLIT PERI AZIMU VELO AIN AR TRES W  DIS CAZ7
 PAM  SZ EP       22 1  6.84                             149    0.4010 77.8  46 
 PAM  SN ES       22 1 23.38                             149    0.2710 77.8  46 
 PAM  SZ I        22 1 26.42         4.7 0.62            153           77.8  46 
 RUS  HZ EP       22 1  8.60                             140    0.0610  107 172 
 RUS  HN ES       22 1 26.27                             140   -0.5710  107 172 
 RUS  HZ I        22 1 28.13         4.8 0.38            146            107 172 
 PTB  HZ EP   1   22 1 10.58                             131   -0.28 7  142 256 
 PTB  HN ES       22 1 31.30                             131    0.34 9  142 256 
 PTB  HZ I        22 1 35.77         6.7 0.20            134            142 256 
 OCA  HN ES       22 1 32.67                             129   -0.52 9  154 356 
 OCA  HZ I        22 1 38.66         7.9 0.24            132            154 356 
 SPBC HN ES       22 1 35.14                             127    0.37 9  164 216 
 SPBC HZ I        22 1 38.87         7.9 0.68            131            164 216 
 NOR  HE ES       22 1 47.13                             117   -0.30 8  233 232 
                                                                                
