 2014  824 2352 18.6 L   7.227 -73.062 13.5  RSN  6 0.3 1.2LRSN                1
 GAP=108        0.64       2.2     1.7  3.2 -0.7300E+00  0.1285E+01  0.5029E+00E
 Epicentro: RIONEGRO - SANTANDER                                               3
 ACTION:UPD 14-09-15 21:52 OP:nd   STATUS:               ID:20140824235218 L   I
 OLDACT:DUP 14-08-25 09:19 OP:spq  STATUS:               ID:20140824234822d    3
 2014-08-24-2348-21M.COL___259                                                 6
 STAT SP IPHASW D HRMM SECON CODA AMPLIT PERI AZIMU VELO AIN AR TRES W  DIS CAZ7
 PAM  SZ EP       2352 26.10                             105   -0.1310 41.9  73 
 PAM  SE ES   1   2352 32.28                             105    0.08 7 41.9  73 
 PAM  SZ I        2352 33.33        14.9 0.18            108           41.9  73 
 BAR2 SZ EP   1   2352 30.27                              98   -0.09 7 71.5 191 
 BAR2 SZ ES   1   2352 39.95                              98    0.40 7 71.5 191 
 BAR2 SZ I        2352 40.99        22.1 0.14             99           71.5 191 
 BRR  HZ EP       2352 30.19                              98   -0.1510 73.0 260 
 BRR  HN ES       2352 39.59                              98    0.0810 73.0 260 
 BRR  HZ I        2352 42.53         5.0 0.39             99           73.0 260 
 RUS  HZ EP   1   2352 41.52                              56   -0.56 7  148 181 
 RUS  HE ES   1   2353  0.79                              56    0.39 7  148 181 
 RUS  HZ I        2353  2.35         1.7 0.21             56            148 181 
 PTB  HZ EP   1   2352 44.62                              56    0.09 7  172 244 
 PTB  HE ES   1   2353  4.34                              56   -0.42 7  172 244 
 PTB  HZ I        2353  5.85         3.1 0.26             56            172 244 
 SML  HN ES   1   2353 12.95                              56    0.51 6  207 327 
                                                                                
