 2011 1224 2057  0.4 L   6.765 -73.142144.5  RSN  6 0.3 1.8LRSN                1
 GAP=139        0.68       4.6     4.7  6.0 -0.2974E+01  0.3389E+01  0.2098E+01E
 Epicentro: LOS SANTOS - SANTANDER                                             3
 ACTION:UPD 12-07-13 16:18 OP:ep   STATUS:               ID:20111224205700 L   I
 2011-12-24-2050-00M.COL___189                                                 6
 STAT SP IPHASW D HRMM SECON CODA AMPLIT PERI AZIMU VELO AIN AR TRES W  DIS CAZ7
 BAR2 SZ ES   1   2057 34.71                             172   -0.22 7 19.7 193 
 BAR2 SZ I        2057 36.14        17.4 0.20                          19.7 193 
 GIR2 SZ EP       2057 19.89                             166   -0.1210 35.1 351 
 GIR2 SZ ES   1   2057 35.13                             166   -0.20 7 35.1 351 
 BRR  HZ EP   1   2057 21.65                             152    0.13 7 73.5 301 
 BRR  HZ I        2057 22.13        18.8 0.11                          73.5 301 
 BRR  HE ES   1   2057 38.82                             152    0.81 7 73.5 301 
 PAM  SZ EP   1   2057 22.68                             150    0.06 7 80.1  38 
 PAM  SN ES   1   2057 39.76                             150   -0.22 7 80.1  38 
 RUS  HZ EP   1   2057 24.07                             145    0.34 7 96.7 176 
 RUS  HE ES   1   2057 42.05                             145    0.11 7 96.7 176 
 RUS  HZ I        2057 43.04         4.3 0.23                          96.7 176 
 PTB  HZ EP   1   2057 26.97                             132   -0.24 7  147 260 
 PTB  HN ES   1   2057 47.71                             132   -0.44 7  147 260 
                                                                                
