 2011  724 2256 17.2 L   6.810 -73.094142.4  RSN  6 0.2 1.8LRSN                1
 GAP=161        0.41       3.1     6.2  4.2  0.6822E+01 -0.9746E+01 -0.2847E+01E
 Epicentro: LOS SANTOS - SANTANDER                                             3
 ACTION:UPD 12-07-25 14:03 OP:epov STATUS:               ID:20110724225617 L   I
 2011-07-24-2240-00M.COL___139                                                 6
 STAT SP IPHASW D HRMM SECON CODA AMPLIT PERI AZIMU VELO AIN AR TRES W  DIS CAZ7
 BTL  SZ EP   1   2256 36.43                             171    0.00 7 22.6 302 
 BAR2 SZ EP   1   2256 36.32                             169   -0.18 7 25.9 202 
 BAR2 SZ ES   1   2256 51.24                             169   -0.30 7 25.9 202 
 BAR2 SZ I        2256 52.69        16.6 0.16                          25.9 202 
 GIR2 SZ EP   1   2256 36.54                             167    0.04 7 31.7 340 
 GIR2 SZ ES   1   2256 51.59                             167    0.04 7 31.7 340 
 BRR  HZ EP   1   2256 38.06                             150   -0.21 7 75.8 296 
 BRR  HN ES   1   2256 54.91                             150    0.21 7 75.8 296 
 BRR  HZ I        2256 55.64        19.7 0.12                          75.8 296 
 RUS  HZ EP   1   2256 40.76                             143    0.06 7  101 179 
 RUS  HE ES   1   2256 59.24                             143    0.22 7  101 179 
 RUS  HZ I        2257  1.13         7.2 0.27                           101 179 
 BRI  SZ EP   1   2256 40.71                             141    0.14 7  106  18 
                                                                                
