 2011  124 2340  0.3 L   6.803 -73.171136.3  RSN  6 0.4 1.9LRSN                1
 GAP=156        1.00       5.0    10.6 11.1 -0.2371E+02  0.3385E+02 -0.1889E+02E
 Epicentro: LOS SANTOS - SANTANDER                                             3
 ACTION:UP  11-02-08 08:42 OP:pat  STATUS:               ID:20110124234000 L   I
 2011-01-24-2338-10S.COL___138                                                 6
 STAT SP IPHASW D HRMM SECON CODA AMPLIT PERI AZIMU VELO SNR AR TRES W  DIS CAZ7
 BTL  SZ EP   1   2340 18.59                             173    -0.1 8   17 320 
 BAR2 SZ EP   1   2340 18.36                             170    -0.5 8   23 183 
 BAR2 SZ ES   1   2340 33.37                             170     0.1 8   23 183 
 BAR2 SZ I        2340 35.04        26.7 0.21                            23 183 
 RUS  HZ EP   1   2340 22.74                             141    -0.5 8  101 174 
 RUS  HN ES   1   2340 41.13                             141     0.1 8  101 174 
 RUS  HZ I        2340 42.21         6.5 0.17                           101 174 
 GRA  SZ EP       2340 25.54                             134     0.810  126  19 
 GRA  SZ ES   1   2340 43.93                             134     0.1 7  126  19 
 GRA  SZ I        2340 46.20        12.2 0.39                           126  19 
 OCA  SZ EP   1   2340 27.47                             127    -0.4 7  160 354 
 OCA  SZ ES   1   2340 48.86                             127    -0.5 7  160 354 
 OCA  SZ I        2340 52.35        12.3 0.24                           160 354 
 NOR  SE ES   1   2341  2.93                             117     0.3 6  233 234 
                                                                                
