 2012 1224 2247 48.5 L   6.721 -73.254158.0  RSN  5 0.3 1.9LRSN                1
 GAP=190        0.71       4.0     5.1  7.0  0.1102E+02 -0.3205E+01 -0.5982E+01E
 Epicentro: VILLANUEVA - SANTANDER                                             3
 ACTION:UPD 13-01-04 14:30 OP:ep   STATUS:               ID:20121224224748 L   I
 2012-12-24-2240-00M.COL___242                                                 6
 STAT SP IPHASW D HRMM SECON CODA AMPLIT PERI AZIMU VELO AIN AR TRES W  DIS CAZ7
 BRR  HZ EP       2248 10.97                             156    0.2710 66.3 310 
 BRR  HN ES       2248 27.91                             156   -0.1310 66.3 310 
 BRR  HN I        2248 28.38        12.3 0.28                          66.3 310 
 RUS  HZ EP       2248 13.10                             148    0.1310 93.5 168 
 RUS  HN ES       2248 31.92                             148   -0.1610 93.5 168 
 RUS  HN I        2248 33.19         8.7 0.36                          93.5 168 
 PTB  HZ EP       2248 14.96                             137   -0.3710  134 262 
 PTB  HN ES       2248 36.74                             137    0.4510  134 262 
 PTB  HN I        2248 42.18         7.4 0.24                           134 262 
 ZAR  HN ES       2248 46.06                             126   -0.33 9  197 296 
 ZAR  HN I        2248 55.10         5.2 0.12                           197 296 
 SML  HN ES       2248 55.68                             119    0.11 8  247 339 
 SML  HN I        2248 56.90        11.0 0.10                           247 339 
                                                                                
