 2013  424 2303 20.9 L   6.770 -73.143140.8  RSN  6 0.4 1.5LRSN                1
 GAP=138        0.97       5.1     4.9  7.5 -0.2557E+01  0.3661E+01  0.9924E+01E
 Epicentro: LOS SANTOS - SANTANDER                                             3
 ACTION:UPD 13-05-22 14:40 OP:EP   STATUS:               ID:20130424230320 L   I
 2013-04-24-2258-37M.COL___214                                                 6
 STAT SP IPHASW D HRMM SECON CODA AMPLIT PERI AZIMU VELO AIN AR TRES W  DIS CAZ7
 BAR2 SZ EP       23 3 39.79                             171   -0.1310 20.1 193 
 GIR2 SZ ES       23 3 54.50                             165   -0.5910 34.6 351 
 BRR  HZ EP       23 3 41.94                             151    0.2610 73.1 301 
 BRR  HN ES       23 3 58.42                             151    0.5810 73.1 301 
 BRR  HN I        23 3 58.97        11.8 0.20            151           73.1 301 
 PAM  SZ EP       23 3 43.02                             149    0.2410 79.8  38 
 PAM  SN ES       23 3 59.75                             149   -0.0710 79.8  38 
 RUS  HZ EP       23 3 44.21                             144    0.2410 97.2 176 
 RUS  HN ES       23 4  1.98                             144    0.0510 97.2 176 
 RUS  HN I        23 4  3.02         2.5 0.22            144           97.2 176 
 PTB  HZ EP       23 3 46.80                             131   -0.69 9  147 260 
 PTB  HE ES       23 4  8.21                             131    0.02 9  147 260 
 PTB  HN I        23 4 10.52         5.3 0.48            131            147 260 
                                                                                
