 2016 1224 2028 29.5 L   6.767 -73.125146.0  RSN  6 0.3 1.4LRSN                1
 GAP=141        0.71       3.8     3.7  5.3 -0.1454E+01  0.2931E+01  0.5206E+00E
 Epicentro: LOS SANTOS - SANTANDER                                             3
 ACTION:UPD 17-01-11 20:18 OP:rebc STATUS:               ID:20161224202829 L   I
 OLDACT:UP  16-12-25 04:50 OP:e    STATUS:               ID:20161224202745     3
 OLDACT:REG 16-12-25 03:41 OP:and  STATUS:               ID:20161224202745     3
 2016-12-24-2028-00M.COL___381                                                 6
 STAT SP IPHASW D HRMM SECON CODA AMPLIT PERI AZIMU VELO AIN AR TRES W  DIS CAZ7
 BAR2 EZ ES       2029  4.32                             172   -0.0510 20.3 198 
 BAR2 EZ I        2029  5.38         8.8 0.17            172           20.3 198 
 BRR  HZ EP       2028 51.11                             151    0.2410 75.0 300 
 BRR  HE ES       2029  7.88                             151    0.3210 75.0 300 
 PAM  EZ IP     C 2028 52.05                             150    0.2410 78.9  37 
 PAM  EN ES       2029  8.83                             150   -0.3910 78.9  37 
 PAM  EZ I        2029 11.05         3.2 0.43            151           78.9  37 
 RUS  HZ EP       2028 53.07                             145    0.0910 96.8 177 
 RUS  HN ES       2029 11.37                             145    0.0610 96.8 177 
 RUS  HZ I        2029 12.76         4.1 0.32            146           96.8 177 
 PTB  HZ EP       2028 56.15                             132   -0.46 9  149 260 
 PTB  HN ES       2029 17.64                             132   -0.13 9  149 260 
 PTB  HZ I        2029 19.53         2.3 0.18            133            149 260 
 GUY2CHZ EP   4   2029 16.02                             112    2.95 0  301 236 
 GUY2CHN ES   4   2029 51.31                             112    4.24 0  301 236 
 GUY2CHZ I        2029 54.22         1.5 0.40                           301 236 
                                                                                
