 2012 1224 2233 41.0 L   6.825 -73.064134.1  RSN  7 0.5 2.2LRSN                1
 GAP=191        1.32       5.1     6.3  8.5  0.3249E+01  0.1209E+02 -0.6691E+01E
 Epicentro: LOS SANTOS - SANTANDER                                             3
 ACTION:UPD 13-01-04 14:30 OP:ep   STATUS:               ID:20121224223341 L   I
 2012-12-24-2230-00M.COL___242                                                 6
 STAT SP IPHASW D HRMM SECON CODA AMPLIT PERI AZIMU VELO AIN AR TRES W  DIS CAZ7
 BAR2 SZ EP       2233 58.55                             167   -0.8610 28.9 207 
 BAR2 SZ ES       2234 13.11                             167   -0.6210 28.9 207 
 BAR2 SZ I        2234 16.80        21.7 0.62                          28.9 207 
 BRR  HZ EP       2234  1.93                             148    0.5510 78.1 294 
 BRR  HN ES       2234 17.97                             148    0.7310 78.1 294 
 BRR  HN I        2234 22.28        63.7 0.18                          78.1 294 
 RUS  HZ EP       2234  4.47                             140    0.6110  103 181 
 RUS  HN ES       2234 22.08                             140    0.4210  103 181 
 RUS  HN I        2234 23.97        16.8 0.44                           103 181 
 PTB  HZ EP       2234  7.44                             127   -0.55 9  157 258 
 PTB  HN ES       2234 28.53                             127   -0.48 9  157 258 
 PTB  HN I        2234 29.85        19.1 0.24                           157 258 
 OCA  HZ EP       2234  8.35                             127    0.01 9  159 350 
 OCA  HN ES       2234 29.60                             127   -0.03 9  159 350 
 OCA  HN I        2234 40.57        29.6 0.52                           159 350 
 ZAR  HZ EP       2234 12.99                             119   -0.56 8  212 291 
 ZAR  HN ES       2234 39.14                             119    0.24 8  212 291 
 ZAR  HN I        2234 44.16        14.0 0.18                           212 291 
 HEL  HZ EP       2234 22.26                             111    0.50 7  282 256 
 HEL  HN ES       2234 53.56                             111    0.04 7  282 256 
 HEL  HN I        2234 58.41         6.7 0.54                           282 256 
                                                                                
