 2015  424 2009 31.8 L   7.319 -73.375112.9  RSN  6 0.5 2.0LRSN                1
 GAP=171        1.19       6.8     4.4  8.4 -0.4272E+01  0.1460E+02 -0.1865E+01E
 Epicentro: SABANA DE TORRES - SANTANDER                                       3
 ACTION:UPD 15-06-03 16:57 OP:cam  STATUS:               ID:20150424200931 L   I
 OLDACT:REG 15-04-25 03:21 OP:drio STATUS:               ID:20150424200747     3
 2015-04-24-2007-47M.COL___259                                                 6
 STAT SP IPHASW D HRMM SECON CODA AMPLIT PERI AZIMU VELO AIN AR TRES W  DIS CAZ7
 BRR  HZ EP       20 9 47.73                             157   -0.2210 44.0 238 
 BRR  HN ES       2010  0.45                             157   -0.0610 44.0 238 
 BRR  HZ I        2010  1.45        31.2 0.12            157           44.0 238 
 PAM  SZ EP       20 9 50.23                             145   -0.2610 74.6  88 
 PAM  SN ES       2010  5.27                             145    0.2410 74.6  88 
 PAM  SZ I        2010  6.17        35.4 0.98            147           74.6  88 
 BAR2 EZ EP       20 9 50.45                             141   -0.3210 83.2 165 
 BAR2 EZ ES       2010  5.97                             141    0.4410 83.2 165 
 BAR2 EZ I        2010  7.06        36.6 0.28            143           83.2 165 
 PTB  HZ EP       20 9 55.84                             123   -0.48 9  147 234 
 PTB  HN ES       2010 14.49                             123   -0.91 9  147 234 
 PTB  HZ I        2010 17.77         6.3 0.26            125            147 234 
 ZAR  HZ EP       20 9 58.12                             120    0.00 9  165 277 
 ZAR  HN ES       2010 19.33                             120    0.72 9  165 277 
 ZAR  HZ I        2010 21.30        15.3 0.82            121            165 277 
 NOR  HZ EP       2010  8.98                             109    0.75 8  255 220 
 NOR  HN ES       2010 37.20                             109    0.58 8  255 220 
                                                                                
