 2010  924 2155  8.7 L   6.058 -73.858 98.4  RSN  4 0.4 1.7LRSN                1
 GAP=142        0.72       6.0     5.3 14.4 -0.1165E+02  0.2843E+02 -0.4721E+01E
 Epicentro: EL PEON - SANTANDER                                                3
 ACTION:UP  11-02-18 11:05 OP:tino STATUS:               ID:20100924215508 L   I
 2010-09-24-2152-21S.COL___120                                                 6
 STAT SP IPHASW D HRMM SECON CODA AMPLIT PERI AZIMU VELO SNR AR TRES W  DIS CAZ7
 RUS  HZ EP   1   2155 26.64                             136    -0.4 7   88 102 
 RUS  HZ I        2155 27.11         7.1 0.09                            88 102 
 RUS  HN ES   2   2155 41.54                             136     0.2 5   88 102 
 BAR2 SZ EP   1   2155 27.38                             133     0.1 7   95  52 
 BAR2 SZ ES   2   2155 41.94                             133     0.1 5   95  52 
 BAR2 SZ I        2155 43.62        15.5 0.52                            95  52 
 BRR  HZ EP   1   2155 28.83                             126    -0.3 7  117   8 
 BRR  HZ I        2155 29.06        15.9 0.10                           117   8 
 BRR  HE ES   2   2155 45.31                             126     0.3 5  117   8 
 NOR  SZ EP   1   2155 30.50                             125     0.6 7  125 244 
 NOR  SN ES   2   2155 45.95                             125    -0.6 5  125 244 
                                                                                
