 2012  924 2215 22.3 L   6.760 -73.147144.2  RSN  6 0.4 1.6LRSN                1
 GAP=184        0.78       6.6     6.3 11.7  0.1856E+02 -0.2511E+02 -0.1589E+02E
 Epicentro: LOS SANTOS - SANTANDER                                             3
 ACTION:UPD 12-10-22 14:20 OP:ep   STATUS:               ID:20120924221522 L   I
 2012-09-24-2210-00M.COL___220                                                 6
 STAT SP IPHASW D HRMM SECON CODA AMPLIT PERI AZIMU VELO AIN AR TRES W  DIS CAZ7
 BAR2 SZ EP   1   2215 41.26                             172   -0.40 7 19.0 192 
 BAR2 SZ I        2215 57.97         8.9 0.14                          19.0 192 
 GIR2 SZ EP   1   2215 41.28                             165   -0.63 7 35.6 352 
 BRR  HZ EP       2215 43.82                             151    0.4210 73.3 302 
 BRR  HN ES   1   2216  0.13                             151    0.28 7 73.3 302 
 BRR  HZ I        2216 16.82        14.7 0.34                          73.3 302 
 RUS  HZ EP       2215 45.85                             144    0.2710 96.2 176 
 RUS  HN ES   1   2216  3.64                             144   -0.10 7 96.2 176 
 RUS  HZ I        2216  5.73         2.5 0.36                          96.2 176 
 PTB  HE ES       2216  9.76                             132   -0.16 9  147 261 
 ZAR  HN ES   2   2216 19.77                             122   -0.39 4  206 293 
 ZAR  HZ I        2216 25.85         3.4 0.17                           206 293 
                                                                                
