 2013 1224 2242 35.9 L   6.799 -73.158147.0  RSN  8 0.4 1.5LRSN                1
 GAP=135        0.89       4.7     4.5  6.4 -0.1905E+01  0.5492E+01 -0.1874E+01E
 Epicentro: LOS SANTOS - SANTANDER                                             3
 ACTION:UPD 14-01-13 10:20 OP:ep   STATUS:               ID:20131224224235 L   I
 OLDACT:REG 13-12-24 23:35 OP:cam  STATUS:               ID:20131224224000     3
 2013-12-24-2240-00M.COL___285                                                 6
 STAT SP IPHASW D HRMM SECON CODA AMPLIT PERI AZIMU VELO AIN AR TRES W  DIS CAZ7
 BAR2 SZ EP       2242 55.59                             171   -0.1110 23.0 187 
 BAR2 SZ ES       2243 11.18                             171    0.0610 23.0 187 
 BAR2 SZ I        2243 11.92        10.4 0.48            170           23.0 187 
 BRR  HZ EP       2242 57.38                             153    0.2310 70.0 299 
 BRR  HN ES       2243 14.43                             153    0.7410 70.0 299 
 PAM  SZ EP       2242 58.45                             151    0.1110 78.4  40 
 PAM  SN ES       2243 15.40                             151   -0.4110 78.4  40 
 PAM  SZ I        2243 17.64         5.9 0.58            153           78.4  40 
 RUS  HZ EP   2   2243  0.15                             144    0.34 5  101 175 
 RUS  HN ES       2243 18.29                             144   -0.1310  101 175 
 RUS  HZ I        2243 20.12         3.8 0.22            145            101 175 
 PTB  HZ EP       2243  2.50                             133   -0.38 9  146 259 
 PTB  HN ES       2243 23.40                             133   -0.49 9  146 259 
 PTB  HZ I        2243 28.80         4.4 0.44            133            146 259 
 ZAR  HN ES   2   2243 33.98                             123    0.38 4  203 292 
 SML  HZ EP   2   2243 12.32                             118   -0.26 4  243 336 
 CHI  HZ EP   2   2243 14.66                             118    1.01 4  248 195 
                                                                                
