 2013 1224 2324 28.2 L   6.800 -73.145148.5  RSN  9 0.3 2.1LRSN                1
 GAP=137        0.79       2.7     3.4  4.9 -0.3787E+00  0.3415E+01 -0.1810E+01E
 Epicentro: LOS SANTOS - SANTANDER                                             3
 ACTION:UPD 14-01-13 10:20 OP:ep   STATUS:               ID:20131224232428 L   I
 OLDACT:DUP 13-12-25 03:15 OP:cam  STATUS:               ID:20131224232001d    3
 OLDACT:UP  13-12-25 03:14 OP:cam  STATUS:               ID:20131224232000     3
 OLDACT:REG 13-12-24 23:36 OP:cam  STATUS:               ID:20131224232000     3
 2013-12-24-2320-00M.COL___285                                                 6
 STAT SP IPHASW D HRMM SECON CODA AMPLIT PERI AZIMU VELO AIN AR TRES W  DIS CAZ7
 BAR2 SZ EP   1   2324 47.83                             171   -0.28 7 23.3 190 
 BAR2 SZ ES       2325  3.37                             171   -0.3010 23.3 190 
 BAR2 SZ I        2325  4.49        54.7 0.34            170           23.3 190 
 BRR  HZ IP     C 2324 49.86                             153    0.2610 71.3 298 
 BRR  HN ES       2325  6.97                             153    0.6410 71.3 298 
 BRR  HZ I        2325 10.74        19.5 0.46            149           71.3 298 
 PAM  SZ EP       2324 50.91                             151    0.2610 77.3  39 
 PAM  SN ES       2325  8.04                             151   -0.1610 77.3  39 
 PAM  SN I        2325  9.39        25.1 0.42            154           77.3  39 
 RUS  HZ EP       2324 52.34                             144    0.1710  101 176 
 RUS  HN ES       2325 10.84                             144   -0.0610  101 176 
 RUS  HZ I        2325 11.67         6.4 0.34            147            101 176 
 PTB  HZ EP       2324 55.13                             133   -0.22 9  148 259 
 PTB  HN ES       2325 15.87                             133   -0.69 9  148 259 
 PTB  HZ I        2325 22.85         8.7 0.18            132            148 259 
 OCA  HZ EP   2   2324 56.22                             130   -0.45 5  160 353 
 OCA  HN ES   2   2325 19.00                             130    0.08 5  160 353 
 SPBC HZ EP       2324 57.06                             130    0.20 9  163 219 
 SPBC HN ES       2325 19.41                             130    0.15 9  163 219 
 SPBC HZ I        2325 23.91        14.6 0.20            130            163 219 
 ZAR  HN ES       2325 26.49                             123    0.25 9  204 292 
 ZAR  HZ I        2325 32.17         9.8 0.52            123            204 292 
 SML  HZ EP       2325  4.79                             118   -0.14 8  244 335 
 SML  HE ES       2325 33.37                             118   -0.26 8  244 335 
 SML  HZ I        2325 40.62        15.7 0.26            119            244 335 
 CHI  HZ EP   4   2325  6.30                             118    0.30 0  249 195 
                                                                                
