 2014  824 2150 37.1 L   6.745 -73.124144.3  RSN  5 0.2 1.1LRSN                1
 GAP=142        0.58       3.9     3.3  4.9 -0.1734E+01  0.1062E+01  0.5449E+00E
 Epicentro: LOS SANTOS - SANTANDER                                             3
 ACTION:UPD 14-09-15 21:52 OP:nd   STATUS:               ID:20140824215037 L   I
 OLDACT:REG 14-08-25 03:29 OP:spq  STATUS:               ID:20140824214820     3
 2014-08-24-2148-20M.COL___242                                                 6
 STAT SP IPHASW D HRMM SECON CODA AMPLIT PERI AZIMU VELO AIN AR TRES W  DIS CAZ7
 BAR2 SZ ES   1   2151 11.29                             173   -0.26 7 18.1 201 
 BRR  HZ EP       2150 58.20                             151   -0.1810 76.4 302 
 BRR  HE ES       2151 15.35                             151    0.3610 76.4 302 
 BRR  HZ I        2151 21.41         5.4 0.48            150           76.4 302 
 PAM  SZ EP       2150 59.17                             150   -0.1810 80.8  35 
 PAM  SN ES   1   2151 16.79                             150    0.07 7 80.8  35 
 PAM  SZ I        2151 18.61         2.0 0.34            154           80.8  35 
 RUS  HZ EP   1   2151  0.56                             145    0.31 7 94.3 177 
 RUS  HE ES   1   2151 18.39                             145    0.07 7 94.3 177 
 RUS  HZ I        2151 20.13         0.8 0.28            150           94.3 177 
 PTB  HZ EP       2151  4.21                             131    0.15 9  149 261 
 PTB  HE ES       2151 24.83                             131   -0.27 9  149 261 
 PTB  HZ I        2151 30.45         1.4 0.20            133            149 261 
                                                                                
