 2015 1024 2354 39.5 L   6.803 -73.138144.7  RSN 11 0.5 1.9LRSN                1
 GAP=137        1.15       2.9     4.8  6.1 -0.2176E+01  0.9514E+01  0.3727E+00E
 Epicentro: LOS SANTOS - SANTANDER                                             3
 ACTION:UPD 15-12-22 20:42 OP:cam  STATUS:               ID:20151024235439 L   I
 OLDACT:REG 15-10-25 04:55 OP:ak   STATUS:               ID:20151024234749     3
 2015-10-24-2347-49M.COL___310                                                 6
 STAT SP IPHASW D HRMM SECON CODA AMPLIT PERI AZIMU VELO AIN AR TRES W  DIS CAZ7
 BAR2 EZ EP       2354 58.74                             170   -0.2510 23.9 192 
 BAR2 EZ ES       2355 13.83                             170   -0.3710 23.9 192 
 BAR2 EZ I        2355 15.87        15.4 0.14            171           23.9 192 
 BRR  HZ EP       2355  1.01                             152    0.4710 71.8 298 
 BRR  HN ES       2355 17.78                             152    0.8110 71.8 298 
 PAM  EZ EP       2355  2.00                             151    0.4710 76.6  39 
 PAM  EN ES       2355 19.03                             151    0.3010 76.6  39 
 PAM  EZ I        2355 21.41        13.7 0.44            152           76.6  39 
 RUS  HZ EP       2355  3.04                             144   -0.1110  101 177 
 RUS  HN ES       2355 21.65                             144    0.0510  101 177 
 OCA  HZ EP       2355  8.03                             129    0.35 9  160 353 
 OCA  HN ES       2355 28.81                             129   -0.86 9  160 353 
 OCA  HZ I        2355 33.82        14.5 0.10            130            160 353 
 SPBC HZ EP       2355  8.42                             129    0.45 9  164 219 
 SPBC HE ES       2355 29.81                             129   -0.39 9  164 219 
 ZAR  HZ EP       2355 11.79                             122   -0.13 9  205 292 
 ZAR  HN ES       2355 37.12                             122   -0.10 9  205 292 
 ZAR  HZ I        2355 42.54         6.2 0.27            123            205 292 
 NOR  HZ EP       2355 15.10                             118   -0.14 8  236 235 
 NOR  HE ES       2355 42.98                             118   -0.16 8  236 235 
 NOR  HZ I        2355 45.74         9.1 0.14            119            236 235 
 SML  HZ EP       2355 15.46                             117   -0.59 8  244 335 
 SML  HN ES       2355 44.05                             117   -0.52 8  244 335 
 CHI  HZ EP       2355 16.95                             117   -0.23 8  249 195 
 CHI  HN ES       2355 45.79                             117   -0.80 8  249 195 
 CHI  HZ I        2355 49.96         5.0 0.42            118            249 195 
 GUY2CHZ EP       2355 24.11                             112    0.97 7  302 235 
 GUY2CHE ES       2355 57.61                             112    0.42 7  302 235 
 GUY2CHZ I        2356  3.39         4.0 0.36                           302 235 
                                                                                
