 2012 1124 2137 51.6 L   6.777 -73.199142.9  RSN  5 0.2 1.6LRSN                1
 GAP=131        0.54       3.0     3.1  3.9 -0.2532E+01  0.2556E+01  0.4398E+00E
 Epicentro: ZAPATOCA - SANTANDER                                               3
 ACTION:UPD 12-12-05 15:35 OP:}ep  STATUS:               ID:20121124213751 L   I
 2012-11-24-2130-00M.COL___234                                                 6
 STAT SP IPHASW D HRMM SECON CODA AMPLIT PERI AZIMU VELO AIN AR TRES W  DIS CAZ7
 BAR2 SZ EP       2138 10.95                             171    0.0810 20.5 175 
 BAR2 SZ I        2138 11.20        11.7 0.32                          20.5 175 
 BAR2 SZ ES       2138 25.76                             171   -0.1110 20.5 175 
 GIR2 SZ EP       2138 10.97                             166   -0.0610 33.4   1 
 GIR2 SZ ES       2138 26.56                             166    0.4110 33.4   1 
 PAM  SZ EP       2138 13.78                             148   -0.1310 83.2  42 
 PAM  SN ES       2138 31.08                             148   -0.2010 83.2  42 
 RUS  HZ EP       2138 15.24                             144    0.2810 98.6 173 
 RUS  HN ES       2138 33.02                             144   -0.1410 98.6 173 
 RUS  HN I        2138 34.60         5.8 0.20                          98.6 173 
 PTB  HZ EP       2138 17.79                             133   -0.01 9  141 259 
 PTB  HN ES       2138 38.08                             133   -0.13 9  141 259 
 PTB  HN I        2138 43.65         3.8 0.44                           141 259 
                                                                                
