 2011 1124 2301 36.3 L   6.798 -73.079136.0  RSN  4 0.4 1.5LRSN                1
 GAP=145        0.81       5.6     8.1  9.9 -0.1406E+01 -0.4755E+01  0.5052E+01E
 Epicentro: LOS SANTOS - SANTANDER                                             3
 ACTION:UPD 12-07-13 16:12 OP:ep   STATUS:               ID:20111124230136 L   I
 2011-11-24-2257-13S.COL___178                                                 6
 STAT SP IPHASW D HRMM SECON CODA AMPLIT PERI AZIMU VELO AIN AR TRES W  DIS CAZ7
 BAR2 SZ ES   2   23 2  8.31                             169   -0.94 5 25.4 207 
 PAM  SZ EP   1   23 1 57.58                             151    0.34 7 73.1  35 
 PAM  SN ES   1   23 2 13.51                             151   -0.05 7 73.1  35 
 BRR  HZ EP   1   23 1 56.38                             149   -0.45 7 77.9 296 
 BRR  HN ES   1   23 2 13.25                             149    0.42 7 77.9 296 
 BRR  HZ I        23 2 17.21        12.4 0.29                          77.9 296 
 RUS  HZ EP   1   23 1 58.85                             142   -0.23 7  100 180 
 RUS  HN ES   1   23 2 17.24                             142    0.40 7  100 180 
 RUS  HZ I        23 2 18.81         3.5 0.31                           100 180 
                                                                                
