 2010  624 2018 19.8 L   6.785 -73.095153.5  RSN  4 0.2 1.6LRSN                1
 GAP=170        0.43       6.4    11.6 11.9  0.4352E+02 -0.7962E+02 -0.2167E+02E
 Epicentro: LOS SANTOS - SANTANDER                                             3
 ACTION:UP  10-08-24 10:12 OP:vdl  STATUS:               ID:20100624201819 L   I
 2010-06-24-2016-09S.COL___118                                                 6
 STAT SP IPHASW D HRMM SECON CODA AMPLIT PERI AZIMU VELO SNR AR TRES W  DIS CAZ7
 BAR2 SZ EP       2018 40.35                             170    -0.110   24 205 
 BRR  HZ IP     D 2018 42.32                             151     0.210   77 298 
 BRR  HZ I        2018 56.18        17.0 0.18                            77 298 
 BRR  HN ES   2   2018 59.28                             151    -0.3 5   77 298 
 RUS  HZ EP   1   2018 44.12                             145    -0.1 7   99 179 
 RUS  HZ I        2018 44.81         2.5 0.19                            99 179 
 RUS  HE ES   3   2019  3.75                             145     0.5 2   99 179 
 GUE  SZ EP   2   2018 45.33                             140     0.0 5  117   9 
                                                                                
