 2017  524 2122  2.5 L   6.792 -73.150148.8  RSN  6 0.3 1.9LRSN                1
 GAP=212        0.71       6.1     7.7  5.5  0.3801E+02 -0.1513E+02 -0.9295E+01E
 Epicentro: LOS SANTOS - SANTANDER                                             3
 ACTION:UPD 17-06-16 13:38 OP:jn   STATUS:               ID:20170524212202 L   I
 OLDACT:UP  17-05-25 06:35 OP:cog  STATUS:               ID:20170524211744     3
 OLDACT:UP  17-05-25 06:35 OP:cog  STATUS:               ID:20170524211744     3
 OLDACT:REG 17-05-25 05:54 OP:cog  STATUS:               ID:20170524211744     3
 2017-05-24-2118-00M.COL___350                                                 6
 STAT SP IPHASW D HRMM SECON CODA AMPLIT PERI AZIMU VELO AIN AR TRES W  DIS CAZ7
 BRR  HZ EP       2122 23.75                             153   -0.2210 71.2 299 
 BRR  HN ES       2122 40.86                             153    0.1410 71.2 299 
 BRR  HZ I        2122 44.59        20.9 0.44            145           71.2 299 
 RUS  HZ EP       2122 26.02                             145   -0.4710 99.7 176 
 RUS  HE ES       2122 45.00                             145   -0.2010 99.7 176 
 RUS  HZ I        2122 45.67         5.7 0.18            142           99.7 176 
 PTB  HZ EP   9   2122 28.66                             133   -0.99 0  147 259 
 PTB  HN ES       2122 49.94                             129    0.10 9  147 259 
 PTB  HZ I        2122 56.66        11.9 0.50            127            147 259 
 YPLC HZ EP       2122 32.62                             127    0.16 9  176 151 
 YPLC HN ES       2122 56.28                             127    0.44 9  176 151 
 YPLC HZ I        2122 57.30         8.0 0.26            128            176 151 
 ZAR  HZ EP       2122 35.46                             123    0.33 9  204 292 
 ZAR  HN ES   4   2123  0.31                             123   -0.27 0  204 292 
 ZAR  HZ I        2123 10.17         9.3 0.50            119            204 292 
 CHI  HZ EP       2122 40.32                             118    0.06 8  248 195 
 CHI  HN ES   4   2123  8.75                             118   -0.96 0  248 195 
 CHI  HZ I        2123 11.99         3.8 0.36            116            248 195 
                                                                                
