 2017  524 2229 24.7 L   6.782 -73.184146.0  RSN 11 0.4 2.3LRSN                1
 GAP=208        0.75       3.2     3.4  5.0  0.4509E+01  0.4010E+00  0.1206E+01E
 Epicentro: LOS SANTOS - SANTANDER                                             3
 ACTION:UPD 17-06-16 13:38 OP:jn   STATUS:               ID:20170524222924 L   I
 OLDACT:UP  17-05-25 06:44 OP:cog  STATUS:               ID:20170524222739     3
 OLDACT:REG 17-05-25 06:11 OP:cog  STATUS:               ID:20170524222739     3
 2017-05-24-2228-00M.COL___344                                                 6
 STAT SP IPHASW D HRMM SECON CODA AMPLIT PERI AZIMU VELO AIN AR TRES W  DIS CAZ7
 BRR  HZ EP       2229 45.58                             153   -0.1710 68.5 302 
 BRR  HN ES       2230  2.62                             153    0.4710 68.5 302 
 RUS  HZ EP       2229 48.20                             144   -0.1810 98.9 174 
 RUS  HE ES       2230  6.82                             144   -0.0110 98.9 174 
 RUS  HZ I        2230  8.36        28.9 0.32            142           98.9 174 
 PTB  HZ EP       2229 50.80                             133   -0.50 9  143 259 
 PTB  HN ES       2230 11.71                             133   -0.31 9  143 259 
 PTB  HZ I        2230 13.73        21.7 0.20            132            143 259 
 SPBC HZ EP       2229 52.91                             130    0.07 9  159 218 
 SPBC HN ES       2230 14.66                             130   -0.11 9  159 218 
 SPBC HZ I        2230 20.92        24.4 0.36            128            159 218 
 YPLC HZ EP       2229 54.26                             127   -0.30 9  177 150 
 YPLC HN ES   3   2230 18.41                             127    0.57 2  177 150 
 ZAR  HZ EP       2229 57.05                             123    0.19 9  201 293 
 ZAR  HN ES       2230 21.92                             123   -0.00 9  201 293 
 NOR  HZ EP       2230  0.14                             119    0.17 8  230 234 
 NOR  HE ES   3   2230 26.05                             119   -1.41 2  230 234 
 NOR  HZ I        2230 34.63        12.7 0.60            118            230 234 
 CHI  HZ EP       2230  2.51                             117    0.41 8  246 194 
 CHI  HN ES       2230 31.83                             117    0.57 8  246 194 
 HEL  HZ EP   4   2230  6.50                             115    2.07 0  267 256 
 HEL  HN ES       2230 35.09                             115   -0.32 8  267 256 
 PTGC HZ EP   9   2230  7.12                             112   -1.43 0  308 158 
 PTGC HN ES       2230 40.82                             111   -0.49 7  308 158 
 CBOC HZ EP   3   2230 12.96                             110    1.85 2  329 252 
 CBOC HN ES       2230 47.61                             110    0.32 7  329 252 
                                                                                
