 2013  524 2157 50.0 L   6.724 -73.177148.2  RSN  5 0.3 1.6LRSN                1
 GAP=176        0.58       5.4     5.4  5.6  0.1099E+02  0.4684E+01 -0.1024E+01E
 Epicentro: VILLANUEVA - SANTANDER                                             3
 ACTION:UPD 13-06-20 09:53 OP:ep   STATUS:               ID:20130524215750 L   I
 2013-05-24-2150-00M.COL___261                                                 6
 STAT SP IPHASW D HRMM SECON CODA AMPLIT PERI AZIMU VELO AIN AR TRES W  DIS CAZ7
 BAR2 SZ ES       2158 25.03                             174   -0.1710 14.6 182 
 BAR2 SZ I        2158 26.29        12.7 0.20            167           14.6 182 
 GIR2 SZ EP   1   2158  9.85                             164   -0.33 7 39.3 357 
 GIR2 SZ I        2158 28.80         8.3 0.38            144           39.3 357 
 BRR  HZ EP   1   2158 11.62                             152    0.14 7 72.7 306 
 BRR  HN ES   1   2158 28.63                             152    0.38 7 72.7 306 
 BRR  HZ I        2158 33.76        11.0 0.12            139           72.7 306 
 RUS  HZ EP   1   2158 13.85                             147    0.43 7 92.5 174 
 RUS  HN ES   1   2158 31.67                             147   -0.03 7 92.5 174 
 RUS  HZ I        2158 33.45         2.8 0.24            146           92.5 174 
 PTB  HZ EP   1   2158 16.48                             133   -0.24 7  143 262 
 PTB  HN ES   1   2158 37.47                             133   -0.10 7  143 262 
 PTB  HZ I        2158 43.12         7.0 0.54            127            143 262 
                                                                                
