 2017  424 2235 26.7 L   6.786 -73.145142.0  RSN  8 0.3 1.7LRSN                1
 GAP=152        0.69       3.1     4.1  4.9  0.4359E+00  0.7664E+00  0.3913E+01E
 Epicentro: LOS SANTOS - SANTANDER                                             3
 ACTION:UPD 17-05-30 21:15 OP:jn   STATUS:               ID:20170424223526 L   I
 OLDACT:UP  17-04-25 04:04 OP:lv   STATUS:               ID:20170424222746     3
 OLDACT:REG 17-04-25 03:13 OP:lv   STATUS:               ID:20170424222746     3
 2017-04-24-2228-00M.COL___374                                                 6
 STAT SP IPHASW D HRMM SECON CODA AMPLIT PERI AZIMU VELO AIN AR TRES W  DIS CAZ7
 BAR2 EZ EP       2235 45.69                             171   -0.1410 21.8 191 
 BAR2 EZ ES       2236  0.46                             171   -0.3110 21.8 191 
 BAR2 EZ I        2236  1.94        12.4 0.25            166           21.8 191 
 BRR  HZ EP       2235 47.57                             151    0.0910 72.0 300 
 BRR  HN ES       2236  4.21                             151    0.5210 72.0 300 
 PAM  EZ EP       2235 48.65                             150    0.0710 78.6  39 
 PAM  EN EP       2236  4.41                                           78.6  39 
 PAM  EZ I        2236  6.41         7.8 0.15            122           78.6  39 
 PTB  HZ EP       2235 52.93                             131   -0.39 9  147 259 
 PTB  HN EP       2236 13.09                                            147 259 
 PTB  HZ I        2236 18.95         5.8 0.25            112            147 259 
 SPBC HN ES       2236 16.62                             128   -0.08 9  162 219 
 SPBC HZ I        2236 19.45        18.2 0.17            110            162 219 
 ZAR  HZ EP   4   2236  0.59                             121    1.64 0  205 293 
 ZAR  HE ES       2236 23.94                             121   -0.18 9  205 293 
 ZAR  HZ I        2236 29.70         6.5 0.20            104            205 293 
 CHI  HZ EP       2236  4.07                             116    0.06 8  247 195 
 CHI  HN ES       2236 33.29                             116    0.16 8  247 195 
 CHI  HZ I        2236 37.41         1.0 0.14            101            247 195 
 PRA  HZ EP       2236 20.44                             106    0.52 6  391 210 
 PRA  HN EP       2237  2.87                                            391 210 
 PRA  HZ I        2237  7.49         1.5 0.20             96            391 210 
                                                                                
