 2011  124 2213 30.1 L   6.787 -73.164146.6  RSN  6 0.2 2.0LRSN                1
 GAP=157        0.52       3.3     7.3  6.5 -0.1482E+02  0.1593E+02 -0.2041E+01E
 Epicentro: LOS SANTOS - SANTANDER                                             3
 ACTION:UP  11-02-08 08:42 OP:pat  STATUS:               ID:20110124221330 L   I
 2011-01-24-2200-00M.COL___140                                                 6
 STAT SP IPHASW D HRMM SECON CODA AMPLIT PERI AZIMU VELO SNR AR TRES W  DIS CAZ7
 BAR2 SZ EP   1   2213 49.90                             171     0.1 7   22 186 
 BAR2 SZ ES   2   2214  5.19                             171     0.0 5   22 186 
 BAR2 SZ I        2214  6.84        18.3 0.32                            22 186 
 RUS  HZ EP   1   2213 53.73                             144    -0.1 7   99 175 
 RUS  HN ES   1   2214 12.61                             144     0.2 7   99 175 
 RUS  HZ I        2214 14.02        14.0 0.47                            99 175 
 GRA  SZ EP   1   2213 55.68                             137     0.1 7  128  18 
 GRA  SZ ES   1   2214 15.34                             137    -0.2 7  128  18 
 GRA  SZ I        2214 16.36        12.0 0.34                           128  18 
 NOR  SN ES   2   2214 33.28                             119    -0.1 4  232 235 
 CHI  HZ EP   1   2214  8.02                             117     0.4 6  247 195 
 CHI  HN ES   1   2214 36.41                             117    -0.5 6  247 195 
 CHI  HZ I        2214 45.62         5.4 0.48                           247 195 
 RREF HN ES   2   2214 52.09                             111     0.3 3  319 229 
 RREF HZ I        2214 59.71         6.8 0.29                           319 229 
                                                                                
