 2017  824 2244 22.2 L   6.889 -73.249121.2  RSN  4 0.1 2.0LRSN                1
 GAP=232        0.37       4.0     4.3  3.3  0.1483E+02  0.1860E+01  0.1044E+01E
 Epicentro: BETULIA - SANTANDER                                                3
 ACTION:UPD 17-09-04 20:24 OP:rebc STATUS:               ID:20170824224422 L   I
 OLDACT:REG 17-08-25 03:35 OP:dnl  STATUS:               ID:20170824223739     3
 2017-08-24-2238-00M.COL___417                                                 6
 STAT SP IPHASW D HRMM SECON CODA AMPLIT PERI AZIMU VELO AIN AR TRES W  DIS CAZ7
 BAR2 EZ EP       2244 39.21                             164    0.0710 33.6 167 
 BAR2 EZ ES       2244 52.45                             164    0.0610 33.6 167 
 BAR2 EZ I        2244 53.48        46.7 0.22            162           33.6 167 
 BRR  HZ EP       2244 39.61                             153   -0.2110 56.6 295 
 BRR  HN ES       2244 53.65                             153    0.0410 56.6 295 
 BRR  HZ I        2244 54.62        26.6 0.14            150           56.6 295 
 RUS  HZ EP       2244 44.64                             135    0.1310  112 171 
 RUS  HN ES       2245  1.83                             135   -0.1210  112 171 
 ZAR  HZ EP   3   2244 51.81                             118    0.22 2  190 291 
 ZAR  HN ES       2245 14.58                             118    0.03 9  190 291 
 ZAR  HZ I        2245 18.26         6.4 0.28            117            190 291 
                                                                                
