 2016  724 2019 50.8 L   6.717 -73.151152.0  RSN  7 0.3 1.8LRSN                1
 GAP=139        0.81       3.2     3.9  7.4 -0.1170E+01  0.3944E+01  0.4215E+01E
 Epicentro: VILLANUEVA - SANTANDER                                             3
 ACTION:UPD 17-03-29 16:54 OP:lp   STATUS:               ID:20160724201950 L   I
 OLDACT:UP  16-07-25 04:07 OP:dani STATUS:               ID:20160724201759     3
 OLDACT:UP  16-07-25 04:06 OP:dani STATUS:               ID:20160724201759     3
 OLDACT:UP  16-07-25 04:06 OP:dani STATUS:               ID:20160724201759     3
 OLDACT:REG 16-07-25 03:31 OP:dani STATUS:               ID:20160724201759     3
 2016-07-24-2017-59S.COL___337                                                 6
 STAT SP IPHASW D HRMM SECON CODA AMPLIT PERI AZIMU VELO AIN AR TRES W  DIS CAZ7
 BRR  HZ IP     D 2020 13.16                             152    0.2610 75.5 305 
 BRR  HN ES       2020 30.46                             152    0.3510 75.5 305 
 BRR  HZ I        2020 33.80         9.4 0.22            149           75.5 305 
 PAM  EZ EP       2020 14.26                             150    0.0910 85.0  36 
 PAM  EE ES       2020 31.78                             150   -0.6010 85.0  36 
 PAM  EZ I        2020 33.71        12.8 0.44            151           85.0  36 
 RUS  HZ EP       2020 14.84                             148    0.2510 91.5 175 
 RUS  HN ES       2020 33.36                             148    0.2410 91.5 175 
 RUS  HZ I        2020 34.40         9.7 0.32            151           91.5 175 
 ZAR  HZ EP   4   2020 25.50                             123    1.49 0  207 295 
 ZAR  HN ES       2020 49.61                             123   -0.27 8  207 295 
 ZAR  HZ I        2020 59.15         7.8 0.28            123            207 295 
 NOR  HE ES       2020 53.83                             120   -0.18 8  229 236 
 CHI  HN ES       2020 56.42                             119   -0.43 8  240 196 
 GUY2CHZ EP   9   2020 37.17                             114    3.07 0  295 236 
 GUY2CHE ES       2021 11.05                             112    0.13 7  295 236 
 GUY2CHZ I        2021 16.37         2.7 0.62                           295 236 
                                                                                
