 2017  924 2301 14.1 L   6.762 -73.117147.4  RSN  6 0.2 1.5LRSN                1
 GAP=142        0.64       3.3     3.3  4.7 -0.1129E+01  0.4316E+01  0.6839E+00E
 Epicentro: LOS SANTOS - SANTANDER                                             3
 ACTION:UPD 17-10-05 19:15 OP:rebc STATUS:               ID:20170924230114 L   I
 OLDACT:UP  17-09-25 05:33 OP:mg   STATUS:               ID:20170924225741     3
 OLDACT:UP  17-09-25 05:32 OP:mg   STATUS:               ID:20170924225741     3
 OLDACT:REG 17-09-25 04:21 OP:mg   STATUS:               ID:20170924225741     3
 2017-09-24-2258-00M.COL___411                                                 6
 STAT SP IPHASW D HRMM SECON CODA AMPLIT PERI AZIMU VELO AIN AR TRES W  DIS CAZ7
 BAR2 EZ EP       23 1 33.66                             172   -0.1710 20.1 201 
 BAR2 EZ ES       23 1 49.37                             172    0.1210 20.1 201 
 BAR2 EZ I        23 1 51.53         7.1 0.36            170           20.1 201 
 BRR  HZ EP       23 1 35.58                             151   -0.0910 76.1 300 
 BRR  HN ES       23 1 52.85                             151    0.3310 76.1 300 
 BRR  HZ I        23 1 55.08         3.1 0.25            149           76.1 300 
 PAM  EZ IP     D 23 1 36.75                             151    0.2110 78.8  36 
 PAM  EN ES       23 1 53.62                             151   -0.4510 78.8  36 
 PAM  EZ I        23 1 55.82         7.1 0.44            154           78.8  36 
 RUS  HZ EP       23 1 37.90                             145    0.2310 96.2 178 
 RUS  HN ES   1   23 1 56.10                             145    0.02 7 96.2 178 
 RUS  HZ I        23 1 57.72         7.0 0.38            147           96.2 178 
 ZAR  HZ EP       23 1 47.24                             122    0.15 8  209 293 
 ZAR  HN ES   1   23 2 12.71                             122   -0.14 6  209 293 
 ZAR  HZ I        23 2 18.45         3.8 0.23            122            209 293 
 NOR  HN ES       23 2 17.50                             119   -0.37 8  235 236 
 NOR  HZ I        23 2 22.76         1.9 0.15            120            235 236 
                                                                                
