 2010  724 2156 20.0 L   6.751 -73.171144.0  RSN  4 0.2 1.5LRSN                1
 GAP=161        0.62       6.1    11.6  8.5  0.4369E+02 -0.6008E+02 -0.1655E+02E
 Epicentro: VILLANUEVA - SANTANDER                                             3
 ACTION:UPD 10-12-01 15:19 OP:pat  STATUS:               ID:20100724215620 L   I
 2010-07-24-2150-27S.COL___123                                                 6
 STAT SP IPHASW D HRMM SECON CODA AMPLIT PERI AZIMU VELO AIN AR TRES W  DIS CAZ7
 BAR2 SZ ES   2   2156 53.84                             173    -0.5 5   18 185 
 BRR  HZ EP       2156 40.66                             152    -0.310   72 303 
 BRR  HN ES       2156 57.51                             152     0.210   72 303 
 BRR  HZ I        2157  0.97        12.1 0.34                            72 303 
 RUS  HZ EP       2156 43.29                             145     0.110   95 174 
 RUS  HN ES   2   2157  1.41                             145     0.1 5   95 174 
 RUS  HZ I        2157  3.01         2.7 0.31                            95 174 
 GUE  SZ EP   1   2156 45.14                             138     0.1 7  122  13 
                                                                                
