 2011  424 2355  3.3 L   6.044 -73.714104.6  RSN 12 0.3 2.2LRSN                1
 GAP= 85        0.53       1.7     2.1  4.9 -0.6351E+00  0.3518E+01 -0.1363E+00E
 Epicentro: BOLIVAR - SANTANDER                                                3
 ACTION:UP  11-06-22 15:33 OP:REBC STATUS:               ID:20110424235503 L   I
 2011-04-24-2350-53S.COL___139                                                 6
 STAT SP IPHASW D HRMM SECON CODA AMPLIT PERI AZIMU VELO SNR AR TRES W  DIS CAZ7
 RUS  HZ EP       2355 21.00                             143     0.110   72 103 
 RUS  HN ES   1   2355 34.67                             143     0.0 7   72 103 
 RUS  HZ I        2355 39.06        21.7 0.49                            72 103 
 BAR2 SZ EP   1   2355 21.55                             138     0.0 7   84  44 
 BAR2 SZ ES   1   2355 35.72                             138     0.0 7   84  44 
 BAR2 SZ I        2355 37.98       125.2 0.24                            84  44 
 BTL  SZ EP       2355 23.76                             130     0.110  109  27 
 BRR  HZ EP       2355 24.00                             127    -0.210  118   0 
 BRR  HN ES   1   2355 40.39                             127    -0.1 7  118   0 
 BRR  HZ I        2355 45.13        23.1 0.08                           118   0 
 GIR2 SZ EP   1   2355 25.51                             125     0.1 7  128  27 
 NOR  SZ EP       2355 26.42                             122     0.1 9  139 247 
 NOR  SE ES   1   2355 44.06                             122    -0.3 7  139 247 
 CHI  HZ EP   1   2355 28.49                             119    -0.2 7  156 181 
 CHI  HN ES   1   2355 48.83                             119     0.3 7  156 181 
 CHI  HZ I        2355 55.05        10.0 0.23                           156 181 
 YOP  SZ EP   1   2355 28.65                             118    -0.3 7  162 118 
 YOP  SN ES   1   2355 48.83                             118    -0.1 7  162 118 
 YOP  SZ I        2355 52.10        34.6 0.25                           162 118 
 PAM  SZ EP   2   2355 31.42                             115    -0.1 4  182  38 
 PAM  SE ES   2   2355 53.29                             115    -0.3 4  182  38 
 HEL  HZ EP   1   2355 33.24                             112    -0.3 6  202 275 
 HEL  HE ES   2   2355 57.74                             112     0.5 4  202 275 
 HEL  HZ I        2356  2.04        14.9 0.22                           202 275 
 OCA  SZ EP   1   2355 39.30                             107     0.8 6  247  10 
 OCA  SZ ES   2   2356  5.61                             107    -0.4 4  247  10 
 OCA  SZ I        2356 11.83         8.6 0.34                           247  10 
 PRA  HZ EP   2   2355 43.20                             104    -0.1 4  289 207 
 PRA  HE ES   2   2356 14.30                             104    -0.2 4  289 207 
                                                                                
