 2011 1024 2241 32.8 L   6.794 -73.122139.8  RSN  5 0.2 1.8LRSN                1
 GAP=140        0.41       3.0     3.4  5.5  0.9991E+00  0.2539E+01  0.1032E+00E
 Epicentro: LOS SANTOS - SANTANDER                                             3
 ACTION:UPD 12-07-13 16:05 OP:ep   STATUS:               ID:20111024224132 L   I
 2011-10-24-2239-43S.COL___172                                                 6
 STAT SP IPHASW D HRMM SECON CODA AMPLIT PERI AZIMU VELO AIN AR TRES W  DIS CAZ7
 BAR2 SZ EP   2   2241 51.97                             170    0.23 5 23.3 197 
 BAR2 SZ I        2242  7.83        13.8 0.38                          23.3 197 
 BRR  HZ EP       2241 53.47                             150   -0.0210 73.8 298 
 BRR  HN ES   1   2242  9.83                             150    0.22 7 73.8 298 
 BRR  HZ I        2242 14.68        21.1 0.17                          73.8 298 
 PAM  SZ EP   1   2241 54.33                             150   -0.02 7 76.3  38 
 PAM  SN ES   1   2242 11.04                             150   -0.08 7 76.3  38 
 RUS  HZ EP   2   2241 56.25                             143    0.31 5 99.8 178 
 RUS  HN ES   1   2242 13.78                             143   -0.18 7 99.8 178 
 RUS  HZ I        2242 15.70         4.3 0.32                          99.8 178 
 ZAR  HN ES   2   2242 29.96                             121   -0.44 4  207 292 
 ZAR  HZ I        2242 35.32        11.6 0.24                           207 292 
                                                                                
