 2016  424 2112 10.1 L   6.025 -73.723110.6  RSN  4 0.2 1.6LRSN                1
 GAP=155        0.53       4.8     2.9  6.0 -0.9206E+01  0.8632E+01 -0.2062E+01E
 Epicentro: VELEZ - SANTANDER                                                  3
 ACTION:UPD 16-05-05 14:23 OP:rebc STATUS:               ID:20160424211210 L   I
 OLDACT:REG 16-04-25 03:51 OP:ak   STATUS:               ID:20160424210748     3
 2016-04-24-2107-48M.COL___299                                                 6
 STAT SP IPHASW D HRMM SECON CODA AMPLIT PERI AZIMU VELO AIN AR TRES W  DIS CAZ7
 RUS  HZ EP       2112 28.30                             145   -0.0910 72.3 102 
 RUS  HN ES       2112 42.67                             145    0.0410 72.3 102 
 BAR2 EZ EP       2112 29.15                             139    0.0410 86.7  44 
 BAR2 EZ ES       2112 43.97                             139    0.0610 86.7  44 
 BAR2 EZ I        2112 44.75         7.8 0.26            139           86.7  44 
 NOR  HZ EP       2112 33.17                             125   -0.26 9  137 248 
 NOR  HN ES       2112 51.36                             125   -0.24 9  137 248 
 GUY2CHZ EP       2112 41.09                             114    0.13 9  202 244 
 GUY2CHN ES       2113  5.42                             114    0.41 9  202 244 
 GUY2CHZ I        2113  9.27         4.0 0.52                           202 244 
                                                                                
