 2013 1024 2347 31.5 L   6.811 -73.152143.7  RSN 18 0.4 2.7LRSN                1
 GAP= 65        0.94       2.8     2.8  4.8  0.1158E+01  0.3315E+01  0.2584E+01E
 Epicentro: LOS SANTOS - SANTANDER                                             3
 ACTION:UPD 13-11-25 09:23 OP:ep   STATUS:               ID:20131024234731 L   I
 OLDACT:UP  13-10-24 23:31 OP:mh   STATUS:               ID:20131024234642     3
 OLDACT:UP  13-10-24 23:31 OP:mh   STATUS:               ID:20131024234642     3
 OLDACT:UP  13-10-24 23:31 OP:mh   STATUS:               ID:20131024234642     3
 OLDACT:REG 13-10-24 23:06 OP:mh   STATUS:               ID:20131024234642     3
 2013-10-24-2346-42M.COL___236                                                 6
 STAT SP IPHASW D HRMM SECON CODA AMPLIT PERI AZIMU VELO AIN AR TRES W  DIS CAZ7
 BAR2 SZ EP       2347 50.91                             170   -0.0310 24.4 188 
 BAR2 SZ ES   1   2348  5.68                             170   -0.40 7 24.4 188 
 BRR  HZ EP   1   2347 52.78                             153    0.38 7 70.0 298 
 BRR  HN ES       2348  9.53                             153    0.8610 70.0 298 
 BRR  HZ I        2348 12.85        89.1 0.30            147           70.0 298 
 PAM  SZ EP       2347 53.73                             151    0.2310 76.9  40 
 PAM  SN ES       2348 10.55                             151   -0.0910 76.9  40 
 PAM  SZ I        2348 12.90        96.6 0.52            144           76.9  40 
 RUS  HZ EP       2347 54.92                             143   -0.2610  102 176 
 RUS  HN ES       2348 13.28                             143   -0.3310  102 176 
 RUS  HZ I        2348 14.81        78.0 0.32            144            102 176 
 PTB  HZ EP   1   2347 57.73                             132   -0.57 7  147 258 
 PTB  HE ES   1   2348 18.63                             132   -0.54 7  147 258 
 TAM  HZ EP       2347 59.26                             130    0.12 9  156 105 
 TAM  HN ES   2   2348 20.78                             130    0.11 5  156 105 
 OCA  HZ EP   1   2347 59.13                             129   -0.44 7  159 353 
 OCA  HZ I        2348 27.05        33.2 0.29            123            159 353 
 SPBC HZ EP   1   2347 59.79                             128   -0.14 7  164 219 
 YOP  SZ EP       2348  1.57                             126    0.00 9  180 153 
 YOP  SE ES       2348 25.21                             126    0.22 9  180 153 
 YOP  SZ I        2348 27.13        42.0 0.21            124            180 153 
 ZAR  HZ EP       2348  3.60                             122   -0.14 9  203 292 
 ZAR  HN ES       2348 29.28                             122    0.43 9  203 292 
 ZAR  HZ I        2348 34.97        82.2 0.22            118            203 292 
 NOR  HZ EP       2348  6.97                             118   -0.19 8  235 234 
 NOR  HN ES       2348 34.55                             118   -0.40 8  235 234 
 NOR  HZ I        2348 41.71        49.2 0.18            116            235 234 
 SML  HZ EP   1   2348  7.31                             117   -0.59 6  242 335 
 SML  HE ES       2348 35.63                             117   -0.63 8  242 335 
 SML  HZ I        2348 43.32        51.9 0.08            113            242 335 
 CHI  HZ EP   1   2348  9.13                             117   -0.10 6  250 195 
 ROSC BZ EP       2348 10.45                             116    0.83 8  253 211 
 ROSC BN ES   4   2348 39.57                             116    0.25 0  253 211 
 HEL  HZ EP       2348 12.59                             114    0.99 8  272 256 
 HEL  HN ES       2348 42.58                             114   -0.28 8  272 256 
 HEL  HZ I        2348 49.78        25.2 0.36            112            272 256 
 GUY2CHZ EP   4   2348 15.30                             112    0.23 0  301 235 
 GUY2CHE ES   4   2348 52.21                             112    3.19 0  301 235 
 GUY2CHZ I        2348 58.99        17.8 0.31                           301 235 
 RREF HZ EP       2348 17.94                             110    0.32 7  322 229 
 RREF HN ES   4   2348 55.88                             110    2.31 0  322 229 
 PRA  HZ EP       2348 24.92                             106   -0.15 6  393 209 
 PRA  HN ES   1   2349  6.56                             106   -0.26 4  393 209 
 PRA  HZ I        2349 12.19        21.2 0.22            104            393 209 
                                                                                
