 2014  925 0552  1.7 L   6.732 -73.216150.5  RSN  5 0.3 1.5LRSN                1
 GAP=189        0.84       4.0     6.3  6.6 -0.2028E+01  0.5734E+01 -0.6626E+00E
 Epicentro: VILLANUEVA - SANTANDER                                             3
 ACTION:UPD 14-10-03 23:08 OP:nd   STATUS:               ID:20140925055201 L   I
 OLDACT:UP  14-09-25 16:44 OP:cam  STATUS:               ID:20140925055000     3
 OLDACT:REG 14-09-25 13:32 OP:cam  STATUS:               ID:20140925055000     3
 2014-09-25-0550-00M.COL___252                                                 6
 STAT SP IPHASW D HRMM SECON CODA AMPLIT PERI AZIMU VELO AIN AR TRES W  DIS CAZ7
 BAR2 SZ EP        552 21.21                             174   -0.5510 15.9 166 
 BAR2 SZ ES        552 37.58                             174    0.1610 15.9 166 
 BAR2 SZ I         552 38.10         4.8 0.18            170           15.9 166 
 BRR  HZ EP        552 23.20                             154   -0.0110 68.7 307 
 BRR  HN ES        552 40.20                             154    0.2010 68.7 307 
 BRR  HZ I         552 41.42         3.4 0.18            150           68.7 307 
 PTB  HZ EP        552 28.11                             135   -0.14 9  139 261 
 PTB  HN ES        552 48.75                             135   -0.23 9  139 261 
 PTB  HZ I         552 54.94         2.5 0.46            132            139 261 
 SPBC HZ EP        552 30.25                             132    0.69 9  152 218 
 SPBC HN ES        552 51.18                             132   -0.12 9  152 218 
 SPBC HZ I         552 57.34         3.4 0.18            130            152 218 
 SML  HN ES        553  8.15                             118    0.07 8  248 338 
 SML  HN I         553  9.66         6.5 0.10            119            248 338 
                                                                                
