 2016  225 0943 51.5 L   6.805 -73.095146.0  RSN  7 0.3 1.5LRSN                1
 GAP=188        0.60       2.1     3.3  5.9  0.8622E+00  0.5081E+01  0.4041E+00E
 Epicentro: LOS SANTOS - SANTANDER                                             3
 ACTION:UPD 16-03-04 21:29 OP:rebc STATUS:               ID:20160225094351 L   I
 OLDACT:UP  16-02-25 18:12 OP:mh   STATUS:               ID:20160225093748     3
 OLDACT:UP  16-02-25 18:12 OP:mh   STATUS:               ID:20160225093748     3
 OLDACT:UP  16-02-25 18:12 OP:mh   STATUS:               ID:20160225093748     3
 OLDACT:UP  16-02-25 18:11 OP:mh   STATUS:               ID:20160225093748     3
 OLDACT:REG 16-02-25 13:43 OP:mh   STATUS:               ID:20160225093748     3
 2016-02-25-0937-48M.COL___324                                                 6
 STAT SP IPHASW D HRMM SECON CODA AMPLIT PERI AZIMU VELO AIN AR TRES W  DIS CAZ7
 RUS  HZ EP        944 15.51                             144    0.2210  101 179 
 RUS  HN ES        944 33.64                             144   -0.2110  101 179 
 RUS  HZ I         944 35.27         1.7 0.64            149            101 179 
 OCA  HN ES        944 41.82                             130   -0.12 9  160 351 
 OCA  HZ I         944 46.51         7.0 0.50            133            160 351 
 SPBC HZ EP        944 20.63                             128    0.24 9  167 220 
 SPBC HN ES        944 43.12                             128    0.19 9  167 220 
 SPBC HZ I         944 49.27         6.0 0.28            132            167 220 
 ZAR  HZ EP        944 24.34                             122   -0.12 8  209 291 
 ZAR  HN ES        944 50.52                             122    0.34 8  209 291 
 ZAR  HZ I         944 55.77         3.4 0.58            125            209 291 
 NOR  HZ EP   1    944 27.52                             118   -0.24 6  240 235 
 NOR  HE ES        944 55.53                             118   -0.52 8  240 235 
 NOR  HZ I         944 57.63         2.1 0.26            121            240 235 
 CHI  HZ EP        944 29.23                             117   -0.20 8  251 196 
 CHI  HN ES        944 59.27                             117    0.25 8  251 196 
 HEL  HN ES        945  4.13                             114   -0.05 7  278 256 
                                                                                
