 2012 1125 0108 37.7 L   6.759 -73.202150.3  RSN  4 0.1 1.7LRSN                1
 GAP=171        0.33       3.5     2.6  4.2  0.3396E+01  0.1191E+01 -0.3497E+01E
 Epicentro: VILLANUEVA - SANTANDER                                             3
 ACTION:UPD 12-12-05 15:36 OP:}ep  STATUS:               ID:20121125010837 L   I
 2012-11-25-0100-00M.COL___233                                                 6
 STAT SP IPHASW D HRMM SECON CODA AMPLIT PERI AZIMU VELO AIN AR TRES W  DIS CAZ7
 BAR2 SZ EP   2    1 8 57.60                             173   -0.23 5 18.5 173 
 BAR2 SZ I         1 9 14.59        12.9 0.22                          18.5 173 
 GIR2 SZ EP   2    1 8 58.12                             166    0.06 5 35.4   2 
 GIR2 SZ ES   2    1 9 13.96                             166    0.04 5 35.4   2 
 RUS  HZ EP   1    1 9  1.83                             146    0.16 7 96.7 172 
 RUS  HE ES        1 9 20.29                             146   -0.0410 96.7 172 
 RUS  HE I         1 9 21.94         6.7 0.24                          96.7 172 
 PTB  HZ EP        1 9  4.40                             134   -0.06 9  141 260 
 PTB  HN ES        1 9 25.34                             134    0.04 9  141 260 
 PTB  HZ I         1 9 33.33         7.0 0.55                           141 260 
                                                                                
