 2010  925 0139 33.0 L   6.812 -73.061141.3  RSN  9 0.4 2.0LRSN                1
 GAP=168        0.92       5.0     7.6  7.8 -0.6885E+01  0.1799E+01 -0.5196E+01E
 Epicentro: LOS SANTOS - SANTANDER                                             3
 ACTION:UP  11-02-18 11:05 OP:tino STATUS:               ID:20100925013933 L   I
 2010-09-25-0137-35S.COL___120                                                 6
 STAT SP IPHASW D HRMM SECON CODA AMPLIT PERI AZIMU VELO SNR AR TRES W  DIS CAZ7
 BAR2 SZ EP        139 52.35                             168     0.110   28 209 
 BAR2 SZ ES   1    140  6.65                             168    -0.6 7   28 209 
 BAR2 SZ I         140  8.76        34.2 0.20                            28 209 
 BRR  HZ EP        139 54.10                             149    -0.110   79 294 
 BRR  HN ES   1    140 10.96                             149     0.3 7   79 294 
 BRR  HZ I         140 11.75        27.0 0.08                            79 294 
 RUS  HZ EP   1    139 56.36                             142    -0.1 7  102 181 
 RUS  HE ES   1    140 15.16                             142     0.5 7  102 181 
 RUS  HZ I         140 16.19        11.9 0.21                           102 181 
 GUE  SZ EP   1    139 56.27                             139    -0.8 7  114   8 
 GRA  SZ IP        139 58.08                             137     0.510  122  13 
 GRA  SZ I         139 59.23        13.7 0.31                           122  13 
 NOR  SZ EP   2    140  8.74                             116    -0.7 4  243 236 
 CHI  HZ EP   2    140 10.80                             116    -0.1 4  253 197 
 CHI  HE ES   2    140 40.10                             116    -0.4 4  253 197 
 CHI  HZ I         140 47.70         4.7 0.27                           253 197 
 HEL  HZ EP   2    140 14.31                             113     0.2 4  281 256 
 HEL  HN ES   2    140 46.17                             113     0.1 4  281 256 
 HEL  HZ I         140 52.73         4.2 0.52                           281 256 
 RREF HZ EP   2    140 20.52                             109     0.6 3  330 230 
 RREF HN ES   2    140 56.47                             109     0.0 3  330 230 
 RREF HZ I         141  3.56         5.2 0.20                           330 230 
                                                                                
