 2016  425 0722 19.8 L   5.922 -73.628120.3  RSN 10 0.4 1.8LRSN                1
 GAP= 92        1.04       3.1     3.4  6.2 -0.1980E+01  0.6972E+01 -0.2396E+01E
 Epicentro: BARBOSA - SANTANDER                                                3
 ACTION:UPD 16-05-05 14:24 OP:rebc STATUS:               ID:20160425072219 L   I
 OLDACT:UP  16-04-25 15:28 OP:edwi STATUS:               ID:20160425071749     3
 OLDACT:REG 16-04-25 13:37 OP:y    STATUS:               ID:20160425071749     3
 2016-04-25-0717-49M.COL___270                                                 6
 STAT SP IPHASW D HRMM SECON CODA AMPLIT PERI AZIMU VELO AIN AR TRES W  DIS CAZ7
 SPBC HZ EP        722 37.28                             153   -0.3210 57.6 239 
 SPBC HE ES        722 51.22                             153   -0.2410 57.6 239 
 SPBC HZ I         722 52.91        20.1 0.12            154           57.6 239 
 RUS  HZ EP        722 38.24                             152   -0.1010 60.4  93 
 RUS  HN ES        722 53.25                             152    0.4810 60.4  93 
 RUS  HE I         722 54.22         6.2 0.36            153           60.4  93 
 BAR2 EZ EP        722 40.16                             141    0.2510 89.0  34 
 BAR2 EZ ES        722 55.44                             141   -0.1210 89.0  34 
 BAR2 EZ I         722 56.99        20.6 0.62            140           89.0  34 
 PTB  HZ EP        722 41.40                             133   -0.3010  114 307 
 PTB  HN ES        722 58.13                             133   -0.6310  114 307 
 PTB  HZ I         722 59.65         5.4 0.14            132            114 307 
 CHI  HZ EP        722 44.31                             127   -0.65 9  143 185 
 CHI  HN ES        723  4.56                             127   -0.00 9  143 185 
 NOR  HZ EP        722 44.25                             126   -0.20 9  143 254 
 NOR  HE ES        723  4.46                             126    0.81 9  143 254 
 NOR  HZ I         723  6.40        11.7 0.10            127            143 254 
 GUY2CHZ EP        722 52.09                             116    0.36 8  207 248 
 GUY2CHN ES        723 17.21                             116    0.61 8  207 248 
 GUY2CHZ I         723 23.51         4.3 0.48                           207 248 
 ZAR  HZ EP        722 52.73                             114    0.14 8  221 322 
 ZAR  HE ES        723 17.92                             114   -0.21 8  221 322 
 ZAR  HZ I         723 23.27         4.6 0.28            114            221 322 
 OCA  HZ EP   4    723  0.34                             110    3.29 0  258   8 
 OCA  HN ES        723 26.74                             110    0.66 8  258   8 
 OCA  HZ I         723 34.45         9.3 0.32            110            258   8 
 CBOC HZ EP        722 57.65                             110   -0.08 8  264 269 
 CBOC HN ES   4    723 22.27                             110   -5.01 0  264 269 
                                                                                
