 2015  825 0219 16.6 L   5.849 -73.862109.3  RSN  8 0.4 1.4LRSN                1
 GAP=121        0.87       3.5     2.5  5.7 -0.3116E+01  0.4017E+01  0.5254E-01E
 Epicentro: JESUS MARIA - SANTANDER                                            3
 ACTION:UPD 15-09-15 23:05 OP:cam  STATUS:               ID:20150825021916 L   I
 OLDACT:UP  15-08-25 18:34 OP:ak   STATUS:               ID:20150825021749     3
 OLDACT:REG 15-08-25 12:43 OP:ak   STATUS:               ID:20150825021749     3
 2015-08-25-0217-49M.COL___340                                                 6
 STAT SP IPHASW D HRMM SECON CODA AMPLIT PERI AZIMU VELO AIN AR TRES W  DIS CAZ7
 SPBC HZ EP        219 32.26                             163    0.3310 31.8 227 
 SPBC HN ES        219 43.99                             163    0.1110 31.8 227 
 SPBC HZ I         219 45.40        19.1 0.21            163           31.8 227 
 RUS  HZ EP        219 35.83                             139    0.0310 86.4  87 
 RUS  HE ES        219 50.48                             139   -0.2910 86.4  87 
 RUS  HZ I         219 52.03         2.4 0.34            142           86.4  87 
 BAR2 EZ EP        219 38.11                             131    0.4910  111  42 
 BAR2 EZ ES        219 53.84                             131   -0.1610  111  42 
 BAR2 EZ I         219 56.01         9.8 0.49            135            111  42 
 NOR  HZ EP        219 37.57                             129   -0.2210  116 254 
 NOR  HE ES        219 54.66                             129    0.3610  116 254 
 NOR  HZ I         219 58.45         7.3 0.28            132            116 254 
 CHI  HZ EP        219 40.01                             125   -0.17 9  136 174 
 CHI  HN ES        219 58.39                             125   -0.17 9  136 174 
 CHI  HZ I         220  3.22         2.2 0.33            127            136 174 
 GUY2CHZ EP        219 45.45                             117    0.51 9  180 248 
 GUY2CHE ES        220  6.47                             117   -0.57 9  180 248 
 GUY2CHZ I         220 12.50         1.8 0.25                           180 248 
 HEL  HZ EP   1    219 44.72                             115   -0.97 7  188 282 
 HEL  HN ES        220  8.22                             115   -0.16 9  188 282 
 TOL  SZ EP        219 48.71                             112    0.23 8  214 229 
 TOL  SN ES        220 13.47                             112    0.14 8  214 229 
                                                                                
