 2012  825 0815 56.6 L   6.794 -73.164149.7  RSN  8 0.4 1.9LRSN                1
 GAP=135        0.89       3.8     4.8  7.0 -0.1472E-01  0.5844E+01 -0.9971E-01E
 Epicentro: LOS SANTOS - SANTANDER                                             3
 ACTION:UPD 12-09-10 11:58 OP:ep   STATUS:               ID:20120825081556 L   I
 2012-08-25-0810-00M.COL___218                                                 6
 STAT SP IPHASW D HRMM SECON CODA AMPLIT PERI AZIMU VELO AIN AR TRES W  DIS CAZ7
 BAR2 SZ EP        816 16.68                             171   -0.0310 22.4 185 
 BAR2 SZ ES   1    816 32.31                             171   -0.06 7 22.4 185 
 BAR2 SZ I         816 33.85        24.7 0.39                          22.4 185 
 BRR  HZ EP        816 18.66                             154    0.5410 69.8 300 
 BRR  HZ I         816 18.95        23.6 0.20                          69.8 300 
 BRR  HN ES   1    816 35.77                             154    0.88 7 69.8 300 
 PAM  SZ EP        816 19.60                             151    0.2410 79.1  40 
 PAM  SZ I         816 20.03         8.1 0.30                          79.1  40 
 PAM  SN ES   1    816 36.99                             151   -0.11 7 79.1  40 
 RUS  HZ EP        816 20.91                             145    0.1810  100 175 
 RUS  HN ES   1    816 38.94                             145   -0.59 7  100 175 
 RUS  HZ I         816 40.62         6.4 0.38                           100 175 
 PTB  HZ EP        816 23.40                             133   -0.33 9  146 259 
 PTB  HN ES   1    816 44.51                             133   -0.36 7  146 259 
 PTB  HZ I         816 46.50         5.9 0.19                           146 259 
 OCA  HZ EP   1    816 24.91                             130   -0.37 7  161 354 
 OCA  HN ES   1    816 46.82                             130   -0.81 7  161 354 
 OCA  HZ I         816 52.75        16.2 0.27                           161 354 
 ZAR  HZ EP   1    816 29.37                             123    0.20 6  202 293 
 ZAR  HN ES   1    816 54.36                             123   -0.19 6  202 293 
 ZAR  HZ I         817  1.85        10.3 0.21                           202 293 
 CHI  HN ES   1    817  3.94                             118    0.04 6  248 195 
 CHI  HZ I         817 10.01         3.1 0.35                           248 195 
                                                                                
