 2016 1025 0620 15.0 L   6.772 -73.144145.5  RSN  8 0.4 1.6LRSN                1
 GAP=138        1.00       4.5     4.9  6.1 -0.5074E+01  0.2832E+01  0.6924E+01E
 Epicentro: LOS SANTOS - SANTANDER                                             3
 ACTION:UPD 16-11-09 19:22 OP:rebc STATUS:               ID:20161025062015 L   I
 OLDACT:UP  16-10-25 17:17 OP:drio STATUS:               ID:20161025061744     3
 OLDACT:REG 16-10-25 13:30 OP:cara STATUS:               ID:20161025061744     3
 2016-10-25-0618-00M.COL___352                                                 6
 STAT SP IPHASW D HRMM SECON CODA AMPLIT PERI AZIMU VELO AIN AR TRES W  DIS CAZ7
 BAR2 EZ EP        620 34.33                             172   -0.1710 20.3 192 
 BAR2 EZ ES        620 49.49                             172   -0.2410 20.3 192 
 BRR  HZ EP        620 36.24                             152    0.0710 72.8 301 
 BRR  HN ES        620 53.63                             152    0.9210 72.8 301 
 BRR  HZ I         620 57.45         5.2 0.30            153           72.8 301 
 PAM  EZ EP        620 37.14                             150   -0.1410 79.7  38 
 PAM  EE ES        620 54.54                             150   -0.1510 79.7  38 
 PAM  EZ I         620 56.38         8.7 0.56            156           79.7  38 
 RUS  HZ EP        620 38.51                             145    0.0510 97.5 176 
 RUS  HE ES        620 56.89                             145    0.1010 97.5 176 
 RUS  HZ I         620 58.03         3.2 0.28            144           97.5 176 
 PTB  HZ EP        620 41.37                             132   -0.50 9  147 260 
 PTB  HN ES        621  2.23                             132   -0.62 9  147 260 
 PTB  HZ I         621  5.63         4.4 0.14            132            147 260 
 SPBC HZ EP        620 43.48                             129    0.26 9  161 220 
 SPBC HN ES        621  5.21                             129   -0.05 9  161 220 
 SPBC HZ I         621 11.29         8.8 0.44            129            161 220 
 CHI  HZ EP        620 52.42                             117    0.09 8  246 195 
 CHI  HN ES   4    621 23.72                             117    2.25 0  246 195 
 CHI  HZ I         621 30.66         1.6 0.52            118            246 195 
 PRA  HZ EP        621  9.07                             107    0.90 6  389 210 
 PRA  HN ES   4    621 51.87                             107    2.20 0  389 210 
 PRA  HZ I         621 55.28         1.9 0.36            107            389 210 
                                                                                
