 2016  525 0924 19.4 L   6.815 -73.170145.3  RSN  6 0.4 1.7LRSN                1
 GAP=141        0.86       3.5     5.5  6.7 -0.3848E+01  0.1425E+02  0.9518E+00E
 Epicentro: LOS SANTOS - SANTANDER                                             3
 ACTION:UPD 16-08-18 17:49 OP:cam  STATUS:               ID:20160525092419 L   I
 OLDACT:DUP 16-05-25 17:51 OP:mh   STATUS:               ID:20160525091744d    3
 2016-05-25-0917-43M.COL___307                                                 6
 STAT SP IPHASW D HRMM SECON CODA AMPLIT PERI AZIMU VELO AIN AR TRES W  DIS CAZ7
 BAR2 EZ EP        924 39.35                             170    0.3010 24.7 183 
 BAR2 EZ ES        924 54.29                             170   -0.0510 24.7 183 
 BAR2 EZ I         924 56.74        12.7 0.26            168           24.7 183 
 PAM  EZ EP        924 42.13                             151    0.4910 77.9  42 
 PAM  EN ES   1    924 58.86                             151   -0.09 7 77.9  42 
 PAM  EZ I         925  1.38         9.1 0.57            157           77.9  42 
 OCA  HZ EP        924 46.89                             130   -0.64 9  158 354 
 OCA  HN ES        925  9.33                             130   -0.11 9  158 354 
 OCA  HZ I         925 14.13         6.8 0.17            132            158 354 
 ZAR  HZ EP        924 51.37                             123   -0.16 9  201 292 
 ZAR  HN ES   1    925 16.62                             123    0.06 6  201 292 
 ZAR  HZ I         925 23.41         6.8 0.68            123            201 292 
 NOR  HZ EP   1    924 55.47                             119    0.46 6  233 234 
 NOR  HN ES   1    925 23.18                             119    0.42 6  233 234 
 NOR  HZ I         925 31.67         3.8 0.20            120            233 234 
 CHI  HZ EP        924 57.29                             117    0.07 8  250 194 
 CHI  HE ES   1    925 25.72                             117   -0.96 6  250 194 
 CHI  HZ I         925 28.68         2.4 0.24            120            250 194 
 URE  HN ES   4    925 31.58                             114   -0.30 0  281 292 
                                                                                
