 2014  925 0344 19.4 L   6.798 -73.153157.7  RSN  5 0.5 1.5LRSN                1
 GAP=200        1.30       5.7     9.8 11.1  0.1497E+02 -0.1704E+02 -0.1384E+02E
 Epicentro: LOS SANTOS - SANTANDER                                             3
 ACTION:UPD 14-10-03 23:08 OP:nd   STATUS:               ID:20140925034419 L   I
 OLDACT:UP  14-09-25 15:17 OP:cam  STATUS:               ID:20140925034000     3
 OLDACT:REG 14-09-25 13:28 OP:cam  STATUS:               ID:20140925034000     3
 2014-09-25-0340-00M.COL___252                                                 6
 STAT SP IPHASW D HRMM SECON CODA AMPLIT PERI AZIMU VELO AIN AR TRES W  DIS CAZ7
 BRR  HZ EP     D  344 42.40                             155    0.5410 70.6 299 
 BRR  HN ES        345  0.13                             155    0.7810 70.6 299 
 BRR  HN I         345  1.00         9.7 0.20            149           70.6 299 
 RUS  HZ EP        344 44.32                             146   -0.0610  100 176 
 RUS  HN ES        345  3.17                             146   -0.6610  100 176 
 RUS  HZ I         345  4.40         1.4 0.26            146            100 176 
 PTB  HZ EP        344 47.34                             135    0.00 9  147 259 
 PTB  HN ES        345  8.35                             135   -0.74 9  147 259 
 PTB  HZ I         345 15.81         3.8 0.44            131            147 259 
 SPBC HZ EP        344 49.32                             132    0.50 9  163 219 
 SPBC HE ES        345 11.98                             132    0.24 9  163 219 
 SPBC HZ I         345 18.52         4.1 0.34            129            163 219 
 SML  HZ EP   1    344 56.23                             120   -0.52 6  244 335 
 SML  HE ES        345 25.25                             120   -0.60 8  244 335 
 SML  HZ I         345 32.04         4.8 0.10            119            244 335 
                                                                                
