 2010  425 0133 29.2 L   6.689 -72.949138.4  RSN  6 0.3 2.1LRSN                1
 GAP=205        0.68      10.3    11.0 12.4 -0.8709E+02 -0.9225E+02  0.9541E+02E
 Epicentro: ARATOCA - SANTANDER                                                3
 ACTION:UPD 10-08-24 10:00 OP:vdl  STATUS:               ID:20100425013325 L   I
 2010-04-25-0131-55S.COL___104                                                 6
 STAT SP IPHASW D HRMM SECON CODA AMPLIT PERI AZIMU VELO AIN AR TRES W  DIS CAZ7
 BRR  HZ IP     D  133 51.43                             145     0.310   96 299 
 BRR  HN ES   1    134  8.05                             145    -0.3 7   96 299 
 BRR  HZ I         134 11.32        11.9 0.24                            96 299 
 BRI  SZ EP   1    133 52.33                             140    -0.5 7  115   8 
 BRI  SZ ES   1    134 11.58                             140     0.2 7  115   8 
 GUE  SZ IP        133 53.94                             137    -0.110  126   1 
 GUE  SZ ES   2    134 13.37                             137     0.0 5  126   1 
 GRA  SZ EP   1    133 54.72                             135     0.3 7  133   7 
 OCA  SZ EP   1    133 58.11                             127    -0.4 7  176 347 
 OCA  SZ I         133 58.31        12.6 0.07                           176 347 
 OCA  SZ ES   2    134 21.78                             127     0.5 4  176 347 
 PRA  HZ EP   1    134 22.71                             106     0.2 4  393 213 
 PRA  HZ I         134 41.29         5.3 0.30                           393 213 
                                                                                
