 2012 1225 0825 54.0 L   6.969 -73.266132.8  RSN  8 0.5 1.6LRSN                1
 GAP=134        0.99       4.3     6.1  8.0  0.6240E+01  0.4560E+01 -0.2349E+01E
 Epicentro: BETULIA - SANTANDER                                                3
 ACTION:UPD 13-01-04 14:30 OP:ep   STATUS:               ID:20121225082554 L   I
 2012-12-25-0820-00M.COL___242                                                 6
 STAT SP IPHASW D HRMM SECON CODA AMPLIT PERI AZIMU VELO AIN AR TRES W  DIS CAZ7
 GIR2 SZ EP   1    826 11.87                             173    0.12 8 14.5  34 
 GIR2 SZ ES   1    826 25.82                             173    0.22 8 14.5  34 
 GIR2 SZ I         826 26.61        10.8 0.46                          14.5  34 
 BAR2 SZ EP   1    826 12.95                             161    0.30 8 42.7 167 
 BAR2 SZ ES   1    826 26.61                             161   -0.60 8 42.7 167 
 BAR2 SZ I         826 28.06        52.0 0.40                          42.7 167 
 BRR  HZ EP   1    826 13.14                             157    0.46 8 51.6 287 
 BRR  HE ES   1    826 28.02                             157    0.76 8 51.6 287 
 BRR  HZ I         826 28.99         8.0 0.12                          51.6 287 
 RUS  HZ EP        826 18.20                             135    0.0710  121 170 
 RUS  HE ES   1    826 37.07                             135    0.11 7  121 170 
 RUS  HZ I         826 37.40         1.7 0.20                           121 170 
 PTB  HZ EP   1    826 18.95                             130   -0.24 7  140 250 
 PTB  HN ES   1    826 37.81                             130   -1.03 7  140 250 
 PTB  HZ I         826 41.27         5.1 0.12                           140 250 
 OCA  HZ EP   1    826 19.33                             130   -0.10 7  141 358 
 OCA  HE ES   1    826 38.38                             130   -0.90 7  141 358 
 OCA  HZ I         826 43.01         5.4 0.46                           141 358 
 ZAR  HN ES   1    826 47.31                             122    0.56 7  185 288 
 ZAR  HZ I         826 51.79         3.2 0.30                           185 288 
 SML  HE ES   1    826 53.69                             117    0.16 6  221 336 
 SML  HZ I         826 57.67         7.5 0.10                           221 336 
                                                                                
