 2016  925 0133 12.6 L   6.766 -73.136146.2  RSN  5 0.5 1.6LRSN                1
 GAP=236        1.28       7.7     8.2 10.0  0.1429E+02  0.8532E+01  0.2207E+01E
 Epicentro: LOS SANTOS - SANTANDER                                             3
 ACTION:UPD 17-08-17 21:16 OP:lp   STATUS:               ID:20160925013312 L   I
 OLDACT:REG 16-09-25 12:59 OP:ar   STATUS:               ID:20160925012742     3
 2016-09-25-0128-00M.COL___330                                                 6
 STAT SP IPHASW D HRMM SECON CODA AMPLIT PERI AZIMU VELO AIN AR TRES W  DIS CAZ7
 BAR2 EZ EP        133 32.05                             172   -0.1310 19.9 195 
 BAR2 EZ ES        133 46.87                             172   -0.6110 19.9 195 
 BRR  HZ EP        133 34.14                             152    0.2210 73.9 301 
 BRR  HN ES        133 51.35                             152    0.7810 73.9 301 
 BRR  HZ I         134  8.61         9.7 0.40            150           73.9 301 
 RUS  HZ EP        133 36.46                             145    0.3710 96.8 177 
 RUS  HE ES        133 54.33                             145   -0.1110 96.8 177 
 RUS  HZ I         133 55.96         3.2 0.26            157           96.8 177 
 PTB  HZ EP        133 38.92                             132   -0.68 9  148 260 
 PTB  HE ES        134  0.06                             132   -0.62 9  148 260 
 PTB  HZ I         134  3.21         3.4 0.40            136            148 260 
 SPBC HZ EP   2    133 41.09                             130    0.20 5  161 220 
 SPBC HE ES        134  3.64                             130    0.67 9  161 220 
 SPBC HZ I         134  8.06         7.5 0.20            138            161 220 
                                                                                
