 2010  525 0629 57.2 L   7.127 -73.390110.0  RSN  7 0.5 2.2LRSN                1
 GAP=117        1.33       6.2    11.5 12.2 -0.4070E+02  0.7367E+02 -0.2613E+02E
 Epicentro: LEBRIJA - SANTANDER                                                3
 ACTION:UP  10-08-24 10:06 OP:vdl  STATUS:               ID:20100525062957 L   I
 2010-05-25-0628-18S.COL___108                                                 6
 STAT SP IPHASW D HRMM SECON CODA AMPLIT PERI AZIMU VELO SNR AR TRES W  DIS CAZ7
 BAR2 SZ EP        630 14.07                             148    -0.410   63 159 
 BAR2 SZ ES        630 27.85                             148     0.010   63 159 
 GUE  SZ EP        630 16.20                             137    -0.610   93  33 
 GRA  SZ EP        630 17.67                             133     0.010  106  38 
 GRA  SZ ES        630 34.59                             133     1.010  106  38 
 OCA  SZ EP        630 18.95                             128    -0.310  123   4 
 OCA  SZ ES   1    630 36.06                             128    -0.4 7  123   4 
 OCA  SZ I         630 37.55        61.6 0.22                           123   4 
 HEL  HZ EP   1    630 35.12                             107     0.9 6  258 246 
 HEL  HZ I         631  9.52         4.3 0.26                           258 246 
 RREF BZ EP   1    630 43.25                             103     0.4 5  328 221 
 RREF BN ES   1    631 18.87                             103     0.5 5  328 221 
 RREF BZ I         631 32.98         7.5 0.66                           328 221 
 SDV  BZ EP        630 46.36                             101     0.2 6  361  57 
 SDV  BZ I         631 19.52         9.2 0.73                           361  57 
                                                                                
