 2014  225 0311 28.2 L   6.806 -73.146144.9  RSN 15 0.4 2.0LRSN                1
 GAP=136        0.83       2.6     3.9  5.7 -0.6043E-01  0.7284E+01  0.1298E+01E
 Epicentro: LOS SANTOS - SANTANDER                                             3
 ACTION:UPD 14-03-10 08:13 OP:ep   STATUS:               ID:20140225031128 L   I
 OLDACT:REG 14-02-25 08:05 OP:fm   STATUS:               ID:20140225030814     3
 2014-02-25-0308-14M.COL___236                                                 6
 STAT SP IPHASW D HRMM SECON CODA AMPLIT PERI AZIMU VELO AIN AR TRES W  DIS CAZ7
 BAR2 SZ EP        311 47.72                             170   -0.0010 24.0 190 
 BAR2 SZ ES   1    312  3.02                             170    0.05 7 24.0 190 
 BAR2 SZ I         312  4.44        35.5 0.20            166           24.0 190 
 PAM  SZ IP     C  311 50.44                             151    0.1610 76.9  40 
 PAM  SN ES        312  7.57                             151    0.0610 76.9  40 
 PAM  SZ I         312  9.78        24.8 0.54            156           76.9  40 
 RUS  HZ EP        311 51.68                             143   -0.2210  101 176 
 RUS  HN ES        312 10.44                             143    0.0410  101 176 
 RUS  HZ I         312 11.45         5.7 0.38            144            101 176 
 PTB  HZ EP        311 55.01                             132   -0.08 9  148 259 
 PTB  HN ES        312 15.36                             132   -0.72 9  148 259 
 PTB  HZ I         312 21.43        12.2 0.36            130            148 259 
 TAM  HZ EP   4    311 55.95                             130    0.14 0  155 105 
 OCA  HZ EP   4    311 54.11                             130   -2.25 0  160 353 
 OCA  HN ES        312 18.35                             130    0.00 9  160 353 
 OCA  HZ I         312 21.99        13.5 0.22            131            160 353 
 SPBC HN ES   4    312 20.87                             129    1.99 0  164 219 
 SPBC HZ I         312 23.89        13.5 0.20            128            164 219 
 ZAR  HZ EP   1    312  1.00                             122    0.45 6  204 292 
 ZAR  HE ES        312 26.60                             122    0.81 9  204 292 
 ZAR  HZ I         312 31.46         9.8 0.34            122            204 292 
 NOR  HN ES   4    312 31.09                             118   -0.68 0  235 234 
 NOR  HZ I         312 35.06         8.5 0.16            118            235 234 
 SML  HZ EP        312  3.96                             117   -0.74 8  243 335 
 SML  HE ES   2    312 33.25                             117    0.07 4  243 335 
 SML  HZ I         312 35.79        20.7 0.10            118            243 335 
 CHI  HZ EP        312  5.92                             117    0.02 8  249 195 
 CHI  HN ES        312 35.56                             117    0.23 8  249 195 
 CHI  HZ I         312 43.92         3.4 0.62            117            249 195 
 HEL  HE ES   4    312 40.62                             115    0.90 0  272 256 
 HEL  HZ I         312 48.49         4.1 0.24            114            272 256 
 URE  HZ EP   4    312  2.40                             113   -6.78 0  284 292 
 URE  HN ES   4    312 38.97                             113   -2.20 0  284 292 
 URE  HZ I         312 42.57         6.8 0.14            114            284 292 
 GUY2CHZ EP   4    312 13.14                             112    1.34 0  302 235 
 GUY2CHE ES   4    312 49.98                             112    4.17 0  302 235 
 GUY2CHZ I         312 54.46         6.7 0.36                           302 235 
 SDV  BN ES   4    312 17.00                             108   -40.1 0  360  50 
 PRA  HZ EP   1    312 22.34                             106    0.60 4  393 210 
 PRA  HN ES   1    313  3.72                             106    0.20 4  393 210 
 PRA  HZ I         313  9.41         4.3 0.40            107            393 210 
 ORTC HZ EP   4    312 22.28                             106    0.14 0  396 216 
 ORTC HN ES   4    313  6.28                             106    2.06 0  396 216 
 ORTC HZ I         313 11.48         3.3 0.36            107            396 216 
                                                                                
