 2013  625 0425  2.2 L   6.816 -73.150149.7  RSN 11 0.4 1.7LRSN                1
 GAP=135        1.09       4.0     5.2  6.3  0.7455E+00  0.7537E+01  0.2083E+00E
 Epicentro: LOS SANTOS - SANTANDER                                             3
 ACTION:UPD 14-01-08 09:56 OP:ep   STATUS:               ID:20130625042502 L   I
 OLDACT:REG 13-06-25 06:37 OP:jn   STATUS:               ID:20130625041959     3
 2013-06-25-0419-59M.COL___267                                                 6
 STAT SP IPHASW D HRMM SECON CODA AMPLIT PERI AZIMU VELO AIN AR TRES W  DIS CAZ7
 BAR2 SZ EP        425 22.43                             170    0.1210 25.0 188 
 BAR2 SZ ES        425 37.22                             170   -0.8010 25.0 188 
 BAR2 SZ I         425 39.10        11.5 0.16            161           25.0 188 
 GIR2 SZ EP        425 22.59                             168    0.3210 29.5 351 
 GIR2 SZ ES        425 38.10                             168    0.1610 29.5 351 
 BRR  HZ EP        425 24.27                             154    0.5910 70.0 297 
 BRR  HE ES        425 41.41                             154    0.9510 70.0 297 
 BRR  HZ I         425 44.58        10.0 0.24            148           70.0 297 
 PAM  SZ EP   1    425 24.63                             152   -0.12 7 76.3  41 
 PAM  SN ES        425 42.28                             152   -0.0710 76.3  41 
 PAM  SZ I         425 43.17         6.9 0.18            153           76.3  41 
 RUS  HZ EP        425 26.39                             144   -0.0510  102 176 
 RUS  HN ES   1    425 45.47                             144    0.10 7  102 176 
 RUS  HZ I         425 47.05         2.4 0.17            134            102 176 
 PTB  HZ EP     D  425 29.17                             133   -0.29 9  148 258 
 PTB  HN ES        425 50.14                             133   -0.60 9  148 258 
 PTB  HZ I         425 52.13         6.6 0.12            125            148 258 
 OCA  HN ES   1    425 52.35                             131   -0.47 7  158 353 
 ZAR  HE ES   1    426  0.41                             123    0.22 6  203 292 
 ZAR  HZ I         426  6.61         7.5 0.30            117            203 292 
 SML  HZ EP        425 38.91                             118    0.08 8  242 335 
 SML  HE ES        426  6.78                             118   -0.64 8  242 335 
 CHI  HN ES   2    426  9.92                             118   -0.05 4  250 195 
 PRA  HZ EP   1    425 56.27                             107    0.29 4  393 209 
 PRA  HZ I         426 44.36         2.4 0.32            102            393 209 
                                                                                
