 2017  625 0722 18.7 L   6.810 -73.136147.5  RSN  5 0.2 1.0LRSN                1
 GAP=255        0.59       4.0     4.2  4.9  0.3146E+01  0.5944E+01 -0.1020E+01E
 Epicentro: LOS SANTOS - SANTANDER                                             3
 ACTION:UPD 17-09-14 16:55 OP:jn   STATUS:               ID:20170625072218 L   I
 OLDACT:REG 17-06-25 13:20 OP:lv   STATUS:               ID:20170625071742     3
 2017-06-25-0718-00M.COL___349                                                 6
 STAT SP IPHASW D HRMM SECON CODA AMPLIT PERI AZIMU VELO AIN AR TRES W  DIS CAZ7
 BAR2 EZ EP        722 38.62                             170    0.0710 24.7 192 
 BAR2 EZ ES        722 53.86                             170   -0.1910 24.7 192 
 BAR2 EZ I         722 54.89         3.8 0.07            165           24.7 192 
 BRR  HN ES        722 56.93                             153    0.2210 71.6 297 
 PTB  HZ EP        722 45.65                             132   -0.26 9  149 258 
 PTB  HN ES        723  7.32                             132    0.17 9  149 258 
 PTB  HZ I         723  9.43         0.5 0.11            131            149 258 
 SPBC HN ES        723  9.97                             129    0.05 9  165 219 
 SPBC HZ I         723 14.18         1.5 0.06            127            165 219 
 ZAR  HZ EP        722 51.61                             123    0.30 9  205 292 
 ZAR  HE ES        723 16.38                             123   -0.37 9  205 292 
                                                                                
