 2017  225 0740 59.3 L   6.777 -73.158147.4  RSN  5 0.4 0.9LRSN                1
 GAP=136        0.97       6.3     5.8  7.6  0.7985E+01 -0.3762E+01 -0.7762E+01E
 Epicentro: LOS SANTOS - SANTANDER                                             3
 ACTION:UPD 17-05-24 15:40 OP:jn   STATUS:               ID:20170225074059 L   I
 OLDACT:DUP 17-02-25 17:51 OP:dani STATUS:               ID:20170225073745d    3
 OLDACT:UP  17-02-25 17:50 OP:dani STATUS:               ID:20170225073744     3
 OLDACT:UP  17-02-25 17:50 OP:dani STATUS:               ID:20170225073744     3
 OLDACT:UP  17-02-25 17:50 OP:dani STATUS:               ID:20170225073744     3
 OLDACT:UP  17-02-25 17:49 OP:dani STATUS:               ID:20170225073744     3
 OLDACT:UP  17-02-25 17:49 OP:dani STATUS:               ID:20170225073744     3
 OLDACT:UP  17-02-25 17:48 OP:dani STATUS:               ID:20170225073744     3
 OLDACT:UP  17-02-25 17:48 OP:dani STATUS:               ID:20170225073744     3
 OLDACT:UP  17-02-25 17:48 OP:dani STATUS:               ID:20170225073744     3
 OLDACT:UP  17-02-25 17:47 OP:dani STATUS:               ID:20170225073744     3
 OLDACT:UP  17-02-25 17:47 OP:dani STATUS:               ID:20170225073744     3
 OLDACT:REG 17-02-25 13:01 OP:dani STATUS:               ID:20170225073744     3
 2017-02-25-0738-00M.COL___364                                                 6
 STAT SP IPHASW D HRMM SECON CODA AMPLIT PERI AZIMU VELO AIN AR TRES W  DIS CAZ7
 BAR2 EZ EP        741 18.75                             172   -0.3310 20.7 188 
 BAR2 EZ ES        741 34.43                             172   -0.0710 20.7 188 
 BRR  HZ EP        741 20.73                             153    0.0910 71.3 301 
 BRR  HN ES        741 37.60                             153    0.3310 71.3 301 
 BRR  HZ I         741 39.68         2.1 0.55            131           71.3 301 
 PAM  EZ EP        741 21.67                             150   -0.1910 80.2  39 
 RUS  HZ EP        741 22.90                             145   -0.1510 98.2 175 
 RUS  HN ES        741 41.85                             145    0.2910 98.2 175 
 RUS  HZ I         741 42.45         0.7 0.29            131           98.2 175 
 PTB  HZ EP        741 26.94                             133    0.69 9  146 260 
 PTB  HN ES        741 46.60                             133   -0.66 9  146 260 
 PTB  HZ I         742 15.77         1.6 0.17            116            146 260 
                                                                                
