 2015  625 0039 38.5 L   6.790 -73.152150.2  RSN  6 0.4 1.9LRSN                1
 GAP=200        0.80       3.5     5.5  7.0  0.2690E+01  0.1979E+02  0.6589E-01E
 Epicentro: LOS SANTOS - SANTANDER                                             3
 ACTION:UPD 15-09-10 22:14 OP:cam  STATUS:               ID:20150625003938 L   I
 OLDACT:UP  15-06-25 13:09 OP:mh   STATUS:               ID:20150625003749     3
 OLDACT:UP  15-06-25 13:08 OP:mh   STATUS:               ID:20150625003749     3
 OLDACT:REG 15-06-25 12:03 OP:mh   STATUS:               ID:20150625003749     3
 2015-06-25-0037-49M.COL___319                                                 6
 STAT SP IPHASW D HRMM SECON CODA AMPLIT PERI AZIMU VELO AIN AR TRES W  DIS CAZ7
 BAR2 EZ EP        039 58.64                             171   -0.0410 22.2 189 
 BAR2 EZ ES        040 14.40                             171    0.0110 22.2 189 
 BAR2 EZ I         040 15.87        14.1 0.15            165           22.2 189 
 RUS  HZ EP   1    040  2.81                             145    0.15 7 99.6 176 
 RUS  HN ES   1    040 21.57                             145    0.10 7 99.6 176 
 RUS  HZ I         040 22.70         7.0 0.40            145           99.6 176 
 ZAR  HZ EP        040 11.90                             123    0.65 9  204 292 
 ZAR  HN ES        040 36.82                             123    0.06 9  204 292 
 ZAR  HZ I         040 42.04         7.9 0.54            123            204 292 
 NOR  HZ EP        040 13.77                             120   -0.63 8  233 235 
 NOR  HN ES        040 41.96                             120   -0.41 8  233 235 
 NOR  HZ I         040 49.65         6.6 0.18            119            233 235 
 SML  HN ES        040 44.06                             118   -0.25 8  244 336 
 URE  HN ES   4    040 48.07                             114   -3.91 0  284 292 
 GUY2CHZ EP   4    040 23.61                             113    1.39 0  300 235 
 GUY2CHN ES   4    041  0.12                             113    3.83 0  300 235 
 TOL  SZ EP   1    040 26.61                             110   -0.22 5  342 225 
 TOL  SE ES        041  5.16                             110    0.66 7  342 225 
 TOL  SZ I         041 12.02         3.8 0.38            111            342 225 
                                                                                
