 2016 1225 0500  6.1 L   6.781 -73.197144.3  RSN  6 0.5 1.3LRSN                1
 GAP=131        1.22       6.1     5.3  8.3  0.3610E+01  0.1090E+02 -0.2194E+01E
 Epicentro: ZAPATOCA - SANTANDER                                               3
 ACTION:UPD 17-01-11 20:18 OP:rebc STATUS:               ID:20161225050006 L   I
 OLDACT:DUP 16-12-25 15:04 OP:cog  STATUS:               ID:20161225045641d    3
 2016-12-25-0457-00M.COL___375                                                 6
 STAT SP IPHASW D HRMM SECON CODA AMPLIT PERI AZIMU VELO AIN AR TRES W  DIS CAZ7
 BAR2 EZ EP        5 0 25.50                             171   -0.0610 20.9 176 
 BAR2 EZ ES        5 0 40.64                             171   -0.0510 20.9 176 
 BAR2 EZ I         5 0 43.23         7.5 0.36            171           20.9 176 
 BRR  HZ EP        5 0 27.33                             154    0.4010 67.4 302 
 BRR  HN ES        5 0 43.90                             154    0.7710 67.4 302 
 BRR  HZ I         5 0 46.36         3.5 0.12            154           67.4 302 
 PAM  EZ EP        5 0 28.36                             149   -0.1710 82.6  42 
 PAM  EN ES        5 0 45.68                             149   -0.3110 82.6  42 
 RUS  HZ EP        5 0 29.59                             144   -0.0510 99.1 173 
 RUS  HN ES        5 0 47.84                             144   -0.1310 99.1 173 
 RUS  HZ I         5 0 49.53         2.3 0.22            146           99.1 173 
 PTB  HZ EP        5 0 32.21                             133   -0.25 9  142 259 
 PTB  HN ES        5 0 52.99                             133    0.01 9  142 259 
 PTB  HZ I         5 0 55.77         2.6 0.22            134            142 259 
 ZAR  HZ EP        5 0 38.93                             123    0.89 9  200 293 
 ZAR  HN ES        5 1  1.79                             123   -1.13 9  200 293 
                                                                                
