 2014 1025 0058 46.1 L   6.830 -73.183146.9  RSN  8 0.4 1.6LRSN                1
 GAP=130        1.05       4.0     5.3  6.3  0.5593E+00  0.6718E+01 -0.8124E+00E
 Epicentro: ZAPATOCA - SANTANDER                                               3
 ACTION:UPD 14-11-29 23:56 OP:nd   STATUS:               ID:20141025005846 L   I
 OLDACT:REG 14-10-28 13:27 OP:cam  STATUS:               ID:20141025005814     3
 2014-10-25-0058-14M.COL___289                                                 6
 STAT SP IPHASW D HRMM SECON CODA AMPLIT PERI AZIMU VELO AIN AR TRES W  DIS CAZ7
 BAR2 SZ EP        059  5.98                             169    0.0910 26.3 180 
 BAR2 SZ ES        059 20.76                             169   -0.6010 26.3 180 
 BAR2 SZ I         059 22.65         7.0 0.28            172           26.3 180 
 BRR  HZ EP        059  7.77                             154    0.7210 66.0 298 
 BRR  HE ES        059 23.93                             154    0.5110 66.0 298 
 BRR  HE I         059 28.95         9.9 0.18            152           66.0 298 
 PAM  SZ EP        059  8.82                             151    0.4110 77.6  43 
 PAM  SE ES        059 25.91                             151    0.0710 77.6  43 
 PAM  SZ I         059 28.10         7.3 0.56            153           77.6  43 
 RUS  HZ EP        059  9.86                             143   -0.3310  104 174 
 RUS  HN ES        059 28.87                             143   -0.1410  104 174 
 RUS  HZ I         059 30.12         2.2 0.52            148            104 174 
 PTB  HZ EP        059 12.62                             133   -0.21 9  144 257 
 PTB  HN ES        059 33.59                             133   -0.11 9  144 257 
 PTB  HZ I         059 37.40         3.3 0.40            134            144 257 
 SPBC HZ EP        059 15.07                             129    0.41 9  163 217 
 SML  HZ EP        059 21.57                             118   -0.67 8  239 336 
 SML  HE ES        059 49.92                             118   -0.54 8  239 336 
 SML  HE I         059 58.18        10.9 0.28            119            239 336 
 CHI  HZ EP   1    059 24.06                             117   -0.01 6  251 194 
                                                                                
