 2013 1225 0838 23.7 L   6.817 -73.156141.3  RSN 13 0.4 2.8LRSN                1
 GAP= 70        0.96       2.8     2.8  5.3 -0.7096E+00  0.4691E+01 -0.1380E+01E
 Epicentro: LOS SANTOS - SANTANDER                                             3
 ACTION:UPD 14-01-13 10:20 OP:ep   STATUS:               ID:20131225083823 L   I
 OLDACT:UP  13-12-25 13:49 OP:y    STATUS:               ID:20131225083741     3
 OLDACT:UP  13-12-25 13:49 OP:y    STATUS:               ID:20131225083741     3
 OLDACT:UP  13-12-25 13:43 OP:mh   STATUS:               ID:20131225083741     3
 OLDACT:UP  13-12-25 13:42 OP:mh   STATUS:               ID:20131225083741     3
 OLDACT:REG 13-12-25 13:14 OP:mh   STATUS:               ID:20131225083741     3
 2013-12-25-0837-41M.COL___235                                                 6
 STAT SP IPHASW D HRMM SECON CODA AMPLIT PERI AZIMU VELO AIN AR TRES W  DIS CAZ7
 BAR2 SZ EP        838 43.05                             170    0.2010 25.1 187 
 BAR2 SZ ES        838 57.76                             170   -0.0210 25.1 187 
 BAR2 SZ I         838 59.08       266.2 0.08            173           25.1 187 
 PAM  SZ EP        838 45.88                             150    0.4610 76.6  41 
 PAM  SN ES        839  2.83                             150    0.4910 76.6  41 
 PAM  SZ I         839  5.27        53.9 0.35            145           76.6  41 
 RUS  HZ EP        838 47.05                             142   -0.1310  103 176 
 RUS  HN ES        839  5.38                             142   -0.1010  103 176 
 RUS  HZ I         839  6.75        65.5 0.27            142            103 176 
 PTB  HZ EP   1    838 49.71                             131   -0.55 7  147 258 
 PTB  HN ES        839 10.18                             131   -0.79 9  147 258 
 PTB  HZ I         839 13.97        86.3 0.15            127            147 258 
 TAM  HZ EP        838 51.42                             129    0.22 9  157 106 
 TAM  HN ES        839 11.92                             129   -0.71 9  157 106 
 TAM  HZ I         839 13.58        70.8 0.67            127            157 106 
 OCA  HZ EP        838 51.31                             129   -0.18 9  158 353 
 OCA  HZ I         839 18.38        71.0 0.34            124            158 353 
 SPBC HZ EP        838 51.99                             128    0.03 9  164 218 
 SPBC HN ES   1    839 14.07                             128    0.09 7  164 218 
 SPBC HZ I         839 16.73        98.0 0.08            126            164 218 
 ZAR  HZ EP   1    838 55.93                             122    0.23 6  202 292 
 ZAR  HN ES        839 21.02                             122    0.38 9  202 292 
 NOR  HZ EP        838 59.23                             117    0.01 8  235 234 
 NOR  HN ES        839 26.37                             117   -0.53 8  235 234 
 NOR  HZ I         839 32.14        39.7 0.17            115            235 234 
 SML  HZ EP        838 59.26                             117   -0.60 8  242 335 
 SML  HN ES        839 28.13                             117    0.08 8  242 335 
 SML  HZ I         839 34.74        84.3 0.08            113            242 335 
 CHI  HZ EP   1    839  1.71                             116    0.36 6  250 195 
 CHI  HN ES        839 31.31                             116    0.62 8  250 195 
 CHI  HZ I         839 36.14        21.4 0.38            114            250 195 
 HEL  HZ EP        839  3.37                             114   -0.27 8  271 255 
 HEL  HN ES   1    839 35.79                             114    1.01 6  271 255 
 HEL  HZ I         839 42.14        60.2 0.30            111            271 255 
 CBOC HZ EP   1    839 11.04                             109    0.64 5  333 252 
 CBOC HN ES   2    839 46.93                             109    0.12 3  333 252 
 CBOC HZ I         839 54.27        11.3 0.18            106            333 252 
 SJC  HZ EP   4    839 17.24                             105   -1.64 0  407 327 
 SJC  HN ES   4    839 57.98                             105   -3.92 0  407 327 
                                                                                
