 2014  525 0151 43.9 L   6.802 -73.220147.0  RSN  7 0.5 1.7LRSN                1
 GAP=175        1.18       3.6     7.0  9.0 -0.7721E-01  0.4129E+01  0.2164E+00E
 Epicentro: ZAPATOCA - SANTANDER                                               3
 ACTION:UPD 15-03-16 17:00 OP:nd   STATUS:               ID:20140525015143 L   I
 OLDACT:UP  14-05-25 18:51 OP:nlst STATUS:               ID:20140525015143 L   3
 OLDACT:REG 14-05-25 13:59 OP:stll STATUS:               ID:20140525014814     3
 2014-05-25-0148-14M.COL___227                                                 6
 STAT SP IPHASW D HRMM SECON CODA AMPLIT PERI AZIMU VELO AIN AR TRES W  DIS CAZ7
 BRR  HZ IP     C  152  5.07                             155    0.3210 63.9 302 
 BRR  HN ES        152 21.67                             155    0.6210 63.9 302 
 BRR  HZ I         152 22.59        12.6 0.34            153           63.9 302 
 RUS  HZ EP        152  7.92                             144    0.1010  102 171 
 RUS  HN ES        152 25.86                             144   -0.6410  102 171 
 RUS  HZ I         152 27.88         3.0 0.20            145            102 171 
 PTB  HZ EP        152 10.17                             134   -0.04 9  140 258 
 PTB  HN ES        152 30.55                             134   -0.22 9  140 258 
 PTB  HZ I         152 33.71         7.3 0.14            133            140 258 
 OCA  HN ES        152 34.64                             130    0.39 9  159 356 
 NOR  HZ EP        152 19.79                             120    0.82 8  228 233 
 NOR  HN ES        152 45.99                             120   -0.36 8  228 233 
 NOR  HZ I         152 51.21         2.4 0.20            120            228 233 
 SML  HZ EP        152 19.68                             118   -0.49 8  240 337 
 SML  HN ES        152 47.60                             118   -0.89 8  240 337 
 SML  HZ I         152 51.01         7.7 0.30            119            240 337 
 CHI  HN ES        152 50.86                             118    0.12 8  247 193 
                                                                                
