 2010  225 0033 32.9 L   6.728 -72.997122.0  RSN  8 0.5 2.0LRSN                1
 GAP=215        1.15       7.5     8.6  9.4  0.4362E+01  0.1156E+02  0.4174E+02E
 Epicentro: CEPITA - SANTANDER                                                 3
 ACTION:UP  10-08-24 09:50 OP:vdl  STATUS:               ID:20100225003332 L   I
 2010-02-25-0028-41S.COL___094                                                 6
 STAT SP IPHASW D HRMM SECON CODA AMPLIT PERI AZIMU VELO SNR AR TRES W  DIS CAZ7
 BAR2 SZ EP        033 50.07                             168     0.410   26 234 
 BAR2 SZ ES        034  2.20                             168    -0.610   26 234 
 GIR2 SZ EP        033 50.41                             158     0.210   45 331 
 GIR2 SZ ES   2    034  3.37                             158    -0.4 5   45 331 
 BRR  HZ EP   1    033 51.99                             141    -0.8 7   90 298 
 BRR  HN ES        034  8.85                             141     0.510   90 298 
 BRR  HZ I         034 12.02        21.6 0.10                            90 298 
 RUS  BZ EP        033 54.14                             140     0.410   93 186 
 CHI  HZ EP        034  8.55                             112    -0.5 8  246 199 
 CHI  HZ I         034  8.97         4.5 0.16                           246 199 
 CHI  HE ES   2    034 38.21                             112     0.9 4  246 199 
 HEL  HN ES   2    034 44.64                             108    -0.8 4  286 258 
 HEL  HZ I         034 47.68         6.6 0.57                           286 258 
 RREF BZ EP        034 18.71                             105    -0.3 7  329 232 
 RREF BN ES        034 55.17                             105     0.2 7  329 232 
 PRA  HN ES   2    035  7.41                             102     0.2 3  394 212 
 PRA  HZ I         035 12.59         3.8 0.45                           394 212 
                                                                                
