 2012  625 0355 43.4 L   6.677 -73.411125.4  RSN  5 0.2 1.2LRSN                1
 GAP=145        0.46       4.2     3.7  5.8  0.7204E+01  0.7839E+01  0.1914E+01E
 Epicentro: EL CARMEN DE CHUCURI - SANTANDER                                   3
 ACTION:UPD 12-08-06 17:52 OP:ep   STATUS:               ID:20120625035543 L   I
 2012-06-25-0350-00M.COL___198                                                 6
 STAT SP IPHASW D HRMM SECON CODA AMPLIT PERI AZIMU VELO AIN AR TRES W  DIS CAZ7
 BAR2 SZ EP   1    356  0.73                             167    0.03 7 27.0 110 
 BAR2 SZ ES   1    356 14.01                             167   -0.16 7 27.0 110 
 BAR2 SZ I         356 14.94         4.9 0.20                          27.0 110 
 BRR  HZ EP   1    356  1.43                             154   -0.20 7 58.0 325 
 BRR  HZ I         356  1.99         5.9 0.11                          58.0 325 
 BRR  HE ES   1    356 15.96                             154    0.13 7 58.0 325 
 RUS  HN ES   1    356 21.56                             141    0.24 7 94.0 157 
 PTB  HZ EP   1    356  5.93                             134    0.01 7  117 263 
 PTB  HN ES   1    356 23.20                             134   -0.26 7  117 263 
 PTB  HZ I         356 26.94         1.4 0.17                           117 263 
 ZAR  HE ES   2    356 35.63                             120    0.56 4  184 300 
                                                                                
