 2013 1025 0721 34.9 L   6.766 -73.167145.2  RSN  8 0.4 1.5LRSN                1
 GAP=232        0.97       4.1     4.9  6.2  0.6042E+01  0.6092E+01  0.4706E+01E
 Epicentro: LOS SANTOS - SANTANDER                                             3
 ACTION:UPD 13-11-25 09:23 OP:ep   STATUS:               ID:20131025072134 L   I
 OLDACT:REG 13-10-25 07:23 OP:carl STATUS:               ID:20131025071847     3
 2013-10-25-0718-47M.COL___230                                                 6
 STAT SP IPHASW D HRMM SECON CODA AMPLIT PERI AZIMU VELO AIN AR TRES W  DIS CAZ7
 BAR2 SZ EP        721 54.31                             172   -0.1210 19.3 185 
 BAR2 SZ ES        722  9.04                             172   -0.5810 19.3 185 
 BAR2 SZ I         722 10.55        14.5 0.22            171           19.3 185 
 BRR  HZ EP        721 56.07                             152    0.0510 71.0 302 
 BRR  HN ES        722 13.30                             152    0.8510 71.0 302 
 BRR  HZ I         722 15.84         4.4 0.38            152           71.0 302 
 RUS  HZ EP        721 58.57                             145    0.1910 97.1 174 
 RUS  HN ES        722 16.79                             145    0.1310 97.1 174 
 RUS  HZ I         722 18.73         4.1 0.40            146           97.1 174 
 PTB  HZ EP        722  1.21                             132   -0.38 9  145 260 
 PTB  HN ES        722 21.83                             132   -0.54 9  145 260 
 PTB  HZ I         722 24.01         4.5 0.38            133            145 260 
 SPBC HZ EP        722  3.34                             130    0.36 9  159 219 
 SPBC HE ES        722 24.88                             130    0.03 9  159 219 
 SPBC HZ I         722 27.86         4.7 0.30            130            159 219 
 ZAR  HZ EP   1    722  6.97                             122   -0.30 6  203 293 
 ZAR  HN ES        722 32.30                             122   -0.18 9  203 293 
 ZAR  HZ I         722 36.90         3.2 0.28            123            203 293 
 NOR  HN ES        722 38.19                             119    0.50 8  231 235 
 CHI  HZ EP        722 12.23                             117    0.08 8  244 195 
 CHI  HN ES        722 40.89                             117   -0.28 8  244 195 
 CHI  HZ I         722 43.99         1.9 0.36            119            244 195 
                                                                                
