 2017  525 0525  1.0 L   6.779 -73.178152.0  RSN  6 0.3 1.4LRSN                1
 GAP=208        0.63       3.9     4.0  5.6  0.7210E+01 -0.8630E+01 -0.2442E+01E
 Epicentro: LOS SANTOS - SANTANDER                                             3
 ACTION:UPD 17-06-16 13:38 OP:jn   STATUS:               ID:20170525052501 L   I
 OLDACT:UP  17-05-26 14:58 OP:and  STATUS:               ID:20170525051742d    3
 OLDACT:UP  17-05-26 14:58 OP:and  STATUS:               ID:20170525051742d    3
 OLDACT:UP  17-05-26 14:57 OP:and  STATUS:               ID:20170525051742d    3
 OLDACT:UP  17-05-26 14:55 OP:and  STATUS:               ID:20170525051742d    3
 OLDACT:UP  17-05-26 14:54 OP:and  STATUS:               ID:20170525051742d    3
 OLDACT:UP  17-05-26 14:54 OP:and  STATUS:               ID:20170525051742d    3
 OLDACT:UP  17-05-26 14:53 OP:and  STATUS:               ID:20170525051742d    3
 OLDACT:DUP 17-05-26 14:48 OP:and  STATUS:               ID:20170525051742d    3
 OLDACT:UP  17-05-26 14:47 OP:and  STATUS:               ID:20170525051741     3
 OLDACT:UP  17-05-26 14:47 OP:and  STATUS:               ID:20170525051741     3
 OLDACT:UP  17-05-26 14:46 OP:and  STATUS:               ID:20170525051741     3
 OLDACT:UP  17-05-26 14:44 OP:and  STATUS:               ID:20170525051741     3
 OLDACT:UP  17-05-26 14:33 OP:and  STATUS:               ID:20170525051741     3
 OLDACT:UP  17-05-26 14:32 OP:and  STATUS:               ID:20170525051741     3
 OLDACT:UP  17-05-26 14:31 OP:and  STATUS:               ID:20170525051741     3
 OLDACT:UP  17-05-26 14:30 OP:and  STATUS:               ID:20170525051741     3
 OLDACT:UP  17-05-26 14:30 OP:and  STATUS:               ID:20170525051741     3
 OLDACT:UP  17-05-26 14:25 OP:and  STATUS:               ID:20170525051741     3
 OLDACT:REG 17-05-26 14:16 OP:and  STATUS:               ID:20170525051741     3
 2017-05-25-0518-00M.COL___332                                                 6
 STAT SP IPHASW D HRMM SECON CODA AMPLIT PERI AZIMU VELO AIN AR TRES W  DIS CAZ7
 BRR  HZ EP        525 22.67                             154   -0.0810 69.3 302 
 BRR  HN ES        525 39.51                             154   -0.1910 69.3 302 
 BRR  HZ I         525 43.98         6.2 0.12            154           69.3 302 
 RUS  HZ EP   9    525 23.93                             145   -1.33 0 98.6 174 
 RUS  HN ES        525 42.50                             144   -0.3310 98.6 174 
 RUS  HZ I         525 43.99         3.9 0.22            149           98.6 174 
 PTB  HZ EP   2    525 28.73                             134    0.56 5  144 259 
 PTB  HN ES        525 49.60                             134    0.27 9  144 259 
 PTB  HZ I         525 51.59         2.8 0.22            136            144 259 
 SPBC HN ES        525 51.75                             131   -0.20 9  159 219 
 YPLC HZ EP        525 31.20                             128   -0.06 9  177 150 
 YPLC HN ES        525 55.11                             128    0.28 9  177 150 
 YPLC HZ I         525 55.71         3.3 0.28            131            177 150 
 PTGC HZ EP   2    525 44.33                             112   -0.75 4  308 158 
                                                                                
