 2016 1225 0520 41.9 L   6.781 -73.182140.0  RSN  7 0.4 1.0LRSN                1
 GAP=133        1.05       4.5     5.0  7.5  0.5567E+01  0.1224E+02  0.1210E+02E
 Epicentro: LOS SANTOS - SANTANDER                                             3
 ACTION:UPD 17-01-11 20:18 OP:rebc STATUS:               ID:20161225052041 L   I
 OLDACT:REG 16-12-25 13:05 OP:cog  STATUS:               ID:20161225051747     3
 2016-12-25-0518-00M.COL___375                                                 6
 STAT SP IPHASW D HRMM SECON CODA AMPLIT PERI AZIMU VELO AIN AR TRES W  DIS CAZ7
 BAR2 EZ EP        521  0.70                             171   -0.0710 20.8 180 
 BAR2 EZ ES        521 15.52                             171    0.0210 20.8 180 
 BAR2 EZ I         521 16.80         3.2 0.24            167           20.8 180 
 BRR  HZ EP        521  2.26                             152   -0.0110 68.8 302 
 BRR  HE ES        521 18.58                             152    0.4110 68.8 302 
 BRR  HZ I         521 22.45         2.3 0.14            153           68.8 302 
 PAM  EN ES        521 20.55                             148   -0.2610 81.6  41 
 RUS  HZ EP        521  4.38                             143   -0.5610 98.8 174 
 RUS  HN ES        521 23.42                             143    0.5010 98.8 174 
 RUS  HZ I         521 24.74         0.7 0.50            143           98.8 174 
 PTB  HZ EP        521  8.48                             132    0.50 9  143 259 
 PTB  HE ES        521 27.50                             132   -0.84 9  143 259 
 PTB  HZ I         521 30.85         1.9 0.32            132            143 259 
 ZAR  HN ES        521 38.66                             121    0.22 9  201 293 
 CHI  HZ EP        521 19.33                             116    0.40 8  246 194 
 CHI  HE ES        521 47.62                             116   -0.20 8  246 194 
 CHI  HZ I         521 55.96         0.8 0.42            117            246 194 
                                                                                
