 2014  925 0209 11.3 L   6.790 -73.168149.9  RSN  8 0.4 1.8LRSN                1
 GAP=134        1.10       4.2     4.8  8.1 -0.6375E+00  0.3696E+01  0.9778E+01E
 Epicentro: LOS SANTOS - SANTANDER                                             3
 ACTION:UPD 14-10-03 23:08 OP:nd   STATUS:               ID:20140925020911 L   I
 OLDACT:UP  14-09-25 17:35 OP:cam  STATUS:               ID:20140925020736     3
 OLDACT:UP  14-09-25 17:34 OP:cam  STATUS:               ID:20140925020736     3
 OLDACT:REG 14-09-25 17:30 OP:cam  STATUS:               ID:20140925020736     3
 2014-09-25-0207-36M.COL___287                                                 6
 STAT SP IPHASW D HRMM SECON CODA AMPLIT PERI AZIMU VELO AIN AR TRES W  DIS CAZ7
 BRR  HZ EP        2 9 33.23                             154    0.3910 69.6 300 
 BRR  HN ES        2 9 50.51                             154    0.8910 69.6 300 
 BRR  HZ I         2 9 53.82         6.6 0.42            154           69.6 300 
 PAM  SZ EP        2 9 34.17                             151    0.0410 79.8  40 
 PAM  SN ES        2 9 51.53                             151   -0.3910 79.8  40 
 PAM  SZ I         2 9 53.52        12.5 0.54            155           79.8  40 
 RUS  HZ EP        2 9 35.05                             145   -0.3810 99.7 175 
 RUS  HE ES        2 9 54.05                             145   -0.1810 99.7 175 
 RUS  HZ I         2 9 55.63         5.8 0.22            146           99.7 175 
 PTB  HZ EP        2 9 38.02                             133   -0.38 9  145 259 
 PTB  HN ES        2 9 58.78                             133   -0.74 9  145 259 
 PTB  HZ I         210  1.62         6.7 0.36            135            145 259 
 SPBC HZ EP        2 9 40.20                             130    0.27 9  161 219 
 SPBC HN ES        210  2.37                             130    0.14 9  161 219 
 SPBC HZ I         210  7.28        10.3 0.20            132            161 219 
 ZAR  HN ES        210  9.07                             123   -0.16 9  202 293 
 ZAR  HZ I         210 12.06         5.6 0.32            126            202 293 
 CHI  HZ EP        2 9 49.55                             118    0.47 8  247 195 
 CHI  HN ES        210 18.66                             118    0.14 8  247 195 
 CHI  HZ I         210 22.76         2.3 0.48            120            247 195 
 GUY2CHZ EP   4    2 9 56.73                             113    1.89 0  299 235 
 GUY2CHE ES   4    210 32.98                             113    4.21 0  299 235 
 GUY2CHZ I         210 37.94         5.2 0.82                           299 235 
                                                                                
