 2010  425 0031 26.2 L   6.781 -73.027152.3  RSN  7 0.3 1.9LRSN                1
 GAP=200        0.50       4.8     7.4  6.1 -0.1984E+02 -0.3199E+01  0.6339E+01E
 Epicentro: CEPITA - SANTANDER                                                 3
 ACTION:UPD 10-08-24 10:00 OP:vdl  STATUS:               ID:20100425003136 L   I
 2010-04-25-0028-06S.COL___104                                                 6
 STAT SP IPHASW D HRMM SECON CODA AMPLIT PERI AZIMU VELO AIN AR TRES W  DIS CAZ7
 BAR2 SZ EP   2    031 46.28                             169    -0.4 5   27 220 
 BAR2 SZ ES   2    032  2.86                             169     0.2 5   27 220 
 BRR  HZ IP     C  031 48.90                             150     0.110   84 296 
 BRR  HZ I         031 49.15        19.7 0.16                            84 296 
 BRR  HE ES   1    032  6.35                             150    -0.1 7   84 296 
 GUE  SZ EP   2    031 51.45                             141    -0.1 5  117   6 
 GRA  SZ ES   1    032 12.17                             139     0.2 7  125  11 
 OCA  SZ EP   2    031 55.39                             130     0.0 5  164 349 
 OCA  SZ ES   2    032 17.65                             130    -0.5 5  164 349 
 OCA  SZ I         032 22.68         9.9 0.15                           164 349 
 HEL  HZ EP   2    032  8.65                             115     0.5 4  284 257 
 HEL  HZ I         032 43.84         2.7 0.60                           284 257 
 PRA  HE ES   2    033  2.43                             107    -0.4 3  397 211 
 PRA  HZ I         033  8.03         2.2 0.48                           397 211 
                                                                                
