 2016  125 0721  4.9 L   6.851 -73.080143.4  RSN  8 0.3 1.3LRSN                1
 GAP=142        0.81       2.4     4.2  5.4  0.1213E+01  0.9421E+01  0.3842E+00E
 Epicentro: LOS SANTOS - SANTANDER                                             3
 ACTION:UPD 16-03-09 23:28 OP:cam  STATUS:               ID:20160125072104 L   I
 OLDACT:REG 16-01-25 15:05 OP:cara STATUS:               ID:20160125071747     3
 2016-01-25-0717-47M.COL___329                                                 6
 STAT SP IPHASW D HRMM SECON CODA AMPLIT PERI AZIMU VELO AIN AR TRES W  DIS CAZ7
 BAR2 EZ IP        721 24.12                             167   -0.2710 30.8 202 
 BAR2 EZ ES        721 40.04                             167    0.4210 30.8 202 
 PAM  EN ES        721 42.60                             153   -0.4410 68.4  38 
 PAM  EZ I         721 45.39         2.1 0.22            142           68.4  38 
 RUS  HZ EP        721 29.32                             142    0.5310  106 180 
 RUS  HE ES        721 47.49                             142    0.0410  106 180 
 RUS  HZ I         721 49.94         1.5 0.36            138            106 180 
 OCA  HN ES        721 54.44                             130    0.27 9  156 350 
 OCA  HZ I         721 58.01         5.3 0.32            121            156 350 
 PTB  HZ EP        721 32.24                             130   -0.18 9  156 257 
 PTB  HN ES        721 53.53                             130   -0.37 9  156 257 
 PTB  HZ I         721 55.19         3.1 0.12            125            156 257 
 ZAR  HZ EP        721 38.02                             121    0.36 8  209 290 
 ZAR  HN ES        722  3.51                             121    0.27 8  209 290 
 ZAR  HZ I         722 13.10         2.2 0.30            115            209 290 
 SML  HZ EP        721 41.06                             117   -0.10 8  242 333 
 SML  HN ES        722  9.18                             117   -0.28 8  242 333 
 SML  HZ I         722 12.50         2.8 0.10            110            242 333 
 CHI  HZ EP        721 43.24                             116   -0.01 8  256 196 
 CHI  HN ES        722 12.81                             116   -0.38 8  256 196 
                                                                                
