 2011  625 0802 16.7 L   6.678 -73.256147.3  RSN  4 0.4 1.3LRSN                1
 GAP=174        0.59      25.2    35.2 15.9  0.5584E+03  0.7536E+02  0.1556E+03E
 Epicentro: BARICHARA - SANTANDER                                              3
 ACTION:UP  11-07-14 19:07 OP:ep   STATUS:               ID:20110625080216 L   I
 2011-06-25-0800-00M.COL___124                                                 6
 STAT SP IPHASW D HRMM SECON CODA AMPLIT PERI AZIMU VELO SNR AR TRES W  DIS CAZ7
 BAR2 SZ EP        8 2 36.17                             175    -0.210   12 139 
 BAR2 SZ ES   3    8 2 52.39                             175     0.7 2   12 139 
 BAR2 SZ I         8 2 54.36         4.3 0.55                            12 139 
 BTL  SZ EP        8 2 36.88                             167     0.310   27 357 
 BTL  SZ ES   3    8 2 52.17                             167     0.0 2   27 357 
 GIR2 SZ ES   3    8 2 51.88                             160    -1.0 2   45   9 
 BRR  HZ EP   3    8 2 38.33                             152     0.4 2   69 313 
 BRR  HN ES   3    8 2 53.82                             152    -0.7 2   69 313 
 BRR  HZ I         8 2 56.50         3.5 0.47                            69 313 
                                                                                
