 2015  525 0014 48.6 L   6.746 -73.124144.0  RSN  7 0.3 1.7LRSN                1
 GAP=185        0.66       3.2     5.4  7.4  0.1505E+01  0.5251E+01  0.3786E+01E
 Epicentro: LOS SANTOS - SANTANDER                                             3
 ACTION:UPD 15-09-10 22:06 OP:cam  STATUS:               ID:20150525001448 L   I
 OLDACT:REG 15-05-25 12:24 OP:spq  STATUS:               ID:20150525000748     3
 2015-05-25-0007-48M.COL___297                                                 6
 STAT SP IPHASW D HRMM SECON CODA AMPLIT PERI AZIMU VELO AIN AR TRES W  DIS CAZ7
 BRR  HZ EP        015  9.44                             151   -0.3910 76.2 302 
 BRR  HN ES        015 26.54                             151    0.1410 76.2 302 
 BRR  HZ I         015 31.36         6.8 0.40            150           76.2 302 
 RUS  HZ EP   1    015 11.46                             145   -0.26 7 94.5 177 
 RUS  HN ES   1    015 29.94                             145    0.16 7 94.5 177 
 RUS  HZ I         015 30.88         3.3 0.34            148           94.5 177 
 OCA  HN ES        015 40.03                             128    0.26 9  166 353 
 OCA  HZ I         015 41.20        13.5 0.23            132            166 353 
 ZAR  HE ES   1    015 46.57                             122   -0.38 6  209 293 
 ZAR  HZ I         015 48.95         7.6 0.07            123            209 293 
 NOR  HN ES   1    015 51.94                             119    0.23 6  233 236 
 NOR  HZ I         015 57.75         5.4 0.13            120            233 236 
 GUY2CHZ EP   1    015 32.51                             112    0.57 5  300 236 
 GUY2CHN ES   4    016  7.74                             112    1.97 0  300 236 
 GUY2CHZ I         016 12.29         2.3 0.32                           300 236 
 MON  HZ EP   4    015 35.59                             108   -2.56 0  359 309 
 MON  HN ES   4    016 13.86                             108   -2.96 0  359 309 
 MON  HZ I         016 16.90         1.1 0.19            110            359 309 
                                                                                
