 2013  125 0454 41.2 L   6.806 -73.122149.0  RSN  9 0.5 2.1LRSN                1
 GAP=139        1.02       4.4     5.4  7.7 -0.8119E+00  0.1137E+02  0.2495E+01E
 Epicentro: LOS SANTOS - SANTANDER                                             3
 ACTION:UPD 13-02-15 09:16 OP:ep   STATUS:               ID:20130125045441 L   I
 2013-01-25-0450-00M.COL___241                                                 6
 STAT SP IPHASW D HRMM SECON CODA AMPLIT PERI AZIMU VELO AIN AR TRES W  DIS CAZ7
 BAR2 SZ EP   1    455  1.03                             170   -0.22 7 24.5 196 
 BAR2 SZ ES   1    455 16.72                             170   -0.17 7 24.5 196 
 BRR  HZ EP     C  455  2.99                             152    0.1710 73.2 297 
 BRR  HE ES   1    455 20.54                             152    0.86 7 73.2 297 
 BRR  HZ I         455 28.02        15.7 0.40            150           73.2 297 
 PAM  SZ EP   1    455  4.03                             152    0.38 7 75.3  38 
 PAM  SN ES   1    455 21.25                             152    0.10 7 75.3  38 
 PAM  SZ I         455 23.34        21.0 0.54            158           75.3  38 
 RUS  HZ EP   1    455  5.00                             144   -0.32 7  101 178 
 RUS  HN ES   1    455 23.91                             144   -0.20 7  101 178 
 RUS  HZ I         455 25.91         9.0 0.30            148            101 178 
 PTB  HZ EP   1    455  7.78                             132   -0.90 7  150 259 
 PTB  HN ES   1    455 28.97                             132   -1.14 7  150 259 
 PTB  HZ I         455 36.42        35.5 0.26            132            150 259 
 OCA  HZ EP   1    455  9.94                             130    0.19 7  160 352 
 OCA  HN ES   1    455 31.53                             130   -0.48 7  160 352 
 OCA  HZ I         455 36.04        27.8 0.32            134            160 352 
 ZAR  HZ EP   1    455 13.76                             123   -0.33 6  206 292 
 ZAR  HN ES   1    455 40.08                             123    0.34 6  206 292 
 ZAR  HZ I         455 47.28        17.5 0.44            124            206 292 
 CHI  HZ EP   1    455 19.08                             118   -0.15 6  250 196 
 CHI  HN ES   1    455 49.84                             118    0.96 6  250 196 
 CHI  HZ I         455 53.69         5.3 0.60            121            250 196 
 HEL  HZ EP   1    455 22.67                             115    0.79 6  275 256 
 HEL  HE ES   1    455 54.17                             115    0.56 6  275 256 
 HEL  HZ I         456  0.31        11.1 0.30            117            275 256 
                                                                                
