 2012  125 0608 55.4 L   6.777 -73.144141.6  RSN 13 0.4 2.1LRSN                1
 GAP=138        0.80       3.2     4.2  5.2 -0.1750E+01  0.2782E+01  0.4525E+01E
 Epicentro: LOS SANTOS - SANTANDER                                             3
 ACTION:UP  12-02-03 08:20 OP:REBC STATUS:               ID:20120125060855 L   I
 2012-01-25-0604-49S.COL___154                                                 6
 STAT SP IPHASW D HRMM SECON CODA AMPLIT PERI AZIMU VELO SNR AR TRES W  DIS CAZ7
 BAR2 SZ EP        6 9 14.54                             171     0.010   21 192 
 BAR2 SZ ES   1    6 9 29.29                             171    -0.1 7   21 192 
 BAR2 SZ I         6 9 32.31        33.4 0.35                            21 192 
 GIR2 SZ EP        6 9 14.60                             166    -0.110   34 351 
 BRR  HZ EP        6 9 16.38                             151     0.210   73 300 
 BRR  HN ES        6 9 33.06                             151     0.610   73 300 
 BRR  HZ I         6 9 35.75        22.6 0.18                            73 300 
 PAM  SZ EP        6 9 17.41                             149     0.110   79  38 
 PAM  SN ES   1    6 9 34.00                             149    -0.4 7   79  38 
 RUS  HZ EP        6 9 18.62                             144     0.010   98 176 
 RUS  HE ES   1    6 9 36.44                             144    -0.2 7   98 176 
 RUS  HZ I         6 9 38.48        16.9 0.31                            98 176 
 PTB  HZ EP   1    6 9 21.43                             131    -0.6 7  147 260 
 PTB  HE ES   1    6 9 42.23                             131    -0.6 7  147 260 
 OCA  SZ EP   1    6 9 23.49                             128    -0.2 7  163 353 
 OCA  SZ ES   2    6 9 45.59                             128    -0.1 5  163 353 
 OCA  SZ I         6 9 48.31        13.9 0.17                           163 353 
 ZAR  HZ EP   2    6 9 27.41                             121    -0.3 4  205 293 
 ZAR  HE ES   2    6 9 52.38                             121    -0.5 4  205 293 
 ZAR  HZ I         6 9 59.17        10.4 0.21                           205 293 
 CHI  HZ EP   1    6 9 32.84                             116     0.2 6  246 195 
 CHI  HN ES   1    610  1.75                             116     0.1 6  246 195 
 CHI  HZ I         610  6.03         4.6 0.26                           246 195 
 ROSC BZ EP   1    6 9 33.67                             116     0.6 6  251 211 
 ROSC BZ I         6 9 36.41         9.4 0.23                           251 211 
 GUY  SZ EP   1    6 9 39.78                             111     0.8 5  302 235 
 GUY  SN ES   2    610 12.35                             111    -0.6 4  302 235 
 GUY  SZ I         610 21.06         8.9 0.21                           302 235 
 RREF HZ EP   2    6 9 41.26                             110     0.0 3  320 230 
 RREF HZ I         610 28.74         6.3 0.32                           320 230 
 PRA  HZ EP   1    6 9 48.46                             106    -0.1 4  390 210 
 PRA  HE ES   1    610 29.73                             106    -0.3 4  390 210 
                                                                                
