 2016  225 0648 56.9 L   6.817 -73.190142.3  RSN  9 0.3 1.4LRSN                1
 GAP=130        0.72       2.4     3.2  5.3 -0.1011E+01  0.5289E+01  0.1092E+01E
 Epicentro: ZAPATOCA - SANTANDER                                               3
 ACTION:UPD 16-03-04 21:29 OP:rebc STATUS:               ID:20160225064856 L   I
 OLDACT:UP  16-02-25 17:10 OP:mh   STATUS:               ID:20160225064750     3
 OLDACT:UP  16-02-25 17:10 OP:mh   STATUS:               ID:20160225064750     3
 OLDACT:REG 16-02-25 13:18 OP:mh   STATUS:               ID:20160225064750     3
 2016-02-25-0647-50M.COL___330                                                 6
 STAT SP IPHASW D HRMM SECON CODA AMPLIT PERI AZIMU VELO AIN AR TRES W  DIS CAZ7
 BAR2 EZ EP        649 16.33                             170    0.2110 24.9 178 
 BAR2 EZ ES        649 31.20                             170    0.0710 24.9 178 
 BAR2 EZ I         649 32.23         3.4 0.36            171           24.9 178 
 PAM  EZ EP        649 19.01                             150    0.1710 79.2  43 
 PAM  EN ES        649 35.93                             150   -0.0310 79.2  43 
 PAM  EZ I         649 37.97         6.4 0.50            151           79.2  43 
 RUS  HZ EP        649 20.34                             142   -0.1210  103 173 
 RUS  HN ES        649 39.01                             142    0.1510  103 173 
 RUS  HZ I         649 40.57         2.1 0.36            144            103 173 
 PTB  HZ EP   1    649 23.32                             132    0.16 7  143 258 
 PTB  HN ES        649 43.99                             132    0.34 9  143 258 
 PTB  HZ I         649 46.59         1.9 0.20            133            143 258 
 OCA  HN ES        649 45.99                             129   -0.39 9  158 355 
 OCA  HZ I         649 52.29         4.3 0.38            130            158 355 
 SPBC HZ EP   1    649 25.37                             129    0.41 7  162 217 
 SPBC HN ES        649 46.72                             129   -0.15 9  162 217 
 SPBC HZ I         649 49.66         6.0 0.24            130            162 217 
 ZAR  HN ES        649 52.99                             122   -0.26 9  199 292 
 CHI  HN ES        650  2.96                             116   -0.80 8  249 194 
 CHI  HZ I         650  6.55         1.4 0.40            118            249 194 
 GUY2CHZ EP        649 40.25                             112    0.25 7  298 234 
 GUY2CHN ES   4    650 17.37                             112    3.74 0  298 234 
 GUY2CHZ I         650 22.98         1.4 0.38                           298 234 
                                                                                
