 2015  225 0432 47.7 L   6.816 -73.167146.4  RSN 16 0.5 2.0LRSN                1
 GAP= 69        1.00       2.4     3.0  5.4 -0.2430E+00  0.3097E+01  0.2666E+01E
 Epicentro: LOS SANTOS - SANTANDER                                             3
 ACTION:UPD 15-04-30 21:29 OP:nd   STATUS:               ID:20150225043247 L   I
 OLDACT:UP  15-02-25 16:57 OP:mher STATUS:               ID:20150225042747     3
 OLDACT:UP  15-02-25 16:44 OP:mher STATUS:               ID:20150225042747     3
 OLDACT:UP  15-02-25 16:44 OP:mher STATUS:               ID:20150225042747     3
 OLDACT:REG 15-02-25 13:45 OP:mh   STATUS:               ID:20150225042747     3
 2015-02-25-0427-47M.COL___292                                                 6
 STAT SP IPHASW D HRMM SECON CODA AMPLIT PERI AZIMU VELO AIN AR TRES W  DIS CAZ7
 BAR2 EZ EP        433  7.53                             170    0.0810 24.8 184 
 BAR2 EZ I         433 23.84        20.2 0.15            168           24.8 184 
 BRR  HZ EP        433  9.25                             154    0.4810 68.3 298 
 BRR  HN ES        433 25.97                             154    0.7810 68.3 298 
 PAM  SZ EP        433 10.39                             151    0.3910 77.6  42 
 PAM  SN ES        433 27.07                             151   -0.3210 77.6  42 
 PAM  SZ I         433 29.62        22.0 0.50            155           77.6  42 
 RUS  HZ EP        433 11.57                             143   -0.0910  103 175 
 RUS  HN ES        433 30.33                             143   -0.0110  103 175 
 RUS  HZ I         433 31.19         9.0 0.26            144            103 175 
 PTB  HZ EP        433 14.39                             132   -0.17 9  146 258 
 PTB  HN ES        433 34.87                             132   -0.62 9  146 258 
 PTB  HZ I         433 42.40        10.6 0.36            133            146 258 
 TAM  HZ EP        433 15.68                             130   -0.01 9  158 105 
 TAM  HN ES        433 37.53                             130    0.02 9  158 105 
 TAM  HZ I         433 45.23         4.7 0.53            133            158 105 
 OCA  HZ EP        433 15.86                             130   -0.02 9  158 354 
 OCA  HN ES        433 37.05                             130   -0.80 9  158 354 
 OCA  HZ I         433 40.45         9.6 0.34            133            158 354 
 SPBC HZ EP   1    433 16.41                             129    0.16 7  163 218 
 SPBC HN ES   1    433 38.51                             129   -0.00 7  163 218 
 SPBC HZ I         433 46.76        16.0 0.24            130            163 218 
 ZAR  HZ EP        433 20.52                             123    0.61 9  201 292 
 ZAR  HN ES        433 44.94                             123   -0.08 9  201 292 
 ZAR  HZ I         433 52.61         9.2 0.26            125            201 292 
 SML  HZ EP        433 24.63                             118    0.53 8  241 336 
 SML  HN ES        433 52.13                             118   -0.34 8  241 336 
 SML  HZ I         433 55.43        14.6 0.10            120            241 336 
 CHI  HZ EP        433 25.52                             117   -0.05 8  250 195 
 CHI  HN ES        433 54.95                             117   -0.14 8  250 195 
 CHI  HZ I         433 58.12         7.7 0.56            118            250 195 
 ROSC BZ EP   4    433 27.63                             117    1.73 0  253 210 
 ROSC BN ES   1    433 55.15                             117   -0.54 6  253 210 
 RREF HZ EP   4    433 35.38                             111    1.57 0  321 229 
 RREF HN ES   4    434 14.00                             111    4.23 0  321 229 
 RREF HZ I         434 19.34         6.2 0.40            112            321 229 
 TOL  SZ EP        433 35.57                             109   -0.38 7  343 224 
 TOL  SN ES   1    434 14.73                             109    1.15 5  343 224 
 TOL  SZ I         434 21.17         4.6 0.44            111            343 224 
 PRA  HZ EP        433 41.07                             107   -0.23 6  392 209 
 PRA  HN ES        434 23.87                             107    0.77 6  392 209 
 PRA  HZ I         434 29.20         4.7 0.34            108            392 209 
 ORTC HZ EP        433 40.92                             106   -0.74 6  395 216 
 ORTC HN ES        434 23.00                             106   -0.74 6  395 216 
 ORTC HZ I         434 28.66         3.6 0.32            108            395 216 
                                                                                
