 2012  225 0717 52.0 L   6.741 -73.206155.7  RSN  5 0.3 1.4LRSN                1
 GAP=169        0.62       5.4     5.5  6.8  0.6964E+01  0.2128E+01  0.6645E+01E
 ACTION:UP  12-03-07 16:34 OP:epov STATUS:               ID:20120225071752 L   I
 2012-02-25-0710-00M.COL___192                                                 6
 STAT SP IPHASW D HRMM SECON CODA AMPLIT PERI AZIMU VELO AIN AR TRES W  DIS CAZ7
 BAR2 SZ EP   1    718 12.71                             174    0.01 7 16.7 171 
 BAR2 SZ I         718 29.52         4.7 0.43                          16.7 171 
 GIR2 SZ EP   1    718 12.69                             166   -0.31 7 37.3   2 
 GIR2 SZ ES   1    718 29.06                             166   -0.34 7 37.3   2 
 BRR  HZ EP   1    718 14.31                             155    0.22 7 69.0 306 
 BRR  HZ I         718 14.59         6.3 0.14                          69.0 306 
 BRR  HE ES   1    718 31.87                             155    0.53 7 69.0 306 
 RUS  HZ EP   1    718 16.71                             147    0.38 7 94.8 172 
 RUS  HN ES   1    718 35.26                             147   -0.07 7 94.8 172 
 RUS  HZ I         718 36.79         2.7 0.62                          94.8 172 
 PTB  HZ EP   1    718 18.83                             136   -0.28 7  140 261 
 PTB  HN ES   1    718 40.08                             136   -0.19 7  140 261 
                                                                                
