 2012  125 0207 38.9 L   6.753 -73.132142.8  RSN  6 0.2 1.4LRSN                1
 GAP=140        0.46       4.5     4.5  7.8  0.2160E+01 -0.1599E+01 -0.1435E+02E
 Epicentro: LOS SANTOS - SANTANDER                                             3
 ACTION:UP  12-02-03 08:20 OP:REBC STATUS:               ID:20120125020738 L   I
 2012-01-25-0200-00M.COL___188                                                 6
 STAT SP IPHASW D HRMM SECON CODA AMPLIT PERI AZIMU VELO SNR AR TRES W  DIS CAZ7
 BAR2 SZ EP   2    2 7 58.21                             172     0.1 5   19 197 
 BAR2 SZ I         2 8 14.72         4.3 0.28                            19 197 
 GIR2 SZ EP   2    2 7 58.28                             165    -0.1 5   37 349 
 BRR  HZ EP   2    2 7 59.45                             151    -0.5 5   75 301 
 BRR  HZ I         2 8  8.39         6.0 0.38                            75 301 
 BRR  HN ES   2    2 8 16.50                             151     0.1 5   75 301 
 PAM  SZ EP   1    2 8  1.11                             149     0.1 7   81  36 
 RUS  HZ EP   2    2 8  2.38                             145     0.4 5   95 177 
 RUS  HE ES   1    2 8 19.78                             145    -0.2 7   95 177 
 PTB  HZ EP   1    2 8  5.54                             131    -0.1 7  148 261 
 PTB  HN ES   2    2 8 26.81                             131     0.3 5  148 261 
                                                                                
