 2011  925 0129 40.9 L   6.764 -73.136141.6  RSN 10 0.3 1.9LRSN                1
 GAP=139        0.66       3.0     3.4  4.7 -0.1200E+01  0.3359E+01  0.1977E+01E
 Epicentro: LOS SANTOS - SANTANDER                                             3
 ACTION:UPD 12-07-13 15:59 OP:ep   STATUS:               ID:20110925012940 L   I
 2011-09-25-0127-33S.COL___165                                                 6
 STAT SP IPHASW D HRMM SECON CODA AMPLIT PERI AZIMU VELO AIN AR TRES W  DIS CAZ7
 BAR2 SZ EP   2    129 59.18                             172   -0.75 5 19.7 195 
 BAR2 SZ ES   1    130 14.70                             172   -0.09 7 19.7 195 
 BAR2 SZ I         130 16.42        33.8 0.41                          19.7 195 
 BTL  SZ EP        130  0.18                             171    0.2010 22.4 320 
 BRR  HZ EP        130  1.83                             151    0.0910 74.1 301 
 BRR  HE ES        130 18.40                             151    0.3910 74.1 301 
 BRR  HZ I         130 22.89        26.3 0.14                          74.1 301 
 PAM  SZ EP        130  2.83                             149    0.0310 79.9  37 
 PAM  SN ES   1    130 19.57                             149   -0.33 7 79.9  37 
 RUS  HZ EP   1    130  4.39                             144    0.47 7 96.6 177 
 RUS  HE ES   1    130 21.69                             144   -0.21 7 96.6 177 
 RUS  HZ I         130 24.42         9.8 0.55                          96.6 177 
 OCA  SZ EP   1    130  9.54                             128    0.29 7  164 353 
 OCA  SZ ES   2    130 30.78                             128   -0.60 5  164 353 
 OCA  SZ I         130 33.83         7.5 0.15                           164 353 
 ZAR  HE ES   1    130 37.85                             121   -0.75 6  207 293 
 ZAR  HZ I         130 46.03         8.0 0.37                           207 293 
 NOR  SZ EP   1    130 16.12                             118   -0.08 6  233 235 
 NOR  SN ES   1    130 43.62                             118   -0.14 6  233 235 
 CHI  HZ EP   1    130 17.57                             117   -0.38 6  245 196 
 CHI  HE ES   2    130 46.90                             117    0.03 4  245 196 
 CHI  HZ I         130 54.95         2.6 0.46                           245 196 
 HEL  HZ EP   1    130 20.80                             114   -0.08 6  272 257 
 HEL  HE ES   1    130 52.39                             114    0.30 6  272 257 
 HEL  HZ I         130 59.60         5.4 0.31                           272 257 
                                                                                
