 2016 1225 0726 47.5 L   6.761 -73.253144.4  RSN  4 0.2 1.0LRSN                1
 GAP=210        0.58       4.6     4.5  4.8  0.1100E+02  0.4672E+01  0.2959E+01E
 Epicentro: ZAPATOCA - SANTANDER                                               3
 ACTION:UPD 17-01-11 20:18 OP:rebc STATUS:               ID:20161225072647 L   I
 OLDACT:DUP 16-12-25 17:40 OP:cara STATUS:               ID:20161225071749d    3
 OLDACT:DUP 16-12-25 16:22 OP:cog  STATUS:               ID:20161225071746d    3
 2016-12-25-0718-00M.COL___369                                                 6
 STAT SP IPHASW D HRMM SECON CODA AMPLIT PERI AZIMU VELO AIN AR TRES W  DIS CAZ7
 BAR2 EZ ES        727 22.01                             172   -0.0310 20.2 157 
 BAR2 EZ I         727 22.66         3.9 0.36            172           20.2 157 
 BRR  HZ EP        727  7.73                             155   -0.3510 63.6 307 
 BRR  HN ES        727 24.36                             155    0.2210 63.6 307 
 BRR  HZ I         727 26.55         2.0 0.42            154           63.6 307 
 RUS  HZ EP        727 11.20                             144    0.2910 97.8 169 
 RUS  HN ES        727 29.04                             144   -0.1410 97.8 169 
 RUS  HZ I         727 30.37         0.9 0.24            145           97.8 169 
 PTB  HZ EP        727 13.31                             134    0.07 9  135 260 
 PTB  HN ES        727 33.28                             134   -0.05 9  135 260 
 PTB  HZ I         727 36.17         1.0 0.28            134            135 260 
                                                                                
