 2011 1125 0309 17.5 L   6.792 -73.148138.8  RSN  9 0.3 1.7LRSN                1
 GAP=137        0.54       2.6     3.8  4.2  0.5028E+00  0.3744E+01  0.2176E+01E
 Epicentro: LOS SANTOS - SANTANDER                                             3
 ACTION:UPD 12-07-13 16:12 OP:ep   STATUS:               ID:20111125030917 L   I
 2011-11-25-0307-02S.COL___178                                                 6
 STAT SP IPHASW D HRMM SECON CODA AMPLIT PERI AZIMU VELO AIN AR TRES W  DIS CAZ7
 BAR2 SZ EP   1    3 9 36.27                             170   -0.04 7 22.4 190 
 BAR2 SZ ES   1    3 9 50.96                             170    0.01 7 22.4 190 
 BAR2 SZ I         3 9 52.28        10.7 0.12                          22.4 190 
 BRR  HZ EP   1    3 9 38.21                             151    0.26 7 71.4 299 
 BRR  HN ES   1    3 9 54.19                             151    0.33 7 71.4 299 
 BRR  HZ I         3 9 59.13        15.0 0.12                          71.4 299 
 PAM  SZ EP   1    3 9 39.24                             149    0.17 7 78.2  39 
 PAM  SN ES   1    3 9 55.83                             149   -0.03 7 78.2  39 
 PAM  SZ I         3 9 58.02        11.8 0.51                          78.2  39 
 RUS  HZ EP   1    3 9 40.35                             143   -0.20 7 99.8 176 
 RUS  HN ES   1    3 9 58.38                             143   -0.11 7 99.8 176 
 RUS  HZ I         310  0.54        10.5 0.25                          99.8 176 
 OCA  SZ EP   1    3 9 44.99                             128   -0.40 7  161 353 
 OCA  SZ I         310 12.03         5.0 0.05                           161 353 
 ZAR  HE ES   1    310 14.03                             121   -0.48 6  204 292 
 CHI  HZ EP   1    3 9 54.98                             116    0.22 6  248 195 
 CHI  HN ES   1    310 23.47                             116   -0.32 6  248 195 
 CHI  HZ I         310 29.85         2.6 0.23                           248 195 
 RREF HZ EP   1    310  4.01                             110    0.71 5  321 229 
 RREF HZ I         310 48.16         3.6 0.33                           321 229 
 PRA  HZ EP   1    310 10.78                             105    0.06 4  391 210 
                                                                                
