 2014  525 0657 14.3 L   6.291 -73.589107.2  RSN 10 0.5 1.6LRSN                1
 GAP=120        1.23       2.9     4.1  7.4 -0.1500E+01  0.6059E+01 -0.4653E+00E
 Epicentro: SANTA HELENA DEL OPON - SANTANDER                                  3
 ACTION:UPD 15-03-16 17:00 OP:nd   STATUS:               ID:20140525065714 L   I
 OLDACT:DUP 14-05-25 17:24 OP:stll STATUS:               ID:20140525064818d    3
 2014-05-25-0648-17M.COL___227                                                 6
 STAT SP IPHASW D HRMM SECON CODA AMPLIT PERI AZIMU VELO AIN AR TRES W  DIS CAZ7
 RUS  HZ EP        657 32.36                             144    0.2510 71.2 128 
 RUS  HZ I         657 32.98         7.8 0.30            146           71.2 128 
 RUS  HN ES        657 45.67                             144   -0.3610 71.2 128 
 SPBC HZ EP        657 33.53                             137    0.6410 88.6 217 
 SPBC HN ES        657 47.90                             137    0.4810 88.6 217 
 SPBC HZ I         657 50.76        11.6 0.10            137           88.6 217 
 BRR  HZ IP     C  657 33.23                             136    0.2410 91.3 351 
 BRR  HN ES        657 48.35                             136    0.7710 91.3 351 
 BRR  HZ I         657 49.32         9.6 0.28            136           91.3 351 
 PTB  HZ EP        657 33.07                             134   -0.6810 99.8 286 
 PTB  HN ES        657 48.03                             134   -0.9110 99.8 286 
 PTB  HZ I         657 48.57         5.8 0.14            133           99.8 286 
 NOR  HZ EP        657 40.43                             119    0.36 9  163 240 
 NOR  HN ES        658  0.15                             119   -0.04 9  163 240 
 NOR  HZ I         658  2.18         9.0 0.18            118            163 240 
 CHI  HZ EP        657 42.86                             115   -0.00 9  184 185 
 CHI  HN ES        658  4.64                             115   -0.52 9  184 185 
 CHI  HZ I         658  9.86         3.5 0.48            115            184 185 
 ZAR  HZ EP        657 43.69                             114    0.37 9  193 314 
 ZAR  HN ES        658  6.13                             114    0.16 9  193 314 
 ZAR  HZ I         658 13.94         4.8 0.48            114            193 314 
 OCA  HZ EP        657 46.32                             111    0.08 8  217   8 
 OCA  HN ES        658 10.33                             111   -0.85 8  217   8 
 OCA  HZ I         658 14.61         7.0 0.28            111            217   8 
 GUY2CHZ EP        657 47.83                             110   -0.18 8  229 239 
 GUY2CHE ES        658 14.85                             110    0.52 8  229 239 
 GUY2CHZ I         658 22.15         4.6 0.38                           229 239 
 RREF HZ EP        657 50.17                             108   -0.21 8  248 232 
 RREF HN ES        658 18.12                             108   -0.42 8  248 232 
 RREF HZ I         658 24.49         2.3 0.62            108            248 232 
                                                                                
