 2013  725 0749  0.9 L   6.201 -74.181 78.0  RSN  5 0.2 1.3LRSN                1
 GAP=159        0.52       2.7     2.3  4.9 -0.3129E+01 -0.3898E+01  0.1594E+01E
 Epicentro: CIMITARRA - SANTANDER                                              3
 ACTION:UPD 13-08-12 10:39 OP:ep   STATUS:               ID:20130725074900 L   I
 OLDACT:UP  13-07-25 12:30 OP:camn STATUS:               ID:20130725073959     3
 OLDACT:UP  13-07-25 12:18 OP:cam  STATUS:               ID:20130725073959     3
 OLDACT:UP  13-07-25 12:17 OP:cam  STATUS:               ID:20130725073959     3
 OLDACT:REG 13-07-25 10:17 OP:cam  STATUS:               ID:20130725073959     3
 2013-07-25-0739-59M.COL___266                                                 6
 STAT SP IPHASW D HRMM SECON CODA AMPLIT PERI AZIMU VELO AIN AR TRES W  DIS CAZ7
 PTB  HZ EP     C  749 13.17                             145   -0.3110 48.2 321 
 PTB  HN ES        749 23.25                             145   -0.0510 48.2 321 
 PTB  HZ I         749 23.67         9.9 0.10            150           48.2 321 
 NOR  HN ES        749 32.55                             122    0.1710  104 227 
 BRR  HZ EP        749 19.33                             119   -0.1410  113  27 
 BRR  HN ES        749 34.27                             119    0.3110  113  27 
 BRR  HZ I         749 34.72         4.6 0.12            121            113  27 
 BAR2 SZ EP        749 20.42                             118    0.0210  119  69 
 BAR2 SZ ES        749 35.56                             118   -0.0710  119  69 
 BAR2 SZ I         749 38.13         4.8 0.35            119            119  69 
 ZAR  HZ EP        749 25.01                             110    0.09 9  161 332 
                                                                                
