 2013 1225 0011 36.0 L   6.788 -73.157140.5  RSN 20 0.7 2.8LRSN 3.1WRSN        1
 SPEC AVERAGE  MO 13.8 ST  9.0 OM  1.8 f0 8.68 R0.3598 AL 0.00 WI 21.4 MW  3.1 3
 SPEC SD       MO  0.1 ST  4.8 OM  0.5 f0 2.29 R0.1362 AL      WI      MW  0.1 3
 GAP= 71        1.11       2.9     3.1  5.3 -0.9046E+00  0.3679E+01  0.2508E+01E
 Epicentro: LOS SANTOS - SANTANDER                                             3
 SPEC PTB HH Z MO 13.8 ST 11.8 OM  1.3 f0 10.0 R0.2812 AL 0.00 WI 20.0 MW  3.1 3
 SPEC PTB HH Z T 012 1 K 0.000 GD  202 VP 7.60 DE 3.20 Q0300.0 QA 0.60 VS 4.20 3
 SPEC OCA HH Z MO 13.6 ST  7.8 OM  1.1 f0 10.0 R0.2812 AL 0.00 WI 19.5 MW  3.0 3
 SPEC OCA HH Z T 012 3 K 0.000 GD  213 VP 7.60 DE 3.20 Q0300.0 QA 0.60 VS 4.20 3
 SPEC CHI HH Z MO 13.9 ST  1.7 OM  1.3 f0 4.72 R0.5958 AL 0.00 WI 28.3 MW  3.2 3
 SPEC CHI HH Z T 01212 K 0.000 GD  284 VP 7.60 DE 3.20 Q0300.0 QA 0.60 VS 4.20 3
 SPEC BRR HH Z MO 13.9 ST 14.5 OM  1.5 f0 10.0 R0.2812 AL 0.00 WI 17.9 MW  3.2 3
 SPEC BRR HH Z T 01157 K 0.000 GD  157 VP 7.60 DE 3.20 Q0300.0 QA 0.60 VS 4.20 3
 ACTION:UPD 14-01-13 10:20 OP:ep   STATUS:               ID:20131225001136 L   I
 OLDACT:UP  13-12-26 10:17 OP:ep   STATUS:               ID:20131225001136 L   3
 OLDACT:UP  13-12-25 23:27 OP:CAM  STATUS:               ID:20131225001136 L   3
 OLDACT:UP  13-12-25 10:05 OP:mh   STATUS:               ID:20131225001000     3
 OLDACT:UP  13-12-25 10:04 OP:mh   STATUS:               ID:20131225001000     3
 OLDACT:UP  13-12-25 10:03 OP:mh   STATUS:               ID:20131225001000     3
 OLDACT:UP  13-12-25 10:03 OP:mh   STATUS:               ID:20131225001000     3
 OLDACT:UP  13-12-25 10:01 OP:mh   STATUS:               ID:20131225001000     3
 OLDACT:REG 13-12-25 08:08 OP:mh   STATUS:               ID:20131225001000     3
 2013-12-25-0010-00M.COL___285                                                 6
 STAT SP IPHASW D HRMM SECON CODA AMPLIT PERI AZIMU VELO AIN AR TRES W  DIS CAZ7
 BAR2 SZ IP     C  011 55.15                             170    0.1410 21.8 187 
 BAR2 SZ ES        012 10.02                             170    0.2210 21.8 187 
 BAR2 SZ I         012 12.81       427.1 0.27            171           21.8 187 
 BRR  HZ IP     D  011 57.05                             152    0.4510 70.7 300 
 BRR  HN ES        012 12.99                             152    0.3710 70.7 300 
 BRR  HZ I         012 14.72        87.3 0.09            151           70.7 300 
 PAM  SZ IP     D  011 58.04                             149    0.2310 79.2  40 
 PAM  SN ES        012 14.82                             149    0.0310 79.2  40 
 PAM  SZ I         012 17.23       161.0 0.42            151           79.2  40 
 RUS  HZ EP        011 59.13                             143   -0.0610 99.4 175 
 RUS  HN ES   1    012 16.93                             143   -0.31 7 99.4 175 
 RUS  HZ I         012 18.96       141.2 0.38            145           99.4 175 
 PTB  HZ EP   1    012  1.67                             131   -0.78 7  146 259 
 PTB  HN ES        012 22.60                             131   -0.44 9  146 259 
 PTB  HZ I         012 25.73        85.6 0.12            131            146 259 
 TAM  HZ IP     D  012  3.52                             129    0.12 9  156 104 
 TAM  HN ES        012 24.93                             129    0.20 9  156 104 
 TAM  HZ I         012 26.37        25.3 0.25            132            156 104 
 SPBC HZ EP   1    012  4.02                             128    0.05 7  161 219 
 SPBC HN ES        012 25.71                             128   -0.04 9  161 219 
 OCA  HZ EP        012  3.45                             128   -0.61 9  161 354 
 OCA  HN ES        012 24.99                             128   -0.92 9  161 354 
 OCA  HZ I         012 30.20        68.0 0.14            129            161 354 
 ZAR  HZ EP   1    012  8.87                             121    0.79 6  203 293 
 ZAR  HN ES   1    012 33.65                             121    0.59 6  203 293 
 ZAR  HZ I         012 41.95        54.1 0.29            122            203 293 
 NOR  HZ EP        012 11.14                             118   -0.14 8  233 235 
 NOR  HN ES   1    012 38.09                             118   -0.67 6  233 235 
 NOR  HZ I         012 40.85        53.0 0.23            119            233 235 
 SML  HZ EP   1    012 11.62                             116   -0.83 6  244 336 
 SML  HN ES        012 40.69                             116   -0.16 8  244 336 
 SML  HZ I         012 45.46        55.2 0.09            117            244 336 
 CHI  HZ EP   1    012 13.36                             116    0.08 6  247 195 
 CHI  HN ES        012 42.42                             116    0.09 8  247 195 
 CHI  HZ I         012 46.65        24.4 0.56            118            247 195 
 ROSC BZ EP   1    012 14.84                             116    1.15 6  251 211 
 ROSC BN ES   4    012 44.82                             116    1.77 0  251 211 
 CVER SZ EP   4    012 17.13                             114    1.18 0  270 202 
 HEL  HZ EP   1    012 16.66                             114    0.84 6  270 256 
 HEL  HN ES        012 46.44                             114   -0.40 8  270 256 
 HEL  HZ I         012 53.94        50.3 0.36            115            270 256 
 URE  HZ EP   4    012 15.94                             113   -0.84 0  283 292 
 URE  HN ES   4    012 46.89                             113   -1.67 0  283 292 
 GUY2CHZ EP        012 19.62                             111    0.41 7  299 235 
 GUY2CHN ES   2    012 53.07                             111    0.19 4  299 235 
 VIL  SZ EP   4    012 16.80                             111   -2.25 0  302 191 
 VIL  SN ES   4    012 50.53                             111   -2.07 0  302 191 
 PTGC HZ EP   4    012 18.31                             111   -1.28 0  308 158 
 PTGC HN ES   4    012 50.83                             111   -2.72 0  308 158 
 RREF HZ EP   1    012 22.62                             110    0.86 5  320 229 
 RREF HN ES   2    012 58.08                             110    0.67 3  320 229 
 CBOC HZ EP   1    012 22.99                             109    0.43 5  332 252 
 CBOC HN ES   2    012 57.94                             109   -0.90 3  332 252 
 DBB  SZ EP   4    012 22.89                             109   -0.29 0  338 274 
 TOL  SZ EP   1    012 24.61                             108    0.73 5  342 225 
 COD  HZ EP   4    012 22.37                             108   -1.99 0  349 355 
 COD  HN ES   4    013  1.58                             108   -0.46 0  349 355 
 ORTC HZ EP   1    012 29.73                             105    0.15 4  394 216 
 ORTC HN ES   4    013 13.11                             105    1.78 0  394 216 
 ORTC HZ I         013 16.88        19.1 0.48            107            394 216 
 SJC  HZ EP   4    012 29.83                             105   -1.66 0  410 327 
 SJC  HN ES   4    013 10.15                             105   -4.58 0  410 327 
 MACC HZ EP   1    012 42.30                             101   -2.15 3  519 189 
 MACC HN ES   1    013 34.06                             101   -3.75 3  519 189 
                                                                                
