 2013  525 0150  1.3 L   6.809 -73.126143.0  RSN 19 0.5 2.8LRSN                1
 GAP= 49        1.23       3.3     3.1  5.0 -0.3893E+00  0.1607E+01  0.2539E+01E
 Epicentro: LOS SANTOS - SANTANDER                                             3
 ACTION:UPD 13-06-20 09:53 OP:ep   STATUS:               ID:20130525015001 L   I
 OLDACT:UP  13-05-27 02:15 OP:CF   STATUS:               ID:20130525015001 L   3
 2013-05-25-0148-38M.COL___211                                                 6
 STAT SP IPHASW D HRMM SECON CODA AMPLIT PERI AZIMU VELO AIN AR TRES W  DIS CAZ7
 BAR2 SZ IP     D  150 20.60                             170   -0.0410 24.7 195 
 BAR2 SZ ES        150 35.42                             170   -0.3010 24.7 195 
 GIR2 SZ IP     C  150 20.76                             167    0.1110 30.8 346 
 GIR2 SZ ES        150 35.40                             167   -0.3210 30.8 346 
 BRR  HZ IP     C  150 22.57                             152    0.3110 72.7 297 
 BRR  HE ES        150 39.47                             152    0.8910 72.7 297 
 PAM  SZ EP        150 23.48                             151    0.3710 75.2  39 
 PAM  SN ES        150 40.41                             151    0.3010 75.2  39 
 PAM  SN I         150 41.54       173.3 0.46            154           75.2  39 
 RUS  HZ EP        150 24.53                             143   -0.3310  101 177 
 RUS  HN ES        150 43.15                             143   -0.0710  101 177 
 RUS  HN I         150 43.91        64.5 0.20            142            101 177 
 CAPV BZ IP     D  150 28.59                             132    0.29 9  147  37 
 PTB  HZ EP        150 27.17                             131   -1.11 9  150 259 
 PTB  HN ES        150 48.29                             131   -1.01 9  150 259 
 PTB  HN I         150 53.39        87.1 0.36            130            150 259 
 TAM  HZ EP        150 28.89                             130    0.29 9  153 106 
 TAM  HE ES        150 50.26                             130    0.38 9  153 106 
 OCA  HZ EP        150 29.56                             129    0.21 9  160 352 
 OCA  HN ES        150 50.44                             129   -0.78 9  160 352 
 YOP  SZ EP        150 31.26                             126    0.11 9  179 154 
 YOP  SE ES        150 54.50                             126    0.08 9  179 154 
 ZAR  HZ EP        150 34.53                             122    0.77 8  206 292 
 ZAR  HN ES        150 59.45                             122    0.39 8  206 292 
 NOR  HZ EP        150 37.13                             118   -0.01 8  237 235 
 NOR  HE ES   4    151  4.00                             118   -1.08 0  237 235 
 NOR  HN I         151  9.64       140.4 0.18            117            237 235 
 CHI  HZ EP        150 38.96                             116   -0.07 8  250 196 
 CHI  HN ES   4    151  6.26                             116   -2.18 0  250 196 
 HEL  HZ EP        150 42.23                             114    0.57 8  274 256 
 HEL  HE ES        151 12.66                             114   -0.46 8  274 256 
 HEL  HN I         151 19.64        33.3 0.60            114            274 256 
 SOCV BZ EP        150 42.91                             112   -1.06 7  299  57 
 SOCV BZ ES   4    151 15.18                             112   -2.06 0  299  57 
 GUY2CHZ EP        150 45.33                             112    0.26 7  304 235 
 GUY2CHN ES        151 19.99                             112    0.80 7  304 235 
 GUY2CHN I         151 29.85        32.4 0.74                           304 235 
 RREF HZ EP   4    150 48.94                             110    1.33 0  324 230 
 RREF HN ES   4    151 25.11                             110    1.40 0  324 230 
 RREF HZ I         151 29.58        24.4 0.22            110            324 230 
 SDV  BZ EP        150 50.29                             108   -0.70 6  358  50 
 PRA  HZ EP        150 54.66                             106   -0.31 6  394 210 
 PRA  HN ES        151 36.66                             106   -0.16 6  394 210 
 PRA  HN I         151 42.14        12.7 0.48            106            394 210 
                                                                                
