 2016  425 0432 13.5 L   6.837 -73.178141.6  RSN  7 0.4 1.5LRSN                1
 GAP=131        0.95       3.5     4.9  6.5 -0.7409E+01  0.1249E+02 -0.2864E+01E
 Epicentro: ZAPATOCA - SANTANDER                                               3
 ACTION:UPD 16-05-05 14:24 OP:rebc STATUS:               ID:20160425043213 L   I
 OLDACT:REG 16-04-25 12:59 OP:cara STATUS:               ID:20160425042746     3
 2016-04-25-0427-46M.COL___270                                                 6
 STAT SP IPHASW D HRMM SECON CODA AMPLIT PERI AZIMU VELO AIN AR TRES W  DIS CAZ7
 BAR2 EZ IP        432 32.66                             169   -0.0610 27.1 181 
 BAR2 EZ ES        432 47.74                             169    0.0410 27.1 181 
 BAR2 EZ I         432 48.65         5.4 0.20            171           27.1 181 
 PAM  EZ EP        432 35.32                             150    0.0810 76.7  44 
 PAM  EN ES        432 52.23                             150    0.0510 76.7  44 
 PAM  EZ I         432 53.77         4.9 0.18            152           76.7  44 
 RUS  HZ EP        432 36.73                             142   -0.4510  105 174 
 RUS  HZ I         432 37.80         3.9 0.14            145            105 174 
 RUS  HN ES        432 55.48                             142   -0.1610  105 174 
 PTB  HZ EP        432 39.55                             132   -0.35 9  145 257 
 PTB  HN ES        433  0.22                             132   -0.26 9  145 257 
 PTB  HZ I         433  2.95         4.6 0.14            132            145 257 
 OCA  HZ EP        432 41.37                             129    0.29 9  156 354 
 OCA  HN ES        433  2.54                             129   -0.03 9  156 354 
 OCA  HZ I         433  8.78         4.7 0.14            130            156 354 
 SPBC HZ EP        432 41.70                             128   -0.09 9  164 217 
 SPBC HE ES        433  4.81                             128    0.96 9  164 217 
 SPBC HZ I         433  8.97         5.3 0.28            129            164 217 
 GUY2CHZ EP        432 57.62                             111    0.75 7  301 234 
 GUY2CHN ES        433 30.13                             111   -0.56 7  301 234 
 GUY2CHZ I         433 39.84         1.1 0.44                           301 234 
                                                                                
