 2010  225 0847 56.6 L   6.273 -73.678106.0  RSN  9 0.4 1.9LRSN                1
 GAP= 71        0.70       2.9     4.2  7.4 -0.9419E+00  0.2082E+02  0.3715E+01E
 Epicentro: SANTA HELENA DEL OPON - SANTANDER                                  3
 ACTION:UP  10-08-24 09:50 OP:vdl  STATUS:               ID:20100225084756 L   I
 2010-02-25-0846-34S.COL___094                                                 6
 STAT SP IPHASW D HRMM SECON CODA AMPLIT PERI AZIMU VELO SNR AR TRES W  DIS CAZ7
 BAR2 SZ EP        848 13.63                             146     0.110   65  57 
 BAR2 SZ ES   1    848 26.78                             146     0.0 7   65  57 
 RUS  BZ EP   1    848 14.52                             141    -0.4 7   78 123 
 RUS  BN ES   1    848 29.22                             141     0.1 7   78 123 
 RUS  BZ I         848 30.17         9.9 0.20                            78 123 
 BRR  HZ EP   1    848 14.93                             136    -0.4 7   92 358 
 BRR  HZ I         848 29.42        20.1 0.09                            92 358 
 BRR  HN ES   1    848 30.08                             136     0.1 7   92 358 
 CHI  HZ EP   1    848 24.82                             115    -0.1 7  182 182 
 CHI  HE ES   2    848 47.18                             115     0.3 4  182 182 
 CHI  HZ I         848 51.74         7.5 0.33                           182 182 
 HEL  HZ EP        848 27.14                             112    -0.3 9  205 268 
 HEL  HE ES   2    848 50.89                             112    -0.6 4  205 268 
 HEL  HZ I         848 53.17        13.1 0.33                           205 268 
 OCA  SZ EP   1    848 28.80                             110    -0.2 6  221  10 
 OCA  SZ ES   2    848 55.42                             110     1.2 4  221  10 
 RREF BZ EP        848 31.97                             109     0.3 8  239 231 
 RREF BN ES   1    848 59.27                             109     0.3 6  239 231 
 RREF BZ I         849  4.83        13.1 0.36                           239 231 
 DBB  SZ EP   1    848 37.55                             104     0.4 5  292 287 
 PRA  HZ EP   1    848 39.33                             103    -0.3 5  313 205 
 PRA  HN ES   2    849 13.72                             103     0.6 3  313 205 
 PRA  HZ I         849 17.68         5.9 0.18                           313 205 
                                                                                
