 2017  125 0752 49.2 L   6.671 -73.222148.0  RSN  4 0.3 0.9LRSN                1
 GAP=202        0.77       6.0     5.7  6.2  0.1643E+02  0.5044E+01  0.2104E+01E
 Epicentro: BARICHARA - SANTANDER                                              3
 ACTION:UPD 17-05-22 16:03 OP:jn   STATUS:               ID:20170125075249 L   I
 OLDACT:REG 17-01-25 13:05 OP:lv   STATUS:               ID:20170125074740     3
 2017-01-25-0748-00M.COL___349                                                 6
 STAT SP IPHASW D HRMM SECON CODA AMPLIT PERI AZIMU VELO AIN AR TRES W  DIS CAZ7
 BAR2 EZ EP        753  8.71                             176   -0.1510 9.79 153 
 BAR2 EZ ES        753 24.07                             176   -0.1610 9.79 153 
 BAR2 EZ I         753 26.68         2.1 0.17            173           9.79 153 
 BRR  HZ EP        753 10.45                             152   -0.1610 72.5 312 
 BRR  HE ES        753 27.63                             152    0.2810 72.5 312 
 RUS  HZ EP        753 12.82                             148    0.5910 87.5 170 
 RUS  HN ES        753 30.05                             148   -0.1810 87.5 170 
 RUS  HZ I         753 33.62         1.0 0.46            147           87.5 170 
 PTB  HZ EP        753 15.03                             135   -0.34 9  137 264 
 PTB  HN ES        753 35.93                             135    0.10 9  137 264 
 PTB  HZ I         753 38.59         1.4 0.14            135            137 264 
                                                                                
