 2015 1025 0000 30.4 L   6.803 -73.133149.7  RSN  9 0.4 1.6LRSN                1
 GAP=138        1.07       3.6     4.9  6.4 -0.1398E+01  0.1056E+02 -0.2037E+01E
 Epicentro: LOS SANTOS - SANTANDER                                             3
 ACTION:UPD 15-12-22 20:42 OP:cam  STATUS:               ID:20151025000030 L   I
 OLDACT:REG 15-10-25 12:22 OP:mh   STATUS:               ID:20151025000004     3
 2015-10-25-0000-04M.COL___313                                                 6
 STAT SP IPHASW D HRMM SECON CODA AMPLIT PERI AZIMU VELO AIN AR TRES W  DIS CAZ7
 BAR2 EZ EP        0 0 50.31                             171   -0.2210 24.0 193 
 BAR2 EZ ES        0 1  6.35                             171    0.1310 24.0 193 
 BAR2 EZ I         0 1  7.25         4.9 0.34            169           24.0 193 
 BRR  HZ EP        0 0 52.23                             153    0.1810 72.3 298 
 BRR  HZ I         0 0 56.33        15.6 0.52            149           72.3 298 
 BRR  HE ES        0 1  9.63                             153    0.7110 72.3 298 
 PAM  EZ EP        0 0 53.16                             152    0.1810 76.2  39 
 PAM  EN ES        0 1 10.54                             152   -0.0410 76.2  39 
 PAM  EZ I         0 1 12.44         4.6 0.58            154           76.2  39 
 RUS  HZ EP        0 0 54.47                             145   -0.1110  101 177 
 RUS  HN ES        0 1 12.96                             145   -0.4610  101 177 
 RUS  HZ I         0 1 13.86         3.3 0.26            146            101 177 
 SPBC HZ EP        0 0 59.34                             130    0.01 9  164 219 
 SPBC HN ES        0 1 21.87                             130   -0.01 9  164 219 
 SPBC HZ I         0 1 25.45         6.4 0.18            129            164 219 
 ZAR  HZ EP        0 1  4.02                             123    0.78 8  205 292 
 ZAR  HN ES        0 1 28.65                             123   -0.19 8  205 292 
 ZAR  HZ I         0 1 35.17         7.7 0.24            122            205 292 
 NOR  HZ EP   4    0 1  8.08                             119    1.56 0  236 235 
 NOR  HN ES        0 1 33.99                             119   -0.70 8  236 235 
 NOR  HZ I         0 1 41.93         2.8 0.24            119            236 235 
 SML  HZ EP        0 1  6.89                             118   -0.40 8  244 335 
 SML  HN ES        0 1 35.28                             118   -0.78 8  244 335 
 SML  HZ I         0 1 42.36         5.8 0.28            118            244 335 
 GUY2CHZ EP        0 1 15.19                             113    0.83 7  303 235 
 GUY2CHE ES   4    0 1 51.18                             113    2.54 0  303 235 
 GUY2CHZ I         0 1 57.88         1.7 0.70                           303 235 
                                                                                
