 2016  725 0640 27.4 L   5.923 -73.574125.9  RSN  5 0.2 1.5LRSN                1
 GAP=148        0.51       2.5     2.7  4.5 -0.3065E+00  0.3047E+01 -0.3418E+01E
 Epicentro: BARBOSA - SANTANDER                                                3
 ACTION:UPD 17-03-29 16:54 OP:lp   STATUS:               ID:20160725064027 L   I
 OLDACT:REG 16-07-25 14:37 OP:edw  STATUS:               ID:20160725063759     3
 2016-07-25-0637-59S.COL___331                                                 6
 STAT SP IPHASW D HRMM SECON CODA AMPLIT PERI AZIMU VELO AIN AR TRES W  DIS CAZ7
 RUS  HZ EP        640 46.60                             155    0.3910 54.5  94 
 RUS  HE ES        641  0.75                             155   -0.1210 54.5  94 
 SPBC HZ EP        640 45.95                             152   -0.1310 62.8 241 
 SPBC HN ES        641  0.67                             152    0.0310 62.8 241 
 SPBC HZ I         641  2.53         7.3 0.32            151           62.8 241 
 BAR2 EZ EP        640 47.73                             144   -0.0610 85.7  30 
 BAR2 EZ ES        641  3.60                             144   -0.0810 85.7  30 
 BRR  HZ EP        640 51.07                             130   -0.2310  132 353 
 BRR  HE ES        641 10.10                             130    0.1710  132 353 
 ZAR  HE ES        641 26.97                             115    0.04 8  224 321 
                                                                                
