 2013  625 0613 11.3 L   6.763 -73.170149.5  RSN  8 0.4 1.5LRSN                1
 GAP=178        0.89       4.4     6.3  7.1  0.7919E+01  0.1226E+02  0.5955E+01E
 Epicentro: LOS SANTOS - SANTANDER                                             3
 ACTION:UPD 14-01-08 09:57 OP:ep   STATUS:               ID:20130625061311 L   I
 OLDACT:REG 13-06-25 06:42 OP:jn   STATUS:               ID:20130625060959     3
 2013-06-25-0609-59M.COL___267                                                 6
 STAT SP IPHASW D HRMM SECON CODA AMPLIT PERI AZIMU VELO AIN AR TRES W  DIS CAZ7
 BAR2 SZ EP        613 31.29                             172   -0.0610 19.0 184 
 BAR2 SZ ES        613 46.50                             172   -0.4510 19.0 184 
 BAR2 SZ I         613 47.59         7.6 0.38            167           19.0 184 
 GIR2 SZ ES   1    613 47.71                             166    0.37 7 35.0 356 
 BRR  HZ EP        613 33.12                             153    0.2410 70.9 302 
 BRR  HN ES   1    613 50.65                             153    0.97 7 70.9 302 
 BRR  HZ I         613 52.74         4.3 0.14            148           70.9 302 
 RUS  HZ EP        613 35.38                             146    0.1810 96.8 174 
 RUS  HN ES   1    613 53.40                             146   -0.41 7 96.8 174 
 RUS  HZ I         613 55.09         2.6 0.26            146           96.8 174 
 PTB  HZ EP        613 38.13                             133   -0.18 9  144 260 
 PTB  HN ES   1    613 59.20                             133   -0.15 7  144 260 
 PTB  HZ I         614  4.94         5.2 0.44            130            144 260 
 OCA  HN ES   1    614  2.55                             130   -0.33 7  164 354 
 ZAR  HE ES   1    614  8.80                             123   -0.56 6  203 293 
 ZAR  HZ I         614 16.52         4.3 0.36            122            203 293 
 CHI  HN ES   1    614 18.41                             118    0.48 6  244 195 
                                                                                
