 2016  425 0443 36.7 L   6.810 -73.164144.7  RSN  9 0.3 2.1LRSN                1
 GAP=134        0.73       2.5     3.1  4.8 -0.2055E+01  0.5613E+01 -0.1474E+01E
 Epicentro: LOS SANTOS - SANTANDER                                             3
 ACTION:UPD 16-05-05 14:24 OP:rebc STATUS:               ID:20160425044336 L   I
 OLDACT:REG 16-04-25 13:01 OP:cara STATUS:               ID:20160425043743     3
 2016-04-25-0437-43M.COL___270                                                 6
 STAT SP IPHASW D HRMM SECON CODA AMPLIT PERI AZIMU VELO AIN AR TRES W  DIS CAZ7
 BAR2 EZ IP        443 56.25                             170    0.0610 24.1 185 
 BAR2 EZ ES        444 11.18                             170   -0.2410 24.1 185 
 BAR2 EZ I         444 12.42        28.3 0.24            170           24.1 185 
 PAM  EZ EP     D  443 59.23                             150    0.4210 77.9  41 
 PAM  EN ES        444 16.17                             150    0.1010 77.9  41 
 PAM  EZ I         444 19.13        13.8 0.60            155           77.9  41 
 RUS  HZ EP        444  0.22                             143   -0.1910  102 175 
 RUS  HN ES        444 19.04                             143    0.1210  102 175 
 RUS  HZ I         444 21.56         8.1 0.34            146            102 175 
 PTB  HZ EP        444  2.94                             132   -0.45 9  146 258 
 PTB  HN ES        444 24.03                             132   -0.20 9  146 258 
 PTB  HZ I         444 28.98        17.3 0.30            132            146 258 
 OCA  HZ EP        444  4.23                             130   -0.55 9  159 354 
 OCA  HN ES        444 26.82                             130    0.11 9  159 354 
 OCA  HZ I         444 31.66        22.4 0.28            132            159 354 
 SPBC HZ EP        444  5.41                             129    0.36 9  163 218 
 SPBC HN ES        444 27.00                             129   -0.18 9  163 218 
 SPBC HZ I         444 32.02        22.9 0.38            130            163 218 
 ZAR  HZ EP        444  8.69                             122   -0.12 9  202 292 
 ZAR  HE ES        444 34.27                             122    0.39 9  202 292 
 ZAR  HZ I         444 41.45        12.6 0.42            123            202 292 
 NOR  HZ EP        444 12.45                             118    0.22 8  234 234 
 NOR  HN ES        444 40.25                             118    0.29 8  234 234 
 NOR  HZ I         444 45.13        11.1 0.18            120            234 234 
 ROSC BZ EP   4    444 16.34                             116    1.62 0  253 211 
 ROSC BN ES   4    444 46.81                             116    2.41 0  253 211 
 ROSC BZ I         444 50.91        19.6 0.40            118            253 211 
                                                                                
