 2010  425 0214 17.9 L   6.779 -73.031141.0  RSN 12 0.4 2.4LRSN                1
 GAP=163        0.80       4.6     6.4  5.9 -0.1622E+02 -0.7407E+01  0.5728E+01E
 Epicentro: CEPITA - SANTANDER                                                 3
 ACTION:UPD 10-08-24 10:00 OP:vdl  STATUS:               ID:20100425021425 L   I
 2010-04-25-0210-15S.COL___104                                                 6
 STAT SP IPHASW D HRMM SECON CODA AMPLIT PERI AZIMU VELO AIN AR TRES W  DIS CAZ7
 BAR2 SZ IP        214 37.14                             169     0.110   27 219 
 BAR2 SZ ES   1    214 51.74                             169    -0.2 7   27 219 
 BRR  HZ IP     C  214 39.55                             147     0.310   84 296 
 BRR  HZ I         214 39.89        84.0 0.09                            84 296 
 BRR  HE ES   1    214 56.19                             147     0.2 7   84 296 
 BRI  SZ IP        214 40.95                             141    -0.310  107  14 
 BRI  SZ ES   2    214 58.70                             141    -0.7 5  107  14 
 GUE  SZ EP   1    214 42.34                             138     0.2 7  117   6 
 GUE  SZ ES   2    215  0.88                             138    -0.3 5  117   6 
 GRA  SZ IP        214 43.27                             136     0.610  125  12 
 OCA  SZ EP   1    214 45.96                             127    -0.3 7  165 349 
 OCA  SZ ES   1    215  8.11                             127    -0.3 7  165 349 
 OCA  SZ I         215 13.29        59.8 0.24                           165 349 
 HEL  HZ EP   2    214 59.41                             113     0.2 4  284 257 
 HEL  HZ I         215 35.80        11.9 0.49                           284 257 
 RREF BZ EP   2    215  5.17                             109     0.4 3  330 231 
 RREF BN ES   2    215 41.42                             109     0.1 3  330 231 
 RREF BZ I         215 51.18        10.4 0.24                           330 231 
 TOL  SZ EP   2    215  7.40                             108     0.6 3  351 226 
 SDV  BZ IP     C  215  6.58                             108    -0.2 6  352  49 
 SDV  BZ I         215 48.96         4.0 0.49                           352  49 
 DBB  SZ EP   1    215  5.74                             108    -0.9 5  352 274 
 PRA  HZ EP   1    215 11.41                             105    -0.3 4  396 211 
 PRA  HE ES   1    215 53.01                             105    -0.8 4  396 211 
 PRA  HZ I         215 54.91         8.5 0.23                           396 211 
                                                                                
