 2012  325 0304 33.2 L   6.776 -73.137152.0  RSN 11 0.4 1.9LRSN                1
 GAP=139        0.67       4.6     4.9  8.2 -0.3746E+00  0.1097E+02  0.1108E+02E
 ACTION:UP  12-03-31 23:22 OP:EP   STATUS:               ID:20120325030433 L   I
 2012-03-25-0300-00M.COL___196                                                 6
 STAT SP IPHASW D HRMM SECON CODA AMPLIT PERI AZIMU VELO SNR AR TRES W  DIS CAZ7
 BAR2 SZ EP   2    3 4 52.80                             172    -0.7 5   21 194 
 BRR  HZ EP   1    3 4 55.46                             153     0.3 8   73 300 
 BRR  HZ I         3 4 55.79        24.0 0.16                            73 300 
 BRR  HE ES   2    3 5 12.67                             153     0.4 5   73 300 
 PAM  SZ EP   2    3 4 56.50                             152     0.3 5   79  38 
 PAM  SN ES   2    3 5 13.90                             152    -0.2 5   79  38 
 RUS  HZ EP   1    3 4 57.55                             146     0.2 8   98 177 
 RUS  HN ES   2    3 5 16.52                             146     0.3 5   98 177 
 RUS  HZ I         3 5 18.01         7.1 0.51                            98 177 
 PTB  HZ EP        3 5  0.18                             133    -0.510  148 260 
 PTB  HN ES   2    3 5 21.68                             133    -0.5 5  148 260 
 PTB  HZ I         3 5 28.66         5.7 0.53                           148 260 
 ZAR  HZ EP   2    3 5  6.05                             124    -0.2 5  206 293 
 ZAR  HE ES   2    3 5 32.27                             124     0.2 5  206 293 
 ZAR  HZ I         3 5 38.46         9.7 0.45                           206 293 
 NOR  SN ES   2    3 5 36.99                             120    -0.3 4  234 235 
 CHI  HZ EP   2    3 5 11.04                             119     0.0 4  246 196 
 CHI  HE ES   2    3 5 40.42                             119    -0.1 4  246 196 
 HEL  HZ EP   2    3 5 14.27                             116     0.5 4  272 256 
 HEL  HE ES   2    3 5 46.42                             116     1.0 4  272 256 
 HEL  HZ I         3 5 52.56         3.9 0.27                           272 256 
 RREF HZ EP   2    3 5 19.59                             112     0.1 4  321 230 
 RREF HE ES   2    3 5 56.18                             112     0.6 4  321 230 
 RREF HZ I         3 6  2.07         3.6 0.25                           321 230 
 PRA  HZ EP   2    3 5 26.95                             108     0.2 3  390 210 
 PRA  HN ES   2    3 6  8.24                             108    -0.2 3  390 210 
                                                                                
