 2012 1125 0650  7.0 L   6.760 -73.172144.6  RSN  6 0.2 1.6LRSN                1
 GAP=135        0.42       2.8     2.2  4.9  0.5567E-02  0.6712E+00 -0.8561E+00E
 Epicentro: LOS SANTOS - SANTANDER                                             3
 ACTION:UPD 12-12-05 15:36 OP:}ep  STATUS:               ID:20121125065007 L   I
 2012-11-25-0650-00M.COL___233                                                 6
 STAT SP IPHASW D HRMM SECON CODA AMPLIT PERI AZIMU VELO AIN AR TRES W  DIS CAZ7
 BAR2 SZ EP        650 26.37                             172    0.0110 18.6 183 
 BAR2 SZ I         650 42.73         9.8 0.33                          18.6 183 
 GIR2 SZ EP   1    650 26.71                             166    0.10 7 35.3 356 
 GIR2 SZ ES   2    650 42.08                             166    0.14 5 35.3 356 
 PAM  SZ EP        650 29.53                             149    0.1510 82.7  39 
 PAM  SZ I         650 29.92         7.8 0.18                          82.7  39 
 PAM  SN ES   2    650 46.27                             149   -0.59 5 82.7  39 
 RUS  HZ EP        650 30.22                             145   -0.0810 96.4 174 
 RUS  HE ES   1    650 48.67                             145    0.17 7 96.4 174 
 RUS  HE I         650 49.89        10.4 0.49                          96.4 174 
 PTB  HZ EP        650 33.38                             132   -0.12 9  144 260 
 PTB  HN ES        650 54.10                             132   -0.10 9  144 260 
 PTB  HZ I         651  0.08         3.6 0.39                           144 260 
 ZAR  HE ES   1    651  4.58                             122    0.19 6  203 294 
 ZAR  HZ I         651 11.35         3.8 0.29                           203 294 
                                                                                
