 2017  325 0411  3.7 L   6.738 -73.126123.4  RSN  4 0.3 1.0LRSN                1
 GAP=142        0.58       5.1     3.7  5.1 -0.1062E+02  0.4533E+01  0.3837E+00E
 Epicentro: LOS SANTOS - SANTANDER                                             3
 ACTION:UPD 17-05-25 18:44 OP:jn   STATUS:               ID:20170325041103 L   I
 OLDACT:UP  17-03-25 13:00 OP:dani STATUS:               ID:20170325040747     3
 OLDACT:UP  17-03-25 12:59 OP:dani STATUS:               ID:20170325040747     3
 OLDACT:UP  17-03-25 12:59 OP:dani STATUS:               ID:20170325040747     3
 OLDACT:REG 17-03-25 12:29 OP:dani STATUS:               ID:20170325040747     3
 2017-03-25-0408-00M.COL___358                                                 6
 STAT SP IPHASW D HRMM SECON CODA AMPLIT PERI AZIMU VELO AIN AR TRES W  DIS CAZ7
 BAR2 EZ EP        411 20.86                             171    0.3510 17.3 201 
 BAR2 EZ ES        411 33.50                             171   -0.1310 17.3 201 
 PAM  EZ EP        411 23.89                             145    0.0310 81.5  35 
 PAM  EN ES        411 39.47                             145   -0.1210 81.5  35 
 PAM  EZ I         411 43.05         3.2 0.53             47           81.5  35 
 RUS  HZ IP   3    411 23.31                             140   -1.45 2 93.6 177 
 RUS  HZ EP   1    411 24.95                             140    0.19 7 93.6 177 
 RUS  HZ I         411 44.66         1.6 0.21             47           93.6 177 
 PTB  HZ EP        411 28.89                             126   -0.14 9  149 262 
 PTB  HN ES        411 48.76                             126   -0.04 9  149 262 
 PTB  HZ I         411 51.55         0.9 0.16             47            149 262 
                                                                                
