 2011 1025 0909 17.2 L   6.804 -73.093147.4  RSN  4 0.2 1.4LRSN                1
 GAP=143        0.37       4.3     5.4  6.7  0.5763E+01  0.1776E+02  0.1183E+01E
 Epicentro: LOS SANTOS - SANTANDER                                             3
 ACTION:UPD 12-07-13 16:05 OP:ep   STATUS:               ID:20111025090917 L   I
 2011-10-25-0906-53S.COL___172                                                 6
 STAT SP IPHASW D HRMM SECON CODA AMPLIT PERI AZIMU VELO AIN AR TRES W  DIS CAZ7
 BAR2 SZ EP   1    9 9 37.04                             170   -0.07 7 25.4 203 
 BAR2 SZ I         9 9 37.91         6.0 0.40                          25.4 203 
 BAR2 SZ ES   2    9 9 52.96                             170    0.35 5 25.4 203 
 PAM  SN ES   2    9 9 56.59                             152   -0.11 5 73.5  36 
 RUS  HZ EP   2    9 9 41.30                             144    0.13 5  101 179 
 RUS  HN ES   2    9 9 59.60                             144   -0.23 5  101 179 
 RUS  HZ I         910  1.42         2.1 0.32                           101 179 
 ZAR  HZ EP   2    9 9 50.58                             122    0.25 4  209 291 
 ZAR  HE ES   2    910 15.94                             122   -0.21 4  209 291 
 ZAR  HZ I         910 21.99         5.0 0.45                           209 291 
                                                                                
