 2015 1225 0722  7.7 L   6.094 -73.679110.0  RSN  5 0.5 1.1LRSN                1
 GAP=137        1.01       3.8     4.3 12.6  0.1722E+00  0.2279E+02  0.9697E+01E
 Epicentro: CHIPATA - SANTANDER                                                3
 ACTION:UPD 16-02-04 15:07 OP:cam  STATUS:               ID:20151225072207 L   I
 OLDACT:REG 15-12-25 13:04 OP:dnl  STATUS:               ID:20151225071746     3
 2015-12-25-0717-46M.COL___337                                                 6
 STAT SP IPHASW D HRMM SECON CODA AMPLIT PERI AZIMU VELO AIN AR TRES W  DIS CAZ7
 BAR2 EZ EP        722 26.13                             142    0.2110 77.8  45 
 BAR2 EZ ES        722 40.30                             142    0.1610 77.8  45 
 NOR  HZ EP   2    722 32.09                             123    0.39 5  144 246 
 NOR  HN ES        722 50.93                             123    0.49 9  144 246 
 NOR  HZ I         722 54.39         4.6 0.07            125            144 246 
 CHI  HZ EP        722 34.27                             120    0.25 9  162 182 
 CHI  HN ES        722 53.78                             120   -0.78 9  162 182 
 CHI  HZ I         723  1.99         1.0 0.28            122            162 182 
 ZAR  HZ EP   2    722 37.85                             114   -0.03 4  202 320 
 ZAR  HN ES        723  0.67                             114   -0.77 9  202 320 
 ZAR  HZ I         723  2.16         2.1 0.26            118            202 320 
 HEL  HZ EP   2    722 39.41                             113    0.75 4  205 273 
 HEL  HE ES        723  2.79                             113   -0.03 9  205 273 
 HEL  HZ I         723  9.17         0.9 0.19            116            205 273 
                                                                                
