 2015  325 0114 33.7 L   6.797 -73.183144.5  RSN 12 0.5 2.1LRSN                1
 GAP=132        1.14       3.3     4.2  6.1 -0.2292E+01  0.9179E+01 -0.5111E+00E
 Epicentro: ZAPATOCA - SANTANDER                                               3
 ACTION:UPD 15-04-30 16:29 OP:nd   STATUS:               ID:20150325011433 L   I
 OLDACT:DUP 15-03-25 16:34 OP:fm   STATUS:               ID:20150325010741d    3
 2015-03-25-0107-40M.COL___278                                                 6
 STAT SP IPHASW D HRMM SECON CODA AMPLIT PERI AZIMU VELO AIN AR TRES W  DIS CAZ7
 BAR2 EZ EP        114 53.36                             171    0.1810 22.7 180 
 BAR2 EZ ES        115  8.83                             171    0.4710 22.7 180 
 BAR2 EZ I         115  9.93        33.4 0.16            170           22.7 180 
 BRR  HZ EP        114 55.01                             153    0.4810 67.7 300 
 BRR  HN ES        115 11.20                             153    0.4310 67.7 300 
 BRR  HZ I         115 13.75        24.3 0.48            152           67.7 300 
 PAM  SZ EP        114 56.27                             150    0.3010 80.3  42 
 PAM  SE ES        115 13.46                             150    0.1310 80.3  42 
 PAM  SZ I         115 16.19        24.1 0.64            155           80.3  42 
 RUS  HZ EP        114 57.19                             144   -0.1610  101 174 
 RUS  HN ES        115 14.83                             144   -0.9510  101 174 
 RUS  HZ I         115 17.89        19.6 0.34            146            101 174 
 PTB  HZ EP        114 59.89                             133   -0.32 9  144 259 
 PTB  HE ES        115 20.06                             133   -0.81 9  144 259 
 PTB  HZ I         115 24.41        13.5 0.16            132            144 259 
 OCA  HN ES        115 23.71                             129   -0.19 9  160 355 
 SPBC HZ EP        115  2.22                             129    0.37 9  160 218 
 SPBC HN ES        115 23.93                             129    0.13 9  160 218 
 SPBC HZ I         115 28.72        25.9 0.32            130            160 218 
 ZAR  HZ EP        115  5.50                             123   -0.20 9  200 293 
 ZAR  HN ES        115 30.77                             123    0.14 9  200 293 
 ZAR  HZ I         115 37.68        15.6 0.26            123            200 293 
 NOR  HZ EP        115  8.68                             119   -0.31 8  231 234 
 NOR  HN ES        115 36.31                             119   -0.20 8  231 234 
 NOR  HZ I         115 43.77        10.2 0.38            120            231 234 
 SML  HZ EP        115  9.57                             117   -0.54 8  242 336 
 SML  HE ES        115 37.82                             117   -0.68 8  242 336 
 SML  HZ I         115 41.05        19.8 0.10            119            242 336 
 HEL  HZ EP        115 13.78                             115    0.37 8  268 256 
 HEL  HE ES        115 45.11                             115    0.74 8  268 256 
 HEL  HZ I         115 52.76         4.6 0.56            116            268 256 
 GUY2CHZ EP        115 17.58                             112    0.71 7  298 234 
 GUY2CHE ES   4    115 53.76                             112    3.24 0  298 234 
 GUY2CHZ I         115 59.61         4.1 0.32                           298 234 
 SJC  HN ES   4    116  7.65                             106   -4.47 0  407 327 
                                                                                
