 2014  825 0652  4.5 L   6.827 -73.126141.5  RSN 10 0.6 1.8LRSN                1
 GAP=138        1.16       5.0     7.0  8.8 -0.7193E+01  0.3161E+01  0.5094E+01E
 Epicentro: LOS SANTOS - SANTANDER                                             3
 ACTION:UPD 14-09-15 21:53 OP:nd   STATUS:               ID:20140825065204 L   I
 OLDACT:REG 14-08-25 13:38 OP:fm   STATUS:               ID:20140825064814     3
 2014-08-25-0648-14M.COL___257                                                 6
 STAT SP IPHASW D HRMM SECON CODA AMPLIT PERI AZIMU VELO AIN AR TRES W  DIS CAZ7
 BAR2 SZ EP        652 23.90                             169    0.1610 26.7 194 
 BAR2 SZ ES   1    652 37.71                             169   -0.99 7 26.7 194 
 BAR2 SZ I         652 39.80        27.9 0.32            161           26.7 194 
 BRR  HZ EP     C  652 25.84                             152    0.5710 71.8 296 
 BRR  HE ES        652 42.21                             152    0.7810 71.8 296 
 BRR  HZ I         652 45.28         9.1 0.24            145           71.8 296 
 PAM  SN ES   2    652 43.79                             151    0.91 5 73.6  40 
 RUS  HZ EP   1    652 28.06                             142   -0.03 7  103 177 
 RUS  HN ES   1    652 46.38                             142   -0.07 7  103 177 
 RUS  HZ I         652 48.92         3.8 0.32            129            103 177 
 PTB  HZ EP   1    652 30.95                             130   -0.47 7  151 258 
 PTB  HN ES        652 51.79                             130   -0.60 9  151 258 
 PTB  HZ I         652 53.58         8.8 0.12            120            151 258 
 OCA  HZ EP   1    652 31.77                             129   -0.50 7  158 352 
 OCA  HN ES   1    652 53.19                             129   -0.70 7  158 352 
 OCA  HZ I         652 57.11         7.1 0.24            120            158 352 
 SPBC HZ EP   1    652 32.76                             127   -0.32 7  167 219 
 SPBC HE ES        652 55.41                             127    0.08 9  167 219 
 SPBC HZ I         653  0.67         5.9 0.44            117            167 219 
 NOR  HZ I         653 11.91         4.3 0.34            109            238 234 
 TOL  SN ES   1    653 31.53                             108    0.63 5  347 225 
 PRA  HZ EP   1    652 59.02                             106    0.67 4  396 210 
 PRA  HZ I         653 46.06         2.2 0.28            100            396 210 
                                                                                
