 2016  325 0617 19.6 L   6.773 -73.139146.2  RSN 10 0.4 1.6LRSN                1
 GAP=139        0.85       2.7     3.4  5.7 -0.1880E+01  0.7457E+01  0.3067E+00E
 Epicentro: LOS SANTOS - SANTANDER                                             3
 ACTION:UPD 16-05-13 21:27 OP:cam  STATUS:               ID:20160325061719 L   I
 OLDACT:REG 16-03-25 14:25 OP:ak   STATUS:               ID:20160325060747     3
 2016-03-25-0607-47M.COL___294                                                 6
 STAT SP IPHASW D HRMM SECON CODA AMPLIT PERI AZIMU VELO AIN AR TRES W  DIS CAZ7
 BAR2 EZ EP        617 39.48                             172    0.2610 20.6 193 
 BAR2 EZ ES        617 54.30                             172   -0.2410 20.6 193 
 BAR2 EZ I         617 55.85         7.0 0.24            171           20.6 193 
 PAM  EZ EP        617 42.29                             150    0.3210 79.2  38 
 PAM  EN ES        617 59.44                             150    0.0210 79.2  38 
 PAM  EZ I         618  3.35         2.3 0.24            153           79.2  38 
 RUS  HZ EP        617 43.00                             145   -0.1710 97.6 176 
 RUS  HN ES        618  1.36                             145   -0.2110 97.6 176 
 RUS  HZ I         618  3.04         4.1 0.20            146           97.6 176 
 PTB  HZ EP        617 45.92                             132   -0.69 9  148 260 
 PTB  HN ES        618  7.62                             132   -0.07 9  148 260 
 PTB  HZ I         618  9.53         7.9 0.12            132            148 260 
 SPBC HZ EP        617 48.45                             129    0.50 9  161 220 
 SPBC HN ES        618 10.61                             129    0.54 9  161 220 
 SPBC HZ I         618 14.11         6.6 0.19            130            161 220 
 OCA  HZ EP   2    617 47.58                             129   -0.64 5  163 353 
 OCA  HN ES        618 10.65                             129    0.10 9  163 353 
 OCA  HZ I         618 13.58         8.2 0.24            130            163 353 
 ZAR  HZ EP   2    617 52.08                             122   -0.17 4  206 293 
 ZAR  HN ES        618 17.84                             122    0.11 8  206 293 
 ZAR  HZ I         618 24.49         5.2 0.16            123            206 293 
 NOR  HE ES        618 22.33                             119   -0.69 8  234 235 
 CHI  HZ EP   2    617 56.53                             117   -0.50 4  246 196 
 CHI  HN ES        618 26.54                             117    0.32 8  246 196 
 CHI  HZ I         618 32.92         1.5 0.35            119            246 196 
 HEL  HZ EP        617 59.66                             115   -0.17 8  272 256 
 HEL  HN ES        618 31.64                             115    0.43 8  272 256 
 HEL  HZ I         618 38.37         2.3 0.34            115            272 256 
                                                                                
