 2013  125 0129  5.9 L   6.766 -73.170151.3  RSN  6 0.4 1.4LRSN                1
 GAP=135        0.74       5.4     5.2  8.1  0.6238E+01  0.1551E+02  0.6194E+01E
 Epicentro: LOS SANTOS - SANTANDER                                             3
 ACTION:UPD 13-02-15 09:16 OP:ep   STATUS:               ID:20130125012905 L   I
 2013-01-25-0127-37M.COL___178                                                 6
 STAT SP IPHASW D HRMM SECON CODA AMPLIT PERI AZIMU VELO AIN AR TRES W  DIS CAZ7
 BAR2 SZ ES   1    129 42.21                             172    0.29 7 19.3 184 
 BRR  HZ EP   1    129 27.83                             154    0.19 7 70.7 302 
 BRR  HN ES   1    129 44.91                             154    0.32 7 70.7 302 
 BRR  HZ I         129 48.30         4.2 0.14            151           70.7 302 
 PAM  SN ES   1    129 46.50                             150   -0.50 7 82.0  39 
 RUS  HZ EP   1    129 30.20                             146    0.23 7 97.1 174 
 RUS  HN ES   1    129 48.77                             146    0.03 7 97.1 174 
 RUS  HZ I         129 49.45         1.7 0.28            149           97.1 174 
 PTB  HZ EP   1    129 32.80                             134   -0.24 7  144 260 
 PTB  HN ES   1    129 53.48                             134   -0.73 7  144 260 
 PTB  HZ I         129 56.03         4.3 0.12            134            144 260 
 ZAR  HN ES   1    130  4.53                             124    0.40 6  203 293 
 ZAR  HZ I         130  9.69         3.5 0.62            124            203 293 
                                                                                
