 2014  325 0921 29.5 L   7.171 -74.185 22.4  RSN  5 0.5 1.2LRSN                1
 GAP=120        1.16       4.0     4.2  7.2  0.7130E+01 -0.1943E+02 -0.1917E+02E
 Epicentro: PUERTO WILCHES - SANTANDER                                         3
 ACTION:UPD 14-04-09 23:20 OP:nd   STATUS:               ID:20140325092129 L   I
 OLDACT:REG 14-03-25 08:00 OP:y    STATUS:               ID:20140325092036     3
 2014-03-25-0920-36M.COL___234                                                 6
 STAT SP IPHASW D HRMM SECON CODA AMPLIT PERI AZIMU VELO AIN AR TRES W  DIS CAZ7
 PTB  HZ EP        921 41.58                             104   -0.4310 76.0 203 
 PTB  HN ES        921 52.00                             104    0.2610 76.0 203 
 PTB  HZ I         921 54.00         4.2 0.36             99           76.0 203 
 ZAR  HZ EP        921 42.70                             103   -0.2510 82.4 296 
 ZAR  HN ES        921 53.98                             103    0.5610 82.4 296 
 ZAR  HZ I         921 56.82         9.6 0.38             98           82.4 296 
 URE  HZ EP   4    921 52.16                              56   -1.34 0  162 293 
 URE  HN ES        922 12.14                              56   -0.05 9  162 293 
 URE  HZ I         922 16.56         2.7 0.36             56            162 293 
 PAM  SN ES        922 14.40                              56    0.53 9  165  83 
 SML  HZ EP        921 54.91                              56   -0.90 9  181   4 
 SML  HE ES        922 16.52                              56    0.22 9  181   4 
 SML  HZ I         922 19.46         3.7 0.10             56            181   4 
                                                                                
