 2010  825 0134 22.1 L   6.800 -73.162150.5  RSN  4 0.1 1.5LRSN                1
 GAP=236        0.32       3.0     7.1  4.7  0.8729E+01 -0.1972E+01  0.4875E+01E
 Epicentro: LOS SANTOS - SANTANDER                                             3
 ACTION:UP  10-09-07 10:57 OP:vdl  STATUS:               ID:20100825013422 L   I
 2010-08-25-0130-51S.COL___121                                                 6
 STAT SP IPHASW D HRMM SECON CODA AMPLIT PERI AZIMU VELO SNR AR TRES W  DIS CAZ7
 BRR  HZ EP        134 43.65                                     0.010   70 299 
 BRR  HZ I         134 45.26         8.9 0.34                            70 299 
 BRR  HN ES   1    135  0.51                             154     0.0 7   70 299 
 RUS  HZ EP   2    134 46.15                             145    -0.2 5  101 175 
 RUS  HN ES   2    135  5.27                             145     0.1 5  101 175 
 RUS  HZ I         135  6.77         2.4 0.37                           101 175 
 CHI  HZ EP   2    135  0.35                             118     0.4 4  248 195 
 CHI  HE ES   2    135 29.50                             118    -0.1 4  248 195 
 CHI  HZ I         135 35.48         1.9 0.35                           248 195 
 PRA  HZ EP   2    135 15.50                             107    -0.2 3  391 209 
 PRA  HE ES   2    135 57.40                             107     0.0 3  391 209 
 PRA  HZ I         136  3.82         1.9 0.32                           391 209 
                                                                                
