 2012  325 0218  9.4 L   6.822 -73.157147.9  RSN  6 0.2 1.7LRSN                1
 GAP=134        0.37       3.5     3.0  4.7  0.3532E+00  0.1511E+01  0.1536E+01E
 ACTION:UP  12-03-31 23:22 OP:EP   STATUS:               ID:20120325021809 L   I
 2012-03-25-0210-00M.COL___196                                                 6
 STAT SP IPHASW D HRMM SECON CODA AMPLIT PERI AZIMU VELO SNR AR TRES W  DIS CAZ7
 BAR2 SZ EP   1    218 29.35                             170     0.0 7   26 186 
 BAR2 SZ ES   2    218 44.91                             170     0.0 5   26 186 
 BAR2 SZ I         218 46.43         8.2 0.18                            26 186 
 BRR  HE ES   2    218 47.33                             154     0.1 5   69 297 
 BRR  HZ I         218 51.51        10.7 0.18                            69 297 
 PAM  SZ EP   1    218 31.97                             151     0.2 7   76  41 
 PAM  SN ES   2    218 48.96                             151    -0.3 5   76  41 
 RUS  HZ EP   1    218 33.49                             144    -0.1 7  103 175 
 RUS  HE ES   2    218 52.63                             144     0.2 5  103 175 
 RUS  HZ I         218 53.83         8.0 0.36                           103 175 
 PTB  HZ EP   1    218 36.39                             133    -0.1 7  147 258 
 PTB  HE ES   2    218 57.43                             133    -0.2 5  147 258 
 PTB  HZ I         218 59.40         5.0 0.41                           147 258 
 ZAR  HE ES   2    219  7.31                             123     0.3 4  202 292 
 ZAR  HZ I         219 12.77         6.8 0.35                           202 292 
                                                                                
