 2016 1025 0259 54.9 L   6.784 -73.121147.1  RSN 10 0.3 1.8LRSN                1
 GAP=140        0.75       2.9     3.2  4.2 -0.2207E+01  0.3440E+01  0.3396E+01E
 Epicentro: LOS SANTOS - SANTANDER                                             3
 ACTION:UPD 16-11-09 19:22 OP:rebc STATUS:               ID:20161025025954 L   I
 OLDACT:REG 16-10-25 13:01 OP:cara STATUS:               ID:20161025025742     3
 2016-10-25-0258-00M.COL___358                                                 6
 STAT SP IPHASW D HRMM SECON CODA AMPLIT PERI AZIMU VELO AIN AR TRES W  DIS CAZ7
 BAR2 EZ IP        3 0 14.49                             171   -0.1810 22.2 198 
 BAR2 EZ ES        3 0 30.07                             171   -0.0310 22.2 198 
 BAR2 EZ I         3 0 33.39        46.6 0.40            169           22.2 198 
 BRR  HZ EP        3 0 16.54                             152    0.1610 74.5 299 
 BRR  HE ES        3 0 33.82                             152    0.6810 74.5 299 
 BRR  HZ I         3 0 36.82         8.8 0.14            152           74.5 299 
 PAM  EZ IP        3 0 17.46                             151    0.2210 77.1  37 
 PAM  EN ES        3 0 34.27                             151   -0.4010 77.1  37 
 PAM  EZ I         3 0 36.55        16.5 0.54            156           77.1  37 
 RUS  HZ EP        3 0 18.46                             145   -0.1810 98.6 178 
 RUS  HN ES        3 0 37.35                             145    0.1810 98.6 178 
 RUS  HZ I         3 0 40.00         5.3 0.30            146           98.6 178 
 PTB  HZ EP        3 0 22.08                             132   -0.11 9  150 260 
 PTB  HE ES        3 0 42.99                             132   -0.49 9  150 260 
 PTB  HZ I         3 0 49.99         7.3 0.36            133            150 260 
 SPBC HZ EP        3 0 23.41                             129   -0.13 9  164 220 
 SPBC HN ES        3 0 45.59                             129   -0.28 9  164 220 
 SPBC HZ I         3 0 47.99        11.8 0.26            131            164 220 
 CHI  HZ IP        3 0 32.68                             117    0.12 8  248 196 
 CHI  HN ES        3 1  2.19                             117    0.25 8  248 196 
 CHI  HZ I         3 1  8.35         2.5 0.62            120            248 196 
 HEL  HN ES   4    3 1  9.03                             115    1.99 0  274 256 
 GUY2CHZ EP        3 0 38.94                             112    0.23 7  302 235 
 GUY2CHE ES        3 1 13.14                             112    0.26 7  302 235 
 GUY2CHZ I         3 1 21.21         4.1 0.40                           302 235 
 CBOC HZ EP        3 0 42.48                             110    0.37 7  336 253 
 CBOC HN ES        3 1 18.44                             110   -0.49 7  336 253 
 CBOC HZ I         3 1 22.47         1.1 0.18            112            336 253 
 PRA  HZ EP        3 0 48.10                             107   -0.34 6  392 210 
 PRA  HE ES        3 1 30.55                             107    0.34 6  392 210 
 PRA  HZ I         3 1 35.22         3.0 0.30            109            392 210 
                                                                                
