 2016  625 0115 13.7 L   6.798 -73.148147.7  RSN 18 0.4 2.1LRSN                1
 GAP=136        0.95       2.9     3.1  4.5 -0.6665E+00  0.5110E+01  0.3165E+01E
 Epicentro: LOS SANTOS - SANTANDER                                             3
 ACTION:UPD 16-07-21 22:22 OP:rebc STATUS:               ID:20160625011513 L   I
 OLDACT:REG 16-06-25 12:11 OP:ak   STATUS:               ID:20160625010739     3
 2016-06-25-0107-39M.COL___328                                                 6
 STAT SP IPHASW D HRMM SECON CODA AMPLIT PERI AZIMU VELO AIN AR TRES W  DIS CAZ7
 BAR2 EZ EP        115 33.47                             171   -0.0710 23.1 189 
 BAR2 EZ ES        115 48.96                             171   -0.0710 23.1 189 
 BAR2 EZ I         115 51.21        20.1 0.24                          23.1 189 
 BRR  HZ IP     C  115 35.41                             153    0.3710 71.1 299 
 BRR  HN ES        115 52.55                             153    0.8610 71.1 299 
 BRR  HZ I         115 55.37        18.7 0.10                          71.1 299 
 PAM  EZ EP        115 36.32                             151    0.1910 77.7  40 
 PAM  EN ES        115 53.67                             151    0.0410 77.7  40 
 PAM  EZ I         115 55.98        15.8 0.31                          77.7  40 
 RUS  HZ EP        115 37.37                             144   -0.2410  100 176 
 RUS  HN ES        115 55.72                             144   -0.5510  100 176 
 RUS  HZ I         115 57.27        10.1 0.40                           100 176 
 PTB  HZ EP        115 40.10                             132   -0.69 9  147 259 
 PTB  HN ES        116  1.07                             132   -0.85 9  147 259 
 PTB  HZ I         116  6.77        12.9 0.11                           147 259 
 SPBC HZ EP        115 42.45                             129    0.15 9  163 219 
 SPBC HN ES        116  4.60                             129   -0.02 9  163 219 
 SPBC HZ I         116 11.61        32.6 0.34                           163 219 
 ZAR  HZ EP        115 46.30                             123    0.06 9  204 292 
 ZAR  HN ES        116 11.57                             123   -0.06 9  204 292 
 ZAR  HZ I         116 19.05        19.7 0.28                           204 292 
 NOR  HZ EP        115 49.50                             119    0.01 8  234 234 
 NOR  HN ES        116 17.31                             119   -0.11 8  234 234 
 NOR  HZ I         116 21.19        14.9 0.18                           234 234 
 CHI  HZ EP        115 51.56                             117    0.10 8  248 195 
 CHI  HN ES        116 21.32                             117    0.39 8  248 195 
 CHI  HZ I         116 26.75         7.8 0.26                           248 195 
 ROSC BZ EP        115 51.65                             117   -0.23 8  252 211 
 ROSC BE ES        116 21.40                             117   -0.27 8  252 211 
 ROSC BZ I         116 29.67        16.4 0.45                           252 211 
 HEL  HZ EP        115 54.65                             115    0.68 8  272 256 
 HEL  HN ES        116 25.42                             115    0.04 8  272 256 
 HEL  HZ I         116 34.76         4.6 0.09                           272 256 
 URE  HZ EP   2    115 54.17                             114   -0.67 4  284 292 
 URE  HN ES   4    116 24.78                             114   -2.15 0  284 292 
 URE  HZ I         116 29.04         8.0 0.12                           284 292 
 GUY2CHZ EP        115 57.71                             113    0.36 7  301 235 
 GUY2CHN ES        116 32.37                             113    0.97 7  301 235 
 GUY2CHZ I         116 40.09         8.7 0.34                           301 235 
 CBOC HZ EP        116  0.50                             110   -0.15 7  333 252 
 CBOC HN ES        116 37.08                             110   -0.19 7  333 252 
 CBOC HZ I         116 44.28         1.5 0.26                           333 252 
 DBB  SZ EP   2    116  0.76                             110   -0.46 3  339 274 
 DBB  SZ ES        116 37.48                             110   -0.80 7  339 274 
 PRA  HZ EP        116  6.85                             107   -0.39 6  392 210 
 PRA  HE ES        116 49.67                             107    0.66 6  392 210 
 PRA  HZ I         116 54.85         8.8 0.58                           392 210 
 ORTC HZ EP        116  7.71                             107    0.07 6  395 216 
 ORTC HN ES        116 50.19                             107    0.48 6  395 216 
 ORTC HZ I         116 55.11         4.4 0.26                           395 216 
 PAL  HZ EP        116  8.66                             106   -0.21 6  405 239 
 PAL  HN ES        116 52.27                             106    0.35 6  405 239 
 PAL  HZ I         116 57.89         2.3 0.39                           405 239 
                                                                                
