 2010  925 0609  9.2 L   6.795 -73.087146.4  RSN  9 0.4 2.2LRSN                1
 GAP=165        0.79       3.7     7.2  6.5 -0.6713E+01  0.1434E+01 -0.7153E+00E
 Epicentro: LOS SANTOS - SANTANDER                                             3
 ACTION:UP  11-02-18 11:05 OP:tino STATUS:               ID:20100925060909 L   I
 2010-09-25-0606-21S.COL___120                                                 6
 STAT SP IPHASW D HRMM SECON CODA AMPLIT PERI AZIMU VELO SNR AR TRES W  DIS CAZ7
 BAR2 SZ EP   1    6 9 28.64                             170    -0.3 7   25 205 
 BAR2 SZ ES   1    6 9 43.92                             170    -0.4 7   25 205 
 BAR2 SZ I         6 9 45.67        44.5 0.24                            25 205 
 GIR2 SZ EP   2    6 9 28.97                             166     0.0 5   33 339 
 BRR  HZ IP     C  6 9 30.77                             150     0.010   77 297 
 BRR  HZ I         6 9 31.10        71.5 0.20                            77 297 
 BRR  HE ES   1    6 9 48.15                             150     0.6 7   77 297 
 RUS  HZ EP   1    6 9 32.88                             144     0.0 7  100 180 
 RUS  HN ES   1    6 9 51.60                             144     0.2 7  100 180 
 RUS  HZ I         6 9 52.82        16.1 0.36                           100 180 
 GRA  SZ IP        6 9 34.69                             137     0.310  124  15 
 GRA  SZ ES   1    6 9 53.93                             137    -0.1 7  124  15 
 GRA  SZ I         6 9 57.20        18.6 0.20                           124  15 
 OCA  SZ EP   1    6 9 37.36                             129    -0.3 7  162 351 
 OCA  SZ ES   2    6 9 58.90                             129    -1.0 5  162 351 
 OCA  SZ I         610  5.16        28.2 0.27                           162 351 
 NOR  SZ EP   2    6 9 44.97                             118    -0.5 4  240 236 
 NOR  SE ES   2    610 13.03                             118    -0.8 4  240 236 
 CHI  HZ EP   1    6 9 47.05                             117     0.0 6  250 197 
 CHI  HN ES   3    610 17.36                             117     0.8 2  250 197 
 CHI  HZ I         610 22.34         6.1 0.55                           250 197 
 HEL  HZ EP   2    6 9 50.81                             114     0.7 4  278 256 
 HEL  HZ I         610 29.37         7.3 0.48                           278 256 
                                                                                
