 2017  225 0126  6.3 L   7.167 -73.119148.0  RSN  8 0.6 1.7LRSN                1
 GAP=144        1.04       5.9     4.8  7.4  0.3463E+01  0.7002E+01  0.9693E+01E
 Epicentro: BUCARAMANGA - SANTANDER                                            3
 ACTION:UPD 17-05-24 15:40 OP:jn   STATUS:               ID:20170225012606 L   I
 OLDACT:UP  17-02-25 14:53 OP:dani STATUS:               ID:20170225011744     3
 OLDACT:UP  17-02-25 14:52 OP:dani STATUS:               ID:20170225011744     3
 OLDACT:REG 17-02-25 12:18 OP:dani STATUS:               ID:20170225011744     3
 2017-02-25-0118-00M.COL___385                                                 6
 STAT SP IPHASW D HRMM SECON CODA AMPLIT PERI AZIMU VELO AIN AR TRES W  DIS CAZ7
 PAM  EZ EP        126 27.02                             161   -0.3610 50.1  68 
 PAM  EN ES        126 43.60                             161   -0.2310 50.1  68 
 PAM  EZ I         126 45.11         7.0 0.22            164           50.1  68 
 BAR2 EZ ES   1    126 45.07                             155    0.77 7 63.9 186 
 BRR  HZ EP     D  126 27.65                             155    0.2510 65.9 264 
 BRR  HN ES        126 44.24                             155    0.3810 65.9 264 
 BRR  HZ I         126 47.69         9.6 0.48            155           65.9 264 
 RUS  HZ EP        126 33.82                             134    0.33 9  141 178 
 RUS  HE ES        126 53.92                             134   -0.78 9  141 178 
 RUS  HZ I         126 56.38         2.3 0.30            136            141 178 
 PTB  HZ EP        126 34.66                             129   -0.22 9  163 245 
 PTB  HE ES        126 57.28                             129    0.11 9  163 245 
 PTB  HZ I         126 58.73         6.8 0.22            131            163 245 
 ZAR  HZ EP   3    126 37.78                             124   -0.22 2  195 281 
 ZAR  HE ES        127  2.61                             124   -0.13 9  195 281 
 ZAR  HZ I         127  5.72         6.7 0.24            126            195 281 
 URE  HZ EP   4    126 42.23                             115   -4.17 0  274 284 
 URE  HN ES   3    127 14.39                             115   -3.30 2  274 284 
 URE  HZ I         127 17.82         5.3 0.18            117            274 284 
 CHI  HZ EP        126 48.96                             114    0.44 7  289 194 
                                                                                
