 2012  725 0853  1.3 L   6.727 -73.550108.0  RSN  4 0.2 1.1LRSN                1
 GAP=133        0.44       6.2     4.7  6.4 -0.1516E+01  0.9904E+01  0.1568E+02E
 Epicentro: EL CARMEN DE CHUCURI - SANTANDER                                   3
 ACTION:UPD 12-08-14 11:45 OP:ep   STATUS:               ID:20120725085301 L   I
 2012-07-25-0850-00M.COL___215                                                 6
 STAT SP IPHASW D HRMM SECON CODA AMPLIT PERI AZIMU VELO AIN AR TRES W  DIS CAZ7
 BAR2 SZ EP   3    853 17.47                             157     0.3 2   43 110 
 BAR2 SZ ES   2    853 29.58                             157     0.0 5   43 110 
 BAR2 SZ I         853 30.59         5.2 0.16            159             43 110 
 BRR  HZ EP        853 16.78                             156    -0.210   46 337 
 BRR  HN ES   1    853 29.37                             156     0.2 7   46 337 
 BRR  HZ I         853 30.75         5.7 0.12            157             46 337 
 PTB  HZ EP        853 21.21                             133     0.110  102 258 
 PTB  HN ES   2    853 36.29                             133    -0.2 5  102 258 
 PTB  HZ I         853 37.31         1.4 0.14            136            102 258 
 RUS  HZ EP   3    853 22.13                             133     0.1 2  106 151 
