 2014  625 0421 22.4 L   6.806 -73.161132.4  RSN 11 0.4 1.6LRSN                1
 GAP=181        0.98       2.9     4.7  7.5 -0.7425E+00  0.1210E+02 -0.2668E+01E
 Epicentro: LOS SANTOS - SANTANDER                                             3
 ACTION:UPD 14-07-01 22:56 OP:nd   STATUS:               ID:20140625042122 L   I
 OLDACT:REG 14-06-25 13:08 OP:spq  STATUS:               ID:20140625041813     3
 2014-06-25-0418-13M.COL___259                                                 6
 STAT SP IPHASW D HRMM SECON CODA AMPLIT PERI AZIMU VELO AIN AR TRES W  DIS CAZ7
 BAR2 SZ IP     D  421 41.03                             169    0.5810 23.7 186 
 BAR2 SZ ES   1    421 54.55                             169    0.03 7 23.7 186 
 BAR2 SZ I         421 57.56         7.3 0.17            169           23.7 186 
 RUS  HZ EP   1    421 44.90                             141   -0.03 7  101 175 
 RUS  HN ES        422  2.66                             141    0.1610  101 175 
 RUS  HZ I         422  4.27         5.1 0.20            144            101 175 
 PTB  HZ EP        421 47.82                             129   -0.36 9  146 258 
 PTB  HN ES        422  8.32                             129    0.03 9  146 258 
 PTB  HZ I         422 11.14         6.2 0.12            128            146 258 
 OCA  HN ES        422 10.32                             127   -0.56 9  159 354 
 OCA  HZ I         422 14.64         4.2 0.28            127            159 354 
 SPBC HZ EP        421 50.01                             126    0.14 9  163 218 
 SPBC HN ES        422 10.89                             126   -0.39 9  163 218 
 SPBC HZ I         422 14.42         4.8 0.22            127            163 218 
 ZAR  HZ EP        421 54.17                             120    0.33 9  202 292 
 ZAR  HN ES        422 19.24                             120    0.89 9  202 292 
 ZAR  HZ I         422 25.98         4.8 0.32            119            202 292 
 NOR  HN ES        422 23.68                             116   -0.82 8  234 234 
 NOR  HZ I         422 30.06         2.7 0.26            116            234 234 
 SML  HZ EP   1    421 58.09                             115   -0.10 6  242 336 
 SML  HN ES        422 25.80                             115   -0.29 8  242 336 
 SML  HZ I         422 34.86         7.7 0.24            115            242 336 
 HEL  HN ES   1    422 32.42                             112   -0.13 6  271 256 
 HEL  HZ I         422 40.31         2.5 0.34            112            271 256 
 RREF HN ES   1    422 44.20                             108    0.80 5  321 229 
 RREF HZ I         422 49.69         2.4 0.30            109            321 229 
 PRA  HZ EP        422 15.60                             104    0.13 6  392 209 
 PRA  HN ES   1    422 56.25                             104   -0.60 4  392 209 
 PRA  HZ I         423  2.97         1.3 0.29            105            392 209 
                                                                                
