 2013  625 0235 19.5 L   6.782 -73.205144.8  RSN  5 0.2 1.3LRSN                1
 GAP=195        0.55       3.3     4.0  4.4  0.5995E+01  0.1579E+01 -0.1151E+01E
 Epicentro: ZAPATOCA - SANTANDER                                               3
 ACTION:UPD 14-01-08 09:56 OP:ep   STATUS:               ID:20130625023519 L   I
 OLDACT:DUP 13-06-25 07:57 OP:jn   STATUS:               ID:20130625022960d    3
 2013-06-25-0229-59M.COL___267                                                 6
 STAT SP IPHASW D HRMM SECON CODA AMPLIT PERI AZIMU VELO AIN AR TRES W  DIS CAZ7
 BAR2 SZ EP   1    235 39.12                             171    0.14 7 21.1 173 
 BAR2 SZ ES        235 53.93                             171   -0.2310 21.1 173 
 BRR  HZ EP        235 40.69                             154    0.3910 66.6 303 
 BRR  HN ES        235 56.60                             154    0.0910 66.6 303 
 BRR  HZ I         236  1.05         3.9 0.14            153           66.6 303 
 RUS  HZ EP        235 43.00                             144   -0.0710 99.2 172 
 RUS  HN ES        236  1.51                             144    0.0710 99.2 172 
 RUS  HZ I         236  2.54         1.8 0.24            147           99.2 172 
 PTB  HZ EP        235 45.53                             133   -0.26 9  141 259 
 PTB  HN ES        236  6.27                             133   -0.01 9  141 259 
 PTB  HZ I         236  9.09         3.6 0.18            134            141 259 
 SML  HE ES   1    236 24.19                             117   -0.26 6  243 337 
                                                                                
