 2016 1225 0047 58.5 L   6.736 -73.203146.9  RSN  6 0.2 1.6LRSN                1
 GAP=226        0.61       3.4     4.5  4.8  0.9271E+01  0.1337E+01  0.1673E+01E
 Epicentro: VILLANUEVA - SANTANDER                                             3
 ACTION:UPD 17-01-11 20:18 OP:rebc STATUS:               ID:20161225004758 L   I
 OLDACT:DUP 16-12-25 13:37 OP:cog  STATUS:               ID:20161225004743d    3
 2016-12-25-0048-00M.COL___381                                                 6
 STAT SP IPHASW D HRMM SECON CODA AMPLIT PERI AZIMU VELO AIN AR TRES W  DIS CAZ7
 BRR  HZ EP        048 19.67                             153   -0.0210 69.6 306 
 BRR  HE ES        048 36.47                             153    0.2610 69.6 306 
 BRR  HZ I         048 38.91         7.9 0.64            148           69.6 306 
 RUS  HZ EP        048 21.66                             146   -0.2610 94.2 172 
 RUS  HN ES        048 40.10                             146   -0.0810 94.2 172 
 RUS  HZ I         048 41.70         3.6 0.38            141           94.2 172 
 PTB  HZ EP        048 24.83                             134   -0.07 9  140 261 
 PTB  HN ES        048 45.31                             134   -0.17 9  140 261 
 PTB  HZ I         048 52.15         3.7 0.28            129            140 261 
 ZAR  HZ EP        048 30.51                             123   -0.21 9  201 295 
 ZAR  HE ES        048 55.91                             123    0.07 9  201 295 
 ZAR  HZ I         049  0.91         5.8 0.42            122            201 295 
 CHI  HZ EP        048 35.99                             118    0.64 8  240 194 
 CHI  HE ES        049  4.09                             118    0.00 8  240 194 
 CHI  HZ I         049 15.27         2.0 0.46            116            240 194 
 GUY2CHZ EP   4    048 42.69                             113    1.57 0  292 235 
 GUY2CHN ES   4    049 14.88                             113    0.52 0  292 235 
 GUY2CHZ I         049 23.93         2.5 0.30                           292 235 
                                                                                
