 2015  125 0320 24.3 L   6.775 -73.135144.0  RSN 11 0.4 1.5LRSN                1
 GAP=139        0.95       4.5     4.6  6.5 -0.5378E+00  0.5883E+01  0.4810E+01E
 Epicentro: LOS SANTOS - SANTANDER                                             3
 ACTION:UPD 15-03-02 15:42 OP:nd   STATUS:               ID:20150125032024 L   I
 OLDACT:REG 15-01-25 12:28 OP:spq  STATUS:               ID:20150125031749     3
 2015-01-25-0317-49M.COL___271                                                 6
 STAT SP IPHASW D HRMM SECON CODA AMPLIT PERI AZIMU VELO AIN AR TRES W  DIS CAZ7
 BAR2 EZ ES   1    320 58.45                             171   -0.30 7 20.9 194 
 BAR2 EZ I         321  0.18         4.7 0.34            170           20.9 194 
 BRR  HZ EP        320 45.48                             151    0.1110 73.5 300 
 BRR  HN ES        321  2.51                             151    0.6910 73.5 300 
 BRR  HZ I         321  7.23         4.9 0.20            149           73.5 300 
 PAM  SZ EP        320 46.23                             150   -0.1610 78.8  38 
 PAM  SN ES   1    321  3.30                             150   -0.34 7 78.8  38 
 PAM  SZ I         321  4.72         2.0 0.08            155           78.8  38 
 RUS  HZ EP        320 47.73                             144    0.0810 97.8 177 
 RUS  HE ES   1    321  6.39                             144    0.51 7 97.8 177 
 RUS  HZ I         321  7.24         3.2 0.40            148           97.8 177 
 PTB  HZ EP   1    320 50.33                             131   -0.82 7  148 260 
 PTB  HE ES   1    321 11.84                             131   -0.28 7  148 260 
 PTB  HZ I         321 18.54         4.0 0.72            132            148 260 
 SPBC HZ EP        320 52.38                             129   -0.13 9  162 220 
 SPBC HN ES        321 14.12                             129   -0.40 9  162 220 
 SPBC HZ I         321 21.62         5.1 0.36            131            162 220 
 OCA  HE ES   4    321 13.54                             129   -1.37 0  163 353 
 OCA  HZ I         321 19.58         3.9 0.25            131            163 353 
 ZAR  HE ES        321 21.88                             122   -0.33 8  206 293 
 ZAR  HZ I         321 27.06         6.5 0.46            123            206 293 
 HEL  HZ EP   1    321  5.34                             114    0.89 6  273 256 
 GUY2CHZ EP   1    321  8.38                             112    0.65 5  301 235 
 GUY2CHE ES   4    321 43.89                             112    2.27 0  301 235 
 GUY2CHZ I         321 49.98         1.8 0.44                           301 235 
 CBOC HZ EP   1    321 11.54                             110    0.39 5  334 253 
                                                                                
