 2015  325 0011 22.8 L   6.812 -73.180141.1  RSN  7 0.3 1.6LRSN                1
 GAP=132        0.85       2.9     3.6  6.1 -0.3399E+00  0.3615E+01 -0.1332E+01E
 Epicentro: ZAPATOCA - SANTANDER                                               3
 ACTION:UPD 15-04-30 16:29 OP:nd   STATUS:               ID:20150325001122 L   I
 OLDACT:DUP 15-03-25 16:22 OP:fm   STATUS:               ID:20150325000739d    3
 2015-03-25-0007-38M.COL___281                                                 6
 STAT SP IPHASW D HRMM SECON CODA AMPLIT PERI AZIMU VELO AIN AR TRES W  DIS CAZ7
 BRR  HZ EP        011 43.89                             153    0.7110 67.2 299 
 BRR  HN ES        011 59.45                             153    0.3510 67.2 299 
 BRR  HZ I         012  4.97         9.9 0.42            151           67.2 299 
 PAM  SZ IP     C  011 44.74                             149    0.1710 78.9  42 
 PAM  SE ES        012  1.53                             149   -0.0510 78.9  42 
 PAM  SZ I         012  4.15         5.3 0.48            155           78.9  42 
 RUS  HZ EP        011 46.25                             142    0.0710  102 174 
 RUS  HN ES        012  3.91                             142   -0.5310  102 174 
 RUS  HZ I         012  5.73         2.9 0.42            147            102 174 
 PTB  HZ EP        011 48.94                             132   -0.09 9  144 258 
 PTB  HN ES        012  9.61                             132    0.09 9  144 258 
 PTB  HZ I         012 15.72         4.4 0.26            133            144 258 
 SPBC HZ EP        011 50.90                             128    0.12 9  162 218 
 SPBC HE ES        012 12.56                             128   -0.07 9  162 218 
 SPBC HZ I         012 20.02         6.4 0.18            131            162 218 
 ZAR  HN ES        012 18.87                             122   -0.36 9  200 292 
 ZAR  HZ I         012 27.56         4.2 0.28            124            200 292 
 SML  HZ EP        011 58.46                             117   -0.37 8  241 336 
 SML  HN ES        012 26.55                             117   -0.40 8  241 336 
 SML  HZ I         012 31.72         6.4 0.10            120            241 336 
                                                                                
