 2017  925 0735 14.6 L   6.828 -73.090148.1  RSN 15 0.5 2.0LRSN                1
 GAP=188        1.06       3.8     4.3  5.4  0.5873E+01  0.5600E+01  0.4431E+01E
 Epicentro: LOS SANTOS - SANTANDER                                             3
 ACTION:UPD 17-10-05 19:16 OP:rebc STATUS:               ID:20170925073514 L   I
 OLDACT:UP  17-09-25 17:44 OP:edw  STATUS:               ID:20170925072746d    3
 OLDACT:DUP 17-09-25 17:37 OP:edw  STATUS:               ID:20170925072746d    3
 2017-09-25-0728-00M.COL___384                                                 6
 STAT SP IPHASW D HRMM SECON CODA AMPLIT PERI AZIMU VELO AIN AR TRES W  DIS CAZ7
 BAR2 EZ EP     D  735 34.68                             169    0.0810 28.0 201 
 BAR2 EZ ES        735 50.08                             169   -0.1310 28.0 201 
 BAR2 EZ I         735 52.49        31.6 0.24            166           28.0 201 
 BRR  HZ EP     D  735 36.48                             152    0.2610 75.3 294 
 BRR  HN ES        735 53.46                             152    0.3710 75.3 294 
 BRR  HZ I         735 57.27        21.1 0.38            149           75.3 294 
 RUS  HZ EP        735 38.91                             143    0.1410  103 180 
 RUS  HN ES        735 57.21                             143   -0.4310  103 180 
 RUS  HZ I         735 58.57        13.1 0.40            144            103 180 
 YPLC HZ EP        735 45.13                             127    0.59 9  177 154 
 YPLC HN ES        736  8.23                             127    0.32 9  177 154 
 YPLC HZ I         736 10.06        10.4 0.26            129            177 154 
 ZAR  HZ EP        735 47.61                             122   -0.04 8  209 291 
 ZAR  HN ES        736 12.69                             122   -0.76 8  209 291 
 ZAR  HZ I         736 21.59        14.0 0.24            122            209 291 
 NOR  HZ EP        735 51.05                             118   -0.13 8  241 235 
 NOR  HN ES        736 19.04                             118   -0.68 8  241 235 
 NOR  HZ I         736 21.48         7.9 0.22            118            241 235 
 CHI  HZ EP        735 53.03                             117    0.11 8  253 196 
 CHI  HN ES        736 22.01                             117   -0.81 8  253 196 
 CHI  HZ I         736 25.65         5.8 0.60            118            253 196 
 ROSC BZ EP   4    735 55.31                             116    1.84 0  259 212 
 ROSC BN ES        736 23.94                             116    0.14 8  259 212 
 ROSC BZ I         736 30.66        11.5 0.45            117            259 212 
 HEL  HZ EP        735 56.34                             115    0.68 7  279 255 
 HEL  HN ES        736 28.68                             115    0.98 7  279 255 
 HEL  HZ I         736 34.92         3.4 0.40            115            279 255 
 URE  HN ES   3    736 29.32                             114    0.52 2  288 291 
 GUY2CHZ EP        735 59.54                             112    0.47 7  308 235 
 GUY2CHN ES   4    736 36.24                             112    2.47 0  308 235 
 GUY2CHZ I         736 42.09         5.2 0.28                           308 235 
 PTGC HZ EP        735 57.92                             112   -0.71 7  309 160 
 PTGC HN ES   4    736 31.39                             112   -1.60 0  309 160 
 PTGC HZ I         736 33.91         4.0 0.42            113            309 160 
 PRA  HZ EP        736  8.45                             107   -0.41 6  398 210 
 PRA  HN ES        736 51.25                             107    0.06 6  398 210 
 PRA  HZ I         736 54.90         4.6 0.42            107            398 210 
 ORTC HZ EP        736  9.41                             106    0.10 6  402 217 
 ORTC HN ES        736 52.28                             106    0.30 6  402 217 
 ORTC HZ I         736 55.53         3.0 0.24            107            402 217 
 SJC  HZ EP        736  9.01                             106   -1.31 6  410 326 
 SJC  HN ES   4    736 50.86                             106   -2.93 0  410 326 
 SJC  HZ I         736 58.68         1.7 0.44            107            410 326 
                                                                                
