 2011  625 0808  1.7 L   6.913 -72.952138.0  RSN  4 0.3 1.3LRSN                1
 GAP=207        0.76      10.0    11.2 12.1 -0.1247E+02 -0.4359E+02  0.3927E+02E
 Epicentro: GUACA - SANTANDER                                                  3
 ACTION:UP  11-07-14 19:07 OP:ep   STATUS:               ID:20110625080801 L   I
 2011-06-25-0800-00M.COL___124                                                 6
 STAT SP IPHASW D HRMM SECON CODA AMPLIT PERI AZIMU VELO SNR AR TRES W  DIS CAZ7
 BTL  SZ EP        8 8 21.15                             165     0.510   35 271 
 BTL  SZ ES   2    8 8 35.82                             165     0.3 5   35 271 
 BAR2 SZ EP        8 8 20.71                             162    -0.310   44 216 
 BAR2 SZ ES   3    8 8 35.45                             162    -0.6 2   44 216 
 BAR2 SZ I         8 8 36.76         6.1 0.31                            44 216 
 BRR  HZ EP        8 8 22.83                             146    -0.210   87 284 
 BRR  HZ I         8 8 24.38         3.7 0.05                            87 284 
 BRR  HN ES   1    8 8 39.56                             146     0.0 7   87 284 
 GRA  SZ ES   2    8 8 42.65                             140    -0.2 5  109   9 
 GRA  SZ I         8 9 11.62         2.9 0.27                           109   9 
                                                                                
