 2011 1125 0510 35.9 L   6.782 -73.140138.1  RSN  8 0.3 1.9LRSN                1
 GAP=138        0.68       3.2     3.8  5.7 -0.5020E+00  0.4901E+01  0.6434E+00E
 Epicentro: LOS SANTOS - SANTANDER                                             3
 ACTION:UPD 12-07-13 16:12 OP:ep   STATUS:               ID:20111125051035 L   I
 2011-11-25-0507-42S.COL___176                                                 6
 STAT SP IPHASW D HRMM SECON CODA AMPLIT PERI AZIMU VELO AIN AR TRES W  DIS CAZ7
 BAR2 SZ EP   1    510 54.35                             171   -0.20 7 21.5 193 
 BAR2 SZ ES   1    511  9.01                             171   -0.11 7 21.5 193 
 BAR2 SZ I         511 10.04        31.7 0.25                          21.5 193 
 BRR  HZ IP     C  510 56.28                             151   -0.0210 72.7 300 
 BRR  HE ES        511 12.72                             151    0.5010 72.7 300 
 BRR  HZ I         511 17.62        26.8 0.14                          72.7 300 
 PAM  SZ EP        510 57.42                             149    0.0610 78.6  38 
 PAM  SN ES   1    511 14.04                             149   -0.07 7 78.6  38 
 RUS  HZ EP   1    510 58.78                             143    0.05 7 98.5 176 
 RUS  HE ES   1    511 16.48                             143   -0.08 7 98.5 176 
 RUS  HZ I         511 19.04         7.5 0.30                          98.5 176 
 OCA  SZ ES   1    511 25.07                             128   -0.52 7  162 353 
 OCA  SZ I         511 29.07         9.4 0.17                           162 353 
 ZAR  HZ EP   1    511  8.55                             121    0.57 6  205 293 
 ZAR  HN ES   1    511 32.46                             121   -0.55 6  205 293 
 ZAR  HZ I         511 39.10         6.0 0.09                           205 293 
 NOR  SN ES   2    511 37.84                             117   -0.74 4  234 235 
 RREF HN ES   1    511 57.43                             110    0.16 5  321 230 
 RREF HZ I         512  6.39         2.2 0.30                           321 230 
                                                                                
