 2011  225 0234 58.7 L   6.779 -73.039151.3  RSN  5 0.3 1.6LRSN                1
 GAP=171        0.76       4.6    11.5 12.3 -0.2756E+02  0.4802E+02 -0.5831E+01E
 Epicentro: CEPITA - SANTANDER                                                 3
 ACTION:UP  11-03-28 15:11 OP:jfem STATUS:               ID:20110225023458 L   I
 2011-02-25-0231-41S.COL___137                                                 6
 STAT SP IPHASW D HRMM SECON CODA AMPLIT PERI AZIMU VELO SNR AR TRES W  DIS CAZ7
 BAR2 SZ EP        235 18.70                             170    -0.310   26 218 
 BAR2 SZ I         235 35.04         4.9 0.21                            26 218 
 RUS  HZ EP   1    235 22.68                             145    -0.1 7   98 183 
 RUS  HN ES   1    235 41.91                             145     0.3 7   98 183 
 RUS  HZ I         235 42.70         3.9 0.24                            98 183 
 GRA  SZ EP   1    235 24.95                             138     0.6 7  125  12 
 GRA  SZ ES   1    235 44.18                             138    -0.2 7  125  12 
 GRA  SZ I         235 46.50         6.9 0.30                           125  12 
 CHI  HZ EP   2    235 36.66                             118    -0.1 4  250 198 
 CHI  HE ES   1    236  6.56                             118     0.0 6  250 198 
 CHI  HZ I         236  8.87         2.8 0.68                           250 198 
 HEL  HN ES   2    236 13.08                             115     0.2 4  283 257 
 HEL  HZ I         236 19.32         3.5 0.35                           283 257 
                                                                                
