 2017  525 0103 52.1 L   6.365 -74.123 74.2  RSN  4 0.4 1.3LRSN                1
 GAP=147        0.94       3.1     5.1  8.3  0.2462E+01 -0.6869E+01 -0.6151E+01E
 Epicentro: CIMITARRA - SANTANDER                                              3
 ACTION:UPD 17-06-16 13:38 OP:jn   STATUS:               ID:20170525010352 L   I
 OLDACT:REG 17-05-25 12:33 OP:ar   STATUS:               ID:20170525005738     3
 2017-05-25-0058-00M.COL___341                                                 6
 STAT SP IPHASW D HRMM SECON CODA AMPLIT PERI AZIMU VELO AIN AR TRES W  DIS CAZ7
 PTB  HZ EP        1 4  3.31                             148   -0.6010 41.6 298 
 PTB  HN ES        1 4 12.93                             148   -0.1510 41.6 298 
 PTB  HZ I         1 4 15.57         2.6 0.34            150           41.6 298 
 SPBC HZ EP        1 4  7.05                             128   -0.0710 79.0 176 
 SPBC HN ES        1 4 19.20                             128    0.4010 79.0 176 
 SPBC HZ I         1 4 20.00        11.6 0.36            133           79.0 176 
 BRR  HZ EP     D  1 4  8.46                             123   -0.0310 93.8  29 
 BRR  HN ES        1 4 21.26                             123    0.0310 93.8  29 
 BRR  HZ I         1 4 21.58        10.6 0.34            128           93.8  29 
 ZAR  HZ EP        1 4 14.37                             110   -0.21 9  149 327 
 ZAR  HN ES        1 4 32.77                             110    0.68 9  149 327 
                                                                                
