 2015  225 0012 52.8 L   6.633 -73.085172.0  RSN  7 0.5 1.7LRSN                1
 GAP=151        1.27       4.8     7.4 10.4 -0.8521E+01  0.1565E+02 -0.1020E+02E
 Epicentro: CURITI - SANTANDER                                                 3
 ACTION:UPD 15-04-30 21:29 OP:nd   STATUS:               ID:20150225001252 L   I
 OLDACT:UP  15-02-25 14:21 OP:mh   STATUS:               ID:20150225000744     3
 OLDACT:REG 15-02-25 13:27 OP:mh   STATUS:               ID:20150225000744     3
 2015-02-25-0007-44M.COL___288                                                 6
 STAT SP IPHASW D HRMM SECON CODA AMPLIT PERI AZIMU VELO AIN AR TRES W  DIS CAZ7
 RUS  HZ EP        013 18.29                             153    0.2310 81.9 180 
 RUS  HN ES        013 38.08                             153    0.2810 81.9 180 
 RUS  HZ I         013 41.91         3.3 0.22            155           81.9 180 
 PAM  SZ EP        013 19.36                             151    0.9110 89.0  29 
 PAM  SN ES        013 37.72                             151   -0.7810 89.0  29 
 PTB  HZ EP        013 22.62                             136    0.29 9  152 266 
 PTB  HN ES        013 45.36                             136   -0.03 9  152 266 
 PTB  HZ I         013 50.80         5.2 0.50            137            152 266 
 SPBC HN ES        013 46.16                             136    0.29 9  154 225 
 SPBC HZ I         013 49.42         7.4 0.26            137            154 225 
 CHI  HZ EP   1    013 29.92                             124   -0.50 6  233 198 
 CHI  HN ES        013 58.84                             124   -0.96 8  233 198 
 CHI  HZ I         014  1.64         1.6 0.28            126            233 198 
 SML  HZ EP        013 32.65                             120   -0.37 8  263 336 
 SML  HN ES        014  4.29                             120   -0.13 8  263 336 
 SML  HZ I         014  7.97         5.1 0.30            122            263 336 
 GUY2CHZ EP   4    013 39.47                             117    2.27 0  297 238 
 GUY2CHE ES   4    014 15.67                             117    3.80 0  297 238 
 GUY2CHZ I         014 20.09         2.1 0.28                           297 238 
                                                                                
