 2012  625 0105 53.7 L   6.763 -73.149151.7  RSN  4 0.4 1.1LRSN                1
 GAP=234        0.72       8.1     8.9  9.4  0.3113E+02  0.2862E+02 -0.1099E+01E
 Epicentro: LOS SANTOS - SANTANDER                                             3
 ACTION:UPD 12-08-06 17:52 OP:ep   STATUS:               ID:20120625010553 L   I
 2012-06-25-0100-00M.COL___198                                                 6
 STAT SP IPHASW D HRMM SECON CODA AMPLIT PERI AZIMU VELO AIN AR TRES W  DIS CAZ7
 BAR2 SZ ES   1    1 6 29.20                             172   -0.59 7 19.2 191 
 BRR  HZ EP   1    1 6 15.61                             153    0.01 7 72.9 302 
 BRR  HZ I         1 6 16.35         4.3 0.39                          72.9 302 
 BRR  HN ES   1    1 6 33.12                             153    0.45 7 72.9 302 
 RUS  HN ES   1    1 6 36.91                             146    0.38 7 96.5 176 
 RUS  HZ I         1 6 37.98         1.3 0.49                          96.5 176 
 PTB  HZ EP   1    1 6 20.94                             133   -0.13 7  147 260 
 PTB  HN ES   1    1 6 42.25                             133   -0.16 7  147 260 
 PTB  HZ I         1 6 43.34         1.2 0.33                           147 260 
                                                                                
