 2017  425 0843 19.9 L   6.773 -73.089146.2  RSN  6 0.4 1.5LRSN                1
 GAP=173        0.72       6.7     4.0  5.5  0.6521E-01  0.6650E+01 -0.2312E+01E
 Epicentro: LOS SANTOS - SANTANDER                                             3
 ACTION:UPD 17-05-30 21:15 OP:jn   STATUS:               ID:20170425084319 L   I
 OLDACT:UP  17-04-25 17:10 OP:and  STATUS:               ID:20170425083741d    3
 OLDACT:UP  17-04-25 17:10 OP:and  STATUS:               ID:20170425083741d    3
 OLDACT:UP  17-04-25 17:08 OP:and  STATUS:               ID:20170425083741d    3
 OLDACT:UP  17-04-25 17:08 OP:and  STATUS:               ID:20170425083741d    3
 OLDACT:UP  17-04-25 17:08 OP:and  STATUS:               ID:20170425083741d    3
 OLDACT:UP  17-04-25 17:07 OP:and  STATUS:               ID:20170425083741d    3
 OLDACT:DUP 17-04-25 17:04 OP:and  STATUS:               ID:20170425083741d    3
 2017-04-25-0838-00M.COL___361                                                 6
 STAT SP IPHASW D HRMM SECON CODA AMPLIT PERI AZIMU VELO AIN AR TRES W  DIS CAZ7
 BAR2 EZ IP     C  843 39.58                             171   -0.0310 22.5 207 
 BAR2 EZ ES        843 54.89                             171   -0.0510 22.5 207 
 BAR2 EZ I         843 56.08         6.8 0.39            170           22.5 207 
 PAM  EZ EP        843 42.34                             152    0.2210 76.0  34 
 PAM  EN ES        843 59.09                             152   -0.3310 76.0  34 
 PAM  EZ I         844  1.42         6.2 0.52            154           76.0  34 
 BRR  HZ EP        843 41.53                             150   -0.0110 78.1 298 
 BRR  HN ES        843 58.94                             150    0.5610 78.1 298 
 BRR  HZ I         844  2.32         4.4 0.16            151           78.1 298 
 PTB  HZ EP   2    843 47.35                             131   -0.11 5  153 260 
 PTB  HN ES   3    844  7.31                             131   -1.61 2  153 260 
 ZAR  HZ EP        843 53.06                             122   -0.07 8  211 292 
 ZAR  HN ES        844 18.73                             122   -0.28 8  211 292 
 ZAR  HZ I         844 19.92         1.5 0.09            123            211 292 
 CHI  HN ES   4    844 26.73                             117   -0.14 0  248 197 
 CHI  HZ I         844 28.56         2.7 0.30            119            248 197 
                                                                                
