 2013  925 0147 13.8 L   6.795 -73.136148.1  RSN  9 0.4 1.8LRSN                1
 GAP=138        1.05       3.5     4.3  6.1 -0.1714E+01  0.7239E+01 -0.1442E+01E
 Epicentro: LOS SANTOS - SANTANDER                                             3
 ACTION:UPD 13-10-22 09:24 OP:ep   STATUS:               ID:20130925014713 L   I
 OLDACT:REG 13-09-25 07:41 OP:nd   STATUS:               ID:20130925013959     3
 2013-09-25-0139-59M.COL___269                                                 6
 STAT SP IPHASW D HRMM SECON CODA AMPLIT PERI AZIMU VELO AIN AR TRES W  DIS CAZ7
 BAR2 SZ EP        147 33.77                             171    0.0710 23.0 193 
 BAR2 SZ ES        147 48.64                             171   -0.5910 23.0 193 
 BAR2 SZ I         147 50.55        12.0 0.46            171           23.0 193 
 BRR  HZ IP     C  147 35.67                             152    0.4010 72.4 299 
 BRR  HN ES        147 52.89                             152    0.8810 72.4 299 
 BRR  HZ I         147 55.57        10.2 0.16            150           72.4 299 
 PAM  SZ EP        147 36.55                             151    0.3010 77.1  39 
 PAM  SN ES        147 53.81                             151    0.0510 77.1  39 
 PAM  SZ I         147 56.27         5.1 0.60            154           77.1  39 
 RUS  HZ EP        147 37.93                             144    0.2010 99.9 177 
 RUS  HN ES        147 56.05                             144   -0.3510 99.9 177 
 RUS  HZ I         147 57.38         6.9 0.26            147           99.9 177 
 PTB  HZ EP        147 40.59                             132   -0.45 9  149 259 
 PTB  HN ES        148  1.70                             132   -0.59 9  149 259 
 PTB  HZ I         148  3.84         9.1 0.16            132            149 259 
 SPBC HZ EP        147 42.67                             129    0.17 9  163 219 
 SPBC HN ES        148  4.91                             129    0.02 9  163 219 
 SPBC HZ I         148 10.21         8.2 0.24            131            163 219 
 ZAR  HZ EP   2    147 45.86                             123   -0.66 4  205 292 
 ZAR  HN ES        148 12.25                             123    0.21 8  205 292 
 ZAR  HZ I         148 18.67         9.2 0.32            123            205 292 
 NOR  HZ EP        147 49.86                             119    0.14 8  235 235 
 NOR  HN ES        148 18.24                             119    0.50 8  235 235 
 NOR  HZ I         148 22.02         6.0 0.20            120            235 235 
 SML  HZ EP        147 50.19                             118   -0.47 8  245 335 
 SML  HN ES        148 18.84                             118   -0.57 8  245 335 
 SML  HZ I         148 25.64        11.3 0.13            119            245 335 
                                                                                
