 2012  925 0922 10.4 L   6.788 -73.150144.4  RSN  6 0.5 1.7LRSN                1
 GAP=137        1.03       6.8     5.9  9.5  0.1907E+01  0.8795E+01 -0.1057E+02E
 Epicentro: LOS SANTOS - SANTANDER                                             3
 ACTION:UPD 12-10-22 14:20 OP:ep   STATUS:               ID:20120925092210 L   I
 2012-09-25-0920-00M.COL___220                                                 6
 STAT SP IPHASW D HRMM SECON CODA AMPLIT PERI AZIMU VELO AIN AR TRES W  DIS CAZ7
 BAR2 SZ ES   1    922 43.97                             171   -0.99 7 22.0 189 
 BRR  HZ EP        922 31.56                             152    0.1810 71.5 300 
 BRR  HN ES   1    922 48.70                             152    0.93 7 71.5 300 
 BRR  HN I         922 52.01        29.7 0.16                          71.5 300 
 PAM  SZ EP        922 32.68                             150    0.1710 78.7  39 
 PAM  SN ES   1    922 49.58                             150   -0.21 7 78.7  39 
 PAM  SN I         922 51.03        12.7 0.42                          78.7  39 
 RUS  HZ EP   1    922 33.98                             144    0.09 7 99.3 176 
 RUS  HN ES   1    922 52.58                             144    0.35 7 99.3 176 
 PTB  HE ES   1    922 57.93                             132   -0.12 7  147 259 
 PTB  HE I         923  0.81         3.6 0.62                           147 259 
 ZAR  HZ EP   1    922 41.94                             122   -0.79 6  204 293 
 ZAR  HN ES   1    923  7.80                             122   -0.17 6  204 293 
 ZAR  HZ I         923 13.28         2.7 0.24                           204 293 
                                                                                
