 2017  425 0439 33.5 L   5.839 -73.730121.5  RSN 16 0.6 1.6LRSN                1
 GAP=100        1.21       2.9     3.3  6.4 -0.1458E+01 -0.4694E+00  0.2365E+01E
 Epicentro: PUENTE NACIONAL - SANTANDER                                        3
 ACTION:UPD 17-05-30 21:15 OP:jn   STATUS:               ID:20170425043933 L   I
 OLDACT:UP  17-04-25 14:02 OP:and  STATUS:               ID:20170425043744     3
 OLDACT:UP  17-04-25 14:02 OP:and  STATUS:               ID:20170425043744     3
 OLDACT:UP  17-04-25 14:01 OP:and  STATUS:               ID:20170425043744     3
 OLDACT:UP  17-04-25 14:01 OP:and  STATUS:               ID:20170425043744     3
 OLDACT:UP  17-04-25 14:01 OP:and  STATUS:               ID:20170425043744     3
 OLDACT:UP  17-04-25 14:00 OP:and  STATUS:               ID:20170425043744     3
 OLDACT:UP  17-04-25 13:59 OP:and  STATUS:               ID:20170425043744     3
 OLDACT:UP  17-04-25 13:59 OP:and  STATUS:               ID:20170425043744     3
 OLDACT:UP  17-04-25 13:58 OP:and  STATUS:               ID:20170425043744     3
 OLDACT:UP  17-04-25 13:58 OP:and  STATUS:               ID:20170425043744     3
 OLDACT:UP  17-04-25 13:57 OP:and  STATUS:               ID:20170425043744     3
 OLDACT:UP  17-04-25 13:57 OP:and  STATUS:               ID:20170425043744     3
 OLDACT:UP  17-04-25 13:57 OP:and  STATUS:               ID:20170425043744     3
 OLDACT:UP  17-04-25 13:57 OP:and  STATUS:               ID:20170425043744     3
 OLDACT:UP  17-04-25 13:55 OP:and  STATUS:               ID:20170425043744     3
 OLDACT:UP  17-04-25 13:55 OP:and  STATUS:               ID:20170425043744     3
 OLDACT:UP  17-04-25 13:55 OP:and  STATUS:               ID:20170425043744     3
 OLDACT:UP  17-04-25 13:54 OP:and  STATUS:               ID:20170425043744     3
 OLDACT:UP  17-04-25 13:54 OP:and  STATUS:               ID:20170425043744     3
 OLDACT:REG 17-04-25 12:17 OP:and  STATUS:               ID:20170425043744     3
 2017-04-25-0438-00M.COL___368                                                 6
 STAT SP IPHASW D HRMM SECON CODA AMPLIT PERI AZIMU VELO AIN AR TRES W  DIS CAZ7
 SPBC HZ EP        439 50.31                             159   -0.3310 43.2 241 
 SPBC HN ES        440  4.18                             159    0.1510 43.2 241 
 SPBC HZ I         440  4.94        24.1 0.30            156           43.2 241 
 BAR2 EZ EP        439 54.79                             137    0.0410  103  36 
 BAR2 EZ ES        440 11.06                             137   -0.3010  103  36 
 PTB  HZ EP        439 54.40                             134   -0.7910  112 314 
 PTB  HN ES        440 11.26                             134   -0.8810  112 314 
 PTB  HZ I         440 11.93         4.1 0.46            133            112 314 
 ROSC BN ES   3    440 17.79                             130    2.05 2  128 211 
 ROSC BZ I         440 20.16         8.3 0.40            129            128 211 
 NOR  HZ EP        439 56.90                             130    0.0110  130 256 
 NOR  HN ES        440 15.66                             130    0.5010  130 256 
 NOR  HZ I         440 16.93        16.8 0.14            128            130 256 
 CHI  HZ EP        439 57.47                             129   -0.2710  134 180 
 CHI  HN ES        440 17.76                             129    1.0810  134 180 
 CHI  HZ I         440 19.72         3.6 0.26            128            134 180 
 BRR  HZ EP        439 57.58                             127   -0.22 9  140   1 
 BRR  HN ES        440 17.20                             127    0.41 9  140   1 
 BRR  HZ I         440 19.96         6.2 0.22            127            140   1 
 PAM  EZ EP        440  5.46                             117    0.70 9  201  34 
 PAM  EN ES        440 29.56                             117    0.39 9  201  34 
 PAM  EZ I         440 35.72         3.5 0.38            117            201  34 
 HEL  HZ EP        440  4.91                             117    0.12 9  203 281 
 HEL  HE ES   3    440 31.63                             117    2.40 2  203 281 
 HEL  HZ I         440 34.60         6.0 0.42            116            203 281 
 ELA  HZ EP   9    440 10.49                             115    4.23 0  214 240 
 ELA  HN ES        440 35.21                             116   -0.86 8  214 240 
 ELA  HZ I         440 38.12         3.1 0.42            114            214 240 
 ZAR  HZ EP   9    440  5.30                             114   -1.05 0  221 326 
 ZAR  HN ES        440 30.80                             114   -0.16 8  221 326 
 ZAR  HZ I         440 32.01         4.6 0.15            114            221 326 
 PTGC HZ EP   2    440  9.44                             111   -0.52 4  253 136 
 PTGC HN ES        440 37.69                             111   -0.73 8  253 136 
 CBOC HZ EP   2    440 10.25                             111    0.15 4  253 271 
 CBOC HN ES        440 38.44                             111   -0.25 8  253 271 
 CBOC HZ I         440 48.43         1.5 0.54            110            253 271 
 PRA  HZ EP        440 11.42                             110   -0.23 8  268 209 
 PRA  HN ES        440 40.87                             110   -0.57 8  268 209 
 PRA  HZ I         440 44.83         2.7 0.16            109            268 209 
 ORTC HZ EP        440 12.36                             109    0.25 8  272 218 
 ORTC HN ES   3    440 43.94                             109    1.69 2  272 218 
 ORTC HZ I         440 46.83         2.1 0.22            108            272 218 
 DBB  EZ EP        440 16.20                             107    0.33 7  304 296 
 DBB  EN ES        440 49.57                             107    0.63 7  304 296 
 DBB  EZ I         440 51.42         2.7 0.38            106            304 296 
 MACC HZ EP   4    440 26.20                             101   -2.01 0  409 182 
 MACC HN ES   4    441  7.77                             101   -3.14 0  409 182 
                                                                                
