 2013  625 0245 50.6 L   6.793 -73.150145.2  RSN  9 0.4 1.8LRSN                1
 GAP=136        1.04       4.4     5.3  6.4  0.3737E+01  0.1468E+01 -0.4708E+01E
 Epicentro: LOS SANTOS - SANTANDER                                             3
 ACTION:UPD 14-01-08 09:56 OP:ep   STATUS:               ID:20130625024550 L   I
 OLDACT:REG 13-06-25 06:31 OP:jn   STATUS:               ID:20130625023959     3
 2013-06-25-0239-59M.COL___267                                                 6
 STAT SP IPHASW D HRMM SECON CODA AMPLIT PERI AZIMU VELO AIN AR TRES W  DIS CAZ7
 BAR2 SZ EP        246 10.32                             171    0.1510 22.5 189 
 BAR2 SZ ES        246 25.56                             171    0.1410 22.5 189 
 BAR2 SZ I         246 26.56        10.5 0.16            174           22.5 189 
 GIR2 SZ EP        246 10.37                             167    0.1210 31.9 351 
 GIR2 SZ ES        246 24.88                             167   -0.6810 31.9 351 
 BRR  HZ EP     D  246 12.11                             152    0.4010 71.2 299 
 BRR  HN ES        246 29.02                             152    0.8610 71.2 299 
 BRR  HZ I         246 29.90        14.1 0.12            151           71.2 299 
 PAM  SZ EP        246 13.20                             150    0.3710 78.2  39 
 PAM  SZ I         246 32.24        12.4 0.54            143           78.2  39 
 RUS  HZ EP        246 14.36                             144    0.0910 99.9 176 
 RUS  HN ES        246 32.33                             144   -0.3810 99.9 176 
 RUS  HZ I         246 34.16         5.6 0.32            144           99.9 176 
 PTB  HZ EP        246 17.15                             132   -0.34 9  147 259 
 PTB  HN ES        246 38.13                             132   -0.32 9  147 259 
 PTB  HZ I         246 41.11         8.9 0.14            131            147 259 
 OCA  HN ES   1    246 40.53                             129   -0.52 7  161 353 
 OCA  HZ I         246 44.95         7.6 0.50            124            161 353 
 ZAR  HE ES   1    246 48.37                             122    0.09 6  204 292 
 ZAR  HZ I         246 54.88        11.7 0.32            120            204 292 
 SML  HZ EP        246 26.97                             117   -0.30 8  244 335 
 SML  HN ES   2    246 55.13                             117   -0.72 4  244 335 
                                                                                
