 2012  325 0519 10.7 L   6.573 -73.552107.6  RSN  8 0.4 1.7LRSN                1
 GAP= 87        0.82       5.0     4.1 10.5 -0.8673E+01  0.1925E+02 -0.4855E+01E
 ACTION:UP  12-03-31 23:22 OP:EP   STATUS:               ID:20120325051910 L   I
 2012-03-25-0517-59S.COL___205                                                 6
 STAT SP IPHASW D HRMM SECON CODA AMPLIT PERI AZIMU VELO SNR AR TRES W  DIS CAZ7
 BAR2 SZ EP   2    519 26.80                             158     0.3 5   41  87 
 BAR2 SZ ES   2    519 39.15                             158     0.4 5   41  87 
 BAR2 SZ I         519 40.77        56.5 0.36                            41  87 
 BRR  HZ EP   2    519 27.71                             148     0.4 5   62 343 
 BRR  HZ I         519 50.06         9.9 0.11                            62 343 
 RUS  HZ EP   1    519 29.90                             137    -0.3 8   91 145 
 RUS  HN ES   2    519 45.70                             137     0.3 5   91 145 
 RUS  HZ I         519 46.75         5.0 0.24                            91 145 
 PTB  HZ EP   1    519 29.59                             133    -0.7 8  100 268 
 PTB  HN ES   2    519 44.79                             133    -0.7 5  100 268 
 PTB  HZ I         519 45.52         7.3 0.14                           100 268 
 PAM  SZ EP   1    519 33.48                             127     0.1 7  127  48 
 PAM  SE ES        519 50.91                             127    -0.210  127  48 
 ZAR  HZ EP   2    519 38.75                             116     0.8 5  176 305 
 ZAR  HN ES   2    519 59.75                             116     0.5 5  176 305 
 ZAR  HZ I         520  3.58         7.8 0.26                           176 305 
 NOR  SZ EP   2    519 38.43                             115    -0.4 5  184 233 
 NOR  SN ES   1    520  1.09                             115     0.4 7  184 233 
 HEL  HZ EP   1    519 43.94                             110     0.3 6  223 259 
 HEL  HE ES   2    520  9.18                             110    -0.1 4  223 259 
 HEL  HZ I         520 13.67         4.0 0.30                           223 259 
                                                                                
