 2016  725 0348  6.6 L   6.794 -73.126148.2  RSN  6 0.4 2.3LRSN                1
 GAP=239        0.94       4.7     6.7  6.8  0.1315E+02  0.8116E+01  0.8178E+01E
 Epicentro: LOS SANTOS - SANTANDER                                             3
 OLDACT:UP  16-07-25 18:01 OP:edw  STATUS:               ID:20160725033760d    3
 OLDACT:DUP 16-07-25 17:21 OP:edw  STATUS:               ID:20160725033760d    3
 ACTION:UPD 17-03-29 16:54 OP:lp   STATUS:               ID:20160725034806 L   I
 OLDACT:UP  16-07-25 18:07 OP:edw  STATUS:               ID:20160725033760d    3
 OLDACT:UP  16-07-25 18:04 OP:edw  STATUS:               ID:20160725033760d    3
 OLDACT:UP  16-07-25 18:03 OP:edw  STATUS:               ID:20160725033760d    3
 2016-07-25-0337-59S.COL___337                                                 6
 STAT SP IPHASW D HRMM SECON CODA AMPLIT PERI AZIMU VELO AIN AR TRES W  DIS CAZ7
 BAR2 EZ EP        348 26.44                             171   -0.1210 23.2 195 
 BAR2 EZ ES        348 41.76                             171   -0.3410 23.2 195 
 BRR  HZ EP        348 28.38                             152    0.2010 73.4 298 
 BRR  HN ES        348 45.52                             152    0.5510 73.4 298 
 BRR  HZ I         348 49.49        23.8 0.16            152           73.4 298 
 RUS  HZ EP        348 30.07                             145   -0.5110 99.8 177 
 RUS  HN ES        348 49.50                             145    0.2510 99.8 177 
 RUS  HZ I         348 50.43        34.6 0.32            147           99.8 177 
 SPBC HZ EP        348 35.44                             129    0.03 9  164 220 
 SPBC HN ES        348 57.32                             129   -0.52 9  164 220 
 SPBC HZ I         348 59.21        35.0 0.30            131            164 220 
 ZAR  HN ES        349  4.80                             123   -0.28 8  206 292 
 CHI  HZ EP        348 44.89                             118    0.42 8  249 196 
 CHI  HE ES        349 14.46                             118    0.49 8  249 196 
                                                                                
