 2010  825 0246 48.9 L   6.821 -73.037136.4  RSN  7 0.3 1.9LRSN                1
 GAP=194        0.55       3.6     8.0  5.4  0.5203E+01 -0.6511E+01 -0.2090E+01E
 Epicentro: CEPITA - SANTANDER                                                 3
 ACTION:UP  10-09-07 10:57 OP:vdl  STATUS:               ID:20100825024648 L   I
 2010-08-25-0242-31S.COL___121                                                 6
 STAT SP IPHASW D HRMM SECON CODA AMPLIT PERI AZIMU VELO SNR AR TRES W  DIS CAZ7
 BTL  SZ EP        247  7.77                             168     0.210   28 293 
 BAR2 SZ EP   1    247  7.40                             167    -0.2 7   30 213 
 BAR2 SZ ES   1    247 21.74                             167    -0.4 7   30 213 
 BAR2 SZ I         247 23.83         9.8 0.18                            30 213 
 GIR2 SZ EP   2    247  7.72                             165     0.2 5   33 329 
 BRR  HZ IP     C  247  9.52                             147    -0.210   81 293 
 BRR  HE ES   1    247 26.14                             147     0.3 7   81 293 
 BRR  HZ I         247 30.64        19.9 0.13                            81 293 
 RUS  HZ EP   2    247 12.13                             141     0.2 5  103 183 
 RUS  HN ES   2    247 30.25                             141     0.4 5  103 183 
 OCA  SZ EP   1    247 16.30                             127    -0.2 7  160 349 
 OCA  SZ ES   2    247 38.05                             127     0.1 5  160 349 
 OCA  SZ I         247 41.73         8.4 0.37                           160 349 
 PRA  HZ EP   1    247 43.20                             104     0.1 4  400 211 
 PRA  HN ES   2    248 24.83                             104    -0.5 3  400 211 
 PRA  HZ I         248 28.64         2.9 0.33                           400 211 
                                                                                
