 2012  425 0808 30.5 L   6.762 -73.156139.1  RSN  7 0.3 1.6LRSN                1
 GAP=137        0.73       4.0     4.2  7.6  0.1152E+01  0.4282E+01 -0.5767E+01E
 Epicentro: LOS SANTOS - SANTANDER                                             3
 *FLO2                                                                         3
 ACTION:UPD 12-07-05 11:55 OP:tino STATUS:               ID:20120425080830 L   I
 2012-04-25-0800-00M.COL___186                                                 6
 STAT SP IPHASW D HRMM SECON CODA AMPLIT PERI AZIMU VELO AIN AR TRES W  DIS CAZ7
 BAR2 SZ EP   1    8 8 49.33                             172     0.1 7   19 189 
 BAR2 SZ I         8 9 10.84         5.7 0.26                            19 189 
 BRR  HZ EP   1    8 8 51.06                             151     0.1 7   72 302 
 BRR  HN ES   1    8 9  7.57                             151     0.6 7   72 302 
 BRR  HZ I         8 9 10.26         9.3 0.12                            72 302 
 PAM  SZ EP   1    8 8 52.08                             148    -0.2 7   81  38 
 PAM  SN ES   1    8 9  8.85                             148    -0.4 7   81  38 
 RUS  HZ EP   1    8 8 53.75                             144     0.5 7   96 175 
 RUS  HN ES        8 9 10.98                             144    -0.110   96 175 
 RUS  HZ I         8 9 13.24         4.9 0.44                            96 175 
 PTB  HZ EP   1    8 8 56.38                             131    -0.4 7  146 260 
 PTB  HN ES   1    8 9 17.01                             131    -0.2 7  146 260 
 OCA  SZ EP   1    8 8 58.94                             127     0.3 7  164 354 
 ZAR  HN ES   1    8 9 27.40                             121    -0.2 6  205 293 
 ZAR  HZ I         8 9 32.60         8.1 0.18                           205 293 
                                                                                
