 2011  925 0018 20.8 L   6.794 -73.147146.2  RSN  6 0.1 1.6LRSN                1
 GAP=137        0.37       2.2     3.3  3.2  0.1366E+00 -0.4084E+00  0.1813E+01E
 Epicentro: LOS SANTOS - SANTANDER                                             3
 ACTION:UPD 12-07-13 15:59 OP:ep   STATUS:               ID:20110925001820 L   I
 2011-09-25-0015-45S.COL___165                                                 6
 STAT SP IPHASW D HRMM SECON CODA AMPLIT PERI AZIMU VELO AIN AR TRES W  DIS CAZ7
 BTL  SZ EP   1    018 40.50                             172    0.14 7 19.2 316 
 BAR2 SZ EP   1    018 40.00                             171   -0.42 7 22.7 190 
 BAR2 SZ ES   1    018 55.78                             171    0.01 7 22.7 190 
 BAR2 SZ I         018 56.58         9.1 0.21                          22.7 190 
 BRR  HZ EP        018 42.03                             152    0.0710 71.4 299 
 BRR  HN ES        018 58.48                             152   -0.0210 71.4 299 
 BRR  HZ I         019  0.39        13.3 0.19                          71.4 299 
 PAM  SZ EP   1    018 43.17                             151    0.12 7 77.9  39 
 PAM  SN ES   1    019  0.40                             151   -0.04 7 77.9  39 
 RUS  HZ EP   1    018 44.50                             144    0.00 7100.0 176 
 RUS  HE ES   1    019  3.13                             144    0.10 7100.0 176 
 RUS  HZ I         019  5.29         4.8 0.22                         100.0 176 
 CHI  HZ EP   1    018 58.40                             117   -0.01 6  248 195 
 CHI  HE ES   2    019 27.80                             117    0.02 4  248 195 
 CHI  HZ I         019 34.16         2.4 0.37                           248 195 
                                                                                
