 2016  525 0846 45.0 L   6.799 -73.144148.5  RSN  7 0.4 1.7LRSN                1
 GAP=137        1.03       3.8     5.1  6.7 -0.4890E+01  0.4591E+01  0.2935E+00E
 Epicentro: LOS SANTOS - SANTANDER                                             3
 ACTION:UPD 16-08-18 17:49 OP:cam  STATUS:               ID:20160525084645 L   I
 OLDACT:REG 16-05-25 13:11 OP:mh   STATUS:               ID:20160525083743     3
 2016-05-25-0837-43M.COL___310                                                 6
 STAT SP IPHASW D HRMM SECON CODA AMPLIT PERI AZIMU VELO AIN AR TRES W  DIS CAZ7
 BAR2 EZ EP        847  4.99                             171    0.0710 23.3 190 
 BAR2 EZ ES        847 20.20                             171   -0.2810 23.3 190 
 BAR2 EZ I         847 21.86        15.7 0.28            169           23.3 190 
 BRR  HZ EP        847  6.66                             153    0.2410 71.4 299 
 BRR  HN ES        847 23.81                             153    0.6610 71.4 299 
 BRR  HZ I         847 27.95         9.6 0.37            150           71.4 299 
 PAM  EZ EP        847  7.90                             151    0.4310 77.4  39 
 PAM  EN ES        847 25.28                             151    0.2610 77.4  39 
 PAM  EZ I         847 27.66         5.8 0.20            156           77.4  39 
 RUS  HZ EP        847  9.11                             144    0.1310  100 176 
 RUS  HN ES        847 27.10                             144   -0.6010  100 176 
 RUS  HZ I         847 29.26         5.1 0.16            147            100 176 
 PTB  HZ EP        847 11.85                             132   -0.31 9  148 259 
 PTB  HN ES        847 33.22                             132   -0.16 9  148 259 
 PTB  HZ I         847 40.02         5.3 0.22            132            148 259 
 OCA  HZ EP   1    847 13.02                             130   -0.48 7  160 353 
 OCA  HN ES        847 35.00                             130   -0.75 9  160 353 
 OCA  HZ I         847 38.96        10.9 0.28            132            160 353 
 SPBC HZ EP        847 13.99                             130    0.32 9  163 219 
 SPBC HN ES        847 36.16                             130    0.10 9  163 219 
 SPBC HZ I         847 44.28                             131            163 219 
                                                                                
