 2015  125 0229 42.8 L   6.814 -73.136147.8  RSN  7 0.3 1.5LRSN                1
 GAP=137        0.75       3.8     3.7  5.7  0.1606E+01  0.5309E+01  0.6213E+00E
 Epicentro: LOS SANTOS - SANTANDER                                             3
 ACTION:UPD 15-03-02 15:42 OP:nd   STATUS:               ID:20150125022942 L   I
 OLDACT:REG 15-01-25 12:24 OP:spq  STATUS:               ID:20150125022743     3
 2015-01-25-0227-43M.COL___271                                                 6
 STAT SP IPHASW D HRMM SECON CODA AMPLIT PERI AZIMU VELO AIN AR TRES W  DIS CAZ7
 BAR2 EZ ES   1    230 17.86                             170   -0.39 7 25.1 192 
 BAR2 EZ I         230 18.51         6.1 0.22            171           25.1 192 
 BRR  HZ EP        230  4.52                             153    0.3310 71.5 297 
 BRR  HE ES        230 21.19                             153    0.3210 71.5 297 
 BRR  HZ I         230 24.98         6.3 0.36            150           71.5 297 
 PAM  SZ EP        230  5.51                             152    0.3810 75.5  40 
 PAM  SE ES        230 22.40                             152   -0.1410 75.5  40 
 PAM  SZ I         230 24.34         4.9 0.52            153           75.5  40 
 RUS  HZ EP        230  6.76                             144   -0.1010  102 177 
 RUS  HN ES   1    230 25.65                             144    0.02 7  102 177 
 RUS  HZ I         230 27.30         1.5 0.36            147            102 177 
 PTB  HZ EP        230  9.54                             132   -0.53 9  149 258 
 PTB  HN ES   1    230 31.42                             132    0.09 7  149 258 
 PTB  HZ I         230 34.30         2.9 0.10            132            149 258 
 ZAR  HZ EP   1    230 15.65                             123    0.22 6  205 292 
 ZAR  HN ES        230 40.85                             123   -0.03 9  205 292 
 ZAR  HZ I         230 49.12         3.5 0.34            123            205 292 
 SML  HE ES   1    230 47.37                             118   -0.65 6  243 335 
 SML  HZ I         230 53.01         6.1 0.10            118            243 335 
                                                                                
