 2015 1225 0756 24.0 L   6.810 -73.140141.4  RSN 10 0.5 1.7LRSN                1
 GAP=151        1.13       4.1     4.9  6.8 -0.7248E+01  0.6943E+01  0.2006E+01E
 Epicentro: LOS SANTOS - SANTANDER                                             3
 ACTION:UPD 16-02-04 15:07 OP:cam  STATUS:               ID:20151225075624 L   I
 OLDACT:DUP 15-12-25 16:11 OP:dnl  STATUS:               ID:20151225074750d    3
 OLDACT:UP  15-12-25 16:07 OP:dnl  STATUS:               ID:20151225074749     3
 OLDACT:REG 15-12-25 13:06 OP:dnl  STATUS:               ID:20151225074749     3
 2015-12-25-0747-49M.COL___334                                                 6
 STAT SP IPHASW D HRMM SECON CODA AMPLIT PERI AZIMU VELO AIN AR TRES W  DIS CAZ7
 BAR2 EZ EP        756 43.18                             170    0.0810 24.5 191 
 BAR2 EZ ES        756 57.45                             170   -0.5810 24.5 191 
 BAR2 EZ I         757  0.21         7.9 0.25            168           24.5 191 
 BRR  HZ EP        756 44.94                             152    0.2910 71.2 298 
 BRR  HN ES        757  1.67                             152    0.8910 71.2 298 
 BRR  HZ I         757  5.83        10.0 0.17            152           71.2 298 
 PAM  EZ EP        756 46.00                             150    0.3510 76.2  40 
 PAM  EN ES        757  2.92                             150    0.3610 76.2  40 
 PAM  EZ I         757  4.86        11.1 0.36            155           76.2  40 
 PTB  HZ EP        756 50.07                             131   -0.59 9  149 258 
 PTB  HN ES        757 10.94                             131   -0.54 9  149 258 
 OCA  HZ EP        756 51.64                             129   -0.21 9  159 353 
 OCA  HE ES        757 12.59                             129   -1.01 9  159 353 
 OCA  HZ I         757 16.58        10.5 0.29            132            159 353 
 SPBC HZ EP        756 52.50                             128    0.24 9  164 219 
 SPBC HN ES        757 14.11                             128   -0.21 9  164 219 
 SPBC HZ I         757 19.44         5.0 0.09            129            164 219 
 ZAR  HZ EP        756 56.45                             121    0.30 9  204 292 
 ZAR  HN ES        757 21.68                             121    0.43 9  204 292 
 ZAR  HZ I         757 26.89         5.1 0.22            123            204 292 
 NOR  HZ EP   2    756 58.85                             117   -0.72 4  236 234 
 NOR  HE ES        757 27.47                             117    0.13 8  236 234 
 NOR  HZ I         757 31.47         3.2 0.18            119            236 234 
 CHI  HZ EP   2    757  1.72                             116    0.15 4  250 195 
 CHI  HN ES   2    757 30.74                             116   -0.15 4  250 195 
 CHI  HZ I         757 35.28         1.6 0.31            118            250 195 
 PRA  HZ EP   2    757 17.49                             106   -0.00 3  393 210 
 PRA  HN ES   2    758  0.37                             106    1.13 3  393 210 
 PRA  HZ I         758  5.24         1.9 0.26            107            393 210 
                                                                                
