 2014  125 0507 24.0 L   6.780 -73.163133.5  RSN 10 0.3 1.6LRSN                1
 GAP=135        0.86       2.6     4.3  5.2 -0.2663E+01  0.7891E+01 -0.2874E+00E
 Epicentro: LOS SANTOS - SANTANDER                                             3
 ACTION:UPD 14-03-13 09:58 OP:ep   STATUS:               ID:20140125050724 L   I
 OLDACT:REG 14-01-25 08:19 OP:nd   STATUS:               ID:20140125050000     3
 2014-01-25-0500-00M.COL___285                                                 6
 STAT SP IPHASW D HRMM SECON CODA AMPLIT PERI AZIMU VELO AIN AR TRES W  DIS CAZ7
 BAR2 SZ EP        5 7 42.46                             171    0.4010 20.9 186 
 BAR2 SZ ES        5 7 56.42                             171    0.2310 20.9 186 
 BAR2 SZ I         5 8  0.13        11.9 0.22            170           20.9 186 
 PAM  SZ EP        5 7 45.60                             147    0.5310 80.3  40 
 PAM  SN ES        5 8  0.77                             147   -0.7710 80.3  40 
 PAM  SZ I         5 8  5.54         4.8 0.60            153           80.3  40 
 RUS  HZ EP     D  5 7 46.31                             142   -0.0610 98.6 175 
 RUS  HN ES        5 8  4.05                             142    0.2010 98.6 175 
 RUS  HZ I         5 8  5.86         4.8 0.26            145           98.6 175 
 PTB  HZ EP        5 7 49.54                             130   -0.19 9  145 260 
 PTB  HN ES        5 8  9.58                             130   -0.26 9  145 260 
 PTB  HZ I         5 8 10.82         4.0 0.12            130            145 260 
 SPBC HZ EP        5 7 51.21                             127   -0.04 9  160 219 
 SPBC HN ES        5 8 12.54                             127   -0.01 9  160 219 
 SPBC HZ I         5 8 21.86         4.1 0.30            128            160 219 
 ZAR  HZ EP   4    5 7 47.62                             120   -7.91 0  203 293 
 ZAR  HN ES   4    5 8 20.87                             120    0.72 0  203 293 
 ZAR  HZ I         5 8 26.59         3.8 0.22            121            203 293 
 SML  HZ EP        5 7 59.75                             115   -0.30 8  245 336 
 SML  HN ES        5 8 28.74                             115    0.53 8  245 336 
 SML  HZ I         5 8 35.31         5.8 0.24            117            245 336 
 CHI  HZ EP        5 8  0.43                             115   -0.28 8  246 195 
 CHI  HN ES        5 8 29.24                             115   -0.15 8  246 195 
 CHI  HZ I         5 8 35.66         1.1 0.26            117            246 195 
 PRA  HZ EP        5 8 16.48                             104   -0.26 6  389 209 
 PRA  HN ES        5 8 58.22                             104    0.31 6  389 209 
 PRA  HZ I         5 9  4.15         1.5 0.36            107            389 209 
 SJC  HZ EP   4    5 8 17.61                             104   -1.62 0  410 327 
 SJC  HN ES   4    5 8 57.98                             104   -4.36 0  410 327 
 SJC  HZ I         5 8 59.00         3.5 0.88            106            410 327 
                                                                                
