 2012 1225 0752 25.0 L   6.718 -73.193157.2  RSN  4 0.1 0.9LRSN                1
 GAP=226        0.39       4.3     4.2  5.1  0.9133E+01 -0.2964E+01 -0.2125E+01E
 Epicentro: VILLANUEVA - SANTANDER                                             3
 ACTION:UPD 13-01-04 14:30 OP:ep   STATUS:               ID:20121225075225 L   I
 2012-12-25-0750-00M.COL___242                                                 6
 STAT SP IPHASW D HRMM SECON CODA AMPLIT PERI AZIMU VELO AIN AR TRES W  DIS CAZ7
 BAR2 SZ EP   1    752 45.65                             175   -0.25 7 14.0 175 
 BRR  HZ EP   1    752 47.40                             154   -0.05 7 71.7 307 
 BRR  HE ES   1    753  5.08                             154    0.14 7 71.7 307 
 BRR  HZ I         753 12.76         1.4 0.30                          71.7 307 
 RUS  HZ EP   1    752 49.51                             148    0.14 7 92.1 172 
 RUS  HE ES   1    753  8.35                             148    0.01 7 92.1 172 
 RUS  HZ I         753  9.37         0.8 0.32                          92.1 172 
 PTB  HZ EP   1    752 52.54                             136    0.16 7  141 262 
 PTB  HN ES   1    753 13.57                             136   -0.14 7  141 262 
 PTB  HZ I         753 19.61         1.7 0.56                           141 262 
                                                                                
