 2012  225 0816  3.6 L   6.783 -73.192145.3  RSN  5 0.4 1.1LRSN                1
 GAP=173        0.80       6.6     6.8  7.6  0.1230E+02  0.8741E+01  0.7982E+01E
 ACTION:DUP 12-03-07 16:34 OP:epov STATUS:               ID:20120225081603 L   I
 2012-02-25-0810-00M.COL___192                                                 6
 STAT SP IPHASW D HRMM SECON CODA AMPLIT PERI AZIMU VELO AIN AR TRES W  DIS CAZ7
 BAR2 SZ EP   1    816 23.04                             171   -0.04 7 21.1 177 
 BAR2 SZ ES   1    816 37.90                             171   -0.41 7 21.1 177 
 BAR2 SZ I         816 39.03         5.4 0.22                          21.1 177 
 GIR2 SZ EP   1    816 23.14                             167   -0.07 7 32.7 360 
 GIR2 SZ ES   1    816 38.15                             167   -0.38 7 32.7 360 
 BRR  HZ EP   1    816 24.48                             154    0.02 7 67.7 302 
 BRR  HN ES   1    816 41.63                             154    0.87 7 67.7 302 
 RUS  HZ EP   1    816 27.13                             144   -0.03 7 99.2 173 
 RUS  HN ES   1    816 45.99                             144    0.42 7 99.2 173 
 RUS  HZ I         816 46.46         1.1 0.28                          99.2 173 
 PTB  HZ EP   1    816 30.08                             133    0.08 7  142 259 
 PTB  HN ES   1    816 50.10                             133   -0.52 7  142 259 
                                                                                
