 2013  325 0942 47.5 L   6.792 -73.150149.2  RSN 11 0.5 1.7LRSN                1
 GAP=136        0.96       3.6     5.1  6.7  0.9712E-01  0.9751E+01  0.8343E+00E
 Epicentro: LOS SANTOS - SANTANDER                                             3
 ACTION:UPD 13-04-09 14:04 OP:ep   STATUS:               ID:20130325094247 L   I
 2013-03-25-0940-00M.COL___244                                                 6
 STAT SP IPHASW D HRMM SECON CODA AMPLIT PERI AZIMU VELO AIN AR TRES W  DIS CAZ7
 BAR2 SZ EP        943  7.39                             171   -0.1110 22.4 189 
 BAR2 SZ ES   1    943 22.99                             171   -0.13 7 22.4 189 
 BAR2 SZ I         943 25.26        17.1 0.30            170           22.4 189 
 BRR  HZ EP        943  9.43                             153    0.4310 71.2 299 
 BRR  HE ES   1    943 26.88                             153    1.10 7 71.2 299 
 BRR  HZ I         943 31.01         7.5 0.30            151           71.2 299 
 PAM  SZ EP   1    943 10.56                             151    0.44 7 78.4  39 
 PAM  SN ES   1    943 27.16                             151   -0.62 7 78.4  39 
 PAM  SZ I         943 33.79         1.6 0.18            156           78.4  39 
 RUS  HZ EP   1    943 11.26                             145   -0.25 7 99.7 176 
 RUS  HN ES   1    943 30.43                             145    0.18 7 99.7 176 
 RUS  HZ I         943 30.91         4.3 0.28            148           99.7 176 
 PTB  HZ EP        943 14.20                             133   -0.47 9  147 259 
 PTB  HN ES   1    943 35.29                             133   -0.59 7  147 259 
 PTB  HZ I         943 42.57        11.2 0.30            133            147 259 
 OCA  HZ EP   1    943 16.49                             130    0.36 7  161 353 
 OCA  HN ES   2    943 38.44                             130   -0.04 5  161 353 
 OCA  HZ I         943 42.24        10.4 0.30            133            161 353 
 ZAR  HZ EP   1    943 19.91                             123   -0.23 6  204 292 
 ZAR  HE ES   1    943 45.54                             123   -0.07 6  204 292 
 ZAR  HZ I         943 51.73         5.3 0.22            124            204 292 
 SML  HZ EP   1    943 24.10                             118   -0.26 6  244 335 
 SML  HN ES   1    943 52.27                             118   -0.86 6  244 335 
 SML  HZ I         943 57.17         8.3 0.20            120            244 335 
 CHI  HZ EP   1    943 25.58                             118    0.32 6  248 195 
 CHI  HN ES   1    943 54.47                             118   -0.26 6  248 195 
 CHI  HZ I         943 59.85         2.3 0.62            121            248 195 
 HEL  HZ EP   1    943 29.07                             115    1.28 6  271 256 
 HEL  HN ES   2    943 59.39                             115    0.15 4  271 256 
 HEL  HZ I         944  6.47         4.3 0.30            117            271 256 
 PRA  HZ EP   2    943 41.14                             107    0.14 3  391 210 
 PRA  HN ES   1    944 22.11                             107   -0.64 4  391 210 
 PRA  HZ I         944 28.53         2.2 0.22            109            391 210 
                                                                                
