 2013  825 0736 12.5 L   6.543 -73.601  7.9  RSN  7 0.5 1.2LRSN                1
 GAP=118        1.20       3.9     2.6  7.1 -0.1810E+01  0.3907E+01 -0.2594E+01E
 Epicentro: EL CARMEN DE CHUCURI - SANTANDER                                   3
 ACTION:UPD 14-01-14 09:06 OP:ep   STATUS:               ID:20130825073612 L   I
 OLDACT:UP  13-08-25 11:30 OP:stll STATUS:               ID:20130825072846d    3
 OLDACT:DUP 13-08-25 11:17 OP:stll STATUS:               ID:20130825072846d    3
 2013-08-25-0728-45M.COL___232                                                 6
 STAT SP IPHASW D HRMM SECON CODA AMPLIT PERI AZIMU VELO AIN AR TRES W  DIS CAZ7
 BAR2 SZ IP     C  736 21.12                              95    0.7410 46.6  83 
 BAR2 SZ ES        736 26.24                              95   -0.3210 46.6  83 
 BAR2 SZ I         736 28.01        14.4 0.24             97           46.6  83 
 BRR  HN ES        736 31.18                              94    0.4910 63.6 349 
 RUS  HZ EP   1    736 28.13                              93    0.63 7 92.0 141 
 RUS  HZ I         736 28.66         5.4 0.16             94           92.0 141 
 PTB  HN ES        736 38.84                              92   -0.2510 94.6 270 
 PAM  SZ EP        736 32.81                              92   -0.8910  133  48 
 PAM  SN ES        736 50.01                              92   -0.2710  133  48 
 PAM  SZ I         736 52.84         5.8 0.16             93            133  48 
 GRA  SZ ES        737  0.13                              56    0.20 9  172  31 
 HEL  HZ EP   1    736 44.82                              56   -0.11 6  217 260 
 HEL  HN ES   1    737 10.08                              56   -0.18 6  217 260 
                                                                                
