 2012  525 0031 29.8 L   6.758 -73.180149.2  RSN  4 0.2 1.4LRSN                1
 GAP=240        0.49       6.4     4.6  5.5  0.1891E+02  0.1772E+01 -0.5306E+01E
 Epicentro: VILLANUEVA - SANTANDER                                             3
 ACTION:UP  12-07-05 12:07 OP:pat  STATUS:               ID:20120525003129 L   I
 2012-05-25-0030-00M.COL___201                                                 6
 STAT SP IPHASW D HRMM SECON CODA AMPLIT PERI AZIMU VELO SNR AR TRES W  DIS CAZ7
 BAR2 SZ EP        031 49.77                             173     0.010   18 181 
 BAR2 SZ ES   1    032  5.52                             173     0.2 7   18 181 
 BAR2 SZ I         032  6.75         4.5 0.27                            18 181 
 RUS  HZ EP        031 53.59                             146     0.010   96 174 
 RUS  HN ES   1    032 11.98                             146    -0.2 7   96 174 
 RUS  HZ I         032 13.78         3.4 0.33                            96 174 
 PTB  HZ EP        031 56.89                             134     0.2 9  143 260 
 PTB  HE ES   1    032 17.69                             134     0.1 7  143 260 
 PTB  HZ I         032 25.55         2.8 0.33                           143 260 
 ZAR  HE ES   1    032 27.39                             123    -0.3 6  202 294 
 ZAR  HZ I         032 35.66         4.6 0.24                           202 294 
                                                                                
