 2011  125 0507 11.8 L   6.813 -73.293134.9  RSN  4 0.2 1.3LRSN                1
 GAP=193        0.38       4.0    14.8  5.9 -0.4188E+02  0.5381E+02 -0.6324E+01E
 Epicentro: ZAPATOCA - SANTANDER                                               3
 ACTION:UP  11-02-08 08:42 OP:pat  STATUS:               ID:20110125050711 L   I
 2011-01-25-0504-38S.COL___138                                                 6
 STAT SP IPHASW D HRMM SECON CODA AMPLIT PERI AZIMU VELO SNR AR TRES W  DIS CAZ7
 BAR2 SZ EP   2    5 7 30.19                             168    -0.1 5   27 154 
 BAR2 SZ ES   1    5 7 44.52                             168    -0.1 7   27 154 
 BAR2 SZ I         5 7 46.40         7.0 0.41                            27 154 
 RUS  HZ EP   2    5 7 34.70                             140    -0.1 5  104 167 
 RUS  HN ES   1    5 7 52.78                             140     0.0 7  104 167 
 RUS  HZ I         5 7 53.90         2.2 0.48                           104 167 
 GRA  SZ ES   2    5 7 56.02                             133     0.2 5  130  24 
 CHI  HZ EP   1    5 7 48.54                             115    -0.2 6  246 191 
 CHI  HN ES   1    5 8 17.69                             115     0.3 6  246 191 
 CHI  HZ I         5 8 28.86         1.7 0.45                           246 191 
                                                                                
