 2017  725 0621 36.6 L   6.785 -73.124146.0  RSN 15 0.5 1.6LRSN                1
 GAP= 99        0.83       3.3     2.9  4.4  0.1926E+01  0.3536E+01  0.3771E+01E
 Epicentro: LOS SANTOS - SANTANDER                                             3
 ACTION:UPD 17-08-30 15:36 OP:rebc STATUS:               ID:20170725062136 L   I
 OLDACT:UP  17-07-25 15:41 OP:and  STATUS:               ID:20170725061735     3
 OLDACT:UP  17-07-25 15:40 OP:and  STATUS:               ID:20170725061735     3
 OLDACT:UP  17-07-25 15:39 OP:and  STATUS:               ID:20170725061735     3
 OLDACT:UP  17-07-25 15:39 OP:and  STATUS:               ID:20170725061735     3
 OLDACT:UP  17-07-25 15:36 OP:and  STATUS:               ID:20170725061735     3
 OLDACT:UP  17-07-25 15:36 OP:and  STATUS:               ID:20170725061735     3
 OLDACT:REG 17-07-25 12:45 OP:and  STATUS:               ID:20170725061735     3
 2017-07-25-0618-00M.COL___386                                                 6
 STAT SP IPHASW D HRMM SECON CODA AMPLIT PERI AZIMU VELO AIN AR TRES W  DIS CAZ7
 BAR2 EZ EP        621 56.06                             171   -0.1910 22.3 197 
 BAR2 EZ ES        622 11.16                             171   -0.4110 22.3 197 
 BAR2 EZ I         622 12.71         8.7 0.38            166           22.3 197 
 BRR  HZ EP        621 58.01                             152    0.0510 74.1 299 
 BRR  HN ES        622 15.32                             152    0.7210 74.1 299 
 BRR  HZ I         622 17.95         4.2 0.13            149           74.1 299 
 PAM  EZ EP   2    621 58.42                             151   -0.42 5 77.1  37 
 PAM  EN ES        622 16.20                             151    0.0210 77.1  37 
 PAM  EZ I         622 18.20         5.1 0.16            156           77.1  37 
 RUS  HZ EP   2    622  0.42                             144    0.16 5 98.8 177 
 RUS  HN ES        622 18.94                             144    0.2310 98.8 177 
 RUS  HZ I         622 19.76         2.8 0.20            144           98.8 177 
 PTB  HZ EP        622  2.99                             132   -0.80 9  150 260 
 PTB  HN ES   3    622 23.84                             132   -1.15 2  150 260 
 PTB  HZ I         622 31.59         3.2 0.36            130            150 260 
 TAM  HZ EP        622  4.29                             131    0.23 9  152 105 
 SPBC HZ EP        622  5.10                             129   -0.06 9  163 220 
 SPBC HN ES        622 27.28                             129   -0.15 9  163 220 
 SPBC HZ I         622 29.61         5.5 0.10            128            163 220 
 YPLC HZ EP        622  6.22                             127    0.04 9  174 152 
 YPLC HN ES        622 29.20                             127   -0.03 9  174 152 
 YPLC HZ I         622 34.63         5.0 0.42            129            174 152 
 ZAR  HN ES        622 34.54                             122   -0.38 8  207 292 
 ZAR  HZ I         622 39.72         5.9 0.38            122            207 292 
 NOR  HZ EP        622 12.45                             118   -0.02 8  236 235 
 NOR  HN ES   3    622 41.80                             118    1.36 2  236 235 
 NOR  HZ I         622 44.69         3.0 0.20            118            236 235 
 HEL  HZ EP        622 17.14                             115    0.08 8  274 256 
 HEL  HN ES        622 48.84                             115    0.24 8  274 256 
 HEL  HZ I         622 55.93         1.7 0.34            114            274 256 
 GUY2CHZ EP   3    622 21.56                             112    1.20 2  302 235 
 GUY2CHN ES   4    622 57.53                             112    3.06 0  302 235 
 GUY2CHZ I         623  2.78         2.5 0.38                           302 235 
 PTGC HZ EP   3    622 19.02                             112   -1.19 2  306 159 
 PTGC HN ES   4    622 47.98                             112   -6.24 0  306 159 
 PTGC HZ I         622 54.12         5.3 0.32            113            306 159 
 CBOC HZ EP        622 24.64                             110    0.89 7  335 252 
 CBOC HN ES   4    622 58.45                             110   -2.06 0  335 252 
 CBOC HZ I         623 13.51         0.7 0.41            110            335 252 
 PRA  HZ EP        622 30.06                             107   -0.06 6  392 210 
 PRA  HE ES   3    623 13.52                             107    1.66 1  392 210 
 PRA  HZ I         623 20.42         1.8 0.44            107            392 210 
                                                                                
