 2010  925 0259 42.5 L   6.889 -73.023140.9  RSN  4 0.1 1.3LRSN                1
 GAP=177        0.31       2.9     7.1  8.0  0.8409E+01 -0.3694E+02 -0.7739E+01E
 Epicentro: PIEDECUESTA - SANTANDER                                            3
 ACTION:UP  11-02-18 11:05 OP:tino STATUS:               ID:20100925025942 L   I
 2010-09-25-0256-23S.COL___120                                                 6
 STAT SP IPHASW D HRMM SECON CODA AMPLIT PERI AZIMU VELO SNR AR TRES W  DIS CAZ7
 BAR2 SZ EP   2    3 0  1.95                             164     0.1 5   37 208 
 BRR  HZ EP   1    3 0  3.69                             149     0.1 8   80 288 
 BRR  HE ES   2    3 0 20.04                             149    -0.1 5   80 288 
 BRR  HZ I         3 0 24.50         6.2 0.21                            80 288 
 GUE  SZ EP   1    3 0  5.80                             141     0.0 8  105   6 
 RUS  HZ EP        3 0  6.45                             140     0.010  110 183 
 RUS  HE ES   2    3 0 25.29                             140     0.1 5  110 183 
 RUS  HZ I         3 0 26.55         2.0 0.38                           110 183 
                                                                                
