 2015  125 0519 52.8 L   5.963 -74.221  0.0  RSN  4 0.3 0.5LRSN                1
 GAP=183        0.70       1.9     3.5  5.9  0.3250E+01 -0.8142E+01 -0.3084E+01E
 Epicentro: LA BELLEZA - SANTANDER                                             3
 ACTION:UPD 15-03-02 15:42 OP:nd   STATUS:               ID:20150125051952 L   I
 OLDACT:REG 15-01-25 12:37 OP:spq  STATUS:               ID:20150125051740     3
 2015-01-25-0517-40M.COL___271                                                 6
 STAT SP IPHASW D HRMM SECON CODA AMPLIT PERI AZIMU VELO AIN AR TRES W  DIS CAZ7
 SPBC HZ EP        519 59.81                              47   -0.0410 38.1 154 
 SPBC HE ES        520  5.52                              47    0.1910 38.1 154 
 SPBC HZ I         520  5.88         3.4 0.26             47           38.1 154 
 PTB  HZ EP        520  4.23                              47   -0.1910 68.8 338 
 PTB  HN ES   1    520 13.36                              47   -0.12 7 68.8 338 
 PTB  HZ I         520 14.22         2.1 0.14             47           68.8 338 
 RUS  HZ EP   1    520 13.87                              47    0.26 7  126  93 
 RUS  HN ES   1    520 29.17                              47   -0.66 7  126  93 
 RUS  HZ I         520 29.95         0.5 0.50             47            126  93 
 BRR  HE ES        520 32.58                              47    0.36 9  138  24 
 BRR  HZ I         520 34.52         2.3 0.19             47            138  24 
                                                                                
