 2010 1025 0102 59.7 L   6.858 -73.027144.6  RSN  4 0.3 1.5LRSN                1
 GAP=253        0.55       6.2    12.6  7.2  0.4193E+02  0.2038E+02  0.6442E+01E
 Epicentro: CEPITA - SANTANDER                                                 3
 ACTION:UP  11-02-18 11:11 OP:tino STATUS:               ID:20101025010259 L   I
 2010-10-25-0101-20S.COL___124                                                 6
 STAT SP IPHASW D HRMM SECON CODA AMPLIT PERI AZIMU VELO SNR AR TRES W  DIS CAZ7
 BAR2 SZ EP   2    1 3 19.47                             166     0.0 5   34 211 
 BAR2 SZ ES   2    1 3 34.25                             166    -0.6 5   34 211 
 BAR2 SZ I         1 3 35.68         6.9 0.27                            34 211 
 BRR  HZ EP   1    1 3 21.48                             149     0.2 7   81 290 
 BRR  HE ES   2    1 3 38.14                             149     0.0 5   81 290 
 BRR  HZ I         1 3 41.58         6.6 0.10                            81 290 
 RUS  HZ EP   2    1 3 23.79                             142     0.0 5  107 183 
 RUS  HE ES   1    1 3 42.82                             142     0.2 7  107 183 
 RUS  HZ I         1 3 43.93         4.5 0.23                           107 183 
 PRA  HZ EP   1    1 3 54.02                             106    -0.6 4  404 211 
 PRA  HE ES   2    1 4 37.63                             106     0.2 3  404 211 
                                                                                
