 2016  425 0324 11.0 L   6.125 -73.968  5.7  RSN  6 0.3 1.3LRSN                1
 GAP= 96        0.80       2.5     1.6  6.8 -0.1247E+00 -0.2472E+01 -0.5434E+01E
 Epicentro: EL PENON - SANTANDER                                               3
 ACTION:UPD 16-05-05 14:24 OP:rebc STATUS:               ID:20160425032411 L   I
 OLDACT:REG 16-04-25 12:53 OP:cara STATUS:               ID:20160425031745     3
 2016-04-25-0317-45M.COL___273                                                 6
 STAT SP IPHASW D HRMM SECON CODA AMPLIT PERI AZIMU VELO AIN AR TRES W  DIS CAZ7
 SPBC HZ IP   9 C  324 20.99                              91    1.23 0 53.6 192 
 SPBC HN ES        324 28.33                                    0.4710 53.6 192 
 SPBC HZ I         324 30.38        11.5 0.20             47           53.6 192 
 PTB  HZ EP     D  324 22.34                              91    0.0510 70.8 310 
 PTB  HN ES        324 31.42                              91    0.2910 70.8 310 
 PTB  HZ I         324 32.07        25.4 0.36             47           70.8 310 
 BAR2 EZ ES        324 39.34                              91   -0.3910  101  59 
 BAR2 EZ I         324 41.41         5.4 0.36             47            101  59 
 RUS  HZ IP     C  324 27.83                              91    0.4210  101 105 
 RUS  HN ES        324 40.25                              91    0.0010  101 105 
 RUS  HZ I         324 41.25         9.2 0.46             47            101 105 
 NOR  HZ EP        324 29.34                              91   -0.0710  118 238 
 NOR  HN ES        324 43.43                              91   -0.3710  118 238 
 NOR  HZ I         324 44.25         2.9 0.42             47            118 238 
 PAM  EN ES        325  4.38                              56    0.08 9  194  46 
 PAM  EZ I         325  4.90         6.6 0.30             37            194  46 
                                                                                
