 2012  225 0133 19.5 L   6.701 -73.204156.4  RSN  4 0.1 1.3LRSN                1
 GAP=170        0.38       3.8     3.9  5.1  0.5906E+01 -0.3007E+01 -0.2690E+01E
 ACTION:UP  12-03-07 16:34 OP:epov STATUS:               ID:20120225013319 L   I
 2012-02-25-0130-00M.COL___192                                                 6
 STAT SP IPHASW D HRMM SECON CODA AMPLIT PERI AZIMU VELO AIN AR TRES W  DIS CAZ7
 GIR2 SZ EP   1    133 41.01                             164    0.27 7 41.7   2 
 BRR  HZ EP   1    133 41.62                             154   -0.22 7 71.9 309 
 BRR  HE ES   1    133 59.20                             154   -0.07 7 71.9 309 
 BRR  HZ I         134  3.34         6.2 0.45                          71.9 309 
 RUS  HZ EP   1    133 43.62                             149   -0.02 7 90.4 171 
 RUS  HN ES   1    134  2.44                             149   -0.03 7 90.4 171 
 RUS  HZ I         134  3.54         1.6 0.42                          90.4 171 
 PTB  HZ EP   1    133 46.62                             136   -0.04 7  140 263 
 PTB  HN ES   1    134  7.96                             136    0.12 7  140 263 
                                                                                
