 2010  125 0628 37.3 L   6.984 -73.158121.8  RSN  8 0.6 1.6LRSN                1
 GAP=183        1.30       5.5    13.8 12.6 -0.6185E+01  0.7448E+02 -0.4308E+01E
 Epicentro: GIRON - SANTANDER                                                  3
 ACTION:UP  10-08-24 09:45 OP:vdl  STATUS:               ID:20100125062837 L   I
 2010-01-25-0624-33S.COL___095                                                 6
 STAT SP IPHASW D HRMM SECON CODA AMPLIT PERI AZIMU VELO SNR AR TRES W  DIS CAZ7
 GIR2 SZ EP        628 54.88                             174     1.210   11 340 
 GIR2 SZ ES   2    629  6.39                             174    -0.1 5   11 340 
 BAR2 SZ EP        628 54.88                             159     0.110   43 184 
 BAR2 SZ ES   1    629  8.36                             159     0.0 7   43 184 
 RUS  BZ EP        629  0.05                             133    -0.510  121 176 
 RUS  BZ I         629  1.03         4.2 0.41                           121 176 
 RUS  BN ES   1    629 18.11                             133    -0.5 7  121 176 
 OCA  SZ EP        629  1.73                             128    -0.1 9  140 353 
 OCA  SZ ES   1    629 20.02                             128    -1.0 7  140 353 
 CHI  HN ES   2    629 46.04                             110    -0.1 4  268 194 
 CHI  HZ I         629 48.72         2.5 0.56                           268 194 
 HEL  HZ EP   1    629 16.92                             109     0.0 6  276 252 
 HEL  HN ES   2    629 48.03                             109     0.2 4  276 252 
 HEL  HZ I         629 51.25         2.6 0.80                           276 252 
 RREF BN ES   2    630  0.06                             105    -0.4 3  334 227 
 RREF BZ I         630  7.32         3.5 0.23                           334 227 
 PRA  HN ES   2    630 15.09                             101     0.2 3  409 208 
                                                                                
