 2017  425 0720 11.2 L   6.787 -73.133146.0  RSN 35 0.6 2.6LRSN                1
 GAP=113        1.03       2.5     3.1  4.4 -0.2416E+00  0.2297E+01  0.7592E+00E
 Epicentro: LOS SANTOS - SANTANDER                                             3
 ACTION:UPD 17-05-30 21:15 OP:jn   STATUS:               ID:20170425072011 L   I
 OLDACT:UP  17-04-25 15:58 OP:and  STATUS:               ID:20170425071738     3
 OLDACT:UP  17-04-25 15:56 OP:and  STATUS:               ID:20170425071738     3
 OLDACT:UP  17-04-25 15:54 OP:and  STATUS:               ID:20170425071738     3
 OLDACT:UP  17-04-25 15:53 OP:and  STATUS:               ID:20170425071738     3
 OLDACT:UP  17-04-25 15:51 OP:and  STATUS:               ID:20170425071738     3
 OLDACT:UP  17-04-25 15:50 OP:and  STATUS:               ID:20170425071738     3
 OLDACT:UP  17-04-25 15:49 OP:and  STATUS:               ID:20170425071738     3
 OLDACT:UP  17-04-25 15:47 OP:and  STATUS:               ID:20170425071738     3
 OLDACT:UP  17-04-25 15:46 OP:and  STATUS:               ID:20170425071738     3
 OLDACT:UP  17-04-25 15:46 OP:and  STATUS:               ID:20170425071738     3
 OLDACT:UP  17-04-25 15:45 OP:and  STATUS:               ID:20170425071738     3
 OLDACT:UP  17-04-25 15:44 OP:and  STATUS:               ID:20170425071738     3
 OLDACT:UP  17-04-25 15:44 OP:and  STATUS:               ID:20170425071738     3
 OLDACT:UP  17-04-25 15:43 OP:and  STATUS:               ID:20170425071738     3
 OLDACT:UP  17-04-25 15:42 OP:and  STATUS:               ID:20170425071738     3
 OLDACT:UP  17-04-25 15:42 OP:and  STATUS:               ID:20170425071738     3
 OLDACT:UP  17-04-25 15:40 OP:and  STATUS:               ID:20170425071738     3
 OLDACT:UP  17-04-25 15:40 OP:and  STATUS:               ID:20170425071738     3
 OLDACT:UP  17-04-25 15:40 OP:and  STATUS:               ID:20170425071738     3
 OLDACT:UP  17-04-25 15:38 OP:and  STATUS:               ID:20170425071738     3
 OLDACT:REG 17-04-25 12:25 OP:and  STATUS:               ID:20170425071738     3
 2017-04-25-0718-00M.COL___362                                                 6
 STAT SP IPHASW D HRMM SECON CODA AMPLIT PERI AZIMU VELO AIN AR TRES W  DIS CAZ7
 BAR2 EZ IP     C  720 30.68                             171   -0.1610 22.2 194 
 BAR2 EZ ES        720 46.13                             171   -0.0310 22.2 194 
 BAR2 EZ I         720 47.05        82.6 0.38            166           22.2 194 
 BRR  HZ IP     C  720 32.57                             152    0.0810 73.1 299 
 BRR  HN ES        720 49.99                             152    0.9010 73.1 299 
 BRR  HZ I         720 55.71        54.8 0.18            152           73.1 299 
 PAM  EZ IP     C  720 33.46                             151   -0.0010 77.6  38 
 PAM  EN ES        720 50.41                             151   -0.4110 77.6  38 
 PAM  EZ I         720 52.90       134.2 0.56            158           77.6  38 
 PTB  HZ EP        720 37.30                             132   -0.99 9  149 259 
 PTB  HN ES        720 58.76                             132   -0.66 9  149 259 
 PTB  HZ I         721  6.27        57.2 0.38            131            149 259 
 SPBC HZ EP        720 39.62                             129   -0.08 9  163 220 
 SPBC HN ES        721  1.96                             129    0.04 9  163 220 
 SPBC HZ I         721  6.73        92.0 0.18            129            163 220 
 YPLC HZ IP     C  720 40.88                             127    0.06 9  175 152 
 YPLC HN ES        721  4.44                             127    0.51 9  175 152 
 YPLC HZ I         721  5.74        61.7 0.26            128            175 152 
 ZAR  HZ EP        720 43.04                             122   -0.82 8  206 292 
 ZAR  HE ES        721  9.15                             122   -0.18 8  206 292 
 ZAR  HZ I         721 10.84        34.1 0.10            124            206 292 
 TABC EZ EP   9    720 48.14                             119    1.23 0  229 211 
 TABC EZ ES        721 16.10                             119    0.11 8  229 211 
 TABC EZ I         721 21.48        43.4 0.50            120            229 211 
 NOR  HZ EP        720 46.67                             119   -0.31 8  235 235 
 NOR  HN ES        721 14.90                             119    0.01 8  235 235 
 NOR  HZ I         721 16.91        33.8 0.24            119            235 235 
 CHI  HZ EP        720 48.79                             117   -0.01 8  248 196 
 CHI  HN ES        721 17.54                             117   -0.59 8  248 196 
 CHI  HZ I         721 22.11        23.3 0.42            118            248 196 
 ROSC BZ EP   9    720 50.68                             117    1.40 0  252 211 
 ROSC BN ES        721 21.09                             117    0.71 8  252 211 
 ROSC BZ I         721 25.11        32.5 0.40            117            252 211 
 HEL  HZ EP   2    720 52.70                             115    1.16 4  273 256 
 HEL  HN ES        721 23.32                             115    0.32 8  273 256 
 HEL  HZ I         721 27.21        14.3 0.44            116            273 256 
 VIL  EZ EP   2    720 55.77                             112    1.27 4  302 192 
 VIL  EN ES        721 28.66                             112    0.38 7  302 192 
 VIL  EZ I         721 37.82        24.3 0.54            113            302 192 
 PTGC HZ IP   3 C  720 53.53                             112   -1.33 2  307 159 
 PTGC HN ES   4    721 26.79                             112   -2.12 0  307 159 
 PTGC HZ I         721 31.74        26.2 0.32            113            307 159 
 LL1C HZ EP        720 55.95                             112    0.95 7  308 351 
 LL1C HN ES   4    721 32.90                             112    3.74 0  308 351 
 LL6C HN EP   9    720 36.67                             110   -20.4 0  326 357 
 LL6C HN ES        721 13.35                                    0.89 7  326 357 
 LL6C HN I         721 13.42        18.3 0.66            113            326 357 
 ELA  HZ EP   4    721  0.29                             110    2.21 0  329 230 
 ELA  HN ES   4    721 35.84                             110    1.20 0  329 230 
 ELA  HZ I         721 43.32        25.5 0.30            111            329 230 
 CBOC HZ EP        720 59.02                             110    0.79 7  335 252 
 CBOC HN ES        721 35.40                             110    0.49 7  335 252 
 CBOC HZ I         721 41.21        10.7 0.32            111            335 252 
 DBB  EZ EP        720 58.31                             109   -0.56 7  341 274 
 DBB  EN ES   3    721 34.48                             109   -1.56 2  341 274 
 DBB  EZ I         721 37.32        12.1 0.64            111            341 274 
 ANIL HZ EP        721  1.90                             109    0.89 6  357 225 
 ANIL HN ES   4    721 41.98                             109    2.12 0  357 225 
 ANIL HZ I         721 47.23        47.8 0.36            109            357 225 
 ARGC HZ EP        721  1.19                             108    0.11 6  361 340 
 ARGC HN ES        721 40.52                             108    0.53 6  361 340 
 ARGC HZ I         721 46.95         9.8 0.24            111            361 340 
 PRA  HZ EP        721  4.21                             107   -0.46 6  391 210 
 PRA  HN ES        721 46.77                             107    0.40 6  391 210 
 PRA  HZ I         721 50.63        14.9 0.44            108            391 210 
 ORTC HZ EP        721  4.99                             106   -0.10 6  395 216 
 ORTC HN ES   4    721 49.50                             106    2.38 0  395 216 
 ORTC HZ I         721 55.35        12.0 0.38            107            395 216 
 APAC HZ IP   9 C  721  4.67                             106   -0.94 0  400 288 
 APAC HN ES        721 46.60                             106   -0.51 6  400 288 
 APAC HZ I         721 51.87        12.1 0.42            108            400 288 
 PAL  HZ EP        721  6.28                             106   -0.15 6  406 239 
 PAL  HN ES   3    721 51.04                             106    1.54 1  406 239 
 PAL  HZ I         721 54.26        13.6 0.20            107            406 239 
 SJC  HZ EP   4    721  4.47                             106   -2.54 0  411 327 
 SJC  HN ES   4    721 46.30                             106   -4.24 0  411 327 
 SJC  HZ I         721 50.40        11.8 0.54            108            411 327 
 VALLCHZ EP        721  6.40                             106   -0.63 6  412 358 
 VALLCHN ES   4    721 48.30                             106   -2.28 0  412 358 
 LCBC HE ES        721 53.74                             105    0.71 5  424 303 
 YOT  HZ EP   3    721 13.13                             103   -1.14 1  472 229 
 YOT  HN ES   4    722  7.13                             103    3.67 0  472 229 
 SMAR HZ EP   4    721 15.59                             102   -1.70 0  499 346 
 SMAR HN ES   4    722  3.86                             102   -4.98 0  499 346 
 SMAR HZ I         722  7.38         9.9 0.30            104            499 346 
 MACC HZ EP   4    721 17.14                             102   -2.63 0  519 189 
 MACC HN ES   4    722  9.76                             102   -3.50 0  519 189 
 MACC HZ I         722 16.04         3.3 0.33            103            519 189 
 JAMC HZ EP   3    721 25.61                             101    1.09 1  557 225 
 JAMC HN ES   3    722 20.62                             101   -1.09 1  557 225 
 URI  HZ EP   4    721 20.83                             101   -3.52 0  558  13 
 URI  HN ES   4    722 20.43                             101   -0.97 0  558  13 
 URI  HZ I         722 27.85         1.9 0.18            103            558  13 
 GARC HZ EP   4    721 24.67                             100   -1.71 0  572 207 
 GARC HN ES   4    722 22.60                             100   -2.42 0  572 207 
 POP2 HZ EP        721 30.93                              99   -0.27 3  612 220 
 FLO2 HZ EP   2    721 33.79                              99   -0.46 1  640 206 
                                                                                
