 2015  225 0419  4.5 L   6.817 -73.196144.0  RSN  4 0.5 1.3LRSN                1
 GAP=138        1.21       5.2    11.0 13.0 -0.2833E+02  0.5602E+02 -0.7904E+01E
 Epicentro: ZAPATOCA - SANTANDER                                               3
 ACTION:UPD 15-04-30 21:29 OP:nd   STATUS:               ID:20150225041904 L   I
 OLDACT:REG 15-02-25 13:45 OP:mh   STATUS:               ID:20150225041745     3
 2015-02-25-0417-45M.COL___293                                                 6
 STAT SP IPHASW D HRMM SECON CODA AMPLIT PERI AZIMU VELO AIN AR TRES W  DIS CAZ7
 PAM  SZ EP        419 26.97                             150    0.3410 79.7  43 
 PAM  SN ES        419 44.50                             150    0.5810 79.7  43 
 PAM  SZ I         419 45.88         3.1 0.48            156           79.7  43 
 RUS  HZ EP        419 27.70                             143   -0.5210  103 173 
 RUS  HN ES   1    419 45.89                             143   -0.85 7  103 173 
 RUS  HZ I         419 47.82         1.7 0.34            149            103 173 
 OCA  HZ EP        419 32.15                             130   -0.26 9  158 355 
 OCA  HN ES        419 53.72                             130   -0.49 9  158 355 
 OCA  HZ I         419 59.80         3.3 0.16            132            158 355 
 SPBC HZ EP        419 33.17                             129    0.53 9  161 217 
 SPBC HN ES        419 54.95                             129    0.33 9  161 217 
 SPBC HZ I         420  0.22         4.5 0.24            132            161 217 
                                                                                
