 2014 1025 0153 53.4 L   6.275 -73.746108.7  RSN  5 0.4 1.3LRSN                1
 GAP= 88        1.15       4.9     4.6 10.8  0.2838E+00  0.3068E+01  0.6069E+01E
 Epicentro: LANDAZURI - SANTANDER                                              3
 ACTION:UPD 14-11-29 23:56 OP:nd   STATUS:               ID:20141025015353 L   I
 OLDACT:UP  14-10-28 14:33 OP:cam  STATUS:               ID:20141025014814     3
 OLDACT:UP  14-10-28 14:33 OP:cam  STATUS:               ID:20141025014814     3
 OLDACT:REG 14-10-28 13:29 OP:cam  STATUS:               ID:20141025014814     3
 2014-10-25-0148-14M.COL___289                                                 6
 STAT SP IPHASW D HRMM SECON CODA AMPLIT PERI AZIMU VELO AIN AR TRES W  DIS CAZ7
 BAR2 SZ EP        154 11.32                             144    0.2410 71.5  61 
 BAR2 SZ ES        154 24.39                             144   -0.4610 71.5  61 
 BAR2 SZ I         154 25.24         6.7 0.16            147           71.5  61 
 SPBC HZ EP        154 10.81                             142   -0.5310 77.8 208 
 SPBC HN ES        154 25.98                             142    0.6810 77.8 208 
 SPBC HZ I         154 27.95         5.4 0.36            149           77.8 208 
 PTB  HZ EP        154 11.63                             139   -0.0710 83.8 290 
 PTB  HN ES        154 25.48                             139   -0.4710 83.8 290 
 PTB  HZ I         154 28.40         4.7 0.16            141           83.8 290 
 RUS  HZ EP        154 12.71                             140    0.2810 84.7 120 
 RUS  HE ES        154 27.00                             140   -0.2510 84.7 120 
 RUS  HZ I         154 28.60         2.4 0.32            147           84.7 120 
 BRR  HN ES        154 27.67                             136    0.5710 92.1   2 
 BRR  HN I         154 36.93         6.9 0.50            138           92.1   2 
                                                                                
