 2013  525 0919 40.3 L   6.759 -73.151149.2  RSN  5 0.3 1.2LRSN                1
 GAP=183        0.78       6.0     5.5  6.1  0.8260E+01  0.5351E+01  0.4592E+01E
 Epicentro: LOS SANTOS - SANTANDER                                             3
 ACTION:UPD 13-06-20 09:53 OP:ep   STATUS:               ID:20130525091940 L   I
 2013-05-25-0908-50M.COL___210                                                 6
 STAT SP IPHASW D HRMM SECON CODA AMPLIT PERI AZIMU VELO AIN AR TRES W  DIS CAZ7
 BAR2 SZ EP        920  0.22                             173   -0.0710 18.8 191 
 BAR2 SZ ES        920 15.42                             173   -0.4410 18.8 191 
 BAR2 SZ I         920 16.90         7.2 0.22            171           18.8 191 
 GIR2 SZ EP   1    920  0.86                             166    0.33 7 35.7 352 
 GIR2 SZ ES   1    920 15.94                             166   -0.35 7 35.7 352 
 GIR2 SZ I         920 17.75         4.4 0.62            167           35.7 352 
 BRR  HZ EP        920  2.21                             152    0.2610 73.0 302 
 BRR  HN ES        920 19.20                             152    0.3910 73.0 302 
 RUS  HZ EP   1    920  4.09                             146   -0.02 7 96.1 176 
 RUS  HN ES   1    920 23.10                             146    0.45 7 96.1 176 
 RUS  HZ I         920 23.94         1.0 0.26            146           96.1 176 
 PTB  HZ EP        920  7.03                             133   -0.43 9  146 261 
 PTB  HE ES        920 28.62                             133    0.00 9  146 261 
 PTB  HZ I         920 30.61         2.7 0.18            134            146 261 
                                                                                
