 2011  325 0357 25.6 L   6.806 -73.084141.5  RSN  5 0.4 1.9LRSN                1
 GAP=191        0.82       6.1     9.1  8.3 -0.2346E+02 -0.7266E+01 -0.5828E+01E
 Epicentro: LOS SANTOS - SANTANDER                                             3
 ACTION:UP  11-06-16 14:35 OP:jfem STATUS:               ID:20110325035725 L   I
 2011-03-25-0355-35S.COL___120                                                 6
 STAT SP IPHASW D HRMM SECON CODA AMPLIT PERI AZIMU VELO SNR AR TRES W  DIS CAZ7
 BAR2 SZ EP        357 44.77                             169     0.010   26 205 
 BAR2 SZ ES   1    357 59.87                             169     0.2 7   26 205 
 BAR2 SZ I         358  0.93        16.3 0.44                            26 205 
 BRR  HZ EP        357 46.61                             150     0.010   77 296 
 BRR  HN ES   1    358  3.04                             150     0.0 7   77 296 
 BRR  HZ I         358  7.70        23.9 0.14                            77 296 
 GRA  SZ EP        357 50.56                             136     0.310  123  14 
 GRA  SZ ES   1    358  8.69                             136    -0.8 7  123  14 
 GRA  SZ I         358 11.10        11.3 0.42                           123  14 
 OCA  SZ EP   1    357 53.61                             128     0.0 7  161 351 
 OCA  SZ ES   2    358 15.81                             128     0.4 5  161 351 
 OCA  SZ I         358 19.62        10.1 0.41                           161 351 
 RREF HN ES   2    358 47.76                             109    -0.8 3  327 230 
 RREF HZ I         359  1.13         2.1 0.29                           327 230 
                                                                                
