 2014  825 0922  9.3 L   6.795 -73.102143.4  RSN 12 0.5 1.7LRSN                1
 GAP=142        1.01       3.8     4.8  7.1 -0.2308E+01  0.6833E+01  0.8814E+01E
 Epicentro: LOS SANTOS - SANTANDER                                             3
 ACTION:UPD 14-09-15 21:53 OP:nd   STATUS:               ID:20140825092209 L   I
 OLDACT:REG 14-08-25 14:00 OP:fm   STATUS:               ID:20140825091819     3
 2014-08-25-0918-19M.COL___257                                                 6
 STAT SP IPHASW D HRMM SECON CODA AMPLIT PERI AZIMU VELO AIN AR TRES W  DIS CAZ7
 BAR2 SZ EP        922 28.99                             170    0.3110 24.1 202 
 BAR2 SZ ES   1    922 43.66                             170   -0.12 7 24.1 202 
 BAR2 SZ I         922 45.17        17.0 0.14            169           24.1 202 
 PAM  SZ EP   1    922 31.45                             151    0.32 7 74.9  36 
 PAM  SN ES   1    922 48.21                             151    0.06 7 74.9  36 
 PAM  SZ I         922 51.87         6.0 0.44            154           74.9  36 
 BRR  HZ EP        922 30.86                             151    0.3810 75.8 297 
 BRR  HN ES        922 47.59                             151    0.6110 75.8 297 
 BRR  HZ I         922 50.94         7.8 0.22            150           75.8 297 
 RUS  HZ EP   1    922 32.19                             144   -0.59 7 99.8 179 
 RUS  HN ES   1    922 50.90                             144   -0.18 7 99.8 179 
 RUS  HZ I         922 52.81         3.0 0.28            145           99.8 179 
 PTB  HZ EP   1    922 35.67                             130   -0.85 7  152 259 
 PTB  HN ES   1    922 56.87                             130   -0.87 7  152 259 
 PTB  HZ I         922 58.65         5.1 0.10            131            152 259 
 OCA  HN ES   1    922 58.79                             129   -0.80 7  162 351 
 SPBC HZ EP        922 37.95                             128    0.06 9  166 220 
 SPBC HN ES        923  0.00                             128   -0.17 9  166 220 
 SPBC HZ I         923  2.52         7.6 0.14            129            166 220 
 ZAR  HN ES   1    923  6.94                             121   -0.73 6  209 292 
 ZAR  HZ I         923 12.77         5.8 0.50            122            209 292 
 CHI  HZ EP   1    922 47.36                             117    0.39 6  249 196 
 CHI  HN ES        923 15.96                             117   -0.37 8  249 196 
 CHI  HZ I         923 22.39         2.0 0.34            118            249 196 
 HEL  HN ES   1    923 22.11                             114    0.52 6  277 256 
 HEL  HZ I         923 27.31         3.5 0.28            115            277 256 
 GUY2CHZ EP   1    922 53.28                             112    0.05 5  305 235 
 GUY2CHN ES        923 28.44                             112    0.96 7  305 235 
 GUY2CHZ I         923 35.61         2.8 0.40                           305 235 
 MON  HN ES   4    923 33.71                             108   -3.53 0  358 308 
 PRA  HZ EP   1    923  3.13                             106    0.15 4  394 210 
 PRA  HN ES   1    923 44.72                             106   -0.12 4  394 210 
 PRA  HZ I         923 50.85         2.2 0.28            107            394 210 
                                                                                
