 2011  625 0809 24.2 L   6.514 -73.550113.8  RSN 13 0.4 2.1LRSN                1
 GAP= 91        1.00       4.8     6.7  7.3 -0.1435E+02  0.2544E+02 -0.6897E+01E
 Epicentro: EL CARMEN DE CHUCURI - SANTANDER                                   3
 ACTION:UP  11-07-14 19:07 OP:ep   STATUS:               ID:20110625080924 L   I
 2011-06-25-0800-00M.COL___124                                                 6
 STAT SP IPHASW D HRMM SECON CODA AMPLIT PERI AZIMU VELO SNR AR TRES W  DIS CAZ7
 BAR2 SZ IP        8 9 40.63                             159     0.010   42  78 
 BAR2 SZ ES   1    8 9 53.20                             159    -0.3 7   42  78 
 BAR2 SZ I         8 9 54.44       136.6 0.50                            42  78 
 BTL  SZ IP        8 9 41.18                             153    -0.110   55  35 
 SAN  SZ ES        8 9 55.89                             151     0.910   60  62 
 BRR  HZ IP        8 9 41.50                             147    -0.310   68 345 
 BRR  HN ES   2    8 9 55.38                             147    -0.1 5   68 345 
 BRR  HZ I         810  1.24        24.8 0.15                            68 345 
 GIR2 SZ EP        8 9 42.22                             145    -0.110   74  32 
 GIR2 SZ ES   1    8 9 56.19                             145    -0.4 7   74  32 
 RUS  HZ EP        8 9 43.43                             141    -0.310   86 143 
 RUS  HN ES   2    8 9 58.45                             141    -0.6 5   86 143 
 BRI  SZ EP        8 9 50.36                             122     0.5 9  157  32 
 GRA  SZ EP        8 9 51.56                             119     0.0 9  173  29 
 GRA  SZ ES   1    810 12.45                             119    -0.4 7  173  29 
 GRA  SZ I         810 14.43        11.2 0.24                           173  29 
 YOP  SZ EP   3    8 9 51.73                             118    -0.4 2  179 136 
 NOR  SZ EP        8 9 52.44                             118     0.3 9  180 234 
 NOR  SN ES   2    810 13.47                             118    -0.6 4  180 234 
 OCA  SZ EP        8 9 53.47                             116    -0.2 9  192   8 
 OCA  SZ I         810 19.99         9.8 0.26                           192   8 
 HEL  HZ EP   2    8 9 57.52                             112     0.3 4  222 261 
 HEL  HZ I         810 28.08         4.7 0.42                           222 261 
 GUY  SZ EP   2    810  1.97                             110     1.6 4  249 235 
 GUY  SZ I         810 34.60        11.5 0.26                           249 235 
                                                                                
