 2016  725 0802 13.2 L   6.861 -73.079154.3  RSN  4 0.1 1.2LRSN                1
 GAP=249        0.37       2.4     3.6  3.0  0.1815E+01 -0.1232E+00  0.6437E+00E
 Epicentro: LOS SANTOS - SANTANDER                                             3
 ACTION:UPD 17-03-29 16:55 OP:lp   STATUS:               ID:20160725080213 L   I
 OLDACT:REG 16-07-25 14:46 OP:edw  STATUS:               ID:20160725075759     3
 2016-07-25-0757-59S.COL___331                                                 6
 STAT SP IPHASW D HRMM SECON CODA AMPLIT PERI AZIMU VELO AIN AR TRES W  DIS CAZ7
 BAR2 EZ EP        8 2 34.09                             168    0.0410 31.8 201 
 BAR2 EZ ES        8 2 50.27                             168   -0.0410 31.8 201 
 BRR  HZ EP        8 2 35.59                             153    0.1010 75.1 291 
 BRR  HN ES        8 2 52.82                             153   -0.0510 75.1 291 
 BRR  HZ I         8 2 54.84         2.9 0.30            148           75.1 291 
 RUS  HZ EP        8 2 38.32                             144    0.0710  107 180 
 RUS  HN ES        8 2 57.77                             144   -0.0310  107 180 
 SPBC HZ EP        8 2 43.04                             129   -0.25 9  173 219 
 SPBC HE ES        8 3  6.89                             129    0.13 9  173 219 
 SPBC HZ I         8 3 11.50         1.6 0.16            127            173 219 
                                                                                
