 2012 1225 0750 22.4 L   7.382 -73.507109.8  RSN  6 0.3 1.3LRSN                1
 GAP=145        0.66       2.8     4.1  6.8  0.5385E-01  0.7576E+01 -0.3149E+01E
 Epicentro: SABANA DE TORRES - SANTANDER                                       3
 ACTION:UPD 13-01-04 14:30 OP:ep   STATUS:               ID:20121225075022 L   I
 2012-12-25-0750-00M.COL___242                                                 6
 STAT SP IPHASW D HRMM SECON CODA AMPLIT PERI AZIMU VELO AIN AR TRES W  DIS CAZ7
 BRR  HZ EP        750 38.20                             160    0.3210 37.8 217 
 BRR  HN ES   1    750 50.10                             160    0.14 7 37.8 217 
 BRR  HZ I         750 51.41         4.2 0.14                          37.8 217 
 BAR2 SZ EP   1    750 42.24                             136    0.30 7 94.4 158 
 BAR2 SZ ES   1    750 56.69                             136   -0.50 7 94.4 158 
 BAR2 SZ I         750 57.98         8.9 0.22                          94.4 158 
 OCA  HN ES   1    750 57.54                             135    0.16 7 97.0  12 
 OCA  HZ I         750 58.27         3.2 0.14                          97.0  12 
 PTB  HZ EP   1    750 45.92                             124   -0.02 7  140 228 
 PTB  HN ES   1    751  3.87                             124   -0.44 7  140 228 
 PTB  HZ I         751  4.81         3.9 0.28                           140 228 
 ZAR  HZ EP   1    750 46.96                             122    0.07 7  150 275 
 ZAR  HE ES   1    751  6.31                             122    0.31 7  150 275 
 ZAR  HZ I         751  9.63         3.3 0.26                           150 275 
 SML  HZ EP   1    750 48.73                             118   -0.18 7  169 338 
 SML  HN ES   1    751  9.03                             118   -0.55 7  169 338 
                                                                                
