 2015 1125 0359 46.9 L   6.758 -73.152151.0  RSN  5 0.4 1.4LRSN                1
 GAP=200        1.08       4.6     7.9  9.1  0.9057E+01 -0.1142E+02 -0.1163E+02E
 Epicentro: LOS SANTOS - SANTANDER                                             3
 ACTION:UPD 15-12-28 16:13 OP:cam  STATUS:               ID:20151125035946 L   I
 OLDACT:DUP 15-11-25 15:35 OP:drio STATUS:               ID:20151125035747d    3
 2015-11-25-0357-46M.COL___212                                                 6
 STAT SP IPHASW D HRMM SECON CODA AMPLIT PERI AZIMU VELO AIN AR TRES W  DIS CAZ7
 BRR  HZ EP        4 0  9.16                             153    0.4210 73.0 302 
 BRR  HN ES        4 0 26.30                             153    0.5510 73.0 302 
 BRR  HZ I         4 0 28.65         3.8 0.28            148           73.0 302 
 RUS  HZ EP        4 0 10.93                             146    0.0610 96.0 175 
 RUS  HN ES        4 0 29.19                             146   -0.3610 96.0 175 
 RUS  HZ I         4 0 30.95         1.8 0.36            149           96.0 175 
 PTB  HZ EP        4 0 14.17                             134   -0.02 9  146 261 
 PTB  HN ES        4 0 35.36                             134   -0.09 9  146 261 
 PTB  HZ I         4 0 42.49         2.6 0.32            131            146 261 
 SPBC HZ EP        4 0 16.12                             131    0.67 9  159 220 
 SPBC HN ES        4 0 37.12                             131   -0.58 9  159 220 
 SPBC HZ I         4 0 45.08         4.9 0.36            131            159 220 
 SML  HZ EP        4 0 23.94                             118   -0.34 8  248 336 
 SML  HN ES        4 0 52.73                             118   -0.68 8  248 336 
 SML  HZ I         4 1  4.72         3.5 0.10            118            248 336 
                                                                                
