 2016 1025 0513  9.7 L   6.763 -73.180145.9  RSN  4 0.1 1.3LRSN                1
 GAP=231        0.42       2.6     3.1  3.8  0.2423E+01 -0.5800E+00  0.4252E+00E
 Epicentro: LOS SANTOS - SANTANDER                                             3
 ACTION:UPD 16-11-09 19:22 OP:rebc STATUS:               ID:20161025051309 L   I
 OLDACT:DUP 16-10-25 17:29 OP:cara STATUS:               ID:20161025050741d    3
 2016-10-25-0508-00M.COL___358                                                 6
 STAT SP IPHASW D HRMM SECON CODA AMPLIT PERI AZIMU VELO AIN AR TRES W  DIS CAZ7
 BRR  HZ EP        513 30.88                             153    0.0810 70.1 303 
 BRR  HE ES        513 47.27                             153    0.0110 70.1 303 
 BRR  HZ I         513 49.33         4.4 0.18            153           70.1 303 
 RUS  HZ EP        513 33.37                             145    0.1810 96.8 174 
 RUS  HN ES        513 51.37                             145   -0.1510 96.8 174 
 RUS  HZ I         513 52.51         1.8 0.30            145           96.8 174 
 PTB  HZ EP        513 36.01                             133   -0.26 9  143 260 
 PTB  HN ES        513 57.04                             133    0.04 9  143 260 
 PTB  HZ I         513 59.12         1.7 0.24            133            143 260 
 SPBC HZ EP        513 37.67                             130   -0.01 9  158 219 
 SPBC HN ES        513 59.62                             130    0.11 9  158 219 
 SPBC HZ I         514  4.16         4.9 0.84            130            158 219 
                                                                                
