 2017  125 0803 27.7 L   6.378 -73.714 98.3  RSN 11 0.4 1.7LRSN                1
 GAP= 60        1.08       3.3     3.5  6.9 -0.2944E+00  0.3055E+01  0.4913E+01E
 Epicentro: SANTA HELENA DEL OPON - SANTANDER                                  3
 ACTION:UPD 17-05-22 16:03 OP:jn   STATUS:               ID:20170125080327 L   I
 OLDACT:REG 17-01-25 13:06 OP:lv   STATUS:               ID:20170125075742     3
 2017-01-25-0758-00M.COL___349                                                 6
 STAT SP IPHASW D HRMM SECON CODA AMPLIT PERI AZIMU VELO AIN AR TRES W  DIS CAZ7
 BAR2 EZ EP        8 3 43.88                             145    0.1310 63.4  68 
 BAR2 EZ ES        8 3 56.74                             145    0.4810 63.4  68 
 BRR  HZ EP     C  8 3 44.79                             138    0.0410 80.6   0 
 BRR  HE ES        8 3 58.59                             138    0.5510 80.6   0 
 BRR  HZ I         8 4  6.84        11.4 0.14            132           80.6   0 
 PTB  HZ EP        8 3 44.41                             136   -0.6510 84.1 282 
 PTB  HN ES        8 3 58.21                             136   -0.3810 84.1 282 
 PTB  HZ I         8 3 58.89        21.7 0.16            125           84.1 282 
 RUS  HZ EP        8 3 45.69                             136   -0.3710 88.0 128 
 RUS  HN ES        8 3 59.75                             136   -0.6110 88.0 128 
 RUS  HZ I         8 4  3.32        10.1 0.09            127           88.0 128 
 PAM  EZ EP        8 3 52.27                             119   -0.38 9  155  46 
 PAM  EN ES        8 4 12.04                             119   -0.05 9  155  46 
 PAM  EZ I         8 4 13.05         5.5 0.20            113            155  46 
 ZAR  HZ EP        8 3 54.90                             115    0.43 9  177 314 
 ZAR  HN ES   4    8 4 17.21                             115    1.87 0  177 314 
 ZAR  HZ I         8 4 20.85        12.5 0.11            107            177 314 
 ROSC BZ EP   4    8 3 57.29                             114    1.63 0  183 202 
 ROSC BZ I         8 4 24.83         7.6 0.45            106            183 202 
 CHI  HZ EP        8 3 57.01                             113    0.14 9  193 181 
 CHI  HN ES        8 4 20.42                             113    0.80 9  193 181 
 CHI  HZ I         8 4 27.94         3.4 0.36            105            193 181 
 ELA  HZ EP   9    8 4  6.82                             107    3.09 0  251 228 
 ELA  HN ES        8 4 34.64                                   -0.27 8  251 228 
 ELA  HZ I         8 4 38.66         4.0 0.42            101            251 228 
 CBOC HZ EP   9    8 4  6.10                             106    1.69 0  261 258 
 CBOC HN ES        8 4 34.88                                    0.16 8  261 258 
 CBOC HZ I         8 4 40.96         1.8 0.50            101            261 258 
 ORTC HZ EP        8 4 11.83                             103    0.31 7  322 212 
 ORTC HE ES   4    8 4 47.90                             103    2.22 0  322 212 
 ORTC HZ I         8 4 52.51         4.5 0.36             98            322 212 
                                                                                
