 2017  925 0436 31.0 L   6.813 -73.099147.0  RSN  4 0.2 1.3LRSN                1
 GAP=243        0.59       6.6     7.5  4.7  0.4167E+02 -0.6919E+00 -0.4878E+01E
 Epicentro: LOS SANTOS - SANTANDER                                             3
 ACTION:UPD 17-10-05 19:15 OP:rebc STATUS:               ID:20170925043631 L   I
 OLDACT:UP  17-09-25 16:04 OP:edw  STATUS:               ID:20170925042745d    3
 OLDACT:DUP 17-09-25 16:02 OP:edw  STATUS:               ID:20170925042745d    3
 OLDACT:REG 17-09-25 12:59 OP:edw  STATUS:               ID:20170925042744     3
 2017-09-25-0428-00M.COL___411                                                 6
 STAT SP IPHASW D HRMM SECON CODA AMPLIT PERI AZIMU VELO AIN AR TRES W  DIS CAZ7
 BAR2 EZ EP        436 50.85                             169    0.0110 26.1 201 
 BAR2 EZ ES        437  5.94                             169   -0.3710 26.1 201 
 BAR2 EZ I         437  7.34         9.1 0.36            171           26.1 201 
 BRR  HZ EP        436 52.49                             151   -0.0210 75.1 296 
 BRR  HN ES        437  9.67                             151    0.3910 75.1 296 
 BRR  HZ I         437 13.53         4.1 0.44            152           75.1 296 
 RUS  HZ EP        436 55.02                             144    0.0610  102 179 
 RUS  HN ES        437 13.76                             144    0.1110  102 179 
 RUS  HZ I         437 14.47         1.6 0.24            147            102 179 
 ZAR  HZ EP        437  3.94                             122   -0.03 8  208 291 
 ZAR  HN ES        437 29.45                             122   -0.23 8  208 291 
                                                                                
