 2014  225 0425 50.2 L   6.825 -73.176150.4  RSN 12 0.3 2.0LRSN                1
 GAP=132        0.57       2.1     2.9  4.3 -0.1768E+00  0.3943E+01 -0.8879E-01E
 Epicentro: LOS SANTOS - SANTANDER                                             3
 ACTION:UPD 14-03-10 08:13 OP:ep   STATUS:               ID:20140225042550 L   I
 OLDACT:REG 14-02-25 08:07 OP:fm   STATUS:               ID:20140225041814     3
 2014-02-25-0418-14M.COL___236                                                 6
 STAT SP IPHASW D HRMM SECON CODA AMPLIT PERI AZIMU VELO AIN AR TRES W  DIS CAZ7
 PAM  SZ EP        426 13.36                             151    0.4210 77.5  43 
 PAM  SN ES        426 30.63                             151   -0.0310 77.5  43 
 PAM  SZ I         426 32.66        18.3 0.56            156           77.5  43 
 RUS  HZ EP        426 14.47                             144   -0.1810  104 174 
 RUS  HN ES        426 33.55                             144   -0.1610  104 174 
 RUS  HZ I         426 35.92         7.6 0.40            146            104 174 
 PTB  HZ EP        426 17.03                             134   -0.30 9  145 257 
 PTB  HN ES   1    426 38.70                             134    0.22 7  145 257 
 PTB  HZ I         426 40.75         9.2 0.12            133            145 257 
 OCA  HN ES   4    426 40.68                             131   -0.07 0  157 354 
 OCA  HZ I         426 45.14         7.8 0.18            133            157 354 
 SPBC HN ES   2    426 41.79                             130    0.17 5  163 217 
 ZAR  HN ES        426 47.82                             124    0.05 9  200 292 
 ZAR  HZ I         426 56.09         8.2 0.32            124            200 292 
 NOR  HN ES   4    426 53.26                             119   -0.85 0  234 233 
 SML  HZ EP   1    426 26.58                             119   -0.11 6  240 336 
 SML  HZ IP        426 26.58                             119   -0.11 8  240 336 
 SML  HE ES   4    426 56.44                             119    1.30 0  240 336 
 SML  HZ I         426 58.37        13.8 0.10            120            240 336 
 CHI  HZ EP        426 28.66                             118    0.28 8  250 194 
 CHI  HN ES        426 57.94                             118   -0.21 8  250 194 
 CHI  HZ I         427  3.35         3.0 0.28            119            250 194 
 GUY2CHZ EP   4    426 35.76                             113    1.83 0  300 234 
 GUY2CHE ES   4    427 12.18                             113    4.16 0  300 234 
 GUY2CHZ I         427 17.12         6.2 0.82                           300 234 
 RREF HZ EP   4    426 38.56                             112    2.07 0  321 229 
 RREF HN ES   4    427 16.54                             112    3.96 0  321 229 
 RREF HZ I         427 21.43         5.9 0.26            113            321 229 
 PRA  HZ EP        426 44.51                             107    0.51 6  393 209 
 PRA  HN ES   4    427 27.66                             107    1.71 0  393 209 
 PRA  HZ I         427 31.74         3.0 0.26            108            393 209 
 SJC  HZ EP   2    426 44.76                             106   -0.69 3  405 327 
 SJC  HN ES   4 D  427 26.51                             106   -2.02 0  405 327 
 SJC  HZ I         427 29.02         1.9 0.62            108            405 327 
                                                                                
