 2010  325 0051 57.6 L   6.492 -73.243136.6  RSN  4 0.4 1.6LRSN                1
 GAP=202        0.82       6.1    12.6 11.2  0.3443E+02  0.7123E+02  0.2366E+02E
 Epicentro: SOCORRO - SANTANDER                                                3
 ACTION:UP  10-08-24 09:55 OP:vdl  STATUS:               ID:20100325005157 L   I
 2010-03-25-0050-43S.COL___098                                                 6
 STAT SP IPHASW D HRMM SECON CODA AMPLIT PERI AZIMU VELO SNR AR TRES W  DIS CAZ7
 RUS  HZ EP   1    052 18.79                             152     0.4 7   69 165 
 RUS  HE ES   1    052 34.06                             152    -0.5 7   69 165 
 RUS  HZ I         052 35.60         3.7 0.25                            69 165 
 BRR  HZ IP        052 18.75                             145     0.010   86 323 
 BRR  HE ES   1    052 35.28                             145     0.1 7   86 323 
 BRR  HZ I         052 36.96        12.4 0.32                            86 323 
 HEL  HZ EP   2    052 34.73                             114    -0.8 4  255 263 
 HEL  HZ I         053  7.85         3.3 0.32                           255 263 
 PRA  HZ EP   2    052 46.10                             106    -0.7 3  357 211 
 PRA  HE ES   1    053 25.72                             106     0.6 5  357 211 
                                                                                
