 2011 1225 0052 51.5 L   6.675 -73.196141.5  RSN  5 0.3 1.7LRSN                1
 GAP=170        0.60       5.8     5.1  6.0  0.8204E+01  0.3729E+01  0.1708E+01E
 Epicentro: VILLANUEVA - SANTANDER                                             3
 ACTION:UPD 12-07-13 16:18 OP:ep   STATUS:               ID:20111225005251 L   I
 2011-12-25-0050-00M.COL___189                                                 6
 STAT SP IPHASW D HRMM SECON CODA AMPLIT PERI AZIMU VELO AIN AR TRES W  DIS CAZ7
 BAR2 SZ EP   1    053 10.30                             176   -0.08 7 9.25 170 
 BAR2 SZ ES   1    053 24.65                             176   -0.48 7 9.25 170 
 BAR2 SZ I         053 27.34         6.7 0.27                          9.25 170 
 GIR2 SZ EP   1    053 10.85                             161   -0.22 7 44.7   0 
 BRR  HZ EP        053 12.60                             150    0.2610 74.4 310 
 BRR  HN ES   1    053 28.95                             150    0.32 7 74.4 310 
 BRR  HN I         053 30.45        46.6 0.10                          74.4 310 
 RUS  HZ EP   1    053 14.01                             147    0.14 7 87.4 172 
 RUS  HN ES   2    053 31.86                             147    0.51 5 87.4 172 
 RUS  HZ I         053 34.37         2.7 0.38                          87.4 172 
 PTB  HZ EP        053 17.25                             132   -0.14 9  140 264 
 PTB  HN ES   1    053 37.45                             132   -0.17 7  140 264 
                                                                                
