 2014 1225 0217 51.6 L   6.796 -73.130146.5  RSN 13 0.5 1.8LRSN                1
 GAP=139        1.02       2.8     3.8  5.4 -0.1313E+01  0.6217E+01  0.2042E+01E
 Epicentro: LOS SANTOS - SANTANDER                                             3
 ACTION:UPD 15-02-10 17:07 OP:nd   STATUS:               ID:20141225021751 L   I
 OLDACT:REG 14-12-25 13:14 OP:mh   STATUS:               ID:20141225020739     3
 2014-12-25-0207-39M.COL___292                                                 6
 STAT SP IPHASW D HRMM SECON CODA AMPLIT PERI AZIMU VELO AIN AR TRES W  DIS CAZ7
 BAR2 EZ EP        218 11.49                             171    0.1410 23.3 194 
 BAR2 EZ ES        218 26.87                             171    0.1410 23.3 194 
 BAR2 EZ I         218 29.15        14.7 0.32            168           23.3 194 
 BRR  HZ EP        218 13.33                             152    0.3710 72.9 298 
 BRR  HN ES        218 29.90                             152    0.3110 72.9 298 
 BRR  HZ I         218 34.83         8.7 0.14            150           72.9 298 
 PAM  SZ EP        218 14.36                             151    0.4710 76.6  38 
 PAM  SN ES        218 31.27                             151    0.0310 76.6  38 
 PAM  SZ I         218 32.34         5.3 0.18            156           76.6  38 
 RUS  HZ EP        218 15.28                             144   -0.1410  100 177 
 RUS  HN ES        218 33.35                             144   -0.6210  100 177 
 RUS  HZ I         218 35.45         6.3 0.30            147            100 177 
 PTB  HZ EP        218 18.45                             132   -0.36 9  149 259 
 PTB  HN ES        218 39.05                             132   -0.95 9  149 259 
 PTB  HZ I         218 46.57         8.4 0.42            132            149 259 
 OCA  HN ES        218 42.48                             130    0.24 9  161 353 
 OCA  HZ I         218 46.73         8.6 0.15            132            161 353 
 SPBC HZ EP        218 20.46                             129    0.20 9  164 220 
 SPBC HN ES   1    218 43.02                             129    0.43 7  164 220 
 SPBC HZ I         218 50.23        11.9 0.34            130            164 220 
 ZAR  HZ EP   1    218 24.09                             122   -0.22 6  206 292 
 ZAR  HN ES        218 49.71                             122   -0.08 8  206 292 
 ZAR  HZ I         218 55.59         8.6 0.28            123            206 292 
 NOR  HZ EP        218 27.71                             118    0.18 8  236 235 
 NOR  HE ES        218 55.89                             118    0.36 8  236 235 
 SML  HZ EP        218 27.87                             117   -0.55 8  245 335 
 SML  HN ES   1    218 56.18                             117   -0.94 6  245 335 
 SML  HZ I         219  1.62        10.4 0.28            120            245 335 
 CHI  HZ EP        218 28.61                             117   -0.77 8  249 196 
 CHI  HN ES        218 59.02                             117    0.20 8  249 196 
 CHI  HZ I         219  7.27         2.8 0.34            120            249 196 
 HEL  HZ EP   1    218 33.03                             115    0.97 6  274 256 
 HEL  HN ES        219  3.86                             115    0.28 8  274 256 
 HEL  HZ I         219 11.38         3.3 0.28            116            274 256 
 TOL  SZ EP        218 39.98                             109   -0.04 7  344 225 
 TOL  SN ES        219 18.32                             109    0.56 7  344 225 
                                                                                
