 2011  825 0517 57.0 L   6.774 -73.113151.1  RSN  6 0.2 1.6LRSN                1
 GAP=186        0.48       3.1     6.0  4.8  0.3573E+01 -0.3047E+01 -0.2783E+01E
 Epicentro: LOS SANTOS - SANTANDER                                             3
 ACTION:UPD 12-07-13 15:53 OP:ep   STATUS:               ID:20110825051757 L   I
 2011-08-25-0500-00M.COL___156                                                 6
 STAT SP IPHASW D HRMM SECON CODA AMPLIT PERI AZIMU VELO AIN AR TRES W  DIS CAZ7
 BAR2 SZ EP   1    518 17.43                             171    0.20 7 21.5 201 
 BAR2 SZ ES   1    518 32.46                             171   -0.55 7 21.5 201 
 BAR2 SZ I         518 33.94        16.0 0.16                          21.5 201 
 GIR2 SZ EP   1    518 17.34                             166   -0.05 7 34.8 345 
 GIR2 SZ ES   2    518 33.62                             166    0.32 5 34.8 345 
 BRR  HZ EP   1    518 19.07                             152    0.10 7 75.7 299 
 BRR  HE ES   1    518 36.31                             152    0.20 7 75.7 299 
 BRR  HZ I         518 38.80         7.9 0.22                          75.7 299 
 RUS  HZ EP   1    518 21.04                             146   -0.02 7 97.6 178 
 RUS  HN ES   1    518 40.02                             146    0.19 7 97.6 178 
 RUS  HZ I         518 41.04         2.7 0.29                          97.6 178 
 OCA  SZ EP   1    518 25.93                             130   -0.09 7  164 352 
 OCA  SZ ES   2    518 48.57                             130   -0.10 5  164 352 
 OCA  SZ I         518 52.55         3.1 0.28                           164 352 
 NOR  SE ES   2    519  1.07                             119   -0.32 4  236 236 
                                                                                
