 2013  725 0754 36.9 L   6.502 -73.121126.4  RSN  4 0.6 1.1LRSN                1
 GAP=306        1.15      16.9    11.6 16.3  0.3974E+02  0.6975E+01  0.5851E+02E
 Epicentro: VALLE DE SAN JOSE - SANTANDER                                      3
 ACTION:UPD 13-08-12 10:39 OP:ep   STATUS:               ID:20130725075436 L   I
 OLDACT:UP  13-07-29 15:43 OP:ep   STATUS:               ID:20130725075436 L   3
 OLDACT:DUP 13-07-29 00:58 OP:stll STATUS:               ID:20130725075436 L   3
 OLDACT:DUP 13-07-25 12:22 OP:cam  STATUS:               ID:20130725074960d    3
 2013-07-25-0749-59M.COL___266                                                 6
 STAT SP IPHASW D HRMM SECON CODA AMPLIT PERI AZIMU VELO AIN AR TRES W  DIS CAZ7
 BAR2 SZ EP   1    754 54.93                             174    0.88 9 12.1 326 
 BAR2 SZ I         754 55.35         2.7 0.12            171           12.1 326 
 BRR  HZ EP   1    754 56.70                             141   -0.90 9 93.5 316 
 BRR  HN ES   1    755 13.44                             141   -0.28 9 93.5 316 
 BRR  HZ I         755 14.51         2.4 0.36            141           93.5 316 
 PTB  HZ EP   1    755  1.87                             127   -0.53 8  148 272 
 PTB  HN ES   1    755 22.21                             127   -0.06 8  148 272 
 PTB  HZ I         755 25.71         1.2 0.16            126            148 272 
 ZAR  HZ EP        755 10.26                             116    0.2110  221 300 
 ZAR  HE ES   1    755 36.68                             116    0.81 7  221 300 
 ZAR  HZ I         755 39.67         2.2 0.52            116            221 300 
                                                                                
