 2015  325 0933 16.2 L   6.806 -73.149145.8  RSN  8 0.5 1.6LRSN                1
 GAP=201        1.28       5.1     7.1  7.9  0.1134E+02  0.4508E+01 -0.1111E+02E
 Epicentro: LOS SANTOS - SANTANDER                                             3
 ACTION:UPD 15-04-30 16:29 OP:nd   STATUS:               ID:20150325093316 L   I
 OLDACT:DUP 15-03-25 16:04 OP:fm   STATUS:               ID:20150325092738d    3
 2015-03-25-0927-37M.COL___278                                                 6
 STAT SP IPHASW D HRMM SECON CODA AMPLIT PERI AZIMU VELO AIN AR TRES W  DIS CAZ7
 BAR2 EZ EP        933 36.06                             170    0.2510 23.9 189 
 BAR2 EZ ES        933 51.02                             170   -0.1110 23.9 189 
 BAR2 EZ I         933 51.95        10.4 0.32            165           23.9 189 
 BRR  HZ EP        933 37.72                             153    0.4410 70.6 298 
 BRR  HN ES        933 54.43                             153    0.6810 70.6 298 
 BRR  HZ I         933 55.56         8.8 0.20            147           70.6 298 
 RUS  HZ EP        933 40.16                             144    0.2010  101 176 
 RUS  HN ES        933 57.63                             144   -0.9010  101 176 
 RUS  HZ I         934  0.61         2.0 0.18            144            101 176 
 PTB  HZ EP        933 42.96                             132   -0.15 9  148 259 
 PTB  HE ES        934  3.16                             132   -0.97 9  148 259 
 PTB  HZ I         934 10.98         4.1 0.56            129            148 259 
 SPBC HZ EP        933 45.13                             129    0.44 9  163 219 
 SPBC HN ES        934  7.57                             129    0.63 9  163 219 
 SPBC HZ I         934 11.37         3.1 0.24            127            163 219 
 ZAR  HZ EP        933 48.76                             122    0.21 9  203 292 
 ZAR  HN ES        934 13.99                             122    0.18 9  203 292 
 ZAR  HZ I         934 22.67         4.1 0.40            121            203 292 
 SML  HZ EP        933 52.21                             117   -0.50 8  243 335 
 SML  HN ES        934 20.91                             117   -0.30 8  243 335 
 SML  HZ I         934 23.74         5.1 0.22            118            243 335 
 MON  HZ EP        934  4.46                             109   -0.62 6  353 308 
 MON  HN ES   4    934 41.84                             109   -1.40 0  353 308 
 MON  HZ I         934 48.22         1.7 0.56            109            353 308 
                                                                                
