 2012 1025 0654  0.3 L   6.774 -73.124151.2  RSN  7 0.3 1.9LRSN                1
 GAP=141        0.56       3.5     5.5  7.2  0.5581E+01 -0.5417E+01 -0.5445E+01E
 Epicentro: LOS SANTOS - SANTANDER                                             3
 ACTION:UPD 12-11-22 17:05 OP:ep   STATUS:               ID:20121025065400 L   I
 2012-10-25-0650-00M.COL___234                                                 6
 STAT SP IPHASW D HRMM SECON CODA AMPLIT PERI AZIMU VELO AIN AR TRES W  DIS CAZ7
 BAR2 SZ EP   1    654 20.33                             172   -0.18 7 21.1 198 
 BAR2 SZ I         654 38.76         9.5 0.23                          21.1 198 
 GIR2 SZ EP   1    654 20.53                             166   -0.15 7 34.6 347 
 BRR  HZ EP   1    654 22.30                             152    0.09 7 74.7 300 
 BRR  HE ES   1    654 39.74                             152    0.43 7 74.7 300 
 BRR  HE I         654 40.54        22.5 0.23                          74.7 300 
 PAM  SZ EP   1    654 23.25                             151    0.14 7 78.1  37 
 PAM  SN ES   2    654 40.96                             151    0.04 5 78.1  37 
 PAM  SN I         654 41.83        12.7 0.29                          78.1  37 
 RUS  HZ EP   1    654 24.71                             146    0.36 7 97.6 177 
 RUS  HN ES        654 42.95                             146   -0.1810 97.6 177 
 RUS  HN I         654 44.74         7.9 0.26                          97.6 177 
 OCA  HE ES   2    654 51.43                             130   -0.51 5  163 352 
 ZAR  HN ES   2    654 58.69                             123   -0.58 4  207 293 
 ZAR  HN I         655  1.69         7.7 0.30                           207 293 
                                                                                
