 2016 1125 0558 19.8 L   6.112 -73.700113.6  RSN  4 0.1 1.2LRSN                1
 GAP=252        0.45       4.3     2.3  4.5  0.1548E+01  0.3089E+01  0.4783E+01E
 Epicentro: CHIPATA - SANTANDER                                                3
 ACTION:UPD 17-10-26 21:11 OP:lp   STATUS:               ID:20161125055819 L   I
 OLDACT:REG 16-11-25 12:57 OP:edw  STATUS:               ID:20161125055745     3
 2016-11-25-0558-00M.COL___349                                                 6
 STAT SP IPHASW D HRMM SECON CODA AMPLIT PERI AZIMU VELO AIN AR TRES W  DIS CAZ7
 BAR2 EZ EP        558 38.64                             143    0.2110 78.1  47 
 BAR2 EZ ES        558 52.98                             143    0.0410 78.1  47 
 BAR2 EZ I         558 53.82         8.3 0.14            145           78.1  47 
 PTB  HZ EP        558 39.36                             137   -0.1810 96.2 300 
 PTB  HN ES        558 54.95                             137    0.0310 96.2 300 
 PTB  HZ I         558 57.30         2.1 0.14            137           96.2 300 
 BRR  HZ EP        558 40.60                             132   -0.1210  110 359 
 BRR  HN ES        558 56.87                             132   -0.1610  110 359 
 BRR  HZ I         558 58.82         2.6 0.14            133            110 359 
 ZAR  HZ EP        558 49.86                             115   -0.00 9  199 320 
 ZAR  HN ES        559 13.54                             115    0.24 9  199 320 
 ZAR  HZ I         559 15.96         2.3 0.14            116            199 320 
                                                                                
