 2016  825 0827 17.7 L   6.825 -73.151146.8  RSN 20 0.5 2.1LRSN                1
 GAP=119        1.05       2.5     3.3  4.7 -0.2066E+01  0.2733E+01 -0.9364E-01E
 Epicentro: LOS SANTOS - SANTANDER                                             3
 ACTION:UPD 16-10-29 15:39 OP:rebc STATUS:               ID:20160825082717 L   I
 OLDACT:DUP 16-08-25 17:19 OP:ak   STATUS:               ID:20160825081749d    3
 2016-08-25-0818-00M.COL___366                                                 6
 STAT SP IPHASW D HRMM SECON CODA AMPLIT PERI AZIMU VELO AIN AR TRES W  DIS CAZ7
 BAR2 EZ IP     C  827 37.54                             170    0.0210 26.0 188 
 BAR2 EZ ES        827 52.77                             170   -0.2010 26.0 188 
 BAR2 EZ I         827 53.74        27.0 0.24                          26.0 188 
 BRR  HZ EP        827 39.28                             153    0.4010 69.4 297 
 BRR  HN ES        827 55.88                             153    0.5010 69.4 297 
 BRR  HZ I         828  0.35        22.7 0.34                          69.4 297 
 PAM  EZ EP        827 40.49                             151    0.5510 75.6  41 
 PAM  EN ES        827 57.50                             151    0.2310 75.6  41 
 PAM  EZ I         827 59.66        17.8 0.46                          75.6  41 
 RUS  HZ EP        827 41.70                             143   -0.0710  103 176 
 RUS  HN ES        828  0.29                             143   -0.2410  103 176 
 RUS  HZ I         828  1.41        14.9 0.30                           103 176 
 PTB  HZ EP        827 43.92                             132   -0.85 9  148 258 
 PTB  HN ES        828  5.16                             132   -0.71 9  148 258 
 PTB  HZ I         828 12.23         8.5 0.10                           148 258 
 OCA  HZ EP        827 46.65                             130    0.81 9  157 353 
 OCA  HN ES        828  7.54                             130   -0.24 9  157 353 
 OCA  HZ I         828 12.63        13.3 0.46                           157 353 
 SPBC HZ EP        827 46.46                             129   -0.00 9  165 218 
 SPBC HE ES        828  9.04                             129    0.15 9  165 218 
 SPBC HZ I         828 12.44        21.6 0.19                           165 218 
 ZAR  HZ EP   2    827 50.11                             123    0.04 4  203 291 
 ZAR  HN ES        828 15.02                             123   -0.28 9  203 291 
 ZAR  HZ I         828 24.49         9.3 0.21                           203 291 
 NOR  HZ EP        827 53.64                             119    0.01 8  236 234 
 NOR  HE ES        828 21.62                             119   -0.02 8  236 234 
 NOR  HZ I         828 28.87         8.7 0.25                           236 234 
 CHI  HZ EP        827 55.72                             117   -0.02 8  251 195 
 CHI  HN ES        828 25.14                             117   -0.26 8  251 195 
 CHI  HZ I         828 28.26         6.5 0.36                           251 195 
 ROSC BZ EP   4    827 57.56                             117    1.44 0  255 211 
 ROSC BN ES   4    828 29.01                             117    2.94 0  255 211 
 ROSC BZ I         828 33.02         8.8 0.40                           255 211 
 HEL  HZ EP   2    827 58.88                             115    0.88 4  272 255 
 HEL  HN ES        828 30.12                             115    0.71 8  272 255 
 HEL  HZ I         828 37.14         6.1 0.36                           272 255 
 URE  HZ EP   2    827 57.69                             114   -0.97 4  282 291 
 URE  HN ES        828 29.71                             114   -0.89 7  282 291 
 URE  HZ I         828 33.18         6.4 0.20                           282 291 
 SOCV BZ EP        828  0.10                             112   -0.60 7  300  57 
 SOCV BN ES   4    828 31.11                             112   -3.11 0  300  57 
 GUY2CHZ EP        828  2.07                             112    0.57 7  302 234 
 GUY2CHN ES   4    828 37.63                             112    1.98 0  302 234 
 GUY2CHZ I         828 43.68         5.6 0.20                           302 234 
 PTGC HZ EP   4    828  0.73                             112   -1.20 0  311 159 
 PTGC HN ES   4    828 34.03                             112   -2.39 0  311 159 
 PTGC HZ I         828 42.74         7.6 0.10                           311 159 
 LL6C HZ EP        828  2.67                             111   -0.47 7  322 358 
 LL6C HE ES        828 38.80                             111    0.22 7  322 358 
 ELA  HN ES   4    828 45.06                             110    3.59 0  330 229 
 CBOC HZ EP        828  5.21                             110    0.50 7  334 252 
 CBOC HN ES        828 42.20                             110    0.84 7  334 252 
 CBOC HZ I         828 58.62         2.3 0.66                           334 252 
 PRA  HZ EP        828 11.01                             107   -0.51 6  394 209 
 PRA  HN ES        828 53.30                             107   -0.19 6  394 209 
 PRA  HZ I         828 59.62         3.3 0.18                           394 209 
 CRJC HZ EP   4    828 17.68                             104   -2.24 0  465   4 
 CRJC HN ES        829  7.61                             104   -0.83 5  465   4 
 CRJC HZ I         829  9.90         3.5 0.19                           465   4 
                                                                                
