 2011  925 0129 11.6 L   6.702 -73.254164.9  RSN  4 0.3 1.6LRSN                1
 GAP=149        0.53       4.5    13.5  8.8  0.2514E+02 -0.6096E+02 -0.1204E+02E
 Epicentro: BARICHARA - SANTANDER                                              3
 ACTION:UPD 12-07-13 15:59 OP:ep   STATUS:               ID:20110925012911 L   I
 2011-09-25-0127-33S.COL___165                                                 6
 STAT SP IPHASW D HRMM SECON CODA AMPLIT PERI AZIMU VELO AIN AR TRES W  DIS CAZ7
 BAR2 SZ EP   2    129 33.05                             175   -0.40 5 14.5 147 
 BAR2 SZ I         129 51.36         4.2 0.21                          14.5 147 
 BRR  HZ EP   1    129 35.12                             157    0.41 7 67.6 312 
 BRR  HZ I         129 35.57         7.3 0.16                          67.6 312 
 BRR  HE ES   1    129 52.45                             157   -0.26 7 67.6 312 
 RUS  HZ EP   2    129 36.52                             150   -0.23 5 91.5 168 
 RUS  HE ES   2    129 56.65                             150    0.32 5 91.5 168 
 OCA  SZ EP   1    129 42.26                             132   -0.13 7  170 358 
 OCA  SZ ES   1    130  6.48                             132    0.12 7  170 358 
 OCA  SZ I         130  8.68         5.6 0.58                           170 358 
                                                                                
