 2017  325 0821 42.8 L   6.786 -73.144142.6  RSN  6 0.5 1.5LRSN                1
 GAP=244        1.16       6.3     6.8  8.2  0.1523E+02  0.1598E+02  0.2575E+00E
 Epicentro: LOS SANTOS - SANTANDER                                             3
 ACTION:UPD 17-05-25 18:44 OP:jn   STATUS:               ID:20170325082142 L   I
 OLDACT:REG 17-03-25 12:48 OP:dani STATUS:               ID:20170325081747     3
 2017-03-25-0818-00M.COL___352                                                 6
 STAT SP IPHASW D HRMM SECON CODA AMPLIT PERI AZIMU VELO AIN AR TRES W  DIS CAZ7
 BAR2 EZ EP        822  1.99                             171   -0.0110 21.9 191 
 BAR2 EZ ES        822 16.41                             171   -0.5810 21.9 191 
 BAR2 EZ I         822 17.98         7.4 0.32            167           21.9 191 
 RUS  HZ EP        822  6.49                             143    0.3810 99.0 176 
 RUS  HE ES        822 24.81                             143    0.5110 99.0 176 
 RUS  HZ I         822 26.03         2.3 0.22            143           99.0 176 
 PTB  HZ EP        822  8.81                             131   -0.67 9  148 259 
 PTB  HN ES        822 29.77                             131   -0.53 9  148 259 
 PTB  HZ I         822 32.32         5.1 0.16            129            148 259 
 SPBC HZ EP        822 11.09                             128    0.16 9  162 219 
 SPBC HE ES        822 33.08                             128    0.19 9  162 219 
 SPBC HZ I         822 37.08         5.5 0.16            127            162 219 
 ZAR  HZ EP        822 14.95                             121   -0.14 9  205 293 
 ZAR  HE ES        822 41.31                             121    1.01 9  205 293 
 ZAR  HZ I         822 46.36         3.5 0.32            121            205 293 
 PRA  HZ EP        822 35.77                             106   -0.27 6  391 210 
 PRA  HE ES        823 17.33                             106   -0.26 6  391 210 
 PRA  HZ I         823 24.57         1.3 0.36            106            391 210 
                                                                                
