 2014 1225 0238 42.9 L   6.842 -73.124152.9  RSN  4 0.4 1.4LRSN                1
 GAP=247        0.87       8.5     8.2 13.1  0.4832E+02 -0.5235E+02 -0.6800E+02E
 Epicentro: LOS SANTOS - SANTANDER                                             3
 ACTION:UPD 15-02-10 17:07 OP:nd   STATUS:               ID:20141225023842 L   I
 OLDACT:REG 14-12-25 13:25 OP:mh   STATUS:               ID:20141225023736     3
 2014-12-25-0237-36M.COL___292                                                 6
 STAT SP IPHASW D HRMM SECON CODA AMPLIT PERI AZIMU VELO AIN AR TRES W  DIS CAZ7
 RUS  HZ EP        239  7.74                             144    0.0410  105 178 
 RUS  HN ES   1    239 26.99                             144   -0.03 7  105 178 
 RUS  HZ I         239 28.65         1.5 2.15            150            105 178 
 PTB  HZ EP        239 11.15                             133    0.37 9  151 257 
 PTB  HN ES        239 32.08                             133   -0.42 9  151 257 
 PTB  HZ I         239 34.98         2.9 0.10            136            151 257 
 SPBC HZ EP        239 12.60                             130    0.15 9  168 219 
 SPBC HE ES        239 35.53                             130    0.04 9  168 219 
 SPBC HZ I         239 39.71         5.3 0.27            134            168 219 
 ZAR  HZ EP        239 15.20                             124   -0.70 9  205 291 
 ZAR  HN ES        239 42.14                             124    0.51 9  205 291 
 ZAR  HZ I         239 50.08         3.3 0.44            126            205 291 
                                                                                
