 2012  125 0512  0.0 L   6.894 -73.368110.0  RSN  6 0.2 1.4LRSN                1
 GAP=113        0.51       2.6     9.2  6.1  0.9002E+01  0.2357E+02  0.4030E+00E
 Epicentro: SAN VICENTE DE CHUCURI - SANTANDER                                 3
 ACTION:UP  12-02-03 08:20 OP:REBC STATUS:               ID:20120125051200 L   I
 2012-01-25-0510-00M.COL___188                                                 6
 STAT SP IPHASW D HRMM SECON CODA AMPLIT PERI AZIMU VELO SNR AR TRES W  DIS CAZ7
 GIR2 SZ EP   1    512 15.49                             165     0.1 7   28  43 
 BAR2 SZ EP        512 16.04                             159     0.110   39 148 
 BAR2 SZ ES   1    512 28.53                             159     0.2 7   39 148 
 BAR2 SZ I         512 29.56         9.3 0.18                            39 148 
 BRR  HZ EP        512 15.75                             156    -0.110   45 302 
 BRR  HZ I         512 42.00         6.9 0.15                            45 302 
 RUS  HZ EP   1    512 21.77                             130     0.0 7  115 164 
 RUS  HE ES   1    512 38.30                             130    -0.4 7  115 164 
 RUS  HZ I         512 41.12         2.5 0.21                           115 164 
 OCA  SZ EP   1    512 24.57                             122    -0.1 7  149   2 
 OCA  SZ ES   1    512 43.67                             122    -0.1 7  149   2 
 OCA  SZ I         512 45.27         6.6 0.22                           149   2 
 CHI  HZ EP   1    512 36.78                             108     0.2 6  254 189 
 CHI  HZ I         513 14.00         1.1 0.38                           254 189 
                                                                                
