 2015  925 0745 26.1 L   6.737 -73.111138.0  RSN  4 0.5 1.3LRSN                1
 GAP=265        1.11       6.8     9.8 11.9  0.1271E+02 -0.6401E+01  0.1026E+02E
 Epicentro: JORDAN - SANTANDER                                                 3
 ACTION:UPD 15-10-28 16:28 OP:cam  STATUS:               ID:20150925074526 L   I
 OLDACT:REG 15-09-25 12:42 OP:mh   STATUS:               ID:20150925073748     3
 2015-09-25-0737-48M.COL___349                                                 6
 STAT SP IPHASW D HRMM SECON CODA AMPLIT PERI AZIMU VELO AIN AR TRES W  DIS CAZ7
 BAR2 EZ EP        745 44.22                             172   -0.4910 17.8 206 
 BAR2 EZ I         746  0.94         3.9 0.29            171           17.8 206 
 BRR  HZ EP        745 46.75                             149   -0.0910 78.0 302 
 BRR  HN ES        746  3.53                             149    0.5210 78.0 302 
 BRR  HZ I         746  4.90         4.2 0.14            154           78.0 302 
 SPBC HZ EP        745 53.94                             128    0.19 9  160 222 
 SPBC HN ES        746 15.31                             128    0.01 9  160 222 
 SPBC HZ I         746 19.30         3.5 0.10            130            160 222 
 ZAR  HZ EP        745 59.36                             120    0.64 8  210 294 
 ZAR  HN ES        746 23.38                             120   -0.78 8  210 294 
 ZAR  HZ I         746 31.82         1.7 0.08            122            210 294 
                                                                                
