 2014 1125 0305 38.2 L   6.799 -73.144138.2  RSN 23 0.5 2.7LRSN                1
 GAP= 66        1.33       3.5     3.4  6.2 -0.9046E+00  0.4836E+01  0.5128E+01E
 Epicentro: LOS SANTOS - SANTANDER                                             3
 ACTION:UPD 14-12-19 15:47 OP:nd   STATUS:               ID:20141125030538 L   I
 OLDACT:UP  14-11-25 15:33 OP:mh   STATUS:               ID:20141125025746     3
 OLDACT:UP  14-11-25 15:33 OP:mh   STATUS:               ID:20141125025746     3
 OLDACT:UP  14-11-25 15:32 OP:mh   STATUS:               ID:20141125025746     3
 OLDACT:UP  14-11-25 15:31 OP:mh   STATUS:               ID:20141125025746     3
 OLDACT:UP  14-11-25 15:30 OP:mh   STATUS:               ID:20141125025746     3
 OLDACT:UP  14-11-25 15:29 OP:mh   STATUS:               ID:20141125025746     3
 OLDACT:UP  14-11-25 15:29 OP:mh   STATUS:               ID:20141125025746     3
 OLDACT:REG 14-11-25 12:34 OP:mh   STATUS:               ID:20141125025746     3
 2014-11-25-0257-46M.COL___303                                                 6
 STAT SP IPHASW D HRMM SECON CODA AMPLIT PERI AZIMU VELO AIN AR TRES W  DIS CAZ7
 BAR2 SZ EP     C  3 5 57.00                             170    0.0510 23.2 191 
 BAR2 SZ ES        3 6 11.17                             170   -0.3810 23.2 191 
 BAR2 SZ I         3 6 13.98       131.4 0.18            164           23.2 191 
 BRR  HZ EP     C  3 5 58.68                             151    0.1010 71.4 299 
 BRR  HN ES        3 6 15.33                             151    0.8810 71.4 299 
 PAM  SZ EP        3 5 59.61                             149   -0.0310 77.3  39 
 PAM  SN ES        3 6 16.46                             149    0.1210 77.3  39 
 PAM  SZ I         3 6 18.47       199.6 0.50            156           77.3  39 
 RUS  HZ EP     D  3 6  1.12                             142   -0.1110  100 176 
 RUS  HN ES        3 6 19.68                             142    0.5010  100 176 
 RUS  HZ I         3 6 20.95        27.8 0.20            140            100 176 
 PTB  HZ EP   1    3 6  3.58                             130   -1.03 7  148 259 
 PTB  HN ES        3 6 24.27                             130   -0.91 9  148 259 
 PTB  HZ I         3 6 25.80        69.6 0.34            129            148 259 
 TAM  HZ EP     D  3 6  5.46                             129    0.16 9  155 105 
 TAM  HE ES        3 6 26.04                             129   -0.37 9  155 105 
 OCA  HZ EP   1    3 6  5.56                             128   -0.42 7  160 353 
 OCA  HN ES        3 6 27.95                             128    0.33 9  160 353 
 OCA  HZ I         3 6 29.50       115.5 0.20            131            160 353 
 SPBC HZ EP   1    3 6  6.05                             127   -0.11 7  163 219 
 SPBC HN ES   1    3 6 28.07                             127    0.12 7  163 219 
 SPBC HZ I         3 6 38.50        53.5 0.20            126            163 219 
 ZAR  HZ EP     C  3 6  9.68                             121   -0.54 9  204 292 
 ZAR  HN ES        3 6 34.88                             121   -0.29 9  204 292 
 ZAR  HZ I         3 6 40.66        72.6 0.38            121            204 292 
 NOR  HZ EP   1    3 6 13.12                             117   -0.42 6  235 235 
 NOR  HN ES        3 6 40.29                             117   -0.79 8  235 235 
 NOR  HZ I         3 6 52.08        26.6 0.40            116            235 235 
 CHI  HZ EP   1    3 6 15.51                             115   -0.00 6  249 195 
 CHI  HN ES        3 6 44.96                             115    0.37 8  249 195 
 CHI  HZ I         3 6 50.95        18.8 0.44            115            249 195 
 ROSC BZ EP   1    3 6 16.10                             115    0.15 6  253 211 
 ROSC BN ES   4    3 6 47.91                             115    2.54 0  253 211 
 ROSC BZ I         3 6 52.44        43.5 0.40            115            253 211 
 HEL  HZ EP   1    3 6 18.27                             113    0.18 6  272 256 
 HEL  HN ES        3 6 49.77                             113    0.59 8  272 256 
 HEL  HZ I         3 6 55.02        30.7 0.32            113            272 256 
 URE  HZ EP   9    3 6 17.06                             112   -1.91 0  284 292 
 URE  HN ES   0    3 6 47.69                             112   -1.15 7  284 292 
 GUY2CHZ EP   1    3 6 21.97                             111    0.46 5  301 235 
 GUY2CHN ES        3 6 54.75                             111   -0.52 7  301 235 
 GUY2CHZ I         3 7  3.12        16.2 0.52                           301 235 
 VIL  SZ EP   1    3 6 20.72                             111   -0.58 5  303 192 
 VIL  SN ES   1    3 6 54.79                             111   -0.11 5  303 192 
 VIL  SZ I         3 6 59.66        33.0 0.38            111            303 192 
 PTGC HZ EP   9    3 6 20.40                             110   -1.33 0  309 159 
 PTGC HN ES        3 6 53.15                             110   -1.18 7  309 159 
 RREF HZ EP   9    3 6 25.67                             109    1.61 0  322 229 
 RREF HN ES        3 7  3.58                             109    2.16 7  322 229 
 RREF HZ I         3 7 13.41        16.8 0.52            109            322 229 
 CBOC HZ EP        3 6 25.42                             108    0.56 7  334 252 
 CBOC HN ES        3 7  2.13                             108    0.90 7  334 252 
 CBOC HZ I         3 7 12.80         7.5 0.42            109            334 252 
 TOL  SZ EP        3 6 27.31                             108    1.11 7  344 225 
 TOL  SN ES   4    3 7  5.15                             108    1.54 0  344 225 
 TOL  SZ I         3 7 14.30        37.5 0.48            108            344 225 
 MON  HZ EP   9    3 6 24.12                             107   -2.85 0  354 308 
 MON  HN ES        3 7  1.63                             107   -0.51 6  354 308 
 MON  HZ I         3 7  3.16        11.2 0.20            108            354 308 
 ORTC HZ EP   1    3 6 32.11                             105    0.21 4  395 216 
 ORTC HN ES        3 7 13.80                             105    0.03 6  395 216 
 ORTC HZ I         3 7 20.54        15.5 0.36            105            395 216 
 SJC  HZ EP   4    3 6 30.65                             104   -2.93 0  409 327 
 SJC  HN ES   4    3 7 11.63                             104   -5.12 0  409 327 
 SJC  HZ I         3 7 15.88        22.3 0.50            106            409 327 
                                                                                
