 2015 1025 0157 23.3 L   6.820 -73.126144.0  RSN 12 0.4 1.7LRSN                1
 GAP=138        0.88       2.6     3.7  5.2 -0.2706E+00  0.6839E+01  0.2297E+01E
 Epicentro: LOS SANTOS - SANTANDER                                             3
 ACTION:UPD 15-12-22 20:42 OP:cam  STATUS:               ID:20151025015723 L   I
 OLDACT:UP  15-10-25 15:17 OP:mh   STATUS:               ID:20151025014748d    3
 OLDACT:UP  15-10-25 15:15 OP:mh   STATUS:               ID:20151025014748d    3
 OLDACT:UP  15-10-25 15:15 OP:mh   STATUS:               ID:20151025014748d    3
 OLDACT:DUP 15-10-25 15:09 OP:mh   STATUS:               ID:20151025014748d    3
 OLDACT:DUP 15-10-25 15:06 OP:mh   STATUS:               ID:20151025014747d    3
 2015-10-25-0147-46M.COL___310                                                 6
 STAT SP IPHASW D HRMM SECON CODA AMPLIT PERI AZIMU VELO AIN AR TRES W  DIS CAZ7
 BAR2 EZ EP        157 42.25                             169   -0.4810 26.0 194 
 BAR2 EZ ES        157 58.03                             169    0.1110 26.0 194 
 BAR2 EZ I         157 58.94         9.9 0.42            167           26.0 194 
 BRR  HZ EP        157 44.31                             152    0.0510 72.1 296 
 BRR  HN ES        158  0.83                             152    0.1810 72.1 296 
 BRR  HZ I         158 15.21         9.6 0.28            151           72.1 296 
 PAM  EZ EP        157 45.44                             152    0.3510 74.2  39 
 PAM  EN ES        158  2.27                             152    0.1410 74.2  39 
 PAM  EZ I         158  4.10         8.6 0.18            159           74.2  39 
 RUS  HZ EP        157 46.74                             143   -0.2510  103 177 
 RUS  HN ES   1    158  5.50                             143    0.00 7  103 177 
 RUS  HZ I         158  7.70         5.3 0.49            147            103 177 
 OCA  HZ EP   1    157 50.51                             130   -0.73 7  158 352 
 OCA  HN ES        158 13.27                             130    0.20 9  158 352 
 OCA  HZ I         158 16.49        13.2 0.28            135            158 352 
 ZAR  HZ EP        157 56.46                             122    0.75 8  205 291 
 ZAR  HN ES        158 20.78                             122   -0.24 8  205 291 
 ZAR  HZ I         158 26.89         8.7 0.40            125            205 291 
 NOR  HZ EP        157 58.93                             118   -0.28 8  238 234 
 NOR  HE ES        158 26.97                             118   -0.29 8  238 234 
 NOR  HZ I         158 32.71         3.1 0.16            121            238 234 
 SML  HZ EP   4    157 58.17                             117   -1.49 0  243 335 
 SML  HN ES        158 27.31                             117   -0.75 8  243 335 
 SML  HZ I         158 30.23        10.4 0.10            122            243 335 
 CHI  HZ EP        158  1.41                             116    0.26 8  251 196 
 CHI  HN ES        158 30.47                             116   -0.25 8  251 196 
 CHI  HZ I         158 35.26         1.3 0.26            121            251 196 
 HEL  HZ EP   1    158  4.31                             114    0.63 6  275 255 
 HEL  HN ES        158 35.50                             114    0.30 8  275 255 
 HEL  HZ I         158 41.14         3.0 0.30            117            275 255 
 GUY2CHZ EP   1    158  7.77                             112    0.64 5  304 235 
 GUY2CHE ES   4    158 42.88                             112    1.53 0  304 235 
 GUY2CHZ I         158 50.85         3.1 0.56                           304 235 
 MON  HZ EP   4    158  8.56                             108   -3.67 0  354 308 
 MON  HN ES   4    158 47.69                             108   -2.73 0  354 308 
 MON  HZ I         158 48.73         1.4 0.18            112            354 308 
                                                                                
