 2017  325 0238 42.0 L   6.769 -73.368123.1  RSN  4 0.3 1.2LRSN                1
 GAP=198        0.73       6.1     4.5  6.5  0.1774E+02  0.5130E+01 -0.8020E+01E
 Epicentro: ZAPATOCA - SANTANDER                                               3
 ACTION:UPD 17-05-25 18:44 OP:jn   STATUS:               ID:20170325023842 L   I
 OLDACT:REG 17-03-25 03:40 OP:cara STATUS:               ID:20170325023747     3
 2017-03-25-0238-00M.COL___355                                                 6
 STAT SP IPHASW D HRMM SECON CODA AMPLIT PERI AZIMU VELO AIN AR TRES W  DIS CAZ7
 BAR2 EZ EP        238 58.98                             166   -0.0210 28.3 134 
 BAR2 EZ ES        239 12.11                             166   -0.1810 28.3 134 
 BAR2 EZ I         239 13.28         7.1 0.28            167           28.3 134 
 RUS  HZ EP        239  3.71                             138    0.0510  102 162 
 RUS  HN ES        239 20.86                             138    0.2710  102 162 
 RUS  HZ I         239 22.81         1.0 0.36            139            102 162 
 PTB  HZ EP        239  4.23                             132   -0.6010  123 258 
 PTB  HE ES        239 22.71                             132    0.0310  123 258 
 PTB  HZ I         239 26.60         2.6 0.18            131            123 258 
 ZAR  HZ EP        239 11.08                             120    0.31 9  183 296 
 ZAR  HN ES        239 33.47                             120    0.22 9  183 296 
 ZAR  HZ I         239 36.48         3.0 0.26            121            183 296 
                                                                                
