 2011 1225 0141 31.0 L   6.733 -73.331143.9  RSN  4 0.5 1.5LRSN                1
 GAP=163        1.01       5.1     8.6 11.9  0.3995E+00 -0.1464E+02 -0.7747E+01E
 Epicentro: GALAN - SANTANDER                                                  3
 ACTION:UPD 12-07-13 16:18 OP:ep   STATUS:               ID:20111225014131 L   I
 2011-12-25-0140-00M.COL___189                                                 6
 STAT SP IPHASW D HRMM SECON CODA AMPLIT PERI AZIMU VELO AIN AR TRES W  DIS CAZ7
 BRR  HZ EP        141 51.46                             156    0.1710 59.1 315 
 BRR  HE ES   1    142  7.91                             156    0.79 7 59.1 315 
 BRR  HE I         142 10.31        16.0 0.19                          59.1 315 
 RUS  HZ EP   1    141 53.90                             144   -0.38 7 96.9 164 
 RUS  HN ES   1    142 12.45                             144    0.00 7 96.9 164 
 RUS  HZ I         142 13.96         2.1 0.34                          96.9 164 
 PTB  HZ EP   1    141 56.29                             136    0.38 7  126 260 
 PTB  HE ES   1    142 14.75                             136   -0.60 7  126 260 
 OCA  SZ EP   1    142  0.23                             128    0.48 7  167   0 
 OCA  SZ ES        142 21.56                             128   -0.62 9  167   0 
                                                                                
