 2015  125 0216 10.2 L   6.819 -73.144147.1  RSN 22 0.4 2.3LRSN                1
 GAP= 70        0.90       2.4     2.6  4.5 -0.8247E+00  0.2442E+01  0.1167E+01E
 Epicentro: LOS SANTOS - SANTANDER                                             3
 ACTION:UPD 15-03-02 15:42 OP:nd   STATUS:               ID:20150125021610 L   I
 OLDACT:REG 15-01-25 12:23 OP:spq  STATUS:               ID:20150125020742     3
 2015-01-25-0207-42M.COL___271                                                 6
 STAT SP IPHASW D HRMM SECON CODA AMPLIT PERI AZIMU VELO AIN AR TRES W  DIS CAZ7
 BAR2 EZ EP        216 29.99                             170   -0.0610 25.4 190 
 BAR2 EZ ES   1    216 45.15                             170   -0.37 7 25.4 190 
 BAR2 EZ I         216 46.35        47.8 0.27            168           25.4 190 
 BRR  HZ EP     C  216 31.78                             153    0.3210 70.4 297 
 BRR  HE ES        216 48.75                             153    0.7210 70.4 297 
 BRR  HZ I         216 50.11        33.1 0.12            151           70.4 297 
 PAM  SZ EP        216 32.75                             152    0.2810 75.7  40 
 PAM  SE ES        216 50.06                             152    0.2310 75.7  40 
 PAM  SZ I         216 52.13        38.7 0.52            154           75.7  40 
 RUS  HZ EP        216 33.96                             144   -0.2910  103 176 
 RUS  HN ES        216 52.97                             144   -0.0210  103 176 
 RUS  HZ I         216 53.64        15.3 0.24            143            103 176 
 PTB  HZ EP   1    216 36.60                             132   -0.75 7  148 258 
 PTB  HE ES        216 58.46                             132   -0.05 9  148 258 
 PTB  HZ I         216 59.80        23.6 0.16            131            148 258 
 TAM  HZ EP     D  216 38.43                             131    0.40 9  155 106 
 TAM  HN ES   1    217  0.24                             131    0.51 7  155 106 
 TAM  HZ I         217  1.46        18.3 0.34            132            155 106 
 OCA  HZ EP        216 37.97                             130   -0.47 9  158 353 
 OCA  HN ES        216 59.88                             130   -0.57 9  158 353 
 OCA  HZ I         217  8.46        24.2 0.20            131            158 353 
 SPBC HZ EP        216 38.93                             129   -0.05 9  165 219 
 SPBC HE ES        217  1.06                             129   -0.36 9  165 219 
 SPBC HZ I         217  5.24        40.9 0.42            128            165 219 
 ZAR  HZ EP   1    216 42.65                             123   -0.04 6  203 292 
 ZAR  HN ES        217  7.77                             123   -0.24 9  203 292 
 ZAR  HZ I         217 13.18        25.9 0.26            122            203 292 
 NOR  HZ EP   1    216 46.17                             119    0.00 6  236 234 
 NOR  HE ES        217 13.67                             119   -0.54 8  236 234 
 NOR  HZ I         217 19.50        14.5 0.18            118            236 234 
 SML  HZ EP        216 46.18                             118   -0.54 8  242 335 
 SML  HE ES   1    217 15.47                             118    0.28 6  242 335 
 SML  HZ I         217 18.76        26.0 0.30            118            242 335 
 CHI  HZ EP        216 48.11                             117   -0.10 8  251 195 
 CHI  HN ES   1    217 17.44                             117   -0.41 6  251 195 
 CHI  HZ I         217 21.05        16.7 0.56            117            251 195 
 ROSC BZ EP   4    216 50.16                             117    1.55 0  255 211 
 ROSC BE ES   4    217 20.36                             117    1.80 0  255 211 
 ROSC BZ I         217 24.51        37.2 0.40            116            255 211 
 HEL  HZ EP   4    216 51.60                             115    1.03 0  273 255 
 HEL  HN ES        217 22.21                             115    0.16 8  273 255 
 HEL  HZ I         217 28.43        11.4 0.38            114            273 255 
 GUY2CHZ EP        216 54.60                             113    0.56 7  303 234 
 GUY2CHN ES   4    217 30.15                             113    1.93 0  303 234 
 GUY2CHZ I         217 36.25        11.6 0.34                           303 234 
 PTGC HZ EP   4    216 53.18                             112   -1.16 0  311 159 
 PTGC HN ES   4    217 27.15                             112   -1.61 0  311 159 
 PTGC HZ I         217 32.44        13.8 0.39            112            311 159 
 RREF HZ EP   4    216 58.79                             111    2.20 0  323 229 
 RREF HE ES   4    217 36.20                             111    3.44 0  323 229 
 RREF HZ I         217 42.03        14.7 0.42            110            323 229 
 CBOC HZ EP   1    216 58.20                             110    0.92 5  334 252 
 CBOC HE ES        217 34.70                             110    0.71 7  334 252 
 CBOC HZ I         217 39.55         3.1 0.64            110            334 252 
 MON  HZ EP   4    216 57.10                             109   -2.04 0  353 308 
 MON  HE ES   4    217 35.86                             109   -1.44 0  353 308 
 MON  HZ I         217 37.74         3.5 0.38            109            353 308 
 ANIL HZ EP   4    217  1.61                             109    1.35 0  359 224 
 ANIL HE ES   4    217 41.96                             109    2.67 0  359 224 
 ANIL HZ I         217 50.11         4.1 0.32            108            359 224 
 ORTC HZ EP   1    217  4.23                             107   -0.16 4  397 216 
 ORTC HN ES   4    217 47.72                             107    1.07 0  397 216 
 ORTC HZ I         217 51.36         9.3 0.30            106            397 216 
 PAL  HZ EP        217  5.57                             106    0.00 6  407 239 
 PAL  HE ES   1    217 49.64                             106    0.90 4  407 239 
 PAL  HZ I         217 52.86         3.0 0.18            106            407 239 
                                                                                
