 2017  925 0018 58.8 L   6.857 -73.496121.0  RSN  7 0.5 1.5LRSN                1
 GAP=100        1.28       6.2     5.6  9.3  0.1202E+02  0.1231E+02  0.2219E+01E
 Epicentro: SAN VICENTE DE CHUCURI - SANTANDER                                 3
 ACTION:UPD 17-10-05 19:15 OP:rebc STATUS:               ID:20170925001858 L   I
 OLDACT:UP  17-09-25 13:47 OP:edw  STATUS:               ID:20170925001742     3
 OLDACT:UP  17-09-25 13:46 OP:edw  STATUS:               ID:20170925001742     3
 OLDACT:UP  17-09-25 13:44 OP:edw  STATUS:               ID:20170925001742     3
 OLDACT:REG 17-09-25 12:20 OP:edw  STATUS:               ID:20170925001742     3
 2017-09-25-0018-00M.COL___411                                                 6
 STAT SP IPHASW D HRMM SECON CODA AMPLIT PERI AZIMU VELO AIN AR TRES W  DIS CAZ7
 BRR  HZ IP     D  019 15.28                             162   -0.1910 36.5 319 
 BRR  HN ES        019 28.09                             162   -0.4110 36.5 319 
 BRR  HZ I         019 29.08         7.0 0.44            164           36.5 319 
 BAR2 EZ EP        019 17.16                             158    0.9710 45.4 130 
 BAR2 EZ ES        019 29.99                             158    0.2110 45.4 130 
 BAR2 EZ I         019 31.96         9.2 0.24            158           45.4 130 
 PAM  EZ EP        019 19.86                             137   -0.4810  103  59 
 PAM  EN ES        019 37.42                             137    0.2410  103  59 
 PAM  EZ I         019 41.04         6.2 0.20            139            103  59 
 RUS  HZ EP        019 20.65                             133   -0.8310  116 157 
 RUS  HN ES        019 39.20                             133    0.0010  116 157 
 RUS  HZ I         019 45.39         2.0 0.38            134            116 157 
 ZAR  HZ EP        019 26.25                             122    0.58 9  166 295 
 ZAR  HN ES        019 46.54                             122   -0.12 9  166 295 
 ZAR  HZ I         019 50.76         6.5 0.28            124            166 295 
 NOR  HN ES   3    019 56.48                             116    1.59 2  209 227 
 GUY2CHZ EP   4    019 33.16                             109   -5.10 0  275 229 
 GUY2CHN ES   4    020  5.83                             109   -3.25 0  275 229 
 GUY2CHZ I         020 13.71         2.3 0.26                           275 229 
                                                                                
