 2016 1025 0842 53.7 L   6.553 -73.489107.3  RSN  7 0.5 1.3LRSN                1
 GAP=136        1.30       6.2     5.5  9.1 -0.1761E+02  0.2369E+02 -0.1380E+02E
 Epicentro: EL CARMEN - SANTANDER                                              3
 ACTION:UPD 16-11-09 19:22 OP:rebc STATUS:               ID:20161025084254 L   I
 OLDACT:REG 16-10-25 13:53 OP:cara STATUS:               ID:20161025083747     3
 2016-10-25-0838-00M.COL___343                                                 6
 STAT SP IPHASW D HRMM SECON CODA AMPLIT PERI AZIMU VELO AIN AR TRES W  DIS CAZ7
 BAR2 EZ EP        843  9.19                             160    0.0910 34.1  83 
 BAR2 EZ ES        843 21.23                             160    0.1310 34.1  83 
 BAR2 EZ I         843 23.14        11.7 0.42            161           34.1  83 
 RUS  HZ EP        843 12.41                             137   -0.2510 85.7 148 
 RUS  HN ES        843 27.97                             137    0.5310 85.7 148 
 RUS  HZ I         843 29.28         1.9 0.50            139           85.7 148 
 PTB  HZ EP   9    843 12.23                             131   -1.62 0  107 269 
 PTB  HN ES        843 27.10                             131   -0.8410  107 269 
 PTB  HZ I         843 28.20         8.9 0.46            131            107 269 
 SPBC HZ EP        843 14.96                             127   -0.0910  119 213 
 SPBC HN ES        843 30.79                             127   -0.8910  119 213 
 SPBC HZ I         843 32.53         8.1 0.18            128            119 213 
 PAM  EZ EP        843 15.66                             126   -0.3510  123  45 
 PAM  EE ES        843 33.31                             126   -0.0810  123  45 
 PAM  EZ I         843 34.76         3.7 0.40            128            123  45 
 HEL  HZ EP        843 27.01                             109   -0.30 8  229 260 
 HEL  HE ES        843 54.22                             109    0.71 8  229 260 
 HEL  HZ I         843 58.62         1.6 0.22            110            229 260 
 GUY2CHZ EP        843 31.27                             106    0.91 8  254 235 
 GUY2CHE ES   4    844  0.55                             106    1.61 0  254 235 
 GUY2CHZ I         844  4.82         1.1 0.40                           254 235 
                                                                                
