 2015  725 0114 19.2 L   6.437 -73.424 24.5  RSN  5 0.4 1.3LRSN                1
 GAP=115        0.85       2.6     3.2  4.0 -0.2279E+01  0.9274E+01 -0.4414E+01E
 Epicentro: SIMACOTA - SANTANDER                                               3
 ACTION:UPD 15-09-08 21:50 OP:cam  STATUS:               ID:20150725011419 L   I
 OLDACT:DUP 15-07-25 13:48 OP:ak   STATUS:               ID:20150725010739d    3
 OLDACT:UP  15-07-25 13:41 OP:ak   STATUS:               ID:20150725010737     3
 OLDACT:UP  15-07-25 13:39 OP:ak   STATUS:               ID:20150725010737     3
 OLDACT:UP  15-07-25 13:30 OP:ak   STATUS:               ID:20150725010737     3
 OLDACT:REG 15-07-25 12:22 OP:ak   STATUS:               ID:20150725010737     3
 2015-07-25-0107-37M.COL___340                                                 6
 STAT SP IPHASW D HRMM SECON CODA AMPLIT PERI AZIMU VELO AIN AR TRES W  DIS CAZ7
 BAR2 EZ EP        114 26.09                             127    0.1710 31.7  57 
 BAR2 EZ ES        114 30.81                             127   -0.3310 31.7  57 
 BAR2 EZ I         114 33.58        18.1 0.54            122           31.7  57 
 RUS  HZ EP        114 32.01                             108    0.4410 71.1 148 
 RUS  HN ES        114 40.99                             108   -0.2210 71.1 148 
 RUS  HZ I         114 43.71        10.1 0.17            106           71.1 148 
 PAM  EZ EP   2    114 39.24                              56   -0.05 5  128  39 
 PAM  EN ES        114 54.90                              56   -0.0510  128  39 
 PAM  EZ I         114 57.72         8.4 0.26             56            128  39 
 ZAR  HZ EP   1    114 47.59                              56    0.26 6  197 306 
 ZAR  HN ES        115  9.50                              56    0.24 9  197 306 
 ZAR  HZ I         115 11.61                              56            197 306 
 HEL  HZ EP        114 52.85                              56    0.37 8  235 263 
 HEL  HN ES        115 17.62                              56   -0.80 8  235 263 
                                                                                
