 2013  925 0546 33.0 L   6.750 -73.201155.2  RSN  4 0.3 1.4LRSN                1
 GAP=283        0.80       5.9     8.3  8.4 -0.1134E+02 -0.2081E+02 -0.5619E+01E
 Epicentro: VILLANUEVA - SANTANDER                                             3
 ACTION:UPD 13-10-22 09:24 OP:ep   STATUS:               ID:20130925054633 L   I
 OLDACT:REG 13-09-25 07:53 OP:nd   STATUS:               ID:20130925053959     3
 2013-09-25-0539-59M.COL___269                                                 6
 STAT SP IPHASW D HRMM SECON CODA AMPLIT PERI AZIMU VELO AIN AR TRES W  DIS CAZ7
 BRR  HZ EP        546 55.28                             155    0.2310 68.9 305 
 BRR  HN ES        547 12.37                             155    0.1210 68.9 305 
 BRR  HZ I         547 13.72         4.3 0.40            147           68.9 305 
 PTB  HZ EP        547  0.20                             136    0.06 9  141 261 
 PTB  HN ES        547 20.80                             136   -0.51 9  141 261 
 PTB  HZ I         547 25.61         1.9 0.07            130            141 261 
 ZAR  HN ES        547 31.78                             125    0.53 9  201 294 
 ZAR  HZ I         547 37.56         2.7 0.38            121            201 294 
 SML  HZ EP        547 10.30                             119   -0.14 8  246 337 
 SML  HE ES        547 39.25                             119   -0.40 8  246 337 
 SML  HZ I         547 41.97         3.0 0.10            117            246 337 
                                                                                
