 2013  225 0653 31.0 L   6.278 -73.751104.0  RSN  6 0.3 1.8LRSN                1
 GAP=170        0.78       3.8     3.0  6.4  0.2030E+01 -0.1693E+01  0.1768E+01E
 Epicentro: LANDAZURI - SANTANDER                                              3
 ACTION:UPD 13-03-12 09:35 OP:ep   STATUS:               ID:20130225065331 L   I
 2013-02-25-0648-50M.COL___196                                                 6
 STAT SP IPHASW D HRMM SECON CODA AMPLIT PERI AZIMU VELO AIN AR TRES W  DIS CAZ7
 BAR2 SZ EP        653 48.43                             143    0.2610 71.8  61 
 BAR2 SZ ES        654  1.63                             143    0.0310 71.8  61 
 BAR2 SZ I         654  2.93        48.7 0.38            145           71.8  61 
 PTB  HZ EP        653 48.62                             138   -0.1310 83.2 290 
 PTB  HN ES        654  2.30                             138   -0.3210 83.2 290 
 PTB  HN I         654  5.18        11.4 0.14            139           83.2 290 
 RUS  HZ EP        653 49.66                             138    0.0910 85.3 120 
 RUS  HN ES        654  4.04                             138   -0.0610 85.3 120 
 BRR  HZ EP        653 49.63                             135    0.1910 91.8   3 
 BRR  HN ES        654  4.32                             135    0.4610 91.8   3 
 BRR  HN I         654  5.90         6.8 0.16            137           91.8   3 
 PAM  SN ES        654 17.30                             117   -0.67 9  165  45 
 TAM  HZ EP        654  2.69                             110    0.03 8  217  85 
                                                                                
