 2015  325 0150 31.8 L   6.867 -73.306122.8  RSN 11 0.5 1.7LRSN                1
 GAP= 63        1.26       3.6     3.5  6.9  0.8058E+00  0.4126E+01 -0.8366E+00E
 Epicentro: BETULIA - SANTANDER                                                3
 ACTION:UPD 15-04-30 16:29 OP:nd   STATUS:               ID:20150325015031 L   I
 OLDACT:REG 15-03-25 12:45 OP:fm   STATUS:               ID:20150325014746     3
 2015-03-25-0147-46M.COL___278                                                 6
 STAT SP IPHASW D HRMM SECON CODA AMPLIT PERI AZIMU VELO AIN AR TRES W  DIS CAZ7
 BAR2 EZ EP        150 49.44                             164    0.5210 33.3 156 
 BAR2 EZ ES        151  2.34                             164    0.0410 33.3 156 
 BRR  HZ EP        150 49.83                             155    0.4610 52.2 301 
 BRR  HN ES        151  3.11                             155    0.0010 52.2 301 
 BRR  HZ I         151  5.63         8.2 0.16            155           52.2 301 
 PAM  SZ EP        150 52.67                             143    0.5610 84.9  52 
 PAM  SE ES        151  8.50                             143    0.5010 84.9  52 
 PAM  SZ I         151 10.80         6.0 0.16            147           84.9  52 
 RUS  HZ EP        150 54.35                             136    0.2010  111 167 
 RUS  HN ES        151 10.86                             136   -0.7610  111 167 
 RUS  HZ I         151 14.82         3.7 0.34            136            111 167 
 PTB  HZ EP        150 55.02                             130   -0.4410  132 254 
 PTB  HE ES        151 13.97                             130    0.0210  132 254 
 PTB  HZ I         151 16.89         9.4 0.30            129            132 254 
 OCA  HN ES        151 17.06                             125   -0.58 9  152 359 
 TAM  HZ EP        151  0.26                             121    0.60 9  174 106 
 TAM  HN ES        151 20.46                             121   -0.97 9  174 106 
 TAM  HZ I         151 22.11         7.4 0.46            124            174 106 
 ZAR  HZ EP        151  0.21                             120   -0.54 9  185 292 
 ZAR  HN ES        151 23.49                             120    0.11 9  185 292 
 ZAR  HZ I         151 28.95         6.1 0.36            120            185 292 
 NOR  HZ EP        151  5.88                             114    0.68 8  225 230 
 NOR  HN ES        151 31.30                             114    0.01 8  225 230 
 NOR  HZ I         151 42.29         2.5 0.24            115            225 230 
 SML  HZ EP        151  4.92                             114   -0.74 8  230 339 
 SML  HN ES        151 32.09                             114   -0.02 8  230 339 
 SML  HZ I         151 36.48        10.9 0.28            115            230 339 
 URE  HN ES   4    151 37.67                             110   -1.47 0  265 292 
 URE  HZ I         151 39.19         3.8 0.16            111            265 292 
                                                                                
