 2015  825 0945  9.7 L   6.811 -73.150138.0  RSN 22 0.5 2.7LRSN                1
 GAP=112        1.11       2.4     3.0  5.2  0.3547E+00  0.4607E+01  0.8238E+00E
 Epicentro: LOS SANTOS - SANTANDER                                             3
 ACTION:UPD 15-09-15 23:05 OP:cam  STATUS:               ID:20150825094509 L   I
 OLDACT:UP  15-08-25 15:41 OP:ak   STATUS:               ID:20150825093747     3
 OLDACT:REG 15-08-25 13:48 OP:ak   STATUS:               ID:20150825093747     3
 2015-08-25-0937-47M.COL___334                                                 6
 STAT SP IPHASW D HRMM SECON CODA AMPLIT PERI AZIMU VELO AIN AR TRES W  DIS CAZ7
 BAR2 EZ IP     D  945 28.69                             169    0.2310 24.5 188 
 BAR2 EZ ES        945 43.09                             169    0.0310 24.5 188 
 BAR2 EZ I         945 44.47       196.1 0.20            168           24.5 188 
 BRR  HZ IP     D  945 30.61                             151    0.6210 70.1 298 
 BRR  HN ES        945 46.76                             151    0.9710 70.1 298 
 BRR  HZ I         945 48.50       110.5 0.20            153           70.1 298 
 RUS  HZ EP        945 32.66                             142   -0.1710  102 176 
 RUS  HE ES        945 50.60                             142   -0.2410  102 176 
 RUS  HZ I         945 51.92        58.1 0.24            142            102 176 
 TAM  HZ IP     C  945 37.05                             129    0.16 9  156 105 
 TAM  HN ES        945 57.59                             129   -0.48 9  156 105 
 TAM  HZ I         946  8.39        29.9 0.54            130            156 105 
 OCA  HZ EP        945 37.16                             128   -0.17 9  159 353 
 OCA  HN ES        945 58.17                             128   -0.68 9  159 353 
 OCA  HZ I         946  2.22       240.1 0.40            130            159 353 
 SPBC HZ EP        945 37.66                             127   -0.06 9  164 219 
 SPBC HN ES        945 59.45                             127   -0.09 9  164 219 
 SPBC HZ I         946  1.94        53.4 0.14            128            164 219 
 ZAR  HZ EP        945 41.76                             121    0.17 9  203 292 
 ZAR  HN ES        946  7.21                             121    0.78 9  203 292 
 ZAR  HZ I         946 13.43        61.4 0.45            122            203 292 
 NOR  HZ EP        945 44.70                             117   -0.36 8  235 234 
 NOR  HN ES        946 12.35                             117   -0.27 8  235 234 
 NOR  HZ I         946 15.81        43.1 0.33            117            235 234 
 SML  HZ EP        945 45.11                             116   -0.68 8  242 335 
 SML  HN ES        946 13.35                             116   -0.56 8  242 335 
 SML  HZ I         946 16.86        69.5 0.11            117            242 335 
 CHI  HZ EP        945 47.17                             115    0.03 8  250 195 
 CHI  HN ES        946 16.05                             115   -0.26 8  250 195 
 CHI  HZ I         946 25.92        13.4 0.55            116            250 195 
 ROSC BZ EP   4    945 48.74                             115    1.21 0  254 211 
 ROSC BN ES   4    946 19.91                             115    2.89 0  254 211 
 ROSC BZ I         946 25.42        51.9 0.40            116            254 211 
 HEL  HZ EP        945 50.12                             113    0.58 8  272 256 
 HEL  HN ES        946 19.85                             113   -0.74 8  272 256 
 HEL  HZ I         946 27.73        43.6 0.26            114            272 256 
 URE  HZ EP   1    945 50.11                             112   -0.22 6  283 292 
 URE  HN ES        946 21.15                             112   -0.85 7  283 292 
 URE  HZ I         946 22.85        56.3 0.18            113            283 292 
 GUY2CHZ EP        945 53.70                             111    0.67 7  302 235 
 GUY2CHN ES        946 26.12                             111   -0.68 7  302 235 
 GUY2CHZ I         946 34.11        34.9 0.28                           302 235 
 LL1C HZ EP   4    945 55.95                             110    3.11 0  305 352 
 LL1C HN ES   4    946 29.75                             110    3.29 0  305 352 
 VIL  SZ EP        945 53.17                             110    0.23 7  305 191 
 VIL  SN ES        946 26.56                             110   -0.08 7  305 191 
 VIL  SZ I         946 31.26        21.5 0.30            111            305 191 
 CBOC HZ EP        945 57.01                             108    0.68 7  334 252 
 CBOC HN ES        946 32.25                             108   -0.42 7  334 252 
 CBOC HZ I         946 36.51        15.7 0.30            109            334 252 
 DBB  SZ EP        945 57.03                             108    0.19 7  339 274 
 DBB  SZ ES        946 33.08                             108   -0.50 7  339 274 
 TOL  SZ EP        945 58.46                             108    0.71 7  344 224 
 TOL  SE ES        946 36.11                             108    0.90 7  344 224 
 TOL  SZ I         946 44.72        22.4 0.46            108            344 224 
 ARGC HZ EP   4    946  0.24                             107    1.29 0  358 340 
 ARGC HE ES        946 37.91                             107    0.58 6  358 340 
 ORTC HZ EP        946  4.04                             105    0.56 6  396 216 
 ORTC HN ES        946 44.74                             105   -0.67 6  396 216 
 ORTC HZ I         946 50.31        11.3 0.58            106            396 216 
 ELOV BZ EP   4    946  3.32                             105   -1.24 0  406  87 
 ELOV BN ES   4    946 44.42                             105   -2.91 0  406  87 
 SJC  HZ EP   4    946  3.32                             104   -1.57 0  408 327 
 SJC  HN ES   4    946 44.32                             104   -3.60 0  408 327 
 SJC  HZ I         946 48.47        11.1 0.39            105            408 327 
 CRJC HZ EP   4    946  9.55                             102   -2.33 0  466   4 
 CRJC HN ES   4    946 56.91                             102   -3.44 0  466   4 
 CRJC HZ I         947  2.05         8.0 0.53            103            466   4 
                                                                                
