 2010  525 0810 18.5 L   6.768 -73.142148.6  RSN  4 0.2 1.6LRSN                1
 GAP=176        0.54       4.0    12.3  5.7 -0.1972E+02  0.9739E+01 -0.6006E+01E
 Epicentro: LOS SANTOS - SANTANDER                                             3
 ACTION:UP  10-08-24 10:06 OP:vdl  STATUS:               ID:20100525081018 L   I
 2010-05-25-0807-46S.COL___108                                                 6
 STAT SP IPHASW D HRMM SECON CODA AMPLIT PERI AZIMU VELO SNR AR TRES W  DIS CAZ7
 BAR2 SZ EP        810 38.62                             172     0.210   20 193 
 BAR2 SZ ES   1    810 53.76                             172    -0.2 7   20 193 
 GUE  SZ EP        810 43.69                             139    -0.110  120  12 
 GRA  SZ EP        810 44.40                             137     0.110  129  17 
 GRA  SZ ES        811  4.31                             137    -0.110  129  17 
 OCA  SZ EP        810 47.05                             130    -0.3 9  164 353 
 OCA  SZ ES   1    811 10.19                             130     0.3 7  164 353 
 OCA  SZ I         811 13.74         4.9 0.58                           164 353 
                                                                                
