 2012  525 0013  7.7 L   6.699 -73.204146.4  RSN  4 0.2 1.4LRSN                1
 GAP=233        0.61       7.6     5.5  6.3  0.2453E+02  0.9784E+01 -0.1570E+01E
 Epicentro: VILLANUEVA - SANTANDER                                             3
 ACTION:UP  12-07-05 12:07 OP:pat  STATUS:               ID:20120525001307 L   I
 2012-05-25-0010-00M.COL___201                                                 6
 STAT SP IPHASW D HRMM SECON CODA AMPLIT PERI AZIMU VELO SNR AR TRES W  DIS CAZ7
 BAR2 SZ EP        013 26.97                             175    -0.310   12 168 
 BAR2 SZ ES        013 42.61                             175     0.110   12 168 
 BAR2 SZ I         013 45.00         6.4 0.46                            12 168 
 RUS  HZ EP   1    013 30.95                             147     0.1 7   90 171 
 RUS  HE ES   1    013 48.96                             147     0.1 7   90 171 
 RUS  HZ I         013 50.82         3.3 0.23                            90 171 
 PTB  HZ EP        013 34.18                             134     0.1 9  140 263 
 PTB  HN ES   1    013 54.25                             134    -0.3 7  140 263 
 PTB  HZ I         013 59.08         2.0 0.14                           140 263 
 ZAR  HN ES   1    014  5.58                             123     0.3 6  203 296 
 ZAR  HZ I         014 11.44         5.3 0.47                           203 296 
                                                                                
