 2015  825 0352  4.6 L   6.774 -73.140138.0  RSN 12 0.4 2.1LRSN                1
 GAP=138        0.89       3.1     3.7  4.7 -0.4012E+01  0.6533E+01  0.1285E+01E
 Epicentro: LOS SANTOS - SANTANDER                                             3
 ACTION:UPD 15-09-15 23:05 OP:cam  STATUS:               ID:20150825035204 L   I
 OLDACT:REG 15-08-25 12:51 OP:ak   STATUS:               ID:20150825034747     3
 2015-08-25-0347-47M.COL___340                                                 6
 STAT SP IPHASW D HRMM SECON CODA AMPLIT PERI AZIMU VELO AIN AR TRES W  DIS CAZ7
 BAR2 EZ IP     D  352 23.35                             171    0.0810 20.6 193 
 BAR2 EZ ES        352 37.48                             171   -0.3310 20.6 193 
 BAR2 EZ I         352 39.42        26.9 0.12            168           20.6 193 
 BRR  HZ IP     D  352 25.23                             150    0.1710 73.1 300 
 BRR  HE ES        352 41.16                             150    0.1610 73.1 300 
 BRR  HZ I         352 43.09        20.5 0.16            149           73.1 300 
 PAM  EZ EP        352 26.34                             149    0.2010 79.2  38 
 PAM  EN ES        352 43.27                             149    0.3510 79.2  38 
 PAM  EZ I         352 45.74        22.6 0.42            154           79.2  38 
 RUS  HZ EP        352 27.22                             143   -0.1910 97.7 176 
 RUS  HN ES        352 45.14                             143   -0.0410 97.7 176 
 RUS  HZ I         352 46.79        10.1 0.20            144           97.7 176 
 SPBC HZ EP        352 32.38                             128    0.01 9  161 220 
 SPBC HN ES        352 54.43                             128    0.43 9  161 220 
 SPBC HZ I         353  1.17        21.9 0.34            128            161 220 
 OCA  HZ EP        352 31.85                             127   -0.78 9  163 353 
 OCA  HN ES   4    352 53.01                             127   -1.46 0  163 353 
 OCA  HZ I         352 56.47        25.8 0.26            130            163 353 
 NOR  HZ EP        352 39.83                             117    0.03 8  234 235 
 NOR  HE ES        353  6.98                             117   -0.24 8  234 235 
 NOR  HZ I         353 10.29        14.4 0.18            117            234 235 
 CHI  HZ EP        352 40.96                             116   -0.66 8  246 195 
 CHI  HN ES        353 10.58                             116    0.10 8  246 195 
 CHI  HZ I         353 17.91         4.7 0.52            117            246 195 
 HEL  HZ EP        352 44.69                             113    0.24 8  272 256 
 HEL  HN ES        353 14.98                             113   -0.52 8  272 256 
 HEL  HZ I         353 21.73         7.3 0.56            114            272 256 
 GUY2CHZ EP        352 47.80                             111    0.04 7  300 235 
 GUY2CHN ES        353 20.62                             111   -0.78 7  300 235 
 GUY2CHZ I         353 29.82         8.9 0.42                           300 235 
 CBOC HZ EP        352 51.77                             108    0.57 7  333 253 
 CBOC HN ES        353 27.86                             108    0.33 7  333 253 
 CBOC HZ I         353 39.96         3.7 0.50            109            333 253 
 TOL  SZ EP        352 53.00                             108    0.60 7  342 225 
 TOL  SN ES        353 30.27                             108    0.61 7  342 225 
 TOL  SZ I         353 39.62         6.6 0.58            109            342 225 
                                                                                
