 2013 1125 0733 47.5 L   6.822 -73.161144.7  RSN 13 0.5 2.0LRSN                1
 GAP=134        1.01       2.9     4.0  5.8 -0.1584E+01  0.7536E+01  0.4143E-01E
 Epicentro: LOS SANTOS - SANTANDER                                             3
 ACTION:UPD 14-01-09 16:31 OP:ep   STATUS:               ID:20131125073347 L   I
 OLDACT:UP  13-11-25 11:01 OP:mh   STATUS:               ID:20131125073001d    3
 OLDACT:DUP 13-11-25 10:43 OP:mh   STATUS:               ID:20131125073001d    3
 2013-11-25-0730-00M.COL___282                                                 6
 STAT SP IPHASW D HRMM SECON CODA AMPLIT PERI AZIMU VELO AIN AR TRES W  DIS CAZ7
 BAR2 SZ EP   1    734  7.10                             169    0.07 7 25.5 185 
 BAR2 SZ ES   1    734 22.21                             169   -0.07 7 25.5 185 
 BAR2 SZ I         734 23.82        52.7 0.26            169           25.5 185 
 BRR  HZ EP   1    734  8.94                             153    0.57 7 68.6 297 
 BRR  HN ES   1    734 25.43                             153    0.77 7 68.6 297 
 BRR  HZ I         734 28.77        19.8 0.26            152           68.6 297 
 PAM  SZ EP        734  9.85                             151    0.3210 76.6  42 
 PAM  SN ES        734 26.96                             151    0.2210 76.6  42 
 PAM  SZ I         734 29.82        10.5 0.39            155           76.6  42 
 RUS  HZ EP        734 11.07                             143   -0.2410  103 175 
 RUS  HN ES        734 29.61                             143   -0.3010  103 175 
 RUS  HZ I         734 31.16         8.6 0.29            145            103 175 
 PTB  HZ EP   1    734 13.62                             132   -0.64 7  147 258 
 PTB  HN ES        734 34.65                             132   -0.50 9  147 258 
 PTB  HZ I         734 37.58        10.3 0.11            133            147 258 
 OCA  HZ EP   1    734 15.72                             130    0.26 7  158 354 
 OCA  HN ES        734 37.06                             130   -0.22 9  158 354 
 OCA  HZ I         734 42.54         7.3 0.17            132            158 354 
 SPBC HZ EP        734 16.06                             129    0.08 9  164 218 
 SPBC HN ES   1    734 38.61                             129    0.40 7  164 218 
 SPBC HZ I         734 43.06        12.9 0.10            130            164 218 
 ZAR  HZ EP        734 20.22                             122    0.62 9  202 292 
 ZAR  HN ES        734 44.33                             122   -0.33 9  202 292 
 NOR  HZ EP        734 22.91                             118   -0.25 8  235 234 
 NOR  HN ES        734 50.53                             118   -0.46 8  235 234 
 NOR  HZ I         734 56.80        11.1 0.17            120            235 234 
 SML  HZ EP        734 22.91                             118   -0.82 8  241 335 
 SML  HN ES        734 51.50                             118   -0.50 8  241 335 
 SML  HZ I         734 56.27        19.0 0.08            119            241 335 
 CHI  HZ EP   1    734 25.42                             117    0.09 6  251 195 
 CHI  HN ES   2    734 54.55                             117   -0.31 4  251 195 
 CHI  HZ I         735  0.83         3.8 0.28            119            251 195 
 ROSC BZ EP   4    734 27.20                             116    1.52 0  254 210 
 ROSC BN ES   4    734 57.94                             116    2.46 0  254 210 
 HEL  HZ EP        734 28.02                             115    0.49 8  271 255 
 HEL  HN ES   1    735  0.12                             115    1.35 6  271 255 
 HEL  HZ I         735  5.82         4.7 0.21            116            271 255 
 GUY2CHZ EP   1    734 31.75                             112    0.70 5  301 234 
 GUY2CHN ES   4    735  8.16                             112    3.13 0  301 234 
 SJC  HZ EP   4    734 40.96                             106   -1.70 0  406 327 
 SJC  HN ES   4    735 23.07                             106   -2.62 0  406 327 
                                                                                
