 2016 1225 0908 23.5 L   6.734 -73.196138.6  RSN 11 0.4 1.7LRSN                1
 GAP=133        0.94       3.4     3.8  5.8 -0.7072E+00  0.1051E+02  0.9532E+00E
 Epicentro: VILLANUEVA - SANTANDER                                             3
 ACTION:UPD 17-01-11 20:18 OP:rebc STATUS:               ID:20161225090823 L   I
 OLDACT:REG 16-12-25 13:25 OP:cog  STATUS:               ID:20161225090744     3
 2016-12-25-0908-00M.COL___366                                                 6
 STAT SP IPHASW D HRMM SECON CODA AMPLIT PERI AZIMU VELO AIN AR TRES W  DIS CAZ7
 BAR2 EZ IP     D  9 8 42.15                             173    0.0210 15.8 174 
 BAR2 EZ ES        9 8 57.20                             173    0.5410 15.8 174 
 BAR2 EZ I         9 8 58.12        13.7 0.24            172           15.8 174 
 BRR  HZ EP        9 8 43.99                             151    0.1710 70.3 306 
 BRR  HN ES   4    9 9  1.00                             151    1.33 0 70.3 306 
 BRR  HZ I         9 9  4.79         9.4 0.16            151           70.3 306 
 PAM  EZ IP        9 8 45.36                             146   -0.1810 86.5  39 
 PAM  EN ES        9 9  2.18                             146   -0.5610 86.5  39 
 PAM  EZ I         9 9  4.72        12.9 0.46            152           86.5  39 
 RUS  HZ EP        9 8 46.03                             144   -0.0310 93.9 172 
 RUS  HN ES        9 9  3.59                             144   -0.0710 93.9 172 
 RUS  HZ I         9 9  5.30         7.8 0.30            147           93.9 172 
 PTB  HZ EP        9 8 49.25                             132   -0.01 9  141 261 
 PTB  HN ES        9 9  9.22                             132   -0.14 9  141 261 
 PTB  HZ I         9 9 13.90         7.4 0.18            132            141 261 
 ZAR  HZ EP        9 8 55.51                             121    0.27 9  202 295 
 ZAR  HN ES        9 9 20.61                             121    0.60 9  202 295 
 ZAR  HZ I         9 9 23.02         8.0 0.48            122            202 295 
 CHI  HZ EP        9 8 59.96                             116    0.08 8  240 194 
 CHI  HN ES        9 9 28.33                             116    0.07 8  240 194 
 CHI  HZ I         9 9 32.20         1.7 0.42            119            240 194 
 URE  HZ EP        9 9  3.38                             112   -0.58 7  281 294 
 URE  HN ES   4    9 9 34.48                             112   -1.04 0  281 294 
 URE  HZ I         9 9 38.53         4.7 0.18            114            281 294 
 GUY2CHZ EP        9 9  6.40                             112    0.62 7  292 235 
 GUY2CHN ES        9 9 37.79                             112   -0.98 7  292 235 
 GUY2CHZ I         9 9 48.25         2.7 0.32                           292 235 
 PTGC HZ EP   4    9 9  4.94                             110   -1.57 0  304 157 
 PTGC HN ES   4    9 9 37.90                             110   -2.16 0  304 157 
 PTGC HZ I         9 9 41.16         3.1 0.48            113            304 157 
 CBOC HZ EP        9 9  9.73                             109    0.48 7  326 253 
 CBOC HN ES        9 9 44.51                             109   -0.43 7  326 253 
 CBOC HZ I         9 9 57.56         1.1 0.40            111            326 253 
                                                                                
