 2011  125 0020 44.4 L   6.589 -73.598104.0  RSN  5 0.3 1.7LRSN                1
 GAP=133        0.60       3.6     8.1  8.2 -0.2137E+01  0.4454E+02 -0.8105E+01E
 Epicentro: EL CARMEN DE CHUCURI - SANTANDER                                   3
 ACTION:UP  11-02-08 08:42 OP:pat  STATUS:               ID:20110125002044 L   I
 2011-01-25-0017-10S.COL___138                                                 6
 STAT SP IPHASW D HRMM SECON CODA AMPLIT PERI AZIMU VELO SNR AR TRES W  DIS CAZ7
 BAR2 SZ EP   1    021  0.21                             155     0.2 7   46  90 
 BAR2 SZ ES        021 12.27                             155     0.210   46  90 
 BAR2 SZ I         021 14.10        28.8 0.45                            46  90 
 RUS  HZ EP   2    021  3.73                             135    -0.2 5   96 144 
 RUS  HE ES   1    021 18.77                             135    -0.4 7   96 144 
 RUS  HZ I         021 20.60         7.1 0.39                            96 144 
 GRA  SZ EP   2    021 10.79                             117     0.1 5  168  31 
 GRA  SZ ES   1    021 31.08                             117    -0.1 7  168  31 
 GRA  SZ I         021 34.51         7.9 0.40                           168  31 
 CHI  HZ EP   2    021 17.18                             110     0.6 4  217 184 
 MON  HZ EP   2    021 28.92                             101    -0.7 3  332 317 
 MON  HZ I         022  3.99         1.8 0.86                           332 317 
 MON  HE ES   2    022  4.78                             101    -0.1 3  332 317 
                                                                                
