 2016  325 0948 25.1 L   6.798 -73.160143.8  RSN  6 0.3 1.2LRSN                1
 GAP=146        0.79       3.8     4.0  7.3 -0.5875E+01  0.1167E+02 -0.4710E+01E
 Epicentro: LOS SANTOS - SANTANDER                                             3
 ACTION:UPD 16-05-13 21:27 OP:cam  STATUS:               ID:20160325094825 L   I
 OLDACT:UP  16-03-25 18:56 OP:ak   STATUS:               ID:20160325094747d    3
 OLDACT:DUP 16-03-25 18:54 OP:ak   STATUS:               ID:20160325094747d    3
 2016-03-25-0947-46M.COL___294                                                 6
 STAT SP IPHASW D HRMM SECON CODA AMPLIT PERI AZIMU VELO AIN AR TRES W  DIS CAZ7
 BAR2 EZ EP        948 44.24                             171   -0.2010 22.9 186 
 BAR2 EZ ES        948 59.51                             171   -0.0510 22.9 186 
 BAR2 EZ I         949  1.04         3.4 0.15            171           22.9 186 
 PAM  EZ EP        948 46.99                             150   -0.1410 78.5  40 
 PAM  EN ES        949  4.36                             150    0.0110 78.5  40 
 PAM  EZ I         949  6.59         5.6 0.86            152           78.5  40 
 PTB  HZ EP        948 51.56                             132   -0.16 9  146 259 
 PTB  HN ES        949 11.98                             132   -0.54 9  146 259 
 PTB  HZ I         949 14.95         1.2 0.23            134            146 259 
 OCA  HN ES        949 15.52                             129    0.34 9  160 354 
 SPBC HN ES        949 16.00                             129    0.68 9  162 219 
 ZAR  HZ EP   2    948 57.45                             122    0.22 4  203 292 
 ZAR  HN ES        949 22.44                             122    0.11 9  203 292 
                                                                                
