 2014  725 0753 18.0 L   6.819 -73.186136.6  RSN 13 0.4 1.8LRSN                1
 GAP=131        0.81       2.3     3.2  5.8 -0.2549E+01  0.8008E+01 -0.1489E+01E
 Epicentro: ZAPATOCA - SANTANDER                                               3
 ACTION:UPD 15-03-16 20:46 OP:nd   STATUS:               ID:20140725075318 L   I
 OLDACT:REG 14-07-25 13:34 OP:spq  STATUS:               ID:20140725074811     3
 2014-07-25-0748-11M.COL___266                                                 6
 STAT SP IPHASW D HRMM SECON CODA AMPLIT PERI AZIMU VELO AIN AR TRES W  DIS CAZ7
 BAR2 SZ EP        753 36.46                             169   -0.1510 25.1 179 
 BAR2 SZ ES   1    753 50.80                             169   -0.29 7 25.1 179 
 BAR2 SZ I         753 52.73        21.0 0.32            169           25.1 179 
 PAM  SZ IP     C  753 39.79                             149    0.4210 78.8  43 
 PAM  SE ES        753 56.27                             149    0.2610 78.8  43 
 PAM  SZ I         753 58.72        11.5 0.44            152           78.8  43 
 RUS  HZ EP   1    753 40.54                             141   -0.55 7  103 174 
 RUS  HE ES   1    753 59.34                             141    0.27 7  103 174 
 RUS  HZ I         754  1.42         7.0 0.18            144            103 174 
 PTB  HZ EP        753 43.46                             131   -0.44 9  144 258 
 PTB  HN ES        754  4.05                             131   -0.03 9  144 258 
 PTB  HZ I         754  5.99         6.7 0.22            130            144 258 
 OCA  HZ EP   1    753 45.34                             128   -0.06 7  158 355 
 OCA  HN ES        754  6.34                             128   -0.40 9  158 355 
 OCA  HZ I         754 10.42         7.6 0.16            129            158 355 
 SPBC HZ EP        753 45.11                             127   -0.63 9  162 217 
 SPBC HE ES        754  7.68                             127    0.33 9  162 217 
 SPBC HZ I         754 14.03         9.5 0.22            128            162 217 
 ZAR  HZ EP        753 49.69                             121    0.31 9  199 292 
 ZAR  HN ES        754 13.67                             121   -0.15 9  199 292 
 ZAR  HZ I         754 22.71         7.1 0.24            121            199 292 
 NOR  HN ES        754 20.54                             117    0.29 8  232 233 
 NOR  HZ I         754 22.66         3.9 0.18            117            232 233 
 SML  HZ EP        753 54.42                             116    0.67 8  240 336 
 SML  HN ES        754 21.51                             116   -0.09 8  240 336 
 SML  HZ I         754 30.48         7.7 0.26            117            240 336 
 HEL  HN ES   1    754 28.38                             113    0.33 6  268 255 
 HEL  HZ I         754 35.12         3.8 0.38            114            268 255 
 GUY2CHZ EP   4    754  2.26                             111    1.30 0  299 234 
 GUY2CHN ES        754 34.28                             111   -0.16 7  299 234 
 GUY2CHZ I         754 43.15         2.5 0.34                           299 234 
 RREF HN ES   1    754 39.51                             109    0.43 5  320 229 
 RREF HZ I         754 49.14         3.1 0.34            110            320 229 
 PRA  HN ES        754 52.71                             105    0.02 6  392 209 
 PRA  HZ I         755  0.87         1.5 0.36            106            392 209 
                                                                                
