 2012  125 0214 31.3 L   6.376 -73.656103.6  RSN  8 0.3 1.4LRSN                1
 GAP= 85        0.71       3.8     3.7  9.5 -0.2801E+00  0.1793E+02  0.8609E+01E
 Epicentro: SANTA HELENA DEL OPON - SANTANDER                                  3
 ACTION:UP  12-02-03 08:20 OP:REBC STATUS:               ID:20120125021431 L   I
 2012-01-25-0210-00M.COL___188                                                 6
 STAT SP IPHASW D HRMM SECON CODA AMPLIT PERI AZIMU VELO SNR AR TRES W  DIS CAZ7
 BRR  HZ EP   1    214 48.96                             139     0.1 7   81 356 
 BRR  HN ES   1    215  2.76                             139     0.2 7   81 356 
 BRR  HZ I         215 12.08        12.0 0.45                            81 356 
 RUS  HZ EP   1    214 50.01                             138     0.3 7   83 130 
 RUS  HE ES   1    215  3.81                             138    -0.2 7   83 130 
 RUS  HZ I         215  8.17         3.1 0.38                            83 130 
 PTB  HZ EP        214 49.10                             135    -0.510   90 282 
 GIR2 SZ EP   2    214 50.33                             134     0.3 5   93  33 
 PAM  SZ EP   2    214 56.24                             120     0.2 5  150  45 
 PAM  SN ES   2    215 15.22                             120    -0.2 5  150  45 
 CHI  HZ EP   2    215  1.01                             113     0.3 4  193 183 
 CHI  HZ I         215 30.36         1.9 0.63                           193 183 
 HEL  HZ EP   1    215  2.22                             111    -0.1 6  208 264 
 HEL  HE ES   1    215 26.99                             111     0.4 6  208 264 
 HEL  HZ I         215 30.58         4.1 0.38                           208 264 
 RREF HZ EP   2    215  6.88                             107    -0.4 4  248 229 
 RREF HN ES   1    215 35.66                             107     0.3 6  248 229 
 RREF HZ I         215 42.26         2.2 0.44                           248 229 
                                                                                
