 2015  325 0905 32.5 L   6.813 -73.138148.0  RSN 27 0.5 2.7LRSN                1
 GAP= 55        1.09       2.3     2.6  4.4 -0.5701E+00  0.2692E+01  0.6329E+00E
 Epicentro: LOS SANTOS - SANTANDER                                             3
 ACTION:UPD 15-04-30 16:29 OP:nd   STATUS:               ID:20150325090532 L   I
 OLDACT:REG 15-03-25 13:30 OP:fm   STATUS:               ID:20150325085738     3
 2015-03-25-0857-38M.COL___278                                                 6
 STAT SP IPHASW D HRMM SECON CODA AMPLIT PERI AZIMU VELO AIN AR TRES W  DIS CAZ7
 BAR2 EZ IP     D  9 5 52.69                             170    0.2710 24.9 191 
 BAR2 EZ ES        9 6  7.71                             170   -0.2610 24.9 191 
 BAR2 EZ I         9 6 10.45       102.8 0.28            169           24.9 191 
 BRR  HZ EP     D  9 5 54.60                             153    0.7110 71.3 297 
 BRR  HE ES        9 6 11.23                             153    0.6510 71.3 297 
 BRR  HZ I         9 6 14.26        54.7 0.14            150           71.3 297 
 PAM  SZ IP     C  9 5 55.45                             152    0.6010 75.7  40 
 PAM  SE ES        9 6 12.32                             152    0.0310 75.7  40 
 PAM  SZ I         9 6 14.85        94.1 0.22            155           75.7  40 
 RUS  HZ IP     D  9 5 56.55                             144   -0.0110  102 177 
 RUS  HE ES        9 6 14.67                             144   -0.6710  102 177 
 RUS  HZ I         9 6 16.52        37.9 0.42            145            102 177 
 PTB  HZ EP     C  9 5 59.36                             132   -0.39 9  149 258 
 PTB  HE ES        9 6 20.73                             132   -0.28 9  149 258 
 PTB  HZ I         9 6 26.54        94.9 0.22            131            149 258 
 TAM  HZ IP     D  9 6  0.84                             131    0.54 9  155 106 
 TAM  HE ES        9 6 21.59                             131   -0.41 9  155 106 
 TAM  HZ I         9 6 21.66        52.1 0.38            135            155 106 
 OCA  HZ EP        9 6  0.70                             130   -0.16 9  159 353 
 OCA  HN ES        9 6 22.48                             130   -0.50 9  159 353 
 OCA  HZ I         9 6 31.26       118.2 0.20            131            159 353 
 SPBC HZ EP        9 6  1.61                             129    0.29 9  165 219 
 SPBC HE ES        9 6 23.82                             129    0.01 9  165 219 
 SPBC HZ I         9 6 30.87       122.3 0.36            129            165 219 
 ZAR  HZ EP        9 6  5.31                             123    0.20 9  204 292 
 ZAR  HN ES        9 6 30.54                             123   -0.02 9  204 292 
 ZAR  HZ I         9 6 37.12        77.3 0.22            123            204 292 
 NOR  HZ EP        9 6  8.75                             119    0.23 8  236 234 
 NOR  HE ES        9 6 36.26                             119   -0.36 8  236 234 
 NOR  HZ I         9 6 40.45        57.4 0.70            119            236 234 
 SML  HZ EP        9 6  8.87                             118   -0.27 8  243 335 
 SML  HE ES        9 6 38.08                             118    0.35 8  243 335 
 SML  HZ I         9 6 43.98        69.8 0.28            119            243 335 
 ROSC BZ EP        9 6 11.85                             117    0.93 8  254 211 
 ROSC BE ES        9 6 41.54                             117    0.65 8  254 211 
 ROSC BZ I         9 6 48.57        59.3 0.50            118            254 211 
 HEL  HZ EP        9 6 13.62                             115    0.67 8  273 256 
 HEL  HN ES        9 6 44.10                             115   -0.41 8  273 256 
 HEL  HZ I         9 6 51.37        33.5 0.36            115            273 256 
 URE  HZ EP        9 6 12.90                             114   -0.80 7  284 292 
 URE  HE ES        9 6 44.70                             114   -1.15 7  284 292 
 URE  HZ I         9 6 53.54        29.5 0.28            114            284 292 
 GUY2CHZ EP        9 6 16.95                             113    0.57 7  303 235 
 GUY2CHE ES        9 6 50.44                             113   -0.17 7  303 235 
 GUY2CHZ I         9 6 59.58        52.1 0.74                           303 235 
 VIL  SZ EP        9 6 15.78                             112   -0.41 7  305 192 
 VIL  SE ES        9 6 50.31                             112    0.03 7  305 192 
 VIL  SZ I         9 7  0.88        30.8 0.38            113            305 192 
 PTGC HZ EP     D  9 6 15.58                             112   -0.98 7  310 159 
 PTGC HE ES   4    9 6 49.04                             112   -1.90 0  310 159 
 PTGC HZ I         9 6 55.87        14.0 0.46            113            310 159 
 RREF HZ EP        9 6 18.79                             111   -0.13 7  323 229 
 RREF HE ES        9 6 55.11                             111   -0.01 7  323 229 
 RREF HZ I         9 7  1.33        34.4 0.26            112            323 229 
 CBOC HZ EP        9 6 20.38                             110    0.73 7  335 252 
 CBOC HN ES        9 6 56.84                             110    0.41 7  335 252 
 CBOC HZ I         9 7 10.88         8.4 0.50            111            335 252 
 DBB  SZ EP        9 6 20.14                             110   -0.01 7  340 274 
 DBB  SZ ES   1    9 6 57.02                             110   -0.30 5  340 274 
 MON  HZ EP   4    9 6 19.97                             109   -1.59 0  353 308 
 MON  HE ES   4    9 6 57.47                             109   -2.36 0  353 308 
 MON  HZ I         9 7  1.11        13.5 0.42            109            353 308 
 ARGC HZ EP        9 6 21.75                             109   -0.36 6  358 340 
 ARGC HN ES        9 7  1.04                             109    0.22 6  358 340 
 ARGC HZ I         9 7 12.30        12.9 0.30            109            358 340 
 SDV  BZ EP        9 6 21.84                             109   -0.59 6  359  50 
 SDV  BN ES   4    9 6 58.43                             109   -2.96 0  359  50 
 SDV  BZ I         9 7  1.47         7.2 0.35            110            359  50 
 ORTC HZ EP        9 6 26.57                             107   -0.12 6  397 216 
 ORTC HN ES        9 7  8.87                             107   -0.09 6  397 216 
 ORTC HZ I         9 7 17.35        18.5 0.64            107            397 216 
 PAL  HE ES   4    9 7 11.20                             106    0.08 0  407 239 
 PAL  HZ I         9 7 17.15        10.1 0.48            107            407 239 
 SJC  HZ EP   4    9 6 26.87                             106   -1.18 0  409 327 
 SJC  HN ES   4    9 7  8.07                             106   -3.31 0  409 327 
 SJC  HZ I         9 7 19.46         6.8 0.24            107            409 327 
 YOT  HZ EP   1    9 6 33.93                             103   -1.86 4  474 229 
 MACC HZ EP   4    9 6 39.37                             102   -2.07 0  522 189 
 MACC HE ES   4    9 7 30.33                             102   -4.89 0  522 189 
                                                                                
