 2014  225 0859 40.4 L   6.778 -73.204139.7  RSN  5 0.2 1.1LRSN                1
 GAP=130        0.58       2.7     3.9  5.6  0.4708E+00  0.4987E+01 -0.2569E+01E
 Epicentro: ZAPATOCA - SANTANDER                                               3
 ACTION:UPD 14-03-10 08:13 OP:ep   STATUS:               ID:20140225085940 L   I
 OLDACT:DUP 14-02-25 10:28 OP:stll STATUS:               ID:20140225085808d    3
 2014-02-25-0858-05M.COL___220                                                 6
 STAT SP IPHASW D HRMM SECON CODA AMPLIT PERI AZIMU VELO AIN AR TRES W  DIS CAZ7
 BAR2 SZ ES        9 0 13.76                             171   -0.1510 20.7 173 
 BAR2 SZ I         9 0 15.61         6.0 0.18            168           20.7 173 
 PAM  SZ EP   2    9 0  1.68                             148   -0.63 5 83.4  42 
 RUS  HZ EP        9 0  3.69                             143    0.3110 98.8 172 
 RUS  HN ES        9 0 21.36                             143    0.0110 98.8 172 
 RUS  HZ I         9 0 23.23         1.4 0.30            144           98.8 172 
 PTB  HZ EP        9 0  5.98                             132   -0.23 9  141 259 
 PTB  HN ES        9 0 26.45                             132    0.07 9  141 259 
 PTB  HZ I         9 0 34.01         1.2 0.24            130            141 259 
 OCA  HN ES        9 0 30.38                             128    0.16 9  162 356 
                                                                                
