 2013  725 0205 21.8 L   6.796 -73.096149.6  RSN  8 0.3 1.9LRSN                1
 GAP=198        0.76       3.4     4.5  5.0  0.2884E+01  0.5160E+01 -0.1584E+00E
 Epicentro: LOS SANTOS - SANTANDER                                             3
 ACTION:UPD 13-08-12 10:39 OP:ep   STATUS:               ID:20130725020521 L   I
 OLDACT:UP  13-07-25 11:11 OP:cam  STATUS:               ID:20130725015959     3
 OLDACT:REG 13-07-25 09:01 OP:cam  STATUS:               ID:20130725015959     3
 2013-07-25-0159-59M.COL___266                                                 6
 STAT SP IPHASW D HRMM SECON CODA AMPLIT PERI AZIMU VELO AIN AR TRES W  DIS CAZ7
 BAR2 SZ EP        2 5 41.99                             170    0.0910 24.4 203 
 BAR2 SZ ES   1    2 5 56.84                             170   -0.75 7 24.4 203 
 BAR2 SZ I         2 5 58.31        15.4 0.15            167           24.4 203 
 GIR2 SZ EP   1    2 5 42.28                             167    0.31 7 33.1 341 
 GIR2 SZ ES   1    2 5 57.69                             167   -0.01 7 33.1 341 
 GIR2 SZ I         2 5 59.46        11.3 0.09            164           33.1 341 
 BRR  HZ EP        2 5 43.86                             151    0.2210 76.2 297 
 BRR  HN ES        2 6  1.22                             151    0.5410 76.2 297 
 BRR  HZ I         2 6  3.65        13.4 0.12            148           76.2 297 
 RUS  HZ EP        2 5 45.90                             145    0.0310 99.9 179 
 RUS  HN ES        2 6  4.61                             145   -0.0410 99.9 179 
 RUS  HZ I         2 6  5.37         9.2 0.24            146           99.9 179 
 PTB  HZ EP   1    2 5 48.89                             132   -0.65 7  153 259 
 PTB  HE ES   1    2 6 10.68                             132   -0.51 7  153 259 
 PTB  HZ I         2 6 14.20         8.9 0.14            130            153 259 
 ZAR  HZ EP   1    2 5 54.91                             122   -0.11 6  209 292 
 ZAR  HE ES   1    2 6 20.97                             122    0.03 6  209 292 
 ZAR  HZ I         2 6 27.02        11.7 0.40            122            209 292 
 NOR  HZ EP        2 5 58.35                             119    0.16 8  239 235 
 NOR  HN ES        2 6 26.79                             119    0.21 8  239 235 
 NOR  HZ I         2 6 31.27         7.5 0.40            119            239 235 
 SML  HZ EP   1    2 5 58.70                             118   -0.23 6  246 334 
 SML  HE ES   1    2 6 27.43                             118   -0.47 6  246 334 
 SML  HZ I         2 6 29.71        13.5 0.10            119            246 334 
                                                                                
