 2016  825 0957 41.5 L   6.813 -73.142144.0  RSN 10 0.5 1.5LRSN                1
 GAP=136        1.10       3.6     4.9  6.6  0.2520E+00  0.1040E+02  0.4928E+01E
 Epicentro: LOS SANTOS - SANTANDER                                             3
 ACTION:UPD 16-10-29 15:39 OP:rebc STATUS:               ID:20160825095741 L   I
 OLDACT:DUP 16-08-25 18:38 OP:ak   STATUS:               ID:20160825094740d    3
 OLDACT:REG 16-08-25 12:51 OP:ak   STATUS:               ID:20160825094738     3
 2016-08-25-0948-00M.COL___366                                                 6
 STAT SP IPHASW D HRMM SECON CODA AMPLIT PERI AZIMU VELO AIN AR TRES W  DIS CAZ7
 BAR2 EZ EP   2    958  0.63                             170   -0.29 5 24.9 190 
 BAR2 EZ ES        958 16.05                             170   -0.0410 24.9 190 
 BAR2 EZ I         958 17.15        11.7 0.18                          24.9 190 
 BRR  HZ EP        958  2.61                             152    0.2010 70.9 297 
 BRR  HN ES        958 19.45                             152    0.7110 70.9 297 
 BRR  HZ I         958 23.98         7.1 0.41                          70.9 297 
 PAM  EZ EP        958  3.50                             151    0.0910 76.0  40 
 PAM  EN ES        958 20.69                             151    0.1710 76.0  40 
 PAM  EZ I         958 24.62         3.7 0.42                          76.0  40 
 RUS  HZ EP        958  4.67                             143   -0.4810  102 176 
 RUS  HN ES        958 23.23                             143   -0.3910  102 176 
 RUS  HZ I         958 24.19         2.9 0.28                           102 176 
 PTB  HZ EP        958  7.60                             131   -0.76 9  148 258 
 PTB  HN ES        958 28.75                             131   -0.58 9  148 258 
 PTB  HZ I         958 35.68         4.0 0.25                           148 258 
 OCA  HN ES        958 31.35                             130   -0.03 9  159 353 
 ZAR  HZ EP        958 13.48                             122   -0.30 9  204 292 
 ZAR  HN ES        958 39.03                             122    0.04 9  204 292 
 ZAR  HZ I         958 44.71         3.2 0.18                           204 292 
 CHI  HN ES        958 49.46                             117    0.77 8  250 195 
 GUY2CHZ EP        958 26.01                             112    0.88 7  302 235 
 GUY2CHN ES   4    959  2.04                             112    2.85 0  302 235 
 GUY2CHZ I         959  9.05         2.0 0.38                           302 235 
 PRA  HZ EP        958 35.07                             106   -0.03 6  394 210 
 PRA  HN ES        959 17.70                             106    0.76 6  394 210 
 PRA  HZ I         959 21.26         1.8 0.62                           394 210 
                                                                                
