 2017  625 0527 37.3 L   6.771 -73.166147.7  RSN  8 0.5 2.6LRSN                1
 GAP=209        1.19       6.0     5.3  7.5  0.1743E+02  0.2469E+01  0.1002E+02E
 Epicentro: LOS SANTOS - SANTANDER                                             3
 ACTION:UPD 17-09-14 16:55 OP:jn   STATUS:               ID:20170625052737 L   I
 OLDACT:DUP 17-06-25 15:12 OP:lv   STATUS:               ID:20170625051741d    3
 2017-06-25-0518-00M.COL___349                                                 6
 STAT SP IPHASW D HRMM SECON CODA AMPLIT PERI AZIMU VELO AIN AR TRES W  DIS CAZ7
 BAR2 EZ EP        527 57.08                             172   -0.0710 19.9 185 
 BAR2 EZ ES        528 12.17                             172   -0.4310 19.9 185 
 BAR2 EZ I         528 14.88         7.8 0.23            169           19.9 185 
 BRR  HZ EP        527 58.77                             153    0.0810 70.8 302 
 BRR  HN ES        528 15.54                             153    0.2110 70.8 302 
 BRR  HZ I         528 19.87         4.9 0.15            154           70.8 302 
 PTB  HZ EP        528  3.80                             133   -0.42 9  145 260 
 PTB  HN ES        528 24.73                             133   -0.45 9  145 260 
 PTB  HZ I         528 27.00        25.5 0.04            134            145 260 
 SPBC HZ EP        528  6.05                             130    0.42 9  159 219 
 SPBC HN ES        528 27.67                             130   -0.03 9  159 219 
 SPBC HZ I         528 31.95     362.2e4 0.01            131            159 219 
 YPLC HZ EP        528  7.53                             127    0.40 9  175 150 
 YPLC HN ES        528 31.45                             127    1.10 9  175 150 
 YPLC HZ I         528 34.38         4.6 0.17            129            175 150 
 ZAR  HZ EP        528  9.74                             123   -0.09 9  203 293 
 ZAR  HN ES        528 35.43                             123    0.27 9  203 293 
 PTGC HZ EP        528 20.35                             112   -0.71 7  307 158 
 PTGC HN ES        528 54.02                             112   -1.13 7  307 158 
 CBOC HZ EP   4    528 25.50                             110    1.51 0  330 252 
 CBOC HN ES        529  0.89                             110    0.53 7  330 252 
 CBOC HZ I         529  7.51         0.7 0.17            112            330 252 
                                                                                
