 2015 1025 0449  0.1 L   5.920 -73.659120.6  RSN 14 0.4 1.8LRSN                1
 GAP=126        1.01       3.0     3.3  5.6 -0.4735E+01  0.4458E+01 -0.3657E+01E
 Epicentro: BARBOSA - SANTANDER                                                3
 ACTION:UPD 15-12-22 20:42 OP:cam  STATUS:               ID:20151025044900 L   I
 OLDACT:UP  15-11-01 03:32 OP:DRIO STATUS:               ID:20151025044900 L   3
 OLDACT:UP  15-10-25 16:20 OP:mh   STATUS:               ID:20151025044746     3
 OLDACT:UP  15-10-25 16:19 OP:mh   STATUS:               ID:20151025044746     3
 OLDACT:REG 15-10-25 12:36 OP:mh   STATUS:               ID:20151025044746     3
 2015-10-25-0447-46M.COL___313                                                 6
 STAT SP IPHASW D HRMM SECON CODA AMPLIT PERI AZIMU VELO AIN AR TRES W  DIS CAZ7
 SPBC HZ EP        449 17.76                             154    0.0810 54.5 237 
 SPBC HN ES        449 31.35                             154   -0.0710 54.5 237 
 SPBC HZ I         449 33.27        38.1 0.24            153           54.5 237 
 RUS  HZ EP        449 18.85                             151    0.0610 63.8  93 
 RUS  HN ES   1    449 32.98                             151   -0.42 7 63.8  93 
 RUS  HZ I         449 33.90         4.5 0.28            154           63.8  93 
 BAR2 EZ EP        449 20.47                             140    0.1510 91.2  35 
 BAR2 EZ ES        449 36.33                             140    0.2110 91.2  35 
 BAR2 EZ I         449 37.20        36.2 0.18            142           91.2  35 
 BRR  HZ EP        449 23.58                             129    0.0910  131 357 
 BRR  HN ES        449 42.48                             129    0.7110  131 357 
 BRR  HZ I         449 43.20         8.0 0.14            130            131 357 
 NOR  HZ EP        449 24.85                             127    0.50 9  140 254 
 NOR  HN ES        449 42.79                             127   -0.52 9  140 254 
 NOR  HZ I         449 47.98        20.8 0.16            127            140 254 
 ROSC BZ EP   4    449 25.40                             127    0.56 0  140 212 
 ROSC BN ES   4    449 46.44                             127    2.26 0  140 212 
 ROSC BZ I         449 48.41         6.6 0.45            128            140 212 
 PAM  EZ EP        449 29.75                             119   -0.28 9  189  34 
 PAM  EN ES        449 52.74                             119   -0.68 9  189  34 
 PAM  EZ I         449 57.17         4.8 0.24            120            189  34 
 GUY2CHZ EP   1    449 32.25                             116    0.66 6  204 248 
 GUY2CHN ES   4    449 58.55                             116    2.36 0  204 248 
 GUY2CHZ I         450  5.17         3.1 0.36                           204 248 
 HEL  HZ EP   1    449 32.66                             116    0.65 6  209 278 
 HEL  HN ES        449 56.30                             116   -0.64 8  209 278 
 HEL  HZ I         450  3.14         6.2 0.32            116            209 278 
 ZAR  HZ EP        449 32.45                             114   -0.15 8  219 323 
 ZAR  HN ES        449 58.18                             114    0.19 8  219 323 
 ZAR  HZ I         450  0.13         6.5 0.32            115            219 323 
 OCA  HZ EP        449 37.13                             110   -0.23 8  259   8 
 OCA  HN ES        450  7.20                             110    0.73 8  259   8 
 OCA  HZ I         450 11.32        15.2 0.48            111            259   8 
 ORTC HZ EP        449 40.29                             108    0.26 7  284 218 
 ORTC HE ES        450 11.20                             108   -0.01 7  284 218 
 ORTC HZ I         450 15.82         3.5 0.22            109            284 218 
 SML  HZ EP        449 43.82                             105   -0.62 7  322 352 
 SML  HN ES        450 18.17                             105   -0.90 7  322 352 
 SML  HZ I         450 26.92         5.0 0.10            106            322 352 
 MON  HZ EP   9    449 49.59                             102   -2.45 0  386 325 
 MON  HZ I         449 51.60         0.7 0.10            103            386 325 
 MON  HN ES        450 30.52                             102    0.38 6  386 325 
                                                                                
