 2010  625 0101 31.6 L   6.740 -73.117146.3  RSN  7 0.4 1.7LRSN                1
 GAP=160        0.98       4.9    10.3  8.5 -0.8942E+01 -0.1478E+02 -0.6340E+01E
 Epicentro: JORDAN - SANTANDER                                                 3
 ACTION:UP  10-08-24 10:12 OP:vdl  STATUS:               ID:20100625010131 L   I
 2010-06-25-0058-12S.COL___118                                                 6
 STAT SP IPHASW D HRMM SECON CODA AMPLIT PERI AZIMU VELO SNR AR TRES W  DIS CAZ7
 BAR2 SZ EP        1 1 51.20                             173     0.010   18 204 
 BAR2 SZ ES   1    1 2  5.95                             173    -0.5 7   18 204 
 BRR  HZ EP        1 1 52.98                             151    -0.210   77 302 
 BRR  HZ I         1 1 53.28        21.3 0.24                            77 302 
 BRR  HN ES   1    1 2 10.38                             151     0.4 7   77 302 
 RUS  HZ EP        1 1 55.02                             146     0.110   94 178 
 RUS  HN ES   1    1 2 13.18                             146     0.1 7   94 178 
 RUS  HZ I         1 2 15.06         3.1 0.48                            94 178 
 BRI  SZ EP        1 1 55.69                             140    -0.210  114  18 
 BRI  SZ I         1 2 19.14         3.5 0.54                           114  18 
 GRA  SZ IP        1 1 57.92                             136     0.610  131  15 
 GRA  SZ ES   1    1 2 17.65                             136     0.2 7  131  15 
 OCA  SZ EP   1    1 1 59.64                             128    -1.0 7  167 352 
 OCA  SZ I         1 2 26.72         7.6 0.46                           167 352 
 PRA  HZ EP   2    1 2 24.86                             107     0.2 3  388 210 
 PRA  HE ES   2    1 3  6.26                             107     0.2 3  388 210 
 PRA  HZ I         1 3 10.01         2.8 0.44                           388 210 
                                                                                
