 2012  125 0918  1.3 L   6.793 -73.148149.3  RSN 13 0.4 2.4LRSN                1
 GAP=137        0.90       3.4     4.1  5.5 -0.2416E+01  0.5843E+01  0.2944E+01E
 Epicentro: LOS SANTOS - SANTANDER                                             3
 ACTION:UP  12-02-03 08:20 OP:REBC STATUS:               ID:20120125091801 L   I
 2012-01-25-0910-00M.COL___187                                                 6
 STAT SP IPHASW D HRMM SECON CODA AMPLIT PERI AZIMU VELO SNR AR TRES W  DIS CAZ7
 BAR2 SZ IP        918 21.30                             171     0.010   23 190 
 BAR2 SZ ES   1    918 36.55                             171    -0.4 7   23 190 
 BAR2 SZ I         918 39.01        51.8 0.26                            23 190 
 GIR2 SZ EP        918 21.38                             167     0.010   32 351 
 GIR2 SZ ES   1    918 37.44                             167     0.4 7   32 351 
 BRR  HZ IP     C  918 23.20                             153     0.410   71 299 
 BRR  HZ I         918 23.49        79.2 0.20                            71 299 
 BRR  HE ES   1    918 40.44                             153     0.8 7   71 299 
 PAM  SZ EP        918 24.12                             151     0.210   78  39 
 PAM  SE ES   1    918 41.04                             151    -0.5 7   78  39 
 RUS  HZ EP        918 25.15                             145    -0.210  100 176 
 RUS  HE ES   1    918 44.07                             145     0.0 7  100 176 
 PTB  HZ EP        918 27.95                             133    -0.5 9  147 259 
 PTB  HE ES   1    918 48.99                             133    -0.7 7  147 259 
 OCA  SZ EP        918 29.58                             130    -0.3 9  161 353 
 OCA  SZ ES   1    918 52.48                             130     0.2 7  161 353 
 OCA  SZ I         918 58.34        24.9 0.51                           161 353 
 ZAR  HZ EP   1    918 33.75                             123    -0.2 6  204 292 
 ZAR  HE ES   1    918 59.04                             123    -0.4 6  204 292 
 ZAR  HZ I         919 10.15        23.5 0.35                           204 292 
 NOR  SZ EP   1    918 37.66                             119     0.5 6  234 235 
 NOR  SN ES   1    919  5.02                             119    -0.1 6  234 235 
 CHI  HZ EP   1    918 39.13                             118     0.0 6  248 195 
 CHI  HE ES   1    919  8.76                             118     0.2 6  248 195 
 CHI  HZ I         919 18.21        10.0 0.54                           248 195 
 HEL  HZ EP   1    918 42.31                             115     0.7 6  272 256 
 HEL  HN ES   1    919 13.03                             115    -0.1 6  272 256 
 HEL  HZ I         919 19.96        13.1 0.36                           272 256 
 RREF HZ EP   1    918 47.94                             111     0.5 5  321 229 
 RREF HN ES   2    919 24.41                             111     0.9 3  321 229 
 RREF HZ I         919 33.86        12.7 0.37                           321 229 
 PRA  HZ EP   1    918 54.48                             107    -0.3 4  391 210 
                                                                                
