 2017  525 0739 57.1 L   6.731 -73.178156.6  RSN  5 0.4 1.3LRSN                1
 GAP=228        0.89       5.8     6.4  8.7  0.1553E+02 -0.4724E+01 -0.8081E+01E
 Epicentro: VILLANUEVA - SANTANDER                                             3
 ACTION:UPD 17-06-16 13:38 OP:jn   STATUS:               ID:20170525073956 L   I
 OLDACT:UP  17-06-02 15:28 OP:nlst STATUS:               ID:20170525073956 L   3
 OLDACT:REG 17-05-25 12:55 OP:ar   STATUS:               ID:20170525073727     3
 2017-05-25-0738-00M.COL___329                                                 6
 STAT SP IPHASW D HRMM SECON CODA AMPLIT PERI AZIMU VELO AIN AR TRES W  DIS CAZ7
 BRR  HZ EP        740 19.77                             154    0.3110 72.3 305 
 BRR  HN ES   1    740 37.00                             154    0.08 7 72.3 305 
 BRR  HZ I         740 39.84         2.8 0.16            155           72.3 305 
 RUS  HZ EP        740 21.37                             148   -0.0510 93.3 174 
 RUS  HE ES        740 40.23                             148   -0.1810 93.3 174 
 RUS  HZ I         740 41.27         3.1 0.32            150           93.3 174 
 PTB  HZ EP        740 24.48                             135   -0.05 9  143 262 
 PTB  HN ES        740 45.33                             135   -0.62 9  143 262 
 PTB  HZ I         740 46.65         1.5 0.24            137            143 262 
 SPBC HZ EP        740 25.41                             133   -0.28 9  155 220 
 SPBC HE ES        740 48.70                             133    0.69 9  155 220 
 SPBC HZ I         740 51.70         4.1 0.12            135            155 220 
 ZAR  HE ES   1    740 56.37                             125    0.28 6  204 295 
                                                                                
