 2014 1025 0937 19.8 L   6.552 -73.565114.2  RSN  6 0.5 1.5LRSN                1
 GAP= 76        1.30       5.1     4.9 10.0 -0.4825E+01 -0.1736E+00 -0.8836E+00E
 Epicentro: EL CARMEN - SANTANDER                                              3
 ACTION:UPD 14-11-29 23:56 OP:nd   STATUS:               ID:20141025093719 L   I
 OLDACT:UP  14-10-28 17:39 OP:cam  STATUS:               ID:20141025092816     3
 OLDACT:REG 14-10-28 14:07 OP:cam  STATUS:               ID:20141025092816     3
 2014-10-25-0928-16M.COL___280                                                 6
 STAT SP IPHASW D HRMM SECON CODA AMPLIT PERI AZIMU VELO AIN AR TRES W  DIS CAZ7
 BAR2 SZ EP        937 36.76                             158    0.3910 42.5  84 
 BAR2 SZ ES        937 49.06                             158   -0.2110 42.5  84 
 BAR2 SZ I         937 50.58        28.7 0.34            161           42.5  84 
 BRR  HZ EP   1    937 37.20                             149    0.03 7 63.5 345 
 BRR  HE ES        937 51.45                             149    0.7610 63.5 345 
 BRR  HZ I         937 53.30         6.2 0.24            148           63.5 345 
 RUS  HZ EP        937 39.73                             139   -0.0710 90.3 144 
 RUS  HE ES        937 54.93                             139   -0.4310 90.3 144 
 PTB  HZ EP        937 39.44                             136   -0.3810 98.6 269 
 PTB  HN ES        937 54.61                             136   -0.7910 98.6 269 
 PTB  HZ I         937 59.23         4.8 0.40            137           98.6 269 
 SPBC HN ES        937 58.87                             132    0.8310  114 209 
 PAM  SZ EP        937 43.51                             128    0.2610  129  48 
 PAM  SN ES        938  1.13                             128   -0.3710  129  48 
 PAM  SZ I         938  3.74         3.7 0.66            130            129  48 
                                                                                
