 2014  225 0600 42.4 L   6.788 -73.136148.3  RSN  6 0.3 1.4LRSN                1
 GAP=138        0.67       2.9     4.4  6.8  0.4296E+01  0.7744E+00 -0.2916E+01E
 Epicentro: LOS SANTOS - SANTANDER                                             3
 ACTION:UPD 14-03-10 08:13 OP:ep   STATUS:               ID:20140225060042 L   I
 OLDACT:REG 14-02-25 08:12 OP:fm   STATUS:               ID:20140225055820     3
 2014-02-25-0558-20M.COL___229                                                 6
 STAT SP IPHASW D HRMM SECON CODA AMPLIT PERI AZIMU VELO AIN AR TRES W  DIS CAZ7
 PAM  SN ES   2    6 1 22.51                             151    0.02 5 77.7  38 
 RUS  HZ EP        6 1  6.12                             145   -0.2010 99.1 177 
 RUS  HN ES        6 1 25.07                             145    0.1110 99.1 177 
 RUS  HZ I         6 1 25.99         1.6 0.34            143           99.1 177 
 PTB  HZ EP   4    6 1  7.32                             132   -2.36 0  149 259 
 PTB  HN ES        6 1 30.53                             132   -0.40 9  149 259 
 PTB  HZ I         6 1 37.79         4.0 0.34            128            149 259 
 ZAR  HN ES   1    6 1 41.21                             123    0.45 6  206 292 
 SML  HZ EP   1    6 1 18.82                             118   -0.56 6  245 335 
 SML  HE ES        6 1 48.47                             118    0.27 8  245 335 
 SML  HZ I         6 1 52.39         5.5 0.24            117            245 335 
 CHI  HZ EP        6 1 20.47                             118    0.32 8  248 196 
 CHI  HN ES   1    6 1 49.82                             118    0.24 6  248 196 
 CHI  HZ I         6 1 57.27         1.2 0.26            116            248 196 
                                                                                
