 2013  625 0124  9.9 L   6.730 -73.158141.5  RSN  8 0.3 1.6LRSN                1
 GAP=138        0.80       3.9     4.1  5.5  0.7296E-02  0.5630E+01 -0.6545E+00E
 Epicentro: VILLANUEVA - SANTANDER                                             3
 ACTION:UPD 14-01-08 09:56 OP:ep   STATUS:               ID:20130625012409 L   I
 OLDACT:REG 13-06-25 06:26 OP:jn   STATUS:               ID:20130625011959     3
 2013-06-25-0119-59M.COL___267                                                 6
 STAT SP IPHASW D HRMM SECON CODA AMPLIT PERI AZIMU VELO AIN AR TRES W  DIS CAZ7
 BAR2 SZ EP        124 28.96                             173    0.0810 15.5 190 
 BAR2 SZ ES        124 43.61                             173   -0.0710 15.5 190 
 BAR2 SZ I         124 44.84        14.7 0.22            173           15.5 190 
 GIR2 SZ EP   1    124 29.13                             164   -0.16 7 38.7 354 
 GIR2 SZ ES        124 44.58                             164    0.1610 38.7 354 
 BRR  HZ EP        124 31.09                             151    0.3410 74.1 304 
 BRR  HN ES        124 47.50                             151    0.4810 74.1 304 
 BRR  HZ I         124 51.80         9.1 0.12            151           74.1 304 
 PAM  SZ EP     C  124 32.17                             148    0.0810 84.2  37 
 PAM  SN ES        124 48.89                             148   -0.5110 84.2  37 
 PAM  SZ I         124 50.91         7.6 0.58            151           84.2  37 
 RUS  HZ EP   2    124 33.17                             145    0.48 5 93.0 175 
 RUS  HN ES        124 50.54                             145    0.0810 93.0 175 
 RUS  HZ I         124 53.14         4.8 0.34            147           93.0 175 
 PTB  HZ EP        124 35.90                             132   -0.38 9  145 262 
 PTB  HN ES   1    124 56.09                             132   -0.77 7  145 262 
 PTB  HZ I         124 59.49         5.8 0.18            133            145 262 
 ZAR  HE ES   1    125  7.73                             121    0.23 6  206 294 
 SML  HE ES   2    125 15.63                             116   -0.30 4  250 336 
                                                                                
