 2013  625 0740 44.5 L   7.419 -73.194130.1  RSN  8 0.5 1.6LRSN                1
 GAP=108        1.28       4.7     5.9  9.3 -0.1322E+01  0.2079E+02 -0.4378E+01E
 Epicentro: EL PLAYON - SANTANDER                                              3
 ACTION:UPD 14-01-08 09:57 OP:ep   STATUS:               ID:20130625074044 L   I
 OLDACT:REG 13-06-25 06:46 OP:jn   STATUS:               ID:20130625073959     3
 2013-06-25-0739-59M.COL___267                                                 6
 STAT SP IPHASW D HRMM SECON CODA AMPLIT PERI AZIMU VELO AIN AR TRES W  DIS CAZ7
 GIR2 SZ EP        741  2.76                             163    0.2310 37.6 180 
 PAM  SN ES        741 19.22                             156    0.3610 55.3  99 
 PAM  SZ I         741 22.05        12.8 0.32            158           55.3  99 
 BRR  HZ EP        741  3.94                             151    0.2210 66.8 239 
 BRR  HN ES        741 19.20                             151    0.4910 66.8 239 
 BRR  HZ I         741 19.81         6.0 0.11            153           66.8 239 
 BAR2 SZ EP        741  5.81                             143    0.1110 91.4 179 
 BAR2 SZ ES        741 21.33                             143   -0.9110 91.4 179 
 BAR2 SZ I         741 23.95         5.1 0.17            145           91.4 179 
 OCA  HZ EP        741  5.90                             143    0.2910 91.7 351 
 OCA  HN ES        741 21.84                             143   -0.2310 91.7 351 
 OCA  HZ I         741 24.27         5.9 0.24            145           91.7 351 
 PTB  HZ EP        741 12.46                             124    0.01 9  170 235 
 PTB  HN ES        741 33.62                             124   -0.62 9  170 235 
 PTB  HZ I         741 36.88         4.3 0.28            126            170 235 
 SML  HZ EP   1    741 13.00                             122   -0.53 7  181 328 
 SML  HN ES   1    741 34.96                             122   -1.21 7  181 328 
 ZAR  HZ EP   1    741 13.89                             122    0.03 7  184 273 
 ZAR  HE ES        741 37.64                             122    0.89 9  184 273 
 ZAR  HZ I         741 38.61         7.9 0.18            124            184 273 
                                                                                
