 2010  825 0559  6.0 L   7.396 -73.190131.6  RSN  4 0.1 1.4LRSN                1
 GAP=151        0.31      12.2    11.7  6.8 -0.1324E+03 -0.3445E+02  0.4235E+02E
 Epicentro: EL PLAYON - SANTANDER                                              3
 ACTION:UP  10-09-07 10:57 OP:vdl  STATUS:               ID:20100825055906 L   I
 2010-08-25-0554-16S.COL___121                                                 6
 STAT SP IPHASW D HRMM SECON CODA AMPLIT PERI AZIMU VELO SNR AR TRES W  DIS CAZ7
 BTL  SZ EP   2    559 24.97                             157     0.0 5   54 189 
 GUE  SZ EP   2    559 25.08                             156    -0.1 5   56  31 
 GUE  SZ I         559 40.79         2.5 0.17                            56  31 
 BRR  HZ EP   2    559 25.35                             152     0.1 5   66 241 
 BRR  HN ES   2    559 40.35                             152     0.0 5   66 241 
 BRR  HZ I         559 41.69         8.6 0.15                            66 241 
 GRA  SZ EP   2    559 25.78                             151     0.1 5   69  38 
 GRA  SZ ES   1    559 41.08                             151     0.0 7   69  38 
 GRA  SZ I         559 45.24         6.6 0.37                            69  38 
                                                                                
