 2017  325 0230 58.2 L   6.827 -73.178137.3  RSN  6 0.3 1.6LRSN                1
 GAP=131        0.75       3.2     3.3  5.5 -0.1323E+01  0.7046E+01 -0.1867E+01E
 Epicentro: ZAPATOCA - SANTANDER                                               3
 ACTION:UPD 17-05-25 18:44 OP:jn   STATUS:               ID:20170325023058 L   I
 OLDACT:REG 17-03-25 03:39 OP:cara STATUS:               ID:20170325022745     3
 2017-03-25-0228-00M.COL___355                                                 6
 STAT SP IPHASW D HRMM SECON CODA AMPLIT PERI AZIMU VELO AIN AR TRES W  DIS CAZ7
 BAR2 EZ EP        231 16.92                             169    0.0510 25.9 181 
 BAR2 EZ ES        231 31.71                             169    0.2910 25.9 181 
 BAR2 EZ I         231 33.46        10.7 0.54            168           25.9 181 
 PAM  EZ EP        231 19.79                             149    0.2610 77.5  43 
 PAM  EN ES        231 35.92                             149   -0.2410 77.5  43 
 PAM  EZ I         231 38.26         5.4 0.20            154           77.5  43 
 RUS  HZ EP        231 21.02                             141   -0.3510  104 174 
 RUS  HN ES        231 39.36                             141   -0.0810  104 174 
 RUS  HZ I         231 41.34         3.8 0.40            144            104 174 
 PTB  HZ EP        231 23.80                             131   -0.42 9  145 257 
 PTB  HN ES        231 44.24                             131   -0.27 9  145 257 
 PTB  HZ I         231 46.97         4.0 0.12            131            145 257 
 SPBC HZ EP        231 26.12                             127    0.05 9  163 217 
 SPBC HN ES        231 48.15                             127    0.35 9  163 217 
 SPBC HZ I         231 55.81         6.2 0.24            129            163 217 
 ZAR  HZ EP        231 30.18                             121    0.54 9  200 292 
 ZAR  HN ES        231 54.07                             121   -0.09 9  200 292 
 ZAR  HZ I         232  0.85         6.7 0.32            123            200 292 
                                                                                
