 2014 1225 0942 42.1 L   6.753 -73.161151.6  RSN  4 0.3 1.5LRSN                1
 GAP=252        0.69       4.0     8.5  7.3  0.1304E+02 -0.1422E+02  0.6790E+01E
 Epicentro: LOS SANTOS - SANTANDER                                             3
 ACTION:UPD 15-02-10 17:07 OP:nd   STATUS:               ID:20141225094242 L   I
 OLDACT:REG 14-12-25 13:37 OP:mh   STATUS:               ID:20141225093743     3
 2014-12-25-0937-43M.COL___289                                                 6
 STAT SP IPHASW D HRMM SECON CODA AMPLIT PERI AZIMU VELO AIN AR TRES W  DIS CAZ7
 BRR  HZ EP   1    943  3.81                             153   -0.15 7 72.4 303 
 BRR  HN ES        943 21.06                             153    0.0610 72.4 303 
 BRR  HZ I         944 29.39        10.7 0.22            130           72.4 303 
 SPBC HZ EP        943 10.93                             131    0.34 9  158 220 
 SPBC HN ES        943 32.58                             131   -0.23 9  158 220 
 SPBC HZ I         943 39.76         5.2 0.24            141            158 220 
 ZAR  HZ EP   1    943 15.38                             124    0.39 6  205 294 
 ZAR  HN ES        943 40.53                             124   -0.11 9  205 294 
 ZAR  HZ I         943 50.38         2.5 0.48            136            205 294 
 CHI  HZ EP        943 19.03                             119   -0.52 8  243 195 
 CHI  HN ES   1    943 49.27                             119    0.51 6  243 195 
 CHI  HZ I         943 57.79         0.9 0.44            132            243 195 
                                                                                
