 2013  525 0344  7.2 L   6.821 -73.134148.2  RSN 21 0.5 2.9LRSN                1
 GAP= 56        1.22       2.4     3.0  5.1 -0.8504E+00  0.2962E+01  0.1164E+01E
 Epicentro: LOS SANTOS - SANTANDER                                             3
 ACTION:UPD 13-06-20 09:53 OP:ep   STATUS:               ID:20130525034407 L   I
 OLDACT:UP  13-05-27 02:15 OP:CF   STATUS:               ID:20130525034407 L   3
 2013-05-25-0338-53M.COL___211                                                 6
 STAT SP IPHASW D HRMM SECON CODA AMPLIT PERI AZIMU VELO AIN AR TRES W  DIS CAZ7
 BAR2 SZ EP        344 27.07                             170   -0.0910 25.8 192 
 BAR2 SZ ES        344 42.31                             170   -0.4310 25.8 192 
 BAR2 SZ I         344 44.76        89.1 0.28            167           25.8 192 
 GIR2 SZ EP        344 27.11                             168    0.0110 29.3 347 
 BRR  HZ IP     C  344 28.91                             153    0.3110 71.2 296 
 BRR  HZ I         344 29.17        78.3 0.26            148           71.2 296 
 BRR  HN ES        344 46.23                             153    0.9210 71.2 296 
 PAM  SZ EP        344 29.72                             152    0.2010 74.8  40 
 PAM  SZ I         344 30.03       139.8 0.20            153           74.8  40 
 PAM  SN ES        344 47.25                             152    0.3210 74.8  40 
 RUS  HZ EP        344 30.97                             144   -0.3710  103 177 
 RUS  HN ES        344 49.09                             144   -1.0810  103 177 
 RUS  HE I         344 50.70       142.1 0.48            141            103 177 
 CAPV BZ IP     C  344 34.81                             133    0.26 9  147  38 
 CAPV BZ ES        344 56.30                             133    0.40 9  147  38 
 PTB  HZ EP        344 33.87                             132   -0.64 9  149 258 
 PTB  HN ES        344 54.87                             132   -0.94 9  149 258 
 PTB  HE I         345  0.93       123.6 0.28            128            149 258 
 TAM  HZ IP     C  344 35.17                             131    0.16 9  155 106 
 TAM  HN ES        344 56.83                             131    0.13 9  155 106 
 TAM  HN I         344 57.67       138.0 0.42            131            155 106 
 OCA  HZ EP        344 35.31                             130   -0.18 9  158 353 
 OCA  HN ES        344 57.79                             130    0.22 9  158 353 
 OCA  HN I         345  0.50       292.5 0.32            128            158 353 
 YOP  SZ EP        344 37.31                             126   -0.24 9  180 154 
 YOP  SN ES        345  1.33                             126    0.09 9  180 154 
 ZAR  HZ EP        344 40.45                             123    0.63 9  204 291 
 ZAR  HE ES        345  5.21                             123   -0.07 9  204 291 
 NOR  HZ EP        344 43.23                             119   -0.08 8  237 234 
 NOR  HN ES        345 11.07                             119   -0.41 8  237 234 
 NOR  HE I         345 16.44       112.6 0.18            116            237 234 
 SML  HZ EP        344 43.53                             118   -0.26 8  242 335 
 SML  HN ES        345 11.75                             118   -0.58 8  242 335 
 CHI  HZ EP        344 45.20                             117   -0.10 8  251 195 
 CHI  HE ES        345 15.74                             117    0.72 8  251 195 
 CHI  HN I         345 19.90        46.0 0.24            115            251 195 
 CROSAEN EP   4    344 47.52                             117    1.87 0  255 211 
 HEL  HZ EP        344 48.41                             115    0.69 8  274 255 
 HEL  HN I         345 26.60        24.3 0.28            112            274 255 
 GUY2CHZ EP        344 51.96                             112    0.79 7  304 235 
 GUY2CHN ES        345 26.83                             112    1.35 7  304 235 
 GUY2CHN I         345 37.29        32.4 0.54                           304 235 
 VIL  SZ EP        344 50.99                             112   -0.01 7  306 192 
 VIL  SE ES        345 25.87                             112    0.70 7  306 192 
 RREF HZ EP        344 54.10                             111    0.39 7  324 229 
 RREF HN ES        345 29.91                             111   -0.09 7  324 229 
 RREF HZ I         345 37.98        28.4 0.26            109            324 229 
 COD  HZ EP        344 55.34                             109   -0.07 6  346 354 
 COD  HN ES        345 32.28                             109   -0.75 6  346 354 
 SDV  BZ EP        344 56.41                             109   -0.63 6  358  50 
 SDV  BN ES   4    345 33.96                             109   -1.97 0  358  50 
 PRA  HZ EP        345  0.39                             107   -0.71 6  395 210 
 PRA  HE ES        345 42.47                             107   -0.67 6  395 210 
 PRA  HN I         345 47.30        16.5 0.34            105            395 210 
                                                                                
