 2016  825 0942  6.3 L   6.776 -73.145146.0  RSN  9 0.4 1.4LRSN                1
 GAP=138        0.96       3.6     4.1  6.2 -0.3407E+00  0.6562E+01  0.9216E+00E
 Epicentro: LOS SANTOS - SANTANDER                                             3
 ACTION:UPD 16-10-29 15:39 OP:rebc STATUS:               ID:20160825094206 L   I
 OLDACT:REG 16-08-25 12:50 OP:ak   STATUS:               ID:20160825093733     3
 2016-08-25-0938-00M.COL___366                                                 6
 STAT SP IPHASW D HRMM SECON CODA AMPLIT PERI AZIMU VELO AIN AR TRES W  DIS CAZ7
 BAR2 EZ EP        942 25.81                             172   -0.1010 20.8 191 
 BAR2 EZ ES        942 41.40                             172    0.1910 20.8 191 
 BAR2 EZ I         942 42.36         4.5 0.06                          20.8 191 
 BRR  HZ EP        942 27.54                             152   -0.0110 72.5 300 
 BRR  HE ES        942 44.68                             152    0.5610 72.5 300 
 BRR  HZ I         942 46.05         7.7 0.49                          72.5 300 
 PAM  EZ EP        942 28.60                             150   -0.0610 79.4  38 
 PAM  EN ES        942 45.66                             150   -0.4410 79.4  38 
 PAM  EZ I         942 47.89         6.1 0.50                          79.4  38 
 RUS  HZ EP        942 29.90                             145    0.0110 98.0 176 
 RUS  HN ES        942 48.55                             145    0.2610 98.0 176 
 RUS  HZ I         942 49.64         2.0 0.32                          98.0 176 
 PTB  HZ EP        942 32.75                             132   -0.50 9  147 260 
 PTB  HN ES        942 53.71                             132   -0.56 9  147 260 
 PTB  HZ I         943  0.72         3.6 0.40                           147 260 
 SPBC HN ES        942 56.50                             129   -0.23 9  161 220 
 ZAR  HZ EP        942 39.83                             122    0.96 9  205 293 
 ZAR  HN ES        943  4.15                             122   -0.12 9  205 293 
 ZAR  HZ I         943  9.93         3.5 0.17                           205 293 
 CHI  HN ES        943 13.08                             117    0.13 8  246 195 
 GUY2CHZ EP   2    942 49.92                             112    0.16 4  300 235 
 GUY2CHN ES   4    943 25.88                             112    2.23 0  300 235 
 GUY2CHZ I         943 34.02         0.8 0.25                           300 235 
                                                                                
