 2011  725 0101 51.1 L   6.779 -73.130147.3  RSN 12 0.3 2.1LRSN                1
 GAP=157        0.54       2.2     3.6  3.6 -0.3720E+01  0.2071E+01  0.9782E+00E
 Epicentro: LOS SANTOS - SANTANDER                                             3
 ACTION:UPD 12-07-25 14:03 OP:epov STATUS:               ID:20110725010151 L   I
 2011-07-25-0057-56S.COL___143                                                 6
 STAT SP IPHASW D HRMM SECON CODA AMPLIT PERI AZIMU VELO AIN AR TRES W  DIS CAZ7
 BAR2 SZ EP   1    1 2 10.80                             171   -0.04 8 21.5 196 
 BAR2 SZ ES   1    1 2 25.79                             171   -0.47 8 21.5 196 
 BAR2 SZ I         1 2 28.71        41.5 0.35                          21.5 196 
 GIR2 SZ EP   1    1 2 10.88                             166   -0.10 8 33.9 348 
 GIR2 SZ ES   1    1 2 26.41                             166   -0.12 8 33.9 348 
 BRR  HZ EP   1    1 2 12.55                             152    0.03 8 73.9 299 
 BRR  HE ES   1    1 2 29.82                             152    0.55 8 73.9 299 
 BRR  HZ I         1 2 32.04        26.6 0.22                          73.9 299 
 RUS  HZ EP   1    1 2 14.59                             145   -0.20 8 98.2 177 
 RUS  HE ES   1    1 2 33.62                             145    0.32 8 98.2 177 
 RUS  HZ I         1 2 34.72        18.8 0.23                          98.2 177 
 BRI  SZ EP   1    1 2 15.31                             141    0.10 8  110  20 
 BRI  SZ ES   1    1 2 34.12                             141    0.07 8  110  20 
 GRA  SZ IP        1 2 16.61                             137    0.0310  127  16 
 GRA  SZ ES   1    1 2 36.67                             137    0.18 7  127  16 
 GRA  SZ I         1 2 37.65         9.8 0.34                           127  16 
 OCA  SZ EP   1    1 2 19.92                             129    0.20 7  163 353 
 OCA  SZ ES   1    1 2 41.61                             129   -0.47 7  163 353 
 OCA  SZ I         1 2 46.06        14.2 0.37                           163 353 
 NOR  SN ES   1    1 2 54.54                             119   -0.29 6  235 235 
 CHI  HZ EP   1    1 2 28.95                             118    0.30 6  247 196 
 CHI  HN ES   2    1 2 57.82                             118   -0.15 4  247 196 
 CHI  HZ I         1 3  3.81         6.9 0.25                           247 196 
 HEL  HZ EP   1    1 2 30.95                             115   -0.53 6  273 256 
 HEL  HN ES   2    1 3  3.72                             115    0.72 4  273 256 
 RREF HN ES   1    1 3 13.13                             111   -0.15 5  322 230 
 RREF HZ I         1 3 22.99         8.1 0.27                           322 230 
 PRA  HZ EP   1    1 2 44.53                             107    0.03 5  391 210 
 PRA  HN ES   1    1 3 26.48                             107    0.30 5  391 210 
                                                                                
