 2013  225 0651 29.7 L   6.787 -73.139145.4  RSN  9 0.5 2.2LRSN                1
 GAP=138        1.12       3.8     4.6  6.5 -0.3795E+00  0.6696E+01  0.2631E+01E
 Epicentro: LOS SANTOS - SANTANDER                                             3
 ACTION:UPD 13-03-12 09:35 OP:ep   STATUS:               ID:20130225065129 L   I
 2013-02-25-0648-50M.COL___196                                                 6
 STAT SP IPHASW D HRMM SECON CODA AMPLIT PERI AZIMU VELO AIN AR TRES W  DIS CAZ7
 BAR2 SZ EP        651 49.28                             171   -0.0310 22.1 192 
 BAR2 SZ ES        652  4.41                             171   -0.1610 22.1 192 
 BAR2 SZ I         652  5.84        25.3 0.24            169           22.1 192 
 BRR  HZ EP        651 51.11                             152    0.1810 72.5 299 
 BRR  HN ES        652  8.37                             152    0.9210 72.5 299 
 BRR  HN I         652 12.73        42.5 0.22            149           72.5 299 
 PAM  SZ EP        651 52.06                             151    0.1010 78.0  38 
 PAM  SN ES        652  9.51                             151    0.2210 78.0  38 
 PAM  SN I         652 10.68         8.0 0.48            154           78.0  38 
 RUS  HZ EP        651 53.23                             144   -0.1310 99.1 176 
 RUS  HN ES        652 11.65                             144   -0.1310 99.1 176 
 RUS  HN I         652 12.49        18.2 0.28            146           99.1 176 
 PTB  HZ EP        651 56.01                             132   -0.72 9  148 259 
 PTB  HN ES        652 17.35                             132   -0.42 9  148 259 
 PTB  HN I         652 22.75        27.8 0.44            131            148 259 
 OCA  HZ EP        651 58.11                             129   -0.06 9  162 353 
 OCA  HN ES   1    652 19.72                             129   -0.61 7  162 353 
 OCA  HN I         652 23.70        57.4 0.28            131            162 353 
 ZAR  HE ES        652 27.04                             122   -0.63 8  205 292 
 ZAR  HN I         652 32.86        25.2 0.38            122            205 292 
 CHI  HZ EP        652  7.23                             117   -0.07 8  247 195 
 CHI  HN ES        652 36.66                             117    0.07 8  247 195 
 CHI  HN I         652 41.65        11.1 0.52            119            247 195 
 HEL  HZ EP        652 11.10                             115    1.12 8  272 256 
 HEL  HN ES   1    652 41.88                             115    0.52 6  272 256 
 HEL  HN I         652 48.67         3.8 0.44            115            272 256 
                                                                                
