 2016 1125 0359  1.7 L   6.876 -73.124149.0  RSN 20 0.5 2.7LRSN                1
 GAP= 72        1.02       4.0     3.5  5.2 -0.3007E+01  0.3297E+01  0.7567E+01E
 Epicentro: LOS SANTOS - SANTANDER                                             3
 ACTION:UPD 17-10-26 21:11 OP:lp   STATUS:               ID:20161125035901 L   I
 OLDACT:UP  16-11-25 16:26 OP:edw  STATUS:               ID:20161125035744     3
 OLDACT:UP  16-11-25 16:25 OP:edw  STATUS:               ID:20161125035744     3
 OLDACT:REG 16-11-25 12:39 OP:edw  STATUS:               ID:20161125035744     3
 2016-11-25-0358-00M.COL___355                                                 6
 STAT SP IPHASW D HRMM SECON CODA AMPLIT PERI AZIMU VELO AIN AR TRES W  DIS CAZ7
 BAR2 EZ IP     C  359 21.65                             167   -0.2610 32.0 192 
 BAR2 EZ ES        359 37.16                             167   -0.5210 32.0 192 
 BAR2 EZ I         359 39.99        67.1 0.18            166           32.0 192 
 PAM  EZ EP        359 24.18                             154    0.3710 69.5  42 
 PAM  EN ES        359 41.05                             154   -0.0110 69.5  42 
 PAM  EZ I         359 43.29       121.9 0.42            157           69.5  42 
 BRR  HZ IP     C  359 23.21                             153    0.0910 69.9 292 
 BRR  HN ES        359 39.85                             153    0.0210 69.9 292 
 BRR  HZ I         359 41.94        79.5 0.18            151           69.9 292 
 PTB  HZ EP   9 C  359 28.17                             132   -1.14 0  152 256 
 PTB  HN ES        359 49.89                             132    0.18 9  152 256 
 PTB  HZ I         359 52.28        75.8 0.10            131            152 256 
 TAM  HZ EP        359 30.28                             131    0.65 9  155 108 
 TAM  HN ES        359 51.79                             131    0.36 9  155 108 
 TAM  HZ I         359 52.50        23.0 0.44            134            155 108 
 ZAR  HZ EP        359 34.42                             123    0.14 9  203 290 
 ZAR  HN ES   4    4 0  0.89                             123    1.20 0  203 290 
 ZAR  HZ I         4 0  4.78        97.0 0.32            123            203 290 
 NOR  HZ EP        359 37.76                             118   -0.59 8  242 233 
 NOR  HN ES   4    4 0  5.44                             118   -1.50 0  242 233 
 NOR  HZ I         4 0  9.17        42.9 0.24            118            242 233 
 CHI  HZ EP        359 40.32                             117   -0.20 8  257 195 
 CHI  HN ES        4 0  9.88                             117   -0.92 8  257 195 
 CHI  HZ I         4 0 16.21        22.8 0.36            117            257 195 
 ROSC BZ EP   4    359 42.42                             116    1.51 0  261 211 
 ROSC BE ES        4 0 12.32                             116    0.82 8  261 211 
 ROSC BZ I         4 0 18.04        44.6 0.30            117            261 211 
 URE  HZ EP        359 42.52                             114   -0.32 7  283 290 
 URE  HN ES   4    4 0 13.21                             114   -1.73 0  283 290 
 URE  HZ I         4 0 21.27        81.8 0.30            114            283 290 
 PTGC HZ EP        359 45.47                             112   -1.01 7  316 160 
 PTGC HN ES   4    4 0 18.71                             112   -2.71 0  316 160 
 PTGC HZ I         4 0 21.48         9.8 0.16            112            316 160 
 LL6C HZ EP   4    359 26.39                             111   -20.2 0  317 357 
 LL6C HE ES   4    4 0  2.65                             111   -19.0 0  317 357 
 ELA  HZ EP   4    359 51.66                             110    2.14 0  336 229 
 ELA  HN ES        4 0 27.30                             110    0.48 7  336 229 
 ELA  HZ I         4 0 36.44        25.7 0.42            110            336 229 
 CBOC HZ EP   4    359 50.38                             110    1.07 0  339 251 
 CBOC HE ES   4    4 0 24.44                             110   -2.01 0  339 251 
 CBOC HZ I         4 0 30.35         8.2 0.50            110            339 251 
 DBB  HZ EP   4    359 50.76                             110    1.24 0  341 273 
 DBB  HN ES   4    4 0 25.74                             110   -1.09 0  341 273 
 ANIL HZ EP        359 51.97                             108   -0.54 6  365 224 
 ANIL HN ES        4 0 32.96                             108    0.81 6  365 224 
 PRA  HZ EP        359 55.91                             107   -0.41 6  400 209 
 PRA  HN ES   4    4 0 37.74                             107   -1.18 0  400 209 
 PRA  HZ I         4 0 43.64        26.1 0.26            107            400 209 
 ORTC HZ EP        359 56.90                             106    0.22 6  404 216 
 ORTC HN ES        4 0 40.36                             106    0.79 6  404 216 
 ORTC HZ I         4 0 45.70        19.3 0.38            107            404 216 
 SJC  HZ EP   4    359 55.50                             106   -1.20 0  404 326 
 SJC  HN ES   4    4 0 36.59                             106   -3.02 0  404 326 
 SJC  HZ I         4 0 40.38         8.7 0.62            107            404 326 
 PAL  HZ EP        359 57.67                             106   -0.05 6  412 238 
 PAL  HN ES        4 0 41.71                             106    0.30 6  412 238 
 PAL  HZ I         4 0 46.78         8.2 0.18            106            412 238 
 CRJC HZ EP   9    4 0  1.25                             104   -2.03 0  459   3 
 CRJC HN ES        4 0 48.57                             104   -0.72 5  459   3 
 CRJC HZ I         4 0 55.01         8.4 0.18            105            459   3 
 GUA  EZ EP   2    4 0  5.79                             103   -0.10 2  482 173 
 GUA  EN ES   4    4 0 52.74                             103   -3.22 0  482 173 
 URI  HZ EP   4    4 0 11.27                             101   -2.46 0  548  13 
 URI  HN ES   4    4 1  5.81                             101   -4.11 0  548  13 
                                                                                
