 2014 1225 0340 29.4 L   6.790 -73.032137.1  RSN  6 0.5 1.3LRSN                1
 GAP=194        1.19       4.6     8.4  8.7  0.9065E+01  0.2417E+01 -0.1194E+02E
 Epicentro: CEPITA - SANTANDER                                                 3
 ACTION:UPD 15-02-10 17:07 OP:nd   STATUS:               ID:20141225034029 L   I
 OLDACT:UP  14-12-25 16:29 OP:mh   STATUS:               ID:20141225033740     3
 OLDACT:UP  14-12-25 16:28 OP:mh   STATUS:               ID:20141225033740     3
 OLDACT:REG 14-12-25 13:26 OP:mh   STATUS:               ID:20141225033740     3
 2014-12-25-0337-40M.COL___292                                                 6
 STAT SP IPHASW D HRMM SECON CODA AMPLIT PERI AZIMU VELO AIN AR TRES W  DIS CAZ7
 BAR2 EZ ES        341  2.28                             168   -0.4110 27.5 217 
 BAR2 EZ I         341  4.94         5.2 0.14            172           27.5 217 
 BRR  HZ EP        340 50.59                             147    0.2010 83.0 295 
 BRR  HN ES        341  7.36                             147    0.6210 83.0 295 
 BRR  HZ I         341 11.73         3.9 0.12            150           83.0 295 
 RUS  HZ EP        340 52.65                             142    0.4010 99.4 183 
 RUS  HN ES        341 10.18                             142    0.1310 99.4 183 
 RUS  HZ I         341 11.78         1.8 0.24            147           99.4 183 
 PTB  HZ EP        340 56.42                             127   -0.44 9  160 260 
 PTB  HN ES        341 17.90                             127   -0.36 9  160 260 
 PTB  HZ I         341 18.36         1.9 0.54            132            160 260 
 OCA  HN ES        341 18.47                             127   -0.71 9  163 349 
 OCA  HZ I         341 23.41         3.3 0.30            129            163 349 
 SML  HZ EP        341  5.97                             115   -0.33 8  250 333 
 SML  HN ES        341 35.91                             115    0.84 8  250 333 
 SML  HZ I         341 36.84         3.7 0.24            118            250 333 
                                                                                
