 2017  625 0517 27.2 L   6.134 -73.744106.0  RSN 12 0.3 2.1LRSN                1
 GAP= 68        0.81       2.1     2.0  4.6 -0.2890E+00  0.1769E+01  0.1605E+01E
 Epicentro: EL PENON - SANTANDER                                               3
 ACTION:UPD 17-09-14 16:55 OP:jn   STATUS:               ID:20170625051727 L   I
 OLDACT:DUP 17-06-25 14:57 OP:lv   STATUS:               ID:20170625050740d    3
 2017-06-25-0508-00M.COL___349                                                 6
 STAT SP IPHASW D HRMM SECON CODA AMPLIT PERI AZIMU VELO AIN AR TRES W  DIS CAZ7
 SPBC HZ EP        517 43.73                             146   -0.1810 64.5 214 
 SPBC HN ES        517 56.79                             146   -0.1310 64.5 214 
 SPBC HZ I         517 59.13      4753.2 0.03            147           64.5 214 
 BAR2 EZ EP        517 45.22                             140   -0.0410 80.2  51 
 BAR2 EZ ES        517 58.96                             140   -0.3710 80.2  51 
 BAR2 EZ I         518  0.89     20691.6 0.02            143           80.2  51 
 PTB  HZ EP   9    517 44.63                             136   -1.19 0 90.7 300 
 PTB  HN ES        517 59.31                                    0.1810 90.7 300 
 PTB  HZ I         518  2.55        12.0 0.05            138           90.7 300 
 BRR  HZ EP        517 46.93                             131   -0.3710  108   2 
 BRR  HN ES        518  3.33                             131    0.3710  108   2 
 BRR  HZ I         518  6.09         8.8 0.10            134            108   2 
 NOR  HZ EP        517 50.55                             123    0.05 9  140 243 
 NOR  HN ES        518  8.76                             123    0.10 9  140 243 
 NOR  HZ I         518 10.76        12.1 0.19            125            140 243 
 CHI  HZ EP        517 52.99                             118   -0.79 9  166 180 
 CHI  HN ES        518 14.37                             118   -0.12 9  166 180 
 CHI  HZ I         518 17.50         2.1 0.14            120            166 180 
 YPLC HZ EP        517 53.97                             117    0.06 9  172 118 
 YPLC HN ES        518 15.68                             117    0.95 9  172 118 
 YPLC HZ I         518 17.58         6.8 0.19            119            172 118 
 ZAR  HZ EP        517 56.33                             113   -0.01 9  194 321 
 ZAR  HE ES        518 19.24                             113    0.19 9  194 321 
 ZAR  HZ I         518 22.02                             116            194 321 
 HEL  HZ EP        517 57.01                             113   -0.17 9  198 272 
 HEL  HN ES        518 20.67                             113    0.13 9  198 272 
 HEL  HZ I         518 24.19         4.5 0.24            115            198 272 
 GUY2CHZ EP        517 58.36                             112    0.13 8  206 241 
 GUY2CHN ES        518 22.69                             112    0.27 8  206 241 
 GUY2CHZ I         518 27.52         5.7 0.30                           206 241 
 CBOC HZ EP        518  3.41                             107    0.14 8  253 263 
 CBOC HN ES        518 31.27                             107   -0.11 8  253 263 
 CBOC HZ I         518 33.53         2.0 0.13            109            253 263 
 ORTC HZ EP        518  8.13                             104   -0.17 7  297 214 
 ORTC HN ES        518 40.72                             104    0.38 7  297 214 
 ORTC HZ I         518 46.83         1.9 0.18            105            297 214 
                                                                                
