 2017  325 0043 46.3 L   6.796 -73.223138.3  RSN  4 0.2 1.2LRSN                1
 GAP=235        0.61       5.7     4.3  5.4  0.1597E+02  0.1939E+01 -0.8670E+01E
 Epicentro: ZAPATOCA - SANTANDER                                               3
 ACTION:UPD 17-05-25 18:44 OP:jn   STATUS:               ID:20170325004346 L   I
 OLDACT:REG 17-03-25 03:22 OP:cara STATUS:               ID:20170325003744     3
 2017-03-25-0038-00M.COL___406                                                 6
 STAT SP IPHASW D HRMM SECON CODA AMPLIT PERI AZIMU VELO AIN AR TRES W  DIS CAZ7
 BAR2 EZ IP        044  4.96                             170   -0.0410 22.9 169 
 BAR2 EZ ES        044 19.49                             170   -0.1210 22.9 169 
 BAR2 EZ I         044 21.51         6.6 0.20            163           22.9 169 
 RUS  HZ EP        044  9.34                             142    0.0110  101 171 
 RUS  HN ES        044 27.53                             142    0.2110  101 171 
 RUS  HZ I         044 30.78         1.3 0.32            141            101 171 
 PTB  HZ EP        044 11.40                             132   -0.47 9  139 258 
 PTB  HN ES        044 31.85                             132    0.02 9  139 258 
 PTB  HZ I         044 40.26         2.8 0.38            129            139 258 
 ZAR  HZ EP        044 17.82                             122    0.38 9  196 293 
 ZAR  HN ES        044 41.83                             122    0.08 9  196 293 
 ZAR  HZ I         044 48.49         2.0 0.40            122            196 293 
                                                                                
