 2011  925 0418 38.9 L   6.722 -73.167146.2  RSN  6 0.3 1.6LRSN                1
 GAP=180        0.74       7.7     8.8  6.5  0.4912E+02 -0.7239E+01 -0.1221E+02E
 Epicentro: VILLANUEVA - SANTANDER                                             3
 ACTION:UPD 12-07-13 15:59 OP:ep   STATUS:               ID:20110925041838 L   I
 2011-09-25-0418-45S.COL___165                                                 6
 STAT SP IPHASW D HRMM SECON CODA AMPLIT PERI AZIMU VELO AIN AR TRES W  DIS CAZ7
 BAR2 SZ EP        418 58.46                             174    0.0710 14.4 187 
 BAR2 SZ I         418 59.11         5.9 0.15                          14.4 187 
 BAR2 SZ ES        419 13.13                             174   -0.5010 14.4 187 
 BTL  SZ EP        418 58.69                             170    0.1310 24.4 333 
 BRR  HZ EP        419  0.21                             152    0.0110 73.7 305 
 BRR  HZ I         419  0.54        15.6 0.11                          73.7 305 
 BRR  HN ES        419 17.32                             152    0.4810 73.7 305 
 RUS  HZ EP   1    419  1.99                             146   -0.07 7 92.2 174 
 RUS  HE ES   1    419 20.38                             146    0.22 7 92.2 174 
 RUS  HZ I         419 23.00         3.7 0.33                          92.2 174 
 OCA  SZ EP   2    419  7.67                             128   -0.32 5  169 354 
 OCA  SZ I         419 34.13         5.1 0.22                           169 354 
 ZAR  HZ EP   2    419 11.79                             122    0.33 4  205 295 
 ZAR  HE ES   1    419 36.27                             122   -0.62 6  205 295 
 ZAR  HZ I         419 42.37         4.9 0.19                           205 295 
                                                                                
