 2016  725 0733  2.4 L   6.649 -73.468111.8  RSN  5 0.3 1.5LRSN                1
 GAP=129        0.67       3.1     4.5  5.6  0.4299E+01  0.9660E+01  0.1907E+01E
 Epicentro: EL CARMEN - SANTANDER                                              3
 ACTION:UPD 17-03-29 16:54 OP:lp   STATUS:               ID:20160725073302 L   I
 OLDACT:REG 16-07-25 14:41 OP:edw  STATUS:               ID:20160725072759     3
 2016-07-25-0727-59S.COL___331                                                 6
 STAT SP IPHASW D HRMM SECON CODA AMPLIT PERI AZIMU VELO AIN AR TRES W  DIS CAZ7
 BAR2 EZ EP        733 18.14                             163   -0.1110 32.1 101 
 BAR2 EZ ES        733 30.55                             163   -0.0510 32.1 101 
 BRR  HZ EP        733 18.77                             151   -0.3510 57.5 332 
 BRR  HN ES        733 32.24                             151    0.0910 57.5 332 
 BRR  HZ I         733 32.66        10.9 0.14            149           57.5 332 
 RUS  HZ EP        733 22.31                             137   -0.1210 93.8 153 
 RUS  HE ES        733 38.39                             137    0.3510 93.8 153 
 SPBC HN ES        733 42.55                             127   -0.1910  129 211 
 ZAR  HZ EP        733 30.67                             117    0.45 9  180 301 
 ZAR  HE ES   4    733 53.97                             117    2.06 0  180 301 
 ZAR  HZ I         733 55.02         3.9 0.32            116            180 301 
                                                                                
