 2016  425 0050  8.8 L   5.927 -73.742119.0  RSN  4 0.1 1.0LRSN                1
 GAP=159        0.42       2.8     1.6  4.3 -0.8319E+00  0.1694E+01  0.2047E+01E
 Epicentro: GUAVATA - SANTANDER                                                3
 ACTION:UPD 16-05-05 14:23 OP:rebc STATUS:               ID:20160425005008 L   I
 OLDACT:REG 16-04-25 12:35 OP:cara STATUS:               ID:20160425004746     3
 2016-04-25-0047-46M.COL___286                                                 6
 STAT SP IPHASW D HRMM SECON CODA AMPLIT PERI AZIMU VELO AIN AR TRES W  DIS CAZ7
 RUS  HZ EP        050 27.79                             147   -0.1610 73.0  93 
 RUS  HE ES        050 42.88                             147   -0.0110 73.0  93 
 RUS  HZ I         050 43.57         1.2 0.40            150           73.0  93 
 BAR2 EZ EP        050 29.59                             138    0.2810 96.1  40 
 BAR2 EZ ES        050 45.29                             138   -0.0210 96.1  40 
 BAR2 EZ I         050 47.02         3.5 0.38            142           96.1  40 
 PTB  HZ EP        050 29.55                             136   -0.1210  104 311 
 PTB  HE ES        050 45.89                             136   -0.0510  104 311 
 PTB  HZ I         050 47.61         1.2 0.20            138            104 311 
 NOR  HZ EP        050 32.11                             129   -0.0510  131 252 
 NOR  HN ES        050 50.51                             129    0.1310  131 252 
 NOR  HZ I         050 53.23         2.3 0.16            131            131 252 
                                                                                
