 2010 1025 0203 36.9 L   6.818 -73.073147.8  RSN  6 0.2 1.7LRSN                1
 GAP=190        0.39       2.9     8.2  3.5  0.6741E+01  0.5529E+01  0.9951E+00E
 Epicentro: LOS SANTOS - SANTANDER                                             3
 ACTION:UP  11-02-18 11:11 OP:tino STATUS:               ID:20101025020336 L   I
 2010-10-25-0200-56S.COL___124                                                 6
 STAT SP IPHASW D HRMM SECON CODA AMPLIT PERI AZIMU VELO SNR AR TRES W  DIS CAZ7
 BAR2 SZ EP   1    2 3 56.68                             169    -0.2 7   28 206 
 BAR2 SZ ES        2 4 12.60                             169     0.110   28 206 
 BAR2 SZ I         2 4 14.31        11.4 0.33                            28 206 
 BRR  HZ EP   1    2 3 58.79                             151     0.1 7   78 294 
 BRR  HZ I         2 4  0.02        12.1 0.14                            78 294 
 BRR  HN ES   2    2 4 15.37                             151    -0.3 5   78 294 
 RUS  HZ EP   2    2 4  0.80                             144    -0.2 5  102 181 
 RUS  HE ES   2    2 4 19.78                             144     0.0 5  102 181 
 RUS  HZ I         2 4 21.27         6.4 0.28                           102 181 
 OCA  SZ EP   2    2 4  5.24                             130    -0.1 5  159 350 
 OCA  SZ ES   2    2 4 27.66                             130     0.2 5  159 350 
 OCA  SZ I         2 4 32.45         7.7 0.27                           159 350 
 CHI  HZ EP   2    2 4 15.35                             117     0.2 4  253 197 
 CHI  HZ I         2 4 17.61         3.6 0.22                           253 197 
 PRA  HZ EP        2 4 31.28                             107     0.1 6  398 210 
                                                                                
