 2012  425 0249 38.9 L   6.802 -73.166147.7  RSN  5 0.3 1.6LRSN                1
 GAP=134        0.89       6.3     5.8  9.4 -0.5874E+01  0.5134E+01  0.4720E+01E
 Epicentro: LOS SANTOS - SANTANDER                                             3
 ACTION:UPD 12-07-05 11:55 OP:tino STATUS:               ID:20120425024938 L   I
 2012-04-25-0247-00S.MAN___186                                                 6
 STAT SP IPHASW D HRMM SECON CODA AMPLIT PERI AZIMU VELO AIN AR TRES W  DIS CAZ7
 BAR2 SZ EP   1    249 58.81                             171     0.0 7   23 184 
 BAR2 SZ I         249 59.23         7.8 0.26                            23 184 
 BRR  HZ EP        250  0.50                             154     0.310   69 299 
 BRR  HE ES   1    250 17.18                             154     0.4 7   69 299 
 BRR  HZ I         250 20.28        10.3 0.09                            69 299 
 PAM  SZ EP        250  1.64                             151     0.210   79  41 
 PAM  SN ES   1    250 18.35                             151    -0.6 7   79  41 
 RUS  HZ EP   1    250  2.99                             144     0.1 7  101 175 
 RUS  HN ES   1    250 21.69                             144     0.1 7  101 175 
 RUS  HZ I         250 23.45         5.4 0.35                           101 175 
 PTB  HZ EP        250  5.42                             133    -0.5 9  146 259 
 PTB  HN ES   1    250 26.66                             133    -0.2 7  146 259 
 PTB  HZ I         250 30.02         3.9 0.16                           146 259 
                                                                                
