 2010  825 0216 14.9 L   5.838 -73.816112.0  RSN  6 0.3 1.7LRSN                1
 GAP=158        0.63       2.8     8.4 10.6 -0.1010E+02  0.5679E+02 -0.6830E+01E
 Epicentro: JESUS MARIA - SANTANDER                                            3
 ACTION:UP  10-09-07 10:57 OP:vdl  STATUS:               ID:20100825021614 L   I
 2010-08-25-0211-10S.COL___121                                                 6
 STAT SP IPHASW D HRMM SECON CODA AMPLIT PERI AZIMU VELO SNR AR TRES W  DIS CAZ7
 RUS  HZ EP   1    216 33.85                             142    -0.1 8   81  86 
 RUS  HE ES   2    216 48.16                             142    -0.6 5   81  86 
 RUS  HZ I         216 49.82         4.8 0.30                            81  86 
 BAR2 SZ EP   1    216 36.15                             133     0.3 8  109  40 
 BAR2 SZ ES   1    216 52.22                             133     0.0 8  109  40 
 BAR2 SZ I         216 54.97        12.2 0.46                           109  40 
 BTL  SZ IP        216 38.36                             126     0.110  134  27 
 CHI  HZ EP   1    216 38.27                             127    -0.2 8  134 176 
 CHI  HE ES   1    216 57.34                             127     0.5 8  134 176 
 CHI  HZ I         217  1.20         6.3 0.33                           134 176 
 BRR  HZ IP     D  216 38.44                             125    -0.210  141   5 
 BRR  HZ I         216 39.82        12.6 0.15                           141   5 
 BRR  HE ES   1    216 57.23                             125     0.1 7  141   5 
 PRA  HZ EP   2    216 52.05                             108    -0.1 4  263 207 
 PRA  HE ES   2    217 20.66                             108    -0.6 4  263 207 
 PRA  HZ I         217 30.35         6.7 0.67                           263 207 
                                                                                
