 2012  325 0117  6.1 L   6.754 -73.091141.6  RSN  4 0.3 1.4LRSN                1
 GAP=146        0.58       5.1     6.9  6.8  0.4332E+01 -0.1035E+02  0.2464E+00E
 ACTION:UP  12-03-31 23:22 OP:EP   STATUS:               ID:20120325011706 L   I
 2012-03-25-0110-00M.COL___196                                                 6
 STAT SP IPHASW D HRMM SECON CODA AMPLIT PERI AZIMU VELO SNR AR TRES W  DIS CAZ7
 BAR2 SZ EP   1    117 25.07                             171    -0.1 7   21 210 
 BAR2 SZ I         117 25.34         8.2 0.15                            21 210 
 BAR2 SZ ES   1    117 39.71                             171    -0.4 7   21 210 
 PAM  SZ EP   1    117 28.14                             150     0.2 7   78  34 
 PAM  SN ES   2    117 44.92                             150     0.0 5   78  34 
 BRR  HZ EP   1    117 26.99                             149    -0.3 7   79 300 
 BRR  HN ES   1    117 44.11                             149     0.3 7   79 300 
 RUS  HZ EP   1    117 29.18                             144     0.1 7   95 180 
 RUS  HZ I         117 30.27         3.0 0.16                            95 180 
 RUS  HN ES   2    117 47.41                             144     0.4 5   95 180 
                                                                                
