 2014  825 0116 55.5 L   6.631 -73.175157.3  RSN  4 0.6 1.6LRSN                1
 GAP=213        1.20      11.4    12.7 11.8 -0.3413E+02  0.1417E+02 -0.3906E+02E
 Epicentro: VILLANUEVA - SANTANDER                                             3
 ACTION:UPD 14-09-15 21:52 OP:nd   STATUS:               ID:20140825011655 L   I
 OLDACT:DUP 14-08-25 14:29 OP:fm   STATUS:               ID:20140825010809d    3
 2014-08-25-0108-08M.COL___259                                                 6
 STAT SP IPHASW D HRMM SECON CODA AMPLIT PERI AZIMU VELO AIN AR TRES W  DIS CAZ7
 BAR2 SZ ES   1    117 31.98                             179   -0.56 7 4.42 191 
 BAR2 SZ I         117 33.29         8.8 0.26            177           4.42 191 
 BRR  HZ EP        117 19.01                             152    0.6510 79.3 312 
 BRR  HN ES        117 36.49                             152    0.3010 79.3 312 
 BRR  HZ I         117 37.34         3.7 0.16            151           79.3 312 
 PTB  HZ EP   1    117 21.93                             136   -1.02 7  142 266 
 PTB  HN ES        117 44.41                             136    0.06 9  142 266 
 PTB  HZ I         117 46.97         2.3 0.16            135            142 266 
 SML  HZ EP   1    117 34.82                             118    0.32 6  260 338 
 SML  HN ES   1    118  4.05                             118   -0.85 6  260 338 
 SML  HZ I         118  6.03         5.6 0.28            119            260 338 
                                                                                
