 2015  925 0908 28.0 L   6.808 -73.350117.8  RSN  8 0.5 1.9LRSN                1
 GAP=141        1.24       3.9     5.5  7.4 -0.5511E+01  0.1203E+02 -0.6050E+01E
 Epicentro: ZAPATOCA - SANTANDER                                               3
 ACTION:UPD 15-10-28 16:28 OP:cam  STATUS:               ID:20150925090828 L   I
 OLDACT:UP  15-09-25 17:59 OP:mh   STATUS:               ID:20150925090748     3
 OLDACT:REG 15-09-25 12:44 OP:mh   STATUS:               ID:20150925090748     3
 2015-09-25-0907-48M.COL___349                                                 6
 STAT SP IPHASW D HRMM SECON CODA AMPLIT PERI AZIMU VELO AIN AR TRES W  DIS CAZ7
 BAR2 EZ EP     C  9 8 45.32                             165    0.8210 30.2 142 
 BAR2 EZ ES        9 8 57.64                             165    0.2910 30.2 142 
 BAR2 EZ I         9 8 58.74        39.3 0.26            168           30.2 142 
 BRR  HN ES        9 8 58.25                             155   -0.1110 51.9 310 
 BRR  HZ I         9 8 59.54        17.0 0.12            153           51.9 310 
 PTB  HZ EP        9 8 49.87                             130   -0.8710  126 256 
 PTB  HN ES        9 9  8.24                             130   -0.2110  126 256 
 PTB  HZ I         9 9 10.61        10.2 0.10            129            126 256 
 SPBC HZ EP        9 8 53.21                             124   -0.05 9  151 212 
 SPBC HN ES        9 9 12.62                             124   -0.33 9  151 212 
 SPBC HZ I         9 9 18.40        11.8 0.18            125            151 212 
 OCA  HZ EP        9 8 53.68                             123   -0.44 9  158   1 
 OCA  HN ES        9 9 13.68                             123   -0.80 9  158   1 
 OCA  HZ I         9 9 19.20        22.5 0.26            123            158   1 
 ZAR  HZ EP        9 8 56.95                             118    0.43 9  183 295 
 ZAR  HN ES        9 9 19.13                             118    0.39 9  183 295 
 ZAR  HZ I         9 9 22.43         7.5 0.12            119            183 295 
 SML  HZ EP        9 9  2.06                             112   -0.12 8  234 340 
 SML  HN ES        9 9 29.64                             112    0.81 8  234 340 
 SML  HZ I         9 9 33.53        13.5 0.28            112            234 340 
 HEL  HZ EP        9 9  4.92                             110    0.44 8  250 254 
 HEL  HN ES        9 9 32.95                             110    0.02 8  250 254 
 HEL  HZ I         9 9 37.74         3.8 0.20            111            250 254 
                                                                                
