 2015  725 0723 43.0 L   5.952 -73.752117.8  RSN  6 0.4 1.5LRSN                1
 GAP=156        0.94       5.0     3.5  9.1 -0.2815E+01  0.1773E+02 -0.1540E+02E
 Epicentro: BOLIVAR - SANTANDER                                                3
 ACTION:UPD 15-09-08 21:50 OP:cam  STATUS:               ID:20150725072343 L   I
 OLDACT:UP  15-07-25 15:59 OP:ak   STATUS:               ID:20150725071748     3
 OLDACT:REG 15-07-25 12:49 OP:ak   STATUS:               ID:20150725071748     3
 2015-07-25-0717-48M.COL___334                                                 6
 STAT SP IPHASW D HRMM SECON CODA AMPLIT PERI AZIMU VELO AIN AR TRES W  DIS CAZ7
 RUS  HZ EP        724  1.79                             146   -0.2910 74.3  95 
 RUS  HE ES        724 16.57                             146   -0.4210 74.3  95 
 RUS  HZ I         724 18.19         2.6 0.56            154           74.3  95 
 BAR2 EZ EP        724  3.79                             139    0.5310 94.8  42 
 BAR2 EZ ES        724 19.36                             139    0.2810 94.8  42 
 BAR2 EZ I         724 21.01        19.2 0.46            145           94.8  42 
 NOR  HZ EP   1    724  6.60                             128    0.38 7  131 251 
 NOR  HN ES        724 24.31                             128   -0.0510  131 251 
 NOR  HZ I         724 28.95         7.5 0.35            131            131 251 
 HEL  HZ EP   1    724 13.68                             116    0.07 6  199 278 
 HEL  HE ES        724 37.85                             116    0.34 9  199 278 
 HEL  HZ I         724 44.02         2.4 0.40            120            199 278 
 ZAR  HZ EP        724 14.73                             115    0.35 8  210 324 
 ZAR  HN ES        724 38.91                             115    0.02 8  210 324 
 ZAR  HZ I         724 41.09         3.8 0.20            119            210 324 
 URE  HZ EP        724 21.74                             108   -0.64 7  280 315 
 URE  HN ES        724 52.35                             108   -0.78 7  280 315 
 URE  HZ I         724 53.64         2.5 0.12            112            280 315 
                                                                                
