 2017  725 0744 27.1 L   5.855 -74.039101.6  RSN  4 0.4 0.4LRSN                1
 GAP=175        0.70       5.3     6.8  9.2 -0.2263E+02 -0.2496E+02 -0.1338E+01E
 Epicentro: LA BELLEZA - SANTANDER                                             3
 ACTION:UPD 17-08-30 15:36 OP:rebc STATUS:               ID:20170725074427 L   I
 OLDACT:UP  17-07-25 16:42 OP:and  STATUS:               ID:20170725073737     3
 OLDACT:REG 17-07-25 12:49 OP:and  STATUS:               ID:20170725073737     3
 2017-07-25-0738-00M.COL___386                                                 6
 STAT SP IPHASW D HRMM SECON CODA AMPLIT PERI AZIMU VELO AIN AR TRES W  DIS CAZ7
 SPBC HZ EP   3    744 39.48                             166   -1.72 2 22.7 189 
 SPBC HN ES   2    744 52.42                             166    0.22 5 22.7 189 
 PTB  HZ EP        744 44.79                             136   -0.3310 88.7 329 
 PTB  HE ES        744 59.13                             136   -0.0510 88.7 329 
 PTB  HZ I         745  0.47         0.7 0.20            135           88.7 329 
 NOR  HN ES        745  0.69                             133    0.0510 97.4 251 
 BRR  HZ EP        744 50.77                             121    0.39 9  143  15 
 BRR  HN ES        745  8.58                             121    0.04 9  143  15 
                                                                                
