 2013 1125 0232 20.9 L   6.767 -73.086139.9  RSN  7 0.5 1.5LRSN                1
 GAP=163        1.06       6.2     6.9 10.5 -0.2211E+02 -0.7366E+01  0.3722E+02E
 Epicentro: LOS SANTOS - SANTANDER                                             3
 ACTION:UPD 14-01-09 16:30 OP:ep   STATUS:               ID:20131125023220 L   I
 OLDACT:REG 13-11-25 07:57 OP:mh   STATUS:               ID:20131125023000     3
 2013-11-25-0230-00M.COL___282                                                 6
 STAT SP IPHASW D HRMM SECON CODA AMPLIT PERI AZIMU VELO AIN AR TRES W  DIS CAZ7
 BAR2 SZ EP   1    232 39.87                             171    0.11 7 22.1 209 
 BAR2 SZ I         232 55.93         9.8 0.25            168           22.1 209 
 PAM  SZ EP        232 42.78                             150    0.3910 76.3  34 
 PAM  SN ES        232 59.11                             150   -0.0710 76.3  34 
 PAM  SZ I         233  1.73         7.1 0.49            142           76.3  34 
 BRR  HZ EP   1    232 41.65                             149   -0.18 7 78.7 299 
 BRR  HN ES     C  232 58.33                             149    0.1410 78.7 299 
 BRR  HZ I         233  0.16         4.1 0.18            139           78.7 299 
 PTB  HZ EP        232 46.99                             129   -0.91 9  154 261 
 PTB  HZ I         233 10.63         5.6 0.13            120            154 261 
 SPBC HZ EP   1    232 48.98                             127   -0.08 7  165 222 
 SPBC HN ES        233 10.88                             127   -0.17 9  165 222 
 SPBC HZ I         233 17.21         4.1 0.11            119            165 222 
 CHI  HZ EP        232 58.41                             116    0.35 8  247 197 
 CHI  HN ES        233 26.70                             116   -0.37 8  247 197 
 CHI  HZ I         233 33.26         1.7 0.26            109            247 197 
 GUY2CHZ EP   4    233  6.70                             111    2.12 0  305 236 
 GUY2CHN ES        233 39.78                             111    1.09 7  305 236 
 GUY2CHZ I         233 44.81         1.4 0.28                           305 236 
                                                                                
