 2016  125 0535 46.6 L   6.329 -73.571116.0  RSN 16 0.3 2.2LRSN                1
 GAP= 76        0.75       1.8     2.0  3.9 -0.1018E+01  0.2857E+01 -0.1677E+01E
 Epicentro: SANTA HELENA DEL OPON - SANTANDER                                  3
 ACTION:UPD 16-03-09 23:28 OP:cam  STATUS:               ID:20160125053546 L   I
 OLDACT:UP  16-02-23 20:55 OP:AR   STATUS:               ID:20160125053546 L   3
 OLDACT:DUP 16-01-25 17:53 OP:cara STATUS:               ID:20160125052743d    3
 OLDACT:REG 16-01-25 14:52 OP:cara STATUS:               ID:20160125052742     3
 2016-01-25-0527-42M.COL___330                                                 6
 STAT SP IPHASW D HRMM SECON CODA AMPLIT PERI AZIMU VELO AIN AR TRES W  DIS CAZ7
 BAR2 EZ IP        536  4.02                             154    0.2610 51.9  56 
 BAR2 EZ ES        536 17.22                             154    0.0410 51.9  56 
 BAR2 EZ I         536 18.32       140.5 0.38            156           51.9  56 
 RUS  HZ IP     C  536  5.23                             146   -0.1410 72.4 132 
 RUS  HN ES        536 20.10                             146    0.0610 72.4 132 
 RUS  HZ I         536 21.15        17.3 0.20            148           72.4 132 
 SPBC HZ EP        536  6.09                             139   -0.2710 93.2 217 
 SPBC HN ES        536 21.45                             139   -0.3510 93.2 217 
 SPBC HZ I         536 23.43        54.5 0.18            138           93.2 217 
 PTB  HZ EP   4 D  536  5.71                             136   -1.17 0  101 283 
 PTB  HE ES        536 22.84                             136    0.1210  101 283 
 PTB  HZ I         536 23.73        40.9 0.18            135            101 283 
 PAM  EZ EP        536 12.17                             125    0.28 9  148  41 
 PAM  EN ES        536 31.54                             125   -0.10 9  148  41 
 PAM  EZ I         536 33.61        12.2 0.40            126            148  41 
 NOR  HZ EP        536 12.70                             121   -0.61 9  167 240 
 NOR  HE ES        536 34.03                             121   -0.13 9  167 240 
 NOR  HZ I         536 35.60        24.1 0.58            121            167 240 
 ROSC BZ EP   9    536 18.03                             118    2.42 0  184 207 
 ROSC BN ES        536 41.32                             118    0.64 9  184 207 
 ROSC BZ I         536 46.34         8.8 0.45            118            184 207 
 CHI  HZ EP        536 16.04                             117   -0.07 9  189 185 
 CHI  HE ES        536 39.28                             117    0.12 9  189 185 
 ZAR  HZ EP        536 15.48                             117   -0.44 9  192 312 
 ZAR  HN ES        536 38.63                             117   -0.19 9  192 312 
 ZAR  HZ I         536 42.79        30.3 0.50            117            192 312 
 OCA  HZ EP        536 18.24                             114   -0.21 8  213   7 
 OCA  HN ES        536 43.83                             114    0.51 8  213   7 
 OCA  HZ I         536 48.95        36.9 0.28            114            213   7 
 HEL  HZ EP        536 19.64                             114    0.45 8  217 266 
 HEL  HE ES        536 45.02                             114    0.38 8  217 266 
 HEL  HZ I         536 52.41         6.7 0.20            113            217 266 
 GUY2CHZ EP        536 21.62                             112    0.49 8  233 239 
 GUY2CHE ES   4    536 51.11                             112    3.02 0  233 239 
 GUY2CHZ I         536 53.81         8.3 0.20                           233 239 
 CBOC HZ EP        536 25.54                             108   -0.01 8  275 259 
 CBOC HN ES        536 55.95                             108   -0.01 8  275 259 
 CBOC HZ I         536 57.35         4.4 0.18            108            275 259 
 SML  HZ EP        536 25.59                             107   -0.19 7  279 349 
 SML  HE ES        536 56.40                             107    0.04 7  279 349 
 SML  HZ I         537  1.36        16.8 0.10            108            279 349 
 ANIL HN ES        536 59.32                             107    0.56 7  287 225 
 ANIL HZ I         537  6.95        13.5 0.48            107            287 225 
 DBB  SZ EP        536 28.27                             106   -0.26 7  302 285 
 DBB  SZ ES        537  1.24                             106   -0.03 7  302 285 
 DBB  SZ I         537  3.07        24.0 0.30            106            302 285 
                                                                                
