 2010  125 0440 12.0 L   6.809 -73.061138.0  RSN  5 0.6 1.3LRSN                1
 GAP=285        1.03      14.8    12.7 12.1  0.5710E+01  0.5898E+02  0.1162E+02E
 Epicentro: CEPITA - SANTANDER                                                 3
 ACTION:UP  10-08-24 09:45 OP:vdl  STATUS:               ID:20100125044011 L   I
 2010-01-25-0436-49S.COL___095                                                 6
 STAT SP IPHASW D HRMM SECON CODA AMPLIT PERI AZIMU VELO SNR AR TRES W  DIS CAZ7
 BAR2 SZ EP   1    440 30.87                             168     0.0 8   28 210 
 BAR2 SZ ES   2    440 45.42                             168    -0.1 5   28 210 
 RUS  BZ EP        440 35.17                             142     0.110  101 181 
 RUS  BN ES   1    440 53.23                             142     0.2 7  101 181 
 RUS  BZ I         440 55.31         1.4 0.41                           101 181 
 CHI  HZ EP        440 49.07                             115    -0.6 8  252 197 
 CHI  HZ I         441 26.98         1.4 0.72                           252 197 
 HEL  HE ES   2    441 23.87                             112    -0.9 4  281 256 
 HEL  HZ I         441 30.19         1.5 0.27                           281 256 
 RREF BZ EP   1    440 59.94                             109     1.2 5  330 230 
 RREF BN ES   2    441 35.83                             109     0.6 3  330 230 
 RREF BZ I         441 40.16         1.6 0.13                           330 230 
                                                                                
