 2015  325 0758 23.7 L   6.780 -73.147141.4  RSN 11 0.4 1.7LRSN                1
 GAP=137        1.01       3.3     3.9  6.0 -0.2669E+01  0.8474E+01  0.1177E+01E
 Epicentro: LOS SANTOS - SANTANDER                                             3
 ACTION:UPD 15-04-30 16:29 OP:nd   STATUS:               ID:20150325075823 L   I
 OLDACT:DUP 15-03-25 17:15 OP:fm   STATUS:               ID:20150325074740d    3
 2015-03-25-0747-38M.COL___275                                                 6
 STAT SP IPHASW D HRMM SECON CODA AMPLIT PERI AZIMU VELO AIN AR TRES W  DIS CAZ7
 BAR2 EZ EP        758 42.98                             171    0.2610 21.2 191 
 BAR2 EZ ES        758 57.90                             171    0.3110 21.2 191 
 BAR2 EZ I         758 59.53         8.7 0.42            168           21.2 191 
 BRR  HZ IP     C  758 44.94                             151    0.5510 72.1 300 
 BRR  HN ES        759  0.99                             151    0.4310 72.1 300 
 BRR  HZ I         759  5.44         9.1 0.18            148           72.1 300 
 PAM  SZ EP        758 45.75                             149    0.2310 79.2  39 
 PAM  SE ES        759  2.74                             149    0.1710 79.2  39 
 PAM  SZ I         759  3.74         4.7 0.28            154           79.2  39 
 RUS  HZ EP        758 46.81                             143   -0.0110 98.4 176 
 RUS  HN ES        759  4.01                             143   -0.8810 98.4 176 
 RUS  HZ I         759  6.46         4.5 0.22            146           98.4 176 
 PTB  HZ EP        758 49.85                             131   -0.37 9  147 260 
 PTB  HE ES        759 10.66                             131   -0.28 9  147 260 
 PTB  HZ I         759 14.45         7.4 0.20            130            147 260 
 SPBC HZ EP        758 51.86                             128    0.21 9  161 219 
 SPBC HE ES        759 13.37                             128   -0.12 9  161 219 
 SPBC HZ I         759 19.30         9.7 0.28            129            161 219 
 OCA  HN ES        759 12.93                             128   -0.88 9  162 353 
 OCA  HZ I         759 18.12        13.5 0.34            130            162 353 
 ZAR  HZ EP        758 55.66                             121   -0.23 9  205 293 
 ZAR  HN ES        759 21.01                             121   -0.03 9  205 293 
 ZAR  HZ I         759 28.01         8.2 0.46            121            205 293 
 NOR  HN ES        759 26.86                             118    0.32 8  233 235 
 NOR  HZ I         759 35.47         5.3 0.16            118            233 235 
 GUY2CHZ EP   1    759  7.41                             112    0.50 5  300 235 
 GUY2CHE ES        759 40.96                             112    0.32 7  300 235 
 GUY2CHZ I         759 49.50         3.9 0.56                           300 235 
 CBOC HZ EP   1    759  9.96                             109   -0.34 5  333 252 
 CBOC HN ES   1    759 46.31                             109   -0.37 5  333 252 
 CBOC HZ I         759 59.48         1.1 0.50            110            333 252 
                                                                                
