 2013  125 0313 43.9 L   6.504 -73.607101.5  RSN  5 0.3 1.1LRSN                1
 GAP=133        0.59       7.4     3.7  7.4  0.6513E+01  0.7577E+01 -0.7299E+00E
 Epicentro: SANTA HELENA DEL OPON - SANTANDER                                  3
 ACTION:UPD 13-02-15 09:16 OP:ep   STATUS:               ID:20130125031343 L   I
 2013-01-25-0310-00M.COL___241                                                 6
 STAT SP IPHASW D HRMM SECON CODA AMPLIT PERI AZIMU VELO AIN AR TRES W  DIS CAZ7
 BAR2 SZ EP   1    313 59.05                             153   -0.21 7 47.9  78 
 BAR2 SZ ES   1    314 11.43                             153    0.16 7 47.9  78 
 BAR2 SZ I         314 12.99        13.3 0.50            103           47.9  78 
 BRR  HZ EP   1    313 59.94                             143   -0.25 7 67.7 350 
 BRR  HZ I         314 21.28         2.5 0.20             97           67.7 350 
 RUS  HZ EP   1    314  2.75                             136    0.17 7 89.1 139 
 RUS  HZ I         314 17.09         1.0 0.48             61           89.1 139 
 PTB  HZ EP   1    314  1.98                             133   -0.37 7 94.0 272 
 PTB  HN ES   1    314 16.86                             133    0.08 7 94.0 272 
 PTB  HZ I         314 18.33         4.0 0.20             97           94.0 272 
 ZAR  HZ EP   1    314 11.27                             114    0.53 7  176 308 
                                                                                
