 2010  725 0548 43.0 L   6.807 -73.087141.5  RSN  7 0.3 1.8LRSN                1
 GAP=165        0.67       5.1     7.6  7.0 -0.2248E+01 -0.1403E+02 -0.1225E+02E
 Epicentro: LOS SANTOS - SANTANDER                                             3
 ACTION:UPD 10-12-01 15:20 OP:pat  STATUS:               ID:20100725054843 L   I
 2010-07-25-0546-29S.COL___123                                                 6
 STAT SP IPHASW D HRMM SECON CODA AMPLIT PERI AZIMU VELO AIN AR TRES W  DIS CAZ7
 BAR2 SZ EP   1    549  2.07                             169    -0.1 7   26 204 
 BAR2 SZ ES   1    549 16.72                             169    -0.4 7   26 204 
 BAR2 SZ I         549 18.38        12.5 0.11                            26 204 
 BRR  HZ IP     C  549  3.88                             150    -0.210   77 296 
 BRR  HZ I         549  4.32        16.0 0.10                            77 296 
 BRR  HE ES   1    549 20.69                             150     0.2 7   77 296 
 RUS  HZ EP   2    549  6.37                             143     0.0 5  101 180 
 RUS  HE ES   2    549 25.40                             143     0.8 5  101 180 
 GUE  SZ EP        549  7.18                             139     0.010  115   9 
 GRA  SZ EP        549  7.88                             136     0.210  123  15 
 GRA  SZ I         549 28.50         7.8 0.38                           123  15 
 HEL  HZ EP   2    549 23.99                             113     0.2 4  279 256 
 HEL  HZ I         550  0.23         2.3 0.42                           279 256 
 PRA  HZ EP   2    549 36.59                             105    -0.3 3  396 210 
 PRA  HZ I         550 24.78         2.8 0.51                           396 210 
                                                                                
