 2011 1025 0600 57.8 L   6.766 -73.125154.0  RSN  7 0.2 1.5LRSN                1
 GAP=141        0.36       2.8     3.9  4.7  0.1785E+01  0.5550E-02 -0.8515E+00E
 Epicentro: LOS SANTOS - SANTANDER                                             3
 ACTION:UPD 12-07-13 16:05 OP:ep   STATUS:               ID:20111025060057 L   I
 2011-10-25-0559-25S.COL___172                                                 6
 STAT SP IPHASW D HRMM SECON CODA AMPLIT PERI AZIMU VELO AIN AR TRES W  DIS CAZ7
 BAR2 SZ EP   1    6 1 18.34                             172   -0.02 7 20.2 198 
 BAR2 SZ ES   2    6 1 34.09                             172   -0.31 5 20.2 198 
 BAR2 SZ I         6 1 35.88         8.1 0.31                          20.2 198 
 BTL  SZ EP   2    6 1 18.36                             171   -0.06 5 23.1 317 
 BRR  HZ EP   1    6 1 20.18                             153    0.12 7 75.1 300 
 BRR  HZ I         6 1 20.49        11.1 0.18                          75.1 300 
 BRR  HN ES   2    6 1 37.91                             153    0.49 5 75.1 300 
 PAM  SZ EP   1    6 1 21.06                             152    0.07 7 79.0  37 
 PAM  SN ES   2    6 1 39.09                             152    0.01 5 79.0  37 
 RUS  HZ EP   1    6 1 22.19                             146    0.09 7 96.6 177 
 RUS  HN ES   2    6 1 40.89                             146   -0.16 5 96.6 177 
 RUS  HZ I         6 1 42.59         2.3 0.21                          96.6 177 
 OCA  SZ EP   2    6 1 26.92                             131   -0.22 5  164 353 
 OCA  SZ ES   2    6 1 49.85                             131   -0.17 5  164 353 
 OCA  SZ I         6 1 54.37         4.2 0.82                           164 353 
 ZAR  HN ES   2    6 1 56.83                             124   -0.34 4  208 293 
 ZAR  HZ I         6 2  4.11         3.1 0.39                           208 293 
                                                                                
