 2017  725 0156 16.2 L   6.805 -73.165144.0  RSN  6 0.5 1.2LRSN                1
 GAP=212        1.03       5.9     5.7  8.0  0.1445E+02 -0.7038E+01  0.4090E+01E
 Epicentro: LOS SANTOS - SANTANDER                                             3
 ACTION:UPD 17-08-30 15:36 OP:rebc STATUS:               ID:20170725015616 L   I
 OLDACT:UP  17-07-25 14:41 OP:and  STATUS:               ID:20170725014738     3
 OLDACT:UP  17-07-25 14:41 OP:and  STATUS:               ID:20170725014738     3
 OLDACT:UP  17-07-25 14:40 OP:and  STATUS:               ID:20170725014738     3
 OLDACT:REG 17-07-25 12:30 OP:and  STATUS:               ID:20170725014738     3
 2017-07-25-0148-00M.COL___386                                                 6
 STAT SP IPHASW D HRMM SECON CODA AMPLIT PERI AZIMU VELO AIN AR TRES W  DIS CAZ7
 BAR2 EZ IP     C  156 35.37                             170   -0.2810 23.5 185 
 BAR2 EZ ES        156 50.10                             170   -0.7010 23.5 185 
 BAR2 EZ I         156 51.51         5.0 0.14            165           23.5 185 
 BRR  HZ EP        156 37.41                             153    0.3410 69.1 299 
 BRR  HN ES        156 53.93                             153    0.6110 69.1 299 
 RUS  HZ EP        156 39.84                             143   -0.0210  101 175 
 RUS  HN ES        156 58.27                             143   -0.0210  101 175 
 RUS  HZ I         156 59.48         1.8 0.32            140            101 175 
 PTB  HZ EP   2    156 42.63                             132   -0.24 5  146 258 
 PTB  HN ES        157  3.17                             132   -0.48 9  146 258 
 PTB  HZ I         157  6.03         1.5 0.22            129            146 258 
 SPBC HZ EP   3    156 42.78                             129   -1.72 2  162 218 
 SPBC HN ES        157  6.97                             129    0.42 9  162 218 
 SPBC HZ I         157 12.37         3.1 0.10            126            162 218 
 YPLC HZ EP        156 45.95                             126   -0.09 9  178 151 
 YPLC HN ES        157  9.75                             126    0.45 9  178 151 
                                                                                
