 2016 1225 0532 40.6 L   6.709 -73.214146.9  RSN  5 0.3 1.1LRSN                1
 GAP=208        0.87       6.9     6.8  7.5  0.3379E+02 -0.5571E+01  0.5851E+00E
 Epicentro: VILLANUEVA - SANTANDER                                             3
 ACTION:UPD 17-01-11 20:18 OP:rebc STATUS:               ID:20161225053240 L   I
 OLDACT:DUP 16-12-25 15:31 OP:cog  STATUS:               ID:20161225052747d    3
 2016-12-25-0528-00M.COL___375                                                 6
 STAT SP IPHASW D HRMM SECON CODA AMPLIT PERI AZIMU VELO AIN AR TRES W  DIS CAZ7
 BRR  HZ EP        533  1.69                             153   -0.1310 70.4 309 
 BRR  HE ES        533 18.19                             153   -0.1910 70.4 309 
 BRR  HZ I         533 21.31         3.0 0.30            155           70.4 309 
 RUS  HZ EP        533  4.51                             147    0.6910 91.4 171 
 RUS  HE ES        533 21.90                             147   -0.0410 91.4 171 
 RUS  HZ I         533 24.63         1.2 0.29            149           91.4 171 
 PTB  HZ EP        533  6.65                             134   -0.19 9  139 262 
 PTB  HN ES        533 27.17                             134   -0.14 9  139 262 
 PTB  HZ I         533 29.68         2.2 0.16            137            139 262 
 ZAR  HN ES        533 38.28                             123    0.33 9  201 296 
 PTGC HZ EP        533 23.20                             112   -0.57 7  302 157 
                                                                                
