 2011  125 0103 35.4 L   6.735 -72.954148.0  RSN  4 0.2 1.6LRSN                1
 GAP=181        0.39       4.7    22.2  6.9 -0.8464E+02 -0.1356E+00 -0.4181E+01E
 Epicentro: CEPITA - SANTANDER                                                 3
 ACTION:UP  11-02-08 08:42 OP:pat  STATUS:               ID:20110125010335 L   I
 2011-01-25-0100-00S.COL___138                                                 6
 STAT SP IPHASW D HRMM SECON CODA AMPLIT PERI AZIMU VELO SNR AR TRES W  DIS CAZ7
 GIR2 SZ ES   3    1 4 11.51                             162    -0.2 2   46 325 
 RUS  HZ EP   1    1 3 58.99                             146     0.1 7   94 189 
 RUS  HE ES   1    1 4 17.20                             146    -0.1 7   94 189 
 RUS  HZ I         1 4 19.43         5.0 0.38                            94 189 
 GRA  SZ EP   1    1 4  0.83                             137    -0.2 7  128   7 
 GRA  SZ I         1 4  2.19         6.3 0.49                           128   7 
 GRA  SZ ES   2    1 4 21.33                             137     0.3 5  128   7 
 CHI  HE ES   2    1 4 42.72                             118     0.1 4  248 200 
                                                                                
