 2011  725 0333 29.2 L   6.793 -72.935144.0  RSN  4 0.3 1.4LRSN                1
 GAP=224        0.60       5.7     8.1  8.0 -0.2021E+02 -0.2334E+02  0.5291E+01E
 Epicentro: CEPITA - SANTANDER                                                 3
 ACTION:UPD 12-07-25 14:03 OP:epov STATUS:               ID:20110725033329 L   I
 2011-07-25-0328-29S.COL___143                                                 6
 STAT SP IPHASW D HRMM SECON CODA AMPLIT PERI AZIMU VELO AIN AR TRES W  DIS CAZ7
 BAR2 SZ EP   1    333 49.42                             166    0.46 7 35.2 231 
 BAR2 SZ ES   2    334  4.21                             166   -0.13 5 35.2 231 
 BAR2 SZ I         334  5.96         3.8 0.34                          35.2 231 
 BRR  HZ EP        333 51.37                             146   -0.1810 92.6 292 
 BRR  HZ I         333 51.88         8.7 0.14                          92.6 292 
 BRR  HN ES   1    334  8.97                             146    0.02 7 92.6 292 
 GRA  SZ EP        333 53.64                             138   -0.3410  122   7 
 GRA  SZ ES   1    334 13.50                             138    0.22 7  122   7 
 GRA  SZ I         334 16.11         2.3 0.28                           122   7 
 OCA  SZ EP   2    333 58.37                             129    0.47 5  165 345 
 OCA  SZ ES   2    334 20.52                             129    0.26 5  165 345 
 OCA  SZ I         334 24.00         4.0 0.41                           165 345 
                                                                                
