 2014  625 0034 34.8 L   6.780 -73.155133.8  RSN 11 0.5 1.7LRSN                1
 GAP=182        1.23       3.8     6.3  8.5 -0.5946E+01  0.1359E+02 -0.3841E+01E
 Epicentro: LOS SANTOS - SANTANDER                                             3
 ACTION:UPD 14-07-01 22:56 OP:nd   STATUS:               ID:20140625003434 L   I
 OLDACT:REG 14-06-25 12:46 OP:spq  STATUS:               ID:20140625002815     3
 2014-06-25-0028-15M.COL___262                                                 6
 STAT SP IPHASW D HRMM SECON CODA AMPLIT PERI AZIMU VELO AIN AR TRES W  DIS CAZ7
 BAR2 SZ IP     C  034 53.60                             171    0.6610 21.0 188 
 BAR2 SZ ES   1    035  6.73                             171   -0.36 7 21.0 188 
 BAR2 SZ I         035  9.33        20.7 0.20            170           21.0 188 
 BRR  HZ EP        034 55.42                             150    0.7410 71.4 300 
 BRR  HN ES        035 10.85                             150    0.6610 71.4 300 
 BRR  HZ I         035 13.85        11.0 0.20            149           71.4 300 
 RUS  HN ES   1    035 14.60                             142   -0.12 7 98.4 175 
 RUS  HZ I         035 17.63         7.9 0.34            145           98.4 175 
 PTB  HZ EP        035  0.28                             130   -0.41 9  146 260 
 PTB  HN ES        035 20.10                             130   -0.78 9  146 260 
 PTB  HZ I         035 23.69         6.6 0.13            130            146 260 
 SPBC HZ EP        035  2.22                             127    0.04 9  161 219 
 SPBC HN ES        035 23.19                             127   -0.34 9  161 219 
 SPBC HZ I         035 28.96         6.5 0.18            129            161 219 
 OCA  HZ EP   1    035  2.27                             126   -0.15 7  162 354 
 OCA  HN ES        035 23.29                             126   -0.66 9  162 354 
 OCA  HZ I         035 28.10         4.5 0.30            129            162 354 
 ZAR  HZ EP        035  6.67                             120    0.18 9  204 293 
 ZAR  HN ES        035 32.02                             120    0.81 9  204 293 
 ZAR  HZ I         035 39.62         8.5 0.24            121            204 293 
 NOR  HN ES        035 36.64                             116   -0.16 8  233 235 
 NOR  HZ I         035 39.57         4.0 0.18            118            233 235 
 SML  HZ EP   1    035 10.35                             115   -0.62 6  245 336 
 SML  HN ES        035 38.76                             115   -0.41 8  245 336 
 GUY2CHN ES        035 50.62                             110   -0.44 7  299 235 
 GUY2CHZ I         035 58.80         2.0 0.28                           299 235 
 RREF HZ EP   4    035 22.16                             109    1.96 0  320 230 
 RREF HE ES   1    035 56.43                             109    0.82 5  320 230 
 RREF HZ I         036  1.53         2.0 0.40            111            320 230 
                                                                                
