 2011  225 0808 56.2 L   6.790 -73.465129.6  RSN  4 0.3 1.3LRSN                1
 GAP=209        0.59       4.1    23.6 12.8 -0.5779E+01  0.1796E+03 -0.7138E+01E
 Epicentro: EL CARMEN DE CHUCURI - SANTANDER                                   3
 ACTION:UP  11-03-28 15:11 OP:jfem STATUS:               ID:20110225080856 L   I
 2011-02-25-0807-20S.COL___136                                                 6
 STAT SP IPHASW D HRMM SECON CODA AMPLIT PERI AZIMU VELO SNR AR TRES W  DIS CAZ7
 BAR2 SZ EP        8 9 14.57                             163     0.210   38 125 
 BAR2 SZ I         8 9 14.84         3.8 0.23                            38 125 
 BAR2 SZ ES   2    8 9 28.76                             163     0.3 5   38 125 
 RUS  HZ EP   1    8 9 18.94                             138    -0.1 7  108 157 
 RUS  HN ES   2    8 9 36.19                             138    -0.6 5  108 157 
 GRA  SZ ES   2    8 9 41.29                             130     0.1 5  141  31 
 GRA  SZ I         8 9 42.09         2.5 0.41                           141  31 
 OCA  SZ EP   2    8 9 23.47                             126     0.1 5  161   6 
 OCA  SZ ES   2    8 9 44.08                             126    -0.5 5  161   6 
 OCA  SZ I         8 9 47.78         4.5 0.61                           161   6 
                                                                                
