 2016  525 0229 39.9 L   6.829 -73.173142.1  RSN 10 0.4 1.7LRSN                1
 GAP=132        1.00       3.5     4.2  6.3 -0.1545E+01  0.7034E+01  0.1947E+01E
 Epicentro: ZAPATOCA - SANTANDER                                               3
 ACTION:UPD 16-08-18 17:49 OP:cam  STATUS:               ID:20160525022939 L   I
 OLDACT:UP  16-05-25 14:30 OP:mh   STATUS:               ID:20160525022742     3
 OLDACT:UP  16-05-25 14:30 OP:mh   STATUS:               ID:20160525022742     3
 OLDACT:REG 16-05-25 12:34 OP:mh   STATUS:               ID:20160525022742     3
 2016-05-25-0227-42M.COL___319                                                 6
 STAT SP IPHASW D HRMM SECON CODA AMPLIT PERI AZIMU VELO AIN AR TRES W  DIS CAZ7
 BAR2 EZ EP        229 59.23                             169    0.1310 26.2 182 
 BAR2 EZ ES        230 13.56                             169   -0.5510 26.2 182 
 BAR2 EZ I         230 16.10        11.0 0.06            168           26.2 182 
 BRR  HZ EP        230  1.06                             153    0.6910 67.0 297 
 BRR  HN ES        230 16.70                             153    0.3310 67.0 297 
 BRR  HZ I         230 22.30         7.1 0.14            150           67.0 297 
 PAM  EZ EP        230  2.08                             150    0.4310 77.0  43 
 PAM  EN ES        230 18.40                             150   -0.2610 77.0  43 
 PAM  EZ I         230 21.22        11.8 0.50            156           77.0  43 
 RUS  HZ EP        230  3.33                             142   -0.1610  104 175 
 RUS  HN ES        230 22.20                             142    0.2610  104 175 
 RUS  HZ I         230 23.24         5.3 0.44            145            104 175 
 PTB  HZ EP        230  5.81                             131   -0.50 9  145 257 
 PTB  HN ES   1    230 26.35                             131   -0.59 7  145 257 
 PTB  HZ I         230 34.37         4.3 0.38            131            145 257 
 SPBC HZ EP        230  8.13                             128    0.00 9  164 217 
 SPBC HN ES        230 30.18                             128   -0.00 9  164 217 
 SPBC HZ I         230 36.51         9.9 0.22            129            164 217 
 ZAR  HN ES        230 36.28                             122   -0.16 9  200 292 
 ZAR  HZ I         230 43.77         3.8 0.34            122            200 292 
 NOR  HN ES        230 43.58                             118    0.62 8  234 233 
 NOR  HZ I         230 48.81         4.4 0.12            119            234 233 
 CHI  HZ EP   4    230 16.09                             116   -1.51 0  251 194 
 CHI  HN ES        230 46.73                             116   -0.31 8  251 194 
 CHI  HZ I         230 50.40         2.2 0.30            119            251 194 
 SJC  HZ EP        230 34.06                             105   -0.73 6  405 327 
 SJC  HN ES   4    231 12.47                             105   -5.17 0  405 327 
 SJC  HZ I         231 22.02         1.4 0.46            107            405 327 
                                                                                
