 2016  725 0650 23.7 L   6.796 -73.141144.0  RSN 11 0.4 1.8LRSN                1
 GAP=137        0.87       3.0     3.8  4.9 -0.1161E+00  0.6434E+01  0.3902E+01E
 Epicentro: LOS SANTOS - SANTANDER                                             3
 ACTION:UPD 17-03-29 16:54 OP:lp   STATUS:               ID:20160725065023 L   I
 OLDACT:REG 16-07-25 14:38 OP:edw  STATUS:               ID:20160725064759     3
 2016-07-25-0647-59S.COL___331                                                 6
 STAT SP IPHASW D HRMM SECON CODA AMPLIT PERI AZIMU VELO AIN AR TRES W  DIS CAZ7
 BAR2 EZ EP        650 42.91                             170   -0.1710 23.0 191 
 BAR2 EZ ES        650 58.04                             170   -0.1810 23.0 191 
 BRR  HZ EP        650 44.78                             152    0.1110 71.9 299 
 BRR  HE ES        651  1.89                             152    0.8510 71.9 299 
 BRR  HZ I         651  4.29         7.0 0.16            149           71.9 299 
 PAM  EZ EP        650 45.95                             151    0.2510 77.4  39 
 PAM  EE ES        651  2.63                             151   -0.2510 77.4  39 
 RUS  HZ EP        650 47.05                             144   -0.1710  100 176 
 RUS  HE ES        651  5.65                             144    0.0710  100 176 
 RUS  HZ I         651  7.13         5.0 0.46            143            100 176 
 SPBC HZ EP        650 51.71                             129   -0.32 9  163 219 
 SPBC HE ES        651 13.88                             129   -0.28 9  163 219 
 SPBC HZ I         651 18.06        11.2 0.38            127            163 219 
 ZAR  HZ EP        650 55.60                             122   -0.47 9  205 292 
 ZAR  HE ES        651 20.90                             122   -0.44 9  205 292 
 ZAR  HZ I         651 26.01         7.5 0.36            122            205 292 
 NOR  HZ EP        650 59.01                             118   -0.31 8  235 235 
 NOR  HE ES   4    651 28.22                             118    1.10 0  235 235 
 NOR  HZ I         651 36.20         3.8 0.36            118            235 235 
 CHI  HZ EP        651  1.57                             117    0.33 8  248 195 
 CHI  HN ES        651 30.67                             117    0.12 8  248 195 
 CHI  HZ I         651 35.51         4.6 0.38            117            248 195 
 HEL  HZ EP   4    651  5.19                             114    1.35 0  272 256 
 HEL  HN ES        651 35.28                             114    0.11 8  272 256 
 HEL  HZ I         651 40.95         3.6 0.30            114            272 256 
 GUY2CHZ EP        651  7.74                             112    0.52 7  301 235 
 GUY2CHN ES   4    651 45.05                             112    3.86 0  301 235 
 GUY2CHZ I         651 49.25         3.5 0.58                           301 235 
 PRA  HZ EP        651 17.86                             106    0.74 6  392 210 
 PRA  HN ES        651 58.72                             106   -0.09 6  392 210 
 PRA  HZ I         652  7.59         3.7 0.34            107            392 210 
 SJC  HZ EP   4    651 16.97                             105   -2.28 0  410 327 
 SJC  HN ES   4    651 58.14                             105   -4.46 0  410 327 
                                                                                
