 2017  125 0810  6.3 L   6.796 -73.173148.8  RSN  5 0.4 1.1LRSN                1
 GAP=234        1.12       8.8     7.9  8.9  0.4372E+02  0.7905E+01 -0.8666E+00E
 Epicentro: LOS SANTOS - SANTANDER                                             3
 ACTION:UPD 17-05-22 16:03 OP:jn   STATUS:               ID:20170125081006 L   I
 OLDACT:DUP 17-01-25 18:14 OP:lv   STATUS:               ID:20170125080741d    3
 2017-01-25-0808-00M.COL___349                                                 6
 STAT SP IPHASW D HRMM SECON CODA AMPLIT PERI AZIMU VELO AIN AR TRES W  DIS CAZ7
 BAR2 EZ EP        810 26.12                             171   -0.1810 22.6 183 
 BAR2 EZ ES        810 41.05                             171   -0.8410 22.6 183 
 BAR2 EZ I         810 42.35         3.1 0.22            170           22.6 183 
 BRR  HZ EP        810 27.94                             154    0.2810 68.8 300 
 BRR  HE ES        810 44.97                             154    0.6610 68.8 300 
 RUS  HZ EP        810 30.37                             144    0.0110  100 174 
 RUS  HN ES        810 49.63                             144    0.5210  100 174 
 RUS  HZ I         810 49.95         1.6 0.17            144            100 174 
 PTB  HZ EP        810 33.07                             133   -0.20 9  145 259 
 PTB  HN ES        810 54.16                             133   -0.13 9  145 259 
 PTB  HZ I         810 54.92         1.9 0.16            133            145 259 
 ZAR  HN ES        811  3.73                             123   -0.22 9  201 293 
                                                                                
