 2013  925 0902 19.7 L   6.804 -73.156143.7  RSN 10 0.4 2.0LRSN                1
 GAP=182        1.01       2.9     4.8  6.2 -0.7543E+00  0.6356E+01 -0.3042E+01E
 Epicentro: LOS SANTOS - SANTANDER                                             3
 ACTION:UPD 13-10-22 09:24 OP:ep   STATUS:               ID:20130925090219 L   I
 OLDACT:REG 13-09-25 08:16 OP:nd   STATUS:               ID:20130925085959     3
 2013-09-25-0859-59M.COL___269                                                 6
 STAT SP IPHASW D HRMM SECON CODA AMPLIT PERI AZIMU VELO AIN AR TRES W  DIS CAZ7
 BAR2 SZ EP        9 2 39.29                             170    0.2410 23.6 187 
 BAR2 SZ ES        9 2 54.53                             170    0.3610 23.6 187 
 BAR2 SZ I         9 2 55.51        14.9 0.28            167           23.6 187 
 BRR  HZ IP     C  9 2 41.18                             153    0.6510 70.0 299 
 BRR  HN ES   2    9 2 57.13                             153    0.34 5 70.0 299 
 BRR  HZ I         9 3  4.86        15.2 0.28            148           70.0 299 
 RUS  HZ EP        9 2 43.67                             143    0.4210  101 175 
 RUS  HN ES        9 3  1.06                             143   -0.5810  101 175 
 RUS  HZ I         9 3  3.01         8.1 0.38            147            101 175 
 PTB  HZ EP        9 2 46.19                             132   -0.19 9  147 259 
 PTB  HN ES        9 3  6.89                             132   -0.31 9  147 259 
 PTB  HZ I         9 3 14.97         8.6 0.28            131            147 259 
 OCA  HZ EP        9 2 46.93                             129   -0.84 9  160 354 
 OCA  HN ES        9 3  9.47                             129   -0.21 9  160 354 
 OCA  HZ I         9 3 13.49        11.3 0.22            132            160 354 
 SPBC HZ EP        9 2 48.18                             129    0.21 9  163 219 
 SPBC HN ES        9 3  9.75                             129   -0.30 9  163 219 
 SPBC HZ I         9 3 15.40        14.6 0.42            130            163 219 
 ZAR  HZ EP        9 2 51.74                             122   -0.12 9  203 292 
 ZAR  HN ES        9 3 17.53                             122    0.57 9  203 292 
 ZAR  HZ I         9 3 24.39        13.8 0.30            123            203 292 
 NOR  HZ EP        9 2 55.40                             118    0.19 8  234 234 
 NOR  HN ES        9 3 22.48                             118   -0.44 8  234 234 
 NOR  HZ I         9 3 30.53         6.4 0.16            120            234 234 
 SML  HZ EP        9 2 55.63                             117   -0.46 8  243 335 
 SML  HE ES        9 3 24.67                             117    0.18 8  243 335 
 SML  HZ I         9 3 29.06        18.4 0.10            119            243 335 
 PRA  HZ EP        9 3 13.77                             106    0.67 6  392 209 
 PRA  HN ES   2    9 3 54.81                             106    0.04 3  392 209 
 PRA  HZ I         9 4  1.11         4.4 0.32            109            392 209 
                                                                                
