 2017  425 0424 38.4 L   6.789 -73.107150.6  RSN  5 0.3 1.3LRSN                1
 GAP=164        0.69       6.1     3.9  6.2 -0.2194E+01  0.9184E+01  0.4270E+01E
 Epicentro: LOS SANTOS - SANTANDER                                             3
 ACTION:UPD 17-05-30 21:15 OP:jn   STATUS:               ID:20170425042438 L   I
 OLDACT:UP  17-04-25 13:48 OP:and  STATUS:               ID:20170425041736     3
 OLDACT:UP  17-04-25 13:48 OP:and  STATUS:               ID:20170425041736     3
 OLDACT:UP  17-04-25 13:48 OP:and  STATUS:               ID:20170425041736     3
 OLDACT:UP  17-04-25 13:47 OP:and  STATUS:               ID:20170425041736     3
 OLDACT:REG 17-04-25 12:16 OP:and  STATUS:               ID:20170425041736     3
 2017-04-25-0418-00M.COL___368                                                 6
 STAT SP IPHASW D HRMM SECON CODA AMPLIT PERI AZIMU VELO AIN AR TRES W  DIS CAZ7
 BAR2 EZ EP        424 58.64                             171    0.0610 23.3 201 
 BAR2 EZ ES        425 14.62                             171    0.2810 23.3 201 
 BRR  HZ EP        425  0.49                             152    0.2110 75.5 298 
 BRR  HN ES        425 17.51                             152    0.1410 75.5 298 
 PAM  EN ES        425 18.31                             152   -0.3410 75.7  37 
 PTB  HZ EP        425  6.00                             132   -0.08 9  152 260 
 PTB  HE ES        425 27.22                             132   -0.48 9  152 260 
 PTB  HZ I         425 28.46         1.8 0.36            131            152 260 
 ZAR  HZ EP   4    425  8.10                             123   -3.48 0  208 292 
 ZAR  HN ES        425 37.67                             123    0.19 8  208 292 
 ZAR  HZ I         425 42.60         2.1 0.50            121            208 292 
                                                                                
