 2014 1025 0515 18.6 L   6.794 -73.113152.8  RSN 13 0.5 1.9LRSN                1
 GAP=141        1.08       2.9     4.5  5.4 -0.2550E+01  0.7409E+01  0.5079E+00E
 Epicentro: LOS SANTOS - SANTANDER                                             3
 ACTION:UPD 14-11-29 23:56 OP:nd   STATUS:               ID:20141025051518 L   I
 OLDACT:UP  14-10-28 16:18 OP:cam  STATUS:               ID:20141025050808d    3
 OLDACT:UP  14-10-28 16:17 OP:cam  STATUS:               ID:20141025050808d    3
 OLDACT:DUP 14-10-28 16:06 OP:cam  STATUS:               ID:20141025050808d    3
 2014-10-25-0508-07M.COL___283                                                 6
 STAT SP IPHASW D HRMM SECON CODA AMPLIT PERI AZIMU VELO AIN AR TRES W  DIS CAZ7
 BAR2 SZ EP        515 39.10                             171   -0.0110 23.6 199 
 BAR2 SZ ES        515 54.99                             171   -0.0910 23.6 199 
 BAR2 SZ I         515 57.03        11.3 0.24            168           23.6 199 
 BRR  HZ EP     C  515 41.00                             153    0.2710 74.7 298 
 BRR  HN ES        515 58.84                             153    0.8610 74.7 298 
 BRR  HZ I         516  3.30        12.0 0.12            149           74.7 298 
 PAM  SZ EP        515 41.95                             153    0.4510 75.6  37 
 PAM  SN ES        515 59.43                             153    0.1010 75.6  37 
 PAM  SZ I         516  1.28         9.4 0.56            158           75.6  37 
 RUS  HZ EP        515 42.95                             145   -0.0710 99.7 178 
 RUS  HN ES        516  1.57                             145   -0.4710 99.7 178 
 RUS  HZ I         516  5.19         3.7 0.22            148           99.7 178 
 PTB  HZ EP        515 45.91                             133   -0.57 9  151 259 
 PTB  HN ES        516  7.45                             133   -0.76 9  151 259 
 PTB  HZ I         516 14.54        16.4 0.40            132            151 259 
 OCA  HZ EP   1    515 47.54                             131   -0.06 7  161 352 
 OCA  HN ES        516  9.72                             131   -0.47 9  161 352 
 OCA  HZ I         516 14.12        10.9 0.42            133            161 352 
 SPBC HZ EP        515 48.13                             130    0.29 9  165 220 
 SPBC HN ES        516 10.87                             130    0.24 9  165 220 
 SPBC HZ I         516 17.21        19.2 0.30            131            165 220 
 SML  HZ EP        515 55.48                             119   -0.41 8  246 335 
 SML  HN ES        516 24.85                             119   -0.10 8  246 335 
 SML  HN I         516 29.97        37.5 0.10            120            246 335 
 CHI  HZ EP        515 56.64                             118   -0.12 8  249 196 
 CHI  HE ES        516 26.32                             118   -0.18 8  249 196 
 CHI  HZ I         516 34.22         2.7 0.38            121            249 196 
 HEL  HZ EP        515 59.96                             116    0.38 7  275 256 
 HEL  HN ES        516 32.28                             116    0.76 7  275 256 
 HEL  HZ I         516 38.72         4.2 0.34            117            275 256 
 URE  HZ EP        515 59.81                             115   -0.64 7  287 292 
 URE  HN ES   4    516 31.01                             115   -2.06 0  287 292 
 URE  HZ I         516 43.39         5.4 0.18            116            287 292 
 GUY2CHZ EP        516  3.66                             113    0.80 7  304 235 
 GUY2CHN ES        516 36.80                             113   -0.56 7  304 235 
 GUY2CHZ I         516 44.02         5.2 0.30                           304 235 
 MON  HZ EP   4    516  5.51                             110   -2.78 0  357 308 
 PRA  HZ EP   4    516 13.51                             108    0.97 0  393 210 
 ORTC HZ EP        516 13.48                             107    0.49 6  397 217 
                                                                                
