 2011  625 0830 16.0 L   6.850 -73.150147.0  RSN  4 0.2 1.4LRSN                1
 GAP=276        0.51       7.0     7.7  5.3 -0.3341E+02 -0.1408E+02  0.7220E+01E
 Epicentro: LOS SANTOS - SANTANDER                                             3
 ACTION:UP  11-07-14 19:07 OP:ep   STATUS:               ID:20110625083016 L   I
 2011-06-25-0820-00M.COL___124                                                 6
 STAT SP IPHASW D HRMM SECON CODA AMPLIT PERI AZIMU VELO SNR AR TRES W  DIS CAZ7
 BTL  SZ EP        830 35.72                             174     0.110   15 300 
 BTL  SZ ES   1    830 50.59                             174    -0.4 7   15 300 
 GIR2 SZ EP        830 35.86                             170     0.210   26 349 
 GIR2 SZ ES   2    830 51.33                             170     0.3 5   26 349 
 BRR  HZ EP        830 37.01                             154    -0.110   68 295 
 BRR  HZ I         830 38.52         6.3 0.13                            68 295 
 BRR  HN ES   1    830 53.64                             154     0.1 7   68 295 
 GRA  SZ EP        830 40.75                             139    -0.210  121  18 
 GRA  SZ ES   1    831  0.44                             139     0.1 7  121  18 
 GRA  SZ I         831  5.29         2.4 0.19                           121  18 
                                                                                
