 2016  325 0852 54.8 L   5.910 -73.797115.4  RSN  6 0.4 1.1LRSN                1
 GAP=136        0.95       4.7     3.3  8.1 -0.9524E+00  0.2476E+01 -0.1361E+02E
 Epicentro: SUCRE - SANTANDER                                                  3
 ACTION:UPD 16-05-13 21:27 OP:cam  STATUS:               ID:20160325085254 L   I
 OLDACT:REG 16-03-25 14:36 OP:ak   STATUS:               ID:20160325084743     3
 2016-03-25-0847-43M.COL___294                                                 6
 STAT SP IPHASW D HRMM SECON CODA AMPLIT PERI AZIMU VELO AIN AR TRES W  DIS CAZ7
 SPBC HZ EP        853 11.09                             159   -0.1410 41.7 227 
 SPBC HN ES        853 24.08                             159    0.0410 41.7 227 
 SPBC HZ I         853 24.82         6.2 0.34            162           41.7 227 
 RUS  HZ EP        853 13.90                             143   -0.1310 79.1  91 
 RUS  HN ES        853 29.05                             143    0.0410 79.1  91 
 RUS  HZ I         853 32.06         0.8 0.10            145           79.1  91 
 PTB  HZ EP        853 14.81                             136   -0.2810  101 314 
 PTB  HN ES        853 30.15                             136   -0.7510  101 314 
 PTB  HZ I         853 32.43         1.8 0.14            136            101 314 
 BAR2 EZ EP        853 15.38                             136   -0.0710  102  42 
 BAR2 EZ ES        853 31.91                             136    0.3610  102  42 
 BAR2 EZ I         853 33.36         6.9 0.16            136            102  42 
 NOR  HN ES        853 35.34                             129    0.5110  125 252 
 ZAR  HZ EP   2    853 26.29                             114    0.07 4  211 326 
 ZAR  HN ES        853 51.36                             114    0.65 8  211 326 
 ZAR  HZ I         853 55.76         1.5 0.58            115            211 326 
                                                                                
