 2011  925 0440  2.8 L   6.638 -73.169142.0  RSN  4 0.3 1.2LRSN                1
 GAP=199        0.64      28.8    26.0  8.9  0.6755E+03 -0.9249E+02 -0.1064E+03E
 Epicentro: VILLANUEVA - SANTANDER                                             3
 ACTION:UPD 12-07-13 15:59 OP:ep   STATUS:               ID:20110925044002 L   I
 2011-09-25-0440-00M.COL___167                                                 6
 STAT SP IPHASW D HRMM SECON CODA AMPLIT PERI AZIMU VELO AIN AR TRES W  DIS CAZ7
 BAR2 SZ EP   1    440 22.14                             178    0.44 7 5.29 196 
 BAR2 SZ ES   1    440 36.19                             178   -0.29 7 5.29 196 
 BAR2 SZ I         440 39.72         2.8 0.47                          5.29 196 
 BTL  SZ EP   1    440 22.37                             166    0.20 7 32.9 341 
 GIR2 SZ EP   2    440 22.39                             160   -0.20 5 48.8 357 
 BRR  HZ EP        440 23.69                             149   -0.3010 79.3 311 
 BRR  HZ I         440 24.29         4.0 0.15                          79.3 311 
 BRR  HN ES   1    440 40.82                             149    0.27 7 79.3 311 
                                                                                
