 2013  225 0103 43.7 L   6.783 -73.145148.4  RSN  6 0.3 1.8LRSN 2.7WRSN        1
 SPEC AVERAGE  MO 13.1 ST  3.3 OM  2.3 f0 4.24 R0.3956 AL 2.43 WI 16.0 MW  2.7 3
 SPEC SD       MO  0.3 ST  3.3 OM  0.9 f0 1.36 R0.1549 AL      WI      MW  0.2 3
 GAP=236        0.73       4.1     4.8  5.4  0.1064E+02  0.5376E+01  0.4741E+01E
 Epicentro: LOS SANTOS - SANTANDER                                             3
 SPEC ZAR HH E MO 13.5 ST  7.9 OM  1.7 f0 5.65 R0.2602 AL 2.82 WI 16.8 MW  2.9 3
 SPEC ZAR HH E T 1 441 K 0.000 GD  253 VS 4.20 DE 3.20 Q0300.0 QA 0.60 VS 4.20 3
 SPEC RUS HH N MO 12.7 ST0.107 OM  1.1 f0 2.40 R0.6125 AL 1.75 WI 11.4 MW  2.4 3
 SPEC RUS HH N T 1 425 K 0.000 GD  178 VS 4.20 DE 3.20 Q0300.0 QA 0.60 VS 4.20 3
 SPEC BRR HH N MO 13.1 ST  1.8 OM  1.5 f0 4.68 R0.3141 AL 2.72 WI 19.8 MW  2.7 3
 SPEC BRR HH N T 1 422 K 0.000 GD  164 VS 4.20 DE 3.20 Q0300.0 QA 0.60 VS 4.20 3
 ACTION:UPD 13-03-12 09:35 OP:ep   STATUS:               ID:20130225010343 L   I
 2013-02-25-0058-35M.COL___199                                                 6
 STAT SP IPHASW D HRMM SECON CODA AMPLIT PERI AZIMU VELO AIN AR TRES W  DIS CAZ7
 BAR2 SZ EP        1 4  3.58                             171   -0.0710 21.5 191 
 BAR2 SZ ES        1 4 18.98                             171   -0.2010 21.5 191 
 BAR2 SZ I         1 4 20.46        19.5 0.30            168           21.5 191 
 BRR  HZ EP        1 4  5.50                             153    0.2810 72.1 300 
 BRR  HZ I         1 4  5.75        20.3 0.24            151           72.1 300 
 BRR  HN ES        1 4 22.41                             153    0.4310 72.1 300 
 RUS  HZ EP        1 4  7.67                             145    0.0610 98.7 176 
 RUS  HN ES        1 4 26.03                             145   -0.2110 98.7 176 
 RUS  HN I         1 4 26.68         9.4 0.34            144           98.7 176 
 PTB  HZ EP        1 4 10.39                             133   -0.50 9  147 260 
 PTB  HN ES        1 4 31.86                             133   -0.21 9  147 260 
 PTB  HE I         1 4 36.75         8.8 0.20            131            147 260 
 ZAR  HE ES        1 4 41.90                             123   -0.03 9  205 293 
 CHI  HZ EP   1    1 4 21.45                             118    0.06 6  247 195 
 CHI  HZ I         1 4 23.70         1.6 0.38            117            247 195 
 CHI  HN ES        1 4 51.27                             118    0.51 8  247 195 
                                                                                
