 2013  125 0533 14.6 L   6.709 -73.202150.0  RSN  5 0.5 1.3LRSN                1
 GAP=222        0.99      10.3    10.8  9.9  0.6060E+02  0.2617E+02  0.2953E+02E
 Epicentro: VILLANUEVA - SANTANDER                                             3
 ACTION:UPD 13-02-15 09:16 OP:ep   STATUS:               ID:20130125053314 L   I
 2013-01-25-0530-00M.COL___241                                                 6
 STAT SP IPHASW D HRMM SECON CODA AMPLIT PERI AZIMU VELO AIN AR TRES W  DIS CAZ7
 BAR2 SZ ES   1    533 49.79                             175   -0.40 7 13.1 170 
 BRR  HZ EP   1    533 35.94                             153   -0.30 7 71.5 308 
 BRR  HN ES   1    533 53.99                             153    0.88 7 71.5 308 
 RUS  HZ EP   1    533 37.79                             147   -0.36 7 91.2 172 
 RUS  HE ES   1    533 56.68                             147    0.17 7 91.2 172 
 RUS  HZ I         533 57.10         2.9 0.44            143           91.2 172 
 PTB  HZ EP   1    533 40.90                             135   -0.35 7  140 262 
 PTB  HN ES   1    534  1.68                             135   -0.34 7  140 262 
 PTB  HZ I         534  9.33         3.2 0.28            129            140 262 
 CHI  HZ EP   1    533 52.30                             119    0.96 6  237 194 
                                                                                
