 2011  625 0004 26.0 L   6.594 -73.293123.0  RSN  6 0.2 1.4LRSN                1
 GAP=157        0.49       3.3     6.3  4.7  0.7167E+01 -0.6782E+01 -0.7003E+00E
 Epicentro: GALAN - SANTANDER                                                  3
 ACTION:UP  11-07-14 19:07 OP:ep   STATUS:               ID:20110625000426 L   I
 2011-06-25-0002-11S.COL___140                                                 6
 STAT SP IPHASW D HRMM SECON CODA AMPLIT PERI AZIMU VELO SNR AR TRES W  DIS CAZ7
 BAR2 SZ EP        0 4 42.57                             173    -0.110   12  91 
 BAR2 SZ ES   2    0 4 55.31                             173    -0.4 5   12  91 
 BAR2 SZ I         0 4 57.14         5.1 0.33                            12  91 
 BTL  SZ EP        0 4 43.25                             163     0.010   36   5 
 GIR2 SZ EP        0 4 43.77                             154    -0.210   55  12 
 GIR2 SZ ES   1    0 4 58.04                             154     0.1 7   55  12 
 BRR  HZ EP        0 4 44.63                             147    -0.210   73 321 
 BRR  HZ I         0 4 44.87        23.2 0.10                            73 321 
 BRR  HN ES   1    0 4 59.79                             147     0.3 7   73 321 
 RUS  HZ EP        0 4 46.20                             145     0.110   81 163 
 RUS  HZ I         0 4 46.51         2.2 0.30                            81 163 
 RUS  HN ES   2    0 5  1.92                             145     0.2 5   81 163 
 GRA  SZ EP        0 4 52.00                             125     0.2 9  153  21 
 GRA  SZ I         0 5 16.97         2.3 0.50                           153  21 
                                                                                
