 2016 1025 0114 20.5 L   6.023 -73.897  1.2  RSN 11 0.4 2.3LRSN                1
 GAP=106        0.88       2.2     1.8  4.8 -0.4732E+00  0.2228E+01  0.6271E+00E
 Epicentro: EL PENON - SANTANDER                                               3
 ACTION:UPD 16-11-09 19:22 OP:rebc STATUS:               ID:20161025011420 L   I
 OLDACT:UP  16-10-25 20:26 OP:cam  STATUS:               ID:20161025010745     3
 OLDACT:UP  16-10-25 20:25 OP:cam  STATUS:               ID:20161025010745     3
 OLDACT:UP  16-10-25 20:18 OP:cam  STATUS:               ID:20161025010745     3
 OLDACT:UP  16-10-25 20:16 OP:cam  STATUS:               ID:20161025010745     3
 OLDACT:REG 16-10-25 12:49 OP:cara STATUS:               ID:20161025010745     3
 2016-10-25-0108-00M.COL___358                                                 6
 STAT SP IPHASW D HRMM SECON CODA AMPLIT PERI AZIMU VELO AIN AR TRES W  DIS CAZ7
 SPBC HZ IP        114 28.58                              47    0.0810 45.4 205 
 SPBC HZ I         114 37.65        77.6 0.46             47           45.4 205 
 PTB  HZ IPg  4 D  114 32.62                              91   -5.46 0 84.2 313 
 PTB  HZ EP        114 34.16                              47   -0.1310 84.2 313 
 PTB  HN ESg  4    114 41.96                              91   -9.80 0 84.2 313 
 PTB  HN ES        114 44.99                              47   -0.0310 84.2 313 
 PTB  HZ I         114 45.22       106.0 0.44             47           84.2 313 
 RUS  HZ EP        114 36.38                              47    0.5210 91.3  99 
 RUS  HE ES        114 47.51                              47   -0.3110 91.3  99 
 BAR2 EZ EP        114 36.60                              47   -0.4810  101  51 
 NOR  HZ EP   1    114 39.70                              47    0.08 7  119 245 
 NOR  HN ES        114 53.95                              47   -0.5510  119 245 
 NOR  HZ I         114 54.23       108.3 0.18             47            119 245 
 BRR  HZ EP        114 39.72                              47   -0.2310  122  10 
 BRR  HN ES   1    114 55.46                              47    0.38 7  122  10 
 BRR  HZ I         114 56.98        55.9 0.12             47            122  10 
 HEL  HZ IP   4 D  114 47.91                              37   -1.48 0  182 276 
 HEL  HN ES   4    115  8.67                              37   -3.23 0  182 276 
 HEL  HZ I         115  9.46        44.9 0.26             47            182 276 
 GUY2CHZ EP   1    114 50.52                              37    0.56 7  185 242 
 GUY2CHN ES   4    115 12.21                              37   -0.70 0  185 242 
 GUY2CHZ I         115 16.77        21.1 0.42                           185 242 
 PAM  EZ EP   1    114 52.16                              37    0.72 6  197  42 
 PAM  EE ES   4    115 17.11                              37    1.57 0  197  42 
 PAM  EZ I         115 19.27        41.2 0.22             37            197  42 
 ELA  HZ EP   4    114 54.89                              37    1.70 0  210 232 
 ELA  HN ES        115 19.07                              37    0.40 8  210 232 
 ELA  HZ I         115 22.14        14.8 0.22             37            210 232 
 CBOC HZ EP   2    114 55.51                              37   -0.31 4  235 266 
 CBOC HE ES   2    115 23.78                              37    0.45 4  235 266 
 ORTC HZ EP   4    115  2.99                              37    1.99 0  278 213 
 PRA  HZ EP   4    115  4.51                              37    3.46 0  278 203 
 PRA  HN ES   4    115 38.71                              37    6.07 0  278 203 
                                                                                
