 2015  325 0143 26.2 L   6.754 -73.157144.7  RSN  8 0.5 1.6LRSN                1
 GAP=137        1.13       4.3     5.6  7.2  0.4081E+01  0.2380E+01 -0.8758E+01E
 Epicentro: LOS SANTOS - SANTANDER                                             3
 ACTION:UPD 15-04-30 16:29 OP:nd   STATUS:               ID:20150325014326 L   I
 OLDACT:REG 15-03-25 12:45 OP:fm   STATUS:               ID:20150325013741     3
 2015-03-25-0137-41M.COL___278                                                 6
 STAT SP IPHASW D HRMM SECON CODA AMPLIT PERI AZIMU VELO AIN AR TRES W  DIS CAZ7
 BAR2 EZ ES        144  1.05                             173    0.3210 18.1 189 
 BAR2 EZ I         144  2.50        10.8 0.14            175           18.1 189 
 BRR  HZ IP     C  143 47.59                             152    0.2910 72.6 303 
 BRR  HN ES        144  4.04                             152    0.2710 72.6 303 
 BRR  HZ I         144  8.64         8.3 0.46            152           72.6 303 
 PAM  SZ EP        143 48.43                             149   -0.1410 82.1  38 
 PAM  SZ I         144  8.60         3.7 0.48            144           82.1  38 
 RUS  HZ EP        143 49.86                             145    0.3810 95.7 175 
 RUS  HN ES        144  7.07                             145   -0.5810 95.7 175 
 RUS  HZ I         144  9.46         4.1 0.36            147           95.7 175 
 PTB  HZ EP        143 52.52                             132   -0.34 9  146 261 
 PTB  HE ES        144 12.92                             132   -0.76 9  146 261 
 PTB  HZ I         144 21.00         4.4 0.66            134            146 261 
 SPBC HZ EP        143 54.38                             130    0.23 9  158 220 
 SPBC HE ES        144 16.10                             130    0.13 9  158 220 
 SPBC HZ I         144 21.05         7.1 0.10            132            158 220 
 ZAR  HZ EP        143 59.49                             122    0.86 9  205 294 
 ZAR  HN ES        144 24.16                             122    0.21 9  205 294 
 ZAR  HZ I         144 30.40         3.6 0.60            122            205 294 
 SML  HZ EP        144  2.36                             117   -0.83 8  248 336 
 SML  HE ES        144 31.84                             117   -0.21 8  248 336 
 SML  HZ I         144 36.25         6.3 0.20            116            248 336 
                                                                                
