 2013  925 0308  4.5 L   6.816 -73.233145.5  RSN  4 0.4 1.3LRSN                1
 GAP=226        0.68       5.8     9.3  9.1 -0.2110E+02 -0.3214E+02  0.1826E+02E
 Epicentro: ZAPATOCA - SANTANDER                                               3
 ACTION:UPD 13-10-22 09:24 OP:ep   STATUS:               ID:20130925030804 L   I
 OLDACT:UP  13-10-07 14:44 OP:ep   STATUS:               ID:20130925030804 L   3
 OLDACT:REG 13-09-25 07:45 OP:nd   STATUS:               ID:20130925025959     3
 2013-09-25-0259-59M.COL___269                                                 6
 STAT SP IPHASW D HRMM SECON CODA AMPLIT PERI AZIMU VELO AIN AR TRES W  DIS CAZ7
 BAR2 SZ EP   2    3 8 23.58                             169   -0.55 5 25.3 167 
 BAR2 SZ ES   3    3 8 38.63                             169   -0.82 2 25.3 167 
 BAR2 SZ I         3 8 39.63         4.2 0.26            171           25.3 167 
 BRR  HZ EP        3 8 25.45                             156    0.3310 62.0 301 
 BRR  HZ I         3 8 37.05         3.5 0.42            145           62.0 301 
 BRR  HN ES   1    3 8 41.24                             156    0.03 7 62.0 301 
 PTB  HZ EP   1    3 8 30.32                             134   -0.30 7  139 257 
 PTB  HN ES   1    3 8 50.53                             134   -0.48 7  139 257 
 PTB  HZ I         3 8 58.57         2.7 0.32            127            139 257 
 SPBC HZ EP        3 8 32.50                             130   -0.04 9  159 216 
 SPBC HN ES        3 8 54.75                             130    0.32 9  159 216 
 SPBC HZ I         3 9  1.63         3.7 0.26            126            159 216 
                                                                                
