 2011  925 0513 56.9 L   6.800 -73.150144.4  RSN 18 0.4 3.2LRSN                1
 GAP=113        0.73       2.2     3.1  4.2 -0.4346E+00  0.4352E+01  0.1944E+01E
 Epicentro: LOS SANTOS - SANTANDER                                             3
 ACTION:UPD 12-07-13 15:59 OP:ep   STATUS:               ID:20110925051356 L   I
 2011-09-25-0512-14S.COL___165                                                 6
 STAT SP IPHASW D HRMM SECON CODA AMPLIT PERI AZIMU VELO AIN AR TRES W  DIS CAZ7
 BTL  SZ EP        514 16.51                             172    0.2710 18.5 315 
 BAR2 SZ IP        514 16.32                             170    0.0010 23.3 189 
 BAR2 SZ I         514 16.91       400.8 0.37                          23.3 189 
 BAR2 SZ ES   1    514 31.33                             170   -0.17 7 23.3 189 
 GIR2 SZ IP        514 16.33                             167   -0.0410 31.2 351 
 GIR2 SZ ES   2    514 31.16                             167   -0.42 5 31.2 351 
 BRR  HZ IP     C  514 18.14                             152    0.3010 70.8 299 
 BRR  HZ I         514 18.41       359.0 0.22                          70.8 299 
 BRR  HN ES   1    514 35.16                             152    0.96 7 70.8 299 
 PAM  SZ IP        514 19.07                             150    0.1210 77.7  40 
 PAM  SN ES   1    514 36.11                             150   -0.06 7 77.7  40 
 RUS  HZ IP     C  514 20.33                             144   -0.1510  101 176 
 RUS  HZ I         514 21.55       153.2 0.17                           101 176 
 RUS  HN ES   2    514 38.38                             144   -0.52 5  101 176 
 OCA  SZ EP        514 25.20                             129    0.14 9  160 353 
 OCA  SZ ES   1    514 46.60                             129   -0.45 7  160 353 
 OCA  SZ I         514 51.51       185.0 0.48                           160 353 
 YOP  SZ IP     C  514 27.15                             126    0.32 9  179 153 
 YOP  SE ES   1    514 49.84                             126   -0.36 7  179 153 
 YOP  SZ I         514 51.92        88.8 0.21                           179 153 
 ZAR  HZ EP        514 28.96                             122   -0.21 9  204 292 
 ZAR  HN ES   2    514 54.40                             122    0.03 4  204 292 
 ZAR  HZ I         515  0.50       243.5 0.33                           204 292 
 NOR  SZ EP        514 32.45                             118   -0.02 8  234 234 
 NOR  SN ES   1    514 59.80                             118   -0.44 6  234 234 
 CHI  HZ EP        514 34.56                             117    0.09 8  249 195 
 CHI  HE ES   2    515  3.40                             117   -0.40 4  249 195 
 CHI  HZ I         515  9.24        72.5 0.20                           249 195 
 HEL  HZ EP        514 36.20                             115   -0.75 8  272 256 
 HEL  HE ES   1    515  8.20                             115   -0.02 6  272 256 
 HEL  HZ I         515 14.70        94.5 0.27                           272 256 
 VIL  SZ EP   2    514 40.23                             112    0.03 4  303 191 
 VIL  SN ES   2    515 14.24                             112    0.23 4  303 191 
 RREF HZ EP   1    514 42.40                             111   -0.50 5  321 229 
 RREF HN ES   1    515 18.81                             111    0.00 5  321 229 
 RREF HZ I         515 30.37        74.6 0.33                           321 229 
 DBB  SZ EP   1    514 44.69                             109    0.46 5  339 274 
 TOL  SZ EP        514 45.86                             109    0.84 7  343 225 
 COD  HZ EP   1    514 44.66                             109   -0.52 5  348 355 
 COD  HN ES   1    515 22.20                             109   -0.66 5  348 355 
 COD  HZ I         515 29.12        44.5 0.47                           348 355 
 ANIL HZ EP   1    514 46.95                             108    0.38 5  357 224 
 ANIL HE ES   1    515 24.89                             108   -0.46 5  357 224 
                                                                                
