 2016  325 0158  9.6 L   6.473 -73.447 22.6  RSN  6 0.5 1.4LRSN                1
 GAP= 95        1.22       3.4     4.2  5.5 -0.4748E+01  0.1765E+02 -0.6982E+01E
 Epicentro: SIMACOTA - SANTANDER                                               3
 ACTION:UPD 16-05-13 21:27 OP:cam  STATUS:               ID:20160325015809 L   I
 OLDACT:REG 16-03-25 14:01 OP:ak   STATUS:               ID:20160325014749     3
 2016-03-25-0147-49M.COL___305                                                 6
 STAT SP IPHASW D HRMM SECON CODA AMPLIT PERI AZIMU VELO AIN AR TRES W  DIS CAZ7
 BAR2 EZ EP        158 16.38                             124    0.1710 32.1  66 
 BAR2 EZ ES        158 21.55                             124    0.2010 32.1  66 
 BAR2 EZ I         158 22.37        36.4 0.09            122           32.1  66 
 RUS  HZ EP        158 22.75                             105    0.1510 75.8 148 
 RUS  HN ES        158 32.02                             105   -0.6910 75.8 148 
 RUS  HZ I         158 33.06        14.1 0.18            103           75.8 148 
 PTB  HZ IP     D  158 27.11                              56   -0.2010  112 274 
 PTB  HN ES        158 40.48                              56   -0.6110  112 274 
 PTB  HZ I         158 42.21         7.3 0.20             99            112 274 
 SPBC HE ES        158 42.56                              56    0.8010  114 217 
 SPBC HZ I         158 45.67         9.1 0.20             99            114 217 
 PAM  EZ EP        158 30.27                              56    0.5710  126  41 
 PAM  EN ES        158 44.89                              56   -0.4510  126  41 
 PAM  EZ I         158 46.57         6.8 0.24             56            126  41 
 ZAR  HE ES        158 59.06                              56    0.08 9  192 306 
                                                                                
