 2014  825 0817  2.0 L   6.545 -73.560115.4  RSN  8 0.5 1.3LRSN                1
 GAP= 98        1.05       4.9     4.6  8.0  0.4680E+00  0.1151E+02  0.4191E+01E
 Epicentro: EL CARMEN - SANTANDER                                              3
 ACTION:UPD 14-09-15 21:53 OP:nd   STATUS:               ID:20140825081702 L   I
 OLDACT:REG 14-08-25 13:50 OP:fm   STATUS:               ID:20140825080813     3
 2014-08-25-0808-13M.COL___257                                                 6
 STAT SP IPHASW D HRMM SECON CODA AMPLIT PERI AZIMU VELO AIN AR TRES W  DIS CAZ7
 BAR2 SZ EP        817 19.02                             158    0.3410 42.1  83 
 BAR2 SZ ES   1    817 31.63                             158   -0.04 7 42.1  83 
 BRR  HZ EP   1    817 19.19                             148   -0.35 7 64.4 345 
 BRR  HN ES        817 33.83                             148    0.6310 64.4 345 
 RUS  HZ EP   1    817 21.78                             140   -0.24 7 89.4 144 
 RUS  HE ES   1    817 37.34                             140   -0.28 7 89.4 144 
 RUS  HZ I         817 39.21         1.9 0.24            139           89.4 144 
 PTB  HZ EP        817 21.83                             136   -0.3210 99.1 270 
 PTB  HN ES        817 37.01                             136   -0.8410 99.1 270 
 PTB  HZ I         817 38.05         8.3 0.30            134           99.1 270 
 SPBC HN ES        817 40.54                             132    0.2110  114 210 
 SPBC HZ I         817 42.54         7.6 0.32            130            114 210 
 HEL  HZ EP   1    817 35.39                             113    0.32 6  221 260 
 HEL  HN ES   1    818  1.56                             113    0.70 6  221 260 
 HEL  HZ I         818  4.25         1.6 0.34            112            221 260 
 GUY2CHZ EP   1    817 38.84                             110    0.65 6  248 234 
 GUY2CHN ES   4    818 10.56                             110    4.16 0  248 234 
 GUY2CHZ I         818 11.49         2.4 0.32                           248 234 
 SML  HN ES   4    818  9.33                             109    2.32 0  256 347 
 MON  HZ EP   1    817 47.81                             103   -0.47 5  339 317 
 MON  HN ES   4    818 23.40                             103   -0.96 0  339 317 
 MON  HZ I         818 28.02         0.6 0.20            102            339 317 
                                                                                
