 2011 1025 0718 57.4 L   6.780 -73.115143.1  RSN 11 0.2 1.8LRSN                1
 GAP=141        0.32       1.9     2.3  3.4 -0.9612E+00  0.2953E+01  0.9220E+00E
 Epicentro: LOS SANTOS - SANTANDER                                             3
 ACTION:UPD 12-07-13 16:05 OP:ep   STATUS:               ID:20111025071857 L   I
 2011-10-25-0715-35S.COL___172                                                 6
 STAT SP IPHASW D HRMM SECON CODA AMPLIT PERI AZIMU VELO AIN AR TRES W  DIS CAZ7
 BAR2 SZ EP   1    719 16.70                             171   -0.03 7 22.0 200 
 BAR2 SZ ES   2    719 31.36                             171   -0.41 5 22.0 200 
 BAR2 SZ I         719 33.01        10.8 0.80                          22.0 200 
 BRR  HZ EP   1    719 18.66                             151    0.12 7 75.2 299 
 BRR  HN ES   2    719 35.25                             151    0.26 5 75.2 299 
 BRR  HZ I         719 37.94        10.2 0.15                          75.2 299 
 PAM  SZ EP   1    719 19.36                             150    0.00 7 77.1  37 
 PAM  SN ES   2    719 36.67                             150    0.22 5 77.1  37 
 RUS  HZ EP   1    719 20.65                             144   -0.11 7 98.2 178 
 RUS  HN ES   2    719 39.14                             144    0.20 5 98.2 178 
 RUS  HZ I         719 41.09         5.4 0.58                          98.2 178 
 OCA  SZ EP   2    719 25.65                             128   -0.15 5  163 352 
 OCA  SZ ES   2    719 47.83                             128   -0.09 5  163 352 
 OCA  SZ I         719 55.01         6.6 0.49                           163 352 
 ZAR  HZ EP   2    719 29.82                             121   -0.31 4  208 292 
 ZAR  HN ES   2    719 55.48                             121   -0.14 4  208 292 
 ZAR  HZ I         720  1.24         9.6 0.36                           208 292 
 NOR  SZ EP   2    719 32.95                             118   -0.23 4  236 235 
 NOR  SN ES   2    720  0.95                             118   -0.10 4  236 235 
 HEL  HZ EP   1    719 38.10                             114    0.28 6  275 256 
 HEL  HN ES   2    720  8.95                             114   -0.37 4  275 256 
 HEL  HZ I         720 14.85         3.4 0.55                           275 256 
 GUY  SZ EP   2    719 41.71                             111    0.35 4  305 236 
 GUY  SE ES   2    720 15.80                             111    0.18 4  305 236 
 GUY  SZ I         720 24.25         7.6 0.19                           305 236 
 RREF HZ EP   2    719 43.88                             110    0.28 3  323 230 
 RREF HE ES   2    720 19.94                             110    0.34 3  323 230 
 RREF HZ I         720 28.34         4.8 0.38                           323 230 
 PRA  HZ EP   2    719 50.43                             106   -0.41 3  392 210 
 PRA  HN ES   2    720 32.29                             106   -0.20 3  392 210 
                                                                                
