 2013  525 0251 53.8 L   6.744 -73.184148.7  RSN  6 0.5 1.6LRSN                1
 GAP=134        1.22       6.6     8.5 10.7 -0.1362E+01  0.1585E+02  0.8225E+01E
 Epicentro: VILLANUEVA - SANTANDER                                             3
 ACTION:UPD 13-06-20 09:53 OP:ep   STATUS:               ID:20130525025153 L   I
 2013-05-25-0248-42M.COL___211                                                 6
 STAT SP IPHASW D HRMM SECON CODA AMPLIT PERI AZIMU VELO AIN AR TRES W  DIS CAZ7
 BAR2 SZ EP        252 13.89                             173    0.2510 16.8 179 
 BAR2 SZ I         252 14.13         6.1 0.10            156           16.8 179 
 GIR2 SZ EP        252 14.20                             165    0.2410 37.0 358 
 BRR  HZ EP        252 15.60                             153    0.3910 70.8 305 
 BRR  HN ES        252 32.29                             153    0.3510 70.8 305 
 BRR  HN I         252 33.40        12.0 0.14            129           70.8 305 
 PAM  SZ EP        252 16.74                             149   -0.0110 84.9  39 
 PAM  SN ES        252 34.15                             149   -0.5310 84.9  39 
 RUS  HZ EP        252 17.88                             146    0.4710 94.8 173 
 RUS  HN ES        252 35.62                             146   -0.2310 94.8 173 
 RUS  HN I         252 37.49         3.7 0.18            128           94.8 173 
 PTB  HZ EP        252 19.46                             134   -1.05 9  142 261 
 PTB  HN I         252 46.82         9.3 0.26            113            142 261 
                                                                                
