 2015  425 0438 46.8 L   6.772 -73.193149.8  RSN  7 0.5 1.7LRSN                1
 GAP=196        1.15       4.8     7.5  7.8  0.9833E+01  0.1152E+02 -0.6856E+01E
 Epicentro: ZAPATOCA - SANTANDER                                               3
 ACTION:UPD 15-06-03 16:57 OP:cam  STATUS:               ID:20150425043846 L   I
 OLDACT:REG 15-04-25 14:07 OP:ak   STATUS:               ID:20150425043742     3
 2015-04-25-0437-42M.COL___271                                                 6
 STAT SP IPHASW D HRMM SECON CODA AMPLIT PERI AZIMU VELO AIN AR TRES W  DIS CAZ7
 BAR2 EZ EP        439  6.67                             172   -0.2010 19.9 177 
 BAR2 EZ ES        439 21.91                             172   -0.6010 19.9 177 
 BAR2 EZ I         439 23.43        12.3 0.12            169           19.9 177 
 BRR  HZ EP     C  439  8.51                             154    0.2710 68.2 303 
 BRR  HN ES        439 25.91                             154    0.9610 68.2 303 
 BRR  HZ I         439 29.47         6.3 0.26            150           68.2 303 
 RUS  HZ EP   1    439 10.75                             145   -0.04 7 98.0 173 
 RUS  HN ES        439 29.83                             145    0.3510 98.0 173 
 RUS  HZ I         439 30.96         5.3 0.26            147           98.0 173 
 PTB  HZ EP        439 13.52                             134   -0.09 9  142 260 
 PTB  HN ES   1    439 34.08                             134   -0.42 7  142 260 
 PTB  HZ I         439 40.28         5.2 0.38            132            142 260 
 SPBC HZ EP        439 15.31                             131    0.21 9  157 218 
 SPBC HN ES        439 36.64                             131   -0.52 9  157 218 
 SPBC HZ I         439 41.22         8.1 0.20            131            157 218 
 ZAR  HZ EP        439 19.57                             124    0.41 9  200 294 
 ZAR  HN ES   1    439 44.42                             124    0.04 6  200 294 
 ZAR  HZ I         439 49.81         5.9 0.34            124            200 294 
 SML  HZ EP   1    439 23.96                             118    0.21 6  244 337 
 SML  HN ES        439 51.63                             118   -0.92 8  244 337 
 SML  HZ I         439 54.24         5.1 0.10            120            244 337 
                                                                                
