 2013  125 0237 27.6 L   6.781 -73.136143.5  RSN  8 0.4 1.5LRSN                1
 GAP= 72        0.83       4.8     3.9  7.4  0.5556E+01 -0.1478E+01 -0.5833E+01E
 Epicentro: LOS SANTOS - SANTANDER                                             3
 ACTION:UPD 13-02-15 09:16 OP:ep   STATUS:               ID:20130125023727 L   I
 2013-01-25-0230-00M.COL___241                                                 6
 STAT SP IPHASW D HRMM SECON CODA AMPLIT PERI AZIMU VELO AIN AR TRES W  DIS CAZ7
 BAR2 SZ EP   1    237 46.87                             171   -0.02 7 21.5 194 
 BAR2 SZ ES   1    238  1.80                             171   -0.16 7 21.5 194 
 BAR2 SZ I         238  2.67         9.7 0.14            176           21.5 194 
 BRR  HZ EP   1    237 48.84                             151    0.26 7 73.1 300 
 BRR  HN ES   1    238  5.57                             151    0.59 7 73.1 300 
 BRR  HZ I         238 10.11         8.4 0.30            148           73.1 300 
 PAM  SZ EP   1    237 49.88                             150    0.28 7 78.3  38 
 PAM  SZ I         238  9.15         3.4 0.46            140           78.3  38 
 RUS  HZ EP   1    237 51.18                             144    0.24 7 98.5 177 
 RUS  HN ES   1    238  9.21                             144    0.04 7 98.5 177 
 RUS  HZ I         238 10.53         2.3 0.26            148           98.5 177 
 PTB  HZ EP   1    237 53.69                             131   -0.72 7  148 260 
 PTB  HN ES   1    238 14.69                             131   -0.66 7  148 260 
 PTB  HZ I         238 17.76         5.9 0.10            132            148 260 
 TAM  HZ EP   1    237 55.10                             130    0.18 7  154 104 
 TAM  HE ES   1    238 16.08                             130   -0.17 7  154 104 
 OCA  HN ES   1    238 17.28                             129   -0.73 7  162 353 
 ZAR  HZ EP   1    238  0.13                             122    0.08 6  206 293 
 ZAR  HE ES   1    238 26.08                             122    0.70 6  206 293 
                                                                                
