 2014  925 0126 37.4 L   6.780 -73.141146.3  RSN  7 0.4 1.6LRSN                1
 GAP=138        1.14       5.0     5.1  8.0 -0.5765E-01  0.9888E+01  0.4863E+01E
 Epicentro: LOS SANTOS - SANTANDER                                             3
 ACTION:UPD 14-10-03 23:08 OP:nd   STATUS:               ID:20140925012637 L   I
 OLDACT:DUP 14-09-25 14:22 OP:cam  STATUS:               ID:20140925012001d    3
 OLDACT:UP  14-09-25 14:21 OP:cam  STATUS:               ID:20140925012000     3
 OLDACT:REG 14-09-25 12:46 OP:cam  STATUS:               ID:20140925012000     3
 2014-09-25-0120-00M.COL___252                                                 6
 STAT SP IPHASW D HRMM SECON CODA AMPLIT PERI AZIMU VELO AIN AR TRES W  DIS CAZ7
 BAR2 SZ EP     D  126 57.11                             171    0.0310 21.3 193 
 BAR2 SZ ES        127 12.50                             171    0.0910 21.3 193 
 BAR2 SZ I         127 15.82         8.4 0.26            170           21.3 193 
 BRR  HZ IP     C  126 58.87                             152    0.1510 72.8 300 
 BRR  HN ES        127 15.99                             152    0.6610 72.8 300 
 BRR  HZ I         127 17.25         6.4 0.32            151           72.8 300 
 PAM  SZ EP   1    126 59.89                             151    0.11 7 78.7  38 
 PAM  SN ES        127 16.45                             151   -0.7610 78.7  38 
 PAM  SZ I         127 18.86         6.6 0.44            155           78.7  38 
 RUS  HZ EP        127  1.23                             144    0.1510 98.4 176 
 RUS  HN ES        127 19.97                             144    0.4510 98.4 176 
 RUS  HZ I         127 21.56         4.2 0.26            147           98.4 176 
 PTB  HZ EP        127  3.96                             132   -0.49 9  148 260 
 PTB  HN ES        127 24.88                             132   -0.65 9  148 260 
 PTB  HZ I         127 29.71         4.5 0.18            132            148 260 
 SPBC HZ EP        127  6.22                             129    0.38 9  162 220 
 SPBC HN ES        127 27.48                             129   -0.53 9  162 220 
 SPBC HZ I         127 33.39         4.7 0.18            130            162 220 
 ZAR  HN ES        127 35.90                             122    0.41 8  205 293 
 ZAR  HN I         127 43.70         9.7 0.30            123            205 293 
                                                                                
