 2012  425 0402  8.2 L   6.490 -73.583106.0  RSN  7 0.6 1.8LRSN                1
 GAP= 94        1.42       7.4     6.9 13.4  0.1114E+02  0.4509E+02  0.1966E+02E
 Epicentro: SANTA HELENA DEL OPON - SANTANDER                                  3
 ACTION:UPD 12-07-05 11:55 OP:tino STATUS:               ID:20120425040208 L   I
 2012-04-25-0400-00M.COL___186                                                 6
 STAT SP IPHASW D HRMM SECON CODA AMPLIT PERI AZIMU VELO AIN AR TRES W  DIS CAZ7
 BAR2 SZ EP        4 2 23.90                             155    -0.110   46  76 
 BAR2 SZ ES   1    4 2 36.81                             155     0.5 7   46  76 
 BAR2 SZ I         4 2 37.46        92.3 0.47                            46  76 
 BRR  HZ EP        4 2 24.67                             144    -0.510   70 348 
 BRR  HZ I         4 2 32.85        13.2 0.13                            70 348 
 BRR  HN ES   1    4 2 38.17                             144    -0.2 7   70 348 
 RUS  HZ EP   1    4 2 27.39                             138     0.3 7   86 140 
 RUS  HN ES   1    4 2 42.06                             138     0.2 7   86 140 
 RUS  HZ I         4 2 44.01         6.7 0.35                            86 140 
 PTB  HZ IP     C  4 2 26.74                             134    -0.610   97 273 
 PTB  HN ES   1    4 2 41.74                             134    -0.5 7   97 273 
 PTB  HZ I         4 2 45.21         6.6 0.15                            97 273 
 NOR  SZ EP   1    4 2 34.62                             116    -0.7 7  175 234 
 NOR  SN ES   1    4 2 57.22                             116     0.8 7  175 234 
 ZAR  HZ EP   1    4 2 36.60                             116     0.9 7  179 308 
 ZAR  HE ES   1    4 2 58.27                             116     1.2 7  179 308 
 ZAR  HZ I         4 3  0.44        15.1 0.54                           179 308 
 HEL  HZ EP   1    4 2 40.53                             111     0.1 6  218 261 
 HEL  HZ I         4 3 12.17         4.8 0.25                           218 261 
                                                                                
