 2014 1025 0518 39.2 L   6.795 -73.164146.6  RSN  5 0.4 1.6LRSN                1
 GAP=134        1.03       5.6     5.3  7.5 -0.2788E+01  0.4780E+01  0.1915E+01E
 Epicentro: LOS SANTOS - SANTANDER                                             3
 ACTION:UPD 14-11-29 23:56 OP:nd   STATUS:               ID:20141025051839 L   I
 OLDACT:UP  14-10-28 16:20 OP:cam  STATUS:               ID:20141025051813     3
 OLDACT:UP  14-10-28 16:20 OP:cam  STATUS:               ID:20141025051813     3
 OLDACT:UP  14-10-28 16:20 OP:cam  STATUS:               ID:20141025051813     3
 OLDACT:UP  14-10-28 16:20 OP:cam  STATUS:               ID:20141025051813     3
 OLDACT:REG 14-10-28 13:38 OP:cam  STATUS:               ID:20141025051813     3
 2014-10-25-0518-13M.COL___283                                                 6
 STAT SP IPHASW D HRMM SECON CODA AMPLIT PERI AZIMU VELO AIN AR TRES W  DIS CAZ7
 BAR2 SZ EP        518 58.91                             171   -0.0210 22.5 185 
 BAR2 SZ ES        519 14.23                             171   -0.0810 22.5 185 
 BAR2 SZ I         519 15.02         7.5 0.24            173           22.5 185 
 BRR  HZ EP        519  0.74                             153    0.3710 69.6 300 
 BRR  HN ES        519 17.50                             153    0.6310 69.6 300 
 BRR  HN I         519 21.59        11.1 0.18            153           69.6 300 
 PAM  SZ EP        519  1.89                             150    0.2710 79.1  40 
 PAM  SN ES        519 18.49                             150   -0.6110 79.1  40 
 PAM  SZ I         519 20.95         7.3 0.52            152           79.1  40 
 RUS  HZ EP        519  2.85                             144   -0.1710  100 175 
 RUS  HN ES        519 21.89                             144    0.2910  100 175 
 RUS  HZ I         519 22.69         3.2 0.30            147            100 175 
 PTB  HZ EP        519  5.94                             133   -0.12 9  146 259 
 PTB  HN ES        519 26.36                             133   -0.64 9  146 259 
 PTB  HN I         519 28.24         4.7 0.30            134            146 259 
                                                                                
