 2016  425 0419 12.2 L   6.802 -73.159143.5  RSN  5 0.2 1.3LRSN                1
 GAP=142        0.56       3.1     3.2  4.3 -0.4535E+01  0.4077E+01 -0.7263E+00E
 Epicentro: LOS SANTOS - SANTANDER                                             3
 ACTION:UPD 16-05-05 14:24 OP:rebc STATUS:               ID:20160425041912 L   I
 OLDACT:REG 16-04-25 12:58 OP:cara STATUS:               ID:20160425041746     3
 2016-04-25-0417-46M.COL___270                                                 6
 STAT SP IPHASW D HRMM SECON CODA AMPLIT PERI AZIMU VELO AIN AR TRES W  DIS CAZ7
 BAR2 EZ IP        419 31.57                             170    0.0110 23.4 186 
 BAR2 EZ ES        419 46.58                             170   -0.0810 23.4 186 
 BAR2 EZ I         419 49.59         4.7 0.56            169           23.4 186 
 PAM  EZ IP        419 34.36                             150    0.1310 78.2  41 
 PAM  EN ES        419 51.31                             150   -0.0910 78.2  41 
 PAM  EZ I         419 52.63         3.5 0.32            155           78.2  41 
 RUS  HZ IP        419 36.00                             143    0.2410  101 175 
 RUS  HN ES        419 54.14                             143    0.0010  101 175 
 RUS  HZ I         419 55.09         1.5 0.28            145            101 175 
 PTB  HZ EP        419 38.43                             132   -0.43 9  146 259 
 PTB  HE ES        419 60.00                             132    0.36 9  146 259 
 PTB  HZ I         420  2.58         3.1 0.14            133            146 259 
 SPBC HZ EP        419 40.46                             129    0.00 9  162 219 
 SPBC HN ES        420  2.32                             129   -0.18 9  162 219 
 SPBC HZ I         420  8.79         3.9 0.24            130            162 219 
                                                                                
