 2014  925 0731 45.5 L   7.439 -73.240129.0  RSN  6 0.4 1.4LRSN                1
 GAP=132        1.10       5.2     5.7  9.6 -0.2923E+01  0.2451E+02 -0.1691E+02E
 Epicentro: EL PLAYON - SANTANDER                                              3
 ACTION:UPD 14-10-03 23:08 OP:nd   STATUS:               ID:20140925073145 L   I
 OLDACT:UP  14-09-25 16:57 OP:cam  STATUS:               ID:20140925073000     3
 OLDACT:REG 14-09-25 13:34 OP:cam  STATUS:               ID:20140925073000     3
 2014-09-25-0730-00M.COL___252                                                 6
 STAT SP IPHASW D HRMM SECON CODA AMPLIT PERI AZIMU VELO AIN AR TRES W  DIS CAZ7
 PAM  SZ EP        732  5.05                             154    0.0610 60.6 100 
 PAM  SE ES        732 20.19                             154    0.0310 60.6 100 
 PAM  SZ I         732 22.73         3.7 0.30            159           60.6 100 
 BRR  HZ EP   1    732  4.53                             152    0.08 7 63.7 235 
 BRR  HN ES        732 19.94                             152    0.7310 63.7 235 
 BRR  HN I         732 21.11         9.2 0.18            153           63.7 235 
 BAR2 SZ ES        732 22.92                             142   -0.4710 93.8 176 
 BAR2 SZ I         732 24.13        14.4 0.14            146           93.8 176 
 PTB  HZ EP        732 13.04                             124   -0.07 9  167 234 
 PTB  HN ES        732 34.06                             124   -0.56 9  167 234 
 PTB  HZ I         732 37.47         2.2 0.42            126            167 234 
 SML  HZ EP   1    732 14.11                             123    0.09 7  176 329 
 SML  HN ES        732 35.64                             123   -0.59 9  176 329 
 SML  HZ I         732 38.63         3.1 0.10            124            176 329 
 ZAR  HZ EP        732 14.98                             122    0.70 9  179 272 
 ZAR  HN ES   4    732 38.36                             122    1.66 0  179 272 
 ZAR  HZ I         732 40.97         2.1 0.16            124            179 272 
                                                                                
