 2012  125 0516  5.8 L   6.795 -73.060150.8  RSN  4 0.2 1.6LRSN                1
 GAP=207        0.39       6.4     9.7  6.7  0.4429E+02 -0.3635E+02 -0.2077E+02E
 Epicentro: LOS SANTOS - SANTANDER                                             3
 ACTION:UP  12-02-03 08:20 OP:REBC STATUS:               ID:20120125051605 L   I
 2012-01-25-0510-00M.COL___188                                                 6
 STAT SP IPHASW D HRMM SECON CODA AMPLIT PERI AZIMU VELO SNR AR TRES W  DIS CAZ7
 BAR2 SZ EP   1    516 25.86                             170    -0.2 7   26 211 
 BAR2 SZ I         516 41.17         7.3 0.57                            26 211 
 BAR2 SZ ES   2    516 42.13                             170     0.2 5   26 211 
 GIR2 SZ EP        516 26.16                             166     0.010   35 335 
 BRR  HZ EP        516 28.02                             151     0.010   80 296 
 BRR  HZ I         516 29.55         7.7 0.11                            80 296 
 BRR  HN ES   1    516 45.24                             151     0.0 7   80 296 
 RUS  HZ EP   2    516 30.27                             145     0.3 5  100 181 
 RUS  HN ES   2    516 48.71                             145    -0.1 5  100 181 
                                                                                
