 2016 1025 0222 59.5 L   6.782 -73.151144.7  RSN  7 0.2 1.6LRSN                1
 GAP=137        0.61       2.5     2.9  4.5 -0.1875E+01  0.1015E+01  0.3775E+01E
 Epicentro: LOS SANTOS - SANTANDER                                             3
 ACTION:UPD 16-11-09 19:22 OP:rebc STATUS:               ID:20161025022259 L   I
 OLDACT:REG 16-10-25 12:56 OP:cara STATUS:               ID:20161025021745     3
 2016-10-25-0218-00M.COL___358                                                 6
 STAT SP IPHASW D HRMM SECON CODA AMPLIT PERI AZIMU VELO AIN AR TRES W  DIS CAZ7
 BRR  HZ EP        223 20.82                             152    0.3010 71.6 300 
 BRR  HN ES        223 37.22                             152    0.2710 71.6 300 
 PAM  EZ EP        223 21.75                             150    0.0710 79.3  39 
 PAM  HN ES        223 38.70                             150   -0.3210 79.3  39 
 PAM  EZ I         223 41.32         3.9 0.46            153           79.3  39 
 RUS  HZ EP        223 22.91                             144   -0.0610 98.6 176 
 RUS  HE ES        223 41.31                             144    0.0110 98.6 176 
 RUS  HZ I         223 42.71         5.4 0.40            145           98.6 176 
 PTB  HZ EP        223 25.95                             132   -0.30 9  147 260 
 PTB  HE ES        223 46.87                             132   -0.28 9  147 260 
 PTB  HZ I         223 49.18         5.1 0.12            134            147 260 
 SPBC HZ EP        223 27.99                             129    0.30 9  161 219 
 SPBC HE ES        223 49.95                             129    0.24 9  161 219 
 SPBC HZ I         223 54.10         7.2 0.34            130            161 219 
 CHI  HZ EP        223 36.88                             117    0.01 8  247 195 
 CHI  HN EP        223 37.08                             117            247 195 
 CHI  HE ES        224  5.97                             117   -0.08 8  247 195 
 CHI  HZ I         224  9.97         2.9 0.36            119            247 195 
 GUY2CHE ES        224 16.32                             112   -0.34 7  300 235 
 GUY2CHZ I         224 24.09         2.5 0.40                           300 235 
 SJC  HE ES   4    224 34.11                             105   -4.47 0  411 327 
                                                                                
