 2016  125 0927  6.4 L   6.751 -73.217155.5  RSN  5 0.2 1.1LRSN                1
 GAP=130        0.46       2.4     2.8  6.0  0.7345E+00 -0.2399E+01 -0.9043E+01E
 Epicentro: ZAPATOCA - SANTANDER                                               3
 ACTION:UPD 16-03-09 23:28 OP:cam  STATUS:               ID:20160125092706 L   I
 OLDACT:UP  16-01-25 19:34 OP:ak   STATUS:               ID:20160125091742     3
 OLDACT:REG 16-01-25 15:10 OP:cara STATUS:               ID:20160125091742     3
 2016-01-25-0917-42M.COL___319                                                 6
 STAT SP IPHASW D HRMM SECON CODA AMPLIT PERI AZIMU VELO AIN AR TRES W  DIS CAZ7
 PAM  EZ EP        927 30.23                             150    0.0110 86.6  41 
 RUS  HZ EP        927 31.08                             147    0.2510 96.1 171 
 RUS  HE ES        927 49.72                             147   -0.1610 96.1 171 
 RUS  HZ I         927 51.22         1.7 0.40            155           96.1 171 
 PTB  HZ EP        927 33.11                             136   -0.33 9  139 260 
 PTB  HN ES        927 54.65                             136    0.13 9  139 260 
 PTB  HZ I         928  0.65         0.7 0.24            139            139 260 
 SPBC HZ EP   2    927 34.92                             133    0.07 5  154 218 
 SPBC HN ES        927 57.08                             133    0.05 9  154 218 
 SPBC HZ I         928  0.91         2.7 0.24            138            154 218 
 SML  HZ EP        927 43.79                             119   -0.01 8  246 337 
 SML  HN ES        928 12.99                             119    0.04 8  246 337 
 SML  HZ I         928 21.49         1.7 0.08            122            246 337 
                                                                                
