 2013  725 0713 51.8 L   6.853 -73.472118.0  RSN  5 0.3 1.4LRSN                1
 GAP=120        0.76       6.5     4.8  6.2  0.1378E+01  0.5557E+01 -0.7100E+01E
 Epicentro: SAN VICENTE DE CHUCURI - SANTANDER                                 3
 ACTION:UPD 13-08-12 10:39 OP:ep   STATUS:               ID:20130725071351 L   I
 OLDACT:UP  13-07-25 12:15 OP:cam  STATUS:               ID:20130725070959     3
 OLDACT:REG 13-07-25 10:17 OP:cam  STATUS:               ID:20130725070959     3
 2013-07-25-0709-59M.COL___267                                                 6
 STAT SP IPHASW D HRMM SECON CODA AMPLIT PERI AZIMU VELO AIN AR TRES W  DIS CAZ7
 BRR  HZ EP        714  8.50                             161    0.2310 38.6 317 
 BRR  HN ES        714 21.29                             161    0.1810 38.6 317 
 BRR  HZ I         714 21.82         6.4 0.12            162           38.6 317 
 GIR2 SZ EP        714  8.47                             160   -0.0510 39.6  51 
 BAR2 SZ EP        714  9.23                             159    0.4110 43.1 132 
 BAR2 SZ ES        714 21.67                             159   -0.4010 43.1 132 
 BAR2 SZ I         714 23.31         7.2 0.17            159           43.1 132 
 PTB  HZ EP        714 13.50                             133    0.0110  114 252 
 PTB  HN ES   1    714 30.16                             133   -0.23 7  114 252 
 SML  HZ EP   1    714 24.30                             113   -0.67 6  225 343 
                                                                                
