 2016  725 0104 34.8 L   6.797 -73.136145.8  RSN 15 0.3 2.3LRSN                1
 GAP=138        0.85       2.7     3.3  4.4 -0.7616E+00  0.4261E+01  0.2961E+01E
 Epicentro: LOS SANTOS - SANTANDER                                             3
 ACTION:UPD 17-03-29 16:54 OP:lp   STATUS:               ID:20160725010434 L   I
 OLDACT:UP  16-07-25 15:55 OP:edw  STATUS:               ID:20160725005759     3
 OLDACT:REG 16-07-25 13:52 OP:edw  STATUS:               ID:20160725005759     3
 2016-07-25-0057-59S.COL___337                                                 6
 STAT SP IPHASW D HRMM SECON CODA AMPLIT PERI AZIMU VELO AIN AR TRES W  DIS CAZ7
 BAR2 EZ IP     D  1 4 54.31                             171   -0.1510 23.3 193 
 BAR2 EZ ES        1 5  9.26                             171   -0.5210 23.3 193 
 BRR  HZ EP        1 4 56.15                             152    0.1110 72.3 298 
 BRR  HN ES        1 5 13.09                             152    0.5010 72.3 298 
 BRR  HZ I         1 5 17.11        39.2 0.48            151           72.3 298 
 PAM  EZ EP        1 4 57.33                             151    0.3110 76.9  39 
 PAM  EN ES        1 5 14.48                             151    0.1510 76.9  39 
 PAM  EZ I         1 5 16.50        56.8 0.52            157           76.9  39 
 RUS  HZ EP        1 4 58.39                             144   -0.1710  100 177 
 RUS  HN ES        1 5 17.08                             144    0.0110  100 177 
 SPBC HZ EP        1 5  3.27                             129   -0.10 9  164 219 
 SPBC HN ES        1 5 25.46                             129   -0.18 9  164 219 
 SPBC HZ I         1 5 31.16        24.8 0.10            129            164 219 
 ZAR  HZ EP        1 5  6.75                             122   -0.64 9  205 292 
 ZAR  HN ES        1 5 32.74                             122   -0.05 9  205 292 
 ZAR  HZ I         1 5 38.41        23.2 0.30            123            205 292 
 NOR  HZ EP        1 5 10.75                             118    0.12 8  235 235 
 NOR  HE ES        1 5 38.90                             118    0.34 8  235 235 
 NOR  HZ I         1 5 44.18         8.9 0.26            119            235 235 
 CHI  HZ EP        1 5 12.55                             117    0.02 8  249 195 
 CHI  HN ES        1 5 41.84                             117   -0.10 8  249 195 
 CHI  HZ I         1 5 45.35        10.5 0.42            119            249 195 
 ROSC BZ EP   9    1 5 15.01                             117    2.03 0  253 211 
 ROSC BN ES        1 5 44.80                             116    0.03 8  253 211 
 ROSC BZ I         1 5 48.15        21.7 0.35            118            253 211 
 HEL  HZ EP        1 5 14.84                             115   -0.31 8  273 256 
 HEL  HN ES        1 5 46.55                             115   -0.05 8  273 256 
 HEL  HZ I         1 5 55.19         4.2 0.20            116            273 256 
 GUY2CHZ EP        1 5 19.20                             112    0.68 7  302 235 
 GUY2CHN ES        1 5 52.71                             112    0.11 7  302 235 
 GUY2CHZ I         1 6  0.22         5.0 0.48                           302 235 
 VIL  EZ EP        1 5 18.19                             112   -0.05 7  303 192 
 VIL  EE ES        1 5 52.39                             112    0.29 7  303 192 
 VIL  EZ I         1 5 57.75        14.1 0.38            114            303 192 
 LL6C HZ EP   4    1 5 19.53                             110   -1.04 0  325 357 
 LL6C HE ES   4    1 5 53.67                             110   -2.58 0  325 357 
 PRA  HZ EP        1 5 28.27                             106   -0.11 6  392 210 
 PRA  HN ES        1 6 10.04                             106   -0.11 6  392 210 
 PRA  HZ I         1 6 15.11         8.9 0.38            108            392 210 
 SJC  HZ EP   9    1 5 28.58                             106   -1.91 0  410 327 
 SJC  HN ES   2    1 6  8.26                             106   -3.73 3  410 327 
 SJC  HZ I         1 6 13.24         2.8 0.26            107            410 327 
 CRJC HZ EP   9    1 5 34.64                             103   -2.71 0  468   3 
 CRJC HN ES   2    1 6 23.27                                   -0.14 2  468   3 
                                                                                
