 2012 1125 0213 46.4 L   5.971 -74.174 65.2  RSN  4 0.4 1.3LRSN                1
 GAP=120        0.84       5.8     4.3 16.8  0.1407E+02  0.2596E+02  0.6654E+02E
 Epicentro: LA BELLEZA - SANTANDER                                             3
 ACTION:UPD 12-12-05 15:36 OP:}ep  STATUS:               ID:20121125021346 L   I
 2012-11-25-0210-00M.COL___233                                                 6
 STAT SP IPHASW D HRMM SECON CODA AMPLIT PERI AZIMU VELO AIN AR TRES W  DIS CAZ7
 PTB  HZ EP        213 59.80                             128    0.0910 70.2 334 
 PTB  HN ES   1    214 10.43                             128    0.32 7 70.2 334 
 PTB  HZ I         214 15.05         7.8 0.20                          70.2 334 
 RUS  HZ EP   1    214  6.10                             112    0.27 7  121  94 
 RUS  HN ES   1    214 20.26                             112   -0.74 7  121  94 
 RUS  HN I         214 23.04         7.1 0.49                           121  94 
 HEL  HZ EP        214  9.01                             107   -0.27 9  152 279 
 HEL  HZ I         214  9.46         5.0 0.26                           152 279 
 HEL  HN ES   2    214 26.35                             107   -0.79 5  152 279 
 CHI  HZ EP        214 10.31                             106    0.47 9  156 162 
 CHI  HZ I         214 11.35         3.0 0.09                           156 162 
 CHI  HE ES   1    214 28.10                             106   -0.04 7  156 162 
                                                                                
