 2012  225 0553 11.9 L   6.756 -73.148156.0  RSN  5 0.4 1.1LRSN                1
 GAP=184        0.80       7.1     7.6  9.0  0.1053E+02  0.7993E+01  0.7368E+01E
 ACTION:UP  12-03-07 16:34 OP:epov STATUS:               ID:20120225055311 L   I
 2012-02-25-0550-00M.COL___192                                                 6
 STAT SP IPHASW D HRMM SECON CODA AMPLIT PERI AZIMU VELO AIN AR TRES W  DIS CAZ7
 BAR2 SZ EP   2    553 32.90                             173    0.18 5 18.5 192 
 GIR2 SZ EP   1    553 32.28                             166   -0.68 7 36.0 352 
 GIR2 SZ ES   1    553 49.15                             166   -0.20 7 36.0 352 
 BRR  HZ EP   1    553 34.54                             154    0.22 7 73.4 302 
 BRR  HN ES   1    553 52.40                             154    0.62 7 73.4 302 
 BRR  HZ I         553 56.00         2.7 0.15                          73.4 302 
 RUS  HZ EP   2    553 37.07                             147    0.69 5 95.7 176 
 RUS  HE ES   1    553 55.42                             147   -0.03 7 95.7 176 
 RUS  HZ I         553 57.16         1.5 0.41                          95.7 176 
 PTB  HZ EP   1    553 39.75                             134    0.09 7  147 261 
 PTB  HN ES   1    554  0.80                             134   -0.48 7  147 261 
                                                                                
