 2016  825 0711  2.6 L   6.889 -73.148146.7  RSN 16 0.5 2.1LRSN                1
 GAP=131        1.10       3.1     3.8  5.6 -0.2033E+01  0.5646E+01  0.2292E+01E
 Epicentro: BETULIA - SANTANDER                                                3
 ACTION:UPD 16-10-29 15:39 OP:rebc STATUS:               ID:20160825071102 L   I
 OLDACT:REG 16-08-25 12:42 OP:ak   STATUS:               ID:20160825070640     3
 2016-08-25-0707-00M.COL___372                                                 6
 STAT SP IPHASW D HRMM SECON CODA AMPLIT PERI AZIMU VELO AIN AR TRES W  DIS CAZ7
 BAR2 EZ EP        711 22.61                             167    0.0510 33.0 187 
 BAR2 EZ ES        711 38.32                             167    0.1810 33.0 187 
 BAR2 EZ I         711 41.44        25.0 0.36                          33.0 187 
 BRR  HZ IP     C  711 23.87                             154    0.2710 66.8 291 
 BRR  HN ES        711 40.75                             154    0.7710 66.8 291 
 BRR  HZ I         711 44.72        16.8 0.06                          66.8 291 
 PAM  EZ EP        711 24.82                             153    0.3210 70.3  45 
 PAM  EN ES        711 41.61                             153    0.0210 70.3  45 
 PAM  EZ I         711 43.89        11.9 0.46                          70.3  45 
 RUS  HZ EP        711 27.07                             141   -0.0910  110 176 
 RUS  HN ES        711 46.17                             141   -0.1510  110 176 
 OCA  HZ EP        711 29.70                             132   -0.37 9  150 353 
 PTB  HN ES        711 49.63                             132   -1.40 9  150 255 
 PTB  HZ I         711 55.15        14.2 0.27                           150 255 
 OCA  HZ I         711 55.59        22.5 0.18                           150 353 
 PTB  HZ EP        711 29.00                             132   -0.81 9  150 255 
 OCA  HN ES        711 50.98                             132   -0.52 9  150 353 
 SPBC HZ EP        711 31.91                             128    0.03 9  171 217 
 SPBC HN ES        711 54.64                             128   -0.09 9  171 217 
 SPBC HZ I         711 59.28        12.1 0.16                           171 217 
 ZAR  HZ EP        711 35.10                             123    0.39 9  200 290 
 ZAR  HE ES        712  0.17                             123    0.41 9  200 290 
 ZAR  HZ I         712  5.72        16.6 0.26                           200 290 
 NOR  HZ EP   2    711 39.14                             118    0.17 4  240 233 
 NOR  HE ES        712  7.04                             118   -0.31 8  240 233 
 NOR  HZ I         712 10.85         7.7 0.14                           240 233 
 CHI  HZ EP        711 41.17                             116   -0.20 8  258 195 
 CHI  HN ES        712 12.19                             116    0.58 8  258 195 
 ROSC BZ EP   4    711 43.14                             116    1.47 0  261 210 
 ROSC BN ES   4    712 15.43                             116    3.28 0  261 210 
 ROSC BZ I         712 23.62         8.1 0.40                           261 210 
 HEL  HZ EP   2    711 43.79                             115    0.69 4  274 254 
 HEL  HE ES        712 14.96                             115    0.26 8  274 254 
 HEL  HZ I         712 20.48         3.3 0.35                           274 254 
 URE  HZ EP   2    711 43.28                             114   -0.00 4  280 290 
 URE  HE ES   4    712 16.54                             114    1.52 0  280 290 
 URE  HZ I         712 25.18         7.5 0.14                           280 290 
 GUY2CHZ EP   9    711 48.78                             112    1.91 0  307 233 
 GUY2CHN ES        712 23.10                                   -0.21 7  307 233 
 GUY2CHZ I         712 28.53         5.1 0.38                           307 233 
 ELA  HN ES   4    712 31.72                             110    4.40 0  335 228 
 CBOC HZ EP        711 50.37                             110    0.50 7  336 250 
 CBOC HE ES        712 27.42                             110    0.67 7  336 250 
 PRA  HZ EP        711 57.18                             106    0.05 6  400 209 
 PRA  HN ES        712 39.42                             106   -0.25 6  400 209 
 PRA  HZ I         712 47.97         6.8 0.56                           400 209 
                                                                                
