 2015 1225 0805 23.5 L   6.653 -73.133142.0  RSN  4 0.4 1.1LRSN                1
 GAP=271        0.89      10.8     6.9 11.3  0.1555E+02 -0.3730E+01  0.3656E+02E
 Epicentro: VILLANUEVA - SANTANDER                                             3
 ACTION:UPD 16-02-04 15:07 OP:cam  STATUS:               ID:20151225080523 L   I
 OLDACT:DUP 15-12-25 16:43 OP:dnl  STATUS:               ID:20151225075752d    3
 2015-12-25-0757-51M.COL___334                                                 6
 STAT SP IPHASW D HRMM SECON CODA AMPLIT PERI AZIMU VELO AIN AR TRES W  DIS CAZ7
 BAR2 EZ EP        8 5 42.94                             176    0.5210 8.63 219 
 BAR2 EZ I         8 6  1.75         1.6 0.16            165           8.63 219 
 BRR  HZ EP        8 5 44.40                             149   -0.4110 81.4 308 
 BRR  HN ES        8 6  1.29                             149   -0.1810 81.4 308 
 BRR  HZ I         8 6  4.69         2.1 0.14            160           81.4 308 
 PTB  HZ EP        8 5 49.66                             131   -0.38 9  147 265 
 PTB  HN ES        8 6 10.79                             131    0.02 9  147 265 
 PTB  HZ I         8 6 14.32         1.6 0.14            137            147 265 
 ZAR  HZ EP   2    8 5 56.78                             121    0.29 4  212 296 
 ZAR  HE ES        8 6 22.73                             121    0.48 8  212 296 
 ZAR  HZ I         8 6 26.96         2.1 0.21            125            212 296 
                                                                                
