 2015 1025 0638 13.2 L   6.785 -73.145153.0  RSN  8 0.5 1.6LRSN                1
 GAP=137        1.17       4.4     6.2  7.2  0.2307E+01  0.1120E+02 -0.1604E+01E
 Epicentro: LOS SANTOS - SANTANDER                                             3
 ACTION:UPD 15-12-22 20:42 OP:cam  STATUS:               ID:20151025063813 L   I
 OLDACT:UP  15-10-25 17:07 OP:mh   STATUS:               ID:20151025063745     3
 OLDACT:UP  15-10-25 17:07 OP:mh   STATUS:               ID:20151025063745     3
 OLDACT:UP  15-10-25 17:05 OP:mh   STATUS:               ID:20151025063745     3
 OLDACT:UP  15-10-25 17:03 OP:mh   STATUS:               ID:20151025063745     3
 OLDACT:REG 15-10-25 12:38 OP:mh   STATUS:               ID:20151025063745     3
 2015-10-25-0637-45M.COL___313                                                 6
 STAT SP IPHASW D HRMM SECON CODA AMPLIT PERI AZIMU VELO AIN AR TRES W  DIS CAZ7
 BAR2 EZ EP        638 33.93                             172    0.2710 21.7 191 
 BAR2 EZ ES        638 49.34                             172   -0.2810 21.7 191 
 BAR2 EZ I         638 50.19         4.9 0.40            170           21.7 191 
 BRR  HZ EP        638 35.83                             153    0.6610 72.1 300 
 BRR  HN ES        638 52.95                             153    0.6410 72.1 300 
 BRR  HZ I         638 57.81         5.0 0.16            150           72.1 300 
 PAM  EZ EP        638 36.63                             152    0.3910 78.6  39 
 PAM  EN ES        638 54.20                             152   -0.0310 78.6  39 
 PAM  EZ I         638 56.17         5.9 0.60            156           78.6  39 
 RUS  HZ EP        638 36.72                             146   -0.8210 98.9 176 
 RUS  HN ES   1    638 56.14                             146   -0.39 7 98.9 176 
 RUS  HZ I         638 58.82         4.0 0.36            149           98.9 176 
 SPBC HZ EP        638 42.62                             131    0.48 9  162 219 
 SPBC HN ES   2    639  4.56                             131   -0.16 5  162 219 
 SPBC HZ I         639 10.37         6.4 0.10            132            162 219 
 OCA  HZ EP   1    638 42.43                             131    0.21 7  162 353 
 OCA  HN ES        639  4.64                             131   -0.22 9  162 353 
 OCA  HZ I         639  9.40        10.9 0.28            132            162 353 
 ZAR  HZ EP        638 46.49                             124    0.30 9  205 293 
 ZAR  HN ES        639 11.28                             124   -0.64 9  205 293 
 ZAR  HZ I         639 18.49         3.4 0.44            124            205 293 
 SML  HZ EP        638 49.73                             119   -0.66 8  245 335 
 SML  HE ES   1    639 18.74                             119   -0.67 6  245 335 
 SML  HZ I         639 26.31         4.6 0.10            120            245 335 
                                                                                
