 2013  625 0521 16.3 L   6.877 -72.955139.9  RSN  4 0.3 1.2LRSN                1
 GAP=237        0.68       8.5    16.6 10.8  0.1099E+03 -0.1114E+03 -0.5432E+02E
 Epicentro: GUACA - SANTANDER                                                  3
 ACTION:UPD 14-01-08 09:56 OP:ep   STATUS:               ID:20130625052116 L   I
 OLDACT:REG 13-06-25 06:40 OP:jn   STATUS:               ID:20130625051959     3
 2013-06-25-0519-59M.COL___267                                                 6
 STAT SP IPHASW D HRMM SECON CODA AMPLIT PERI AZIMU VELO AIN AR TRES W  DIS CAZ7
 GIR2 SZ EP   1    521 35.83                             165    0.42 8 34.5 310 
 BAR2 SZ EP   1    521 35.80                             163    0.06 8 40.3 219 
 BAR2 SZ ES   1    521 50.39                             163   -0.49 8 40.3 219 
 BAR2 SZ I         521 52.41         3.6 0.28            159           40.3 219 
 BRR  HZ EP   1    521 37.51                             146   -0.37 8 87.4 287 
 BRR  HN ES   1    521 54.92                             146    0.24 8 87.4 287 
 BRR  HZ I         521 57.70         3.0 0.42            143           87.4 287 
 RUS  HZ EP   1    521 39.99                             140   -0.23 7  110 187 
 RUS  HN ES        521 59.06                             140    0.2110  110 187 
 RUS  HZ I         521 59.93         1.8 0.24            140            110 187 
                                                                                
