 2015  325 0554  1.8 L   6.842 -73.337125.6  RSN  7 0.4 1.1LRSN                1
 GAP=107        0.93       4.2     4.0  7.7  0.1322E+01  0.4630E+01  0.4434E+01E
 Epicentro: ZAPATOCA - SANTANDER                                               3
 ACTION:UPD 15-04-30 16:29 OP:nd   STATUS:               ID:20150325055401 L   I
 OLDACT:REG 15-03-25 13:06 OP:fm   STATUS:               ID:20150325054744     3
 2015-03-25-0547-44M.COL___278                                                 6
 STAT SP IPHASW D HRMM SECON CODA AMPLIT PERI AZIMU VELO AIN AR TRES W  DIS CAZ7
 BAR2 EZ EP        554 19.40                             165    0.1110 32.5 148 
 BAR2 EZ ES   1    554 32.46                             165   -0.45 7 32.5 148 
 BAR2 EZ I         554 33.65         8.2 0.20            167           32.5 148 
 BRR  HZ EP        554 19.78                             157    0.1010 50.7 305 
 BRR  HN ES        554 33.91                             157    0.3010 50.7 305 
 BRR  HZ I         554 35.81         2.4 0.14            156           50.7 305 
 PAM  SZ EP   1    554 22.84                             143    0.06 7 89.4  52 
 PAM  SN ES   1    554 38.92                             143   -0.22 7 89.4  52 
 PAM  SZ I         554 42.47         2.4 0.36            145           89.4  52 
 RUS  HZ EP        554 24.39                             137    0.0810  109 165 
 RUS  HN ES   1    554 42.10                             137    0.25 7  109 165 
 RUS  HZ I         554 43.67         1.0 0.38            140            109 165 
 PTB  HZ EP        554 24.69                             131   -0.6810  128 255 
 PTB  HE ES   1    554 42.87                             131   -0.87 7  128 255 
 PTB  HZ I         554 46.44         1.7 0.26            133            128 255 
 SPBC HN ES        554 48.83                             126    0.41 9  155 212 
 SPBC HZ I         554 50.71         2.5 0.12            128            155 212 
 ZAR  HN ES        554 53.76                             121    0.42 9  183 293 
 ZAR  HZ I         554 57.82         1.6 0.54            122            183 293 
                                                                                
