 2011  125 0503 33.3 L   6.819 -73.225142.5  RSN  5 0.5 2.2LRSN                1
 GAP=173        0.97       4.8    15.4 10.3  0.1366E+02  0.7384E+02 -0.6647E+01E
 Epicentro: ZAPATOCA - SANTANDER                                               3
 ACTION:UP  11-02-08 08:42 OP:pat  STATUS:               ID:20110125050333 L   I
 2011-01-25-0502-00S.COL___131                                                 6
 STAT SP IPHASW D HRMM SECON CODA AMPLIT PERI AZIMU VELO SNR AR TRES W  DIS CAZ7
 BAR2 SZ EP   1    5 3 52.86                             169     0.2 8   26 170 
 BAR2 SZ ES   1    5 4  7.58                             169    -0.1 8   26 170 
 BAR2 SZ I         5 4  9.03        66.8 0.48                            26 170 
 RUS  HZ EP        5 3 56.83                             142    -0.210  104 171 
 RUS  HN ES   1    5 4 14.88                             142    -0.6 7  104 171 
 RUS  HZ I         5 4 16.90        17.2 0.31                           104 171 
 OCA  SZ EP        5 4  1.13                             129     0.0 9  157 356 
 OCA  SZ ES   2    5 4 23.71                             129     0.9 5  157 356 
 OCA  SZ I         5 4 26.16        27.3 0.21                           157 356 
 CHI  HZ EP   1    5 4 11.13                             116     0.3 6  249 193 
 CHI  HZ I         5 4 12.44         4.7 0.45                           249 193 
 CHI  HE ES   1    5 4 40.87                             116     0.8 6  249 193 
 MON  HZ EP   1    5 4 20.19                             108    -1.0 5  345 309 
 MON  HE ES   2    5 4 58.75                             108     0.2 3  345 309 
                                                                                
