 2012 1025 0438 22.4 L   6.146 -73.673110.1  RSN  8 0.3 2.0LRSN                1
 GAP= 86        0.57       2.1     4.5  6.8 -0.5812E+00  0.1433E+02 -0.3674E+00E
 Epicentro: LA PAZ - SANTANDER                                                 3
 ACTION:UPD 12-11-22 17:05 OP:ep   STATUS:               ID:20121025043822 L   I
 2012-10-25-0430-00M.COL___234                                                 6
 STAT SP IPHASW D HRMM SECON CODA AMPLIT PERI AZIMU VELO AIN AR TRES W  DIS CAZ7
 RUS  HZ EP        438 40.45                             145   -0.0610 71.0 113 
 RUS  HN ES   1    438 54.68                             145    0.04 7 71.0 113 
 BAR2 SZ EP   1    438 40.32                             144    0.01 7 73.3  48 
 BRR  HZ IP     C  438 42.33                             132   -0.3510  106 358 
 BRR  HN ES   1    438 58.56                             132    0.06 7  106 358 
 BRR  HN I         438 59.66        25.9 0.16                           106 358 
 GIR2 SZ EP   1    438 43.55                             130   -0.20 7  116  27 
 CHI  HZ EP   1    438 49.74                             119    0.39 7  168 182 
 CHI  HN ES   2    439 10.40                             119    0.02 5  168 182 
 HEL  HE ES   2    439 17.70                             113    0.08 4  206 271 
 HEL  HE I         439 22.16         3.4 0.15                           206 271 
 OCA  HZ EP   1    438 56.05                             110   -0.41 6  235  10 
 OCA  HE ES        439 23.56                             110    0.53 8  235  10 
 OCA  HN I         439 31.30        19.2 0.20                           235  10 
 PRA  HZ EP   1    439  4.38                             104    0.35 5  301 207 
 PRA  HN ES   2    439 36.10                             104   -0.41 4  301 207 
 PRA  HN I         439 43.05         3.5 0.21                           301 207 
                                                                                
