 2010  325 0058 20.8 L   6.871 -72.956145.5  RSN  4 0.4 1.5LRSN                1
 GAP=260        0.67       5.9    14.4 11.0  0.3795E+02 -0.5931E+02  0.8747E+01E
 Epicentro: CEPITA - SANTANDER                                                 3
 ACTION:UP  10-08-24 09:55 OP:vdl  STATUS:               ID:20100325005820 L   I
 2010-03-25-0055-50S.COL___098                                                 6
 STAT SP IPHASW D HRMM SECON CODA AMPLIT PERI AZIMU VELO SNR AR TRES W  DIS CAZ7
 BRR  HZ EP        058 43.27                             147     0.310   88 287 
 BRR  HE ES   1    058 59.87                             147    -0.3 7   88 287 
 BRR  HZ I         059  3.75        13.4 0.29                            88 287 
 RUS  HZ EP   1    058 45.06                             141    -0.1 7  109 187 
 RUS  HN ES   2    059  4.10                             141    -0.1 5  109 187 
 RUS  HZ I         059  5.19         2.9 0.38                           109 187 
 CHI  HZ EP   2    058 59.30                             115    -0.7 4  262 199 
 CHI  HN ES   1    059 30.80                             115     0.2 6  262 199 
 CHI  HZ I         059 34.55         1.7 0.34                           262 199 
 PRA  HZ EP   2    059 15.54                             105    -0.8 3  409 212 
 PRA  HN ES   3    1 0  0.40                             105     0.7 1  409 212 
                                                                                
