 2012  125 0930 12.0 L   6.800 -73.114138.2  RSN  7 0.2 1.6LRSN                1
 GAP=141        0.44       2.0     4.0  3.7 -0.4668E+00  0.4218E+00  0.2050E+00E
 Epicentro: LOS SANTOS - SANTANDER                                             3
 ACTION:UP  12-02-03 08:20 OP:REBC STATUS:               ID:20120125093012 L   I
 2012-01-25-0930-00M.COL___187                                                 6
 STAT SP IPHASW D HRMM SECON CODA AMPLIT PERI AZIMU VELO SNR AR TRES W  DIS CAZ7
 BAR2 SZ EP        930 30.67                             170    -0.110   24 198 
 BAR2 SZ ES   1    930 45.28                             170    -0.1 7   24 198 
 BAR2 SZ I         930 46.92        13.9 0.22                            24 198 
 GIR2 SZ EP        930 30.77                             166     0.010   32 344 
 BRR  HZ EP        930 32.52                             150     0.010   74 297 
 BRR  HZ I         930 32.94        12.2 0.12                            74 297 
 BRR  HN ES   1    930 48.80                             150     0.3 7   74 297 
 PAM  SZ EP        930 33.60                             150     0.310   75  37 
 PAM  SN ES   1    930 49.85                             150     0.0 7   75  37 
 RUS  HZ EP   1    930 35.07                             142     0.1 7  100 178 
 RUS  HE ES   1    930 52.91                             142     0.0 7  100 178 
 RUS  HZ I         930 55.11         6.1 0.33                           100 178 
 OCA  SZ EP   1    930 39.77                             128     0.0 7  161 352 
 OCA  SZ ES   1    931  1.12                             128    -0.3 7  161 352 
 CHI  HZ EP   1    930 49.25                             115    -0.2 6  250 196 
 CHI  HN ES   2    931 18.52                             115    -0.1 4  250 196 
 CHI  HZ I         931 26.03         1.3 0.36                           250 196 
                                                                                
