 2017  925 0154 46.3 L   6.702 -73.127148.3  RSN  4 0.0 1.1LRSN                1
 GAP=232        0.31       3.5     3.9  3.3  0.1077E+02  0.6128E+00 -0.2269E+01E
 Epicentro: JORDAN - SANTANDER                                                 3
 ACTION:UPD 17-10-05 19:15 OP:rebc STATUS:               ID:20170925015446 L   I
 OLDACT:UP  17-09-25 14:30 OP:edw  STATUS:               ID:20170925014739     3
 OLDACT:REG 17-09-25 12:42 OP:edw  STATUS:               ID:20170925014739     3
 2017-09-25-0148-00M.COL___411                                                 6
 STAT SP IPHASW D HRMM SECON CODA AMPLIT PERI AZIMU VELO AIN AR TRES W  DIS CAZ7
 BAR2 EZ EP        155  6.01                             175   -0.0410 13.6 207 
 BAR2 EZ ES        155 21.54                             175    0.0510 13.6 207 
 BAR2 EZ I         155 22.21         3.1 0.20            172           13.6 207 
 BRR  HZ EP        155  8.17                             150    0.0410 78.7 305 
 BRR  HN ES        155 25.12                             150   -0.0610 78.7 305 
 RUS  HN ES        155 27.65                             147   -0.0110 89.6 177 
 RUS  HZ I         155 29.27         1.6 0.22            146           89.6 177 
 ZAR  HN ES        155 45.48                             122    0.02 8  210 295 
                                                                                
