 2012  325 0642  1.8 L   6.756 -73.080150.5  RSN 12 0.4 2.4LRSN                1
 GAP=147        0.66       3.4     4.3  5.2 -0.3065E+01  0.5665E+01  0.1610E+01E
 ACTION:UP  12-03-31 23:22 OP:EP   STATUS:               ID:20120325064201 L   I
 2012-03-25-0640-00M.COL___196                                                 6
 STAT SP IPHASW D HRMM SECON CODA AMPLIT PERI AZIMU VELO SNR AR TRES W  DIS CAZ7
 BAR2 SZ EP   1    642 21.82                             172    -0.1 7   21 212 
 BAR2 SZ ES   1    642 37.27                             172    -0.4 7   21 212 
 BAR2 SZ I         642 38.63        49.0 0.25                            21 212 
 PAM  SZ EP   1    642 24.59                             152     0.1 7   77  33 
 PAM  SN ES   1    642 42.14                             152     0.0 7   77  33 
 BRR  HZ IP     C  642 23.76                             150    -0.210   80 299 
 BRR  HN ES   1    642 41.81                             150     0.6 7   80 299 
 BRR  HZ I         642 44.27        39.7 0.21                            80 299 
 RUS  HZ EP   1    642 25.68                             146     0.0 7   95 180 
 RUS  HN ES   2    642 44.45                             146     0.2 5   95 180 
 RUS  HZ I         642 46.23        26.0 0.50                            95 180 
 PTB  HZ EP   2    642 28.70                             132    -1.0 5  154 261 
 PTB  HE ES   2    642 51.00                             132    -0.5 5  154 261 
 PTB  HZ I         642 57.42        21.8 0.29                           154 261 
 OCA  SZ EP   2    642 30.88                             130    -0.1 5  166 351 
 OCA  SZ ES   2    642 54.64                             130     0.8 5  166 351 
 ZAR  HZ EP   2    642 35.48                             122     0.1 4  213 293 
 ZAR  HN ES   2    643  1.38                             122    -0.3 4  213 293 
 ZAR  HZ I         643  7.54        32.8 0.29                           213 293 
 NOR  SZ EP   2    642 37.93                             119    -0.2 4  238 236 
 NOR  SN ES   2    643  6.70                             119     0.2 4  238 236 
 CHI  HZ EP   2    642 39.57                             118     0.1 4  246 197 
 CHI  HN ES   2    643  9.15                             118     0.3 4  246 197 
 CHI  HZ I         643 15.14        12.8 0.57                           246 197 
 HEL  HZ EP   2    642 43.64                             115     0.8 4  278 257 
 HEL  HN ES   2    643 14.53                             115    -0.4 4  278 257 
 HEL  HZ I         643 20.82        12.8 0.46                           278 257 
 RREF HZ EP   1    642 48.89                             111     0.5 5  324 231 
 RREF HN ES   2    643 25.09                             111     0.3 3  324 231 
 RREF HZ I         643 33.40        15.5 0.33                           324 231 
 COD  HZ EP   2    642 50.79                             109    -0.2 3  354 354 
 COD  HN ES   2    643 28.79                             109    -0.6 3  354 354 
                                                                                
