 2017  725 0721 39.0 L   6.800 -73.108148.0  RSN  5 0.4 1.2LRSN                1
 GAP=263        0.52       6.5     5.7  7.6  0.2186E+02  0.1291E+02  0.1877E+02E
 Epicentro: LOS SANTOS - SANTANDER                                             3
 ACTION:UPD 17-08-30 15:36 OP:rebc STATUS:               ID:20170725072139 L   I
 OLDACT:UP  17-07-25 16:33 OP:and  STATUS:               ID:20170725071743d    3
 OLDACT:UP  17-07-25 16:33 OP:and  STATUS:               ID:20170725071743d    3
 OLDACT:UP  17-07-25 16:32 OP:and  STATUS:               ID:20170725071743d    3
 OLDACT:UP  17-07-25 16:32 OP:and  STATUS:               ID:20170725071743d    3
 OLDACT:DUP 17-07-25 16:27 OP:and  STATUS:               ID:20170725071743d    3
 OLDACT:UP  17-07-25 16:27 OP:and  STATUS:               ID:20170725071742     3
 OLDACT:UP  17-07-25 16:26 OP:and  STATUS:               ID:20170725071742     3
 OLDACT:UP  17-07-25 16:25 OP:and  STATUS:               ID:20170725071742     3
 OLDACT:UP  17-07-25 16:24 OP:and  STATUS:               ID:20170725071742     3
 OLDACT:UP  17-07-25 16:24 OP:and  STATUS:               ID:20170725071742     3
 OLDACT:REG 17-07-25 12:49 OP:and  STATUS:               ID:20170725071742     3
 2017-07-25-0718-00M.COL___386                                                 6
 STAT SP IPHASW D HRMM SECON CODA AMPLIT PERI AZIMU VELO AIN AR TRES W  DIS CAZ7
 BAR2 EZ EP        721 58.88                             171   -0.0610 24.4 200 
 BAR2 EZ ES   2    722 14.20                             171   -0.28 5 24.4 200 
 BAR2 EZ I         722 16.84         2.6 0.44            168           24.4 200 
 BRR  HZ EP        722  0.78                             152    0.1610 74.9 297 
 BRR  HN ES   2    722 17.76                             152    0.29 5 74.9 297 
 BRR  HZ I         722 27.57         2.3 0.54            151           74.9 297 
 PTB  HZ EP   2    722  5.98                             132   -0.56 5  152 259 
 PTB  HN ES   3    722 26.84                             132   -1.17 2  152 259 
 PTB  HZ I         722 34.16         1.4 0.44            135            152 259 
 SPBC HZ EP        722  7.96                             129    0.03 9  166 220 
 SPBC HN ES   3    722 31.65                             129    1.16 2  166 220 
 SPBC HZ I         722 34.01         3.1 0.14            134            166 220 
 ZAR  HN ES        722 37.73                             122   -0.01 8  208 292 
                                                                                
