 2015  225 0122 20.1 L   6.819 -73.403117.4  RSN 14 0.4 2.2LRSN                1
 GAP= 82        0.95       2.2     3.4  4.9 -0.1926E+01  0.3898E+01  0.1480E+01E
 Epicentro: SAN VICENTE DE CHUCURI - SANTANDER                                 3
 ACTION:UPD 15-04-30 21:29 OP:nd   STATUS:               ID:20150225012220 L   I
 OLDACT:UP  15-02-25 14:50 OP:mh   STATUS:               ID:20150225011746     3
 OLDACT:UP  15-02-25 14:49 OP:mh   STATUS:               ID:20150225011746     3
 OLDACT:REG 15-02-25 13:29 OP:mh   STATUS:               ID:20150225011746     3
 2015-02-25-0117-46M.COL___297                                                 6
 STAT SP IPHASW D HRMM SECON CODA AMPLIT PERI AZIMU VELO AIN AR TRES W  DIS CAZ7
 BAR2 EZ EP        122 36.92                             162    0.2010 35.0 136 
 BAR2 EZ ES   1    122 50.25                             162    0.59 7 35.0 136 
 BAR2 EZ I         122 50.68        98.1 0.26            166           35.0 136 
 BRR  HZ EP     C  122 37.63                             157    0.7710 46.7 313 
 BRR  HN ES        122 49.94                             157    0.0210 46.7 313 
 BRR  HZ I         122 52.06        25.5 0.12            153           46.7 313 
 PAM  SZ EP        122 40.67                             138   -0.2110 96.7  53 
 PAM  SN ES        122 57.29                             138    0.2110 96.7  53 
 PAM  SZ I         123  0.32        13.5 0.62            142           96.7  53 
 RUS  HZ EP        122 41.46                             135   -0.4110  108 161 
 RUS  HN ES        122 58.53                             135   -0.3010  108 161 
 RUS  HZ I         122 59.81        16.3 0.16            137            108 161 
 PTB  HZ EP     C  122 41.81                             131   -0.4910  120 255 
 PTB  HN ES        122 59.06                             131   -0.5510  120 255 
 PTB  HZ I         123  5.71        47.2 0.34            129            120 255 
 SPBC HZ EP        122 44.89                             124   -0.25 9  149 210 
 SPBC HN ES        123  4.60                             124   -0.05 9  149 210 
 SPBC HZ I         123 11.03        23.9 0.42            124            149 210 
 OCA  HZ EP        122 46.01                             123   -0.08 9  157   3 
 OCA  HN ES        123  6.02                             123   -0.33 9  157   3 
 OCA  HZ I         123 10.78        28.9 0.28            124            157   3 
 NOR  HZ EP        122 51.76                             114   -0.24 8  214 230 
 NOR  HN ES        123 17.36                             114    0.49 8  214 230 
 NOR  HZ I         123 19.79        15.1 0.20            114            214 230 
 SML  HZ EP   1    122 53.67                             112   -0.24 6  231 341 
 SML  HN ES        123 20.40                             112    0.13 8  231 341 
 SML  HZ I         123 29.27        20.7 0.24            112            231 341 
 CHI  HZ EP        122 55.78                             111   -0.21 8  245 189 
 CHI  HN ES        123 24.14                             111    0.18 8  245 189 
 CHI  HZ I         123 29.61         6.1 0.46            112            245 189 
 URE  HZ EP   4    122 57.06                             110    0.21 0  257 294 
 GUY2CHZ EP   1    123  1.11                             108    1.03 6  280 231 
 GUY2CHN ES   4    123 32.09                             108    0.84 0  280 231 
 RREF HZ EP   1    123  3.50                             106    0.60 5  302 226 
 RREF HN ES   4    123 40.38                             106    4.12 0  302 226 
 RREF HZ I         123 45.47         7.1 0.22            106            302 226 
 TOL  SZ EP        123  5.97                             105    0.68 7  326 221 
 TOL  SN ES   4    123 41.72                             105    1.20 0  326 221 
 TOL  SZ I         123 46.26         4.1 0.38            105            326 221 
 PRA  HZ EP        123 11.94                             102    0.49 6  381 206 
 PRA  HN ES        123 50.99                             102   -0.50 6  381 206 
 PRA  HZ I         124  0.77         7.2 0.34            102            381 206 
                                                                                
