 2015  425 0653 26.6 L   6.108 -73.864 84.1  RSN  5 0.4 1.3LRSN                1
 GAP=168        0.91       5.1     3.9  9.6  0.1102E+02  0.5977E+01 -0.2005E+01E
 Epicentro: EL PENON - SANTANDER                                               3
 ACTION:UPD 15-06-03 16:57 OP:cam  STATUS:               ID:20150425065326 L   I
 OLDACT:REG 15-04-25 14:15 OP:ak   STATUS:               ID:20150425064749     3
 2015-04-25-0647-49M.COL___271                                                 6
 STAT SP IPHASW D HRMM SECON CODA AMPLIT PERI AZIMU VELO AIN AR TRES W  DIS CAZ7
 PTB  HZ EP        653 42.33                             132   -0.1210 81.1 306 
 PTB  HN ES        653 54.58                             132   -0.2410 81.1 306 
 PTB  HZ I         653 56.77         6.7 0.16            133           81.1 306 
 RUS  HZ EP        653 44.32                             130    0.4210 89.7 105 
 RUS  HN ES        653 57.28                             130   -0.1110 89.7 105 
 BRR  HZ EP        653 44.83                             122   -0.6310  112   9 
 BRR  HN ES        654  0.53                             122    0.3610  112   9 
 BRR  HZ I         654  1.72         3.8 0.14            124            112   9 
 HEL  HZ EP   4    653 55.85                             109    1.81 0  184 273 
 HEL  HE ES   2    654 16.29                             109    0.84 4  184 273 
 ZAR  HZ EP        653 53.91                             109   -0.14 9  188 324 
 ZAR  HN ES        654 15.82                             109    0.35 9  188 324 
 ZAR  HZ I         654 18.03         2.5 0.24            110            188 324 
                                                                                
