 2012  225 0620  9.2 L   6.814 -73.048140.9  RSN  5 0.3 1.9LRSN                1
 GAP=211        0.65       6.4     8.9  8.5  0.2500E+02  0.1175E+02  0.3941E+01E
 ACTION:UP  12-03-07 16:34 OP:epov STATUS:               ID:20120225062009 L   I
 2012-02-25-0620-00M.COL___192                                                 6
 STAT SP IPHASW D HRMM SECON CODA AMPLIT PERI AZIMU VELO AIN AR TRES W  DIS CAZ7
 BAR2 SZ EP   1    620 28.00                             168   -0.38 7 28.7 211 
 BAR2 SZ ES   1    620 42.85                             168   -0.48 7 28.7 211 
 BAR2 SZ I         620 43.75        14.9 0.45                          28.7 211 
 GIR2 SZ ES   1    620 43.43                             166    0.12 7 33.3 331 
 BRR  HZ EP   1    620 30.56                             148    0.18 7 80.2 294 
 BRR  HZ I         620 47.04        16.6 0.66                          80.2 294 
 BRR  HE ES   1    620 47.16                             148    0.27 7 80.2 294 
 RUS  HN ES   1    620 51.23                             142    0.40 7  102 182 
 PTB  HN ES   2    620 58.07                             129   -0.26 5  159 259 
                                                                                
