 2017  325 0527 41.9 L   7.245 -73.045158.8  RSN 12 0.5 2.1LRSN                1
 GAP=113        0.91       3.9     4.0  5.0 -0.7916E-01  0.6833E+01 -0.6744E+00E
 Epicentro: MATANZA - SANTANDER                                                3
 ACTION:UPD 17-05-25 18:44 OP:jn   STATUS:               ID:20170325052741 L   I
 OLDACT:UP  17-03-25 13:24 OP:dani STATUS:               ID:20170325051744     3
 OLDACT:UP  17-03-25 13:23 OP:dani STATUS:               ID:20170325051744     3
 OLDACT:REG 17-03-25 12:35 OP:dani STATUS:               ID:20170325051744     3
 2017-03-25-0518-00M.COL___358                                                 6
 STAT SP IPHASW D HRMM SECON CODA AMPLIT PERI AZIMU VELO AIN AR TRES W  DIS CAZ7
 PAM  EZ IP     D  528  4.34                             165    0.4510 39.6  75 
 PAM  EE ES        528 21.09                             165    0.0710 39.6  75 
 PAM  EZ I         528 21.77        11.6 0.24            174           39.6  75 
 BAR2 EZ EP     D  528  4.96                             154   -0.0110 73.7 192 
 BAR2 EZ ES        528 22.50                             154   -0.4510 73.7 192 
 BAR2 EZ I         528 23.17        42.1 0.32            151           73.7 192 
 BRR  HZ EP        528  5.01                             154    0.3110 75.2 258 
 BRR  HE ES        528 22.83                             154    0.3610 75.2 258 
 BRR  HZ I         528 24.32        16.5 0.12            147           75.2 258 
 RUS  HZ EP        528 11.12                             135    0.34 9  150 182 
 RUS  HN ES        528 32.73                             135   -0.57 9  150 182 
 RUS  HZ I         528 35.83         9.0 0.44            134            150 182 
 PTB  HZ IP     C  528 11.92                             130   -0.46 9  174 244 
 PTB  HN ES        528 36.12                             130   -0.02 9  174 244 
 PTB  HZ I         528 37.73        17.7 0.38            127            174 244 
 ZAR  HZ EP        528 15.12                             125    0.08 9  202 278 
 ZAR  HE ES        528 41.02                             125    0.14 9  202 278 
 ZAR  HZ I         528 48.36        12.9 0.10            123            202 278 
 SPBC HZ EP        528 16.04                             125    0.14 8  210 213 
 SPBC HE ES        528 42.49                             125    0.08 8  210 213 
 SPBC HZ I         528 49.83        11.6 0.20            123            210 213 
 URE  HZ EP        528 22.12                             116   -1.14 7  280 282 
 URE  HE ES   4    528 52.87                             116   -2.63 0  280 282 
 URE  HZ I         529  5.15        11.4 0.26            115            280 282 
 CBOC HZ EP        528 32.98                             110    0.36 6  362 245 
 CBOC HN ES        529 12.31                             110    0.15 6  362 245 
 CBOC HZ I         529 31.84         1.6 0.38            109            362 245 
 SJC  HZ EP        528 33.75                             109   -0.32 6  376 321 
 SJC  HN ES   4    529 12.14                             109   -2.61 0  376 321 
 SJC  HZ I         529 16.45         2.2 0.68            109            376 321 
 PRA  HZ EP        528 42.15                             106    0.59 5  440 208 
 PRA  HN ES        529 27.48                             106   -0.60 5  440 208 
 ORTC HZ EP   3    528 43.22                             106    1.47 1  442 214 
 ORTC HE ES   3    529 31.62                             106    3.21 1  442 214 
 ORTC HZ I         529 36.67         2.7 0.39            106            442 214 
                                                                                
