 2012  125 0454 15.6 L   7.363 -73.167135.1  RSN  4 0.4 1.4LRSN                1
 GAP=208        0.59      11.9     6.3  8.0 -0.2956E+02  0.1867E+02 -0.3657E+02E
 Epicentro: RIONEGRO - SANTANDER                                               3
 ACTION:UP  12-02-03 08:20 OP:REBC STATUS:               ID:20120125045416 L   I
 2012-01-25-0450-00M.COL___188                                                 6
 STAT SP IPHASW D HRMM SECON CODA AMPLIT PERI AZIMU VELO SNR AR TRES W  DIS CAZ7
 GIR2 SZ EP   2    454 34.33                             165     0.3 5   32 185 
 GIR2 SZ ES   1    454 48.30                             165    -0.1 7   32 185 
 PAM  SZ EP   2    454 35.74                             157     0.4 5   52  93 
 PAM  SN ES   1    454 50.54                             157    -0.1 7   52  93 
 BRR  HZ EP        454 35.42                             152     0.110   67 245 
 BRR  HZ I         454 35.70         5.2 0.13                            67 245 
 BRR  HE ES   1    454 50.59                             152    -0.2 7   67 245 
 BAR2 SZ EP   3    454 35.28                             145    -1.6 2   85 181 
 BAR2 SZ ES   2    454 53.88                             145     0.4 5   85 181 
                                                                                
