 2014 1125 0649 50.6 L   6.810 -73.118143.0  RSN 28 0.6 3.2LRSN                1
 GAP= 56        1.24       2.9     3.0  5.2 -0.1816E+01  0.2295E+01  0.1805E+01E
 Epicentro: LOS SANTOS - SANTANDER                                             3
 ACTION:UPD 14-12-19 15:47 OP:nd   STATUS:               ID:20141125064950 L   I
 OLDACT:UP  14-11-25 18:02 OP:mh   STATUS:               ID:20141125064743     3
 OLDACT:UP  14-11-25 18:01 OP:mh   STATUS:               ID:20141125064743     3
 OLDACT:UP  14-11-25 17:38 OP:mh   STATUS:               ID:20141125064743     3
 OLDACT:REG 14-11-25 13:11 OP:mh   STATUS:               ID:20141125064743     3
 2014-11-25-0647-43M.COL___303                                                 6
 STAT SP IPHASW D HRMM SECON CODA AMPLIT PERI AZIMU VELO AIN AR TRES W  DIS CAZ7
 BAR2 SZ EP     C  650 10.11                             170    0.2110 25.1 196 
 BAR2 SZ ES        650 24.42                             170   -0.5710 25.1 196 
 BRR  HZ IP     C  650 12.05                             151    0.5010 73.4 297 
 BRR  HN ES        650 28.59                             151    0.6810 73.4 297 
 BRR  HZ I         650 33.29       359.5 0.53            150           73.4 297 
 PAM  SZ IP     D  650 13.01                             151    0.6810 74.6  38 
 PAM  SN ES        650 29.70                             151    0.4010 74.6  38 
 PAM  SZ I         650 32.12       540.3 0.58            153           74.6  38 
 RUS  HZ EP        650 14.12                             143    0.0110  101 178 
 RUS  HN ES        650 32.22                             143   -0.2610  101 178 
 RUS  HZ I         650 34.05       148.4 0.30            144            101 178 
 PTB  HZ EP        650 16.76                             131   -0.85 9  151 259 
 PTB  HN ES        650 38.62                             131   -0.08 9  151 259 
 PTB  HZ I         650 40.24       315.8 0.12            131            151 259 
 TAM  HZ IP     D  650 18.47                             130    0.69 9  152 106 
 TAM  HN ES        650 39.50                             130    0.50 9  152 106 
 TAM  HZ I         650 41.33        87.5 0.45            133            152 106 
 OCA  HZ EP     C  650 18.41                             129   -0.19 9  160 352 
 OCA  HN ES        650 40.29                             129   -0.18 9  160 352 
 OCA  HZ I         650 44.31       319.1 0.32            130            160 352 
 SPBC HZ EP   1    650 18.88                             128   -0.24 7  166 220 
 SPBC HN ES        650 41.40                             128    0.01 9  166 220 
 SPBC HZ I         650 45.28       180.2 0.26            128            166 220 
 ZAR  HZ EP        650 22.88                             122   -0.21 8  206 292 
 ZAR  HN ES        650 48.51                             122    0.06 8  206 292 
 ZAR  HZ I         650 54.68       248.0 0.32            122            206 292 
 NOR  HZ EP   1    650 26.05                             118   -0.42 6  238 235 
 NOR  HN ES        650 53.72                             118   -0.76 8  238 235 
 NOR  HZ I         650 55.82       123.4 0.44            118            238 235 
 CHI  HZ EP   1    650 28.32                             116    0.01 6  250 196 
 CHI  HN ES        650 57.07                             116   -0.69 8  250 196 
 CHI  HZ I         651  4.40        53.4 0.05            117            250 196 
 ROSC BZ EP   4    650 30.00                             116    1.19 0  255 211 
 ROSC BN ES   4    651  0.18                             116    1.54 0  255 211 
 ROSC BZ I         651  6.50        76.4 0.54            117            255 211 
 HEL  HZ EP   1    650 30.82                             114   -0.18 6  275 256 
 HEL  HN ES        651  1.57                             114   -0.97 7  275 256 
 HEL  HZ I         651  9.29        73.7 0.12            114            275 256 
 URE  HZ EP   4    650 30.52                             113   -1.26 0  286 291 
 URE  HN ES   4    651  2.36                             113   -1.56 0  286 291 
 URE  HZ I         651 11.67       129.3 0.34            113            286 291 
 GUY2CHZ EP   1    650 34.74                             112    0.34 5  304 235 
 GUY2CHN ES   4    651 10.03                             112    1.44 0  304 235 
 GUY2CHZ I         651 15.57        86.3 0.27                           304 235 
 VIL  SZ EP   1    650 33.92                             111   -0.13 5  305 192 
 VIL  SN ES        651  7.88                             111   -0.09 7  305 192 
 VIL  SZ I         651 11.48        51.9 0.32            112            305 192 
 PTGC HZ EP     C  650 33.30                             111   -0.99 7  309 159 
 PTGC HN ES   4    651  6.02                             111   -2.37 0  309 159 
 PTGC HZ I         651  8.93        75.7 0.34            112            309 159 
 RREF HZ EP        650 37.40                             110    0.46 7  325 230 
 RREF HN ES   4    651 13.10                             110   -0.00 0  325 230 
 CBOC HZ EP        650 38.51                             109    0.77 7  337 252 
 CBOC HN ES   1    651 13.54                             109   -1.00 5  337 252 
 DBB  SZ EP   1    650 38.42                             109    0.14 5  342 274 
 DBB  SZ ES   4    651 13.78                             109   -1.71 0  342 274 
 TOL  SZ EP   1    650 39.72                             109    0.67 5  346 225 
 TOL  SN ES        651 17.00                             109    0.14 6  346 225 
 TOL  SZ I         651 25.72       124.3 0.38            109            346 225 
 MON  HZ EP   4 D  650 38.04                             108   -1.63 0  355 308 
 MON  HN ES   4    651 16.08                             108   -1.88 0  355 308 
 SDV  BZ EP        650 39.88                             108   -0.27 6  357  50 
 SDV  BN ES        651 17.13                             108   -1.70 6  357  50 
 SDV  BZ I         651 21.62        38.6 0.50            109            357  50 
 ARGC HZ EP   1    650 40.91                             108    0.79 5  359 340 
 ARGC HN ES   1    651 18.17                             108   -0.61 5  359 340 
 ARGC HZ I         651 26.08        31.9 0.20            109            359 340 
 ANIL HZ EP        650 41.41                             108    0.81 6  360 225 
 ANIL HN ES   1    651 21.69                             108    2.06 5  360 225 
 ORTC HZ EP   1    650 44.55                             106   -0.16 4  398 216 
 ORTC HN ES        651 27.66                             106    0.73 6  398 216 
 ORTC HZ I         651 33.07        40.5 0.64            106            398 216 
 PAL  HZ EP   4    650 46.30                             105    0.29 0  409 239 
 PAL  HN ES   4    651 27.83                             105   -1.42 0  409 239 
 PAL  HZ I         651 30.71        31.2 0.66            106            409 239 
 SJC  HZ EP   4 C  650 44.49                             105   -1.64 0  410 327 
 SJC  HN ES   4    651 25.68                             105   -3.79 0  410 327 
 SJC  HZ I         651 29.09        35.8 0.48            106            410 327 
 GUA  SZ EP   4    650 52.09                             103   -1.64 0  475 173 
 GUA  SN ES   4    651 41.60                             103   -1.39 0  475 173 
 MACC HZ EP   4    650 57.06                             101   -2.33 0  522 189 
 MACC HN ES   4    651 48.60                             101   -4.47 0  522 189 
 GARC HZ EP   4    651  4.53                             100   -1.51 0  575 207 
 GARC HN ES   4    652  2.02                             100   -2.89 0  575 207 
 GARC HZ I         652  4.49        16.5 0.26            100            575 207 
                                                                                
