 2011  125 0328 46.4 L   6.832 -73.059152.9  RSN  4 0.2 1.1LRSN                1
 GAP=334        0.42       5.2    19.9  6.2 -0.3981E+02  0.4729E+02 -0.5492E+01E
 Epicentro: LOS SANTOS - SANTANDER                                             3
 ACTION:UP  11-02-08 08:42 OP:pat  STATUS:               ID:20110125032846 L   I
 2011-01-25-0326-40S.COL___138                                                 6
 STAT SP IPHASW D HRMM SECON CODA AMPLIT PERI AZIMU VELO SNR AR TRES W  DIS CAZ7
 BAR2 SZ EP   1    329  6.83                             168    -0.2 8   30 207 
 BAR2 SZ ES   2    329 23.44                             168     0.3 5   30 207 
 BAR2 SZ I         329 25.37         3.7 0.22                            30 207 
 RUS  HZ EP   1    329 11.31                             144     0.2 7  104 181 
 RUS  HE ES        329 30.33                             144    -0.110  104 181 
 RUS  HZ I         329 32.74         1.5 0.52                           104 181 
 CHI  HZ EP   2    329 25.45                             118     0.3 4  255 197 
 CHI  HE ES   2    329 55.26                             118    -0.2 4  255 197 
 VIL  SN ES   2    330  5.05                             113     0.0 4  307 191 
                                                                                
