 2011  725 0603 33.9 L   6.795 -73.080148.2  RSN  9 0.3 1.6LRSN                1
 GAP=163        0.52       2.4     3.6  4.3 -0.2793E+01  0.4066E+01  0.7814E+00E
 Epicentro: LOS SANTOS - SANTANDER                                             3
 ACTION:UPD 12-07-25 14:03 OP:epov STATUS:               ID:20110725060333 L   I
 2011-07-25-0559-07S.COL___143                                                 6
 STAT SP IPHASW D HRMM SECON CODA AMPLIT PERI AZIMU VELO AIN AR TRES W  DIS CAZ7
 BAR2 SZ EP   1    6 3 53.81                             170   -0.02 9 25.1 207 
 BAR2 SZ ES   1    6 4  9.43                             170    0.03 9 25.1 207 
 BAR2 SZ I         6 4 10.79         6.5 0.24                          25.1 207 
 BRR  HZ EP   1    6 3 55.83                             151    0.16 9 77.9 296 
 BRR  HE ES   1    6 4 13.01                             151    0.33 9 77.9 296 
 BRR  HZ I         6 4 15.22         7.1 0.18                          77.9 296 
 RUS  HZ EP   2    6 3 57.52                             145   -0.29 6 99.8 180 
 RUS  HE ES   1    6 4 16.62                             145    0.14 9 99.8 180 
 RUS  HZ I         6 4 18.48         7.2 0.34                          99.8 180 
 BRI  SZ EP   2    6 3 57.96                             142    0.10 6  107  17 
 BRI  SZ ES   2    6 4 15.87                             142   -0.70 6  107  17 
 GRA  SZ EP   2    6 3 59.03                             138   -0.19 6  124  14 
 GRA  SZ ES   2    6 4 18.50                             138   -0.49 6  124  14 
 GRA  SZ I         6 4 18.85         6.7 0.34                           124  14 
 OCA  SZ EP   2    6 4  2.52                             130    0.00 6  162 351 
 OCA  SZ ES   1    6 4 25.15                             130    0.28 9  162 351 
 OCA  SZ I         6 4 29.80         7.8 0.36                           162 351 
 NOR  SZ EP   1    6 4 10.67                             118    0.33 7  240 236 
 NOR  SN ES        6 4 38.25                             118   -0.5410  240 236 
 CHI  HZ EP   1    6 4 12.01                             117    0.15 7  250 197 
 CHI  HE ES   2    6 4 41.66                             117    0.16 5  250 197 
 CHI  HZ I         6 4 45.01         2.2 0.20                           250 197 
 HEL  HZ EP   1    6 4 15.18                             115    0.21 7  279 256 
 HEL  HN ES   1    6 4 46.95                             115   -0.08 7  279 256 
                                                                                
