 2011  925 0541  9.6 L   6.801 -73.138141.2  RSN 11 0.3 2.1LRSN                1
 GAP=114        0.70       2.3     3.2  4.7  0.7268E+00  0.3171E+01  0.1919E+01E
 Epicentro: LOS SANTOS - SANTANDER                                             3
 ACTION:UPD 12-07-13 15:59 OP:ep   STATUS:               ID:20110925054109 L   I
 2011-09-25-0537-45S.COL___165                                                 6
 STAT SP IPHASW D HRMM SECON CODA AMPLIT PERI AZIMU VELO AIN AR TRES W  DIS CAZ7
 BTL  SZ EP   1    541 28.35                             172   -0.22 7 19.4 312 
 BAR2 SZ EP        541 28.71                             170    0.0610 23.6 192 
 BAR2 SZ ES   1    541 42.95                             170   -0.59 7 23.6 192 
 BAR2 SZ I         541 46.15        18.5 0.11                          23.6 192 
 BRR  HZ EP        541 30.48                             151    0.2210 71.9 298 
 BRR  HN ES        541 47.06                             151    0.6610 71.9 298 
 BRR  HZ I         541 48.63        28.7 0.10                          71.9 298 
 PAM  SZ EP   1    541 31.45                             150    0.20 7 76.7  39 
 PAM  SN ES   1    541 48.00                             150   -0.17 7 76.7  39 
 RUS  HZ EP   1    541 32.66                             143   -0.21 7  101 177 
 RUS  HE ES   1    541 50.81                             143   -0.24 7  101 177 
 RUS  HZ I         541 53.11        19.5 0.31                           101 177 
 OCA  SZ EP        541 37.27                             129   -0.25 9  160 353 
 OCA  SZ ES        541 59.22                             129   -0.11 9  160 353 
 OCA  SZ I         542  3.52        16.3 0.15                           160 353 
 YOP  SZ EP   1    541 39.15                             125   -0.10 7  179 154 
 YOP  SE ES   1    542  3.17                             125    0.76 7  179 154 
 YOP  SZ I         542  6.50        12.6 0.27                           179 154 
 ZAR  HZ EP   1    541 41.64                             121   -0.15 6  205 292 
 ZAR  HN ES   1    542  6.45                             121   -0.48 6  205 292 
 ZAR  HZ I         542 13.13        29.4 0.34                           205 292 
 NOR  SZ EP   1    541 44.98                             117   -0.13 6  235 235 
 NOR  SN ES   1    542 12.66                             117   -0.18 6  235 235 
 CHI  HZ EP   1    541 47.12                             116    0.07 6  249 195 
 CHI  HN ES   1    542 16.10                             116   -0.19 6  249 195 
 CHI  HZ I         542 26.10         6.0 0.56                           249 195 
 HEL  HZ EP   1    541 50.08                             114    0.44 6  273 256 
 HEL  HN ES   1    542 21.00                             114    0.09 6  273 256 
 HEL  HZ I         542 27.40        10.7 0.41                           273 256 
                                                                                
