 2015  225 0928  5.6 L   6.785 -73.107145.3  RSN  8 0.4 1.6LRSN                1
 GAP=142        1.02       3.5     6.3  6.7 -0.4893E+01  0.8665E+01  0.7043E+00E
 Epicentro: LOS SANTOS - SANTANDER                                             3
 ACTION:UPD 15-04-30 21:29 OP:nd   STATUS:               ID:20150225092805 L   I
 OLDACT:DUP 15-02-25 18:44 OP:mher STATUS:               ID:20150225091745d    3
 OLDACT:REG 15-02-25 13:51 OP:mh   STATUS:               ID:20150225091744     3
 2015-02-25-0917-44M.COL___284                                                 6
 STAT SP IPHASW D HRMM SECON CODA AMPLIT PERI AZIMU VELO AIN AR TRES W  DIS CAZ7
 BAR2 EZ EP        928 25.17                             171    0.0210 22.9 201 
 BAR2 EZ ES   1    928 40.04                             171   -0.37 7 22.9 201 
 BAR2 EZ I         928 42.20         7.8 0.44            168           22.9 201 
 BRR  HZ EP        928 27.35                             151    0.4010 75.7 298 
 BRR  HN ES        928 44.16                             151    0.5510 75.7 298 
 BRR  HZ I         928 49.61         5.5 0.14            149           75.7 298 
 PAM  SZ EP        928 28.51                             151    0.8410 76.0  36 
 PAM  SN ES        928 44.83                             151   -0.0710 76.0  36 
 PAM  SZ I         928 47.42         5.3 0.56            157           76.0  36 
 RUS  HZ EP        928 29.03                             144   -0.1310 98.7 178 
 RUS  HN ES   1    928 46.91                             144   -0.64 7 98.7 178 
 RUS  HZ I         928 48.73         3.3 0.26            147           98.7 178 
 OCA  HZ EP   1    928 33.51                             129   -0.56 7  162 352 
 OCA  HN ES        928 55.77                             129   -0.51 9  162 352 
 SPBC HZ EP        928 34.40                             129    0.21 9  165 221 
 SPBC HN ES        928 56.38                             129   -0.12 9  165 221 
 SPBC HZ I         929  3.36         8.6 0.18            130            165 221 
 SML  HZ EP   1    928 42.20                             117   -0.34 6  247 335 
 SML  HN ES   1    929 10.81                             117   -0.56 6  247 335 
 SML  HZ I         929 13.07         7.9 0.32            120            247 335 
 GUY2CHZ EP        928 49.22                             112   -0.25 7  304 235 
 GUY2CHN ES   4    929 25.83                             112    2.14 0  304 235 
 GUY2CHZ I         929 34.08         1.8 0.32                           304 235 
                                                                                
