 2017  225 0004 44.5 L   6.822 -73.151149.8  RSN  4 0.4 1.1LRSN                1
 GAP=135        1.03       6.2     6.0  9.9  0.1549E+01  0.1439E+02  0.1695E+02E
 Epicentro: LOS SANTOS - SANTANDER                                             3
 ACTION:UPD 17-05-24 15:40 OP:jn   STATUS:               ID:20170225000444 L   I
 OLDACT:REG 17-02-25 12:12 OP:dani STATUS:               ID:20170225000001     3
 2017-02-25-0000-15M.COL___385                                                 6
 STAT SP IPHASW D HRMM SECON CODA AMPLIT PERI AZIMU VELO AIN AR TRES W  DIS CAZ7
 BRR  HZ EP        0 5  6.40                             154    0.3710 69.5 297 
 BRR  HN ES        0 5 23.36                             154    0.5710 69.5 297 
 BRR  HZ I         0 5 24.22         4.4 0.38            154           69.5 297 
 PAM  EE ES        0 5 24.22                             152   -0.4810 75.9  41 
 RUS  HZ EP        0 5  9.12                             144    0.2610  103 176 
 RUS  HN ES        0 5 27.84                             144    0.0110  103 176 
 RUS  HZ I         0 5 29.30         0.9 0.22            145            103 176 
 PTB  HZ EP        0 5 11.49                             133   -0.33 9  148 258 
 PTB  HN ES        0 5 32.60                             133   -0.51 9  148 258 
 PTB  HZ I         0 5 35.01         2.4 0.42            133            148 258 
                                                                                
