 2016  225 0558 29.0 L   6.793 -73.163139.1  RSN  9 0.4 1.6LRSN                1
 GAP=135        0.98       2.9     4.0  6.2 -0.2364E+01  0.7571E+01 -0.3422E+00E
 Epicentro: LOS SANTOS - SANTANDER                                             3
 ACTION:UPD 16-03-04 21:29 OP:rebc STATUS:               ID:20160225055829 L   I
 OLDACT:UP  16-02-25 16:38 OP:mh   STATUS:               ID:20160225055747     3
 OLDACT:REG 16-02-25 13:15 OP:mh   STATUS:               ID:20160225055747     3
 2016-02-25-0557-47M.COL___333                                                 6
 STAT SP IPHASW D HRMM SECON CODA AMPLIT PERI AZIMU VELO AIN AR TRES W  DIS CAZ7
 BAR2 EZ EP        558 47.96                             170    0.1610 22.2 185 
 BAR2 EZ ES        559  2.26                             170   -0.2110 22.2 185 
 BAR2 EZ I         559  4.29        15.5 0.16            171           22.2 185 
 PAM  EZ EP        558 50.62                             149   -0.0010 79.3  40 
 PAM  EN ES        559  7.53                             149    0.0410 79.3  40 
 PAM  EZ I         559  9.68        17.0 0.48            152           79.3  40 
 RUS  HZ EP        558 51.97                             143   -0.0810 99.9 175 
 RUS  HN ES        559 10.05                             143    0.0310 99.9 175 
 RUS  HZ I         559 11.89         3.7 0.30            146           99.9 175 
 PTB  HZ EP   1    558 55.25                             131    0.01 7  146 259 
 PTB  HN ES        559 15.27                             131   -0.43 9  146 259 
 PTB  HZ I         559 19.13         3.5 0.20            132            146 259 
 SPBC HZ EP        558 56.73                             128   -0.08 9  161 219 
 SPBC HN ES        559 19.03                             128    0.53 9  161 219 
 SPBC HZ I         559 20.61         5.1 0.10            130            161 219 
 OCA  HZ EP        558 56.01                             128   -0.84 9  161 354 
 OCA  HE ES        559 18.92                             128    0.34 9  161 354 
 OCA  HZ I         559 22.84        10.1 0.18            129            161 354 
 ZAR  HZ EP        559  1.44                             121    0.58 9  203 293 
 ZAR  HN ES        559 26.17                             121    0.46 9  203 293 
 ZAR  HZ I         559 32.81         5.2 0.11            122            203 293 
 NOR  HE ES        559 30.65                             117   -0.87 8  233 234 
 CHI  HZ EP        559  6.19                             116   -0.00 8  247 195 
 CHI  HN ES        559 35.66                             116    0.46 8  247 195 
 CHI  HZ I         559 38.59         1.6 0.34            118            247 195 
                                                                                
