 2015  425 0816 29.0 L   6.090 -74.210  4.0  RSN 11 0.6 1.7LRSN                1
 GAP= 69        1.39       2.5     2.4  6.2 -0.7526E+00 -0.9223E+00 -0.2802E+00E
 Epicentro: LA BELLEZA - SANTANDER                                             3
 ACTION:UPD 15-06-03 16:57 OP:cam  STATUS:               ID:20150425081629 L   I
 OLDACT:REG 15-04-25 14:22 OP:ak   STATUS:               ID:20150425080750     3
 2015-04-25-0807-50M.COL___268                                                 6
 STAT SP IPHASW D HRMM SECON CODA AMPLIT PERI AZIMU VELO AIN AR TRES W  DIS CAZ7
 SPBC HZ EP        816 38.08                              47    0.7210 50.8 162 
 SPBC HN ES        816 44.60                              47    0.7010 50.8 162 
 SPBC HZ I         816 45.11        38.2 0.12             47           50.8 162 
 PTB  HZ EP        816 38.46                              47    0.2910 56.6 331 
 PTB  HE ES        816 46.15                              47    0.8110 56.6 331 
 NOR  HZ EP        816 43.48                              47   -0.2910 93.3 231 
 NOR  HN ES        816 54.43                              47   -0.8810 93.3 231 
 NOR  HZ I         816 55.06        35.1 0.16             47           93.3 231 
 BRR  HZ EP        816 48.56                              47    0.0210  125  26 
 BRR  HE ES        817  3.52                              47   -0.2910  125  26 
 BRR  HZ I         817  5.14        12.0 0.10             47            125  26 
 BAR2 EZ I         817  6.75        39.4 0.58             47            127  64 
 RUS  HZ EP        816 49.23                              47   -0.0410  127 100 
 RUS  HE ES        817  4.55                              47   -0.5610  127 100 
 BAR2 EZ EP        816 49.48                              47    0.4910  127  64 
 BAR2 EZ ES        817  3.90                              47   -0.7010  127  64 
 RUS  HZ I         817  5.42        12.3 0.22             47            127 100 
 HEL  HZ EP        816 51.32                              47   -0.81 9  146 274 
 HEL  HE ES   4    817  8.40                              47   -1.78 0  146 274 
 HEL  HZ I         817  8.96        28.5 0.22             47            146 274 
 GUY2CHZ EP        816 54.11                              47   -0.16 9  160 233 
 GUY2CHN ES   4    817 12.21                              47   -1.79 0  160 233 
 GUY2CHZ I         817 18.10         6.2 0.36                           160 233 
 CHI  HZ EP   2    816 55.31                              47   -0.45 5  170 162 
 CHI  HN ES   2    817 17.56                              47    0.92 5  170 162 
 CHI  HZ I         817 21.12         4.8 0.30             47            170 162 
 ZAR  HZ EP   4    816 53.34                              47   -2.11 0  171 335 
 ZAR  HN ES   4    817 12.50                              47   -3.61 0  171 335 
 ZAR  HZ I         817 18.24         5.8 0.23             47            171 335 
 CBOC HZ EP        817  0.15                              37    0.58 9  201 263 
 CBOC HN ES        817 23.40                              37   -0.04 9  201 263 
 CBOC HZ I         817 25.80         3.7 0.54             37            201 263 
                                                                                
