 2013  125 0636  6.9 L   6.786 -73.151142.3  RSN  6 0.3 1.2LRSN                1
 GAP=136        0.65       3.9     4.4  6.0 -0.2159E+01  0.2316E+01  0.7723E+01E
 Epicentro: LOS SANTOS - SANTANDER                                             3
 ACTION:UPD 13-02-15 09:16 OP:ep   STATUS:               ID:20130125063606 L   I
 2013-01-25-0630-00M.COL___241                                                 6
 STAT SP IPHASW D HRMM SECON CODA AMPLIT PERI AZIMU VELO AIN AR TRES W  DIS CAZ7
 BAR2 SZ ES   1    636 40.94                             171   -0.09 7 21.7 189 
 BRR  HN ES   1    636 44.52                             152    0.63 7 71.4 300 
 PAM  SZ EP   1    636 29.01                             150    0.17 7 79.0  39 
 PAM  SN ES   1    636 45.75                             150   -0.21 7 79.0  39 
 PAM  SZ I         636 48.64         2.1 0.48            151           79.0  39 
 RUS  HZ EP   1    636 30.13                             143   -0.07 7 99.0 176 
 RUS  HN ES   1    636 48.18                             143   -0.19 7 99.0 176 
 RUS  HZ I         636 50.09         2.3 0.26            142           99.0 176 
 PTB  HZ EP   1    636 33.22                             131   -0.28 7  147 259 
 PTB  HN ES   1    636 53.80                             131   -0.45 7  147 259 
 PTB  HZ I         636 55.32         3.8 0.34            132            147 259 
 CHI  HZ EP   1    636 44.32                             117    0.10 6  247 195 
 CHI  HN ES   1    637 13.87                             117    0.54 6  247 195 
 CHI  HZ I         637 18.85         1.0 0.56            116            247 195 
                                                                                
