 2016  725 0155 53.9 L   6.793 -73.074150.3  RSN 17 0.4 2.3LRSN                1
 GAP=146        0.82       2.8     3.3  4.4 -0.1145E+01  0.5429E+01  0.2938E+01E
 Epicentro: LOS SANTOS - SANTANDER                                             3
 ACTION:UPD 17-03-29 16:54 OP:lp   STATUS:               ID:20160725015553 L   I
 OLDACT:DUP 16-07-25 16:10 OP:edw  STATUS:               ID:20160725014760d    3
 OLDACT:REG 16-07-25 14:01 OP:edw  STATUS:               ID:20160725014759     3
 2016-07-25-0147-59S.COL___337                                                 6
 STAT SP IPHASW D HRMM SECON CODA AMPLIT PERI AZIMU VELO AIN AR TRES W  DIS CAZ7
 BAR2 EZ IP     D  156 14.00                             170   -0.0610 25.2 208 
 BAR2 EZ ES        156 29.70                             170   -0.1310 25.2 208 
 PAM  EZ EP        156 16.76                             153    0.4410 73.3  34 
 PAM  EE ES        156 34.05                             153    0.2110 73.3  34 
 BRR  HZ EP        156 15.87                             151   -0.0410 78.6 296 
 BRR  HN ES        156 33.41                             151    0.2910 78.6 296 
 BRR  HZ I         156 35.57        22.3 0.14            149           78.6 296 
 RUS  HZ EP        156 18.16                             145    0.1810 99.6 181 
 RUS  HN ES        156 36.32                             145   -0.4710 99.6 181 
 RUS  HZ I         156 38.06         9.3 0.20            144           99.6 181 
 SPBC HZ EP        156 23.01                             129   -0.11 9  168 221 
 SPBC HN ES        156 45.35                             129   -0.60 9  168 221 
 SPBC HZ I         156 52.16        44.6 0.34            128            168 221 
 ZAR  HZ EP        156 26.65                             122   -0.73 8  212 292 
 ZAR  HN ES        156 53.16                             122   -0.37 8  212 292 
 ZAR  HZ I         156 58.58        22.8 0.52            122            212 292 
 NOR  HZ EP        156 30.31                             119   -0.18 8  241 236 
 NOR  HE ES        156 59.35                             119    0.28 8  241 236 
 NOR  HZ I         157  1.75        17.5 0.16            118            241 236 
 CHI  HZ EP        156 32.23                             118    0.27 8  250 197 
 CHI  HN ES        157  2.07                             118    0.39 8  250 197 
 CHI  HZ I         157  9.17         5.7 0.26            118            250 197 
 ROSC BZ EP   4    156 34.05                             117    1.45 0  256 213 
 ROSC BN ES   4    157  5.72                             117    2.90 0  256 213 
 ROSC BZ I         157 11.91        19.4 0.40            117            256 213 
 HEL  HZ EP        156 34.81                             115   -0.31 7  280 256 
 HEL  HN ES        157  8.00                             115    0.69 7  280 256 
 HEL  HZ I         157 14.72         8.0 0.40            115            280 256 
 URE  HZ EP   4    156 34.51                             114   -1.49 0  291 291 
 URE  HN ES   4    157  5.83                             114   -3.04 0  291 291 
 URE  HZ I         157 12.52        11.7 0.20            114            291 291 
 PTGC HZ EP   4    156 36.82                             113   -0.70 0  305 160 
 PTGC HN ES   4    157  9.92                             113   -1.65 0  305 160 
 GUY2CHZ EP        156 38.50                             113    0.15 7  307 236 
 GUY2CHE ES        157 13.67                             113    0.61 7  307 236 
 GUY2CHZ I         157 21.24        10.1 0.32                           307 236 
 ELA  HZ EP   4    156 43.77                             111    2.24 0  335 230 
 ELA  HN ES   4    157 22.14                             111    3.42 0  335 230 
 ELA  HZ I         157 25.49         5.7 0.32            111            335 230 
 PRA  HZ EP        156 47.77                             107   -0.15 6  395 211 
 PRA  HN ES        157 29.90                             107   -0.18 6  395 211 
 PRA  HZ I         157 37.48         9.1 0.26            107            395 211 
 PAL  HZ EP        156 49.81                             106   -0.10 6  412 240 
 PAL  HN ES        157 33.71                             106    0.07 6  412 240 
 SJC  HZ EP   4    156 48.21                             106   -1.95 0  414 326 
 SJC  HN ES   4    157 28.53                             106   -5.54 0  414 326 
 SJC  HZ I         157 34.68         4.1 0.28            107            414 326 
 CRJC HZ EP   9    156 54.27                             104   -2.26 0  468   3 
 CRJC HE ES        157 42.54                                   -0.61 5  468   3 
                                                                                
