 2016  725 0350 54.9 L   6.764 -73.110145.0  RSN  4 0.2 1.6LRSN                1
 GAP=143        0.55       2.9     4.4  4.5 -0.2286E+00 -0.1329E+01  0.4057E+00E
 Epicentro: LOS SANTOS - SANTANDER                                             3
 ACTION:UPD 17-03-29 16:54 OP:lp   STATUS:               ID:20160725035054 L   I
 OLDACT:REG 16-07-25 14:20 OP:edw  STATUS:               ID:20160725034759     3
 2016-07-25-0347-59S.COL___337                                                 6
 STAT SP IPHASW D HRMM SECON CODA AMPLIT PERI AZIMU VELO AIN AR TRES W  DIS CAZ7
 BAR2 EZ EP        351 14.17                             172   -0.1810 20.6 203 
 BAR2 EZ ES        351 29.20                             172   -0.3510 20.6 203 
 BRR  HZ EP        351 16.12                             151   -0.1310 76.6 300 
 BRR  HN ES        351 33.15                             151    0.2210 76.6 300 
 BRR  HZ I         351 33.67         7.8 0.08            153           76.6 300 
 PAM  EZ EP        351 17.11                             150    0.0710 78.1  35 
 PAM  EE ES        351 34.43                             150    0.0910 78.1  35 
 PAM  EZ I         351 36.35        11.6 0.50            151           78.1  35 
 RUS  HZ EP        351 18.31                             145    0.0710 96.4 178 
 RUS  HE ES        351 36.70                             145    0.2210 96.4 178 
 RUS  HZ I         351 38.05         4.9 0.32            146           96.4 178 
                                                                                
