 2010  425 0647 59.0 L   6.778 -73.035148.0  RSN  8 0.3 2.3LRSN                1
 GAP=163        0.75       4.6     7.2  6.1 -0.1575E+02 -0.1472E+02  0.5185E+01E
 Epicentro: CEPITA - SANTANDER                                                 3
 ACTION:UPD 10-08-24 10:01 OP:vdl  STATUS:               ID:20100425064701dL   I
 2010-04-25-0645-06S.COL___104                                                 6
 STAT SP IPHASW D HRMM SECON CODA AMPLIT PERI AZIMU VELO AIN AR TRES W  DIS CAZ7
 BAR2 SZ IP        648 19.04                             169     0.110   26 219 
 BAR2 SZ ES   1    648 33.95                             169    -0.6 7   26 219 
 BRR  HZ IP     D  648 21.31                             149     0.210   83 296 
 BRR  HZ I         648 23.25        30.7 0.10                            83 296 
 BRR  HN ES   1    648 38.67                             149     0.3 7   83 296 
 BRI  SZ IP        648 23.35                             142     0.310  107  14 
 BRI  SZ ES   1    648 41.89                             142     0.2 7  107  14 
 GUE  SZ EP   1    648 23.83                             140    -0.1 7  117   6 
 GRA  SZ IP        648 24.57                             138     0.210  125  12 
 GRA  SZ ES   1    648 44.31                             138     0.1 7  125  12 
 OCA  SZ IP        648 27.43                             129    -0.5 9  165 349 
 OCA  SZ ES   1    648 49.94                             129    -0.5 7  165 349 
 OCA  SZ I         648 53.64        58.6 0.15                           165 349 
 SDV  BZ IP     C  648 48.10                             109    -0.1 6  353  49 
 SDV  BZ I         648 49.03         3.8 0.28                           353  49 
 PRA  HZ EP   1    648 52.68                             107    -0.4 4  396 211 
 PRA  HE ES   2    649 35.59                             107     0.3 3  396 211 
 PRA  HZ I         649 39.56         6.9 0.64                           396 211 
                                                                                
