 2016  925 0742 53.8 L   6.789 -73.130143.7  RSN  9 0.5 1.9LRSN                1
 GAP=139        1.31       5.4     5.8  8.7 -0.2668E+01  0.1338E+02 -0.1065E+02E
 Epicentro: LOS SANTOS - SANTANDER                                             3
 ACTION:UPD 17-08-17 21:16 OP:lp   STATUS:               ID:20160925074253 L   I
 OLDACT:UP  16-09-25 16:44 OP:ar   STATUS:               ID:20160925073743d    3
 OLDACT:DUP 16-09-25 16:40 OP:ar   STATUS:               ID:20160925073743d    3
 OLDACT:DUP 16-09-25 16:36 OP:ar   STATUS:               ID:20160925073742d    3
 2016-09-25-0738-00M.COL___327                                                 6
 STAT SP IPHASW D HRMM SECON CODA AMPLIT PERI AZIMU VELO AIN AR TRES W  DIS CAZ7
 BAR2 EZ EP        743 13.11                             171   -0.0410 22.5 195 
 BAR2 EZ ES        743 28.03                             171   -0.2310 22.5 195 
 BAR2 EZ I         743 29.03        19.4 0.20            172           22.5 195 
 BRR  HZ EP        743 15.31                             151    0.4810 73.3 299 
 BRR  HN ES        743 31.85                             151    0.6010 73.3 299 
 BRR  HZ I         743 36.83        10.5 0.42            150           73.3 299 
 PAM  EZ EP        743 16.25                             150    0.4710 77.3  38 
 PAM  EN ES        743 33.08                             150    0.1510 77.3  38 
 PAM  EZ I         743 35.37        20.6 0.56            152           77.3  38 
 RUS  HZ EP   2    743 17.54                             144    0.30 5 99.2 177 
 RUS  HN ES        743 35.50                             144   -0.0310 99.2 177 
 RUS  HZ I         743 37.32         5.0 0.40            148           99.2 177 
 PTB  HZ EP        743 20.34                             131   -0.38 9  149 259 
 PTB  HN ES        743 40.76                             131   -0.96 9  149 259 
 PTB  HZ I         743 44.09        10.1 0.26            132            149 259 
 OCA  HZ EP        743 21.55                             129   -0.52 9  162 353 
 OCA  HN ES        743 43.28                             129   -0.86 9  162 353 
 OCA  HZ I         743 46.64        21.4 0.26            130            162 353 
 ZAR  HZ EP        743 26.58                             122    0.27 8  206 292 
 ZAR  HN ES        743 52.56                             122    0.88 8  206 292 
 ZAR  HZ I         743 57.34         6.9 0.34            123            206 292 
 URE  HZ EP   4    743 39.22                             113    4.23 0  286 292 
 URE  HN ES   4    744  5.40                             113   -1.72 0  286 292 
 URE  HZ I         744  7.47         4.3 0.18            114            286 292 
 SJC  HZ EP   4    743 48.21                             105   -1.30 0  411 327 
 SJC  HN ES   4    744 29.87                             105   -3.11 0  411 327 
 SJC  HZ I         744 39.56         1.5 0.62            107            411 327 
                                                                                
