 2013  225 0814  0.1 L   6.815 -73.142142.2  RSN  8 0.5 2.1LRSN                1
 GAP=136        1.27       5.3     5.7  9.0 -0.1674E+01  0.6388E+01  0.1527E+02E
 Epicentro: LOS SANTOS - SANTANDER                                             3
 ACTION:UPD 13-03-12 09:35 OP:ep   STATUS:               ID:20130225081400 L   I
 2013-02-25-0808-51M.COL___193                                                 6
 STAT SP IPHASW D HRMM SECON CODA AMPLIT PERI AZIMU VELO AIN AR TRES W  DIS CAZ7
 BAR2 SZ ES        814 33.99                             170   -0.3510 25.0 190 
 BAR2 SZ I         814 35.20        23.6 0.24            169           25.0 190 
 BRR  HZ EP        814 21.21                             152    0.3710 70.8 297 
 BRR  HN ES        814 37.93                             152    0.9110 70.8 297 
 BRR  HN I         814 41.88        26.7 0.22            152           70.8 297 
 PAM  SZ IP        814 22.18                             151    0.3410 75.9  40 
 PAM  SZ I         814 22.37        20.7 0.22            153           75.9  40 
 PAM  SN ES        814 38.85                             151    0.0410 75.9  40 
 RUS  HZ EP        814 23.58                             143   -0.0410  102 176 
 PTB  HZ EP        814 26.86                             131    0.02 9  148 258 
 PTB  HN ES        814 46.87                             131   -0.83 9  148 258 
 OCA  HN ES        814 48.79                             129   -0.95 9  159 353 
 OCA  HN I         814 52.82        47.9 0.38            131            159 353 
 ZAR  HN ES        814 57.78                             122    0.39 9  204 292 
 CHI  HZ IP        814 37.64                             116   -0.14 8  250 195 
 CHI  HZ EP        814 37.64                                            250 195 
 CHI  HN ES   1    815  7.28                             116    0.10 6  250 195 
 CHI  HN I         815 12.77         4.2 0.60            117            250 195 
                                                                                
