 2013  425 0656 18.0 L   6.217 -73.789  9.9  RSN  7 0.5 2.3LRSN                1
 GAP=124        1.18       2.9     2.4  9.9 -0.9914E+00  0.8939E+01  0.2198E+01E
 Epicentro: LANDAZURI - SANTANDER                                              3
 ACTION:UPD 13-05-22 14:40 OP:EP   STATUS:               ID:20130425065618 L   I
 2013-04-25-0648-35M.COL___203                                                 6
 STAT SP IPHASW D HRMM SECON CODA AMPLIT PERI AZIMU VELO AIN AR TRES W  DIS CAZ7
 BAR2 SZ EP   1    656 31.34                              94    0.53 7 78.9  58 
 BAR2 SZ ES   1    656 40.14                              94   -0.68 7 78.9  58 
 BAR2 SZ I         656 42.01        39.9 0.54             97           78.9  58 
 PTB  HZ IP     D  656 31.28                              94    0.2410 81.9 296 
 PTB  HN ES   1    656 40.90                              94   -0.33 7 81.9 296 
 PTB  HN I         656 44.01       224.9 0.22             96           81.9 296 
 RUS  HZ IP     D  656 32.68                              94    0.5310 86.0 115 
 RUS  HN ES        656 42.90                              94   -0.3010 86.0 115 
 RUS  HN I         656 44.03        40.0 0.20             97           86.0 115 
 BRR  HZ EP   2    656 34.50                              93    0.93 5 98.8   5 
 BRR  HN ES        656 45.93                              93    0.2010 98.8   5 
 BRR  HN I         656 50.79        87.0 0.12             95           98.8   5 
 GIR2 SZ EP   4    656 37.54                              93    1.24 0  116  35 
 GIR2 SZ ES        656 50.03                              93   -0.5510  116  35 
 GIR2 SZ I         656 57.27        14.8 0.32             94            116  35 
 NOR  HZ EP        656 40.36                              92    0.54 9  140 239 
 NOR  HN ES        656 56.07                              92   -0.79 9  140 239 
 NOR  HN I         656 57.47       110.1 0.16             94            140 239 
 HEL  HZ EP     D  656 47.66                              56    0.41 9  193 269 
 HEL  HN ES   1    657  9.62                              56   -0.45 7  193 269 
 HEL  HN I         657 10.63        75.1 0.22             56            193 269 
                                                                                
