 2011 1225 0723 23.5 L   7.075 -73.324116.0  RSN 13 0.4 2.1LRSN                1
 GAP= 75        0.83       3.0     3.6  4.9  0.1551E-01  0.4774E+01  0.1653E+01E
 Epicentro: LEBRIJA - SANTANDER                                                3
 ACTION:UPD 12-07-13 16:18 OP:ep   STATUS:               ID:20111225072323 L   I
 2011-12-25-0720-00M.COL___186                                                 6
 STAT SP IPHASW D HRMM SECON CODA AMPLIT PERI AZIMU VELO AIN AR TRES W  DIS CAZ7
 GIR2 SZ EP        723 39.31                             173    0.0310 14.4  88 
 BRR  HZ IP     D  723 40.01                             158    0.0510 43.1 275 
 BRR  HZ I         723 40.18        64.3 0.13                          43.1 275 
 BRR  HN ES        723 53.25                             158    0.4910 43.1 275 
 BAR2 SZ IP        723 41.21                             153    0.2710 55.6 164 
 BAR2 SZ ES        723 54.65                             153    0.1410 55.6 164 
 BAR2 SZ I         723 56.17       109.7 0.16                          55.6 164 
 PAM  SZ EP   1    723 42.03                             146   -0.49 7 74.9  67 
 PAM  SN ES   1    723 57.51                             146    0.20 7 74.9  67 
 OCA  SZ EP        723 46.33                             129   -0.2510  129   0 
 OCA  SZ ES   1    724  4.69                             129    0.14 7  129   0 
 RUS  HZ EP   1    723 46.89                             128   -0.59 7  133 168 
 RUS  HE ES   1    724  5.70                             128   -0.45 7  133 168 
 RUS  HZ I         724  7.43         7.1 0.38                           133 168 
 PTB  HZ EP        723 46.66                             127   -0.69 9  139 245 
 PTB  HN ES   1    724  5.32                             127   -0.59 7  139 245 
 ZAR  HZ EP   1    723 51.42                             119    0.26 7  176 285 
 ZAR  HE ES   1    724 12.68                             119   -0.01 7  176 285 
 ZAR  HZ I         724 15.40        18.4 0.43                           176 285 
 NOR  SZ EP   1    723 58.21                             111   -0.03 6  239 226 
 HEL  HZ EP   1    724  1.59                             109    0.24 6  263 248 
 HEL  HZ I         724 36.32         8.6 0.35                           263 248 
 CHI  HZ EP   1    724  3.19                             108    0.46 6  274 190 
 CHI  HN ES   1    724 33.85                             108    0.57 6  274 190 
 CHI  HZ I         724 46.53         4.2 0.56                           274 190 
 RREF HZ EP   1    724 10.29                             105    0.90 5  329 223 
 RREF HZ I         724 53.70         5.3 0.19                           329 223 
 PRA  HZ EP   1    724 18.71                             100    0.35 4  410 205 
                                                                                
