 2017  725 0720  1.8 L   6.794 -73.139148.0  RSN 13 0.5 1.7LRSN                1
 GAP=113        0.97       3.6     3.7  5.1 -0.1068E+00  0.1239E+01  0.3818E+01E
 Epicentro: LOS SANTOS - SANTANDER                                             3
 ACTION:UPD 17-08-30 15:36 OP:rebc STATUS:               ID:20170725072001 L   I
 OLDACT:UP  17-07-25 16:27 OP:and  STATUS:               ID:20170725071742     3
 OLDACT:UP  17-07-25 16:26 OP:and  STATUS:               ID:20170725071742     3
 OLDACT:UP  17-07-25 16:25 OP:and  STATUS:               ID:20170725071742     3
 OLDACT:UP  17-07-25 16:24 OP:and  STATUS:               ID:20170725071742     3
 OLDACT:UP  17-07-25 16:24 OP:and  STATUS:               ID:20170725071742     3
 OLDACT:REG 17-07-25 12:49 OP:and  STATUS:               ID:20170725071742     3
 2017-07-25-0718-00M.COL___386                                                 6
 STAT SP IPHASW D HRMM SECON CODA AMPLIT PERI AZIMU VELO AIN AR TRES W  DIS CAZ7
 BAR2 EZ IP     C  720 21.70                             171    0.0210 22.8 192 
 BAR2 EZ ES        720 36.81                             171   -0.3810 22.8 192 
 BAR2 EZ I         720 38.22        16.2 0.16            169           22.8 192 
 BRR  HZ IP     C  720 23.43                             152    0.1910 72.1 299 
 BRR  HN ES        720 40.79                             152    0.8310 72.1 299 
 BRR  HZ I         720 45.26         9.6 0.12            150           72.1 299 
 PAM  EZ IP     C  720 24.43                             151    0.1810 77.5  39 
 PAM  EN ES        720 41.61                             151   -0.1610 77.5  39 
 PAM  EZ I         720 43.62        12.7 0.46            155           77.5  39 
 RUS  HZ EP   2    720 25.93                             144    0.22 5 99.9 176 
 RUS  HN ES        720 44.13                             144   -0.2410 99.9 176 
 RUS  HZ I         720 45.19         4.8 0.46            146           99.9 176 
 PTB  HZ EP        720 28.58                             132   -0.42 9  148 259 
 PTB  HN ES        720 49.60                             132   -0.61 9  148 259 
 PTB  HZ I         720 55.38         3.8 0.13            131            148 259 
 SPBC HZ EP        720 30.77                             129    0.31 9  163 219 
 SPBC HN ES        720 52.93                             129    0.12 9  163 219 
 SPBC HZ I         720 55.60         8.2 0.22            130            163 219 
 YPLC HZ IP     D  720 32.09                             127    0.43 9  176 151 
 ZAR  HZ EP        720 34.54                             123    0.06 9  205 292 
 ZAR  HN ES        720 59.59                             123   -0.38 9  205 292 
 ZAR  HZ I         721  5.21         6.5 0.21            123            205 292 
 NOR  HZ EP   9    720 39.02                             119    1.35 0  235 235 
 NOR  HN ES        721  6.91                             119   -0.10 8  235 235 
 NOR  HZ I         721 12.38         3.6 0.22            119            235 235 
 GUY2CHN ES   3    721 21.17                             113    1.53 2  301 235 
 GUY2CHZ I         721 26.32         1.8 0.32                           301 235 
 PTGC HZ IP     D  720 44.70                             112   -0.95 7  308 159 
 PRA  HZ EP        720 55.80                             107    0.43 6  392 210 
 PRA  HN ES        721 37.86                             107    0.71 6  392 210 
 PRA  HZ I         721 41.12         1.6 0.22            108            392 210 
 SJC  HZ EP   3    720 55.82                             106   -1.72 1  410 327 
 SJC  HN ES   4    721 37.14                             106   -3.89 0  410 327 
 SJC  HZ I         721 40.87         2.0 0.40            107            410 327 
                                                                                
