 2013 1125 0321 30.6 L   6.763 -73.127140.3  RSN 15 0.4 2.6LRSN                1
 GAP= 92        0.94       4.3     2.9  5.3 -0.5864E+00  0.4118E+01  0.5916E+01E
 Epicentro: LOS SANTOS - SANTANDER                                             3
 ACTION:UPD 14-01-09 16:30 OP:ep   STATUS:               ID:20131125032130 L   I
 OLDACT:UP  13-11-25 10:01 OP:mh   STATUS:               ID:20131125032000     3
 OLDACT:REG 13-11-25 07:58 OP:mh   STATUS:               ID:20131125032000     3
 2013-11-25-0320-00M.COL___282                                                 6
 STAT SP IPHASW D HRMM SECON CODA AMPLIT PERI AZIMU VELO AIN AR TRES W  DIS CAZ7
 BAR2 SZ IP     C  321 49.47                             172   -0.0210 19.8 198 
 BAR2 SZ ES        322  3.90                             172   -0.3410 19.8 198 
 BAR2 SZ I         322  5.20       220.0 0.18            166           19.8 198 
 BRR  HZ IP     D  321 51.41                             150    0.0310 75.1 301 
 BRR  HN ES        322  8.17                             150    0.5710 75.1 301 
 BRR  HZ I         322 12.76        75.7 0.10            138           75.1 301 
 PAM  SZ EP   1    321 52.36                             149    0.01 7 79.3  36 
 PAM  SN ES        322  9.26                             149   -0.0610 79.3  36 
 PAM  SZ I         322 12.18        41.6 0.36            136           79.3  36 
 PTB  HZ EP   1    321 56.11                             130   -1.13 7  149 261 
 PTB  HZ I         322 19.53        62.8 0.14            117            149 261 
 TAM  HZ EP        321 57.76                             130    0.21 9  152 104 
 TAM  HN ES        322 18.87                             130    0.29 9  152 104 
 SPBC HZ EP   1    321 58.46                             128   -0.04 7  161 220 
 SPBC HN ES        322 19.89                             128   -0.38 9  161 220 
 SPBC HZ I         322 21.47        66.3 0.20            115            161 220 
 OCA  HZ EP   1    321 57.92                             127   -0.98 7  165 353 
 OCA  HZ I         322 23.68        68.5 0.33            115            165 353 
 ZAR  HZ EP   1    322  2.56                             121   -0.49 6  208 293 
 ZAR  HN ES        322 28.51                             121    0.14 8  208 293 
 ZAR  HZ I         322 36.24        31.9 0.24            109            208 293 
 NOR  HZ EP   1    322  5.95                             117    0.02 6  234 236 
 NOR  HZ I         322 35.20        28.6 0.21            107            234 236 
 CHI  HZ EP   1    322  7.62                             116    0.01 6  245 196 
 CHI  HZ I         322 42.47        11.5 0.35            106            245 196 
 SML  HZ EP   4    322  5.34                             116   -2.08 0  248 335 
 SML  HN ES   4    322 33.47                             116   -2.68 0  248 335 
 SML  HZ I         322 39.88        75.9 0.09            106            248 335 
 HEL  HZ EP        322 11.52                             113    0.88 8  273 257 
 HEL  HN ES        322 42.11                             113    0.22 8  273 257 
 HEL  HZ I         322 47.18        17.6 0.27            104            273 257 
 GUY2CHZ EP        322 14.15                             111    0.27 7  301 236 
 GUY2CHN ES   4    322 48.18                             111    0.54 0  301 236 
 CBOC HZ EP   1    322 17.77                             109    0.40 5  334 253 
 CBOC HN ES   2    322 53.32                             109   -0.54 3  334 253 
 SJC  HZ EP   4    322 24.47                             105   -2.04 0  414 327 
 SJC  HN ES   4    323  5.44                             105   -4.70 0  414 327 
 SJC  HZ I         323  9.93        14.0 0.34             99            414 327 
                                                                                
