 2014  325 0854  3.5 L   7.227 -73.816 89.2  RSN  6 0.5 1.5LRSN                1
 GAP=197        1.28       5.0     6.5 13.8 -0.1616E+02  0.5123E+01 -0.6070E+01E
 Epicentro: PUERTO WILCHES - SANTANDER                                         3
 ACTION:UPD 14-04-09 23:20 OP:nd   STATUS:               ID:20140325085403 L   I
 OLDACT:REG 14-03-25 07:58 OP:y    STATUS:               ID:20140325085048     3
 2014-03-25-0850-48M.COL___234                                                 6
 STAT SP IPHASW D HRMM SECON CODA AMPLIT PERI AZIMU VELO AIN AR TRES W  DIS CAZ7
 PTB  HZ EP        854 22.12                             127    0.1910  104 223 
 PTB  HN ES        854 35.84                             127   -0.4710  104 223 
 PTB  HZ I         854 37.22        11.5 0.22             47            104 223 
 ZAR  HZ EP        854 23.55                             123    0.1110  119 284 
 ZAR  HE ES        854 39.49                             123    0.5010  119 284 
 ZAR  HZ I         854 40.41         6.3 0.10             47            119 284 
 OCA  HE ES        854 40.83                             121    0.4110  125  26 
 SML  HZ EP        854 29.15                             112   -0.62 9  176 351 
 SML  HN ES        854 49.66                             112   -0.59 9  176 351 
 SML  HZ I         855  1.15         6.0 0.10             47            176 351 
 URE  HZ EP        854 33.39                             109    1.08 9  198 287 
 URE  HN ES        854 54.34                             109   -0.44 9  198 287 
 URE  HZ I         854 59.44         5.8 0.14             37            198 287 
 HEL  HZ EP        854 35.19                             107   -0.27 8  221 239 
 HEL  HZ I         855  3.43         1.4 0.30             37            221 239 
                                                                                
