 2012  425 0501 58.6 L   6.710 -73.256141.6  RSN  4 0.3 1.3LRSN                1
 GAP=197        0.71       6.9     7.1  7.6  0.2400E+02  0.1032E+02  0.2297E+01E
 Epicentro: BARICHARA - SANTANDER                                              3
 ACTION:UPD 12-07-05 11:55 OP:tino STATUS:               ID:20120425050158 L   I
 2012-04-25-0500-00M.COL___186                                                 6
 STAT SP IPHASW D HRMM SECON CODA AMPLIT PERI AZIMU VELO AIN AR TRES W  DIS CAZ7
 BAR2 SZ ES   1    5 2 31.93                             174    -0.4 7   15 148 
 BAR2 SZ I         5 2 33.22        10.3 0.23                            15 148 
 BRR  HZ EP        5 2 18.91                             153    -0.110   67 311 
 BRR  HN ES   1    5 2 35.45                             153     0.5 7   67 311 
 BRR  HZ I         5 2 36.73         3.7 0.15                            67 311 
 RUS  HZ EP   1    5 2 21.45                             145     0.1 7   92 168 
 RUS  HN ES   1    5 2 39.30                             145     0.2 7   92 168 
 RUS  HZ I         5 2 43.05         3.6 0.64                            92 168 
 PTB  HZ EP   1    5 2 23.96                             134     0.0 7  134 262 
 PTB  HN ES   1    5 2 43.61                             134    -0.2 7  134 262 
 PTB  HZ I         5 2 46.07         1.8 0.37                           134 262 
                                                                                
