 2014  225 0415 35.7 L   6.808 -73.156142.5  RSN  7 0.4 1.7LRSN                1
 GAP=135        0.91       3.3     4.3  8.0 -0.2377E+00  0.1253E+02 -0.5247E+01E
 Epicentro: LOS SANTOS - SANTANDER                                             3
 ACTION:UPD 14-03-10 08:13 OP:ep   STATUS:               ID:20140225041535 L   I
 OLDACT:REG 14-02-25 08:06 OP:fm   STATUS:               ID:20140225040814     3
 2014-02-25-0408-14M.COL___236                                                 6
 STAT SP IPHASW D HRMM SECON CODA AMPLIT PERI AZIMU VELO AIN AR TRES W  DIS CAZ7
 PAM  SZ EP        415 58.01                             150    0.4410 77.5  41 
 PAM  SN ES        416 14.80                             150    0.1710 77.5  41 
 PAM  SZ I         416 17.12         9.3 0.58            154           77.5  41 
 RUS  HZ EP        415 59.06                             143   -0.1410  102 175 
 RUS  HE ES        416 17.54                             143    0.0210  102 175 
 RUS  HZ I         416 19.07         3.5 0.28            147            102 175 
 PTB  HZ EP   1    416  1.93                             131   -0.38 7  147 258 
 PTB  HN ES        416 22.72                             131   -0.35 9  147 258 
 PTB  HZ I         416 28.33         5.4 0.28            134            147 258 
 OCA  HN ES        416 24.78                             129   -0.70 9  159 354 
 OCA  HZ I         416 29.24         5.6 0.48            132            159 354 
 ZAR  HZ EP        416  8.22                             122    0.43 9  203 292 
 ZAR  HN ES        416 33.36                             122    0.54 9  203 292 
 ZAR  HZ I         416 35.90         3.8 0.28            124            203 292 
 SML  HZ EP        416 11.58                             117   -0.43 8  242 335 
 SML  HN ES        416 40.60                             117    0.27 8  242 335 
 SML  HZ I         416 43.09         7.3 0.28            120            242 335 
 SJC  HZ EP   2    416 30.80                             105   -0.20 3  408 327 
 SJC  HN ES   4    417  9.95                             105   -4.18 0  408 327 
                                                                                
