 2017  725 0722 57.9 L   6.822 -73.124140.8  RSN  7 0.4 1.4LRSN                1
 GAP=113        0.77       5.7     4.4  6.3  0.6357E+01 -0.4828E+01 -0.4000E+01E
 Epicentro: LOS SANTOS - SANTANDER                                             3
 ACTION:UPD 17-08-30 15:36 OP:rebc STATUS:               ID:20170725072257 L   I
 OLDACT:UP  17-07-25 16:38 OP:and  STATUS:               ID:20170725071744d    3
 OLDACT:UP  17-07-25 16:38 OP:and  STATUS:               ID:20170725071744d    3
 OLDACT:UP  17-07-25 16:38 OP:and  STATUS:               ID:20170725071744d    3
 OLDACT:UP  17-07-25 16:37 OP:and  STATUS:               ID:20170725071744d    3
 OLDACT:UP  17-07-25 16:36 OP:and  STATUS:               ID:20170725071744d    3
 OLDACT:UP  17-07-25 16:36 OP:and  STATUS:               ID:20170725071744d    3
 OLDACT:DUP 17-07-25 16:34 OP:and  STATUS:               ID:20170725071744d    3
 OLDACT:UP  17-07-25 16:33 OP:and  STATUS:               ID:20170725071743d    3
 OLDACT:UP  17-07-25 16:33 OP:and  STATUS:               ID:20170725071743d    3
 OLDACT:UP  17-07-25 16:32 OP:and  STATUS:               ID:20170725071743d    3
 OLDACT:UP  17-07-25 16:32 OP:and  STATUS:               ID:20170725071743d    3
 OLDACT:DUP 17-07-25 16:27 OP:and  STATUS:               ID:20170725071743d    3
 OLDACT:UP  17-07-25 16:27 OP:and  STATUS:               ID:20170725071742     3
 OLDACT:UP  17-07-25 16:26 OP:and  STATUS:               ID:20170725071742     3
 OLDACT:UP  17-07-25 16:25 OP:and  STATUS:               ID:20170725071742     3
 OLDACT:UP  17-07-25 16:24 OP:and  STATUS:               ID:20170725071742     3
 OLDACT:UP  17-07-25 16:24 OP:and  STATUS:               ID:20170725071742     3
 OLDACT:REG 17-07-25 12:49 OP:and  STATUS:               ID:20170725071742     3
 2017-07-25-0718-00M.COL___386                                                 6
 STAT SP IPHASW D HRMM SECON CODA AMPLIT PERI AZIMU VELO AIN AR TRES W  DIS CAZ7
 BAR2 EZ EP        723 16.75                             169   -0.2610 26.2 194 
 BAR2 EZ ES        723 32.32                             169    0.4210 26.2 194 
 BAR2 EZ I         723 33.39         9.1 0.16            168           26.2 194 
 BRR  HZ IP     C  723 18.52                             152   -0.0610 72.2 296 
 BRR  HZ I         723 39.38         3.3 0.40            141           72.2 296 
 PAM  EZ IP     D  723 19.73                             151    0.3410 74.0  39 
 PAM  EN ES   2    723 35.33                             151   -0.82 5 74.0  39 
 PAM  EZ I         723 39.21         6.4 0.20            146           74.0  39 
 PTB  HZ EP   9    723 23.58                             131   -1.16 0  151 258 
 PTB  HN ES        723 44.16                             131   -0.35 9  151 258 
 PTB  HZ I         723 50.18         1.2 0.13            123            151 258 
 SPBC HN ES   2    723 48.63                             128    0.08 5  167 219 
 SPBC HZ I         723 52.58         3.4 0.20            123            167 219 
 YPLC HZ IP     D  723 27.16                             125   -0.29 9  178 152 
 ZAR  HZ EP   3    723 31.48                             121    1.31 2  205 291 
 ZAR  HN ES        723 55.23                             121   -0.11 8  205 291 
 ZAR  HZ I         724  1.41         2.9 0.26            114            205 291 
                                                                                
