 2014  725 0722 24.4 L   6.850 -73.369108.1  RSN  9 0.4 1.7LRSN                1
 GAP=142        1.03       2.9     4.1  9.5 -0.1010E+01  0.1465E+02 -0.9808E+01E
 Epicentro: SAN VICENTE DE CHUCURI - SANTANDER                                 3
 ACTION:UPD 15-03-16 20:46 OP:nd   STATUS:               ID:20140725072224 L   I
 OLDACT:REG 14-07-25 13:23 OP:spq  STATUS:               ID:20140725071813     3
 2014-07-25-0718-13M.COL___266                                                 6
 STAT SP IPHASW D HRMM SECON CODA AMPLIT PERI AZIMU VELO AIN AR TRES W  DIS CAZ7
 BAR2 SZ EP        722 40.21                             161    0.3110 35.2 144 
 BAR2 SZ ES   1    722 52.32                             161    0.31 7 35.2 144 
 BAR2 SZ I         722 54.96        45.5 0.20            166           35.2 144 
 RUS  HZ EP        722 45.71                             131    0.1710  111 163 
 RUS  HN ES        723  2.18                             131    0.1310  111 163 
 RUS  HZ I         723  3.89         5.6 0.22            137            111 163 
 PTB  HZ EP        722 45.60                             127   -0.6810  125 254 
 PTB  HE ES        723  2.96                             127   -0.4010  125 254 
 PTB  HZ I         723  9.14         5.2 0.10            128            125 254 
 OCA  HN ES        723  8.12                             121   -0.75 9  154   2 
 OCA  HZ I         723  9.73         9.4 0.34            126            154   2 
 SPBC HE ES        723  8.35                             121   -0.36 9  154 210 
 SPBC HZ I         723 12.36         6.7 0.10            124            154 210 
 ZAR  HZ EP        722 52.22                             116    0.31 9  179 293 
 ZAR  HN ES        723 14.07                             116    0.68 9  179 293 
 ZAR  HZ I         723 20.98         5.1 0.14            119            179 293 
 NOR  HE ES        723 21.54                             111    0.17 8  219 229 
 NOR  HZ I         723 29.90         2.8 0.18            114            219 229 
 SML  HZ EP        722 57.43                             110   -0.10 8  229 340 
 SML  HN ES        723 23.90                             110    0.51 8  229 340 
 SML  HZ I         723 25.78        10.1 0.10            114            229 340 
 HEL  HE ES   1    723 28.50                             108    0.06 6  250 253 
 HEL  HZ I         723 34.37         1.7 0.48            111            250 253 
                                                                                
