 2016  825 0536 28.5 L   6.833 -73.139150.1  RSN 14 0.5 1.8LRSN                1
 GAP=119        1.18       3.6     4.1  6.1 -0.3825E+01  0.2993E+01  0.4895E+01E
 Epicentro: LOS SANTOS - SANTANDER                                             3
 ACTION:UPD 16-10-29 15:39 OP:rebc STATUS:               ID:20160825053628 L   I
 OLDACT:REG 16-08-25 12:34 OP:ak   STATUS:               ID:20160825052738     3
 2016-08-25-0528-00M.COL___374                                                 6
 STAT SP IPHASW D HRMM SECON CODA AMPLIT PERI AZIMU VELO AIN AR TRES W  DIS CAZ7
 BAR2 EZ EP        536 48.80                             169    0.0610 27.1 190 
 BAR2 EZ ES        537  4.28                             169   -0.2410 27.1 190 
 BAR2 EZ I         537  6.75        12.9 0.34                          27.1 190 
 BRR  HZ EP        536 50.65                             154    0.5810 70.2 296 
 BRR  HN ES        537  7.75                             154    0.8510 70.2 296 
 BRR  HZ I         537  9.80         9.7 0.28                          70.2 296 
 PAM  EZ EP        536 51.80                             153    0.8010 74.1  41 
 PAM  EN ES        537  8.76                             153    0.2210 74.1  41 
 PAM  EZ I         537 11.88         9.6 0.34                          74.1  41 
 RUS  HZ EP        536 52.76                             144   -0.1910  104 177 
 RUS  HN ES        537 11.34                             144   -0.6710  104 177 
 RUS  HZ I         537 12.68         7.4 0.36                           104 177 
 PTB  HZ EP        536 55.18                             133   -0.79 9  149 258 
 PTB  HE ES        537 17.39                             133    0.00 9  149 258 
 PTB  HZ I         537 20.22         5.4 0.18                           149 258 
 OCA  HZ EP   2    536 56.75                             131   -0.08 5  157 353 
 OCA  HN ES        537 18.12                             131   -0.80 9  157 353 
 OCA  HZ I         537 23.47        11.1 0.29                           157 353 
 SPBC HZ EP        536 57.71                             129    0.05 9  167 218 
 SPBC HN ES        537 20.07                             129   -0.32 9  167 218 
 SPBC HZ I         537 25.98        12.4 0.26                           167 218 
 ZAR  HN ES        537 26.20                             123   -0.45 9  203 291 
 NOR  HZ EP        537  5.13                             119    0.34 8  237 234 
 NOR  HN ES        537 32.91                             119   -0.18 8  237 234 
 NOR  HZ I         537 40.75         5.5 0.09                           237 234 
 CHI  HZ EP        537  7.07                             118    0.22 8  252 195 
 CHI  HN ES        537 37.61                             118    0.84 8  252 195 
 ROSC BN ES   4    537 39.80                             117    2.33 0  256 211 
 SOCV BZ EP        537 10.90                             113   -0.56 7  299  57 
 SOCV BN ES   4    537 43.13                             113   -1.83 0  299  57 
 GUY2CHZ EP   2    537 13.35                             113    0.72 4  304 234 
 GUY2CHN ES        537 47.38                             113    0.34 7  304 234 
 GUY2CHZ I         537 58.99         3.6 0.50                           304 234 
 CBOC HE ES        537 52.87                             111    0.15 7  335 252 
 CBOC HZ I         537 56.98         1.1 0.53                           335 252 
 PRA  HZ EP        537 22.44                             107   -0.16 6  396 209 
 PRA  HN ES        538  4.10                             107   -0.69 6  396 209 
 PRA  HZ I         538 10.55         2.6 0.26                           396 209 
                                                                                
