 2010  925 0101 19.0 L   6.806 -73.062144.0  RSN  9 0.4 1.7LRSN                1
 GAP=168        0.85       4.6     8.6  8.8 -0.4126E+01 -0.4350E+01 -0.4580E+00E
 Epicentro: LOS SANTOS - SANTANDER                                             3
 ACTION:UP  11-02-18 11:05 OP:tino STATUS:               ID:20100925010119 L   I
 2010-09-25-0058-08S.COL___120                                                 6
 STAT SP IPHASW D HRMM SECON CODA AMPLIT PERI AZIMU VELO SNR AR TRES W  DIS CAZ7
 BAR2 SZ IP        1 1 38.77                             169     0.310   27 210 
 BAR2 SZ I         1 1 39.09        18.7 0.08                            27 210 
 BAR2 SZ ES   2    1 1 53.05                             169    -0.7 5   27 210 
 GIR2 SZ EP   1    1 1 37.92                             166    -0.6 7   34 334 
 BRR  HZ EP        1 1 40.71                             149     0.310   79 295 
 BRR  HZ I         1 1 42.61        15.9 0.33                            79 295 
 BRR  HN ES   1    1 1 57.39                             149     0.2 7   79 295 
 RUS  HZ EP   1    1 1 42.75                             143     0.1 7  101 181 
 RUS  HE ES   1    1 2  1.10                             143     0.1 7  101 181 
 RUS  HZ I         1 2  2.92         5.1 0.23                           101 181 
 GUE  SZ EP   1    1 1 42.75                             140    -0.6 7  114   8 
 GRA  SZ ES   2    1 2  3.40                             137     0.2 5  123  13 
 GRA  SZ I         1 2  5.46         6.1 0.18                           123  13 
 OCA  SZ EP   2    1 1 47.83                             129     0.6 5  161 350 
 OCA  SZ I         1 2 28.87         7.8 0.43                           161 350 
 NOR  SZ EP   2    1 1 55.18                             117    -0.3 4  243 236 
 NOR  SN ES   2    1 2 23.15                             117    -0.8 4  243 236 
 CHI  HZ EP   2    1 1 57.31                             116     0.4 4  252 197 
 CHI  HE ES   2    1 2 26.41                             116    -0.1 4  252 197 
 CHI  HZ I         1 2 29.40         1.6 0.38                           252 197 
                                                                                
