 2011  925 0713 21.7 L   6.790 -73.150145.7  RSN  5 0.3 1.4LRSN                1
 GAP=218        0.61       7.7     8.8  6.5  0.5452E+02 -0.8675E+01 -0.8478E+01E
 Epicentro: LOS SANTOS - SANTANDER                                             3
 ACTION:UPD 12-07-13 15:59 OP:ep   STATUS:               ID:20110925071321 L   I
 2011-09-25-0710-05S.COL___165                                                 6
 STAT SP IPHASW D HRMM SECON CODA AMPLIT PERI AZIMU VELO AIN AR TRES W  DIS CAZ7
 BTL  SZ EP   1    713 41.16                             172   -0.08 7 19.2 317 
 BAR2 SZ EP   1    713 41.10                             171   -0.20 7 22.2 189 
 BAR2 SZ ES   1    713 56.13                             171   -0.45 7 22.2 189 
 BAR2 SZ I         713 57.53         6.1 0.27                          22.2 189 
 BRR  HZ EP        713 42.89                             152    0.0510 71.3 299 
 BRR  HN ES        713 59.67                             152    0.3410 71.3 299 
 BRR  HZ I         714  3.65         5.4 0.20                          71.3 299 
 RUS  HZ EP   1    713 45.62                             144    0.25 7 99.6 176 
 RUS  HN ES   1    714  3.92                             144    0.09 7 99.6 176 
 RUS  HZ I         714  5.73         4.4 0.31                          99.6 176 
 ZAR  HE ES   1    714 19.02                             122   -0.41 6  204 292 
 ZAR  HZ I         714 25.30         2.5 0.12                           204 292 
                                                                                
