 2016  925 0716 11.1 L   6.844 -73.317121.6  RSN  5 0.4 1.3LRSN                1
 GAP=152        0.85       3.8     5.4  6.4  0.1036E+02  0.6349E+01 -0.1813E+01E
 Epicentro: ZAPATOCA - SANTANDER                                               3
 ACTION:UPD 17-08-17 21:16 OP:lp   STATUS:               ID:20160925071611 L   I
 OLDACT:UP  16-09-25 16:10 OP:ar   STATUS:               ID:20160925070641     3
 OLDACT:REG 16-09-25 13:26 OP:ar   STATUS:               ID:20160925070641     3
 2016-09-25-0707-00M.COL___327                                                 6
 STAT SP IPHASW D HRMM SECON CODA AMPLIT PERI AZIMU VELO AIN AR TRES W  DIS CAZ7
 BAR2 EZ EP        716 27.91                             164   -0.1510 31.6 152 
 BAR2 EZ ES        716 40.98                             164   -0.3210 31.6 152 
 BRR  HZ EP        716 28.21                             155   -0.3810 52.4 304 
 BRR  HN ES        716 42.42                             155    0.1910 52.4 304 
 BRR  HZ I         716 47.89         3.2 0.14            156           52.4 304 
 RUS  HZ EP        716 33.17                             136   -0.0410  108 166 
 RUS  HN ES        716 50.85                             136    0.3910  108 166 
 RUS  HZ I         716 51.49         1.8 0.30            142            108 166 
 OCA  HZ EP   2    716 36.29                             124   -0.75 5  154 360 
 OCA  HN ES        716 57.59                             124    0.32 9  154 360 
 OCA  HZ I         717  1.49        11.5 0.14            127            154 360 
 ZAR  HE EP        716 40.55                             119    0.55 9  185 293 
 ZAR  HN ES        717  2.24                             119   -0.30 9  185 293 
                                                                                
