 2017  725 0706 26.4 L   6.809 -73.129148.0  RSN 28 0.5 2.5LRSN                1
 GAP= 67        1.05       2.9     2.6  4.2  0.4722E+00  0.1658E+01  0.2106E+01E
 Epicentro: LOS SANTOS - SANTANDER                                             3
 ACTION:UPD 17-08-30 15:36 OP:rebc STATUS:               ID:20170725070626 L   I
 OLDACT:UP  17-07-25 16:09 OP:and  STATUS:               ID:20170725065736d    3
 OLDACT:UP  17-07-25 16:08 OP:and  STATUS:               ID:20170725065736d    3
 OLDACT:UP  17-07-25 16:05 OP:and  STATUS:               ID:20170725065736d    3
 OLDACT:UP  17-07-25 16:04 OP:and  STATUS:               ID:20170725065736d    3
 OLDACT:UP  17-07-25 16:03 OP:and  STATUS:               ID:20170725065736d    3
 OLDACT:UP  17-07-25 16:03 OP:and  STATUS:               ID:20170725065736d    3
 OLDACT:UP  17-07-25 16:01 OP:and  STATUS:               ID:20170725065736d    3
 OLDACT:UP  17-07-25 16:01 OP:and  STATUS:               ID:20170725065736d    3
 OLDACT:DUP 17-07-25 15:56 OP:and  STATUS:               ID:20170725065736d    3
 OLDACT:UP  17-07-25 15:56 OP:and  STATUS:               ID:20170725065735     3
 OLDACT:UP  17-07-25 15:56 OP:and  STATUS:               ID:20170725065735     3
 OLDACT:UP  17-07-25 15:52 OP:and  STATUS:               ID:20170725065735     3
 OLDACT:UP  17-07-25 15:51 OP:and  STATUS:               ID:20170725065735     3
 OLDACT:UP  17-07-25 15:51 OP:and  STATUS:               ID:20170725065735     3
 OLDACT:REG 17-07-25 12:48 OP:and  STATUS:               ID:20170725065735     3
 2017-07-25-0658-00M.COL___386                                                 6
 STAT SP IPHASW D HRMM SECON CODA AMPLIT PERI AZIMU VELO AIN AR TRES W  DIS CAZ7
 BAR2 EZ IP     D  7 6 46.17                             170   -0.1410 24.7 194 
 BAR2 EZ ES        7 7  0.93                             170   -0.9310 24.7 194 
 BAR2 EZ I         7 7  2.51       103.2 0.20            166           24.7 194 
 BRR  HZ IP     D  7 6 47.96                             153    0.1210 72.4 297 
 BRR  HN ES        7 7  5.04                             153    0.4610 72.4 297 
 BRR  HZ I         7 7  7.44        40.9 0.12            150           72.4 297 
 PAM  EZ IP     C  7 6 48.94                             152    0.2110 75.4  39 
 PAM  EN ES        7 7  6.00                             152   -0.1510 75.4  39 
 PAM  EZ I         7 7  8.37        38.5 0.66            156           75.4  39 
 RUS  HZ IP     D  7 6 50.19                             144   -0.2310  101 177 
 RUS  HN ES        7 7  8.86                             144   -0.3110  101 177 
 RUS  HZ I         7 7 10.98        54.4 0.28            143            101 177 
 PTB  HZ EP   9    7 6 52.59                             132   -1.13 0  150 259 
 PTB  HN ES        7 7 13.80                             131   -0.11 9  150 259 
 PTB  HZ I         7 7 15.76        21.0 0.09            130            150 259 
 TAM  HZ IP     C  7 6 54.49                             131    0.39 9  154 106 
 TAM  HN ES        7 7 15.91                             131    0.19 9  154 106 
 TAM  HZ I         7 7 16.70        22.3 0.26            134            154 106 
 SPBC HZ EP        7 6 55.10                             129   -0.14 9  165 219 
 SPBC HN ES        7 7 18.32                             129    0.57 9  165 219 
 SPBC HZ I         7 7 24.37        63.2 0.38            128            165 219 
 YPLC HZ IP     D  7 6 56.63                             127    0.29 9  177 152 
 YPLC HN ES        7 7 20.53                             127    0.82 9  177 152 
 YPLC HZ I         7 7 23.22        37.2 0.24            128            177 152 
 ZAR  HZ EP        7 6 58.89                             123   -0.23 8  205 292 
 ZAR  HN ES        7 7 24.69                             123    0.04 8  205 292 
 ZAR  HZ I         7 7 30.05        35.7 0.46            122            205 292 
 TABC EZ EP   3    7 7  3.90                             119    1.44 2  232 211 
 TABC EZ ES   4    7 7 33.55                             119    2.95 0  232 211 
 TABC EZ I         7 7 35.95        27.4 0.56            119            232 211 
 NOR  HZ EP        7 7  2.46                             119   -0.01 8  237 235 
 NOR  HN ES        7 7 30.40                             119   -0.21 8  237 235 
 NOR  HZ I         7 7 35.24        29.9 0.28            118            237 235 
 ROSC BZ EP   9    7 7  6.08                             117    1.25 0  255 211 
 ROSC BN ES        7 7 37.18                             117    1.12 8  255 211 
 ROSC BZ I         7 7 43.18        19.8 0.39            117            255 211 
 HEL  HZ EP   9    7 7  7.90                             115    0.96 0  274 256 
 HEL  HN ES        7 7 40.55                             115    1.02 8  274 256 
 HEL  HZ I         7 7 46.94        17.3 0.24            115            274 256 
 URE  HZ EP   9    7 7  6.38                             114   -1.34 0  285 292 
 URE  HN ES        7 7 37.97                             114   -0.65 7  285 292 
 URE  HZ I         7 7 50.82        12.8 0.16            114            285 292 
 GUY2CHZ EP   9    7 7 11.69                             113    1.36 0  303 235 
 GUY2CHN ES        7 7 46.61                             112    0.64 7  303 235 
 GUY2CHZ I         7 7 56.72        15.2 0.56                           303 235 
 VIL  EE EP   2    7 7  9.41                             112   -0.65 4  305 192 
 VIL  EN ES        7 7 43.87                             112   -0.25 7  305 192 
 VIL  EZ I         7 7 47.55        19.0 0.30            112            305 192 
 PTGC HZ IP     D  7 7  9.37                             112   -1.00 7  309 159 
 PTGC HN ES   4    7 7 42.75                             112   -1.93 0  309 159 
 PTGC HZ I         7 7 45.34        10.5 0.28            113            309 159 
 LL6C HZ EP   9    7 7 10.39                             111   -1.69 0  324 357 
 LL6C HZ ES        7 7 45.49                             111   -0.54 7  324 357 
 CBOC HZ EP        7 7 14.18                             110    0.55 7  336 252 
 CBOC HN ES        7 7 50.53                             110    0.05 7  336 252 
 CBOC HZ I         7 8  0.02         5.1 0.40            110            336 252 
 DBB  EZ EP        7 7 14.52                             110    0.36 7  341 274 
 DBB  EN ES        7 7 50.82                             110   -0.60 7  341 274 
 DBB  EZ I         7 7 55.74         6.5 0.18            110            341 274 
 ARGC HZ EP        7 7 16.80                             109    0.71 6  359 340 
 ARGC HN ES   4    7 7 53.73                             109   -1.13 0  359 340 
 PRA  HZ EP        7 7 19.45                             107   -0.74 6  394 210 
 PRA  HN ES        7 8  2.42                             107    0.26 6  394 210 
 PRA  HZ I         7 8  6.76        13.3 0.22            107            394 210 
 ORTC HZ EP        7 7 20.98                             107    0.37 6  397 216 
 ORTC HN ES   3    7 8  4.23                             107    1.33 1  397 216 
 ORTC HZ I         7 8 11.17        10.5 0.46            107            397 216 
 PAL  HZ EP        7 7 22.00                             106    0.13 6  408 239 
 PAL  HE ES   3    7 8  3.87                             106   -1.27 1  408 239 
 PAL  HZ I         7 8 10.43         6.6 0.26            106            408 239 
 SJC  HZ EP   3    7 7 20.23                             106   -1.81 1  409 327 
 SJC  HN ES   4    7 8  1.38                             106   -4.08 0  409 327 
 SJC  HZ I         7 8  5.00         6.0 0.38            107            409 327 
 YOT  HZ EP        7 7 29.68                             103   -0.06 5  474 229 
 GUA  EZ EP        7 7 28.56                             103   -1.13 5  475 173 
 GUA  EN ES        7 8 19.18                             103    0.11 5  475 173 
 SMAR HZ EP   4    7 7 31.58                             103   -0.67 0  496 346 
 SMAR HN ES   4    7 8 19.76                             103   -3.87 0  496 346 
 MACC HZ EP   3    7 7 33.40                             102   -1.90 1  522 189 
 MACC HN ES   4    7 8 25.07                             102   -3.99 0  522 189 
 MACC HZ I         7 8 30.01         2.8 0.38            102            522 189 
                                                                                
