 2017  125 0851 20.7 L   6.696 -73.195151.5  RSN  4 0.3 1.0LRSN                1
 GAP=224        0.79       6.3     6.0  6.4  0.1830E+02  0.4295E+01  0.1285E+01E
 Epicentro: VILLANUEVA - SANTANDER                                             3
 ACTION:UPD 17-05-22 16:03 OP:jn   STATUS:               ID:20170125085120 L   I
 OLDACT:REG 17-01-25 13:07 OP:lv   STATUS:               ID:20170125084740     3
 2017-01-25-0848-00M.COL___343                                                 6
 STAT SP IPHASW D HRMM SECON CODA AMPLIT PERI AZIMU VELO AIN AR TRES W  DIS CAZ7
 BAR2 EZ EP        851 40.61                             175   -0.2510 11.6 173 
 BAR2 EZ ES        851 56.21                             175   -0.3610 11.6 173 
 BAR2 EZ I         851 58.95         3.2 0.28            171           11.6 173 
 BRR  HZ EP        851 42.38                             153   -0.2010 73.0 309 
 BRR  HN ES        852  0.15                             153    0.5110 73.0 309 
 RUS  HZ EP        851 44.52                             148    0.2210 89.8 172 
 RUS  HN ES        852  2.90                             148    0.2010 89.8 172 
 RUS  HZ I         852  4.41         1.0 0.20            147           89.8 172 
 PTB  HZ EP        851 47.68                             135    0.16 9  141 263 
 PTB  HN ES        852  8.14                             135   -0.29 9  141 263 
 PTB  HZ I         852 13.82         1.6 0.22            133            141 263 
                                                                                
