 2010  525 0759 31.5 L   6.823 -73.310136.8  RSN  4 0.1 1.6LRSN                1
 GAP=208        0.42       3.1     8.8  7.4 -0.1694E+01  0.1811E+02  0.7414E+01E
 Epicentro: ZAPATOCA - SANTANDER                                               3
 ACTION:UP  10-08-24 10:06 OP:vdl  STATUS:               ID:20100525075931 L   I
 2010-05-25-0756-21S.COL___108                                                 6
 STAT SP IPHASW D HRMM SECON CODA AMPLIT PERI AZIMU VELO SNR AR TRES W  DIS CAZ7
 BAR2 SZ EP        759 50.19                             167     0.010   29 151 
 GUE  SZ EP   1    759 55.75                             137     0.1 7  119  21 
 GUE  SZ ES   1    8 0 14.72                             137     0.3 7  119  21 
 GRA  SZ EP        759 56.23                             134    -0.110  130  25 
 GRA  SZ ES   1    8 0 15.56                             134    -0.2 7  130  25 
 OCA  SZ EP   1    759 58.97                             128     0.2 7  157 360 
 OCA  SZ ES        8 0 19.96                             128    -0.1 9  157 360 
 OCA  SZ I         8 0 24.67         5.0 0.26                           157 360 
                                                                                
