 2017  125 0548 46.6 L   6.793 -73.151144.8  RSN  6 0.5 1.2LRSN                1
 GAP=236        1.20       6.7     7.8  8.6  0.2853E+02  0.1436E+02  0.1457E+02E
 Epicentro: LOS SANTOS - SANTANDER                                             3
 ACTION:UPD 17-05-22 16:03 OP:jn   STATUS:               ID:20170125054846 L   I
 OLDACT:REG 17-01-25 12:54 OP:lv   STATUS:               ID:20170125054738     3
 2017-01-25-0548-00M.COL___355                                                 6
 STAT SP IPHASW D HRMM SECON CODA AMPLIT PERI AZIMU VELO AIN AR TRES W  DIS CAZ7
 BAR2 EZ EP        549  5.76                             171   -0.3510 22.5 189 
 BAR2 EZ ES        549 21.11                             171   -0.2110 22.5 189 
 BAR2 EZ I         549 23.40         6.8 0.14            172           22.5 189 
 BRR  HZ EP        549  7.79                             152    0.1410 71.1 299 
 BRR  HN ES        549 24.85                             152    0.7910 71.1 299 
 BRR  HZ I         549 27.91         2.8 0.37            154           71.1 299 
 RUS  HZ EP        549 10.39                             144    0.1710 99.9 176 
 RUS  HN ES        549 28.35                             144   -0.2810 99.9 176 
 RUS  HZ I         549 29.54         2.8 0.28            147           99.9 176 
 PTB  HZ EP        549 13.32                             132   -0.12 9  147 259 
 PTB  HN ES        549 33.53                             132   -0.84 9  147 259 
 PTB  HZ I         549 35.24         1.6 0.16            134            147 259 
 ZAR  HN ES        549 44.38                             122    0.16 9  204 292 
 CHI  HZ EP        549 23.93                             117   -0.24 8  248 195 
 CHI  HN ES        549 54.44                             117    0.99 8  248 195 
                                                                                
