 2016  325 0209 57.1 L   6.781 -73.162141.3  RSN 15 0.3 1.9LRSN                1
 GAP=135        0.62       1.9     2.3  3.5 -0.1157E+01  0.3255E+01 -0.2073E+00E
 Epicentro: LOS SANTOS - SANTANDER                                             3
 ACTION:UPD 16-05-13 21:27 OP:cam  STATUS:               ID:20160325020957 L   I
 OLDACT:UP  16-03-25 15:31 OP:ak   STATUS:               ID:20160325020743     3
 OLDACT:REG 16-03-25 14:02 OP:ak   STATUS:               ID:20160325020743     3
 2016-03-25-0207-43M.COL___305                                                 6
 STAT SP IPHASW D HRMM SECON CODA AMPLIT PERI AZIMU VELO AIN AR TRES W  DIS CAZ7
 BAR2 EZ EP        210 16.30                             171    0.1910 21.0 186 
 BAR2 EZ ES        210 31.42                             171    0.4510 21.0 186 
 BAR2 EZ I         210 32.49        18.8 0.24            169           21.0 186 
 PAM  EZ EP        210 19.23                             149    0.2610 80.1  40 
 PAM  EN ES        210 35.90                             149   -0.1710 80.1  40 
 PAM  EZ I         210 39.04        17.8 0.64            154           80.1  40 
 RUS  HZ EP        210 20.19                             143   -0.0410 98.6 175 
 RUS  HN ES        210 37.95                             143   -0.3610 98.6 175 
 RUS  HZ I         210 40.26         8.7 0.24            147           98.6 175 
 PTB  HZ EP        210 23.18                             131   -0.28 9  146 259 
 PTB  HN ES        210 43.70                             131   -0.36 9  146 259 
 PTB  HZ I         210 49.03        10.8 0.22            131            146 259 
 SPBC HZ EP        210 25.18                             128    0.23 9  160 219 
 SPBC HN ES        210 46.55                             128   -0.16 9  160 219 
 SPBC HZ I         210 51.73        10.9 0.15            130            160 219 
 OCA  HZ EP        210 25.17                             128   -0.03 9  162 354 
 OCA  HN ES   2    210 47.39                             128    0.23 5  162 354 
 ZAR  HZ EP   2    210 28.97                             121   -0.15 4  203 293 
 ZAR  HE ES        210 54.00                             121   -0.14 9  203 293 
 ZAR  HZ I         211  0.33        12.0 0.24            122            203 293 
 NOR  HZ EP        210 32.12                             118   -0.12 8  232 235 
 NOR  HN ES        211  0.00                             118    0.32 8  232 235 
 NOR  HZ I         211  7.80         7.0 0.22            119            232 235 
 CHI  HZ EP        210 34.04                             116   -0.20 8  246 195 
 CHI  HN ES        211  3.17                             116   -0.07 8  246 195 
 CHI  HZ I         211 11.18         2.9 0.34            119            246 195 
 HEL  HZ EP   2    210 37.11                             114    0.32 4  270 256 
 HEL  HN ES        211  8.17                             114    0.38 8  270 256 
 HEL  HZ I         211 16.26         4.3 0.42            115            270 256 
 URE  HZ EP        210 37.29                             113   -0.52 7  283 292 
 URE  HN ES   4    211  8.07                             113   -1.53 0  283 292 
 URE  HZ I         211 20.82         8.9 0.30            114            283 292 
 GUY2CHZ EP   2    210 40.67                             112    0.51 4  299 235 
 GUY2CHN ES        211 13.89                             112    0.11 7  299 235 
 GUY2CHZ I         211 22.53         4.1 0.54                           299 235 
 CBOC HZ EP        210 44.00                             109    0.48 7  331 252 
 ANIL HN ES        211 24.79                             108   -0.05 6  355 225 
 PAL  HZ EP   2    210 51.89                             105    0.13 3  403 239 
                                                                                
