 2012 1225 0616 46.7 L   6.878 -73.343122.0  RSN 13 0.4 2.3LRSN                1
 GAP=114        0.85       2.5     4.0  5.1 -0.2739E+00  0.5477E+01 -0.6112E+00E
 Epicentro: BETULIA - SANTANDER                                                3
 ACTION:UPD 13-01-04 14:30 OP:ep   STATUS:               ID:20121225061646 L   I
 2012-12-25-0610-00M.COL___242                                                 6
 STAT SP IPHASW D HRMM SECON CODA AMPLIT PERI AZIMU VELO AIN AR TRES W  DIS CAZ7
 GIR2 SZ EP   1    617  3.81                             166    0.32 7 27.6  37 
 GIR2 SZ ES   1    617 16.14                             166   -0.41 7 27.6  37 
 GIR2 SZ I         617 17.76        30.1 0.16                          27.6  37 
 BAR2 SZ EP        617  4.21                             163    0.2910 36.3 151 
 BAR2 SZ ES   1    617 17.10                             163   -0.21 7 36.3 151 
 BAR2 SZ I         617 18.53       360.7 0.36                          36.3 151 
 BRR  HZ IP     C  617  4.51                             157    0.4510 48.0 302 
 BRR  HE ES   1    617 18.30                             157    0.73 7 48.0 302 
 BRR  HZ I         617 19.39        57.1 0.10                          48.0 302 
 RUS  HZ EP   1    617  9.34                             135    0.08 7  113 165 
 RUS  HN ES   1    617 26.62                             135   -0.20 7  113 165 
 RUS  HZ I         617 27.84        24.8 0.20                           113 165 
 PTB  HZ IP     C  617  9.38                             130   -0.6710  129 253 
 PTB  HN ES   1    617 27.72                             130   -0.51 7  129 253 
 PTB  HZ I         617 33.12        43.1 0.36                           129 253 
 OCA  HZ EP        617 12.31                             126   -0.03 9  150   1 
 OCA  HN ES   1    617 31.94                             126   -0.36 7  150   1 
 OCA  HZ I         617 36.48        33.7 0.28                           150   1 
 ZAR  HZ EP   1    617 14.65                             120   -0.59 7  181 292 
 ZAR  HE ES   1    617 38.24                             120    0.77 7  181 292 
 ZAR  HZ I         617 43.12        36.3 0.22                           181 292 
 SML  HZ EP   1    617 20.49                             114    0.18 6  227 339 
 SML  HN ES   1    617 45.88                             114   -0.61 6  227 339 
 SML  HZ I         617 51.32        52.8 0.10                           227 339 
 ROSC BZ EP   1    617 23.41                             112    0.04 6  250 206 
 ROSC BN ES   1    617 52.65                             112    0.71 6  250 206 
 ROSC BZ I         617 59.41         6.5 0.40                           250 206 
 CHI  HZ EP   1    617 23.44                             111   -0.22 6  252 190 
 CHI  HN ES   1    617 52.29                             111   -0.17 6  252 190 
 CHI  HZ I         617 57.21         9.8 0.48                           252 190 
 HEL  HZ EP   1    617 24.01                             111    0.28 6  253 253 
 HEL  HE ES   1    617 52.30                             111   -0.28 6  253 253 
 HEL  HZ I         617 58.45        15.2 0.34                           253 253 
 URE  HZ EP   4    617 23.29                             110   -0.78 0  260 292 
 URE  HE ES   4    617 53.26                             110    0.07 0  260 292 
 MON  HZ IP   4 C  617 31.29                             105   -1.00 0  331 310 
 MON  HN ES   4    618  6.37                             105   -1.44 0  331 310 
 MON  HZ I         618  8.52         5.9 0.32                           331 310 
 COD  HZ EP   1    617 33.21                             105    0.10 5  338 358 
 COD  HN ES   1    618  9.67                             105    0.40 5  338 358 
 COD  HZ I         618 21.47         5.0 0.24                           338 358 
                                                                                
