 2013  625 0105  1.5 L   6.752 -73.135144.9  RSN  7 0.4 1.5LRSN                1
 GAP=140        0.91       5.2     4.9  7.4 -0.3115E+00  0.2522E+01 -0.4194E+01E
 Epicentro: LOS SANTOS - SANTANDER                                             3
 ACTION:UPD 14-01-08 09:56 OP:ep   STATUS:               ID:20130625010501 L   I
 OLDACT:REG 13-06-25 06:25 OP:jn   STATUS:               ID:20130625005959     3
 2013-06-25-0059-59M.COL___267                                                 6
 STAT SP IPHASW D HRMM SECON CODA AMPLIT PERI AZIMU VELO AIN AR TRES W  DIS CAZ7
 BAR2 SZ EP        1 5 21.12                             173    0.1710 18.4 197 
 BAR2 SZ ES        1 5 36.13                             173    0.0210 18.4 197 
 BAR2 SZ I         1 5 37.32        10.0 0.29            173           18.4 197 
 GIR2 SZ EP   1    1 5 20.04                             165   -1.21 7 36.7 350 
 BRR  HZ EP   1    1 5 23.05                             151    0.26 7 74.9 302 
 BRR  HN ES   1    1 5 39.84                             151    0.46 7 74.9 302 
 BRR  HZ I         1 5 45.11         6.3 0.14            151           74.9 302 
 PAM  SZ EP        1 5 24.18                             149    0.3310 80.8  36 
 PAM  SN ES   1    1 5 41.17                             149   -0.10 7 80.8  36 
 PAM  SZ I         1 5 42.59         5.2 0.26            152           80.8  36 
 RUS  HZ EP        1 5 25.07                             145    0.2710 95.2 177 
 RUS  HN ES        1 5 42.70                             145   -0.2610 95.2 177 
 RUS  HZ I         1 5 44.28         4.5 0.22            150           95.2 177 
 PTB  HZ EP   1    1 5 28.18                             132   -0.25 7  148 261 
 PTB  HN ES        1 5 49.46                             132    0.03 9  148 261 
 PTB  HZ I         1 5 51.61         6.1 0.12            133            148 261 
 ZAR  HE ES   2    1 5 59.19                             122   -0.56 4  207 293 
                                                                                
