 2010  825 0502 16.8 L   6.766 -73.102145.2  RSN  5 0.4 1.5LRSN                1
 GAP=226        0.74       7.3    12.1  7.5  0.3023E+02  0.8286E+01  0.1680E+02E
 Epicentro: LOS SANTOS - SANTANDER                                             3
 ACTION:UP  10-09-07 10:57 OP:vdl  STATUS:               ID:20100825050216 L   I
 2010-08-25-0458-03S.COL___121                                                 6
 STAT SP IPHASW D HRMM SECON CODA AMPLIT PERI AZIMU VELO SNR AR TRES W  DIS CAZ7
 BAR2 SZ EP   1    5 2 36.01                             171    -0.3 7   21 205 
 BAR2 SZ ES   2    5 2 50.93                             171    -0.6 5   21 205 
 BAR2 SZ I         5 2 56.41         6.3 0.67                            21 205 
 BTL  SZ EP        5 2 36.33                                    -0.110   25 313 
 BTL  SZ ES   1    5 2 51.96                                     0.3 7   25 313 
 BRR  HZ IP     C  5 2 38.09                             150    -0.110   77 299 
 BRR  HN ES   1    5 2 55.21                             150     0.2 7   77 299 
 BRR  HZ I         5 2 58.17         7.5 0.47                            77 299 
 RUS  HZ EP   2    5 2 40.67                             145     0.5 5   97 179 
 RUS  HE ES   2    5 2 58.94                             145     0.5 5   97 179 
 RUS  HZ I         5 3  0.06         2.5 0.20                            97 179 
 PRA  HZ EP   1    5 3 10.71                             106     0.5 4  391 210 
 PRA  HE ES   2    5 3 50.74                             106    -1.1 3  391 210 
 PRA  HZ I         5 3 56.57         1.7 0.21                           391 210 
                                                                                
