 2011 1125 0158 48.2 L   6.780 -73.129141.3  RSN 10 0.4 1.8LRSN                1
 GAP=140        0.78       3.3     5.7  6.1 -0.3266E+01  0.1106E+02  0.1295E+01E
 Epicentro: LOS SANTOS - SANTANDER                                             3
 ACTION:UPD 12-07-13 16:12 OP:ep   STATUS:               ID:20111125015848 L   I
 2011-11-25-0157-16S.COL___178                                                 6
 STAT SP IPHASW D HRMM SECON CODA AMPLIT PERI AZIMU VELO AIN AR TRES W  DIS CAZ7
 BAR2 SZ EP   1    159  7.29                             171    0.07 7 21.6 196 
 BAR2 SZ ES   1    159 21.81                             171   -0.27 7 21.6 196 
 BAR2 SZ I         159 23.70        12.1 0.26                          21.6 196 
 BRR  HZ EP   1    159  9.18                             151    0.20 7 73.8 299 
 BRR  HE ES   1    159 25.59                             151    0.37 7 73.8 299 
 BRR  HZ I         159 28.45        15.5 0.14                          73.8 299 
 PAM  SZ EP   1    159  9.96                             150    0.02 7 77.9  38 
 PAM  SN ES   1    159 26.52                             150   -0.40 7 77.9  38 
 RUS  HZ EP   1    159 11.39                             143    0.08 7 98.3 177 
 RUS  HN ES   1    159 30.08                             143    0.72 7 98.3 177 
 RUS  HZ I         159 31.91         4.9 0.12                          98.3 177 
 OCA  SZ EP   1    159 16.39                             128    0.04 7  163 353 
 OCA  SZ ES   1    159 38.13                             128   -0.21 7  163 353 
 OCA  SZ I         159 42.26        11.5 0.19                           163 353 
 ZAR  HZ EP   1    159 20.13                             121   -0.45 6  207 293 
 ZAR  HZ I         159 51.55         7.4 0.20                           207 293 
 NOR  SN ES   1    159 50.99                             117   -0.36 6  235 235 
 CHI  HZ EP   1    159 25.69                             116    0.25 6  247 196 
 CHI  HN ES   1    159 53.47                             116   -1.05 6  247 196 
 CHI  HZ I         2 0  3.03         3.2 0.42                           247 196 
 HEL  HZ EP   1    159 29.07                             114    0.78 6  273 256 
 HEL  HZ I         2 0  5.74         5.1 0.44                           273 256 
 PRA  HZ EP   2    159 41.17                             106   -0.25 3  391 210 
                                                                                
