 2016 1125 0650 13.1 L   6.803 -73.141144.0  RSN 14 0.4 2.1LRSN                1
 GAP=119        0.98       3.9     4.3  5.4 -0.8114E+00  0.6552E+01  0.6627E+01E
 Epicentro: LOS SANTOS - SANTANDER                                             3
 ACTION:UPD 17-10-26 21:11 OP:lp   STATUS:               ID:20161125065013 L   I
 OLDACT:UP  16-11-25 17:30 OP:edw  STATUS:               ID:20161125064745     3
 OLDACT:REG 16-11-25 13:02 OP:edw  STATUS:               ID:20161125064745     3
 2016-11-25-0648-00M.COL___349                                                 6
 STAT SP IPHASW D HRMM SECON CODA AMPLIT PERI AZIMU VELO AIN AR TRES W  DIS CAZ7
 BAR2 EZ IP     D  650 32.50                             170   -0.0710 23.7 191 
 BAR2 EZ ES        650 47.08                             170   -0.6410 23.7 191 
 BAR2 EZ I         650 50.06        21.7 0.17            165           23.7 191 
 BRR  HZ EP     D  650 34.29                             152    0.1710 71.5 298 
 BRR  HN ES        650 51.09                             152    0.6110 71.5 298 
 BRR  HZ I         650 54.86        27.6 0.38            151           71.5 298 
 PAM  EZ EP     D  650 35.21                             151    0.0710 76.8  39 
 PAM  EN ES        650 52.62                             151    0.3310 76.8  39 
 PAM  EZ I         650 54.71        14.7 0.48            158           76.8  39 
 PTB  HZ EP   9    650 39.50                             132   -0.52 0  148 259 
 PTB  HN ES        651  1.14                             132    0.68 9  148 259 
 PTB  HZ I         651  3.04        19.4 0.14            130            148 259 
 ZAR  HZ EP        650 45.11                             122   -0.40 9  204 292 
 ZAR  HN ES        651 10.45                             122   -0.31 9  204 292 
 ZAR  HZ I         651 17.01        15.9 0.26            122            204 292 
 NOR  HZ EP        650 48.85                             118    0.01 8  235 234 
 NOR  HN ES   4    651 16.10                             118   -0.58 0  235 234 
 NOR  HZ I         651 22.68        12.0 0.18            118            235 234 
 CHI  HZ EP        650 51.18                             117    0.39 8  249 195 
 CHI  HN ES        651 19.97                             117   -0.19 8  249 195 
 CHI  HZ I         651 27.37         5.7 0.52            117            249 195 
 ROSC BZ EP   4    650 53.14                             116    1.91 0  253 211 
 ROSC BN ES   4    651 25.89                             116    4.96 0  253 211 
 ROSC BZ I         651 27.90         9.5 0.40            116            253 211 
 URE  HZ EP        650 53.32                             113   -0.85 7  284 292 
 URE  HN ES   4    651 24.21                             113   -1.96 0  284 292 
 URE  HZ I         651 34.79        11.2 0.24            114            284 292 
 PTGC HZ EP   9    650 55.82                             111   -1.11 0  309 159 
 PTGC HN ES        651 29.53                             112   -0.44 7  309 159 
 PTGC HZ I         651 37.54         6.7 0.34            112            309 159 
 LL6C HZ EP   4    650 37.33                             110   -21.4 0  325 357 
 LL6C HN ES   4    651 13.01                             110   -21.3 0  325 357 
 ELA  HE ES   4    651 38.17                             110    1.64 0  330 229 
 CBOC HZ EP   4    651  1.42                             110    1.37 0  334 252 
 CBOC HN ES        651 36.61                             110   -0.03 7  334 252 
 CBOC HZ I         651 46.37         1.8 0.39            110            334 252 
 ARGC HZ EP   4    651  2.99                             108    0.27 0  359 340 
 ARGC HN ES   4    651 41.99                             108    0.60 0  359 340 
 PRA  HZ EP        651  7.01                             106    0.34 6  393 210 
 PRA  HN ES   4    651 51.16                             106    2.75 0  393 210 
 PRA  HZ I         651 55.10         6.5 0.28            107            393 210 
 ORTC HZ EP        651  7.47                             106    0.40 6  396 216 
 ORTC HN ES        651 49.57                             106    0.44 6  396 216 
 ORTC HZ I         651 58.21         3.7 0.36            106            396 216 
 SJC  HZ EP   4    651  6.54                             106   -2.11 0  409 327 
 SJC  HN ES   4    651 48.09                             106   -3.86 0  409 327 
 SJC  HZ I         651 51.53         2.0 0.12            107            409 327 
 CRJC HN ES   4    652  0.15                             103   -4.08 0  467   3 
                                                                                
