 2017  225 0831 29.3 L   6.726 -73.112142.2  RSN 13 0.4 1.9LRSN                1
 GAP= 91        0.85       3.3     3.5  4.5 -0.1216E+01  0.1312E+01  0.2932E+01E
 Epicentro: JORDAN - SANTANDER                                                 3
 ACTION:UPD 17-05-24 15:40 OP:jn   STATUS:               ID:20170225083129 L   I
 OLDACT:UP  17-02-25 19:09 OP:edw  STATUS:               ID:20170225082740     3
 OLDACT:REG 17-02-25 13:05 OP:dani STATUS:               ID:20170225082740     3
 2017-02-25-0828-00M.COL___358                                                 6
 STAT SP IPHASW D HRMM SECON CODA AMPLIT PERI AZIMU VELO AIN AR TRES W  DIS CAZ7
 BAR2 EZ IP     D  831 48.09                             173   -0.2810 16.7 208 
 BAR2 EZ ES        832  3.56                             173    0.3010 16.7 208 
 BAR2 EZ I         832  4.89        25.6 0.20            171           16.7 208 
 BRR  HZ EP        831 50.18                             149   -0.3110 78.6 302 
 BRR  HN ES        832  7.48                             149    0.4510 78.6 302 
 BRR  HZ I         832  8.16        21.9 0.18            151           78.6 302 
 PAM  EZ EP        831 51.24                             149   -0.1510 81.7  34 
 PAM  EN ES        832  8.47                             149   -0.1710 81.7  34 
 PAM  EZ I         832 10.74        21.4 0.44            151           81.7  34 
 RUS  HZ IP     D  831 51.83                             145   -0.2610 92.2 178 
 RUS  HN ES        832  9.82                             145   -0.0610 92.2 178 
 RUS  HZ I         832 11.87        20.0 0.36            145           92.2 178 
 TAM  HZ IP     D  831 56.35                             131    0.18 9  150 102 
 PTB  HZ EP   9    831 54.74                             131   -1.43 0  150 262 
 PTB  HN ES        832 15.52                             132   -0.20 9  150 262 
 PTB  HZ I         832 17.01        11.9 0.26            132            150 262 
 CHI  HZ EP        832  5.98                             117   -0.06 8  242 197 
 CHI  HN ES        832 34.90                             117    0.20 8  242 197 
 CHI  HZ I         832 39.51         3.1 0.32            117            242 197 
 URE  HZ EP   9    832  8.82                             112   -2.10 0  290 293 
 URE  HN ES        832 40.39                             113   -0.91 7  290 293 
 URE  HZ I         832 43.46         6.9 0.12            113            290 293 
 PTGC HZ EP   9    832 10.78                             112   -1.18 0  300 159 
 PTGC HN ES        832 43.93                             112   -0.14 7  300 159 
 CBOC HZ EP        832 17.20                             109    1.02 7  335 254 
 CBOC HN ES        832 52.51                             109   -0.25 7  335 254 
 CBOC HZ I         832 53.91         1.3 0.46            110            335 254 
 DBB  EZ EP        832 17.06                             108   -0.06 7  344 276 
 DBB  EN ES   4    832 51.53                             108   -2.91 0  344 276 
 DBB  EZ I         832 55.20         3.3 0.26            109            344 276 
 PRA  HZ EP   4    832 22.81                             106    0.74 0  387 211 
 PRA  HN ES   4    833  4.04                             106    0.80 0  387 211 
 PRA  HZ I         833  6.04         1.9 0.24            107            387 211 
 ORTC HZ EP   4    832 32.05                             106    9.48 0  391 217 
 ORTC HN ES   2    833  3.11                             106   -1.03 3  391 217 
                                                                                
