 2011  125 0313 31.0 L   6.783 -73.170136.8  RSN  7 0.5 1.8LRSN                1
 GAP=134        0.94       4.0     8.8  9.1 -0.1321E+02  0.2619E+02 -0.4134E+01E
 Epicentro: LOS SANTOS - SANTANDER                                             3
 ACTION:UP  11-02-08 08:42 OP:pat  STATUS:               ID:20110125031331 L   I
 2011-01-25-0311-27S.COL___138                                                 6
 STAT SP IPHASW D HRMM SECON CODA AMPLIT PERI AZIMU VELO SNR AR TRES W  DIS CAZ7
 BAR2 SZ EP   1    313 49.38                             171    -0.1 7   21 184 
 BAR2 SZ ES   1    314  3.66                             171    -0.2 7   21 184 
 BAR2 SZ I         314  5.14        33.9 0.32                            21 184 
 RUS  HZ EP   1    313 53.65                             142    -0.1 7   99 174 
 RUS  HN ES   1    314 11.60                             142     0.1 7   99 174 
 RUS  HZ I         314 14.28        10.0 0.41                            99 174 
 GRA  SZ EP   1    313 56.24                             134     0.6 7  128  18 
 GRA  SZ ES   1    314 15.47                             134     0.6 7  128  18 
 GRA  SZ I         314 16.69         9.4 0.41                           128  18 
 OCA  SZ EP   1    313 57.90                             127    -0.8 7  162 354 
 OCA  SZ ES   2    314 19.62                             127    -0.8 5  162 354 
 OCA  SZ I         314 22.77         7.7 0.35                           162 354 
 YOP  SN ES   2    314 23.14                             124    -0.1 4  179 152 
 NOR  SZ EP   2    314  5.85                             117     0.0 4  232 235 
 NOR  SN ES   1    314 33.60                             117     0.5 6  232 235 
 CHI  HZ EP   1    314  8.26                             115     0.3 6  246 195 
 CHI  HN ES   1    314 36.23                             115    -0.5 6  246 195 
 CHI  HZ I         314 41.77         2.2 0.47                           246 195 
                                                                                
