 2016  825 0653 33.3 L   6.801 -73.152141.5  RSN  5 0.2 1.1LRSN                1
 GAP=237        0.43       2.6     2.9  3.6  0.1461E+01  0.2239E+01  0.1069E+00E
 Epicentro: LOS SANTOS - SANTANDER                                             3
 ACTION:UPD 16-10-29 15:39 OP:rebc STATUS:               ID:20160825065333 L   I
 OLDACT:REG 16-08-25 12:41 OP:ak   STATUS:               ID:20160825064733     3
 2016-08-25-0648-00M.COL___372                                                 6
 STAT SP IPHASW D HRMM SECON CODA AMPLIT PERI AZIMU VELO AIN AR TRES W  DIS CAZ7
 BAR2 EZ EP        653 52.20                             170   -0.2110 23.3 188 
 BAR2 EZ ES        654  7.56                             170    0.2310 23.3 188 
 BAR2 EZ I         654  8.41         4.4 0.28                          23.3 188 
 BRR  HZ EP        653 54.12                             152    0.1710 70.5 299 
 BRR  HN ES        654  9.96                             152   -0.1010 70.5 299 
 BRR  HZ I         654 12.62         3.2 0.44                          70.5 299 
 RUS  HZ EP   2    653 56.85                             143    0.21 5  101 176 
 RUS  HN ES        654 14.69                             143   -0.1610  101 176 
 RUS  HZ I         654 15.68         1.5 0.42                           101 176 
 PTB  HZ EP        653 59.79                             131   -0.07 9  147 259 
 PTB  HN ES        654 20.55                             131   -0.03 9  147 259 
 PTB  HZ I         654 22.85         1.2 0.17                           147 259 
 SPBC HZ EP   2    654  1.50                             128    0.06 5  163 219 
 SPBC HN ES        654 23.50                             128    0.11 9  163 219 
 SPBC HZ I         654 25.02         1.5 0.17                           163 219 
                                                                                
