 2013  825 0859 57.0 L   7.177 -73.055153.3  RSN  9 0.5 1.6LRSN 2.1WRSN        1
 SPEC AVERAGE  MO 12.2 ST  7.0 OM  0.9 f0 12.6 R0.1417 AL 0.00 WI 20.0 MW  2.1 3
 SPEC SD       MO  0.1 ST  7.7 OM  0.4 f0 4.97 R0.0469 AL      WI      MW  0.1 3
 GAP=116        1.19       5.0     5.6  8.0 -0.4173E+01  0.1319E+02 -0.9759E+01E
 Epicentro: BUCARAMANGA - SANTANDER                                            3
 SPEC BAR2SH Z MO 12.1 ST0.802 OM  0.5 f0 8.05 R0.1930 AL-0.00 WI 20.0 MW  2.0 3
 SPEC BAR2SH Z T 9 034 K 0.000 GD  166 VS 4.20 DE 3.20 Q0300.0 QA 0.60 VS 4.20 3
 SPEC ZAR HH Z MO 12.3 ST  2.5 OM  0.5 f0 10.2 R0.1524 AL-0.00 WI 20.0 MW  2.1 3
 SPEC ZAR HH Z T 9 053 K 0.000 GD  253 VS 4.20 DE 3.20 Q0300.0 QA 0.60 VS 4.20 3
 SPEC SML HH Z MO 12.3 ST 17.9 OM  0.5 f0 19.5 R0.0797 AL-0.00 WI 20.0 MW  2.2 3
 SPEC SML HH Z T 9 054 K 0.000 GD  261 VS 4.20 DE 3.20 Q0300.0 QA 0.60 VS 4.20 3
 OLDACT:REG 13-08-25 08:27 OP:wtll STATUS:               ID:20130825085850     3
 ACTION:UPD 14-01-14 09:06 OP:ep   STATUS:               ID:20130825085957 L   I
 OLDACT:UP  13-08-25 13:38 OP:stll STATUS:               ID:20130825085850     3
 2013-08-25-0858-50M.COL___229                                                 6
 STAT SP IPHASW D HRMM SECON CODA AMPLIT PERI AZIMU VELO AIN AR TRES W  DIS CAZ7
 PAM  SN ES        9 0 35.15                             164   -0.0510 43.2  65 
 BAR2 SZ ES        9 0 36.22                             156   -0.0710 66.1 192 
 BAR2 SZ I         9 0 38.69         4.5 0.40            156           66.1 192 
 BRR  HZ EP        9 0 19.22                             153    0.1210 73.0 264 
 BRR  HZ I         9 0 19.80         5.5 0.16            146           73.0 264 
 BRR  HN ES        9 0 37.07                             153    0.7610 73.0 264 
 CAPV BZ EP        9 0 22.14                             142    0.1810  112  47 
 OCA  HN ES        9 0 42.06                             140   -0.4410  121 346 
 RUS  HN ES        9 0 46.31                             135   -0.11 9  142 181 
 PTB  HZ EP        9 0 26.12                             129   -0.55 9  170 246 
 PTB  HN ES        9 0 49.23                             129   -0.56 9  170 246 
 PTB  SZ I         9 0 50.98         4.6 0.24            123            170 246 
 ZAR  HZ EP        9 0 30.91                             124    1.13 9  202 280 
 ZAR  HN ES        9 0 55.19                             124   -0.14 9  202 280 
 ZAR  SZ I         9 1  6.33         3.0 0.88            117            202 280 
 SML  HZ EP        9 0 30.38                             123   -0.36 8  212 328 
 SML  SZ I         9 0 58.06         5.8 1.48            115            212 328 
                                                                                
