 2013  525 0850 43.1 L   6.808 -73.136143.1  RSN 10 0.5 2.4LRSN                1
 GAP=120        1.25       4.1     5.0  6.4 -0.3595E+01  0.3420E+00 -0.5136E+01E
 Epicentro: LOS SANTOS - SANTANDER                                             3
 ACTION:UPD 13-06-20 09:53 OP:ep   STATUS:               ID:20130525085042 L   I
 OLDACT:UP  13-05-27 02:15 OP:CF   STATUS:               ID:20130525085042 L   3
 2013-05-25-0848-50M.COL___210                                                 6
 STAT SP IPHASW D HRMM SECON CODA AMPLIT PERI AZIMU VELO AIN AR TRES W  DIS CAZ7
 BAR2 SZ EP        851  2.40                             170   -0.0210 24.4 192 
 BAR2 SZ ES        851 16.67                             170   -0.8310 24.4 192 
 BAR2 SZ I         851 19.29        17.3 0.28            170           24.4 192 
 GIR2 SZ EP        851  2.54                             167    0.1110 30.6 348 
 GIR2 SZ ES        851 17.48                             167   -0.0310 30.6 348 
 BRR  HZ EP        851  4.41                             152    0.4310 71.7 298 
 BRR  HN ES        851 21.10                             152    0.8310 71.7 298 
 BRR  HN I         851 26.81        43.5 0.16            151           71.7 298 
 PAM  SZ EP        851  5.49                             151    0.5510 76.1  39 
 PAM  SN ES        851 22.15                             151    0.1610 76.1  39 
 PAM  SN I         851 23.43        71.9 0.48            153           76.1  39 
 RUS  HZ EP        851  7.13                             143    0.5010  101 177 
 RUS  HN ES        851 24.40                             143   -0.6010  101 177 
 RUS  HN I         851 26.62        21.1 0.38            146            101 177 
 CAPV BZ EP        851 10.36                             131    0.21 9  148  38 
 CAPV BZ ES        851 31.64                             131    0.38 9  148  38 
 PTB  HZ EP        851 10.17                             131    0.22 9  149 259 
 PTB  HN ES        851 30.87                             131   -0.03 9  149 259 
 PTB  HN I         851 32.54        36.3 0.24            132            149 259 
 OCA  HZ EP        851 11.10                             129   -0.02 9  160 353 
 OCA  HN ES        851 32.43                             129   -0.56 9  160 353 
 OCA  HN I         851 33.56        56.5 0.18            131            160 353 
 SML  HZ EP        851 18.56                             117   -0.97 8  243 335 
 SML  HE ES        851 47.43                             117   -0.52 8  243 335 
 SML  HN I         851 51.06        26.1 0.10            118            243 335 
 SOCV BZ EP        851 25.20                             112   -0.66 7  300  57 
 SOCV BZ ES   4    851 56.46                             112   -2.77 0  300  57 
                                                                                
