 2015  725 0955 35.8 L   6.849 -73.332122.0  RSN  7 0.5 1.9LRSN                1
 GAP=149        1.21       3.5     6.0  9.7 -0.1628E+01  0.2967E+02 -0.8202E+01E
 Epicentro: BETULIA - SANTANDER                                                3
 ACTION:UPD 15-09-08 21:50 OP:cam  STATUS:               ID:20150725095535 L   I
 OLDACT:UP  15-07-25 18:04 OP:ak   STATUS:               ID:20150725094746     3
 OLDACT:REG 15-07-25 13:00 OP:ak   STATUS:               ID:20150725094746     3
 2015-07-25-0947-46M.COL___328                                                 6
 STAT SP IPHASW D HRMM SECON CODA AMPLIT PERI AZIMU VELO AIN AR TRES W  DIS CAZ7
 BAR2 EZ EP        955 53.24                             164    0.3810 32.8 150 
 BAR2 EZ ES        956  6.29                             164    0.1310 32.8 150 
 BAR2 EZ I         956  7.79        36.6 0.20            169           32.8 150 
 RUS  HZ EP        955 58.61                             136    0.5910  109 165 
 RUS  HE ES        956 14.97                             136   -0.3810  109 165 
 RUS  HZ I         956 16.83         7.5 0.26            141            109 165 
 OCA  HZ EP        956  1.58                             125   -0.14 9  154   1 
 OCA  HN ES        956 21.31                             125   -0.63 9  154   1 
 OCA  HZ I         956 22.64        18.0 0.53            127            154   1 
 ZAR  HZ EP        956  5.29                             120    0.74 9  183 293 
 ZAR  HN ES        956 27.75                             120    0.78 9  183 293 
 ZAR  HZ I         956 32.01         7.5 0.24            121            183 293 
 NOR  HZ EP   1    956  8.60                             114   -0.22 6  222 230 
 NOR  HN ES        956 33.77                             114   -0.80 8  222 230 
 NOR  HZ I         956 36.96         4.0 0.19            117            222 230 
 SML  HZ EP        956  9.98                             113    0.22 8  231 339 
 SML  HN ES        956 35.64                             113   -0.60 8  231 339 
 SML  HZ I         956 44.86        11.5 0.15            115            231 339 
 GUY2CHZ EP   1    956 16.15                             108   -0.74 5  288 232 
 GUY2CHN ES        956 48.68                             108   -0.25 7  288 232 
 GUY2CHZ I         956 57.08         2.2 0.56                           288 232 
 SJC  HZ EP   4    956 27.49                             102   -1.34 0  394 329 
 SJC  HN ES   4    957  6.77                             102   -3.42 0  394 329 
                                                                                
