 2011  525 0225 58.8 L   6.854 -73.307123.5  RSN 12 0.3 2.8LRSN                1
 GAP=103        0.67       3.6     3.8  4.3 -0.8474E+01  0.6375E+01 -0.2286E+01E
 Epicentro: ZAPATOCA - SANTANDER                                               3
 ACTION:UP  11-06-29 08:56 OP:tino STATUS:               ID:20110525022558 L   I
 2011-05-25-0224-22S.COL___140                                                 6
 STAT SP IPHASW D HRMM SECON CODA AMPLIT PERI AZIMU VELO SNR AR TRES W  DIS CAZ7
 BTL  SZ IP        226 15.62                             176     0.210    8  32 
 BTL  SZ ES   1    226 28.12                             176    -0.4 7    8  32 
 BAR2 SZ IP        226 15.99                             165     0.010   32 154 
 BAR2 SZ ES   1    226 29.20                             165    -0.2 7   32 154 
 BAR2 SZ I         226 30.35       476.3 0.21                            32 154 
 BRR  HZ EP        226 16.36                             155    -0.110   53 302 
 BRR  HN ES   1    226 30.63                             155     0.3 7   53 302 
 BRR  HZ I         226 31.19       330.1 0.13                            53 302 
 PAM  SZ EP   1    226 18.93                             143    -0.3 7   86  51 
 PAM  SN ES   1    226 35.56                             143     0.3 7   86  51 
 PAM  SZ I         226 38.37        46.5 0.31                            86  51 
 BRI  SZ EP   1    226 20.87                             135     0.1 7  111  31 
 BRI  SZ ES   2    226 38.53                             135     0.5 5  111  31 
 BRI  SZ I         226 41.97        89.0 0.40                           111  31 
 GUE  SZ EP   1    226 21.07                             134    -0.4 7  116  21 
 GRA  SZ EP        226 22.25                             131     0.010  127  26 
 GRA  SZ ES        226 40.53                             131     0.010  127  26 
 GRA  SZ I         226 43.24       102.9 0.34                           127  26 
 OCA  SZ EP   1    226 24.62                             125    -0.1 7  153 360 
 OCA  SZ ES   2    226 44.70                             125    -0.3 5  153 360 
 OCA  SZ I         226 47.64       144.7 0.43                           153 360 
 NOR  SZ EP   1    226 31.61                             114    -0.5 6  224 231 
 NOR  SN ES   1    226 58.30                             114     0.2 6  224 231 
 HEL  HZ EP   1    226 36.60                             111     0.5 6  256 254 
 HEL  HN ES   2    227  5.72                             111     0.4 4  256 254 
 HEL  HZ I         227 10.41        30.3 0.45                           256 254 
 GUY  SZ EP   1    226 40.77                             108     0.3 5  293 232 
 DBB  SZ EP   1    226 43.83                             106     0.6 5  321 273 
 DBB  SZ ES   1    227 17.23                             106    -0.8 5  321 273 
                                                                                
