 2012 1125 0606 41.4 L   6.787 -73.170141.6  RSN  9 0.3 2.1LRSN                1
 GAP=134        0.55       2.2     2.7  3.8 -0.7574E+00  0.2814E+01  0.1447E+01E
 Epicentro: LOS SANTOS - SANTANDER                                             3
 ACTION:UPD 12-12-05 15:36 OP:}ep  STATUS:               ID:20121125060641 L   I
 2012-11-25-0600-00M.COL___233                                                 6
 STAT SP IPHASW D HRMM SECON CODA AMPLIT PERI AZIMU VELO AIN AR TRES W  DIS CAZ7
 BAR2 SZ EP        6 7  0.62                             171    0.1110 21.6 184 
 BAR2 SZ ES        6 7 15.45                             171    0.0410 21.6 184 
 BAR2 SZ I         6 7 16.93        46.3 0.27                          21.6 184 
 GIR2 SZ EP        6 7  0.61                             166   -0.0110 32.3 355 
 PAM  SZ EP        6 7  3.44                             149    0.0810 80.2  40 
 PAM  SZ I         6 7  3.77        31.2 0.18                          80.2  40 
 PAM  SN ES        6 7 20.60                             149    0.1210 80.2  40 
 RUS  HZ EP        6 7  4.61                             143   -0.0610 99.4 174 
 RUS  HE ES        6 7 22.66                             143   -0.1510 99.4 174 
 RUS  HE I         6 7 25.25        12.5 0.21                          99.4 174 
 PTB  HZ EP        6 7  7.45                             132   -0.33 9  145 259 
 PTB  HE ES        6 7 28.15                             132   -0.20 9  145 259 
 PTB  HZ I         6 7 30.80        10.8 0.36                           145 259 
 OCA  HN ES   2    6 7 30.67                             128   -0.75 5  161 354 
 ZAR  HN ES   1    6 7 38.98                             122    0.65 6  202 293 
 ZAR  HZ I         6 7 45.29        10.7 0.20                           202 293 
 CHI  HZ EP        6 7 18.79                             116    0.13 8  247 195 
 CHI  HE ES   1    6 7 47.93                             116    0.22 6  247 195 
 CHI  HE I         6 7 58.18         9.2 0.49                           247 195 
 PRA  HZ EP   1    6 7 34.35                             106   -0.14 4  389 209 
 PRA  HE ES   1    6 8 16.31                             106    0.41 4  389 209 
 PRA  HZ I         6 8 21.20         5.5 0.30                           389 209 
                                                                                
