 2011  725 0326 17.8 L   6.789 -73.106149.9  RSN  6 0.3 1.5LRSN                1
 GAP=163        0.67       4.7     7.7  7.1 -0.1809E+01 -0.1256E+02 -0.7741E+01E
 Epicentro: LOS SANTOS - SANTANDER                                             3
 ACTION:UPD 12-07-25 14:03 OP:epov STATUS:               ID:20110725032617 L   I
 2011-07-25-0320-39S.COL___143                                                 6
 STAT SP IPHASW D HRMM SECON CODA AMPLIT PERI AZIMU VELO AIN AR TRES W  DIS CAZ7
 BAR2 SZ EP   1    326 37.45                             171   -0.46 7 23.3 201 
 BAR2 SZ ES   1    326 54.11                             171    0.50 7 23.3 201 
 BAR2 SZ I         326 54.17        10.3 0.12                          23.3 201 
 GIR2 SZ EP   1    326 38.37                             167    0.36 7 33.5 343 
 BRR  HZ EP        326 39.49                             152   -0.1410 75.6 298 
 BRR  HZ I         326 39.74        15.9 0.13                          75.6 298 
 BRR  HE ES        326 56.61                             152   -0.0610 75.6 298 
 RUS  HN ES   2    327  0.25                             145   -0.36 5 99.2 179 
 RUS  HZ I         327  8.06         4.9 0.74                          99.2 179 
 GRA  SZ EP   2    326 43.49                             138    0.10 5  126  15 
 GRA  SZ ES   1    327  3.03                             138   -0.33 7  126  15 
 GRA  SZ I         327  5.77         2.0 0.39                           126  15 
 OCA  SZ EP   1    326 47.10                             130    0.52 7  162 352 
 OCA  SZ ES   2    327  8.87                             130   -0.18 5  162 352 
 OCA  SZ I         327 15.79         2.8 0.37                           162 352 
                                                                                
