 2010  925 0228 43.8 L   6.773 -73.126148.7  RSN  5 0.1 1.5LRSN                1
 GAP=161        0.34       2.9     6.7  5.6  0.5969E+01 -0.1654E+02 -0.5177E-01E
 Epicentro: LOS SANTOS - SANTANDER                                             3
 ACTION:UP  11-02-18 11:05 OP:tino STATUS:               ID:20100925022843 L   I
 2010-09-25-0226-00S.COL___120                                                 6
 STAT SP IPHASW D HRMM SECON CODA AMPLIT PERI AZIMU VELO SNR AR TRES W  DIS CAZ7
 BAR2 SZ EP   2    229  3.73                             172     0.0 5   21 198 
 BAR2 SZ I         229 21.04        11.1 0.34                            21 198 
 BRR  HZ EP        229  5.41                             152     0.010   75 300 
 BRR  HZ I         229  5.67        13.3 0.13                            75 300 
 BRR  HE ES   1    229 22.35                             152     0.0 7   75 300 
 RUS  HZ EP   2    229  7.92                             145     0.3 5   98 177 
 RUS  HE ES   2    229 26.04                             145    -0.1 5   98 177 
 RUS  HZ I         229 27.89         2.4 0.25                            98 177 
 GRA  SZ EP   2    229  9.37                             137    -0.1 5  128  16 
 GRA  SZ I         229 33.37         3.8 0.45                           128  16 
 CHI  HZ EP   2    229 21.25                             118    -0.1 4  246 196 
 CHI  HE ES   2    229 50.71                             118     0.0 4  246 196 
 CHI  HZ I         230  0.65         1.2 0.38                           246 196 
                                                                                
