 2017  225 0926 13.7 L   6.819 -73.137146.4  RSN 10 0.5 1.9LRSN                1
 GAP=103        1.26       5.5     3.9  7.3 -0.1415E+01  0.5155E+01  0.1009E+02E
 Epicentro: LOS SANTOS - SANTANDER                                             3
 ACTION:UPD 17-05-24 15:40 OP:jn   STATUS:               ID:20170225092613 L   I
 OLDACT:UP  17-02-25 16:56 OP:cog  STATUS:               ID:20170225091749     3
 OLDACT:REG 17-02-25 13:08 OP:dani STATUS:               ID:20170225091749     3
 2017-02-25-0918-00M.COL___358                                                 6
 STAT SP IPHASW D HRMM SECON CODA AMPLIT PERI AZIMU VELO AIN AR TRES W  DIS CAZ7
 BAR2 EZ EP        926 33.34                             170   -0.0910 25.6 191 
 BAR2 EZ ES        926 49.21                             170    0.3710 25.6 191 
 BAR2 EZ I         926 49.98        31.5 0.38            167           25.6 191 
 BRR  HZ EP        926 35.23                             153    0.3510 71.0 297 
 BRR  HE ES        926 51.36                             153   -0.0610 71.0 297 
 BRR  HZ I         926 55.73        16.9 0.22            151           71.0 297 
 PAM  EZ EP        926 36.24                             152    0.4210 75.2  40 
 PAM  EE ES        926 53.52                             152    0.4110 75.2  40 
 PAM  EZ I         926 56.00         7.8 0.46            156           75.2  40 
 RUS  HZ EP        926 37.30                             143   -0.3310  103 177 
 RUS  HN ES        926 56.03                             143   -0.3010  103 177 
 RUS  HZ I         926 59.00         8.2 0.32            144            103 177 
 PTB  HZ EP        926 40.02                             132   -0.79 9  149 258 
 PTB  HN ES        927  1.54                             132   -0.44 9  149 258 
 PTB  HZ I         927  8.56        22.0 0.22            131            149 258 
 TAM  HZ EP        926 41.56                             131    0.19 9  155 106 
 TAM  HN ES        927  2.13                             131   -0.85 9  155 106 
 TAM  HZ I         927  2.34         8.1 0.42            135            155 106 
 CHI  HZ EP        926 51.45                             117   -0.20 8  251 195 
 CHI  HN ES        927 22.55                             117    1.27 8  251 195 
 CHI  HZ I         927 26.47         4.5 0.26            118            251 195 
 ROSC BZ EP   9    926 53.91                             117    1.84 0  255 211 
 ROSC BN ES   3    927 25.17                             115    1.30 2  255 211 
 HEL  HZ EP   4    926 55.47                             115    1.40 0  273 255 
 HEL  HE ES        927 25.46                             115   -0.12 8  273 255 
 HEL  HZ I         927 32.51        11.0 0.44            115            273 255 
 CBOC HZ EP        927  1.86                             110    1.08 7  335 252 
 CBOC HE ES        927 37.05                             110   -0.49 7  335 252 
 CBOC HZ I         927 49.23         3.0 0.40            110            335 252 
                                                                                
