 2016  325 0847 32.4 L   6.767 -73.167144.3  RSN 10 0.2 1.7LRSN                1
 GAP=135        0.47       1.7     1.9  3.2 -0.5421E+00  0.2433E+01  0.1991E+00E
 Epicentro: LOS SANTOS - SANTANDER                                             3
 ACTION:UPD 16-05-13 21:27 OP:cam  STATUS:               ID:20160325084732 L   I
 OLDACT:DUP 16-03-25 18:17 OP:ak   STATUS:               ID:20160325083750d    3
 OLDACT:REG 16-03-25 14:35 OP:ak   STATUS:               ID:20160325083749     3
 2016-03-25-0837-49M.COL___294                                                 6
 STAT SP IPHASW D HRMM SECON CODA AMPLIT PERI AZIMU VELO AIN AR TRES W  DIS CAZ7
 BAR2 EZ EP        847 51.82                             172    0.0210 19.4 185 
 BAR2 EZ ES        848  6.82                             172   -0.1010 19.4 185 
 BAR2 EZ I         848  8.66        14.0 0.22            171           19.4 185 
 PAM  EZ EP        847 54.93                             149    0.1910 81.7  39 
 PAM  EN ES        848 12.04                             149   -0.1110 81.7  39 
 RUS  HZ EP        847 55.82                             144    0.0310 97.2 175 
 RUS  HN ES        848 14.12                             144    0.1110 97.2 175 
 RUS  HZ I         848 15.76         7.1 0.26            146           97.2 175 
 PTB  HZ EP        847 58.87                             132   -0.13 9  145 260 
 PTB  HN ES        848 19.54                             132   -0.19 9  145 260 
 SPBC HZ EP        848  0.50                             129    0.10 9  159 219 
 SPBC HN ES        848 22.62                             129    0.39 9  159 219 
 ZAR  HZ EP        848  4.64                             122   -0.05 9  203 293 
 ZAR  HN ES        848 29.90                             122    0.04 9  203 293 
 NOR  HN ES        848 34.76                             119   -0.34 8  231 235 
 CHI  HZ EP   2    848  9.41                             117   -0.19 4  245 195 
 CHI  HN ES        848 38.26                             117   -0.33 8  245 195 
 HEL  HZ EP   2    848 12.12                             115   -0.09 4  269 256 
 HEL  HN ES        848 43.58                             115    0.34 8  269 256 
 HEL  HZ I         848 51.10         3.0 0.30            115            269 256 
 CBOC HZ EP   4    848 20.59                             110    1.70 0  330 253 
 ORTC HE ES        849  7.44                             106    0.03 6  391 216 
                                                                                
