 2012  525 0902 32.6 L   6.795 -73.166138.0  RSN 11 0.4 2.6LRSN                1
 GAP=134        0.83       3.1     3.9  5.4 -0.1563E+01  0.7831E+01  0.1487E+01E
 Epicentro: LOS SANTOS - SANTANDER                                             3
 ACTION:UP  12-07-05 12:07 OP:pat  STATUS:               ID:20120525090232 L   I
 2012-05-25-0900-00M.COL___201                                                 6
 STAT SP IPHASW D HRMM SECON CODA AMPLIT PERI AZIMU VELO SNR AR TRES W  DIS CAZ7
 BAR2 SZ IP        9 2 51.69                             170     0.410   22 185 
 BAR2 SZ I         9 2 52.09       100.3 0.14                            22 185 
 BAR2 SZ ES        9 3  5.93                             170     0.110   22 185 
 PAM  SE ES   1    9 3 11.15                             149     0.2 7   79  41 
 RUS  HZ EP        9 2 55.70                             142     0.110  100 175 
 RUS  HN ES   1    9 3 13.10                             142    -0.4 7  100 175 
 RUS  HZ I         9 3 14.95        48.7 0.29                           100 175 
 PTB  HZ EP        9 2 58.37                             131    -0.4 9  145 259 
 PTB  HN ES        9 3 19.47                             131     0.3 9  145 259 
 PTB  HZ I         9 3 25.18        39.8 0.34                           145 259 
 OCA  HZ EP        9 3  0.14                             128    -0.2 9  161 354 
 OCA  HN ES   1    9 3 21.46                             128    -0.6 7  161 354 
 OCA  HZ I         9 3 26.61       115.8 0.28                           161 354 
 ZAR  HZ EP   1    9 3  4.74                             121     0.4 6  202 293 
 ZAR  HN ES   1    9 3 29.31                             121     0.2 6  202 293 
 ZAR  HZ I         9 3 35.96        58.2 0.28                           202 293 
 NOR  SZ EP   1    9 3  7.64                             117     0.0 6  232 234 
 NOR  SE ES   1    9 3 35.16                             117     0.1 6  232 234 
 CHI  HZ EP   1    9 3  9.97                             116     0.2 6  247 195 
 CHI  HN ES   1    9 3 38.28                             116    -0.5 6  247 195 
 CHI  HZ I         9 3 43.33        17.1 0.32                           247 195 
 HEL  HZ EP   1    9 3 12.52                             113     0.3 6  270 256 
 HEL  HN ES   1    9 3 42.28                             113    -0.8 6  270 256 
 HEL  HZ I         9 3 52.26        19.7 0.28                           270 256 
 RREF HZ EP   1    9 3 19.10                             110     0.9 5  320 229 
 RREF HN ES   1    9 3 53.72                             110     0.0 5  320 229 
 RREF HZ I         9 4  0.82        20.7 0.18                           320 229 
 PRA  HZ EP        9 3 25.28                             105    -0.4 6  390 209 
 PRA  HE ES   1    9 4  6.86                             105    -0.2 4  390 209 
                                                                                
