 2012  325 0900 48.0 L   6.761 -73.162142.8  RSN  5 0.3 1.4LRSN                1
 GAP=136        0.57       6.0     5.8  8.3 -0.3125E+01  0.6061E+01  0.1926E+01E
 ACTION:UP  12-03-31 23:22 OP:EP   STATUS:               ID:20120325090048 L   I
 2012-03-25-0900-00M.COL___196                                                 6
 STAT SP IPHASW D HRMM SECON CODA AMPLIT PERI AZIMU VELO SNR AR TRES W  DIS CAZ7
 BAR2 SZ EP   2    9 1  7.02                             172    -0.2 5   19 187 
 BAR2 SZ ES   2    9 1 21.73                             172    -0.4 5   19 187 
 BAR2 SZ I         9 1 24.66         8.0 0.31                            19 187 
 BRR  HZ EP   2    9 1  9.08                             152     0.2 5   72 302 
 BRR  HZ I         9 1  9.25        14.8 0.16                            72 302 
 BRR  HN ES   2    9 1 25.62                             152     0.5 5   72 302 
 PAM  SZ EP   2    9 1 10.28                             149     0.1 5   82  39 
 PAM  SN ES   2    9 1 27.29                             149    -0.2 5   82  39 
 RUS  HZ EP   2    9 1 11.61                             144     0.4 5   96 175 
 RUS  HN ES   2    9 1 29.35                             144     0.1 5   96 175 
 RUS  HZ I         9 1 32.32         2.2 0.43                            96 175 
 PTB  HZ EP   2    9 1 13.84                             132    -0.7 5  145 260 
 PTB  HN ES   2    9 1 35.16                             132     0.0 5  145 260 
 PTB  HZ I         9 1 36.69         2.2 0.37                           145 260 
                                                                                
