 2013  625 0707 13.0 L   6.751 -73.228145.8  RSN  4 0.4 1.1LRSN                1
 GAP=217        0.85      10.0     8.3  8.4  0.4530E+02  0.2468E+02  0.2153E+02E
 Epicentro: VILLANUEVA - SANTANDER                                             3
 ACTION:UPD 14-01-08 09:57 OP:ep   STATUS:               ID:20130625070713 L   I
 OLDACT:DUP 13-06-25 12:53 OP:jn   STATUS:               ID:20130625065960d    3
 2013-06-25-0659-59M.COL___267                                                 6
 STAT SP IPHASW D HRMM SECON CODA AMPLIT PERI AZIMU VELO AIN AR TRES W  DIS CAZ7
 BAR2 SZ EP   1    7 7 32.30                             172   -0.28 7 18.3 164 
 BAR2 SZ ES        7 7 47.40                             172   -0.4210 18.3 164 
 BAR2 SZ I         7 7 48.86         4.2 0.26            171           18.3 164 
 BRR  HN ES   1    7 7 50.79                             154    0.57 7 66.4 306 
 BRR  HZ I         7 7 52.53         2.5 0.30            153           66.4 306 
 RUS  HZ EP   1    7 7 36.45                             145   -0.03 7 96.2 170 
 RUS  HN ES   1    7 7 55.36                             145    0.59 7 96.2 170 
 RUS  HZ I         7 7 56.27         1.6 0.38            146           96.2 170 
 PTB  HZ EP        7 7 39.27                             134    0.15 9  138 260 
 PTB  HN ES   1    7 7 59.07                             134   -0.39 7  138 260 
 PTB  HZ I         7 8  2.56         1.3 0.28            134            138 260 
                                                                                
