 2010  725 0151 39.3 L   6.809 -73.139147.6  RSN  4 0.2 1.3LRSN                1
 GAP=159        0.53       5.2    10.8 10.8  0.2395E+02 -0.8117E+02 -0.2159E+02E
 Epicentro: LOS SANTOS - SANTANDER                                             3
 ACTION:UPD 10-12-01 15:20 OP:pat  STATUS:               ID:20100725015139 L   I
 2010-07-25-0150-17S.COL___123                                                 6
 STAT SP IPHASW D HRMM SECON CODA AMPLIT PERI AZIMU VELO AIN AR TRES W  DIS CAZ7
 BRR  HZ EP        152  0.65                             153    -0.110   71 298 
 BRR  HN ES   1    152 17.36                             153     0.0 7   71 298 
 BRR  HZ I         152 18.26         4.9 0.11                            71 298 
 RUS  HZ EP   1    152  3.33                             144     0.0 7  102 176 
 RUS  HN ES   2    152 22.09                             144     0.0 5  102 176 
 RUS  HZ I         152 23.46         2.9 0.25                           102 176 
 GUE  SZ EP   1    152  4.46                             140     0.3 7  115  12 
 GRA  SZ EP   2    152  4.12                             138    -0.5 5  125  17 
 GRA  SZ I         152 25.37         3.0 0.23                           125  17 
                                                                                
