 2015  125 0610 36.7 L   6.735 -73.145149.3  RSN  6 0.4 1.2LRSN                1
 GAP=139        0.91       5.9     5.1  7.9  0.2281E+01  0.2418E+01 -0.3723E+00E
 Epicentro: LOS SANTOS - SANTANDER                                             3
 ACTION:UPD 15-03-02 15:42 OP:nd   STATUS:               ID:20150125061036 L   I
 OLDACT:DUP 15-01-25 16:09 OP:spq  STATUS:               ID:20150125060744d    3
 2015-01-25-0607-43M.COL___271                                                 6
 STAT SP IPHASW D HRMM SECON CODA AMPLIT PERI AZIMU VELO AIN AR TRES W  DIS CAZ7
 BAR2 EZ EP   1    610 56.48                             173   -0.20 7 16.3 195 
 BAR2 EZ ES   1    611 11.91                             173   -0.32 7 16.3 195 
 BAR2 EZ I         611 12.74         5.7 0.32            172           16.3 195 
 BRR  HZ EP        610 58.69                             152    0.2110 74.9 303 
 BRR  HE ES        611 16.16                             152    0.7110 74.9 303 
 BRR  HZ I         611 21.82         3.1 0.38            149           74.9 303 
 PAM  SZ EP     C  610 59.74                             150    0.0710 83.1  36 
 PAM  SN ES   1    611 16.95                             150   -0.62 7 83.1  36 
 PAM  SZ I         611 17.33         1.9 0.34            152           83.1  36 
 RUS  HZ EP   1    611  0.77                             147    0.43 7 93.4 176 
 RUS  HE ES   1    611 18.78                             147    0.03 7 93.4 176 
 RUS  HZ I         611 20.10         1.8 0.26            150           93.4 176 
 PTB  HZ EP   1    611  3.59                             133   -0.30 7  147 262 
 PTB  HE ES   1    611 24.58                             133   -0.49 7  147 262 
 PTB  HZ I         611 27.16         2.0 0.14            133            147 262 
 ZAR  HE ES   1    611 34.89                             123   -0.54 6  207 294 
 ZAR  HZ I         611 41.02         2.1 0.32            123            207 294 
                                                                                
