 2013  325 0214 44.7 L   6.770 -73.152151.0  RSN  6 0.3 1.5LRSN                1
 GAP=234        0.62       4.0     5.0  6.6  0.7688E+01  0.2231E+01  0.5527E+01E
 Epicentro: LOS SANTOS - SANTANDER                                             3
 ACTION:UPD 13-04-09 14:04 OP:ep   STATUS:               ID:20130325021444 L   I
 2013-03-25-0210-00M.COL___244                                                 6
 STAT SP IPHASW D HRMM SECON CODA AMPLIT PERI AZIMU VELO AIN AR TRES W  DIS CAZ7
 BRR  HZ IP     C  215  6.58                             153    0.0710 72.3 301 
 BRR  HN ES   1    215 23.73                             153    0.24 7 72.3 301 
 BRR  HZ I         215 27.66         4.8 0.40            150           72.3 301 
 RUS  HZ EP   1    215  8.69                             146   -0.09 7 97.3 176 
 RUS  HN ES   1    215 27.52                             146   -0.01 7 97.3 176 
 RUS  HZ I         215 29.78         2.7 0.46            146           97.3 176 
 PTB  HZ EP   1    215 11.52                             133   -0.50 7  147 260 
 PTB  HN ES   1    215 32.64                             133   -0.66 7  147 260 
 PTB  HZ I         215 39.83         5.5 0.44            132            147 260 
 ZAR  HN ES   1    215 43.52                             123    0.30 6  205 293 
 ZAR  HZ I         215 49.48         4.0 0.26            124            205 293 
 NOR  HZ EP   1    215 20.49                             120   -0.02 6  232 235 
 NOR  HE ES   1    215 48.92                             120    0.50 6  232 235 
 NOR  HZ I         215 53.38         2.5 0.18            120            232 235 
 CHI  HZ EP   1    215 22.62                             119    0.26 6  245 195 
 CHI  HN ES   1    215 51.80                             119    0.08 6  245 195 
 CHI  HZ I         215 57.84         1.5 0.34            120            245 195 
                                                                                
