 2016  925 0016 18.0 L   6.811 -73.087149.5  RSN 12 0.5 2.1LRSN                1
 GAP=124        1.21       3.7     5.9  6.8 -0.2318E+01  0.8913E+01  0.3994E+01E
 Epicentro: LOS SANTOS - SANTANDER                                             3
 ACTION:UPD 17-08-17 21:16 OP:lp   STATUS:               ID:20160925001618 L   I
 OLDACT:UP  16-09-25 14:02 OP:ar   STATUS:               ID:20160925000744     3
 OLDACT:UP  16-09-25 14:01 OP:ar   STATUS:               ID:20160925000744     3
 OLDACT:REG 16-09-25 12:53 OP:ar   STATUS:               ID:20160925000744     3
 2016-09-25-0008-00M.COL___330                                                 6
 STAT SP IPHASW D HRMM SECON CODA AMPLIT PERI AZIMU VELO AIN AR TRES W  DIS CAZ7
 BAR2 EZ EP        016 38.13                             170   -0.0110 26.4 204 
 BAR2 EZ ES        016 53.86                             170    0.0110 26.4 204 
 BAR2 EZ I         016 54.67        25.3 0.14            167           26.4 204 
 PAM  EZ EP        016 41.13                             153    0.8010 72.5  36 
 PAM  EN ES        016 58.20                             153    0.4510 72.5  36 
 PAM  EZ I         017  0.21        10.5 0.48            156           72.5  36 
 BRR  HZ EP        016 39.93                             152    0.0810 76.4 295 
 BRR  HE ES        016 56.81                             152   -0.0810 76.4 295 
 BRR  HZ I         017  0.83        31.2 0.44            149           76.4 295 
 RUS  HZ EP        016 42.11                             144   -0.0710  102 180 
 RUS  HN ES        017  0.94                             144   -0.1110  102 180 
 RUS  HZ I         017  2.80         7.7 0.36            144            102 180 
 PTB  HZ EP        016 44.88                             132   -0.99 9  154 259 
 PTB  HE ES   4    017  5.70                             132   -1.90 0  154 259 
 PTB  HZ I         017  7.58        18.8 0.62            130            154 259 
 OCA  HZ EP        016 46.71                             131    0.14 9  160 351 
 OCA  HN ES        017  7.90                             131   -0.97 9  160 351 
 OCA  HZ I         017 13.65        16.5 0.22            131            160 351 
 ZAR  HZ EP        016 51.64                             122    0.38 8  210 291 
 ZAR  HN ES   4    017 18.52                             122    1.32 0  210 291 
 ZAR  HZ I         017 22.22        16.0 0.24            122            210 291 
 NOR  HZ EP   4    016 50.48                             119   -4.10 0  241 235 
 NOR  HE ES   4    017 21.57                             119   -1.55 0  241 235 
 NOR  HZ I         017 28.88        10.0 0.18            118            241 235 
 CHI  HZ EP        016 56.35                             118    0.13 8  252 197 
 CHI  HN ES        017 25.44                             118   -0.59 8  252 197 
 CHI  HZ I         017 31.87         4.9 0.30            118            252 197 
 ROSC BZ EP   4    016 58.40                             117    1.60 0  257 212 
 ROSC BN ES        017 27.62                             117    0.55 8  257 212 
 ROSC BZ I         017 34.49        11.4 0.75            117            257 212 
 HEL  HZ EP   4    017  0.85                             115    1.72 0  279 256 
 HEL  HN ES        017 31.87                             115    0.66 7  279 256 
 HEL  HZ I         017 38.38         7.8 0.34            114            279 256 
 PTGC HZ EP        017  1.45                             112   -0.44 7  308 160 
 PTGC HN ES   4    017 34.60                             112   -1.52 0  308 160 
 PTGC HZ I         017 40.16        11.1 0.32            113            308 160 
                                                                                
