 2016  425 0552 36.1 L   6.098 -73.649136.0  RSN  5 0.4 1.3LRSN                1
 GAP=171        0.99       8.9     4.7  8.1  0.3126E+01  0.7968E+01  0.9554E+01E
 Epicentro: CHIPATA - SANTANDER                                                3
 ACTION:UPD 16-05-05 14:24 OP:rebc STATUS:               ID:20160425055236 L   I
 OLDACT:UP  16-04-25 19:30 OP:mh   STATUS:               ID:20160425054747d    3
 OLDACT:UP  16-04-25 19:30 OP:mh   STATUS:               ID:20160425054747d    3
 OLDACT:DUP 16-04-25 19:24 OP:mh   STATUS:               ID:20160425054747d    3
 OLDACT:UP  16-04-25 19:24 OP:mh   STATUS:               ID:20160425054746     3
 OLDACT:UP  16-04-25 19:18 OP:mh   STATUS:               ID:20160425054746     3
 OLDACT:REG 16-04-25 13:21 OP:y    STATUS:               ID:20160425054746     3
 2016-04-25-0547-46M.COL___270                                                 6
 STAT SP IPHASW D HRMM SECON CODA AMPLIT PERI AZIMU VELO AIN AR TRES W  DIS CAZ7
 RUS  HZ EP        552 56.61                             153   -0.0310 66.6 110 
 RUS  HN ES        553 12.72                             153    0.0610 66.6 110 
 RUS  HZ I         553 15.38         1.5 0.25            153           66.6 110 
 SPBC HZ EP        552 55.82                             152   -0.3210 68.0 224 
 SPBC HN ES        553 11.97                             152    0.2010 68.0 224 
 SPBC HZ I         553 13.96         6.1 0.27            152           68.0 224 
 PTB  HZ EP   4    553  0.59                             141    2.27 0  102 299 
 PTB  HN ES        553 15.74                             141    0.0710  102 299 
 NOR  HZ EP        553  1.76                             130   -0.55 9  148 246 
 NOR  HE ES        553 22.53                             130   -0.23 9  148 246 
 NOR  HZ I         553 24.46         3.3 0.31            132            148 246 
 GUY2CHZ EP        553 10.47                             119    0.97 8  213 243 
 GUY2CHZ I         553 27.49         2.2 0.32                           213 243 
                                                                                
