 2013 1225 0351 28.0 L   6.682 -73.241153.5  RSN  4 0.3 1.1LRSN                1
 GAP=190        0.67       4.4     6.7  8.5  0.1068E+02 -0.7629E+01 -0.1800E+02E
 Epicentro: BARICHARA - SANTANDER                                              3
 ACTION:UPD 14-01-13 10:20 OP:ep   STATUS:               ID:20131225035128 L   I
 OLDACT:UP  13-12-25 11:33 OP:mh   STATUS:               ID:20131225035000     3
 OLDACT:REG 13-12-25 08:15 OP:mh   STATUS:               ID:20131225035000     3
 2013-12-25-0350-00M.COL___285                                                 6
 STAT SP IPHASW D HRMM SECON CODA AMPLIT PERI AZIMU VELO AIN AR TRES W  DIS CAZ7
 BRR  HZ EP   1    351 49.80                             154   -0.11 8 70.1 312 
 BRR  HN ES   2    352  6.70                             154   -0.31 5 70.1 312 
 BRR  HZ I         352 11.93         2.1 0.10            152           70.1 312 
 RUS  HZ EP   1    351 52.03                             149    0.31 8 89.0 169 
 RUS  HN ES   1    352 10.17                             149   -0.08 8 89.0 169 
 RUS  HZ I         352 11.49         1.5 0.12            153           89.0 169 
 PTB  HZ EP        351 54.66                             136    0.1610  135 263 
 PTB  HN ES   1    352 15.09                             136   -0.11 7  135 263 
 PTB  HZ I         352 22.31         2.4 0.23            136            135 263 
 SML  HZ EP        352  5.30                             118   -0.59 8  252 339 
 SML  HN ES        352 35.93                             118    0.46 8  252 339 
                                                                                
