 2013  725 0513  8.1 L   6.772 -73.183152.6  RSN  4 0.3 1.3LRSN                1
 GAP=203        0.65       5.6     6.8  6.7  0.1376E+01  0.1304E+01 -0.1573E+02E
 Epicentro: LOS SANTOS - SANTANDER                                             3
 ACTION:UPD 13-08-12 10:39 OP:ep   STATUS:               ID:20130725051308 L   I
 OLDACT:UP  13-07-25 12:07 OP:cam  STATUS:               ID:20130725050959     3
 OLDACT:REG 13-07-25 09:54 OP:cam  STATUS:               ID:20130725050959     3
 2013-07-25-0509-59M.COL___266                                                 6
 STAT SP IPHASW D HRMM SECON CODA AMPLIT PERI AZIMU VELO AIN AR TRES W  DIS CAZ7
 BAR2 SZ EP   1    513 28.20                             172   -0.28 7 19.9 180 
 BAR2 SZ ES   1    513 44.14                             172   -0.24 7 19.9 180 
 BRR  HZ EP        513 30.22                             154    0.3510 69.2 302 
 BRR  HN ES   1    513 47.27                             154    0.41 7 69.2 302 
 PTB  HZ EP   1    513 35.36                             134    0.15 7  143 260 
 PTB  HN ES   1    513 55.98                             134   -0.39 7  143 260 
 PTB  HZ I         513 59.60         1.9 0.16            132            143 260 
 SML  HZ EP        513 45.18                             119   -0.04 8  245 336 
 SML  HE ES   1    514 13.80                             119   -0.39 6  245 336 
 SML  HZ I         514 22.57         1.8 0.10            117            245 336 
                                                                                
