 2011  825 0933 57.9 L   6.193 -73.834 32.1  RSN  5 0.4 1.2LRSN                1
 GAP=158        0.76       3.9     3.4 14.1  0.2560E+01 -0.1402E+02 -0.1008E+02E
 Epicentro: LANDAZURI - SANTANDER                                              3
 ACTION:UPD 12-07-13 15:53 OP:ep   STATUS:               ID:20110825093357 L   I
 2011-08-25-0920-00M.COL___156                                                 6
 STAT SP IPHASW D HRMM SECON CODA AMPLIT PERI AZIMU VELO AIN AR TRES W  DIS CAZ7
 BAR2 SZ EP   1    934 11.25                              61   -0.36 7 84.6  58 
 BAR2 SZ ES   1    934 21.87                              61   -0.47 7 84.6  58 
 BAR2 SZ I         934 22.98         4.2 0.45                          84.6  58 
 RUS  HZ EP   1    934 13.15                              61    0.62 7 89.5 112 
 RUS  HN ES   1    934 23.84                              61   -0.14 7 89.5 112 
 RUS  HZ I         934 24.26         5.0 0.45                          89.5 112 
 BRR  HZ EP   1    934 13.29                              61   -0.21 7  102   8 
 BRR  HZ I         934 13.65        12.4 0.11                           102   8 
 BRR  HE ES   1    934 26.04                              61    0.33 7  102   8 
 GIR2 SZ EP   1    934 16.54                              61    0.50 7  121  36 
 HEL  HZ EP   1    934 24.54                              61   -0.10 7  188 270 
 HEL  HN ES   2    934 45.07                              61   -0.46 4  188 270 
 HEL  HZ I         934 46.36         2.5 0.24                           188 270 
                                                                                
