 2016  725 0841 41.1 L   6.781 -73.008147.9  RSN  8 0.3 1.8LRSN                1
 GAP=250        0.78       3.9     5.7  5.2  0.8590E+01  0.6803E+01  0.2690E+01E
 Epicentro: CEPITA - SANTANDER                                                 3
 ACTION:UPD 17-03-29 16:55 OP:lp   STATUS:               ID:20160725084141 L   I
 OLDACT:UP  16-07-25 17:50 OP:ar   STATUS:               ID:20160725083759     3
 OLDACT:REG 16-07-25 14:49 OP:edw  STATUS:               ID:20160725083759     3
 2016-07-25-0837-59S.COL___331                                                 6
 STAT SP IPHASW D HRMM SECON CODA AMPLIT PERI AZIMU VELO AIN AR TRES W  DIS CAZ7
 BAR2 EZ EP        842  1.13                             169    0.0210 28.4 223 
 BAR2 EZ ES        842 16.58                             169   -0.1310 28.4 223 
 BRR  HZ EP        842  3.13                             148   -0.2410 85.8 295 
 BRR  HN ES        842 20.65                             148   -0.0810 85.8 295 
 BRR  HZ I         842 21.92        10.0 0.28            144           85.8 295 
 RUS  HZ EP        842  5.14                             145    0.2110 98.6 185 
 RUS  HN ES        842 23.89                             145    0.3910 98.6 185 
 SPBC HZ EP        842 10.08                             128   -0.50 9  172 223 
 SPBC HN ES        842 33.26                             128   -0.30 9  172 223 
 SPBC HZ I         842 37.64         8.0 0.20            125            172 223 
 ZAR  HZ EP        842 15.07                             121   -0.18 8  219 291 
 ZAR  HN ES        842 42.53                             121    0.65 8  219 291 
 ZAR  HZ I         842 45.36         4.1 0.11            119            219 291 
 HEL  HZ EP   4    842 21.00                             114   -2.03 0  286 257 
 HEL  HE ES   4    842 53.37                             114   -2.35 0  286 257 
 HEL  HZ I         843  0.32         4.1 0.36            112            286 257 
 GUY2CHZ EP   4    842 27.79                             112    1.68 0  313 237 
 GUY2CHE ES   4    843  2.95                             112    1.74 0  313 237 
 GUY2CHZ I         843  8.85         4.8 0.68                           313 237 
 PRA  HZ EP        842 35.92                             107    0.52 6  398 212 
 PRA  HN ES        843 17.67                             107   -0.07 6  398 212 
 PRA  HZ I         843 21.53         1.5 0.40            106            398 212 
                                                                                
