 2013  125 0513 42.2 L   6.803 -73.154150.0  RSN  7 0.5 1.5LRSN                1
 GAP=135        0.91       5.5     6.0  8.7  0.7932E+01  0.1601E+02  0.1660E+02E
 Epicentro: LOS SANTOS - SANTANDER                                             3
 ACTION:UPD 13-02-15 09:16 OP:ep   STATUS:               ID:20130125051342 L   I
 2013-01-25-0510-00M.COL___241                                                 6
 STAT SP IPHASW D HRMM SECON CODA AMPLIT PERI AZIMU VELO AIN AR TRES W  DIS CAZ7
 BAR2 SZ EP   1    514  2.03                             171   -0.26 7 23.5 188 
 BAR2 SZ ES   1    514 18.23                             171    0.23 7 23.5 188 
 BRR  HZ EP   1    514  4.13                             154    0.42 7 70.3 299 
 BRR  HN ES   1    514 21.31                             154    0.79 7 70.3 299 
 BRR  HZ I         514 27.72         4.5 0.20            149           70.3 299 
 PAM  SN ES   1    514 22.25                             151   -0.28 7 77.7  40 
 RUS  HZ EP   1 D  514  6.25                             145   -0.09 7  101 176 
 RUS  HN ES   1    514 24.74                             145   -0.47 7  101 176 
 RUS  HZ I         514 25.82         2.8 0.38            146            101 176 
 PTB  HZ EP   1    514  9.10                             133   -0.29 7  147 259 
 PTB  HN ES   1    514 29.81                             133   -0.83 7  147 259 
 PTB  HZ I         514 36.17         4.3 0.40            131            147 259 
 ZAR  HE ES   1    514 40.17                             123   -0.06 6  203 292 
 ZAR  HZ I         514 46.80         4.5 0.44            123            203 292 
 CHI  HZ EP   1    514 20.36                             118    0.27 6  249 195 
 CHI  HN ES   1    514 50.51                             118    0.82 6  249 195 
 CHI  HZ I         514 55.31         1.6 0.42            120            249 195 
                                                                                
