 2012  225 0423  4.1 L   6.775 -73.179143.2  RSN  8 0.4 1.7LRSN                1
 GAP=133        0.74       5.1     5.2  6.4 -0.2384E+00  0.1794E+01  0.4223E+01E
 ACTION:UP  12-03-07 16:34 OP:epov STATUS:               ID:20120225042304 L   I
 2012-02-25-0420-00M.COL___192                                                 6
 STAT SP IPHASW D HRMM SECON CODA AMPLIT PERI AZIMU VELO AIN AR TRES W  DIS CAZ7
 BAR2 SZ EP   1    423 23.25                             172   -0.09 7 20.2 181 
 BAR2 SZ ES   1    423 37.67                             172   -0.69 7 20.2 181 
 BAR2 SZ I         423 39.90         6.6 0.31                          20.2 181 
 GIR2 SZ EP   1    423 23.29                             166   -0.22 7 33.6 357 
 GIR2 SZ ES   1    423 38.76                             166    0.09 7 33.6 357 
 BRR  HZ EP   1    423 25.03                             153    0.18 7 69.4 302 
 BRR  HZ I         423 37.04        16.6 0.32                          69.4 302 
 BRR  HE ES   1    423 41.79                             153    0.74 7 69.4 302 
 PAM  SZ EP   1    423 26.19                             149   -0.11 7 81.9  40 
 RUS  HZ EP   1    423 27.57                             144    0.17 7 98.2 174 
 RUS  HN ES   1    423 45.95                             144    0.36 7 98.2 174 
 PTB  HZ EP   1    423 30.07                             132   -0.39 7  144 260 
 PTB  HN ES   1    423 50.74                             132   -0.30 7  144 260 
 NOR  SN ES   2    424  6.48                             118   -0.05 4  230 234 
 CHI  HZ EP   2    423 41.99                             117    0.75 4  245 195 
                                                                                
