 2011  825 0734 34.7 L   6.780 -73.071151.9  RSN  5 0.2 1.5LRSN                1
 GAP=203        0.50       3.8     8.2  4.4  0.1320E+02  0.1150E+01  0.3759E+01E
 Epicentro: LOS SANTOS - SANTANDER                                             3
 ACTION:UPD 12-07-13 15:53 OP:ep   STATUS:               ID:20110825073434 L   I
 2011-08-25-0720-00M.COL___156                                                 6
 STAT SP IPHASW D HRMM SECON CODA AMPLIT PERI AZIMU VELO AIN AR TRES W  DIS CAZ7
 BAR2 SZ EP        734 55.01                             171   -0.0610 24.2 211 
 BAR2 SZ ES   1    735 10.88                             171   -0.08 7 24.2 211 
 GIR2 SZ EP   1    734 55.50                             166    0.29 7 35.7 338 
 GIR2 SZ ES   1    735 11.27                             166    0.06 7 35.7 338 
 BRR  HZ EP        734 57.00                             151    0.0310 79.5 297 
 BRR  HN ES   1    735 14.25                             151   -0.11 7 79.5 297 
 BRR  HZ I         735 16.86        10.4 0.31                          79.5 297 
 RUS  HZ EP   1    734 58.36                             146   -0.52 7 98.2 181 
 RUS  HZ I         734 59.52         2.6 0.18                          98.2 181 
 RUS  HE ES   1    735 17.98                             146    0.24 7 98.2 181 
 CHI  HZ EP   1    735 13.06                             118    0.31 6  249 197 
 CHI  HE ES   2    735 42.42                             118   -0.03 4  249 197 
 CHI  HZ I         735 50.20         2.3 0.17                           249 197 
                                                                                
