 2010  425 0631 39.3 L   6.732 -73.001147.7  RSN  7 0.3 2.0LRSN                1
 GAP=202        0.53       5.0     7.5  6.6 -0.1755E+02 -0.1960E+02  0.6878E+01E
 Epicentro: CEPITA - SANTANDER                                                 3
 ACTION:UPD 10-08-24 10:01 OP:vdl  STATUS:               ID:20100425063139 L   I
 2010-04-25-0628-03S.COL___104                                                 6
 STAT SP IPHASW D HRMM SECON CODA AMPLIT PERI AZIMU VELO AIN AR TRES W  DIS CAZ7
 BAR2 SZ EP   2    631 59.43                             170     0.2 5   25 232 
 BAR2 SZ ES   2    632 14.52                             170    -0.2 5   25 232 
 BRR  HZ IP     C  632  1.78                             148     0.010   89 298 
 BRR  HE ES   1    632 19.26                             148     0.0 7   89 298 
 BRR  HZ I         632 22.54        17.7 0.16                            89 298 
 GUE  SZ EP   2    632  4.27                             139    -0.4 5  122   4 
 GRA  SZ IP        632  5.19                             137     0.110  129  10 
 OCA  SZ EP   2    632  8.03                             129    -0.7 4  170 348 
 OCA  SZ ES   2    632 32.19                             129     0.5 4  170 348 
 OCA  SZ I         632 41.14        15.7 0.21                           170 348 
 HEL  HZ EP   2    632 20.90                             114    -0.3 4  286 258 
 HEL  HZ I         632 58.44         3.3 0.44                           286 258 
 PRA  HZ EP   2    632 33.30                             107     0.2 3  394 212 
 PRA  HE ES   2    633 15.57                             107     0.5 3  394 212 
 PRA  HZ I         633 19.32         3.2 0.43                           394 212 
                                                                                
