 2013  225 0932 55.2 L   6.785 -73.176146.3  RSN  6 0.3 2.1LRSN                1
 GAP=133        0.87       4.6     4.5  6.2 -0.1821E+01  0.3114E+01  0.2558E+01E
 Epicentro: LOS SANTOS - SANTANDER                                             3
 ACTION:UPD 13-03-12 09:35 OP:ep   STATUS:               ID:20130225093255 L   I
 2013-02-25-0928-49M.COL___193                                                 6
 STAT SP IPHASW D HRMM SECON CODA AMPLIT PERI AZIMU VELO AIN AR TRES W  DIS CAZ7
 BAR2 SZ EP        933 14.90                             171    0.0010 21.3 182 
 BAR2 SZ I         933 15.39        19.5 0.16            154           21.3 182 
 BAR2 SZ ES        933 30.15                             171   -0.0810 21.3 182 
 BRR  HZ EP        933 16.63                             153    0.2910 69.1 301 
 BRR  HN ES        933 33.41                             153    0.6210 69.1 301 
 BRR  HN I         933 34.03        56.4 0.32            143           69.1 301 
 PAM  SZ EP        933 17.89                             150    0.1710 80.8  41 
 PAM  SN ES        933 34.76                             150   -0.5010 80.8  41 
 RUS  HZ EP        933 18.96                             144    0.0110 99.2 174 
 RUS  HZ I         933 19.58         5.0 0.34            126           99.2 174 
 RUS  HN ES        933 37.57                             144    0.1310 99.2 174 
 PTB  HZ EP        933 21.44                             133   -0.49 9  144 259 
 PTB  HN ES        933 42.41                             133   -0.33 9  144 259 
 PTB  HN I         933 47.73        21.7 0.40            118            144 259 
 CHI  HZ EP   2    933 33.22                             118    0.51 4  246 195 
 CHI  HN I         934  7.11         9.5 0.56            106            246 195 
                                                                                
