 2017  125 0813 55.0 L   6.789 -73.150146.5  RSN  7 0.3 1.7LRSN                1
 GAP=137        1.06       5.5     5.4  7.6  0.6531E+01  0.7301E+01  0.2776E+01E
 Epicentro: LOS SANTOS - SANTANDER                                             3
 ACTION:UPD 17-05-22 16:03 OP:jn   STATUS:               ID:20170125081355 L   I
 OLDACT:DUP 17-01-25 18:14 OP:lv   STATUS:               ID:20170125080742d    3
 2017-01-25-0808-00M.COL___349                                                 6
 STAT SP IPHASW D HRMM SECON CODA AMPLIT PERI AZIMU VELO AIN AR TRES W  DIS CAZ7
 BAR2 EZ EP        814 14.71                             171    0.0210 22.0 189 
 BAR2 EZ ES        814 29.93                             171   -0.1210 22.0 189 
 BAR2 EZ I         814 32.13         6.2 0.27            166           22.0 189 
 BRR  HZ IP     C  814 16.48                             153    0.2410 71.4 300 
 BRR  HE ES        814 32.73                             153   -0.0710 71.4 300 
 BRR  HZ I         814 36.02        11.2 0.36            146           71.4 300 
 PAM  EZ EP        814 17.64                             150    0.2710 78.6  39 
 PAM  EN ES        814 34.57                             150   -0.2410 78.6  39 
 RUS  HZ EP        814 18.56                             144   -0.1810 99.4 176 
 RUS  HN ES        814 37.67                             144    0.4210 99.4 176 
 RUS  HZ I         814 38.39         4.0 0.24            144           99.4 176 
 PTB  HZ EP        814 21.21                             132   -0.76 9  147 259 
 PTB  HN ES   4    814 40.90                             132   -2.10 0  147 259 
 PTB  HZ I         814 49.92         6.2 0.13            128            147 259 
 ZAR  HZ EP   4    814 29.25                             122    1.75 0  204 293 
 ZAR  HN ES        814 53.30                             122    0.45 9  204 293 
 ZAR  HZ I         814 59.32         8.2 0.42            120            204 293 
 ROSC BZ EP   4    814 35.71                             117    2.69 0  251 211 
 URE  HZ EP   9    814 35.22                             114   -0.89 0  284 292 
 URE  HN ES        815  6.19                                   -1.09 7  284 292 
 URE  HZ I         815 18.66         4.4 0.18            112            284 292 
                                                                                
