 2017  225 0524 10.2 L   6.748 -73.169149.6  RSN  5 0.2 0.9LRSN                1
 GAP=136        0.52       3.4     3.2  4.0  0.2380E+01 -0.1060E+01 -0.2273E+01E
 Epicentro: LOS SANTOS - SANTANDER                                             3
 ACTION:UPD 17-05-24 15:40 OP:jn   STATUS:               ID:20170225052410 L   I
 OLDACT:REG 17-02-25 12:34 OP:dani STATUS:               ID:20170225051741     3
 2017-02-25-0518-00M.COL___376                                                 6
 STAT SP IPHASW D HRMM SECON CODA AMPLIT PERI AZIMU VELO AIN AR TRES W  DIS CAZ7
 BAR2 EZ EP        524 30.04                             173   -0.1510 17.3 185 
 BAR2 EZ ES        524 45.70                             173   -0.0810 17.3 185 
 BAR2 EZ I         524 46.53         2.5 0.48            172           17.3 185 
 BRR  HZ EP        524 31.98                             153    0.1710 71.9 303 
 BRR  HE ES        524 48.88                             153    0.2210 71.9 303 
 BRR  HZ I         524 50.19         2.0 0.21            153           71.9 303 
 PAM  EZ EP        524 32.99                             150   -0.2010 83.4  38 
 RUS  HZ EP        524 34.04                             146    0.0910 95.1 174 
 RUS  HN ES        524 52.57                             146    0.0910 95.1 174 
 RUS  HZ I         524 53.59         0.9 0.37            147           95.1 174 
 PTB  HZ EP        524 37.34                             134    0.17 9  144 261 
 PTB  HE ES        524 57.88                             134   -0.33 9  144 261 
 PTB  HZ I         525  0.48         0.9 0.17            134            144 261 
                                                                                
