 2012  725 0844 41.2 L   5.776 -73.897105.8  RSN  5 0.3 1.5LRSN                1
 GAP=176        0.81       6.8     5.3 20.2 -0.1222E+02  0.2740E+02 -0.8106E+01E
 Epicentro: ALBANIA - SANTANDER                                                3
 ACTION:UPD 12-08-14 11:45 OP:ep   STATUS:               ID:20120725084441 L   I
 2012-07-25-0840-00M.COL___215                                                 6
 STAT SP IPHASW D HRMM SECON CODA AMPLIT PERI AZIMU VELO AIN AR TRES W  DIS CAZ7
 RUS  HZ EP        845  0.51                             135     0.010   91  82 
 RUS  HN ES   3    845 15.13                             135    -0.4 2   91  82 
 PTB  HZ EP        845  0.44                             131    -0.610  105 324 
 PTB  HZ I         845 20.07         1.8 0.28            125            105 324 
 NOR  SZ EP        845  1.84                             129     0.310  110 258 
 NOR  SN ES   3    845 17.75                             129     0.3 2  110 258 
 BAR2 SZ EP        845  2.67                             126    -0.110  120  41 
 BAR2 SZ ES   2    845 19.38                             126    -0.2 5  120  41 
 BAR2 SZ I         845 20.90        14.8 0.34            132            120  41 
 BRR  HZ EP        845  5.67                             120     0.3 9  149   8 
 BRR  HZ I         845  6.56         6.2 0.14            120            149   8 
 BRR  HN ES   2    845 24.72                             120     0.6 5  149   8 
