 2010  425 0843 31.8 L   6.778 -73.034144.8  RSN 11 0.4 1.9LRSN                1
 GAP=163        0.68       5.0     6.9  6.8 -0.2340E+02 -0.2154E+02  0.1755E+02E
 Epicentro: CEPITA - SANTANDER                                                 3
 ACTION:UPD 10-08-24 10:01 OP:vdl  STATUS:               ID:20100425084332 L   I
 2010-04-25-0840-30S.COL___104                                                 6
 STAT SP IPHASW D HRMM SECON CODA AMPLIT PERI AZIMU VELO AIN AR TRES W  DIS CAZ7
 BAR2 SZ EP   2    843 51.07                             169    -0.3 5   26 219 
 BAR2 SZ ES   2    844  6.55                             169    -0.1 5   26 219 
 BRR  HZ IP     C  843 53.52                             149     0.010   83 296 
 BRR  HE ES   1    844 10.62                             149     0.1 7   83 296 
 BRR  HZ I         844 13.27        10.5 0.18                            83 296 
 BRI  SZ ES   2    844 14.01                             142     0.1 5  107  14 
 GUE  SZ IP        843 56.27                             140    -0.110  117   6 
 GRA  SZ IP        843 57.05                             137     0.210  125  12 
 GRA  SZ ES   1    844 16.64                             137     0.2 7  125  12 
 OCA  SZ EP   2    843 59.84                             129    -0.6 5  165 349 
 OCA  SZ ES   1    844 22.45                             129    -0.3 7  165 349 
 OCA  SZ I         844 29.89        16.3 0.17                           165 349 
 ROSC BZ EP   2    844 11.63                             116     1.3 4  257 214 
 HEL  HZ EP   2    844 14.11                             114     0.9 4  283 257 
 HEL  HZ I         844 51.44         2.0 0.41                           283 257 
 RREF BE ES   2    844 55.29                             110    -0.1 3  330 231 
 RREF BZ I         844 58.47         3.4 0.23                           330 231 
 SDV  BZ IP     C  844 20.85                             109     0.0 6  353  49 
 SDV  BZ I         844 21.71         1.7 0.14                           353  49 
 PRA  HZ EP   1    844 25.14                             106    -0.6 4  396 211 
 PRA  HE ES   1    845  7.37                             106    -0.5 4  396 211 
 PRA  HZ I         845 11.45         4.4 0.23                           396 211 
                                                                                
