 2013  625 0427 17.9 L   6.809 -73.182147.7  RSN 11 0.3 1.8LRSN                1
 GAP=132        0.74       2.6     4.0  4.8 -0.1863E+01  0.5159E+01  0.1544E+01E
 Epicentro: LOS SANTOS - SANTANDER                                             3
 ACTION:UPD 14-01-08 09:56 OP:ep   STATUS:               ID:20130625042717 L   I
 OLDACT:DUP 13-06-25 08:43 OP:jn   STATUS:               ID:20130625041960d    3
 2013-06-25-0419-59M.COL___267                                                 6
 STAT SP IPHASW D HRMM SECON CODA AMPLIT PERI AZIMU VELO AIN AR TRES W  DIS CAZ7
 BAR2 SZ EP        427 37.85                             170    0.0310 24.0 180 
 BAR2 SZ ES        427 53.18                             170   -0.1410 24.0 180 
 BAR2 SZ I         427 54.41        18.8 0.22            169           24.0 180 
 GIR2 SZ EP        427 37.94                             168    0.1310 29.9 358 
 BRR  HZ EP     C  427 39.69                             154    0.6110 67.2 299 
 BRR  HE ES   1    427 56.33                             154    0.75 7 67.2 299 
 BRR  HZ I         427 59.33        13.1 0.28            151           67.2 299 
 PAM  SZ EP        427 40.79                             150    0.3210 79.2  42 
 PAM  SE ES        427 57.85                             150   -0.2010 79.2  42 
 PAM  SZ I         428  1.08         9.1 0.46            154           79.2  42 
 RUS  HZ EP        427 41.88                             144   -0.1010  102 174 
 RUS  HN ES   1    428  0.39                             144   -0.34 7  102 174 
 RUS  HZ I         428  1.88         6.5 0.32            145            102 174 
 PTB  HZ EP        427 44.65                             133   -0.08 9  144 258 
 PTB  HN ES   1    428  5.36                             133   -0.27 7  144 258 
 PTB  HZ I         428  8.21         9.8 0.16            131            144 258 
 OCA  HN ES   1    428  7.81                             130   -0.56 7  159 355 
 OCA  HZ I         428 16.15         6.2 0.32            131            159 355 
 NOR  HN ES   1    428 20.94                             119   -0.30 6  232 234 
 NOR  HZ I         428 31.43         4.8 0.18            119            232 234 
 SML  HZ EP   1    427 54.16                             118   -0.24 6  241 336 
 SML  HE ES   1    428 22.20                             118   -0.64 6  241 336 
 CHI  HZ EP   1    427 55.75                             117    0.01 6  249 194 
 CHI  HN ES   1    428 25.18                             117   -0.04 6  249 194 
 CHI  HZ I         428 31.28         3.7 0.60            118            249 194 
 GUY2CHZ EP   4    428  3.26                             113    1.92 0  299 234 
 GUY2CHE ES   4    428 39.56                             113    4.37 0  299 234 
 PRA  HZ EP        428 11.53                             107    0.13 6  391 209 
 PRA  HN ES   1    428 52.91                             107   -0.19 4  391 209 
 PRA  HZ I         429  0.14         4.7 0.38            107            391 209 
                                                                                
