 2012 1225 0525 51.7 L   7.475 -73.143132.5  RSN  8 0.5 1.7LRSN                1
 GAP=217        0.98       6.3     7.6  8.6  0.1871E+02  0.1525E+02 -0.1224E+02E
 Epicentro: EL PLAYON - SANTANDER                                              3
 ACTION:UPD 13-01-04 14:30 OP:ep   STATUS:               ID:20121225052551 L   I
 2012-12-25-0520-00M.COL___242                                                 6
 STAT SP IPHASW D HRMM SECON CODA AMPLIT PERI AZIMU VELO AIN AR TRES W  DIS CAZ7
 GIR2 SZ EP   1    526 10.83                             161    0.60 7 44.1 187 
 GIR2 SZ ES   1    526 24.41                             161   -0.28 7 44.1 187 
 GIR2 SZ I         526 28.94         6.1 0.32                          44.1 187 
 BRR  HZ IP     D  526 12.10                             149    0.4710 74.8 237 
 BRR  HN ES   1    526 27.56                             149    0.37 7 74.8 237 
 BRR  HZ I         526 30.51         6.6 0.16                          74.8 237 
 BAR2 SZ EP   1    526 12.92                             142   -0.65 7 97.7 183 
 BAR2 SZ ES   1    526 30.40                             142   -0.24 7 97.7 183 
 BAR2 SZ I         526 31.57        17.8 0.30                          97.7 183 
 PTB  HZ EP        526 20.47                             123   -0.13 9  178 235 
 PTB  HN ES   1    526 42.41                             123   -0.75 7  178 235 
 PTB  HZ I         526 47.55         5.8 0.12                           178 235 
 SML  HN ES   1    526 43.12                             123   -0.11 7  179 325 
 ZAR  HZ EP   1    526 21.84                             121    0.10 7  189 271 
 ZAR  HN ES   1    526 45.74                             121    0.56 7  189 271 
 ZAR  HZ I         526 48.93         7.7 0.26                           189 271 
 HEL  HZ EP   1    526 35.34                             110    0.97 5  299 242 
 HEL  HZ I         527 18.72         2.1 0.44                           299 242 
 MON  HZ EP   1    526 34.68                             109   -0.79 5  313 298 
 MON  HN ES   1    527  8.87                             109   -0.76 5  313 298 
                                                                                
