 2017  725 0105 17.5 L   6.817 -73.163144.9  RSN 17 0.4 2.0LRSN                1
 GAP= 64        0.87       2.9     2.8  4.6 -0.2686E+00  0.9138E+00  0.3018E+00E
 Epicentro: LOS SANTOS - SANTANDER                                             3
 ACTION:UPD 17-08-30 15:36 OP:rebc STATUS:               ID:20170725010517 L   I
 OLDACT:UP  17-07-25 14:09 OP:and  STATUS:               ID:20170725005742d    3
 OLDACT:UP  17-07-25 14:07 OP:and  STATUS:               ID:20170725005742d    3
 OLDACT:UP  17-07-25 14:07 OP:and  STATUS:               ID:20170725005742d    3
 OLDACT:UP  17-07-25 14:05 OP:and  STATUS:               ID:20170725005742d    3
 OLDACT:UP  17-07-25 14:05 OP:and  STATUS:               ID:20170725005742d    3
 OLDACT:UP  17-07-25 14:04 OP:and  STATUS:               ID:20170725005742d    3
 OLDACT:DUP 17-07-25 14:01 OP:and  STATUS:               ID:20170725005742d    3
 OLDACT:UP  17-07-25 14:00 OP:and  STATUS:               ID:20170725005741     3
 OLDACT:UP  17-07-25 13:58 OP:and  STATUS:               ID:20170725005741     3
 OLDACT:UP  17-07-25 13:57 OP:and  STATUS:               ID:20170725005741     3
 OLDACT:UP  17-07-25 13:57 OP:and  STATUS:               ID:20170725005741     3
 OLDACT:UP  17-07-25 13:57 OP:and  STATUS:               ID:20170725005741     3
 OLDACT:REG 17-07-25 12:27 OP:and  STATUS:               ID:20170725005741     3
 2017-07-25-0058-00M.COL___392                                                 6
 STAT SP IPHASW D HRMM SECON CODA AMPLIT PERI AZIMU VELO AIN AR TRES W  DIS CAZ7
 BAR2 EZ IP     C  1 5 36.97                             170   -0.0710 24.9 185 
 BAR2 EZ ES        1 5 51.78                             170   -0.5110 24.9 185 
 BAR2 EZ I         1 5 52.99        35.3 0.38            169           24.9 185 
 BRR  HZ IP     C  1 5 38.74                             153    0.3510 68.6 298 
 BRR  HN ES   2    1 5 55.90                             153    1.20 5 68.6 298 
 BRR  HZ I         1 5 56.88        11.7 0.16            149           68.6 298 
 PAM  EZ IP     C  1 5 39.82                             151    0.2210 77.2  42 
 PAM  EN ES        1 5 57.03                             151    0.1910 77.2  42 
 PAM  EZ I         1 5 58.95         8.4 0.36            152           77.2  42 
 RUS  HZ EP        1 5 41.24                             143   -0.0510  103 175 
 RUS  HN ES        1 5 59.71                             143   -0.1510  103 175 
 RUS  HZ I         1 6  0.59        13.4 0.50            143            103 175 
 PTB  HZ EP        1 5 43.70                             132   -0.54 9  146 258 
 PTB  HN ES        1 6  4.65                             132   -0.46 9  146 258 
 PTB  HZ I         1 6 10.30        10.6 0.16            129            146 258 
 TAM  HZ EP        1 5 45.39                             130    0.08 9  157 105 
 TAM  HN ES   2    1 6  6.82                             130   -0.19 5  157 105 
 SPBC HZ EP        1 5 46.00                             129    0.07 9  163 218 
 SPBC HN ES        1 6  7.81                             129   -0.32 9  163 218 
 SPBC HZ I         1 6  9.18        20.4 0.16            127            163 218 
 YPLC HZ IP     D  1 5 47.41                             126   -0.05 9  179 151 
 YPLC HN ES        1 6 11.22                             126    0.37 9  179 151 
 YPLC HZ I         1 6 14.18        11.4 0.28            126            179 151 
 ZAR  HZ EP   4    1 5 51.81                             122    2.20 0  202 292 
 ZAR  HN ES        1 6 14.96                             122    0.28 9  202 292 
 ZAR  HZ I         1 6 21.65        11.0 0.05            120            202 292 
 NOR  HZ EP        1 5 53.85                             118    0.74 8  234 234 
 NOR  HN ES   3    1 6 22.15                             118    1.26 2  234 234 
 NOR  HZ I         1 6 23.56         4.4 0.32            117            234 234 
 ROSC BZ EP   9    1 5 57.58                             116    1.96 0  253 210 
 ROSC BE ES        1 6 27.42                             116    0.09 8  253 210 
 ROSC BZ I         1 6 31.76        12.5 0.35            115            253 210 
 HEL  HZ I         1 6 37.14         4.5 0.24            113            271 255 
 GUY2CHZ EP   9    1 6  3.49                             112    2.50 0  301 234 
 GUY2CHN ES        1 6 38.02                             112    0.59 7  301 234 
 GUY2CHZ I         1 6 42.65         3.2 0.46                           301 234 
 PTGC HZ EP   3    1 6  0.09                             111   -1.48 2  311 158 
 PTGC HN ES   4    1 6 33.62                             111   -2.34 0  311 158 
 PTGC HZ I         1 6 37.64         4.2 0.50            111            311 158 
 LL6C HZ EP        1 6  2.29                             110   -0.63 7  323 358 
 PRA  HZ EP        1 6 10.97                             106   -0.08 6  393 209 
 PRA  HE ES        1 6 53.25                             106    0.42 6  393 209 
 PRA  HZ I         1 6 59.13         4.3 0.56            105            393 209 
 SJC  HZ EP   4    1 6 11.14                             106   -1.57 0  407 327 
 SJC  HN ES   4    1 6 54.01                             106   -1.78 0  407 327 
 SJC  HZ I         1 7  6.98         2.0 0.26            105            407 327 
                                                                                
