 2015  525 0930 30.2 L   6.743 -73.151143.8  RSN  5 0.3 1.4LRSN                1
 GAP=232        0.76       5.5     6.4  6.8  0.1941E+02  0.5571E+01 -0.3423E+01E
 Epicentro: LOS SANTOS - SANTANDER                                             3
 ACTION:UPD 15-09-10 22:06 OP:cam  STATUS:               ID:20150525093030 L   I
 OLDACT:REG 15-05-25 13:06 OP:spq  STATUS:               ID:20150525092747     3
 2015-05-25-0927-47M.COL___291                                                 6
 STAT SP IPHASW D HRMM SECON CODA AMPLIT PERI AZIMU VELO AIN AR TRES W  DIS CAZ7
 BAR2 EZ EP        930 49.05                             173   -0.4210 17.0 192 
 BAR2 EZ ES   1    931  4.21                             173   -0.31 7 17.0 192 
 BAR2 EZ I         931  5.02         3.7 0.22            168           17.0 192 
 BRR  HZ EP        930 51.13                             151   -0.1510 73.9 303 
 BRR  HN ES        931  8.06                             151    0.3210 73.9 303 
 BRR  HZ I         931  8.92         8.3 0.22            148           73.9 303 
 RUS  HZ EP   1    930 53.78                             145    0.47 7 94.4 175 
 RUS  HE ES   1    931 11.77                             145    0.43 7 94.4 175 
 RUS  HZ I         931 12.43         2.3 0.30            144           94.4 175 
 SPBC HN ES   1    931 19.39                             130   -0.38 7  158 220 
 SPBC HZ I         931 22.47         3.8 0.30            127            158 220 
 ZAR  HZ EP        931  2.92                             122    0.22 8  206 294 
 ZAR  HE ES        931 27.98                             122   -0.08 8  206 294 
 ZAR  HZ I         931 34.13         1.8 0.12            120            206 294 
                                                                                
