 2014  725 0428 41.7 L   6.708 -73.162140.5  RSN  6 0.4 1.2LRSN                1
 GAP=180        0.87       3.7     6.7  7.8 -0.4816E+01  0.8737E+01  0.1104E+00E
 Epicentro: VILLANUEVA - SANTANDER                                             3
 ACTION:UPD 15-03-16 20:46 OP:nd   STATUS:               ID:20140725042841 L   I
 OLDACT:DUP 14-07-25 17:32 OP:spq  STATUS:               ID:20140725041815d    3
 2014-07-25-0418-14M.COL___269                                                 6
 STAT SP IPHASW D HRMM SECON CODA AMPLIT PERI AZIMU VELO AIN AR TRES W  DIS CAZ7
 BAR2 SZ ES   1    429 14.83                             175   -0.43 7 13.0 190 
 BAR2 SZ I         429 17.69         3.8 0.26            175           13.0 190 
 BRR  HZ EP        429  3.05                             150    0.4910 75.1 306 
 BRR  HN ES        429 19.34                             150    0.5410 75.1 306 
 BRR  HZ I         429 25.35         3.5 0.48            152           75.1 306 
 RUS  HE ES   1    429 21.95                             146    0.12 7 90.6 174 
 RUS  HZ I         429 24.73         2.5 0.36            149           90.6 174 
 PTB  HZ EP   1    429  7.79                             131   -0.18 7  144 263 
 PTB  HE ES        429 28.15                             131   -0.28 9  144 263 
 PTB  HZ I         429 29.73         2.0 0.12            135            144 263 
 SPBC HZ EP        429  9.00                             130    0.01 9  154 221 
 SPBC HE ES        429 30.08                             130   -0.16 9  154 221 
 SPBC HZ I         429 36.96         1.9 0.46            133            154 221 
 OCA  HE ES        429 32.66                             127   -0.47 9  170 354 
 OCA  HZ I         429 37.70         2.8 0.30            130            170 354 
                                                                                
