 2012  325 0500 29.8 L   6.329 -73.590112.0  RSN 13 0.3 2.1LRSN                1
 GAP= 94        0.60       2.6     2.5  5.3 -0.9039E+00  0.4718E+01  0.2656E+01E
 ACTION:UP  12-03-31 23:22 OP:EP   STATUS:               ID:20120325050029 L   I
 2012-03-25-0500-00M.COL___196                                                 6
 STAT SP IPHASW D HRMM SECON CODA AMPLIT PERI AZIMU VELO SNR AR TRES W  DIS CAZ7
 BAR2 SZ IP        5 0 46.76                             153     0.110   54  57 
 BAR2 SZ ES   1    5 1  0.26                             153     0.4 7   54  57 
 BAR2 SZ I         5 1  1.33        83.0 0.29                            54  57 
 RUS  HZ EP   1    5 0 48.05                             145    -0.3 7   74 131 
 RUS  HN ES   2    5 1  2.48                             145    -0.3 5   74 131 
 RUS  HZ I         5 1  5.08        22.4 0.29                            74 131 
 BRR  HZ EP        5 0 48.36                             140    -0.310   87 351 
 BRR  HE ES   1    5 1  3.67                             140     0.3 7   87 351 
 BRR  HZ I         5 1 13.76        22.5 0.10                            87 351 
 PTB  HZ EP   2    5 0 48.67                             136    -1.0 5   99 284 
 PTB  HE ES   2    5 1  4.92                             136    -0.1 5   99 284 
 PTB  HZ I         5 1  5.81        19.1 0.13                            99 284 
 PAM  SZ EP   1    5 0 54.95                             123    -0.1 7  149  41 
 PAM  SN ES   2    5 1 14.83                             123     0.1 5  149  41 
 NOR  SZ EP   1    5 0 56.34                             120     0.2 7  165 239 
 NOR  SN ES   2    5 1 16.27                             120    -0.4 5  165 239 
 YOP  SZ EP   2    5 0 56.75                             119     0.2 5  169 130 
 YOP  SN ES   2    5 1 17.39                             119    -0.1 5  169 130 
 ZAR  HZ EP   1    5 0 58.55                             116    -0.3 7  190 313 
 ZAR  HN ES   2    5 1 21.26                             116    -0.1 4  190 313 
 ZAR  HZ I         5 1 26.79        16.4 0.40                           190 313 
 OCA  SZ EP   2    5 1  1.56                             113     0.0 4  213   8 
 OCA  SZ ES   2    5 1 26.50                             113     0.2 4  213   8 
 HEL  HZ EP   1    5 1  2.49                             113     0.5 6  215 266 
 HEL  HN ES   2    5 1 27.00                             113    -0.1 4  215 266 
 HEL  HZ I         5 1 31.49         9.8 0.64                           215 266 
 GUY  SZ EP   2    5 1  4.78                             111     0.5 4  234 239 
 GUY  SN ES   2    5 1 31.73                             111     0.6 4  234 239 
 GUY  SZ I         5 1 36.66        17.3 0.42                           234 239 
 RREF HZ EP   2    5 1  6.20                             109    -0.2 4  251 231 
 RREF HN ES   2    5 1 35.12                             109     0.2 4  251 231 
 RREF HZ I         5 1 39.52         7.4 0.30                           251 231 
 TOL  SZ EP   2    5 1  9.07                             107     0.6 4  272 225 
 TOL  SZ ES   2    5 1 38.79                             107     0.1 4  272 225 
                                                                                
