 2016  125 0802 14.1 L   6.835 -73.136148.6  RSN  7 0.3 1.4LRSN                1
 GAP=246        0.69       3.7     4.2  4.7  0.6614E+01  0.4005E+01 -0.5829E-01E
 Epicentro: LOS SANTOS - SANTANDER                                             3
 ACTION:UPD 16-03-09 23:28 OP:cam  STATUS:               ID:20160125080214 L   I
 OLDACT:DUP 16-01-25 19:24 OP:cara STATUS:               ID:20160125075750d    3
 OLDACT:REG 16-01-25 15:06 OP:cara STATUS:               ID:20160125075749     3
 2016-01-25-0757-49M.COL___329                                                 6
 STAT SP IPHASW D HRMM SECON CODA AMPLIT PERI AZIMU VELO AIN AR TRES W  DIS CAZ7
 BAR2 EZ IP        8 2 34.13                             169    0.0210 27.3 191 
 BAR2 EZ ES        8 2 49.76                             169    0.0110 27.3 191 
 BAR2 EZ I         8 2 51.92         3.9 0.28            164           27.3 191 
 RUS  HZ EP        8 2 38.30                             143   -0.0610  104 177 
 RUS  HN ES        8 2 57.26                             143   -0.0510  104 177 
 RUS  HZ I         8 3  0.27         1.9 0.38            144            104 177 
 PTB  HZ EP        8 2 41.26                             132   -0.17 9  150 257 
 PTB  HN ES        8 3  2.19                             132   -0.58 9  150 257 
 PTB  HZ I         8 3  8.09         3.1 0.22            131            150 257 
 SPBC HZ IP        8 2 43.25                             129    0.13 9  167 218 
 SPBC HN ES        8 3  5.92                             129    0.13 9  167 218 
 SPBC HZ I         8 3 12.37         5.5 0.34            129            167 218 
 ZAR  HZ EP        8 2 46.81                             123    0.16 9  204 291 
 ZAR  HN ES        8 3 12.60                             123    0.53 9  204 291 
 ZAR  HZ I         8 3 18.66         3.7 0.14            124            204 291 
 CHI  HZ EP        8 2 52.16                             117   -0.19 8  253 195 
 CHI  HE ES        8 3 22.72                             117    0.51 8  253 195 
 CHI  HZ I         8 3 25.62         1.2 0.42            119            253 195 
 GUY2CHZ EP        8 2 57.81                             113   -0.34 7  304 234 
 GUY2CHE ES   4    8 3 36.62                             113    4.08 0  304 234 
 GUY2CHZ I         8 3 41.44         1.7 0.26                           304 234 
                                                                                
