 2015  325 0133 46.6 L   6.762 -73.186143.3  RSN  7 0.5 1.6LRSN                1
 GAP=230        1.13       5.3     5.8  7.4  0.7792E+01  0.1112E+02  0.1644E+01E
 Epicentro: LOS SANTOS - SANTANDER                                             3
 ACTION:UPD 15-04-30 16:29 OP:nd   STATUS:               ID:20150325013346 L   I
 OLDACT:REG 15-03-25 12:44 OP:fm   STATUS:               ID:20150325012746     3
 2015-03-25-0127-46M.COL___281                                                 6
 STAT SP IPHASW D HRMM SECON CODA AMPLIT PERI AZIMU VELO AIN AR TRES W  DIS CAZ7
 BAR2 EZ EP        134  5.85                             172   -0.0210 18.8 179 
 BAR2 EZ ES        134 20.93                             172    0.0510 18.8 179 
 BAR2 EZ I         134 22.28         7.3 0.18            164           18.8 179 
 BRR  HZ EP        134  7.64                             153    0.2310 69.5 303 
 BRR  HN ES        134 24.43                             153    0.8110 69.5 303 
 BRR  HZ I         134 26.62         9.7 0.32            148           69.5 303 
 RUS  HZ EP        134  9.76                             144   -0.1010 96.9 173 
 RUS  HN ES        134 27.52                             144   -0.4710 96.9 173 
 PTB  HZ EP        134 12.64                             133   -0.28 9  143 260 
 PTB  HE ES        134 32.60                             133   -0.83 9  143 260 
 PTB  HZ I         134 40.95         4.9 0.38            129            143 260 
 SPBC HZ EP        134 14.66                             130    0.30 9  157 219 
 SPBC HE ES        134 36.04                             130    0.05 9  157 219 
 SPBC HZ I         134 43.62         4.4 0.10            127            157 219 
 ZAR  HZ EP        134 18.36                             122   -0.29 9  202 294 
 ZAR  HN ES        134 43.16                             122   -0.47 9  202 294 
 ZAR  HZ I         134 50.29         4.6 0.32            121            202 294 
 NOR  HZ EP   1    134 22.34                             119    0.78 6  229 235 
 NOR  HN ES        134 49.45                             119    0.64 8  229 235 
 NOR  HZ I         134 58.07         2.7 0.36            118            229 235 
                                                                                
