 2012  225 0615 12.4 L   6.771 -73.139142.0  RSN 31 0.5 4.8LRSN 4.6WRSN        1
 SPEC AVERAGE  MO 16.0 ST619.8 OM  5.1 f0 3.23 R0.5110 AL 2.35 WI 30.2 MW  4.6 3
 SPEC SD       MO  0.1 ST399.0 OM  1.4 f00.915 R0.2008 AL      WI      MW  0.1 3
 GAP=103        0.81       2.4     3.1  3.9 -0.1331E+01  0.2658E+01  0.3018E+01E
 Evento Sentido                                                                2
 Reportado como sentido en:                                                    3
 BUCARAMANGA, FLORIDABLANCA, PIEDECUESTA, GIRON,LEBRIJA (SANTANDER), OCANA,    3
 CUCUTA, HERRAN (NORTE DE SANTANDER), MEDELLIN AMALFI, REMEDIO, ENVIGADO,      3
 CISNEROS, PURTO BERRIO, COPACABANA (ANTIOQUIA), SANTA ROSA DE VITERBO,        3
 DUITAMA, SOGAMOSO (BOYACA), GUADALUPE (HUILA)                                 3
 SPEC YOT HH N MO 16.0 ST 68.2 OM  3.9 f0 1.72 R0.8547 AL 0.97 WI 26.9 MW  4.6 3
 SPEC YOT HH N T 617 0 K 0.020 GD  490 VS 4.20 DE 3.20 Q0230.0 QA 0.60 VS 4.20 3
 SPEC ROSCBH Z MO 16.1 ST999.9 OM  3.5 f0 3.93 R0.3740 AL 3.69 WI 27.3 MW  4.7 3
 SPEC ROSCBH Z T 61550 K 0.020 GD  287 VP 7.60 DE 3.20 Q0230.0 QA 0.60 VS 4.20 3
 SPEC HEL HH N MO 16.1 ST999.9 OM  4.2 f0 3.99 R0.3684 AL 2.83 WI 36.2 MW  4.7 3
 SPEC HEL HH N T 61615 K 0.020 GD  306 VS 4.20 DE 3.20 Q0230.0 QA 0.60 VS 4.20 3
 SPEC CHI HH Z MO 15.9 ST411.2 OM  3.3 f0 3.29 R0.4468 AL 1.90 WI 30.4 MW  4.6 3
 SPEC CHI HH Z T 61546 K 0.020 GD  284 VP 7.60 DE 3.20 Q0230.0 QA 0.60 VS 4.20 3
 ACTION:UP  12-03-07 16:34 OP:epov STATUS:               ID:20120225061512 L   I
 2012-02-25-0610-00M.COL___192                                                 6
 STAT SP IPHASW D HRMM SECON CODA AMPLIT PERI AZIMU VELO AIN AR TRES W  DIS CAZ7
 BAR2 SZ IP        615 31.53                             171    0.0410 20.4 194 
 BAR2 SZ ES   1    615 46.19                             171   -0.22 7 20.4 194 
 BAR2 SZ I         615 47.59     23306.8 0.38                          20.4 194 
 GIR2 SZ IP        615 31.64                             166   -0.0510 34.5 350 
 GIR2 SZ ES   1    615 46.42                             166   -0.34 7 34.5 350 
 BRR  HZ IP     D  615 33.49                             151    0.2510 73.4 300 
 BRR  HE ES   1    615 50.18                             151    0.66 7 73.4 300 
 BRR  HZ  AML      615 52.03      9838.6 0.20                          73.4 300 
 PAM  SZ IP        615 34.40                             149    0.0910 79.4  38 
 PAM  SZ I         615 34.84     17225.4 0.22                          79.4  38 
 PAM  SN ES        615 51.12                             149   -0.3110 79.4  38 
 RUS  HZ EP        615 35.44                             144   -0.0810 97.4 176 
 RUS  HE ES   1    615 53.67                             144    0.09 7 97.4 176 
 RUS  HZ I         615 54.81      7893.3 0.52                          97.4 176 
 GUE  SZ EP   1    615 36.53                             138   -0.45 7  119  11 
 PTB  HZ EP   1    615 38.13                             131   -0.92 7  148 260 
 PTB  HN ES   2    615 59.04                             131   -0.81 5  148 260 
 OCA  SZ IP        615 41.44                             128    0.74 9  163 353 
 OCA  SZ ES   1    616  3.55                             128    0.75 7  163 353 
 YOP  SZ IP        615 42.24                             126    0.41 9  176 153 
 YOP  SN ES   1    616  4.97                             126    0.15 7  176 153 
 YOP  SZ I         616  8.99      7791.4 0.42                           176 153 
 NOR  SZ EP        615 47.50                             118   -0.25 8  233 235 
 NOR  SE ES   1    616 14.85                             118   -0.50 6  233 235 
 CHI  HZ EP        615 49.49                             117   -0.06 8  246 196 
 CHI  HE ES   1    616 18.48                             117   -0.07 6  246 196 
 CHI  HZ I         616 25.75      2910.2 0.47                           246 196 
 ROSC BE ES   2    616 19.42                             116    0.01 4  250 212 
 HEL  HZ EP   1    615 51.54                             114   -0.85 6  272 256 
 HEL  HE ES   1    616 23.19                             114   -0.41 6  272 256 
 HEL  HZ I         616 32.43      4514.3 0.29                           272 256 
 VIL  SZ IP        615 54.92                             111   -0.36 7  300 192 
 VIL  SN ES   1    616 29.02                             111    0.27 5  300 192 
 VIL  SZ I         616 39.13      2777.2 0.55                           300 192 
 GUY  SZ EP   1    615 56.27                             111    0.34 5  302 236 
 GUY  SN ES   2    616 30.68                             111    0.77 4  302 236 
 GUY  SZ I         616 39.60      4321.0 0.43                           302 236 
 RREF HZ EP        615 58.20                             110    0.02 7  320 230 
 RREF HZ I         616 40.38      2547.0 0.47                           320 230 
 DBB  SZ ES   2    616 37.60                             109    0.79 3  340 275 
 TOL  SZ EP   1    616  0.26                             109   -0.02 5  342 225 
 COD  HZ EPn       615 59.11                                            351 355 
 COD  HE  Sn       616 34.02                                            351 355 
 ANIL HZ EP        616  2.48                             108    0.65 6  356 225 
 ANIL HN ES   2    616 41.29                             108    0.88 3  356 225 
 SDV  BZ EP        616  1.29                             107   -1.16 6  362  50 
 SDV  BZ I         616 40.84      2829.1 0.45                           362  50 
 PRA  HZ EP   1    616  5.01                             106   -0.47 4  390 210 
 PRA  HE ES   1    616 47.09                             106    0.18 4  390 210 
 SJA  SZ EP   1    616  6.53                             106    0.07 4  397 193 
 PAL  HZ EP   1    616  7.67                             105    0.38 4  405 240 
 YOT  HZ EP   1    616 14.63                             103   -0.50 4  470 229 
 YOT  HZ I         617 12.17       717.4 0.50                           470 229 
 GUA  SZ EP        616 16.00                             103    0.96 5  471 173 
 GUA  SZ ES   2    617  5.34                             103    1.42 2  471 173 
 SOL  SZ EP   1    616 15.65                             102    0.01 3  476 263 
 HORQ SZ EP   2    616 23.41                             101    0.89 2  530 227 
 HORQ SN ES   2    617 16.44                             101   -0.80 2  530 227 
 MARA HZ EP   1    616 22.72                             101   -0.33 3  535 216 
 MARA HZ I         617 21.76       314.2 0.46                           535 216 
 PCON HZ EP   1    616 31.88                              99   -0.53 2  610 216 
 PCON HZ I         617 47.15       391.1 0.44                           610 216 
 SOTA HZ EP   1    616 35.96                              98   -0.11 2  641 217 
 SOTA HZ I         617 52.68       517.5 0.66                           641 217 
                                                                                
