 2012 1225 1211 24.2 L   6.761 -73.155155.6  RSN  6 0.3 1.7LRSN                1
 GAP=182        0.60       4.8     5.5  6.1  0.9752E+01 -0.6997E+01 -0.5998E+01E
 Epicentro: LOS SANTOS - SANTANDER                                             3
 ACTION:UPD 13-01-04 14:30 OP:ep   STATUS:               ID:20121225121124 L   I
 2012-12-25-1210-00M.COL___242                                                 6
 STAT SP IPHASW D HRMM SECON CODA AMPLIT PERI AZIMU VELO AIN AR TRES W  DIS CAZ7
 BAR2 SZ EP       1211 44.95                             173   -0.0410 18.9 189 
 BAR2 SZ I        1211 45.11        12.5 0.18                          18.9 189 
 GIR2 SZ EP   1   1211 44.66                             166   -0.55 7 35.4 353 
 BRR  HZ EP     D 1211 46.94                             154    0.4010 72.5 302 
 BRR  HE ES       1212  4.00                             154    0.0710 72.5 302 
 BRR  HZ I        1212  7.20         9.0 0.24                          72.5 302 
 RUS  HZ EP   1   1211 48.95                             147    0.26 7 96.3 175 
 RUS  HN ES   1   1212  7.66                             147   -0.10 7 96.3 175 
 RUS  HN I        1212  8.12         6.1 0.39                          96.3 175 
 PTB  HZ EP       1211 51.80                             134   -0.08 9  146 260 
 PTB  HN ES   1   1212 13.24                             134   -0.20 7  146 260 
 PTB  HZ I        1212 18.98         7.1 0.28                           146 260 
 SML  HZ EP   1   1212  1.70                             119   -0.12 6  247 336 
                                                                                
