 2010 1125 1529 24.5 L   6.800 -73.041145.8  RSN  5 0.3 1.7LRSN                1
 GAP=248        0.58       4.7     7.8  5.7  0.1630E+02  0.3747E+01  0.4888E+01E
 Epicentro: LOS SANTOS - SANTANDER                                             3
 ACTION:UP  10-12-17 16:55 OP:REBC STATUS:               ID:20101125152924 L   I
 2010-11-25-1526-42S.COL___131                                                 6
 STAT SP IPHASW D HRMM SECON CODA AMPLIT PERI AZIMU VELO SNR AR TRES W  DIS CAZ7
 BAR2 SZ EP   1   1529 44.18                             169     0.0 7   28 214 
 BAR2 SZ ES   1   1529 59.47                             169    -0.1 7   28 214 
 BAR2 SZ I        1530  0.47        13.1 0.38                            28 214 
 BRR  HZ IP     C 1529 46.09                             149    -0.110   82 295 
 BRR  HZ I        1529 46.36        27.9 0.15                            82 295 
 BRR  HN ES   1   1530  3.23                             149     0.0 7   82 295 
 RUS  HZ IP     C 1529 48.59                             144     0.410  100 183 
 RUS  HE ES   1   1530  6.58                             144    -0.2 7  100 183 
 RUS  HZ I        1530  8.03         3.9 0.17                           100 183 
 CHI  HZ EP   2   1530  2.23                             116    -0.3 4  252 198 
 CHI  HZ I        1530 13.63         2.1 0.64                           252 198 
 CHI  HN ES   2   1530 31.76                             116    -0.5 4  252 198 
 RREF HZ EP   2   1530 11.41                             110    -0.2 3  331 231 
 RREF HE ES   2   1530 49.01                             110     0.6 3  331 231 
 RREF HZ I        1530 56.37         2.1 0.28                           331 231 
                                                                                
