 2010 1125 1753 58.7 L   6.870 -72.982138.0  RSN  4 0.3 1.6LRSN                1
 GAP=258        0.46       5.9    11.4  7.1  0.3374E+02 -0.1688E+02  0.5412E+01E
 Epicentro: CEPITA - SANTANDER                                                 3
 ACTION:UP  10-12-17 16:55 OP:REBC STATUS:               ID:20101125175358 L   I
 2010-11-25-1750-50S.COL___131                                                 6
 STAT SP IPHASW D HRMM SECON CODA AMPLIT PERI AZIMU VELO SNR AR TRES W  DIS CAZ7
 BAR2 SZ EP   2   1754 17.96                             164     0.2 5   38 216 
 BAR2 SZ ES   2   1754 32.77                             164     0.1 5   38 216 
 BAR2 SZ I        1754 34.41         9.0 0.29                            38 216 
 BRR  HZ EP   2   1754 19.70                             147    -0.1 5   85 288 
 BRR  HE ES   2   1754 36.37                             147     0.0 5   85 288 
 BRR  HZ I        1754 39.92        22.3 0.64                            85 288 
 RUS  HZ EP   1   1754 22.08                             140    -0.2 7  109 186 
 RUS  HE ES   2   1754 40.80                             140     0.1 5  109 186 
 RUS  HZ I        1754 41.53         3.8 0.28                           109 186 
 CHI  HZ EP   2   1754 38.00                             114     0.6 4  261 199 
 CHI  HZ I        1754 39.41         2.0 0.46                           261 199 
 CHI  HN ES   2   1755  7.27                             114    -0.3 4  261 199 
                                                                                
