 2013  925 1945 58.4 L   6.282 -73.727 99.1  RSN  8 0.5 1.9LRSN 2.6WRSN        1
 SPEC AVERAGE  MO 13.0 ST 82.6 OM  1.5 f0 18.3 R0.2765 AL 0.00 WI 20.0 MW  2.6 3
 SPEC SD       MO  0.4 ST125.8 OM  0.4 f0 13.8 R0.3214 AL      WI      MW  0.2 3
 GAP= 72        1.26       3.8     3.6  8.8 -0.3589E+01  0.5095E+01  0.9182E+01E
 Epicentro: LANDAZURI - SANTANDER                                              3
 SPEC PTB HH Z MO 12.3 ST 54.5 OM  0.8 f0 28.3 R0.0549 AL-0.00 WI 20.0 MW  2.2 3
 SPEC PTB HH Z T194627 K 0.000 GD  130 VS 4.20 DE 3.20 Q0300.0 QA 0.60 VS 4.20 3
 SPEC BAR2SH Z MO 13.4 ST 20.2 OM  1.6 f0 11.3 R0.1703 AL-0.00 WI 20.0 MW  2.8 3
 SPEC BAR2SH Z T194626 K 0.050 GD  120 VS 5.20 DE 3.20 Q0750.0 QA 1.50 VS 5.20 3
 SPEC RUS HH Z MO 13.1 ST0.072 OM  1.3 f0 2.12 R0.9075 AL-0.00 WI 20.0 MW  2.7 3
 SPEC RUS HH Z T194628 K 0.050 GD  129 VS 5.20 DE 3.20 Q0750.0 QA 1.50 VS 5.20 3
 SPEC BRR HH Z MO 13.1 ST  6.8 OM  1.3 f0 9.55 R0.2015 AL-0.00 WI 20.0 MW  2.7 3
 SPEC BRR HH Z T194629 K 0.050 GD  134 VS 5.20 DE 3.20 Q0750.0 QA 1.50 VS 5.20 3
 SPEC NOR HH Z MO 12.9 ST331.5 OM  1.0 f0 40.0 R0.0481 AL-0.00 WI 20.0 MW  2.6 3
 SPEC NOR HH Z T194638 K 0.050 GD  177 VS 5.20 DE 3.20 Q0750.0 QA 1.50 VS 5.20 3
 SPECGUY2CHH Z MO 12.8 ST  0.7 OM  0.8 f0 5.43 R 0.354 AL-0.00 WI 20.0 MW  2.5 3
 SPECGUY2CHH Z T194654 K 0.050 GD236.0 VS 5.20 DE 3.20 Q0750.0 QA 1.50 VS 5.20 3
 OLDACT:REG 13-09-25 16:18 OP:stll STATUS:               ID:20130925193848     3
 ACTION:UPD 13-10-22 09:25 OP:ep   STATUS:               ID:20130925194558 L   I
 OLDACT:UP  13-09-25 20:11 OP:stll STATUS:               ID:20130925193848     3
 2013-09-25-1938-48M.COL___244                                                 6
 STAT SP IPHASW D HRMM SECON CODA AMPLIT PERI AZIMU VELO AIN AR TRES W  DIS CAZ7
 BAR2 SZ EP       1946 15.30                             143    0.3810 69.3  60 
 BAR2 SZ ES       1946 28.02                             143    0.1910 69.3  60 
 BAR2 SZ I        1946 29.68        60.6 0.12            143           69.3  60 
 RUS  HZ EP       1946 16.43                             138    0.0510 83.3 121 
 RUS  HN ES       1946 30.22                             138   -0.2110 83.3 121 
 RUS  SZ I        1946 31.50        15.8 0.84            138           83.3 121 
 PTB  HZ EP       1946 15.17                             136   -0.7510 85.5 289 
 PTB  HN ES       1946 29.16                             136   -0.4410 85.5 289 
 PTB  SZ I        1946 30.06        15.6 0.12            137           85.5 289 
 BRR  HZ IP     D 1946 16.66                             134    0.2710 91.2   1 
 BRR  HN ES       1946 31.31                             134    0.8710 91.2   1 
 BRR  SZ I        1946 32.31        15.5 0.12            134           91.2   1 
 NOR  HZ EP       1946 21.80                             120   -0.44 9  149 238 
 NOR  HE ES       1946 40.47                             120   -0.38 9  149 238 
 NOR  SZ I        1946 43.99        19.4 0.12            120            149 238 
 PAM  SZ EP       1946 24.06                             117   -0.22 9  163  44 
 PAM  SN ES       1946 43.77                             117   -0.71 9  163  44 
 PAM  SZ I        1946 48.78         7.5 0.40            117            163  44 
 CHI  HZ EP       1946 26.31                             114   -0.07 9  183 180 
 CHI  HN ES       1946 48.37                             114    0.15 9  183 180 
 GUY2CHZ EP       1946 31.20                             111    0.97 8  216 237 
 GUY2CHN ES       1946 55.61                             111    0.53 8  216 237 
 GUY2CSZ I        1947  2.40         6.3 0.52                           216 237 
                                                                                
