 2013  225 1013 10.7 L   7.210 -73.314118.6  RSN  4 0.2 1.2LRSN                1
 GAP=248        0.45       6.4     4.0  5.8  0.1115E+02  0.1930E+01 -0.8758E+00E
 Epicentro: LEBRIJA - SANTANDER                                                3
 ACTION:UPD 13-03-12 09:35 OP:ep   STATUS:               ID:20130225101310 L   I
 2013-02-25-1010-00M.COL___225                                                 6
 STAT SP IPHASW D HRMM SECON CODA AMPLIT PERI AZIMU VELO AIN AR TRES W  DIS CAZ7
 BRR  HZ EP   1   1013 27.18                             157   -0.31 7 45.4 256 
 BRR  HN ES   1   1013 40.57                             157   -0.04 7 45.4 256 
 BRR  HZ I        1013 41.64         4.2 0.52            149           45.4 256 
 BAR2 SZ EP   1   1013 29.26                             148    0.05 7 69.8 168 
 BAR2 SZ ES   2   1013 43.95                             148    0.28 5 69.8 168 
 BAR2 SZ I        1013 45.06         5.6 0.16            140           69.8 168 
 PTB  HZ EP   1   1013 35.62                             125    0.17 7  146 240 
 PTB  HN ES   1   1013 54.57                             125   -0.20 7  146 240 
 PTB  HZ I        1013 59.33         2.1 0.60            121            146 240 
 ZAR  HN ES   1   1013 59.92                             120    0.25 7  173 280 
                                                                                
