 2017  325 1125 52.4 L   6.793 -73.148144.8  RSN 11 0.4 2.3LRSN                1
 GAP=137        1.00       3.5     3.9  5.4 -0.8025E-01  0.6752E+01  0.3743E+01E
 Epicentro: LOS SANTOS - SANTANDER                                             3
 ACTION:UPD 17-05-25 18:45 OP:jn   STATUS:               ID:20170325112552 L   I
 OLDACT:UP  17-03-25 18:12 OP:dnl  STATUS:               ID:20170325111743     3
 OLDACT:REG 17-03-25 16:45 OP:dani STATUS:               ID:20170325111743     3
 2017-03-25-1118-00M.COL___358                                                 6
 STAT SP IPHASW D HRMM SECON CODA AMPLIT PERI AZIMU VELO AIN AR TRES W  DIS CAZ7
 BAR2 EZ IP     C 1126 11.83                             171   -0.0610 22.6 190 
 BAR2 EZ ES       1126 26.44                             171   -0.6510 22.6 190 
 BAR2 EZ I        1126 29.63        86.2 0.30            169           22.6 190 
 BRR  HZ IP     D 1126 13.63                             152    0.1810 71.4 299 
 BRR  HN ES       1126 30.65                             152    0.7910 71.4 299 
 BRR  HZ I        1126 34.62        48.1 0.26            151           71.4 299 
 PAM  EZ IP     D 1126 14.60                             150    0.0510 78.1  39 
 PAM  EN ES       1126 31.77                             150   -0.0510 78.1  39 
 PAM  EZ I        1126 34.87        24.8 0.34            155           78.1  39 
 RUS  HZ EP       1126 16.03                             144    0.0310 99.9 176 
 RUS  HN ES       1126 34.60                             144    0.2010 99.9 176 
 RUS  HZ I        1126 35.68        28.6 0.38            145           99.9 176 
 PTB  HZ EP       1126 18.56                             132   -0.69 9  147 259 
 PTB  HN ES       1126 39.61                             132   -0.59 9  147 259 
 PTB  HZ I        1126 42.17        24.3 0.12            131            147 259 
 SPBC HN ES       1126 43.10                             129    0.23 9  162 219 
 SPBC HZ I        1126 44.59        37.7 0.10            129            162 219 
 ZAR  HZ EP       1126 25.08                             122    0.29 9  204 292 
 ZAR  HN ES       1126 50.20                             122    0.15 9  204 292 
 ZAR  HZ I        1126 55.02        29.9 0.26            123            204 292 
 CHI  HZ EP       1126 30.15                             117    0.19 8  248 195 
 CHI  HN ES       1126 59.38                             117    0.13 8  248 195 
 CHI  HZ I        1127  5.56        10.8 0.38            118            248 195 
 HEL  HZ EP       1126 31.65                             115   -0.87 8  272 256 
 HEL  HE ES       1127  3.84                             115    0.03 8  272 256 
 HEL  HZ I        1127 12.12        12.5 0.36            115            272 256 
 CBOC HZ EP       1126 39.74                             110    0.52 7  333 252 
 CBOC HN ES   4   1127 14.15                             110   -1.59 0  333 252 
 CBOC HZ I        1127 24.72         3.3 0.48            110            333 252 
 PRA  HZ EP       1126 45.69                             106   -0.11 6  391 210 
 PRA  HN ES       1127 27.99                             106    0.54 6  391 210 
 PRA  HZ I        1127 34.13        13.6 0.40            107            391 210 
                                                                                
