 2014 1225 1459 10.4 L   6.146 -73.706106.4  RSN  9 0.5 1.7LRSN                1
 GAP= 69        1.38       3.7     4.1  8.7  0.1205E+00  0.1172E+02  0.7672E+00E
 Epicentro: CHIPATA - SANTANDER                                                3
 ACTION:UPD 15-02-10 17:07 OP:nd   STATUS:               ID:20141225145910 L   I
 OLDACT:REG 14-12-25 23:29 OP:carl STATUS:               ID:20141225145745     3
 2014-12-25-1457-45M.COL___286                                                 6
 STAT SP IPHASW D HRMM SECON CODA AMPLIT PERI AZIMU VELO AIN AR TRES W  DIS CAZ7
 SPBC HZ EP       1459 27.33                             145    0.0110 68.1 217 
 SPBC HN ES       1459 41.39                             145    0.8410 68.1 217 
 SPBC HZ I        1459 42.94        17.6 0.22            148           68.1 217 
 RUS  HZ EP       1459 27.94                             143   -0.4010 74.5 112 
 RUS  HE ES       1459 41.55                             143   -0.8310 74.5 112 
 BAR2 EZ EP       1459 28.18                             142    0.0710 76.1  50 
 BAR2 EZ ES       1459 42.24                             142    0.2810 76.1  50 
 PTB  HZ IP     C 1459 28.54                             135   -0.6910 93.7 298 
 PTB  HN ES       1459 43.57                             135   -0.3810 93.7 298 
 PTB  HZ I        1459 46.25         8.9 0.30            137           93.7 298 
 BRR  HZ EP       1459 30.37                             131    0.0510  106 360 
 BRR  HN ES       1459 46.20                             131    0.3110  106 360 
 BRR  HZ I        1459 54.86         6.6 0.24            134            106 360 
 NOR  HZ EP       1459 33.90                             122   -0.20 9  144 243 
 NOR  HN ES       1459 52.11                             122   -0.52 9  144 243 
 NOR  HZ I        1459 54.75         8.6 0.30            125            144 243 
 CHI  HZ EP       1459 36.96                             118   -0.12 9  168 181 
 CHI  HN ES       1459 58.93                             118    1.00 9  168 181 
 CHI  HZ I        15 0  0.47         6.6 0.28            122            168 181 
 ZAR  HZ EP       1459 39.83                             113    0.17 9  196 320 
 ZAR  HN ES       15 0  3.37                             113    0.85 9  196 320 
 ZAR  HZ I        15 0  5.09        12.7 0.58            116            196 320 
 HEL  HZ EP       1459 41.35                             113    0.57 9  202 271 
 HEL  HN ES       15 0  3.80                             113   -0.72 9  202 271 
 HEL  HZ I        15 0 11.36         3.9 0.22            115            202 271 
                                                                                
