 2014  925 1145 33.6 L   6.788 -73.125155.6  RSN  5 0.4 1.5LRSN                1
 GAP=202        0.86       6.1     7.2  8.4  0.1266E+02  0.4669E+01 -0.8348E+01E
 Epicentro: LOS SANTOS - SANTANDER                                             3
 ACTION:UPD 14-10-03 23:08 OP:nd   STATUS:               ID:20140925114533 L   I
 OLDACT:REG 14-09-25 21:21 OP:spq  STATUS:               ID:20140925113819     3
 2014-09-25-1138-19M.COL___292                                                 6
 STAT SP IPHASW D HRMM SECON CODA AMPLIT PERI AZIMU VELO AIN AR TRES W  DIS CAZ7
 BAR2 SZ EP       1145 54.82                             172    0.4210 22.6 196 
 BAR2 SZ ES   1   1146 10.16                             172   -0.46 7 22.6 196 
 BAR2 SZ I        1146 12.25         5.6 0.34            174           22.6 196 
 BRR  HZ EP   1   1145 55.48                             153   -0.48 7 73.9 299 
 BRR  HN ES       1146 13.89                             153    0.4810 73.9 299 
 BRR  HZ I        1146 16.22         7.1 0.22            154           73.9 299 
 RUS  HE ES   1   1146 17.28                             146   -0.16 7 99.1 177 
 RUS  HZ I        1146 19.57         1.7 0.34            149           99.1 177 
 PTB  HZ EP       1146  1.66                             134    0.10 9  150 260 
 PTB  HE ES       1146 23.13                             134   -0.24 9  150 260 
 PTB  HZ I        1146 24.64         2.2 0.15            136            150 260 
 SML  HN ES   1   1146 39.74                             119   -0.47 6  246 335 
 SML  HZ I        1146 43.33         5.8 0.10            121            246 335 
                                                                                
