 2014  825 1553 39.7 L   6.827 -73.207137.5  RSN  7 0.5 2.0LRSN                1
 GAP=196        1.26       4.8     6.7  8.1  0.1014E+02  0.5606E+01 -0.8508E+01E
 Epicentro: ZAPATOCA - SANTANDER                                               3
 ACTION:UPD 14-09-15 21:53 OP:nd   STATUS:               ID:20140825155339 L   I
 OLDACT:REG 14-08-25 21:18 OP:stll STATUS:               ID:20140825154819     3
 2014-08-25-1548-19M.COL___265                                                 6
 STAT SP IPHASW D HRMM SECON CODA AMPLIT PERI AZIMU VELO AIN AR TRES W  DIS CAZ7
 BAR2 SZ IP     C 1553 58.43                             169    0.0710 26.1 174 
 BAR2 SZ ES       1554 13.50                             169    0.5510 26.1 174 
 BAR2 SZ I        1554 16.10        23.3 0.28            168           26.1 174 
 BRR  HZ EP       1554  0.45                             154    0.9510 63.8 299 
 BRR  HN ES       1554 14.70                             154   -0.2810 63.8 299 
 RUS  HZ EP       1554  2.25                             141   -0.6410  104 172 
 RUS  HZ I        1554  3.21         5.6 0.44            143            104 172 
 RUS  HE ES       1554 20.49                             141   -0.5210  104 172 
 PTB  HZ EP       1554  5.16                             131   -0.26 9  142 257 
 PTB  HE ES       1554 25.32                             131   -0.18 9  142 257 
 PTB  HZ I        1554 32.21        13.4 0.22            130            142 257 
 SPBC HZ EP       1554  7.33                             127   -0.04 9  161 216 
 SPBC HN ES       1554 29.42                             127    0.44 9  161 216 
 SPBC HZ I        1554 34.35        14.9 0.16            128            161 216 
 ZAR  HZ EP       1554 11.65                             122    0.84 9  197 292 
 ZAR  HE ES       1554 34.60                             122   -0.50 9  197 292 
 ZAR  HZ I        1554 42.92        12.2 0.62            121            197 292 
 SML  HZ EP       1554 15.14                             116   -0.09 8  238 336 
 SML  HN ES       1554 42.53                             116   -0.44 8  238 336 
 SML  HZ I        1554 48.11        13.6 0.10            117            238 336 
                                                                                
