 2010  225 1533  8.6 L   6.800 -73.103147.6  RSN 12 0.5 2.8LRSN                1
 GAP=187        0.86       4.3     6.4  6.6  0.4141E+01  0.1662E+02  0.7989E+01E
 Epicentro: LOS SANTOS - SANTANDER                                             3
 ACTION:UP  10-08-24 09:50 OP:vdl  STATUS:               ID:20100225153308 L   I
 2010-02-25-1530-35S.COL___094                                                 6
 STAT SP IPHASW D HRMM SECON CODA AMPLIT PERI AZIMU VELO SNR AR TRES W  DIS CAZ7
 BAR2 SZ IP       1533 28.50                             170     0.010   25 201 
 BAR2 SZ ES   2   1533 43.17                             170    -0.9 5   25 201 
 BRR  HZ IP       1533 30.34                             151     0.110   75 297 
 BRR  HN ES   1   1533 47.62                             151     0.5 7   75 297 
 BRR  HZ I        1533 48.65        68.5 0.16                            75 297 
 RUS  BZ EP       1533 32.48                             144    -0.110  100 179 
 RUS  BN ES   1   1533 51.45                             144     0.2 7  100 179 
 RUS  BZ I        1533 52.89        49.9 0.43                           100 179 
 OCA  SZ EP   2   1533 37.60                             130     0.4 5  161 351 
 OCA  SZ ES   2   1533 58.39                             130    -1.0 5  161 351 
 OCA  SZ I        1534  1.99        83.2 0.22                           161 351 
 NOR  SZ EP   3   1533 44.77                             118    -0.1 2  239 235 
 CHI  HZ EP       1533 46.65                             117     0.1 8  250 196 
 CHI  HN ES   1   1534 15.95                             117    -0.2 6  250 196 
 CHI  HZ I        1534 20.24        27.0 0.56                           250 196 
 HEL  HZ EP       1533 50.12                             115     0.7 7  277 256 
 HEL  HN ES   1   1534 20.51                             115    -0.8 6  277 256 
 HEL  HZ I        1534 26.65        23.2 0.33                           277 256 
 RREF BZ EP   1   1533 55.50                             111     0.2 5  325 230 
 RREF BE ES   2   1534 31.58                             111    -0.1 3  325 230 
 RREF BZ I        1534 40.62        30.2 0.44                           325 230 
 DBB  SZ EP       1533 56.23                             109    -0.5 7  344 274 
 TOL  SZ EP       1533 57.65                             109     0.3 6  347 225 
 ANIL BZ EP   1   1533 58.84                             109    -0.1 5  361 225 
 ANIL BN ES   2   1534 38.78                             109     0.7 3  361 225 
 ANIL BZ I        1534 44.39        43.6 0.28                           361 225 
 PRA  HZ EP       1534  1.95                             107    -0.5 6  394 210 
 PRA  HN ES   2   1534 43.78                             107    -0.7 3  394 210 
 PRA  HZ I        1534 48.51        26.4 0.67                           394 210 
                                                                                
