 2014  625 1336 33.6 L   6.187 -73.509141.3  RSN 18 0.5 2.4LRSN                1
 GAP= 64        1.14       2.8     2.8  5.2 -0.1935E+01  0.3006E+01  0.2071E+01E
 Epicentro: AGUADA - SANTANDER                                                 3
 ACTION:UPD 14-07-01 22:56 OP:nd   STATUS:               ID:20140625133633 L   I
 OLDACT:DUP 14-06-25 22:17 OP:carl STATUS:               ID:20140625132546d    3
 2014-06-25-1325-44M.COL___265                                                 6
 STAT SP IPHASW D HRMM SECON CODA AMPLIT PERI AZIMU VELO AIN AR TRES W  DIS CAZ7
 RUS  HZ EP     C 1336 54.05                             157   -0.1510 57.2 125 
 RUS  HN ES       1337  9.58                             157   -0.7210 57.2 125 
 RUS  HZ I        1337 13.60        21.5 0.30            160           57.2 125 
 BAR2 SZ IP     D 1336 54.06                             157    0.2210 57.6  39 
 BAR2 SZ ES       1337 10.03                             157    0.3610 57.6  39 
 BAR2 SZ I        1337 11.78       101.3 0.14            159           57.6  39 
 SPBC HZ EP       1336 55.61                             147    0.3410 85.9 227 
 SPBC HN ES       1337 12.68                             147    0.4810 85.9 227 
 SPBC HZ I        1337 15.41       114.6 0.16            147           85.9 227 
 BRR  HN ES       1337 15.11                             141    0.8110  104 348 
 PTB  HZ IP     C 1336 56.77                             139   -0.2910  112 290 
 PTB  HN ES       1337 15.64                             139    0.2410  112 290 
 PTB  HZ I        1337 16.26        42.1 0.10            139            112 290 
 NOR  HZ EP       1337  2.18                             127    0.28 9  166 245 
 NOR  HN ES       1337 23.57                             127   -0.44 9  166 245 
 NOR  HZ I        1337 29.16        39.1 0.12            128            166 245 
 ROSC BZ EP   4   1337  4.11                             126    0.95 0  174 211 
 ROSC BN ES   4   1337 26.95                             126    0.70 0  174 211 
 ROSC BZ I        1337 32.18        46.6 0.30            127            174 211 
 CHI  HZ EP       1337  3.47                             126    0.28 9  174 188 
 CHI  HN ES       1337 26.04                             126   -0.27 9  174 188 
 CHI  HZ I        1337 28.32        24.9 0.28            128            174 188 
 TAM  HZ EP       1337  4.45                             123   -0.06 9  192  82 
 TAM  HE ES       1337 28.04                             123   -0.62 9  192  82 
 TAM  HZ I        1337 30.04        28.7 0.22            126            192  82 
 ZAR  HZ EP       1337  6.22                             121    0.14 8  208 314 
 ZAR  HN ES       1337 30.62                             121   -0.83 8  208 314 
 ZAR  HZ I        1337 37.53        23.6 0.26            122            208 314 
 HEL  HZ EP       1337  8.02                             119   -0.22 8  224 270 
 HEL  HN ES       1337 34.09                             119   -1.20 8  224 270 
 HEL  HZ I        1337 37.38        16.0 0.20            120            224 270 
 OCA  HZ EP       1337  8.45                             118    0.02 8  228   5 
 OCA  HN ES       1337 35.76                             118    0.14 8  228   5 
 OCA  HZ I        1337 43.63        32.3 0.16            120            228   5 
 GUY2CHZ EP       1337  9.88                             118    0.65 8  231 243 
 GUY2CHN ES       1337 36.97                             118   -0.08 8  231 243 
 GUY2CHZ I        1337 45.81        10.2 0.64                           231 243 
 RREF HZ EP       1337 11.29                             116    0.02 8  248 235 
 RREF HN ES       1337 40.77                             116    0.09 8  248 235 
 RREF HZ I        1337 47.10        23.4 0.28            117            248 235 
 TOL  SZ EP       1337 13.46                             114    0.45 8  268 229 
 TOL  SN ES       1337 44.67                             114    0.88 8  268 229 
 TOL  SZ I        1337 48.28        42.1 0.66            115            268 229 
 CBOC HZ EP       1337 14.75                             113    0.63 7  279 263 
 CBOC HN ES       1337 44.97                             113   -0.78 7  279 263 
 CBOC HZ I        1337 59.12         5.1 0.28            114            279 263 
 PRA  HZ EP       1337 17.32                             110   -0.46 7  313 209 
 PRA  HE ES       1337 52.37                             110    0.10 7  313 209 
 PRA  HZ I        1337 57.17        14.1 0.46            111            313 209 
 ORTC HZ EP       1337 17.79                             110   -0.43 7  317 217 
 ORTC HN ES       1337 52.96                             110   -0.10 7  317 217 
 ORTC HZ I        1337 58.27        10.1 0.36            111            317 217 
                                                                                
