 2014  825 1111 13.8 L   6.833 -73.094144.3  RSN  5 0.3 1.6LRSN                1
 GAP=206        0.75       3.9     5.5  5.7  0.9184E+01 -0.2433E+01 -0.7326E+01E
 Epicentro: LOS SANTOS - SANTANDER                                             3
 ACTION:UPD 14-09-15 21:53 OP:nd   STATUS:               ID:20140825111113 L   I
 OLDACT:REG 14-08-25 21:02 OP:stll STATUS:               ID:20140825110820     3
 2014-08-25-1108-20M.COL___227                                                 6
 STAT SP IPHASW D HRMM SECON CODA AMPLIT PERI AZIMU VELO AIN AR TRES W  DIS CAZ7
 BAR2 SZ EP       1111 33.65                             168    0.3010 28.4 200 
 BAR2 SZ ES       1111 48.22                             168   -0.3910 28.4 200 
 BAR2 SZ I        1111 49.41        13.1 0.22            169           28.4 200 
 BRR  HE ES       1111 51.94                             151    0.4410 74.7 294 
 RUS  HZ EP       1111 37.63                             142   -0.0110  104 179 
 RUS  HN ES       1111 56.25                             142    0.0010  104 179 
 RUS  HZ I        1111 57.67         4.3 0.40            143            104 179 
 PTB  HZ EP       1111 41.47                             130    0.26 9  154 258 
 PTB  HN ES       1112  2.30                             130   -0.31 9  154 258 
 PTB  HZ I        1112  4.49         2.6 0.16            130            154 258 
 SML  HZ EP       1111 49.84                             117   -0.40 8  243 334 
 SML  HN ES       1112 18.60                             117   -0.07 8  243 334 
 SML  HZ I        1112 21.99         5.5 0.10            117            243 334 
                                                                                
