 2014 1225 1602 55.8 L   6.555 -73.543106.4  RSN 18 0.6 2.7LRSN                1
 GAP= 51        1.37       2.9     3.0  6.4 -0.1059E+01  0.5776E+01  0.1910E+00E
 Epicentro: EL CARMEN - SANTANDER                                              3
 ACTION:UPD 15-02-10 17:07 OP:nd   STATUS:               ID:20141225160255 L   I
 OLDACT:REG 14-12-25 23:31 OP:carl STATUS:               ID:20141225155750     3
 2014-12-25-1557-50M.COL___286                                                 6
 STAT SP IPHASW D HRMM SECON CODA AMPLIT PERI AZIMU VELO AIN AR TRES W  DIS CAZ7
 BAR2 EZ IP     C 16 3 11.77                             158    0.4710 40.1  84 
 BAR2 EZ ES       16 3 23.53                             158    0.1110 40.1  84 
 BAR2 EZ I        16 3 25.29       257.0 0.24            160           40.1  84 
 BRR  HZ IP     C 16 3 12.47                             147    0.1610 63.9 343 
 BRR  HN ES       16 3 25.46                             147    0.2410 63.9 343 
 BRR  HZ I        16 3 33.24       110.4 0.12            146           63.9 343 
 RUS  HZ IP     C 16 3 14.81                             137   -0.1010 89.2 145 
 RUS  HN ES       16 3 29.79                             137   -0.0610 89.2 145 
 RUS  HZ I        16 3 31.67        48.5 0.44            141           89.2 145 
 PTB  HZ IP     C 16 3 14.64                             133   -0.6410  101 269 
 PTB  HN ES       16 3 29.65                             133   -0.8610  101 269 
 PTB  HZ I        16 3 30.98       177.5 0.18            134            101 269 
 SPBC HZ EP       16 3 16.29                             129   -0.4510  116 210 
 SPBC HN ES       16 3 33.28                             129    0.1710  116 210 
 SPBC HZ I        16 3 36.97       112.5 0.12            132            116 210 
 PAM  SN ES       16 3 36.06                             126    0.0110  127  47 
 PAM  SZ I        16 3 37.29        53.2 0.42            128            127  47 
 ZAR  HZ EP       16 3 23.49                             116    0.35 9  178 306 
 ZAR  HN ES       16 3 46.24                             116    1.74 9  178 306 
 ZAR  HZ I        16 3 48.10       142.7 0.42            117            178 306 
 NOR  HZ EP       16 3 23.50                             115   -0.22 9  183 233 
 NOR  HN ES       16 3 45.39                             115   -0.14 9  183 233 
 NOR  HZ I        16 3 47.56        62.1 0.18            117            183 233 
 OCA  HZ EP       16 3 23.72                             114   -0.64 9  188   8 
 OCA  HN ES       16 3 46.23                             114   -0.44 9  188   8 
 OCA  HZ I        16 3 54.57        64.7 0.18            116            188   8 
 TAM  HZ EP       16 3 24.54                             113   -0.38 9  194  94 
 TAM  HN ES       16 3 47.57                             113   -0.10 9  194  94 
 TAM  HZ I        16 3 53.00        38.3 0.56            116            194  94 
 CHI  HZ EP       16 3 27.69                             111    0.07 8  214 186 
 CHI  HN ES       16 3 53.12                             111    0.64 8  214 186 
 HEL  HZ EP       16 3 28.97                             110    0.32 8  223 260 
 HEL  HN ES       16 3 54.12                             110   -0.18 8  223 260 
 HEL  HZ I        16 4  1.43        40.4 0.22            112            223 260 
 SML  HZ EP       16 3 31.53                             107   -0.32 8  255 347 
 SML  HN ES       16 4  0.19                             107    0.18 8  255 347 
 SML  HZ I        16 4  5.77        56.3 0.28            108            255 347 
 URE  HZ EP   4   16 3 31.37                             107   -0.67 0  257 301 
 URE  HN ES   4   16 3 59.15                             107   -1.19 0  257 301 
 URE  HZ I        16 4  2.14        56.8 0.14            108            257 301 
 CBOC HZ EP       16 3 36.30                             105    0.86 7  284 255 
 CBOC HN ES       16 4  5.07                             105   -1.31 7  284 255 
 CBOC HZ I        16 4 10.23        16.3 0.84            106            284 255 
 TOL  SZ EP       16 3 38.17                             104    1.37 7  294 222 
 TOL  SN ES       16 4  8.94                             104    0.12 7  294 222 
 TOL  SZ I        16 4 13.74        35.8 0.18            106            294 222 
 DBB  SZ EP       16 3 37.02                             103   -0.13 7  299 280 
 DBB  SZ ES       16 4  9.05                             103   -0.39 7  299 280 
 DBB  SZ I        16 4 14.80        67.0 0.38            105            299 280 
 MON  HZ EP   4   16 3 40.25                             101   -1.60 0  340 317 
 MON  HN ES   4   16 4 17.07                             101   -0.73 0  340 317 
 MON  HZ I        16 4 19.41        21.8 0.22            103            340 317 
                                                                                
