 2012  325 1446  6.2 L   6.777 -73.166148.8  RSN  8 0.4 2.2LRSN                1
 GAP=135        0.98       5.4     5.3  7.7 -0.3373E+01  0.1144E+02 -0.2918E+01E
 ACTION:UP  12-03-31 23:22 OP:EP   STATUS:               ID:20120325144606 L   I
 2012-03-25-1440-00M.COL___196                                                 6
 STAT SP IPHASW D HRMM SECON CODA AMPLIT PERI AZIMU VELO SNR AR TRES W  DIS CAZ7
 BAR2 SZ EP       1446 26.24                             172     0.110   21 185 
 BAR2 SZ ES   1   1446 41.26                             172    -0.5 7   21 185 
 BAR2 SZ I        1446 42.51        27.5 0.34                            21 185 
 BRR  HZ EP       1446 28.09                             153     0.410   71 301 
 BRR  HZ I        1446 28.38        70.1 0.11                            71 301 
 BRR  HN ES   1   1446 45.45                             153     1.1 7   71 301 
 PAM  SZ EP   1   1446 29.00                             150     0.0 7   81  40 
 PAM  SN ES   1   1446 46.50                             150    -0.2 7   81  40 
 RUS  HZ EP   1   1446 30.14                             145     0.0 7   98 175 
 RUS  HN ES   1   1446 48.62                             145    -0.1 7   98 175 
 RUS  HZ I        1446 50.11         9.7 0.32                            98 175 
 PTB  HZ EP       1446 32.88                             133    -0.3 9  145 260 
 PTB  HN ES   1   1446 53.60                             133    -0.6 7  145 260 
 PTB  HZ I        1447  1.57        19.5 0.42                           145 260 
 OCA  SZ EP   1   1446 34.58                             130    -0.4 7  162 354 
 ZAR  HZ EP   1   1446 38.70                             123     0.0 6  203 293 
 ZAR  HN ES   1   1447  3.71                             123    -0.4 6  203 293 
 NOR  SZ EP   1   1446 42.27                             120     0.5 6  231 235 
 NOR  SN ES   1   1447  9.66                             120     0.1 6  231 235 
                                                                                
