 2011  725 1226 57.9 L   7.497 -73.027154.3  RSN  4 0.2 1.7LRSN                1
 GAP=149        0.39       5.1     7.1  5.3 -0.2248E+02 -0.1237E+01  0.5597E+01E
 Epicentro: SURATA - SANTANDER                                                 3
 ACTION:UPD 12-07-25 14:03 OP:epov STATUS:               ID:20110725122657 L   I
 2011-07-25-1223-37S.COL___143                                                 6
 STAT SP IPHASW D HRMM SECON CODA AMPLIT PERI AZIMU VELO AIN AR TRES W  DIS CAZ7
 BRI  SZ EP   1   1227 18.44                             167   -0.29 8 35.1  46 
 BRI  SZ ES   2   1227 34.77                             167   -0.22 5 35.1  46 
 BRI  SZ I        1227 39.08         5.9 0.43                          35.1  46 
 GRA  SZ EP   1   1227 19.41                             161    0.22 8 49.4  30 
 GRA  SZ ES   2   1227 36.05                             161    0.25 5 49.4  30 
 GRA  SZ I        1227 37.99         7.3 0.42                          49.4  30 
 BRR  HZ EP   1   1227 20.89                             149    0.00 8 87.1 240 
 BRR  HE ES   2   1227 38.79                             149   -0.04 5 87.1 240 
 BRR  HZ I        1227 42.51         8.2 0.14                          87.1 240 
 BAR2 SZ EP       1227 22.22                             145    0.0310  101 190 
 BAR2 SZ ES   2   1227 41.20                             145    0.05 5  101 190 
 BAR2 SZ I        1227 43.52        12.0 0.28                           101 190 
                                                                                
