 2013 1025 1411 22.0 L   6.634 -73.171143.5  RSN  4 0.1 2.0LRSN                1
 GAP=244        0.38       4.3     3.2  3.3  0.2885E+01  0.4202E+01 -0.2533E+00E
 Epicentro: BARICHARA - SANTANDER                                              3
 ACTION:UPD 13-11-25 09:23 OP:ep   STATUS:               ID:20131025141122 L   I
 OLDACT:UP  13-10-25 16:31 OP:cam  STATUS:               ID:20131025140847     3
 OLDACT:REG 13-10-25 15:14 OP:cam  STATUS:               ID:20131025140847     3
 2013-10-25-1408-47M.COL___233                                                 6
 STAT SP IPHASW D HRMM SECON CODA AMPLIT PERI AZIMU VELO AIN AR TRES W  DIS CAZ7
 BAR2 SZ ES       1411 56.07                             178    0.0610 4.81 195 
 BAR2 SZ I        1411 57.44        26.4 0.22            173           4.81 195 
 BRR  HZ EP       1411 43.18                             149   -0.1810 79.4 311 
 BRR  HN ES       1412  0.07                             149    0.0210 79.4 311 
 BRR  HN I        1412  0.47        32.3 0.44            146           79.4 311 
 PTB  HZ EP       1411 48.42                             133    0.15 9  143 266 
 PTB  HN ES       1412  8.67                             133   -0.12 9  143 266 
 PTB  HZ I        1412 11.69         7.8 0.14            131            143 266 
 ZAR  HZ EP   1   1411 54.81                             121    0.02 6  209 297 
 ZAR  HN ES       1412 20.48                             121    0.09 8  209 297 
 ZAR  HZ I        1412 27.85         5.1 0.30            120            209 297 
                                                                                
