 2012  825 1135 38.7 L   6.756 -73.165149.0  RSN  6 0.3 1.6LRSN                1
 GAP=136        0.65       5.2     4.9  6.7  0.1323E+02  0.3640E+00 -0.9324E+01E
 Epicentro: LOS SANTOS - SANTANDER                                             3
 ACTION:UPD 12-09-10 11:58 OP:ep   STATUS:               ID:20120825113538 L   I
 2012-08-25-1130-00M.COL___218                                                 6
 STAT SP IPHASW D HRMM SECON CODA AMPLIT PERI AZIMU VELO AIN AR TRES W  DIS CAZ7
 BAR2 SZ EP   1   1135 58.58                             173   -0.03 7 18.2 186 
 BAR2 SZ ES   1   1136 13.54                             173   -0.61 7 18.2 186 
 BAR2 SZ I        1136 14.59         8.9 0.26                          18.2 186 
 BRR  HZ EP   1   1136  0.36                             153    0.14 7 71.8 303 
 BRR  HZ I        1136  0.71         9.0 0.10                          71.8 303 
 BRR  HE ES       1136 17.21                             153    0.2010 71.8 303 
 PAM  SZ EP   1   1136  1.46                             150   -0.09 7 82.6  39 
 PAM  SZ I        1136 21.26         6.8 0.25                          82.6  39 
 RUS  HE ES       1136 21.22                             146    0.2810 95.9 175 
 PTB  HZ EP   1   1136  5.44                             133   -0.21 7  145 261 
 PTB  HN ES   2   1136 25.99                             133   -0.69 5  145 261 
 ZAR  HN ES       1136 36.94                             123    0.15 9  204 294 
                                                                                
