 2013  225 1958  7.4 L   6.813 -73.132147.7  RSN 16 0.5 3.2LRSN 3.4WRSN        1
 SPEC AVERAGE  MO 14.2 ST 16.4 OM  2.7 f0 4.12 R0.3655 AL 2.73 WI 24.4 MW  3.4 3
 SPEC SD       MO  0.2 ST  8.2 OM  0.4 f00.633 R0.0566 AL      WI      MW  0.1 3
 GAP= 71        1.02       3.3     3.5  6.0 -0.6611E+00  0.4627E+01  0.3362E+01E
 Epicentro: LOS SANTOS - SANTANDER                                             3
 SPEC ROSCBH Z MO 14.4 ST 10.9 OM  2.5 f0 3.24 R0.4537 AL 4.04 WI 34.6 MW  3.5 3
 SPEC ROSCBH Z T195913 K 0.000 GD  294 VS 4.20 DE 3.20 Q0300.0 QA 0.60 VS 4.20 3
 SPEC NOR HH Z MO 14.0 ST 23.7 OM  2.2 f0 5.38 R0.2732 AL 2.50 WI 28.0 MW  3.3 3
 SPEC NOR HH Z T1959 9 K 0.000 GD  279 VS 4.20 DE 3.20 Q0300.0 QA 0.60 VS 4.20 3
 SPEC TAM HH N MO 13.9 ST  7.1 OM  2.2 f0 3.94 R0.3731 AL 2.82 WI 20.7 MW  3.2 3
 SPEC TAM HH N T195855 K 0.000 GD  213 VS 4.20 DE 3.20 Q0300.0 QA 0.60 VS 4.20 3
 SPEC COD HH N MO 14.0 ST 11.7 OM  2.0 f0 4.49 R0.3274 AL 2.03 WI 38.8 MW  3.3 3
 SPEC COD HH N T195931 K 0.000 GD  377 VS 4.20 DE 3.20 Q0300.0 QA 0.60 VS 4.20 3
 SPEC HEL HH N MO 14.2 ST  9.8 OM  2.3 f0 3.58 R0.4106 AL 2.61 WI 33.6 MW  3.4 3
 SPEC HEL HH N T195918 K 0.000 GD  311 VS 4.20 DE 3.20 Q0300.0 QA 0.60 VS 4.20 3
 SPEC CHI HH N MO 14.4 ST 10.4 OM  2.5 f0 3.21 R0.4579 AL 2.83 WI 18.7 MW  3.5 3
 SPEC CHI HH N T195913 K 0.000 GD  290 VS 4.20 DE 3.20 Q0300.0 QA 0.60 VS 4.20 3
 SPEC PTB HH N MO 14.4 ST 23.7 OM  2.7 f0 4.03 R0.3648 AL 2.37 WI 22.8 MW  3.6 3
 SPEC PTB HH N T195852 K 0.000 GD  210 VS 4.20 DE 3.20 Q0300.0 QA 0.60 VS 4.20 3
 SPEC PTB HH E MO 14.2 ST 18.6 OM  2.5 f0 4.33 R0.3395 AL 2.19 WI 13.9 MW  3.4 3
 SPEC PTB HH E T195855 K 0.000 GD  210 VS 4.20 DE 3.20 Q0300.0 QA 0.60 VS 4.20 3
 SPEC RUS HH N MO 14.0 ST 13.0 OM  2.4 f0 4.38 R0.3356 AL 3.38 WI  9.5 MW  3.3 3
 SPEC RUS HH N T195849 K 0.000 GD  179 VS 4.20 DE 3.20 Q0300.0 QA 0.60 VS 4.20 3
 SPEC BRR HH N MO 14.4 ST 34.7 OM  2.8 f0 4.60 R0.3196 AL 2.54 WI 23.1 MW  3.6 3
 SPEC BRR HH N T195845 K 0.000 GD  164 VS 4.20 DE 3.20 Q0300.0 QA 0.60 VS 4.20 3
 ACTION:UPD 13-03-12 09:35 OP:ep   STATUS:               ID:20130225195807 L   I
 2013-02-25-1956-50M.COL___194                                                 6
 STAT SP IPHASW D HRMM SECON CODA AMPLIT PERI AZIMU VELO AIN AR TRES W  DIS CAZ7
 BAR2 SZ EP       1958 27.28                             170   -0.0110 25.1 193 
 BAR2 SZ ES   1   1958 42.40                             170   -0.41 7 25.1 193 
 BAR2 SZ I        1958 45.26       423.9 0.32            168           25.1 193 
 BRR  HZ EP     D 1958 29.15                             153    0.3610 71.9 297 
 BRR  HN ES   1   1958 46.19                             153    0.71 7 71.9 297 
 BRR  HZ I        1958 49.08       238.6 0.18            151           71.9 297 
 PAM  SZ EP       1958 30.06                             152    0.3710 75.3  39 
 PAM  SE ES   1   1958 47.38                             152    0.29 7 75.3  39 
 PAM  SZ I        1958 49.27       159.7 0.48            149           75.3  39 
 RUS  HZ EP     D 1958 31.12                             144   -0.3110  102 177 
 RUS  HN ES   1   1958 49.78                             144   -0.40 7  102 177 
 RUS  HZ I        1958 50.92       156.9 0.28            140            102 177 
 PTB  HZ EP       1958 33.74                             132   -0.94 9  150 258 
 PTB  HE ES   1   1958 55.90                             132   -0.07 7  150 258 
 PTB  HZ I        1958 57.38       215.3 0.16            129            150 258 
 TAM  HZ IP     C 1958 35.43                             131    0.31 9  154 106 
 TAM  HZ I        1958 56.16        89.2 0.32            127            154 106 
 TAM  HE ES   1   1958 56.92                             131    0.17 7  154 106 
 OCA  HE ES   1   1958 57.32                             130   -0.53 7  159 353 
 OCA  HZ I        1959  1.50       146.8 0.22            127            159 353 
 ZAR  HZ EP   1   1958 39.80                             123   -0.26 6  205 292 
 ZAR  HE ES   1   1959  5.37                             123   -0.16 6  205 292 
 ZAR  HZ I        1959 12.19       271.6 0.26            120            205 292 
 NOR  HZ EP       1958 43.05                             119   -0.41 8  237 234 
 NOR  HE ES   1   1959 11.92                             119    0.33 6  237 234 
 NOR  HZ I        1959 15.56       168.5 0.20            116            237 234 
 SML  HZ EP   1   1958 43.87                             118   -0.19 6  243 335 
 SML  HE ES   1   1959 12.71                             118    0.06 6  243 335 
 SML  HZ I        1959 17.91       198.6 0.10            115            243 335 
 CHI  HZ EP       1958 45.28                             117   -0.11 8  250 195 
 CHI  HN ES   1   1959 14.13                             117   -0.90 6  250 195 
 CHI  HZ I        1959 24.32        75.4 0.34            114            250 195 
 ROSC BZ EP       1958 46.70                             117    0.86 8  255 211 
 ROSC BN ES   1   1959 15.74                             117   -0.09 6  255 211 
 ROSC BZ I        1959 24.68       158.6 0.50            114            255 211 
 HEL  HZ EP   1   1958 48.92                             115    1.01 6  274 256 
 HEL  HN ES   1   1959 19.47                             115   -0.04 6  274 256 
 HEL  HZ I        1959 26.54        74.9 0.24            112            274 256 
 RREF HZ EP   1   1958 53.96                             111    0.10 5  324 229 
 RREF HN ES   1   1959 31.04                             111    0.94 5  324 229 
 RREF HZ I        1959 38.73       131.8 0.34            108            324 229 
 COD  HZ EP   1   1958 54.43                             109   -1.27 5  347 354 
 COD  HN ES   4   1959 32.11                             109   -1.26 0  347 354 
 COD  HZ I        1959 39.39        19.0 0.33            107            347 354 
 ANIL HZ EP   1   1958 58.43                             109    0.92 5  359 225 
 ANIL HE ES   4   1959 37.99                             109    1.38 0  359 225 
 ANIL HZ I        1959 43.58        52.0 0.43            106            359 225 
                                                                                
