 2015  725 1813  7.7 L   6.817 -73.126136.2  RSN 16 0.5 2.6LRSN                1
 GAP=138        1.06       2.9     4.0  5.7 -0.2731E+01  0.1034E+02  0.2916E+00E
 Epicentro: LOS SANTOS - SANTANDER                                             3
 ACTION:UPD 15-09-08 21:50 OP:cam  STATUS:               ID:20150725181307 L   I
 OLDACT:UP  15-08-03 18:01 OP:cam  STATUS:               ID:20150725181307 L   3
 OLDACT:UP  15-08-01 06:27 OP:AK   STATUS:               ID:20150725181307 L   3
 OLDACT:REG 15-07-25 20:39 OP:stll STATUS:               ID:20150725180749     3
 2015-07-25-1807-49M.COL___340                                                 6
 STAT SP IPHASW D HRMM SECON CODA AMPLIT PERI AZIMU VELO AIN AR TRES W  DIS CAZ7
 BAR2 EZ EP     C 1813 26.45                             169    0.1910 25.6 194 
 BAR2 EZ ES       1813 40.81                             169    0.0910 25.6 194 
 BAR2 EZ I        1813 42.27        67.7 0.34            170           25.6 194 
 PAM  EZ IP     D 1813 29.36                             150    0.5910 74.6  39 
 PAM  EZ I        1813 29.60        76.9 0.26            139           74.6  39 
 PAM  EN ES       1813 45.90                             150    0.7310 74.6  39 
 RUS  HZ EP       1813 30.56                             141   -0.1310  102 177 
 RUS  HN ES       1813 47.97                             141   -0.6210  102 177 
 CPBEREZ EP       1813 33.50                             129   -0.68 9  150 258 
 CPBEREN ES       1813 54.54                             129   -0.26 9  150 258 
 OCA  HZ EP       1813 34.84                             128   -0.33 9  159 352 
 OCA  HN ES       1813 56.24                             128   -0.32 9  159 352 
 OCA  HZ I        1814  0.58        61.8 0.34            116            159 352 
 ZAR  HZ EP       1813 39.39                             120   -0.32 8  205 291 
 ZAR  HE ES       1814  4.84                             120    0.18 8  205 291 
 ZAR  HZ I        1814 11.24        29.9 0.28            110            205 291 
 NOR  HZ EP     C 1813 43.16                             116   -0.08 8  238 234 
 NOR  HN ES       1814 10.45                             116   -0.48 8  238 234 
 NOR  HZ I        1814 16.96        22.7 0.20            108            238 234 
 SML  HZ EP       1813 42.98                             115   -0.78 8  243 335 
 SML  HZ I        1814 19.63        47.5 0.26            106            243 335 
 CHI  HZ EP       1813 44.73                             115   -0.45 8  251 196 
 CHI  HN ES       1814 14.34                             115   -0.05 8  251 196 
 CHI  HZ I        1814 17.02        10.8 0.34            108            251 196 
 HEL  HZ EP       1813 48.62                             113    0.86 8  275 256 
 HEL  HN ES       1814 19.14                             113    0.16 8  275 256 
 HEL  HZ I        1814 25.78        10.1 0.50            105            275 256 
 GUY2CHZ EP       1813 51.38                             110    0.14 7  304 235 
 GUY2CHN ES       1814 25.38                             110    0.21 7  304 235 
 GUY2CHZ I        1814 31.66        13.4 0.36                           304 235 
 ELA  HZ EP   1   1813 54.32                             108   -0.21 5  332 229 
 CBOC HZ EP       1813 55.02                             108    0.45 7  336 252 
 DBB  SZ EP       1813 55.58                             108    0.51 7  342 274 
 DBB  SZ I        1814 37.33        27.4 0.52            100            342 274 
 ANIL HE ES       1814 37.51                             107    1.16 6  360 225 
 ANIL HZ I        1814 43.57        24.4 0.48            100            360 225 
 ORTC HZ EP       1814  2.22                             105    0.55 6  398 216 
 ORTC HN ES       1814 43.73                             105   -0.01 6  398 216 
 ORTC HZ I        1814 49.75         9.3 0.20             98            398 216 
                                                                                
