 2010  625 1227 49.6 L   6.797 -73.047144.0  RSN  6 0.3 2.0LRSN                1
 GAP=170        0.61       4.3     7.6  6.8 -0.7370E+01  0.9765E+01  0.2608E+01E
 Epicentro: LOS SANTOS - SANTANDER                                             3
 ACTION:UP  10-08-24 10:13 OP:vdl  STATUS:               ID:20100625122749 L   I
 2010-06-25-1224-36S.COL___118                                                 6
 STAT SP IPHASW D HRMM SECON CODA AMPLIT PERI AZIMU VELO SNR AR TRES W  DIS CAZ7
 BAR2 SZ IP       1228  9.14                             169     0.110   27 214 
 BAR2 SZ ES   2   1228 23.95                             169    -0.3 5   27 214 
 BRR  HZ EP   1   1228 10.80                             149    -0.3 7   81 295 
 BRR  HE ES   2   1228 28.14                             149     0.2 5   81 295 
 BRR  HZ I        1228 32.22        24.2 0.34                            81 295 
 RUS  HZ EP   1   1228 12.71                             144    -0.4 7  100 182 
 RUS  HN ES   2   1228 31.90                             144     0.4 5  100 182 
 RUS  HZ I        1228 33.75         8.1 0.40                           100 182 
 GRA  SZ EP   1   1228 14.55                             137     0.1 7  123  13 
 GRA  SZ ES   2   1228 34.25                             137     0.4 5  123  13 
 HEL  HZ EP   1   1228 30.81                             114     0.0 6  283 256 
 HEL  HZ I        1229  9.06         5.7 0.28                           283 256 
 PRA  HZ EP   1   1228 43.85                             106     0.2 4  397 211 
 PRA  HN ES   2   1229 26.83                             106     1.0 3  397 211 
 PRA  HZ I        1229 30.39         5.6 0.70                           397 211 
                                                                                
