 2015  925 1313 21.2 L   6.823 -73.176140.9  RSN  8 0.5 2.0LRSN                1
 GAP=206        1.17       4.4     6.6  8.4 -0.3599E+00  0.6585E+01 -0.3080E+01E
 Epicentro: ZAPATOCA - SANTANDER                                               3
 ACTION:UPD 15-10-28 16:28 OP:cam  STATUS:               ID:20150925131321 L   I
 OLDACT:REG 15-09-25 20:37 OP:ar   STATUS:               ID:20150925130748     3
 2015-09-25-1307-48M.COL___364                                                 6
 STAT SP IPHASW D HRMM SECON CODA AMPLIT PERI AZIMU VELO AIN AR TRES W  DIS CAZ7
 BAR2 EZ EP       1313 40.38                             169    0.0510 25.5 182 
 BAR2 EZ ES       1313 55.29                             169    0.0710 25.5 182 
 BAR2 EZ I        1313 56.39        20.2 0.20            166           25.5 182 
 BRR  HZ EP       1313 42.41                             153    0.7810 67.0 298 
 BRR  HN ES   4   1313 59.39                             153    1.86 0 67.0 298 
 BRR  HZ I        1313 59.87        12.4 0.26            148           67.0 298 
 PTB  HZ EP       1313 46.70                             131   -0.86 9  145 258 
 PTB  HN ES       1314  7.44                             131   -0.65 9  145 258 
 PTB  HZ I        1314 15.09        12.9 0.64            129            145 258 
 SPBC HZ EP       1313 49.04                             128   -0.32 9  163 218 
 SPBC HE ES       1314 11.18                             128   -0.12 9  163 218 
 SPBC HZ I        1314 12.30        15.9 0.52            127            163 218 
 ZAR  HN ES       1314 17.90                             122    0.22 9  200 292 
 ZAR  HZ I        1314 23.09        10.3 0.38            121            200 292 
 NOR  HZ EP       1313 56.84                             118    0.28 8  233 233 
 NOR  HN ES       1314 25.11                             118    1.00 8  233 233 
 NOR  HZ I        1314 32.27         7.5 0.14            117            233 233 
 SML  HZ EP       1313 57.41                             117    0.22 8  240 336 
 SML  HN ES       1314 24.90                             117   -0.33 8  240 336 
 SML  HZ I        1314 28.66        14.0 0.10            118            240 336 
 CHI  HZ EP       1313 58.64                             116   -0.21 8  250 194 
 CHI  HN ES   2   1314 28.01                             116   -0.17 4  250 194 
 CHI  HZ I        1314 32.77         5.6 0.32            117            250 194 
                                                                                
