 2014  525 1710 10.6 L   6.812 -73.150138.8  RSN 15 0.5 2.6LRSN                1
 GAP=183        1.03       2.5     4.5  6.0 -0.4004E+00  0.3581E+00  0.1801E+01E
 Epicentro: LOS SANTOS - SANTANDER                                             3
 ACTION:UPD 15-03-16 17:00 OP:nd   STATUS:               ID:20140525171010 L   I
 OLDACT:REG 14-05-25 20:46 OP:spq  STATUS:               ID:20140525170817     3
 2014-05-25-1708-17M.COL___230                                                 6
 STAT SP IPHASW D HRMM SECON CODA AMPLIT PERI AZIMU VELO AIN AR TRES W  DIS CAZ7
 BRR  HZ IP     C 1710 31.72                             152    0.8010 70.1 298 
 BRR  HE ES       1710 47.41                             152    0.6310 70.1 298 
 BRR  HZ I        1710 51.91        68.7 0.20            151           70.1 298 
 RUS  HZ EP       1710 33.82                             142    0.0610  102 176 
 RUS  HE ES       1710 51.63                             142   -0.2110  102 176 
 RUS  HZ I        1710 53.61        34.5 0.34            144            102 176 
 PTB  HZ EP       1710 36.47                             130   -0.50 9  148 258 
 PTB  HN ES       1710 56.50                             130   -1.05 9  148 258 
 PTB  HZ I        1711  2.63        42.0 0.29            131            148 258 
 OCA  HZ EP       1710 38.26                             128    0.04 9  159 353 
 OCA  HN ES       1710 59.41                             128   -0.38 9  159 353 
 OCA  HZ I        1711  3.51        53.4 0.22            131            159 353 
 SPBC HZ EP       1710 38.82                             127    0.19 9  164 219 
 SPBC HN ES       1711  0.34                             127   -0.17 9  164 219 
 SPBC HZ I        1711  4.80        57.9 0.28            128            164 219 
 ZAR  HZ EP       1710 42.75                             121    0.27 9  203 292 
 ZAR  HN ES       1711  7.74                             121    0.38 9  203 292 
 ZAR  HZ I        1711 13.14        68.5 0.34            122            203 292 
 NOR  HZ EP       1710 45.93                             117   -0.03 8  235 234 
 NOR  HN ES       1711 13.90                             117    0.35 8  235 234 
 NOR  HZ I        1711 17.97        20.8 0.31            118            235 234 
 SML  HZ EP       1710 46.30                             116   -0.36 8  242 335 
 SML  HN ES   1   1711 14.38                             116   -0.43 6  242 335 
 SML  HZ I        1711 21.90        38.0 0.21            118            242 335 
 CHI  HZ EP       1710 48.49                             116    0.46 8  250 195 
 CHI  HN ES       1711 17.10                             116   -0.15 8  250 195 
 CHI  HZ I        1711 22.17        25.8 0.28            117            250 195 
 ROSC BZ EP   4   1710 50.28                             115    1.85 0  254 211 
 ROSC BN ES   4   1711 16.74                             115   -1.21 0  254 211 
 ROSC BZ I        1711 23.48        45.4 0.40            117            254 211 
 URE  HZ EP   4   1710 53.64                             112    2.43 0  283 292 
 URE  HE ES   4   1711 20.65                             112   -2.25 0  283 292 
 GUY2CHZ EP       1710 54.47                             111    0.55 7  302 235 
 GUY2CHN ES       1711 27.36                             111   -0.36 7  302 235 
 GUY2CHZ I        1711 38.59        15.7 0.62                           302 235 
 VIL  SZ EP       1710 53.13                             111   -0.70 7  305 191 
 VIL  SN ES       1711 27.53                             111   -0.04 7  305 191 
 VIL  SZ I        1711 36.25        20.2 0.48            112            305 191 
 RREF HZ EP   4   1710 58.54                             109    2.05 0  322 229 
 RREF HN ES       1711 32.64                             109    0.34 7  322 229 
 RREF HZ I    4   1711 40.00        21.9 0.30            111            322 229 
 DBB  SZ EP       1710 57.53                             108   -0.18 7  339 274 
 DBB  SZ ES   4   1711 33.03                             108   -1.44 0  339 274 
 DBB  SZ I        1711 37.79        40.3 0.36            109            339 274 
 ORTC HZ EP   1   1711  3.90                             105   -0.46 4  396 216 
 ORTC HN ES   1   1711 46.97                             105    0.65 4  396 216 
 ORTC HZ I        1711 57.59        13.4 0.50            107            396 216 
                                                                                
