 2012 1225 1314 34.4 L   6.276 -73.755104.5  RSN  6 0.2 1.4LRSN                1
 GAP=171        0.56       3.9     2.5  5.0  0.1611E+01  0.1879E+01 -0.4612E+00E
 Epicentro: LANDAZURI - SANTANDER                                              3
 ACTION:UPD 13-01-04 14:30 OP:ep   STATUS:               ID:20121225131434 L   I
 2012-12-25-1310-00M.COL___242                                                 6
 STAT SP IPHASW D HRMM SECON CODA AMPLIT PERI AZIMU VELO AIN AR TRES W  DIS CAZ7
 BAR2 SZ EP       1314 51.98                             143    0.3010 72.4  61 
 BAR2 SZ ES       1315  5.03                             143   -0.1410 72.4  61 
 BAR2 SZ I        1315  6.26        18.6 0.35                          72.4  61 
 PTB  HZ EP       1314 52.37                             138    0.1910 82.9 291 
 PTB  HN ES       1315  6.06                             138   -0.0110 82.9 291 
 PTB  HZ I        1315 11.40         3.8 0.09                          82.9 291 
 RUS  HN ES   1   1315  7.42                             138   -0.22 7 85.6 120 
 RUS  HN I        1315  9.51         3.7 0.36                          85.6 120 
 BRR  HZ EP       1314 52.97                             135    0.0510 92.0   3 
 BRR  HZ I        1314 53.35         4.0 0.15                          92.0   3 
 BRR  HN ES       1315  7.40                             135    0.0110 92.0   3 
 GIR2 SZ EP       1314 54.57                             130   -0.0110  108  35 
 ZAR  HZ EP   1   1315  1.39                             114   -0.60 7  182 318 
 ZAR  HZ I        1315 28.39         4.8 0.30                           182 318 
                                                                                
