 2011 1225 1640 59.8 L   6.800 -73.168151.4  RSN 22 0.4 4.3LRSN 4.2WRSN        1
 SPEC AVERAGE  MO 15.5 ST 58.1 OM  5.9 f0 2.53 R0.6684 AL 1.97 WI 16.6 MW  4.2 3
 SPEC SD       MO  0.1 ST 33.0 OM  2.2 f00.720 R0.1902 AL      WI      MW  0.1 3
 GAP=112        0.79       2.7     3.2  4.3 -0.8809E+00  0.2846E+01  0.2582E+01E
 Epicentro: LOS SANTOS - SANTANDER                                             3
 SPEC CHI HH Z MO 15.6 ST 25.1 OM  3.7 f0 1.81 R0.8586 AL 1.69 WI 22.1 MW  4.3 3
 SPEC CHI HH Z T1642 4 K 0.020 GD  290 VS 4.20 DE 3.20 Q0230.0 QA 0.60 VS 4.20 3
 SPEC RUS HH Z MO 15.4 ST 91.1 OM  3.7 f0 3.25 R0.4782 AL 2.24 WI 11.2 MW  4.2 3
 SPEC RUS HH Z T164140 K 0.020 GD  181 VS 4.20 DE 3.20 Q0230.0 QA 0.60 VS 4.20 3
 Evento Sentido                                                                2
 Reportado como sentido en:                                                    3
 SAN GIL (SANTANDER)                                                           3
 ACTION:UPD 12-07-13 16:18 OP:ep   STATUS:               ID:20111225164059 L   I
 2011-12-25-1640-00M.COL___187                                                 6
 STAT SP IPHASW D HRMM SECON CODA AMPLIT PERI AZIMU VELO AIN AR TRES W  DIS CAZ7
 BAR2 SZ EP       1641 19.98                             171   -0.1110 23.1 184 
 BAR2 SZ ES   1   1641 35.11                             171   -0.82 7 23.1 184 
 BAR2 SZ I        1641 36.62      7596.8 0.22                          23.1 184 
 GIR2 SZ EP   1   1641 20.10                             168   -0.02 7 30.9 355 
 GIR2 SZ ES   1   1641 36.01                             168    0.02 7 30.9 355 
 BRR  HZ IP     C 1641 21.88                             154    0.4410 69.1 299 
 BRR  HZ I        1641 22.19      3702.9 0.14                          69.1 299 
 BRR  HE ES   1   1641 39.31                             154    0.99 7 69.1 299 
 PAM  SZ EP       1641 22.82                             151    0.1210 78.9  41 
 PAM  SE ES   1   1641 40.14                             151   -0.43 7 78.9  41 
 PAM  SZ I        1641 42.28      1797.0 0.47                          78.9  41 
 RUS  HZ EP   1   1641 23.93                             145   -0.18 7  101 175 
 RUS  HN ES   1   1641 42.97                             145   -0.12 7  101 175 
 RUS  HZ I        1641 44.48      3269.9 0.39                           101 175 
 BRI  SZ EP   1   1641 24.59                             142    0.31 7  109  22 
 GUE  SZ EP   1   1641 25.18                             140    0.11 7  117  13 
 PTB  HZ EP   1   1641 26.40                             134   -0.61 7  145 259 
 PTB  HE ES   1   1641 47.85                             134   -0.40 7  145 259 
 OCA  SZ EP   1   1641 28.60                             131    0.09 7  160 354 
 YOP  SZ EP       1641 30.56                             127    0.21 9  180 153 
 YOP  SN ES   1   1641 54.83                             127    0.64 7  180 153 
 ZAR  HZ EP   1   1641 32.31                             124   -0.07 6  202 292 
 ZAR  HE ES   1   1641 57.79                             124   -0.01 6  202 292 
 ZAR  HZ I        1642  3.54      2323.9 0.57                           202 292 
 NOR  SZ EP   1   1641 35.55                             120   -0.09 6  233 234 
 NOR  SN ES   1   1642  3.15                             120   -0.46 6  233 234 
 CHI  HZ EP   1   1641 37.83                             118    0.09 6  248 195 
 CHI  HZ I        1642 15.62      1099.0 0.49                           248 195 
 HEL  HZ EP   1   1641 39.82                             116   -0.22 6  270 256 
 HEL  HZ I        1642 18.03      1127.6 0.36                           270 256 
 GUY  SZ EP   1   1641 44.56                             113    0.86 5  302 235 
 GUY  SZ I        1642 27.50      1606.8 0.40                           302 235 
 VIL  SZ EP   1   1641 43.17                             113   -0.25 5  303 191 
 VIL  SN ES   1   1642 16.77                             113   -0.68 5  303 191 
 VIL  SZ I        1642 25.03       748.1 0.42                           303 191 
 RREF HZ EP   1   1641 46.18                             112    0.21 5  320 229 
 RREF HZ I        1642 31.63      1050.8 0.34                           320 229 
 TOL  SZ EP   1   1641 47.64                             110   -0.44 5  342 224 
 TOL  SZ ES   1   1642 26.32                             110    0.56 5  342 224 
 COD  HZ EP   1   1641 47.48                             110   -0.88 5  348 355 
 COD  HZ I        1642 30.33       914.8 0.34                           348 355 
 ANIL HZ EP   1   1641 50.06                             109    0.44 5  356 224 
 ANIL HE ES   2   1642 29.39                             109    0.90 3  356 224 
 ANIL HZ I        1642 36.61      2226.5 0.39                           356 224 
 PRA  HZ EP   1   1641 53.02                             107   -0.35 4  391 209 
 PRA  HE ES   1   1642 35.38                             107    0.21 4  391 209 
 YOT  HZ EP   1   1642  1.99                             104   -0.79 4  470 229 
 YOT  HZ I        1643  4.59       178.1 0.52                           470 229 
                                                                                
