 2016  125 1446 23.9 L   6.844 -73.172145.4  RSN  4 0.3 1.5LRSN                1
 GAP=141        0.69       2.8     7.1  6.0 -0.1718E+01  0.2342E+02 -0.2826E+00E
 Epicentro: ZAPATOCA - SANTANDER                                               3
 ACTION:UPD 16-03-09 23:28 OP:cam  STATUS:               ID:20160125144623 L   I
 OLDACT:DUP 16-01-26 00:07 OP:ak   STATUS:               ID:20160125143749d    3
 2016-01-25-1437-48M.COL___334                                                 6
 STAT SP IPHASW D HRMM SECON CODA AMPLIT PERI AZIMU VELO AIN AR TRES W  DIS CAZ7
 BAR2 EZ EP       1446 43.38                             169   -0.2210 27.8 182 
 BAR2 EZ ES       1446 58.80                             169   -0.1610 27.8 182 
 BAR2 EZ I        1446 59.72         6.8 0.26            169           27.8 182 
 PAM  EZ EP       1446 46.36                             151    0.3710 75.7  44 
 PAM  EN ES       1447  3.18                             151   -0.0310 75.7  44 
 PAM  EZ I        1447  5.68         4.3 0.50            153           75.7  44 
 SML  HZ EP       1446 59.67                             118   -0.24 8  238 335 
 SML  HN ES       1447 28.20                             118    0.21 8  238 335 
 SML  HZ I        1447 32.31         5.7 0.12            118            238 335 
 CHI  HZ EP       1447  1.64                             116   -0.38 8  253 194 
 CHI  HN ES       1447 32.22                             116    0.47 8  253 194 
 CHI  HZ I        1447 35.96         1.3 0.34            117            253 194 
                                                                                
