 2016  725 1350 39.5 L   6.811 -72.982145.2  RSN  5 0.5 1.8LRSN                1
 GAP=310        1.04      10.1     9.9  8.0 -0.4300E+02  0.3150E+02 -0.2489E+01E
 Epicentro: CEPITA - SANTANDER                                                 3
 ACTION:UPD 17-03-29 16:55 OP:lp   STATUS:               ID:20160725135039 L   I
 OLDACT:REG 16-07-25 21:39 OP:ar   STATUS:               ID:20160725134759     3
 2016-07-25-1347-59S.COL___331                                                 6
 STAT SP IPHASW D HRMM SECON CODA AMPLIT PERI AZIMU VELO AIN AR TRES W  DIS CAZ7
 BAR2 EZ EP       1350 59.37                             167    0.0810 32.8 223 
 BAR2 EZ ES       1351 14.68                             167   -0.0510 32.8 223 
 BAR2 EZ I        1351 15.68        17.3 0.20            162           32.8 223 
 RUS  HZ EP       1351  3.34                             143    0.0310  102 186 
 RUS  HN ES       1351 22.20                             143    0.3210  102 186 
 RUS  HZ I        1351 22.96         2.8 0.34            141            102 186 
 SPBC HZ EP       1351  8.29                             127   -0.90 9  176 223 
 SPBC HN ES       1351 31.95                             127   -0.41 9  176 223 
 SPBC HZ I        1351 37.27         6.3 0.18            125            176 223 
 GUY2CHZ EP       1351 25.88                             111    1.02 7  317 237 
 GUY2CHN ES       1352  0.73                             111    0.50 7  317 237 
 GUY2CHZ I        1352  5.95         3.3 0.34                           317 237 
 PRA  HZ EP       1351 34.13                             106   -0.08 6  402 212 
 PRA  HN ES       1352 16.78                             106   -0.10 6  402 212 
 PRA  HZ I        1352 22.02         3.2 0.28            106            402 212 
                                                                                
