 2013 1225 1153 22.8 L   6.792 -73.170142.2  RSN  8 0.3 1.5LRSN                1
 GAP=134        0.70       2.7     3.1  5.9 -0.1854E+01  0.5605E+01 -0.8367E+00E
 Epicentro: LOS SANTOS - SANTANDER                                             3
 ACTION:UPD 14-01-13 10:20 OP:ep   STATUS:               ID:20131225115322 L   I
 OLDACT:REG 13-12-25 14:30 OP:jn   STATUS:               ID:20131225115000     3
 2013-12-25-1150-00M.COL___285                                                 6
 STAT SP IPHASW D HRMM SECON CODA AMPLIT PERI AZIMU VELO AIN AR TRES W  DIS CAZ7
 BAR2 SZ EP       1153 42.01                             171    0.0510 22.2 183 
 BAR2 SZ ES       1153 56.74                             171   -0.1810 22.2 183 
 BAR2 SZ I        1153 58.04        14.8 0.26            170           22.2 183 
 PAM  SZ EP       1153 44.98                             149    0.2110 79.8  41 
 PAM  SN ES       1154  2.12                             149    0.2110 79.8  41 
 PAM  SZ I        1154  4.03         5.3 0.58            152           79.8  41 
 RUS  HZ EP       1153 45.96                             143   -0.1810 99.9 174 
 RUS  HN ES   1   1154  4.55                             143    0.20 7 99.9 174 
 RUS  HZ I        1154  5.51         3.3 0.26            144           99.9 174 
 PTB  HZ EP       1153 49.09                             132   -0.11 9  145 259 
 PTB  HN ES       1154  9.56                             132   -0.25 9  145 259 
 PTB  HZ I        1154 11.70         4.7 0.16            132            145 259 
 OCA  HE ES       1154 12.31                             129   -0.47 9  161 354 
 SPBC HN ES       1154 12.76                             129    0.14 9  161 218 
 ZAR  HN ES       1154 20.33                             122    0.61 9  202 293 
 ZAR  HZ I        1154 22.58         3.7 0.26            122            202 293 
 NOR  HN ES   2   1154 24.99                             118   -0.50 4  232 234 
 NOR  HZ I        1154 30.99         2.0 0.18            118            232 234 
                                                                                
