 2010  425 1343 12.6 L   6.758 -72.997144.4  RSN 12 0.6 2.4LRSN                1
 GAP=151        1.29       6.7     8.7  9.5 -0.3985E+02 -0.2942E+02  0.2204E+02E
 Epicentro: CEPITA - SANTANDER                                                 3
 ACTION:UP  10-08-24 10:01 OP:vdl  STATUS:               ID:20100425134319 L   I
 2010-04-25-1339-19S.COL___104                                                 6
 STAT SP IPHASW D HRMM SECON CODA AMPLIT PERI AZIMU VELO AIN AR TRES W  DIS CAZ7
 BAR2 SZ EP       1343 31.98                             169    -0.210   28 228 
 BAR2 SZ ES   1   1343 47.18                             169    -0.2 7   28 228 
 BRR  HZ IP     C 1343 34.30                             147    -0.310   88 296 
 BRR  HZ I        1343 34.65        75.9 0.29                            88 296 
 BRR  HN ES       1343 51.58                             147    -0.210   88 296 
 BRI  SZ EP       1343 37.44                             141     1.110  108  12 
 GUE  SZ EP       1343 36.96                             139    -0.410  119   4 
 GRA  SZ EP       1343 38.74                             136     1.010  126  10 
 GRA  SZ ES   2   1343 57.06                             136    -0.3 5  126  10 
 OCA  SZ EP       1343 40.72                             128    -0.7 9  168 348 
 OCA  SZ ES   2   1344  3.59                             128    -0.4 5  168 348 
 OCA  SZ I        1344  9.45        53.7 0.65                           168 348 
 CHI  HZ EP   2   1343 49.58                             117    -0.7 4  249 199 
 CHI  HN ES   2   1344 20.16                             117     0.5 4  249 199 
 HEL  HE ES   2   1344 27.84                             113     0.9 4  287 258 
 HEL  HZ I        1344 30.47         7.4 0.35                           287 258 
 RREF BZ EP       1343 59.57                             110    -0.2 7  332 232 
 RREF BN ES       1344 36.84                             110     0.3 7  332 232 
 RREF BZ I        1344 40.45        10.0 0.43                           332 232 
 SDV  BZ EP       1344  1.26                             108    -0.2 6  351  48 
 SDV  BZ I        1344  2.49         4.8 0.75                           351  48 
 SDV  BN ES   1   1344 39.11                             108    -0.5 5  351  48 
 TOL  SZ EP   1   1344  1.72                             108     0.0 5  352 227 
 PRA  HZ EP   2   1344  5.49                             106    -1.1 3  396 212 
 PRA  HN ES       1344 48.90                             106     0.2 6  396 212 
 PRA  HZ I        1344 53.30         8.8 0.34                           396 212 
                                                                                
