 2012  625 1353 12.7 L   6.794 -73.140143.3  RSN 10 0.5 2.6LRSN                1
 GAP=138        1.01       4.5     5.0  6.9 -0.3827E+01  0.9995E+01  0.1966E+00E
 Epicentro: LOS SANTOS - SANTANDER                                             3
 ACTION:UPD 12-08-06 17:52 OP:ep   STATUS:               ID:20120625135312 L   I
 2012-06-25-1350-00M.COL___199                                                 6
 STAT SP IPHASW D HRMM SECON CODA AMPLIT PERI AZIMU VELO AIN AR TRES W  DIS CAZ7
 BAR2 SZ IP     C 1353 32.18                             171    0.1710 22.8 192 
 BAR2 SZ ES   1   1353 46.53                             171   -0.55 7 22.8 192 
 BAR2 SZ I        1353 48.10        94.2 0.36                          22.8 192 
 BRR  HZ IP     D 1353 33.98                             152    0.3610 72.1 299 
 BRR  HZ I        1353 34.20       145.5 0.32                          72.1 299 
 BRR  HN ES   1   1353 50.91                             152    0.96 7 72.1 299 
 PAM  SZ EP       1353 34.98                             150    0.3410 77.5  39 
 PAM  SZ I        1353 35.11        35.0 0.24                          77.5  39 
 PAM  SN ES   1   1353 51.93                             150    0.16 7 77.5  39 
 RUS  HZ EP       1353 36.15                             143    0.0110 99.9 176 
 RUS  HN ES   1   1353 54.14                             143   -0.30 7 99.9 176 
 RUS  HZ I        1353 55.76        38.5 0.24                          99.9 176 
 PTB  HZ EP       1353 38.72                             131   -0.78 9  148 259 
 PTB  HN ES   1   1353 59.76                             131   -0.66 7  148 259 
 PTB  HZ I        1354  2.24        23.6 0.24                           148 259 
 OCA  HZ EP       1353 40.34                             129   -0.54 9  161 353 
 OCA  HE ES   2   1354  2.09                             129   -0.77 5  161 353 
 OCA  HZ I        1354  6.27        65.8 0.30                           161 353 
 ZAR  HZ EP       1353 44.98                             122   -0.08 9  205 292 
 ZAR  HN ES   2   1354 10.48                             122    0.16 4  205 292 
 ZAR  HZ I        1354 15.85        44.7 0.42                           205 292 
 NOR  SE ES   2   1354 16.83                             118    0.77 4  235 235 
 HEL  HZ EP   1   1353 53.40                             114    0.57 6  273 256 
 HEL  HN ES   1   1354 24.57                             114    0.43 6  273 256 
 HEL  HZ I        1354 30.55        12.8 0.38                           273 256 
 PRA  HZ EP       1354  6.75                             106    0.66 6  392 210 
 PRA  HE ES   1   1354 47.48                             106   -0.27 4  392 210 
 PRA  HZ I        1354 55.06        21.2 0.24                           392 210 
                                                                                
