 2012 1025 1453 44.7 L   6.740 -73.080146.5  RSN  4 0.1 1.8LRSN                1
 GAP=148        0.34       3.1     5.4  6.6  0.7308E+01 -0.2209E+02 -0.8870E+01E
 Epicentro: JORDAN - SANTANDER                                                 3
 ACTION:UPD 12-11-22 17:05 OP:ep   STATUS:               ID:20121025145345 L   I
 2012-10-25-1450-00M.COL___234                                                 6
 STAT SP IPHASW D HRMM SECON CODA AMPLIT PERI AZIMU VELO AIN AR TRES W  DIS CAZ7
 BAR2 SZ EP       1454  4.20                             172   -0.1510 19.9 215 
 BAR2 SZ I        1454  4.43        10.5 0.24                          19.9 215 
 PAM  SZ EP       1454  7.10                             151    0.0510 78.4  32 
 BRR  HZ EP   1   1454  6.51                             150    0.02 7 80.8 300 
 BRR  HZ I        1454  9.58        14.3 0.49                          80.8 300 
 BRR  HE ES   1   1454 23.52                             150    0.03 7 80.8 300 
 RUS  HZ EP   1   1454  8.15                             146    0.11 7 93.8 180 
 RUS  HN ES   1   1454 26.27                             146    0.02 7 93.8 180 
                                                                                
