 2014  725 1338 23.9 L   6.788 -73.137146.0  RSN 10 0.5 2.1LRSN                1
 GAP=138        1.16       4.2     4.9  7.4 -0.1719E+01  0.7889E+01  0.5413E+00E
 Epicentro: LOS SANTOS - SANTANDER                                             3
 ACTION:UPD 15-03-16 20:47 OP:nd   STATUS:               ID:20140725133823 L   I
 OLDACT:DUP 14-07-25 22:39 OP:fm   STATUS:               ID:20140725132818d    3
 OLDACT:REG 14-07-25 21:01 OP:fm   STATUS:               ID:20140725132817     3
 2014-07-25-1328-17M.COL___272                                                 6
 STAT SP IPHASW D HRMM SECON CODA AMPLIT PERI AZIMU VELO AIN AR TRES W  DIS CAZ7
 BAR2 SZ EP     D 1338 43.82                             171    0.2510 22.3 193 
 BAR2 SZ ES   1   1338 58.73                             171   -0.15 7 22.3 193 
 BAR2 SZ I        1338 59.94        30.1 0.12            170           22.3 193 
 BRR  HZ EP       1338 45.60                             152    0.4110 72.6 299 
 BRR  HN ES       1339  2.60                             152    0.8310 72.6 299 
 BRR  HZ I        1339  5.85        33.4 0.30            150           72.6 299 
 PAM  SZ EP       1338 46.67                             151    0.4710 77.8  38 
 PAM  SN ES       1339  2.97                             151   -0.5910 77.8  38 
 PAM  SZ I        1339  5.78        28.6 0.52            154           77.8  38 
 RUS  HZ EP       1338 47.84                             144    0.2310 99.2 177 
 RUS  HN ES   1   1339  5.70                             144   -0.38 7 99.2 177 
 RUS  HZ I        1339  7.47        14.4 0.32            146           99.2 177 
 PTB  HZ EP       1338 50.71                             132   -0.27 9  148 259 
 PTB  HE ES       1339 11.56                             132   -0.52 9  148 259 
 PTB  HZ I        1339 13.91        16.1 0.12            131            148 259 
 SPBC HZ EP   1   1338 52.85                             129    0.44 7  163 220 
 SPBC HN ES   1   1339 14.19                             129   -0.43 7  163 220 
 SPBC HZ I        1339 18.20        10.7 0.22            130            163 220 
 ZAR  HZ EP   1   1338 56.89                             122    0.35 6  205 292 
 ZAR  HE ES       1339 22.37                             122    0.41 8  205 292 
 ZAR  HZ I        1339 28.42        21.1 0.32            122            205 292 
 NOR  HZ EP   1   1338 58.98                             118   -0.70 6  235 235 
 NOR  HN ES   1   1339 27.56                             118   -0.00 6  235 235 
 NOR  HZ I        1339 33.88         7.4 0.18            119            235 235 
 SML  HZ EP       1339  0.43                             117   -0.31 8  245 335 
 SML  HN ES   1   1339 27.89                             117   -1.56 6  245 335 
 SML  HZ I        1339 33.79        14.9 0.10            118            245 335 
 CHI  HN ES   1   1339 30.69                             117   -0.18 6  248 195 
 CHI  HZ I        1339 34.74         4.5 0.52            118            248 195 
                                                                                
