 2017  625 1611 41.8 L   6.161 -73.771103.9  RSN  6 0.4 1.5LRSN                1
 GAP=157        0.89       3.4     4.2  7.4 -0.8000E+01  0.1440E+02 -0.6443E+01E
 Epicentro: LANDAZURI - SANTANDER                                              3
 ACTION:UPD 17-09-14 16:55 OP:jn   STATUS:               ID:20170625161141 L   I
 OLDACT:REG 17-06-25 20:26 OP:lv   STATUS:               ID:20170625160741     3
 2017-06-25-1608-00M.COL___355                                                 6
 STAT SP IPHASW D HRMM SECON CODA AMPLIT PERI AZIMU VELO AIN AR TRES W  DIS CAZ7
 SPBC HZ EP       1611 58.56                             145    0.1910 65.4 211 
 SPBC HN ES       1612 11.46                             145    0.1910 65.4 211 
 SPBC HZ I        1612 12.99         6.4 0.09            148           65.4 211 
 BAR2 EZ EP       1611 59.79                             139    0.0610 80.7  54 
 BAR2 EZ ES       1612 13.75                             139    0.0710 80.7  54 
 BAR2 EZ I        1612 14.97        10.8 0.17            143           80.7  54 
 BRR  HZ EP       1612  1.16                             131   -0.3210  105   4 
 BRR  HN ES       1612 16.54                             131   -0.2610  105   4 
 NOR  HZ EP       1612  4.47                             122   -0.38 9  138 242 
 NOR  HN ES       1612 22.67                             122   -0.13 9  138 242 
 NOR  HZ I        1612 24.48         5.6 0.10            125            138 242 
 ZAR  HZ EP       1612 10.25                             113   -0.12 9  190 321 
 ZAR  HE ES       1612 33.20                             113    0.57 9  190 321 
 ZAR  HZ I        1612 36.67         6.4 0.29            115            190 321 
 GUY2CHZ EP       1612 13.39                             112    0.77 9  205 240 
 GUY2CHN ES       1612 36.12                             112   -0.52 9  205 240 
 GUY2CHZ I        1612 42.63         1.9 0.34                           205 240 
                                                                                
