 2010  525 1904 28.4 L   6.801 -73.028150.3  RSN  9 0.5 2.7LRSN                1
 GAP=149        1.19       5.7     8.8  9.3 -0.2825E+02  0.8195E+01  0.5681E+01E
 Epicentro: CEPITA - SANTANDER                                                 3
 ACTION:UP  10-08-24 10:06 OP:vdl  STATUS:               ID:20100525190428 L   I
 2010-05-25-1859-46S.COL___108                                                 6
 STAT SP IPHASW D HRMM SECON CODA AMPLIT PERI AZIMU VELO SNR AR TRES W  DIS CAZ7
 BAR2 SZ IP       19 4 48.53                             169    -0.210   29 217 
 BAR2 SZ ES   1   19 5  4.74                             169     0.2 7   29 217 
 GUE  SZ EP   1   19 4 54.64                             141     1.2 7  114   6 
 GRA  SZ EP       19 4 53.34                             139    -0.510  122  12 
 GRA  SZ ES   1   19 5 12.94                             139    -0.7 7  122  12 
 OCA  SZ EP       19 4 57.83                             130     0.5 9  162 349 
 OCA  SZ ES   1   19 5 19.83                             130     0.0 7  162 349 
 OCA  SZ I        19 5 26.71        42.8 0.14                           162 349 
 CHI  HZ EP       19 5  6.24                             118    -0.6 8  252 198 
 CHI  HN ES   1   19 5 37.32                             118     0.6 6  252 198 
 CHI  HZ I        19 5 44.32        22.7 0.80                           252 198 
 HEL  HZ EP       19 5  9.84                             115    -0.5 7  285 256 
 HEL  HN ES   2   19 5 43.51                             115     0.6 4  285 256 
 HEL  HZ I        19 5 46.83        25.4 0.74                           285 256 
 RREF BZ EP       19 5 16.39                             111     0.5 7  332 231 
 RREF BN ES   1   19 5 52.99                             111     0.0 5  332 231 
 RREF BZ I        19 6  0.27        35.1 0.09                           332 231 
 SDV  BZ EP       19 5 17.83                             110     0.3 6  350  49 
 SDV  BZ I        19 5 18.85        11.6 0.61                           350  49 
 SDV  BN ES   2   19 5 55.56                             110    -0.2 3  350  49 
 DBB  SZ EP   1   19 5 16.76                             109    -0.8 5  352 274 
                                                                                
