 2012 1025 1014 30.7 L   6.864 -73.161126.7  RSN  4 0.4 1.4LRSN                1
 GAP=131        0.82       5.2     6.7 12.4  0.8075E+01  0.5052E+02  0.6310E+01E
 Epicentro: LOS SANTOS - SANTANDER                                             3
 ACTION:UPD 12-11-22 17:05 OP:ep   STATUS:               ID:20121025101427 L   I
 2012-10-25-1010-00M.COL___234                                                 6
 STAT SP IPHASW D HRMM SECON CODA AMPLIT PERI AZIMU VELO AIN AR TRES W  DIS CAZ7
 BRR  HZ EP   1   1014 49.37                             150   -0.21 8 66.6 294 
 BRR  HZ I        1015  6.93         9.3 0.55                          66.6 294 
 PAM  SZ EP   1   1014 50.03                             148   -0.67 8 73.2  44 
 PAM  SZ I        1014 50.44         3.3 0.37                          73.2  44 
 PAM  SE ES   1   1015  6.67                             148    0.40 8 73.2  44 
 RUS  HZ EP       1014 53.69                             137    0.4310  108 175 
 RUS  HN ES   1   1015 10.40                             137   -0.41 7  108 175 
 ZAR  HZ EP       1015  1.65                             118    0.07 9  200 290 
 ZAR  HN ES   1   1015 25.69                             118    0.06 7  200 290 
                                                                                
