 2011  525 1928 29.8 L   6.737 -73.044138.0  RSN  6 0.4 1.9LRSN                1
 GAP=194        0.81       8.7    10.6  9.4 -0.7405E+02 -0.2459E+00  0.1643E+02E
 Epicentro: ARATOCA - SANTANDER                                                3
 ACTION:UP  11-06-29 08:56 OP:tino STATUS:               ID:20110525192829 L   I
 2011-05-25-1920-00M.COL___142                                                 6
 STAT SP IPHASW D HRMM SECON CODA AMPLIT PERI AZIMU VELO SNR AR TRES W  DIS CAZ7
 BAR2 SZ EP   2   1928 48.95                             170     0.4 5   22 224 
 BAR2 SZ ES   2   1929  3.11                             170     0.0 5   22 224 
 BAR2 SZ I        1929  6.47        23.0 0.25                            22 224 
 BTL  SZ EP   1   1928 49.28                             166     0.5 8   32 309 
 PAM  SZ EP   2   1928 51.68                             150     0.5 5   77  30 
 PAM  SN ES   2   1929  6.64                             150    -1.2 5   77  30 
 BRR  HZ EP   1   1928 50.74                             147    -0.3 8   84 299 
 BRR  HZ I        1929  6.77        28.3 0.44                            84 299 
 BRR  HE ES   2   1929  7.77                             147     0.3 5   84 299 
 GRA  SZ EP       1928 54.68                             134    -0.110  130  12 
 GRA  SZ ES       1929 14.23                             134     0.110  130  12 
 GRA  SZ I        1929 15.71         6.9 0.49                           130  12 
 NOR  SZ EP   1   1929  5.33                             116    -0.4 6  240 237 
 NOR  SN ES   1   1929 33.63                             116    -0.1 6  240 237 
                                                                                
