 2012 1025 1144 35.6 L   6.740 -73.111150.7  RSN  4 0.1 1.5LRSN                1
 GAP=144        0.44       3.6     6.0  5.3  0.9827E+01 -0.1335E+02 -0.9342E+01E
 Epicentro: JORDAN - SANTANDER                                                 3
 ACTION:UPD 12-11-22 17:05 OP:ep   STATUS:               ID:20121025114435 L   I
 2012-10-25-1140-00M.COL___234                                                 6
 STAT SP IPHASW D HRMM SECON CODA AMPLIT PERI AZIMU VELO AIN AR TRES W  DIS CAZ7
 BAR2 SZ EP       1144 55.51                             173   -0.2610 18.1 206 
 BAR2 SZ ES   1   1145 11.30                             173   -0.17 7 18.1 206 
 BAR2 SZ I        1145 13.02         6.1 0.20                          18.1 206 
 BRR  HZ EP       1144 57.76                             151    0.0710 77.8 301 
 BRR  HE ES   1   1145 14.98                             151    0.08 7 77.8 301 
 BRR  HZ I        1145 24.98        11.2 0.52                          77.8 301 
 PAM  SZ EP       1144 58.67                             151    0.1210 80.4  34 
 PAM  SZ I        1145 17.71         3.8 0.43                          80.4  34 
 RUS  HZ EP   1   1144 59.37                             147   -0.03 7 93.8 178 
 RUS  HN ES       1145 18.09                             147    0.1410 93.8 178 
 RUS  HN I        1145 19.70         4.5 0.30                          93.8 178 
                                                                                
