 2010  125 1403 25.0 L   6.840 -72.934148.3  RSN  7 0.4 1.8LRSN                1
 GAP=236        0.66       6.3     9.9  6.9 -0.7343E+01  0.1051E+02  0.4902E+01E
 Epicentro: CEPITA - SANTANDER                                                 3
 ACTION:UP  10-08-24 09:45 OP:vdl  STATUS:               ID:20100125140325 L   I
 2010-01-25-1357-58S.COL___095                                                 6
 STAT SP IPHASW D HRMM SECON CODA AMPLIT PERI AZIMU VELO SNR AR TRES W  DIS CAZ7
 GIR2 SZ EP   2   14 3 46.19                             164     0.9 5   39 313 
 BAR2 SZ IP       14 3 45.30                             164    -0.110   39 225 
 BAR2 SZ ES   1   14 4  1.03                             164    -0.2 7   39 225 
 RUS  BZ EP       14 3 49.43                             143     0.010  106 189 
 RUS  BZ I        14 3 50.60         7.9 0.17                           106 189 
 RUS  BN ES   1   14 4  8.39                             143    -0.1 7  106 189 
 CHI  HZ EP   1   14 4  3.75                             116    -0.4 6  260 200 
 CHI  HN ES   1   14 4 35.22                             116     0.6 6  260 200 
 CHI  HZ I        14 4 43.57         4.4 1.30                           260 200 
 HEL  HN ES   2   14 4 41.47                             113    -0.1 4  296 256 
 TOL  SZ EP   2   14 4 15.60                             108    -0.1 3  363 227 
 PRA  HZ EP   2   14 4 19.94                             106    -0.6 3  408 212 
                                                                                
