 2013  325 1044  1.4 L   6.719 -73.184155.7  RSN  4 0.2 1.6LRSN                1
 GAP=227        0.46       3.8     3.9  4.1  0.9985E+01 -0.8960E+00 -0.2863E+01E
 Epicentro: VILLANUEVA - SANTANDER                                             3
 ACTION:UPD 13-04-09 14:04 OP:ep   STATUS:               ID:20130325104401 L   I
 2013-03-25-1040-00M.COL___244                                                 6
 STAT SP IPHASW D HRMM SECON CODA AMPLIT PERI AZIMU VELO AIN AR TRES W  DIS CAZ7
 BRR  HZ EP       1044 23.62                             154   -0.0310 72.4 306 
 BRR  HN ES       1044 41.03                             154   -0.0110 72.4 306 
 BRR  HN I        1044 41.26        10.3 0.30            149           72.4 306 
 RUS  HZ EP       1044 25.82                             148    0.3010 92.0 173 
 RUS  HN ES       1044 44.23                             148   -0.1510 92.0 173 
 RUS  HN I        1044 46.64         2.7 0.60            145           92.0 173 
 PTB  HZ EP       1044 28.49                             135   -0.17 9  142 262 
 PTB  HN ES       1044 50.01                             135    0.06 9  142 262 
 PTB  HN I        1044 54.44         4.9 0.60            131            142 262 
 ZAR  HZ EP       1044 34.27                             124   -0.16 9  204 295 
 ZAR  HE ES       1045  0.39                             124    0.15 9  204 295 
 ZAR  HE I        1045  9.89         6.8 0.38            122            204 295 
                                                                                
