 2012  225 1114 16.9 L   6.206 -74.054 80.4  RSN  5 0.3 1.5LRSN                1
 GAP=166        0.57       5.1     4.0 10.2 -0.1313E+02 -0.1301E+02  0.2269E+02E
 ACTION:UP  12-03-07 16:34 OP:epov STATUS:               ID:20120225111416 L   I
 2012-02-25-1110-00M.COL___192                                                 6
 STAT SP IPHASW D HRMM SECON CODA AMPLIT PERI AZIMU VELO AIN AR TRES W  DIS CAZ7
 PTB  HZ EP   2   1114 29.90                             141   -0.60 5 57.8 310 
 PTB  HN ES   2   1114 40.85                             141   -0.22 5 57.8 310 
 BAR2 SZ EP   1   1114 35.47                             122    0.25 7  105  66 
 BAR2 SZ ES   1   1114 49.18                             122   -0.28 7  105  66 
 BAR2 SZ I        1114 51.44         4.7 0.23                           105  66 
 BRR  HZ EP   1   1114 34.79                             122   -0.23 7  107  21 
 BRR  HZ I        1114 35.11        17.7 0.10                           107  21 
 BRR  HN ES   1   1114 49.58                             122    0.46 7  107  21 
 NOR  SZ EP   1   1114 36.02                             120    0.04 7  115 232 
 NOR  SN ES   2   1114 51.17                             120    0.35 5  115 232 
 GIR2 SZ EP   2   1114 38.29                             115   -0.05 5  136  45 
                                                                                
