 2011  125 1114 30.6 L   7.212 -73.156146.7  RSN  5 0.4 1.7LRSN                1
 GAP=155        0.90      14.8    36.2 10.4 -0.4650E+03 -0.1230E+03  0.5323E+02E
 Epicentro: RIONEGRO - SANTANDER                                               3
 ACTION:UP  11-02-08 08:42 OP:pat  STATUS:               ID:20110125111430 L   I
 2011-01-25-1100-00M.COL___140                                                 6
 STAT SP IPHASW D HRMM SECON CODA AMPLIT PERI AZIMU VELO SNR AR TRES W  DIS CAZ7
 GIR2 SZ EP       1114 50.27                             173     0.210   15 196 
 GIR2 SZ ES   1   1115  4.51                             173    -0.7 7   15 196 
 BTL  SZ IP       1114 50.94                             166     0.310   35 201 
 BTL  SZ ES   2   1115  7.08                             166     0.8 5   35 201 
 BAR2 SZ EP       1114 51.77                             154    -0.310   69 183 
 BAR2 SZ I        1115 12.69         7.9 0.31                            69 183 
 GRA  SZ EP       1114 52.79                             148    -0.110   84  28 
 GRA  SZ ES   1   1115 10.33                             148     0.1 7   84  28 
 GRA  SZ I        1115 11.24        13.4 0.24                            84  28 
 OCA  SZ ES   3   1115 13.73                             138    -0.4 2  115 351 
                                                                                
