 2017  125 1159 59.3 L   6.748 -73.127149.1  RSN  5 0.2 1.6LRSN                1
 GAP=235        0.64       5.0     4.7  4.7  0.1446E+02  0.2313E+01 -0.2578E+01E
 Epicentro: LOS SANTOS - SANTANDER                                             3
 ACTION:UPD 17-05-22 16:03 OP:jn   STATUS:               ID:20170125115959 L   I
 OLDACT:DUP 17-01-25 22:13 OP:dnl  STATUS:               ID:20170125115748d    3
 2017-01-25-1158-00M.COL___343                                                 6
 STAT SP IPHASW D HRMM SECON CODA AMPLIT PERI AZIMU VELO AIN AR TRES W  DIS CAZ7
 BAR2 EZ IP     C 12 0 19.26                             173    0.0310 18.3 199 
 BAR2 EZ ES       12 0 34.64                             173   -0.1410 18.3 199 
 BAR2 EZ I        12 0 35.03         9.0 0.16            170           18.3 199 
 BRR  HZ IP     C 12 0 21.19                             152    0.1310 75.8 302 
 BRR  HN ES       12 0 37.97                             152   -0.0710 75.8 302 
 BRR  HZ I        12 0 39.19         7.6 0.14            151           75.8 302 
 RUS  HZ EP       12 0 23.26                             146    0.3010 94.7 177 
 RUS  HN ES       12 0 41.45                             146    0.0210 94.7 177 
 RUS  HZ I        12 0 43.81         3.3 0.32            146           94.7 177 
 PTB  HZ EP       12 0 26.00                             133   -0.62 9  149 261 
 PTB  HE ES       12 0 48.06                             133    0.12 9  149 261 
 PTB  HZ I        12 0 49.22         7.9 0.18            132            149 261 
 ZAR  HZ EP       12 0 32.35                             122   -0.02 8  208 293 
 ZAR  HN ES       12 0 58.43                             122    0.25 8  208 293 
 ZAR  HZ I        12 1  1.60         4.1 0.24            123            208 293 
                                                                                
