 2013  825 1953 13.2 L   6.800 -73.128152.5  RSN  6 0.5 1.8LRSN                1
 GAP=202        1.13       4.8     7.4  9.0  0.1271E+02 -0.9971E+01 -0.1328E+02E
 Epicentro: LOS SANTOS - SANTANDER                                             3
 ACTION:UPD 14-01-14 09:06 OP:ep   STATUS:               ID:20130825195313 L   I
 OLDACT:REG 13-08-25 15:14 OP:nd   STATUS:               ID:20130825194959     3
 2013-08-25-1949-59M.COL___271                                                 6
 STAT SP IPHASW D HRMM SECON CODA AMPLIT PERI AZIMU VELO AIN AR TRES W  DIS CAZ7
 BRR  HZ EP       1953 35.78                             153    0.5810 72.9 298 
 BRR  HN ES       1953 52.65                             153    0.3110 72.9 298 
 BRR  HZ I        1953 55.70         8.2 0.16            149           72.9 298 
 RUS  HZ EP       1953 38.17                             145    0.5310  100 177 
 RUS  HN ES       1953 56.21                             145   -0.4610  100 177 
 RUS  HZ I        1953 57.50         4.7 0.26            145            100 177 
 PTB  HZ EP       1953 40.55                             133   -0.37 9  150 259 
 PTB  HN ES       1954  2.01                             133   -0.51 9  150 259 
 PTB  HZ I        1954  3.99         6.2 0.16            131            150 259 
 SPBC HZ EP       1953 42.58                             130    0.22 9  164 220 
 SPBC HN ES       1954  4.94                             130   -0.15 9  164 220 
 SPBC HZ I        1954 19.03         7.1 0.20            129            164 220 
 ZAR  HZ EP       1953 46.06                             124   -0.25 8  206 292 
 ZAR  HN ES       1954 12.87                             124    0.77 8  206 292 
 ZAR  HZ I        1954 18.79         6.7 0.30            123            206 292 
 SML  HZ EP       1953 49.94                             119   -0.39 8  245 335 
 SML  HN ES       1954 18.66                             119   -0.61 8  245 335 
 SML  HZ I        1954 25.90         8.0 0.09            119            245 335 
                                                                                
