 2016  925 1240 13.9 L   6.753 -73.174153.9  RSN  4 0.1 1.1LRSN                1
 GAP=231        0.31       5.8     7.4  3.9  0.3302E+02 -0.5558E+01 -0.2300E+01E
 Epicentro: LOS SANTOS - SANTANDER                                             3
 ACTION:UPD 17-08-17 21:16 OP:lp   STATUS:               ID:20160925124013 L   I
 OLDACT:UP  16-09-25 23:14 OP:and  STATUS:               ID:20160925123744     3
 OLDACT:REG 16-09-25 20:31 OP:y    STATUS:               ID:20160925123744     3
 2016-09-25-1238-00M.COL___327                                                 6
 STAT SP IPHASW D HRMM SECON CODA AMPLIT PERI AZIMU VELO AIN AR TRES W  DIS CAZ7
 BAR2 EZ EP       1240 34.40                             173   -0.0210 17.8 183 
 BAR2 EZ ES   2   1240 50.28                             173   -0.14 5 17.8 183 
 BRR  HZ EP       1240 35.97                             154    0.0410 71.1 303 
 BRR  HE ES       1240 53.13                             154    0.0110 71.1 303 
 RUS  HN ES   2   1240 57.14                             147    0.11 5 95.7 174 
 RUS  HZ I        1240 58.40         2.2 0.27            145           95.7 174 
 PTB  HZ EP   2   1240 41.08                             135   -0.11 5  144 261 
                                                                                
