 2013  825 1724  8.0 L   6.804 -73.209149.1  RSN  5 0.5 1.8LRSN                1
 GAP=195        1.20       6.3     9.7 11.1  0.2739E+02 -0.2488E+02 -0.2619E+02E
 Epicentro: ZAPATOCA - SANTANDER                                               3
 ACTION:UPD 14-01-14 09:06 OP:ep   STATUS:               ID:20130825172408 L   I
 OLDACT:REG 13-08-25 14:59 OP:nd   STATUS:               ID:20130825171959     3
 2013-08-25-1719-59M.COL___270                                                 6
 STAT SP IPHASW D HRMM SECON CODA AMPLIT PERI AZIMU VELO AIN AR TRES W  DIS CAZ7
 BRR  HZ EP       1724 29.61                             155    0.4110 64.9 301 
 BRR  HZ I        1724 43.14        10.6 0.46            151           64.9 301 
 BRR  HN ES       1724 46.27                             155    0.5510 64.9 301 
 RUS  HZ EP       1724 32.21                             144    0.0110  102 172 
 RUS  HN ES       1724 50.64                             144   -0.4010  102 172 
 RUS  HZ I        1724 52.16         3.3 0.54            146            102 172 
 PTB  HZ EP       1724 34.56                             134   -0.11 9  141 258 
 PTB  HN ES       1724 55.26                             134   -0.19 9  141 258 
 PTB  HZ I        1724 58.09         7.0 0.20            133            141 258 
 ZAR  HZ EP   4   1724 44.16                             124    4.14 0  197 293 
 ZAR  HN ES   4   1725  5.58                             124    0.62 0  197 293 
 ZAR  HZ I        1725 11.24         6.8 0.58            122            197 293 
 SML  HZ EP       1724 45.10                             119    0.60 8  240 337 
 SML  HN ES       1725 11.84                             119   -1.09 8  240 337 
 SML  HZ I        1725 20.05         9.5 0.10            116            240 337 
                                                                                
