 2016  225 1612 38.5 L   6.808 -73.156141.1  RSN  7 0.4 1.7LRSN                1
 GAP=142        0.99       5.5     5.3  6.8 -0.1447E+02  0.1400E+02 -0.1949E+01E
 Epicentro: LOS SANTOS - SANTANDER                                             3
 ACTION:UPD 16-03-04 21:29 OP:rebc STATUS:               ID:20160225161238 L   I
 OLDACT:REG 16-02-25 20:57 OP:drio STATUS:               ID:20160225160749     3
 2016-02-25-1607-49M.COL___308                                                 6
 STAT SP IPHASW D HRMM SECON CODA AMPLIT PERI AZIMU VELO AIN AR TRES W  DIS CAZ7
 BAR2 EZ EP       1612 57.59                             170   -0.0210 24.0 187 
 BAR2 EZ ES       1613 12.69                             170    0.2010 24.0 187 
 BAR2 EZ I        1613 14.20        13.0 0.18            168           24.0 187 
 PAM  EZ EP       1613  0.39                             150    0.1410 77.5  41 
 PAM  EN ES       1613 17.40                             150    0.2010 77.5  41 
 PAM  EZ I        1613 18.62         4.7 0.16            155           77.5  41 
 RUS  HZ EP       1613  1.56                             143   -0.3310  102 175 
 RUS  HE ES       1613 19.86                             143   -0.2510  102 175 
 RUS  HZ I        1613 21.90         5.1 0.48            143            102 175 
 PTB  HZ EP       1613  4.40                             131   -0.62 9  147 258 
 PTB  HN ES       1613 25.25                             131   -0.44 9  147 258 
 PTB  HZ I        1613 27.25         5.8 0.40            132            147 258 
 SPBC HZ EP       1613  6.81                             128    0.15 9  163 218 
 SPBC HN ES       1613 28.64                             128    0.03 9  163 218 
 SPBC HZ I        1613 34.91         7.3 0.22            129            163 218 
 NOR  HZ EP       1613 13.67                             117   -0.27 8  234 234 
 NOR  HE ES       1613 42.44                             117    0.88 8  234 234 
 NOR  HZ I        1613 47.50         3.9 0.16            119            234 234 
 GUY2CHZ EP       1613 22.72                             111    0.85 7  301 235 
 GUY2CHN ES   4   1613 57.58                             111    1.91 0  301 235 
 GUY2CHZ I        1614  3.72         3.1 0.30                           301 235 
                                                                                
