 2015  825 1339 58.4 L   6.808 -73.144147.2  RSN 19 0.4 2.4LRSN                1
 GAP= 71        0.91       2.5     2.7  4.6 -0.5466E+00  0.4220E+01  0.9705E+00E
 Epicentro: LOS SANTOS - SANTANDER                                             3
 ACTION:UPD 15-09-15 23:05 OP:cam  STATUS:               ID:20150825133958 L   I
 OLDACT:UP  15-08-25 23:47 OP:spq  STATUS:               ID:20150825133748     3
 OLDACT:REG 15-08-25 21:29 OP:spq  STATUS:               ID:20150825133748     3
 2015-08-25-1337-48M.COL___346                                                 6
 STAT SP IPHASW D HRMM SECON CODA AMPLIT PERI AZIMU VELO AIN AR TRES W  DIS CAZ7
 BAR2 EZ EP     D 1340 17.86                             170   -0.3910 24.3 190 
 BAR2 EZ ES   1   1340 33.51                             170   -0.20 7 24.3 190 
 BAR2 EZ I        1340 34.07        50.8 0.24            170           24.3 190 
 BRR  HZ IP     C 1340 19.65                             153   -0.0710 71.0 298 
 BRR  HE ES       1340 37.00                             153    0.6710 71.0 298 
 BRR  HZ I        1340 39.38        34.7 0.28            152           71.0 298 
 PAM  EZ EP       1340 20.91                             151    0.1610 76.5  40 
 PAM  EN ES       1340 38.16                             151    0.0010 76.5  40 
 PAM  EZ I        1340 40.48        21.7 0.34            149           76.5  40 
 RUS  HZ EP       1340 21.92                             144   -0.4710  102 176 
 RUS  HE ES       1340 40.72                             144   -0.3610  102 176 
 RUS  HZ I        1340 41.79        17.2 0.37            142            102 176 
 TAM  HZ EP       1340 26.36                             131    0.14 9  155 105 
 TAM  HZ I        1340 47.04        24.5 0.34            128            155 105 
 TAM  HE ES       1340 48.49                             131    0.59 9  155 105 
 OCA  HZ EP   1   1340 26.46                             130   -0.31 7  159 353 
 OCA  HN ES   1   1340 48.44                             130   -0.43 7  159 353 
 OCA  HZ I        1340 56.09        63.3 0.38            128            159 353 
 SPBC HZ EP       1340 27.02                             129   -0.10 9  164 219 
 SPBC HE ES       1340 49.76                             129    0.26 9  164 219 
 SPBC HZ I        1340 53.89        39.2 0.20            128            164 219 
 ZAR  HZ EP       1340 30.96                             123    0.00 9  204 292 
 ZAR  HE ES       1340 56.00                             123   -0.33 9  204 292 
 ZAR  HZ I        1341  2.27        19.3 0.17            121            204 292 
 NOR  HZ EP       1340 34.07                             119   -0.25 8  235 234 
 NOR  HN ES       1341  1.86                             119   -0.46 8  235 234 
 NOR  HZ I        1341  6.88        10.9 0.18            117            235 234 
 SML  HZ EP       1340 34.40                             118   -0.66 8  243 335 
 SML  HE ES   1   1341  4.09                             118    0.47 6  243 335 
 SML  HZ I        1341  6.86        29.5 0.10            116            243 335 
 CHI  HZ EP   1   1340 36.46                             117    0.15 6  250 195 
 CHI  HN ES       1341  5.66                             117   -0.20 8  250 195 
 CHI  HZ I        1341  7.81        14.4 0.42            116            250 195 
 ROSC BN ES   4   1341  8.26                             117    1.66 0  254 211 
 ROSC BZ I        1341 12.49        29.5 0.40            115            254 211 
 HEL  HZ EP       1340 39.56                             115    0.79 8  273 256 
 HEL  HN ES   1   1341 11.05                             115    0.82 6  273 256 
 HEL  HZ I        1341 16.42        10.8 0.38            113            273 256 
 URE  HZ EP   4   1340 38.26                             114   -1.30 0  284 292 
 GUY2CHZ EP       1340 42.20                             113    0.01 7  302 235 
 GUY2CHE ES   4   1341 19.68                             113    3.36 0  302 235 
 GUY2CHZ I        1341 24.33         9.2 0.58                           302 235 
 PTGC HZ EP   4   1340 41.18                             112   -1.26 0  309 159 
 CBOC HZ EP   1   1340 46.19                             110    0.73 5  334 252 
 CBOC HN ES   1   1341 21.39                             110   -0.76 5  334 252 
 CBOC HZ I        1341 31.37         2.9 0.25            109            334 252 
 DBB  SZ EP       1340 46.16                             110    0.17 7  340 274 
 DBB  SZ ES   4   1341 21.43                             110   -1.65 0  340 274 
 DBB  SZ I        1341 23.56        22.3 0.66            108            340 274 
 TOL  SZ EP       1340 47.13                             109    0.29 7  344 225 
 TOL  SN ES       1341 25.29                             109    0.69 7  344 225 
 TOL  SZ I        1341 29.75         8.7 0.26            108            344 225 
 SJC  HZ EP   4   1340 52.10                             106   -1.86 0  409 327 
 SJC  HE ES   4   1341 32.23                             106   -5.05 0  409 327 
 SJC  HZ I        1341 37.27         3.2 0.46            105            409 327 
 CRJC HZ EP   4   1340 58.41                             104   -2.45 0  467   4 
 CRJC HE ES   4   1341 47.50                             104   -2.05 0  467   4 
 CRJC HZ I        1341 48.85         6.3 0.48            102            467   4 
                                                                                
