 2016  125 1011 53.8 L   6.829 -73.180146.2  RSN 10 0.4 1.4LRSN                1
 GAP=131        0.83       2.4     3.4  4.9 -0.8148E+00  0.5822E+01  0.5184E+00E
 Epicentro: ZAPATOCA - SANTANDER                                               3
 ACTION:UPD 16-03-09 23:28 OP:cam  STATUS:               ID:20160125101153 L   I
 OLDACT:REG 16-01-25 21:41 OP:ak   STATUS:               ID:20160125100747     3
 2016-01-25-1007-47M.COL___328                                                 6
 STAT SP IPHASW D HRMM SECON CODA AMPLIT PERI AZIMU VELO AIN AR TRES W  DIS CAZ7
 BAR2 EZ EP       1012 13.51                             169   -0.0810 26.2 180 
 BAR2 EZ ES       1012 28.90                             169   -0.0910 26.2 180 
 BAR2 EZ I        1012 30.14         4.9 0.30            170           26.2 180 
 PAM  EZ EP       1012 16.56                             151    0.4510 77.5  43 
 PAM  EN ES       1012 33.70                             151    0.2210 77.5  43 
 PAM  EZ I        1012 36.83         2.3 0.48            155           77.5  43 
 RUS  HZ EP       1012 17.99                             143    0.0910  104 174 
 RUS  HN ES       1012 36.34                             143   -0.3210  104 174 
 RUS  HZ I        1012 37.68         1.9 0.28            146            104 174 
 PTB  HZ EP       1012 20.42                             133   -0.15 9  145 257 
 PTB  HN ES       1012 41.10                             133   -0.32 9  145 257 
 PTB  HZ I        1012 48.45         2.4 0.24            133            145 257 
 SPBC HZ EP       1012 22.07                             129   -0.32 9  163 217 
 SPBC HE ES       1012 44.47                             129   -0.19 9  163 217 
 SPBC HZ I        1012 48.86         4.0 0.14            130            163 217 
 ZAR  HZ EP   2   1012 25.45                             123   -0.38 4  199 292 
 ZAR  HN ES       1012 51.40                             123    0.62 9  199 292 
 ZAR  HZ I        1012 56.95         2.3 0.42            124            199 292 
 SML  HZ EP       1012 29.06                             118   -0.94 8  239 336 
 SML  HN ES       1012 58.36                             118    0.15 8  239 336 
 SML  HZ I        1013  2.97         3.3 0.13            119            239 336 
 CHI  HZ EP       1012 32.03                             117    0.23 8  251 194 
 CHI  HN ES       1013  1.86                             117    0.45 8  251 194 
 CHI  HZ I        1013  4.94         1.2 0.66            119            251 194 
 GUY2CHZ EP   1   1012 36.98                             112   -0.35 5  300 234 
 GUY2CHN ES       1013 11.58                             112    0.32 7  300 234 
 GUY2CHZ I        1013 19.80         1.1 0.38                           300 234 
 PRA  HZ EP       1012 47.90                             106    0.41 6  393 209 
 PRA  HE ES       1013 29.53                             106    0.19 6  393 209 
 PRA  HZ I        1013 34.81         1.7 0.30            108            393 209 
                                                                                
