 2012  125 1154 37.7 L   6.794 -73.178140.0  RSN  4 0.1 1.1LRSN                1
 GAP=142        0.32       3.5     6.4  6.9 -0.8218E+01  0.3747E+01 -0.1273E+02E
 Epicentro: LOS SANTOS - SANTANDER                                             3
 ACTION:UP  12-02-03 08:20 OP:REBC STATUS:               ID:20120125115437 L   I
 2012-01-25-1150-00M.COL___187                                                 6
 STAT SP IPHASW D HRMM SECON CODA AMPLIT PERI AZIMU VELO SNR AR TRES W  DIS CAZ7
 BAR2 SZ EP   3   1154 56.27                             171    -0.3 2   22 181 
 BAR2 SZ ES   3   1155 11.39                             171     0.0 2   22 181 
 BAR2 SZ I        1155 12.80         5.3 0.44                            22 181 
 PAM  SZ EP       1154 59.51                             149     0.010   80  41 
 RUS  HZ EP       1155  0.78                             143    -0.110  100 174 
 RUS  HZ I        1155  1.67         1.0 0.48                           100 174 
 RUS  HE ES   1   1155 19.02                             143     0.1 7  100 174 
 PTB  HZ EP   3   1155  4.22                                     0.4 2  144 259 
 PTB  HN ES   3   1155 24.22                             132    -0.1 2  144 259 
                                                                                
