 2012  825 1427 14.0 L   6.298 -73.636112.0  RSN  6 0.3 1.5LRSN                1
 GAP=160        0.58       3.1     3.1  5.9  0.1934E+01  0.3203E+01 -0.2064E+01E
 Epicentro: SANTA HELENA DEL OPON - SANTANDER                                  3
 ACTION:UPD 12-09-10 11:58 OP:ep   STATUS:               ID:20120825142714 L   I
 2012-08-25-1420-00M.COL___218                                                 6
 STAT SP IPHASW D HRMM SECON CODA AMPLIT PERI AZIMU VELO AIN AR TRES W  DIS CAZ7
 BAR2 SZ EP   1   1427 31.38                             150    0.18 7 59.7  57 
 BAR2 SZ ES   1   1427 44.49                             150   -0.13 7 59.7  57 
 BAR2 SZ I        1427 45.99        30.4 0.22                          59.7  57 
 RUS  HZ EP   1   1427 32.67                             144    0.03 7 75.8 126 
 RUS  HZ I        1427 33.26         5.0 0.21                          75.8 126 
 RUS  HE ES       1427 47.34                             144    0.1610 75.8 126 
 BRR  HZ EP   1   1427 32.96                             139   -0.06 7 89.8 355 
 BRR  HZ I        1427 42.39        10.4 0.15                          89.8 355 
 BRR  HN ES       1427 48.06                             139    0.2010 89.8 355 
 PTB  HZ EP   1   1427 33.14                             137   -0.30 7 94.6 286 
 PTB  HE ES   2   1427 47.99                             137   -0.62 5 94.6 286 
 PTB  HZ I        1427 52.64         4.4 0.11                          94.6 286 
 PAM  SZ EP   1   1427 39.60                             122   -0.19 7  155  42 
 PAM  SE ES       1427 59.74                             122   -0.17 9  155  42 
 PAM  SZ I        1428  2.63         2.6 0.32                           155  42 
 ZAR  HE ES   2   1428  6.25                             116    0.96 4  189 314 
                                                                                
