 2010  625 1850  3.1 L   6.760 -73.130139.4  RSN  4 0.3 1.5LRSN                1
 GAP=166        0.52       7.5    12.6  8.5  0.5537E+02 -0.3764E+02 -0.1659E+02E
 Epicentro: LOS SANTOS - SANTANDER                                             3
 ACTION:UP  10-08-24 10:13 OP:vdl  STATUS:               ID:20100625185003 L   I
 2010-06-25-1849-17S.COL___118                                                 6
 STAT SP IPHASW D HRMM SECON CODA AMPLIT PERI AZIMU VELO SNR AR TRES W  DIS CAZ7
 BAR2 SZ EP   3   1850 21.77                             172    -0.1 2   20 198 
 BAR2 SZ ES   2   1850 36.24                             172    -0.3 5   20 198 
 BRR  HZ EP       1850 23.62                             150    -0.210   75 301 
 BRR  HN ES   2   1850 40.46                             150     0.5 5   75 301 
 BRR  HZ I        1850 56.98        15.7 0.37                            75 301 
 RUS  HZ EP   1   1850 26.10                             144     0.2 7   96 177 
 RUS  HZ I        1850 30.58         2.6 0.47                            96 177 
 RUS  HN ES   3   1850 43.83                             144     0.1 2   96 177 
 GUE  SZ EP   2   1850 27.84                             137     0.3 5  121  11 
                                                                                
