 2010  225 1357 31.8 L   5.923 -73.727109.8  RSN 11 0.3 2.0LRSN                1
 GAP= 88        0.77       3.4     5.0  9.8 -0.4835E+01  0.3405E+02  0.1960E+01E
 Epicentro: GUAVATA - SANTANDER                                                3
 ACTION:UP  10-08-24 09:50 OP:vdl  STATUS:               ID:20100225135731 L   I
 2010-02-25-1355-21S.COL___094                                                 6
 STAT SP IPHASW D HRMM SECON CODA AMPLIT PERI AZIMU VELO SNR AR TRES W  DIS CAZ7
 RUS  BZ IP       1357 49.97                             145     0.010   71  93 
 RUS  BN ES   1   1358  4.12                             145     0.1 7   71  93 
 RUS  BZ I        1358  5.88        17.3 0.32                            71  93 
 BAR2 SZ IP       1357 51.52                             136     0.110   95  39 
 BAR2 SZ ES   1   1358  6.88                             136     0.1 7   95  39 
 BRR  HZ EP   2   1357 53.81                             126    -0.6 5  131   1 
 BRR  HN ES   2   1358 11.82                             126    -0.2 5  131   1 
 GIR2 SZ EP       1357 55.59                             124     0.0 9  141  25 
 CHI  HZ EP       1357 55.86                             124    -0.3 9  143 180 
 CHI  HE ES   2   1358 14.87                             124    -0.3 5  143 180 
 CHI  HZ I        1358 22.32        10.1 0.29                           143 180 
 HEL  HZ EP       1358  2.08                             114    -0.3 9  202 279 
 HEL  HN ES   2   1358 26.07                             114    -0.2 4  202 279 
 HEL  HZ I        1358 28.55         8.6 0.47                           202 279 
 RREF BZ EP       1358  4.88                             113     1.0 8  212 238 
 RREF BZ I        1358 33.65        10.2 0.18                           212 238 
 TOL  SZ EP       1358  5.56                             110    -0.1 8  230 230 
 ANIL BZ EP   2   1358  7.61                             109     0.5 4  244 230 
 ANIL BN ES   2   1358 34.60                             109    -0.1 4  244 230 
 ANIL BZ I        1358 44.37        19.1 0.30                           244 230 
 OCA  SZ EP   3   1358  8.98                             107     0.2 2  260  10 
 PRA  HZ EP   1   1358 10.12                             106    -0.4 6  276 208 
 PRA  HN ES   2   1358 40.71                             106     0.0 4  276 208 
 PRA  HZ I        1358 46.38         8.7 0.20                           276 208 
                                                                                
