 2010 1025 1922 24.8 L   6.781 -73.076152.9  RSN  5 0.2 1.4LRSN                1
 GAP=172        0.44       4.1     6.7  5.6  0.1256E+01  0.1036E+01 -0.2342E+01E
 Epicentro: LOS SANTOS - SANTANDER                                             3
 ACTION:UP  11-02-18 11:12 OP:tino STATUS:               ID:20101025192224 L   I
 2010-10-25-1919-51S.COL___125                                                 6
 STAT SP IPHASW D HRMM SECON CODA AMPLIT PERI AZIMU VELO SNR AR TRES W  DIS CAZ7
 BAR2 SZ EP   1   1922 45.16                             171    -0.1 7   24 210 
 BAR2 SZ ES   2   1923  0.74                             171    -0.5 5   24 210 
 BRR  HZ EP   1   1922 47.21                             151     0.1 7   79 297 
 BRR  HN ES   2   1923  4.82                             151     0.3 5   79 297 
 RUS  HZ EP   1   1922 49.13                             146     0.1 7   98 180 
 RUS  HN ES   2   1923  8.33                             146     0.3 5   98 180 
 RUS  HZ I        1923  9.95         3.6 0.51                            98 180 
 GUE  SZ EP   1   1922 50.19                             141     0.0 7  117   8 
 NOR  SZ EP   1   1923  1.26                             119    -0.2 6  240 236 
                                                                                
