 2015 1025 1549 39.5 L   6.832 -73.157139.1  RSN 18 0.4 2.2LRSN                1
 GAP=133        0.93       2.1     3.5  4.5 -0.1509E+01  0.6364E+01  0.8130E+00E
 Epicentro: LOS SANTOS - SANTANDER                                             3
 ACTION:UPD 15-12-22 20:43 OP:cam  STATUS:               ID:20151025154939 L   I
 OLDACT:REG 15-10-25 20:32 OP:drio STATUS:               ID:20151025154750     3
 2015-10-25-1547-50M.COL___310                                                 6
 STAT SP IPHASW D HRMM SECON CODA AMPLIT PERI AZIMU VELO AIN AR TRES W  DIS CAZ7
 BAR2 EZ IP     C 1549 58.42                             169   -0.0210 26.7 186 
 BAR2 EZ ES       1550 13.00                             169   -0.1810 26.7 186 
 BAR2 EZ I        1550 15.49        53.6 0.20            166           26.7 186 
 BRR  HZ IP     C 1550  0.24                             152    0.4410 68.4 296 
 BRR  HN ES       1550 16.02                             152    0.4110 68.4 296 
 PAM  EZ EP       1550  1.19                             150    0.2610 75.5  42 
 PAM  EE ES       1550 18.04                             150    0.4210 75.5  42 
 PAM  EZ I        1550 20.19        38.3 0.42            156           75.5  42 
 RUS  HZ EP       1550  2.46                             141   -0.4510  104 175 
 RUS  HN ES       1550 20.98                             141   -0.1610  104 175 
 RUS  HZ I        1550 22.42        16.7 0.36            143            104 175 
 OCA  HZ EP       1550  7.01                             129    0.03 9  157 353 
 OCA  HE ES       1550 28.12                             129   -0.27 9  157 353 
 OCA  HZ I        1550 29.40        49.2 0.32            130            157 353 
 SPBC HZ EP       1550  7.65                             127   -0.07 9  165 218 
 SPBC HN ES       1550 29.35                             127   -0.36 9  165 218 
 SPBC HZ I        1550 35.77        31.2 0.44            127            165 218 
 ZAR  HZ EP       1550 11.63                             121    0.34 9  202 291 
 ZAR  HE ES       1550 35.87                             121   -0.19 9  202 291 
 ZAR  HZ I        1550 42.41        25.4 0.44            120            202 291 
 NOR  HZ EP     D 1550 14.86                             117   -0.14 8  236 234 
 NOR  HN ES       1550 42.12                             117   -0.54 8  236 234 
 NOR  HZ I        1550 45.55        17.6 0.22            117            236 234 
 SML  HZ EP       1550 14.72                             116   -0.66 8  240 335 
 SML  HN ES       1550 42.69                             116   -0.65 8  240 335 
 SML  HZ I        1550 48.13        16.0 0.26            117            240 335 
 CHI  HZ EP       1550 16.96                             115   -0.25 8  252 195 
 CHI  HN ES       1550 45.89                             115   -0.71 8  252 195 
 CHI  HZ I        1550 51.97         5.5 0.28            117            252 195 
 ROSC BZ EP       1550 17.83                             115    0.27 8  255 210 
 ROSC BN ES       1550 48.07                             115    0.85 8  255 210 
 ROSC BZ I        1550 54.69        18.6 0.55            116            255 210 
 HEL  HZ EP   4   1550 20.65                             113    1.28 0  272 255 
 HEL  HN ES   4   1550 48.37                             113   -2.08 0  272 255 
 HEL  HZ I        1551  5.43         8.7 0.30            113            272 255 
 GUY2CHZ EP       1550 23.41                             111    0.45 7  302 234 
 GUY2CHN ES       1550 57.31                             111    0.48 7  302 234 
 GUY2CHZ I        1551  3.69        10.7 0.30                           302 234 
 ELA  HZ EP   4   1550 28.35                             109    2.08 0  330 229 
 ELA  HN ES       1551  3.19                             109    0.47 7  330 229 
 ELA  HZ I        1551 14.89         5.8 0.56            110            330 229 
 CBOC HZ EP       1550 26.61                             109    0.44 7  333 251 
 CBOC HN ES       1551  2.19                             109   -0.35 7  333 251 
 CBOC HZ I        1551  5.54         3.0 0.50            109            333 251 
 DBB  SZ EP       1550 26.75                             108    0.18 7  338 274 
 DBB  SZ ES   4   1551  1.22                             108   -2.03 0  338 274 
 ORTC HZ EP       1550 34.12                             105    0.64 6  398 216 
 ORTC HE ES       1551 15.16                             105   -0.40 6  398 216 
 ORTC HZ I        1551 20.23         4.3 0.36            106            398 216 
 SJC  HZ EP   4   1550 32.71                             105   -1.74 0  406 327 
 SJC  HN ES   4   1551  9.69                             105   -7.59 0  406 327 
 SJC  HZ I        1551 34.64         2.0 0.50            106            406 327 
                                                                                
