 2012  125 1701 13.2 L   6.762 -73.147142.3  RSN  6 0.2 1.7LRSN                1
 GAP=138        0.51       5.0     4.9  7.1 -0.2929E+00  0.2362E+01  0.5319E+01E
 Epicentro: LOS SANTOS - SANTANDER                                             3
 ACTION:UP  12-02-03 08:20 OP:REBC STATUS:               ID:20120125170113 L   I
 2012-01-25-1700-00M.COL___188                                                 6
 STAT SP IPHASW D HRMM SECON CODA AMPLIT PERI AZIMU VELO SNR AR TRES W  DIS CAZ7
 BAR2 SZ EP       17 1 32.34                             172     0.010   19 192 
 BAR2 SZ ES   2   17 1 47.01                             172    -0.3 5   19 192 
 BAR2 SZ I        17 1 48.60         8.2 0.38                            19 192 
 GIR2 SZ EP       17 1 32.50                             166    -0.110   35 352 
 BRR  HZ EP       17 1 34.28                             152     0.210   73 301 
 BRR  HZ I        17 1 34.66        15.6 0.32                            73 301 
 BRR  HN ES   2   17 1 50.75                             152     0.3 5   73 301 
 PAM  SZ EP       17 1 35.28                             149     0.010   81  38 
 RUS  HZ EP       17 1 36.57                             144     0.210   96 176 
 PTB  HZ EP       17 1 39.59                             132    -0.3 9  147 260 
                                                                                
