 2015  425 1317 10.8 L   6.498 -73.516114.2  RSN 12 0.4 2.6LRSN                1
 GAP= 70        0.93       2.6     2.9  5.6 -0.2154E+01  0.8427E+01 -0.1645E+01E
 Epicentro: SIMACOTA - SANTANDER                                               3
 ACTION:UPD 15-06-03 16:57 OP:cam  STATUS:               ID:20150425131710 L   I
 OLDACT:UP  15-04-26 01:22 OP:mh   STATUS:               ID:20150425130748     3
 OLDACT:UP  15-04-26 00:19 OP:mh   STATUS:               ID:20150425130748     3
 OLDACT:UP  15-04-26 00:19 OP:mh   STATUS:               ID:20150425130748     3
 OLDACT:REG 15-04-25 22:45 OP:mh   STATUS:               ID:20150425130748     3
 2015-04-25-1307-48M.COL___277                                                 6
 STAT SP IPHASW D HRMM SECON CODA AMPLIT PERI AZIMU VELO AIN AR TRES W  DIS CAZ7
 BAR2 EZ IP     C 1317 27.70                             160    0.5210 38.3  74 
 BAR2 EZ ES       1317 39.98                             160    0.0510 38.3  74 
 BRR  HZ EP       1317 28.48                             146   -0.1510 70.7 342 
 BRR  HN ES       1317 42.47                             146   -0.0510 70.7 342 
 BRR  HZ I        1317 49.46        77.3 0.14            149           70.7 342 
 RUS  HZ EP       1317 30.60                             142    0.4410 82.3 144 
 RUS  HN ES       1317 45.29                             142    0.0510 82.3 144 
 RUS  HZ I        1317 47.65        27.4 0.28            150           82.3 144 
 PTB  HZ IP     D 1317 30.48                             134   -0.7910  104 273 
 PTB  HN ES   4   1317 45.85                             134   -1.37 0  104 273 
 PTB  HZ I        1317 50.02        94.4 0.28            137            104 273 
 SPBC HZ EP       1317 32.46                             132    0.3910  112 213 
 SPBC HN ES       1317 48.63                             132   -0.0210  112 213 
 SPBC HZ I        1317 56.06       104.8 0.34            137            112 213 
 PAM  SZ EP       1317 34.30                             128    0.0410  130  44 
 PAM  SN ES       1317 51.86                             128   -0.6710  130  44 
 PAM  SZ I        1317 53.52        51.0 0.18            136            130  44 
 NOR  HZ EP       1317 38.54                             118   -0.53 9  182 235 
 NOR  HE ES       1318  1.34                             118    0.24 9  182 235 
 NOR  HZ I        1318  5.67        42.9 0.14            122            182 235 
 ZAR  HZ EP   1   1317 39.50                             117    0.21 7  185 307 
 ZAR  HN ES       1318  1.85                             117    0.35 9  185 307 
 ZAR  HZ I        1318  4.27        99.9 0.34            121            185 307 
 HEL  HZ EP   1   1317 44.00                             112   -0.27 6  225 261 
 HEL  HN ES       1318 10.58                             112    0.23 8  225 261 
 HEL  HZ I        1318 18.17        24.6 0.48            116            225 261 
 GUY2CHZ EP       1317 47.13                             110    0.08 8  248 236 
 GUY2CHE ES       1318 14.70                             110   -0.61 8  248 236 
 GUY2CHZ I        1318 22.36        21.7 0.30                           248 236 
 SML  HZ EP   1   1317 47.81                             108   -0.19 6  262 347 
 SML  HN ES       1318 17.47                             108    0.48 8  262 347 
 SML  HZ I        1318 22.06        88.3 0.26            113            262 347 
 URE  HZ EP   4   1317 41.68                             108   -6.39 0  262 302 
 URE  HN ES   4   1318 15.04                             108   -2.08 0  262 302 
 CBOC HZ EP   1   1317 51.42                             107    0.52 6  285 256 
 CBOC HN ES       1318 21.99                             107   -0.17 7  285 256 
 CBOC HZ I        1318 26.41        12.9 0.36            111            285 256 
                                                                                
