 2010  825 1533 51.1 L   6.822 -73.054142.0  RSN  9 0.4 2.1LRSN                1
 GAP=169        0.82       3.8     7.3  6.6 -0.9513E+01 -0.1094E+02  0.7260E+01E
 Epicentro: LOS SANTOS - SANTANDER                                             3
 ACTION:UP  10-09-07 10:58 OP:vdl  STATUS:               ID:20100825153351 L   I
 2010-08-25-1530-08S.COL___121                                                 6
 STAT SP IPHASW D HRMM SECON CODA AMPLIT PERI AZIMU VELO SNR AR TRES W  DIS CAZ7
 BAR2 SZ EP       1534 10.25                             168    -0.210   29 209 
 BAR2 SZ ES   1   1534 25.24                             168    -0.3 7   29 209 
 BAR2 SZ I        1534 26.42        32.2 0.29                            29 209 
 GIR2 SZ EP   2   1534 10.37                             166     0.0 5   32 332 
 BRR  HZ EP       1534 12.05                             149    -0.310   79 294 
 BRR  HN ES       1534 29.03                             149     0.110   79 294 
 BRR  HZ I        1534 32.30        35.0 0.07                            79 294 
 RUS  HZ EP   1   1534 14.39                             142    -0.3 7  103 182 
 RUS  HZ I        1534 15.53        14.8 0.09                           103 182 
 RUS  HN ES   2   1534 32.93                             142    -0.1 5  103 182 
 GUE  SZ EP   1   1534 15.34                             139     0.2 7  112   7 
 GUE  SZ I        1534 41.06         5.8 0.02                           112   7 
 GRA  SZ EP       1534 15.86                             137     0.210  121  13 
 GRA  SZ ES   2   1534 35.06                             137     0.3 5  121  13 
 GRA  SZ I        1534 37.72        10.6 0.25                           121  13 
 CHI  HZ EP   1   1534 28.78                             116    -0.4 6  254 197 
 CHI  HN ES       1534 59.68                             116     0.8 8  254 197 
 CHI  HZ I        1535  2.73         7.4 1.25                           254 197 
 RREF HZ EP   1   1534 38.76                             109     0.6 5  331 230 
 RREF HN ES   2   1535 14.33                             109    -0.5 3  331 230 
 RREF HZ I        1535 20.28         8.0 0.48                           331 230 
 PRA  HZ EP   1   1534 44.99                                    -0.4 4  399 211 
 PRA  HN ES   2   1535 27.32                             105    -0.3 3  399 211 
 PRA  HZ I        1535 31.10        11.3 0.26                           399 211 
                                                                                
