 2016  825 1207 23.6 L   6.766 -73.183141.3  RSN  5 0.3 1.4LRSN                1
 GAP=231        0.66       4.9     4.6  4.8  0.1412E+02  0.3283E+01 -0.1664E+01E
 Epicentro: LOS SANTOS - SANTANDER                                             3
 ACTION:UPD 16-10-29 15:39 OP:rebc STATUS:               ID:20160825120723 L   I
 OLDACT:REG 16-08-25 21:30 OP:cara STATUS:               ID:20160825115759     3
 2016-08-25-1157-59S.COL___349                                                 6
 STAT SP IPHASW D HRMM SECON CODA AMPLIT PERI AZIMU VELO AIN AR TRES W  DIS CAZ7
 BAR2 EZ EP       12 7 42.45                             172   -0.1610 19.2 180 
 BAR2 HN ES       12 7 57.55                             172    0.1110 19.2 180 
 BAR2 EZ I        12 8  3.55        10.9 0.64                          19.2 180 
 BRR  HZ EP       12 7 44.38                             152    0.2110 69.6 303 
 BRR  HE ES       12 8  0.05                             152   -0.1710 69.6 303 
 BRR  HZ I        12 8  9.31         7.7 0.46                          69.6 303 
 RUS  HZ EP       12 7 46.68                             144    0.0210 97.2 173 
 RUS  HN ES       12 8  4.67                             144    0.0210 97.2 173 
 RUS  HZ I        12 8  6.08         1.3 0.44                          97.2 173 
 PTB  HZ EP       12 7 49.26                             132   -0.51 9  143 260 
 PTB  HE ES       12 8 10.41                             132    0.23 9  143 260 
 PTB  HZ I        12 8 15.04         4.0 0.10                           143 260 
 ZAR  HZ EP       12 7 55.98                             122    0.47 9  202 294 
 ZAR  HN ES       12 8 20.24                             122   -0.16 9  202 294 
 ZAR  HZ I        12 8 22.82         3.7 0.30                           202 294 
                                                                                
