 2011 1025 1029  6.3 L   6.821 -73.156142.7  RSN 14 0.4 2.4LRSN                1
 GAP=112        0.77       3.4     5.7  6.3 -0.4609E+01  0.1642E+02  0.3546E+01E
 Epicentro: LOS SANTOS - SANTANDER                                             3
 ACTION:UPD 12-07-13 16:05 OP:ep   STATUS:               ID:20111025102906 L   I
 2011-10-25-1027-32S.COL___172                                                 6
 STAT SP IPHASW D HRMM SECON CODA AMPLIT PERI AZIMU VELO AIN AR TRES W  DIS CAZ7
 BAR2 SZ EP       1029 25.62                             169    0.0510 25.4 187 
 BAR2 SZ ES   1   1029 40.37                             169   -0.26 7 25.4 187 
 BAR2 SZ I        1029 43.58        46.2 0.32                          25.4 187 
 PAM  SZ EP       1029 28.45                             150    0.3610 76.3  41 
 PAM  SN ES   1   1029 45.77                             150    0.65 7 76.3  41 
 RUS  HZ EP       1029 29.55                             142   -0.3410  103 176 
 RUS  HE ES   2   1029 48.22                             142   -0.09 5  103 176 
 RUS  HZ I        1029 49.62        16.0 0.24                           103 176 
 OCA  SZ EP       1029 33.93                             129   -0.18 9  158 353 
 OCA  SZ ES   1   1029 55.35                             129   -0.48 7  158 353 
 OCA  SZ I        1030  0.77        27.2 0.40                           158 353 
 YOP  SZ EP       1029 36.16                             125   -0.18 9  181 153 
 YOP  SZ I        1029 36.58         9.9 0.58                           181 153 
 ZAR  HZ EP   2   1029 38.22                             122   -0.09 4  202 292 
 NOR  SZ EP       1029 41.51                             118   -0.35 8  235 234 
 NOR  SE ES   2   1030  9.07                             118   -0.56 4  235 234 
 ROSC BZ EP   2   1029 44.94                             116    0.57 4  254 211 
 ROSC BZ I        1030 21.72        25.1 0.55                           254 211 
 HEL  HZ EP   2   1029 46.60                             114    0.34 4  272 255 
 HEL  HZ I        1030 26.96         8.6 0.22                           272 255 
 GUY  SZ EP       1029 50.91                             111    0.87 7  304 235 
 GUY  SZ I        1030 32.00        16.9 0.34                           304 235 
 RREF HZ EP   3   1029 52.98                             110    0.63 2  322 229 
 RREF HZ I        1030 35.21        14.6 0.30                           322 229 
 TOL  SZ EP   2   1029 54.60                             109    0.11 3  344 224 
 ANIL HN ES   2   1030 35.02                             108    0.14 3  358 224 
 ANIL HZ I        1030 39.59        35.2 0.32                           358 224 
 PRA  HZ EP       1029 59.24                             106   -0.61 6  393 209 
 PRA  HE ES   1   1030 42.49                             106    0.85 4  393 209 
                                                                                
