 2013  325 1343 50.5 L   6.800 -73.169148.0  RSN  4 0.3 1.6LRSN                1
 GAP=142        0.63       4.0     3.9  6.7 -0.5060E+01  0.3517E+01 -0.1815E+00E
 Epicentro: LOS SANTOS - SANTANDER                                             3
 ACTION:UPD 13-04-09 14:04 OP:ep   STATUS:               ID:20130325134350 L   I
 2013-03-25-1340-00M.COL___244                                                 6
 STAT SP IPHASW D HRMM SECON CODA AMPLIT PERI AZIMU VELO AIN AR TRES W  DIS CAZ7
 BAR2 SZ EP       1344 10.15                             171   -0.2910 23.0 184 
 BAR2 SZ ES   2   1344 26.39                             171    0.43 5 23.0 184 
 BAR2 SZ I        1344 28.36         7.4 0.48            171           23.0 184 
 PAM  SZ EP       1344 13.06                             151   -0.0410 79.0  41 
 PAM  SN ES       1344 30.74                             151    0.0510 79.0  41 
 PAM  SN I        1344 31.33         8.0 0.48            154           79.0  41 
 RUS  HZ EP       1344 14.61                             144    0.0810  101 175 
 RUS  HN ES       1344 33.23                             144   -0.0110  101 175 
 RUS  HN I        1344 34.28         7.0 0.40            147            101 175 
 PTB  HZ EP   2   1344 18.52                             133    1.05 5  145 259 
 PTB  HN ES       1344 38.33                             133   -0.14 9  145 259 
 PTB  HN I        1344 41.18         5.4 0.20            134            145 259 
                                                                                
