 2015  825 1743 18.5 L   6.742 -73.084145.5  RSN  4 0.1 1.5LRSN                1
 GAP=181        0.40       5.9     2.4  5.0  0.2691E+01  0.1511E+01  0.1221E+02E
 Epicentro: JORDAN - SANTANDER                                                 3
 ACTION:UPD 15-09-15 23:05 OP:cam  STATUS:               ID:20150825174318 L   I
 OLDACT:DUP 15-08-26 01:25 OP:spq  STATUS:               ID:20150825173747d    3
 2015-08-25-1737-46M.COL___334                                                 6
 STAT SP IPHASW D HRMM SECON CODA AMPLIT PERI AZIMU VELO AIN AR TRES W  DIS CAZ7
 BAR2 EZ EP     D 1743 37.99                             172    0.0010 19.8 213 
 PAM  EZ EP     C 1743 40.89                             150    0.1810 78.5  33 
 PAM  EN ES   1   1743 57.89                             150   -0.18 7 78.5  33 
 PAM  EZ I        1743 59.83         3.8 0.50            151           78.5  33 
 BRR  HZ EP       1743 39.94                             149   -0.1710 80.3 300 
 BRR  HE ES       1743 57.10                             149    0.0910 80.3 300 
 BRR  HZ I        1744  1.08         5.4 0.40            147           80.3 300 
 ZAR  HZ EP   2   1743 51.75                             121   -0.05 4  213 293 
 ZAR  HN ES       1744 17.81                             121    0.01 8  213 293 
 ZAR  HZ I        1744 22.55         3.9 0.42            122            213 293 
                                                                                
