 2014  625 1339 50.7 L   6.807 -73.140148.0  RSN 19 0.5 2.7LRSN                1
 GAP= 71        1.08       2.9     2.9  4.9 -0.6478E+00  0.4646E+01  0.2556E+01E
 Epicentro: LOS SANTOS - SANTANDER                                             3
 ACTION:UPD 14-07-01 22:56 OP:nd   STATUS:               ID:20140625133950 L   I
 OLDACT:REG 14-06-25 20:30 OP:carl STATUS:               ID:20140625133819     3
 2014-06-25-1338-19M.COL___265                                                 6
 STAT SP IPHASW D HRMM SECON CODA AMPLIT PERI AZIMU VELO AIN AR TRES W  DIS CAZ7
 BAR2 SZ IP     D 1340 10.61                             170   -0.0310 24.1 191 
 BAR2 SZ ES       1340 26.23                             170    0.0510 24.1 191 
 BAR2 SZ I        1340 27.67        70.2 0.16            170           24.1 191 
 BRR  HZ IP     C 1340 12.48                             153    0.3510 71.4 298 
 BRR  HN ES       1340 29.84                             153    1.0210 71.4 298 
 BRR  HZ I        1340 32.65        65.4 0.12            153           71.4 298 
 PAM  SN ES       1340 30.63                             152    0.0310 76.4  40 
 RUS  HZ EP       1340 14.45                             144   -0.3010  101 176 
 RUS  HN ES       1340 33.34                             144   -0.1410  101 176 
 RUS  HZ I        1340 35.85        45.8 0.50            142            101 176 
 PTB  HZ EP       1340 17.02                             132   -0.92 9  148 259 
 PTB  HN ES       1340 38.51                             132   -0.66 9  148 259 
 PTB  HZ I        1340 41.57        67.4 0.26            132            148 259 
 TAM  HZ EP       1340 18.64                             131    0.09 9  155 105 
 TAM  HZ I        1340 39.59        36.1 0.32            129            155 105 
 TAM  HN ES       1340 40.43                             131    0.19 9  155 105 
 SPBC HZ EP       1340 19.47                             129   -0.02 9  164 219 
 SPBC HE ES       1340 41.84                             129   -0.08 9  164 219 
 SPBC HZ I        1340 46.53        66.0 0.20            128            164 219 
 ZAR  HZ EP       1340 23.07                             123   -0.28 9  204 292 
 ZAR  HN ES       1340 48.69                             123   -0.10 9  204 292 
 ZAR  HZ I        1340 55.67        57.4 0.26            122            204 292 
 NOR  HZ EP       1340 26.14                             119   -0.54 8  236 234 
 NOR  HN ES       1340 54.47                             119   -0.26 8  236 234 
 NOR  HZ I        1340 58.86        56.8 0.20            118            236 234 
 SML  HZ EP       1340 27.02                             118   -0.42 8  243 335 
 SML  HN ES       1340 55.48                             118   -0.59 8  243 335 
 SML  HZ I        1341  3.38        49.1 0.10            117            243 335 
 CHI  HZ EP       1340 28.64                             118   -0.00 8  249 195 
 CHI  HN ES       1340 57.55                             118   -0.67 8  249 195 
 CHI  HZ I        1341  3.85        19.0 0.32            116            249 195 
 ROSC BZ EP   4   1340 29.86                             117    0.79 0  254 211 
 ROSC BN ES   4   1341  1.27                             117    2.29 0  254 211 
 ROSC BZ I        1341  8.08        40.9 0.40            116            254 211 
 HEL  HZ EP       1340 31.62                             115    0.48 8  273 256 
 HEL  HN ES       1341  2.99                             115    0.33 8  273 256 
 HEL  HZ I        1341  9.83        23.9 0.24            114            273 256 
 URE  HZ EP   4   1340 30.19                             114   -1.75 0  284 292 
 URE  HN ES   4   1341  1.13                             114   -2.95 0  284 292 
 GUY2CHZ EP       1340 35.38                             113    0.84 7  302 235 
 GUY2CHN ES       1341  8.04                             113   -0.68 7  302 235 
 GUY2CHZ I        1341 16.41        21.9 0.52                           302 235 
 RREF HZ EP       1340 37.73                             111    0.66 7  323 229 
 RREF HN ES       1341 13.40                             111    0.18 7  323 229 
 RREF HZ I        1341 22.79        27.0 0.44            110            323 229 
 CBOC HZ EP       1340 38.69                             110    0.86 7  334 252 
 CBOC HN ES       1341 14.95                             110    0.39 7  334 252 
 TOL  SZ EP       1340 39.53                             110    0.35 7  344 225 
 TOL  SN ES       1341 17.38                             110    0.41 7  344 225 
 TOL  SZ I        1341 21.72        31.6 0.60            109            344 225 
 ANIL HN ES       1341 20.58                             109    0.86 6  358 225 
 PRA  HZ EP       1340 44.11                             107   -0.32 6  393 210 
 PRA  HN ES       1341 26.41                             107    0.09 6  393 210 
 PRA  HZ I        1341 29.62        17.4 0.66            106            393 210 
                                                                                
