 2012  325 1006 59.2 L   6.758 -73.157149.7  RSN  6 0.4 1.6LRSN                1
 GAP=137        0.93       6.3     5.6  8.8  0.3539E+01  0.8353E+01 -0.3970E+00E
 ACTION:UP  12-03-31 23:22 OP:EP   STATUS:               ID:20120325100659 L   I
 2012-03-25-1000-00M.COL___196                                                 6
 STAT SP IPHASW D HRMM SECON CODA AMPLIT PERI AZIMU VELO SNR AR TRES W  DIS CAZ7
 BAR2 SZ EP       10 7 19.27                             173     0.010   19 189 
 BAR2 SZ ES   1   10 7 34.60                             173    -0.2 7   19 189 
 BAR2 SZ I        10 7 36.88         8.9 0.30                            19 189 
 BRR  HZ EP       10 7 21.18                             153     0.310   72 302 
 BRR  HN ES   1   10 7 38.44                             153     0.7 7   72 302 
 BRR  HZ I        10 7 41.58         8.3 0.16                            72 302 
 PAM  SZ EP   1   10 7 22.05                             150    -0.1 7   82  38 
 PAM  SE ES   1   10 7 39.47                             150    -0.5 7   82  38 
 RUS  HZ EP   1   10 7 23.37                             146     0.3 7   96 175 
 RUS  HN ES   1   10 7 41.70                             146     0.1 7   96 175 
 RUS  HZ I        10 7 43.59         4.5 0.20                            96 175 
 PTB  HZ EP   1   10 7 25.71                             133    -0.6 7  146 261 
 PTB  HN ES   1   10 7 47.03                             133    -0.4 7  146 261 
 PTB  HZ I        10 7 49.25         4.2 0.12                           146 261 
 ZAR  HE ES   1   10 7 57.51                             123     0.0 6  205 293 
 ZAR  HZ I        10 8  3.03         4.7 0.68                           205 293 
                                                                                
