 2013  125 1025 44.3 L   6.807 -73.135146.7  RSN 12 0.4 2.5LRSN                1
 GAP= 71        1.02       3.4     3.0  5.2 -0.8637E+00  0.2047E+01  0.1597E+01E
 Epicentro: LOS SANTOS - SANTANDER                                             3
 ACTION:UPD 13-02-15 09:16 OP:ep   STATUS:               ID:20130125102544 L   I
 2013-01-25-1018-49M.COL___174                                                 6
 STAT SP IPHASW D HRMM SECON CODA AMPLIT PERI AZIMU VELO AIN AR TRES W  DIS CAZ7
 BAR2 SZ IP       1026  4.10                             170    0.0610 24.3 192 
 BAR2 SZ ES       1026 19.30                             170   -0.1610 24.3 192 
 BAR2 SZ I        1026 20.80        51.9 0.38            174           24.3 192 
 BRR  HZ IP     C 1026  5.97                             152    0.4010 71.9 298 
 BRR  HN ES       1026 22.92                             152    0.7510 71.9 298 
 BRR  HN I        1026 23.79        83.7 0.30            145           71.9 298 
 PAM  SZ IP       1026  6.84                             151    0.3310 76.0  39 
 PAM  SN ES       1026 23.73                             151   -0.1310 76.0  39 
 PAM  SE I        1026 25.51        53.9 0.72            144           76.0  39 
 RUS  HZ EP       1026  7.96                             144   -0.2110  101 177 
 RUS  HZ I        1026  8.94         8.9 0.44            145            101 177 
 RUS  HN ES       1026 26.31                             144   -0.5010  101 177 
 PTB  HZ EP       1026 10.78                             132   -0.66 9  149 259 
 PTB  HN ES       1026 31.98                             132   -0.65 9  149 259 
 PTB  HE I        1026 37.72        53.9 0.44            127            149 259 
 TAM  HZ IP     D 1026 12.27                             131    0.33 9  154 105 
 TAM  HZ I        1026 12.40        21.4 0.34            128            154 105 
 TAM  HN ES       1026 33.91                             131    0.39 9  154 105 
 OCA  HZ EP       1026 12.24                             130   -0.36 9  160 353 
 OCA  HN I        1026 39.65        96.9 0.24            123            160 353 
 ZAR  HZ EP       1026 17.10                             122    0.23 9  205 292 
 ZAR  HE ES       1026 42.34                             122    0.05 9  205 292 
 CHI  HZ EP       1026 22.07                             117   -0.07 8  250 195 
 CHI  HN ES       1026 51.60                             117   -0.08 8  250 195 
 CHI  HN I        1026 54.01        18.1 0.28            115            250 195 
 RREF HZ EP       1026 30.79                             111    0.17 7  323 229 
 RREF HN ES       1027  6.75                             111   -0.02 7  323 229 
 ANIL HN ES       1027 14.29                             109    1.01 6  359 225 
 ANIL HE I        1027 19.70        21.3 0.28            106            359 225 
 SDV  BZ EP       1026 33.46                             108   -0.73 6  359  50 
                                                                                
