 2011  725 1411 30.8 L   6.752 -73.163146.0  RSN  5 0.2 1.7LRSN                1
 GAP=232        0.38       3.8     4.1  6.2  0.5755E+00 -0.3032E+01  0.9719E+01E
 Epicentro: LOS SANTOS - SANTANDER                                             3
 ACTION:UPD 12-07-25 14:03 OP:epov STATUS:               ID:20110725141130 L   I
 2011-07-25-1409-00S.COL___143                                                 6
 STAT SP IPHASW D HRMM SECON CODA AMPLIT PERI AZIMU VELO AIN AR TRES W  DIS CAZ7
 BAR2 SZ EP   1   1411 50.51                             173    0.12 7 17.8 187 
 BAR2 SZ I        1412  6.27        12.6 0.25                          17.8 187 
 BRR  HZ EP   1   1411 51.86                             153   -0.20 7 72.3 303 
 BRR  HN ES   1   1412  8.76                             153    0.14 7 72.3 303 
 BRR  HZ I        1412  9.86        13.8 0.12                          72.3 303 
 RUS  HZ EP   1   1411 54.10                             145   -0.14 7 95.5 175 
 RUS  HN ES   2   1412 12.54                             145    0.04 5 95.5 175 
 RUS  HZ I        1412 14.91         4.1 0.30                          95.5 175 
 NOR  SN ES   1   1412 33.52                             119   -0.05 6  230 235 
 CHI  HZ EP   2   1412  8.29                             118    0.36 4  243 195 
 CHI  HZ I        1412  9.21         4.2 0.45                           243 195 
                                                                                
