 2010  925 1256 47.1 L   6.716 -73.174143.8  RSN  4 0.1 1.6LRSN                1
 GAP=161        0.40       3.2     6.4  4.5  0.1087E+02 -0.1293E+02 -0.6438E+01E
 Epicentro: VILLANUEVA - SANTANDER                                             3
 ACTION:UP  11-02-18 11:05 OP:tino STATUS:               ID:20100925125647 L   I
 2010-09-25-1255-10S.COL___120                                                 6
 STAT SP IPHASW D HRMM SECON CODA AMPLIT PERI AZIMU VELO SNR AR TRES W  DIS CAZ7
 BAR2 SZ EP       1257  6.19                             174    -0.210   14 184 
 BAR2 SZ ES   1   1257 21.26                             174    -0.1 7   14 184 
 BAR2 SZ I        1257 22.75        11.7 0.17                            14 184 
 BRR  HZ EP       1257  8.09                             151    -0.110   74 306 
 BRR  HZ I        1257  8.31        10.3 0.14                            74 306 
 BRR  HE ES   1   1257 24.76                             151     0.1 7   74 306 
 RUS  HZ EP       1257 10.12                             146     0.110   92 174 
 RUS  HE ES   1   1257 27.98                             146     0.1 7   92 174 
 RUS  HZ I        1257 30.10         3.4 0.44                            92 174 
 GUE  SZ EP       1257 12.53                             137     0.110  126  13 
                                                                                
