 2011  925 1625 22.5 L   6.776 -73.114142.0  RSN  7 0.3 1.9LRSN                1
 GAP=186        0.48       2.7     3.4  4.9  0.1328E+01  0.1267E+01 -0.1476E+01E
 Epicentro: LOS SANTOS - SANTANDER                                             3
 ACTION:UPD 12-07-13 15:59 OP:ep   STATUS:               ID:20110925162522 L   I
 2011-09-25-1621-22S.COL___165                                                 6
 STAT SP IPHASW D HRMM SECON CODA AMPLIT PERI AZIMU VELO AIN AR TRES W  DIS CAZ7
 BAR2 SZ EP       1625 41.59                             171   -0.0610 21.7 200 
 BAR2 SZ ES   3   1625 56.60                             171    0.02 2 21.7 200 
 BAR2 SZ I        1625 58.90        23.0 0.34                          21.7 200 
 BTL  SZ EP       1625 41.83                             170    0.1510 23.2 313 
 BRR  HZ EP       1625 43.45                             151   -0.0610 75.6 299 
 BRR  HN ES   1   1626  0.01                             151    0.12 7 75.6 299 
 BRR  HZ I        1626  4.39        21.0 0.14                          75.6 299 
 RUS  HZ EP       1625 45.67                             144   -0.0110 97.8 178 
 RUS  HN ES   1   1626  3.83                             144    0.07 7 97.8 178 
 RUS  HZ I        1626  5.81        10.7 0.32                          97.8 178 
 OCA  SZ EP       1625 50.66                             128   -0.16 9  163 352 
 OCA  SZ I        1626 15.56        10.2 0.30                           163 352 
 ZAR  HZ EP   2   1625 56.27                             121    1.12 4  208 292 
 ZAR  HN ES   1   1626 20.46                             121   -0.16 6  208 292 
 ZAR  HZ I        1626 28.97         8.0 0.46                           208 292 
 NOR  SZ EP       1625 57.96                             118   -0.21 8  236 235 
 NOR  SN ES   1   1626 25.99                             118    0.00 6  236 235 
                                                                                
