 2014  125 1050  0.3 L   6.753 -73.163138.5  RSN  5 0.2 1.1LRSN                1
 GAP=138        0.54       3.0     3.1  4.0 -0.2401E+01  0.2860E+01  0.9767E+00E
 Epicentro: LOS SANTOS - SANTANDER                                             3
 ACTION:UPD 14-03-13 09:58 OP:ep   STATUS:               ID:20140125105000 L   I
 OLDACT:DUP 14-01-25 17:49 OP:stll STATUS:               ID:20140125104818d    3
 2014-01-25-1048-17M.COL___231                                                 6
 STAT SP IPHASW D HRMM SECON CODA AMPLIT PERI AZIMU VELO AIN AR TRES W  DIS CAZ7
 BAR2 SZ ES       1050 33.83                             172    0.2810 17.9 187 
 BAR2 SZ I        1050 36.80         7.4 0.34            156           17.9 187 
 PAM  SZ I        1050 22.15         3.6 0.18            162           82.7  38 
 PAM  SZ EP       1050 22.22                             148    0.0910 82.7  38 
 PAM  SN ES       1050 38.94                             148   -0.1810 82.7  38 
 RUS  HZ EP       1050 23.24                             144    0.2210 95.5 175 
 RUS  HN ES       1050 40.43                             144   -0.2710 95.5 175 
 RUS  HZ I        1050 42.48         0.8 0.34            135           95.5 175 
 PTB  HZ EP       1050 26.30                             131   -0.17 9  145 261 
 PTB  HN ES       1050 46.86                             131    0.01 9  145 261 
 PTB  HZ I        1050 54.44         2.5 0.46            124            145 261 
 CHI  HZ EP       1050 37.05                             116    0.01 8  243 195 
 CHI  HZ I        1050 38.02         0.6 0.42            112            243 195 
                                                                                
