 2010  425 1855 47.3 L   6.819 -73.029150.2  RSN 14 0.6 2.7LRSN                1
 GAP=149        1.13       5.3     7.3  8.1 -0.2499E+02 -0.1720E+02  0.1974E+02E
 Epicentro: CEPITA - SANTANDER                                                 3
 ACTION:UPD 10-08-24 10:01 OP:vdl  STATUS:               ID:20100425185548 L   I
 2010-04-25-1854-09S.COL___104                                                 6
 STAT SP IPHASW D HRMM SECON CODA AMPLIT PERI AZIMU VELO AIN AR TRES W  DIS CAZ7
 BAR2 SZ IP       1856  7.20                             168    -0.410   30 214 
 BAR2 SZ ES   2   1856 22.65                             168    -0.8 5   30 214 
 BRR  HZ EP       1856  9.57                             150     0.010   82 293 
 BRR  HN ES       1856 27.02                             150     0.110   82 293 
 BRR  HZ I        1856 31.46        67.8 0.04                            82 293 
 BRI  SZ EP       1856 11.76                             144     0.610  102  14 
 GUE  SZ EP       1856 12.19                             141     0.110  112   6 
 GUE  SZ ES   2   1856 31.43                             141     0.0 5  112   6 
 GRA  SZ EP       1856 12.96                             139     0.410  120  12 
 GRA  SZ ES   1   1856 31.74                             139    -0.4 7  120  12 
 OCA  SZ EP       1856 15.65                             130    -0.3 9  160 348 
 OCA  SZ ES   1   1856 38.41                             130     0.1 7  160 348 
 OCA  SZ I        1856 43.50        71.6 0.23                           160 348 
 CHI  HZ EP   1   1856 25.38                             117    -0.5 6  254 198 
 CHI  HN ES   2   1856 55.23                             117    -0.7 4  254 198 
 CHI  HZ I        1857  0.57        17.2 0.36                           254 198 
 ROSC BZ EP       1856 27.01                             116     0.4 8  261 213 
 ROSC BN ES   1   1856 58.21                             116     0.9 6  261 213 
 ROSC BZ I        1857  1.83        30.9 1.02                           261 213 
 HEL  HZ EP   1   1856 28.87                             114    -0.3 6  285 256 
 HEL  HN ES   2   1857  2.30                             114     0.5 4  285 256 
 HEL  HZ I        1857  7.69        20.0 0.06                           285 256 
 RREF BZ EP   1   1856 35.37                             111     0.5 5  333 231 
 RREF BN ES   1   1857 13.05                             111     1.0 5  333 231 
 RREF BZ I        1857 15.71        29.0 0.55                           333 231 
 SDV  BZ EP       1856 36.46                             109     0.2 6  349  49 
 SDV  BZ I        1856 37.79        11.7 0.98                           349  49 
 SDV  BN ES   2   1857 14.34                             109     0.0 3  349  49 
 DBB  SZ EP       1856 35.02                             109    -1.4 6  352 274 
 TOL  SZ EP   2   1856 37.09                             109     0.1 3  354 226 
 TOL  SZ ES   2   1857 16.78                             109     1.1 3  354 226 
 PRA  HZ EP       1856 40.82                             107    -1.1 6  400 211 
 PRA  HE ES   1   1857 24.73                             107     0.2 4  400 211 
 PRA  HZ I        1857 29.07        23.6 0.84                           400 211 
                                                                                
