 2012  725 1646 12.4 L   6.107 -73.734107.4  RSN  8 0.4 2.0LRSN                1
 GAP= 72        1.12       4.9     4.5 10.3  0.1545E+01  0.1946E+02  0.8814E+01E
 Epicentro: BOLIVAR - SANTANDER                                                3
 ACTION:UPD 12-08-14 11:45 OP:ep   STATUS:               ID:20120725164612 L   I
 2012-07-25-1640-00M.COL___215                                                 6
 STAT SP IPHASW D HRMM SECON CODA AMPLIT PERI AZIMU VELO AIN AR TRES W  DIS CAZ7
 RUS  HZ EP       1646 30.74                             142     0.110   76 108 
 RUS  HN ES   1   1646 44.77                             142     0.0 7   76 108 
 RUS  HZ I        1646 45.92        15.2 0.22            136             76 108 
 BAR2 SZ IP       1646 30.92                             140     0.310   81  49 
 BAR2 SZ I        1646 31.19        47.2 0.18            136             81  49 
 BAR2 SZ ES   1   1646 44.69                             140    -0.2 7   81  49 
 PTB  HZ EP       1646 30.47                             136    -0.910   93 301 
 PTB  HN ES   1   1646 45.88                             136    -0.2 7   93 301 
 PTB  HZ I        1646 47.58        10.9 0.13            124             93 301 
 BRR  HZ EP       1646 32.77                             130    -0.110  111   1 
 BRR  HZ I        1646 33.14        41.4 0.13            123            111   1 
 BRR  HE ES   1   1646 49.44                             130     0.6 7  111   1 
 NOR  SZ EP       1646 35.63                             123    -0.1 9  139 244 
 NOR  SN ES   1   1646 54.25                             123     0.3 7  139 244 
 CHI  HZ EP   1   1646 38.69                             119     0.0 7  163 180 
 ZAR  HZ EP       1646 41.63                             113    -0.3 9  197 321 
 ZAR  HE ES   1   1647  5.22                             113     0.3 6  197 321 
 ZAR  HZ I        1647  9.62        14.6 0.37            107            197 321 
 HEL  HZ EP       1646 43.32                             113     0.8 9  199 273 
 HEL  HZ I        1647  9.64         6.4 0.38            106            199 273 
