 2017  325 1821 15.1 L   6.793 -73.110145.3  RSN  5 0.2 1.3LRSN                1
 GAP=141        0.56       2.9     3.1  5.0  0.1664E+01  0.4171E+01  0.2246E+01E
 Epicentro: LOS SANTOS - SANTANDER                                             3
 ACTION:UPD 17-05-25 18:45 OP:jn   STATUS:               ID:20170325182115 L   I
 OLDACT:UP  17-03-25 22:02 OP:dani STATUS:               ID:20170325181742     3
 OLDACT:UP  17-03-25 22:01 OP:dani STATUS:               ID:20170325181742     3
 OLDACT:REG 17-03-25 21:12 OP:dani STATUS:               ID:20170325181742     3
 2017-03-25-1818-00M.COL___373                                                 6
 STAT SP IPHASW D HRMM SECON CODA AMPLIT PERI AZIMU VELO AIN AR TRES W  DIS CAZ7
 BRR  HZ EP       1821 36.32                             151   -0.1510 75.1 298 
 BRR  HN ES       1821 52.86                             151   -0.2410 75.1 298 
 BRR  HZ I        1821 57.42        10.2 0.30            153           75.1 298 
 PAM  EZ EP       1821 37.42                             151    0.2210 75.6  37 
 PAM  EN ES       1821 54.41                             151    0.0010 75.6  37 
 PAM  EZ I        1821 57.47         2.2 0.10            153           75.6  37 
 RUS  HZ EP       1821 38.55                             144   -0.2310 99.6 178 
 RUS  HN ES       1821 57.42                             144    0.2110 99.6 178 
 RUS  HZ I        1821 58.14         1.8 0.24            148           99.6 178 
 PTB  HZ EP       1821 42.37                             131   -0.05 9  151 259 
 PTB  HN ES   4   1822  1.48                             131   -2.21 0  151 259 
 PTB  HZ I        1822  4.42         2.7 0.24            134            151 259 
 ZAR  HE ES       1822 13.89                             122    0.32 8  208 292 
                                                                                
