 2016  625 1810 40.9 L   6.794 -73.136146.8  RSN 16 0.5 2.5LRSN                1
 GAP=120        1.07       3.4     3.9  6.2 -0.2127E+01  0.4355E+01  0.2794E+01E
 Epicentro: LOS SANTOS - SANTANDER                                             3
 ACTION:UPD 16-07-21 22:22 OP:rebc STATUS:               ID:20160625181040 L   I
 OLDACT:UP  16-06-25 23:31 OP:dnl  STATUS:               ID:20160625180750     3
 OLDACT:REG 16-06-25 21:09 OP:dnl  STATUS:               ID:20160625180750     3
 2016-06-25-1807-50M.COL___333                                                 6
 STAT SP IPHASW D HRMM SECON CODA AMPLIT PERI AZIMU VELO AIN AR TRES W  DIS CAZ7
 BRR  HZ EP       1811  2.55                             152    0.3010 72.4 299 
 BRR  HE ES       1811 19.60                             152    0.7210 72.4 299 
 BRR  HZ I        1811 22.75        55.0 0.30                          72.4 299 
 PAM  EZ EP       1811  3.54                             151    0.3010 77.3  39 
 PAM  EE ES       1811 20.74                             151    0.1010 77.3  39 
 PAM  EZ I        1811 22.71        55.3 0.46                          77.3  39 
 RUS  HZ EP       1811  4.71                             144   -0.0110 99.8 177 
 RUS  HE ES       1811 23.08                             144   -0.2010 99.8 177 
 RUS  HZ I        1811 24.40        47.6 0.32                          99.8 177 
 PTB  HZ EP       1811  7.70                             132   -0.35 9  149 259 
 PTB  HN ES       1811 28.16                             132   -1.05 9  149 259 
 PTB  HZ I        1811 34.26        26.7 0.38                           149 259 
 SPBC HZ EP       1811  9.72                             129    0.21 9  163 219 
 SPBC HE ES       1811 31.82                             129    0.01 9  163 219 
 SPBC HZ I        1811 32.81        46.9 0.28                           163 219 
 ZAR  HZ EP       1811 13.96                             122    0.40 8  205 292 
 ZAR  HE ES       1811 39.20                             122    0.19 8  205 292 
 ZAR  HZ I        1811 45.38        53.4 0.26                           205 292 
 NOR  HZ EP   2   1811 17.27                             119    0.51 4  235 235 
 NOR  HE ES       1811 44.06                             119   -0.65 8  235 235 
 NOR  HZ I        1811 51.23        19.9 0.38                           235 235 
 CHI  HZ EP   2   1811 18.87                             117    0.24 4  248 195 
 CHI  HN ES       1811 47.50                             117   -0.55 8  248 195 
 CHI  HE ES   2   1811 48.34                             117    0.29 4  248 195 
 CHI  HZ I        1811 54.02        11.7 0.32                           248 195 
 HEL  HZ EP   2   1811 22.25                             115    0.97 4  273 256 
 HEL  HE ES       1811 52.61                             115   -0.14 8  273 256 
 HEL  HZ I        1811 59.08        10.6 0.32                           273 256 
 URE  HZ EP   2   1811 21.62                             114   -0.55 4  285 292 
 URE  HE ES   4   1811 52.61                             114   -1.74 0  285 292 
 URE  HE I        1812  4.94        49.2 0.20                           285 292 
 GUY2CHZ EP   2   1811 25.53                             112    0.90 4  302 235 
 GUY2CHN ES       1811 59.03                             112    0.31 7  302 235 
 GUY2CHZ I        1812  6.16         9.2 0.38                           302 235 
 PTGC HZ EP   2   1811 23.95                             112   -0.76 4  308 159 
 PTGC HE ES   4   1811 57.00                             112   -1.86 0  308 159 
 PTGC HZ I        1812  1.80        15.9 0.34                           308 159 
 LL6C HZ EP       1811 25.37                             110   -1.38 7  326 357 
 LL6C HE ES   4   1811 57.84                             110   -4.65 0  326 357 
 LL6C HZ I        1812  2.31         5.1 0.54                           326 357 
 PRA  HZ EP       1811 35.11                             107    0.64 6  392 210 
 PRA  HN ES   2   1812 16.42                             107    0.19 3  392 210 
 PRA  HZ I        1812 23.19        12.4 0.44                           392 210 
 ORTC HZ EP       1811 35.51                             107    0.63 6  395 216 
 ORTC HN ES   4   1812 20.11                             107    3.14 0  395 216 
 ORTC HZ I        1812 23.79         9.2 0.46                           395 216 
 SJC  HZ EP   4   1811 34.74                             106   -1.91 0  410 327 
 SJC  HN ES   4   1812 16.00                             106   -4.12 0  410 327 
 SJC  HZ I        1812 20.46         4.7 0.32                           410 327 
                                                                                
