 2011  525 1738 40.9 L   6.934 -73.332124.0  RSN  5 0.4 1.5LRSN                1
 GAP= 95        0.70       7.4     9.2 11.2 -0.3353E+02 -0.4622E+01  0.6715E+01E
 Epicentro: BETULIA - SANTANDER                                                3
 ACTION:UP  11-06-29 08:56 OP:tino STATUS:               ID:20110525173840 L   I
 2011-05-25-1736-19S.COL___141                                                 6
 STAT SP IPHASW D HRMM SECON CODA AMPLIT PERI AZIMU VELO SNR AR TRES W  DIS CAZ7
 BTL  SZ EP       1738 58.10                             176     0.410    7 104 
 BAR2 SZ EP       1738 58.53                             160     0.010   41 156 
 BAR2 SZ ES   2   1739 11.78                             160    -0.5 5   41 156 
 BAR2 SZ I        1739 12.81        10.9 0.27                            41 156 
 BRR  HZ EP   2   1738 58.43                             158     0.0 5   46 294 
 BRR  HN ES   2   1739 12.10                             158     0.1 5   46 294 
 BRR  HZ I        1739 37.96        14.0 0.36                            46 294 
 GRA  SZ EP   2   1739  3.27                             133    -0.5 5  120  29 
 GRA  SZ ES   2   1739 21.33                             133    -0.3 5  120  29 
 GRA  SZ I        1739 25.99         3.4 0.43                           120  29 
 NOR  SN ES   2   1739 40.52                             114    -0.6 4  228 228 
                                                                                
