 2010  625 1024  6.0 L   6.763 -73.108147.4  RSN  7 0.3 2.0LRSN                1
 GAP=160        0.66       4.0     7.3  7.1 -0.6989E+01  0.8587E+01 -0.2885E+01E
 Epicentro: LOS SANTOS - SANTANDER                                             3
 ACTION:UP  10-08-24 10:13 OP:vdl  STATUS:               ID:20100625102406 L   I
 2010-06-25-1022-10S.COL___118                                                 6
 STAT SP IPHASW D HRMM SECON CODA AMPLIT PERI AZIMU VELO SNR AR TRES W  DIS CAZ7
 BAR2 SZ IP       1024 25.72                             172    -0.110   21 204 
 BAR2 SZ ES   2   1024 40.84                             172    -0.4 5   21 204 
 BRR  HZ IP     C 1024 27.57                             151    -0.110   77 300 
 BRR  HE ES   2   1024 45.02                             151     0.4 5   77 300 
 BRR  HZ I        1024 49.24        26.5 0.53                            77 300 
 RUS  HZ EP   1   1024 29.60                             145    -0.1 7   96 178 
 RUS  HN ES   2   1024 48.39                             145     0.3 5   96 178 
 RUS  HZ I        1024 49.27         6.8 0.28                            96 178 
 BRI  SZ EP   1   1024 30.19                             141    -0.1 7  111  18 
 BRI  SZ ES   2   1024 49.10                             141    -0.1 5  111  18 
 GRA  SZ EP   1   1024 32.42                             137     0.7 7  129  15 
 GRA  SZ ES   2   1024 51.79                             137     0.1 5  129  15 
 OCA  SZ EP   1   1024 34.42                             129    -0.5 7  165 352 
 OCA  SZ ES   2   1024 57.44                             129     0.0 5  165 352 
 HEL  HZ EP   1   1024 46.93                             115     0.3 6  275 257 
 HEL  HZ I        1025 24.82         7.0 0.42                           275 257 
                                                                                
