 2014  525 1157 10.6 L   6.845 -73.154136.6  RSN 21 0.5 2.7LRSN                1
 GAP= 69        1.01       2.4     2.8  5.3 -0.6731E+00  0.7655E+00  0.1990E+01E
 Epicentro: LOS SANTOS - SANTANDER                                             3
 ACTION:UPD 15-03-16 17:00 OP:nd   STATUS:               ID:20140525115711dL   I
 OLDACT:UP  14-05-25 22:20 OP:spq  STATUS:               ID:20140525114814     3
 OLDACT:REG 14-05-25 20:14 OP:spq  STATUS:               ID:20140525114814     3
 2014-05-25-1148-14M.COL___228                                                 6
 STAT SP IPHASW D HRMM SECON CODA AMPLIT PERI AZIMU VELO AIN AR TRES W  DIS CAZ7
 BRR  HZ EP       1157 31.48                             152    0.8710 68.2 295 
 BRR  HE ES       1157 46.59                             152    0.3810 68.2 295 
 BRR  HZ I        1157 52.58        51.8 0.20            154           68.2 295 
 RUS  HZ EP   1   1157 33.91                             140    0.04 7  106 176 
 RUS  HE ES   1   1157 51.64                             140   -0.36 7  106 176 
 RUS  HZ I        1157 54.38        62.4 0.28            143            106 176 
 PTB  HZ EP       1157 36.28                             130   -0.60 9  148 257 
 PTB  HN ES       1157 56.73                             130   -0.62 9  148 257 
 PTB  HZ I        1158  0.88        61.1 0.16            132            148 257 
 OCA  HZ EP       1157 37.75                             128   -0.01 9  155 353 
 OCA  HN ES       1157 58.91                             128   -0.01 9  155 353 
 OCA  HZ I        1158  4.89        52.3 0.22            133            155 353 
 TAM  HZ EP       1157 38.19                             128    0.39 9  157 107 
 TAM  HE ES       1157 58.96                             128   -0.04 9  157 107 
 TAM  HZ I        1158  4.79        25.6 0.35            133            157 107 
 SPBC HZ EP       1157 38.75                             126   -0.01 9  166 218 
 SPBC HE ES       1158  0.18                             126   -0.53 9  166 218 
 SPBC HZ I        1158  8.24       105.0 0.26            129            166 218 
 ZAR  HZ EP       1157 42.42                             121    0.21 9  201 291 
 ZAR  HN ES       1158  7.37                             121    0.52 9  201 291 
 ZAR  HZ I        1158 12.48        38.0 0.42            124            201 291 
 NOR  HZ EP       1157 45.80                             116   -0.28 8  237 233 
 NOR  HN ES       1158 13.02                             116   -0.71 8  237 233 
 NOR  HZ I        1158 15.92        48.2 0.16            119            237 233 
 SML  HZ EP       1157 45.92                             116   -0.30 8  239 335 
 SML  HN ES       1158 13.90                             116   -0.09 8  239 335 
 SML  HZ I        1158 16.79        35.5 0.09            120            239 335 
 CHI  HZ EP       1157 48.26                             115   -0.07 8  253 195 
 CHI  HE ES       1158 17.77                             115    0.02 8  253 195 
 CHI  HZ I        1158 24.35        27.1 0.30            117            253 195 
 ROSC BZ EP       1157 49.47                             114    0.79 8  257 210 
 ROSC BN ES   4   1158 19.93                             114    1.56 0  257 210 
 ROSC BZ I        1158 27.19        53.6 0.40            117            257 210 
 URE  HZ EP       1157 50.15                             112   -0.82 7  281 291 
 URE  HN ES   4   1158 19.99                             112   -2.44 0  281 291 
 URE  HZ I        1158 33.62        30.7 0.32            115            281 291 
 GUY2CHZ EP       1157 54.46                             110    0.39 7  303 234 
 GUY2CHN ES       1158 27.91                             110   -0.05 7  303 234 
 GUY2CHZ I        1158 38.12        46.3 0.44                           303 234 
 VIL  SZ EP       1157 53.89                             110   -0.28 7  308 191 
 VIL  SN ES   4   1158 27.32                             110   -0.82 0  308 191 
 VIL  SZ I        1158 40.49        42.1 0.32            113            308 191 
 RREF HZ EP       1157 57.27                             109    0.59 7  324 229 
 RREF HN ES       1158 32.53                             109   -0.08 7  324 229 
 RREF HZ I        1158 41.06        29.3 0.26            111            324 229 
 CBOC HZ EP       1157 57.71                             108    0.45 7  334 251 
 CBOC HN ES       1158 33.95                             108    0.32 7  334 251 
 CBOC HZ I        1158 46.01        10.5 0.52            111            334 251 
 DBB  SZ EP       1157 57.17                             108   -0.43 7  338 273 
 DBB  SZ ES   4   1158 31.93                             108   -2.32 0  338 273 
 DBB  SZ I        1158 36.42        62.9 0.52            111            338 273 
 TOL  SZ EP       1157 59.60                             107    0.73 6  346 224 
 TOL  SZ ES   1   1158 36.47                             107   -0.02 5  346 224 
 TOL  SZ I        1158 48.23         9.7 0.45            110            346 224 
 SDV  BZ EP       1157 59.11                             107   -0.94 6  358  51 
 SDV  BN ES   4   1158 35.65                             107   -2.94 0  358  51 
 SDV  BZ I        1158 40.55         7.7 0.55            110            358  51 
 ORTC HZ EP       1158  4.48                             105   -0.18 6  399 216 
 ORTC HN ES       1158 47.48                             105    0.68 6  399 216 
 ORTC HZ I        1158 54.28        21.6 0.42            107            399 216 
 SJC  HZ EP   4   1158  3.43                             104   -1.93 0  405 327 
 SJC  HE ES   4   1158 44.22                             104   -3.82 0  405 327 
 SJC  HZ I        1158 48.18         8.9 0.34            107            405 327 
                                                                                
