 2013  525 1320  6.8 L   6.794 -73.177144.7  RSN  7 0.4 1.6LRSN                1
 GAP=133        0.95       5.6     4.5  7.2 -0.2290E+01  0.5051E+01  0.9413E+01E
 Epicentro: LOS SANTOS - SANTANDER                                             3
 ACTION:UPD 13-06-20 09:53 OP:ep   STATUS:               ID:20130525132006 L   I
 2013-05-25-1320-00M.COL___261                                                 6
 STAT SP IPHASW D HRMM SECON CODA AMPLIT PERI AZIMU VELO AIN AR TRES W  DIS CAZ7
 BAR2 SZ IP       1320 26.38                             171    0.1210 22.4 182 
 BAR2 SZ EP       1320 26.38                                           22.4 182 
 BAR2 SZ ES   1   1320 40.79                             171   -0.67 7 22.4 182 
 BAR2 SZ I        1320 44.09         9.0 0.36            171           22.4 182 
 GIR2 SZ EP   1   1320 25.94                             167   -0.39 7 31.5 357 
 GIR2 SZ ES       1320 41.54                             167   -0.0410 31.5 357 
 GIR2 SZ I        1320 43.51         7.1 0.64            169           31.5 357 
 BRR  HN ES   1   1320 44.29                             153    0.34 7 68.5 300 
 BRR  HZ I        1320 49.86        10.9 0.32            156           68.5 300 
 PAM  SZ EP       1320 29.11                             150    0.0610 80.1  41 
 PAM  SN ES       1320 46.36                             150   -0.0510 80.1  41 
 PAM  SZ I        1320 48.47         8.3 0.52            154           80.1  41 
 RUS  HZ EP       1320 30.73                             143    0.3310  100 174 
 RUS  HN ES   1   1320 49.48                             143    0.65 7  100 174 
 RUS  HZ I        1320 52.08         2.4 0.30            147            100 174 
 PTB  HZ EP       1320 32.82                             132   -0.52 9  144 259 
 PTB  HN ES       1320 53.73                             132   -0.34 9  144 259 
 PTB  HZ I        1320 55.68         8.0 0.28            136            144 259 
 ZAR  HE ES   1   1321  4.81                             122    0.94 6  201 293 
                                                                                
