 2010  925 1056  9.9 L   6.861 -72.962142.8  RSN  5 0.2 1.6LRSN                1
 GAP=178        0.69       5.1     9.9  7.1  0.1267E+02 -0.2743E+02  0.5672E+00E
 Epicentro: CEPITA - SANTANDER                                                 3
 ACTION:UP  11-02-18 11:05 OP:tino STATUS:               ID:20100925105609 L   I
 2010-09-25-1052-19S.COL___120                                                 6
 STAT SP IPHASW D HRMM SECON CODA AMPLIT PERI AZIMU VELO SNR AR TRES W  DIS CAZ7
 BAR2 SZ EP       1056 29.99                             164     0.410   39 220 
 BAR2 SZ ES   1   1056 44.72                             164    -0.3 7   39 220 
 BAR2 SZ I        1056 46.32        10.2 0.26                            39 220 
 BRR  HZ IP     D 1056 31.80                             147     0.010   87 288 
 BRR  HN ES   1   1056 48.77                             147     0.0 7   87 288 
 BRR  HZ I        1056 51.12        11.3 0.25                            87 288 
 RUS  HZ EP       1056 34.13                             141     0.210  108 187 
 RUS  HZ I        1056 35.27         5.1 0.09                           108 187 
 RUS  HN ES   2   1056 52.54                             141    -0.1 5  108 187 
 GRA  SZ EP   1   1056 33.70                             139    -0.3 7  115   9 
 GRA  SZ I        1056 57.34         5.9 0.39                           115   9 
 CHI  HZ EP       1056 48.48                             115    -0.4 8  261 199 
                                                                                
