 2011  925 1400 48.2 L   6.764 -73.161148.4  RSN  6 0.3 2.2LRSN                1
 GAP=181        0.72       6.2     9.5  6.3  0.3310E+02 -0.1661E+02 -0.1117E+02E
 Epicentro: LOS SANTOS - SANTANDER                                             3
 ACTION:UPD 12-07-13 15:59 OP:ep   STATUS:               ID:20110925140048 L   I
 2011-09-25-1359-46S.COL___165                                                 6
 STAT SP IPHASW D HRMM SECON CODA AMPLIT PERI AZIMU VELO AIN AR TRES W  DIS CAZ7
 BAR2 SZ IP       14 1  8.01                             172   -0.0610 19.2 187 
 BAR2 SZ ES   1   14 1 22.79                             172   -0.77 7 19.2 187 
 BAR2 SZ I        14 1 24.07        28.3 0.26                          19.2 187 
 BTL  SZ EP       14 1  8.20                             172    0.1110 20.7 325 
 BTL  SZ ES   1   14 1 23.73                             172    0.12 7 20.7 325 
 BRR  HZ IP     C 14 1  9.78                             152    0.1210 71.7 302 
 BRR  HZ I        14 1  9.96        49.0 0.12                          71.7 302 
 BRR  HN ES   1   14 1 26.88                             152    0.48 7 71.7 302 
 RUS  HZ EP       14 1 12.15                             145    0.2110 96.8 175 
 RUS  HN ES   2   14 1 30.48                             145    0.02 5 96.8 175 
 OCA  SZ EP       14 1 16.87                             129   -0.19 9  164 354 
 ZAR  HE ES   2   14 1 45.50                             123   -0.75 4  204 293 
 ZAR  HZ I        14 1 52.98         8.5 0.52                           204 293 
                                                                                
