 2013  825 1639 15.9 L   6.669 -73.219142.5  RSN  5 0.6 1.5LRSN                1
 GAP=203        1.43      10.4     9.7 10.4  0.6136E+02  0.2065E+02 -0.3250E+01E
 Epicentro: BARICHARA - SANTANDER                                              3
 ACTION:UPD 14-01-14 09:06 OP:ep   STATUS:               ID:20130825163915 L   I
 OLDACT:REG 13-08-25 15:11 OP:nd   STATUS:               ID:20130825163849     3
 2013-08-25-1638-49M.COL___230                                                 6
 STAT SP IPHASW D HRMM SECON CODA AMPLIT PERI AZIMU VELO AIN AR TRES W  DIS CAZ7
 BAR2 SZ EP       1639 34.39                             176   -0.5110 9.42 154 
 BAR2 SZ ES       1639 49.26                             176   -0.4810 9.42 154 
 BAR2 SZ I        1639 50.79        10.1 0.16            176           9.42 154 
 BRR  HZ EP       1639 36.27                             151   -0.4910 72.9 312 
 BRR  HN ES       1639 53.94                             151    0.8910 72.9 312 
 BRR  HZ I        1639 56.13         6.4 0.54            150           72.9 312 
 RUS  HZ EP       1639 39.02                             147    0.6610 87.2 170 
 RUS  HN ES       1639 56.04                             147    0.1410 87.2 170 
 RUS  HZ I        1639 57.81         2.8 0.24            149           87.2 170 
 PTB  HZ EP       1639 41.12                             133   -0.53 9  138 264 
 PTB  HN ES       1640  1.72                             133   -0.03 9  138 264 
 PTB  HZ I        1640  4.24         4.1 0.16            133            138 264 
 ZAR  HZ EP       1639 48.81                             122    0.86 9  203 297 
 ZAR  HN ES       1640 12.53                             122   -0.45 9  203 297 
 ZAR  HZ I        1640 19.18         5.2 0.46            122            203 297 
                                                                                
