 2015 1025 1521 44.4 L   6.819 -73.146145.3  RSN 18 0.4 2.4LRSN                1
 GAP=135        1.01       2.4     3.7  4.9 -0.1855E+01  0.6775E+01  0.7525E+00E
 Epicentro: LOS SANTOS - SANTANDER                                             3
 ACTION:UPD 15-12-22 20:43 OP:cam  STATUS:               ID:20151025152144 L   I
 OLDACT:REG 15-10-25 20:31 OP:drio STATUS:               ID:20151025151750     3
 2015-10-25-1517-50M.COL___313                                                 6
 STAT SP IPHASW D HRMM SECON CODA AMPLIT PERI AZIMU VELO AIN AR TRES W  DIS CAZ7
 BAR2 EZ EP       1522  4.13                             170    0.0610 25.4 189 
 BAR2 EZ ES       1522 19.05                             170   -0.3210 25.4 189 
 BAR2 EZ I        1522 20.33        47.3 0.24            168           25.4 189 
 BRR  HZ EP       1522  5.99                             153    0.5010 70.1 297 
 BRR  HN ES       1522 22.91                             153    1.0110 70.1 297 
 BRR  HZ I        1522 27.04        35.1 0.28            149           70.1 297 
 PAM  EZ EP       1522  7.06                             151    0.5410 75.8  41 
 PAM  EN ES       1522 23.79                             151    0.0610 75.8  41 
 PAM  EZ I        1522 24.87        28.8 0.22            155           75.8  41 
 RUS  HZ EP       1522  8.07                             143   -0.2410  103 176 
 RUS  HN ES       1522 26.42                             143   -0.5010  103 176 
 RUS  HZ I        1522 28.38        18.9 0.46            146            103 176 
 OCA  HZ IP       1522 12.28                             130   -0.24 9  158 353 
 OCA  HN ES       1522 34.03                             130   -0.39 9  158 353 
 OCA  HZ I        1522 42.53        56.7 0.22            131            158 353 
 SPBC HZ EP       1522 13.05                             129   -0.01 9  165 219 
 SPBC HN ES       1522 35.18                             129   -0.21 9  165 219 
 SPBC HZ I        1522 39.74        43.2 0.32            129            165 219 
 ZAR  HZ EP       1522 16.80                             122    0.03 9  203 292 
 ZAR  HE ES       1522 42.21                             122    0.22 9  203 292 
 ZAR  HZ I        1522 47.41        29.5 0.40            122            203 292 
 NOR  HZ IP       1522 20.25                             118   -0.03 8  236 234 
 NOR  HN ES       1522 47.60                             118   -0.62 8  236 234 
 NOR  HZ I        1522 55.61        14.0 0.26            119            236 234 
 SML  HZ EP       1522 20.33                             118   -0.50 8  242 335 
 SML  HN ES       1522 48.45                             118   -0.76 8  242 335 
 SML  HZ I        1522 53.28        33.5 0.10            118            242 335 
 CHI  HZ EP       1522 22.44                             117    0.10 8  251 195 
 CHI  HE ES       1522 51.94                             117    0.04 8  251 195 
 CHI  HZ I        1522 56.95        15.9 0.30            119            251 195 
 ROSC BZ EP       1522 23.07                             116    0.33 8  255 211 
 ROSC BE ES       1522 52.97                             116    0.37 8  255 211 
 ROSC BZ I        1522 58.66        43.0 0.40            118            255 211 
 HEL  HZ EP   4   1522 25.77                             115    1.09 0  273 255 
 HEL  HN ES       1522 56.48                             115    0.41 8  273 255 
 HEL  HZ I        1523  2.51        11.4 0.44            115            273 255 
 GUY2CHZ EP       1522 29.04                             112    0.87 7  302 234 
 GUY2CHN ES       1523  1.54                             112   -0.73 7  302 234 
 GUY2CHZ I        1523 10.51        14.1 0.58                           302 234 
 ELA  HZ EP   4   1522 33.66                             110    2.23 0  330 229 
 ELA  HN ES       1523  7.64                             110   -0.44 7  330 229 
 ELA  HZ I        1523 16.82        10.5 0.58            111            330 229 
 CBOC HZ EP       1522 31.64                             110    0.23 7  334 252 
 CBOC HN ES       1523  7.75                             110   -0.29 7  334 252 
 CBOC HZ I        1523 13.81         3.7 0.50            110            334 252 
 MON  HZ EP       1522 32.94                             109   -0.33 6  352 308 
 MON  HE ES   4   1523  9.50                             109   -1.85 0  352 308 
 MON  HZ I        1523 11.92         5.4 0.36            109            352 308 
 ORTC HZ EP       1522 38.81                             106    0.26 6  397 216 
 ORTC HN ES       1523 20.97                             106    0.22 6  397 216 
 ORTC HZ I        1523 25.50         8.7 0.22            107            397 216 
 SJC  HZ EP   4   1522 36.32                             106   -3.45 0  407 327 
 SJC  HN ES   4   1523 19.19                             106   -3.74 0  407 327 
 SJC  HZ I        1523 34.24         4.1 0.44            107            407 327 
                                                                                
