 2010  725 1450 41.6 L   6.830 -73.194131.9  RSN  6 0.4 1.7LRSN                1
 GAP=153        0.89       6.7    11.0 10.3  0.1160E+02 -0.2772E+02 -0.2216E+02E
 Epicentro: ZAPATOCA - SANTANDER                                               3
 ACTION:UPD 10-12-01 15:20 OP:pat  STATUS:               ID:20100725145041 L   I
 2010-07-25-1446-52S.COL___123                                                 6
 STAT SP IPHASW D HRMM SECON CODA AMPLIT PERI AZIMU VELO AIN AR TRES W  DIS CAZ7
 BAR2 SZ EP   1   1450 59.53                             168    -0.1 7   26 177 
 BAR2 SZ ES   1   1451 14.06                             168     0.4 7   26 177 
 BAR2 SZ I        1451 15.01        19.2 0.30                            26 177 
 BRR  HZ IP     C 1451  1.31                             152     0.410   65 298 
 BRR  HZ I        1451  5.49        10.4 0.17                            65 298 
 BRR  HE ES   1   1451 15.34                             152    -0.6 7   65 298 
 RUS  HZ EP   2   1451  3.59                             139    -0.7 5  104 173 
 RUS  HN ES   2   1451 21.89                             139    -0.1 5  104 173 
 RUS  HZ I        1451 24.10         5.5 0.29                           104 173 
 GUE  SZ EP   2   1451  4.79                             137    -0.1 5  114  15 
 GUE  SZ I        1451  6.25         6.1 0.10                           114  15 
 GRA  SZ EP   2   1451  5.01                             134    -0.5 5  124  20 
 GRA  SZ ES   2   1451 24.05                             134    -0.1 5  124  20 
 GRA  SZ I        1451 28.75         6.7 0.65                           124  20 
 OCA  SZ EP   2   1451  8.78                             127     0.3 5  156 355 
 OCA  SZ I        1451 30.34         8.2 0.31                           156 355 
                                                                                
