 2012  125 1803 43.5 L   6.802 -73.140140.9  RSN 11 0.4 2.5LRSN                1
 GAP=137        1.16       5.2     7.3  8.1 -0.8780E+00  0.2232E+02  0.3048E+01E
 Epicentro: LOS SANTOS - SANTANDER                                             3
 ACTION:UP  12-02-03 08:20 OP:REBC STATUS:               ID:20120125180343 L   I
 2012-01-25-1800-00M.COL___188                                                 6
 STAT SP IPHASW D HRMM SECON CODA AMPLIT PERI AZIMU VELO SNR AR TRES W  DIS CAZ7
 BAR2 SZ EP       18 4  2.63                             170     0.110   24 191 
 BAR2 SZ ES   1   18 4 16.68                             170    -0.7 7   24 191 
 BAR2 SZ I        18 4 18.56        59.2 0.32                            24 191 
 GIR2 SZ EP       18 4  2.59                             167     0.010   31 349 
 BRR  HZ EP       18 4  4.41                             151     0.310   72 298 
 BRR  HE ES   1   18 4 21.09                             151     0.9 7   72 298 
 BRR  HZ I        18 4 24.58        81.4 0.12                            72 298 
 PAM  SZ EP       18 4  5.36                             150     0.210   77  39 
 PAM  SN ES   1   18 4 21.89                             150    -0.1 7   77  39 
 RUS  HZ EP       18 4  6.78                             143     0.010  101 176 
 RUS  HN ES   1   18 4 24.73                             143    -0.2 7  101 176 
 RUS  HZ I        18 4 27.10        32.4 0.34                           101 176 
 PTB  HZ EP       18 4  9.09                             131    -1.0 9  148 259 
 PTB  HZ I        18 4 35.19        28.5 0.28                           148 259 
 OCA  SZ EP       18 4 11.13                             128    -0.2 9  160 353 
 OCA  SZ I        18 4 35.75        35.3 0.20                           160 353 
 ZAR  HZ EP       18 4 15.40                             121    -0.2 9  205 292 
 ZAR  HN ES   2   18 4 40.59                             121    -0.1 4  205 292 
 ZAR  HZ I        18 4 45.87        44.5 0.42                           205 292 
 CHI  HZ EP       18 4 21.14                             116     0.2 8  249 195 
 CHI  HN ES   2   18 4 50.39                             116     0.2 4  249 195 
 CHI  HZ I        18 4 57.50        20.4 0.50                           249 195 
 HEL  HZ EP   2   18 4 23.52                             114     0.0 4  273 256 
 HEL  HZ I        18 5  1.30        15.7 0.26                           273 256 
 GUY  SZ EP       18 4 27.91                             111     0.7 7  304 235 
 GUY  SN ES   3   18 5  1.79                             111     0.5 2  304 235 
 GUY  SZ I        18 5 12.54        20.5 0.44                           304 235 
                                                                                
