 2015 1225 1944 20.7 L   6.793 -73.142151.3  RSN 11 0.4 2.2LRSN                1
 GAP=137        0.89       2.3     3.6  4.7 -0.1030E+01  0.3653E+01 -0.7036E-01E
 Epicentro: LOS SANTOS - SANTANDER                                             3
 ACTION:UPD 16-02-04 15:07 OP:cam  STATUS:               ID:20151225194420 L   I
 OLDACT:REG 15-12-25 22:29 OP:cara STATUS:               ID:20151225193750     3
 2015-12-25-1937-50M.COL___328                                                 6
 STAT SP IPHASW D HRMM SECON CODA AMPLIT PERI AZIMU VELO AIN AR TRES W  DIS CAZ7
 BAR2 EZ IP       1944 40.72                             171   -0.2210 22.6 191 
 BAR2 EZ ES       1944 56.55                             171   -0.2010 22.6 191 
 BAR2 EZ I        1944 58.70        28.8 0.24            170           22.6 191 
 BRR  HZ IP       1944 42.88                             153    0.4310 72.0 299 
 BRR  HN ES       1944 59.82                             153    0.3810 72.0 299 
 BRR  HZ I        1945  5.43        15.8 0.12            152           72.0 299 
 PAM  EZ EP       1944 43.69                             152    0.2110 77.7  39 
 PAM  EE ES       1945  1.36                             152    0.0810 77.7  39 
 PAM  EZ I        1945  3.16        15.6 0.48            156           77.7  39 
 RUS  HZ EP       1944 44.53                             145   -0.3710 99.7 176 
 RUS  HN ES       1945  4.00                             145    0.2010 99.7 176 
 RUS  HZ I        1945  6.13        14.2 0.58            148           99.7 176 
 PTB  HZ EP       1944 47.67                             133   -0.43 9  148 259 
 PTB  HN ES       1945  8.86                             133   -0.65 9  148 259 
 PTB  HZ I        1945 12.38        22.7 0.12            134            148 259 
 OCA  HZ EP       1944 48.82                             131   -0.66 9  161 353 
 OCA  HN ES       1945 12.03                             131    0.07 9  161 353 
 OCA  HZ I        1945 16.06        41.6 0.38            133            161 353 
 SPBC HZ EP       1944 50.08                             130    0.53 9  163 219 
 SPBC HN ES       1945 11.60                             130   -0.49 9  163 219 
 SPBC HZ I        1945 19.01        34.4 0.28            132            163 219 
 ZAR  HZ EP       1944 53.61                             123    0.07 9  205 292 
 ZAR  HN ES       1945 19.69                             123    0.50 9  205 292 
 ZAR  HZ I        1945 25.46        29.0 0.56            125            205 292 
 NOR  HZ EP       1944 56.77                             120    0.07 8  235 235 
 NOR  HN ES       1945 25.08                             120    0.27 8  235 235 
 NOR  HZ I        1945 27.07        14.0 0.32            121            235 235 
 SML  HZ EP       1944 57.76                             118    0.06 8  245 335 
 SML  HN ES       1945 26.42                             118   -0.17 8  245 335 
 SML  HZ I        1945 32.14        26.2 0.10            120            245 335 
 CHI  HZ EP       1944 58.85                             118    0.25 8  248 195 
 CHI  HN ES       1945 28.45                             118    0.26 8  248 195 
 CHI  HZ I        1945 36.30         5.7 0.34            121            248 195 
                                                                                
