 2011  725 1322 52.9 L   6.804 -73.111140.4  RSN 15 0.4 2.8LRSN                1
 GAP=128        0.82       3.0     4.6  4.9 -0.6507E+01  0.5328E+01  0.1760E+01E
 Epicentro: LOS SANTOS - SANTANDER                                             3
 ACTION:UPD 12-07-25 14:03 OP:epov STATUS:               ID:20110725132253 L   I
 2011-07-25-1321-11S.COL___143                                                 6
 STAT SP IPHASW D HRMM SECON CODA AMPLIT PERI AZIMU VELO AIN AR TRES W  DIS CAZ7
 BAR2 SZ IP     D 1323 11.99                             170    0.0810 24.7 199 
 BAR2 SZ ES   1   1323 25.88                             170   -0.86 7 24.7 199 
 BAR2 SZ I        1323 27.91       159.7 0.27                          24.7 199 
 BRR  HZ IP     C 1323 13.82                             151    0.1610 74.4 297 
 BRR  HE ES   1   1323 30.02                             151    0.16 7 74.4 297 
 BRR  HZ I        1323 33.89       149.5 0.20                          74.4 297 
 PAM  SZ EP       1323 14.95                             151    0.5710 74.7  37 
 PAM  SE ES   1   1323 31.62                             151    0.48 7 74.7  37 
 RUS  HZ EP   1   1323 15.87                             143   -0.27 7  101 178 
 RUS  HN ES   1   1323 34.37                             143    0.10 7  101 178 
 RUS  HZ I        1323 36.42        76.8 0.29                           101 178 
 BRI  SZ EP   1   1323 16.52                             141    0.37 7  107  19 
 BRI  SZ ES   1   1323 34.20                             141   -0.09 7  107  19 
 BRI  SZ I        1323 37.09       100.0 0.37                           107  19 
 OCA  SZ EP   1   1323 20.66                             128   -0.14 7  160 352 
 OCA  SZ ES   1   1323 41.82                             128   -0.75 7  160 352 
 OCA  SZ I        1323 46.97        74.8 0.43                           160 352 
 NOR  SZ EP   1   1323 28.04                             117   -0.64 6  238 235 
 NOR  SE ES   1   1323 56.40                             117   -0.20 6  238 235 
 CHI  HZ EP   1   1323 30.24                             116   -0.21 6  250 196 
 CHI  HN ES   1   1323 59.53                             116   -0.22 6  250 196 
 CHI  HZ I        1324  2.98        28.6 0.38                           250 196 
 ROSC BN ES   1   1324  1.43                             115    0.73 6  255 212 
 ROSC BZ I        1324  6.92        73.4 0.31                           255 212 
 HEL  HZ EP   1   1323 34.06                             113    0.79 6  276 256 
 RREF HZ EP   1   1323 38.79                             110   -0.38 5  325 230 
 RREF HN ES   1   1324 15.39                             110    0.12 5  325 230 
 RREF HZ I        1324 23.66        46.2 0.26                           325 230 
 DBB  SZ EP       1323 40.41                             108   -0.19 7  343 274 
 TOL  SZ EP   1   1323 41.44                             108    0.15 5  347 225 
 SDV  BZ EP       1323 41.68                             107   -0.68 6  357  50 
 SDV  BZ I        1324 23.91        11.9 0.37                           357  50 
 PRA  HZ EP       1323 46.66                             105    0.16 6  394 210 
 PRA  HN ES   1   1324 28.03                             105   -0.28 4  394 210 
                                                                                
