 2012  825 1501 47.7 L   6.814 -73.130150.6  RSN  6 0.4 1.7LRSN                1
 GAP=138        0.73       4.9     4.7  6.7 -0.3317E+00  0.5159E+01  0.5620E+01E
 Epicentro: LOS SANTOS - SANTANDER                                             3
 ACTION:UPD 12-09-10 11:58 OP:ep   STATUS:               ID:20120825150147 L   I
 2012-08-25-1457-40M.COL___217                                                 6
 STAT SP IPHASW D HRMM SECON CODA AMPLIT PERI AZIMU VELO AIN AR TRES W  DIS CAZ7
 BAR2 SZ EP   1   15 2  8.04                             170    0.11 7 25.2 193 
 BAR2 SZ I        15 2  8.49        11.2 0.16                          25.2 193 
 BAR2 SZ ES   1   15 2 23.98                             170    0.25 7 25.2 193 
 BRR  HZ EP   1   15 2  9.60                             153    0.20 7 72.0 297 
 BRR  HZ I        15 2  9.85        19.2 0.13                          72.0 297 
 BRR  HN ES       15 2 26.46                             153    0.1210 72.0 297 
 PAM  SZ EP   1   15 2 10.71                             153    0.43 7 75.1  39 
 PAM  SZ I        15 2 11.03        19.1 0.16                          75.1  39 
 PAM  SN ES       15 2 27.49                             153   -0.4210 75.1  39 
 RUS  HZ EP   1   15 2 12.24                             144    0.23 7  102 177 
 RUS  HN ES   1   15 2 30.97                             144   -0.02 7  102 177 
 RUS  HZ I        15 2 33.52         1.7 0.23                           102 177 
 PTB  HZ EP   1   15 2 14.44                             133   -0.78 7  150 258 
 PTB  HN ES   2   15 2 36.34                             133   -0.37 5  150 258 
 PTB  HZ I        15 2 39.46         3.9 0.15                           150 258 
 ZAR  HN ES   2   15 2 46.70                             123    0.51 4  205 292 
                                                                                
