 2011  225 1759 50.8 L   6.847 -73.294125.7  RSN  7 0.2 2.0LRSN                1
 GAP=131        0.55       2.6     6.4  6.3 -0.6729E+01  0.2601E+02 -0.6930E+01E
 Epicentro: ZAPATOCA - SANTANDER                                               3
 ACTION:UP  11-03-28 15:11 OP:jfem STATUS:               ID:20110225175950 L   I
 2011-02-25-1757-42S.COL___137                                                 6
 STAT SP IPHASW D HRMM SECON CODA AMPLIT PERI AZIMU VELO SNR AR TRES W  DIS CAZ7
 BAR2 SZ IP       18 0  8.18                             165     0.010   31 157 
 BAR2 SZ ES   1   18 0 21.57                             165    -0.2 7   31 157 
 BAR2 SZ I        18 0 22.94        67.0 0.31                            31 157 
 RUS  HZ EP       18 0 13.24                             137     0.010  108 168 
 RUS  HN ES   1   18 0 30.77                             137     0.1 7  108 168 
 RUS  HZ I        18 0 33.73         8.1 0.25                           108 168 
 GRA  SZ EP       18 0 14.45                             132     0.110  127  25 
 GRA  SZ ES   1   18 0 33.14                             132     0.3 7  127  25 
 GRA  SZ I        18 0 37.36        24.0 0.45                           127  25 
 OCA  SZ EP       18 0 16.56                             126    -0.4 9  154 359 
 OCA  SZ I        18 0 37.55        25.8 0.07                           154 359 
 CHI  HZ EP   2   18 0 27.65                             112     0.1 4  250 191 
 CHI  HE ES   2   18 0 56.23                             112     0.0 4  250 191 
 CHI  HZ I        18 1  1.18         3.9 0.26                           250 191 
 HEL  HZ EP   2   18 0 28.95                             112     0.6 4  258 254 
 DBB  SZ EP       18 0 35.52                             106     0.0 7  323 274 
                                                                                
