 2016  325 1709  9.9 L   6.648 -73.448106.0  RSN 10 0.4 1.6LRSN                1
 GAP= 64        0.77       3.1     3.5  8.8 -0.2842E+01  0.1348E+02 -0.9840E+01E
 Epicentro: EL CARMEN - SANTANDER                                              3
 ACTION:UPD 16-05-13 21:27 OP:cam  STATUS:               ID:20160325170909 L   I
 OLDACT:REG 16-03-25 21:52 OP:dnl  STATUS:               ID:20160325170749     3
 2016-03-25-1707-49M.COL___298                                                 6
 STAT SP IPHASW D HRMM SECON CODA AMPLIT PERI AZIMU VELO AIN AR TRES W  DIS CAZ7
 BAR2 EZ EP       17 9 25.21                             163    0.2510 30.0 102 
 BAR2 EZ I        17 9 40.84         7.2 0.09            164           30.0 102 
 RUS  HZ EP   2   17 9 28.82                             136   -0.48 5 92.8 154 
 RUS  HN ES       17 9 44.57                             136    0.1310 92.8 154 
 RUS  HZ I        17 9 46.17         6.2 0.18            138           92.8 154 
 PTB  HZ EP       17 9 29.54                             130   -0.8510  112 264 
 PTB  HN ES       17 9 46.42                             130    0.0410  112 264 
 PTB  HZ I        17 9 49.53        10.5 0.18            132            112 264 
 PAM  EZ EP   2   17 9 30.81                             130   -0.26 5  113  47 
 PAM  EN ES   2   17 9 47.43                             130   -0.17 5  113  47 
 PAM  EZ I        17 9 49.68         3.7 0.27            132            113  47 
 SPBC HZ EP   2   17 9 32.04                             125   -0.18 5  130 212 
 SPBC HE ES   2   17 9 49.54                             125   -0.11 5  130 212 
 SPBC HZ I        17 9 54.08        13.0 0.18            127            130 212 
 OCA  HN ES       17 9 58.56                             116    0.04 9  177   5 
 ZAR  HZ EP       17 9 38.05                             115    0.47 9  182 301 
 ZAR  HE ES   4   1710  1.58                             115    2.39 0  182 301 
 ZAR  HZ I        1710  4.13        11.1 0.23            117            182 301 
 NOR  HZ EP   2   17 9 39.43                             113   -0.01 4  198 233 
 NOR  HE ES   2   1710  3.00                             113    0.50 4  198 233 
 NOR  HZ I        1710  5.60         3.3 0.16            115            198 233 
 HEL  HZ EP   2   17 9 45.16                             109    1.00 4  236 258 
 HEL  HN ES   2   1710 10.93                             109    0.03 4  236 258 
 HEL  HZ I        1710 16.65         2.4 0.32            111            236 258 
 GUY2CHZ EP   2   17 9 47.31                             106   -0.31 4  264 234 
 GUY2CHN ES   2   1710 17.66                             106    0.60 4  264 234 
 GUY2CHZ I        1710 26.42         2.1 0.23                           264 234 
                                                                                
