 2012 1125 1717 36.7 L   6.779 -73.159139.6  RSN  8 0.3 2.0LRSN                1
 GAP=136        0.67       3.6     3.7  5.3 -0.1782E+01  0.8012E+01  0.3167E+01E
 Epicentro: LOS SANTOS - SANTANDER                                             3
 ACTION:UPD 12-12-05 15:36 OP:}ep  STATUS:               ID:20121125171736 L   I
 2012-11-25-1710-00M.COL___233                                                 6
 STAT SP IPHASW D HRMM SECON CODA AMPLIT PERI AZIMU VELO AIN AR TRES W  DIS CAZ7
 BAR2 SZ EP       1717 55.45                             171   -0.0910 20.8 187 
 BAR2 SZ ES   1   1718 10.77                             171    0.54 7 20.8 187 
 BAR2 SZ I        1718 11.73        38.2 0.14                          20.8 187 
 GIR2 SZ EP   1   1717 55.52                             166   -0.17 7 33.3 353 
 GIR2 SZ ES   1   1718 10.42                             166   -0.10 7 33.3 353 
 GIR2 SZ I        1718 12.47        17.9 0.48                          33.3 353 
 PAM  SZ EP   1   1717 58.38                             149   -0.05 7 80.1  39 
 PAM  SN ES   1   1718 14.94                             149   -0.44 7 80.1  39 
 PAM  SZ I        1718 17.47        17.7 0.48                          80.1  39 
 RUS  HZ EP   1   1717 59.62                             143   -0.06 7 98.4 175 
 RUS  HE ES   1   1718 17.80                             143    0.18 7 98.4 175 
 RUS  HZ I        1718 19.31        14.5 0.30                          98.4 175 
 PTB  HZ EP   1   1718  3.83                             131    0.84 7  146 260 
 PTB  HN ES   1   1718 23.18                             131   -0.32 7  146 260 
 PTB  HZ I        1718 24.83         8.1 0.30                           146 260 
 ZAR  HZ EP   1   1718  8.89                             121    0.20 6  204 293 
 ZAR  HN ES   1   1718 33.87                             121    0.22 6  204 293 
 ZAR  HZ I        1718 40.15        16.9 0.24                           204 293 
 NOR  HZ EP   1   1718 11.66                             117   -0.14 6  232 235 
 NOR  HN ES   1   1718 38.56                             117   -0.62 6  232 235 
 NOR  HZ I        1718 41.37         6.2 0.14                           232 235 
 PRA  HZ EP   1   1718 29.81                             106    0.12 4  389 210 
 PRA  HN ES   1   1719 10.91                             106   -0.11 4  389 210 
                                                                                
