 2016 1025 1618 48.9 L   6.349 -73.634115.1  RSN  6 0.2 1.4LRSN                1
 GAP= 83        0.69       2.9     2.9  5.7  0.3041E+00  0.2805E+01  0.9774E+00E
 Epicentro: SANTA HELENA DEL OPON - SANTANDER                                  3
 ACTION:UPD 16-11-09 19:22 OP:rebc STATUS:               ID:20161025161848 L   I
 OLDACT:UP  16-10-26 00:06 OP:edw  STATUS:               ID:20161025161750     3
 OLDACT:UP  16-10-26 00:04 OP:edw  STATUS:               ID:20161025161750     3
 OLDACT:REG 16-10-25 22:15 OP:edw  STATUS:               ID:20161025161750     3
 2016-10-25-1618-00M.COL___349                                                 6
 STAT SP IPHASW D HRMM SECON CODA AMPLIT PERI AZIMU VELO AIN AR TRES W  DIS CAZ7
 BAR2 EZ IP     D 1619  6.51                             152    0.2310 56.7  62 
 BAR2 EZ ES       1619 19.90                             152    0.0810 56.7  62 
 BAR2 EZ I        1619 20.89         7.6 0.13            158           56.7  62 
 RUS  HZ EP       1619  7.79                             143   -0.3110 79.1 130 
 RUS  HE ES       1619 22.80                             143   -0.2710 79.1 130 
 RUS  HZ I        1619 23.37         1.9 0.09            147           79.1 130 
 BRR  HZ EP       1619  7.76                             141   -0.0410 84.3 354 
 BRR  HN ES       1619 22.74                             141    0.2110 84.3 354 
 SPBC HZ EP       1619  8.77                             139    0.3210 91.0 212 
 SPBC HN ES       1619 23.99                             139    0.3010 91.0 212 
 SPBC HZ I        1619 28.01         7.2 0.09            140           91.0 212 
 PTB  HZ EP       1619  8.38                             138   -0.1610 93.4 283 
 PTB  HN ES       1619 23.49                             138   -0.3610 93.4 283 
 PTB  HZ I        1619 26.61         7.1 0.12            139           93.4 283 
 GUY2CHZ EP   4   1619 24.89                             112    1.99 0  229 237 
 GUY2CHN ES   4   1619 52.63                             112    3.22 0  229 237 
 GUY2CHZ I        1619 56.60         2.7 0.32                           229 237 
                                                                                
