 2012  225 1755 24.6 L   6.739 -73.113150.0  RSN  5 0.3 1.3LRSN                1
 GAP=144        0.47       5.9    10.7  7.5  0.2362E+02 -0.2569E+02 -0.7258E+01E
 ACTION:UP  12-03-07 16:34 OP:epov STATUS:               ID:20120225175524 L   I
 2012-02-25-1750-00M.COL___193                                                 6
 STAT SP IPHASW D HRMM SECON CODA AMPLIT PERI AZIMU VELO AIN AR TRES W  DIS CAZ7
 BAR2 SZ ES   2   1756  0.45                             173    0.17 5 18.0 205 
 GIR2 SZ EP   2   1755 44.58                             165   -0.40 5 38.6 347 
 GIR2 SZ ES   2   1756  0.96                             165    0.07 5 38.6 347 
 BRR  HZ EP   2   1755 46.37                             151   -0.20 5 77.7 302 
 BRR  HE ES   2   1756  3.85                             151    0.13 5 77.7 302 
 PAM  SZ EP   2   1755 47.50                             151    0.05 5 80.6  34 
 RUS  HZ EP   2   1755 48.86                             147    0.58 5 93.7 178 
 RUS  HE ES   2   1756  6.37                             147   -0.40 5 93.7 178 
 RUS  HZ I        1756  7.88         3.3 0.31                          93.7 178 
                                                                                
