 2016  425 1656 56.1 L   6.806 -73.201140.3  RSN  6 0.2 1.7LRSN                1
 GAP=145        0.32       2.8     3.0  3.9 -0.4349E+01  0.3106E+01  0.1891E+01E
 Epicentro: ZAPATOCA - SANTANDER                                               3
 ACTION:UPD 16-05-05 14:24 OP:rebc STATUS:               ID:20160425165656 L   I
 OLDACT:REG 16-04-25 22:26 OP:dnl  STATUS:               ID:20160425164745     3
 2016-04-25-1647-45M.COL___314                                                 6
 STAT SP IPHASW D HRMM SECON CODA AMPLIT PERI AZIMU VELO AIN AR TRES W  DIS CAZ7
 BAR2 EZ EP   2   1657 15.16                             170    0.07 5 23.8 175 
 BAR2 EZ ES   2   1657 29.58                             170   -0.31 5 23.8 175 
 BAR2 EZ I        1657 31.70        13.3 0.26            172           23.8 175 
 PAM  EZ EP       1657 18.01                             148    0.0510 80.9  43 
 PAM  EN ES       1657 35.06                             148    0.0510 80.9  43 
 PAM  EZ I        1657 38.18         5.4 0.44            152           80.9  43 
 RUS  HZ EP       1657 19.32                             142   -0.1010  102 173 
 RUS  HE ES   2   1657 37.79                             142    0.19 5  102 173 
 RUS  HZ I        1657 39.04         6.8 0.30            148            102 173 
 PTB  HZ EP   2   1657 21.87                             132   -0.22 5  142 258 
 PTB  HN ES   2   1657 42.34                             132   -0.02 5  142 258 
 PTB  HZ I        1657 45.51         5.0 0.14            132            142 258 
 ZAR  HE ES   4   1657 50.67                             122   -1.46 0  198 293 
 ZAR  HZ I        1657 58.34         6.8 0.30            123            198 293 
 GUY2CHZ EP   2   1657 39.15                             111    0.21 4  297 234 
 GUY2CHN ES   2   1658 12.61                             111    0.26 4  297 234 
 GUY2CHZ I        1658 21.34         3.0 0.40                           297 234 
                                                                                
