 2012 1125 1958 44.9 L   6.745 -73.130146.0  RSN  7 0.3 1.6LRSN                1
 GAP=141        0.64       3.9     3.8  6.2 -0.2136E+01  0.9070E+01  0.2631E+01E
 Epicentro: JORDAN - SANTANDER                                                 3
 ACTION:UPD 12-12-05 15:36 OP:}ep  STATUS:               ID:20121125195844 L   I
 2012-11-25-1957-37M.COL___204                                                 6
 STAT SP IPHASW D HRMM SECON CODA AMPLIT PERI AZIMU VELO AIN AR TRES W  DIS CAZ7
 BAR2 SZ EP   1   1959  4.56                             173    0.09 7 17.8 199 
 GIR2 SZ EP   1   1959  4.72                             165   -0.08 7 37.6 349 
 GIR2 SZ ES   1   1959 20.54                             165    0.23 7 37.6 349 
 GIR2 SZ I        1959 21.68         6.6 0.36                          37.6 349 
 PAM  SZ EP   1   1959  7.55                             150    0.17 7 81.2  36 
 PAM  SN ES   1   1959 24.59                             150   -0.32 7 81.2  36 
 PAM  SZ I        1959 26.86         9.8 0.60                          81.2  36 
 RUS  HZ EP   1   1959  8.77                             146    0.52 7 94.4 177 
 RUS  HN ES   1   1959 26.25                             146   -0.20 7 94.4 177 
 RUS  HZ I        1959 28.31         4.5 0.40                          94.4 177 
 PTB  HZ EP   1   1959 11.53                             132   -0.42 7  148 261 
 PTB  HN ES   1   1959 32.90                             132   -0.15 7  148 261 
 PTB  HZ I        1959 38.50         6.1 0.24                           148 261 
 ZAR  HZ EP   1   1959 18.10                             122    0.32 6  208 294 
 ZAR  HN ES   1   1959 43.48                             122    0.07 6  208 294 
 ZAR  HZ I        1959 49.73         7.4 0.24                           208 294 
 NOR  HZ EP   1   1959 19.72                             119   -0.71 6  233 236 
 NOR  HE ES   1   1959 48.55                             119    0.41 6  233 236 
 NOR  HZ I        1959 54.80         2.8 0.14                           233 236 
 SML  HN ES   4   1959 49.41                             117   -1.93 0  250 336 
                                                                                
