 2016  925 1210  7.9 L   6.713 -73.489112.2  RSN  8 0.4 1.7LRSN                1
 GAP=141        0.93       3.8     4.7  6.9  0.7483E+01  0.1779E+02  0.8127E+01E
 Epicentro: EL CARMEN - SANTANDER                                              3
 ACTION:UPD 17-08-17 21:16 OP:lp   STATUS:               ID:20160925121007 L   I
 OLDACT:UP  16-09-25 22:56 OP:and  STATUS:               ID:20160925120743     3
 OLDACT:UP  16-09-25 22:53 OP:and  STATUS:               ID:20160925120743     3
 OLDACT:UP  16-09-25 22:51 OP:and  STATUS:               ID:20160925120743     3
 OLDACT:REG 16-09-25 20:26 OP:y    STATUS:               ID:20160925120743     3
 2016-09-25-1208-00M.COL___327                                                 6
 STAT SP IPHASW D HRMM SECON CODA AMPLIT PERI AZIMU VELO AIN AR TRES W  DIS CAZ7
 BAR2 EZ EP       1210 24.20                             160    0.2210 36.4 111 
 BAR2 EZ ES       1210 36.54                             160    0.0410 36.4 111 
 BAR2 EZ I        1210 37.99        20.6 0.16            165           36.4 111 
 BRR  HZ IP     C 1210 23.97                             154   -0.3010 50.1 331 
 BRR  HN ES       1210 36.59                             154   -0.4210 50.1 331 
 RUS  HZ EP       1210 28.83                             135    0.2210  101 154 
 RUS  HN ES       1210 45.33                             135    0.5910  101 154 
 RUS  HZ I        1210 45.78        12.7 0.18            137            101 154 
 PTB  HZ IP   4 C 1210 27.11                             133   -1.51 0  109 260 
 PTB  HN ES   4   1210 41.71                             133   -3.04 0  109 260 
 PTB  HZ I        1210 45.76         8.7 0.09            131            109 260 
 SPBC HZ EP       1210 30.56                             126   -0.5410  134 209 
 SPBC HN ES       1210 48.79                             126   -0.3810  134 209 
 SPBC HZ I        1210 49.20         9.9 0.09            126            134 209 
 ZAR  HZ EP       1210 35.28                             118    0.13 9  174 300 
 ZAR  HE ES       1210 56.90                             118    0.52 9  174 300 
 ZAR  HZ I        1210 58.24         6.3 0.26            118            174 300 
 NOR  HZ EP       1210 37.50                             114   -0.40 9  199 230 
 NOR  HN ES   2   1211  1.63                             114    0.35 4  199 230 
 NOR  HZ I        1211  2.36         6.3 0.16            115            199 230 
 HEL  HZ EP   2   1210 42.83                             111    0.68 4  233 256 
 HEL  HE ES   2   1211  9.47                             111    0.63 4  233 256 
 HEL  HZ I        1211 18.85         2.2 0.49            111            233 256 
                                                                                
