 2013  525 1741 31.3 L   7.325 -73.552103.3  RSN  5 0.3 1.3LRSN                1
 GAP=255        0.69       7.4     3.7  5.2  0.1488E+01  0.5333E+01  0.5820E+01E
 Epicentro: SABANA DE TORRES - SANTANDER                                       3
 ACTION:UPD 13-06-20 09:53 OP:ep   STATUS:               ID:20130525174131 L   I
 2013-05-25-1740-00M.COL___261                                                 6
 STAT SP IPHASW D HRMM SECON CODA AMPLIT PERI AZIMU VELO AIN AR TRES W  DIS CAZ7
 BRR  HZ EP       1741 45.66                             162   -0.0110 29.9 216 
 BRR  HN ES       1741 57.32                             162    0.4110 29.9 216 
 BRR  HZ I        1742  0.28        13.7 0.36            151           29.9 216 
 GIR2 SZ ES       1741 58.45                             153   -0.3310 48.1 124 
 BAR2 SZ EP       1741 49.82                             135   -0.1010 90.8 153 
 BAR2 SZ ES       1742  4.51                             135    0.0310 90.8 153 
 BAR2 SZ I        1742  5.56         5.9 0.36            126           90.8 153 
 PTB  HZ EP       1741 53.44                             123   -0.1210  132 229 
 PTB  HN ES       1742 10.79                             123   -0.1710  132 229 
 PTB  HZ I        1742 16.58         3.5 0.16            116            132 229 
 RUS  HZ EP   1   1741 58.40                             117    0.60 7  167 162 
 RUS  HZ I        1742 10.91         1.2 0.40            111            167 162 
                                                                                
