 2011  625 1009  7.3 L   6.771 -73.086142.4  RSN 10 0.3 2.0LRSN                1
 GAP=163        0.63       3.0     4.7  4.4 -0.5660E+01  0.2129E+01  0.2659E+00E
 Epicentro: LOS SANTOS - SANTANDER                                             3
 ACTION:UP  11-07-14 19:07 OP:ep   STATUS:               ID:20110625100907 L   I
 2011-06-25-1000-00M.COL___116                                                 6
 STAT SP IPHASW D HRMM SECON CODA AMPLIT PERI AZIMU VELO SNR AR TRES W  DIS CAZ7
 BAR2 SZ IP       10 9 26.43                             171    -0.110   22 208 
 BAR2 SZ ES   1   10 9 41.07                             171    -0.4 7   22 208 
 BAR2 SZ I        10 9 42.54        26.1 0.37                            22 208 
 BTL  SZ EP       10 9 26.66                             169     0.110   26 309 
 BTL  SZ ES   1   10 9 42.03                             169     0.4 7   26 309 
 GIR2 SZ EP   1   10 9 26.59                             165    -0.1 7   36 341 
 GIR2 SZ ES   2   10 9 41.83                             165     0.0 5   36 341 
 BRR  HZ EP       10 9 28.20                             150    -0.310   79 298 
 BRR  HN ES   1   10 9 45.02                             150    -0.1 7   79 298 
 BRR  HZ I        10 9 45.84        32.7 0.10                            79 298 
 RUS  HZ EP   1   10 9 30.51                             144     0.0 7   97 180 
 RUS  HN ES   1   10 9 48.84                             144     0.3 7   97 180 
 RUS  HZ I        10 9 50.97        10.1 0.25                            97 180 
 BRI  SZ EP   1   10 9 30.85                             141    -0.1 7  109  17 
 BRI  SZ ES   1   10 9 49.87                             141     0.5 7  109  17 
 GRA  SZ EP       10 9 32.40                             136     0.010  127  14 
 GRA  SZ ES   1   10 9 51.57                             136    -0.3 7  127  14 
 GRA  SZ I        10 9 57.41        12.0 0.52                           127  14 
 NOR  SZ EP   2   10 9 42.95                             117    -0.3 4  238 236 
 NOR  SN ES   2   1010 10.88                             117    -0.4 4  238 236 
 CHI  HE ES   2   1010 13.71                             117    -0.1 4  247 197 
 CHI  HZ I        1010 19.55         4.6 0.65                           247 197 
 HEL  HZ EP   1   10 9 48.50                             114     0.5 6  278 257 
 HEL  HN ES   2   1010 20.24                             114     0.6 4  278 257 
 HEL  HZ I        1010 24.82         5.2 0.34                           278 257 
                                                                                
