 2012  525 1305 34.5 L   7.522 -73.138143.8  RSN  4 0.4 1.8LRSN                1
 GAP=204        0.85      10.3     6.6 13.2 -0.1528E+02  0.5287E+02 -0.5299E+02E
 Epicentro: EL PLAYON - SANTANDER                                              3
 ACTION:UP  12-07-05 12:08 OP:pat  STATUS:               ID:20120525130534 L   I
 2012-05-25-1300-00M.COL___201                                                 6
 STAT SP IPHASW D HRMM SECON CODA AMPLIT PERI AZIMU VELO SNR AR TRES W  DIS CAZ7
 PAM  SZ EP   1   13 5 55.74                             159     0.5 7   52 113 
 PAM  SN ES   1   13 6 10.97                             159    -0.4 7   52 113 
 BAR2 SZ ES   1   13 6 16.20                             142     0.1 7  103 183 
 PTB  HZ EP   1   13 6  4.61                             125     0.1 7  182 233 
 PTB  HZ I        13 6  4.84         4.6 0.22                           182 233 
 PTB  HN ES   1   13 6 27.83                             125    -0.2 7  182 233 
 ZAR  HZ EP   1   13 6  4.69                             124    -0.7 7  190 269 
 ZAR  HE ES   1   13 6 29.90                             124     0.5 7  190 269 
 ZAR  HZ I        13 6 36.11         7.3 0.24                           190 269 
                                                                                
