 2016 1025 1532 57.0 L   6.768 -73.160144.9  RSN  8 0.4 1.8LRSN                1
 GAP=136        0.94       4.3     4.6  6.2 -0.4395E+01  0.2272E+01  0.4672E+01E
 Epicentro: LOS SANTOS - SANTANDER                                             3
 ACTION:UPD 16-11-09 19:22 OP:rebc STATUS:               ID:20161025153257 L   I
 OLDACT:UP  16-10-25 23:34 OP:edw  STATUS:               ID:20161025152746     3
 OLDACT:REG 16-10-25 22:10 OP:edw  STATUS:               ID:20161025152746     3
 2016-10-25-1528-00M.COL___349                                                 6
 STAT SP IPHASW D HRMM SECON CODA AMPLIT PERI AZIMU VELO AIN AR TRES W  DIS CAZ7
 BAR2 EZ EP       1533 16.42                             172   -0.0210 19.6 187 
 BAR2 EZ ES       1533 31.24                             172   -0.3810 19.6 187 
 BAR2 EZ I        1533 34.18        22.5 0.30            168           19.6 187 
 BRR  HZ EP       1533 18.31                             152    0.2510 71.6 302 
 BRR  HN ES       1533 35.28                             152    0.7810 71.6 302 
 PAM  EZ EP       1533 19.27                             149   -0.0610 81.1  39 
 PAM  EN ES       1533 36.57                             149   -0.2010 81.1  39 
 PAM  EZ I        1533 38.77        12.1 0.68            154           81.1  39 
 RUS  HZ EP       1533 20.35                             145   -0.0610 97.2 175 
 RUS  HN ES       1533 38.84                             145    0.1610 97.2 175 
 RUS  HZ I        1533 40.26        11.0 0.28            143           97.2 175 
 PTB  HZ EP       1533 23.14                             132   -0.54 9  146 260 
 PTB  HN ES       1533 43.99                             132   -0.52 9  146 260 
 PTB  HZ I        1533 49.25         6.5 0.11            132            146 260 
 SPBC HZ EP   2   1533 25.59                             130    0.53 5  159 219 
 SPBC HN ES       1533 47.05                             130    0.08 9  159 219 
 SPBC HZ I        1533 49.10        12.5 0.16            129            159 219 
 CHI  HZ EP       1533 34.65                             117    0.43 8  245 195 
 CHI  HN ES   4   1534  5.05                             117    1.78 0  245 195 
 CHI  HZ I        1534 13.77         3.5 0.38            117            245 195 
 GUY2CHZ EP   4   1533 42.85                             112    2.67 0  298 235 
 GUY2CHN ES   4   1534 17.56                             112    3.69 0  298 235 
 GUY2CHZ I        1534 21.60         3.2 0.36                           298 235 
                                                                                
