 2012  225 1507 33.9 L   6.774 -73.147149.7  RSN  8 0.4 1.6LRSN                1
 GAP=138        0.53       4.2     4.8  5.8 -0.6045E+01 -0.1724E-01  0.8036E+01E
 ACTION:UP  12-03-07 16:34 OP:epov STATUS:               ID:20120225150733 L   I
 2012-02-25-1500-00M.COL___193                                                 6
 STAT SP IPHASW D HRMM SECON CODA AMPLIT PERI AZIMU VELO AIN AR TRES W  DIS CAZ7
 BAR2 SZ EP   1   15 7 53.66                             172   -0.26 7 20.5 191 
 BAR2 SZ ES   2   15 8  9.01                             172   -0.55 5 20.5 191 
 BAR2 SZ I        15 8 11.49        11.1 0.26                          20.5 191 
 GIR2 SZ EP   2   15 7 54.01                             166   -0.08 5 34.1 351 
 GIR2 SZ ES   2   15 8  9.88                             166    0.02 5 34.1 351 
 BRR  HZ EP   2   15 7 55.18                             153   -0.34 5 72.5 301 
 BRR  HE ES   2   15 8 13.32                             153    0.91 5 72.5 301 
 PAM  SZ EP   1   15 7 56.79                             151    0.14 7 79.7  38 
 PAM  SN ES   2   15 8 14.46                             151    0.05 5 79.7  38 
 RUS  HZ EP   2   15 7 57.75                             145   -0.06 5 97.7 176 
 RUS  HN ES   2   15 8 16.71                             145    0.23 5 97.7 176 
 RUS  HZ I        15 8 17.66         3.6 0.33                          97.7 176 
 PTB  HZ EP   2   15 8  1.28                             133    0.17 5  147 260 
 PTB  HN ES   2   15 8 21.72                             133   -0.63 5  147 260 
 NOR  SN ES   2   15 8 37.72                             119    0.18 4  233 235 
 CHI  HZ EP   1   15 8 11.62                             118    0.13 6  246 195 
 CHI  HN ES   2   15 8 41.13                             118    0.30 4  246 195 
 CHI  HZ I        15 8 48.99         2.7 0.61                           246 195 
                                                                                
