 2014 1125 1730 51.4 L   6.766 -73.152146.2  RSN  6 0.3 1.8LRSN                1
 GAP= 97        0.77       4.1     3.5  5.2 -0.8691E+00 -0.1395E+01  0.1680E+01E
 Epicentro: LOS SANTOS - SANTANDER                                             3
 ACTION:UPD 14-12-19 15:47 OP:nd   STATUS:               ID:20141125173051 L   I
 OLDACT:REG 14-11-25 21:54 OP:fm   STATUS:               ID:20141125172745     3
 2014-11-25-1727-45M.COL___306                                                 6
 STAT SP IPHASW D HRMM SECON CODA AMPLIT PERI AZIMU VELO AIN AR TRES W  DIS CAZ7
 BAR2 SZ EP       1731 11.30                             172    0.2410 19.5 190 
 BAR2 SZ ES       1731 26.27                             172   -0.0810 19.5 190 
 BAR2 SZ I        1731 27.58        18.8 0.42            169           19.5 190 
 BRR  HZ EP       1731 13.15                             152    0.4310 72.5 301 
 BRR  HN ES       1731 29.67                             152    0.3610 72.5 301 
 PAM  SZ EP       1731 13.76                             150   -0.1510 80.8  38 
 PAM  SZ I        1731 14.36        11.6 0.22            154           80.8  38 
 PAM  SN ES       1731 31.18                             150   -0.2510 80.8  38 
 RUS  HZ EP       1731 15.00                             145    0.0310 96.8 176 
 RUS  HN ES       1731 33.47                             145    0.1510 96.8 176 
 RUS  HZ I        1731 35.58         8.6 0.24            144           96.8 176 
 PTB  HZ EP       1731 18.29                             132   -0.04 9  146 260 
 PTB  HN ES       1731 38.67                             132   -0.62 9  146 260 
 PTB  HZ I        1731 46.47         8.8 0.40            131            146 260 
 TAM  HZ EP       1731 18.94                             131   -0.19 9  155 104 
                                                                                
