 2015  225 1108 16.8 L   6.763 -73.497107.5  RSN  8 0.5 1.7LRSN                1
 GAP= 86        1.28       4.8     4.3  7.8 -0.6796E+01  0.8261E+01  0.8443E+01E
 Epicentro: EL CARMEN - SANTANDER                                              3
 ACTION:UPD 15-04-30 21:29 OP:nd   STATUS:               ID:20150225110816 L   I
 OLDACT:REG 15-02-25 20:35 OP:carl STATUS:               ID:20150225110747     3
 2015-02-25-1107-47M.COL___293                                                 6
 STAT SP IPHASW D HRMM SECON CODA AMPLIT PERI AZIMU VELO AIN AR TRES W  DIS CAZ7
 BAR2 EZ EP       11 8 32.56                             158    0.1210 39.5 118 
 BAR2 EZ ES       11 8 45.18                             158    0.5410 39.5 118 
 BAR2 EZ I        11 8 45.58        23.3 0.10            159           39.5 118 
 BRR  HZ EP       11 8 32.67                             156    0.3210 44.9 328 
 BRR  HN ES       11 8 44.99                             156    0.5210 44.9 328 
 BRR  HZ I        11 8 46.07        45.6 0.12            157           44.9 328 
 RUS  HZ EP       11 8 37.25                             132   -0.3010  107 155 
 RUS  HN ES       11 8 53.68                             132   -0.0610  107 155 
 RUS  HZ I        11 8 54.37         9.1 0.18            133            107 155 
 PAM  SZ EP       11 8 37.46                             131   -0.2910  109  54 
 PAM  SN ES       11 8 53.92                             131   -0.1710  109  54 
 PAM  SZ I        11 8 57.59         8.5 0.24            133            109  54 
 PTB  HZ IP     C 11 8 36.34                             131   -0.7910  109 257 
 PTB  HE ES       11 8 52.16                             131   -0.8310  109 257 
 PTB  HZ I        11 8 52.94         8.5 0.22            132            109 257 
 SPBC HZ EP       11 8 39.98                             124   -0.11 9  138 207 
 SPBC HN ES       11 8 57.68                             124   -0.57 9  138 207 
 SPBC HZ I        11 9  3.51        10.6 0.34            124            138 207 
 NOR  HZ EP       11 8 47.26                             113    0.40 9  202 229 
 NOR  HE ES       11 9 10.60                             113    0.28 9  202 229 
 NOR  HZ I        11 9 15.21         5.0 0.16            114            202 229 
 GUY2CHZ EP       11 8 56.12                             106    1.11 8  268 231 
 GUY2CHN ES       11 9 25.40                             106    0.58 8  268 231 
 GUY2CHZ I        11 9 32.53         2.5 0.38                           268 231 
                                                                                
