 2017  525 1429 25.6 L   6.876 -73.328126.5  RSN  8 0.4 2.2LRSN                1
 GAP=206        1.03       4.9     5.1  7.7  0.1013E+02  0.3392E+01  0.4802E+01E
 Epicentro: BETULIA - SANTANDER                                                3
 ACTION:UPD 17-06-16 13:38 OP:jn   STATUS:               ID:20170525142925 L   I
 OLDACT:UP  17-05-25 22:51 OP:dnl  STATUS:               ID:20170525142739     3
 OLDACT:UP  17-05-25 22:51 OP:dnl  STATUS:               ID:20170525142739     3
 OLDACT:REG 17-05-25 21:57 OP:dnl  STATUS:               ID:20170525142739     3
 2017-05-25-1428-00M.COL___344                                                 6
 STAT SP IPHASW D HRMM SECON CODA AMPLIT PERI AZIMU VELO AIN AR TRES W  DIS CAZ7
 BRR  HZ EP     C 1429 43.57                             157    0.0410 49.5 301 
 BRR  HE ES       1429 57.78                             157    0.3010 49.5 301 
 BRR  HZ I        1429 58.53        64.8 0.12            154           49.5 301 
 RUS  HZ EP       1429 48.11                             136   -0.3810  112 166 
 RUS  HN ES       1430  5.91                             136   -0.4010  112 166 
 RUS  HZ I        1430  7.51        11.6 0.38            134            112 166 
 PTB  HZ EP       1429 48.47                             131   -0.9710  130 253 
 PTB  HN ES   4   1430  5.75                             131   -2.26 0  130 253 
 PTB  HZ I        1430 10.31        21.9 0.36            128            130 253 
 SPBC HZ EP   2   1429 52.77                             125    0.51 5  158 211 
 SPBC HN ES       1430 13.07                             125    0.05 9  158 211 
 SPBC HZ I        1430 13.64        22.5 0.14            123            158 211 
 ZAR  HZ EP       1429 54.95                             121    0.37 9  182 292 
 ZAR  HN ES   4   1430 18.54                             121    1.38 0  182 292 
 ZAR  HZ I        1430 20.76        19.2 0.28            120            182 292 
 YPLC HZ EP       1429 56.21                             119    0.26 9  194 147 
 YPLC HE ES       1430 20.05                             119    0.46 9  194 147 
 YPLC HZ I        1430 22.43        32.5 0.36            119            194 147 
 NOR  HZ EP       1429 59.26                             115    0.12 8  224 230 
 NOR  HN ES       1430 25.64                             115    0.37 8  224 230 
 NOR  HZ I        1430 32.50         7.9 0.58            114            224 230 
 ORTC HZ EP   4   1430 19.87                             103    1.44 0  391 213 
 ORTC HE ES   4   1431  2.31                             103    2.70 0  391 213 
 ORTC HZ I        1431  6.93         2.9 0.40            102            391 213 
                                                                                
