 2010  525 1030 11.6 L   6.772 -73.051149.2  RSN  4 0.4 2.0LRSN                1
 GAP=204        0.70       6.1    19.3  9.7 -0.1607E+02 -0.4303E+02 -0.4186E+01E
 Epicentro: LOS SANTOS - SANTANDER                                             3
 ACTION:UP  10-08-24 10:06 OP:vdl  STATUS:               ID:20100525103011 L   I
 2010-05-25-1030-12S.COL___108                                                 6
 STAT SP IPHASW D HRMM SECON CODA AMPLIT PERI AZIMU VELO SNR AR TRES W  DIS CAZ7
 BAR2 SZ EP   1   1030 31.63                             170     0.0 8   25 216 
 BAR2 SZ ES   2   1030 47.33                             170     0.1 5   25 216 
 GUE  SZ EP       1030 36.65                             140     0.010  118   7 
 GUE  SZ ES   2   1030 55.52                             140    -0.8 5  118   7 
 GRA  SZ EP       1030 37.43                             138     0.310  126  12 
 GRA  SZ ES   2   1030 57.08                             138     0.0 5  126  12 
 OCA  SZ EP   1   1030 40.00                             130    -0.6 7  165 350 
 OCA  SZ ES   1   1031  3.59                             130     0.4 7  165 350 
 OCA  SZ I        1031  6.83        11.6 0.39                           165 350 
                                                                                
