 2011  425 1606 10.6 L   6.781 -73.151143.5  RSN  6 0.1 1.6LRSN                1
 GAP=184        0.35       3.0     4.0  4.4 -0.2502E+01  0.7993E+01 -0.1587E+01E
 Epicentro: LOS SANTOS - SANTANDER                                             3
 ACTION:UP  11-06-22 15:33 OP:REBC STATUS:               ID:20110425160611dL   I
 2011-04-25-1602-32S.COL___139                                                 6
 STAT SP IPHASW D HRMM SECON CODA AMPLIT PERI AZIMU VELO SNR AR TRES W  DIS CAZ7
 BTL  SZ EP       16 6 30.02                                     0.110   20 320 
 BTL  SZ ES   2   16 6 45.10                                     0.1 5   20 320 
 BAR2 SZ EP   1   16 6 29.70                             171    -0.2 7   21 189 
 BAR2 SZ ES   2   16 6 44.77                                    -0.2 5   21 189 
 BAR2 SZ I        16 6 46.23        13.6 0.10                            21 189 
 GIR2 SZ EP   3   16 6 29.78                                    -0.3 2   33 352 
 BRR  HZ EP   1   16 6 31.58                             152     0.0 7   72 300 
 BRR  HZ I        16 6 47.83         8.5 0.33                            72 300 
 RUS  HZ EP   1   16 6 33.96                             144     0.0 7   99 176 
 RUS  HN ES   1   16 6 52.33                             144     0.1 7   99 176 
 RUS  HZ I        16 6 53.80         5.5 0.33                            99 176 
 NOR  SZ EP   1   16 6 46.11                             118     0.1 6  233 235 
 NOR  SN ES   1   16 7 13.58                             118    -0.1 6  233 235 
                                                                                
