 2010  825 1908 10.6 L   6.798 -73.030139.4  RSN  8 0.3 2.0LRSN                1
 GAP=172        0.63       2.8     5.5  5.8 -0.2398E+01 -0.1051E+02  0.1343E+01E
 Epicentro: CEPITA - SANTANDER                                                 3
 ACTION:UP  10-09-07 10:58 OP:vdl  STATUS:               ID:20100825190810 L   I
 2010-08-25-1904-18S.COL___121                                                 6
 STAT SP IPHASW D HRMM SECON CODA AMPLIT PERI AZIMU VELO SNR AR TRES W  DIS CAZ7
 BAR2 SZ EP       19 8 29.65                             168     0.010   28 217 
 BAR2 SZ I        19 8 30.23        46.8 0.40                            28 217 
 BAR2 SZ ES   2   19 8 44.82                             168     0.4 5   28 217 
 BRR  HZ IP     C 19 8 31.49                             148    -0.310   83 294 
 BRR  HN ES       19 8 48.33                             148     0.010   83 294 
 RUS  HZ EP       19 8 33.73                             143     0.010  100 183 
 RUS  HZ I        19 8 34.39        10.5 0.26                           100 183 
 RUS  HN ES   1   19 8 51.70                             143    -0.1 7  100 183 
 GUE  SZ EP       19 8 34.55                             139    -0.110  115   6 
 GUE  SZ I        19 8 57.08         4.1 0.19                           115   6 
 GRA  SZ EP       19 8 35.40                             136     0.310  123  12 
 GRA  SZ I        19 8 56.23        11.2 0.26                           123  12 
 CHI  HZ EP   1   19 8 48.06                             116    -0.3 6  252 198 
 CHI  HN ES   1   19 9 18.03                             116     0.2 6  252 198 
 CHI  HZ I        19 9 23.29         5.3 0.44                           252 198 
 GUY  SZ EP   2   19 8 55.99                                     0.8 3  312 236 
 GUY  SN ES   2   19 9 30.33                             111     0.4 3  312 236 
 GUY  SZ I        19 9 36.70        18.6 0.39                           312 236 
 PRA  HN ES   2   19 9 46.84                             105     0.0 3  398 211 
 PRA  HZ I        19 9 50.40         7.9 1.56                           398 211 
                                                                                
