 2011  125 1822  6.3 L   7.322 -73.013 16.8  RSN  9 0.4 2.9LRSN                1
 GAP=162        0.81       2.6     5.9  4.9 -0.9626E+01  0.3291E+01  0.5014E+00E
 Epicentro: MATANZA - SANTANDER                                                3
 ACTION:UP  11-02-08 08:42 OP:pat  STATUS:               ID:20110125182206 L   I
 2011-01-25-1820-33S.COL___138                                                 6
 STAT SP IPHASW D HRMM SECON CODA AMPLIT PERI AZIMU VELO SNR AR TRES W  DIS CAZ7
 GIR2 SZ IP       1822 12.38                             113    -0.110   33 217 
 GIR2 SZ ES   3   1822 16.82                             113    -0.5 2   33 217 
 BTL  SZ IP       1822 15.77                             105     0.410   53 212 
 BTL  SZ ES   2   1822 22.07                             105    -0.4 5   53 212 
 GRA  SZ IP       1822 17.46                             101     0.210   66  20 
 GRA  SZ ES   1   1822 25.74                             101    -0.1 7   66  20 
 GRA  SZ I        1822 27.17      1007.3 0.21                            66  20 
 BAR2 SZ EP       1822 19.79                              99     0.010   83 193 
 BAR2 SZ I        1822 31.31       447.2 0.27                            83 193 
 OCA  SZ EP       1822 22.86                              97    -0.510  107 342 
 OCA  SZ I        1822 38.27       339.8 0.11                           107 342 
 RUS  HZ EP       1822 30.60                              56    -0.2 9  158 183 
 RUS  HN ES   3   1822 49.21                              56    -0.7 2  158 183 
 RUS  HZ I        1822 53.63        91.1 0.33                           158 183 
 NOR  SZ EP       1822 46.03                              55     0.2 7  283 227 
 HEL  HZ EP   1   1822 49.01                              55     0.1 5  305 246 
 HEL  HN ES   3   1823 20.86                              55    -1.4 2  305 246 
 HEL  HZ I        1823 31.81        74.1 0.62                           305 246 
 MON  HZ IP     D 1822 52.68                              55     0.7 7  333 299 
 MON  HZ I        1823 44.90        24.3 0.52                           333 299 
                                                                                
