 2010  625 1436 38.6 L   6.786 -73.078147.5  RSN 15 0.4 3.0LRSN                1
 GAP=164        0.68       3.1     5.7  5.8 -0.9422E+01  0.7437E+01  0.2619E+01E
 Epicentro: LOS SANTOS - SANTANDER                                             3
 ACTION:UP  10-08-24 10:13 OP:vdl  STATUS:               ID:20100625143638 L   I
 2010-06-25-1434-50S.COL___118                                                 6
 STAT SP IPHASW D HRMM SECON CODA AMPLIT PERI AZIMU VELO SNR AR TRES W  DIS CAZ7
 BAR2 SZ IP     C 1436 58.31                             170    -0.110   24 208 
 BAR2 SZ ES   2   1437 13.53                             170    -0.4 5   24 208 
 BRR  HZ EP   1   1437  0.16                             150    -0.2 7   79 297 
 BRR  HE ES   2   1437 17.43                             150     0.1 5   79 297 
 BRR  HZ I        1437 19.29       130.6 0.13                            79 297 
 RUS  HZ IP     D 1437  2.13                             145    -0.210   99 180 
 RUS  HE ES   2   1437 21.02                             145     0.1 5   99 180 
 RUS  HZ I        1437 22.54       101.1 0.26                            99 180 
 BRI  SZ IP     C 1437  2.83                             142     0.310  107  17 
 BRI  SZ ES   2   1437 21.76                             142     0.5 5  107  17 
 GUE  SZ EP   1   1437  3.26                             140    -0.2 7  117   8 
 GRA  SZ IP     C 1437  4.11                             137     0.210  125  14 
 GRA  SZ ES   2   1437 23.68                             137     0.0 5  125  14 
 OCA  SZ EP   1   1437  6.95                             129    -0.3 7  163 351 
 OCA  SZ ES   2   1437 29.64                             129     0.0 5  163 351 
 CHI  HZ EP   1   1437 16.24                             117    -0.2 6  249 197 
 CHI  HE ES   2   1437 46.16                             117     0.2 4  249 197 
 CHI  HZ I        1437 53.95        38.7 0.43                           249 197 
 ROSC BZ EP   1   1437 17.95                             117     0.9 6  255 213 
 ROSC BN ES   2   1437 47.62                             117     0.5 4  255 213 
 ROSC BZ I        1437 53.76        67.2 0.50                           255 213 
 CVER SZ EP   1   1437 19.44                             115     0.2 6  274 204 
 HEL  HZ EP   1   1437 18.86                             114    -0.8 6  279 256 
 HEL  HZ I        1437 57.76        37.9 0.37                           279 256 
 GUY  HZ EP   1   1437 23.20                             112     0.3 5  307 236 
 GUY  HN ES   2   1437 57.55                             112     0.1 4  307 236 
 RREF HZ EP   1   1437 25.05                             111    -0.3 5  326 230 
 RREF HE ES   2   1438  2.34                             111     0.5 3  326 230 
 RREF HZ I        1438  9.14        55.1 0.22                           326 230 
 TOL  SZ EP   1   1437 28.13                             109     0.7 5  348 226 
 TOL  SZ ES   2   1438  5.65                             109     0.2 3  348 226 
 PRA  HZ EP   1   1437 31.66                             107    -0.8 4  394 211 
 PRA  HE ES   2   1438 13.86                             107    -0.6 3  394 211 
 PRA  HZ I        1438 20.04        48.6 0.73                           394 211 
                                                                                
