 2016 1225 1011 31.0 L   6.781 -73.108148.8  RSN  6 0.2 1.2LRSN                1
 GAP=142        0.51       3.5     5.1  4.4  0.6854E+01 -0.9084E+01 -0.2927E+01E
 Epicentro: LOS SANTOS - SANTANDER                                             3
 ACTION:UPD 17-01-11 20:18 OP:rebc STATUS:               ID:20161225101131 L   I
 OLDACT:UP  16-12-25 21:14 OP:edw  STATUS:               ID:20161225100745d    3
 OLDACT:UP  16-12-25 21:12 OP:edw  STATUS:               ID:20161225100745d    3
 OLDACT:DUP 16-12-25 21:05 OP:edw  STATUS:               ID:20161225100745d    3
 2016-12-25-1008-00M.COL___375                                                 6
 STAT SP IPHASW D HRMM SECON CODA AMPLIT PERI AZIMU VELO AIN AR TRES W  DIS CAZ7
 BAR2 EZ EP     D 1011 50.78                             171   -0.1710 22.5 202 
 BAR2 EZ ES       1012  6.31                             171   -0.2110 22.5 202 
 BAR2 EZ I        1012  6.75         4.7 0.24            173           22.5 202 
 BRR  HZ EP       1011 52.76                             151    0.0510 75.9 298 
 BRR  HN ES       1012  9.62                             151   -0.0510 75.9 298 
 BRR  HZ I        1012 11.24         3.4 0.16            152           75.9 298 
 PAM  EZ EP   2   1011 53.68                             152    0.23 5 76.5  36 
 PAM  EN ES   2   1012 11.38                             152    0.39 5 76.5  36 
 PAM  EZ I        1012 13.16         3.0 0.27            151           76.5  36 
 RUS  HZ EP       1011 55.10                             145    0.2410 98.3 178 
 RUS  HN ES       1012 13.47                             145   -0.0210 98.3 178 
 RUS  HZ I        1012 14.28         2.1 0.20            147           98.3 178 
 PTB  HZ EP   9   1011 56.17                             132   -2.35 0  151 260 
 PTB  HN ES       1012 17.97                             135    0.31 9  151 260 
 PTB  HZ I        1012 20.58         2.2 0.18            133            151 260 
 CHI  HN ES   4   1012 36.26                             118   -1.94 0  248 196 
 GUY2CHZ EP   4   1012  3.24                             113   -11.7 0  303 236 
 GUY2CHN ES   4   1012 42.71                             113   -6.58 0  303 236 
 GUY2CHZ I        1012 55.80         0.7 0.22                           303 236 
 SJC  HZ EP   4   1012 25.37                             106   -1.74 0  413 327 
 SJC  HN ES   4   1013  9.03                             106   -1.86 0  413 327 
                                                                                
