 2014  925 1153 28.6 L   6.751 -73.117144.0  RSN  7 0.4 1.5LRSN                1
 GAP=142        0.90       4.7     4.9  7.6  0.3648E+01  0.9355E+01  0.7887E+01E
 Epicentro: LOS SANTOS - SANTANDER                                             3
 ACTION:UPD 14-10-03 23:08 OP:nd   STATUS:               ID:20140925115328 L   I
 OLDACT:REG 14-09-25 21:24 OP:spq  STATUS:               ID:20140925114819     3
 2014-09-25-1148-19M.COL___289                                                 6
 STAT SP IPHASW D HRMM SECON CODA AMPLIT PERI AZIMU VELO AIN AR TRES W  DIS CAZ7
 BAR2 SZ EP     C 1153 47.98                             172    0.0310 19.0 202 
 BAR2 SZ ES   1   1154  2.92                             172   -0.12 7 19.0 202 
 BAR2 SZ I        1154  4.68         6.8 0.20            170           19.0 202 
 BRR  HZ EP   1   1153 50.77                             150    0.87 7 76.7 301 
 BRR  HN ES       1154  7.00                             150    0.5110 76.7 301 
 BRR  HZ I        1154 14.75         9.6 0.38            149           76.7 301 
 PAM  SN ES   1   1154  7.76                             150   -0.33 7 79.8  35 
 PAM  SZ I        1154 10.30         7.7 0.56            155           79.8  35 
 RUS  HZ EP       1153 51.69                             145   -0.1010 95.0 178 
 RUS  HE ES   1   1154  9.50                             145   -0.37 7 95.0 178 
 RUS  HZ I        1154 13.60         3.8 0.32            150           95.0 178 
 PTB  HZ EP       1153 55.54                             131   -0.10 9  150 261 
 PTB  HE ES   1   1154 16.39                             131   -0.33 7  150 261 
 PTB  HZ I        1154 22.49         2.4 0.16            133            150 261 
 SPBC HZ EP   1   1153 56.72                             129   -0.06 7  161 221 
 SPBC HN ES       1154 19.07                             129    0.33 9  161 221 
 SPBC HZ I        1154 21.58         4.0 0.42            132            161 221 
 ZAR  HE ES       1154 26.44                             121   -0.65 8  209 293 
 ZAR  HZ I        1154 35.49         2.8 0.24            123            209 293 
                                                                                
