 2017  325 1235 47.3 L   6.829 -73.145147.3  RSN 16 0.7 2.5LRSN                1
 GAP=118        1.36       4.3     4.7  6.7  0.1748E+01  0.9094E+01  0.6684E+01E
 Epicentro: LOS SANTOS - SANTANDER                                             3
 ACTION:UPD 17-05-25 18:45 OP:jn   STATUS:               ID:20170325123547 L   I
 OLDACT:UP  17-03-25 19:35 OP:dani STATUS:               ID:20170325122740     3
 OLDACT:UP  17-03-25 19:34 OP:dani STATUS:               ID:20170325122740     3
 OLDACT:REG 17-03-25 16:49 OP:dani STATUS:               ID:20170325122740     3
 2017-03-25-1228-00M.COL___367                                                 6
 STAT SP IPHASW D HRMM SECON CODA AMPLIT PERI AZIMU VELO AIN AR TRES W  DIS CAZ7
 BAR2 EZ EP     C 1236  7.22                             169    0.0310 26.6 189 
 BAR2 EZ ES       1236 22.46                             169   -0.2410 26.6 189 
 BAR2 EZ I        1236 24.78        66.7 0.38            167           26.6 189 
 BRR  HZ EP     C 1236  8.90                             153    0.3610 69.8 296 
 BRR  HN ES       1236 25.48                             153    0.3710 69.8 296 
 BRR  HZ I        1236 30.32        42.8 0.38            153           69.8 296 
 PAM  EZ EP     D 1236  9.87                             152    0.3310 74.9  41 
 PAM  EE ES       1236 27.12                             152    0.2410 74.9  41 
 PAM  EZ I        1236 28.53        42.0 0.34            158           74.9  41 
 RUS  HZ EP       1236 11.31                             143   -0.1310  104 176 
 RUS  HE ES       1236 30.08                             143   -0.1910  104 176 
 RUS  HZ I        1236 31.84        35.8 0.30            144            104 176 
 PTB  HZ EP       1236 13.81                             132   -0.66 9  148 258 
 PTB  HN ES       1236 35.16                             132   -0.49 9  148 258 
 PTB  HZ I        1236 37.57        41.4 0.34            133            148 258 
 SPBC HZ EP       1236 16.16                             129   -0.01 9  166 218 
 SPBC HE ES       1236 38.68                             129   -0.00 9  166 218 
 SPBC HZ I        1236 45.63        47.1 0.22            129            166 218 
 ZAR  HZ EP       1236 20.12                             123    0.39 9  203 291 
 ZAR  HN ES       1236 45.09                             123    0.06 9  203 291 
 ZAR  HZ I        1236 47.94        29.2 0.10            124            203 291 
 CHI  HZ EP       1236 25.69                             117    0.26 8  252 195 
 CHI  HN ES       1236 55.11                             117   -0.06 8  252 195 
 CHI  HZ I        1236 58.83         9.0 0.64            119            252 195 
 HEL  HZ EP       1236 29.53                             115    1.84 8  273 255 
 HEL  HN ES       1236 59.95                             115    0.75 8  273 255 
 HEL  HZ I        1237  7.50        13.6 0.51            116            273 255 
 URE  HZ EP       1236 27.94                             114   -0.38 7  283 291 
 URE  HN ES       1236 58.41                             114   -1.91 7  283 291 
 URE  HZ I        1236 59.51        20.2 0.14            116            283 291 
 PTGC HZ EP       1236 30.47                             111   -1.10 7  312 159 
 PTGC HN EP       1236 30.84                             112            312 159 
 PTGC HE ES   4   1237  2.80                             111   -3.30 0  312 159 
 PTGC HN I        1237  5.30        28.0 0.36            114            312 159 
 ELA  HZ EP   4   1236 36.78                             110    2.31 0  331 229 
 ELA  HN ES       1237 10.75                             110   -0.51 7  331 229 
 PRA  HZ EP       1236 40.88                             106   -0.33 6  395 209 
 PRA  HE ES       1237 23.87                             106    0.61 6  395 209 
 PRA  HZ I        1237 30.11        12.3 0.38            108            395 209 
 ORTC HZ EP       1236 42.37                             106    0.78 6  398 216 
 ORTC HN ES   3   1237 25.66                             106    1.73 1  398 216 
 ORTC HZ I        1237 32.11         6.5 0.38            108            398 216 
 CRJC HZ EP   3   1236 47.40                             104   -2.06 1  464   4 
 URI  HZ EP   3   1236 57.65                             101   -2.31 1  554  13 
                                                                                
