 2015  225 1520 26.8 L   6.800 -73.137147.0  RSN 13 0.5 2.4LRSN                1
 GAP=138        1.12       3.1     4.6  5.7 -0.2147E+01  0.8805E+01  0.1849E+01E
 Epicentro: LOS SANTOS - SANTANDER                                             3
 ACTION:UPD 15-04-30 21:29 OP:nd   STATUS:               ID:20150225152026 L   I
 OLDACT:REG 15-02-25 20:45 OP:carl STATUS:               ID:20150225151747     3
 2015-02-25-1517-47M.COL___302                                                 6
 STAT SP IPHASW D HRMM SECON CODA AMPLIT PERI AZIMU VELO AIN AR TRES W  DIS CAZ7
 BAR2 EZ EP       1520 46.62                             170    0.0610 23.6 192 
 BAR2 EZ ES       1521  1.85                             170   -0.1410 23.6 192 
 BAR2 EZ I        1521  2.73        53.1 0.16            169           23.6 192 
 BRR  HZ EP       1520 48.63                             152    0.5310 72.0 298 
 BRR  HN ES       1521  5.64                             152    0.9010 72.0 298 
 BRR  HZ I        1521  8.59        35.8 0.26            151           72.0 298 
 PAM  SZ EP       1520 49.40                             151    0.3210 76.7  39 
 PAM  SN ES       1521  6.69                             151    0.2110 76.7  39 
 PAM  SZ I        1521  9.03        25.3 0.66            155           76.7  39 
 RUS  HZ EP       1520 50.53                             144   -0.1210  101 177 
 RUS  HN ES       1521  8.86                             144   -0.4010  101 177 
 RUS  HZ I        1521 10.24        21.0 0.34            146            101 177 
 PTB  HZ EP       1520 53.13                             132   -0.80 9  149 259 
 PTB  HN ES       1521 14.39                             132   -0.71 9  149 259 
 PTB  HZ I        1521 17.84        24.5 0.14            132            149 259 
 OCA  HN ES       1521 16.97                             130   -0.38 9  160 353 
 SPBC HZ EP       1520 55.48                             129    0.05 9  164 219 
 SPBC HN ES       1521 17.47                             129   -0.30 9  164 219 
 SPBC HZ I        1521 24.52        40.9 0.36            130            164 219 
 ZAR  HZ EP       1520 59.49                             122    0.10 9  205 292 
 ZAR  HN ES       1521 25.12                             122    0.30 9  205 292 
 ZAR  HZ I        1521 30.70        29.1 0.24            123            205 292 
 NOR  HZ EP       1521  2.49                             119   -0.17 8  235 235 
 SML  HZ EP       1521  3.21                             118   -0.30 8  244 335 
 SML  HN ES       1521 31.42                             118   -0.74 8  244 335 
 SML  HZ I        1521 35.36        24.1 0.24            119            244 335 
 GUY2CHZ EP       1521 11.17                             112    0.64 7  302 235 
 GUY2CHN ES       1521 45.04                             112    0.38 7  302 235 
 GUY2CHZ I        1521 52.75        17.0 0.30                           302 235 
 TOL  SZ EP       1521 15.70                             109    0.54 7  344 225 
 TOL  SN ES       1521 53.84                             109    0.94 7  344 225 
 TOL  SZ I        1521 59.14        23.2 0.92            110            344 225 
 PRA  HZ EP       1521 20.39                             107   -0.01 6  393 210 
 PRA  HN ES       1522  1.61                             107   -0.61 6  393 210 
 PRA  HZ I        1522  8.50         7.5 0.56            108            393 210 
                                                                                
