 2014  525 1835 38.0 L   6.767 -73.210158.5  RSN  5 0.4 1.6LRSN                1
 GAP=195        1.00       4.5     7.4  9.1  0.8982E+01 -0.1287E+02 -0.1537E+02E
 Epicentro: VILLANUEVA - SANTANDER                                             3
 ACTION:UPD 15-03-16 17:00 OP:nd   STATUS:               ID:20140525183538 L   I
 OLDACT:REG 14-05-25 20:54 OP:spq  STATUS:               ID:20140525182818     3
 2014-05-25-1828-18M.COL___230                                                 6
 STAT SP IPHASW D HRMM SECON CODA AMPLIT PERI AZIMU VELO AIN AR TRES W  DIS CAZ7
 BRR  HZ EP       1836  0.97                             156    0.6310 67.0 304 
 BRR  HN ES       1836 18.13                             156    0.3810 67.0 304 
 BRR  HZ I        1836 20.96         4.6 0.20            153           67.0 304 
 RUS  HZ EP       1836  2.83                             147   -0.0210 97.7 172 
 RUS  HE ES       1836 21.88                             147   -0.3310 97.7 172 
 RUS  HZ I        1836 22.38         3.3 0.40            150           97.7 172 
 PTB  HZ EP       1836  5.60                             136    0.21 9  140 260 
 PTB  HN ES       1836 26.70                             136   -0.04 9  140 260 
 PTB  HZ I        1836 32.57         5.1 0.44            136            140 260 
 SPBC HN ES       1836 29.04                             133   -0.33 9  156 218 
 SML  HZ EP       1836 15.47                             120    0.04 8  244 337 
 SML  HN ES       1836 43.75                             120   -0.87 8  244 337 
 SML  HZ I        1836 47.27         4.4 0.28            121            244 337 
                                                                                
