 2010 1025 1018  1.9 L   6.786 -73.133140.0  RSN 12 0.5 2.7LRSN                1
 GAP=160        1.09       5.1     9.5  9.9 -0.2183E+02  0.2147E+02  0.2251E+01E
 Epicentro: LOS SANTOS - SANTANDER                                             3
 ACTION:UP  11-02-18 11:12 OP:tino STATUS:               ID:20101025101801 L   I
 2010-10-25-1016-56S.COL___124                                                 6
 STAT SP IPHASW D HRMM SECON CODA AMPLIT PERI AZIMU VELO SNR AR TRES W  DIS CAZ7
 BAR2 SZ IP     D 1018 20.64                             171    -0.210   22 195 
 BAR2 SZ ES   2   1018 35.17                             171    -0.4 5   22 195 
 BAR2 SZ I        1018 36.30       170.8 0.38                            22 195 
 BRR  HZ IP     C 1018 22.56                             151     0.010   73 299 
 BRR  HZ I        1018 22.93       157.5 0.28                            73 299 
 BRR  HE ES   2   1018 39.39                             151     0.7 5   73 299 
 RUS  HZ EP   1   1018 24.92                             143    -0.1 7   99 177 
 RUS  HE ES   2   1018 42.90                             143    -0.1 5   99 177 
 RUS  HZ I        1018 44.65        32.5 0.40                            99 177 
 GUE  SZ EP   1   1018 25.84                             138    -0.4 7  118  11 
 GRA  SZ IP     C 1018 27.68                             135     0.910  127  17 
 GRA  SZ ES   2   1018 46.57                             135     0.5 5  127  17 
 GRA  SZ I        1018 49.38       117.5 0.26                           127  17 
 OCA  SZ IP     C 1018 29.26                             128    -0.7 9  162 353 
 OCA  SZ ES   2   1018 50.80                             128    -1.0 5  162 353 
 OCA  SZ I        1018 56.14       108.5 0.25                           162 353 
 NOR  SZ EP   1   1018 36.83                             117    -0.5 6  235 235 
 NOR  SN ES   2   1019  5.34                             117     0.3 4  235 235 
 CHI  HZ EP   1   1018 38.94                             116    -0.2 6  247 196 
 CHI  HE ES   2   1019  8.23                             116     0.0 4  247 196 
 CHI  HZ I        1019 14.95        15.5 0.37                           247 196 
 ROSC BZ EP   2   1018 40.25                             115     0.6 4  252 211 
 ROSC BZ I        1019 15.20        19.5 0.39                           252 211 
 HEL  HZ EP   1   1018 42.17                             113     0.2 6  273 256 
 HEL  HZ I        1019 19.69        31.3 0.43                           273 256 
 RREF HZ EP   1   1018 48.94                             110     1.1 5  322 230 
 RREF HN ES   2   1019 23.48                             110    -0.1 3  322 230 
 RREF HZ I        1019 35.08        15.7 0.32                           322 230 
 PRA  HZ EP   1   1018 54.75                             105    -0.4 4  391 210 
 PRA  HE ES   2   1019 36.33                             105    -0.4 3  391 210 
                                                                                
