 2011  825 1222 30.9 L   6.772 -73.099142.0  RSN  4 0.2 1.6LRSN                1
 GAP=196        0.46       6.3    11.1  5.8  0.5499E+02 -0.2697E+02 -0.1565E+02E
 Epicentro: LOS SANTOS - SANTANDER                                             3
 ACTION:UPD 12-07-13 15:53 OP:ep   STATUS:               ID:20110825122230 L   I
 2011-08-25-1220-00M.COL___168                                                 6
 STAT SP IPHASW D HRMM SECON CODA AMPLIT PERI AZIMU VELO AIN AR TRES W  DIS CAZ7
 BAR2 SZ EP   1   1222 50.12                             171    0.07 7 21.9 205 
 BAR2 SZ I        1222 50.58         7.5 0.10                          21.9 205 
 BAR2 SZ ES   1   1223  4.81                             171   -0.18 7 21.9 205 
 GIR2 SZ EP   1   1222 50.43                             165    0.18 7 35.5 343 
 BRR  HZ EP       1222 51.75                             150   -0.2510 77.2 299 
 BRR  HZ I        1222 52.60        19.5 0.09                          77.2 299 
 BRR  HE ES   1   1223  8.72                             150    0.26 7 77.2 299 
 RUS  HZ EP   1   1222 54.15                             144    0.10 7 97.3 179 
 RUS  HN ES   1   1223 12.12                             144    0.02 7 97.3 179 
 RUS  HZ I        1223 13.60         4.6 0.27                          97.3 179 
                                                                                
