 2015 1025 1304 12.7 L   6.822 -73.182140.8  RSN 24 0.3 2.8LRSN                1
 GAP= 68        0.78       1.7     2.1  3.4 -0.3987E+00  0.2472E+01  0.8860E+00E
 Epicentro: ZAPATOCA - SANTANDER                                               3
 ACTION:UPD 15-12-22 20:43 OP:cam  STATUS:               ID:20151025130412 L   I
 OLDACT:REG 15-10-25 20:23 OP:drio STATUS:               ID:20151025125746     3
 2015-10-25-1257-46M.COL___313                                                 6
 STAT SP IPHASW D HRMM SECON CODA AMPLIT PERI AZIMU VELO AIN AR TRES W  DIS CAZ7
 BAR2 EZ EP     D 13 4 31.83                             169    0.0710 25.4 180 
 BAR2 EZ ES       13 4 46.22                             169   -0.4210 25.4 180 
 BAR2 EZ I        13 4 48.01        81.0 0.24            170           25.4 180 
 BRR  HZ EP     D 13 4 33.61                             153    0.5810 66.5 298 
 BRR  HN ES       13 4 48.98                             153    0.0810 66.5 298 
 BRR  HZ I        13 4 54.59        93.3 0.50            146           66.5 298 
 PAM  EZ EP       13 4 34.71                             150    0.2910 78.2  43 
 PAM  EN ES       13 4 51.67                             150    0.2910 78.2  43 
 PAM  EZ I        13 4 54.00       155.1 0.48            148           78.2  43 
 RUS  HZ EP       13 4 35.82                             142   -0.3310  103 174 
 RUS  HN ES       13 4 54.32                             142   -0.1410  103 174 
 RUS  HZ I        13 4 55.70        69.0 0.32            142            103 174 
 OCA  HZ EP       13 4 40.91                             129    0.57 9  157 354 
 OCA  HN ES       13 5  1.79                             129   -0.12 9  157 354 
 OCA  HZ I        13 5  6.45       105.4 0.38            124            157 354 
 TAM  HZ IP     D 13 4 40.25                             128   -0.15 9  160 105 
 TAM  HE ES       13 5  1.99                             128   -0.03 9  160 105 
 SPBC HZ EP       13 4 40.87                             128    0.12 9  163 217 
 SPBC HN ES       13 5  2.53                             128   -0.11 9  163 217 
 SPBC HZ I        13 5  5.26        91.3 0.28            125            163 217 
 ZAR  HZ EP       13 4 44.39                             122    0.07 9  199 292 
 ZAR  HE ES       13 5  8.55                             122   -0.46 9  199 292 
 ZAR  HZ I        13 5 15.86        48.6 0.28            117            199 292 
 NOR  HZ EP       13 4 48.02                             118    0.09 8  233 233 
 NOR  HN ES       13 5 15.74                             118    0.32 8  233 233 
 NOR  HZ I        13 5 23.16        29.3 0.20            115            233 233 
 SML  HZ EP       13 4 48.12                             117   -0.49 8  240 336 
 SML  HE ES       13 5 16.47                             117   -0.17 8  240 336 
 SML  HZ I        13 5 20.18        76.3 0.10            113            240 336 
 CHI  HZ EP       13 4 50.03                             116   -0.22 8  250 194 
 CHI  HN ES       13 5 19.20                             116   -0.36 8  250 194 
 CHI  HZ I        13 5 22.85        29.2 0.38            114            250 194 
 ROSC BZ EP       13 4 50.77                             116    0.23 8  253 210 
 ROSC BN ES       13 5 20.65                             116    0.58 8  253 210 
 ROSC BZ I        13 5 25.38        57.5 0.35            113            253 210 
 HEL  HZ EP       13 4 52.49                             114    0.21 8  269 255 
 HEL  HE ES       13 5 22.68                             114   -0.48 8  269 255 
 HEL  HZ I        13 5 29.91        16.0 0.24            111            269 255 
 URE  HZ EP       13 4 52.37                             113   -0.62 7  279 292 
 URE  HN ES   4   13 5 23.20                             113   -1.23 0  279 292 
 URE  HZ I        13 5 34.86        38.2 0.20            109            279 292 
 GUY2CHZ EP       13 4 56.20                             111    0.35 7  299 234 
 GUY2CHN ES       13 5 30.15                             111    0.62 7  299 234 
 GUY2CHZ I        13 5 42.30        16.7 0.44                           299 234 
 VIL  SZ EP       13 4 55.36                             111   -0.70 7  305 191 
 VIL  SN ES       13 5 29.71                             111   -0.18 7  305 191 
 PTGC HZ EP   4   13 4 54.95                             110   -1.79 0  312 158 
 PTGC HE ES   4   13 5 27.53                             110   -3.59 0  312 158 
 PTGC HZ I        13 5 33.26        47.3 0.34            109            312 158 
 ELA  HZ EP       13 4 59.39                             109    0.23 7  328 229 
 ELA  HN ES       13 5 35.06                             109   -0.35 7  328 229 
 ELA  HZ I        13 5 43.64        11.3 0.42            107            328 229 
 DBB  SZ EP       13 4 59.50                             109    0.02 7  335 274 
 DBB  SZ ES   4   13 5 35.23                             109   -0.75 0  335 274 
 DBB  SZ I        13 5 39.91        56.8 0.36            106            335 274 
 MON  HZ EP   4   13 4 59.28                             108   -1.67 0  349 308 
 MON  HN ES   4   13 5 37.18                             108   -1.42 0  349 308 
 MON  HZ I        13 5 51.50        10.8 0.50            105            349 308 
 ANIL HZ EP       13 5  2.02                             108   -0.15 6  356 224 
 ANIL HN ES       13 5 41.14                             108    0.36 6  356 224 
 ANIL HZ I        13 5 50.33        51.8 0.46            105            356 224 
 ORTC HZ EP       13 5  6.27                             105   -0.12 6  395 215 
 ORTC HE ES       13 5 48.57                             105    0.29 6  395 215 
 ORTC HZ I        13 5 53.15        14.9 0.30            104            395 215 
 SJC  HZ EP   4   13 5  6.30                             105   -1.29 0  405 327 
 SJC  HZ I        13 5 51.21         8.4 0.68            103            405 327 
 CRJC HZ EP   4   13 5 12.27                             103   -2.52 0  465   4 
 CRJC HE ES   4   13 5 59.65                             103   -3.58 0  465   4 
 CRJC HZ I        13 6  6.43        20.9 0.84            101            465   4 
                                                                                
