 2016  725 1001 26.4 L   6.734 -73.135146.3  RSN  8 0.3 1.8LRSN                1
 GAP= 93        0.71       3.0     3.1  4.4  0.9248E-01  0.1128E+01  0.2830E+00E
 Epicentro: JORDAN - SANTANDER                                                 3
 ACTION:UPD 17-03-29 16:55 OP:lp   STATUS:               ID:20160725100126 L   I
 OLDACT:UP  16-07-25 22:36 OP:ar   STATUS:               ID:20160725095759     3
 OLDACT:REG 16-07-25 21:01 OP:ar   STATUS:               ID:20160725095759     3
 2016-07-25-0957-59S.COL___322                                                 6
 STAT SP IPHASW D HRMM SECON CODA AMPLIT PERI AZIMU VELO AIN AR TRES W  DIS CAZ7
 BAR2 EZ EP       10 1 45.85                             173   -0.1210 16.6 199 
 BAR2 EZ ES       10 2  1.17                             173   -0.0810 16.6 199 
 BAR2 EZ I        10 2  1.89        13.4 0.24            174           16.6 199 
 BRR  HZ EP       10 1 47.94                             151    0.0610 76.0 303 
 BRR  HN ES       10 2  5.21                             151    0.5810 76.0 303 
 BRR  HZ I        10 2  6.13        11.4 0.20            148           76.0 303 
 PAM  EZ EP       10 1 49.09                             149    0.1210 82.4  36 
 PAM  HN ES       10 2  6.07                             149   -0.5110 82.4  36 
 PAM  EZ I        10 2  9.27         5.9 0.15            149           82.4  36 
 RUS  HZ EP       10 1 49.70                             146    0.0110 93.3 177 
 RUS  HN ES       10 2  8.01                             146    0.1610 93.3 177 
 RUS  HZ I        10 2  9.52         7.3 0.36            148           93.3 177 
 TAM  HZ EP       10 1 54.17                             131    0.33 9  152 102 
 SPBC HZ EP       10 1 54.28                             130   -0.21 9  158 221 
 SPBC HN ES       10 2 16.18                             130   -0.22 9  158 221 
 SPBC HZ I        10 2 18.94         7.8 0.20            130            158 221 
 ZAR  HZ EP       10 1 59.29                             122    0.01 8  208 294 
 ZAR  HN ES       10 2 24.74                             122   -0.20 8  208 294 
 ZAR  HZ I        10 2 30.39         9.0 0.36            121            208 294 
 SJC  HZ EP   4   10 2 20.71                             105   -2.06 0  416 327 
 SJC  HN ES   4   10 3  3.38                             105   -3.36 0  416 327 
 SJC  HZ I        10 3 16.33         1.3 0.62            105            416 327 
                                                                                
