 2011  825 1533  2.1 L   6.751 -73.137145.2  RSN  6 0.4 2.3LRSN                1
 GAP=235        0.71       4.4     6.7  6.4  0.2205E+01  0.1166E+02  0.9492E+01E
 Epicentro: LOS SANTOS - SANTANDER                                             3
 ACTION:UPD 12-07-13 15:53 OP:ep   STATUS:               ID:20110825153302 L   I
 2011-08-25-1532-19S.COL___167                                                 6
 STAT SP IPHASW D HRMM SECON CODA AMPLIT PERI AZIMU VELO AIN AR TRES W  DIS CAZ7
 BAR2 SZ IP       1533 21.42                             172   -0.1910 18.3 196 
 BAR2 SZ ES   1   1533 36.62                             172   -0.17 7 18.3 196 
 BAR2 SZ I        1533 39.22        40.5 0.41                          18.3 196 
 BRR  HZ IP     D 1533 23.28                             151   -0.1510 74.8 302 
 BRR  HZ I        1533 23.50        41.2 0.16                          74.8 302 
 BRR  HN ES   1   1533 40.69                             151    0.65 7 74.8 302 
 RUS  HZ EP   1   1533 25.34                             145   -0.10 7 95.2 176 
 RUS  HN ES   1   1533 43.59                             145   -0.04 7 95.2 176 
 RUS  HZ I        1533 45.80        14.8 0.24                          95.2 176 
 NOR  SZ EP   1   1533 37.34                             119   -0.25 6  232 236 
 NOR  SN ES   1   1534  4.71                             119   -0.53 6  232 236 
 CHI  HZ EP   1   1533 39.51                             118    0.24 6  244 196 
 CHI  HN ES   1   1534  8.95                             118    0.72 6  244 196 
 CHI  HZ I        1534 16.91         7.0 0.52                           244 196 
 PRA  HZ EP   1   1533 55.92                             107    0.77 4  388 210 
 PRA  HZ I        1533 57.20        32.1 0.14                           388 210 
 PRA  HN ES   1   1534 36.16                             107   -0.34 4  388 210 
                                                                                
