 2016  925 1858 45.9 L   6.782 -73.145147.3  RSN 10 0.3 1.8LRSN                1
 GAP=137        0.83       3.3     3.5  4.9 -0.2613E+00  0.4185E+01  0.1998E+01E
 Epicentro: LOS SANTOS - SANTANDER                                             3
 ACTION:UPD 17-08-17 21:16 OP:lp   STATUS:               ID:20160925185845 L   I
 OLDACT:UP  16-09-25 23:57 OP:edw  STATUS:               ID:20160925185741     3
 OLDACT:UP  16-09-25 23:57 OP:edw  STATUS:               ID:20160925185741     3
 OLDACT:UP  16-09-25 23:54 OP:edw  STATUS:               ID:20160925185741     3
 OLDACT:REG 16-09-25 21:05 OP:y    STATUS:               ID:20160925185741     3
 2016-09-25-1858-00M.COL___330                                                 6
 STAT SP IPHASW D HRMM SECON CODA AMPLIT PERI AZIMU VELO AIN AR TRES W  DIS CAZ7
 BAR2 EZ EP       1859  5.55                             171   -0.1610 21.4 191 
 BAR2 EZ ES       1859 20.66                             171   -0.4710 21.4 191 
 BAR2 EZ I        1859 22.30        17.0 0.22            170           21.4 191 
 BRR  HZ EP       1859  7.62                             152    0.3210 72.2 300 
 BRR  HN ES       1859 24.84                             152    0.8710 72.2 300 
 BRR  HZ I        1859 28.70        11.2 0.26            152           72.2 300 
 PAM  EZ EP       1859  8.47                             151    0.0810 78.8  39 
 PAM  EN ES       1859 25.79                             151   -0.1310 78.8  39 
 PAM  EZ I        1859 27.53        12.4 0.56            154           78.8  39 
 RUS  HZ EP       1859  9.46                             145   -0.2310 98.6 176 
 RUS  HN ES       1859 28.33                             145    0.1010 98.6 176 
 RUS  HZ I        1859 29.83         6.9 0.24            145           98.6 176 
 PTB  HZ EP       1859 13.09                             132    0.10 9  147 260 
 PTB  HN ES       1859 33.67                             132   -0.44 9  147 260 
 PTB  HZ I        1859 36.13         8.0 0.18            132            147 260 
 SPBC HZ EP   2   1859 14.25                             130   -0.16 5  162 219 
 SPBC HN ES       1859 36.81                             130    0.19 9  162 219 
 SPBC HZ I        1859 37.53        13.8 0.10            130            162 219 
 ZAR  HZ EP       1859 18.43                             123   -0.13 9  205 293 
 ZAR  HN ES       1859 43.51                             123   -0.50 9  205 293 
 ZAR  HZ I        1859 49.14         5.9 0.14            123            205 293 
 NOR  HZ EP       1859 21.71                             119    0.08 8  234 235 
 NOR  HN ES   2   1859 49.53                             119    0.05 4  234 235 
 NOR  HZ I        1859 53.06         6.3 0.20            119            234 235 
 CHI  HZ EP       1859 23.75                             118    0.24 8  247 195 
 CHI  HN ES   2   1859 53.06                             118    0.24 4  247 195 
 CHI  HZ I        19 0  1.25         2.1 0.13            119            247 195 
 GUY2CHZ EP   4   1859 31.65                             113    2.16 0  300 235 
 GUY2CHZ I        19 0 13.38         3.7 0.52                           300 235 
 SJC  HZ EP   4   1859 39.75                             106   -1.99 0  411 327 
 SJC  HN ES   4   19 0 21.41                             106   -3.86 0  411 327 
                                                                                
