 2014  925 1251 23.7 L   6.732 -73.141149.3  RSN  4 0.3 1.5LRSN                1
 GAP=233        0.68       6.1     5.4  6.2  0.1316E+02  0.1409E+01  0.1380E+01E
 Epicentro: JORDAN - SANTANDER                                                 3
 ACTION:UPD 14-10-03 23:08 OP:nd   STATUS:               ID:20140925125123 L   I
 OLDACT:REG 14-09-25 21:28 OP:spq  STATUS:               ID:20140925124817     3
 2014-09-25-1248-17M.COL___292                                                 6
 STAT SP IPHASW D HRMM SECON CODA AMPLIT PERI AZIMU VELO AIN AR TRES W  DIS CAZ7
 BAR2 SZ EP       1251 44.00                             174    0.3310 16.1 196 
 BAR2 SZ ES   1   1251 58.94                             174   -0.27 7 16.1 196 
 BAR2 SZ I        1252  1.31         8.9 0.26            178           16.1 196 
 BRR  HZ EP       1251 45.73                             152    0.2210 75.5 303 
 BRR  HN ES       1252  2.35                             152   -0.1410 75.5 303 
 BRR  HZ I        1252 11.66        14.5 0.44            152           75.5 303 
 RUS  HZ EP   1   1251 46.82                             147   -0.49 7 93.0 176 
 RUS  HE ES   1   1252  5.95                             147    0.25 7 93.0 176 
 RUS  HZ I        1252  7.51         1.6 0.32            156           93.0 176 
 PTB  HZ EP       1251 50.64                             133   -0.28 9  147 262 
 PTB  HE ES       1252 12.25                             133    0.13 9  147 262 
 PTB  HZ I        1252 13.20         2.8 0.17            138            147 262 
                                                                                
