 2017  825 1917 14.1 L   6.798 -73.338113.7  RSN  4 0.2 1.4LRSN                1
 GAP=193        0.55       5.6     6.3  4.9  0.2958E+02  0.1251E+02  0.5878E+01E
 Epicentro: ZAPATOCA - SANTANDER                                               3
 ACTION:UPD 17-09-04 20:24 OP:rebc STATUS:               ID:20170825191714 L   I
 OLDACT:DUP 17-08-25 22:45 OP:edw  STATUS:               ID:20170825190744d    3
 OLDACT:UP  17-08-25 22:44 OP:edw  STATUS:               ID:20170825190743     3
 OLDACT:REG 17-08-25 20:38 OP:edw  STATUS:               ID:20170825190743     3
 2017-08-25-1908-00M.COL___408                                                 6
 STAT SP IPHASW D HRMM SECON CODA AMPLIT PERI AZIMU VELO AIN AR TRES W  DIS CAZ7
 BAR2 EZ EP       1917 29.62                             165   -0.3910 28.5 143 
 BAR2 EZ ES       1917 42.63                             165    0.1910 28.5 143 
 BAR2 EZ I        1917 44.57         4.0 0.18            164           28.5 143 
 BRR  HZ EP       1917 30.95                             153    0.1910 53.6 310 
 BRR  HN ES       1917 43.70                             153   -0.0810 53.6 310 
 RUS  HZ EP   2   1917 35.53                             135    0.41 5  104 164 
 RUS  HN ES       1917 51.49                             135   -0.0510  104 164 
 RUS  HZ I        1917 53.63         4.6 0.32            135            104 164 
 ZAR  HZ EP       1917 42.63                             117    0.12 9  185 295 
 ZAR  HN ES       1918  4.62                             117   -0.08 9  185 295 
 ZAR  HZ I        1918  6.90         5.1 0.46            118            185 295 
                                                                                
