 2010 1025 1447 29.1 L   6.792 -73.101142.5  RSN 13 0.5 2.9LRSN                1
 GAP=164        0.85       3.7     6.5  7.5 -0.9774E+01  0.8888E+01  0.4539E+01E
 Epicentro: LOS SANTOS - SANTANDER                                             3
 ACTION:UP  11-02-18 11:12 OP:tino STATUS:               ID:20101025144729 L   I
 2010-10-25-1444-26S.COL___125                                                 6
 STAT SP IPHASW D HRMM SECON CODA AMPLIT PERI AZIMU VELO SNR AR TRES W  DIS CAZ7
 BAR2 SZ IP     D 1447 48.45                             170     0.110   24 202 
 BAR2 SZ ES   2   1448  2.83                             170    -0.6 5   24 202 
 BAR2 SZ I        1448  4.84       294.4 0.19                            24 202 
 BRR  HZ IP     C 1447 50.29                             150     0.110   76 297 
 BRR  HE ES   2   1448  7.21                             150     0.6 5   76 297 
 BRR  HZ I        1448  9.79       200.3 0.18                            76 297 
 RUS  HZ IP     C 1447 52.44                             143     0.010   99 179 
 RUS  HZ I        1447 53.57        61.4 0.20                            99 179 
 RUS  HN ES   2   1448 10.77                             143     0.1 5   99 179 
 GUE  SZ EP   1   1447 53.51                             139     0.0 7  116  10 
 GRA  SZ IP     D 1447 54.24                             136     0.210  125  15 
 GRA  SZ ES   2   1448 13.54                             136     0.1 5  125  15 
 GRA  SZ I        1448 16.13        53.8 0.39                           125  15 
 OCA  SZ EP   1   1447 57.35                             129     0.0 7  162 351 
 OCA  SZ ES   2   1448 18.29                             129    -1.0 5  162 351 
 OCA  SZ I        1448 21.95        99.0 0.17                           162 351 
 NOR  SZ EP   1   1448  4.31                             117    -0.8 6  238 235 
 NOR  SE ES   2   1448 32.53                             117    -0.6 4  238 235 
 CHI  HZ EP   1   1448  6.62                             116    -0.1 6  249 196 
 CHI  HE ES   2   1448 35.63                             116    -0.4 4  249 196 
 CHI  HZ I        1448 43.18        37.1 0.57                           249 196 
 ROSC BZ EP   1   1448  8.22                             116     1.0 6  255 212 
 ROSC BE ES   2   1448 37.23                             116     0.2 4  255 212 
 CVER SZ EP   1   1448 10.03                             114     0.6 6  273 203 
 HEL  HZ EP   1   1448  9.17                             114    -0.5 6  277 256 
 HEL  HN ES   2   1448 42.73                             114     1.4 4  277 256 
 HEL  HZ I        1448 47.33        42.6 0.54                           277 256 
 RREF HZ EP   1   1448 15.04                             110    -0.5 5  325 230 
 RREF HN ES   2   1448 51.57                             110    -0.1 3  325 230 
 RREF HZ I        1449  0.84        42.5 0.26                           325 230 
 PRA  HZ EP   1   1448 21.95                             106    -0.8 4  394 210 
 PRA  HN ES   2   1449  4.66                             106     0.1 3  394 210 
                                                                                
