 2014 1125 1418 28.5 L   6.067 -73.724106.1  RSN 11 0.4 2.0LRSN                1
 GAP= 75        1.04       2.6     3.0  6.3 -0.1562E+01  0.6433E+01  0.1284E+01E
 Epicentro: VELEZ - SANTANDER                                                  3
 ACTION:UPD 14-12-19 15:47 OP:nd   STATUS:               ID:20141125141828 L   I
 OLDACT:REG 14-11-25 21:41 OP:fm   STATUS:               ID:20141125140749     3
 2014-11-25-1407-49M.COL___303                                                 6
 STAT SP IPHASW D HRMM SECON CODA AMPLIT PERI AZIMU VELO AIN AR TRES W  DIS CAZ7
 SPBC HZ EP       1418 44.64                             148   -0.2710 59.9 220 
 SPBC HN ES       1418 57.89                             148    0.2010 59.9 220 
 SPBC HZ I        1419  4.34        17.4 0.24            149           59.9 220 
 RUS  HZ EP       1418 46.15                             143   -0.2610 73.5 105 
 RUS  HN ES       1418 59.89                             143   -0.4810 73.5 105 
 BAR2 SZ EP       1418 46.91                             139    0.0910 83.4  46 
 BAR2 SZ ES       1419  1.31                             139    0.2110 83.4  46 
 BAR2 SZ I        1419  2.95        57.0 0.48            146           83.4  46 
 PTB  HZ EP       1418 47.02                             134   -0.5910 96.4 303 
 PTB  HN ES       1419  2.10                             134   -0.4010 96.4 303 
 PTB  HZ I        1419  4.55        12.8 0.16            137           96.4 303 
 BRR  HZ EP       1418 49.97                             129    0.6810  115   1 
 BRR  HE ES       1419  5.99                             129    0.5110  115   1 
 BRR  HZ I        1419  6.87        21.9 0.32            134            115   1 
 NOR  HZ EP       1418 51.59                             123   -0.09 9  139 246 
 NOR  HE ES       1419 10.35                             123    0.60 9  139 246 
 NOR  HZ I        1419 11.86        17.8 0.22            126            139 246 
 CHI  HZ EP       1418 54.92                             119    0.63 9  159 180 
 CHI  HN ES       1419 14.26                             119   -0.13 9  159 180 
 CHI  HZ I        1419 17.44         5.6 0.28            123            159 180 
 ZAR  HZ EP       1418 58.18                             112   -0.26 9  201 322 
 ZAR  HN ES       1419 21.54                             112   -0.23 9  201 322 
 ZAR  HZ I        1419 26.40        17.1 0.26            116            201 322 
 GUY2CHZ EP       1418 59.50                             112    0.15 9  204 243 
 GUY2CHN ES       1419 23.00                             112   -0.41 9  204 243 
 GUY2CHZ I        1419 28.61         6.0 0.74                           204 243 
 RREF HN ES       1419 27.24                             110    0.03 8  221 234 
 RREF HZ I        1419 34.72         8.1 0.30            113            221 234 
 TOL  SZ EP       1419  2.79                             108   -0.61 8  241 227 
 TOL  SN ES       1419 31.23                             108    0.62 8  241 227 
 TOL  SZ I        1419 35.33        10.7 0.44            111            241 227 
                                                                                
