 2017  625 1032 51.6 L   6.806 -73.179145.4  RSN  5 0.4 1.5LRSN                1
 GAP=241        1.04       6.6     6.8  8.4  0.8229E+01  0.1161E+02  0.8775E+01E
 Epicentro: ZAPATOCA - SANTANDER                                               3
 ACTION:UPD 17-09-14 16:55 OP:jn   STATUS:               ID:20170625103251 L   I
 OLDACT:UP  17-06-25 21:00 OP:lv   STATUS:               ID:20170625102740     3
 OLDACT:REG 17-06-25 19:51 OP:lv   STATUS:               ID:20170625102740     3
 2017-06-25-1028-00M.COL___346                                                 6
 STAT SP IPHASW D HRMM SECON CODA AMPLIT PERI AZIMU VELO AIN AR TRES W  DIS CAZ7
 BAR2 EZ EP       1033 11.34                             170    0.1010 23.6 181 
 BAR2 EZ ES       1033 26.33                             170   -0.1910 23.6 181 
 BAR2 EZ I        1033 27.53         7.6 0.22            170           23.6 181 
 BRR  HZ EP       1033 13.30                             154    0.7410 67.6 300 
 BRR  HN ES       1033 28.66                             154   -0.2110 67.6 300 
 PTB  HZ EP       1033 17.97                             133   -0.30 9  144 258 
 PTB  HN ES       1033 38.97                             133   -0.06 9  144 258 
 SPBC HZ EP       1033 19.25                             129   -0.70 9  161 218 
 SPBC HN ES       1033 42.57                             129    0.55 9  161 218 
 ZAR  HN ES       1033 48.68                             123   -0.00 9  200 292 
                                                                                
