 2015 1225 1016 40.1 L   6.799 -73.136142.2  RSN  6 0.4 1.3LRSN                1
 GAP=217        0.95       3.9     6.8  6.1  0.1489E+01  0.4019E+01 -0.2875E+01E
 Epicentro: LOS SANTOS - SANTANDER                                             3
 ACTION:UPD 16-02-04 15:07 OP:cam  STATUS:               ID:20151225101640 L   I
 OLDACT:UP  15-12-25 21:15 OP:cara STATUS:               ID:20151225100745     3
 OLDACT:REG 15-12-25 20:14 OP:cara STATUS:               ID:20151225100745     3
 2015-12-25-1007-45M.COL___334                                                 6
 STAT SP IPHASW D HRMM SECON CODA AMPLIT PERI AZIMU VELO AIN AR TRES W  DIS CAZ7
 BAR2 EZ ES       1017 13.95                             170   -0.3510 23.4 193 
 BAR2 EZ I        1017 15.86         4.0 0.18            173           23.4 193 
 BRR  HZ IP       1017  1.36                             152    0.4210 72.2 298 
 BRR  HN ES       1017 17.73                             152    0.5510 72.2 298 
 BRR  HZ I        1017 21.89         2.9 0.20            148           72.2 298 
 PTB  HZ IP       1017  6.39                             131   -0.50 9  149 259 
 PTB  HN ES       1017 27.35                             131   -0.42 9  149 259 
 PTB  HZ I        1017 29.28         1.4 0.12            131            149 259 
 SPBC HZ EP       1017  8.35                             128   -0.05 9  164 219 
 SPBC HZ EPg      1017  8.69                             128    0.29 9  164 219 
 SPBC HN ES       1017 30.53                             128    0.07 9  164 219 
 SPBC HZ I        1017 35.57         2.9 0.12            131            164 219 
 ZAR  HZ EP       1017 13.01                             121    0.57 9  205 292 
 ZAR  HE ES       1017 37.63                             121   -0.02 9  205 292 
 ZAR  HZ I        1017 42.97         2.4 0.58            121            205 292 
 SML  HZ EP       1017 16.15                             117   -0.46 8  244 335 
 SML  HE ES       1017 44.78                             117   -0.29 8  244 335 
 SML  HZ I        1017 58.92         2.5 0.10            117            244 335 
                                                                                
