 2016  925 1319 18.1 L   6.815 -73.130153.1  RSN 15 0.4 2.3LRSN                1
 GAP=120        0.93       3.4     3.7  5.0 -0.1327E+01  0.2232E+01  0.4344E+01E
 Epicentro: LOS SANTOS - SANTANDER                                             3
 ACTION:UPD 17-08-17 21:16 OP:lp   STATUS:               ID:20160925131918 L   I
 OLDACT:UP  16-09-25 23:36 OP:and  STATUS:               ID:20160925131744     3
 OLDACT:UP  16-09-25 23:32 OP:and  STATUS:               ID:20160925131744     3
 OLDACT:REG 16-09-25 20:35 OP:y    STATUS:               ID:20160925131744     3
 2016-09-25-1318-00M.COL___327                                                 6
 STAT SP IPHASW D HRMM SECON CODA AMPLIT PERI AZIMU VELO AIN AR TRES W  DIS CAZ7
 BAR2 EZ EP       1319 38.67                             170   -0.0110 25.3 193 
 BAR2 EZ ES       1319 54.46                             170   -0.2510 25.3 193 
 BAR2 EZ I        1319 54.84        43.8 0.26            167           25.3 193 
 BRR  HZ EP       1319 40.67                             153    0.5610 71.9 297 
 BRR  HE ES       1319 57.71                             153    0.4510 71.9 297 
 BRR  HZ I        1320  1.65        26.8 0.14            147           71.9 297 
 PAM  EZ IP     D 1319 41.58                             153    0.5910 75.0  39 
 PAM  EN ES       1319 58.45                             153   -0.3710 75.0  39 
 PAM  EZ I        1320  0.77        39.9 0.52            151           75.0  39 
 RUS  HZ EP   2   1319 42.72                             145    0.00 5  102 177 
 RUS  HE ES   2   1320  1.59                             145   -0.31 5  102 177 
 RUS  HZ I        1320  2.35        15.5 0.28            140            102 177 
 PTB  HZ EP       1319 45.75                             133   -0.13 9  150 258 
 PTB  HE ES       1320  6.85                             133   -0.68 9  150 258 
 PTB  HZ I        1320  9.29        16.5 0.16            127            150 258 
 SPBC HZ EP       1319 47.70                             130    0.28 9  166 219 
 SPBC HN ES       1320 10.18                             130   -0.09 9  166 219 
 SPBC HZ I        1320 12.89        30.9 0.07            124            166 219 
 ZAR  HZ EP       1319 51.12                             124   -0.04 9  205 292 
 ZAR  HE ES       1320 16.73                             124   -0.19 9  205 292 
 ZAR  HZ I        1320 21.77        17.1 0.38            118            205 292 
 NOR  HZ EP       1319 54.76                             120    0.22 8  237 234 
 NOR  HN ES       1320 23.17                             120    0.22 8  237 234 
 NOR  HZ I        1320 28.03        11.3 0.14            114            237 234 
 CHI  HZ EP       1319 56.66                             118    0.20 8  251 195 
 CHI  HN ES       1320 26.22                             118   -0.15 8  251 195 
 CHI  HZ I        1320 29.56        12.5 0.58            114            251 195 
 ROSC BZ EP       1319 57.29                             118    0.38 8  255 211 
 ROSC BN ES   4   1320 29.20                             118    2.04 0  255 211 
 ROSC BZ I        1320 33.07        23.7 0.40            113            255 211 
 HEL  HE ES   2   1320 30.83                             116    0.04 4  274 256 
 HEL  HZ I        1320 36.69         9.6 0.28            111            274 256 
 GUY2CHZ EP   4   1320  4.33                             113    1.98 0  304 235 
 GUY2CHE ES   4   1320 41.35                             113    4.51 0  304 235 
 GUY2CHZ I        1320 44.86        10.0 0.34                           304 235 
 PTGC HZ EP       1320  1.64                             113   -0.79 7  310 159 
 PTGC HN ES   4   1320 35.56                             113   -1.42 0  310 159 
 ELA  HZ EP   4   1320  7.16                             111    1.59 0  332 229 
 ELA  HZ I        1320 51.34         7.7 0.58            107            332 229 
 ANIL HE ES   4   1320 51.47                             109    3.68 0  360 225 
 SJC  HZ EPg      1320 12.72                             107   -1.16 6  409 327 
 SJC  HZ EP   4   1320 12.80                             107   -1.08 0  409 327 
 SJC  HE ES   4   1320 55.00                             107   -2.37 0  409 327 
 SJC  HZ I        1321  0.67         3.3 0.56            103            409 327 
                                                                                
