 2011 1025 1146 41.8 L   6.766 -73.165140.0  RSN  7 0.2 2.1LRSN                1
 GAP=136        0.51       3.1     3.5  4.8 -0.1380E+01  0.8723E+01 -0.1038E+00E
 Epicentro: LOS SANTOS - SANTANDER                                             3
 ACTION:UPD 12-07-13 16:05 OP:ep   STATUS:               ID:20111025114641 L   I
 2011-10-25-1144-54S.COL___172                                                 6
 STAT SP IPHASW D HRMM SECON CODA AMPLIT PERI AZIMU VELO AIN AR TRES W  DIS CAZ7
 BAR2 SZ EP       1147  0.51                             172   -0.1510 19.4 186 
 BAR2 SZ ES   1   1147 15.62                             172    0.25 7 19.4 186 
 BAR2 SZ I        1147 17.14        39.0 0.18                          19.4 186 
 BTL  SZ EP       1147  0.86                             171    0.1910 20.3 326 
 PAM  SZ EP       1147  3.78                             148    0.1210 81.6  39 
 PAM  SN ES   1   1147 20.50                             148   -0.22 7 81.6  39 
 RUS  HZ EP       1147  4.50                             144   -0.2210 97.1 175 
 RUS  HN ES   1   1147 22.72                             144    0.11 7 97.1 175 
 ZAR  HZ EP   2   1147 14.08                             121    0.26 4  204 293 
 ZAR  HE ES   1   1147 38.47                             121   -0.32 6  204 293 
 ZAR  HZ I        1147 43.86        16.1 0.44                           204 293 
 NOR  SZ EP       1147 16.55                             118   -0.23 8  231 235 
 NOR  SE ES   2   1147 44.03                             118   -0.03 4  231 235 
 HEL  HZ EP       1147 21.79                             114    0.40 8  269 256 
 HEL  HZ I        1147 23.54         3.8 0.68                           269 256 
                                                                                
