 2015  225 1748  6.3 L   6.776 -73.143142.0  RSN 11 0.5 2.3LRSN                1
 GAP=138        1.21       5.2     5.4  6.6 -0.1112E+02  0.8551E+01  0.9380E+01E
 Epicentro: LOS SANTOS - SANTANDER                                             3
 ACTION:UPD 15-04-30 21:29 OP:nd   STATUS:               ID:20150225174806 L   I
 OLDACT:REG 15-02-25 20:49 OP:carl STATUS:               ID:20150225174748     3
 2015-02-25-1747-48M.COL___299                                                 6
 STAT SP IPHASW D HRMM SECON CODA AMPLIT PERI AZIMU VELO AIN AR TRES W  DIS CAZ7
 BAR2 EZ EP       1748 25.34                             171   -0.0710 20.8 192 
 BAR2 EZ ES       1748 40.52                             171    0.1910 20.8 192 
 BAR2 EZ I        1748 41.28        49.7 0.14            169           20.8 192 
 BRR  HZ EP       1748 27.27                             151    0.1510 72.7 300 
 BRR  HN ES       1748 44.35                             151    0.9910 72.7 300 
 BRR  HZ I        1748 49.38        32.0 0.20            149           72.7 300 
 PAM  SZ EP       1748 28.12                             150   -0.0910 79.3  38 
 PAM  SN ES       1748 45.03                             150   -0.2910 79.3  38 
 PAM  SZ I        1748 47.11        48.9 0.56            154           79.3  38 
 RUS  HZ EP       1748 29.25                             144   -0.2210 97.9 176 
 RUS  HN ES       1748 47.80                             144    0.2410 97.9 176 
 RUS  HZ I        1748 48.69        35.5 0.22            146           97.9 176 
 PTB  HZ EP       1748 32.13                             131   -0.80 9  148 260 
 PTB  HN ES       1748 53.02                             131   -0.69 9  148 260 
 PTB  HZ I        1748 58.33        36.7 0.20            131            148 260 
 SPBC HZ EP       1748 34.32                             129    0.00 9  161 220 
 SPBC HN ES       1748 56.05                             129   -0.13 9  161 220 
 NOR  HZ EP       1748 41.33                             118   -0.33 8  233 235 
 NOR  HE ES       1749  8.50                             118   -0.75 8  233 235 
 NOR  HZ I        1749 16.30        24.7 0.22            119            233 235 
 GUY2CHZ EP       1748 50.12                             112    0.55 7  300 235 
 GUY2CHN ES       1749 23.46                             112    0.12 7  300 235 
 GUY2CHZ I        1749 32.01        11.4 0.46                           300 235 
 TOL  SZ EP       1748 54.91                             109    0.71 7  342 225 
 TOL  SN ES       1749 33.16                             109    1.59 7  342 225 
 TOL  SZ I        1749 38.68         8.2 0.68            110            342 225 
 ANIL HZ EP       1748 56.05                             108    0.30 6  356 225 
 ANIL HN ES       1749 34.34                             108    0.01 6  356 225 
 ANIL HZ I        1749 41.52         2.6 0.32            109            356 225 
 PRA  HZ EP       1748 59.35                             106   -0.07 6  390 210 
 PRA  HN ES       1749 40.21                             106   -0.66 6  390 210 
 PRA  HZ I        1749 48.04         9.0 0.24            107            390 210 
                                                                                
