 2014  525 1600  8.8 L   7.406 -73.431128.4  RSN 13 0.5 2.0LRSN                1
 GAP= 59        0.96       2.6     3.6  5.5 -0.1570E+01 -0.6651E+00  0.2657E+01E
 Epicentro: SABANA DE TORRES - SANTANDER                                       3
 ACTION:UPD 15-03-16 17:00 OP:nd   STATUS:               ID:20140525160008 L   I
 OLDACT:REG 14-05-25 20:42 OP:spq  STATUS:               ID:20140525155807     3
 2014-05-25-1558-07M.COL___224                                                 6
 STAT SP IPHASW D HRMM SECON CODA AMPLIT PERI AZIMU VELO AIN AR TRES W  DIS CAZ7
 BRR  HZ EP       16 0 26.96                             160    0.2510 45.3 223 
 BRR  HN ES       16 0 41.18                             160    0.4910 45.3 223 
 BRR  HZ I        16 0 42.47        34.3 0.14            157           45.3 223 
 OCA  HN EP       16 0 30.26                             142    0.4510 92.9   8 
 OCA  HE ES       16 0 46.04                             142   -0.1710 92.9   8 
 PTB  HZ EP       16 0 34.02                             128   -0.44 9  148 230 
 PTB  HE ES       16 0 53.75                             128   -0.73 9  148 230 
 PTB  HZ I        16 0 56.22        15.6 0.07            126            148 230 
 ZAR  HZ EP       16 0 35.66                             126    0.29 9  158 274 
 ZAR  HN ES       16 0 56.29                             126    0.18 9  158 274 
 ZAR  HZ I        16 1  0.55        19.2 0.14            124            158 274 
 SML  HZ EP       16 0 36.45                             124   -0.10 9  170 335 
 SML  HN ES   1   16 0 57.90                             124   -0.30 7  170 335 
 SML  HZ I        16 1  4.69        30.9 0.24            122            170 335 
 RUS  HZ EP   1   16 0 38.20                             124    0.80 7  172 167 
 RUS  HN ES   1   16 0 59.07                             124   -0.65 7  172 167 
 RUS  HZ I        16 1  0.78         5.4 0.20            122            172 167 
 TAM  HN ES   1   16 1  6.04                             117    0.08 6  211 121 
 TAM  HZ I        16 1 12.35        13.4 0.48            117            211 121 
 NOR  HZ EP       16 0 46.28                             112    0.05 8  258 218 
 NOR  HE ES       16 1 14.95                             112   -0.49 8  258 218 
 NOR  HZ I        16 1 23.04         4.9 0.32            111            258 218 
 CHI  HZ EP   1   16 0 52.94                             108    0.49 5  309 186 
 CHI  HN ES       16 1 25.98                             108   -0.52 7  309 186 
 CHI  HZ I        16 1 32.28         4.8 0.50            107            309 186 
 GUY2CHZ EP       16 0 54.83                             107    0.71 7  322 222 
 GUY2CHN ES   1   16 1 29.80                             107    0.33 5  322 222 
 GUY2CHZ I        16 1 38.64         2.1 0.44                           322 222 
 SJC  HZ EP       16 0 54.43                             106   -0.76 7  336 325 
 SJC  HE ES   4   16 1 26.55                             106   -4.83 0  336 325 
 SJC  HZ I        16 1 39.14         2.1 0.72            105            336 325 
 SDV  BZ EP       16 0 56.48                             106   -0.41 6  349  62 
 SDV  BE ES   4   16 1 29.31                             106   -5.10 0  349  62 
 RREF HZ EP   1   16 0 57.71                             106    0.31 5  349 218 
 RREF HN ES   1   16 1 35.77                             106    0.45 5  349 218 
 RREF HZ I        16 1 47.33         3.9 0.26            105            349 218 
                                                                                
