 2017  825 1814 37.3 L   6.754 -73.065141.1  RSN  5 0.4 1.5LRSN                1
 GAP=149        0.90       6.8     9.7  8.1  0.3790E+02 -0.1640E+01 -0.1316E+01E
 Epicentro: LOS SANTOS - SANTANDER                                             3
 ACTION:UPD 17-09-04 20:24 OP:rebc STATUS:               ID:20170825181437 L   I
 OLDACT:UP  17-08-25 22:17 OP:edw  STATUS:               ID:20170825180750     3
 OLDACT:REG 17-08-25 20:30 OP:edw  STATUS:               ID:20170825180750     3
 2017-08-25-1808-00M.COL___408                                                 6
 STAT SP IPHASW D HRMM SECON CODA AMPLIT PERI AZIMU VELO AIN AR TRES W  DIS CAZ7
 BAR2 EZ EP     D 1814 56.18                             170   -0.1410 22.1 216 
 BAR2 EZ ES       1815 10.63                             170   -0.5510 22.1 216 
 BAR2 EZ I        1815 12.37         4.0 0.26            168           22.1 216 
 PAM  EN ES   2   1815 16.07                             151    0.24 5 76.3  32 
 BRR  HZ EP       1814 58.16                             148   -0.4010 81.5 299 
 BRR  HZ I        1815 14.87        20.4 0.34            136           81.5 299 
 BRR  HN ES       1815 15.66                             148    0.5110 81.5 299 
 RUS  HZ EP       1815  0.51                             144    0.3210 95.2 181 
 RUS  HE ES       1815 18.27                             144    0.2210 95.2 181 
 RUS  HZ I        1815 19.63         3.0 0.20            139           95.2 181 
 ZAR  HN ES   2   1815 36.30                             120   -0.11 4  214 293 
                                                                                
