 2017  425 1121 23.9 L   7.066 -73.310121.0  RSN  6 0.4 1.7LRSN                1
 GAP=140        0.97       6.6     4.3  6.8  0.1566E+01  0.1202E+02  0.2397E+01E
 Epicentro: LEBRIJA - SANTANDER                                                3
 ACTION:UPD 17-05-30 21:15 OP:jn   STATUS:               ID:20170425112123 L   I
 OLDACT:UP  17-04-25 22:27 OP:ar   STATUS:               ID:20170425111706     3
 OLDACT:REG 17-04-25 20:30 OP:ods  STATUS:               ID:20170425111706     3
 2017-04-25-1118-00M.COL___368                                                 6
 STAT SP IPHASW D HRMM SECON CODA AMPLIT PERI AZIMU VELO AIN AR TRES W  DIS CAZ7
 BRR  HZ IP       1121 40.55                             158   -0.3910 44.7 276 
 BRR  HN ES       1121 54.13                             158   -0.1210 44.7 276 
 BRR  HZ I        1121 54.98        13.2 0.20            147           44.7 276 
 BAR2 EZ EP       1121 41.81                             154    0.0510 54.2 165 
 BAR2 EZ ES       1121 55.91                             154    0.2110 54.2 165 
 BAR2 EZ I        1121 56.56        36.7 0.16            134           54.2 165 
 PAM  EZ EP       1121 43.34                             147    0.0410 73.9  66 
 PAM  EE ES       1121 58.50                             147    0.0610 73.9  66 
 PAM  EZ I        1122  0.60         8.1 0.60            139           73.9  66 
 PTB  HZ EP       1121 47.30                             127   -0.85 9  139 245 
 PTB  HN ES   4   1122  5.22                             127   -1.85 0  139 245 
 PTB  HZ I        1122 12.21         4.7 0.38            114            139 245 
 ZAR  HZ EP       1121 52.26                             120    0.27 9  177 286 
 ZAR  HE ES       1122 14.28                             120    0.38 9  177 286 
 ZAR  HZ I        1122 17.17         5.9 0.30            111            177 286 
 NOR  HZ EP       1121 59.48                             112    0.62 8  240 226 
 NOR  HZ I        1122 30.76         4.3 0.20            103            240 226 
                                                                                
