 2017  925 1518 54.4 L   6.780 -73.116141.8  RSN 10 0.4 1.6LRSN                1
 GAP=115        0.80       2.9     3.4  4.8 -0.2129E+00  0.5234E+01  0.5207E+01E
 Epicentro: LOS SANTOS - SANTANDER                                             3
 ACTION:UPD 17-10-05 19:16 OP:rebc STATUS:               ID:20170925151854 L   I
 OLDACT:REG 17-09-25 21:13 OP:osc  STATUS:               ID:20170925151744     3
 2017-09-25-1518-00M.COL___429                                                 6
 STAT SP IPHASW D HRMM SECON CODA AMPLIT PERI AZIMU VELO AIN AR TRES W  DIS CAZ7
 BAR2 EZ EP       1519 13.61                             171    0.0510 22.0 199 
 BAR2 EZ ES       1519 28.10                             171   -0.3810 22.0 199 
 BAR2 EZ I        1519 29.76        13.9 0.18            170           22.0 199 
 BRR  HZ EP       1519 15.55                             150    0.1610 75.2 299 
 BRR  HE ES       1519 32.08                             150    0.3510 75.2 299 
 PAM  EZ EP       1519 16.16                             150   -0.0510 77.1  37 
 PAM  EN ES       1519 33.11                             150   -0.0810 77.1  37 
 PAM  EZ I        1519 35.49         7.5 0.20            152           77.1  37 
 RUS  HZ EP       1519 17.79                             144    0.1710 98.2 178 
 RUS  HE ES       1519 35.69                             144   -0.0210 98.2 178 
 RUS  HZ I        1519 37.27         5.4 0.34            145           98.2 178 
 YPLC HZ EP   2   1519 23.77                             126    0.17 4  173 152 
 YPLC HE ES       1519 46.47                             126    0.13 9  173 152 
 ZAR  HN ES   2   1519 51.73                             121   -0.72 4  208 292 
 NOR  HZ EP       1519 29.72                             117   -0.37 8  236 235 
 NOR  HE ES       1519 57.50                             117   -0.40 8  236 235 
 NOR  HZ I        1520  2.38         3.6 0.22            118            236 235 
 CHI  HZ EP       1519 31.15                             116   -0.63 8  247 196 
 CHI  HE ES       1520  1.32                             116    0.41 8  247 196 
 GUY2CHZ EP       1519 38.87                             111    0.84 7  303 235 
 GUY2CHE ES       1520 12.51                             111    0.48 7  303 235 
 GUY2CHZ I        1520 22.30         1.9 0.34                           303 235 
 PRA  HZ EP       1519 47.61                             106   -0.18 6  392 210 
 PRA  HE ES       1520 28.87                             106   -0.53 6  392 210 
                                                                                
