 2017  625 1608 22.9 L   6.179 -73.788100.5  RSN  8 0.4 1.5LRSN                1
 GAP=122        1.15       3.2     4.1  8.1 -0.3470E+01  0.7997E+01  0.4124E+00E
 Epicentro: LANDAZURI - SANTANDER                                              3
 ACTION:UPD 17-09-14 16:55 OP:jn   STATUS:               ID:20170625160822 L   I
 OLDACT:REG 17-06-25 20:24 OP:lv   STATUS:               ID:20170625155740     3
 2017-06-25-1558-00M.COL___355                                                 6
 STAT SP IPHASW D HRMM SECON CODA AMPLIT PERI AZIMU VELO AIN AR TRES W  DIS CAZ7
 SPBC HZ EP       16 8 39.15                             144   -0.0310 66.2 208 
 SPBC HN ES       16 8 52.46                             144    0.5910 66.2 208 
 SPBC HZ I        16 8 54.72        16.5 0.11            146           66.2 208 
 BAR2 EZ EP       16 8 40.64                             138    0.1110 81.0  56 
 BAR2 EZ ES       16 8 53.91                             138   -0.3510 81.0  56 
 BAR2 EZ I        16 8 55.37        21.9 0.17            142           81.0  56 
 PTB  HZ EP       16 8 39.71                             137   -0.7610 84.0 298 
 PTB  HN ES       16 8 53.48                             137   -0.6810 84.0 298 
 PTB  HZ I        16 8 57.06         6.4 0.09            141           84.0 298 
 BRR  HZ EP       16 8 41.95                             130   -0.1810  103   5 
 BRR  HN ES       16 8 57.78                             130    0.6810  103   5 
 BRR  HZ I        16 8 59.74         6.4 0.19            135            103   5 
 NOR  HZ EP       16 8 45.15                             121   -0.50 9  138 240 
 NOR  HN ES       16 9  3.34                             121   -0.04 9  138 240 
 NOR  HZ I        16 9  5.70         5.9 0.15            125            138 240 
 CHI  HN ES       16 9 10.67                             115    0.01 9  171 178 
 CHI  HZ I        16 9 16.07         4.0 0.32            118            171 178 
 ZAR  HZ EP       16 8 51.22                             112    0.22 9  187 321 
 ZAR  HN ES       16 9 13.48                             112    0.59 9  187 321 
 GUY2CHZ EP       16 8 53.92                             110    0.42 9  204 239 
 GUY2CHN ES       16 9 17.59                             110    0.24 9  204 239 
 GUY2CHZ I        16 9 23.94         2.3 0.29                           204 239 
                                                                                
