 2013 1025 1637 46.9 L   6.817 -73.135144.9  RSN 14 0.4 2.7LRSN                1
 GAP=114        1.03       2.8     4.0  5.2 -0.2215E+00  0.4978E+01 -0.1612E+01E
 Epicentro: LOS SANTOS - SANTANDER                                             3
 ACTION:UPD 13-11-25 09:23 OP:ep   STATUS:               ID:20131025163746 L   I
 OLDACT:REG 13-10-25 15:18 OP:cam  STATUS:               ID:20131025162845     3
 2013-10-25-1628-45M.COL___236                                                 6
 STAT SP IPHASW D HRMM SECON CODA AMPLIT PERI AZIMU VELO AIN AR TRES W  DIS CAZ7
 BAR2 SZ EP       1638  6.44                             170   -0.0210 25.4 192 
 BAR2 SZ ES       1638 20.99                             170   -0.7310 25.4 192 
 BAR2 SZ I        1638 22.47       108.6 0.16            171           25.4 192 
 BRR  HZ EP       1638  8.34                             152    0.3810 71.3 297 
 BRR  HN ES       1638 25.08                             152    0.7010 71.3 297 
 BRR  HZ I        1638 29.11        91.9 0.30            148           71.3 297 
 PAM  SZ IP     C 1638  9.48                             151    0.5910 75.2  40 
 PAM  SN ES       1638 26.25                             151    0.2110 75.2  40 
 PAM  SZ I        1638 28.09       142.2 0.52            149           75.2  40 
 RUS  HZ EP       1638 10.51                             143   -0.1810  102 177 
 RUS  HN ES       1638 28.85                             143   -0.4010  102 177 
 RUS  HZ I        1638 29.80        45.6 0.38            143            102 177 
 PTB  HZ EP     C 1638 13.57                             132   -0.36 9  149 258 
 PTB  HN ES   1   1638 34.96                             132   -0.05 7  149 258 
 PTB  HZ I        1638 37.35        65.2 0.14            128            149 258 
 OCA  HZ EP       1638 14.83                             130   -0.14 9  159 353 
 OCA  HN ES       1638 36.46                             130   -0.41 9  159 353 
 OCA  HZ I        1638 40.11        67.8 0.48            126            159 353 
 SPBC HZ EP       1638 15.63                             129    0.09 9  165 219 
 SPBC HN ES   1   1638 37.43                             129   -0.45 7  165 219 
 SPBC HZ I        1638 41.21        68.5 0.22            126            165 219 
 YOP  SZ EP   2   1638 17.31                             126    0.32 4  180 154 
 YOP  SN ES   1   1638 41.33                             126    0.86 7  180 154 
 YOP  SZ I        1638 42.04        70.7 0.36            125            180 154 
 ZAR  HZ EP       1638 19.55                             122    0.23 9  204 292 
 ZAR  HN ES       1638 45.34                             122    0.73 9  204 292 
 ZAR  HZ I        1638 50.46        71.6 0.30            119            204 292 
 NOR  HZ EP       1638 23.08                             118    0.28 8  237 234 
 NOR  HE ES       1638 50.42                             118   -0.37 8  237 234 
 NOR  HZ I        1638 52.35        33.9 0.14            116            237 234 
 SML  HZ EP       1638 23.00                             117   -0.34 8  242 335 
 SML  HE ES       1638 51.77                             117    0.01 8  242 335 
 CHI  HZ EP   2   1638 24.71                             117   -0.07 4  251 195 
 HEL  HZ EP   4   1638 28.16                             114    0.92 0  274 255 
 GUY2CHZ EP   4   1638 32.29                             112    1.59 0  303 235 
 RREF HZ EP   4   1638 35.22                             111    1.98 0  324 229 
 COD  HZ EP       1638 34.61                             109   -0.42 6  346 354 
 PRA  HZ EP   4   1638 40.49                             106   -0.16 0  394 210 
 SJC  HZ EP       1638 41.37                             106   -0.95 6  408 327 
 SJC  HZ I        1639 26.08        13.2 0.54            104            408 327 
                                                                                
