 2017  225 1424 15.2 L   6.762 -73.201138.7  RSN  8 0.4 1.8LRSN                1
 GAP=131        1.05       4.4     4.5  7.1  0.1825E+01  0.8561E+01  0.1014E+02E
 Epicentro: ZAPATOCA - SANTANDER                                               3
 ACTION:UPD 17-05-24 15:40 OP:jn   STATUS:               ID:20170225142415 L   I
 OLDACT:UP  17-02-26 00:47 OP:edw  STATUS:               ID:20170225141740     3
 OLDACT:UP  17-02-26 00:46 OP:edw  STATUS:               ID:20170225141740     3
 OLDACT:REG 17-02-25 20:33 OP:edw  STATUS:               ID:20170225141740     3
 2017-02-25-1418-00M.COL___376                                                 6
 STAT SP IPHASW D HRMM SECON CODA AMPLIT PERI AZIMU VELO AIN AR TRES W  DIS CAZ7
 BRR  HZ EP       1424 35.50                             152    0.0510 68.1 304 
 BRR  HE ES       1424 50.44                             152   -0.7710 68.1 304 
 PAM  EZ IP     C 1424 37.40                             147    0.2410 84.5  41 
 PAM  EN ES       1424 54.21                             147   -0.0510 84.5  41 
 PAM  EZ I        1424 56.44        10.7 0.66            151           84.5  41 
 RUS  HZ EP     D 1424 37.82                             143   -0.2210 97.1 172 
 RUS  HN ES       1424 56.44                             143    0.6210 97.1 172 
 RUS  HZ I        1424 57.23         6.3 0.24            144           97.1 172 
 PTB  HZ EP       1424 40.49                             132   -0.53 9  141 260 
 PTB  HN ES       1425  1.16                             132    0.04 9  141 260 
 PTB  HZ I        1425  4.22         8.1 0.18            132            141 260 
 ZAR  HZ EP       1424 46.75                             121   -0.07 9  200 294 
 ZAR  HN ES       1425 12.30                             121    0.86 9  200 294 
 ZAR  HZ I        1425 18.88        11.4 0.36            122            200 294 
 NOR  HN ES   4   1425 17.77                             118    1.07 0  227 234 
 CHI  HZ EP       1424 51.89                             116   -0.06 8  243 194 
 CHI  HN ES   4   1425 18.67                             116   -1.90 0  243 194 
 CHI  HZ I        1425 24.52         6.5 0.84            117            243 194 
 CBOC HZ EP       1425  1.60                             109    0.55 7  327 252 
 CBOC HN ES   4   1425 35.27                             109   -1.52 0  327 252 
 CBOC HZ I        1425 37.01         2.1 0.10            110            327 252 
 PRA  HZ EP       1425  7.64                             105   -0.11 6  385 209 
 PRA  HN ES       1425 48.19                             105   -0.51 6  385 209 
 PRA  HZ I        1425 55.00         3.1 0.36            106            385 209 
                                                                                
