 2011  725 1309 52.3 L   6.759 -73.124149.0  RSN  6 0.2 1.8LRSN                1
 GAP=158        0.41       3.1     3.8  3.8 -0.2303E+01  0.8935E+00  0.1499E+01E
 Epicentro: LOS SANTOS - SANTANDER                                             3
 ACTION:UPD 12-07-25 14:03 OP:epov STATUS:               ID:20110725130952 L   I
 2011-07-25-1300-00M.COL___139                                                 6
 STAT SP IPHASW D HRMM SECON CODA AMPLIT PERI AZIMU VELO AIN AR TRES W  DIS CAZ7
 BAR2 SZ EP   1   1310 12.17                             172   -0.11 7 19.5 199 
 BAR2 SZ ES   1   1310 27.86                             172    0.02 7 19.5 199 
 BAR2 SZ I        1310 28.99        17.0 0.28                          19.5 199 
 BRR  HZ EP       1310 14.07                             152   -0.0110 75.5 301 
 BRR  HN ES   1   1310 31.23                             152    0.19 7 75.5 301 
 BRR  HZ I        1310 33.68        14.9 0.14                          75.5 301 
 RUS  HZ EP   1   1310 16.03                             146   -0.04 7 95.9 177 
 RUS  HN ES   2   1310 34.71                             146    0.12 5 95.9 177 
 RUS  HZ I        1310 36.50         5.6 0.38                          95.9 177 
 BRI  SZ EP   1   1310 16.66                             141   -0.14 7  112  19 
 BRI  SZ I        1310 37.09         8.7 0.31                           112  19 
 NOR  SZ EP   1   1310 28.28                             119    0.10 6  234 236 
 NOR  SN ES   1   1310 55.78                             119   -0.37 6  234 236 
 PRA  HZ EP   1   1310 46.26                             107    0.61 4  389 210 
                                                                                
