 2011  425 1402 22.7 L   6.877 -73.341124.1  RSN  8 0.4 2.0LRSN                1
 GAP= 90        0.88       6.0     7.5  8.5 -0.1205E+02 -0.4195E+01 -0.6197E+01E
 Epicentro: BETULIA - SANTANDER                                                3
 ACTION:UP  11-06-22 15:33 OP:REBC STATUS:               ID:20110425140222 L   I
 2011-04-25-1401-05S.COL___139                                                 6
 STAT SP IPHASW D HRMM SECON CODA AMPLIT PERI AZIMU VELO SNR AR TRES W  DIS CAZ7
 BTL  SZ EP       14 2 39.72                             175     0.210    9  61 
 BAR2 SZ EP   1   14 2 40.17                             163     0.0 7   36 151 
 BAR2 SZ ES   1   14 2 53.30                             163    -0.4 7   36 151 
 BAR2 SZ I        14 2 54.40        80.9 0.29                            36 151 
 BRR  HZ EP       14 2 40.55                             157     0.310   48 302 
 BRR  HN ES   1   14 2 54.08                             157     0.1 7   48 302 
 BRR  HZ I        14 2 55.44        27.5 0.19                            48 302 
 BRI  SZ EP   1   14 2 45.05                             135     0.2 7  111  33 
 RUS  HZ EP   1   14 2 45.42                             135     0.0 7  113 165 
 RUS  HZ I        14 3  6.74         5.4 0.28                           113 165 
 GRA  SZ EP   2   14 2 46.61                             131     0.4 5  126  28 
 OCA  SZ EP   1   14 2 47.52                             126    -1.0 7  151   1 
 OCA  SZ I        14 3 14.30        11.1 0.21                           151   1 
 NOR  SN ES   1   14 3 21.79                             115    -0.2 6  223 229 
                                                                                
