 2010  825 1220  1.4 L   6.781 -73.086148.7  RSN  6 0.2 1.8LRSN                1
 GAP=165        0.65       3.3     6.8  6.9 -0.2275E+01 -0.2010E+02 -0.2045E+01E
 Epicentro: LOS SANTOS - SANTANDER                                             3
 ACTION:UP  10-09-07 10:58 OP:vdl  STATUS:               ID:20100825122001 L   I
 2010-08-25-1214-29S.COL___121                                                 6
 STAT SP IPHASW D HRMM SECON CODA AMPLIT PERI AZIMU VELO SNR AR TRES W  DIS CAZ7
 BAR2 SZ EP   1   1220 21.48                             170     0.1 7   24 207 
 BAR2 SZ ES   2   1220 37.10                             170     0.1 5   24 207 
 BAR2 SZ I        1220 39.37        21.0 0.65                            24 207 
 BRR  HZ EP       1220 23.37                             150     0.110   78 298 
 BRR  HN ES       1220 40.19                             150    -0.110   78 298 
 BRR  HZ I        1220 45.93        13.6 0.35                            78 298 
 RUS  HZ EP   1   1220 24.70                             145    -0.6 7   98 180 
 RUS  HN ES   1   1220 44.12                             145     0.2 7   98 180 
 RUS  HZ I        1220 45.43         7.2 0.36                            98 180 
 GUE  SZ EP       1220 26.47                             139     0.010  117   9 
 GUE  SZ I        1220 51.23         3.5 0.42                           117   9 
 GRA  SZ EP       1220 27.17                             137     0.210  126  14 
 GRA  SZ ES   1   1220 46.62                             137    -0.2 7  126  14 
 GRA  SZ I        1220 48.16        11.3 0.30                           126  14 
 CHI  HZ I        1220 41.72         4.7 0.31                           248 197 
 CHI  HN ES   2   1221  8.86                             117     0.1 4  248 197 
                                                                                
