 2014  225 1014 36.5 L   6.788 -73.170148.2  RSN  9 0.3 1.9LRSN                1
 GAP=134        0.71       2.8     3.9  5.1 -0.4793E+00  0.7173E+01 -0.4615E+00E
 Epicentro: LOS SANTOS - SANTANDER                                             3
 ACTION:UPD 14-03-10 08:13 OP:ep   STATUS:               ID:20140225101436 L   I
 OLDACT:UP  14-02-25 16:30 OP:cam  STATUS:               ID:20140225100821d    3
 OLDACT:DUP 14-02-25 16:25 OP:cam  STATUS:               ID:20140225100821d    3
 OLDACT:DUP 14-02-25 16:23 OP:cam  STATUS:               ID:20140225100820d    3
 OLDACT:UP  14-02-25 16:23 OP:cam  STATUS:               ID:20140225100819     3
 OLDACT:UP  14-02-25 16:23 OP:cam  STATUS:               ID:20140225100819     3
 OLDACT:UP  14-02-25 16:22 OP:cam  STATUS:               ID:20140225100819     3
 OLDACT:REG 14-02-25 15:31 OP:cam  STATUS:               ID:20140225100819     3
 2014-02-25-1008-19M.COL___223                                                 6
 STAT SP IPHASW D HRMM SECON CODA AMPLIT PERI AZIMU VELO AIN AR TRES W  DIS CAZ7
 BAR2 SZ EP   1   1014 56.00                             171   -0.35 7 21.7 184 
 BAR2 SZ ES   1   1015 12.13                             171    0.27 7 21.7 184 
 BAR2 SZ I        1015 12.94        38.3 0.40            161           21.7 184 
 PAM  SZ EP     C 1014 59.21                             150    0.1210 80.1  40 
 PAM  SN ES       1015 16.43                             150   -0.3210 80.1  40 
 PAM  SZ I        1015 18.72         7.4 0.62            144           80.1  40 
 RUS  HZ EP       1015  0.60                             145    0.2310 99.5 174 
 RUS  HN ES       1015 19.02                             145    0.0010 99.5 174 
 RUS  HZ I        1015 20.55         6.5 0.24            131           99.5 174 
 PTB  HZ EP   1   1015  3.27                             133   -0.10 7  145 259 
 PTB  HN ES       1015 24.34                             133   -0.02 9  145 259 
 PTB  HZ I        1015 27.56         7.2 0.10            123            145 259 
 ZAR  HZ EP   1   1015  8.30                             123   -0.56 6  202 293 
 NOR  HZ EP   1   1015 11.37                             119   -0.65 6  232 234 
 NOR  HE ES   4   1015 40.93                             119    1.18 0  232 234 
 NOR  HZ I        1015 43.88         7.4 0.18            109            232 234 
 SML  HZ EP   1   1015 12.95                             118   -0.28 6  244 336 
 SML  HN ES       1015 42.54                             118    0.63 8  244 336 
 SML  HZ I        1015 43.77        11.6 0.10            110            244 336 
 CHI  HZ EP       1015 14.36                             118    0.28 8  247 195 
 CHI  HN ES   4   1015 41.75                             118   -1.67 0  247 195 
 CHI  HZ I        1015 51.41         2.4 0.32            107            247 195 
 HEL  HZ EP   4   1015 17.33                             115    0.86 0  269 256 
 GUY2CHZ EP   4   1015 21.15                             113    1.30 0  298 235 
 PRA  HZ EP   1   1015 30.18                             107    0.40 4  390 209 
 PRA  HZ I        1016 18.26         3.0 0.70             99            390 209 
                                                                                
