 2011  525 1154 10.9 L   6.251 -73.034169.0  RSN  6 0.3 2.1LRSN                1
 GAP=240        0.52       6.0     7.0  6.0 -0.2398E+02 -0.1095E+02  0.1010E+02E
 Epicentro: COROMORO - SANTANDER                                               3
 ACTION:UP  11-06-29 08:56 OP:tino STATUS:               ID:20110525115410 L   I
 2011-05-25-1153-37S.COL___141                                                 6
 STAT SP IPHASW D HRMM SECON CODA AMPLIT PERI AZIMU VELO SNR AR TRES W  DIS CAZ7
 BAR2 SZ EP       1154 33.83                             166     0.110   41 337 
 BAR2 SZ ES   1   1154 51.61                             166     0.0 7   41 337 
 BAR2 SZ I        1154 53.48        43.4 0.43                            41 337 
 GIR2 SZ EP   1   1154 35.95                             150    -0.1 7   93 349 
 BRR  HZ EP       1154 37.89                             143     0.210  121 322 
 BRR  HZ I        1154 57.58        15.8 0.46                           121 322 
 BRR  HE ES   1   1154 58.81                             143     0.2 7  121 322 
 BRI  SZ EP   2   1154 41.35                             134    -0.2 5  164   9 
 GRA  SZ EP   1   1154 43.01                             131    -0.1 7  182   8 
 GRA  SZ ES   1   1155  8.00                             131    -0.3 7  182   8 
 GRA  SZ I        1155 12.25         6.2 0.31                           182   8 
 NOR  SZ EP   2   1154 46.66                             125     0.4 4  217 250 
 NOR  SE ES   2   1155 13.06                             125    -0.8 4  217 250 
                                                                                
