 2012 1025 1127 15.3 L   6.820 -73.051152.3  RSN  5 0.3 1.6LRSN                1
 GAP=148        0.53       3.9     4.5  4.9  0.4950E+01  0.5892E+01  0.9678E+00E
 Epicentro: LOS SANTOS - SANTANDER                                             3
 ACTION:UPD 12-11-22 17:05 OP:ep   STATUS:               ID:20121025112715 L   I
 2012-10-25-1120-00M.COL___234                                                 6
 STAT SP IPHASW D HRMM SECON CODA AMPLIT PERI AZIMU VELO AIN AR TRES W  DIS CAZ7
 BAR2 SZ ES   2   1127 51.86                             169    0.04 5 29.0 210 
 BAR2 SZ I        1127 52.77        12.3 0.22                          29.0 210 
 PAM  SZ EP   2   1127 37.66                             155   -0.08 5 69.4  34 
 PAM  SE ES   1   1127 55.00                             155   -0.27 7 69.4  34 
 PAM  SZ I        1127 57.68         5.5 0.26                          69.4  34 
 BRR  HZ EP       1127 37.92                             151    0.3210 79.6 294 
 BRR  HZ I        1127 39.37        12.3 0.30                          79.6 294 
 BRR  HN ES       1127 55.21                             151    0.1810 79.6 294 
 RUS  HZ EP   1   1127 39.77                             145   -0.03 7  103 182 
 RUS  HN ES   1   1127 58.75                             145   -0.19 7  103 182 
 RUS  HN I        1128  2.43         3.3 0.61                           103 182 
 ZAR  HZ EP       1127 48.93                             122   -0.13 8  213 291 
 ZAR  HE ES   2   1128 14.72                             122   -0.69 4  213 291 
 ZAR  HZ I        1128 20.75         3.0 0.15                           213 291 
                                                                                
