 2012  825 1551 50.6 L   6.785 -73.127150.0  RSN  7 0.3 2.0LRSN                1
 GAP=140        0.69       3.0     4.0  6.2  0.1620E+01  0.5611E+01  0.3662E+01E
 Epicentro: LOS SANTOS - SANTANDER                                             3
 ACTION:UPD 12-09-10 11:58 OP:ep   STATUS:               ID:20120825155150 L   I
 2012-08-25-1550-00M.COL___218                                                 6
 STAT SP IPHASW D HRMM SECON CODA AMPLIT PERI AZIMU VELO AIN AR TRES W  DIS CAZ7
 BAR2 SZ EP   1   1552 10.55                             171   -0.19 7 22.2 196 
 BAR2 SZ ES   1   1552 26.02                             171   -0.41 7 22.2 196 
 BAR2 SZ I        1552 28.50        21.6 0.29                          22.2 196 
 GIR2 SZ EP   1   1552 11.04                             167    0.19 7 33.3 347 
 BRR  HZ EP   1   1552 12.46                             152    0.08 7 73.8 299 
 BRR  HZ I        1552 12.73        29.1 0.25                          73.8 299 
 BRR  HN ES       1552 29.90                             152    0.5510 73.8 299 
 PAM  SZ EP   1   1552 13.39                             152    0.10 7 77.4  38 
 PAM  SZ I        1552 13.80        17.1 0.22                          77.4  38 
 PAM  SE ES       1552 30.80                             152   -0.1710 77.4  38 
 RUS  HZ EP   1   1552 14.86                             145    0.19 7 98.8 177 
 RUS  HN ES       1552 33.39                             145   -0.0310 98.8 177 
 RUS  HZ I        1552 34.42         6.0 0.41                          98.8 177 
 ZAR  HE ES       1552 48.86                             123   -0.48 8  207 292 
 ZAR  HZ I        1552 55.66         8.4 0.30                           207 292 
 CHI  HN ES       1552 57.96                             118    0.01 8  248 196 
                                                                                
