 2013  225 1754 42.6 L   6.790 -73.158144.8  RSN  7 0.2 1.8LRSN                1
 GAP=135        0.47       2.1     2.9  4.2  0.3358E+00  0.3537E+01 -0.3815E+00E
 Epicentro: LOS SANTOS - SANTANDER                                             3
 ACTION:UPD 13-03-12 09:35 OP:ep   STATUS:               ID:20130225175442 L   I
 2013-02-25-1750-00M.COL___228                                                 6
 STAT SP IPHASW D HRMM SECON CODA AMPLIT PERI AZIMU VELO AIN AR TRES W  DIS CAZ7
 BAR2 SZ EP   1   1755  2.20                             171    0.16 7 22.0 187 
 BAR2 SZ ES   1   1755 17.28                             171    0.04 7 22.0 187 
 PAM  SZ EP   1   1755  5.00                             150    0.23 7 79.1  40 
 PAM  SN ES   1   1755 22.12                             150    0.02 7 79.1  40 
 PAM  SZ I        1755 25.03        10.4 0.56            154           79.1  40 
 RUS  HZ EP   1   1755  6.07                             144   -0.06 7 99.6 175 
 RUS  HN ES   1   1755 24.30                             144   -0.23 7 99.6 175 
 RUS  HZ I        1755 26.06        14.5 0.32            143           99.6 175 
 PTB  HZ EP   1   1755  8.95                             132   -0.35 7  146 259 
 PTB  HN ES   1   1755 30.06                             132   -0.09 7  146 259 
 PTB  HZ I        1755 31.99         6.6 0.14            131            146 259 
 ZAR  HE ES   1   1755 40.52                             122    0.49 6  203 293 
 ZAR  HZ I        1755 46.74         5.3 0.13            122            203 293 
 SML  HZ EP   1   1755 18.98                             117   -0.19 6  244 336 
 SML  HE ES   1   1755 47.39                             117   -0.34 6  244 336 
 CHI  HZ EP   1   1755 20.31                             117    0.27 6  247 195 
 CHI  HN ES   1   1755 49.32                             117    0.04 6  247 195 
 CHI  HZ I        1755 59.46         3.8 0.62            117            247 195 
                                                                                
