 2011  425 1001 55.4 L   6.788 -73.117143.5  RSN 12 0.4 2.2LRSN                1
 GAP=141        0.93       4.0     5.8  6.5 -0.8976E+01  0.8848E+01  0.1711E+01E
 Epicentro: LOS SANTOS - SANTANDER                                             3
 ACTION:UP  11-06-22 15:33 OP:REBC STATUS:               ID:20110425100155 L   I
 2011-04-25-1000-00M.COL___140                                                 6
 STAT SP IPHASW D HRMM SECON CODA AMPLIT PERI AZIMU VELO SNR AR TRES W  DIS CAZ7
 BTL  SZ EP       10 2 14.82                             171     0.110   22 311 
 BAR2 SZ EP       10 2 14.70                             170     0.010   23 198 
 BAR2 SZ ES   1   10 2 29.20                             170    -0.6 7   23 198 
 BAR2 SZ I        10 2 30.65        32.7 0.19                            23 198 
 BRR  HZ EP       10 2 16.60                             151     0.110   75 298 
 BRR  HE ES   1   10 2 33.33                             151     0.4 7   75 298 
 BRR  HZ I        10 2 37.05        23.5 0.14                            75 298 
 PAM  SZ EP       10 2 17.66                             151     0.410   76  37 
 PAM  SN ES   1   10 2 34.59                             151     0.2 7   76  37 
 PAM  SZ I        10 2 37.07        13.2 0.32                            76  37 
 RUS  HZ EP   1   10 2 18.66                             144    -0.1 7   99 178 
 RUS  HE ES   1   10 2 37.10                             144     0.0 7   99 178 
 RUS  HZ I        10 2 38.47         9.7 0.25                            99 178 
 BRI  SZ EP       10 2 19.40                             141     0.310  109  19 
 BRI  SZ I        10 2 43.32        30.5 0.48                           109  19 
 GRA  SZ EP   2   10 2 20.19                             136    -0.3 5  126  16 
 GRA  SZ I        10 2 41.33        34.4 0.38                           126  16 
 OCA  SZ EP   1   10 2 22.66                             129    -1.0 7  162 352 
 OCA  SZ ES   1   10 2 45.15                             129    -0.6 7  162 352 
 OCA  SZ I        10 2 48.54        23.2 0.37                           162 352 
 NOR  SZ EP       10 2 31.11                             118    -0.1 8  236 235 
 NOR  SN ES   1   10 2 59.27                             118     0.2 6  236 235 
 CHI  HZ EP   1   10 2 32.74                             117    -0.2 6  248 196 
 CHI  HZ I        10 3  8.11         9.1 0.31                           248 196 
 HEL  HZ EP   1   10 2 36.61                             114     0.8 6  275 256 
 HEL  HE ES   2   10 3  7.00                             114    -0.3 4  275 256 
 HEL  HZ I        10 3 13.12        16.3 0.40                           275 256 
 PRA  HZ EP   1   10 2 48.46                             106    -0.4 4  392 210 
 PRA  HN ES   1   10 3 30.25                             106    -0.3 4  392 210 
                                                                                
