 2012  325 1744 51.8 L   6.782 -73.159146.5  RSN  9 0.4 2.3LRSN                1
 GAP=136        0.85       4.5     4.6  6.3  0.1362E+01  0.4236E+01  0.1505E+01E
 ACTION:UP  12-03-31 23:22 OP:EP   STATUS:               ID:20120325174451 L   I
 2012-03-25-1740-00M.COL___196                                                 6
 STAT SP IPHASW D HRMM SECON CODA AMPLIT PERI AZIMU VELO SNR AR TRES W  DIS CAZ7
 BAR2 SZ IP       1745 11.40                             171     0.010   21 187 
 BAR2 SZ ES   1   1745 26.80                             171     0.0 7   21 187 
 BAR2 SZ I        1745 27.69        67.2 0.14                            21 187 
 BRR  HZ EP       1745 13.29                             153     0.310   71 301 
 BRR  HN ES   1   1745 30.13                             153     0.6 7   71 301 
 BRR  HZ I        1745 32.90        48.5 0.20                            71 301 
 PAM  SZ EP       1745 14.18                             150     0.010   80  39 
 PAM  SN ES   1   1745 31.18                             150    -0.5 7   80  39 
 RUS  HZ EP       1745 15.31                             144    -0.110   99 175 
 RUS  HN ES   1   1745 34.27                             144     0.3 7   99 175 
 RUS  HZ I        1745 35.07        21.8 0.20                            99 175 
 PTB  HZ EP   1   1745 18.09                             133    -0.5 7  146 260 
 PTB  HN ES   1   1745 38.89                             133    -0.7 7  146 260 
 PTB  HZ I        1745 45.00        19.8 0.28                           146 260 
 OCA  SZ EP   1   1745 20.61                             129     0.3 7  162 354 
 ZAR  HZ EP   1   1745 24.13                             123    -0.1 6  203 293 
 ZAR  HE ES   1   1745 49.64                             123     0.1 6  203 293 
 ZAR  HZ I        1745 56.01        25.1 0.39                           203 293 
 CHI  HZ EP   1   1745 29.59                             117     0.3 6  246 195 
 CHI  HZ I        1746  4.31        10.1 0.48                           246 195 
 PRA  HZ EP   1   1745 45.23                             107     0.2 4  390 210 
                                                                                
