 2014  125 1116 21.4 L   6.796 -73.179140.8  RSN 15 0.5 2.3LRSN 2.6WRSN        1
 SPEC AVERAGE  MO 13.0 ST166.2 OM  1.1 f0 16.2 R0.2800 AL 0.00 WI 20.0 MW  2.6 3
 SPEC SD       MO  0.3 ST311.2 OM  0.2 f0 13.9 R0.2428 AL      WI      MW  0.2 3
 GAP= 69        0.98       2.5     3.1  5.0 -0.1167E+01  0.4739E+01  0.1006E+01E
 Epicentro: LOS SANTOS - SANTANDER                                             3
 SPEC BAR2SH Z MO 13.1 ST 19.5 OM  1.3 f0 13.3 R0.1447 AL-0.00 WI 20.0 MW  2.7 3
 SPEC BAR2SH Z T111653 K 0.050 GD  142 VS 5.20 DE 3.20 Q0750.0 QA 1.50 VS 5.20 3
 SPEC RUS HH Z MO 12.5 ST  3.6 OM  0.6 f0 12.2 R0.1577 AL-0.00 WI 20.0 MW  2.3 3
 SPEC RUS HH Z T1117 1 K 0.050 GD  172 VS 5.20 DE 3.20 Q0750.0 QA 1.50 VS 5.20 3
 SPEC PTB HH Z MO 13.1 ST472.3 OM  1.1 f0 40.0 R0.0481 AL-0.00 WI 20.0 MW  2.7 3
 SPEC PTB HH Z T1117 6 K 0.050 GD  201 VS 5.20 DE 3.20 Q0750.0 QA 1.50 VS 5.20 3
 SPEC SPBCHH Z MO 13.1 ST145.9 OM  1.1 f0 26.5 R0.0726 AL-0.00 WI 20.0 MW  2.7 3
 SPEC SPBCHH Z T1117 9 K 0.050 GD  213 VS 5.20 DE 3.20 Q0750.0 QA 1.50 VS 5.20 3
 SPEC NOR HH Z MO 13.0 ST 19.5 OM  0.9 f0 14.6 R0.1318 AL-0.00 WI 20.0 MW  2.6 3
 SPEC NOR HH Z T111721 K 0.050 GD  270 VS 5.20 DE 3.20 Q0750.0 QA 1.50 VS 5.20 3
 SPEC SML HH Z MO 13.4 ST999.9 OM  1.3 f0 40.0 R0.0481 AL-0.00 WI 20.0 MW  2.9 3
 SPEC SML HH Z T111723 K 0.050 GD  280 VS 5.20 DE 3.20 Q0750.0 QA 1.50 VS 5.20 3
 SPEC CHI HH Z MO 12.9 ST0.144 OM  0.8 f0 3.02 R0.6371 AL-0.00 WI 20.0 MW  2.6 3
 SPEC CHI HH Z T111725 K 0.050 GD  284 VS 5.20 DE 3.20 Q0750.0 QA 1.50 VS 5.20 3
 SPEC HEL HH Z MO 13.2 ST0.305 OM  1.0 f0 3.26 R0.5902 AL-0.00 WI 20.0 MW  2.7 3
 SPEC HEL HH Z T111729 K 0.050 GD  302 VS 5.20 DE 3.20 Q0750.0 QA 1.50 VS 5.20 3
 SPECGUY2CHH Z MO 15.9 ST  0.0 OM  3.7 f00.091 R  21.2 AL-0.00 WI 20.0 MW  4.5 3
 SPECGUY2CHH Z T111736 K 0.050 GD329.6 VS 5.20 DE 3.20 Q0750.0 QA 1.50 VS 5.20 3
 SPEC PRA HH Z MO 13.2 ST0.256 OM  0.9 f0 2.99 R0.6435 AL-0.00 WI 20.0 MW  2.7 3
 SPEC PRA HH Z T111753 K 0.050 GD  414 VS 5.20 DE 3.20 Q0750.0 QA 1.50 VS 5.20 3
 SPEC ORTCHH Z MO 12.9 ST0.994 OM  0.6 f0 5.90 R0.3261 AL-0.00 WI 20.0 MW  2.5 3
 SPEC ORTCHH Z T111756 K 0.050 GD  417 VS 5.20 DE 3.20 Q0750.0 QA 1.50 VS 5.20 3
 2014-01-25-1108-18M.COL___231                                                 6
 OLDACT:REG 14-01-25 16:11 OP:stll STATUS:               ID:20140125110818     3
 ACTION:UPD 14-03-13 09:58 OP:ep   STATUS:               ID:20140125111621 L   I
 OLDACT:UP  14-01-25 18:35 OP:stll STATUS:               ID:20140125110818     3
 STAT SP IPHASW D HRMM SECON CODA AMPLIT PERI AZIMU VELO AIN AR TRES W  DIS CAZ7
 BAR2 SZ EP       1116 40.55                             170    0.1610 22.5 181 
 BAR2 SZ ES       1116 55.13                             170   -0.0910 22.5 181 
 BAR2 SZ I        1116 58.05        33.8 0.24            164           22.5 181 
 PAM  SZ EP       1116 43.36                             149    0.1310 80.1  41 
 PAM  SN ES       1117  0.35                             149    0.0710 80.1  41 
 PAM  SZ I        1117  1.79        11.0 0.40            138           80.1  41 
 RUS  HZ IP     C 1116 44.57                             143   -0.0610  100 174 
 RUS  HN ES       1117  2.82                             143    0.0510  100 174 
 RUS  SZ I        1117  4.57        10.0 0.28            130            100 174 
 PTB  HZ EP       1116 47.12                             132   -0.48 9  144 259 
 PTB  HN ES       1117  8.30                             132    0.24 9  144 259 
 PTB  SZ I        1117 15.47        17.9 0.34            121            144 259 
 TAM  HZ EP       1116 48.80                             129   -0.18 9  159 104 
 TAM  SZ I        1117 25.70        16.9 0.36            116            159 104 
 OCA  HN ES       1117 11.16                             128    0.06 9  160 354 
 SPBC HZ EP       1116 49.41                             128    0.17 9  161 218 
 SPBC HN ES       1117 11.19                             128    0.21 9  161 218 
 SPBC SZ I        1117 17.53        18.5 0.24            117            161 218 
 ZAR  HZ EP       1116 53.24                             122    0.08 9  201 293 
 ZAR  HN ES       1117 18.14                             122    0.18 9  201 293 
 ZAR  SZ I        1117 43.66     14627.9 0.70            112            201 293 
 NOR  HZ EP       1116 55.88                             118   -0.59 8  231 234 
 NOR  HN ES       1117 23.42                             118   -0.42 8  231 234 
 NOR  SZ I        1117 30.79         9.9 0.20            108            231 234 
 SML  HZ EP       1116 57.42                             116   -0.19 8  243 336 
 SML  HN ES       1117 25.37                             116   -0.50 8  243 336 
 SML  SZ I        1117 29.60        13.5 0.08            107            243 336 
 CHI  HZ EP       1116 58.82                             116    0.17 8  247 194 
 CHI  HN ES       1117 27.43                             116   -0.29 8  247 194 
 CHI  SZ I        1117 38.15         8.0 2.54            106            247 194 
 HEL  HZ EP       1117  1.51                             114    0.58 8  268 256 
 HEL  HN ES       1117 31.43                             114   -0.35 8  268 256 
 HEL  SZ I        1117 41.19         7.4 0.54            105            268 256 
 GUY2CHZ EP       1117  5.95                             112    1.56 7  298 234 
 GUY2CHN ES       1117 37.99                             112    0.05 7  298 234 
 GUY2CSZ I        1117 48.65         5.4 0.26                           298 234 
 PRA  HZ EP       1117 13.33                             106   -1.14 6  390 209 
 PRA  HN ES       1117 55.39                             106   -0.49 6  390 209 
 PRA  SZ I        1118 14.14         9.3 3.36             96            390 209 
 ORTC HZ EP       1117 15.75                             106    0.92 6  393 216 
 ORTC SZ I        1118  5.91         5.1 2.80             96            393 216 
                                                                                
