 2013  525 1727 22.6 L   7.367 -73.184131.9  RSN  5 0.2 1.5LRSN                1
 GAP=292        0.54       5.4     4.9  5.2  0.9221E+01  0.8340E+01  0.4095E+00E
 Epicentro: RIONEGRO - SANTANDER                                               3
 ACTION:UPD 13-06-20 09:53 OP:ep   STATUS:               ID:20130525172722 L   I
 2013-05-25-1720-00M.COL___261                                                 6
 STAT SP IPHASW D HRMM SECON CODA AMPLIT PERI AZIMU VELO AIN AR TRES W  DIS CAZ7
 GIR2 SZ ES   1   1727 54.61                             165   -0.08 7 31.9 182 
 GIR2 SZ I        1727 56.15         8.3 0.62            154           31.9 182 
 BRR  HZ EP       1727 41.91                             152    0.0410 65.0 244 
 BRR  HN ES       1727 56.71                             152   -0.2210 65.0 244 
 BRR  HZ I        1727 58.23        11.3 0.12            145           65.0 244 
 BAR2 SZ ES       1728  0.20                             145    0.3210 85.7 180 
 RUS  HN ES   1   1728 12.06                             126   -0.41 7  163 176 
 RUS  HZ I        1728 19.87         1.5 0.56            121            163 176 
 PTB  HZ EP       1727 50.45                             125    0.05 9  168 237 
 PTB  HE ES       1728 12.19                             125    0.08 9  168 237 
 PTB  HZ I        1728 16.16         5.5 0.18            121            168 237 
                                                                                
