 2012  625 1021 23.4 L   6.818 -73.205150.0  RSN  4 0.2 1.2LRSN                1
 GAP=233        0.33       4.1     5.1  5.4  0.9566E+01  0.5249E+01 -0.5665E+01E
 Epicentro: ZAPATOCA - SANTANDER                                               3
 ACTION:UPD 12-08-06 17:52 OP:ep   STATUS:               ID:20120625102123 L   I
 2012-06-25-1020-00M.COL___199                                                 6
 STAT SP IPHASW D HRMM SECON CODA AMPLIT PERI AZIMU VELO AIN AR TRES W  DIS CAZ7
 BRR  HZ EP       1021 44.52                             155   -0.0910 64.5 300 
 BRR  HZ I        1021 45.65         5.4 0.32                          64.5 300 
 BRR  HN ES   2   1022  1.36                             155    0.17 5 64.5 300 
 RUS  HZ EP   3   1021 47.71                             144    0.00 2  103 173 
 RUS  HZ I        1021 49.12         1.3 0.46                           103 173 
 RUS  HN ES   1   1022  6.72                             144    0.01 7  103 173 
 PTB  HZ EP       1021 50.22                             134    0.08 9  142 258 
 PTB  HN ES   2   1022 10.83                             134   -0.21 5  142 258 
 PTB  HZ I        1022 14.21         1.7 0.26                           142 258 
 ZAR  HZ EP   3   1021 55.88                             124    0.49 2  197 292 
                                                                                
