 2017  625 1042 33.3 L   6.827 -73.160146.3  RSN 24 0.6 2.6LRSN                1
 GAP=108        1.20       2.9     3.0  5.5  0.7168E+00  0.2348E+01  0.2610E+00E
 Epicentro: LOS SANTOS - SANTANDER                                             3
 ACTION:UPD 17-09-14 16:55 OP:jn   STATUS:               ID:20170625104233 L   I
 OLDACT:UP  17-06-25 23:39 OP:lv   STATUS:               ID:20170625103740     3
 OLDACT:REG 17-06-25 22:53 OP:lv   STATUS:               ID:20170625103740     3
 2017-06-25-1038-00M.COL___346                                                 6
 STAT SP IPHASW D HRMM SECON CODA AMPLIT PERI AZIMU VELO AIN AR TRES W  DIS CAZ7
 BAR2 HZ IP     D 1042 53.01                             170    0.0010 26.1 186 
 BAR2 HZ ES       1043  8.11                             170   -0.3110 26.1 186 
 BAR2 HZ I        1043  9.08       201.6 0.29            169           26.1 186 
 BRR  HZ IP     C 1042 54.77                             154    0.4610 68.4 297 
 BRR  HN ES       1043 11.88                             154    1.1510 68.4 297 
 BRR  HZ I        1043 15.24        95.0 0.30            152           68.4 297 
 PTB  HZ EP       1042 59.67                             132   -0.52 9  147 258 
 PTB  HN ES       1043 20.80                             132   -0.39 9  147 258 
 PTB  HZ I        1043 25.55        25.9 0.17            131            147 258 
 TAM  HZ IP     D 1043  1.38                             130    0.19 9  157 106 
 TAM  HN ES       1043 23.06                             130    0.09 9  157 106 
 TAM  HZ I        1043 24.39        14.7 0.29            132            157 106 
 SPBC HZ EP       1043  1.98                             129    0.05 9  165 218 
 SPBC HN ES       1043 23.49                             129   -0.81 9  165 218 
 SPBC HZ I        1043 28.89       132.9 0.06            128            165 218 
 YPLC HZ IP     D 1043  3.39                             126   -0.03 9  180 151 
 YPLC HN ES       1043 26.58                             126   -0.37 9  180 151 
 YPLC HZ I        1043 30.26        47.9 0.16            127            180 151 
 ZAR  HZ EP       1043  5.59                             123    0.12 9  202 292 
 ZAR  HN ES       1043 30.52                             123   -0.08 9  202 292 
 ZAR  HZ I        1043 37.92        53.6 0.44            122            202 292 
 TABC EZ EP       1043 11.12                             119    1.89 8  232 210 
 TABC EZ ES       1043 37.83                             119    0.54 8  232 210 
 TABC EZ I        1043 42.62        44.3 0.27            119            232 210 
 NOR  HZ EP       1043  9.09                             119    0.02 8  235 234 
 NOR  HN ES       1043 36.64                             119   -0.37 8  235 234 
 NOR  HZ I        1043 43.08        24.6 0.10            118            235 234 
 CHI  HZ EP       1043 11.20                             117   -0.06 8  251 195 
 CHI  HN ES       1043 40.47                             117   -0.43 8  251 195 
 CHI  HZ I        1043 44.23        43.4 0.47            117            251 195 
 ROSC BZ EP       1043 11.88                             117    0.28 8  255 210 
 ROSC BN ES       1043 40.78                             117   -0.73 8  255 210 
 ROSC BZ I        1043 47.29        77.2 0.67            116            255 210 
 HEL  HZ EP   3   1043 14.92                             115    1.51 2  271 255 
 HEL  HN ES       1043 45.54                             115    0.80 8  271 255 
 HEL  HZ I        1043 52.19        16.4 0.37            114            271 255 
 URE  HZ EP       1043 13.67                             114   -0.39 7  281 291 
 URE  HN ES   4   1043 44.59                             114   -1.31 0  281 291 
 URE  HZ I        1043 55.86        75.9 0.05            113            281 291 
 GUY2CHZ EP       1043 17.30                             112    0.36 7  302 234 
 GUY2CHN ES       1043 51.43                             112    0.41 7  302 234 
 GUY2CHZ I        1043 59.44        15.9 0.21                           302 234 
 VIL  HZ EP       1043 16.85                             112   -0.15 7  306 191 
 VIL  HN ES       1043 50.73                             112   -0.39 7  306 191 
 PTGC HZ IP   4 D 1043 16.09                             111   -1.43 0  312 159 
 PTGC HN ES   4   1043 49.44                             111   -2.60 0  312 159 
 PTGC HZ I        1043 52.18        24.9 0.22            112            312 159 
 LL6C HZ EP       1043 18.21                             111   -0.41 7  322 358 
 LL6C HN ES       1043 53.28                             111   -0.73 7  322 358 
 LL6C HZ I        1044  0.05         7.1 0.24            111            322 358 
 DBB  EZ EP       1043 20.89                             110    0.34 7  338 274 
 DBB  HN ES       1043 56.70                             110   -0.74 7  338 274 
 DBB  EZ I        1043 57.90        15.3 0.39            109            338 274 
 ARGC HZ EP   4   1043 23.76                             109    1.22 0  356 340 
 ARGC HN ES   4   1043 56.27                             109   -4.71 0  356 340 
 APAC HZ EP       1043 26.71                             106   -0.47 6  396 288 
 APAC HE ES       1044  8.95                             106   -0.29 6  396 288 
 APAC HZ I        1044 14.07         8.3 0.44            106            396 288 
 ORTC HZ EP       1043 27.29                             106   -0.08 6  397 216 
 ORTC HN ES       1044  9.44                             106   -0.15 6  397 216 
 ORTC HZ I        1044 14.39        17.4 0.19            106            397 216 
 PAL  HZ I        1044 14.64         8.7 0.12            106            406 239 
 SJC  HZ EP   4   1043 27.19                             106   -1.25 0  406 327 
 SJC  HN ES   4   1044  8.00                             106   -3.48 0  406 327 
 SJC  HZ I        1044 15.25        10.1 0.37            106            406 327 
 PAL  HZ EP       1043 28.58                             106    0.12 6  406 239 
 PAL  HN ES   4   1044  8.71                             106   -2.81 0  406 239 
 VALLCHZ EP   4   1043 27.11                             106   -1.44 0  407 358 
 VALLCHN ES   4   1044  9.26                             106   -2.43 0  407 358 
 YOT  HZ EP   4   1043 38.34                             103    1.93 0  473 228 
 YOT  HN ES   4   1044 21.20                             103   -4.48 0  473 228 
 SMAR HZ EP       1043 38.53                             103   -0.21 4  494 346 
 SMAR HN ES   4   1044 25.76                             103   -4.07 0  494 346 
 SMAR HZ I        1044 28.92         5.6 0.16            102            494 346 
 MACC HZ EP   4   1043 39.27                             102   -3.04 0  523 188 
 MACC HZ I        1044 35.89         1.8 0.17            102            523 188 
                                                                                
