 2016  925 1631 51.0 L   6.802 -73.151147.6  RSN 17 0.4 2.5LRSN                1
 GAP= 71        0.86       2.4     2.5  4.2 -0.5699E+00  0.2006E+01  0.1040E+01E
 Epicentro: LOS SANTOS - SANTANDER                                             3
 ACTION:UPD 17-08-17 21:16 OP:lp   STATUS:               ID:20160925163151 L   I
 OLDACT:UP  16-09-26 00:47 OP:and  STATUS:               ID:20160925162746     3
 OLDACT:UP  16-09-26 00:46 OP:and  STATUS:               ID:20160925162746     3
 OLDACT:UP  16-09-26 00:43 OP:and  STATUS:               ID:20160925162746     3
 OLDACT:UP  16-09-26 00:39 OP:and  STATUS:               ID:20160925162746     3
 OLDACT:UP  16-09-26 00:37 OP:and  STATUS:               ID:20160925162746     3
 OLDACT:REG 16-09-25 20:52 OP:y    STATUS:               ID:20160925162746     3
 2016-09-25-1628-00M.COL___330                                                 6
 STAT SP IPHASW D HRMM SECON CODA AMPLIT PERI AZIMU VELO AIN AR TRES W  DIS CAZ7
 BAR2 EZ IP     D 1632 10.69                             171   -0.1710 23.5 189 
 BAR2 EZ ES       1632 26.04                             171   -0.3110 23.5 189 
 BAR2 EZ I        1632 28.70        92.8 0.30            168           23.5 189 
 BRR  HZ IP     C 1632 12.55                             153    0.2310 70.6 299 
 BRR  HN ES       1632 29.54                             153    0.5910 70.6 299 
 BRR  HZ I        1632 33.55        57.5 0.26            153           70.6 299 
 PAM  EZ IP     D 1632 13.69                             151    0.2610 77.5  40 
 PAM  EN ES       1632 30.83                             151   -0.0910 77.5  40 
 PAM  EZ I        1632 34.21        37.5 0.55            150           77.5  40 
 RUS  HZ EP     D 1632 14.52                             144   -0.4410  101 176 
 RUS  HN ES       1632 33.45                             144   -0.1910  101 176 
 RUS  HZ I        1632 34.92        25.0 0.36            141            101 176 
 PTB  HZ EP       1632 17.48                             132   -0.60 9  147 259 
 PTB  HN ES       1632 38.44                             132   -0.76 9  147 259 
 PTB  HZ I        1632 41.07        33.9 0.16            130            147 259 
 TAM  HZ IP     C 1632 19.14                             131    0.26 9  156 105 
 TAM  HZ I        1632 40.02        20.4 0.38            128            156 105 
 TAM  HN ES       1632 40.93                             131    0.30 9  156 105 
 OCA  HZ EP       1632 18.98                             130   -0.45 9  160 353 
 OCA  HN ES       1632 41.63                             130    0.03 9  160 353 
 OCA  HZ I        1632 44.40        62.3 0.16            129            160 353 
 SPBC HZ EP       1632 19.93                             129    0.30 9  163 219 
 SPBC HN ES       1632 42.06                             129    0.10 9  163 219 
 SPBC HZ I        1632 46.65        60.1 0.14            127            163 219 
 ZAR  HZ EP       1632 23.36                             123   -0.15 9  203 292 
 ZAR  HN ES       1632 49.18                             123    0.32 9  203 292 
 ZAR  HZ I        1632 53.89        35.7 0.32            121            203 292 
 NOR  HZ EP       1632 26.82                             119    0.01 8  234 234 
 NOR  HN ES       1632 55.27                             119    0.53 8  234 234 
 NOR  HZ I        1633  0.25        26.0 0.22            117            234 234 
 CHI  HZ EP       1632 29.02                             117    0.20 8  249 195 
 CHI  HN ES       1632 58.24                             117   -0.07 8  249 195 
 CHI  HZ I        1633  3.37        15.3 0.30            115            249 195 
 ROSC BZ EP   4   1632 30.96                             117    1.74 0  253 211 
 ROSC BE ES   4   1633  1.02                             117    2.00 0  253 211 
 ROSC BZ I        1633  5.37        51.6 0.45            115            253 211 
 HEL  HZ EP       1632 31.75                             115    0.49 8  272 256 
 HEL  HE ES   2   1633  3.23                             115    0.57 4  272 256 
 HEL  HZ I        1633 11.02        16.2 0.34            113            272 256 
 URE  HZ EP   2   1632 31.37                             114   -0.73 4  283 292 
 URE  HE ES   4   1633  2.15                             114   -2.00 0  283 292 
 GUY2CHZ EP       1632 34.67                             113    0.01 7  301 235 
 GUY2CHE ES   4   1633 12.81                             113    4.09 0  301 235 
 GUY2CHZ I        1633 16.94        22.6 0.34                           301 235 
 PTGC HZ EP   4   1632 33.84                             112   -1.15 0  309 159 
 PTGC HN ES   4   1633  7.16                             112   -2.14 0  309 159 
 ELA  HZ EP   9   1632 40.12                             111    2.22 0  329 229 
 ELA  HN ES       1633 16.63                                   -0.07 7  329 229 
 ELA  HZ I        1633 29.97        15.3 0.44            109            329 229 
 SJC  HZ EP   4   1632 45.51                             106   -1.06 0  409 327 
 SJC  HN ES   4   1633 25.98                             106   -3.93 0  409 327 
 SJC  HZ I        1633 30.23         4.2 0.36            105            409 327 
                                                                                
