 2014  825 1359 49.9 L   6.759 -73.177142.0  RSN  6 0.4 1.6LRSN                1
 GAP=134        0.91       4.9     4.9  6.5  0.1899E+01  0.7440E+01  0.9919E+01E
 Epicentro: LOS SANTOS - SANTANDER                                             3
 ACTION:UPD 14-09-15 21:53 OP:nd   STATUS:               ID:20140825135949 L   I
 OLDACT:REG 14-08-25 21:10 OP:stll STATUS:               ID:20140825135820     3
 2014-08-25-1358-20M.COL___230                                                 6
 STAT SP IPHASW D HRMM SECON CODA AMPLIT PERI AZIMU VELO AIN AR TRES W  DIS CAZ7
 BAR2 SZ EP       14 0  8.79                             172   -0.2110 18.5 182 
 BAR2 SZ ES       14 0 23.86                             172   -0.0310 18.5 182 
 BAR2 SZ I        14 0 24.96        16.1 0.28            172           18.5 182 
 BRR  HZ EP       14 0 10.72                             152    0.1010 70.5 303 
 BRR  HN ES       14 0 27.45                             152    0.6810 70.5 303 
 PAM  SN ES       14 0 29.17                             148   -0.2110 83.1  39 
 PAM  SZ I        14 0 31.18        13.3 0.74            152           83.1  39 
 RUS  HZ EP       14 0 12.83                             144   -0.1710 96.4 174 
 RUS  HN ES       14 0 31.10                             144    0.1010 96.4 174 
 RUS  HZ I        14 0 32.62         3.2 0.28            146           96.4 174 
 PTB  HZ EP       14 0 15.95                             132   -0.24 9  143 260 
 PTB  HN ES       14 0 36.18                             132   -0.50 9  143 260 
 PTB  HZ I        14 0 42.14         2.6 0.36            132            143 260 
 CHI  HZ EP       14 0 27.45                             117    0.62 8  243 195 
                                                                                
