 2010  925 1016  0.1 L   6.776 -73.078142.9  RSN 10 0.4 1.9LRSN                1
 GAP=167        1.03       4.3     8.7  6.9 -0.1283E+02 -0.2800E+01  0.1470E+01E
 Epicentro: LOS SANTOS - SANTANDER                                             3
 ACTION:UP  11-02-18 11:05 OP:tino STATUS:               ID:20100925101600 L   I
 2010-09-25-1014-26S.COL___120                                                 6
 STAT SP IPHASW D HRMM SECON CODA AMPLIT PERI AZIMU VELO SNR AR TRES W  DIS CAZ7
 BAR2 SZ IP       1016 19.50                             170     0.110   23 210 
 BAR2 SZ ES   1   1016 34.34                             170    -0.1 7   23 210 
 BAR2 SZ I        1016 36.24        37.6 0.25                            23 210 
 GIR2 SZ EP       1016 19.56                             165     0.010   36 339 
 GIR2 SZ ES   1   1016 34.44                             165    -0.3 7   36 339 
 BRR  HZ IP     C 1016 21.35                             149    -0.110   79 298 
 BRR  HZ I        1016 21.69        37.4 0.15                            79 298 
 BRR  HN ES   1   1016 38.61                             149     0.6 7   79 298 
 RUS  HZ EP       1016 23.33                             144     0.010   98 180 
 RUS  HN ES   1   1016 41.44                             144    -0.1 7   98 180 
 RUS  HZ I        1016 43.35        11.3 0.41                            98 180 
 GUE  SZ EP       1016 25.51                             138     0.910  118   8 
 GRA  SZ IP       1016 25.30                             136     0.210  126  14 
 GRA  SZ I        1016 26.44         9.2 0.24                           126  14 
 GRA  SZ ES   1   1016 44.27                             136    -0.4 7  126  14 
 OCA  SZ EP       1016 27.67                             128    -0.9 9  164 351 
 OCA  SZ I        1016 56.28         7.0 0.29                           164 351 
 NOR  SZ EP   2   1016 35.87                             117    -0.3 4  239 236 
 NOR  SE ES   2   1017  3.63                             117    -0.7 4  239 236 
 CHI  HZ EP       1016 37.49                             117    -0.1 8  248 197 
 CHI  HZ I        1016 40.14         3.2 0.36                           248 197 
 CHI  HN ES   2   1017  6.94                             117     0.1 4  248 197 
 RREF HZ EP   3   1016 47.16                             110     0.6 2  326 231 
 RREF HE ES   2   1017 23.47                             110     0.6 3  326 231 
 RREF HZ I        1017 27.80         3.8 0.40                           326 231 
                                                                                
