 2013 1225 1537  9.2 L   6.559 -73.837 83.3  RSN  4 0.1 1.1LRSN                1
 GAP=137        0.39       2.1     1.5  4.1  0.6716E+00 -0.1277E+00  0.3207E+01E
 Epicentro: PUERTO PARRA - SANTANDER                                           3
 ACTION:UPD 14-01-13 10:20 OP:ep   STATUS:               ID:20131225153709 L   I
 OLDACT:REG 13-12-25 14:34 OP:jn   STATUS:               ID:20131225153000     3
 2013-12-25-1530-00M.COL___285                                                 6
 STAT SP IPHASW D HRMM SECON CODA AMPLIT PERI AZIMU VELO AIN AR TRES W  DIS CAZ7
 BRR  HZ EP       1537 23.31                             140   -0.0210 62.2  13 
 BRR  HN ES       1537 34.37                             140    0.0110 62.2  13 
 BRR  HZ I        1537 37.30         5.9 0.28            146           62.2  13 
 PTB  HZ EP       1537 23.85                             137   -0.0210 68.5 268 
 PTB  HN ES       1537 35.34                             137    0.0210 68.5 268 
 PTB  HZ I        1537 36.90         3.6 0.12            144           68.5 268 
 BAR2 SZ EP       1537 24.35                             136   -0.1710 72.5  87 
 BAR2 SZ ES       1537 36.57                             136    0.1010 72.5  87 
 BAR2 SZ I        1537 38.56        10.5 0.40            140           72.5  87 
 RUS  HZ EP       1537 28.81                             123    0.2210  111 131 
 RUS  HN ES       1537 43.59                             123   -0.1310  111 131 
 RUS  HZ I        1537 47.02         1.4 0.34            128            111 131 
                                                                                
