 2013  325 1108 47.0 L   6.804 -73.147146.0  RSN 11 0.5 2.9LRSN                1
 GAP= 71        1.16       4.1     3.7  5.7  0.2009E+01  0.3341E+01  0.2493E+01E
 Epicentro: LOS SANTOS - SANTANDER                                             3
 ACTION:UPD 13-04-09 14:04 OP:ep   STATUS:               ID:20130325110847 L   I
 2013-03-25-1100-00M.COL___244                                                 6
 STAT SP IPHASW D HRMM SECON CODA AMPLIT PERI AZIMU VELO AIN AR TRES W  DIS CAZ7
 BAR2 SZ IP       11 9  6.63                             170   -0.0610 23.8 189 
 BAR2 SZ ES       11 9 21.63                             170   -0.4010 23.8 189 
 BAR2 SZ I        11 9 24.79       142.3 0.66            171           23.8 189 
 GIR2 SZ IP     C 11 9  6.72                             168    0.0110 30.8 350 
 GIR2 SZ ES       11 9 22.38                             168    0.3210 30.8 350 
 GIR2 SZ I        11 9 25.80        48.7 0.54            167           30.8 350 
 BRR  HZ IP     C 11 9  8.52                             153    0.3410 70.8 298 
 BRR  HN ES       11 9 25.62                             153    0.9410 70.8 298 
 BRR  HN I        11 9 26.02       227.2 0.20            152           70.8 298 
 PAM  SZ IP     C 11 9  9.43                             151    0.1810 77.1  40 
 PAM  SN ES       11 9 26.55                             151   -0.0310 77.1  40 
 PAM  SN I        11 9 27.86        79.2 0.18            153           77.1  40 
 RUS  HZ EP       11 9 10.48                             144   -0.3510  101 176 
 RUS  HN ES       11 9 29.18                             144   -0.2210  101 176 
 RUS  HN I        11 9 30.76       119.7 0.30            147            101 176 
 PTB  HZ EP       11 9 13.32                             132   -0.69 9  148 259 
 PTB  HN ES       11 9 34.53                             132   -0.52 9  148 259 
 PTB  HN I        11 9 39.57       109.2 0.44            133            148 259 
 TAM  HZ IP     C 11 9 14.89                             131    0.15 9  155 105 
 TAM  HE ES       11 9 36.73                             131    0.37 9  155 105 
 TAM  HE I        11 9 37.13        81.9 0.66            134            155 105 
 OCA  HZ EP       11 9 14.92                             130   -0.38 9  160 353 
 OCA  HN ES       11 9 36.51                             130   -0.85 9  160 353 
 OCA  HN I        11 9 41.85       136.4 0.20            131            160 353 
 ZAR  HZ EP       11 9 19.54                             122    0.09 9  204 292 
 ZAR  HN ES       11 9 45.06                             122    0.32 9  204 292 
 ZAR  HN I        11 9 49.70       107.8 0.20            124            204 292 
 CHI  HZ EP       11 9 24.91                             117    0.13 8  249 195 
 HEL  HZ EP       11 9 28.19                             115    0.94 8  272 256 
                                                                                
