 2015  525 1009 46.9 L   6.801 -73.093148.4  RSN 12 0.5 2.3LRSN                1
 GAP=169        1.12       3.1     5.3  6.0  0.6684E-01  0.4470E+01 -0.1268E+01E
 Epicentro: LOS SANTOS - SANTANDER                                             3
 ACTION:UPD 15-09-10 22:06 OP:cam  STATUS:               ID:20150525100946 L   I
 OLDACT:REG 15-05-25 20:13 OP:ar   STATUS:               ID:20150525100748     3
 2015-05-25-1007-48M.COL___288                                                 6
 STAT SP IPHASW D HRMM SECON CODA AMPLIT PERI AZIMU VELO AIN AR TRES W  DIS CAZ7
 BAR2 EZ EP       1010  7.13                             170    0.2510 25.1 203 
 BAR2 EZ ES       1010 21.90                             170   -0.5610 25.1 203 
 BAR2 EZ I        1010 23.24        80.5 0.22            169           25.1 203 
 BRR  HZ EP     C 1010  8.91                             151    0.2910 76.3 296 
 BRR  HN ES       1010 26.15                             151    0.5910 76.3 296 
 BRR  HZ I        1010 29.73        28.9 0.42            149           76.3 296 
 RUS  HZ EP       1010 10.99                             144    0.0910  100 179 
 RUS  HN ES       1010 29.98                             144    0.3610  100 179 
 RUS  HZ I        1010 30.77        14.0 0.20            148            100 179 
 OCA  HZ EP       1010 15.02                             130   -0.45 9  161 351 
 OCA  HN ES       1010 38.10                             130    0.34 9  161 351 
 OCA  HZ I        1010 46.73        28.7 0.40            131            161 351 
 SPBC HZ EP       1010 16.10                             129    0.14 9  167 221 
 SPBC HN ES       1010 38.12                             129   -0.50 9  167 221 
 SPBC HZ I        1010 45.91        20.3 0.32            130            167 221 
 ZAR  HZ EP       1010 20.22                             122    0.16 8  209 292 
 ZAR  HE ES       1010 45.27                             122   -0.66 8  209 292 
 ZAR  HZ I        1010 51.28        14.0 0.26            123            209 292 
 NOR  HZ EP       1010 23.47                             119    0.18 8  240 235 
 NOR  HE ES       1010 50.92                             119   -0.77 8  240 235 
 NOR  HZ I        1010 57.19        12.9 0.16            120            240 235 
 SML  HZ EP       1010 23.15                             118   -0.78 8  246 334 
 SML  HN ES       1010 52.75                             118   -0.06 8  246 334 
 SML  HZ I        1010 57.52        23.4 0.24            119            246 334 
 GUY2CHZ EP       1010 31.69                             112    0.52 7  306 235 
 GUY2CHE ES       1011  6.56                             112    0.85 7  306 235 
 GUY2CHZ I        1011 13.10         5.9 0.56                           306 235 
 PTGC HZ EP       1010 30.11                             112   -0.54 7  307 160 
 SJC  HZ EP       1010 43.60                             106    0.69 6  412 326 
 SJC  HN ES   4   1011 24.80                             106   -1.80 0  412 326 
 SJC  HZ I        1011 29.10         3.8 0.64            107            412 326 
 CRJC HZ EP   4   1010 47.49                             104   -1.93 0  467   3 
 CRJC HE ES   4   1011 35.94                             104   -2.24 0  467   3 
 CRJC HZ I        1011 36.84         8.0 0.48            105            467   3 
                                                                                
