 2013  425 1232 18.2 L   6.782 -73.173140.9  RSN  4 0.3 1.3LRSN                1
 GAP=233        0.70       6.7     6.8  6.8  0.2349E+02 -0.2578E+01 -0.1754E+01E
 Epicentro: LOS SANTOS - SANTANDER                                             3
 ACTION:UPD 13-05-22 14:40 OP:EP   STATUS:               ID:20130425123218 L   I
 2013-04-25-1230-00M.COL___250                                                 6
 STAT SP IPHASW D HRMM SECON CODA AMPLIT PERI AZIMU VELO AIN AR TRES W  DIS CAZ7
 BAR2 SZ EP       1232 37.13                             171   -0.0610 21.0 183 
 BAR2 SZ ES       1232 51.61                             171   -0.3910 21.0 183 
 BAR2 SZ I        1232 53.00         9.6 0.16            163           21.0 183 
 BRR  HZ EP     C 1232 38.74                             152    0.0210 69.5 301 
 BRR  HN ES   1   1232 55.23                             152    0.50 7 69.5 301 
 RUS  HZ EP       1232 41.38                             143    0.0410 98.9 174 
 RUS  HN ES   1   1232 59.84                             143    0.45 7 98.9 174 
 RUS  HZ I        1233  0.50         1.6 0.30            140           98.9 174 
 PTB  HZ EP   4   1232 40.60                             131   -3.86 0  144 259 
 PTB  HN ES   1   1233  4.66                             131   -0.28 7  144 259 
 PTB  HZ I        1233 10.68         3.3 0.36            127            144 259 
                                                                                
