 2010  225 1307 43.4 L   6.826 -73.050152.0  RSN 11 0.4 2.4LRSN                1
 GAP=193        0.68       3.3     5.9  5.6 -0.1225E+01  0.5079E+01  0.6933E+01E
 Epicentro: LOS SANTOS - SANTANDER                                             3
 ACTION:UP  10-08-24 09:50 OP:vdl  STATUS:               ID:20100225130743 L   I
 2010-02-25-1306-41S.COL___094                                                 6
 STAT SP IPHASW D HRMM SECON CODA AMPLIT PERI AZIMU VELO SNR AR TRES W  DIS CAZ7
 BAR2 SZ IP       13 8  4.07                             168     0.110   30 210 
 BAR2 SZ ES   2   13 8 19.81                             168    -0.1 5   30 210 
 GIR2 SZ EP   1   13 8  4.18                             168     0.3 7   32 330 
 GIR2 SZ ES   2   13 8 19.54                             168    -0.2 5   32 330 
 BRR  HZ IP       13 8  5.95                             151     0.210   80 293 
 BRR  HZ I        13 8  6.25        99.0 0.15                            80 293 
 BRR  HN ES   1   13 8 23.63                             151     0.5 7   80 293 
 RUS  BZ IP       13 8  7.92                             144     0.010  103 182 
 RUS  BE ES   2   13 8 26.65                             144    -0.5 5  103 182 
 RUS  BZ I        13 8 27.91        13.1 0.23                           103 182 
 OCA  SZ EP   1   13 8 11.60                             132    -0.5 7  159 349 
 OCA  SZ ES   1   13 8 34.06                             132    -0.4 7  159 349 
 OCA  SZ I        13 8 40.31        60.6 0.25                           159 349 
 CHI  HZ IP       13 8 22.14                             118     0.1 8  254 197 
 CHI  HE ES   2   13 8 52.17                             118    -0.1 4  254 197 
 HEL  HZ EP   3   13 8 24.96                             115    -0.2 2  283 256 
 HEL  HE ES   2   13 8 57.01                             115    -0.7 4  283 256 
 HEL  HZ I        13 9  2.74        13.6 0.33                           283 256 
 RREF BZ EP   2   13 8 31.45                             111     0.5 3  332 230 
 RREF BN ES   2   13 9  7.71                             111    -0.3 3  332 230 
 RREF BZ I        13 9 16.21        10.6 0.19                           332 230 
 DBB  SZ EP   1   13 8 31.94                             110    -0.4 5  350 274 
 TOL  SZ EP   1   13 8 33.74                             110     0.7 5  353 226 
 TOL  SZ ES   2   13 9 11.21                             110    -0.5 3  353 226 
 PRA  HZ EP       13 8 37.48                             107    -0.6 6  400 211 
 PRA  HE ES   1   13 9 20.68                             107     0.0 4  400 211 
 PRA  HZ I        13 9 23.99         6.8 0.33                           400 211 
                                                                                
