 2014  525 1538 18.6 L   6.782 -73.086126.2  RSN  8 0.4 1.6LRSN                1
 GAP=242        0.74       3.8     4.6  5.9  0.8299E+01  0.2750E+01  0.1074E+01E
 Epicentro: LOS SANTOS - SANTANDER                                             3
 ACTION:UPD 15-03-16 17:00 OP:nd   STATUS:               ID:20140525153818 L   I
 OLDACT:REG 14-05-25 20:40 OP:spq  STATUS:               ID:20140525152807     3
 2014-05-25-1528-07M.COL___230                                                 6
 STAT SP IPHASW D HRMM SECON CODA AMPLIT PERI AZIMU VELO AIN AR TRES W  DIS CAZ7
 BRR  HE ES   1   1538 53.57                             146    0.28 7 78.0 298 
 BRR  HZ I        1538 59.73         6.4 0.28            147           78.0 298 
 RUS  HZ EP   1   1538 39.84                             140   -0.42 7 98.3 180 
 RUS  HN ES       1538 57.04                             140   -0.1510 98.3 180 
 RUS  HZ I        1539  1.65         5.2 0.26            143           98.3 180 
 PTB  HZ EP       1538 44.38                             126   -0.23 9  154 260 
 PTB  HN ES       1539  5.06                             126    0.14 9  154 260 
 PTB  HZ I        1539 10.75         4.9 0.24            129            154 260 
 SPBC HZ EP   1   1538 45.33                             124   -0.58 7  166 221 
 SPBC HN ES       1539  7.46                             124    0.22 9  166 221 
 SPBC HZ I        1539 11.22         7.3 0.30            127            166 221 
 ZAR  HZ EP   1   1538 51.17                             117    0.61 6  211 292 
 ZAR  HN ES       1539 15.18                             117   -0.33 8  211 292 
 ZAR  HZ I        1539 22.71         4.1 0.14            121            211 292 
 NOR  HZ EP       1538 53.81                             113    0.10 8  239 236 
 NOR  HE ES       1539 21.19                             113    0.07 8  239 236 
 NOR  HZ I        1539 28.60         3.9 0.18            117            239 236 
 CHI  HZ EP       1538 55.92                             113    0.68 8  249 197 
 CHI  HE ES   1   1539 23.87                             113    0.03 6  249 197 
 CHI  HZ I        1539 33.20         2.1 0.40            117            249 197 
 GUY2CHZ EP   1   1539  1.89                             108    0.06 5  305 236 
 GUY2CHE ES   1   1539 34.93                             108   -0.66 5  305 236 
 GUY2CHZ I        1539 42.60         2.1 0.26                           305 236 
                                                                                
