 2017  825 1012 37.3 L   7.235 -73.276176.4  RSN  4 0.2 1.5LRSN                1
 GAP=252        0.47       7.7     9.2  5.9  0.5916E+02 -0.2291E+02 -0.2037E+02E
 Epicentro: RIONEGRO - SANTANDER                                               3
 ACTION:UPD 17-09-04 20:24 OP:rebc STATUS:               ID:20170825101237 L   I
 OLDACT:REG 17-08-25 19:47 OP:edw  STATUS:               ID:20170825100739     3
 2017-08-25-1008-00M.COL___402                                                 6
 STAT SP IPHASW D HRMM SECON CODA AMPLIT PERI AZIMU VELO AIN AR TRES W  DIS CAZ7
 BRR  HZ EP       1013  0.88                             164   -0.0610 50.1 254 
 BRR  HN ES       1013 19.24                             164   -0.1610 50.1 254 
 BRR  HZ I        1013 23.46         5.9 0.24            161           50.1 254 
 BAR2 EZ EP       1013  2.27                             157    0.0810 71.8 172 
 BAR2 EZ ES       1013 21.86                             157    0.2410 71.8 172 
 BAR2 EZ I        1013 23.30         6.3 0.24            156           71.8 172 
 RUS  HN ES       1013 31.32                             138   -0.18 9  150 172 
 RUS  HZ I        1013 35.16         1.9 0.30            139            150 172 
 ZAR  HN ES   2   1013 34.74                             133    0.31 4  177 279 
                                                                                
