 2012 1025 1244 35.8 L   6.744 -73.106146.0  RSN  6 0.3 1.8LRSN                1
 GAP=144        0.79       5.0     5.4  7.1  0.6154E+01 -0.1998E+01  0.3742E+00E
 Epicentro: JORDAN - SANTANDER                                                 3
 ACTION:UPD 12-11-22 17:05 OP:ep   STATUS:               ID:20121025124435 L   I
 2012-10-25-1240-00M.COL___234                                                 6
 STAT SP IPHASW D HRMM SECON CODA AMPLIT PERI AZIMU VELO AIN AR TRES W  DIS CAZ7
 BAR2 SZ EP       1244 55.38                             172    0.0310 18.8 207 
 BAR2 SZ I        1244 55.74        15.5 0.13                          18.8 207 
 BAR2 SZ ES   1   1245 10.06                             172   -0.55 7 18.8 207 
 GIR2 SZ EP   1   1244 55.71                             165    0.03 7 38.3 345 
 BRR  HZ EP       1244 57.25                             150   -0.1010 78.1 301 
 BRR  HZ I        1244 58.89        20.1 0.09                          78.1 301 
 BRR  HE ES       1245 14.78                             150    0.6010 78.1 301 
 PAM  SZ EP       1244 58.17                             150    0.0210 79.7  34 
 PAM  SZ I        1244 58.52        11.7 0.22                          79.7  34 
 PAM  SE ES   1   1245 15.42                             150   -0.18 7 79.7  34 
 RUS  HZ EP       1244 59.28                             146    0.1910 94.2 178 
 RUS  HN ES   1   1245 17.21                             146   -0.07 7 94.2 178 
 RUS  HN I        1245 19.97         6.7 0.24                          94.2 178 
 ZAR  HE ES   1   1245 33.98                             122   -0.76 6  211 293 
 ZAR  HZ I        1245 39.76         6.4 0.33                           211 293 
                                                                                
