 2010  825 1309 12.0 L   6.743 -73.470107.7  RSN 12 0.4 2.6LRSN                1
 GAP= 95        0.93       3.0     5.1  5.8 -0.5902E+01  0.4407E+01  0.2236E+01E
 Epicentro: EL CARMEN DE CHUCURI - SANTANDER                                   3
 ACTION:UP  10-09-07 10:58 OP:vdl  STATUS:               ID:20100825130912 L   I
 2010-08-25-1306-12S.COL___121                                                 6
 STAT SP IPHASW D HRMM SECON CODA AMPLIT PERI AZIMU VELO SNR AR TRES W  DIS CAZ7
 BAR2 SZ EP       13 9 27.82                             160     0.310   36 118 
 BAR2 SZ ES   1   13 9 39.75                             160     0.2 7   36 118 
 BAR2 SZ I        13 9 41.67       216.9 0.53                            36 118 
 BRR  HZ EP       13 9 27.54                             154    -0.210   48 326 
 BRR  HZ I        13 9 28.59       110.9 0.31                            48 326 
 BRR  HN ES       13 9 40.13                             154     0.110   48 326 
 GIR2 SZ EP       13 9 28.25                             154     0.310   48  39 
 RUS  HZ EP       13 9 32.39                             133    -0.110  103 155 
 RUS  HN ES   1   13 9 47.70                             133    -0.7 7  103 155 
 RUS  HZ I        13 9 49.98        74.1 1.12                           103 155 
 GUE  SZ IP       13 9 35.15                             125    -0.110  134  27 
 GUE  SZ ES   1   13 9 52.65                             125    -0.7 7  134  27 
 GUE  SZ I        13 9 53.98        84.3 0.11                           134  27 
 GRA  SZ EP       13 9 36.50                             122     0.3 9  146  30 
 GRA  SZ ES   1   13 9 55.07                             122     0.0 7  146  30 
 GRA  SZ I        13 9 58.58        35.5 0.32                           146  30 
 OCA  SZ EP       13 9 38.22                             118    -0.1 9  166   6 
 OCA  SZ I        1310  0.42        47.7 0.03                           166   6 
 CHI  HZ EP   1   13 9 46.63                             109     0.3 6  235 187 
 CHI  HN ES   1   1310 13.72                             109     0.5 6  235 187 
 CHI  HZ I        1310 18.11         7.6 0.48                           235 187 
 GUY  SN ES   2   1310 19.19                             106    -1.0 4  269 232 
 GUY  SZ I        1310 26.94        54.4 0.41                           269 232 
 RREF HZ EP   1   13 9 52.69                             105    -0.4 5  291 226 
 RREF HE ES   1   1310 25.14                             105    -0.1 5  291 226 
 RREF HZ I        1310 29.11        19.9 0.75                           291 226 
 ANIL HN ES   1   1310 33.10                             102     0.7 5  328 221 
 ANIL HZ I        1310 38.00        40.6 0.58                           328 221 
 PRA  HZ EP   1   1310  1.17                             100    -0.6 5  370 205 
 PRA  HE ES   2   1310 40.75                             100     0.1 3  370 205 
 PRA  HZ I        1310 46.95        11.8 1.24                           370 205 
                                                                                
