 2011  225 1840 58.9 L   6.794 -73.157136.0  RSN  6 0.2 1.7LRSN                1
 GAP=157        0.43       4.9     7.4  7.1 -0.1797E+02  0.2775E+02 -0.1486E+02E
 Epicentro: LOS SANTOS - SANTANDER                                             3
 ACTION:UP  11-03-28 15:11 OP:jfem STATUS:               ID:20110225184058 L   I
 2011-02-25-1839-12S.COL___138                                                 6
 STAT SP IPHASW D HRMM SECON CODA AMPLIT PERI AZIMU VELO SNR AR TRES W  DIS CAZ7
 BAR2 SZ EP   3   1841 17.34                             170     0.0 3   23 188 
 BAR2 SZ ES   2   1841 31.83                             170     0.1 5   23 188 
 BAR2 SZ I        1841 33.35        17.4 0.12                            23 188 
 RUS  HZ EP   2   1841 21.31                             142    -0.3 5  100 175 
 RUS  HN ES   3   1841 39.16                             142    -0.2 3  100 175 
 RUS  HZ I        1841 42.85         2.4 0.46                           100 175 
 GRA  SZ IP       1841 23.38                             134     0.010  127  18 
 GRA  SZ I        1841 24.58        13.8 0.25                           127  18 
 CHI  HZ EP   2   1841 36.42                             115     0.5 4  248 195 
 CHI  HZ I        1842 17.82         2.6 0.46                           248 195 
 HEL  HZ EP   2   1841 38.71                             113     0.2 4  271 256 
 HEL  HZ I        1842 18.07         5.0 0.31                           271 256 
 DBB  SZ EP   1   1841 45.64                             108    -0.2 5  338 274 
                                                                                
