 2012 1025 1623 42.1 L   5.917 -73.618124.3  RSN  8 0.2 2.2LRSN                1
 GAP= 93        0.44       2.3     3.8  5.1 -0.1541E+01  0.1257E+02  0.1908E+01E
 Epicentro: BARBOSA - SANTANDER                                                3
 ACTION:UPD 12-11-22 17:05 OP:ep   STATUS:               ID:20121025162342 L   I
 2012-10-25-1620-00M.COL___234                                                 6
 STAT SP IPHASW D HRMM SECON CODA AMPLIT PERI AZIMU VELO AIN AR TRES W  DIS CAZ7
 RUS  HZ EP       1624  1.01                             153    0.0810 59.3  93 
 RUS  HN ES   1   1624 15.53                             153   -0.12 7 59.3  93 
 RUS  HN I        1624 16.77        35.7 0.34                          59.3  93 
 BAR2 SZ EP       1624  2.81                             142    0.3010 88.9  33 
 BAR2 SZ ES       1624 18.48                             142    0.0310 88.9  33 
 BAR2 SZ I        1624 19.87       148.7 0.13                          88.9  33 
 BRR  HZ EP       1624  5.88                             130    0.0410  132 356 
 BRR  HE ES   1   1624 24.23                             130   -0.16 7  132 356 
 BRR  HZ I        1624 26.02        33.1 0.19                           132 356 
 CHI  HZ EP   1   1624  7.18                             128   -0.25 7  143 185 
 PAM  SZ EP   1   1624 11.92                             120   -0.11 7  187  33 
 PAM  SE ES   1   1624 35.14                             120   -0.26 7  187  33 
 PAM  SZ I        1624 39.76         7.2 0.23                           187  33 
 HEL  HZ EP   1   1624 14.50                             116   -0.22 6  214 278 
 HEL  HZ I        1624 44.06         7.9 0.52                           214 278 
 RREF HZ EP   1   1624 16.31                             115    0.33 6  222 240 
 RREF HZ I        1624 48.48        11.2 0.38                           222 240 
 PRA  HZ EP   1   1624 21.75                             109   -0.17 6  281 210 
 PRA  HZ I        1624 59.27         8.6 0.32                           281 210 
                                                                                
