 2016 1025 1323 10.1 L   6.848 -73.216143.1  RSN  5 0.3 1.6LRSN                1
 GAP=126        0.72       4.6     4.2  5.6  0.3968E+01 -0.1988E+01 -0.3509E+01E
 Epicentro: ZAPATOCA - SANTANDER                                               3
 ACTION:UPD 16-11-09 19:22 OP:rebc STATUS:               ID:20161025132310 L   I
 OLDACT:REG 16-10-25 21:18 OP:cog  STATUS:               ID:20161025131745     3
 2016-10-25-1318-00M.COL___349                                                 6
 STAT SP IPHASW D HRMM SECON CODA AMPLIT PERI AZIMU VELO AIN AR TRES W  DIS CAZ7
 BAR2 EZ EP       1323 29.47                             168   -0.0410 28.5 173 
 BAR2 EZ ES       1323 44.27                             168   -0.4010 28.5 173 
 BAR2 EZ I        1323 45.63        14.8 0.30            169           28.5 173 
 BRR  HZ EP       1323 30.45                             155    0.0110 61.8 298 
 BRR  HN ES       1323 46.58                             155    0.2610 61.8 298 
 BRR  HZ I        1323 49.88         9.2 0.25            156           61.8 298 
 PAM  EZ EP       1323 32.16                             150    0.0610 78.8  46 
 RUS  HZ EP       1323 34.37                             142    0.3410  107 172 
 RUS  HN ES       1323 52.79                             142    0.0810  107 172 
 RUS  HZ I        1323 54.65         2.8 0.25            144            107 172 
 PTB  HZ EP       1323 35.75                             133   -0.50 9  141 256 
 PTB  HE ES       1323 56.83                             133    0.16 9  141 256 
 PTB  HZ I        1323 58.29         4.2 0.20            134            141 256 
                                                                                
