 2016 1225 1018 25.9 L   6.561 -73.587110.8  RSN  6 0.3 1.0LRSN                1
 GAP= 98        0.77       3.3     3.5  6.2  0.5968E+01  0.8845E+01  0.9871E+01E
 Epicentro: EL CARMEN - SANTANDER                                              3
 ACTION:UPD 17-01-11 20:18 OP:rebc STATUS:               ID:20161225101825 L   I
 OLDACT:UP  16-12-25 21:44 OP:edw  STATUS:               ID:20161225101744     3
 OLDACT:UP  16-12-25 21:43 OP:edw  STATUS:               ID:20161225101744     3
 OLDACT:UP  16-12-25 21:43 OP:edw  STATUS:               ID:20161225101744     3
 OLDACT:REG 16-12-25 20:03 OP:edw  STATUS:               ID:20161225101744     3
 2016-12-25-1018-00M.COL___375                                                 6
 STAT SP IPHASW D HRMM SECON CODA AMPLIT PERI AZIMU VELO AIN AR TRES W  DIS CAZ7
 BAR2 EZ EP       1018 42.02                             156   -0.1610 44.9  86 
 BAR2 EZ ES       1018 54.88                             156    0.0210 44.9  86 
 BRR  HZ EP       1018 42.65                             149   -0.1410 61.9 347 
 BRR  HE ES       1018 56.05                             149    0.1010 61.9 347 
 BRR  HZ I        1019  1.66         3.2 0.54            153           61.9 347 
 RUS  HZ EP       1018 45.70                             137   -0.0410 92.6 143 
 RUS  HN ES       1019  1.36                             137    0.1510 92.6 143 
 RUS  HZ I        1019  3.09         1.7 0.34            140           92.6 143 
 PTB  HZ EP       1018 44.90                             136   -0.4810 96.1 269 
 PTB  HE ES       1019  0.28                             136   -0.2910 96.1 269 
 PTB  HZ I        1019  1.09         3.1 0.16            139           96.1 269 
 ZAR  HZ EP   4   1018 54.88                             118    1.82 0  174 306 
 ZAR  HN ES       1019 14.92                             118    0.69 9  174 306 
 CHI  HZ EP       1018 58.10                             112    0.10 8  214 184 
 CHI  HN ES       1019 23.35                             112    0.31 8  214 184 
 CHI  HZ I        1019 28.71         0.6 0.68            115            214 184 
                                                                                
