 2012  725 1301 10.2 L   6.744 -73.160143.1  RSN  6 0.4 1.8LRSN                1
 GAP=137        1.07       8.1     6.3  9.8  0.3901E+01  0.1112E+02 -0.2507E+02E
 Epicentro: VILLANUEVA - SANTANDER                                             3
 ACTION:UPD 12-08-14 11:45 OP:ep   STATUS:               ID:20120725130110 L   I
 2012-07-25-1300-00M.COL___215                                                 6
 STAT SP IPHASW D HRMM SECON CODA AMPLIT PERI AZIMU VELO AIN AR TRES W  DIS CAZ7
 BAR2 SZ EP       13 1 29.36                             173     0.010   17 188 
 BAR2 SZ ES   1   13 1 43.88                             173    -0.5 7   17 188 
 BAR2 SZ I        13 1 45.45        28.0 0.24            171             17 188 
 BRR  HZ EP       13 1 31.13                             151     0.010   73 303 
 BRR  HN ES   1   13 1 48.28                             151     0.8 7   73 303 
 BRR  HZ I        13 2  6.17        23.9 0.31            149             73 303 
 PAM  SZ EP       13 1 32.43                             148    -0.110   83  38 
 PAM  SN ES   2   13 1 49.40                             148    -0.5 5   83  38 
 RUS  HN ES   1   13 1 51.76                             145     0.5 7   95 175 
 RUS  HZ I        13 1 52.84         7.0 0.32            164             95 175 
 PTB  HZ EP   1   13 1 36.12                             132    -0.6 7  145 261 
 PTB  HN ES   1   13 1 56.82                             132    -0.6 7  145 261 
 PTB  HZ I        13 1 58.61         5.6 0.38            139            145 261 
 ZAR  HZ EP       13 1 43.07                             122     0.5 9  205 294 
 ZAR  HE ES   1   13 2  7.67                             122    -0.1 6  205 294 
 ZAR  HZ I        13 2 13.52         5.8 0.28            127            205 294 
