 2017  225 1528 49.5 L   6.784 -73.147143.3  RSN  9 0.4 1.9LRSN                1
 GAP=137        1.02       3.9     4.5  5.9 -0.1320E+01  0.4015E+01  0.6947E+01E
 Epicentro: LOS SANTOS - SANTANDER                                             3
 ACTION:UPD 17-05-24 15:40 OP:jn   STATUS:               ID:20170225152849 L   I
 OLDACT:UP  17-02-26 01:08 OP:edw  STATUS:               ID:20170225152740     3
 OLDACT:REG 17-02-25 20:39 OP:edw  STATUS:               ID:20170225152740     3
 2017-02-25-1528-00M.COL___376                                                 6
 STAT SP IPHASW D HRMM SECON CODA AMPLIT PERI AZIMU VELO AIN AR TRES W  DIS CAZ7
 BAR2 EZ EP       1529  8.75                             171   -0.0510 21.6 190 
 BAR2 EZ ES       1529 23.17                             171   -0.6810 21.6 190 
 BAR2 EZ I        1529 26.54        22.6 0.32            169           21.6 190 
 BRR  HZ IP     C 1529 10.51                             152    0.0810 71.9 300 
 BRR  HN ES       1529 27.72                             152    0.9710 71.9 300 
 BRR  HZ I        1529 31.81        16.1 0.22            150           71.9 300 
 PAM  EZ EP     C 1529 11.56                             150    0.0210 78.9  39 
 PAM  EN ES       1529 28.66                             150   -0.0810 78.9  39 
 PAM  EZ I        1529 31.81         8.4 0.42            155           78.9  39 
 RUS  HZ EP       1529 12.94                             144    0.0610 98.8 176 
 RUS  HN ES       1529 31.26                             144    0.1410 98.8 176 
 RUS  HZ I        1529 32.62        18.2 0.40            146           98.8 176 
 PTB  HZ EP   9   1529 15.64                             131   -0.59 0  147 260 
 PTB  HN ES       1529 36.50                             131    0.02 9  147 260 
 PTB  HZ I        1529 42.10         8.4 0.14            131            147 260 
 ZAR  HZ EP   4   1529 23.25                             122    1.41 0  205 293 
 ZAR  HN ES       1529 46.22                             122   -0.85 9  205 293 
 ZAR  HZ I        1529 52.35         8.8 0.46            122            205 293 
 NOR  HZ EP       1529 25.28                             118    0.31 8  234 235 
 NOR  HN ES       1529 52.55                             118   -0.08 8  234 235 
 NOR  HZ I        1529 58.38         5.3 0.24            119            234 235 
 CHI  HZ EP       1529 27.04                             117    0.17 8  247 195 
 CHI  HN ES       1529 55.73                             117   -0.29 8  247 195 
 CHI  HZ I        1529 58.60         4.2 0.40            118            247 195 
 ROSC BZ EP       1529 27.22                             116   -0.09 8  251 211 
 ROSC BN ES   2   1529 57.65                             116    0.85 4  251 211 
 ROSC BZ I        1530  3.40        14.9 0.40            118            251 211 
                                                                                
