 2013  225 1655 45.2 L   6.795 -73.191144.7  RSN  6 0.4 1.6LRSN                1
 GAP=131        0.89       6.5     6.8  7.6  0.1117E+02  0.2775E+01 -0.1062E+02E
 Epicentro: ZAPATOCA - SANTANDER                                               3
 ACTION:UPD 13-03-12 09:35 OP:ep   STATUS:               ID:20130225165545 L   I
 2013-02-25-1650-00M.COL___228                                                 6
 STAT SP IPHASW D HRMM SECON CODA AMPLIT PERI AZIMU VELO AIN AR TRES W  DIS CAZ7
 BAR2 SZ EP   1   1656  4.70                             171   -0.03 7 22.4 178 
 BAR2 SZ ES       1656 19.22                             171   -0.7110 22.4 178 
 BAR2 SZ I   L1   1656 20.91        12.6 0.38            171    0.98 7 22.4 178 
 BRR  HZ EP   1   1656  6.47                             154    0.41 7 67.2 301 
 BRR  HN ES   1   1656 22.37                             154    0.07 7 67.2 301 
 BRR  HZ I        1656 28.22        12.3 0.30            152           67.2 301 
 PAM  SZ EP   1   1656  7.59                             149    0.01 7 81.1  42 
 RUS  HZ EP   1   1656  8.86                             144   -0.03 7  100 173 
 RUS  HE ES   1   1656 27.45                             144    0.12 7  100 173 
 RUS  HZ I        1656 28.83         4.1 0.24            148            100 173 
 PTB  HZ EP   1   1656 11.49                             133   -0.19 7  143 259 
 PTB  HN ES   1   1656 32.27                             133   -0.03 7  143 259 
 PTB  HZ I        1656 34.59         3.2 0.14            134            143 259 
 SML  HN ES   2   1656 49.82                             117   -0.23 4  242 336 
                                                                                
