 2015 1025 1609  1.5 L   6.795 -73.138151.9  RSN 14 0.4 2.3LRSN                1
 GAP= 72        1.05       2.7     3.9  5.2 -0.1366E+01  0.4739E+01  0.7234E+00E
 Epicentro: LOS SANTOS - SANTANDER                                             3
 ACTION:UPD 15-12-22 20:43 OP:cam  STATUS:               ID:20151025160901 L   I
 OLDACT:REG 15-10-25 20:32 OP:drio STATUS:               ID:20151025160748     3
 2015-10-25-1607-48M.COL___310                                                 6
 STAT SP IPHASW D HRMM SECON CODA AMPLIT PERI AZIMU VELO AIN AR TRES W  DIS CAZ7
 BAR2 EZ IP     C 16 9 21.87                             171    0.0010 22.9 192 
 BAR2 EZ ES       16 9 37.95                             171    0.2010 22.9 192 
 BAR2 EZ I        16 9 41.94        22.3 0.26            170           22.9 192 
 BRR  HZ IP     C 16 9 23.75                             153    0.3710 72.2 299 
 BRR  HZ I        16 9 23.77        32.3 0.12            151           72.2 299 
 BRR  HN ES       16 9 41.29                             153    0.8510 72.2 299 
 PAM  EZ IP     C 16 9 24.64                             152    0.2710 77.3  39 
 PAM  EE ES       16 9 42.02                             152   -0.1910 77.3  39 
 PAM  EZ I        16 9 43.89        35.7 0.56            154           77.3  39 
 RUS  HZ EP       16 9 25.60                             145   -0.2210 99.9 177 
 RUS  HN ES       16 9 44.57                             145   -0.2210 99.9 177 
 RUS  HZ I        16 9 45.15        14.1 0.54            147           99.9 177 
 TAM  HZ EP       16 9 29.91                             132    0.32 9  154 105 
 TAM  HN ES   4   16 9 49.50                             132   -1.99 0  154 105 
 TAM  HZ I        16 9 52.47        13.7 0.52            136            154 105 
 OCA  HZ EP       16 9 30.70                             131    0.34 9  161 353 
 OCA  HE ES       16 9 52.26                             131   -0.61 9  161 353 
 OCA  HZ I        16 9 56.74        52.6 0.20            131            161 353 
 SPBC HZ EP       16 9 30.84                             130    0.35 9  163 219 
 SPBC HN ES       16 9 52.43                             130   -0.67 9  163 219 
 SPBC HZ I        16 9 56.41        36.7 0.12            131            163 219 
 ZAR  HZ EP       16 9 34.45                             124   -0.02 9  205 292 
 ZAR  HE ES       1610  0.11                             124   -0.06 9  205 292 
 ZAR  HZ I        1610  6.15        29.2 0.44            123            205 292 
 NOR  HZ EP       16 9 37.79                             120    0.15 8  235 235 
 NOR  HE ES       1610  5.51                             120   -0.31 8  235 235 
 NOR  HZ I        1610  8.03        15.3 0.22            120            235 235 
 SML  HZ EP       16 9 38.08                             119   -0.50 8  245 335 
 SML  HN ES       1610  6.68                             119   -0.82 8  245 335 
 SML  HZ I        1610 13.60        35.7 0.24            119            245 335 
 CHI  HZ EP       16 9 39.09                             118   -0.43 8  248 195 
 CHI  HN ES       1610  8.77                             118   -0.40 8  248 195 
 CHI  HZ I        1610 19.07         6.1 0.42            120            248 195 
 HEL  HZ EP       16 9 43.01                             116    0.89 8  273 256 
 HEL  HN ES   4   1610 12.75                             116   -1.04 0  273 256 
 HEL  HZ I        1610 20.97        13.1 0.34            116            273 256 
 URE  HZ EP   4   16 9 42.52                             115   -0.48 0  285 292 
 URE  HE ES   4   1610 14.14                             115   -1.22 0  285 292 
 GUY2CHZ EP       16 9 45.38                             113   -0.07 7  302 235 
 GUY2CHE ES       1610 20.11                             113    0.39 7  302 235 
 GUY2CHZ I        1610 28.70        13.0 0.76                           302 235 
 MON  HZ EP   4   16 9 49.05                             110   -1.83 0  355 308 
 MON  HN ES   4   1610 25.86                             110   -3.52 0  355 308 
 MON  HZ I        1610 42.82         6.3 0.60            110            355 308 
                                                                                
