 2012  625 1039 49.8 L   6.740 -73.237148.0  RSN  5 0.4 1.6LRSN                1
 GAP=212        0.72       8.2     7.7  9.2  0.3854E+02  0.4517E+01  0.1250E+02E
 Epicentro: VILLANUEVA - SANTANDER                                             3
 ACTION:UPD 12-08-06 17:52 OP:ep   STATUS:               ID:20120625103949 L   I
 2012-06-25-1040-00M.COL___199                                                 6
 STAT SP IPHASW D HRMM SECON CODA AMPLIT PERI AZIMU VELO AIN AR TRES W  DIS CAZ7
 BAR2 SZ EP       1040  9.32                             173   -0.2810 17.4 160 
 BAR2 SZ I        1040 25.06         9.2 0.40                          17.4 160 
 BRR  HZ EP       1040 10.95                             155    0.0210 66.4 308 
 BRR  HZ I        1040 11.03        17.4 0.12                          66.4 308 
 BRR  HN ES   1   1040 27.64                             155    0.23 7 66.4 308 
 RUS  HZ EP       1040 13.60                             146    0.2010 95.2 170 
 RUS  HN ES   2   1040 31.75                             146   -0.05 5 95.2 170 
 RUS  HZ I        1040 33.36         3.9 0.42                          95.2 170 
 PTB  HZ EP       1040 15.73                             135   -0.24 9  137 261 
 PTB  HN ES   2   1040 36.72                             135    0.33 5  137 261 
 PTB  HZ I        1040 38.66         2.6 0.14                           137 261 
 ZAR  HZ EP   2   1040 22.96                             124    1.24 4  197 295 
 ZAR  HN ES   2   1040 45.85                             124   -0.77 4  197 295 
 ZAR  HZ I        1040 56.42         4.4 0.12                           197 295 
                                                                                
