 2016 1225 1606 36.3 L   6.776 -73.117142.9  RSN  9 0.4 1.9LRSN                1
 GAP=141        1.15       4.5     5.6  7.0  0.3199E+01  0.6216E+01  0.1933E+01E
 Epicentro: LOS SANTOS - SANTANDER                                             3
 ACTION:UPD 17-01-11 20:19 OP:rebc STATUS:               ID:20161225160636 L   I
 OLDACT:UP  16-12-26 00:19 OP:edw  STATUS:               ID:20161225155744     3
 OLDACT:UP  16-12-26 00:18 OP:edw  STATUS:               ID:20161225155744     3
 OLDACT:REG 16-12-25 20:44 OP:edw  STATUS:               ID:20161225155744     3
 2016-12-25-1558-00M.COL___384                                                 6
 STAT SP IPHASW D HRMM SECON CODA AMPLIT PERI AZIMU VELO AIN AR TRES W  DIS CAZ7
 BAR2 EZ IP     C 16 6 55.47                             171   -0.0610 21.5 200 
 BAR2 EZ ES       16 7  9.64                             171   -0.9110 21.5 200 
 BAR2 EZ I        16 7 11.70        17.1 0.17            169           21.5 200 
 BRR  HZ EP       16 6 57.50                             151    0.1410 75.3 299 
 BRR  HN ES       16 7 14.57                             151    0.7710 75.3 299 
 BRR  HZ I        16 7 15.96        15.3 0.40            149           75.3 299 
 PAM  EZ EP     C 16 6 58.39                             150    0.1810 77.5  36 
 PAM  EN ES       16 7 15.27                             150   -0.0310 77.5  36 
 PAM  EZ I        16 7 17.30        28.4 0.58            152           77.5  36 
 RUS  HZ EP       16 6 59.49                             144   -0.0610 97.7 178 
 RUS  HN ES       16 7 17.77                             144    0.0810 97.7 178 
 RUS  HZ I        16 7 19.70        13.7 0.34            143           97.7 178 
 PTB  HZ EP   9   16 7  2.38                             131   -0.88 0  150 260 
 PTB  HN ES       16 7 22.51                             130   -0.91 9  150 260 
 PTB  HZ I        16 7 26.01         9.7 0.12            129            150 260 
 ZAR  HZ EP       16 7  8.97                             121    0.01 8  208 293 
 ZAR  HN ES       16 7 34.13                             121   -0.31 8  208 293 
 ZAR  HZ I        16 7 39.42         8.3 0.16            121            208 293 
 CHI  HZ EP   2   16 7 12.93                             117   -0.70 4  247 196 
 CHI  HN ES       16 7 43.24                             117    0.47 8  247 196 
 CHI  HZ I        16 7 49.78         2.5 0.36            116            247 196 
 URE  HZ EP   2   16 7 17.11                             113   -0.55 4  288 292 
 URE  HN ES   4   16 7 48.26                             113   -1.67 0  288 292 
 GUY2CHZ EP   4   16 7 22.30                             112    2.42 0  302 236 
 GUY2CHN ES   4   16 7 55.98                             112    2.09 0  302 236 
 GUY2CHZ I        16 8  0.56         3.1 0.26                           302 236 
                                                                                
