 2012 1225 1852 13.2 L   6.653 -73.205136.0  RSN  4 0.2 1.4LRSN                1
 GAP=207        0.57       5.1     4.7  5.7  0.9822E+01  0.5636E+01  0.4263E+00E
 Epicentro: BARICHARA - SANTANDER                                              3
 ACTION:UPD 13-01-04 14:30 OP:ep   STATUS:               ID:20121225185213 L   I
 2012-12-25-1850-00M.COL___242                                                 6
 STAT SP IPHASW D HRMM SECON CODA AMPLIT PERI AZIMU VELO AIN AR TRES W  DIS CAZ7
 BAR2 SZ ES   1   1852 45.84                             177    0.22 7 7.23 159 
 BAR2 SZ I        1852 48.08         8.2 0.25                          7.23 159 
 BRR  HZ EP       1852 33.53                             149    0.0210 75.2 312 
 BRR  HE ES   1   1852 49.17                             149   -0.21 7 75.2 312 
 BRR  HZ I        1852 51.23         3.4 0.24                          75.2 312 
 RUS  HZ EP   1   1852 35.21                             146    0.34 7 85.2 171 
 RUS  HE ES   1   1852 51.46                             146   -0.34 7 85.2 171 
 RUS  HE I        1852 55.02         4.8 0.49                          85.2 171 
 PTB  HZ EP       1852 38.30                             132   -0.24 9  139 265 
 PTB  HE ES       1852 58.53                             132    0.21 9  139 265 
 PTB  HZ I        1853  5.25         3.2 0.28                           139 265 
                                                                                
