 2012  125 1450  1.2 L   6.753 -73.157148.2  RSN  8 0.3 2.2LRSN                1
 GAP=137        0.98       5.6     5.8  7.5 -0.3507E+01  0.9169E+01 -0.9381E+01E
 Epicentro: LOS SANTOS - SANTANDER                                             3
 ACTION:UP  12-02-03 08:20 OP:REBC STATUS:               ID:20120125145002dL   I
 2012-01-25-1450-00M.COL___187                                                 6
 STAT SP IPHASW D HRMM SECON CODA AMPLIT PERI AZIMU VELO SNR AR TRES W  DIS CAZ7
 BAR2 SZ IP       1450 21.13                             173     0.110   18 189 
 BAR2 SZ ES   1   1450 35.98                             173    -0.6 7   18 189 
 BAR2 SZ I        1450 38.03        30.1 0.32                            18 189 
 GIR2 SZ EP       1450 21.31                             166     0.010   36 354 
 BRR  HZ IP     C 1450 23.05                             152     0.310   73 303 
 BRR  HZ I        1450 23.20        53.6 0.16                            73 303 
 BRR  HN ES   1   1450 40.29                             152     0.8 7   73 303 
 PAM  SZ EP       1450 24.00                             150     0.010   82  38 
 PAM  SN ES   1   1450 41.34                             150    -0.4 7   82  38 
 RUS  HZ EP       1450 25.20                             146     0.310   96 175 
 RUS  HN ES   1   1450 43.42                             146     0.1 7   96 175 
 RUS  HZ I        1450 45.19        12.0 0.62                            96 175 
 PTB  HZ EP       1450 27.67                             133    -0.6 9  146 261 
 PTB  HN ES   1   1450 49.14                             133    -0.1 7  146 261 
 PTB  HZ I        1450 50.74        14.3 0.20                           146 261 
 OCA  SZ EP       1450 30.37                             129     0.2 9  165 354 
 OCA  SZ I        1450 57.40        20.8 0.30                           165 354 
 ZAR  HZ EP       1450 33.71                             123    -0.2 9  205 294 
 ZAR  HZ I        1451  6.06        24.4 0.26                           205 294 
                                                                                
