 2016 1225 1147 16.4 L   6.847 -73.286122.0  RSN 10 0.4 1.7LRSN                1
 GAP=108        1.11       4.0     3.3  5.7  0.1462E+01  0.3910E+01  0.4995E+01E
 Epicentro: ZAPATOCA - SANTANDER                                               3
 ACTION:UPD 17-01-11 20:18 OP:rebc STATUS:               ID:20161225114716 L   I
 OLDACT:UP  16-12-25 22:28 OP:edw  STATUS:               ID:20161225113742     3
 OLDACT:REG 16-12-25 20:15 OP:edw  STATUS:               ID:20161225113742     3
 2016-12-25-1138-00M.COL___369                                                 6
 STAT SP IPHASW D HRMM SECON CODA AMPLIT PERI AZIMU VELO AIN AR TRES W  DIS CAZ7
 BAR2 EZ IP     D 1147 33.27                             165   -0.0810 30.4 158 
 BAR2 EZ ES       1147 46.47                             165   -0.1210 30.4 158 
 BRR  HZ IP     D 1147 33.59                             154   -0.4610 55.2 301 
 BRR  HE ES       1147 47.80                             154   -0.0510 55.2 301 
 BRR  HZ I        1147 48.53         8.9 0.10            154           55.2 301 
 PAM  EZ EP       1147 36.44                             143   -0.1910 84.6  50 
 PAM  EE ES       1147 53.41                             143    0.9810 84.6  50 
 PAM  EZ I        1147 54.91        12.6 0.28            146           84.6  50 
 RUS  HZ EP       1147 38.07                             136   -0.4010  108 168 
 RUS  HN ES       1147 55.86                             136    0.1510  108 168 
 RUS  HZ I        1147 59.30         7.1 0.32            137            108 168 
 PTB  HZ EP   9 D 1147 38.55                             129   -1.62 0  134 255 
 PTB  HN ES       1147 56.27                             129   -0.8410  134 255 
 PTB  HZ I        1148  0.35        16.8 0.16            129            134 255 
 TAM  HZ EP       1147 44.21                             122    0.26 9  171 105 
 TAM  HN ES       1148  4.61                             122   -0.85 9  171 105 
 TAM  HZ I        1148  5.15         7.9 0.18            123            171 105 
 ZAR  HZ EP       1147 45.39                             119   -0.24 9  188 292 
 ZAR  HN ES       1148  8.60                             119    0.15 9  188 292 
 ZAR  HZ I        1148 13.34         9.5 0.24            120            188 292 
 CHI  HZ EP       1147 53.29                             112    0.25 8  250 191 
 CHI  HN ES       1148 21.92                             112    0.28 8  250 191 
 CHI  HZ I        1148 26.22         1.7 0.30            112            250 191 
 URE  HN ES   4   1148 21.65                             110   -2.63 0  268 292 
 GUY2CHZ EP       1147 58.16                             108    0.25 7  292 232 
 GUY2CHN ES   4   1148 32.99                             108    2.68 0  292 232 
 GUY2CHZ I        1148 37.04         3.4 0.32                           292 232 
 CBOC HZ EP       1148  1.28                             106    0.39 7  321 250 
 CBOC HE ES       1148 35.74                             106    0.13 7  321 250 
 CBOC HZ I        1148 37.98         2.5 0.30            107            321 250 
 SJC  HZ EP   4   1148  7.71                             102   -2.03 0  397 328 
 SJC  HN ES   4   1148 47.44                             102   -3.93 0  397 328 
                                                                                
