 2011  525 1320 47.4 L   6.771 -73.122138.0  RSN 12 0.3 2.2LRSN                1
 GAP=162        0.50       3.3     4.0  4.0 -0.7710E+01  0.1152E+01  0.2756E+01E
 Epicentro: LOS SANTOS - SANTANDER                                             3
 ACTION:UP  11-06-29 08:56 OP:tino STATUS:               ID:20110525132047 L   I
 2011-05-25-1318-20S.COL___140                                                 6
 STAT SP IPHASW D HRMM SECON CODA AMPLIT PERI AZIMU VELO SNR AR TRES W  DIS CAZ7
 BAR2 SZ EP       1321  6.11                             171     0.110   21 199 
 BAR2 SZ ES   1   1321 20.54                             171    -0.1 7   21 199 
 BAR2 SZ I        1321 22.42        73.0 0.22                            21 199 
 BTL  SZ EP   1   1321  6.44                             170     0.3 7   23 315 
 GIR2 SZ EP   1   1321  6.20                             165    -0.1 7   35 347 
 BRR  HZ EP   1   1321  7.74                             150    -0.2 7   75 300 
 BRR  HE ES   1   1321 24.20                             150     0.2 7   75 300 
 BRR  HZ I        1321 27.40        29.8 0.16                            75 300 
 PAM  SZ EP   1   1321  8.87                             149     0.0 7   78  37 
 PAM  SN ES   2   1321 25.46                             149    -0.1 5   78  37 
 BRI  SZ EP   1   1321 10.71                             139     0.0 7  111  19 
 BRI  SZ ES   1   1321 29.16                             139     0.2 7  111  19 
 GRA  SZ EP   1   1321 11.92                             135    -0.3 7  128  16 
 GRA  SZ ES   2   1321 31.06                             135    -0.4 5  128  16 
 GRA  SZ I        1321 32.64        15.8 0.34                           128  16 
 OCA  SZ EP   2   1321 15.92                             127     0.5 5  164 352 
 OCA  SZ ES   2   1321 37.32                             127     0.0 5  164 352 
 OCA  SZ I        1321 41.55        22.7 0.49                           164 352 
 NOR  SZ EP   1   1321 22.10                             117    -0.6 6  235 235 
 NOR  SE ES   2   1321 50.15                             117    -0.1 4  235 235 
 HEL  HZ EP   2   1321 27.86                             113     0.4 4  274 257 
 HEL  HE ES   2   1321 58.47                             113    -0.2 4  274 257 
 HEL  HZ I        1322  5.24         8.8 0.42                           274 257 
 TOL  SZ EP   2   1321 35.64                             108     0.3 3  343 225 
 PRA  HZ EP   1   1321 40.65                             105     0.2 4  391 210 
 PRA  HE ES   2   1322 22.57                             105     0.7 3  391 210 
                                                                                
