 2011 1025 1639 39.3 L   6.761 -73.105139.8  RSN 10 0.4 2.3LRSN                1
 GAP=119        0.81       4.4     4.7  6.0 -0.1539E+01  0.6210E+01  0.7230E+01E
 Epicentro: LOS SANTOS - SANTANDER                                             3
 ACTION:UPD 12-07-13 16:05 OP:ep   STATUS:               ID:20111025163939 L   I
 2011-10-25-1636-17S.COL___171                                                 6
 STAT SP IPHASW D HRMM SECON CODA AMPLIT PERI AZIMU VELO AIN AR TRES W  DIS CAZ7
 BAR2 SZ IP       1639 58.25                             171    0.0710 20.5 205 
 BAR2 SZ ES   1   1640 12.60                             171   -0.29 7 20.5 205 
 BAR2 SZ I        1640 15.49        52.5 0.34                          20.5 205 
 BTL  SZ EP       1639 58.45                             169    0.1810 25.0 314 
 BRR  HZ EP       1640  0.08                             149   -0.1110 77.2 300 
 BRR  HZ I        1640  0.46        52.5 0.10                          77.2 300 
 BRR  HE ES   1   1640 16.57                             149    0.10 7 77.2 300 
 PAM  SZ EP       1640  1.15                             150    0.2010 78.1  35 
 PAM  SE ES   1   1640 17.67                             150   -0.15 7 78.1  35 
 RUS  HZ EP       1640  2.27                             144    0.1110 96.1 179 
 RUS  HE ES   1   1640 20.48                             144    0.50 7 96.1 179 
 RUS  HZ I        1640 22.87        18.2 0.28                          96.1 179 
 YOP  SZ EP       1640  7.66                             126   -0.70 9  173 154 
 YOP  SZ I        1640 33.64        17.4 0.26                           173 154 
 ZAR  HZ EP   2   1640 11.60                             120   -0.40 4  210 293 
 ZAR  HE ES   3   1640 36.99                             120   -0.49 2  210 293 
 ZAR  HZ I        1640 45.55        19.5 0.44                           210 293 
 NOR  SZ EP       1640 14.25                             117   -0.60 8  236 236 
 NOR  SN ES   1   1640 42.43                             117   -0.13 6  236 236 
 HEL  HZ EP   2   1640 20.35                             113    0.73 4  275 257 
 HEL  HE ES   3   1640 50.84                             113   -0.20 2  275 257 
 HEL  HZ I        1640 56.73        10.8 0.74                           275 257 
 GUY  SZ EP       1640 23.99                             111    0.92 7  305 236 
 GUY  SZ I        1641  5.16        11.7 0.40                           305 236 
                                                                                
