 2013  825 1025 12.2 L   6.779 -73.178143.0  RSN  8 0.5 1.6LRSN                1
 GAP=133        1.11       3.9     5.5  7.1 -0.4555E+01  0.1266E+02 -0.4089E+01E
 Epicentro: LOS SANTOS - SANTANDER                                             3
 ACTION:UPD 14-01-14 09:06 OP:ep   STATUS:               ID:20130825102512 L   I
 OLDACT:REG 13-08-25 14:23 OP:nd   STATUS:               ID:20130825101959     3
 2013-08-25-1019-59M.COL___270                                                 6
 STAT SP IPHASW D HRMM SECON CODA AMPLIT PERI AZIMU VELO AIN AR TRES W  DIS CAZ7
 BAR2 SZ EP       1025 31.44                             171    0.0410 20.7 181 
 BAR2 SZ ES       1025 46.76                             171    0.3510 20.7 181 
 BAR2 SZ I        1025 47.50         6.5 0.38            167           20.7 181 
 BRR  HZ IP     C 1025 33.29                             153    0.4010 69.3 302 
 BRR  HN ES   2   1025 49.54                             153    0.47 5 69.3 302 
 BRR  HZ I        1026 10.17         6.0 0.36            147           69.3 302 
 PAM  SZ EP       1025 34.19                             149   -0.1310 81.4  40 
 PAM  SN ES       1025 51.01                             149   -0.6110 81.4  40 
 PAM  SZ I        1025 53.59         4.2 0.50            156           81.4  40 
 RUS  HZ EP       1025 35.62                             144    0.1310 98.6 174 
 RUS  HN ES       1025 54.11                             144    0.4210 98.6 174 
 RUS  HZ I        1025 55.24         2.7 0.36            152           98.6 174 
 PTB  HZ EP       1025 38.51                             132   -0.03 9  144 259 
 PTB  HN ES       1025 59.28                             132    0.16 9  144 259 
 PTB  HZ I        1026  6.80         5.4 0.44            132            144 259 
 SPBC HZ EP       1025 40.32                             129    0.26 9  159 219 
 SPBC HN ES       1026  0.51                             129   -1.31 9  159 219 
 SPBC HZ I        1026  3.77         4.5 0.16            133            159 219 
 SML  HZ EP       1025 48.31                             117   -0.39 8  244 336 
 SML  HN ES       1026 17.43                             117    0.23 8  244 336 
 SML  HZ I        1026 20.58         8.1 0.09            120            244 336 
 PRA  HZ EP       1026  5.62                             106    0.48 6  388 209 
 PRA  HN ES   2   1026 46.13                             106   -0.33 3  388 209 
 PRA  HZ I        1026 52.08         1.3 0.40            111            388 209 
                                                                                
