 2012 1025 1541  7.1 L   6.787 -73.133146.9  RSN  8 0.4 2.1LRSN                1
 GAP=139        0.80       3.9     5.1  6.3  0.6700E+00  0.1176E+02  0.5993E+01E
 Epicentro: LOS SANTOS - SANTANDER                                             3
 XNEAR  100.0 XFAR  800.0 SDEP 100.0                                           3
 ACTION:UP  12-11-22 17:05 OP:ep   STATUS:               ID:20121025154107 L   I
 2012-10-25-1540-00M.COL___234                                                 6
 STAT SP IPHASW D HRMM SECON CODA AMPLIT PERI AZIMU VELO AIN AR TRES W  DIS CAZ7
 BAR2 SZ EP       1541 26.76                             171   -0.0510 22.2 194 
 BAR2 SZ ES   1   1541 42.26                             171    0.06 7 22.2 194 
 BAR2 SZ I        1541 43.53        34.2 0.33                          22.2 194 
 BRR  HZ EP       1541 28.64                             152    0.2010 73.2 299 
 BRR  HN ES   1   1541 45.84                             152    0.72 7 73.2 299 
 BRR  HZ I        1541 50.61        24.7 0.23                          73.2 299 
 PAM  SZ EP       1541 29.55                             151    0.1410 77.6  38 
 PAM  SE ES       1541 46.67                             151   -0.1710 77.6  38 
 PAM  SZ I        1541 49.05        27.4 0.13                          77.6  38 
 RUS  HZ EP   1   1541 30.67                             144   -0.14 7 99.0 177 
 RUS  HN ES   1   1541 48.73                             144   -0.61 7 99.0 177 
 RUS  HZ I        1541 50.54        12.1 0.55                          99.0 177 
 ZAR  HZ EP   1   1541 39.80                             122    0.02 6  206 292 
 ZAR  HE ES   1   1542  4.46                             122   -0.83 6  206 292 
 ZAR  HZ I        1542 11.18        19.6 0.32                           206 292 
 CHI  HZ EP   1   1541 44.57                             117   -0.14 6  248 196 
 CHI  HN ES   1   1542 14.50                             117    0.42 6  248 196 
 CHI  HZ I        1542 20.13         6.5 0.57                           248 196 
 ROSC BZ EP   1   1541 45.90                             117    0.71 6  252 211 
 HEL  HZ EP   1   1541 46.98                             115   -0.47 6  273 256 
 HEL  HZ I        1542 23.52         6.7 0.38                           273 256 
                                                                                
