 2010  525 1950 44.3 L   6.872 -73.169124.1  RSN  6 0.4 2.1LRSN                1
 GAP=163        0.86       5.0    14.8  7.1 -0.5315E+02  0.3818E+02 -0.1022E+02E
 Epicentro: ZAPATOCA - SANTANDER                                               3
 ACTION:UP  10-08-24 10:06 OP:vdl  STATUS:               ID:20100525195044 L   I
 2010-05-25-1947-37S.COL___108                                                 6
 STAT SP IPHASW D HRMM SECON CODA AMPLIT PERI AZIMU VELO SNR AR TRES W  DIS CAZ7
 BAR2 SZ EP       1951  1.78                             165     0.210   31 183 
 BAR2 SZ ES       1951 14.88                             165    -0.110   31 183 
 GUE  SZ EP       1951  5.82                             136    -0.610  109  14 
 GRA  SZ EP       1951  7.18                             133     0.110  119  20 
 GRA  SZ ES       1951 24.89                             133     0.010  119  20 
 OCA  SZ EP       1951 10.40                             126     0.2 9  152 354 
 OCA  SZ ES   2   1951 31.24                             126     0.8 5  152 354 
 OCA  SZ I        1951 36.42        25.0 0.53                           152 354 
 CHI  HZ EP       1951 21.79                             111     0.1 8  256 194 
 CHI  HZ I        1951 22.21         4.4 0.15                           256 194 
 CHI  HN ES   2   1951 51.19                             111     0.3 4  256 194 
 RREF BN ES   2   1952  4.82                             106    -0.8 3  325 228 
 RREF BZ I        1952  9.33         9.5 1.14                           325 228 
                                                                                
