 2012  725 1342 17.6 L   6.767 -73.156146.4  RSN  8 0.4 2.0LRSN                1
 GAP=182        0.97       5.8     6.4  8.6  0.4802E+01  0.9804E+01 -0.1018E+02E
 Epicentro: LOS SANTOS - SANTANDER                                             3
 ACTION:UPD 12-08-14 11:45 OP:ep   STATUS:               ID:20120725134217 L   I
 2012-07-25-1340-00M.COL___215                                                 6
 STAT SP IPHASW D HRMM SECON CODA AMPLIT PERI AZIMU VELO AIN AR TRES W  DIS CAZ7
 BAR2 SZ EP       1342 37.41                             172     0.210   20 189 
 BAR2 SZ I        1342 37.87        19.1 0.11            171             20 189 
 BAR2 SZ ES   1   1342 52.07                             172    -0.5 7   20 189 
 BRR  HZ EP       1342 39.22                             152     0.310   72 301 
 BRR  HZ I        1342 39.47        30.5 0.18            150             72 301 
 BRR  HN ES   1   1342 56.21                             152     0.8 7   72 301 
 RUS  HZ EP   2   1342 41.58                             145     0.4 5   97 175 
 RUS  HN ES   1   1342 59.31                             145    -0.2 7   97 175 
 RUS  HZ I        1343  1.65         9.3 0.23            148             97 175 
 PTB  HZ EP       1342 44.16                             133    -0.3 9  146 260 
 PTB  HN ES   1   1343  5.12                             133    -0.3 7  146 260 
 PTB  HZ I        1343  8.92         7.7 0.21            132            146 260 
 OCA  HZ EP   1   1342 45.63                             129    -0.7 7  164 354 
 ZAR  HZ EP   1   1342 50.47                             122     0.3 6  204 293 
 ZAR  HE ES   1   1343 15.39                             122    -0.1 6  204 293 
 ZAR  HZ I        1343 22.68        11.4 0.23            123            204 293 
 NOR  SN ES   1   1343 20.36                             119    -0.3 6  232 235 
 CHI  HE ES   2   1343 24.77                             118     0.7 4  245 195 
