 2013  225 1924 18.2 L   6.790 -73.238139.9  RSN  4 0.3 1.2LRSN                1
 GAP=193        0.65       5.5     6.8 13.9  0.1657E+02 -0.1432E+02 -0.4157E+02E
 Epicentro: ZAPATOCA - SANTANDER                                               3
 ACTION:UPD 13-03-12 09:35 OP:ep   STATUS:               ID:20130225192418 L   I
 2013-02-25-1920-00M.COL___228                                                 6
 STAT SP IPHASW D HRMM SECON CODA AMPLIT PERI AZIMU VELO AIN AR TRES W  DIS CAZ7
 BRR  HZ EP   1   1924 38.84                             154    0.62 7 63.0 304 
 RUS  HZ EP   1   1924 41.04                             143   -0.31 7  101 170 
 RUS  HE ES   1   1924 59.42                             143   -0.01 7  101 170 
 RUS  HZ I        1925  2.26         1.7 0.36            146            101 170 
 PTB  HZ EP   1   1924 43.80                             133    0.08 7  137 258 
 PTB  HN ES   1   1925  3.50                             133   -0.16 7  137 258 
 PTB  HZ I        1925  6.93         2.9 0.09            136            137 258 
 SML  HE ES   1   1925 21.84                             116   -0.35 6  241 338 
                                                                                
