 2011 1225 1407 44.9 L   6.784 -73.131143.9  RSN  7 0.4 1.7LRSN                1
 GAP=139        0.81       5.2     5.6  6.6 -0.7490E+01  0.8766E+01  0.6603E+01E
 Epicentro: LOS SANTOS - SANTANDER                                             3
 ACTION:UPD 12-07-13 16:18 OP:ep   STATUS:               ID:20111225140744 L   I
 2011-12-25-1400-00M.COL___187                                                 6
 STAT SP IPHASW D HRMM SECON CODA AMPLIT PERI AZIMU VELO AIN AR TRES W  DIS CAZ7
 BAR2 SZ EP   1   14 8  4.20                             171   -0.08 7 22.0 195 
 BAR2 SZ ES   1   14 8 18.81                             171   -0.58 7 22.0 195 
 BAR2 SZ I        14 8 20.59         9.9 0.25                          22.0 195 
 GIR2 SZ EP   1   14 8  4.17                             166   -0.23 7 33.3 348 
 GIR2 SZ ES   1   14 8 20.09                             166    0.47 7 33.3 348 
 BRR  HZ EP   1   14 8  5.93                             151   -0.05 7 73.5 299 
 BRR  HZ I        14 8  6.18         8.8 0.14                          73.5 299 
 BRR  HE ES   1   14 8 22.95                             151    0.54 7 73.5 299 
 PAM  SZ EP   1   14 8  7.09                             150    0.16 7 77.7  38 
 PAM  SZ I        14 8  7.19        12.7 0.16                          77.7  38 
 PAM  SN ES   1   14 8 23.87                             150   -0.25 7 77.7  38 
 RUS  HZ EP   1   14 8  8.78                             144    0.45 7 98.7 177 
 RUS  HN ES   1   14 8 26.63                             144    0.02 7 98.7 177 
 RUS  HZ I        14 8 28.45         5.6 0.27                          98.7 177 
 PTB  HZ EP   1   14 8 11.00                             131   -0.83 7  149 260 
 PTB  HN ES   2   14 8 32.27                             131   -0.57 5  149 260 
 NOR  SZ EP   1   14 8 21.11                             118    0.55 6  235 235 
 NOR  SN ES   1   14 8 48.55                             118    0.18 6  235 235 
                                                                                
