 2012  625 1148 24.6 L   6.683 -73.248139.7  RSN  4 0.3 1.0LRSN                1
 GAP=192        0.62       7.7     5.4  8.0  0.1418E+02  0.1523E+01  0.2416E+02E
 Epicentro: BARICHARA - SANTANDER                                              3
 ACTION:UPD 12-08-06 17:52 OP:ep   STATUS:               ID:20120625114824 L   I
 2012-06-25-1140-00M.COL___199                                                 6
 STAT SP IPHASW D HRMM SECON CODA AMPLIT PERI AZIMU VELO AIN AR TRES W  DIS CAZ7
 BAR2 SZ EP       1148 42.93                             175   -0.3910 12.4 144 
 BAR2 SZ ES   2   1148 57.90                             175   -0.02 5 12.4 144 
 BAR2 SZ I        1148 59.30         5.2 0.24                          12.4 144 
 BRR  HZ EP       1148 44.95                             152   -0.0410 69.5 312 
 BRR  HN ES   1   1149  1.23                             152    0.33 7 69.5 312 
 RUS  HZ EP       1148 47.21                             146    0.2610 89.3 168 
 RUS  HZ I        1148 58.19         1.1 0.36                          89.3 168 
 PTB  HZ EP       1148 50.03                             133    0.1510  135 263 
 PTB  HN ES   1   1149  9.33                             133   -0.27 7  135 263 
 PTB  HZ I        1149 17.95         1.2 0.32                           135 263 
                                                                                
