 2010  125 1738  6.5 L   6.811 -72.915140.0  RSN  5 0.2 1.7LRSN                1
 GAP=237        0.45       6.5    10.2  6.6 -0.1668E+02  0.4805E+01  0.7544E+01E
 Epicentro: SAN ANDRES - SANTANDER                                             3
 ACTION:UP  10-08-24 09:45 OP:vdl  STATUS:               ID:20100125173806 L   I
 2010-01-25-1736-27S.COL___095                                                 6
 STAT SP IPHASW D HRMM SECON CODA AMPLIT PERI AZIMU VELO SNR AR TRES W  DIS CAZ7
 BAR2 SZ EP   1   1738 25.84                             164     0.0 7   38 231 
 BAR2 SZ ES   2   1738 40.71                             164    -0.2 5   38 231 
 GIR2 SZ EP   2   1738 26.04                             162     0.2 5   43 314 
 RUS  BZ EP   1   1738 30.06                             142     0.2 7  103 190 
 RUS  BN ES   2   1738 48.29                             142     0.2 5  103 190 
 RUS  BZ I        1738 49.75         5.1 0.17                           103 190 
 CHI  HZ EP   1   1738 44.51                             115    -0.4 6  258 201 
 CHI  HZ I        1739 17.38         2.9 0.69                           258 201 
 RREF BN ES   2   1739 32.64                             108     0.2 3  342 232 
 RREF BZ I        1739 34.98         4.3 0.76                           342 232 
                                                                                
