 2017  925 1436 29.1 L   6.866 -73.111139.4  RSN  4 0.3 1.6LRSN                1
 GAP=304        0.64       7.2     5.3  5.8 -0.1356E+02  0.1832E+02 -0.7851E+01E
 Epicentro: LOS SANTOS - SANTANDER                                             3
 ACTION:UPD 17-10-05 19:16 OP:rebc STATUS:               ID:20170925143629 L   I
 OLDACT:REG 17-09-25 21:09 OP:osc  STATUS:               ID:20170925142743     3
 2017-09-25-1428-00M.COL___426                                                 6
 STAT SP IPHASW D HRMM SECON CODA AMPLIT PERI AZIMU VELO AIN AR TRES W  DIS CAZ7
 BAR2 EZ EP       1436 48.28                             167    0.0910 31.2 195 
 BAR2 EZ ES       1437  3.03                             167   -0.0310 31.2 195 
 BAR2 EZ I        1437  4.34        10.5 0.20            164           31.2 195 
 RUS  HZ EP       1436 52.99                             140    0.1910  108 178 
 RUS  HE ES       1437 11.17                             140   -0.0910  108 178 
 RUS  HZ I        1437 11.96         4.9 0.34            141            108 178 
 NOR  HZ EP       1437  4.71                             116   -0.59 8  242 234 
 NOR  HN ES       1437 33.34                             116   -0.17 8  242 234 
 NOR  HZ I        1437 39.02         3.2 0.16            117            242 234 
 GUY2CHZ EP       1437 13.47                             110    0.18 7  309 234 
 GUY2CHE ES       1437 48.19                             110    0.46 7  309 234 
 GUY2CHZ I        1437 54.57         1.5 0.23                           309 234 
                                                                                
