 2015  425 1833  3.5 L   6.795 -73.121154.0  RSN  9 0.4 2.1LRSN                1
 GAP=203        1.00       4.8     6.5  6.3  0.1282E+02  0.7279E+01 -0.1994E+01E
 Epicentro: LOS SANTOS - SANTANDER                                             3
 ACTION:UPD 15-06-03 16:57 OP:cam  STATUS:               ID:20150425183303 L   I
 OLDACT:UP  15-04-26 00:56 OP:mh   STATUS:               ID:20150425182749     3
 OLDACT:UP  15-04-26 00:55 OP:mh   STATUS:               ID:20150425182749     3
 OLDACT:REG 15-04-25 22:49 OP:mh   STATUS:               ID:20150425182749     3
 2015-04-25-1827-49M.COL___279                                                 6
 STAT SP IPHASW D HRMM SECON CODA AMPLIT PERI AZIMU VELO AIN AR TRES W  DIS CAZ7
 BAR2 EZ EP       1833 24.34                             171    0.2110 23.5 197 
 BAR2 EZ ES       1833 39.82                             171   -0.4010 23.5 197 
 BAR2 EZ I        1833 47.91        13.3 0.30            174           23.5 197 
 BRR  HZ EP       1833 26.36                             153    0.6710 73.9 298 
 BRR  HN ES       1833 43.40                             153    0.3910 73.9 298 
 BRR  HZ I        1833 49.70        20.3 0.16            152           73.9 298 
 RUS  HZ EP       1833 27.66                             146   -0.3710 99.9 178 
 RUS  HN ES       1833 47.17                             146    0.0110 99.9 178 
 RUS  HZ I        1833 49.73         8.4 0.32            153           99.9 178 
 PTB  HZ EP       1833 30.88                             133   -0.50 9  150 259 
 PTB  HN ES   1   1833 52.18                             133   -0.95 7  150 259 
 PTB  HZ I        1833 54.26        23.4 0.14            136            150 259 
 SPBC HZ EP       1833 33.18                             131    0.41 9  165 220 
 SPBC HN ES   1   1833 55.88                             131    0.28 7  165 220 
 SPBC HZ I        1833 58.47        21.4 0.12            136            165 220 
 ZAR  HZ EP       1833 36.69                             124   -0.08 8  207 292 
 ZAR  HN ES       1834  2.99                             124    0.26 8  207 292 
 ZAR  HZ I        1834  9.03        17.9 0.34            126            207 292 
 SML  HZ EP   1   1833 40.17                             119   -0.60 6  245 335 
 SML  HN ES   1   1834  9.50                             119   -0.35 6  245 335 
 SML  HZ I        1834 15.84        23.2 0.10            121            245 335 
 GUY2CHZ EP       1833 47.94                             114    0.22 7  303 235 
 GUY2CHN ES   4   1834 24.66                             114    2.45 0  303 235 
 GUY2CHZ I        1834 29.14         6.3 0.34                           303 235 
 MON  HZ EP   4   1833 50.88                             110   -2.24 0  356 308 
 MON  HN ES   4   1834 30.36                             110   -1.46 0  356 308 
 MON  HZ I        1834 46.76         3.2 0.34            112            356 308 
                                                                                
