 2012  125 1436 43.3 L   6.772 -73.134139.9  RSN  6 0.5 1.4LRSN                1
 GAP=139        1.41       8.7    11.0 12.3 -0.5316E+01  0.2639E+02  0.2708E+01E
 Epicentro: LOS SANTOS - SANTANDER                                             3
 ACTION:UP  12-02-03 08:20 OP:REBC STATUS:               ID:20120125143643 L   I
 2012-01-25-1430-00M.COL___187                                                 6
 STAT SP IPHASW D HRMM SECON CODA AMPLIT PERI AZIMU VELO SNR AR TRES W  DIS CAZ7
 BAR2 SZ EP       1437  3.29                             171     1.110   21 195 
 BAR2 SZ ES   1   1437 16.36                             171    -0.5 7   21 195 
 BAR2 SZ I        1437 17.62         6.6 0.30                            21 195 
 GIR2 SZ EP       1437  2.09                             165    -0.310   35 349 
 BRR  HZ EP       1437  4.15                             150     0.110   74 300 
 BRR  HN ES   1   1437 20.60                             150     0.5 7   74 300 
 BRR  HZ I        1437 25.92         7.9 0.16                            74 300 
 PAM  SZ EP       1437  4.95                             149    -0.110   79  37 
 PAM  SN ES   1   1437 21.63                             149    -0.3 7   79  37 
 RUS  HZ EP       1437  6.17                             143    -0.110   97 177 
 RUS  HE ES   1   1437 24.11                             143    -0.1 7   97 177 
 RUS  HZ I        1437 25.36         4.9 0.34                            97 177 
 PTB  HZ EP       1437  9.28                             130    -0.6 9  148 260 
 PTB  HZ I        1437 32.58         2.4 0.20                           148 260 
                                                                                
