 2015 1125 1452 40.6 L   6.842 -73.100153.0  RSN  4 0.2 1.7LRSN                1
 GAP=249        0.58       5.9     5.5  7.9  0.2223E+02 -0.1279E+02 -0.2401E+02E
 Epicentro: LOS SANTOS - SANTANDER                                             3
 ACTION:UPD 15-12-28 16:13 OP:cam  STATUS:               ID:20151125145240 L   I
 OLDACT:UP  15-11-25 23:28 OP:ak   STATUS:               ID:20151125144749     3
 OLDACT:REG 15-11-25 21:02 OP:ak   STATUS:               ID:20151125144749     3
 2015-11-25-1447-49M.COL___209                                                 6
 STAT SP IPHASW D HRMM SECON CODA AMPLIT PERI AZIMU VELO AIN AR TRES W  DIS CAZ7
 RUS  HZ EP   1   1453  5.39                             144    0.00 7  105 179 
 RUS  HE ES       1453 24.72                             144    0.0010  105 179 
 RUS  HZ I        1453 25.93         7.6 0.30            143            105 179 
 PTB  HZ EP       1453  8.53                             132   -0.17 9  154 258 
 PTB  HE ES       1453 30.20                             132   -0.42 9  154 258 
 PTB  HZ I        1453 30.83         5.7 0.24            132            154 258 
 SPBC HZ EP       1453 10.35                             129    0.04 9  170 219 
 SPBC HN ES       1453 33.74                             129    0.27 9  170 219 
 SPBC HZ I        1453 36.91         7.4 0.36            129            170 219 
 ZAR  HZ EP   2   1453 13.78                             123   -0.07 4  207 290 
 ZAR  HE ES       1453 40.13                             123    0.36 9  207 290 
 ZAR  HZ I        1453 41.87         4.1 0.14            124            207 290 
                                                                                
