 2015  725 1303 59.8 L   6.820 -73.095150.0  RSN  5 0.4 2.0LRSN                1
 GAP=142        1.00       5.9     7.4  9.3  0.2016E+02 -0.6300E+00 -0.2734E+02E
 Epicentro: LOS SANTOS - SANTANDER                                             3
 ACTION:UPD 15-09-08 21:50 OP:cam  STATUS:               ID:20150725130359 L   I
 OLDACT:REG 15-07-25 20:32 OP:stll STATUS:               ID:20150725125748     3
 2015-07-25-1257-48M.COL___340                                                 6
 STAT SP IPHASW D HRMM SECON CODA AMPLIT PERI AZIMU VELO AIN AR TRES W  DIS CAZ7
 BAR2 EZ EP       13 4 20.39                             169    0.3510 27.0 201 
 BAR2 EZ ES       13 4 35.88                             169    0.0810 27.0 201 
 BAR2 EZ I        13 4 38.08        20.2 0.34            169           27.0 201 
 PAM  EZ EP       13 4 22.19                             153   -0.0110 72.2  37 
 PAM  EZ I        13 4 23.03        25.3 0.24            155           72.2  37 
 RUS  HZ EP       13 4 23.36                             144   -0.7710  103 179 
 RUS  HN ES       13 4 43.26                             144    0.1710  103 179 
 RUS  HZ I        13 4 44.08         9.5 0.34            149            103 179 
 ZAR  HZ EP       13 4 33.64                             123    0.65 8  208 291 
 ZAR  HN ES       13 4 58.57                             123   -0.30 8  208 291 
 ZAR  HZ I        13 5  7.41         7.7 0.52            123            208 291 
 SML  HZ EP       13 4 37.01                             118    0.28 8  244 334 
 SML  HN ES       13 5  5.12                             118   -0.40 8  244 334 
 SML  HZ I        13 5 11.95         9.0 0.10            119            244 334 
                                                                                
