 2017  825 1956 40.3 L   6.782 -73.176143.3  RSN  4 0.1 1.4LRSN                1
 GAP=134        0.34       1.8     2.9  2.9 -0.4204E+00 -0.1600E+01  0.5685E+00E
 Epicentro: LOS SANTOS - SANTANDER                                             3
 ACTION:UPD 17-09-04 20:24 OP:rebc STATUS:               ID:20170825195640 L   I
 OLDACT:REG 17-08-25 20:41 OP:edw  STATUS:               ID:20170825194002     3
 2017-08-25-1948-00M.COL___408                                                 6
 STAT SP IPHASW D HRMM SECON CODA AMPLIT PERI AZIMU VELO AIN AR TRES W  DIS CAZ7
 BAR2 EZ EP       1956 59.54                             171   -0.0010 21.0 182 
 BAR2 EZ ES       1957 14.57                             171   -0.0110 21.0 182 
 BAR2 EZ I        1957 16.58         4.7 0.42            171           21.0 182 
 BRR  HZ EP   2   1957  0.82                             153   -0.21 5 69.3 301 
 BRR  HN ES       1957 17.26                             153    0.0310 69.3 301 
 PAM  EZ EP       1957  2.33                             149   -0.1010 81.1  40 
 PAM  EN ES       1957 19.79                             149    0.0610 81.1  40 
 PAM  EZ I        1957 21.62         4.4 0.56            150           81.1  40 
 RUS  HZ EP       1957  3.80                             144    0.1610 98.9 174 
 RUS  HN ES       1957 21.80                             144   -0.0810 98.9 174 
 RUS  HZ I        1957 23.35         4.3 0.40            145           98.9 174 
                                                                                
