 2011  425 1919 14.1 L   6.790 -73.096141.8  RSN 12 0.4 2.4LRSN                1
 GAP=143        0.93       4.3     5.3  6.1 -0.1065E+02  0.4973E+01  0.2080E+01E
 Epicentro: LOS SANTOS - SANTANDER                                             3
 ACTION:UP  11-06-22 15:33 OP:REBC STATUS:               ID:20110425191914 L   I
 2011-04-25-1917-49S.COL___132                                                 6
 STAT SP IPHASW D HRMM SECON CODA AMPLIT PERI AZIMU VELO SNR AR TRES W  DIS CAZ7
 BTL  SZ EP       1919 33.30                             170     0.010   24 307 
 BAR2 SZ EP   1   1919 33.22                             170    -0.1 7   24 204 
 BAR2 SZ ES   1   1919 47.61                             170    -0.6 7   24 204 
 BAR2 SZ I        1919 49.28        60.6 0.25                            24 204 
 PAM  SZ EP       1919 36.15                             151     0.410   75  36 
 PAM  SN ES   1   1919 52.66                             151     0.0 7   75  36 
 BRR  HZ EP       1919 35.01                             150    -0.110   77 297 
 BRR  HN ES       1919 51.93                             150     0.410   77 297 
 BRR  HZ I        1919 56.20        58.3 0.16                            77 297 
 RUS  HZ EP   1   1919 36.91                             143    -0.5 7   99 179 
 RUS  HN ES   1   1919 55.97                             143     0.5 7   99 179 
 RUS  HZ I        1919 57.71        32.2 0.45                            99 179 
 BRI  SZ EP   1   1919 37.80                             141     0.2 7  108  18 
 BRI  SZ I        1919 58.38        30.5 0.43                           108  18 
 GRA  SZ EP       1919 39.07                             136     0.110  125  15 
 GRA  SZ ES   1   1919 57.96                             136    -0.4 7  125  15 
 GRA  SZ I        1920  1.34        38.3 0.36                           125  15 
 OCA  SZ EP   1   1919 41.71                             128    -0.6 7  162 351 
 OCA  SZ I        1920  6.66        34.1 0.12                           162 351 
 NOR  SZ EP   1   1919 49.43                             117    -0.6 6  238 235 
 NOR  SN ES   1   1920 18.21                             117     0.2 6  238 235 
 HEL  HZ EP   1   1919 55.27                             113     0.6 6  277 256 
 HEL  HN ES   1   1920 25.82                             113    -0.5 6  277 256 
 HEL  HZ I        1920 32.37        16.0 0.39                           277 256 
 RREF HZ EP   1   1920  1.43                             110     1.0 5  325 230 
 RREF HZ I        1920 41.62        11.1 0.30                           325 230 
 PRA  HZ EP   1   1920  7.42                             106    -0.3 4  394 210 
 PRA  HE ES   1   1920 49.21                             106    -0.3 4  394 210 
                                                                                
