 2017  825 1230 50.9 L   6.804 -73.113149.5  RSN  4 0.3 1.4LRSN                1
 GAP=241        0.79       6.9    10.2  7.2  0.4260E+02 -0.9078E+01 -0.3185E+01E
 Epicentro: LOS SANTOS - SANTANDER                                             3
 ACTION:UPD 17-09-04 20:24 OP:rebc STATUS:               ID:20170825123050 L   I
 OLDACT:REG 17-08-25 19:55 OP:edw  STATUS:               ID:20170825122743     3
 2017-08-25-1228-00M.COL___408                                                 6
 STAT SP IPHASW D HRMM SECON CODA AMPLIT PERI AZIMU VELO AIN AR TRES W  DIS CAZ7
 BAR2 EZ EP       1231 11.01                             169   -0.0110 24.6 198 
 BAR2 EZ ES       1231 26.18                             169   -0.5210 24.6 198 
 BAR2 EZ I        1231 27.85         7.4 0.52            170           24.6 198 
 BRR  HZ EP       1231 12.72                             152    0.0810 74.2 297 
 BRR  HN ES       1231 29.79                             152    0.2110 74.2 297 
 RUS  HZ EP       1231 14.88                             144   -0.1710  101 178 
 RUS  HN ES       1231 34.35                             144    0.4710  101 178 
 RUS  HZ I        1231 34.65         3.6 0.36            145            101 178 
 NOR  HN ES   2   1231 55.16                             119   -0.35 4  238 235 
                                                                                
