 2010 1025 1636  4.2 L   6.791 -73.085141.1  RSN  9 0.5 2.2LRSN                1
 GAP=165        0.92       5.4    10.8  9.1 -0.2595E+02  0.1146E+02  0.9805E+01E
 Epicentro: LOS SANTOS - SANTANDER                                             3
 ACTION:UP  11-02-18 11:12 OP:tino STATUS:               ID:20101025163604 L   I
 2010-10-25-1634-58S.COL___125                                                 6
 STAT SP IPHASW D HRMM SECON CODA AMPLIT PERI AZIMU VELO SNR AR TRES W  DIS CAZ7
 BAR2 SZ IP     D 1636 23.05                             170    -0.210   25 206 
 BAR2 SZ ES   2   1636 38.09                             170    -0.1 5   25 206 
 BAR2 SZ I        1636 39.40        64.1 0.19                            25 206 
 BRR  HZ EP   1   1636 24.95                             149    -0.3 7   78 297 
 BRR  HE ES   2   1636 41.94                             149     0.3 5   78 297 
 BRR  HZ I        1636 46.47        26.0 0.17                            78 297 
 RUS  HZ EP   1   1636 27.08                             143    -0.3 7   99 180 
 RUS  HZ I        1636 28.13        13.4 0.12                            99 180 
 RUS  HE ES   2   1636 45.81                             143     0.3 5   99 180 
 GUE  SZ EP   1   1636 29.24                             138     0.8 7  116   9 
 GRA  SZ EP   1   1636 28.90                             136     0.0 7  125  14 
 GRA  SZ ES   2   1636 47.71                             136    -0.5 5  125  14 
 GRA  SZ I        1636 51.40        14.2 0.51                           125  14 
 CHI  HZ EP   1   1636 41.19                             116    -0.5 6  249 197 
 CHI  HN ES   2   1637 12.06                             116     1.1 4  249 197 
 CHI  HZ I        1637 18.35         8.9 0.57                           249 197 
 ROSC BZ EP   1   1636 43.25                             115     0.9 6  255 212 
 RREF HZ EP   1   1636 50.88                             109     0.2 5  326 230 
 RREF HN ES   2   1637 25.90                             109    -1.0 3  326 230 
 RREF HZ I        1637 35.53         9.9 0.31                           326 230 
 PRA  HZ EP   1   1636 57.42                             105    -0.4 4  394 210 
 PRA  HN ES   2   1637 39.39                             105    -0.3 3  394 210 
                                                                                
