 2017  725 1505 38.1 L   6.783 -73.155138.8  RSN  7 0.3 1.8LRSN                1
 GAP=136        0.86       4.0     3.9  6.2  0.1281E+01  0.1013E+02  0.2062E+01E
 Epicentro: LOS SANTOS - SANTANDER                                             3
 ACTION:UPD 17-08-30 15:36 OP:rebc STATUS:               ID:20170725150538 L   I
 OLDACT:UP  17-07-25 23:34 OP:dani STATUS:               ID:20170725145737     3
 OLDACT:UP  17-07-25 23:33 OP:dani STATUS:               ID:20170725145737     3
 OLDACT:UP  17-07-25 23:30 OP:dani STATUS:               ID:20170725145737     3
 OLDACT:UP  17-07-25 23:24 OP:dani STATUS:               ID:20170725145737     3
 OLDACT:REG 17-07-25 20:15 OP:ar   STATUS:               ID:20170725145737     3
 2017-07-25-1458-00M.COL___386                                                 6
 STAT SP IPHASW D HRMM SECON CODA AMPLIT PERI AZIMU VELO AIN AR TRES W  DIS CAZ7
 BAR2 EZ EP       15 5 56.74                             171   -0.1110 21.4 188 
 BAR2 EZ ES       15 6 11.34                             171   -0.1310 21.4 188 
 BAR2 EZ I        15 6 12.58        28.0 0.34            171           21.4 188 
 BRR  HZ EP       15 5 58.51                             151    0.0110 71.2 300 
 BRR  HE ES       15 6 14.71                             151    0.3010 71.2 300 
 BRR  HZ I        15 6 16.50        15.5 0.42            150           71.2 300 
 PAM  EN ES       15 6 16.51                             149   -0.0410 79.4  39 
 RUS  HZ EP       15 6  1.09                             143    0.0510 98.8 175 
 RUS  HN ES       15 6 19.12                             143    0.1910 98.8 175 
 RUS  HZ I        15 6 21.20         6.0 0.18            145           98.8 175 
 PTB  HZ EP       15 6  3.64                             131   -0.74 9  146 259 
 PTB  HN ES       15 6 24.44                             131   -0.44 9  146 259 
 PTB  HZ I        15 6 26.98         7.8 0.16            131            146 259 
 ZAR  HZ EP       15 6 10.66                             121    0.59 9  204 293 
 ZAR  HN ES       15 6 35.06                             121    0.05 9  204 293 
 ZAR  HZ I        15 6 42.05         7.8 0.12            121            204 293 
 NOR  HN ES       15 6 41.08                             117    0.45 8  233 235 
                                                                                
