 2011  225 1429 52.9 L   6.819 -73.154141.0  RSN 14 0.4 3.2LRSN                1
 GAP=103        0.77       2.8     4.1  5.5 -0.2260E+01  0.5961E+01 -0.7905E+00E
 Epicentro: LOS SANTOS - SANTANDER                                             3
 ACTION:UP  11-03-28 15:11 OP:jfem STATUS:               ID:20110225142953 L   I
 2011-02-25-1428-27S.COL___139                                                 6
 STAT SP IPHASW D HRMM SECON CODA AMPLIT PERI AZIMU VELO SNR AR TRES W  DIS CAZ7
 BAR2 SZ IP       1430 12.16                             169     0.210   25 187 
 BAR2 SZ ES   1   1430 26.46                             169    -0.4 7   25 187 
 BAR2 SZ I        1430 28.39       438.8 0.25                            25 187 
 RUS  HZ EP       1430 16.13                             142    -0.210  103 176 
 RUS  HN ES   1   1430 34.45                             142    -0.2 7  103 176 
 RUS  HZ I        1430 36.57       187.7 0.30                           103 176 
 GRA  SZ IP       1430 17.99                             136     0.410  124  18 
 GRA  SZ I        1430 19.42       369.6 0.21                           124  18 
 GRA  SZ ES   1   1430 37.31                             136     0.5 7  124  18 
 OCA  SZ IP       1430 20.46                             129    -0.2 9  158 353 
 OCA  SZ ES   1   1430 41.81                             129    -0.4 7  158 353 
 OCA  SZ I        1430 44.75       167.4 0.22                           158 353 
 YOP  SZ IP       1430 23.12                             124     0.3 9  181 153 
 YOP  SN ES   2   1430 46.72                             124     0.5 4  181 153 
 YOP  SZ I        1430 49.64        81.2 0.55                           181 153 
 CHI  HZ EP   2   1430 30.74                             116     0.2 4  250 195 
 CHI  HN ES   3   1431  0.39                             116     0.5 2  250 195 
 CHI  HZ I        1431  7.65        59.3 0.49                           250 195 
 ROSC BN ES   3   1431  0.83                             115     0.3 2  254 211 
 ROSC BZ I        1431 11.93       112.2 0.68                           254 211 
 HEL  HZ EP       1430 32.62                             114    -0.2 8  272 255 
 HEL  HN ES   1   1431  4.31                             114     0.3 6  272 255 
 HEL  HZ I        1431 11.11        89.1 0.31                           272 255 
 VIL  SZ EP   3   1430 36.02                             111    -0.1 2  304 190 
 RREF HZ EP   3   1430 38.97                             110     0.1 2  322 229 
 RREF HN ES   1   1431 14.48                             110    -0.3 5  322 229 
 RREF HZ I        1431 21.35        77.4 0.29                           322 229 
 DBB  SZ IP       1430 40.17                             108     0.1 7  338 274 
 TOL  SZ EP   2   1430 41.50                             108     0.4 3  344 224 
 SDV  BZ EP       1430 41.94                             107    -0.7 6  360  51 
 SJA  SZ EP   2   1430 46.55                             105    -0.9 3  402 193 
 SJA  SZ I        1431 35.62        95.3 0.28                           402 193 
                                                                                
