 2012  325 1218 49.2 L   6.152 -73.898 96.8  RSN  5 0.3 1.5LRSN                1
 GAP=131        0.67       3.8     3.7 10.5 -0.3696E+01  0.1415E+02 -0.9613E+01E
 ACTION:UP  12-03-31 23:22 OP:EP   STATUS:               ID:20120325121849 L   I
 2012-03-25-1215-38M.COL___172                                                 6
 STAT SP IPHASW D HRMM SECON CODA AMPLIT PERI AZIMU VELO SNR AR TRES W  DIS CAZ7
 BAR2 SZ EP   1   1219  8.03                             133     0.5 8   93  58 
 BAR2 SZ I        1219 22.62         7.2 0.16                            93  58 
 RUS  HZ EP   1   1219  7.84                             133    -0.1 8   95 108 
 RUS  HE ES   1   1219 22.40                             133    -0.2 8   95 108 
 RUS  HZ I        1219 24.60         2.0 0.31                            95 108 
 BRR  HZ EP       1219  8.60                             128     0.110  108  11 
 BRR  HN ES   1   1219 23.58                             128    -0.1 7  108  11 
 BRR  HZ I        1219 25.12        12.3 0.08                           108  11 
 NOR  SZ EP   1   1219 10.38                             124     0.0 7  126 239 
 NOR  SN ES   1   1219 27.11                             124     0.1 7  126 239 
 ZAR  HZ EP   1   1219 16.09                             114    -0.4 7  182 324 
 ZAR  HZ I        1219 39.62         6.6 0.08                           182 324 
                                                                                
